[
  {
    "postal": "M2J9J6",
    "result": []
  },
  {
    "postal": "M2J9Z5",
    "result": []
  },
  {
    "postal": "M2J7H8",
    "result": []
  },
  {
    "postal": "M2J0P6",
    "result": []
  },
  {
    "postal": "M2J0S7",
    "result": []
  },
  {
    "postal": "M2J8B9",
    "result": []
  },
  {
    "postal": "M2J2A6",
    "result": [
      {
        "electoralDistricts": [
          {
            "election": null,
            "id": 21,
            "name": "Don Valley North"
          }
        ],
        "pollDivisionIds": [
          10137686
        ],
        "postalCode": "M2J2A6",
        "streetName": "MAROWYNE",
        "streetDirectionId": null,
        "streetTypeId": "DR",
        "placeName": "NORTH YORK",
        "streetNameDisplayText": "MAROWYNE DR, NORTH YORK"
      }
    ]
  },
  {
    "postal": "M2J7V2",
    "result": []
  },
  {
    "postal": "M2J9P4",
    "result": []
  },
  {
    "postal": "M2J6G0",
    "result": []
  },
  {
    "postal": "M2J2K0",
    "result": []
  },
  {
    "postal": "M2J7N6",
    "result": []
  },
  {
    "postal": "M2J5R3",
    "result": []
  },
  {
    "postal": "M2J7K0",
    "result": []
  },
  {
    "postal": "M2J3R2",
    "result": [
      {
        "electoralDistricts": [
          {
            "election": null,
            "id": 21,
            "name": "Don Valley North"
          }
        ],
        "pollDivisionIds": [
          10137690
        ],
        "postalCode": "M2J3R2",
        "streetName": "PLEASANT VIEW",
        "streetDirectionId": null,
        "streetTypeId": "DR",
        "placeName": "NORTH YORK",
        "streetNameDisplayText": "PLEASANT VIEW DR, NORTH YORK"
      }
    ]
  },
  {
    "postal": "M2J0J1",
    "result": []
  },
  {
    "postal": "M2J0B0",
    "result": []
  },
  {
    "postal": "M2J5Z2",
    "result": []
  },
  {
    "postal": "M2J7P3",
    "result": []
  },
  {
    "postal": "M2J2K3",
    "result": [
      {
        "electoralDistricts": [
          {
            "election": null,
            "id": 21,
            "name": "Don Valley North"
          }
        ],
        "pollDivisionIds": [
          10137680
        ],
        "postalCode": "M2J2K3",
        "streetName": "PRATTLEY",
        "streetDirectionId": null,
        "streetTypeId": "DR",
        "placeName": "NORTH YORK",
        "streetNameDisplayText": "PRATTLEY DR, NORTH YORK"
      }
    ]
  },
  {
    "postal": "M2J7Y6",
    "result": []
  },
  {
    "postal": "M2J1L9",
    "result": [
      {
        "electoralDistricts": [
          {
            "election": null,
            "id": 21,
            "name": "Don Valley North"
          }
        ],
        "pollDivisionIds": [
          10137688,
          10137697
        ],
        "postalCode": "M2J1L9",
        "streetName": "PARKWAY FOREST",
        "streetDirectionId": null,
        "streetTypeId": "DR",
        "placeName": "NORTH YORK",
        "streetNameDisplayText": "PARKWAY FOREST DR, NORTH YORK"
      }
    ]
  },
  {
    "postal": "M2J8T0",
    "result": []
  },
  {
    "postal": "M2J3K8",
    "result": [
      {
        "electoralDistricts": [
          {
            "election": null,
            "id": 21,
            "name": "Don Valley North"
          }
        ],
        "pollDivisionIds": [
          10137690
        ],
        "postalCode": "M2J3K8",
        "streetName": "PATRICK",
        "streetDirectionId": null,
        "streetTypeId": "BLVD",
        "placeName": "NORTH YORK",
        "streetNameDisplayText": "PATRICK BLVD, NORTH YORK"
      }
    ]
  },
  {
    "postal": "M2J5W9",
    "result": []
  },
  {
    "postal": "M2J6T9",
    "result": []
  },
  {
    "postal": "M2J4H1",
    "result": []
  },
  {
    "postal": "M2J7A2",
    "result": []
  },
  {
    "postal": "M2J5G0",
    "result": []
  },
  {
    "postal": "M2J8V5",
    "result": []
  },
  {
    "postal": "M2J2Y8",
    "result": [
      {
        "electoralDistricts": [
          {
            "election": null,
            "id": 21,
            "name": "Don Valley North"
          }
        ],
        "pollDivisionIds": [
          10137676
        ],
        "postalCode": "M2J2Y8",
        "streetName": "TRUDY",
        "streetDirectionId": null,
        "streetTypeId": "RD",
        "placeName": "NORTH YORK",
        "streetNameDisplayText": "TRUDY RD, NORTH YORK"
      }
    ]
  },
  {
    "postal": "M2J2B6",
    "result": [
      {
        "electoralDistricts": [
          {
            "election": null,
            "id": 21,
            "name": "Don Valley North"
          }
        ],
        "pollDivisionIds": [
          10137675
        ],
        "postalCode": "M2J2B6",
        "streetName": "PEACH WILLOW",
        "streetDirectionId": null,
        "streetTypeId": "WAY",
        "placeName": "NORTH YORK",
        "streetNameDisplayText": "PEACH WILLOW WAY, NORTH YORK"
      }
    ]
  },
  {
    "postal": "M2J4W8",
    "result": [
      {
        "electoralDistricts": [
          {
            "election": null,
            "id": 21,
            "name": "Don Valley North"
          }
        ],
        "pollDivisionIds": [
          10137690
        ],
        "postalCode": "M2J4W8",
        "streetName": "CONSUMERS",
        "streetDirectionId": null,
        "streetTypeId": "RD",
        "placeName": "NORTH YORK",
        "streetNameDisplayText": "CONSUMERS RD, NORTH YORK"
      }
    ]
  },
  {
    "postal": "M2J8H7",
    "result": []
  },
  {
    "postal": "M2J5P1",
    "result": []
  },
  {
    "postal": "M2J2B8",
    "result": [
      {
        "electoralDistricts": [
          {
            "election": null,
            "id": 21,
            "name": "Don Valley North"
          }
        ],
        "pollDivisionIds": [
          10137686
        ],
        "postalCode": "M2J2B8",
        "streetName": "KINGLAND",
        "streetDirectionId": null,
        "streetTypeId": "CRES",
        "placeName": "NORTH YORK",
        "streetNameDisplayText": "KINGLAND CRES, NORTH YORK"
      }
    ]
  },
  {
    "postal": "M2J0P2",
    "result": []
  },
  {
    "postal": "M2J9M1",
    "result": []
  },
  {
    "postal": "M2J3G0",
    "result": []
  },
  {
    "postal": "M2J9Z2",
    "result": []
  },
  {
    "postal": "M2J2A0",
    "result": []
  },
  {
    "postal": "M2J6Y0",
    "result": []
  },
  {
    "postal": "M2J2Z8",
    "result": [
      {
        "electoralDistricts": [
          {
            "election": null,
            "id": 21,
            "name": "Don Valley North"
          }
        ],
        "pollDivisionIds": [
          10137681
        ],
        "postalCode": "M2J2Z8",
        "streetName": "WADDINGTON",
        "streetDirectionId": null,
        "streetTypeId": "CRES",
        "placeName": "NORTH YORK",
        "streetNameDisplayText": "WADDINGTON CRES, NORTH YORK"
      }
    ]
  },
  {
    "postal": "M2J7Y3",
    "result": []
  },
  {
    "postal": "M2J6Z5",
    "result": []
  },
  {
    "postal": "M2J6E0",
    "result": []
  },
  {
    "postal": "M2J9B7",
    "result": []
  },
  {
    "postal": "M2J9S5",
    "result": []
  },
  {
    "postal": "M2J3X3",
    "result": [
      {
        "electoralDistricts": [
          {
            "election": null,
            "id": 21,
            "name": "Don Valley North"
          }
        ],
        "pollDivisionIds": [
          10137678
        ],
        "postalCode": "M2J3X3",
        "streetName": "EDMONTON",
        "streetDirectionId": null,
        "streetTypeId": "DR",
        "placeName": "NORTH YORK",
        "streetNameDisplayText": "EDMONTON DR, NORTH YORK"
      }
    ]
  },
  {
    "postal": "M2J7R5",
    "result": []
  },
  {
    "postal": "M2J2X3",
    "result": [
      {
        "electoralDistricts": [
          {
            "election": null,
            "id": 21,
            "name": "Don Valley North"
          }
        ],
        "pollDivisionIds": [
          10137676
        ],
        "postalCode": "M2J2X3",
        "streetName": "FINCH",
        "streetDirectionId": "E",
        "streetTypeId": "AVE",
        "placeName": "NORTH YORK",
        "streetNameDisplayText": "FINCH AVE E, NORTH YORK"
      }
    ]
  },
  {
    "postal": "M2J8Z9",
    "result": []
  },
  {
    "postal": "M2J0N4",
    "result": []
  },
  {
    "postal": "M2J1K1",
    "result": [
      {
        "electoralDistricts": [
          {
            "election": null,
            "id": 21,
            "name": "Don Valley North"
          }
        ],
        "pollDivisionIds": [
          10137704
        ],
        "postalCode": "M2J1K1",
        "streetName": "SHAUGHNESSY",
        "streetDirectionId": null,
        "streetTypeId": "BLVD",
        "placeName": "NORTH YORK",
        "streetNameDisplayText": "SHAUGHNESSY BLVD, NORTH YORK"
      }
    ]
  },
  {
    "postal": "M2J1S3",
    "result": [
      {
        "electoralDistricts": [
          {
            "election": null,
            "id": 21,
            "name": "Don Valley North"
          }
        ],
        "pollDivisionIds": [
          10137690
        ],
        "postalCode": "M2J1S3",
        "streetName": "YORKLAND",
        "streetDirectionId": null,
        "streetTypeId": "BLVD",
        "placeName": "NORTH YORK",
        "streetNameDisplayText": "YORKLAND BLVD, NORTH YORK"
      }
    ]
  },
  {
    "postal": "M2J6M4",
    "result": []
  },
  {
    "postal": "M2J9A9",
    "result": []
  },
  {
    "postal": "M2J9Z9",
    "result": []
  },
  {
    "postal": "M2J6T4",
    "result": []
  },
  {
    "postal": "M2J0B2",
    "result": [
      {
        "electoralDistricts": [
          {
            "election": null,
            "id": 21,
            "name": "Don Valley North"
          }
        ],
        "pollDivisionIds": [
          10137686
        ],
        "postalCode": "M2J0B2",
        "streetName": "BLOORVIEW",
        "streetDirectionId": null,
        "streetTypeId": "PL",
        "placeName": "NORTH YORK",
        "streetNameDisplayText": "BLOORVIEW PL, NORTH YORK"
      }
    ]
  },
  {
    "postal": "M2J2L9",
    "result": [
      {
        "electoralDistricts": [
          {
            "election": null,
            "id": 21,
            "name": "Don Valley North"
          }
        ],
        "pollDivisionIds": [
          10137680
        ],
        "postalCode": "M2J2L9",
        "streetName": "CORNING",
        "streetDirectionId": null,
        "streetTypeId": "RD",
        "placeName": "NORTH YORK",
        "streetNameDisplayText": "CORNING RD, NORTH YORK"
      }
    ]
  },
  {
    "postal": "M2J8K9",
    "result": []
  },
  {
    "postal": "M2J2H9",
    "result": [
      {
        "electoralDistricts": [
          {
            "election": null,
            "id": 21,
            "name": "Don Valley North"
          }
        ],
        "pollDivisionIds": [
          10137680
        ],
        "postalCode": "M2J2H9",
        "streetName": "LESGAY",
        "streetDirectionId": null,
        "streetTypeId": "CRES",
        "placeName": "NORTH YORK",
        "streetNameDisplayText": "LESGAY CRES, NORTH YORK"
      }
    ]
  },
  {
    "postal": "M2J3Z6",
    "result": [
      {
        "electoralDistricts": [
          {
            "election": null,
            "id": 21,
            "name": "Don Valley North"
          }
        ],
        "pollDivisionIds": [
          10137690
        ],
        "postalCode": "M2J3Z6",
        "streetName": "WILKINSON",
        "streetDirectionId": null,
        "streetTypeId": "DR",
        "placeName": "NORTH YORK",
        "streetNameDisplayText": "WILKINSON DR, NORTH YORK"
      }
    ]
  },
  {
    "postal": "M2J3B0",
    "result": []
  },
  {
    "postal": "M2J2H8",
    "result": [
      {
        "electoralDistricts": [
          {
            "election": null,
            "id": 21,
            "name": "Don Valley North"
          }
        ],
        "pollDivisionIds": [
          10137680
        ],
        "postalCode": "M2J2H8",
        "streetName": "LESGAY",
        "streetDirectionId": null,
        "streetTypeId": "CRES",
        "placeName": "NORTH YORK",
        "streetNameDisplayText": "LESGAY CRES, NORTH YORK"
      }
    ]
  },
  {
    "postal": "M2J3X2",
    "result": [
      {
        "electoralDistricts": [
          {
            "election": null,
            "id": 21,
            "name": "Don Valley North"
          }
        ],
        "pollDivisionIds": [
          10137678
        ],
        "postalCode": "M2J3X2",
        "streetName": "EDMONTON",
        "streetDirectionId": null,
        "streetTypeId": "DR",
        "placeName": "NORTH YORK",
        "streetNameDisplayText": "EDMONTON DR, NORTH YORK"
      }
    ]
  },
  {
    "postal": "M2J2E9",
    "result": [
      {
        "electoralDistricts": [
          {
            "election": null,
            "id": 21,
            "name": "Don Valley North"
          }
        ],
        "pollDivisionIds": [
          10137686
        ],
        "postalCode": "M2J2E9",
        "streetName": "GLENTWORTH",
        "streetDirectionId": null,
        "streetTypeId": "RD",
        "placeName": "NORTH YORK",
        "streetNameDisplayText": "GLENTWORTH RD, NORTH YORK"
      }
    ]
  },
  {
    "postal": "M2J9P6",
    "result": []
  },
  {
    "postal": "M2J9E2",
    "result": []
  },
  {
    "postal": "M2J9H2",
    "result": []
  },
  {
    "postal": "M2J1S8",
    "result": []
  },
  {
    "postal": "M2J3M6",
    "result": [
      {
        "electoralDistricts": [
          {
            "election": null,
            "id": 21,
            "name": "Don Valley North"
          }
        ],
        "pollDivisionIds": [
          10137690
        ],
        "postalCode": "M2J3M6",
        "streetName": "PAINSWICK",
        "streetDirectionId": null,
        "streetTypeId": "CRES",
        "placeName": "NORTH YORK",
        "streetNameDisplayText": "PAINSWICK CRES, NORTH YORK"
      }
    ]
  },
  {
    "postal": "M2J6Z8",
    "result": []
  },
  {
    "postal": "M2J4J2",
    "result": [
      {
        "electoralDistricts": [
          {
            "election": null,
            "id": 21,
            "name": "Don Valley North"
          }
        ],
        "pollDivisionIds": [
          10137675
        ],
        "postalCode": "M2J4J2",
        "streetName": "THORNY VINEWAY",
        "streetDirectionId": null,
        "streetTypeId": null,
        "placeName": "NORTH YORK",
        "streetNameDisplayText": "THORNY VINEWAY, NORTH YORK"
      }
    ]
  },
  {
    "postal": "M2J9Y1",
    "result": []
  },
  {
    "postal": "M2J8V6",
    "result": []
  },
  {
    "postal": "M2J6B2",
    "result": []
  },
  {
    "postal": "M2J1P8",
    "result": [
      {
        "electoralDistricts": [
          {
            "election": null,
            "id": 21,
            "name": "Don Valley North"
          }
        ],
        "pollDivisionIds": [
          10137690
        ],
        "postalCode": "M2J1P8",
        "streetName": "CONSUMERS",
        "streetDirectionId": null,
        "streetTypeId": "RD",
        "placeName": "NORTH YORK",
        "streetNameDisplayText": "CONSUMERS RD, NORTH YORK"
      }
    ]
  },
  {
    "postal": "M2J0V8",
    "result": []
  },
  {
    "postal": "M2J4Y0",
    "result": []
  },
  {
    "postal": "M2J2T4",
    "result": [
      {
        "electoralDistricts": [
          {
            "election": null,
            "id": 21,
            "name": "Don Valley North"
          }
        ],
        "pollDivisionIds": [
          10137676
        ],
        "postalCode": "M2J2T4",
        "streetName": "VAN HORNE",
        "streetDirectionId": null,
        "streetTypeId": "AVE",
        "placeName": "NORTH YORK",
        "streetNameDisplayText": "VAN HORNE AVE, NORTH YORK"
      }
    ]
  },
  {
    "postal": "M2J2S3",
    "result": [
      {
        "electoralDistricts": [
          {
            "election": null,
            "id": 21,
            "name": "Don Valley North"
          }
        ],
        "pollDivisionIds": [
          10137675
        ],
        "postalCode": "M2J2S3",
        "streetName": "BATHFORD",
        "streetDirectionId": null,
        "streetTypeId": "CRES",
        "placeName": "NORTH YORK",
        "streetNameDisplayText": "BATHFORD CRES, NORTH YORK"
      }
    ]
  },
  {
    "postal": "M2J0K0",
    "result": []
  },
  {
    "postal": "M2J5N1",
    "result": []
  },
  {
    "postal": "M2J7T0",
    "result": []
  },
  {
    "postal": "M2J9N2",
    "result": []
  },
  {
    "postal": "M2J5L1",
    "result": []
  },
  {
    "postal": "M2J7G5",
    "result": []
  },
  {
    "postal": "M2J6K2",
    "result": []
  },
  {
    "postal": "M2J6P9",
    "result": []
  },
  {
    "postal": "M2J0E6",
    "result": [
      {
        "electoralDistricts": [
          {
            "election": null,
            "id": 21,
            "name": "Don Valley North"
          }
        ],
        "pollDivisionIds": [
          10137681
        ],
        "postalCode": "M2J0E6",
        "streetName": "ALLENBURY",
        "streetDirectionId": null,
        "streetTypeId": "GDNS",
        "placeName": "NORTH YORK",
        "streetNameDisplayText": "ALLENBURY GDNS, NORTH YORK"
      },
      {
        "electoralDistricts": [
          {
            "election": null,
            "id": 21,
            "name": "Don Valley North"
          }
        ],
        "pollDivisionIds": [
          10137681
        ],
        "postalCode": "M2J0E6",
        "streetName": "KINGSLAKE",
        "streetDirectionId": null,
        "streetTypeId": "RD",
        "placeName": "NORTH YORK",
        "streetNameDisplayText": "KINGSLAKE RD, NORTH YORK"
      }
    ]
  },
  {
    "postal": "M2J8R9",
    "result": []
  },
  {
    "postal": "M2J3G9",
    "result": [
      {
        "electoralDistricts": [
          {
            "election": null,
            "id": 21,
            "name": "Don Valley North"
          }
        ],
        "pollDivisionIds": [
          10137677
        ],
        "postalCode": "M2J3G9",
        "streetName": "KINGSLAKE",
        "streetDirectionId": null,
        "streetTypeId": "RD",
        "placeName": "NORTH YORK",
        "streetNameDisplayText": "KINGSLAKE RD, NORTH YORK"
      }
    ]
  },
  {
    "postal": "M2J0V7",
    "result": []
  },
  {
    "postal": "M2J2Z1",
    "result": [
      {
        "electoralDistricts": [
          {
            "election": null,
            "id": 21,
            "name": "Don Valley North"
          }
        ],
        "pollDivisionIds": [
          10137681
        ],
        "postalCode": "M2J2Z1",
        "streetName": "FAIRVIEW MALL",
        "streetDirectionId": null,
        "streetTypeId": "DR",
        "placeName": "NORTH YORK",
        "streetNameDisplayText": "FAIRVIEW MALL DR, NORTH YORK"
      }
    ]
  },
  {
    "postal": "M2J7N1",
    "result": []
  },
  {
    "postal": "M2J3C6",
    "result": [
      {
        "electoralDistricts": [
          {
            "election": null,
            "id": 21,
            "name": "Don Valley North"
          }
        ],
        "pollDivisionIds": [
          10137698
        ],
        "postalCode": "M2J3C6",
        "streetName": "GODSTONE",
        "streetDirectionId": null,
        "streetTypeId": "RD",
        "placeName": "NORTH YORK",
        "streetNameDisplayText": "GODSTONE RD, NORTH YORK"
      }
    ]
  },
  {
    "postal": "M2J4M1",
    "result": [
      {
        "electoralDistricts": [
          {
            "election": null,
            "id": 21,
            "name": "Don Valley North"
          }
        ],
        "pollDivisionIds": [
          10137676
        ],
        "postalCode": "M2J4M1",
        "streetName": "CREST FERN",
        "streetDirectionId": null,
        "streetTypeId": "WAY",
        "placeName": "NORTH YORK",
        "streetNameDisplayText": "CREST FERN WAY, NORTH YORK"
      }
    ]
  },
  {
    "postal": "M2J9K2",
    "result": []
  },
  {
    "postal": "M2J9S6",
    "result": []
  },
  {
    "postal": "M2J4X1",
    "result": [
      {
        "electoralDistricts": [
          {
            "election": null,
            "id": 21,
            "name": "Don Valley North"
          }
        ],
        "pollDivisionIds": [
          10137689
        ],
        "postalCode": "M2J4X1",
        "streetName": "CLEMATIS",
        "streetDirectionId": null,
        "streetTypeId": "RD",
        "placeName": "NORTH YORK",
        "streetNameDisplayText": "CLEMATIS RD, NORTH YORK"
      }
    ]
  },
  {
    "postal": "M2J8W2",
    "result": []
  },
  {
    "postal": "M2J7N2",
    "result": []
  },
  {
    "postal": "M2J8S3",
    "result": []
  },
  {
    "postal": "M2J4V0",
    "result": []
  },
  {
    "postal": "M2J6W4",
    "result": []
  },
  {
    "postal": "M2J5M1",
    "result": []
  },
  {
    "postal": "M2J0S4",
    "result": []
  },
  {
    "postal": "M2J5X6",
    "result": []
  },
  {
    "postal": "M2J8L5",
    "result": []
  },
  {
    "postal": "M2J5M8",
    "result": []
  },
  {
    "postal": "M2J2G3",
    "result": [
      {
        "electoralDistricts": [
          {
            "election": null,
            "id": 21,
            "name": "Don Valley North"
          }
        ],
        "pollDivisionIds": [
          10137686
        ],
        "postalCode": "M2J2G3",
        "streetName": "DALLINGTON",
        "streetDirectionId": null,
        "streetTypeId": "DR",
        "placeName": "NORTH YORK",
        "streetNameDisplayText": "DALLINGTON DR, NORTH YORK"
      }
    ]
  },
  {
    "postal": "M2J8E4",
    "result": []
  },
  {
    "postal": "M2J7S9",
    "result": []
  },
  {
    "postal": "M2J1K3",
    "result": [
      {
        "electoralDistricts": [
          {
            "election": null,
            "id": 21,
            "name": "Don Valley North"
          }
        ],
        "pollDivisionIds": [
          10137686
        ],
        "postalCode": "M2J1K3",
        "streetName": "SHAUGHNESSY",
        "streetDirectionId": null,
        "streetTypeId": "BLVD",
        "placeName": "NORTH YORK",
        "streetNameDisplayText": "SHAUGHNESSY BLVD, NORTH YORK"
      }
    ]
  },
  {
    "postal": "M2J4E1",
    "result": [
      {
        "electoralDistricts": [
          {
            "election": null,
            "id": 21,
            "name": "Don Valley North"
          }
        ],
        "pollDivisionIds": [
          10137682
        ],
        "postalCode": "M2J4E1",
        "streetName": "CLIPPER",
        "streetDirectionId": null,
        "streetTypeId": "RD",
        "placeName": "NORTH YORK",
        "streetNameDisplayText": "CLIPPER RD, NORTH YORK"
      }
    ]
  },
  {
    "postal": "M2J4R2",
    "result": [
      {
        "electoralDistricts": [
          {
            "election": null,
            "id": 21,
            "name": "Don Valley North"
          }
        ],
        "pollDivisionIds": [
          10137690
        ],
        "postalCode": "M2J4R2",
        "streetName": "YORKLAND",
        "streetDirectionId": null,
        "streetTypeId": "BLVD",
        "placeName": "NORTH YORK",
        "streetNameDisplayText": "YORKLAND BLVD, NORTH YORK"
      }
    ]
  },
  {
    "postal": "M2J6T0",
    "result": []
  },
  {
    "postal": "M2J3K5",
    "result": [
      {
        "electoralDistricts": [
          {
            "election": null,
            "id": 21,
            "name": "Don Valley North"
          }
        ],
        "pollDivisionIds": [
          10137677
        ],
        "postalCode": "M2J3K5",
        "streetName": "BARONESS",
        "streetDirectionId": null,
        "streetTypeId": "CRES",
        "placeName": "NORTH YORK",
        "streetNameDisplayText": "BARONESS CRES, NORTH YORK"
      }
    ]
  },
  {
    "postal": "M2J3S3",
    "result": [
      {
        "electoralDistricts": [
          {
            "election": null,
            "id": 21,
            "name": "Don Valley North"
          }
        ],
        "pollDivisionIds": [
          10137678
        ],
        "postalCode": "M2J3S3",
        "streetName": "WARFIELD",
        "streetDirectionId": null,
        "streetTypeId": "DR",
        "placeName": "NORTH YORK",
        "streetNameDisplayText": "WARFIELD DR, NORTH YORK"
      }
    ]
  },
  {
    "postal": "M2J3L4",
    "result": [
      {
        "electoralDistricts": [
          {
            "election": null,
            "id": 21,
            "name": "Don Valley North"
          }
        ],
        "pollDivisionIds": [
          10137690
        ],
        "postalCode": "M2J3L4",
        "streetName": "PINDAR",
        "streetDirectionId": null,
        "streetTypeId": "CRES",
        "placeName": "NORTH YORK",
        "streetNameDisplayText": "PINDAR CRES, NORTH YORK"
      }
    ]
  },
  {
    "postal": "M2J9Y2",
    "result": []
  },
  {
    "postal": "M2J1E0",
    "result": []
  },
  {
    "postal": "M2J9A4",
    "result": []
  },
  {
    "postal": "M2J1L3",
    "result": [
      {
        "electoralDistricts": [
          {
            "election": null,
            "id": 21,
            "name": "Don Valley North"
          }
        ],
        "pollDivisionIds": [
          10137721
        ],
        "postalCode": "M2J1L3",
        "streetName": "PARKWAY FOREST",
        "streetDirectionId": null,
        "streetTypeId": "DR",
        "placeName": "NORTH YORK",
        "streetNameDisplayText": "PARKWAY FOREST DR, NORTH YORK"
      }
    ]
  },
  {
    "postal": "M2J6N1",
    "result": []
  },
  {
    "postal": "M2J6G7",
    "result": []
  },
  {
    "postal": "M2J7W1",
    "result": []
  },
  {
    "postal": "M2J4M6",
    "result": [
      {
        "electoralDistricts": [
          {
            "election": null,
            "id": 21,
            "name": "Don Valley North"
          }
        ],
        "pollDivisionIds": [
          10137676
        ],
        "postalCode": "M2J4M6",
        "streetName": "LOG FERN",
        "streetDirectionId": null,
        "streetTypeId": "WAY",
        "placeName": "NORTH YORK",
        "streetNameDisplayText": "LOG FERN WAY, NORTH YORK"
      }
    ]
  },
  {
    "postal": "M2J1K0",
    "result": []
  },
  {
    "postal": "M2J3E2",
    "result": [
      {
        "electoralDistricts": [
          {
            "election": null,
            "id": 21,
            "name": "Don Valley North"
          }
        ],
        "pollDivisionIds": [
          10137681
        ],
        "postalCode": "M2J3E2",
        "streetName": "KINGSLAKE",
        "streetDirectionId": null,
        "streetTypeId": "RD",
        "placeName": "NORTH YORK",
        "streetNameDisplayText": "KINGSLAKE RD, NORTH YORK"
      }
    ]
  },
  {
    "postal": "M2J5H4",
    "result": [
      {
        "electoralDistricts": [
          {
            "election": null,
            "id": 21,
            "name": "Don Valley North"
          }
        ],
        "pollDivisionIds": [
          10137716,
          10137697
        ],
        "postalCode": "M2J5H4",
        "streetName": "PARKWAY FOREST",
        "streetDirectionId": null,
        "streetTypeId": "DR",
        "placeName": "NORTH YORK",
        "streetNameDisplayText": "PARKWAY FOREST DR, NORTH YORK"
      }
    ]
  },
  {
    "postal": "M2J1K7",
    "result": [
      {
        "electoralDistricts": [
          {
            "election": null,
            "id": 21,
            "name": "Don Valley North"
          }
        ],
        "pollDivisionIds": [
          10137680
        ],
        "postalCode": "M2J1K7",
        "streetName": "SHAUGHNESSY",
        "streetDirectionId": null,
        "streetTypeId": "BLVD",
        "placeName": "NORTH YORK",
        "streetNameDisplayText": "SHAUGHNESSY BLVD, NORTH YORK"
      }
    ]
  },
  {
    "postal": "M2J0H0",
    "result": []
  },
  {
    "postal": "M2J0J3",
    "result": []
  },
  {
    "postal": "M2J1X6",
    "result": [
      {
        "electoralDistricts": [
          {
            "election": null,
            "id": 21,
            "name": "Don Valley North"
          }
        ],
        "pollDivisionIds": [
          10137686
        ],
        "postalCode": "M2J1X6",
        "streetName": "LAURIE SHEPWAY",
        "streetDirectionId": null,
        "streetTypeId": null,
        "placeName": "NORTH YORK",
        "streetNameDisplayText": "LAURIE SHEPWAY, NORTH YORK"
      }
    ]
  },
  {
    "postal": "M2J2Z6",
    "result": [
      {
        "electoralDistricts": [
          {
            "election": null,
            "id": 21,
            "name": "Don Valley North"
          }
        ],
        "pollDivisionIds": [
          10137681
        ],
        "postalCode": "M2J2Z6",
        "streetName": "KEMPSELL",
        "streetDirectionId": null,
        "streetTypeId": "CRES",
        "placeName": "NORTH YORK",
        "streetNameDisplayText": "KEMPSELL CRES, NORTH YORK"
      }
    ]
  },
  {
    "postal": "M2J4R9",
    "result": [
      {
        "electoralDistricts": [
          {
            "election": null,
            "id": 21,
            "name": "Don Valley North"
          }
        ],
        "pollDivisionIds": [
          10137686
        ],
        "postalCode": "M2J4R9",
        "streetName": "TYSON SHEPWAY",
        "streetDirectionId": null,
        "streetTypeId": null,
        "placeName": "NORTH YORK",
        "streetNameDisplayText": "TYSON SHEPWAY, NORTH YORK"
      }
    ]
  },
  {
    "postal": "M2J0W8",
    "result": []
  },
  {
    "postal": "M2J1L4",
    "result": [
      {
        "electoralDistricts": [
          {
            "election": null,
            "id": 21,
            "name": "Don Valley North"
          }
        ],
        "pollDivisionIds": [
          10137660,
          10137723
        ],
        "postalCode": "M2J1L4",
        "streetName": "PARKWAY FOREST",
        "streetDirectionId": null,
        "streetTypeId": "DR",
        "placeName": "NORTH YORK",
        "streetNameDisplayText": "PARKWAY FOREST DR, NORTH YORK"
      }
    ]
  },
  {
    "postal": "M2J0C8",
    "result": []
  },
  {
    "postal": "M2J9X7",
    "result": []
  },
  {
    "postal": "M2J4T1",
    "result": [
      {
        "electoralDistricts": [
          {
            "election": null,
            "id": 21,
            "name": "Don Valley North"
          }
        ],
        "pollDivisionIds": [
          10137681
        ],
        "postalCode": "M2J4T1",
        "streetName": "FAIRVIEW MALL",
        "streetDirectionId": null,
        "streetTypeId": "DR",
        "placeName": "NORTH YORK",
        "streetNameDisplayText": "FAIRVIEW MALL DR, NORTH YORK"
      }
    ]
  },
  {
    "postal": "M2J0M0",
    "result": []
  },
  {
    "postal": "M2J6A2",
    "result": []
  },
  {
    "postal": "M2J9S8",
    "result": []
  },
  {
    "postal": "M2J9T4",
    "result": []
  },
  {
    "postal": "M2J9Y4",
    "result": []
  },
  {
    "postal": "M2J6G5",
    "result": []
  },
  {
    "postal": "M2J6H9",
    "result": []
  },
  {
    "postal": "M2J2P3",
    "result": [
      {
        "electoralDistricts": [
          {
            "election": null,
            "id": 21,
            "name": "Don Valley North"
          }
        ],
        "pollDivisionIds": [
          10137675
        ],
        "postalCode": "M2J2P3",
        "streetName": "ALAMOSA",
        "streetDirectionId": null,
        "streetTypeId": "DR",
        "placeName": "NORTH YORK",
        "streetNameDisplayText": "ALAMOSA DR, NORTH YORK"
      }
    ]
  },
  {
    "postal": "M2J1T6",
    "result": []
  },
  {
    "postal": "M2J4P6",
    "result": [
      {
        "electoralDistricts": [
          {
            "election": null,
            "id": 21,
            "name": "Don Valley North"
          }
        ],
        "pollDivisionIds": [
          10137676
        ],
        "postalCode": "M2J4P6",
        "streetName": "WOOD FERN",
        "streetDirectionId": null,
        "streetTypeId": "WAY",
        "placeName": "NORTH YORK",
        "streetNameDisplayText": "WOOD FERN WAY, NORTH YORK"
      }
    ]
  },
  {
    "postal": "M2J3K1",
    "result": [
      {
        "electoralDistricts": [
          {
            "election": null,
            "id": 21,
            "name": "Don Valley North"
          }
        ],
        "pollDivisionIds": [
          10137677
        ],
        "postalCode": "M2J3K1",
        "streetName": "ASHSTEAD",
        "streetDirectionId": null,
        "streetTypeId": "PL",
        "placeName": "NORTH YORK",
        "streetNameDisplayText": "ASHSTEAD PL, NORTH YORK"
      }
    ]
  },
  {
    "postal": "M2J6X4",
    "result": []
  },
  {
    "postal": "M2J4M8",
    "result": [
      {
        "electoralDistricts": [
          {
            "election": null,
            "id": 21,
            "name": "Don Valley North"
          }
        ],
        "pollDivisionIds": [
          10137676
        ],
        "postalCode": "M2J4M8",
        "streetName": "POND FERN",
        "streetDirectionId": null,
        "streetTypeId": "WAY",
        "placeName": "NORTH YORK",
        "streetNameDisplayText": "POND FERN WAY, NORTH YORK"
      }
    ]
  },
  {
    "postal": "M2J2Y1",
    "result": [
      {
        "electoralDistricts": [
          {
            "election": null,
            "id": 21,
            "name": "Don Valley North"
          }
        ],
        "pollDivisionIds": [
          10137676
        ],
        "postalCode": "M2J2Y1",
        "streetName": "SILAS HILL",
        "streetDirectionId": null,
        "streetTypeId": "DR",
        "placeName": "NORTH YORK",
        "streetNameDisplayText": "SILAS HILL DR, NORTH YORK"
      }
    ]
  },
  {
    "postal": "M2J6M1",
    "result": []
  },
  {
    "postal": "M2J5L8",
    "result": []
  },
  {
    "postal": "M2J3P6",
    "result": [
      {
        "electoralDistricts": [
          {
            "election": null,
            "id": 21,
            "name": "Don Valley North"
          }
        ],
        "pollDivisionIds": [
          10137689
        ],
        "postalCode": "M2J3P6",
        "streetName": "PLEASANT VIEW",
        "streetDirectionId": null,
        "streetTypeId": "DR",
        "placeName": "NORTH YORK",
        "streetNameDisplayText": "PLEASANT VIEW DR, NORTH YORK"
      }
    ]
  },
  {
    "postal": "M2J9A5",
    "result": []
  },
  {
    "postal": "M2J7K1",
    "result": []
  },
  {
    "postal": "M2J3J4",
    "result": [
      {
        "electoralDistricts": [
          {
            "election": null,
            "id": 21,
            "name": "Don Valley North"
          }
        ],
        "pollDivisionIds": [
          10137681
        ],
        "postalCode": "M2J3J4",
        "streetName": "DEERFORD",
        "streetDirectionId": null,
        "streetTypeId": "RD",
        "placeName": "NORTH YORK",
        "streetNameDisplayText": "DEERFORD RD, NORTH YORK"
      }
    ]
  },
  {
    "postal": "M2J5E7",
    "result": []
  },
  {
    "postal": "M2J3A7",
    "result": [
      {
        "electoralDistricts": [
          {
            "election": null,
            "id": 21,
            "name": "Don Valley North"
          }
        ],
        "pollDivisionIds": [
          10137677
        ],
        "postalCode": "M2J3A7",
        "streetName": "MEDACA",
        "streetDirectionId": null,
        "streetTypeId": "ST",
        "placeName": "NORTH YORK",
        "streetNameDisplayText": "MEDACA ST, NORTH YORK"
      }
    ]
  },
  {
    "postal": "M2J1B9",
    "result": [
      {
        "electoralDistricts": [
          {
            "election": null,
            "id": 21,
            "name": "Don Valley North"
          }
        ],
        "pollDivisionIds": [
          10137696
        ],
        "postalCode": "M2J1B9",
        "streetName": "PARFIELD",
        "streetDirectionId": null,
        "streetTypeId": "DR",
        "placeName": "NORTH YORK",
        "streetNameDisplayText": "PARFIELD DR, NORTH YORK"
      }
    ]
  },
  {
    "postal": "M2J9E8",
    "result": []
  },
  {
    "postal": "M2J1C9",
    "result": [
      {
        "electoralDistricts": [
          {
            "election": null,
            "id": 21,
            "name": "Don Valley North"
          }
        ],
        "pollDivisionIds": [
          10137696
        ],
        "postalCode": "M2J1C9",
        "streetName": "RINGWOOD",
        "streetDirectionId": null,
        "streetTypeId": "CRES",
        "placeName": "NORTH YORK",
        "streetNameDisplayText": "RINGWOOD CRES, NORTH YORK"
      }
    ]
  },
  {
    "postal": "M2J3B5",
    "result": [
      {
        "electoralDistricts": [
          {
            "election": null,
            "id": 21,
            "name": "Don Valley North"
          }
        ],
        "pollDivisionIds": [
          10137698
        ],
        "postalCode": "M2J3B5",
        "streetName": "DON MILLS",
        "streetDirectionId": "E",
        "streetTypeId": "RD",
        "placeName": "NORTH YORK",
        "streetNameDisplayText": "DON MILLS RD E, NORTH YORK"
      }
    ]
  },
  {
    "postal": "M2J8R0",
    "result": []
  },
  {
    "postal": "M2J3P2",
    "result": [
      {
        "electoralDistricts": [
          {
            "election": null,
            "id": 21,
            "name": "Don Valley North"
          }
        ],
        "pollDivisionIds": [
          10137689
        ],
        "postalCode": "M2J3P2",
        "streetName": "FLINTWOOD",
        "streetDirectionId": null,
        "streetTypeId": "CRT",
        "placeName": "NORTH YORK",
        "streetNameDisplayText": "FLINTWOOD CRT, NORTH YORK"
      }
    ]
  },
  {
    "postal": "M2J5V4",
    "result": []
  },
  {
    "postal": "M2J4H0",
    "result": []
  },
  {
    "postal": "M2J4S7",
    "result": [
      {
        "electoralDistricts": [
          {
            "election": null,
            "id": 21,
            "name": "Don Valley North"
          }
        ],
        "pollDivisionIds": [
          10137676
        ],
        "postalCode": "M2J4S7",
        "streetName": "SENECA HILL",
        "streetDirectionId": null,
        "streetTypeId": "DR",
        "placeName": "NORTH YORK",
        "streetNameDisplayText": "SENECA HILL DR, NORTH YORK"
      }
    ]
  },
  {
    "postal": "M2J6C2",
    "result": []
  },
  {
    "postal": "M2J8W3",
    "result": []
  },
  {
    "postal": "M2J4M5",
    "result": [
      {
        "electoralDistricts": [
          {
            "election": null,
            "id": 21,
            "name": "Don Valley North"
          }
        ],
        "pollDivisionIds": [
          10137676
        ],
        "postalCode": "M2J4M5",
        "streetName": "LADY FERNWAY",
        "streetDirectionId": null,
        "streetTypeId": null,
        "placeName": "NORTH YORK",
        "streetNameDisplayText": "LADY FERNWAY, NORTH YORK"
      }
    ]
  },
  {
    "postal": "M2J5T1",
    "result": []
  },
  {
    "postal": "M2J3B3",
    "result": [
      {
        "electoralDistricts": [
          {
            "election": null,
            "id": 21,
            "name": "Don Valley North"
          }
        ],
        "pollDivisionIds": [
          10137687
        ],
        "postalCode": "M2J3B3",
        "streetName": "DON MILLS",
        "streetDirectionId": null,
        "streetTypeId": "RD",
        "placeName": "NORTH YORK",
        "streetNameDisplayText": "DON MILLS RD, NORTH YORK"
      }
    ]
  },
  {
    "postal": "M2J6C6",
    "result": []
  },
  {
    "postal": "M2J7N8",
    "result": []
  },
  {
    "postal": "M2J2Y3",
    "result": [
      {
        "electoralDistricts": [
          {
            "election": null,
            "id": 21,
            "name": "Don Valley North"
          }
        ],
        "pollDivisionIds": [
          10137676
        ],
        "postalCode": "M2J2Y3",
        "streetName": "RUSTY CRESTWAY",
        "streetDirectionId": null,
        "streetTypeId": null,
        "placeName": "NORTH YORK",
        "streetNameDisplayText": "RUSTY CRESTWAY, NORTH YORK"
      }
    ]
  },
  {
    "postal": "M2J2R6",
    "result": [
      {
        "electoralDistricts": [
          {
            "election": null,
            "id": 21,
            "name": "Don Valley North"
          }
        ],
        "pollDivisionIds": [
          10137675
        ],
        "postalCode": "M2J2R6",
        "streetName": "GERALDTON",
        "streetDirectionId": null,
        "streetTypeId": "CRES",
        "placeName": "NORTH YORK",
        "streetNameDisplayText": "GERALDTON CRES, NORTH YORK"
      }
    ]
  },
  {
    "postal": "M2J7N3",
    "result": []
  },
  {
    "postal": "M2J8J2",
    "result": []
  },
  {
    "postal": "M2J6A9",
    "result": []
  },
  {
    "postal": "M2J3V2",
    "result": [
      {
        "electoralDistricts": [
          {
            "election": null,
            "id": 21,
            "name": "Don Valley North"
          }
        ],
        "pollDivisionIds": [
          10137678
        ],
        "postalCode": "M2J3V2",
        "streetName": "PINTO",
        "streetDirectionId": null,
        "streetTypeId": "DR",
        "placeName": "NORTH YORK",
        "streetNameDisplayText": "PINTO DR, NORTH YORK"
      }
    ]
  },
  {
    "postal": "M2J2N3",
    "result": [
      {
        "electoralDistricts": [
          {
            "election": null,
            "id": 21,
            "name": "Don Valley North"
          }
        ],
        "pollDivisionIds": [
          10137680
        ],
        "postalCode": "M2J2N3",
        "streetName": "TUMBLEWEED",
        "streetDirectionId": null,
        "streetTypeId": "RD",
        "placeName": "NORTH YORK",
        "streetNameDisplayText": "TUMBLEWEED RD, NORTH YORK"
      }
    ]
  },
  {
    "postal": "M2J1S5",
    "result": [
      {
        "electoralDistricts": [
          {
            "election": null,
            "id": 21,
            "name": "Don Valley North"
          }
        ],
        "pollDivisionIds": [
          10137690
        ],
        "postalCode": "M2J1S5",
        "streetName": "YORKLAND",
        "streetDirectionId": null,
        "streetTypeId": "BLVD",
        "placeName": "NORTH YORK",
        "streetNameDisplayText": "YORKLAND BLVD, NORTH YORK"
      }
    ]
  },
  {
    "postal": "M2J4T7",
    "result": [
      {
        "electoralDistricts": [
          {
            "election": null,
            "id": 21,
            "name": "Don Valley North"
          }
        ],
        "pollDivisionIds": [
          10137678
        ],
        "postalCode": "M2J4T7",
        "streetName": "CHEROKEE",
        "streetDirectionId": null,
        "streetTypeId": "BLVD",
        "placeName": "NORTH YORK",
        "streetNameDisplayText": "CHEROKEE BLVD, NORTH YORK"
      }
    ]
  },
  {
    "postal": "M2J6Y7",
    "result": []
  },
  {
    "postal": "M2J0W7",
    "result": []
  },
  {
    "postal": "M2J2W9",
    "result": [
      {
        "electoralDistricts": [
          {
            "election": null,
            "id": 21,
            "name": "Don Valley North"
          }
        ],
        "pollDivisionIds": [
          10137676
        ],
        "postalCode": "M2J2W9",
        "streetName": "ANGUS",
        "streetDirectionId": null,
        "streetTypeId": "DR",
        "placeName": "NORTH YORK",
        "streetNameDisplayText": "ANGUS DR, NORTH YORK"
      }
    ]
  },
  {
    "postal": "M2J8V0",
    "result": []
  },
  {
    "postal": "M2J0H4",
    "result": []
  },
  {
    "postal": "M2J2T1",
    "result": [
      {
        "electoralDistricts": [
          {
            "election": null,
            "id": 21,
            "name": "Don Valley North"
          }
        ],
        "pollDivisionIds": [
          10137676
        ],
        "postalCode": "M2J2T1",
        "streetName": "VAN HORNE",
        "streetDirectionId": null,
        "streetTypeId": "AVE",
        "placeName": "NORTH YORK",
        "streetNameDisplayText": "VAN HORNE AVE, NORTH YORK"
      }
    ]
  },
  {
    "postal": "M2J1B1",
    "result": [
      {
        "electoralDistricts": [
          {
            "election": null,
            "id": 21,
            "name": "Don Valley North"
          }
        ],
        "pollDivisionIds": [
          10137696
        ],
        "postalCode": "M2J1B1",
        "streetName": "HAVENBROOK",
        "streetDirectionId": null,
        "streetTypeId": "BLVD",
        "placeName": "NORTH YORK",
        "streetNameDisplayText": "HAVENBROOK BLVD, NORTH YORK"
      }
    ]
  },
  {
    "postal": "M2J8B6",
    "result": []
  },
  {
    "postal": "M2J6H1",
    "result": []
  },
  {
    "postal": "M2J8T8",
    "result": []
  },
  {
    "postal": "M2J0T4",
    "result": []
  },
  {
    "postal": "M2J2C4",
    "result": [
      {
        "electoralDistricts": [
          {
            "election": null,
            "id": 21,
            "name": "Don Valley North"
          }
        ],
        "pollDivisionIds": [
          10137687,
          10137688
        ],
        "postalCode": "M2J2C4",
        "streetName": "ESTERBROOKE",
        "streetDirectionId": null,
        "streetTypeId": "AVE",
        "placeName": "NORTH YORK",
        "streetNameDisplayText": "ESTERBROOKE AVE, NORTH YORK"
      }
    ]
  },
  {
    "postal": "M2J8N3",
    "result": []
  },
  {
    "postal": "M2J4L8",
    "result": [
      {
        "electoralDistricts": [
          {
            "election": null,
            "id": 21,
            "name": "Don Valley North"
          }
        ],
        "pollDivisionIds": [
          10137676
        ],
        "postalCode": "M2J4L8",
        "streetName": "FINCH",
        "streetDirectionId": "E",
        "streetTypeId": "AVE",
        "placeName": "NORTH YORK",
        "streetNameDisplayText": "FINCH AVE E, NORTH YORK"
      }
    ]
  },
  {
    "postal": "M2J2B5",
    "result": [
      {
        "electoralDistricts": [
          {
            "election": null,
            "id": 21,
            "name": "Don Valley North"
          }
        ],
        "pollDivisionIds": [
          10137675
        ],
        "postalCode": "M2J2B5",
        "streetName": "PEACH WILLOW",
        "streetDirectionId": null,
        "streetTypeId": "WAY",
        "placeName": "NORTH YORK",
        "streetNameDisplayText": "PEACH WILLOW WAY, NORTH YORK"
      }
    ]
  },
  {
    "postal": "M2J3H1",
    "result": [
      {
        "electoralDistricts": [
          {
            "election": null,
            "id": 21,
            "name": "Don Valley North"
          }
        ],
        "pollDivisionIds": [
          10137677
        ],
        "postalCode": "M2J3H1",
        "streetName": "KINGSLAKE",
        "streetDirectionId": null,
        "streetTypeId": "RD",
        "placeName": "NORTH YORK",
        "streetNameDisplayText": "KINGSLAKE RD, NORTH YORK"
      }
    ]
  },
  {
    "postal": "M2J4Y1",
    "result": [
      {
        "electoralDistricts": [
          {
            "election": null,
            "id": 21,
            "name": "Don Valley North"
          }
        ],
        "pollDivisionIds": [
          10137690
        ],
        "postalCode": "M2J4Y1",
        "streetName": "SHEPPARD",
        "streetDirectionId": "E",
        "streetTypeId": "AVE",
        "placeName": "NORTH YORK",
        "streetNameDisplayText": "SHEPPARD AVE E, NORTH YORK"
      }
    ]
  },
  {
    "postal": "M2J7E2",
    "result": []
  },
  {
    "postal": "M2J2P5",
    "result": [
      {
        "electoralDistricts": [
          {
            "election": null,
            "id": 45,
            "name": "Kingâ€”Vaughan"
          }
        ],
        "pollDivisionIds": [
          10139086
        ],
        "postalCode": "M2J2P5",
        "streetName": "GATEHEAD",
        "streetDirectionId": null,
        "streetTypeId": "RD",
        "placeName": "MAPLE",
        "streetNameDisplayText": "GATEHEAD RD, MAPLE"
      },
      {
        "electoralDistricts": [
          {
            "election": null,
            "id": 21,
            "name": "Don Valley North"
          }
        ],
        "pollDivisionIds": [
          10137675
        ],
        "postalCode": "M2J2P5",
        "streetName": "GATEHEAD",
        "streetDirectionId": null,
        "streetTypeId": "RD",
        "placeName": "NORTH YORK",
        "streetNameDisplayText": "GATEHEAD RD, NORTH YORK"
      }
    ]
  },
  {
    "postal": "M2J8R7",
    "result": []
  },
  {
    "postal": "M2J9P1",
    "result": []
  },
  {
    "postal": "M2J3B8",
    "result": [
      {
        "electoralDistricts": [
          {
            "election": null,
            "id": 21,
            "name": "Don Valley North"
          }
        ],
        "pollDivisionIds": [
          10137688
        ],
        "postalCode": "M2J3B8",
        "streetName": "DON MILLS",
        "streetDirectionId": "W",
        "streetTypeId": "RD",
        "placeName": "NORTH YORK",
        "streetNameDisplayText": "DON MILLS RD W, NORTH YORK"
      }
    ]
  },
  {
    "postal": "M2J3P7",
    "result": [
      {
        "electoralDistricts": [
          {
            "election": null,
            "id": 21,
            "name": "Don Valley North"
          }
        ],
        "pollDivisionIds": [
          10137689
        ],
        "postalCode": "M2J3P7",
        "streetName": "PLEASANT VIEW",
        "streetDirectionId": null,
        "streetTypeId": "DR",
        "placeName": "NORTH YORK",
        "streetNameDisplayText": "PLEASANT VIEW DR, NORTH YORK"
      }
    ]
  },
  {
    "postal": "M2J9B2",
    "result": []
  },
  {
    "postal": "M2J6Z3",
    "result": []
  },
  {
    "postal": "M2J4N5",
    "result": [
      {
        "electoralDistricts": [
          {
            "election": null,
            "id": 21,
            "name": "Don Valley North"
          }
        ],
        "pollDivisionIds": [
          10137676
        ],
        "postalCode": "M2J4N5",
        "streetName": "ROCK FERN",
        "streetDirectionId": null,
        "streetTypeId": "WAY",
        "placeName": "NORTH YORK",
        "streetNameDisplayText": "ROCK FERN WAY, NORTH YORK"
      }
    ]
  },
  {
    "postal": "M2J8T3",
    "result": []
  },
  {
    "postal": "M2J1V2",
    "result": []
  },
  {
    "postal": "M2J1Y0",
    "result": []
  },
  {
    "postal": "M2J3G6",
    "result": [
      {
        "electoralDistricts": [
          {
            "election": null,
            "id": 21,
            "name": "Don Valley North"
          }
        ],
        "pollDivisionIds": [
          10137677
        ],
        "postalCode": "M2J3G6",
        "streetName": "KINGSLAKE",
        "streetDirectionId": null,
        "streetTypeId": "RD",
        "placeName": "NORTH YORK",
        "streetNameDisplayText": "KINGSLAKE RD, NORTH YORK"
      }
    ]
  },
  {
    "postal": "M2J3H7",
    "result": [
      {
        "electoralDistricts": [
          {
            "election": null,
            "id": 21,
            "name": "Don Valley North"
          }
        ],
        "pollDivisionIds": [
          10137681
        ],
        "postalCode": "M2J3H7",
        "streetName": "HOUSTON",
        "streetDirectionId": null,
        "streetTypeId": "CRES",
        "placeName": "NORTH YORK",
        "streetNameDisplayText": "HOUSTON CRES, NORTH YORK"
      }
    ]
  },
  {
    "postal": "M2J7X8",
    "result": []
  },
  {
    "postal": "M2J0C7",
    "result": []
  },
  {
    "postal": "M2J0W9",
    "result": []
  },
  {
    "postal": "M2J8E6",
    "result": []
  },
  {
    "postal": "M2J9Z8",
    "result": []
  },
  {
    "postal": "M2J3P4",
    "result": [
      {
        "electoralDistricts": [
          {
            "election": null,
            "id": 21,
            "name": "Don Valley North"
          }
        ],
        "pollDivisionIds": [
          10137690
        ],
        "postalCode": "M2J3P4",
        "streetName": "KATHROSE",
        "streetDirectionId": null,
        "streetTypeId": "DR",
        "placeName": "NORTH YORK",
        "streetNameDisplayText": "KATHROSE DR, NORTH YORK"
      }
    ]
  },
  {
    "postal": "M2J6L8",
    "result": []
  },
  {
    "postal": "M2J2R4",
    "result": [
      {
        "electoralDistricts": [
          {
            "election": null,
            "id": 21,
            "name": "Don Valley North"
          }
        ],
        "pollDivisionIds": [
          10137675
        ],
        "postalCode": "M2J2R4",
        "streetName": "ALLVIEW",
        "streetDirectionId": null,
        "streetTypeId": "CRES",
        "placeName": "NORTH YORK",
        "streetNameDisplayText": "ALLVIEW CRES, NORTH YORK"
      }
    ]
  },
  {
    "postal": "M2J2W1",
    "result": [
      {
        "electoralDistricts": [
          {
            "election": null,
            "id": 21,
            "name": "Don Valley North"
          }
        ],
        "pollDivisionIds": [
          10137676
        ],
        "postalCode": "M2J2W1",
        "streetName": "SENECA HILL",
        "streetDirectionId": null,
        "streetTypeId": "DR",
        "placeName": "NORTH YORK",
        "streetNameDisplayText": "SENECA HILL DR, NORTH YORK"
      }
    ]
  },
  {
    "postal": "M2J9H8",
    "result": []
  },
  {
    "postal": "M2J8X9",
    "result": []
  },
  {
    "postal": "M2J7H4",
    "result": []
  },
  {
    "postal": "M2J3J1",
    "result": [
      {
        "electoralDistricts": [
          {
            "election": null,
            "id": 21,
            "name": "Don Valley North"
          }
        ],
        "pollDivisionIds": [
          10137681
        ],
        "postalCode": "M2J3J1",
        "streetName": "DEERFORD",
        "streetDirectionId": null,
        "streetTypeId": "RD",
        "placeName": "NORTH YORK",
        "streetNameDisplayText": "DEERFORD RD, NORTH YORK"
      }
    ]
  },
  {
    "postal": "M2J1P4",
    "result": [
      {
        "electoralDistricts": [
          {
            "election": null,
            "id": 21,
            "name": "Don Valley North"
          }
        ],
        "pollDivisionIds": [
          10137697
        ],
        "postalCode": "M2J1P4",
        "streetName": "CORVUS STAR",
        "streetDirectionId": null,
        "streetTypeId": "WAY",
        "placeName": "NORTH YORK",
        "streetNameDisplayText": "CORVUS STAR WAY, NORTH YORK"
      }
    ]
  },
  {
    "postal": "M2J2A3",
    "result": [
      {
        "electoralDistricts": [
          {
            "election": null,
            "id": 21,
            "name": "Don Valley North"
          }
        ],
        "pollDivisionIds": [
          10137686
        ],
        "postalCode": "M2J2A3",
        "streetName": "MAROWYNE",
        "streetDirectionId": null,
        "streetTypeId": "DR",
        "placeName": "NORTH YORK",
        "streetNameDisplayText": "MAROWYNE DR, NORTH YORK"
      }
    ]
  },
  {
    "postal": "M2J0Z1",
    "result": []
  },
  {
    "postal": "M2J1C1",
    "result": [
      {
        "electoralDistricts": [
          {
            "election": null,
            "id": 21,
            "name": "Don Valley North"
          }
        ],
        "pollDivisionIds": [
          10137696
        ],
        "postalCode": "M2J1C1",
        "streetName": "PARFIELD",
        "streetDirectionId": null,
        "streetTypeId": "DR",
        "placeName": "NORTH YORK",
        "streetNameDisplayText": "PARFIELD DR, NORTH YORK"
      }
    ]
  },
  {
    "postal": "M2J0H3",
    "result": []
  },
  {
    "postal": "M2J7B0",
    "result": []
  },
  {
    "postal": "M2J5K2",
    "result": []
  },
  {
    "postal": "M2J1E9",
    "result": [
      {
        "electoralDistricts": [
          {
            "election": null,
            "id": 21,
            "name": "Don Valley North"
          }
        ],
        "pollDivisionIds": [
          10137696
        ],
        "postalCode": "M2J1E9",
        "streetName": "GEORGE HENRY",
        "streetDirectionId": null,
        "streetTypeId": "BLVD",
        "placeName": "NORTH YORK",
        "streetNameDisplayText": "GEORGE HENRY BLVD, NORTH YORK"
      }
    ]
  },
  {
    "postal": "M2J9W7",
    "result": []
  },
  {
    "postal": "M2J5W6",
    "result": []
  },
  {
    "postal": "M2J6S6",
    "result": []
  },
  {
    "postal": "M2J2P8",
    "result": [
      {
        "electoralDistricts": [
          {
            "election": null,
            "id": 21,
            "name": "Don Valley North"
          }
        ],
        "pollDivisionIds": [
          10137675
        ],
        "postalCode": "M2J2P8",
        "streetName": "APPIAN",
        "streetDirectionId": null,
        "streetTypeId": "DR",
        "placeName": "NORTH YORK",
        "streetNameDisplayText": "APPIAN DR, NORTH YORK"
      }
    ]
  },
  {
    "postal": "M2J4P8",
    "result": [
      {
        "electoralDistricts": [
          {
            "election": null,
            "id": 21,
            "name": "Don Valley North"
          }
        ],
        "pollDivisionIds": [
          10137690
        ],
        "postalCode": "M2J4P8",
        "streetName": "LANSING",
        "streetDirectionId": null,
        "streetTypeId": "SQ",
        "placeName": "NORTH YORK",
        "streetNameDisplayText": "LANSING SQ, NORTH YORK"
      }
    ]
  },
  {
    "postal": "M2J0V9",
    "result": []
  },
  {
    "postal": "M2J5Y2",
    "result": []
  },
  {
    "postal": "M2J7Z7",
    "result": []
  },
  {
    "postal": "M2J6Y8",
    "result": []
  },
  {
    "postal": "M2J2G7",
    "result": [
      {
        "electoralDistricts": [
          {
            "election": null,
            "id": 21,
            "name": "Don Valley North"
          }
        ],
        "pollDivisionIds": [
          10137686
        ],
        "postalCode": "M2J2G7",
        "streetName": "LESCON",
        "streetDirectionId": null,
        "streetTypeId": "RD",
        "placeName": "NORTH YORK",
        "streetNameDisplayText": "LESCON RD, NORTH YORK"
      }
    ]
  },
  {
    "postal": "M2J8C1",
    "result": []
  },
  {
    "postal": "M2J5C5",
    "result": []
  },
  {
    "postal": "M2J2X8",
    "result": [
      {
        "electoralDistricts": [
          {
            "election": null,
            "id": 21,
            "name": "Don Valley North"
          }
        ],
        "pollDivisionIds": [
          10137676
        ],
        "postalCode": "M2J2X8",
        "streetName": "SILAS HILL",
        "streetDirectionId": null,
        "streetTypeId": "DR",
        "placeName": "NORTH YORK",
        "streetNameDisplayText": "SILAS HILL DR, NORTH YORK"
      }
    ]
  },
  {
    "postal": "M2J1W5",
    "result": []
  },
  {
    "postal": "M2J7G0",
    "result": []
  },
  {
    "postal": "M2J8J8",
    "result": []
  },
  {
    "postal": "M2J3Y0",
    "result": []
  },
  {
    "postal": "M2J9T7",
    "result": []
  },
  {
    "postal": "M2J5P4",
    "result": []
  },
  {
    "postal": "M2J4B0",
    "result": []
  },
  {
    "postal": "M2J9N8",
    "result": []
  },
  {
    "postal": "M2J4A7",
    "result": [
      {
        "electoralDistricts": [
          {
            "election": null,
            "id": 21,
            "name": "Don Valley North"
          }
        ],
        "pollDivisionIds": [
          10137690
        ],
        "postalCode": "M2J4A7",
        "streetName": "VICTORIA PARK",
        "streetDirectionId": null,
        "streetTypeId": "AVE",
        "placeName": "NORTH YORK",
        "streetNameDisplayText": "VICTORIA PARK AVE, NORTH YORK"
      }
    ]
  },
  {
    "postal": "M2J4H9",
    "result": [
      {
        "electoralDistricts": [
          {
            "election": null,
            "id": 21,
            "name": "Don Valley North"
          }
        ],
        "pollDivisionIds": [
          10137675
        ],
        "postalCode": "M2J4H9",
        "streetName": "ELSA VINE",
        "streetDirectionId": null,
        "streetTypeId": "WAY",
        "placeName": "NORTH YORK",
        "streetNameDisplayText": "ELSA VINE WAY, NORTH YORK"
      }
    ]
  },
  {
    "postal": "M2J6X1",
    "result": []
  },
  {
    "postal": "M2J9Y7",
    "result": []
  },
  {
    "postal": "M2J2Y5",
    "result": [
      {
        "electoralDistricts": [
          {
            "election": null,
            "id": 21,
            "name": "Don Valley North"
          }
        ],
        "pollDivisionIds": [
          10137676
        ],
        "postalCode": "M2J2Y5",
        "streetName": "RUSTY CRESTWAY",
        "streetDirectionId": null,
        "streetTypeId": null,
        "placeName": "NORTH YORK",
        "streetNameDisplayText": "RUSTY CRESTWAY, NORTH YORK"
      }
    ]
  },
  {
    "postal": "M2J8L7",
    "result": []
  },
  {
    "postal": "M2J2A8",
    "result": [
      {
        "electoralDistricts": [
          {
            "election": null,
            "id": 21,
            "name": "Don Valley North"
          }
        ],
        "pollDivisionIds": [
          10137675
        ],
        "postalCode": "M2J2A8",
        "streetName": "BLACK WILLOWAY",
        "streetDirectionId": null,
        "streetTypeId": null,
        "placeName": "NORTH YORK",
        "streetNameDisplayText": "BLACK WILLOWAY, NORTH YORK"
      }
    ]
  },
  {
    "postal": "M2J2K9",
    "result": [
      {
        "electoralDistricts": [
          {
            "election": null,
            "id": 21,
            "name": "Don Valley North"
          }
        ],
        "pollDivisionIds": [
          10137675
        ],
        "postalCode": "M2J2K9",
        "streetName": "LESLIE",
        "streetDirectionId": null,
        "streetTypeId": "ST",
        "placeName": "NORTH YORK",
        "streetNameDisplayText": "LESLIE ST, NORTH YORK"
      }
    ]
  },
  {
    "postal": "M2J3E5",
    "result": [
      {
        "electoralDistricts": [
          {
            "election": null,
            "id": 21,
            "name": "Don Valley North"
          }
        ],
        "pollDivisionIds": [
          10137681
        ],
        "postalCode": "M2J3E5",
        "streetName": "KINGSLAKE",
        "streetDirectionId": null,
        "streetTypeId": "RD",
        "placeName": "NORTH YORK",
        "streetNameDisplayText": "KINGSLAKE RD, NORTH YORK"
      }
    ]
  },
  {
    "postal": "M2J8N6",
    "result": []
  },
  {
    "postal": "M2J8J4",
    "result": []
  },
  {
    "postal": "M2J4R7",
    "result": [
      {
        "electoralDistricts": [
          {
            "election": null,
            "id": 21,
            "name": "Don Valley North"
          }
        ],
        "pollDivisionIds": [
          10137676
        ],
        "postalCode": "M2J4R7",
        "streetName": "CREST FERN",
        "streetDirectionId": null,
        "streetTypeId": "WAY",
        "placeName": "NORTH YORK",
        "streetNameDisplayText": "CREST FERN WAY, NORTH YORK"
      }
    ]
  },
  {
    "postal": "M2J9K1",
    "result": []
  },
  {
    "postal": "M2J8E1",
    "result": []
  },
  {
    "postal": "M2J0R1",
    "result": []
  },
  {
    "postal": "M2J4J3",
    "result": [
      {
        "electoralDistricts": [
          {
            "election": null,
            "id": 21,
            "name": "Don Valley North"
          }
        ],
        "pollDivisionIds": [
          10137675
        ],
        "postalCode": "M2J4J3",
        "streetName": "THORNY VINEWAY",
        "streetDirectionId": null,
        "streetTypeId": null,
        "placeName": "NORTH YORK",
        "streetNameDisplayText": "THORNY VINEWAY, NORTH YORK"
      }
    ]
  },
  {
    "postal": "M2J7E7",
    "result": []
  },
  {
    "postal": "M2J0J0",
    "result": []
  },
  {
    "postal": "M2J7R8",
    "result": []
  },
  {
    "postal": "M2J9X0",
    "result": []
  },
  {
    "postal": "M2J7P6",
    "result": []
  },
  {
    "postal": "M2J0R7",
    "result": []
  },
  {
    "postal": "M2J5W1",
    "result": []
  },
  {
    "postal": "M2J0K4",
    "result": []
  },
  {
    "postal": "M2J7N9",
    "result": []
  },
  {
    "postal": "M2J1N0",
    "result": []
  },
  {
    "postal": "M2J6P3",
    "result": []
  },
  {
    "postal": "M2J5A1",
    "result": []
  },
  {
    "postal": "M2J9M9",
    "result": []
  },
  {
    "postal": "M2J7T6",
    "result": []
  },
  {
    "postal": "M2J3X0",
    "result": []
  },
  {
    "postal": "M2J2T0",
    "result": []
  },
  {
    "postal": "M2J5X9",
    "result": []
  },
  {
    "postal": "M2J2R3",
    "result": [
      {
        "electoralDistricts": [
          {
            "election": null,
            "id": 21,
            "name": "Don Valley North"
          }
        ],
        "pollDivisionIds": [
          10137675
        ],
        "postalCode": "M2J2R3",
        "streetName": "ALLVIEW",
        "streetDirectionId": null,
        "streetTypeId": "CRES",
        "placeName": "NORTH YORK",
        "streetNameDisplayText": "ALLVIEW CRES, NORTH YORK"
      }
    ]
  },
  {
    "postal": "M2J5N2",
    "result": []
  },
  {
    "postal": "M2J4Y7",
    "result": [
      {
        "electoralDistricts": [
          {
            "election": null,
            "id": 21,
            "name": "Don Valley North"
          }
        ],
        "pollDivisionIds": [
          10137690
        ],
        "postalCode": "M2J4Y7",
        "streetName": "YORKLAND",
        "streetDirectionId": null,
        "streetTypeId": "BLVD",
        "placeName": "NORTH YORK",
        "streetNameDisplayText": "YORKLAND BLVD, NORTH YORK"
      }
    ]
  },
  {
    "postal": "M2J7M0",
    "result": []
  },
  {
    "postal": "M2J8P3",
    "result": []
  },
  {
    "postal": "M2J3N3",
    "result": [
      {
        "electoralDistricts": [
          {
            "election": null,
            "id": 21,
            "name": "Don Valley North"
          }
        ],
        "pollDivisionIds": [
          10137690
        ],
        "postalCode": "M2J3N3",
        "streetName": "CLYDESDALE",
        "streetDirectionId": null,
        "streetTypeId": "DR",
        "placeName": "NORTH YORK",
        "streetNameDisplayText": "CLYDESDALE DR, NORTH YORK"
      }
    ]
  },
  {
    "postal": "M2J7S3",
    "result": []
  },
  {
    "postal": "M2J3V9",
    "result": []
  },
  {
    "postal": "M2J9N7",
    "result": []
  },
  {
    "postal": "M2J0G4",
    "result": []
  },
  {
    "postal": "M2J2E2",
    "result": [
      {
        "electoralDistricts": [
          {
            "election": null,
            "id": 21,
            "name": "Don Valley North"
          }
        ],
        "pollDivisionIds": [
          10137686
        ],
        "postalCode": "M2J2E2",
        "streetName": "TRAILSIDE",
        "streetDirectionId": null,
        "streetTypeId": "DR",
        "placeName": "NORTH YORK",
        "streetNameDisplayText": "TRAILSIDE DR, NORTH YORK"
      }
    ]
  },
  {
    "postal": "M2J7W8",
    "result": []
  },
  {
    "postal": "M2J7M5",
    "result": []
  },
  {
    "postal": "M2J5W8",
    "result": []
  },
  {
    "postal": "M2J5E5",
    "result": []
  },
  {
    "postal": "M2J1P9",
    "result": [
      {
        "electoralDistricts": [
          {
            "election": null,
            "id": 21,
            "name": "Don Valley North"
          }
        ],
        "pollDivisionIds": [
          10137690
        ],
        "postalCode": "M2J1P9",
        "streetName": "CONSUMERS",
        "streetDirectionId": null,
        "streetTypeId": "RD",
        "placeName": "NORTH YORK",
        "streetNameDisplayText": "CONSUMERS RD, NORTH YORK"
      }
    ]
  },
  {
    "postal": "M2J8V8",
    "result": []
  },
  {
    "postal": "M2J9G8",
    "result": []
  },
  {
    "postal": "M2J8H9",
    "result": []
  },
  {
    "postal": "M2J1Z1",
    "result": [
      {
        "electoralDistricts": [
          {
            "election": null,
            "id": 21,
            "name": "Don Valley North"
          }
        ],
        "pollDivisionIds": [
          10137687
        ],
        "postalCode": "M2J1Z1",
        "streetName": "LEITH HILL",
        "streetDirectionId": null,
        "streetTypeId": "RD",
        "placeName": "NORTH YORK",
        "streetNameDisplayText": "LEITH HILL RD, NORTH YORK"
      }
    ]
  },
  {
    "postal": "M2J8M3",
    "result": []
  },
  {
    "postal": "M2J5H6",
    "result": []
  },
  {
    "postal": "M2J7W7",
    "result": []
  },
  {
    "postal": "M2J4L0",
    "result": []
  },
  {
    "postal": "M2J2N1",
    "result": [
      {
        "electoralDistricts": [
          {
            "election": null,
            "id": 21,
            "name": "Don Valley North"
          }
        ],
        "pollDivisionIds": [
          10137680
        ],
        "postalCode": "M2J2N1",
        "streetName": "DOLAN",
        "streetDirectionId": null,
        "streetTypeId": "GATE",
        "placeName": "NORTH YORK",
        "streetNameDisplayText": "DOLAN GATE, NORTH YORK"
      }
    ]
  },
  {
    "postal": "M2J2H4",
    "result": [
      {
        "electoralDistricts": [
          {
            "election": null,
            "id": 21,
            "name": "Don Valley North"
          }
        ],
        "pollDivisionIds": [
          10137686
        ],
        "postalCode": "M2J2H4",
        "streetName": "NYMARK",
        "streetDirectionId": null,
        "streetTypeId": "AVE",
        "placeName": "NORTH YORK",
        "streetNameDisplayText": "NYMARK AVE, NORTH YORK"
      }
    ]
  },
  {
    "postal": "M2J5C8",
    "result": [
      {
        "electoralDistricts": [
          {
            "election": null,
            "id": 21,
            "name": "Don Valley North"
          }
        ],
        "pollDivisionIds": [
          10137675
        ],
        "postalCode": "M2J5C8",
        "streetName": "ALAMOSA",
        "streetDirectionId": null,
        "streetTypeId": "DR",
        "placeName": "NORTH YORK",
        "streetNameDisplayText": "ALAMOSA DR, NORTH YORK"
      }
    ]
  },
  {
    "postal": "M2J8B0",
    "result": []
  },
  {
    "postal": "M2J1T4",
    "result": []
  },
  {
    "postal": "M2J7N7",
    "result": []
  },
  {
    "postal": "M2J4L3",
    "result": [
      {
        "electoralDistricts": [
          {
            "election": null,
            "id": 21,
            "name": "Don Valley North"
          }
        ],
        "pollDivisionIds": [
          10137676
        ],
        "postalCode": "M2J4L3",
        "streetName": "BEAD FERNWAY",
        "streetDirectionId": null,
        "streetTypeId": null,
        "placeName": "NORTH YORK",
        "streetNameDisplayText": "BEAD FERNWAY, NORTH YORK"
      }
    ]
  },
  {
    "postal": "M2J2N2",
    "result": [
      {
        "electoralDistricts": [
          {
            "election": null,
            "id": 21,
            "name": "Don Valley North"
          }
        ],
        "pollDivisionIds": [
          10137680
        ],
        "postalCode": "M2J2N2",
        "streetName": "TUMBLEWEED",
        "streetDirectionId": null,
        "streetTypeId": "RD",
        "placeName": "NORTH YORK",
        "streetNameDisplayText": "TUMBLEWEED RD, NORTH YORK"
      }
    ]
  },
  {
    "postal": "M2J4N8",
    "result": [
      {
        "electoralDistricts": [
          {
            "election": null,
            "id": 21,
            "name": "Don Valley North"
          }
        ],
        "pollDivisionIds": [
          10137676
        ],
        "postalCode": "M2J4N8",
        "streetName": "SAND FERN",
        "streetDirectionId": null,
        "streetTypeId": "WAY",
        "placeName": "NORTH YORK",
        "streetNameDisplayText": "SAND FERN WAY, NORTH YORK"
      }
    ]
  },
  {
    "postal": "M2J3M5",
    "result": [
      {
        "electoralDistricts": [
          {
            "election": null,
            "id": 21,
            "name": "Don Valley North"
          }
        ],
        "pollDivisionIds": [
          10137690
        ],
        "postalCode": "M2J3M5",
        "streetName": "PAINSWICK",
        "streetDirectionId": null,
        "streetTypeId": "CRES",
        "placeName": "NORTH YORK",
        "streetNameDisplayText": "PAINSWICK CRES, NORTH YORK"
      }
    ]
  },
  {
    "postal": "M2J6H7",
    "result": []
  },
  {
    "postal": "M2J8Y8",
    "result": []
  },
  {
    "postal": "M2J5R9",
    "result": []
  },
  {
    "postal": "M2J8G3",
    "result": []
  },
  {
    "postal": "M2J4N7",
    "result": [
      {
        "electoralDistricts": [
          {
            "election": null,
            "id": 21,
            "name": "Don Valley North"
          }
        ],
        "pollDivisionIds": [
          10137676
        ],
        "postalCode": "M2J4N7",
        "streetName": "SAND FERN",
        "streetDirectionId": null,
        "streetTypeId": "WAY",
        "placeName": "NORTH YORK",
        "streetNameDisplayText": "SAND FERN WAY, NORTH YORK"
      }
    ]
  },
  {
    "postal": "M2J0B9",
    "result": [
      {
        "electoralDistricts": [
          {
            "election": null,
            "id": 21,
            "name": "Don Valley North"
          }
        ],
        "pollDivisionIds": [
          10137719
        ],
        "postalCode": "M2J0B9",
        "streetName": "FOREST MANOR",
        "streetDirectionId": null,
        "streetTypeId": "RD",
        "placeName": "NORTH YORK",
        "streetNameDisplayText": "FOREST MANOR RD, NORTH YORK"
      }
    ]
  },
  {
    "postal": "M2J9K7",
    "result": []
  },
  {
    "postal": "M2J9K9",
    "result": []
  },
  {
    "postal": "M2J3Z2",
    "result": [
      {
        "electoralDistricts": [
          {
            "election": null,
            "id": 21,
            "name": "Don Valley North"
          }
        ],
        "pollDivisionIds": [
          10137690
        ],
        "postalCode": "M2J3Z2",
        "streetName": "DOUBLETREE",
        "streetDirectionId": null,
        "streetTypeId": "RD",
        "placeName": "NORTH YORK",
        "streetNameDisplayText": "DOUBLETREE RD, NORTH YORK"
      }
    ]
  },
  {
    "postal": "M2J6W7",
    "result": []
  },
  {
    "postal": "M2J0P1",
    "result": []
  },
  {
    "postal": "M2J3A0",
    "result": []
  },
  {
    "postal": "M2J8L9",
    "result": []
  },
  {
    "postal": "M2J6X0",
    "result": []
  },
  {
    "postal": "M2J3E9",
    "result": [
      {
        "electoralDistricts": [
          {
            "election": null,
            "id": 21,
            "name": "Don Valley North"
          }
        ],
        "pollDivisionIds": [
          10137681
        ],
        "postalCode": "M2J3E9",
        "streetName": "KINGSLAKE",
        "streetDirectionId": null,
        "streetTypeId": "RD",
        "placeName": "NORTH YORK",
        "streetNameDisplayText": "KINGSLAKE RD, NORTH YORK"
      }
    ]
  },
  {
    "postal": "M2J0S5",
    "result": []
  },
  {
    "postal": "M2J1A2",
    "result": [
      {
        "electoralDistricts": [
          {
            "election": null,
            "id": 21,
            "name": "Don Valley North"
          }
        ],
        "pollDivisionIds": [
          10137696
        ],
        "postalCode": "M2J1A2",
        "streetName": "MANORPARK",
        "streetDirectionId": null,
        "streetTypeId": "CRT",
        "placeName": "NORTH YORK",
        "streetNameDisplayText": "MANORPARK CRT, NORTH YORK"
      }
    ]
  },
  {
    "postal": "M2J5V8",
    "result": []
  },
  {
    "postal": "M2J8C5",
    "result": []
  },
  {
    "postal": "M2J6N0",
    "result": []
  },
  {
    "postal": "M2J9E6",
    "result": []
  },
  {
    "postal": "M2J5J7",
    "result": []
  },
  {
    "postal": "M2J2R2",
    "result": [
      {
        "electoralDistricts": [
          {
            "election": null,
            "id": 21,
            "name": "Don Valley North"
          }
        ],
        "pollDivisionIds": [
          10137675
        ],
        "postalCode": "M2J2R2",
        "streetName": "ALLENWOOD",
        "streetDirectionId": null,
        "streetTypeId": "CRES",
        "placeName": "NORTH YORK",
        "streetNameDisplayText": "ALLENWOOD CRES, NORTH YORK"
      }
    ]
  },
  {
    "postal": "M2J0P5",
    "result": []
  },
  {
    "postal": "M2J5A7",
    "result": [
      {
        "electoralDistricts": [
          {
            "election": null,
            "id": 21,
            "name": "Don Valley North"
          }
        ],
        "pollDivisionIds": [
          10137681
        ],
        "postalCode": "M2J5A7",
        "streetName": "SHEPPARD",
        "streetDirectionId": "E",
        "streetTypeId": "AVE",
        "placeName": "NORTH YORK",
        "streetNameDisplayText": "SHEPPARD AVE E, NORTH YORK"
      }
    ]
  },
  {
    "postal": "M2J1G1",
    "result": [
      {
        "electoralDistricts": [
          {
            "election": null,
            "id": 21,
            "name": "Don Valley North"
          }
        ],
        "pollDivisionIds": [
          10137696
        ],
        "postalCode": "M2J1G1",
        "streetName": "GEORGE HENRY",
        "streetDirectionId": null,
        "streetTypeId": "BLVD",
        "placeName": "NORTH YORK",
        "streetNameDisplayText": "GEORGE HENRY BLVD, NORTH YORK"
      }
    ]
  },
  {
    "postal": "M2J9R6",
    "result": []
  },
  {
    "postal": "M2J4Z9",
    "result": []
  },
  {
    "postal": "M2J1V5",
    "result": []
  },
  {
    "postal": "M2J9Y5",
    "result": []
  },
  {
    "postal": "M2J1P2",
    "result": [
      {
        "electoralDistricts": [
          {
            "election": null,
            "id": 21,
            "name": "Don Valley North"
          }
        ],
        "pollDivisionIds": [
          10137697
        ],
        "postalCode": "M2J1P2",
        "streetName": "CORVUS STAR",
        "streetDirectionId": null,
        "streetTypeId": "WAY",
        "placeName": "NORTH YORK",
        "streetNameDisplayText": "CORVUS STAR WAY, NORTH YORK"
      }
    ]
  },
  {
    "postal": "M2J5X0",
    "result": []
  },
  {
    "postal": "M2J7B8",
    "result": []
  },
  {
    "postal": "M2J0C6",
    "result": []
  },
  {
    "postal": "M2J6G1",
    "result": []
  },
  {
    "postal": "M2J3K3",
    "result": [
      {
        "electoralDistricts": [
          {
            "election": null,
            "id": 21,
            "name": "Don Valley North"
          }
        ],
        "pollDivisionIds": [
          10137677
        ],
        "postalCode": "M2J3K3",
        "streetName": "AXSMITH",
        "streetDirectionId": null,
        "streetTypeId": "CRES",
        "placeName": "NORTH YORK",
        "streetNameDisplayText": "AXSMITH CRES, NORTH YORK"
      }
    ]
  },
  {
    "postal": "M2J9R0",
    "result": []
  },
  {
    "postal": "M2J4R8",
    "result": [
      {
        "electoralDistricts": [
          {
            "election": null,
            "id": 21,
            "name": "Don Valley North"
          }
        ],
        "pollDivisionIds": [
          10137686
        ],
        "postalCode": "M2J4R8",
        "streetName": "TYSON SHEPWAY",
        "streetDirectionId": null,
        "streetTypeId": null,
        "placeName": "NORTH YORK",
        "streetNameDisplayText": "TYSON SHEPWAY, NORTH YORK"
      }
    ]
  },
  {
    "postal": "M2J5P9",
    "result": []
  },
  {
    "postal": "M2J8N4",
    "result": []
  },
  {
    "postal": "M2J8H4",
    "result": []
  },
  {
    "postal": "M2J4V1",
    "result": [
      {
        "electoralDistricts": [
          {
            "election": null,
            "id": 21,
            "name": "Don Valley North"
          }
        ],
        "pollDivisionIds": [
          10137689
        ],
        "postalCode": "M2J4V1",
        "streetName": "BARDS WALKWAY",
        "streetDirectionId": null,
        "streetTypeId": null,
        "placeName": "NORTH YORK",
        "streetNameDisplayText": "BARDS WALKWAY, NORTH YORK"
      }
    ]
  },
  {
    "postal": "M2J1K5",
    "result": [
      {
        "electoralDistricts": [
          {
            "election": null,
            "id": 21,
            "name": "Don Valley North"
          }
        ],
        "pollDivisionIds": [
          10137680
        ],
        "postalCode": "M2J1K5",
        "streetName": "SHAUGHNESSY",
        "streetDirectionId": null,
        "streetTypeId": "BLVD",
        "placeName": "NORTH YORK",
        "streetNameDisplayText": "SHAUGHNESSY BLVD, NORTH YORK"
      }
    ]
  },
  {
    "postal": "M2J1Z5",
    "result": [
      {
        "electoralDistricts": [
          {
            "election": null,
            "id": 21,
            "name": "Don Valley North"
          }
        ],
        "pollDivisionIds": [
          10137686
        ],
        "postalCode": "M2J1Z5",
        "streetName": "CLOVERCREST",
        "streetDirectionId": null,
        "streetTypeId": "RD",
        "placeName": "NORTH YORK",
        "streetNameDisplayText": "CLOVERCREST RD, NORTH YORK"
      }
    ]
  },
  {
    "postal": "M2J9L9",
    "result": []
  },
  {
    "postal": "M2J5L2",
    "result": []
  },
  {
    "postal": "M2J0M2",
    "result": []
  },
  {
    "postal": "M2J1K8",
    "result": [
      {
        "electoralDistricts": [
          {
            "election": null,
            "id": 21,
            "name": "Don Valley North"
          }
        ],
        "pollDivisionIds": [
          10137697
        ],
        "postalCode": "M2J1K8",
        "streetName": "VILLAGE GREENWAY",
        "streetDirectionId": null,
        "streetTypeId": null,
        "placeName": "NORTH YORK",
        "streetNameDisplayText": "VILLAGE GREENWAY, NORTH YORK"
      }
    ]
  },
  {
    "postal": "M2J3M7",
    "result": [
      {
        "electoralDistricts": [
          {
            "election": null,
            "id": 21,
            "name": "Don Valley North"
          }
        ],
        "pollDivisionIds": [
          10137690
        ],
        "postalCode": "M2J3M7",
        "streetName": "PAINSWICK",
        "streetDirectionId": null,
        "streetTypeId": "CRES",
        "placeName": "NORTH YORK",
        "streetNameDisplayText": "PAINSWICK CRES, NORTH YORK"
      }
    ]
  },
  {
    "postal": "M2J1B2",
    "result": [
      {
        "electoralDistricts": [
          {
            "election": null,
            "id": 21,
            "name": "Don Valley North"
          }
        ],
        "pollDivisionIds": [
          10137696
        ],
        "postalCode": "M2J1B2",
        "streetName": "HAVENBROOK",
        "streetDirectionId": null,
        "streetTypeId": "BLVD",
        "placeName": "NORTH YORK",
        "streetNameDisplayText": "HAVENBROOK BLVD, NORTH YORK"
      }
    ]
  },
  {
    "postal": "M2J0H9",
    "result": []
  },
  {
    "postal": "M2J8M4",
    "result": []
  },
  {
    "postal": "M2J2M5",
    "result": [
      {
        "electoralDistricts": [
          {
            "election": null,
            "id": 21,
            "name": "Don Valley North"
          }
        ],
        "pollDivisionIds": [
          10137675
        ],
        "postalCode": "M2J2M5",
        "streetName": "TANGLE BRIARWAY",
        "streetDirectionId": null,
        "streetTypeId": null,
        "placeName": "NORTH YORK",
        "streetNameDisplayText": "TANGLE BRIARWAY, NORTH YORK"
      }
    ]
  },
  {
    "postal": "M2J0T9",
    "result": []
  },
  {
    "postal": "M2J3P1",
    "result": [
      {
        "electoralDistricts": [
          {
            "election": null,
            "id": 21,
            "name": "Don Valley North"
          }
        ],
        "pollDivisionIds": [
          10137689
        ],
        "postalCode": "M2J3P1",
        "streetName": "FLINTWOOD",
        "streetDirectionId": null,
        "streetTypeId": "CRT",
        "placeName": "NORTH YORK",
        "streetNameDisplayText": "FLINTWOOD CRT, NORTH YORK"
      }
    ]
  },
  {
    "postal": "M2J1R6",
    "result": []
  },
  {
    "postal": "M2J9V5",
    "result": []
  },
  {
    "postal": "M2J9T0",
    "result": []
  },
  {
    "postal": "M2J0A9",
    "result": [
      {
        "electoralDistricts": [
          {
            "election": null,
            "id": 21,
            "name": "Don Valley North"
          }
        ],
        "pollDivisionIds": [
          10137697
        ],
        "postalCode": "M2J0A9",
        "streetName": "FOREST MANOR",
        "streetDirectionId": null,
        "streetTypeId": "RD",
        "placeName": "NORTH YORK",
        "streetNameDisplayText": "FOREST MANOR RD, NORTH YORK"
      }
    ]
  },
  {
    "postal": "M2J1M3",
    "result": [
      {
        "electoralDistricts": [
          {
            "election": null,
            "id": 21,
            "name": "Don Valley North"
          }
        ],
        "pollDivisionIds": [
          10137697
        ],
        "postalCode": "M2J1M3",
        "streetName": "FOREST MANOR",
        "streetDirectionId": null,
        "streetTypeId": "RD",
        "placeName": "NORTH YORK",
        "streetNameDisplayText": "FOREST MANOR RD, NORTH YORK"
      }
    ]
  },
  {
    "postal": "M2J1W8",
    "result": [
      {
        "electoralDistricts": [
          {
            "election": null,
            "id": 21,
            "name": "Don Valley North"
          }
        ],
        "pollDivisionIds": [
          10137690
        ],
        "postalCode": "M2J1W8",
        "streetName": "SHEPPARD",
        "streetDirectionId": "E",
        "streetTypeId": "AVE",
        "placeName": "NORTH YORK",
        "streetNameDisplayText": "SHEPPARD AVE E, NORTH YORK"
      }
    ]
  },
  {
    "postal": "M2J9J1",
    "result": []
  },
  {
    "postal": "M2J8N5",
    "result": []
  },
  {
    "postal": "M2J5X1",
    "result": []
  },
  {
    "postal": "M2J6S2",
    "result": []
  },
  {
    "postal": "M2J2A2",
    "result": [
      {
        "electoralDistricts": [
          {
            "election": null,
            "id": 21,
            "name": "Don Valley North"
          }
        ],
        "pollDivisionIds": [
          10137686
        ],
        "postalCode": "M2J2A2",
        "streetName": "MAROWYNE",
        "streetDirectionId": null,
        "streetTypeId": "DR",
        "placeName": "NORTH YORK",
        "streetNameDisplayText": "MAROWYNE DR, NORTH YORK"
      }
    ]
  },
  {
    "postal": "M2J6A6",
    "result": []
  },
  {
    "postal": "M2J0S3",
    "result": []
  },
  {
    "postal": "M2J3E7",
    "result": [
      {
        "electoralDistricts": [
          {
            "election": null,
            "id": 21,
            "name": "Don Valley North"
          }
        ],
        "pollDivisionIds": [
          10137681
        ],
        "postalCode": "M2J3E7",
        "streetName": "KINGSLAKE",
        "streetDirectionId": null,
        "streetTypeId": "RD",
        "placeName": "NORTH YORK",
        "streetNameDisplayText": "KINGSLAKE RD, NORTH YORK"
      }
    ]
  },
  {
    "postal": "M2J5R7",
    "result": []
  },
  {
    "postal": "M2J3R6",
    "result": [
      {
        "electoralDistricts": [
          {
            "election": null,
            "id": 21,
            "name": "Don Valley North"
          }
        ],
        "pollDivisionIds": [
          10137682
        ],
        "postalCode": "M2J3R6",
        "streetName": "KAMLOOPS",
        "streetDirectionId": null,
        "streetTypeId": "DR",
        "placeName": "NORTH YORK",
        "streetNameDisplayText": "KAMLOOPS DR, NORTH YORK"
      }
    ]
  },
  {
    "postal": "M2J6K4",
    "result": []
  },
  {
    "postal": "M2J2W5",
    "result": [
      {
        "electoralDistricts": [
          {
            "election": null,
            "id": 21,
            "name": "Don Valley North"
          }
        ],
        "pollDivisionIds": [
          10137676
        ],
        "postalCode": "M2J2W5",
        "streetName": "SENECA HILL",
        "streetDirectionId": null,
        "streetTypeId": "DR",
        "placeName": "NORTH YORK",
        "streetNameDisplayText": "SENECA HILL DR, NORTH YORK"
      }
    ]
  },
  {
    "postal": "M2J8W4",
    "result": []
  },
  {
    "postal": "M2J9C2",
    "result": []
  },
  {
    "postal": "M2J2C0",
    "result": []
  },
  {
    "postal": "M2J0E1",
    "result": [
      {
        "electoralDistricts": [
          {
            "election": null,
            "id": 21,
            "name": "Don Valley North"
          }
        ],
        "pollDivisionIds": [
          10137690
        ],
        "postalCode": "M2J0E1",
        "streetName": "ANN O'REILLY",
        "streetDirectionId": null,
        "streetTypeId": "RD",
        "placeName": "NORTH YORK",
        "streetNameDisplayText": "ANN O'REILLY RD, NORTH YORK"
      }
    ]
  },
  {
    "postal": "M2J1K9",
    "result": [
      {
        "electoralDistricts": [
          {
            "election": null,
            "id": 21,
            "name": "Don Valley North"
          }
        ],
        "pollDivisionIds": [
          10137697
        ],
        "postalCode": "M2J1K9",
        "streetName": "VILLAGE GREENWAY",
        "streetDirectionId": null,
        "streetTypeId": null,
        "placeName": "NORTH YORK",
        "streetNameDisplayText": "VILLAGE GREENWAY, NORTH YORK"
      }
    ]
  },
  {
    "postal": "M2J1G7",
    "result": [
      {
        "electoralDistricts": [
          {
            "election": null,
            "id": 21,
            "name": "Don Valley North"
          }
        ],
        "pollDivisionIds": [
          10137696
        ],
        "postalCode": "M2J1G7",
        "streetName": "DENVER",
        "streetDirectionId": null,
        "streetTypeId": "CRES",
        "placeName": "NORTH YORK",
        "streetNameDisplayText": "DENVER CRES, NORTH YORK"
      }
    ]
  },
  {
    "postal": "M2J4E9",
    "result": [
      {
        "electoralDistricts": [
          {
            "election": null,
            "id": 21,
            "name": "Don Valley North"
          }
        ],
        "pollDivisionIds": [
          10137678
        ],
        "postalCode": "M2J4E9",
        "streetName": "SEPIA",
        "streetDirectionId": null,
        "streetTypeId": "DR",
        "placeName": "NORTH YORK",
        "streetNameDisplayText": "SEPIA DR, NORTH YORK"
      }
    ]
  },
  {
    "postal": "M2J9P0",
    "result": []
  },
  {
    "postal": "M2J5H3",
    "result": [
      {
        "electoralDistricts": [
          {
            "election": null,
            "id": 21,
            "name": "Don Valley North"
          }
        ],
        "pollDivisionIds": [
          10137690
        ],
        "postalCode": "M2J5H3",
        "streetName": "VICTORIA PARK",
        "streetDirectionId": null,
        "streetTypeId": "AVE",
        "placeName": "NORTH YORK",
        "streetNameDisplayText": "VICTORIA PARK AVE, NORTH YORK"
      }
    ]
  },
  {
    "postal": "M2J9X6",
    "result": []
  },
  {
    "postal": "M2J5N7",
    "result": []
  },
  {
    "postal": "M2J5A6",
    "result": []
  },
  {
    "postal": "M2J4M0",
    "result": []
  },
  {
    "postal": "M2J3V6",
    "result": [
      {
        "electoralDistricts": [
          {
            "election": null,
            "id": 21,
            "name": "Don Valley North"
          }
        ],
        "pollDivisionIds": [
          10137678
        ],
        "postalCode": "M2J3V6",
        "streetName": "COURVILLE COACHWAY",
        "streetDirectionId": null,
        "streetTypeId": null,
        "placeName": "NORTH YORK",
        "streetNameDisplayText": "COURVILLE COACHWAY, NORTH YORK"
      }
    ]
  },
  {
    "postal": "M2J1L7",
    "result": [
      {
        "electoralDistricts": [
          {
            "election": null,
            "id": 21,
            "name": "Don Valley North"
          }
        ],
        "pollDivisionIds": [
          10137718
        ],
        "postalCode": "M2J1L7",
        "streetName": "PARKWAY FOREST",
        "streetDirectionId": null,
        "streetTypeId": "DR",
        "placeName": "NORTH YORK",
        "streetNameDisplayText": "PARKWAY FOREST DR, NORTH YORK"
      }
    ]
  },
  {
    "postal": "M2J2P9",
    "result": [
      {
        "electoralDistricts": [
          {
            "election": null,
            "id": 21,
            "name": "Don Valley North"
          }
        ],
        "pollDivisionIds": [
          10137675
        ],
        "postalCode": "M2J2P9",
        "streetName": "APPIAN",
        "streetDirectionId": null,
        "streetTypeId": "DR",
        "placeName": "NORTH YORK",
        "streetNameDisplayText": "APPIAN DR, NORTH YORK"
      }
    ]
  },
  {
    "postal": "M2J5T4",
    "result": []
  },
  {
    "postal": "M2J5Z1",
    "result": []
  },
  {
    "postal": "M2J2X0",
    "result": []
  },
  {
    "postal": "M2J6Z2",
    "result": []
  },
  {
    "postal": "M2J0E0",
    "result": []
  },
  {
    "postal": "M2J3Z5",
    "result": [
      {
        "electoralDistricts": [
          {
            "election": null,
            "id": 21,
            "name": "Don Valley North"
          }
        ],
        "pollDivisionIds": [
          10137690
        ],
        "postalCode": "M2J3Z5",
        "streetName": "WILKINSON",
        "streetDirectionId": null,
        "streetTypeId": "DR",
        "placeName": "NORTH YORK",
        "streetNameDisplayText": "WILKINSON DR, NORTH YORK"
      }
    ]
  },
  {
    "postal": "M2J8H3",
    "result": []
  },
  {
    "postal": "M2J7S6",
    "result": []
  },
  {
    "postal": "M2J4C1",
    "result": [
      {
        "electoralDistricts": [
          {
            "election": null,
            "id": 21,
            "name": "Don Valley North"
          }
        ],
        "pollDivisionIds": [
          10137689
        ],
        "postalCode": "M2J4C1",
        "streetName": "MARGARET",
        "streetDirectionId": null,
        "streetTypeId": "AVE",
        "placeName": "NORTH YORK",
        "streetNameDisplayText": "MARGARET AVE, NORTH YORK"
      }
    ]
  },
  {
    "postal": "M2J3K2",
    "result": [
      {
        "electoralDistricts": [
          {
            "election": null,
            "id": 21,
            "name": "Don Valley North"
          }
        ],
        "pollDivisionIds": [
          10137677
        ],
        "postalCode": "M2J3K2",
        "streetName": "AXSMITH",
        "streetDirectionId": null,
        "streetTypeId": "CRES",
        "placeName": "NORTH YORK",
        "streetNameDisplayText": "AXSMITH CRES, NORTH YORK"
      }
    ]
  },
  {
    "postal": "M2J1Y5",
    "result": [
      {
        "electoralDistricts": [
          {
            "election": null,
            "id": 21,
            "name": "Don Valley North"
          }
        ],
        "pollDivisionIds": [
          10137687
        ],
        "postalCode": "M2J1Y5",
        "streetName": "DELVERTON",
        "streetDirectionId": null,
        "streetTypeId": "PL",
        "placeName": "NORTH YORK",
        "streetNameDisplayText": "DELVERTON PL, NORTH YORK"
      }
    ]
  },
  {
    "postal": "M2J6P6",
    "result": []
  },
  {
    "postal": "M2J3N9",
    "result": [
      {
        "electoralDistricts": [
          {
            "election": null,
            "id": 21,
            "name": "Don Valley North"
          }
        ],
        "pollDivisionIds": [
          10137689
        ],
        "postalCode": "M2J3N9",
        "streetName": "ENDSLEIGH",
        "streetDirectionId": null,
        "streetTypeId": "CRES",
        "placeName": "NORTH YORK",
        "streetNameDisplayText": "ENDSLEIGH CRES, NORTH YORK"
      }
    ]
  },
  {
    "postal": "M2J3W2",
    "result": []
  },
  {
    "postal": "M2J6H8",
    "result": []
  },
  {
    "postal": "M2J9T3",
    "result": []
  },
  {
    "postal": "M2J5L9",
    "result": []
  },
  {
    "postal": "M2J7X7",
    "result": []
  },
  {
    "postal": "M2J3J5",
    "result": [
      {
        "electoralDistricts": [
          {
            "election": null,
            "id": 21,
            "name": "Don Valley North"
          }
        ],
        "pollDivisionIds": [
          10137681
        ],
        "postalCode": "M2J3J5",
        "streetName": "HOBART",
        "streetDirectionId": null,
        "streetTypeId": "DR",
        "placeName": "NORTH YORK",
        "streetNameDisplayText": "HOBART DR, NORTH YORK"
      }
    ]
  },
  {
    "postal": "M2J4J5",
    "result": [
      {
        "electoralDistricts": [
          {
            "election": null,
            "id": 21,
            "name": "Don Valley North"
          }
        ],
        "pollDivisionIds": [
          10137675
        ],
        "postalCode": "M2J4J5",
        "streetName": "THORNY VINEWAY",
        "streetDirectionId": null,
        "streetTypeId": null,
        "placeName": "NORTH YORK",
        "streetNameDisplayText": "THORNY VINEWAY, NORTH YORK"
      }
    ]
  },
  {
    "postal": "M2J6J2",
    "result": []
  },
  {
    "postal": "M2J5V6",
    "result": []
  },
  {
    "postal": "M2J3N2",
    "result": [
      {
        "electoralDistricts": [
          {
            "election": null,
            "id": 21,
            "name": "Don Valley North"
          }
        ],
        "pollDivisionIds": [
          10137690
        ],
        "postalCode": "M2J3N2",
        "streetName": "CLYDESDALE",
        "streetDirectionId": null,
        "streetTypeId": "DR",
        "placeName": "NORTH YORK",
        "streetNameDisplayText": "CLYDESDALE DR, NORTH YORK"
      }
    ]
  },
  {
    "postal": "M2J3B1",
    "result": [
      {
        "electoralDistricts": [
          {
            "election": null,
            "id": 21,
            "name": "Don Valley North"
          }
        ],
        "pollDivisionIds": [
          10137677
        ],
        "postalCode": "M2J3B1",
        "streetName": "WHITEHORN",
        "streetDirectionId": null,
        "streetTypeId": "CRES",
        "placeName": "NORTH YORK",
        "streetNameDisplayText": "WHITEHORN CRES, NORTH YORK"
      }
    ]
  },
  {
    "postal": "M2J8B5",
    "result": []
  },
  {
    "postal": "M2J0K1",
    "result": []
  },
  {
    "postal": "M2J7M7",
    "result": []
  },
  {
    "postal": "M2J2M2",
    "result": [
      {
        "electoralDistricts": [
          {
            "election": null,
            "id": 21,
            "name": "Don Valley North"
          }
        ],
        "pollDivisionIds": [
          10137680
        ],
        "postalCode": "M2J2M2",
        "streetName": "WILLOWOOD",
        "streetDirectionId": null,
        "streetTypeId": "CRT",
        "placeName": "NORTH YORK",
        "streetNameDisplayText": "WILLOWOOD CRT, NORTH YORK"
      }
    ]
  },
  {
    "postal": "M2J9N3",
    "result": []
  },
  {
    "postal": "M2J4Y8",
    "result": [
      {
        "electoralDistricts": [
          {
            "election": null,
            "id": 21,
            "name": "Don Valley North"
          }
        ],
        "pollDivisionIds": [
          10137690
        ],
        "postalCode": "M2J4Y8",
        "streetName": "YORKLAND",
        "streetDirectionId": null,
        "streetTypeId": "BLVD",
        "placeName": "NORTH YORK",
        "streetNameDisplayText": "YORKLAND BLVD, NORTH YORK"
      }
    ]
  },
  {
    "postal": "M2J3V7",
    "result": [
      {
        "electoralDistricts": [
          {
            "election": null,
            "id": 21,
            "name": "Don Valley North"
          }
        ],
        "pollDivisionIds": [
          10137678
        ],
        "postalCode": "M2J3V7",
        "streetName": "COURVILLE COACHWAY",
        "streetDirectionId": null,
        "streetTypeId": null,
        "placeName": "NORTH YORK",
        "streetNameDisplayText": "COURVILLE COACHWAY, NORTH YORK"
      }
    ]
  },
  {
    "postal": "M2J8Z1",
    "result": []
  },
  {
    "postal": "M2J7B3",
    "result": []
  },
  {
    "postal": "M2J3A8",
    "result": [
      {
        "electoralDistricts": [
          {
            "election": null,
            "id": 21,
            "name": "Don Valley North"
          }
        ],
        "pollDivisionIds": [
          10137677
        ],
        "postalCode": "M2J3A8",
        "streetName": "TEPEE",
        "streetDirectionId": null,
        "streetTypeId": "CRT",
        "placeName": "NORTH YORK",
        "streetNameDisplayText": "TEPEE CRT, NORTH YORK"
      }
    ]
  },
  {
    "postal": "M2J7V5",
    "result": []
  },
  {
    "postal": "M2J2T2",
    "result": [
      {
        "electoralDistricts": [
          {
            "election": null,
            "id": 21,
            "name": "Don Valley North"
          }
        ],
        "pollDivisionIds": [
          10137680
        ],
        "postalCode": "M2J2T2",
        "streetName": "VAN HORNE",
        "streetDirectionId": null,
        "streetTypeId": "AVE",
        "placeName": "NORTH YORK",
        "streetNameDisplayText": "VAN HORNE AVE, NORTH YORK"
      }
    ]
  },
  {
    "postal": "M2J6L3",
    "result": []
  },
  {
    "postal": "M2J0L2",
    "result": []
  },
  {
    "postal": "M2J5Y8",
    "result": []
  },
  {
    "postal": "M2J0B8",
    "result": [
      {
        "electoralDistricts": [
          {
            "election": null,
            "id": 21,
            "name": "Don Valley North"
          }
        ],
        "pollDivisionIds": [
          10137697,
          10137718
        ],
        "postalCode": "M2J0B8",
        "streetName": "PARKWAY FOREST",
        "streetDirectionId": null,
        "streetTypeId": "DR",
        "placeName": "NORTH YORK",
        "streetNameDisplayText": "PARKWAY FOREST DR, NORTH YORK"
      }
    ]
  },
  {
    "postal": "M2J6R5",
    "result": []
  },
  {
    "postal": "M2J8W6",
    "result": []
  },
  {
    "postal": "M2J8G6",
    "result": []
  },
  {
    "postal": "M2J6X3",
    "result": []
  },
  {
    "postal": "M2J7R7",
    "result": []
  },
  {
    "postal": "M2J4B6",
    "result": [
      {
        "electoralDistricts": [
          {
            "election": null,
            "id": 21,
            "name": "Don Valley North"
          }
        ],
        "pollDivisionIds": [
          10137689
        ],
        "postalCode": "M2J4B6",
        "streetName": "THANE",
        "streetDirectionId": null,
        "streetTypeId": "CRT",
        "placeName": "NORTH YORK",
        "streetNameDisplayText": "THANE CRT, NORTH YORK"
      }
    ]
  },
  {
    "postal": "M2J3P9",
    "result": [
      {
        "electoralDistricts": [
          {
            "election": null,
            "id": 21,
            "name": "Don Valley North"
          }
        ],
        "pollDivisionIds": [
          10137682
        ],
        "postalCode": "M2J3P9",
        "streetName": "PLEASANT VIEW",
        "streetDirectionId": null,
        "streetTypeId": "DR",
        "placeName": "NORTH YORK",
        "streetNameDisplayText": "PLEASANT VIEW DR, NORTH YORK"
      }
    ]
  },
  {
    "postal": "M2J2T3",
    "result": [
      {
        "electoralDistricts": [
          {
            "election": null,
            "id": 21,
            "name": "Don Valley North"
          }
        ],
        "pollDivisionIds": [
          10137680
        ],
        "postalCode": "M2J2T3",
        "streetName": "VAN HORNE",
        "streetDirectionId": null,
        "streetTypeId": "AVE",
        "placeName": "NORTH YORK",
        "streetNameDisplayText": "VAN HORNE AVE, NORTH YORK"
      }
    ]
  },
  {
    "postal": "M2J1M4",
    "result": [
      {
        "electoralDistricts": [
          {
            "election": null,
            "id": 21,
            "name": "Don Valley North"
          }
        ],
        "pollDivisionIds": [
          10137697
        ],
        "postalCode": "M2J1M4",
        "streetName": "FOREST MANOR",
        "streetDirectionId": null,
        "streetTypeId": "RD",
        "placeName": "NORTH YORK",
        "streetNameDisplayText": "FOREST MANOR RD, NORTH YORK"
      }
    ]
  },
  {
    "postal": "M2J0H1",
    "result": []
  },
  {
    "postal": "M2J9W3",
    "result": []
  },
  {
    "postal": "M2J6P1",
    "result": []
  },
  {
    "postal": "M2J7G2",
    "result": []
  },
  {
    "postal": "M2J4J9",
    "result": [
      {
        "electoralDistricts": [
          {
            "election": null,
            "id": 21,
            "name": "Don Valley North"
          }
        ],
        "pollDivisionIds": [
          10137675
        ],
        "postalCode": "M2J4J9",
        "streetName": "CURLY VINEWAY",
        "streetDirectionId": null,
        "streetTypeId": null,
        "placeName": "NORTH YORK",
        "streetNameDisplayText": "CURLY VINEWAY, NORTH YORK"
      }
    ]
  },
  {
    "postal": "M2J9E4",
    "result": []
  },
  {
    "postal": "M2J8H0",
    "result": []
  },
  {
    "postal": "M2J4M7",
    "result": [
      {
        "electoralDistricts": [
          {
            "election": null,
            "id": 21,
            "name": "Don Valley North"
          }
        ],
        "pollDivisionIds": [
          10137676
        ],
        "postalCode": "M2J4M7",
        "streetName": "LOG FERN",
        "streetDirectionId": null,
        "streetTypeId": "WAY",
        "placeName": "NORTH YORK",
        "streetNameDisplayText": "LOG FERN WAY, NORTH YORK"
      }
    ]
  },
  {
    "postal": "M2J2G9",
    "result": [
      {
        "electoralDistricts": [
          {
            "election": null,
            "id": 21,
            "name": "Don Valley North"
          }
        ],
        "pollDivisionIds": [
          10137680
        ],
        "postalCode": "M2J2G9",
        "streetName": "NYMARK",
        "streetDirectionId": null,
        "streetTypeId": "AVE",
        "placeName": "NORTH YORK",
        "streetNameDisplayText": "NYMARK AVE, NORTH YORK"
      }
    ]
  },
  {
    "postal": "M2J8T2",
    "result": []
  },
  {
    "postal": "M2J7G7",
    "result": []
  },
  {
    "postal": "M2J4Z3",
    "result": []
  },
  {
    "postal": "M2J5B3",
    "result": []
  },
  {
    "postal": "M2J1S7",
    "result": []
  },
  {
    "postal": "M2J2N7",
    "result": [
      {
        "electoralDistricts": [
          {
            "election": null,
            "id": 21,
            "name": "Don Valley North"
          }
        ],
        "pollDivisionIds": [
          10137675
        ],
        "postalCode": "M2J2N7",
        "streetName": "ALAMOSA",
        "streetDirectionId": null,
        "streetTypeId": "DR",
        "placeName": "NORTH YORK",
        "streetNameDisplayText": "ALAMOSA DR, NORTH YORK"
      }
    ]
  },
  {
    "postal": "M2J0H8",
    "result": []
  },
  {
    "postal": "M2J7Z4",
    "result": []
  },
  {
    "postal": "M2J7B1",
    "result": []
  },
  {
    "postal": "M2J7P8",
    "result": []
  },
  {
    "postal": "M2J7N0",
    "result": []
  },
  {
    "postal": "M2J3Y5",
    "result": [
      {
        "electoralDistricts": [
          {
            "election": null,
            "id": 21,
            "name": "Don Valley North"
          }
        ],
        "pollDivisionIds": [
          10137690
        ],
        "postalCode": "M2J3Y5",
        "streetName": "BRIAN",
        "streetDirectionId": null,
        "streetTypeId": "DR",
        "placeName": "NORTH YORK",
        "streetNameDisplayText": "BRIAN DR, NORTH YORK"
      }
    ]
  },
  {
    "postal": "M2J6K1",
    "result": []
  },
  {
    "postal": "M2J9X5",
    "result": []
  },
  {
    "postal": "M2J7S5",
    "result": []
  },
  {
    "postal": "M2J0A4",
    "result": [
      {
        "electoralDistricts": [
          {
            "election": null,
            "id": 21,
            "name": "Don Valley North"
          }
        ],
        "pollDivisionIds": [
          10137697
        ],
        "postalCode": "M2J0A4",
        "streetName": "SHEPPARD",
        "streetDirectionId": "E",
        "streetTypeId": "AVE",
        "placeName": "NORTH YORK",
        "streetNameDisplayText": "SHEPPARD AVE E, NORTH YORK"
      }
    ]
  },
  {
    "postal": "M2J4T5",
    "result": []
  },
  {
    "postal": "M2J5K1",
    "result": []
  },
  {
    "postal": "M2J0Z9",
    "result": []
  },
  {
    "postal": "M2J7T2",
    "result": []
  },
  {
    "postal": "M2J1L5",
    "result": []
  },
  {
    "postal": "M2J3N5",
    "result": [
      {
        "electoralDistricts": [
          {
            "election": null,
            "id": 21,
            "name": "Don Valley North"
          }
        ],
        "pollDivisionIds": [
          10137689
        ],
        "postalCode": "M2J3N5",
        "streetName": "IPSWICH",
        "streetDirectionId": null,
        "streetTypeId": "CRES",
        "placeName": "NORTH YORK",
        "streetNameDisplayText": "IPSWICH CRES, NORTH YORK"
      }
    ]
  },
  {
    "postal": "M2J6H4",
    "result": []
  },
  {
    "postal": "M2J5A5",
    "result": []
  },
  {
    "postal": "M2J3R9",
    "result": [
      {
        "electoralDistricts": [
          {
            "election": null,
            "id": 21,
            "name": "Don Valley North"
          }
        ],
        "pollDivisionIds": [
          10137682
        ],
        "postalCode": "M2J3R9",
        "streetName": "SALINGER",
        "streetDirectionId": null,
        "streetTypeId": "CRT",
        "placeName": "NORTH YORK",
        "streetNameDisplayText": "SALINGER CRT, NORTH YORK"
      }
    ]
  },
  {
    "postal": "M2J7L8",
    "result": []
  },
  {
    "postal": "M2J6T6",
    "result": []
  },
  {
    "postal": "M2J7Y7",
    "result": []
  },
  {
    "postal": "M2J3M8",
    "result": [
      {
        "electoralDistricts": [
          {
            "election": null,
            "id": 21,
            "name": "Don Valley North"
          }
        ],
        "pollDivisionIds": [
          10137690
        ],
        "postalCode": "M2J3M8",
        "streetName": "CAIRNSIDE",
        "streetDirectionId": null,
        "streetTypeId": "CRES",
        "placeName": "NORTH YORK",
        "streetNameDisplayText": "CAIRNSIDE CRES, NORTH YORK"
      }
    ]
  },
  {
    "postal": "M2J2E0",
    "result": []
  },
  {
    "postal": "M2J4B5",
    "result": [
      {
        "electoralDistricts": [
          {
            "election": null,
            "id": 21,
            "name": "Don Valley North"
          }
        ],
        "pollDivisionIds": [
          10137689
        ],
        "postalCode": "M2J4B5",
        "streetName": "PONDSVIEW",
        "streetDirectionId": null,
        "streetTypeId": "DR",
        "placeName": "NORTH YORK",
        "streetNameDisplayText": "PONDSVIEW DR, NORTH YORK"
      }
    ]
  },
  {
    "postal": "M2J1J3",
    "result": [
      {
        "electoralDistricts": [
          {
            "election": null,
            "id": 21,
            "name": "Don Valley North"
          }
        ],
        "pollDivisionIds": [
          10137696
        ],
        "postalCode": "M2J1J3",
        "streetName": "SHAUGHNESSY",
        "streetDirectionId": null,
        "streetTypeId": "BLVD",
        "placeName": "NORTH YORK",
        "streetNameDisplayText": "SHAUGHNESSY BLVD, NORTH YORK"
      }
    ]
  },
  {
    "postal": "M2J5S6",
    "result": []
  },
  {
    "postal": "M2J8P7",
    "result": []
  },
  {
    "postal": "M2J7S7",
    "result": []
  },
  {
    "postal": "M2J4C2",
    "result": [
      {
        "electoralDistricts": [
          {
            "election": null,
            "id": 21,
            "name": "Don Valley North"
          }
        ],
        "pollDivisionIds": [
          10137682
        ],
        "postalCode": "M2J4C2",
        "streetName": "MARGARET",
        "streetDirectionId": null,
        "streetTypeId": "AVE",
        "placeName": "NORTH YORK",
        "streetNameDisplayText": "MARGARET AVE, NORTH YORK"
      }
    ]
  },
  {
    "postal": "M2J5Y0",
    "result": []
  },
  {
    "postal": "M2J2V7",
    "result": [
      {
        "electoralDistricts": [
          {
            "election": null,
            "id": 21,
            "name": "Don Valley North"
          }
        ],
        "pollDivisionIds": [
          10137676
        ],
        "postalCode": "M2J2V7",
        "streetName": "CLANCY",
        "streetDirectionId": null,
        "streetTypeId": "DR",
        "placeName": "NORTH YORK",
        "streetNameDisplayText": "CLANCY DR, NORTH YORK"
      }
    ]
  },
  {
    "postal": "M2J8P5",
    "result": []
  },
  {
    "postal": "M2J5P5",
    "result": []
  },
  {
    "postal": "M2J5Z0",
    "result": []
  },
  {
    "postal": "M2J9B0",
    "result": []
  },
  {
    "postal": "M2J1L0",
    "result": []
  },
  {
    "postal": "M2J0B5",
    "result": []
  },
  {
    "postal": "M2J3L2",
    "result": [
      {
        "electoralDistricts": [
          {
            "election": null,
            "id": 21,
            "name": "Don Valley North"
          }
        ],
        "pollDivisionIds": [
          10137690
        ],
        "postalCode": "M2J3L2",
        "streetName": "PATRICK",
        "streetDirectionId": null,
        "streetTypeId": "BLVD",
        "placeName": "NORTH YORK",
        "streetNameDisplayText": "PATRICK BLVD, NORTH YORK"
      }
    ]
  },
  {
    "postal": "M2J3B7",
    "result": [
      {
        "electoralDistricts": [
          {
            "election": null,
            "id": 21,
            "name": "Don Valley North"
          }
        ],
        "pollDivisionIds": [
          10137681
        ],
        "postalCode": "M2J3B7",
        "streetName": "DON MILLS",
        "streetDirectionId": "W",
        "streetTypeId": "RD",
        "placeName": "NORTH YORK",
        "streetNameDisplayText": "DON MILLS RD W, NORTH YORK"
      },
      {
        "electoralDistricts": [
          {
            "election": null,
            "id": 21,
            "name": "Don Valley North"
          }
        ],
        "pollDivisionIds": [
          10137681
        ],
        "postalCode": "M2J3B7",
        "streetName": "DON MILLS",
        "streetDirectionId": null,
        "streetTypeId": "RD",
        "placeName": "NORTH YORK",
        "streetNameDisplayText": "DON MILLS RD, NORTH YORK"
      }
    ]
  },
  {
    "postal": "M2J8L1",
    "result": []
  },
  {
    "postal": "M2J5M4",
    "result": []
  },
  {
    "postal": "M2J4G9",
    "result": [
      {
        "electoralDistricts": [
          {
            "election": null,
            "id": 21,
            "name": "Don Valley North"
          }
        ],
        "pollDivisionIds": [
          10137690
        ],
        "postalCode": "M2J4G9",
        "streetName": "CONSUMERS",
        "streetDirectionId": null,
        "streetTypeId": "RD",
        "placeName": "NORTH YORK",
        "streetNameDisplayText": "CONSUMERS RD, NORTH YORK"
      }
    ]
  },
  {
    "postal": "M2J0P0",
    "result": []
  },
  {
    "postal": "M2J8G2",
    "result": []
  },
  {
    "postal": "M2J1V9",
    "result": []
  },
  {
    "postal": "M2J8N8",
    "result": []
  },
  {
    "postal": "M2J6S8",
    "result": []
  },
  {
    "postal": "M2J8H2",
    "result": []
  },
  {
    "postal": "M2J5R8",
    "result": []
  },
  {
    "postal": "M2J5L4",
    "result": []
  },
  {
    "postal": "M2J9E1",
    "result": []
  },
  {
    "postal": "M2J1C4",
    "result": [
      {
        "electoralDistricts": [
          {
            "election": null,
            "id": 21,
            "name": "Don Valley North"
          }
        ],
        "pollDivisionIds": [
          10137696
        ],
        "postalCode": "M2J1C4",
        "streetName": "QUINCY",
        "streetDirectionId": null,
        "streetTypeId": "CRES",
        "placeName": "NORTH YORK",
        "streetNameDisplayText": "QUINCY CRES, NORTH YORK"
      }
    ]
  },
  {
    "postal": "M2J8W5",
    "result": []
  },
  {
    "postal": "M2J1Y4",
    "result": [
      {
        "electoralDistricts": [
          {
            "election": null,
            "id": 21,
            "name": "Don Valley North"
          }
        ],
        "pollDivisionIds": [
          10137687
        ],
        "postalCode": "M2J1Y4",
        "streetName": "ROCHELLE",
        "streetDirectionId": null,
        "streetTypeId": "CRES",
        "placeName": "NORTH YORK",
        "streetNameDisplayText": "ROCHELLE CRES, NORTH YORK"
      }
    ]
  },
  {
    "postal": "M2J1C0",
    "result": []
  },
  {
    "postal": "M2J2J2",
    "result": [
      {
        "electoralDistricts": [
          {
            "election": null,
            "id": 21,
            "name": "Don Valley North"
          }
        ],
        "pollDivisionIds": [
          10137680
        ],
        "postalCode": "M2J2J2",
        "streetName": "LESGAY",
        "streetDirectionId": null,
        "streetTypeId": "CRES",
        "placeName": "NORTH YORK",
        "streetNameDisplayText": "LESGAY CRES, NORTH YORK"
      }
    ]
  },
  {
    "postal": "M2J2J0",
    "result": []
  },
  {
    "postal": "M2J7A3",
    "result": []
  },
  {
    "postal": "M2J8M1",
    "result": []
  },
  {
    "postal": "M2J7T9",
    "result": []
  },
  {
    "postal": "M2J6C0",
    "result": []
  },
  {
    "postal": "M2J7X1",
    "result": []
  },
  {
    "postal": "M2J0G1",
    "result": [
      {
        "electoralDistricts": [
          {
            "election": null,
            "id": 21,
            "name": "Don Valley North"
          }
        ],
        "pollDivisionIds": [
          10137697
        ],
        "postalCode": "M2J0G1",
        "streetName": "PARKWAY FOREST",
        "streetDirectionId": null,
        "streetTypeId": "DR",
        "placeName": "NORTH YORK",
        "streetNameDisplayText": "PARKWAY FOREST DR, NORTH YORK"
      }
    ]
  },
  {
    "postal": "M2J4X2",
    "result": [
      {
        "electoralDistricts": [
          {
            "election": null,
            "id": 21,
            "name": "Don Valley North"
          }
        ],
        "pollDivisionIds": [
          10137689
        ],
        "postalCode": "M2J4X2",
        "streetName": "CLEMATIS",
        "streetDirectionId": null,
        "streetTypeId": "RD",
        "placeName": "NORTH YORK",
        "streetNameDisplayText": "CLEMATIS RD, NORTH YORK"
      }
    ]
  },
  {
    "postal": "M2J0N6",
    "result": []
  },
  {
    "postal": "M2J8E3",
    "result": []
  },
  {
    "postal": "M2J5S8",
    "result": []
  },
  {
    "postal": "M2J0R0",
    "result": []
  },
  {
    "postal": "M2J6J6",
    "result": []
  },
  {
    "postal": "M2J4B4",
    "result": [
      {
        "electoralDistricts": [
          {
            "election": null,
            "id": 21,
            "name": "Don Valley North"
          }
        ],
        "pollDivisionIds": [
          10137689
        ],
        "postalCode": "M2J4B4",
        "streetName": "PONDSVIEW",
        "streetDirectionId": null,
        "streetTypeId": "DR",
        "placeName": "NORTH YORK",
        "streetNameDisplayText": "PONDSVIEW DR, NORTH YORK"
      }
    ]
  },
  {
    "postal": "M2J7E3",
    "result": []
  },
  {
    "postal": "M2J3N6",
    "result": [
      {
        "electoralDistricts": [
          {
            "election": null,
            "id": 21,
            "name": "Don Valley North"
          }
        ],
        "pollDivisionIds": [
          10137689
        ],
        "postalCode": "M2J3N6",
        "streetName": "ENDSLEIGH",
        "streetDirectionId": null,
        "streetTypeId": "CRES",
        "placeName": "NORTH YORK",
        "streetNameDisplayText": "ENDSLEIGH CRES, NORTH YORK"
      }
    ]
  },
  {
    "postal": "M2J3X6",
    "result": [
      {
        "electoralDistricts": [
          {
            "election": null,
            "id": 21,
            "name": "Don Valley North"
          }
        ],
        "pollDivisionIds": [
          10137678
        ],
        "postalCode": "M2J3X6",
        "streetName": "CHIPWOOD",
        "streetDirectionId": null,
        "streetTypeId": "CRES",
        "placeName": "NORTH YORK",
        "streetNameDisplayText": "CHIPWOOD CRES, NORTH YORK"
      }
    ]
  },
  {
    "postal": "M2J8L0",
    "result": []
  },
  {
    "postal": "M2J8N1",
    "result": []
  },
  {
    "postal": "M2J4J0",
    "result": []
  },
  {
    "postal": "M2J0X7",
    "result": []
  },
  {
    "postal": "M2J6S4",
    "result": []
  },
  {
    "postal": "M2J0Z0",
    "result": []
  },
  {
    "postal": "M2J9X8",
    "result": []
  },
  {
    "postal": "M2J3H3",
    "result": [
      {
        "electoralDistricts": [
          {
            "election": null,
            "id": 21,
            "name": "Don Valley North"
          }
        ],
        "pollDivisionIds": [
          10137681
        ],
        "postalCode": "M2J3H3",
        "streetName": "GLENEAGLE",
        "streetDirectionId": null,
        "streetTypeId": "CRES",
        "placeName": "NORTH YORK",
        "streetNameDisplayText": "GLENEAGLE CRES, NORTH YORK"
      }
    ]
  },
  {
    "postal": "M2J7S2",
    "result": []
  },
  {
    "postal": "M2J3T3",
    "result": []
  },
  {
    "postal": "M2J9P3",
    "result": []
  },
  {
    "postal": "M2J4H8",
    "result": [
      {
        "electoralDistricts": [
          {
            "election": null,
            "id": 21,
            "name": "Don Valley North"
          }
        ],
        "pollDivisionIds": [
          10137675
        ],
        "postalCode": "M2J4H8",
        "streetName": "ELSA VINE",
        "streetDirectionId": null,
        "streetTypeId": "WAY",
        "placeName": "NORTH YORK",
        "streetNameDisplayText": "ELSA VINE WAY, NORTH YORK"
      }
    ]
  },
  {
    "postal": "M2J6R1",
    "result": []
  },
  {
    "postal": "M2J1S0",
    "result": []
  },
  {
    "postal": "M2J3W8",
    "result": [
      {
        "electoralDistricts": [
          {
            "election": null,
            "id": 21,
            "name": "Don Valley North"
          }
        ],
        "pollDivisionIds": [
          10137682
        ],
        "postalCode": "M2J3W8",
        "streetName": "EDMONTON",
        "streetDirectionId": null,
        "streetTypeId": "RD",
        "placeName": "NORTH YORK",
        "streetNameDisplayText": "EDMONTON RD, NORTH YORK"
      }
    ]
  },
  {
    "postal": "M2J4S3",
    "result": [
      {
        "electoralDistricts": [
          {
            "election": null,
            "id": 21,
            "name": "Don Valley North"
          }
        ],
        "pollDivisionIds": [
          10137690
        ],
        "postalCode": "M2J4S3",
        "streetName": "CLYDESDALE",
        "streetDirectionId": null,
        "streetTypeId": "DR",
        "placeName": "NORTH YORK",
        "streetNameDisplayText": "CLYDESDALE DR, NORTH YORK"
      }
    ]
  },
  {
    "postal": "M2J1B6",
    "result": [
      {
        "electoralDistricts": [
          {
            "election": null,
            "id": 21,
            "name": "Don Valley North"
          }
        ],
        "pollDivisionIds": [
          10137696
        ],
        "postalCode": "M2J1B6",
        "streetName": "ELFINDALE",
        "streetDirectionId": null,
        "streetTypeId": "CRES",
        "placeName": "NORTH YORK",
        "streetNameDisplayText": "ELFINDALE CRES, NORTH YORK"
      }
    ]
  },
  {
    "postal": "M2J8R3",
    "result": []
  },
  {
    "postal": "M2J4V9",
    "result": [
      {
        "electoralDistricts": [
          {
            "election": null,
            "id": 21,
            "name": "Don Valley North"
          }
        ],
        "pollDivisionIds": [
          10137690
        ],
        "postalCode": "M2J4V9",
        "streetName": "CASHEW",
        "streetDirectionId": null,
        "streetTypeId": "CRT",
        "placeName": "NORTH YORK",
        "streetNameDisplayText": "CASHEW CRT, NORTH YORK"
      }
    ]
  },
  {
    "postal": "M2J9W4",
    "result": []
  },
  {
    "postal": "M2J3T4",
    "result": [
      {
        "electoralDistricts": [
          {
            "election": null,
            "id": 19,
            "name": "Davenport"
          },
          {
            "election": null,
            "id": 21,
            "name": "Don Valley North"
          }
        ],
        "pollDivisionIds": [
          10136095,
          10137678
        ],
        "postalCode": "M2J3T4",
        "streetName": "ERNEST",
        "streetDirectionId": null,
        "streetTypeId": "AVE",
        "placeName": "NORTH YORK",
        "streetNameDisplayText": "ERNEST AVE, NORTH YORK"
      }
    ]
  },
  {
    "postal": "M2J5C7",
    "result": []
  },
  {
    "postal": "M2J3Y1",
    "result": [
      {
        "electoralDistricts": [
          {
            "election": null,
            "id": 21,
            "name": "Don Valley North"
          }
        ],
        "pollDivisionIds": [
          10137690
        ],
        "postalCode": "M2J3Y1",
        "streetName": "BRIAN",
        "streetDirectionId": null,
        "streetTypeId": "DR",
        "placeName": "NORTH YORK",
        "streetNameDisplayText": "BRIAN DR, NORTH YORK"
      }
    ]
  },
  {
    "postal": "M2J5V0",
    "result": []
  },
  {
    "postal": "M2J8G8",
    "result": []
  },
  {
    "postal": "M2J8B1",
    "result": []
  },
  {
    "postal": "M2J4P5",
    "result": [
      {
        "electoralDistricts": [
          {
            "election": null,
            "id": 21,
            "name": "Don Valley North"
          }
        ],
        "pollDivisionIds": [
          10137676
        ],
        "postalCode": "M2J4P5",
        "streetName": "WOOD FERN",
        "streetDirectionId": null,
        "streetTypeId": "WAY",
        "placeName": "NORTH YORK",
        "streetNameDisplayText": "WOOD FERN WAY, NORTH YORK"
      }
    ]
  },
  {
    "postal": "M2J7B2",
    "result": []
  },
  {
    "postal": "M2J0R2",
    "result": []
  },
  {
    "postal": "M2J4M4",
    "result": [
      {
        "electoralDistricts": [
          {
            "election": null,
            "id": 21,
            "name": "Don Valley North"
          }
        ],
        "pollDivisionIds": [
          10137676
        ],
        "postalCode": "M2J4M4",
        "streetName": "LADY FERNWAY",
        "streetDirectionId": null,
        "streetTypeId": null,
        "placeName": "NORTH YORK",
        "streetNameDisplayText": "LADY FERNWAY, NORTH YORK"
      }
    ]
  },
  {
    "postal": "M2J7M4",
    "result": []
  },
  {
    "postal": "M2J9S7",
    "result": []
  },
  {
    "postal": "M2J5Z7",
    "result": []
  },
  {
    "postal": "M2J7J7",
    "result": []
  },
  {
    "postal": "M2J8R8",
    "result": []
  },
  {
    "postal": "M2J9X1",
    "result": []
  },
  {
    "postal": "M2J5M9",
    "result": []
  },
  {
    "postal": "M2J9B4",
    "result": []
  },
  {
    "postal": "M2J0L9",
    "result": []
  },
  {
    "postal": "M2J9G4",
    "result": []
  },
  {
    "postal": "M2J1J4",
    "result": [
      {
        "electoralDistricts": [
          {
            "election": null,
            "id": 21,
            "name": "Don Valley North"
          }
        ],
        "pollDivisionIds": [
          10137687
        ],
        "postalCode": "M2J1J4",
        "streetName": "SHAUGHNESSY",
        "streetDirectionId": null,
        "streetTypeId": "BLVD",
        "placeName": "NORTH YORK",
        "streetNameDisplayText": "SHAUGHNESSY BLVD, NORTH YORK"
      }
    ]
  },
  {
    "postal": "M2J0W6",
    "result": []
  }
]
