[
  {
    "postal": "N9V9J6",
    "result": []
  },
  {
    "postal": "N9V9Z5",
    "result": []
  },
  {
    "postal": "N9V7H8",
    "result": []
  },
  {
    "postal": "N9V0P6",
    "result": []
  },
  {
    "postal": "N9V0S7",
    "result": []
  },
  {
    "postal": "N9V8B9",
    "result": []
  },
  {
    "postal": "N9V2A6",
    "result": [
      {
        "electoralDistricts": [
          {
            "election": null,
            "id": 27,
            "name": "Essex"
          }
        ],
        "pollDivisionIds": [
          10138015
        ],
        "postalCode": "N9V2A6",
        "streetName": "SANDWICH",
        "streetDirectionId": "S",
        "streetTypeId": "ST",
        "placeName": "AMHERSTBURG",
        "streetNameDisplayText": "SANDWICH ST S, AMHERSTBURG"
      }
    ]
  },
  {
    "postal": "N9V7V2",
    "result": []
  },
  {
    "postal": "N9V9P4",
    "result": []
  },
  {
    "postal": "N9V6G0",
    "result": []
  },
  {
    "postal": "N9V2K0",
    "result": []
  },
  {
    "postal": "N9V7N6",
    "result": []
  },
  {
    "postal": "N9V5R3",
    "result": []
  },
  {
    "postal": "N9V7K0",
    "result": []
  },
  {
    "postal": "N9V3R2",
    "result": [
      {
        "electoralDistricts": [
          {
            "election": null,
            "id": 27,
            "name": "Essex"
          }
        ],
        "pollDivisionIds": [
          10138015
        ],
        "postalCode": "N9V3R2",
        "streetName": "SANDWICH",
        "streetDirectionId": "S",
        "streetTypeId": "ST",
        "placeName": "AMHERSTBURG",
        "streetNameDisplayText": "SANDWICH ST S, AMHERSTBURG"
      }
    ]
  },
  {
    "postal": "N9V0J1",
    "result": []
  },
  {
    "postal": "N9V0B0",
    "result": []
  },
  {
    "postal": "N9V5Z2",
    "result": []
  },
  {
    "postal": "N9V7P3",
    "result": []
  },
  {
    "postal": "N9V2K3",
    "result": [
      {
        "electoralDistricts": [
          {
            "election": null,
            "id": 27,
            "name": "Essex"
          }
        ],
        "pollDivisionIds": [
          10138015
        ],
        "postalCode": "N9V2K3",
        "streetName": "VICTORIA",
        "streetDirectionId": "S",
        "streetTypeId": "ST",
        "placeName": "AMHERSTBURG",
        "streetNameDisplayText": "VICTORIA ST S, AMHERSTBURG"
      }
    ]
  },
  {
    "postal": "N9V7Y6",
    "result": []
  },
  {
    "postal": "N9V1L9",
    "result": [
      {
        "electoralDistricts": [
          {
            "election": null,
            "id": 27,
            "name": "Essex"
          }
        ],
        "pollDivisionIds": [
          10138015
        ],
        "postalCode": "N9V1L9",
        "streetName": "SIMCOE",
        "streetDirectionId": null,
        "streetTypeId": "ST",
        "placeName": "AMHERSTBURG",
        "streetNameDisplayText": "SIMCOE ST, AMHERSTBURG"
      }
    ]
  },
  {
    "postal": "N9V8T0",
    "result": []
  },
  {
    "postal": "N9V3K8",
    "result": [
      {
        "electoralDistricts": [
          {
            "election": null,
            "id": 27,
            "name": "Essex"
          }
        ],
        "pollDivisionIds": [
          10138015
        ],
        "postalCode": "N9V3K8",
        "streetName": "SANDWICH",
        "streetDirectionId": "S",
        "streetTypeId": "ST",
        "placeName": "AMHERSTBURG",
        "streetNameDisplayText": "SANDWICH ST S, AMHERSTBURG"
      }
    ]
  },
  {
    "postal": "N9V5W9",
    "result": []
  },
  {
    "postal": "N9V6T9",
    "result": []
  },
  {
    "postal": "N9V4H1",
    "result": []
  },
  {
    "postal": "N9V7A2",
    "result": []
  },
  {
    "postal": "N9V5G0",
    "result": []
  },
  {
    "postal": "N9V8V5",
    "result": []
  },
  {
    "postal": "N9V2Y8",
    "result": [
      {
        "electoralDistricts": [
          {
            "election": null,
            "id": 27,
            "name": "Essex"
          }
        ],
        "pollDivisionIds": [
          10138014,
          10138021,
          10138027,
          10138028
        ],
        "postalCode": "N9V2Y8",
        "streetName": "20 COUNTY",
        "streetDirectionId": null,
        "streetTypeId": "RD",
        "placeName": "AMHERSTBURG",
        "streetNameDisplayText": "20 COUNTY RD, AMHERSTBURG"
      },
      {
        "electoralDistricts": [
          {
            "election": null,
            "id": 27,
            "name": "Essex"
          }
        ],
        "pollDivisionIds": [
          10138014
        ],
        "postalCode": "N9V2Y8",
        "streetName": "2ND CONCESSION",
        "streetDirectionId": "S",
        "streetTypeId": "RD",
        "placeName": "AMHERSTBURG",
        "streetNameDisplayText": "2ND CONCESSION RD S, AMHERSTBURG"
      },
      {
        "electoralDistricts": [
          {
            "election": null,
            "id": 27,
            "name": "Essex"
          }
        ],
        "pollDivisionIds": [
          10138021
        ],
        "postalCode": "N9V2Y8",
        "streetName": "3RD CONC",
        "streetDirectionId": "S",
        "streetTypeId": "CONC",
        "placeName": "AMHERSTBURG",
        "streetNameDisplayText": "3RD CONC CONC S, AMHERSTBURG"
      },
      {
        "electoralDistricts": [
          {
            "election": null,
            "id": 27,
            "name": "Essex"
          }
        ],
        "pollDivisionIds": [
          10138020
        ],
        "postalCode": "N9V2Y8",
        "streetName": "3RD",
        "streetDirectionId": "N",
        "streetTypeId": "CONC",
        "placeName": "AMHERSTBURG",
        "streetNameDisplayText": "3RD CONC N, AMHERSTBURG"
      },
      {
        "electoralDistricts": [
          {
            "election": null,
            "id": 27,
            "name": "Essex"
          }
        ],
        "pollDivisionIds": [
          10138021,
          10138013,
          10138014
        ],
        "postalCode": "N9V2Y8",
        "streetName": "3RD",
        "streetDirectionId": "S",
        "streetTypeId": "CONC",
        "placeName": "AMHERSTBURG",
        "streetNameDisplayText": "3RD CONC S, AMHERSTBURG"
      },
      {
        "electoralDistricts": [
          {
            "election": null,
            "id": 27,
            "name": "Essex"
          }
        ],
        "pollDivisionIds": [
          10138021
        ],
        "postalCode": "N9V2Y8",
        "streetName": "4",
        "streetDirectionId": "S",
        "streetTypeId": "CONC",
        "placeName": "AMHERSTBURG",
        "streetNameDisplayText": "4 CONC S, AMHERSTBURG"
      },
      {
        "electoralDistricts": [
          {
            "election": null,
            "id": 27,
            "name": "Essex"
          }
        ],
        "pollDivisionIds": [
          10138021
        ],
        "postalCode": "N9V2Y8",
        "streetName": "4TH",
        "streetDirectionId": "S",
        "streetTypeId": "CONC",
        "placeName": "AMHERSTBURG",
        "streetNameDisplayText": "4TH CONC S, AMHERSTBURG"
      },
      {
        "electoralDistricts": [
          {
            "election": null,
            "id": 27,
            "name": "Essex"
          }
        ],
        "pollDivisionIds": [
          10138028
        ],
        "postalCode": "N9V2Y8",
        "streetName": "50 COUNTY",
        "streetDirectionId": null,
        "streetTypeId": "RD",
        "placeName": "AMHERSTBURG",
        "streetNameDisplayText": "50 COUNTY RD, AMHERSTBURG"
      },
      {
        "electoralDistricts": [
          {
            "election": null,
            "id": 27,
            "name": "Essex"
          }
        ],
        "pollDivisionIds": [
          10138021
        ],
        "postalCode": "N9V2Y8",
        "streetName": "5TH",
        "streetDirectionId": "S",
        "streetTypeId": "CONC",
        "placeName": "AMHERSTBURG",
        "streetNameDisplayText": "5TH CONC S, AMHERSTBURG"
      },
      {
        "electoralDistricts": [
          {
            "election": null,
            "id": 27,
            "name": "Essex"
          }
        ],
        "pollDivisionIds": [
          10138027
        ],
        "postalCode": "N9V2Y8",
        "streetName": "9 COUNTY",
        "streetDirectionId": null,
        "streetTypeId": "RD",
        "placeName": "AMHERSTBURG",
        "streetNameDisplayText": "9 COUNTY RD, AMHERSTBURG"
      },
      {
        "electoralDistricts": [
          {
            "election": null,
            "id": 27,
            "name": "Essex"
          }
        ],
        "pollDivisionIds": [
          10138021
        ],
        "postalCode": "N9V2Y8",
        "streetName": "CLAREMONT",
        "streetDirectionId": null,
        "streetTypeId": "LANE",
        "placeName": "AMHERSTBURG",
        "streetNameDisplayText": "CLAREMONT LANE, AMHERSTBURG"
      },
      {
        "electoralDistricts": [
          {
            "election": null,
            "id": 27,
            "name": "Essex"
          }
        ],
        "pollDivisionIds": [
          10138021
        ],
        "postalCode": "N9V2Y8",
        "streetName": "CON 2",
        "streetDirectionId": "S",
        "streetTypeId": "RD",
        "placeName": "AMHERSTBURG, ONT",
        "streetNameDisplayText": "CON 2 RD S, AMHERSTBURG, ONT"
      },
      {
        "electoralDistricts": [
          {
            "election": null,
            "id": 27,
            "name": "Essex"
          }
        ],
        "pollDivisionIds": [
          10138020
        ],
        "postalCode": "N9V2Y8",
        "streetName": "CON 3 RD",
        "streetDirectionId": "S",
        "streetTypeId": "CONC",
        "placeName": "AMHERSTBURG",
        "streetNameDisplayText": "CON 3 RD CONC S, AMHERSTBURG"
      },
      {
        "electoralDistricts": [
          {
            "election": null,
            "id": 27,
            "name": "Essex"
          }
        ],
        "pollDivisionIds": [
          10138021
        ],
        "postalCode": "N9V2Y8",
        "streetName": "CON 3",
        "streetDirectionId": "S",
        "streetTypeId": "RD",
        "placeName": "AMHERSTBURG",
        "streetNameDisplayText": "CON 3 RD S, AMHERSTBURG"
      },
      {
        "electoralDistricts": [
          {
            "election": null,
            "id": 27,
            "name": "Essex"
          }
        ],
        "pollDivisionIds": [
          10138021
        ],
        "postalCode": "N9V2Y8",
        "streetName": "CON 3",
        "streetDirectionId": "S",
        "streetTypeId": null,
        "placeName": "AMHERSTBURG, ONT",
        "streetNameDisplayText": "CON 3 S, AMHERSTBURG, ONT"
      },
      {
        "electoralDistricts": [
          {
            "election": null,
            "id": 27,
            "name": "Essex"
          }
        ],
        "pollDivisionIds": [
          10138015
        ],
        "postalCode": "N9V2Y8",
        "streetName": "CONC 4",
        "streetDirectionId": "S",
        "streetTypeId": "CONC",
        "placeName": "AMHERSTBURG",
        "streetNameDisplayText": "CONC 4 CONC S, AMHERSTBURG"
      },
      {
        "electoralDistricts": [
          {
            "election": null,
            "id": 27,
            "name": "Essex"
          }
        ],
        "pollDivisionIds": [
          10138021
        ],
        "postalCode": "N9V2Y8",
        "streetName": "CONCESSIN 3 S",
        "streetDirectionId": "S",
        "streetTypeId": null,
        "placeName": "AMHERSTBURG, ONT",
        "streetNameDisplayText": "CONCESSIN 3 S S, AMHERSTBURG, ONT"
      },
      {
        "electoralDistricts": [
          {
            "election": null,
            "id": 27,
            "name": "Essex"
          }
        ],
        "pollDivisionIds": [
          10138021
        ],
        "postalCode": "N9V2Y8",
        "streetName": "CONCESSION 3",
        "streetDirectionId": "S",
        "streetTypeId": "CONC",
        "placeName": "AMHERSTBURG",
        "streetNameDisplayText": "CONCESSION 3 CONC S, AMHERSTBURG"
      },
      {
        "electoralDistricts": [
          {
            "election": null,
            "id": 27,
            "name": "Essex"
          }
        ],
        "pollDivisionIds": [
          10138020
        ],
        "postalCode": "N9V2Y8",
        "streetName": "CONCESSION 3",
        "streetDirectionId": "N",
        "streetTypeId": "RD",
        "placeName": "AMHERSTBURG",
        "streetNameDisplayText": "CONCESSION 3 RD N, AMHERSTBURG"
      },
      {
        "electoralDistricts": [
          {
            "election": null,
            "id": 27,
            "name": "Essex"
          }
        ],
        "pollDivisionIds": [
          10138020
        ],
        "postalCode": "N9V2Y8",
        "streetName": "CONCESSION 3",
        "streetDirectionId": "S",
        "streetTypeId": "RD",
        "placeName": "AMHERSTBURG",
        "streetNameDisplayText": "CONCESSION 3 RD S, AMHERSTBURG"
      },
      {
        "electoralDistricts": [
          {
            "election": null,
            "id": 27,
            "name": "Essex"
          }
        ],
        "pollDivisionIds": [
          10138021
        ],
        "postalCode": "N9V2Y8",
        "streetName": "CONCESSION 3",
        "streetDirectionId": "S",
        "streetTypeId": null,
        "placeName": "AMHERSTBURG",
        "streetNameDisplayText": "CONCESSION 3 S, AMHERSTBURG"
      },
      {
        "electoralDistricts": [
          {
            "election": null,
            "id": 27,
            "name": "Essex"
          }
        ],
        "pollDivisionIds": [
          10138021
        ],
        "postalCode": "N9V2Y8",
        "streetName": "CONCESSION 3 SOUTH",
        "streetDirectionId": null,
        "streetTypeId": null,
        "placeName": "AMHERSTBURG",
        "streetNameDisplayText": "CONCESSION 3 SOUTH, AMHERSTBURG"
      },
      {
        "electoralDistricts": [
          {
            "election": null,
            "id": 27,
            "name": "Essex"
          }
        ],
        "pollDivisionIds": [
          10138015
        ],
        "postalCode": "N9V2Y8",
        "streetName": "CONCESSION 4 SOUTH",
        "streetDirectionId": "S",
        "streetTypeId": "CONC",
        "placeName": "AMHERSTBURG",
        "streetNameDisplayText": "CONCESSION 4 SOUTH CONC S, AMHERSTBURG"
      },
      {
        "electoralDistricts": [
          {
            "election": null,
            "id": 27,
            "name": "Essex"
          }
        ],
        "pollDivisionIds": [
          10138021
        ],
        "postalCode": "N9V2Y8",
        "streetName": "CONCESSION 6",
        "streetDirectionId": "S",
        "streetTypeId": "RD",
        "placeName": "AMHERSTBURG",
        "streetNameDisplayText": "CONCESSION 6 RD S, AMHERSTBURG"
      },
      {
        "electoralDistricts": [
          {
            "election": null,
            "id": 27,
            "name": "Essex"
          }
        ],
        "pollDivisionIds": [
          10138027
        ],
        "postalCode": "N9V2Y8",
        "streetName": "CONCESSION 7",
        "streetDirectionId": null,
        "streetTypeId": "RD",
        "placeName": "AMHERSTBURG",
        "streetNameDisplayText": "CONCESSION 7 RD, AMHERSTBURG"
      },
      {
        "electoralDistricts": [
          {
            "election": null,
            "id": 27,
            "name": "Essex"
          }
        ],
        "pollDivisionIds": [
          10138021
        ],
        "postalCode": "N9V2Y8",
        "streetName": "CONESSION 4",
        "streetDirectionId": "S",
        "streetTypeId": null,
        "placeName": "AMHERSTBURG",
        "streetNameDisplayText": "CONESSION 4 S, AMHERSTBURG"
      },
      {
        "electoralDistricts": [
          {
            "election": null,
            "id": 27,
            "name": "Essex"
          }
        ],
        "pollDivisionIds": [
          10138021,
          10138014
        ],
        "postalCode": "N9V2Y8",
        "streetName": "COUNTY 20",
        "streetDirectionId": null,
        "streetTypeId": "RD",
        "placeName": "AMHERSTBURG",
        "streetNameDisplayText": "COUNTY 20 RD, AMHERSTBURG"
      },
      {
        "electoralDistricts": [
          {
            "election": null,
            "id": 27,
            "name": "Essex"
          }
        ],
        "pollDivisionIds": [
          10138028
        ],
        "postalCode": "N9V2Y8",
        "streetName": "COUNTY 41",
        "streetDirectionId": null,
        "streetTypeId": "RD",
        "placeName": "AMHERSTBURG",
        "streetNameDisplayText": "COUNTY 41 RD, AMHERSTBURG"
      },
      {
        "electoralDistricts": [
          {
            "election": null,
            "id": 27,
            "name": "Essex"
          }
        ],
        "pollDivisionIds": [
          10138027
        ],
        "postalCode": "N9V2Y8",
        "streetName": "COUNTY 9",
        "streetDirectionId": null,
        "streetTypeId": "RD",
        "placeName": "AMHERSTBURG",
        "streetNameDisplayText": "COUNTY 9 RD, AMHERSTBURG"
      },
      {
        "electoralDistricts": [
          {
            "election": null,
            "id": 27,
            "name": "Essex"
          }
        ],
        "pollDivisionIds": [
          10138028
        ],
        "postalCode": "N9V2Y8",
        "streetName": "COUNTY RD 41",
        "streetDirectionId": null,
        "streetTypeId": "RD",
        "placeName": "AMHERSTBURG",
        "streetNameDisplayText": "COUNTY RD 41 RD, AMHERSTBURG"
      },
      {
        "electoralDistricts": [
          {
            "election": null,
            "id": 27,
            "name": "Essex"
          }
        ],
        "pollDivisionIds": [
          10138015
        ],
        "postalCode": "N9V2Y8",
        "streetName": "COUNTY ROAD 20 RR 2",
        "streetDirectionId": null,
        "streetTypeId": null,
        "placeName": "AMHERSTBURG",
        "streetNameDisplayText": "COUNTY ROAD 20 RR 2, AMHERSTBURG"
      },
      {
        "electoralDistricts": [
          {
            "election": null,
            "id": 27,
            "name": "Essex"
          }
        ],
        "pollDivisionIds": [
          10138021,
          10138014
        ],
        "postalCode": "N9V2Y8",
        "streetName": "CREEK",
        "streetDirectionId": null,
        "streetTypeId": "RD",
        "placeName": "AMHERSTBURG",
        "streetNameDisplayText": "CREEK RD, AMHERSTBURG"
      },
      {
        "electoralDistricts": [
          {
            "election": null,
            "id": 27,
            "name": "Essex"
          }
        ],
        "pollDivisionIds": [
          10138021
        ],
        "postalCode": "N9V2Y8",
        "streetName": "ELMSTEAD",
        "streetDirectionId": null,
        "streetTypeId": "LANE",
        "placeName": "AMHERSTBURG",
        "streetNameDisplayText": "ELMSTEAD LANE, AMHERSTBURG"
      },
      {
        "electoralDistricts": [
          {
            "election": null,
            "id": 27,
            "name": "Essex"
          }
        ],
        "pollDivisionIds": [
          10138013
        ],
        "postalCode": "N9V2Y8",
        "streetName": "ERIE",
        "streetDirectionId": null,
        "streetTypeId": "AVE",
        "placeName": "AMHERSTBURG",
        "streetNameDisplayText": "ERIE AVE, AMHERSTBURG"
      },
      {
        "electoralDistricts": [
          {
            "election": null,
            "id": 27,
            "name": "Essex"
          }
        ],
        "pollDivisionIds": [
          10138021
        ],
        "postalCode": "N9V2Y8",
        "streetName": "ERIE",
        "streetDirectionId": null,
        "streetTypeId": "DR",
        "placeName": "AMHERSTBURG",
        "streetNameDisplayText": "ERIE DR, AMHERSTBURG"
      },
      {
        "electoralDistricts": [
          {
            "election": null,
            "id": 27,
            "name": "Essex"
          }
        ],
        "pollDivisionIds": [
          10138021
        ],
        "postalCode": "N9V2Y8",
        "streetName": "ESSEX",
        "streetDirectionId": null,
        "streetTypeId": "BLVD",
        "placeName": "AMHERSTBURG",
        "streetNameDisplayText": "ESSEX BLVD, AMHERSTBURG"
      },
      {
        "electoralDistricts": [
          {
            "election": null,
            "id": 27,
            "name": "Essex"
          }
        ],
        "pollDivisionIds": [
          10138021
        ],
        "postalCode": "N9V2Y8",
        "streetName": "ESSEX RD 50",
        "streetDirectionId": null,
        "streetTypeId": "RD",
        "placeName": "AMHERSTBURG",
        "streetNameDisplayText": "ESSEX RD 50 RD, AMHERSTBURG"
      },
      {
        "electoralDistricts": [
          {
            "election": null,
            "id": 27,
            "name": "Essex"
          }
        ],
        "pollDivisionIds": [
          10138028,
          10138021
        ],
        "postalCode": "N9V2Y8",
        "streetName": "ESSEX",
        "streetDirectionId": null,
        "streetTypeId": "RD",
        "placeName": "AMHERSTBURG",
        "streetNameDisplayText": "ESSEX RD, AMHERSTBURG"
      },
      {
        "electoralDistricts": [
          {
            "election": null,
            "id": 27,
            "name": "Essex"
          }
        ],
        "pollDivisionIds": [
          10138015
        ],
        "postalCode": "N9V2Y8",
        "streetName": "FRYER",
        "streetDirectionId": null,
        "streetTypeId": "ST",
        "placeName": "AMHERSTBURG",
        "streetNameDisplayText": "FRYER ST, AMHERSTBURG"
      },
      {
        "electoralDistricts": [
          {
            "election": null,
            "id": 27,
            "name": "Essex"
          }
        ],
        "pollDivisionIds": [
          10138021
        ],
        "postalCode": "N9V2Y8",
        "streetName": "KNAPPS ISLAND",
        "streetDirectionId": null,
        "streetTypeId": "RD",
        "placeName": "AMHERSTBURG",
        "streetNameDisplayText": "KNAPPS ISLAND RD, AMHERSTBURG"
      },
      {
        "electoralDistricts": [
          {
            "election": null,
            "id": 27,
            "name": "Essex"
          }
        ],
        "pollDivisionIds": [
          10138021
        ],
        "postalCode": "N9V2Y8",
        "streetName": "LAKE ERIE",
        "streetDirectionId": null,
        "streetTypeId": "DR",
        "placeName": "AMHERSTBURG",
        "streetNameDisplayText": "LAKE ERIE DR, AMHERSTBURG"
      },
      {
        "electoralDistricts": [
          {
            "election": null,
            "id": 27,
            "name": "Essex"
          }
        ],
        "pollDivisionIds": [
          10138021,
          10138013
        ],
        "postalCode": "N9V2Y8",
        "streetName": "LAKEWOOD",
        "streetDirectionId": null,
        "streetTypeId": "DR",
        "placeName": "AMHERSTBURG",
        "streetNameDisplayText": "LAKEWOOD DR, AMHERSTBURG"
      },
      {
        "electoralDistricts": [
          {
            "election": null,
            "id": 27,
            "name": "Essex"
          }
        ],
        "pollDivisionIds": [
          10138014,
          10138015
        ],
        "postalCode": "N9V2Y8",
        "streetName": "LOWES",
        "streetDirectionId": null,
        "streetTypeId": "SIDERD",
        "placeName": "AMHERSTBURG",
        "streetNameDisplayText": "LOWES SIDERD, AMHERSTBURG"
      },
      {
        "electoralDistricts": [
          {
            "election": null,
            "id": 27,
            "name": "Essex"
          }
        ],
        "pollDivisionIds": [
          10138013
        ],
        "postalCode": "N9V2Y8",
        "streetName": "MCBRIDE",
        "streetDirectionId": null,
        "streetTypeId": "RD",
        "placeName": "AMHERSTBURG",
        "streetNameDisplayText": "MCBRIDE RD, AMHERSTBURG"
      },
      {
        "electoralDistricts": [
          {
            "election": null,
            "id": 27,
            "name": "Essex"
          }
        ],
        "pollDivisionIds": [
          10138014,
          10138013,
          10138021
        ],
        "postalCode": "N9V2Y8",
        "streetName": "MCLEOD",
        "streetDirectionId": null,
        "streetTypeId": "AVE",
        "placeName": "AMHERSTBURG",
        "streetNameDisplayText": "MCLEOD AVE, AMHERSTBURG"
      },
      {
        "electoralDistricts": [
          {
            "election": null,
            "id": 27,
            "name": "Essex"
          }
        ],
        "pollDivisionIds": [
          10138015,
          10138021
        ],
        "postalCode": "N9V2Y8",
        "streetName": "MELOCHE",
        "streetDirectionId": null,
        "streetTypeId": "RD",
        "placeName": "AMHERSTBURG",
        "streetNameDisplayText": "MELOCHE RD, AMHERSTBURG"
      },
      {
        "electoralDistricts": [
          {
            "election": null,
            "id": 27,
            "name": "Essex"
          }
        ],
        "pollDivisionIds": [
          10138025
        ],
        "postalCode": "N9V2Y8",
        "streetName": "MIDDLE",
        "streetDirectionId": null,
        "streetTypeId": "SIDERD",
        "placeName": "AMHERSTBURG",
        "streetNameDisplayText": "MIDDLE SIDERD, AMHERSTBURG"
      },
      {
        "electoralDistricts": [
          {
            "election": null,
            "id": 27,
            "name": "Essex"
          }
        ],
        "pollDivisionIds": [
          10138025
        ],
        "postalCode": "N9V2Y8",
        "streetName": "MIDDLE",
        "streetDirectionId": null,
        "streetTypeId": "SIDERD",
        "placeName": "MCGREGOR",
        "streetNameDisplayText": "MIDDLE SIDERD, MCGREGOR"
      },
      {
        "electoralDistricts": [
          {
            "election": null,
            "id": 27,
            "name": "Essex"
          }
        ],
        "pollDivisionIds": [
          10138025
        ],
        "postalCode": "N9V2Y8",
        "streetName": "NORTH TOWN",
        "streetDirectionId": null,
        "streetTypeId": "LINE",
        "placeName": "AMHERSTBURG",
        "streetNameDisplayText": "NORTH TOWN LINE, AMHERSTBURG"
      },
      {
        "electoralDistricts": [
          {
            "election": null,
            "id": 27,
            "name": "Essex"
          }
        ],
        "pollDivisionIds": [
          10138021
        ],
        "postalCode": "N9V2Y8",
        "streetName": "POINT",
        "streetDirectionId": null,
        "streetTypeId": "BLVD",
        "placeName": "AMHERSTBURG",
        "streetNameDisplayText": "POINT BLVD, AMHERSTBURG"
      },
      {
        "electoralDistricts": [
          {
            "election": null,
            "id": 27,
            "name": "Essex"
          }
        ],
        "pollDivisionIds": [
          10138021
        ],
        "postalCode": "N9V2Y8",
        "streetName": "RIDGEWOOD",
        "streetDirectionId": null,
        "streetTypeId": "LANE",
        "placeName": "AMHERSTBURG",
        "streetNameDisplayText": "RIDGEWOOD LANE, AMHERSTBURG"
      },
      {
        "electoralDistricts": [
          {
            "election": null,
            "id": 27,
            "name": "Essex"
          }
        ],
        "pollDivisionIds": [
          10138021
        ],
        "postalCode": "N9V2Y8",
        "streetName": "SOUTH SIDE",
        "streetDirectionId": null,
        "streetTypeId": "RD",
        "placeName": "AMHERSTBURG",
        "streetNameDisplayText": "SOUTH SIDE RD, AMHERSTBURG"
      },
      {
        "electoralDistricts": [
          {
            "election": null,
            "id": 27,
            "name": "Essex"
          }
        ],
        "pollDivisionIds": [
          10138021
        ],
        "postalCode": "N9V2Y8",
        "streetName": "SOUTH SIDERD",
        "streetDirectionId": null,
        "streetTypeId": "SIDERD",
        "placeName": "AMHERSTBURG",
        "streetNameDisplayText": "SOUTH SIDERD SIDERD, AMHERSTBURG"
      },
      {
        "electoralDistricts": [
          {
            "election": null,
            "id": 27,
            "name": "Essex"
          }
        ],
        "pollDivisionIds": [
          10138021,
          10138027
        ],
        "postalCode": "N9V2Y8",
        "streetName": "SOUTH",
        "streetDirectionId": null,
        "streetTypeId": "SIDERD",
        "placeName": "AMHERSTBURG",
        "streetNameDisplayText": "SOUTH SIDERD, AMHERSTBURG"
      },
      {
        "electoralDistricts": [
          {
            "election": null,
            "id": 27,
            "name": "Essex"
          }
        ],
        "pollDivisionIds": [
          10138021
        ],
        "postalCode": "N9V2Y8",
        "streetName": "TILFORD",
        "streetDirectionId": null,
        "streetTypeId": "LANE",
        "placeName": "AMHERSTBURG",
        "streetNameDisplayText": "TILFORD LANE, AMHERSTBURG"
      },
      {
        "electoralDistricts": [
          {
            "election": null,
            "id": 27,
            "name": "Essex"
          }
        ],
        "pollDivisionIds": [
          10138021
        ],
        "postalCode": "N9V2Y8",
        "streetName": "VICTORIA",
        "streetDirectionId": null,
        "streetTypeId": "LANE",
        "placeName": "AMHERSTBURG",
        "streetNameDisplayText": "VICTORIA LANE, AMHERSTBURG"
      },
      {
        "electoralDistricts": [
          {
            "election": null,
            "id": 27,
            "name": "Essex"
          }
        ],
        "pollDivisionIds": [
          10138013
        ],
        "postalCode": "N9V2Y8",
        "streetName": "WILLOW BEACH",
        "streetDirectionId": null,
        "streetTypeId": "RD",
        "placeName": "AMHERSTBURG",
        "streetNameDisplayText": "WILLOW BEACH RD, AMHERSTBURG"
      },
      {
        "electoralDistricts": [
          {
            "election": null,
            "id": 27,
            "name": "Essex"
          }
        ],
        "pollDivisionIds": [
          10138021
        ],
        "postalCode": "N9V2Y8",
        "streetName": "WOODLAND",
        "streetDirectionId": null,
        "streetTypeId": "LANE",
        "placeName": "AMHERSTBURG",
        "streetNameDisplayText": "WOODLAND LANE, AMHERSTBURG"
      }
    ]
  },
  {
    "postal": "N9V2B6",
    "result": [
      {
        "electoralDistricts": [
          {
            "election": null,
            "id": 27,
            "name": "Essex"
          }
        ],
        "pollDivisionIds": [
          10138015
        ],
        "postalCode": "N9V2B6",
        "streetName": "SEYMOUR",
        "streetDirectionId": null,
        "streetTypeId": "ST",
        "placeName": "AMHERSTBURG",
        "streetNameDisplayText": "SEYMOUR ST, AMHERSTBURG"
      }
    ]
  },
  {
    "postal": "N9V4W8",
    "result": []
  },
  {
    "postal": "N9V8H7",
    "result": []
  },
  {
    "postal": "N9V5P1",
    "result": []
  },
  {
    "postal": "N9V2B8",
    "result": [
      {
        "electoralDistricts": [
          {
            "election": null,
            "id": 27,
            "name": "Essex"
          }
        ],
        "pollDivisionIds": [
          10138015
        ],
        "postalCode": "N9V2B8",
        "streetName": "SEYMOUR",
        "streetDirectionId": null,
        "streetTypeId": "ST",
        "placeName": "AMHERSTBURG",
        "streetNameDisplayText": "SEYMOUR ST, AMHERSTBURG"
      }
    ]
  },
  {
    "postal": "N9V0P2",
    "result": []
  },
  {
    "postal": "N9V9M1",
    "result": []
  },
  {
    "postal": "N9V3G0",
    "result": []
  },
  {
    "postal": "N9V9Z2",
    "result": []
  },
  {
    "postal": "N9V2A0",
    "result": []
  },
  {
    "postal": "N9V6Y0",
    "result": []
  },
  {
    "postal": "N9V2Z8",
    "result": []
  },
  {
    "postal": "N9V7Y3",
    "result": []
  },
  {
    "postal": "N9V6Z5",
    "result": []
  },
  {
    "postal": "N9V6E0",
    "result": []
  },
  {
    "postal": "N9V9B7",
    "result": []
  },
  {
    "postal": "N9V9S5",
    "result": []
  },
  {
    "postal": "N9V3X3",
    "result": []
  },
  {
    "postal": "N9V7R5",
    "result": []
  },
  {
    "postal": "N9V2X3",
    "result": [
      {
        "electoralDistricts": [
          {
            "election": null,
            "id": 27,
            "name": "Essex"
          }
        ],
        "pollDivisionIds": [
          10138019
        ],
        "postalCode": "N9V2X3",
        "streetName": "GIRARD",
        "streetDirectionId": null,
        "streetTypeId": "ST",
        "placeName": "AMHERSTBURG",
        "streetNameDisplayText": "GIRARD ST, AMHERSTBURG"
      }
    ]
  },
  {
    "postal": "N9V8Z9",
    "result": []
  },
  {
    "postal": "N9V0N4",
    "result": []
  },
  {
    "postal": "N9V1K1",
    "result": []
  },
  {
    "postal": "N9V1S3",
    "result": [
      {
        "electoralDistricts": [
          {
            "election": null,
            "id": 27,
            "name": "Essex"
          }
        ],
        "pollDivisionIds": [
          10138014
        ],
        "postalCode": "N9V1S3",
        "streetName": "LOWES",
        "streetDirectionId": null,
        "streetTypeId": "SIDERD",
        "placeName": "AMHERSTBURG",
        "streetNameDisplayText": "LOWES SIDERD, AMHERSTBURG"
      }
    ]
  },
  {
    "postal": "N9V6M4",
    "result": []
  },
  {
    "postal": "N9V9A9",
    "result": []
  },
  {
    "postal": "N9V9Z9",
    "result": []
  },
  {
    "postal": "N9V6T4",
    "result": []
  },
  {
    "postal": "N9V0B2",
    "result": [
      {
        "electoralDistricts": [
          {
            "election": null,
            "id": 27,
            "name": "Essex"
          }
        ],
        "pollDivisionIds": [
          10138014
        ],
        "postalCode": "N9V0B2",
        "streetName": "ADAMS",
        "streetDirectionId": null,
        "streetTypeId": "AVE",
        "placeName": "AMHERSTBURG",
        "streetNameDisplayText": "ADAMS AVE, AMHERSTBURG"
      },
      {
        "electoralDistricts": [
          {
            "election": null,
            "id": 27,
            "name": "Essex"
          }
        ],
        "pollDivisionIds": [
          10138014
        ],
        "postalCode": "N9V0B2",
        "streetName": "SHAW",
        "streetDirectionId": null,
        "streetTypeId": "DR",
        "placeName": "AMHERSTBURG",
        "streetNameDisplayText": "SHAW DR, AMHERSTBURG"
      }
    ]
  },
  {
    "postal": "N9V2L9",
    "result": [
      {
        "electoralDistricts": [
          {
            "election": null,
            "id": 27,
            "name": "Essex"
          }
        ],
        "pollDivisionIds": [
          10138015,
          10138021
        ],
        "postalCode": "N9V2L9",
        "streetName": "FRYER",
        "streetDirectionId": null,
        "streetTypeId": "ST",
        "placeName": "AMHERSTBURG",
        "streetNameDisplayText": "FRYER ST, AMHERSTBURG"
      }
    ]
  },
  {
    "postal": "N9V8K9",
    "result": []
  },
  {
    "postal": "N9V2H9",
    "result": []
  },
  {
    "postal": "N9V3Z6",
    "result": [
      {
        "electoralDistricts": [
          {
            "election": null,
            "id": 27,
            "name": "Essex"
          }
        ],
        "pollDivisionIds": [
          10138021
        ],
        "postalCode": "N9V3Z6",
        "streetName": "RICHMOND",
        "streetDirectionId": null,
        "streetTypeId": "ST",
        "placeName": "AMHERSTBURG",
        "streetNameDisplayText": "RICHMOND ST, AMHERSTBURG"
      }
    ]
  },
  {
    "postal": "N9V3B0",
    "result": []
  },
  {
    "postal": "N9V2H8",
    "result": [
      {
        "electoralDistricts": [
          {
            "election": null,
            "id": 27,
            "name": "Essex"
          }
        ],
        "pollDivisionIds": [
          10138015
        ],
        "postalCode": "N9V2H8",
        "streetName": "KEMPT",
        "streetDirectionId": null,
        "streetTypeId": "ST",
        "placeName": "AMHERSTBURG",
        "streetNameDisplayText": "KEMPT ST, AMHERSTBURG"
      }
    ]
  },
  {
    "postal": "N9V3X2",
    "result": [
      {
        "electoralDistricts": [
          {
            "election": null,
            "id": 27,
            "name": "Essex"
          }
        ],
        "pollDivisionIds": [
          10138015
        ],
        "postalCode": "N9V3X2",
        "streetName": "THORN RIDGE",
        "streetDirectionId": null,
        "streetTypeId": "CRES",
        "placeName": "AMHERSTBURG",
        "streetNameDisplayText": "THORN RIDGE CRES, AMHERSTBURG"
      }
    ]
  },
  {
    "postal": "N9V2E9",
    "result": [
      {
        "electoralDistricts": [
          {
            "election": null,
            "id": 27,
            "name": "Essex"
          }
        ],
        "pollDivisionIds": [
          10138015
        ],
        "postalCode": "N9V2E9",
        "streetName": "GEORGE",
        "streetDirectionId": null,
        "streetTypeId": "ST",
        "placeName": "AMHERSTBURG",
        "streetNameDisplayText": "GEORGE ST, AMHERSTBURG"
      }
    ]
  },
  {
    "postal": "N9V9P6",
    "result": []
  },
  {
    "postal": "N9V9E2",
    "result": []
  },
  {
    "postal": "N9V9H2",
    "result": []
  },
  {
    "postal": "N9V1S8",
    "result": [
      {
        "electoralDistricts": [
          {
            "election": null,
            "id": 27,
            "name": "Essex"
          }
        ],
        "pollDivisionIds": [
          10138014
        ],
        "postalCode": "N9V1S8",
        "streetName": "BEAUDOIN",
        "streetDirectionId": null,
        "streetTypeId": "SIDERD",
        "placeName": "AMHERSTBURG",
        "streetNameDisplayText": "BEAUDOIN SIDERD, AMHERSTBURG"
      }
    ]
  },
  {
    "postal": "N9V3M6",
    "result": [
      {
        "electoralDistricts": [
          {
            "election": null,
            "id": 27,
            "name": "Essex"
          }
        ],
        "pollDivisionIds": [
          10138021
        ],
        "postalCode": "N9V3M6",
        "streetName": "RICHMOND",
        "streetDirectionId": null,
        "streetTypeId": "ST",
        "placeName": "AMHERSTBURG",
        "streetNameDisplayText": "RICHMOND ST, AMHERSTBURG"
      }
    ]
  },
  {
    "postal": "N9V6Z8",
    "result": []
  },
  {
    "postal": "N9V4J2",
    "result": []
  },
  {
    "postal": "N9V9Y1",
    "result": []
  },
  {
    "postal": "N9V8V6",
    "result": []
  },
  {
    "postal": "N9V6B2",
    "result": []
  },
  {
    "postal": "N9V1P8",
    "result": [
      {
        "electoralDistricts": [
          {
            "election": null,
            "id": 27,
            "name": "Essex"
          }
        ],
        "pollDivisionIds": [
          10138015
        ],
        "postalCode": "N9V1P8",
        "streetName": "CHERRYLAWN",
        "streetDirectionId": null,
        "streetTypeId": "CRES",
        "placeName": "AMHERSTBURG",
        "streetNameDisplayText": "CHERRYLAWN CRES, AMHERSTBURG"
      }
    ]
  },
  {
    "postal": "N9V0V8",
    "result": []
  },
  {
    "postal": "N9V4Y0",
    "result": []
  },
  {
    "postal": "N9V2T4",
    "result": [
      {
        "electoralDistricts": [
          {
            "election": null,
            "id": 27,
            "name": "Essex"
          }
        ],
        "pollDivisionIds": [
          10138019
        ],
        "postalCode": "N9V2T4",
        "streetName": "SHANGRILA",
        "streetDirectionId": null,
        "streetTypeId": "ST",
        "placeName": "AMHERSTBURG",
        "streetNameDisplayText": "SHANGRILA ST, AMHERSTBURG"
      }
    ]
  },
  {
    "postal": "N9V2S3",
    "result": [
      {
        "electoralDistricts": [
          {
            "election": null,
            "id": 27,
            "name": "Essex"
          }
        ],
        "pollDivisionIds": [
          10138019
        ],
        "postalCode": "N9V2S3",
        "streetName": "SEA CREST",
        "streetDirectionId": null,
        "streetTypeId": "DR",
        "placeName": "AMHERSTBURG",
        "streetNameDisplayText": "SEA CREST DR, AMHERSTBURG"
      }
    ]
  },
  {
    "postal": "N9V0K0",
    "result": []
  },
  {
    "postal": "N9V5N1",
    "result": []
  },
  {
    "postal": "N9V7T0",
    "result": []
  },
  {
    "postal": "N9V9N2",
    "result": []
  },
  {
    "postal": "N9V5L1",
    "result": []
  },
  {
    "postal": "N9V7G5",
    "result": []
  },
  {
    "postal": "N9V6K2",
    "result": []
  },
  {
    "postal": "N9V6P9",
    "result": []
  },
  {
    "postal": "N9V0E6",
    "result": [
      {
        "electoralDistricts": [
          {
            "election": null,
            "id": 27,
            "name": "Essex"
          }
        ],
        "pollDivisionIds": [
          10138015
        ],
        "postalCode": "N9V0E6",
        "streetName": "SANDWICH",
        "streetDirectionId": "S",
        "streetTypeId": "ST",
        "placeName": "AMHERSTBURG",
        "streetNameDisplayText": "SANDWICH ST S, AMHERSTBURG"
      }
    ]
  },
  {
    "postal": "N9V8R9",
    "result": []
  },
  {
    "postal": "N9V3G9",
    "result": [
      {
        "electoralDistricts": [
          {
            "election": null,
            "id": 27,
            "name": "Essex"
          }
        ],
        "pollDivisionIds": [
          10138021
        ],
        "postalCode": "N9V3G9",
        "streetName": "ST JAMES",
        "streetDirectionId": null,
        "streetTypeId": "CRT",
        "placeName": "AMHERSTBURG",
        "streetNameDisplayText": "ST JAMES CRT, AMHERSTBURG"
      }
    ]
  },
  {
    "postal": "N9V0V7",
    "result": []
  },
  {
    "postal": "N9V2Z1",
    "result": []
  },
  {
    "postal": "N9V7N1",
    "result": []
  },
  {
    "postal": "N9V3C6",
    "result": [
      {
        "electoralDistricts": [
          {
            "election": null,
            "id": 27,
            "name": "Essex"
          }
        ],
        "pollDivisionIds": [
          10138015
        ],
        "postalCode": "N9V3C6",
        "streetName": "WALNUT",
        "streetDirectionId": null,
        "streetTypeId": "DR",
        "placeName": "AMHERSTBURG",
        "streetNameDisplayText": "WALNUT DR, AMHERSTBURG"
      }
    ]
  },
  {
    "postal": "N9V4M1",
    "result": []
  },
  {
    "postal": "N9V9K2",
    "result": []
  },
  {
    "postal": "N9V9S6",
    "result": []
  },
  {
    "postal": "N9V4X1",
    "result": []
  },
  {
    "postal": "N9V8W2",
    "result": []
  },
  {
    "postal": "N9V7N2",
    "result": []
  },
  {
    "postal": "N9V8S3",
    "result": []
  },
  {
    "postal": "N9V4V0",
    "result": []
  },
  {
    "postal": "N9V6W4",
    "result": []
  },
  {
    "postal": "N9V5M1",
    "result": []
  },
  {
    "postal": "N9V0S4",
    "result": []
  },
  {
    "postal": "N9V5X6",
    "result": []
  },
  {
    "postal": "N9V8L5",
    "result": []
  },
  {
    "postal": "N9V5M8",
    "result": []
  },
  {
    "postal": "N9V2G3",
    "result": [
      {
        "electoralDistricts": [
          {
            "election": null,
            "id": 27,
            "name": "Essex"
          }
        ],
        "pollDivisionIds": [
          10138015
        ],
        "postalCode": "N9V2G3",
        "streetName": "GEORGE",
        "streetDirectionId": null,
        "streetTypeId": "ST",
        "placeName": "AMHERSTBURG",
        "streetNameDisplayText": "GEORGE ST, AMHERSTBURG"
      }
    ]
  },
  {
    "postal": "N9V8E4",
    "result": []
  },
  {
    "postal": "N9V7S9",
    "result": []
  },
  {
    "postal": "N9V1K3",
    "result": [
      {
        "electoralDistricts": [
          {
            "election": null,
            "id": 27,
            "name": "Essex"
          }
        ],
        "pollDivisionIds": [
          10138015
        ],
        "postalCode": "N9V1K3",
        "streetName": "MURRAY",
        "streetDirectionId": null,
        "streetTypeId": "ST",
        "placeName": "AMHERSTBURG",
        "streetNameDisplayText": "MURRAY ST, AMHERSTBURG"
      }
    ]
  },
  {
    "postal": "N9V4E1",
    "result": [
      {
        "electoralDistricts": [
          {
            "election": null,
            "id": 27,
            "name": "Essex"
          }
        ],
        "pollDivisionIds": [
          10138019
        ],
        "postalCode": "N9V4E1",
        "streetName": "MCLELLAN",
        "streetDirectionId": null,
        "streetTypeId": "AVE",
        "placeName": "AMHERSTBURG",
        "streetNameDisplayText": "MCLELLAN AVE, AMHERSTBURG"
      },
      {
        "electoralDistricts": [
          {
            "election": null,
            "id": 27,
            "name": "Essex"
          }
        ],
        "pollDivisionIds": [
          10138019,
          10138015
        ],
        "postalCode": "N9V4E1",
        "streetName": "PETTYPIECE",
        "streetDirectionId": null,
        "streetTypeId": "DR",
        "placeName": "AMHERSTBURG",
        "streetNameDisplayText": "PETTYPIECE DR, AMHERSTBURG"
      },
      {
        "electoralDistricts": [
          {
            "election": null,
            "id": 27,
            "name": "Essex"
          }
        ],
        "pollDivisionIds": [
          10138019
        ],
        "postalCode": "N9V4E1",
        "streetName": "WELSH",
        "streetDirectionId": null,
        "streetTypeId": "AVE",
        "placeName": "AMHERSTBURG",
        "streetNameDisplayText": "WELSH AVE, AMHERSTBURG"
      }
    ]
  },
  {
    "postal": "N9V4R2",
    "result": []
  },
  {
    "postal": "N9V6T0",
    "result": []
  },
  {
    "postal": "N9V3K5",
    "result": [
      {
        "electoralDistricts": [
          {
            "election": null,
            "id": 27,
            "name": "Essex"
          }
        ],
        "pollDivisionIds": [
          10138015
        ],
        "postalCode": "N9V3K5",
        "streetName": "MCCURDY",
        "streetDirectionId": null,
        "streetTypeId": "DR",
        "placeName": "AMHERSTBURG",
        "streetNameDisplayText": "MCCURDY DR, AMHERSTBURG"
      }
    ]
  },
  {
    "postal": "N9V3S3",
    "result": [
      {
        "electoralDistricts": [
          {
            "election": null,
            "id": 27,
            "name": "Essex"
          }
        ],
        "pollDivisionIds": [
          10138019
        ],
        "postalCode": "N9V3S3",
        "streetName": "ANGSTROM",
        "streetDirectionId": null,
        "streetTypeId": "CRES",
        "placeName": "AMHERSTBURG",
        "streetNameDisplayText": "ANGSTROM CRES, AMHERSTBURG"
      }
    ]
  },
  {
    "postal": "N9V3L4",
    "result": [
      {
        "electoralDistricts": [
          {
            "election": null,
            "id": 27,
            "name": "Essex"
          }
        ],
        "pollDivisionIds": [
          10138015
        ],
        "postalCode": "N9V3L4",
        "streetName": "SANDWICH",
        "streetDirectionId": "S",
        "streetTypeId": "ST",
        "placeName": "AMHERSTBURG",
        "streetNameDisplayText": "SANDWICH ST S, AMHERSTBURG"
      }
    ]
  },
  {
    "postal": "N9V9Y2",
    "result": []
  },
  {
    "postal": "N9V1E0",
    "result": []
  },
  {
    "postal": "N9V9A4",
    "result": []
  },
  {
    "postal": "N9V1L3",
    "result": [
      {
        "electoralDistricts": [
          {
            "election": null,
            "id": 27,
            "name": "Essex"
          }
        ],
        "pollDivisionIds": [
          10138015
        ],
        "postalCode": "N9V1L3",
        "streetName": "GORE",
        "streetDirectionId": null,
        "streetTypeId": "ST",
        "placeName": "AMHERSTBURG",
        "streetNameDisplayText": "GORE ST, AMHERSTBURG"
      }
    ]
  },
  {
    "postal": "N9V6N1",
    "result": []
  },
  {
    "postal": "N9V6G7",
    "result": []
  },
  {
    "postal": "N9V7W1",
    "result": []
  },
  {
    "postal": "N9V4M6",
    "result": []
  },
  {
    "postal": "N9V1K0",
    "result": []
  },
  {
    "postal": "N9V3E2",
    "result": [
      {
        "electoralDistricts": [
          {
            "election": null,
            "id": 27,
            "name": "Essex"
          }
        ],
        "pollDivisionIds": [
          10138021
        ],
        "postalCode": "N9V3E2",
        "streetName": "PACIFIC",
        "streetDirectionId": null,
        "streetTypeId": "AVE",
        "placeName": "AMHERSTBURG",
        "streetNameDisplayText": "PACIFIC AVE, AMHERSTBURG"
      }
    ]
  },
  {
    "postal": "N9V5H4",
    "result": []
  },
  {
    "postal": "N9V1K7",
    "result": [
      {
        "electoralDistricts": [
          {
            "election": null,
            "id": 27,
            "name": "Essex"
          }
        ],
        "pollDivisionIds": [
          10138015
        ],
        "postalCode": "N9V1K7",
        "streetName": "GORE",
        "streetDirectionId": null,
        "streetTypeId": "ST",
        "placeName": "AMHERSTBURG",
        "streetNameDisplayText": "GORE ST, AMHERSTBURG"
      }
    ]
  },
  {
    "postal": "N9V0H0",
    "result": []
  },
  {
    "postal": "N9V0J3",
    "result": []
  },
  {
    "postal": "N9V1X6",
    "result": [
      {
        "electoralDistricts": [
          {
            "election": null,
            "id": 27,
            "name": "Essex"
          }
        ],
        "pollDivisionIds": [
          10138015
        ],
        "postalCode": "N9V1X6",
        "streetName": "LAIRD",
        "streetDirectionId": "S",
        "streetTypeId": "AVE",
        "placeName": "AMHERSTBURG",
        "streetNameDisplayText": "LAIRD AVE S, AMHERSTBURG"
      }
    ]
  },
  {
    "postal": "N9V2Z6",
    "result": []
  },
  {
    "postal": "N9V4R9",
    "result": []
  },
  {
    "postal": "N9V0W8",
    "result": []
  },
  {
    "postal": "N9V1L4",
    "result": [
      {
        "electoralDistricts": [
          {
            "election": null,
            "id": 27,
            "name": "Essex"
          }
        ],
        "pollDivisionIds": [
          10138015
        ],
        "postalCode": "N9V1L4",
        "streetName": "GORE",
        "streetDirectionId": null,
        "streetTypeId": "ST",
        "placeName": "AMHERSTBURG",
        "streetNameDisplayText": "GORE ST, AMHERSTBURG"
      }
    ]
  },
  {
    "postal": "N9V0C8",
    "result": [
      {
        "electoralDistricts": [
          {
            "election": null,
            "id": 27,
            "name": "Essex"
          }
        ],
        "pollDivisionIds": [
          10138021
        ],
        "postalCode": "N9V0C8",
        "streetName": "4TH",
        "streetDirectionId": "S",
        "streetTypeId": "CONC",
        "placeName": "AMHERSTBURG",
        "streetNameDisplayText": "4TH CONC S, AMHERSTBURG"
      },
      {
        "electoralDistricts": [
          {
            "election": null,
            "id": 27,
            "name": "Essex"
          }
        ],
        "pollDivisionIds": [
          10138029,
          10138019
        ],
        "postalCode": "N9V0C8",
        "streetName": "5TH",
        "streetDirectionId": "N",
        "streetTypeId": "CONC",
        "placeName": "AMHERSTBURG",
        "streetNameDisplayText": "5TH CONC N, AMHERSTBURG"
      },
      {
        "electoralDistricts": [
          {
            "election": null,
            "id": 27,
            "name": "Essex"
          }
        ],
        "pollDivisionIds": [
          10138027
        ],
        "postalCode": "N9V0C8",
        "streetName": "6",
        "streetDirectionId": "S",
        "streetTypeId": "CONC",
        "placeName": "AMHERSTBURG",
        "streetNameDisplayText": "6 CONC S, AMHERSTBURG"
      },
      {
        "electoralDistricts": [
          {
            "election": null,
            "id": 27,
            "name": "Essex"
          }
        ],
        "pollDivisionIds": [
          10138029
        ],
        "postalCode": "N9V0C8",
        "streetName": "6TH CONC",
        "streetDirectionId": "N",
        "streetTypeId": "CONC",
        "placeName": "AMHERSTBURG",
        "streetNameDisplayText": "6TH CONC CONC N, AMHERSTBURG"
      },
      {
        "electoralDistricts": [
          {
            "election": null,
            "id": 27,
            "name": "Essex"
          }
        ],
        "pollDivisionIds": [
          10138021
        ],
        "postalCode": "N9V0C8",
        "streetName": "6TH CONC",
        "streetDirectionId": "S",
        "streetTypeId": "CONC",
        "placeName": "AMHERSTBURG",
        "streetNameDisplayText": "6TH CONC CONC S, AMHERSTBURG"
      },
      {
        "electoralDistricts": [
          {
            "election": null,
            "id": 27,
            "name": "Essex"
          }
        ],
        "pollDivisionIds": [
          10138029
        ],
        "postalCode": "N9V0C8",
        "streetName": "6TH",
        "streetDirectionId": "N",
        "streetTypeId": "CONC",
        "placeName": "AMHERSTBURG",
        "streetNameDisplayText": "6TH CONC N, AMHERSTBURG"
      },
      {
        "electoralDistricts": [
          {
            "election": null,
            "id": 27,
            "name": "Essex"
          }
        ],
        "pollDivisionIds": [
          10138021,
          10138027
        ],
        "postalCode": "N9V0C8",
        "streetName": "6TH",
        "streetDirectionId": "S",
        "streetTypeId": "CONC",
        "placeName": "AMHERSTBURG",
        "streetNameDisplayText": "6TH CONC S, AMHERSTBURG"
      },
      {
        "electoralDistricts": [
          {
            "election": null,
            "id": 27,
            "name": "Essex"
          }
        ],
        "pollDivisionIds": [
          10138027
        ],
        "postalCode": "N9V0C8",
        "streetName": "7",
        "streetDirectionId": "S",
        "streetTypeId": "CONC",
        "placeName": "AMHERSTBURG",
        "streetNameDisplayText": "7 CONC S, AMHERSTBURG"
      },
      {
        "electoralDistricts": [
          {
            "election": null,
            "id": 27,
            "name": "Essex"
          }
        ],
        "pollDivisionIds": [
          10138027
        ],
        "postalCode": "N9V0C8",
        "streetName": "7TH",
        "streetDirectionId": "S",
        "streetTypeId": "CONC",
        "placeName": "AMHERSTBURG",
        "streetNameDisplayText": "7TH CONC S, AMHERSTBURG"
      },
      {
        "electoralDistricts": [
          {
            "election": null,
            "id": 27,
            "name": "Essex"
          }
        ],
        "pollDivisionIds": [
          10138027,
          10138029,
          10138019,
          10138021
        ],
        "postalCode": "N9V0C8",
        "streetName": "ALMA",
        "streetDirectionId": null,
        "streetTypeId": "ST",
        "placeName": "AMHERSTBURG",
        "streetNameDisplayText": "ALMA ST, AMHERSTBURG"
      },
      {
        "electoralDistricts": [
          {
            "election": null,
            "id": 27,
            "name": "Essex"
          }
        ],
        "pollDivisionIds": [
          10138020,
          10138021
        ],
        "postalCode": "N9V0C8",
        "streetName": "CON 4",
        "streetDirectionId": "S",
        "streetTypeId": "RD",
        "placeName": "AMHERSTBURG, ONT",
        "streetNameDisplayText": "CON 4 RD S, AMHERSTBURG, ONT"
      },
      {
        "electoralDistricts": [
          {
            "election": null,
            "id": 27,
            "name": "Essex"
          }
        ],
        "pollDivisionIds": [
          10138021,
          10138020
        ],
        "postalCode": "N9V0C8",
        "streetName": "CON 5",
        "streetDirectionId": "S",
        "streetTypeId": null,
        "placeName": "AMHERSTBURG, ONT",
        "streetNameDisplayText": "CON 5 S, AMHERSTBURG, ONT"
      },
      {
        "electoralDistricts": [
          {
            "election": null,
            "id": 27,
            "name": "Essex"
          }
        ],
        "pollDivisionIds": [
          10138020
        ],
        "postalCode": "N9V0C8",
        "streetName": "CON 6",
        "streetDirectionId": "N",
        "streetTypeId": null,
        "placeName": "AMHERSTBURG, ONT",
        "streetNameDisplayText": "CON 6 N, AMHERSTBURG, ONT"
      },
      {
        "electoralDistricts": [
          {
            "election": null,
            "id": 27,
            "name": "Essex"
          }
        ],
        "pollDivisionIds": [
          10138021
        ],
        "postalCode": "N9V0C8",
        "streetName": "CON 6 SOUTH",
        "streetDirectionId": null,
        "streetTypeId": null,
        "placeName": "AMHERSTBURG, ONT",
        "streetNameDisplayText": "CON 6 SOUTH, AMHERSTBURG, ONT"
      },
      {
        "electoralDistricts": [
          {
            "election": null,
            "id": 27,
            "name": "Essex"
          }
        ],
        "pollDivisionIds": [
          10138021
        ],
        "postalCode": "N9V0C8",
        "streetName": "CON 6ROAD",
        "streetDirectionId": "S",
        "streetTypeId": null,
        "placeName": "AMHERSTBURG, ONT",
        "streetNameDisplayText": "CON 6ROAD S, AMHERSTBURG, ONT"
      },
      {
        "electoralDistricts": [
          {
            "election": null,
            "id": 27,
            "name": "Essex"
          }
        ],
        "pollDivisionIds": [
          10138013
        ],
        "postalCode": "N9V0C8",
        "streetName": "CONC 4",
        "streetDirectionId": "S",
        "streetTypeId": "CONC",
        "placeName": "AMHERSTBURG",
        "streetNameDisplayText": "CONC 4 CONC S, AMHERSTBURG"
      },
      {
        "electoralDistricts": [
          {
            "election": null,
            "id": 27,
            "name": "Essex"
          }
        ],
        "pollDivisionIds": [
          10138021
        ],
        "postalCode": "N9V0C8",
        "streetName": "CONC 7",
        "streetDirectionId": null,
        "streetTypeId": null,
        "placeName": "AMHERSTBURG, ONT",
        "streetNameDisplayText": "CONC 7, AMHERSTBURG, ONT"
      },
      {
        "electoralDistricts": [
          {
            "election": null,
            "id": 27,
            "name": "Essex"
          }
        ],
        "pollDivisionIds": [
          10138021
        ],
        "postalCode": "N9V0C8",
        "streetName": "CONCESSIN RD 5S",
        "streetDirectionId": null,
        "streetTypeId": null,
        "placeName": "AMHERSTBURG, ONT",
        "streetNameDisplayText": "CONCESSIN RD 5S, AMHERSTBURG, ONT"
      },
      {
        "electoralDistricts": [
          {
            "election": null,
            "id": 27,
            "name": "Essex"
          }
        ],
        "pollDivisionIds": [
          10138021
        ],
        "postalCode": "N9V0C8",
        "streetName": "CONCESSION 4",
        "streetDirectionId": null,
        "streetTypeId": "RD",
        "placeName": "AMHERSTBURG",
        "streetNameDisplayText": "CONCESSION 4 RD, AMHERSTBURG"
      },
      {
        "electoralDistricts": [
          {
            "election": null,
            "id": 27,
            "name": "Essex"
          }
        ],
        "pollDivisionIds": [
          10138021
        ],
        "postalCode": "N9V0C8",
        "streetName": "CONCESSION 6",
        "streetDirectionId": "S",
        "streetTypeId": "CONC",
        "placeName": "AMHERSTBURG",
        "streetNameDisplayText": "CONCESSION 6 CONC S, AMHERSTBURG"
      },
      {
        "electoralDistricts": [
          {
            "election": null,
            "id": 27,
            "name": "Essex"
          }
        ],
        "pollDivisionIds": [
          10138021
        ],
        "postalCode": "N9V0C8",
        "streetName": "CONCESSION 6",
        "streetDirectionId": "S",
        "streetTypeId": "RD",
        "placeName": "AMHERSTBURG",
        "streetNameDisplayText": "CONCESSION 6 RD S, AMHERSTBURG"
      },
      {
        "electoralDistricts": [
          {
            "election": null,
            "id": 27,
            "name": "Essex"
          }
        ],
        "pollDivisionIds": [
          10138027
        ],
        "postalCode": "N9V0C8",
        "streetName": "CONCESSION 7",
        "streetDirectionId": "S",
        "streetTypeId": "RD",
        "placeName": "AMHERSTBURG",
        "streetNameDisplayText": "CONCESSION 7 RD S, AMHERSTBURG"
      },
      {
        "electoralDistricts": [
          {
            "election": null,
            "id": 27,
            "name": "Essex"
          }
        ],
        "pollDivisionIds": [
          10138021
        ],
        "postalCode": "N9V0C8",
        "streetName": "COUNTRY ROAD 20",
        "streetDirectionId": null,
        "streetTypeId": null,
        "placeName": "AMHERSTBURG",
        "streetNameDisplayText": "COUNTRY ROAD 20, AMHERSTBURG"
      },
      {
        "electoralDistricts": [
          {
            "election": null,
            "id": 27,
            "name": "Essex"
          }
        ],
        "pollDivisionIds": [
          10138021
        ],
        "postalCode": "N9V0C8",
        "streetName": "COUNTY 20",
        "streetDirectionId": "W",
        "streetTypeId": "RD",
        "placeName": "AMHERSTBURG, ONT",
        "streetNameDisplayText": "COUNTY 20 RD W, AMHERSTBURG, ONT"
      },
      {
        "electoralDistricts": [
          {
            "election": null,
            "id": 27,
            "name": "Essex"
          }
        ],
        "pollDivisionIds": [
          10138027
        ],
        "postalCode": "N9V0C8",
        "streetName": "COUNTY 9 RD",
        "streetDirectionId": null,
        "streetTypeId": null,
        "placeName": "AMHERSTBURG",
        "streetNameDisplayText": "COUNTY 9 RD, AMHERSTBURG"
      },
      {
        "electoralDistricts": [
          {
            "election": null,
            "id": 27,
            "name": "Essex"
          }
        ],
        "pollDivisionIds": [
          10138027,
          10138028
        ],
        "postalCode": "N9V0C8",
        "streetName": "COUNTY 9",
        "streetDirectionId": null,
        "streetTypeId": "RD",
        "placeName": "AMHERSTBURG",
        "streetNameDisplayText": "COUNTY 9 RD, AMHERSTBURG"
      },
      {
        "electoralDistricts": [
          {
            "election": null,
            "id": 27,
            "name": "Essex"
          }
        ],
        "pollDivisionIds": [
          10138021
        ],
        "postalCode": "N9V0C8",
        "streetName": "COUNTY RD 20",
        "streetDirectionId": null,
        "streetTypeId": null,
        "placeName": "AMHERSTBURG",
        "streetNameDisplayText": "COUNTY RD 20, AMHERSTBURG"
      },
      {
        "electoralDistricts": [
          {
            "election": null,
            "id": 27,
            "name": "Essex"
          }
        ],
        "pollDivisionIds": [
          10138021
        ],
        "postalCode": "N9V0C8",
        "streetName": "COUNTY ROAD 20",
        "streetDirectionId": null,
        "streetTypeId": null,
        "placeName": "AMHERSTBURG",
        "streetNameDisplayText": "COUNTY ROAD 20, AMHERSTBURG"
      },
      {
        "electoralDistricts": [
          {
            "election": null,
            "id": 27,
            "name": "Essex"
          }
        ],
        "pollDivisionIds": [
          10138021
        ],
        "postalCode": "N9V0C8",
        "streetName": "HOWARD",
        "streetDirectionId": null,
        "streetTypeId": "AVE",
        "placeName": "AMHERSTBURG",
        "streetNameDisplayText": "HOWARD AVE, AMHERSTBURG"
      },
      {
        "electoralDistricts": [
          {
            "election": null,
            "id": 27,
            "name": "Essex"
          }
        ],
        "pollDivisionIds": [
          10138025
        ],
        "postalCode": "N9V0C8",
        "streetName": "MIDDLE SIDE",
        "streetDirectionId": "N",
        "streetTypeId": "RD",
        "placeName": "AMHERSTBURG",
        "streetNameDisplayText": "MIDDLE SIDE RD N, AMHERSTBURG"
      },
      {
        "electoralDistricts": [
          {
            "election": null,
            "id": 27,
            "name": "Essex"
          }
        ],
        "pollDivisionIds": [
          10138021
        ],
        "postalCode": "N9V0C8",
        "streetName": "SOUTH SIDE",
        "streetDirectionId": null,
        "streetTypeId": "RD",
        "placeName": "AMHERSTBURG",
        "streetNameDisplayText": "SOUTH SIDE RD, AMHERSTBURG"
      },
      {
        "electoralDistricts": [
          {
            "election": null,
            "id": 27,
            "name": "Essex"
          }
        ],
        "pollDivisionIds": [
          10138021
        ],
        "postalCode": "N9V0C8",
        "streetName": "SOUTH SIDERD",
        "streetDirectionId": null,
        "streetTypeId": "SIDERD",
        "placeName": "AMHERSTBURG",
        "streetNameDisplayText": "SOUTH SIDERD SIDERD, AMHERSTBURG"
      },
      {
        "electoralDistricts": [
          {
            "election": null,
            "id": 27,
            "name": "Essex"
          }
        ],
        "pollDivisionIds": [
          10138021,
          10138027
        ],
        "postalCode": "N9V0C8",
        "streetName": "SOUTH",
        "streetDirectionId": null,
        "streetTypeId": "SIDERD",
        "placeName": "AMHERSTBURG",
        "streetNameDisplayText": "SOUTH SIDERD, AMHERSTBURG"
      },
      {
        "electoralDistricts": [
          {
            "election": null,
            "id": 27,
            "name": "Essex"
          }
        ],
        "pollDivisionIds": [
          10138021,
          10138027
        ],
        "postalCode": "N9V0C8",
        "streetName": "SOUTHSIDE",
        "streetDirectionId": null,
        "streetTypeId": "RD",
        "placeName": "AMHERSTBURG",
        "streetNameDisplayText": "SOUTHSIDE RD, AMHERSTBURG"
      },
      {
        "electoralDistricts": [
          {
            "election": null,
            "id": 27,
            "name": "Essex"
          }
        ],
        "pollDivisionIds": [
          10138019,
          10138029
        ],
        "postalCode": "N9V0C8",
        "streetName": "TEXAS",
        "streetDirectionId": null,
        "streetTypeId": "RD",
        "placeName": "AMHERSTBURG",
        "streetNameDisplayText": "TEXAS RD, AMHERSTBURG"
      }
    ]
  },
  {
    "postal": "N9V9X7",
    "result": []
  },
  {
    "postal": "N9V4T1",
    "result": []
  },
  {
    "postal": "N9V0M0",
    "result": []
  },
  {
    "postal": "N9V6A2",
    "result": []
  },
  {
    "postal": "N9V9S8",
    "result": []
  },
  {
    "postal": "N9V9T4",
    "result": []
  },
  {
    "postal": "N9V9Y4",
    "result": []
  },
  {
    "postal": "N9V6G5",
    "result": []
  },
  {
    "postal": "N9V6H9",
    "result": []
  },
  {
    "postal": "N9V2P3",
    "result": [
      {
        "electoralDistricts": [
          {
            "election": null,
            "id": 27,
            "name": "Essex"
          }
        ],
        "pollDivisionIds": [
          10138015
        ],
        "postalCode": "N9V2P3",
        "streetName": "ST ARNAUD",
        "streetDirectionId": null,
        "streetTypeId": "ST",
        "placeName": "AMHERSTBURG",
        "streetNameDisplayText": "ST ARNAUD ST, AMHERSTBURG"
      }
    ]
  },
  {
    "postal": "N9V1T6",
    "result": [
      {
        "electoralDistricts": [
          {
            "election": null,
            "id": 27,
            "name": "Essex"
          }
        ],
        "pollDivisionIds": [
          10138014
        ],
        "postalCode": "N9V1T6",
        "streetName": "LAKE BEACH",
        "streetDirectionId": null,
        "streetTypeId": "RD",
        "placeName": "AMHERSTBURG",
        "streetNameDisplayText": "LAKE BEACH RD, AMHERSTBURG"
      }
    ]
  },
  {
    "postal": "N9V4P6",
    "result": []
  },
  {
    "postal": "N9V3K1",
    "result": [
      {
        "electoralDistricts": [
          {
            "election": null,
            "id": 27,
            "name": "Essex"
          }
        ],
        "pollDivisionIds": [
          10138014
        ],
        "postalCode": "N9V3K1",
        "streetName": "FRONT",
        "streetDirectionId": "S",
        "streetTypeId": "RD",
        "placeName": "AMHERSTBURG",
        "streetNameDisplayText": "FRONT RD S, AMHERSTBURG"
      }
    ]
  },
  {
    "postal": "N9V6X4",
    "result": []
  },
  {
    "postal": "N9V4M8",
    "result": []
  },
  {
    "postal": "N9V2Y1",
    "result": []
  },
  {
    "postal": "N9V6M1",
    "result": []
  },
  {
    "postal": "N9V5L8",
    "result": []
  },
  {
    "postal": "N9V3P6",
    "result": [
      {
        "electoralDistricts": [
          {
            "election": null,
            "id": 27,
            "name": "Essex"
          }
        ],
        "pollDivisionIds": [
          10138019
        ],
        "postalCode": "N9V3P6",
        "streetName": "POINTE WEST",
        "streetDirectionId": null,
        "streetTypeId": "DR",
        "placeName": "AMHERSTBURG",
        "streetNameDisplayText": "POINTE WEST DR, AMHERSTBURG"
      }
    ]
  },
  {
    "postal": "N9V9A5",
    "result": []
  },
  {
    "postal": "N9V7K1",
    "result": []
  },
  {
    "postal": "N9V3J4",
    "result": [
      {
        "electoralDistricts": [
          {
            "election": null,
            "id": 27,
            "name": "Essex"
          }
        ],
        "pollDivisionIds": [
          10138021
        ],
        "postalCode": "N9V3J4",
        "streetName": "VENTNOR",
        "streetDirectionId": null,
        "streetTypeId": "AVE",
        "placeName": "AMHERSTBURG",
        "streetNameDisplayText": "VENTNOR AVE, AMHERSTBURG"
      }
    ]
  },
  {
    "postal": "N9V5E7",
    "result": []
  },
  {
    "postal": "N9V3A7",
    "result": [
      {
        "electoralDistricts": [
          {
            "election": null,
            "id": 27,
            "name": "Essex"
          }
        ],
        "pollDivisionIds": [
          10138021
        ],
        "postalCode": "N9V3A7",
        "streetName": "HOLIDAY",
        "streetDirectionId": null,
        "streetTypeId": "CRT",
        "placeName": "AMHERSTBURG",
        "streetNameDisplayText": "HOLIDAY CRT, AMHERSTBURG"
      }
    ]
  },
  {
    "postal": "N9V1B9",
    "result": [
      {
        "electoralDistricts": [
          {
            "election": null,
            "id": 27,
            "name": "Essex"
          }
        ],
        "pollDivisionIds": [
          10138015
        ],
        "postalCode": "N9V1B9",
        "streetName": "FORT",
        "streetDirectionId": null,
        "streetTypeId": "ST",
        "placeName": "AMHERSTBURG",
        "streetNameDisplayText": "FORT ST, AMHERSTBURG"
      }
    ]
  },
  {
    "postal": "N9V9E8",
    "result": []
  },
  {
    "postal": "N9V1C9",
    "result": [
      {
        "electoralDistricts": [
          {
            "election": null,
            "id": 27,
            "name": "Essex"
          }
        ],
        "pollDivisionIds": [
          10138021
        ],
        "postalCode": "N9V1C9",
        "streetName": "MILITARY",
        "streetDirectionId": null,
        "streetTypeId": "ST",
        "placeName": "AMHERSTBURG",
        "streetNameDisplayText": "MILITARY ST, AMHERSTBURG"
      }
    ]
  },
  {
    "postal": "N9V3B5",
    "result": [
      {
        "electoralDistricts": [
          {
            "election": null,
            "id": 27,
            "name": "Essex"
          }
        ],
        "pollDivisionIds": [
          10138015
        ],
        "postalCode": "N9V3B5",
        "streetName": "SANDWICH",
        "streetDirectionId": "S",
        "streetTypeId": "ST",
        "placeName": "AMHERSTBURG",
        "streetNameDisplayText": "SANDWICH ST S, AMHERSTBURG"
      }
    ]
  },
  {
    "postal": "N9V8R0",
    "result": []
  },
  {
    "postal": "N9V3P2",
    "result": [
      {
        "electoralDistricts": [
          {
            "election": null,
            "id": 27,
            "name": "Essex"
          }
        ],
        "pollDivisionIds": [
          10138019
        ],
        "postalCode": "N9V3P2",
        "streetName": "POINTE WEST DR",
        "streetDirectionId": null,
        "streetTypeId": "DR",
        "placeName": "AMHERSTBURG",
        "streetNameDisplayText": "POINTE WEST DR DR, AMHERSTBURG"
      },
      {
        "electoralDistricts": [
          {
            "election": null,
            "id": 27,
            "name": "Essex"
          }
        ],
        "pollDivisionIds": [
          10138019
        ],
        "postalCode": "N9V3P2",
        "streetName": "POINTE WEST",
        "streetDirectionId": null,
        "streetTypeId": "DR",
        "placeName": "AMHERSTBURG",
        "streetNameDisplayText": "POINTE WEST DR, AMHERSTBURG"
      }
    ]
  },
  {
    "postal": "N9V5V4",
    "result": []
  },
  {
    "postal": "N9V4H0",
    "result": []
  },
  {
    "postal": "N9V4S7",
    "result": []
  },
  {
    "postal": "N9V6C2",
    "result": []
  },
  {
    "postal": "N9V8W3",
    "result": []
  },
  {
    "postal": "N9V4M5",
    "result": []
  },
  {
    "postal": "N9V5T1",
    "result": []
  },
  {
    "postal": "N9V3B3",
    "result": [
      {
        "electoralDistricts": [
          {
            "election": null,
            "id": 27,
            "name": "Essex"
          }
        ],
        "pollDivisionIds": [
          10138021
        ],
        "postalCode": "N9V3B3",
        "streetName": "VICTORIA",
        "streetDirectionId": "S",
        "streetTypeId": "ST",
        "placeName": "AMHERSTBURG",
        "streetNameDisplayText": "VICTORIA ST S, AMHERSTBURG"
      }
    ]
  },
  {
    "postal": "N9V6C6",
    "result": []
  },
  {
    "postal": "N9V7N8",
    "result": []
  },
  {
    "postal": "N9V2Y3",
    "result": [
      {
        "electoralDistricts": [
          {
            "election": null,
            "id": 27,
            "name": "Essex"
          }
        ],
        "pollDivisionIds": [
          10138019
        ],
        "postalCode": "N9V2Y3",
        "streetName": "DOT",
        "streetDirectionId": null,
        "streetTypeId": "AVE",
        "placeName": "AMHERSTBURG",
        "streetNameDisplayText": "DOT AVE, AMHERSTBURG"
      },
      {
        "electoralDistricts": [
          {
            "election": null,
            "id": 27,
            "name": "Essex"
          }
        ],
        "pollDivisionIds": [
          10138019
        ],
        "postalCode": "N9V2Y3",
        "streetName": "DOT",
        "streetDirectionId": null,
        "streetTypeId": "ST",
        "placeName": "AMHERSTBURG",
        "streetNameDisplayText": "DOT ST, AMHERSTBURG"
      }
    ]
  },
  {
    "postal": "N9V2R6",
    "result": [
      {
        "electoralDistricts": [
          {
            "election": null,
            "id": 27,
            "name": "Essex"
          }
        ],
        "pollDivisionIds": [
          10138019
        ],
        "postalCode": "N9V2R6",
        "streetName": "BRUNER",
        "streetDirectionId": null,
        "streetTypeId": "AVE",
        "placeName": "AMHERSTBURG",
        "streetNameDisplayText": "BRUNER AVE, AMHERSTBURG"
      },
      {
        "electoralDistricts": [
          {
            "election": null,
            "id": 27,
            "name": "Essex"
          }
        ],
        "pollDivisionIds": [
          10138019
        ],
        "postalCode": "N9V2R6",
        "streetName": "BRUNNER",
        "streetDirectionId": null,
        "streetTypeId": "AVE",
        "placeName": "AMHERSTBURG",
        "streetNameDisplayText": "BRUNNER AVE, AMHERSTBURG"
      }
    ]
  },
  {
    "postal": "N9V7N3",
    "result": []
  },
  {
    "postal": "N9V8J2",
    "result": []
  },
  {
    "postal": "N9V6A9",
    "result": []
  },
  {
    "postal": "N9V3V2",
    "result": [
      {
        "electoralDistricts": [
          {
            "election": null,
            "id": 27,
            "name": "Essex"
          }
        ],
        "pollDivisionIds": [
          10138015
        ],
        "postalCode": "N9V3V2",
        "streetName": "KEMPT",
        "streetDirectionId": null,
        "streetTypeId": "ST",
        "placeName": "AMHERSTBURG",
        "streetNameDisplayText": "KEMPT ST, AMHERSTBURG"
      }
    ]
  },
  {
    "postal": "N9V2N3",
    "result": [
      {
        "electoralDistricts": [
          {
            "election": null,
            "id": 27,
            "name": "Essex"
          }
        ],
        "pollDivisionIds": [
          10138014
        ],
        "postalCode": "N9V2N3",
        "streetName": "FRONT",
        "streetDirectionId": "S",
        "streetTypeId": "RD",
        "placeName": "AMHERSTBURG",
        "streetNameDisplayText": "FRONT RD S, AMHERSTBURG"
      }
    ]
  },
  {
    "postal": "N9V1S5",
    "result": [
      {
        "electoralDistricts": [
          {
            "election": null,
            "id": 27,
            "name": "Essex"
          }
        ],
        "pollDivisionIds": [
          10138014
        ],
        "postalCode": "N9V1S5",
        "streetName": "BINGHAM",
        "streetDirectionId": null,
        "streetTypeId": "RD",
        "placeName": "AMHERSTBURG",
        "streetNameDisplayText": "BINGHAM RD, AMHERSTBURG"
      }
    ]
  },
  {
    "postal": "N9V4T7",
    "result": []
  },
  {
    "postal": "N9V6Y7",
    "result": []
  },
  {
    "postal": "N9V0W7",
    "result": []
  },
  {
    "postal": "N9V2W9",
    "result": [
      {
        "electoralDistricts": [
          {
            "election": null,
            "id": 27,
            "name": "Essex"
          }
        ],
        "pollDivisionIds": [
          10138015
        ],
        "postalCode": "N9V2W9",
        "streetName": "BALACLAVA",
        "streetDirectionId": "N",
        "streetTypeId": "ST",
        "placeName": "AMHERSTBURG",
        "streetNameDisplayText": "BALACLAVA ST N, AMHERSTBURG"
      }
    ]
  },
  {
    "postal": "N9V8V0",
    "result": []
  },
  {
    "postal": "N9V0H4",
    "result": []
  },
  {
    "postal": "N9V2T1",
    "result": [
      {
        "electoralDistricts": [
          {
            "election": null,
            "id": 27,
            "name": "Essex"
          }
        ],
        "pollDivisionIds": [
          10138019
        ],
        "postalCode": "N9V2T1",
        "streetName": "CENTRE",
        "streetDirectionId": null,
        "streetTypeId": "ST",
        "placeName": "AMHERSTBURG",
        "streetNameDisplayText": "CENTRE ST, AMHERSTBURG"
      }
    ]
  },
  {
    "postal": "N9V1B1",
    "result": [
      {
        "electoralDistricts": [
          {
            "election": null,
            "id": 27,
            "name": "Essex"
          }
        ],
        "pollDivisionIds": [
          10138021
        ],
        "postalCode": "N9V1B1",
        "streetName": "ALMA",
        "streetDirectionId": null,
        "streetTypeId": "ST",
        "placeName": "AMHERSTBURG",
        "streetNameDisplayText": "ALMA ST, AMHERSTBURG"
      }
    ]
  },
  {
    "postal": "N9V8B6",
    "result": []
  },
  {
    "postal": "N9V6H1",
    "result": []
  },
  {
    "postal": "N9V8T8",
    "result": []
  },
  {
    "postal": "N9V0T4",
    "result": []
  },
  {
    "postal": "N9V2C4",
    "result": [
      {
        "electoralDistricts": [
          {
            "election": null,
            "id": 27,
            "name": "Essex"
          }
        ],
        "pollDivisionIds": [
          10138015
        ],
        "postalCode": "N9V2C4",
        "streetName": "KING",
        "streetDirectionId": null,
        "streetTypeId": "ST",
        "placeName": "AMHERSTBURG",
        "streetNameDisplayText": "KING ST, AMHERSTBURG"
      }
    ]
  },
  {
    "postal": "N9V8N3",
    "result": []
  },
  {
    "postal": "N9V4L8",
    "result": []
  },
  {
    "postal": "N9V2B5",
    "result": [
      {
        "electoralDistricts": [
          {
            "election": null,
            "id": 27,
            "name": "Essex"
          }
        ],
        "pollDivisionIds": [
          10138015
        ],
        "postalCode": "N9V2B5",
        "streetName": "SEYMOUR",
        "streetDirectionId": null,
        "streetTypeId": "ST",
        "placeName": "AMHERSTBURG",
        "streetNameDisplayText": "SEYMOUR ST, AMHERSTBURG"
      }
    ]
  },
  {
    "postal": "N9V3H1",
    "result": [
      {
        "electoralDistricts": [
          {
            "election": null,
            "id": 27,
            "name": "Essex"
          }
        ],
        "pollDivisionIds": [
          10138021
        ],
        "postalCode": "N9V3H1",
        "streetName": "JAMES",
        "streetDirectionId": null,
        "streetTypeId": "ST",
        "placeName": "AMHERSTBURG",
        "streetNameDisplayText": "JAMES ST, AMHERSTBURG"
      },
      {
        "electoralDistricts": [
          {
            "election": null,
            "id": 27,
            "name": "Essex"
          }
        ],
        "pollDivisionIds": [
          10138021
        ],
        "postalCode": "N9V3H1",
        "streetName": "ST JAMES",
        "streetDirectionId": null,
        "streetTypeId": "CRT",
        "placeName": "AMHERSTBURG",
        "streetNameDisplayText": "ST JAMES CRT, AMHERSTBURG"
      }
    ]
  },
  {
    "postal": "N9V4Y1",
    "result": []
  },
  {
    "postal": "N9V7E2",
    "result": []
  },
  {
    "postal": "N9V2P5",
    "result": [
      {
        "electoralDistricts": [
          {
            "election": null,
            "id": 27,
            "name": "Essex"
          }
        ],
        "pollDivisionIds": [
          10138019
        ],
        "postalCode": "N9V2P5",
        "streetName": "WILLIAM",
        "streetDirectionId": null,
        "streetTypeId": "ST",
        "placeName": "AMHERSTBURG",
        "streetNameDisplayText": "WILLIAM ST, AMHERSTBURG"
      }
    ]
  },
  {
    "postal": "N9V8R7",
    "result": []
  },
  {
    "postal": "N9V9P1",
    "result": []
  },
  {
    "postal": "N9V3B8",
    "result": [
      {
        "electoralDistricts": [
          {
            "election": null,
            "id": 27,
            "name": "Essex"
          }
        ],
        "pollDivisionIds": [
          10138015
        ],
        "postalCode": "N9V3B8",
        "streetName": "MCCURDY",
        "streetDirectionId": null,
        "streetTypeId": "DR",
        "placeName": "AMHERSTBURG",
        "streetNameDisplayText": "MCCURDY DR, AMHERSTBURG"
      }
    ]
  },
  {
    "postal": "N9V3P7",
    "result": [
      {
        "electoralDistricts": [
          {
            "election": null,
            "id": 27,
            "name": "Essex"
          }
        ],
        "pollDivisionIds": [
          10138019
        ],
        "postalCode": "N9V3P7",
        "streetName": "WYANDOTTE",
        "streetDirectionId": null,
        "streetTypeId": "ST",
        "placeName": "AMHERSTBURG",
        "streetNameDisplayText": "WYANDOTTE ST, AMHERSTBURG"
      }
    ]
  },
  {
    "postal": "N9V9B2",
    "result": []
  },
  {
    "postal": "N9V6Z3",
    "result": []
  },
  {
    "postal": "N9V4N5",
    "result": []
  },
  {
    "postal": "N9V8T3",
    "result": []
  },
  {
    "postal": "N9V1V2",
    "result": [
      {
        "electoralDistricts": [
          {
            "election": null,
            "id": 27,
            "name": "Essex"
          }
        ],
        "pollDivisionIds": [
          10138014
        ],
        "postalCode": "N9V1V2",
        "streetName": "MICKLE",
        "streetDirectionId": null,
        "streetTypeId": "DR",
        "placeName": "AMHERSTBURG",
        "streetNameDisplayText": "MICKLE DR, AMHERSTBURG"
      }
    ]
  },
  {
    "postal": "N9V1Y0",
    "result": []
  },
  {
    "postal": "N9V3G6",
    "result": [
      {
        "electoralDistricts": [
          {
            "election": null,
            "id": 27,
            "name": "Essex"
          }
        ],
        "pollDivisionIds": [
          10138021
        ],
        "postalCode": "N9V3G6",
        "streetName": "ATLANTIC",
        "streetDirectionId": null,
        "streetTypeId": "AVE",
        "placeName": "AMHERSTBURG",
        "streetNameDisplayText": "ATLANTIC AVE, AMHERSTBURG"
      }
    ]
  },
  {
    "postal": "N9V3H7",
    "result": [
      {
        "electoralDistricts": [
          {
            "election": null,
            "id": 27,
            "name": "Essex"
          }
        ],
        "pollDivisionIds": [
          10138021
        ],
        "postalCode": "N9V3H7",
        "streetName": "RIVIERA",
        "streetDirectionId": null,
        "streetTypeId": "PL",
        "placeName": "AMHERSTBURG",
        "streetNameDisplayText": "RIVIERA PL, AMHERSTBURG"
      }
    ]
  },
  {
    "postal": "N9V7X8",
    "result": []
  },
  {
    "postal": "N9V0C7",
    "result": []
  },
  {
    "postal": "N9V0W9",
    "result": []
  },
  {
    "postal": "N9V8E6",
    "result": []
  },
  {
    "postal": "N9V9Z8",
    "result": []
  },
  {
    "postal": "N9V3P4",
    "result": [
      {
        "electoralDistricts": [
          {
            "election": null,
            "id": 27,
            "name": "Essex"
          }
        ],
        "pollDivisionIds": [
          10138021
        ],
        "postalCode": "N9V3P4",
        "streetName": "ATLANTIC",
        "streetDirectionId": null,
        "streetTypeId": "AVE",
        "placeName": "AMHERSTBURG",
        "streetNameDisplayText": "ATLANTIC AVE, AMHERSTBURG"
      }
    ]
  },
  {
    "postal": "N9V6L8",
    "result": []
  },
  {
    "postal": "N9V2R4",
    "result": [
      {
        "electoralDistricts": [
          {
            "election": null,
            "id": 27,
            "name": "Essex"
          }
        ],
        "pollDivisionIds": [
          10138019
        ],
        "postalCode": "N9V2R4",
        "streetName": "BRUNNER",
        "streetDirectionId": null,
        "streetTypeId": "AVE",
        "placeName": "AMHERSTBURG",
        "streetNameDisplayText": "BRUNNER AVE, AMHERSTBURG"
      }
    ]
  },
  {
    "postal": "N9V2W1",
    "result": [
      {
        "electoralDistricts": [
          {
            "election": null,
            "id": 27,
            "name": "Essex"
          }
        ],
        "pollDivisionIds": [
          10138019
        ],
        "postalCode": "N9V2W1",
        "streetName": "FRONT",
        "streetDirectionId": "N",
        "streetTypeId": "RD",
        "placeName": "AMHERSTBURG",
        "streetNameDisplayText": "FRONT RD N, AMHERSTBURG"
      }
    ]
  },
  {
    "postal": "N9V9H8",
    "result": []
  },
  {
    "postal": "N9V8X9",
    "result": []
  },
  {
    "postal": "N9V7H4",
    "result": []
  },
  {
    "postal": "N9V3J1",
    "result": [
      {
        "electoralDistricts": [
          {
            "election": null,
            "id": 27,
            "name": "Essex"
          }
        ],
        "pollDivisionIds": [
          10138021
        ],
        "postalCode": "N9V3J1",
        "streetName": "BALTIC",
        "streetDirectionId": null,
        "streetTypeId": "AVE",
        "placeName": "AMHERSTBURG",
        "streetNameDisplayText": "BALTIC AVE, AMHERSTBURG"
      }
    ]
  },
  {
    "postal": "N9V1P4",
    "result": [
      {
        "electoralDistricts": [
          {
            "election": null,
            "id": 27,
            "name": "Essex"
          }
        ],
        "pollDivisionIds": [
          10138015
        ],
        "postalCode": "N9V1P4",
        "streetName": "PARK",
        "streetDirectionId": null,
        "streetTypeId": "ST",
        "placeName": "AMHERSTBURG",
        "streetNameDisplayText": "PARK ST, AMHERSTBURG"
      }
    ]
  },
  {
    "postal": "N9V2A3",
    "result": [
      {
        "electoralDistricts": [
          {
            "election": null,
            "id": 27,
            "name": "Essex"
          }
        ],
        "pollDivisionIds": [
          10138015
        ],
        "postalCode": "N9V2A3",
        "streetName": "SANDWICH",
        "streetDirectionId": "S",
        "streetTypeId": "ST",
        "placeName": "AMHERSTBURG",
        "streetNameDisplayText": "SANDWICH ST S, AMHERSTBURG"
      }
    ]
  },
  {
    "postal": "N9V0Z1",
    "result": []
  },
  {
    "postal": "N9V1C1",
    "result": [
      {
        "electoralDistricts": [
          {
            "election": null,
            "id": 27,
            "name": "Essex"
          }
        ],
        "pollDivisionIds": [
          10138015
        ],
        "postalCode": "N9V1C1",
        "streetName": "FORT",
        "streetDirectionId": null,
        "streetTypeId": "ST",
        "placeName": "AMHERSTBURG",
        "streetNameDisplayText": "FORT ST, AMHERSTBURG"
      }
    ]
  },
  {
    "postal": "N9V0H3",
    "result": []
  },
  {
    "postal": "N9V7B0",
    "result": []
  },
  {
    "postal": "N9V5K2",
    "result": []
  },
  {
    "postal": "N9V1E9",
    "result": [
      {
        "electoralDistricts": [
          {
            "election": null,
            "id": 27,
            "name": "Essex"
          }
        ],
        "pollDivisionIds": [
          10138015
        ],
        "postalCode": "N9V1E9",
        "streetName": "RICHMOND",
        "streetDirectionId": null,
        "streetTypeId": "ST",
        "placeName": "AMHERSTBURG",
        "streetNameDisplayText": "RICHMOND ST, AMHERSTBURG"
      }
    ]
  },
  {
    "postal": "N9V9W7",
    "result": []
  },
  {
    "postal": "N9V5W6",
    "result": []
  },
  {
    "postal": "N9V6S6",
    "result": []
  },
  {
    "postal": "N9V2P8",
    "result": [
      {
        "electoralDistricts": [
          {
            "election": null,
            "id": 27,
            "name": "Essex"
          }
        ],
        "pollDivisionIds": [
          10138019
        ],
        "postalCode": "N9V2P8",
        "streetName": "DUFF",
        "streetDirectionId": null,
        "streetTypeId": "AVE",
        "placeName": "AMHERSTBURG",
        "streetNameDisplayText": "DUFF AVE, AMHERSTBURG"
      }
    ]
  },
  {
    "postal": "N9V4P8",
    "result": []
  },
  {
    "postal": "N9V0V9",
    "result": []
  },
  {
    "postal": "N9V5Y2",
    "result": []
  },
  {
    "postal": "N9V7Z7",
    "result": []
  },
  {
    "postal": "N9V6Y8",
    "result": []
  },
  {
    "postal": "N9V2G7",
    "result": [
      {
        "electoralDistricts": [
          {
            "election": null,
            "id": 27,
            "name": "Essex"
          }
        ],
        "pollDivisionIds": [
          10138015
        ],
        "postalCode": "N9V2G7",
        "streetName": "BALACLAVA",
        "streetDirectionId": "S",
        "streetTypeId": "ST",
        "placeName": "AMHERSTBURG",
        "streetNameDisplayText": "BALACLAVA ST S, AMHERSTBURG"
      }
    ]
  },
  {
    "postal": "N9V8C1",
    "result": []
  },
  {
    "postal": "N9V5C5",
    "result": []
  },
  {
    "postal": "N9V2X8",
    "result": [
      {
        "electoralDistricts": [
          {
            "election": null,
            "id": 27,
            "name": "Essex"
          }
        ],
        "pollDivisionIds": [
          10138021
        ],
        "postalCode": "N9V2X8",
        "streetName": "MAIN",
        "streetDirectionId": "N",
        "streetTypeId": "ST",
        "placeName": "AMHERSTBURG",
        "streetNameDisplayText": "MAIN ST N, AMHERSTBURG"
      }
    ]
  },
  {
    "postal": "N9V1W5",
    "result": [
      {
        "electoralDistricts": [
          {
            "election": null,
            "id": 27,
            "name": "Essex"
          }
        ],
        "pollDivisionIds": [
          10138015
        ],
        "postalCode": "N9V1W5",
        "streetName": "DALHOUSIE",
        "streetDirectionId": null,
        "streetTypeId": "ST",
        "placeName": "AMHERSTBURG",
        "streetNameDisplayText": "DALHOUSIE ST, AMHERSTBURG"
      }
    ]
  },
  {
    "postal": "N9V7G0",
    "result": []
  },
  {
    "postal": "N9V8J8",
    "result": []
  },
  {
    "postal": "N9V3Y0",
    "result": []
  },
  {
    "postal": "N9V9T7",
    "result": []
  },
  {
    "postal": "N9V5P4",
    "result": []
  },
  {
    "postal": "N9V4B0",
    "result": []
  },
  {
    "postal": "N9V9N8",
    "result": []
  },
  {
    "postal": "N9V4A7",
    "result": [
      {
        "electoralDistricts": [
          {
            "election": null,
            "id": 27,
            "name": "Essex"
          }
        ],
        "pollDivisionIds": [
          10138015
        ],
        "postalCode": "N9V4A7",
        "streetName": "CRYSTAL BAY",
        "streetDirectionId": null,
        "streetTypeId": "DR",
        "placeName": "AMHERSTBURG",
        "streetNameDisplayText": "CRYSTAL BAY DR, AMHERSTBURG"
      }
    ]
  },
  {
    "postal": "N9V4H9",
    "result": []
  },
  {
    "postal": "N9V6X1",
    "result": []
  },
  {
    "postal": "N9V9Y7",
    "result": []
  },
  {
    "postal": "N9V2Y5",
    "result": [
      {
        "electoralDistricts": [
          {
            "election": null,
            "id": 27,
            "name": "Essex"
          }
        ],
        "pollDivisionIds": [
          10138019
        ],
        "postalCode": "N9V2Y5",
        "streetName": "UNION",
        "streetDirectionId": null,
        "streetTypeId": "ST",
        "placeName": "AMHERSTBURG",
        "streetNameDisplayText": "UNION ST, AMHERSTBURG"
      }
    ]
  },
  {
    "postal": "N9V8L7",
    "result": []
  },
  {
    "postal": "N9V2A8",
    "result": [
      {
        "electoralDistricts": [
          {
            "election": null,
            "id": 27,
            "name": "Essex"
          }
        ],
        "pollDivisionIds": [
          10138015
        ],
        "postalCode": "N9V2A8",
        "streetName": "SANDWICH",
        "streetDirectionId": "S",
        "streetTypeId": "ST",
        "placeName": "AMHERSTBURG",
        "streetNameDisplayText": "SANDWICH ST S, AMHERSTBURG"
      }
    ]
  },
  {
    "postal": "N9V2K9",
    "result": [
      {
        "electoralDistricts": [
          {
            "election": null,
            "id": 27,
            "name": "Essex"
          }
        ],
        "pollDivisionIds": [
          10138021
        ],
        "postalCode": "N9V2K9",
        "streetName": "MAIN",
        "streetDirectionId": "S",
        "streetTypeId": "ST",
        "placeName": "AMHERSTBURG",
        "streetNameDisplayText": "MAIN ST S, AMHERSTBURG"
      }
    ]
  },
  {
    "postal": "N9V3E5",
    "result": [
      {
        "electoralDistricts": [
          {
            "election": null,
            "id": 27,
            "name": "Essex"
          }
        ],
        "pollDivisionIds": [
          10138021
        ],
        "postalCode": "N9V3E5",
        "streetName": "PACIFIC",
        "streetDirectionId": null,
        "streetTypeId": "AVE",
        "placeName": "AMHERSTBURG",
        "streetNameDisplayText": "PACIFIC AVE, AMHERSTBURG"
      }
    ]
  },
  {
    "postal": "N9V8N6",
    "result": []
  },
  {
    "postal": "N9V8J4",
    "result": []
  },
  {
    "postal": "N9V4R7",
    "result": []
  },
  {
    "postal": "N9V9K1",
    "result": []
  },
  {
    "postal": "N9V8E1",
    "result": []
  },
  {
    "postal": "N9V0R1",
    "result": []
  },
  {
    "postal": "N9V4J3",
    "result": []
  },
  {
    "postal": "N9V7E7",
    "result": []
  },
  {
    "postal": "N9V0J0",
    "result": []
  },
  {
    "postal": "N9V7R8",
    "result": []
  },
  {
    "postal": "N9V9X0",
    "result": []
  },
  {
    "postal": "N9V7P6",
    "result": []
  },
  {
    "postal": "N9V0R7",
    "result": []
  },
  {
    "postal": "N9V5W1",
    "result": []
  },
  {
    "postal": "N9V0K4",
    "result": []
  },
  {
    "postal": "N9V7N9",
    "result": []
  },
  {
    "postal": "N9V1N0",
    "result": []
  },
  {
    "postal": "N9V6P3",
    "result": []
  },
  {
    "postal": "N9V5A1",
    "result": []
  },
  {
    "postal": "N9V9M9",
    "result": []
  },
  {
    "postal": "N9V7T6",
    "result": []
  },
  {
    "postal": "N9V3X0",
    "result": []
  },
  {
    "postal": "N9V2T0",
    "result": []
  },
  {
    "postal": "N9V5X9",
    "result": []
  },
  {
    "postal": "N9V2R3",
    "result": [
      {
        "electoralDistricts": [
          {
            "election": null,
            "id": 27,
            "name": "Essex"
          }
        ],
        "pollDivisionIds": [
          10138019
        ],
        "postalCode": "N9V2R3",
        "streetName": "GRANT",
        "streetDirectionId": null,
        "streetTypeId": "AVE",
        "placeName": "AMHERSTBURG",
        "streetNameDisplayText": "GRANT AVE, AMHERSTBURG"
      }
    ]
  },
  {
    "postal": "N9V5N2",
    "result": []
  },
  {
    "postal": "N9V4Y7",
    "result": []
  },
  {
    "postal": "N9V7M0",
    "result": []
  },
  {
    "postal": "N9V8P3",
    "result": []
  },
  {
    "postal": "N9V3N3",
    "result": [
      {
        "electoralDistricts": [
          {
            "election": null,
            "id": 27,
            "name": "Essex"
          }
        ],
        "pollDivisionIds": [
          10138015
        ],
        "postalCode": "N9V3N3",
        "streetName": "PICKERING",
        "streetDirectionId": null,
        "streetTypeId": "DR",
        "placeName": "AMHERSTBURG",
        "streetNameDisplayText": "PICKERING DR, AMHERSTBURG"
      }
    ]
  },
  {
    "postal": "N9V7S3",
    "result": []
  },
  {
    "postal": "N9V3V9",
    "result": [
      {
        "electoralDistricts": [
          {
            "election": null,
            "id": 27,
            "name": "Essex"
          }
        ],
        "pollDivisionIds": [
          10138015
        ],
        "postalCode": "N9V3V9",
        "streetName": "RICHMOND",
        "streetDirectionId": null,
        "streetTypeId": "ST",
        "placeName": "AMHERSTBURG",
        "streetNameDisplayText": "RICHMOND ST, AMHERSTBURG"
      }
    ]
  },
  {
    "postal": "N9V9N7",
    "result": []
  },
  {
    "postal": "N9V0G4",
    "result": []
  },
  {
    "postal": "N9V2E2",
    "result": [
      {
        "electoralDistricts": [
          {
            "election": null,
            "id": 27,
            "name": "Essex"
          }
        ],
        "pollDivisionIds": [
          10138015
        ],
        "postalCode": "N9V2E2",
        "streetName": "KING",
        "streetDirectionId": null,
        "streetTypeId": "ST",
        "placeName": "AMHERSTBURG",
        "streetNameDisplayText": "KING ST, AMHERSTBURG"
      }
    ]
  },
  {
    "postal": "N9V7W8",
    "result": []
  },
  {
    "postal": "N9V7M5",
    "result": []
  },
  {
    "postal": "N9V5W8",
    "result": []
  },
  {
    "postal": "N9V5E5",
    "result": []
  },
  {
    "postal": "N9V1P9",
    "result": [
      {
        "electoralDistricts": [
          {
            "election": null,
            "id": 27,
            "name": "Essex"
          }
        ],
        "pollDivisionIds": [
          10138015
        ],
        "postalCode": "N9V1P9",
        "streetName": "CHERRYLAWN",
        "streetDirectionId": null,
        "streetTypeId": "CRES",
        "placeName": "AMHERSTBURG",
        "streetNameDisplayText": "CHERRYLAWN CRES, AMHERSTBURG"
      }
    ]
  },
  {
    "postal": "N9V8V8",
    "result": []
  },
  {
    "postal": "N9V9G8",
    "result": []
  },
  {
    "postal": "N9V8H9",
    "result": []
  },
  {
    "postal": "N9V1Z1",
    "result": [
      {
        "electoralDistricts": [
          {
            "election": null,
            "id": 27,
            "name": "Essex"
          }
        ],
        "pollDivisionIds": [
          10138015,
          10138021
        ],
        "postalCode": "N9V1Z1",
        "streetName": "BATHURST",
        "streetDirectionId": null,
        "streetTypeId": "ST",
        "placeName": "AMHERSTBURG",
        "streetNameDisplayText": "BATHURST ST, AMHERSTBURG"
      }
    ]
  },
  {
    "postal": "N9V8M3",
    "result": []
  },
  {
    "postal": "N9V5H6",
    "result": []
  },
  {
    "postal": "N9V7W7",
    "result": []
  },
  {
    "postal": "N9V4L0",
    "result": []
  },
  {
    "postal": "N9V2N1",
    "result": [
      {
        "electoralDistricts": [
          {
            "election": null,
            "id": 27,
            "name": "Essex"
          }
        ],
        "pollDivisionIds": [
          10138014
        ],
        "postalCode": "N9V2N1",
        "streetName": "FRONT",
        "streetDirectionId": "S",
        "streetTypeId": "RD",
        "placeName": "AMHERSTBURG",
        "streetNameDisplayText": "FRONT RD S, AMHERSTBURG"
      }
    ]
  },
  {
    "postal": "N9V2H4",
    "result": [
      {
        "electoralDistricts": [
          {
            "election": null,
            "id": 27,
            "name": "Essex"
          }
        ],
        "pollDivisionIds": [
          10138015
        ],
        "postalCode": "N9V2H4",
        "streetName": "BROCK",
        "streetDirectionId": null,
        "streetTypeId": "ST",
        "placeName": "AMHERSTBURG",
        "streetNameDisplayText": "BROCK ST, AMHERSTBURG"
      }
    ]
  },
  {
    "postal": "N9V5C8",
    "result": []
  },
  {
    "postal": "N9V8B0",
    "result": []
  },
  {
    "postal": "N9V1T4",
    "result": [
      {
        "electoralDistricts": [
          {
            "election": null,
            "id": 27,
            "name": "Essex"
          }
        ],
        "pollDivisionIds": [
          10138014
        ],
        "postalCode": "N9V1T4",
        "streetName": "COOPER",
        "streetDirectionId": null,
        "streetTypeId": "LANE",
        "placeName": "AMHERSTBURG",
        "streetNameDisplayText": "COOPER LANE, AMHERSTBURG"
      }
    ]
  },
  {
    "postal": "N9V7N7",
    "result": []
  },
  {
    "postal": "N9V4L3",
    "result": []
  },
  {
    "postal": "N9V2N2",
    "result": [
      {
        "electoralDistricts": [
          {
            "election": null,
            "id": 27,
            "name": "Essex"
          }
        ],
        "pollDivisionIds": [
          10138014
        ],
        "postalCode": "N9V2N2",
        "streetName": "FRONT",
        "streetDirectionId": "S",
        "streetTypeId": "RD",
        "placeName": "AMHERSTBURG",
        "streetNameDisplayText": "FRONT RD S, AMHERSTBURG"
      }
    ]
  },
  {
    "postal": "N9V4N8",
    "result": []
  },
  {
    "postal": "N9V3M5",
    "result": []
  },
  {
    "postal": "N9V6H7",
    "result": []
  },
  {
    "postal": "N9V8Y8",
    "result": []
  },
  {
    "postal": "N9V5R9",
    "result": []
  },
  {
    "postal": "N9V8G3",
    "result": []
  },
  {
    "postal": "N9V4N7",
    "result": []
  },
  {
    "postal": "N9V0B9",
    "result": [
      {
        "electoralDistricts": [
          {
            "election": null,
            "id": 27,
            "name": "Essex"
          }
        ],
        "pollDivisionIds": [
          10138019
        ],
        "postalCode": "N9V0B9",
        "streetName": "BROWN",
        "streetDirectionId": null,
        "streetTypeId": "CRES",
        "placeName": "AMHERSTBURG",
        "streetNameDisplayText": "BROWN CRES, AMHERSTBURG"
      },
      {
        "electoralDistricts": [
          {
            "election": null,
            "id": 27,
            "name": "Essex"
          }
        ],
        "pollDivisionIds": [
          10138019
        ],
        "postalCode": "N9V0B9",
        "streetName": "WELSH",
        "streetDirectionId": null,
        "streetTypeId": "AVE",
        "placeName": "AMHERSTBURG",
        "streetNameDisplayText": "WELSH AVE, AMHERSTBURG"
      }
    ]
  },
  {
    "postal": "N9V9K7",
    "result": []
  },
  {
    "postal": "N9V9K9",
    "result": []
  },
  {
    "postal": "N9V3Z2",
    "result": [
      {
        "electoralDistricts": [
          {
            "election": null,
            "id": 27,
            "name": "Essex"
          }
        ],
        "pollDivisionIds": [
          10138019
        ],
        "postalCode": "N9V3Z2",
        "streetName": "CLUBVIEW",
        "streetDirectionId": null,
        "streetTypeId": "DR",
        "placeName": "AMHERSTBURG",
        "streetNameDisplayText": "CLUBVIEW DR, AMHERSTBURG"
      },
      {
        "electoralDistricts": [
          {
            "election": null,
            "id": 27,
            "name": "Essex"
          }
        ],
        "pollDivisionIds": [
          10138019
        ],
        "postalCode": "N9V3Z2",
        "streetName": "FESCUE",
        "streetDirectionId": null,
        "streetTypeId": "LANE",
        "placeName": "AMHERSTBURG",
        "streetNameDisplayText": "FESCUE LANE, AMHERSTBURG"
      },
      {
        "electoralDistricts": [
          {
            "election": null,
            "id": 27,
            "name": "Essex"
          }
        ],
        "pollDivisionIds": [
          10138019
        ],
        "postalCode": "N9V3Z2",
        "streetName": "LINKS",
        "streetDirectionId": null,
        "streetTypeId": "DR",
        "placeName": "AMHERSTBURG",
        "streetNameDisplayText": "LINKS DR, AMHERSTBURG"
      }
    ]
  },
  {
    "postal": "N9V6W7",
    "result": []
  },
  {
    "postal": "N9V0P1",
    "result": []
  },
  {
    "postal": "N9V3A0",
    "result": []
  },
  {
    "postal": "N9V8L9",
    "result": []
  },
  {
    "postal": "N9V6X0",
    "result": []
  },
  {
    "postal": "N9V3E9",
    "result": [
      {
        "electoralDistricts": [
          {
            "election": null,
            "id": 27,
            "name": "Essex"
          }
        ],
        "pollDivisionIds": [
          10138021
        ],
        "postalCode": "N9V3E9",
        "streetName": "RICHMOND",
        "streetDirectionId": null,
        "streetTypeId": "ST",
        "placeName": "AMHERSTBURG",
        "streetNameDisplayText": "RICHMOND ST, AMHERSTBURG"
      }
    ]
  },
  {
    "postal": "N9V0S5",
    "result": []
  },
  {
    "postal": "N9V1A2",
    "result": [
      {
        "electoralDistricts": [
          {
            "election": null,
            "id": 27,
            "name": "Essex"
          }
        ],
        "pollDivisionIds": [
          10138015
        ],
        "postalCode": "N9V1A2",
        "streetName": "ALMA",
        "streetDirectionId": null,
        "streetTypeId": "ST",
        "placeName": "AMHERSTBURG",
        "streetNameDisplayText": "ALMA ST, AMHERSTBURG"
      }
    ]
  },
  {
    "postal": "N9V5V8",
    "result": []
  },
  {
    "postal": "N9V8C5",
    "result": []
  },
  {
    "postal": "N9V6N0",
    "result": []
  },
  {
    "postal": "N9V9E6",
    "result": []
  },
  {
    "postal": "N9V5J7",
    "result": []
  },
  {
    "postal": "N9V2R2",
    "result": [
      {
        "electoralDistricts": [
          {
            "election": null,
            "id": 27,
            "name": "Essex"
          }
        ],
        "pollDivisionIds": [
          10138019
        ],
        "postalCode": "N9V2R2",
        "streetName": "GRANT",
        "streetDirectionId": null,
        "streetTypeId": "AVE",
        "placeName": "AMHERSTBURG",
        "streetNameDisplayText": "GRANT AVE, AMHERSTBURG"
      }
    ]
  },
  {
    "postal": "N9V0P5",
    "result": []
  },
  {
    "postal": "N9V5A7",
    "result": []
  },
  {
    "postal": "N9V1G1",
    "result": [
      {
        "electoralDistricts": [
          {
            "election": null,
            "id": 27,
            "name": "Essex"
          }
        ],
        "pollDivisionIds": [
          10138015
        ],
        "postalCode": "N9V1G1",
        "streetName": "RICHMOND",
        "streetDirectionId": null,
        "streetTypeId": "ST",
        "placeName": "AMHERSTBURG",
        "streetNameDisplayText": "RICHMOND ST, AMHERSTBURG"
      }
    ]
  },
  {
    "postal": "N9V9R6",
    "result": []
  },
  {
    "postal": "N9V4Z9",
    "result": []
  },
  {
    "postal": "N9V1V5",
    "result": [
      {
        "electoralDistricts": [
          {
            "election": null,
            "id": 27,
            "name": "Essex"
          }
        ],
        "pollDivisionIds": [
          10138013
        ],
        "postalCode": "N9V1V5",
        "streetName": "SCOTT",
        "streetDirectionId": null,
        "streetTypeId": "DR",
        "placeName": "AMHERSTBURG",
        "streetNameDisplayText": "SCOTT DR, AMHERSTBURG"
      }
    ]
  },
  {
    "postal": "N9V9Y5",
    "result": []
  },
  {
    "postal": "N9V1P2",
    "result": [
      {
        "electoralDistricts": [
          {
            "election": null,
            "id": 27,
            "name": "Essex"
          }
        ],
        "pollDivisionIds": [
          10138015
        ],
        "postalCode": "N9V1P2",
        "streetName": "PARK",
        "streetDirectionId": null,
        "streetTypeId": "ST",
        "placeName": "AMHERSTBURG",
        "streetNameDisplayText": "PARK ST, AMHERSTBURG"
      }
    ]
  },
  {
    "postal": "N9V5X0",
    "result": []
  },
  {
    "postal": "N9V7B8",
    "result": []
  },
  {
    "postal": "N9V0C6",
    "result": []
  },
  {
    "postal": "N9V6G1",
    "result": []
  },
  {
    "postal": "N9V3K3",
    "result": []
  },
  {
    "postal": "N9V9R0",
    "result": []
  },
  {
    "postal": "N9V4R8",
    "result": []
  },
  {
    "postal": "N9V5P9",
    "result": []
  },
  {
    "postal": "N9V8N4",
    "result": []
  },
  {
    "postal": "N9V8H4",
    "result": []
  },
  {
    "postal": "N9V4V1",
    "result": []
  },
  {
    "postal": "N9V1K5",
    "result": [
      {
        "electoralDistricts": [
          {
            "election": null,
            "id": 27,
            "name": "Essex"
          }
        ],
        "pollDivisionIds": [
          10138015
        ],
        "postalCode": "N9V1K5",
        "streetName": "GORE",
        "streetDirectionId": null,
        "streetTypeId": "ST",
        "placeName": "AMHERSTBURG",
        "streetNameDisplayText": "GORE ST, AMHERSTBURG"
      }
    ]
  },
  {
    "postal": "N9V1Z5",
    "result": [
      {
        "electoralDistricts": [
          {
            "election": null,
            "id": 27,
            "name": "Essex"
          }
        ],
        "pollDivisionIds": [
          10138015
        ],
        "postalCode": "N9V1Z5",
        "streetName": "SANDWICH",
        "streetDirectionId": "S",
        "streetTypeId": "ST",
        "placeName": "AMHERSTBURG",
        "streetNameDisplayText": "SANDWICH ST S, AMHERSTBURG"
      }
    ]
  },
  {
    "postal": "N9V9L9",
    "result": []
  },
  {
    "postal": "N9V5L2",
    "result": []
  },
  {
    "postal": "N9V0M2",
    "result": []
  },
  {
    "postal": "N9V1K8",
    "result": [
      {
        "electoralDistricts": [
          {
            "election": null,
            "id": 27,
            "name": "Essex"
          }
        ],
        "pollDivisionIds": [
          10138015
        ],
        "postalCode": "N9V1K8",
        "streetName": "GORE",
        "streetDirectionId": null,
        "streetTypeId": "ST",
        "placeName": "AMHERSTBURG",
        "streetNameDisplayText": "GORE ST, AMHERSTBURG"
      }
    ]
  },
  {
    "postal": "N9V3M7",
    "result": [
      {
        "electoralDistricts": [
          {
            "election": null,
            "id": 27,
            "name": "Essex"
          }
        ],
        "pollDivisionIds": [
          10138021
        ],
        "postalCode": "N9V3M7",
        "streetName": "VIRGINIA",
        "streetDirectionId": null,
        "streetTypeId": "AVE",
        "placeName": "AMHERSTBURG",
        "streetNameDisplayText": "VIRGINIA AVE, AMHERSTBURG"
      }
    ]
  },
  {
    "postal": "N9V1B2",
    "result": [
      {
        "electoralDistricts": [
          {
            "election": null,
            "id": 27,
            "name": "Essex"
          }
        ],
        "pollDivisionIds": [
          10138021
        ],
        "postalCode": "N9V1B2",
        "streetName": "ALMA",
        "streetDirectionId": null,
        "streetTypeId": "ST",
        "placeName": "AMHERSTBURG",
        "streetNameDisplayText": "ALMA ST, AMHERSTBURG"
      }
    ]
  },
  {
    "postal": "N9V0H9",
    "result": []
  },
  {
    "postal": "N9V8M4",
    "result": []
  },
  {
    "postal": "N9V2M5",
    "result": [
      {
        "electoralDistricts": [
          {
            "election": null,
            "id": 27,
            "name": "Essex"
          }
        ],
        "pollDivisionIds": [
          10138015,
          10138014
        ],
        "postalCode": "N9V2M5",
        "streetName": "FRONT",
        "streetDirectionId": "S",
        "streetTypeId": "RD",
        "placeName": "AMHERSTBURG",
        "streetNameDisplayText": "FRONT RD S, AMHERSTBURG"
      }
    ]
  },
  {
    "postal": "N9V0T9",
    "result": []
  },
  {
    "postal": "N9V3P1",
    "result": [
      {
        "electoralDistricts": [
          {
            "election": null,
            "id": 27,
            "name": "Essex"
          }
        ],
        "pollDivisionIds": [
          10138019
        ],
        "postalCode": "N9V3P1",
        "streetName": "POINTE WEST",
        "streetDirectionId": null,
        "streetTypeId": "DR",
        "placeName": "AMHERSTBURG",
        "streetNameDisplayText": "POINTE WEST DR, AMHERSTBURG"
      }
    ]
  },
  {
    "postal": "N9V1R6",
    "result": [
      {
        "electoralDistricts": [
          {
            "election": null,
            "id": 27,
            "name": "Essex"
          }
        ],
        "pollDivisionIds": [
          10138015
        ],
        "postalCode": "N9V1R6",
        "streetName": "PICKERING",
        "streetDirectionId": null,
        "streetTypeId": "DR",
        "placeName": "AMHERSTBURG",
        "streetNameDisplayText": "PICKERING DR, AMHERSTBURG"
      }
    ]
  },
  {
    "postal": "N9V9V5",
    "result": []
  },
  {
    "postal": "N9V9T0",
    "result": []
  },
  {
    "postal": "N9V0A9",
    "result": [
      {
        "electoralDistricts": [
          {
            "election": null,
            "id": 27,
            "name": "Essex"
          }
        ],
        "pollDivisionIds": [
          10138019
        ],
        "postalCode": "N9V0A9",
        "streetName": "WHELAN",
        "streetDirectionId": null,
        "streetTypeId": "DR",
        "placeName": "AMHERSTBURG",
        "streetNameDisplayText": "WHELAN DR, AMHERSTBURG"
      }
    ]
  },
  {
    "postal": "N9V1M3",
    "result": [
      {
        "electoralDistricts": [
          {
            "election": null,
            "id": 27,
            "name": "Essex"
          }
        ],
        "pollDivisionIds": [
          10138015
        ],
        "postalCode": "N9V1M3",
        "streetName": "SIMCOE",
        "streetDirectionId": null,
        "streetTypeId": "ST",
        "placeName": "AMHERSTBURG",
        "streetNameDisplayText": "SIMCOE ST, AMHERSTBURG"
      }
    ]
  },
  {
    "postal": "N9V1W8",
    "result": [
      {
        "electoralDistricts": [
          {
            "election": null,
            "id": 27,
            "name": "Essex"
          }
        ],
        "pollDivisionIds": [
          10138015
        ],
        "postalCode": "N9V1W8",
        "streetName": "DALHOUSIE",
        "streetDirectionId": null,
        "streetTypeId": "ST",
        "placeName": "AMHERSTBURG",
        "streetNameDisplayText": "DALHOUSIE ST, AMHERSTBURG"
      }
    ]
  },
  {
    "postal": "N9V9J1",
    "result": []
  },
  {
    "postal": "N9V8N5",
    "result": []
  },
  {
    "postal": "N9V5X1",
    "result": []
  },
  {
    "postal": "N9V6S2",
    "result": []
  },
  {
    "postal": "N9V2A2",
    "result": [
      {
        "electoralDistricts": [
          {
            "election": null,
            "id": 27,
            "name": "Essex"
          }
        ],
        "pollDivisionIds": [
          10138015
        ],
        "postalCode": "N9V2A2",
        "streetName": "SANDWICH",
        "streetDirectionId": "S",
        "streetTypeId": "ST",
        "placeName": "AMHERSTBURG",
        "streetNameDisplayText": "SANDWICH ST S, AMHERSTBURG"
      }
    ]
  },
  {
    "postal": "N9V6A6",
    "result": []
  },
  {
    "postal": "N9V0S3",
    "result": []
  },
  {
    "postal": "N9V3E7",
    "result": [
      {
        "electoralDistricts": [
          {
            "election": null,
            "id": 27,
            "name": "Essex"
          }
        ],
        "pollDivisionIds": [
          10138021
        ],
        "postalCode": "N9V3E7",
        "streetName": "PACIFIC",
        "streetDirectionId": null,
        "streetTypeId": "AVE",
        "placeName": "AMHERSTBURG",
        "streetNameDisplayText": "PACIFIC AVE, AMHERSTBURG"
      }
    ]
  },
  {
    "postal": "N9V5R7",
    "result": []
  },
  {
    "postal": "N9V3R6",
    "result": [
      {
        "electoralDistricts": [
          {
            "election": null,
            "id": 27,
            "name": "Essex"
          }
        ],
        "pollDivisionIds": [
          10138019
        ],
        "postalCode": "N9V3R6",
        "streetName": "POINTE WEST",
        "streetDirectionId": null,
        "streetTypeId": "DR",
        "placeName": "AMHERSTBURG",
        "streetNameDisplayText": "POINTE WEST DR, AMHERSTBURG"
      }
    ]
  },
  {
    "postal": "N9V6K4",
    "result": []
  },
  {
    "postal": "N9V2W5",
    "result": [
      {
        "electoralDistricts": [
          {
            "election": null,
            "id": 27,
            "name": "Essex"
          }
        ],
        "pollDivisionIds": [
          10138019,
          10138015
        ],
        "postalCode": "N9V2W5",
        "streetName": "FRASER",
        "streetDirectionId": null,
        "streetTypeId": "AVE",
        "placeName": "AMHERSTBURG",
        "streetNameDisplayText": "FRASER AVE, AMHERSTBURG"
      }
    ]
  },
  {
    "postal": "N9V8W4",
    "result": []
  },
  {
    "postal": "N9V9C2",
    "result": []
  },
  {
    "postal": "N9V2C0",
    "result": []
  },
  {
    "postal": "N9V0E1",
    "result": []
  },
  {
    "postal": "N9V1K9",
    "result": [
      {
        "electoralDistricts": [
          {
            "election": null,
            "id": 27,
            "name": "Essex"
          }
        ],
        "pollDivisionIds": [
          10138015
        ],
        "postalCode": "N9V1K9",
        "streetName": "GORE",
        "streetDirectionId": null,
        "streetTypeId": "ST",
        "placeName": "AMHERSTBURG",
        "streetNameDisplayText": "GORE ST, AMHERSTBURG"
      }
    ]
  },
  {
    "postal": "N9V1G7",
    "result": [
      {
        "electoralDistricts": [
          {
            "election": null,
            "id": 27,
            "name": "Essex"
          }
        ],
        "pollDivisionIds": [
          10138015
        ],
        "postalCode": "N9V1G7",
        "streetName": "RICHMOND",
        "streetDirectionId": null,
        "streetTypeId": "ST",
        "placeName": "AMHERSTBURG",
        "streetNameDisplayText": "RICHMOND ST, AMHERSTBURG"
      }
    ]
  },
  {
    "postal": "N9V4E9",
    "result": []
  },
  {
    "postal": "N9V9P0",
    "result": []
  },
  {
    "postal": "N9V5H3",
    "result": []
  },
  {
    "postal": "N9V9X6",
    "result": []
  },
  {
    "postal": "N9V5N7",
    "result": []
  },
  {
    "postal": "N9V5A6",
    "result": []
  },
  {
    "postal": "N9V4M0",
    "result": []
  },
  {
    "postal": "N9V3V6",
    "result": [
      {
        "electoralDistricts": [
          {
            "election": null,
            "id": 27,
            "name": "Essex"
          }
        ],
        "pollDivisionIds": [
          10138015
        ],
        "postalCode": "N9V3V6",
        "streetName": "KEMPT",
        "streetDirectionId": null,
        "streetTypeId": "ST",
        "placeName": "AMHERSTBURG",
        "streetNameDisplayText": "KEMPT ST, AMHERSTBURG"
      }
    ]
  },
  {
    "postal": "N9V1L7",
    "result": []
  },
  {
    "postal": "N9V2P9",
    "result": [
      {
        "electoralDistricts": [
          {
            "election": null,
            "id": 27,
            "name": "Essex"
          }
        ],
        "pollDivisionIds": [
          10138019
        ],
        "postalCode": "N9V2P9",
        "streetName": "GRANT",
        "streetDirectionId": null,
        "streetTypeId": "AVE",
        "placeName": "AMHERSTBURG",
        "streetNameDisplayText": "GRANT AVE, AMHERSTBURG"
      }
    ]
  },
  {
    "postal": "N9V5T4",
    "result": []
  },
  {
    "postal": "N9V5Z1",
    "result": []
  },
  {
    "postal": "N9V2X0",
    "result": []
  },
  {
    "postal": "N9V6Z2",
    "result": []
  },
  {
    "postal": "N9V0E0",
    "result": []
  },
  {
    "postal": "N9V3Z5",
    "result": [
      {
        "electoralDistricts": [
          {
            "election": null,
            "id": 27,
            "name": "Essex"
          }
        ],
        "pollDivisionIds": [
          10138021
        ],
        "postalCode": "N9V3Z5",
        "streetName": "RICHMOND",
        "streetDirectionId": null,
        "streetTypeId": "ST",
        "placeName": "AMHERSTBURG",
        "streetNameDisplayText": "RICHMOND ST, AMHERSTBURG"
      },
      {
        "electoralDistricts": [
          {
            "election": null,
            "id": 27,
            "name": "Essex"
          }
        ],
        "pollDivisionIds": [
          10138021
        ],
        "postalCode": "N9V3Z5",
        "streetName": "VERMONT",
        "streetDirectionId": null,
        "streetTypeId": "DR",
        "placeName": "AMHERSTBURG",
        "streetNameDisplayText": "VERMONT DR, AMHERSTBURG"
      }
    ]
  },
  {
    "postal": "N9V8H3",
    "result": []
  },
  {
    "postal": "N9V7S6",
    "result": []
  },
  {
    "postal": "N9V4C1",
    "result": [
      {
        "electoralDistricts": [
          {
            "election": null,
            "id": 27,
            "name": "Essex"
          }
        ],
        "pollDivisionIds": [
          10138019
        ],
        "postalCode": "N9V4C1",
        "streetName": "FOREST HILL",
        "streetDirectionId": null,
        "streetTypeId": "CRES",
        "placeName": "AMHERSTBURG",
        "streetNameDisplayText": "FOREST HILL CRES, AMHERSTBURG"
      },
      {
        "electoralDistricts": [
          {
            "election": null,
            "id": 27,
            "name": "Essex"
          }
        ],
        "pollDivisionIds": [
          10138019
        ],
        "postalCode": "N9V4C1",
        "streetName": "GOLFVIEW",
        "streetDirectionId": null,
        "streetTypeId": "DR",
        "placeName": "AMHERSTBURG",
        "streetNameDisplayText": "GOLFVIEW DR, AMHERSTBURG"
      }
    ]
  },
  {
    "postal": "N9V3K2",
    "result": [
      {
        "electoralDistricts": [
          {
            "election": null,
            "id": 27,
            "name": "Essex"
          }
        ],
        "pollDivisionIds": [
          10138021
        ],
        "postalCode": "N9V3K2",
        "streetName": "BALTIC",
        "streetDirectionId": null,
        "streetTypeId": "AVE",
        "placeName": "AMHERSTBURG",
        "streetNameDisplayText": "BALTIC AVE, AMHERSTBURG"
      }
    ]
  },
  {
    "postal": "N9V1Y5",
    "result": [
      {
        "electoralDistricts": [
          {
            "election": null,
            "id": 27,
            "name": "Essex"
          }
        ],
        "pollDivisionIds": [
          10138015
        ],
        "postalCode": "N9V1Y5",
        "streetName": "RAMSAY",
        "streetDirectionId": null,
        "streetTypeId": "ST",
        "placeName": "AMHERSTBURG",
        "streetNameDisplayText": "RAMSAY ST, AMHERSTBURG"
      }
    ]
  },
  {
    "postal": "N9V6P6",
    "result": []
  },
  {
    "postal": "N9V3N9",
    "result": [
      {
        "electoralDistricts": [
          {
            "election": null,
            "id": 27,
            "name": "Essex"
          }
        ],
        "pollDivisionIds": [
          10138019
        ],
        "postalCode": "N9V3N9",
        "streetName": "POINTE WEST",
        "streetDirectionId": null,
        "streetTypeId": "DR",
        "placeName": "AMHERSTBURG",
        "streetNameDisplayText": "POINTE WEST DR, AMHERSTBURG"
      }
    ]
  },
  {
    "postal": "N9V3W2",
    "result": [
      {
        "electoralDistricts": [
          {
            "election": null,
            "id": 27,
            "name": "Essex"
          }
        ],
        "pollDivisionIds": [
          10138015
        ],
        "postalCode": "N9V3W2",
        "streetName": "PICKERING",
        "streetDirectionId": null,
        "streetTypeId": "DR",
        "placeName": "AMHERSTBURG",
        "streetNameDisplayText": "PICKERING DR, AMHERSTBURG"
      }
    ]
  },
  {
    "postal": "N9V6H8",
    "result": []
  },
  {
    "postal": "N9V9T3",
    "result": []
  },
  {
    "postal": "N9V5L9",
    "result": []
  },
  {
    "postal": "N9V7X7",
    "result": []
  },
  {
    "postal": "N9V3J5",
    "result": [
      {
        "electoralDistricts": [
          {
            "election": null,
            "id": 27,
            "name": "Essex"
          }
        ],
        "pollDivisionIds": [
          10138021
        ],
        "postalCode": "N9V3J5",
        "streetName": "VENTNOR",
        "streetDirectionId": null,
        "streetTypeId": "AVE",
        "placeName": "AMHERSTBURG",
        "streetNameDisplayText": "VENTNOR AVE, AMHERSTBURG"
      }
    ]
  },
  {
    "postal": "N9V4J5",
    "result": []
  },
  {
    "postal": "N9V6J2",
    "result": []
  },
  {
    "postal": "N9V5V6",
    "result": []
  },
  {
    "postal": "N9V3N2",
    "result": [
      {
        "electoralDistricts": [
          {
            "election": null,
            "id": 27,
            "name": "Essex"
          }
        ],
        "pollDivisionIds": [
          10138021
        ],
        "postalCode": "N9V3N2",
        "streetName": "VIRGINIA",
        "streetDirectionId": null,
        "streetTypeId": "AVE",
        "placeName": "AMHERSTBURG",
        "streetNameDisplayText": "VIRGINIA AVE, AMHERSTBURG"
      }
    ]
  },
  {
    "postal": "N9V3B1",
    "result": []
  },
  {
    "postal": "N9V8B5",
    "result": []
  },
  {
    "postal": "N9V0K1",
    "result": []
  },
  {
    "postal": "N9V7M7",
    "result": []
  },
  {
    "postal": "N9V2M2",
    "result": [
      {
        "electoralDistricts": [
          {
            "election": null,
            "id": 27,
            "name": "Essex"
          }
        ],
        "pollDivisionIds": [
          10138015
        ],
        "postalCode": "N9V2M2",
        "streetName": "DALHOUSIE",
        "streetDirectionId": null,
        "streetTypeId": "ST",
        "placeName": "AMHERSTBURG",
        "streetNameDisplayText": "DALHOUSIE ST, AMHERSTBURG"
      }
    ]
  },
  {
    "postal": "N9V9N3",
    "result": []
  },
  {
    "postal": "N9V4Y8",
    "result": []
  },
  {
    "postal": "N9V3V7",
    "result": [
      {
        "electoralDistricts": [
          {
            "election": null,
            "id": 27,
            "name": "Essex"
          }
        ],
        "pollDivisionIds": [
          10138021
        ],
        "postalCode": "N9V3V7",
        "streetName": "GIBB",
        "streetDirectionId": null,
        "streetTypeId": "ST",
        "placeName": "AMHERSTBURG",
        "streetNameDisplayText": "GIBB ST, AMHERSTBURG"
      },
      {
        "electoralDistricts": [
          {
            "election": null,
            "id": 27,
            "name": "Essex"
          }
        ],
        "pollDivisionIds": [
          10138021
        ],
        "postalCode": "N9V3V7",
        "streetName": "HEATON",
        "streetDirectionId": null,
        "streetTypeId": "ST",
        "placeName": "AMHERSTBURG",
        "streetNameDisplayText": "HEATON ST, AMHERSTBURG"
      },
      {
        "electoralDistricts": [
          {
            "election": null,
            "id": 27,
            "name": "Essex"
          }
        ],
        "pollDivisionIds": [
          10138021
        ],
        "postalCode": "N9V3V7",
        "streetName": "SULLIVAN",
        "streetDirectionId": null,
        "streetTypeId": "ST",
        "placeName": "AMHERSTBURG",
        "streetNameDisplayText": "SULLIVAN ST, AMHERSTBURG"
      }
    ]
  },
  {
    "postal": "N9V8Z1",
    "result": []
  },
  {
    "postal": "N9V7B3",
    "result": []
  },
  {
    "postal": "N9V3A8",
    "result": [
      {
        "electoralDistricts": [
          {
            "election": null,
            "id": 27,
            "name": "Essex"
          }
        ],
        "pollDivisionIds": [
          10138021
        ],
        "postalCode": "N9V3A8",
        "streetName": "HOLIDAY",
        "streetDirectionId": null,
        "streetTypeId": "CRT",
        "placeName": "AMHERSTBURG",
        "streetNameDisplayText": "HOLIDAY CRT, AMHERSTBURG"
      }
    ]
  },
  {
    "postal": "N9V7V5",
    "result": []
  },
  {
    "postal": "N9V2T2",
    "result": [
      {
        "electoralDistricts": [
          {
            "election": null,
            "id": 27,
            "name": "Essex"
          }
        ],
        "pollDivisionIds": [
          10138019
        ],
        "postalCode": "N9V2T2",
        "streetName": "CENTRE",
        "streetDirectionId": null,
        "streetTypeId": "ST",
        "placeName": "AMHERSTBURG",
        "streetNameDisplayText": "CENTRE ST, AMHERSTBURG"
      }
    ]
  },
  {
    "postal": "N9V6L3",
    "result": []
  },
  {
    "postal": "N9V0L2",
    "result": []
  },
  {
    "postal": "N9V5Y8",
    "result": []
  },
  {
    "postal": "N9V0B8",
    "result": [
      {
        "electoralDistricts": [
          {
            "election": null,
            "id": 27,
            "name": "Essex"
          }
        ],
        "pollDivisionIds": [
          10138021
        ],
        "postalCode": "N9V0B8",
        "streetName": "RIVERFRONT",
        "streetDirectionId": null,
        "streetTypeId": "CRES",
        "placeName": "AMHERSTBURG",
        "streetNameDisplayText": "RIVERFRONT CRES, AMHERSTBURG"
      },
      {
        "electoralDistricts": [
          {
            "election": null,
            "id": 27,
            "name": "Essex"
          }
        ],
        "pollDivisionIds": [
          10138015,
          10138020
        ],
        "postalCode": "N9V0B8",
        "streetName": "RIVERFRONT PARK",
        "streetDirectionId": null,
        "streetTypeId": "CRES",
        "placeName": "AMHERSTBURG",
        "streetNameDisplayText": "RIVERFRONT PARK CRES, AMHERSTBURG"
      },
      {
        "electoralDistricts": [
          {
            "election": null,
            "id": 27,
            "name": "Essex"
          }
        ],
        "pollDivisionIds": [
          10138020
        ],
        "postalCode": "N9V0B8",
        "streetName": "RIVERFRONT PARK CRES.",
        "streetDirectionId": null,
        "streetTypeId": "CRES",
        "placeName": "AMHERSTBURG",
        "streetNameDisplayText": "RIVERFRONT PARK CRES. CRES, AMHERSTBURG"
      },
      {
        "electoralDistricts": [
          {
            "election": null,
            "id": 27,
            "name": "Essex"
          }
        ],
        "pollDivisionIds": [
          10138015,
          10138020
        ],
        "postalCode": "N9V0B8",
        "streetName": "RIVERFRONT PARK CRST",
        "streetDirectionId": null,
        "streetTypeId": "CRES",
        "placeName": "AMHERSTBURG",
        "streetNameDisplayText": "RIVERFRONT PARK CRST CRES, AMHERSTBURG"
      }
    ]
  },
  {
    "postal": "N9V6R5",
    "result": []
  },
  {
    "postal": "N9V8W6",
    "result": []
  },
  {
    "postal": "N9V8G6",
    "result": []
  },
  {
    "postal": "N9V6X3",
    "result": []
  },
  {
    "postal": "N9V7R7",
    "result": []
  },
  {
    "postal": "N9V4B6",
    "result": [
      {
        "electoralDistricts": [
          {
            "election": null,
            "id": 27,
            "name": "Essex"
          }
        ],
        "pollDivisionIds": [
          10138019
        ],
        "postalCode": "N9V4B6",
        "streetName": "OXFORD",
        "streetDirectionId": null,
        "streetTypeId": "CRES",
        "placeName": "AMHERSTBURG",
        "streetNameDisplayText": "OXFORD CRES, AMHERSTBURG"
      },
      {
        "electoralDistricts": [
          {
            "election": null,
            "id": 27,
            "name": "Essex"
          }
        ],
        "pollDivisionIds": [
          10138019
        ],
        "postalCode": "N9V4B6",
        "streetName": "WHELAN",
        "streetDirectionId": null,
        "streetTypeId": "DR",
        "placeName": "AMHERSTBURG",
        "streetNameDisplayText": "WHELAN DR, AMHERSTBURG"
      }
    ]
  },
  {
    "postal": "N9V3P9",
    "result": [
      {
        "electoralDistricts": [
          {
            "election": null,
            "id": 27,
            "name": "Essex"
          }
        ],
        "pollDivisionIds": [
          10138019
        ],
        "postalCode": "N9V3P9",
        "streetName": "MIDDLE",
        "streetDirectionId": "N",
        "streetTypeId": "RD",
        "placeName": "AMHERSTBURG",
        "streetNameDisplayText": "MIDDLE RD N, AMHERSTBURG"
      }
    ]
  },
  {
    "postal": "N9V2T3",
    "result": [
      {
        "electoralDistricts": [
          {
            "election": null,
            "id": 27,
            "name": "Essex"
          }
        ],
        "pollDivisionIds": [
          10138019
        ],
        "postalCode": "N9V2T3",
        "streetName": "SHANGRILA",
        "streetDirectionId": null,
        "streetTypeId": "ST",
        "placeName": "AMHERSTBURG",
        "streetNameDisplayText": "SHANGRILA ST, AMHERSTBURG"
      }
    ]
  },
  {
    "postal": "N9V1M4",
    "result": [
      {
        "electoralDistricts": [
          {
            "election": null,
            "id": 27,
            "name": "Essex"
          }
        ],
        "pollDivisionIds": [
          10138015
        ],
        "postalCode": "N9V1M4",
        "streetName": "SIMCOE",
        "streetDirectionId": null,
        "streetTypeId": "ST",
        "placeName": "AMHERSTBURG",
        "streetNameDisplayText": "SIMCOE ST, AMHERSTBURG"
      }
    ]
  },
  {
    "postal": "N9V0H1",
    "result": []
  },
  {
    "postal": "N9V9W3",
    "result": []
  },
  {
    "postal": "N9V6P1",
    "result": []
  },
  {
    "postal": "N9V7G2",
    "result": []
  },
  {
    "postal": "N9V4J9",
    "result": []
  },
  {
    "postal": "N9V9E4",
    "result": []
  },
  {
    "postal": "N9V8H0",
    "result": []
  },
  {
    "postal": "N9V4M7",
    "result": []
  },
  {
    "postal": "N9V2G9",
    "result": [
      {
        "electoralDistricts": [
          {
            "election": null,
            "id": 27,
            "name": "Essex"
          }
        ],
        "pollDivisionIds": [
          10138015
        ],
        "postalCode": "N9V2G9",
        "streetName": "BROCK",
        "streetDirectionId": null,
        "streetTypeId": "ST",
        "placeName": "AMHERSTBURG",
        "streetNameDisplayText": "BROCK ST, AMHERSTBURG"
      }
    ]
  },
  {
    "postal": "N9V8T2",
    "result": []
  },
  {
    "postal": "N9V7G7",
    "result": []
  },
  {
    "postal": "N9V4Z3",
    "result": []
  },
  {
    "postal": "N9V5B3",
    "result": []
  },
  {
    "postal": "N9V1S7",
    "result": []
  },
  {
    "postal": "N9V2N7",
    "result": [
      {
        "electoralDistricts": [
          {
            "election": null,
            "id": 27,
            "name": "Essex"
          }
        ],
        "pollDivisionIds": [
          10138013
        ],
        "postalCode": "N9V2N7",
        "streetName": "FRONT",
        "streetDirectionId": "S",
        "streetTypeId": "RD",
        "placeName": "AMHERSTBURG",
        "streetNameDisplayText": "FRONT RD S, AMHERSTBURG"
      }
    ]
  },
  {
    "postal": "N9V0H8",
    "result": []
  },
  {
    "postal": "N9V7Z4",
    "result": []
  },
  {
    "postal": "N9V7B1",
    "result": []
  },
  {
    "postal": "N9V7P8",
    "result": []
  },
  {
    "postal": "N9V7N0",
    "result": []
  },
  {
    "postal": "N9V3Y5",
    "result": [
      {
        "electoralDistricts": [
          {
            "election": null,
            "id": 27,
            "name": "Essex"
          }
        ],
        "pollDivisionIds": [
          10138021
        ],
        "postalCode": "N9V3Y5",
        "streetName": "BRUSH",
        "streetDirectionId": null,
        "streetTypeId": "CRES",
        "placeName": "AMHERSTBURG",
        "streetNameDisplayText": "BRUSH CRES, AMHERSTBURG"
      },
      {
        "electoralDistricts": [
          {
            "election": null,
            "id": 27,
            "name": "Essex"
          }
        ],
        "pollDivisionIds": [
          10138021
        ],
        "postalCode": "N9V3Y5",
        "streetName": "RICHMOND",
        "streetDirectionId": null,
        "streetTypeId": "ST",
        "placeName": "AMHERSTBURG",
        "streetNameDisplayText": "RICHMOND ST, AMHERSTBURG"
      }
    ]
  },
  {
    "postal": "N9V6K1",
    "result": []
  },
  {
    "postal": "N9V9X5",
    "result": []
  },
  {
    "postal": "N9V7S5",
    "result": []
  },
  {
    "postal": "N9V0A4",
    "result": []
  },
  {
    "postal": "N9V4T5",
    "result": []
  },
  {
    "postal": "N9V5K1",
    "result": []
  },
  {
    "postal": "N9V0Z9",
    "result": []
  },
  {
    "postal": "N9V7T2",
    "result": []
  },
  {
    "postal": "N9V1L5",
    "result": [
      {
        "electoralDistricts": [
          {
            "election": null,
            "id": 27,
            "name": "Essex"
          }
        ],
        "pollDivisionIds": [
          10138015
        ],
        "postalCode": "N9V1L5",
        "streetName": "GORE",
        "streetDirectionId": null,
        "streetTypeId": "ST",
        "placeName": "AMHERSTBURG",
        "streetNameDisplayText": "GORE ST, AMHERSTBURG"
      }
    ]
  },
  {
    "postal": "N9V3N5",
    "result": [
      {
        "electoralDistricts": [
          {
            "election": null,
            "id": 27,
            "name": "Essex"
          }
        ],
        "pollDivisionIds": [
          10138015
        ],
        "postalCode": "N9V3N5",
        "streetName": "VICTORIA",
        "streetDirectionId": "S",
        "streetTypeId": "ST",
        "placeName": "AMHERSTBURG",
        "streetNameDisplayText": "VICTORIA ST S, AMHERSTBURG"
      }
    ]
  },
  {
    "postal": "N9V6H4",
    "result": []
  },
  {
    "postal": "N9V5A5",
    "result": []
  },
  {
    "postal": "N9V3R9",
    "result": []
  },
  {
    "postal": "N9V7L8",
    "result": []
  },
  {
    "postal": "N9V6T6",
    "result": []
  },
  {
    "postal": "N9V7Y7",
    "result": []
  },
  {
    "postal": "N9V3M8",
    "result": [
      {
        "electoralDistricts": [
          {
            "election": null,
            "id": 27,
            "name": "Essex"
          }
        ],
        "pollDivisionIds": [
          10138021
        ],
        "postalCode": "N9V3M8",
        "streetName": "MARVIN",
        "streetDirectionId": null,
        "streetTypeId": "GDNS",
        "placeName": "AMHERSTBURG",
        "streetNameDisplayText": "MARVIN GDNS, AMHERSTBURG"
      }
    ]
  },
  {
    "postal": "N9V2E0",
    "result": []
  },
  {
    "postal": "N9V4B5",
    "result": [
      {
        "electoralDistricts": [
          {
            "election": null,
            "id": 27,
            "name": "Essex"
          }
        ],
        "pollDivisionIds": [
          10138019
        ],
        "postalCode": "N9V4B5",
        "streetName": "CAMBRIDGE",
        "streetDirectionId": null,
        "streetTypeId": "CRT",
        "placeName": "AMHERSTBURG",
        "streetNameDisplayText": "CAMBRIDGE CRT, AMHERSTBURG"
      },
      {
        "electoralDistricts": [
          {
            "election": null,
            "id": 27,
            "name": "Essex"
          }
        ],
        "pollDivisionIds": [
          10138015,
          10138019
        ],
        "postalCode": "N9V4B5",
        "streetName": "WHELAN",
        "streetDirectionId": null,
        "streetTypeId": "DR",
        "placeName": "AMHERSTBURG",
        "streetNameDisplayText": "WHELAN DR, AMHERSTBURG"
      }
    ]
  },
  {
    "postal": "N9V1J3",
    "result": [
      {
        "electoralDistricts": [
          {
            "election": null,
            "id": 27,
            "name": "Essex"
          }
        ],
        "pollDivisionIds": [
          10138015
        ],
        "postalCode": "N9V1J3",
        "streetName": "MURRAY",
        "streetDirectionId": null,
        "streetTypeId": "ST",
        "placeName": "AMHERSTBURG",
        "streetNameDisplayText": "MURRAY ST, AMHERSTBURG"
      }
    ]
  },
  {
    "postal": "N9V5S6",
    "result": []
  },
  {
    "postal": "N9V8P7",
    "result": []
  },
  {
    "postal": "N9V7S7",
    "result": []
  },
  {
    "postal": "N9V4C2",
    "result": [
      {
        "electoralDistricts": [
          {
            "election": null,
            "id": 27,
            "name": "Essex"
          }
        ],
        "pollDivisionIds": [
          10138019
        ],
        "postalCode": "N9V4C2",
        "streetName": "FOREST HILL",
        "streetDirectionId": null,
        "streetTypeId": "CRES",
        "placeName": "AMHERSTBURG",
        "streetNameDisplayText": "FOREST HILL CRES, AMHERSTBURG"
      },
      {
        "electoralDistricts": [
          {
            "election": null,
            "id": 27,
            "name": "Essex"
          }
        ],
        "pollDivisionIds": [
          10138019
        ],
        "postalCode": "N9V4C2",
        "streetName": "FOREST HILL",
        "streetDirectionId": null,
        "streetTypeId": "CRT",
        "placeName": "AMHERSTBURG",
        "streetNameDisplayText": "FOREST HILL CRT, AMHERSTBURG"
      },
      {
        "electoralDistricts": [
          {
            "election": null,
            "id": 27,
            "name": "Essex"
          }
        ],
        "pollDivisionIds": [
          10138019
        ],
        "postalCode": "N9V4C2",
        "streetName": "LINWOOD",
        "streetDirectionId": null,
        "streetTypeId": "DR",
        "placeName": "AMHERSTBURG",
        "streetNameDisplayText": "LINWOOD DR, AMHERSTBURG"
      }
    ]
  },
  {
    "postal": "N9V5Y0",
    "result": []
  },
  {
    "postal": "N9V2V7",
    "result": [
      {
        "electoralDistricts": [
          {
            "election": null,
            "id": 27,
            "name": "Essex"
          }
        ],
        "pollDivisionIds": [
          10138019
        ],
        "postalCode": "N9V2V7",
        "streetName": "FRONT",
        "streetDirectionId": "N",
        "streetTypeId": "RD",
        "placeName": "AMHERSTBURG",
        "streetNameDisplayText": "FRONT RD N, AMHERSTBURG"
      },
      {
        "electoralDistricts": [
          {
            "election": null,
            "id": 27,
            "name": "Essex"
          }
        ],
        "pollDivisionIds": [
          10138014
        ],
        "postalCode": "N9V2V7",
        "streetName": "FRONT",
        "streetDirectionId": "S",
        "streetTypeId": "RD",
        "placeName": "AMHERSTBURG",
        "streetNameDisplayText": "FRONT RD S, AMHERSTBURG"
      },
      {
        "electoralDistricts": [
          {
            "election": null,
            "id": 27,
            "name": "Essex"
          }
        ],
        "pollDivisionIds": [
          10138031
        ],
        "postalCode": "N9V2V7",
        "streetName": "SMITH",
        "streetDirectionId": null,
        "streetTypeId": "RD",
        "placeName": "AMHERSTBURG",
        "streetNameDisplayText": "SMITH RD, AMHERSTBURG"
      },
      {
        "electoralDistricts": [
          {
            "election": null,
            "id": 27,
            "name": "Essex"
          }
        ],
        "pollDivisionIds": [
          10138031
        ],
        "postalCode": "N9V2V7",
        "streetName": "SMITH",
        "streetDirectionId": null,
        "streetTypeId": "RD",
        "placeName": "AMHERSTBURG, ONT",
        "streetNameDisplayText": "SMITH RD, AMHERSTBURG, ONT"
      }
    ]
  },
  {
    "postal": "N9V8P5",
    "result": []
  },
  {
    "postal": "N9V5P5",
    "result": []
  },
  {
    "postal": "N9V5Z0",
    "result": []
  },
  {
    "postal": "N9V9B0",
    "result": []
  },
  {
    "postal": "N9V1L0",
    "result": []
  },
  {
    "postal": "N9V0B5",
    "result": []
  },
  {
    "postal": "N9V3L2",
    "result": [
      {
        "electoralDistricts": [
          {
            "election": null,
            "id": 27,
            "name": "Essex"
          }
        ],
        "pollDivisionIds": [
          10138021,
          10138015
        ],
        "postalCode": "N9V3L2",
        "streetName": "DALHOUSIE",
        "streetDirectionId": null,
        "streetTypeId": "ST",
        "placeName": "AMHERSTBURG",
        "streetNameDisplayText": "DALHOUSIE ST, AMHERSTBURG"
      }
    ]
  },
  {
    "postal": "N9V3B7",
    "result": [
      {
        "electoralDistricts": [
          {
            "election": null,
            "id": 27,
            "name": "Essex"
          }
        ],
        "pollDivisionIds": [
          10138015
        ],
        "postalCode": "N9V3B7",
        "streetName": "MCCURDY",
        "streetDirectionId": null,
        "streetTypeId": "DR",
        "placeName": "AMHERSTBURG",
        "streetNameDisplayText": "MCCURDY DR, AMHERSTBURG"
      }
    ]
  },
  {
    "postal": "N9V8L1",
    "result": []
  },
  {
    "postal": "N9V5M4",
    "result": []
  },
  {
    "postal": "N9V4G9",
    "result": []
  },
  {
    "postal": "N9V0P0",
    "result": []
  },
  {
    "postal": "N9V8G2",
    "result": []
  },
  {
    "postal": "N9V1V9",
    "result": [
      {
        "electoralDistricts": [
          {
            "election": null,
            "id": 27,
            "name": "Essex"
          }
        ],
        "pollDivisionIds": [
          10138013
        ],
        "postalCode": "N9V1V9",
        "streetName": "MCDONALD",
        "streetDirectionId": null,
        "streetTypeId": "AVE",
        "placeName": "AMHERSTBURG",
        "streetNameDisplayText": "MCDONALD AVE, AMHERSTBURG"
      }
    ]
  },
  {
    "postal": "N9V8N8",
    "result": []
  },
  {
    "postal": "N9V6S8",
    "result": []
  },
  {
    "postal": "N9V8H2",
    "result": []
  },
  {
    "postal": "N9V5R8",
    "result": []
  },
  {
    "postal": "N9V5L4",
    "result": []
  },
  {
    "postal": "N9V9E1",
    "result": []
  },
  {
    "postal": "N9V1C4",
    "result": [
      {
        "electoralDistricts": [
          {
            "election": null,
            "id": 27,
            "name": "Essex"
          }
        ],
        "pollDivisionIds": [
          10138021
        ],
        "postalCode": "N9V1C4",
        "streetName": "FORT",
        "streetDirectionId": null,
        "streetTypeId": "ST",
        "placeName": "AMHERSTBURG",
        "streetNameDisplayText": "FORT ST, AMHERSTBURG"
      }
    ]
  },
  {
    "postal": "N9V8W5",
    "result": []
  },
  {
    "postal": "N9V1Y4",
    "result": [
      {
        "electoralDistricts": [
          {
            "election": null,
            "id": 27,
            "name": "Essex"
          }
        ],
        "pollDivisionIds": [
          10138015
        ],
        "postalCode": "N9V1Y4",
        "streetName": "RAMSAY",
        "streetDirectionId": null,
        "streetTypeId": "ST",
        "placeName": "AMHERSTBURG",
        "streetNameDisplayText": "RAMSAY ST, AMHERSTBURG"
      }
    ]
  },
  {
    "postal": "N9V1C0",
    "result": []
  },
  {
    "postal": "N9V2J2",
    "result": [
      {
        "electoralDistricts": [
          {
            "election": null,
            "id": 27,
            "name": "Essex"
          }
        ],
        "pollDivisionIds": [
          10138015
        ],
        "postalCode": "N9V2J2",
        "streetName": "WOLFE",
        "streetDirectionId": null,
        "streetTypeId": "ST",
        "placeName": "AMHERSTBURG",
        "streetNameDisplayText": "WOLFE ST, AMHERSTBURG"
      }
    ]
  },
  {
    "postal": "N9V2J0",
    "result": []
  },
  {
    "postal": "N9V7A3",
    "result": []
  },
  {
    "postal": "N9V8M1",
    "result": []
  },
  {
    "postal": "N9V7T9",
    "result": []
  },
  {
    "postal": "N9V6C0",
    "result": []
  },
  {
    "postal": "N9V7X1",
    "result": []
  },
  {
    "postal": "N9V0G1",
    "result": [
      {
        "electoralDistricts": [
          {
            "election": null,
            "id": 27,
            "name": "Essex"
          }
        ],
        "pollDivisionIds": [
          10138021
        ],
        "postalCode": "N9V0G1",
        "streetName": "MEADOWVIEW",
        "streetDirectionId": null,
        "streetTypeId": "AVE",
        "placeName": "AMHERSTBURG",
        "streetNameDisplayText": "MEADOWVIEW AVE, AMHERSTBURG"
      }
    ]
  },
  {
    "postal": "N9V4X2",
    "result": []
  },
  {
    "postal": "N9V0N6",
    "result": []
  },
  {
    "postal": "N9V8E3",
    "result": []
  },
  {
    "postal": "N9V5S8",
    "result": []
  },
  {
    "postal": "N9V0R0",
    "result": []
  },
  {
    "postal": "N9V6J6",
    "result": []
  },
  {
    "postal": "N9V4B4",
    "result": [
      {
        "electoralDistricts": [
          {
            "election": null,
            "id": 27,
            "name": "Essex"
          }
        ],
        "pollDivisionIds": [
          10138019
        ],
        "postalCode": "N9V4B4",
        "streetName": "GOLFVIEW",
        "streetDirectionId": null,
        "streetTypeId": "DR",
        "placeName": "AMHERSTBURG",
        "streetNameDisplayText": "GOLFVIEW DR, AMHERSTBURG"
      },
      {
        "electoralDistricts": [
          {
            "election": null,
            "id": 27,
            "name": "Essex"
          }
        ],
        "pollDivisionIds": [
          10138019
        ],
        "postalCode": "N9V4B4",
        "streetName": "PARK LANE",
        "streetDirectionId": null,
        "streetTypeId": "CIR",
        "placeName": "AMHERSTBURG",
        "streetNameDisplayText": "PARK LANE CIR, AMHERSTBURG"
      },
      {
        "electoralDistricts": [
          {
            "election": null,
            "id": 27,
            "name": "Essex"
          }
        ],
        "pollDivisionIds": [
          10138019
        ],
        "postalCode": "N9V4B4",
        "streetName": "PARK LANE",
        "streetDirectionId": null,
        "streetTypeId": "CRT",
        "placeName": "AMHERSTBURG",
        "streetNameDisplayText": "PARK LANE CRT, AMHERSTBURG"
      }
    ]
  },
  {
    "postal": "N9V7E3",
    "result": []
  },
  {
    "postal": "N9V3N6",
    "result": [
      {
        "electoralDistricts": [
          {
            "election": null,
            "id": 27,
            "name": "Essex"
          }
        ],
        "pollDivisionIds": [
          10138015
        ],
        "postalCode": "N9V3N6",
        "streetName": "PICKERING",
        "streetDirectionId": null,
        "streetTypeId": "DR",
        "placeName": "AMHERSTBURG",
        "streetNameDisplayText": "PICKERING DR, AMHERSTBURG"
      }
    ]
  },
  {
    "postal": "N9V3X6",
    "result": [
      {
        "electoralDistricts": [
          {
            "election": null,
            "id": 27,
            "name": "Essex"
          }
        ],
        "pollDivisionIds": [
          10138021
        ],
        "postalCode": "N9V3X6",
        "streetName": "INDIANA",
        "streetDirectionId": null,
        "streetTypeId": "PL",
        "placeName": "AMHERSTBURG",
        "streetNameDisplayText": "INDIANA PL, AMHERSTBURG"
      },
      {
        "electoralDistricts": [
          {
            "election": null,
            "id": 27,
            "name": "Essex"
          }
        ],
        "pollDivisionIds": [
          10138021
        ],
        "postalCode": "N9V3X6",
        "streetName": "MEDITERRANEAN",
        "streetDirectionId": null,
        "streetTypeId": "AVE",
        "placeName": "AMHERSTBURG",
        "streetNameDisplayText": "MEDITERRANEAN AVE, AMHERSTBURG"
      }
    ]
  },
  {
    "postal": "N9V8L0",
    "result": []
  },
  {
    "postal": "N9V8N1",
    "result": []
  },
  {
    "postal": "N9V4J0",
    "result": []
  },
  {
    "postal": "N9V0X7",
    "result": []
  },
  {
    "postal": "N9V6S4",
    "result": []
  },
  {
    "postal": "N9V0Z0",
    "result": []
  },
  {
    "postal": "N9V9X8",
    "result": []
  },
  {
    "postal": "N9V3H3",
    "result": [
      {
        "electoralDistricts": [
          {
            "election": null,
            "id": 27,
            "name": "Essex"
          }
        ],
        "pollDivisionIds": [
          10138021
        ],
        "postalCode": "N9V3H3",
        "streetName": "BOARDWALK",
        "streetDirectionId": null,
        "streetTypeId": "AVE",
        "placeName": "AMHERSTBURG",
        "streetNameDisplayText": "BOARDWALK AVE, AMHERSTBURG"
      }
    ]
  },
  {
    "postal": "N9V7S2",
    "result": []
  },
  {
    "postal": "N9V3T3",
    "result": [
      {
        "electoralDistricts": [
          {
            "election": null,
            "id": 27,
            "name": "Essex"
          }
        ],
        "pollDivisionIds": [
          10138019
        ],
        "postalCode": "N9V3T3",
        "streetName": "TURNER",
        "streetDirectionId": null,
        "streetTypeId": "CRES",
        "placeName": "AMHERSTBURG",
        "streetNameDisplayText": "TURNER CRES, AMHERSTBURG"
      },
      {
        "electoralDistricts": [
          {
            "election": null,
            "id": 27,
            "name": "Essex"
          }
        ],
        "pollDivisionIds": [
          10138019
        ],
        "postalCode": "N9V3T3",
        "streetName": "WRIGHT",
        "streetDirectionId": null,
        "streetTypeId": "AVE",
        "placeName": "AMHERSTBURG",
        "streetNameDisplayText": "WRIGHT AVE, AMHERSTBURG"
      }
    ]
  },
  {
    "postal": "N9V9P3",
    "result": []
  },
  {
    "postal": "N9V4H8",
    "result": []
  },
  {
    "postal": "N9V6R1",
    "result": []
  },
  {
    "postal": "N9V1S0",
    "result": []
  },
  {
    "postal": "N9V3W8",
    "result": [
      {
        "electoralDistricts": [
          {
            "election": null,
            "id": 27,
            "name": "Essex"
          }
        ],
        "pollDivisionIds": [
          10138015
        ],
        "postalCode": "N9V3W8",
        "streetName": "BRIAR RIDGE",
        "streetDirectionId": null,
        "streetTypeId": "AVE",
        "placeName": "AMHERSTBURG",
        "streetNameDisplayText": "BRIAR RIDGE AVE, AMHERSTBURG"
      },
      {
        "electoralDistricts": [
          {
            "election": null,
            "id": 27,
            "name": "Essex"
          }
        ],
        "pollDivisionIds": [
          10138015
        ],
        "postalCode": "N9V3W8",
        "streetName": "CROWNRIDGE",
        "streetDirectionId": null,
        "streetTypeId": "BLVD",
        "placeName": "AMHERSTBURG",
        "streetNameDisplayText": "CROWNRIDGE BLVD, AMHERSTBURG"
      }
    ]
  },
  {
    "postal": "N9V4S3",
    "result": []
  },
  {
    "postal": "N9V1B6",
    "result": [
      {
        "electoralDistricts": [
          {
            "election": null,
            "id": 27,
            "name": "Essex"
          }
        ],
        "pollDivisionIds": [
          10138015
        ],
        "postalCode": "N9V1B6",
        "streetName": "MAPLE",
        "streetDirectionId": null,
        "streetTypeId": "AVE",
        "placeName": "AMHERSTBURG",
        "streetNameDisplayText": "MAPLE AVE, AMHERSTBURG"
      }
    ]
  },
  {
    "postal": "N9V8R3",
    "result": []
  },
  {
    "postal": "N9V4V9",
    "result": []
  },
  {
    "postal": "N9V9W4",
    "result": []
  },
  {
    "postal": "N9V3T4",
    "result": [
      {
        "electoralDistricts": [
          {
            "election": null,
            "id": 27,
            "name": "Essex"
          }
        ],
        "pollDivisionIds": [
          10138019
        ],
        "postalCode": "N9V3T4",
        "streetName": "GOLFWOOD",
        "streetDirectionId": null,
        "streetTypeId": "DR",
        "placeName": "AMHERSTBURG",
        "streetNameDisplayText": "GOLFWOOD DR, AMHERSTBURG"
      }
    ]
  },
  {
    "postal": "N9V5C7",
    "result": []
  },
  {
    "postal": "N9V3Y1",
    "result": [
      {
        "electoralDistricts": [
          {
            "election": null,
            "id": 27,
            "name": "Essex"
          }
        ],
        "pollDivisionIds": [
          10138021
        ],
        "postalCode": "N9V3Y1",
        "streetName": "AMLIN",
        "streetDirectionId": null,
        "streetTypeId": "ST",
        "placeName": "AMHERSTBURG",
        "streetNameDisplayText": "AMLIN ST, AMHERSTBURG"
      }
    ]
  },
  {
    "postal": "N9V5V0",
    "result": []
  },
  {
    "postal": "N9V8G8",
    "result": []
  },
  {
    "postal": "N9V8B1",
    "result": []
  },
  {
    "postal": "N9V4P5",
    "result": []
  },
  {
    "postal": "N9V7B2",
    "result": []
  },
  {
    "postal": "N9V0R2",
    "result": []
  },
  {
    "postal": "N9V4M4",
    "result": []
  },
  {
    "postal": "N9V7M4",
    "result": []
  },
  {
    "postal": "N9V9S7",
    "result": []
  },
  {
    "postal": "N9V5Z7",
    "result": []
  },
  {
    "postal": "N9V7J7",
    "result": []
  },
  {
    "postal": "N9V8R8",
    "result": []
  },
  {
    "postal": "N9V9X1",
    "result": []
  },
  {
    "postal": "N9V5M9",
    "result": []
  },
  {
    "postal": "N9V9B4",
    "result": []
  },
  {
    "postal": "N9V0L9",
    "result": []
  },
  {
    "postal": "N9V9G4",
    "result": []
  },
  {
    "postal": "N9V1J4",
    "result": [
      {
        "electoralDistricts": [
          {
            "election": null,
            "id": 27,
            "name": "Essex"
          }
        ],
        "pollDivisionIds": [
          10138021,
          10138015
        ],
        "postalCode": "N9V1J4",
        "streetName": "MURRAY",
        "streetDirectionId": null,
        "streetTypeId": "ST",
        "placeName": "AMHERSTBURG",
        "streetNameDisplayText": "MURRAY ST, AMHERSTBURG"
      }
    ]
  },
  {
    "postal": "N9V0W6",
    "result": []
  }
]
