[
  {
    "postal": "L4W9J6",
    "result": []
  },
  {
    "postal": "L4W9Z5",
    "result": []
  },
  {
    "postal": "L4W7H8",
    "result": []
  },
  {
    "postal": "L4W0P6",
    "result": []
  },
  {
    "postal": "L4W0S7",
    "result": []
  },
  {
    "postal": "L4W8B9",
    "result": []
  },
  {
    "postal": "L4W2A6",
    "result": [
      {
        "electoralDistricts": [
          {
            "election": null,
            "id": 64,
            "name": "Mississauga—Malton"
          }
        ],
        "pollDivisionIds": [
          10139811
        ],
        "postalCode": "L4W2A6",
        "streetName": "BRADCO",
        "streetDirectionId": null,
        "streetTypeId": "BLVD",
        "placeName": "MISSISSAUGA",
        "streetNameDisplayText": "BRADCO BLVD, MISSISSAUGA"
      }
    ]
  },
  {
    "postal": "L4W7V2",
    "result": []
  },
  {
    "postal": "L4W9P4",
    "result": []
  },
  {
    "postal": "L4W6G0",
    "result": []
  },
  {
    "postal": "L4W2K0",
    "result": []
  },
  {
    "postal": "L4W7N6",
    "result": []
  },
  {
    "postal": "L4W5R3",
    "result": []
  },
  {
    "postal": "L4W7K0",
    "result": []
  },
  {
    "postal": "L4W3R2",
    "result": [
      {
        "electoralDistricts": [
          {
            "election": null,
            "id": 61,
            "name": "Mississauga East—Cooksville"
          }
        ],
        "pollDivisionIds": [
          10135433
        ],
        "postalCode": "L4W3R2",
        "streetName": "LEE",
        "streetDirectionId": null,
        "streetTypeId": "DR",
        "placeName": "MISSISSAUGA",
        "streetNameDisplayText": "LEE DR, MISSISSAUGA"
      }
    ]
  },
  {
    "postal": "L4W0J1",
    "result": []
  },
  {
    "postal": "L4W0B0",
    "result": []
  },
  {
    "postal": "L4W5Z2",
    "result": []
  },
  {
    "postal": "L4W7P3",
    "result": []
  },
  {
    "postal": "L4W2K3",
    "result": [
      {
        "electoralDistricts": [
          {
            "election": null,
            "id": 61,
            "name": "Mississauga East—Cooksville"
          }
        ],
        "pollDivisionIds": [
          10135425
        ],
        "postalCode": "L4W2K3",
        "streetName": "GARNETWOOD",
        "streetDirectionId": null,
        "streetTypeId": "CHASE",
        "placeName": "MISSISSAUGA",
        "streetNameDisplayText": "GARNETWOOD CHASE, MISSISSAUGA"
      }
    ]
  },
  {
    "postal": "L4W7Y6",
    "result": []
  },
  {
    "postal": "L4W1L9",
    "result": [
      {
        "electoralDistricts": [
          {
            "election": null,
            "id": 61,
            "name": "Mississauga East—Cooksville"
          }
        ],
        "pollDivisionIds": [
          10135426
        ],
        "postalCode": "L4W1L9",
        "streetName": "ROCKWOOD",
        "streetDirectionId": null,
        "streetTypeId": "RD",
        "placeName": "MISSISSAUGA",
        "streetNameDisplayText": "ROCKWOOD RD, MISSISSAUGA"
      }
    ]
  },
  {
    "postal": "L4W8T0",
    "result": []
  },
  {
    "postal": "L4W3K8",
    "result": [
      {
        "electoralDistricts": [
          {
            "election": null,
            "id": 61,
            "name": "Mississauga East—Cooksville"
          }
        ],
        "pollDivisionIds": [
          10135434
        ],
        "postalCode": "L4W3K8",
        "streetName": "MANNINGTON",
        "streetDirectionId": null,
        "streetTypeId": "CRT",
        "placeName": "MISSISSAUGA",
        "streetNameDisplayText": "MANNINGTON CRT, MISSISSAUGA"
      }
    ]
  },
  {
    "postal": "L4W5W9",
    "result": []
  },
  {
    "postal": "L4W6T9",
    "result": []
  },
  {
    "postal": "L4W4H1",
    "result": [
      {
        "electoralDistricts": [
          {
            "election": null,
            "id": 64,
            "name": "Mississauga—Malton"
          }
        ],
        "pollDivisionIds": [
          10139811
        ],
        "postalCode": "L4W4H1",
        "streetName": "EXPLORER",
        "streetDirectionId": null,
        "streetTypeId": "DR",
        "placeName": "MISSISSAUGA",
        "streetNameDisplayText": "EXPLORER DR, MISSISSAUGA"
      }
    ]
  },
  {
    "postal": "L4W7A2",
    "result": []
  },
  {
    "postal": "L4W5G0",
    "result": []
  },
  {
    "postal": "L4W8V5",
    "result": []
  },
  {
    "postal": "L4W2Y8",
    "result": [
      {
        "electoralDistricts": [
          {
            "election": null,
            "id": 61,
            "name": "Mississauga East—Cooksville"
          }
        ],
        "pollDivisionIds": [
          10135425
        ],
        "postalCode": "L4W2Y8",
        "streetName": "HARTFIELD",
        "streetDirectionId": null,
        "streetTypeId": "GROVE",
        "placeName": "MISSISSAUGA",
        "streetNameDisplayText": "HARTFIELD GROVE, MISSISSAUGA"
      }
    ]
  },
  {
    "postal": "L4W2B6",
    "result": [
      {
        "electoralDistricts": [
          {
            "election": null,
            "id": 61,
            "name": "Mississauga East—Cooksville"
          }
        ],
        "pollDivisionIds": [
          10135426
        ],
        "postalCode": "L4W2B6",
        "streetName": "MAPLE RIDGE",
        "streetDirectionId": null,
        "streetTypeId": "DR",
        "placeName": "MISSISSAUGA",
        "streetNameDisplayText": "MAPLE RIDGE DR, MISSISSAUGA"
      }
    ]
  },
  {
    "postal": "L4W4W8",
    "result": []
  },
  {
    "postal": "L4W8H7",
    "result": []
  },
  {
    "postal": "L4W5P1",
    "result": []
  },
  {
    "postal": "L4W2B8",
    "result": [
      {
        "electoralDistricts": [
          {
            "election": null,
            "id": 61,
            "name": "Mississauga East—Cooksville"
          }
        ],
        "pollDivisionIds": [
          10135425
        ],
        "postalCode": "L4W2B8",
        "streetName": "BOUGH BEECHES",
        "streetDirectionId": null,
        "streetTypeId": "BLVD",
        "placeName": "MISSISSAUGA",
        "streetNameDisplayText": "BOUGH BEECHES BLVD, MISSISSAUGA"
      }
    ]
  },
  {
    "postal": "L4W0P2",
    "result": []
  },
  {
    "postal": "L4W9M1",
    "result": []
  },
  {
    "postal": "L4W3G0",
    "result": []
  },
  {
    "postal": "L4W9Z2",
    "result": []
  },
  {
    "postal": "L4W2A0",
    "result": []
  },
  {
    "postal": "L4W6Y0",
    "result": []
  },
  {
    "postal": "L4W2Z8",
    "result": [
      {
        "electoralDistricts": [
          {
            "election": null,
            "id": 61,
            "name": "Mississauga East—Cooksville"
          }
        ],
        "pollDivisionIds": [
          10135433
        ],
        "postalCode": "L4W2Z8",
        "streetName": "CRESTLAWN",
        "streetDirectionId": null,
        "streetTypeId": "DR",
        "placeName": "MISSISSAUGA",
        "streetNameDisplayText": "CRESTLAWN DR, MISSISSAUGA"
      }
    ]
  },
  {
    "postal": "L4W7Y3",
    "result": []
  },
  {
    "postal": "L4W6Z5",
    "result": []
  },
  {
    "postal": "L4W6E0",
    "result": []
  },
  {
    "postal": "L4W9B7",
    "result": []
  },
  {
    "postal": "L4W9S5",
    "result": []
  },
  {
    "postal": "L4W3X3",
    "result": [
      {
        "electoralDistricts": [
          {
            "election": null,
            "id": 61,
            "name": "Mississauga East—Cooksville"
          }
        ],
        "pollDivisionIds": [
          10135425
        ],
        "postalCode": "L4W3X3",
        "streetName": "AUDUBON",
        "streetDirectionId": null,
        "streetTypeId": "BLVD",
        "placeName": "MISSISSAUGA",
        "streetNameDisplayText": "AUDUBON BLVD, MISSISSAUGA"
      }
    ]
  },
  {
    "postal": "L4W7R5",
    "result": []
  },
  {
    "postal": "L4W2X3",
    "result": [
      {
        "electoralDistricts": [
          {
            "election": null,
            "id": 61,
            "name": "Mississauga East—Cooksville"
          }
        ],
        "pollDivisionIds": [
          10135426
        ],
        "postalCode": "L4W2X3",
        "streetName": "RATHBURN",
        "streetDirectionId": "E",
        "streetTypeId": "RD",
        "placeName": "MISSISSAUGA",
        "streetNameDisplayText": "RATHBURN RD E, MISSISSAUGA"
      }
    ]
  },
  {
    "postal": "L4W8Z9",
    "result": []
  },
  {
    "postal": "L4W0N4",
    "result": []
  },
  {
    "postal": "L4W1K1",
    "result": [
      {
        "electoralDistricts": [
          {
            "election": null,
            "id": 61,
            "name": "Mississauga East—Cooksville"
          }
        ],
        "pollDivisionIds": [
          10135433
        ],
        "postalCode": "L4W1K1",
        "streetName": "EGLINTON",
        "streetDirectionId": "E",
        "streetTypeId": "AVE",
        "placeName": "MISSISSAUGA",
        "streetNameDisplayText": "EGLINTON AVE E, MISSISSAUGA"
      }
    ]
  },
  {
    "postal": "L4W1S3",
    "result": []
  },
  {
    "postal": "L4W6M4",
    "result": []
  },
  {
    "postal": "L4W9A9",
    "result": []
  },
  {
    "postal": "L4W9Z9",
    "result": []
  },
  {
    "postal": "L4W6T4",
    "result": []
  },
  {
    "postal": "L4W0B2",
    "result": []
  },
  {
    "postal": "L4W2L9",
    "result": [
      {
        "electoralDistricts": [
          {
            "election": null,
            "id": 61,
            "name": "Mississauga East—Cooksville"
          }
        ],
        "pollDivisionIds": [
          10135426
        ],
        "postalCode": "L4W2L9",
        "streetName": "SHALE OAK",
        "streetDirectionId": null,
        "streetTypeId": "MEWS",
        "placeName": "MISSISSAUGA",
        "streetNameDisplayText": "SHALE OAK MEWS, MISSISSAUGA"
      }
    ]
  },
  {
    "postal": "L4W8K9",
    "result": []
  },
  {
    "postal": "L4W2H9",
    "result": [
      {
        "electoralDistricts": [
          {
            "election": null,
            "id": 61,
            "name": "Mississauga East—Cooksville"
          }
        ],
        "pollDivisionIds": [
          10135425
        ],
        "postalCode": "L4W2H9",
        "streetName": "MARBLETHORNE",
        "streetDirectionId": null,
        "streetTypeId": "CRT",
        "placeName": "MISSISSAUGA",
        "streetNameDisplayText": "MARBLETHORNE CRT, MISSISSAUGA"
      }
    ]
  },
  {
    "postal": "L4W3Z6",
    "result": [
      {
        "electoralDistricts": [
          {
            "election": null,
            "id": 64,
            "name": "Mississauga—Malton"
          }
        ],
        "pollDivisionIds": [
          10139813
        ],
        "postalCode": "L4W3Z6",
        "streetName": "SHAWSON",
        "streetDirectionId": null,
        "streetTypeId": "DR",
        "placeName": "MISSISSAUGA",
        "streetNameDisplayText": "SHAWSON DR, MISSISSAUGA"
      }
    ]
  },
  {
    "postal": "L4W3B0",
    "result": []
  },
  {
    "postal": "L4W2H8",
    "result": [
      {
        "electoralDistricts": [
          {
            "election": null,
            "id": 61,
            "name": "Mississauga East—Cooksville"
          }
        ],
        "pollDivisionIds": [
          10135425
        ],
        "postalCode": "L4W2H8",
        "streetName": "MARBLETHORNE",
        "streetDirectionId": null,
        "streetTypeId": "CRT",
        "placeName": "MISSISSAUGA",
        "streetNameDisplayText": "MARBLETHORNE CRT, MISSISSAUGA"
      }
    ]
  },
  {
    "postal": "L4W3X2",
    "result": [
      {
        "electoralDistricts": [
          {
            "election": null,
            "id": 61,
            "name": "Mississauga East—Cooksville"
          }
        ],
        "pollDivisionIds": [
          10135425
        ],
        "postalCode": "L4W3X2",
        "streetName": "AUDUBON",
        "streetDirectionId": null,
        "streetTypeId": "BLVD",
        "placeName": "MISSISSAUGA",
        "streetNameDisplayText": "AUDUBON BLVD, MISSISSAUGA"
      }
    ]
  },
  {
    "postal": "L4W2E9",
    "result": [
      {
        "electoralDistricts": [
          {
            "election": null,
            "id": 61,
            "name": "Mississauga East—Cooksville"
          }
        ],
        "pollDivisionIds": [
          10135425
        ],
        "postalCode": "L4W2E9",
        "streetName": "CORKSTONE",
        "streetDirectionId": null,
        "streetTypeId": "GLADE",
        "placeName": "MISSISSAUGA",
        "streetNameDisplayText": "CORKSTONE GLADE, MISSISSAUGA"
      }
    ]
  },
  {
    "postal": "L4W9P6",
    "result": []
  },
  {
    "postal": "L4W9E2",
    "result": []
  },
  {
    "postal": "L4W9H2",
    "result": []
  },
  {
    "postal": "L4W1S8",
    "result": []
  },
  {
    "postal": "L4W3M6",
    "result": [
      {
        "electoralDistricts": [
          {
            "election": null,
            "id": 61,
            "name": "Mississauga East—Cooksville"
          }
        ],
        "pollDivisionIds": [
          10135434
        ],
        "postalCode": "L4W3M6",
        "streetName": "LOVINGSTON",
        "streetDirectionId": null,
        "streetTypeId": "CRES",
        "placeName": "MISSISSAUGA",
        "streetNameDisplayText": "LOVINGSTON CRES, MISSISSAUGA"
      },
      {
        "electoralDistricts": [
          {
            "election": null,
            "id": 61,
            "name": "Mississauga East—Cooksville"
          }
        ],
        "pollDivisionIds": [
          10135434
        ],
        "postalCode": "L4W3M6",
        "streetName": "LOVINGSTONE",
        "streetDirectionId": null,
        "streetTypeId": "CRT",
        "placeName": "MISSISSAUGA",
        "streetNameDisplayText": "LOVINGSTONE CRT, MISSISSAUGA"
      }
    ]
  },
  {
    "postal": "L4W6Z8",
    "result": []
  },
  {
    "postal": "L4W4J2",
    "result": [
      {
        "electoralDistricts": [
          {
            "election": null,
            "id": 61,
            "name": "Mississauga East—Cooksville"
          }
        ],
        "pollDivisionIds": [
          10135425
        ],
        "postalCode": "L4W4J2",
        "streetName": "ROWNTREE",
        "streetDirectionId": null,
        "streetTypeId": "CRT",
        "placeName": "MISSISSAUGA",
        "streetNameDisplayText": "ROWNTREE CRT, MISSISSAUGA"
      }
    ]
  },
  {
    "postal": "L4W9Y1",
    "result": []
  },
  {
    "postal": "L4W8V6",
    "result": []
  },
  {
    "postal": "L4W6B2",
    "result": []
  },
  {
    "postal": "L4W1P8",
    "result": []
  },
  {
    "postal": "L4W0V8",
    "result": []
  },
  {
    "postal": "L4W4Y0",
    "result": []
  },
  {
    "postal": "L4W2T4",
    "result": [
      {
        "electoralDistricts": [
          {
            "election": null,
            "id": 64,
            "name": "Mississauga—Malton"
          }
        ],
        "pollDivisionIds": [
          10139811
        ],
        "postalCode": "L4W2T4",
        "streetName": "PANTERA",
        "streetDirectionId": null,
        "streetTypeId": "DR",
        "placeName": "MISSISSAUGA",
        "streetNameDisplayText": "PANTERA DR, MISSISSAUGA"
      }
    ]
  },
  {
    "postal": "L4W2S3",
    "result": [
      {
        "electoralDistricts": [
          {
            "election": null,
            "id": 64,
            "name": "Mississauga—Malton"
          }
        ],
        "pollDivisionIds": [
          10139811
        ],
        "postalCode": "L4W2S3",
        "streetName": "TIMBERLEA",
        "streetDirectionId": null,
        "streetTypeId": "BLVD",
        "placeName": "MISSISSAUGA",
        "streetNameDisplayText": "TIMBERLEA BLVD, MISSISSAUGA"
      }
    ]
  },
  {
    "postal": "L4W0K0",
    "result": []
  },
  {
    "postal": "L4W5N1",
    "result": [
      {
        "electoralDistricts": [
          {
            "election": null,
            "id": 64,
            "name": "Mississauga—Malton"
          }
        ],
        "pollDivisionIds": [
          10139811
        ],
        "postalCode": "L4W5N1",
        "streetName": "EXPLORER",
        "streetDirectionId": null,
        "streetTypeId": "DR",
        "placeName": "MISSISSAUGA",
        "streetNameDisplayText": "EXPLORER DR, MISSISSAUGA"
      }
    ]
  },
  {
    "postal": "L4W7T0",
    "result": []
  },
  {
    "postal": "L4W9N2",
    "result": []
  },
  {
    "postal": "L4W5L1",
    "result": [
      {
        "electoralDistricts": [
          {
            "election": null,
            "id": 64,
            "name": "Mississauga—Malton"
          }
        ],
        "pollDivisionIds": [
          10139811
        ],
        "postalCode": "L4W5L1",
        "streetName": "EXPLORER",
        "streetDirectionId": null,
        "streetTypeId": "DR",
        "placeName": "MISSISSAUGA",
        "streetNameDisplayText": "EXPLORER DR, MISSISSAUGA"
      }
    ]
  },
  {
    "postal": "L4W7G5",
    "result": []
  },
  {
    "postal": "L4W6K2",
    "result": []
  },
  {
    "postal": "L4W6P9",
    "result": []
  },
  {
    "postal": "L4W0E6",
    "result": []
  },
  {
    "postal": "L4W8R9",
    "result": []
  },
  {
    "postal": "L4W3G9",
    "result": [
      {
        "electoralDistricts": [
          {
            "election": null,
            "id": 61,
            "name": "Mississauga East—Cooksville"
          }
        ],
        "pollDivisionIds": [
          10135434
        ],
        "postalCode": "L4W3G9",
        "streetName": "HIGHGATE",
        "streetDirectionId": null,
        "streetTypeId": "CRES",
        "placeName": "MISSISSAUGA",
        "streetNameDisplayText": "HIGHGATE CRES, MISSISSAUGA"
      }
    ]
  },
  {
    "postal": "L4W0V7",
    "result": []
  },
  {
    "postal": "L4W2Z1",
    "result": [
      {
        "electoralDistricts": [
          {
            "election": null,
            "id": 61,
            "name": "Mississauga East—Cooksville"
          }
        ],
        "pollDivisionIds": [
          10135425
        ],
        "postalCode": "L4W2Z1",
        "streetName": "LOVELADY",
        "streetDirectionId": null,
        "streetTypeId": "CRES",
        "placeName": "MISSISSAUGA",
        "streetNameDisplayText": "LOVELADY CRES, MISSISSAUGA"
      }
    ]
  },
  {
    "postal": "L4W7N1",
    "result": []
  },
  {
    "postal": "L4W3C6",
    "result": [
      {
        "electoralDistricts": [
          {
            "election": null,
            "id": 64,
            "name": "Mississauga—Malton"
          }
        ],
        "pollDivisionIds": [
          10139809
        ],
        "postalCode": "L4W3C6",
        "streetName": "BRITANNIA",
        "streetDirectionId": "E",
        "streetTypeId": "RD",
        "placeName": "MISSISSAUGA",
        "streetNameDisplayText": "BRITANNIA RD E, MISSISSAUGA"
      }
    ]
  },
  {
    "postal": "L4W4M1",
    "result": [
      {
        "electoralDistricts": [
          {
            "election": null,
            "id": 64,
            "name": "Mississauga—Malton"
          }
        ],
        "pollDivisionIds": [
          10139811
        ],
        "postalCode": "L4W4M1",
        "streetName": "MATHESON",
        "streetDirectionId": "E",
        "streetTypeId": "BLVD",
        "placeName": "MISSISSAUGA",
        "streetNameDisplayText": "MATHESON BLVD E, MISSISSAUGA"
      }
    ]
  },
  {
    "postal": "L4W9K2",
    "result": []
  },
  {
    "postal": "L4W9S6",
    "result": []
  },
  {
    "postal": "L4W4X1",
    "result": []
  },
  {
    "postal": "L4W8W2",
    "result": []
  },
  {
    "postal": "L4W7N2",
    "result": []
  },
  {
    "postal": "L4W8S3",
    "result": []
  },
  {
    "postal": "L4W4V0",
    "result": []
  },
  {
    "postal": "L4W6W4",
    "result": []
  },
  {
    "postal": "L4W5M1",
    "result": []
  },
  {
    "postal": "L4W0S4",
    "result": []
  },
  {
    "postal": "L4W5X6",
    "result": []
  },
  {
    "postal": "L4W8L5",
    "result": []
  },
  {
    "postal": "L4W5M8",
    "result": [
      {
        "electoralDistricts": [
          {
            "election": null,
            "id": 64,
            "name": "Mississauga—Malton"
          }
        ],
        "pollDivisionIds": [
          10139811
        ],
        "postalCode": "L4W5M8",
        "streetName": "SOLAR",
        "streetDirectionId": null,
        "streetTypeId": "DR",
        "placeName": "MISSISSAUGA",
        "streetNameDisplayText": "SOLAR DR, MISSISSAUGA"
      }
    ]
  },
  {
    "postal": "L4W2G3",
    "result": [
      {
        "electoralDistricts": [
          {
            "election": null,
            "id": 61,
            "name": "Mississauga East—Cooksville"
          }
        ],
        "pollDivisionIds": [
          10135425
        ],
        "postalCode": "L4W2G3",
        "streetName": "BEECHKNOLL",
        "streetDirectionId": null,
        "streetTypeId": "AVE",
        "placeName": "MISSISSAUGA",
        "streetNameDisplayText": "BEECHKNOLL AVE, MISSISSAUGA"
      }
    ]
  },
  {
    "postal": "L4W8E4",
    "result": []
  },
  {
    "postal": "L4W7S9",
    "result": []
  },
  {
    "postal": "L4W1K3",
    "result": [
      {
        "electoralDistricts": [
          {
            "election": null,
            "id": 61,
            "name": "Mississauga East—Cooksville"
          },
          {
            "election": null,
            "id": 64,
            "name": "Mississauga—Malton"
          }
        ],
        "pollDivisionIds": [
          10135433,
          10139811,
          10135482
        ],
        "postalCode": "L4W1K3",
        "streetName": "EGLINTON",
        "streetDirectionId": "E",
        "streetTypeId": "AVE",
        "placeName": "MISSISSAUGA",
        "streetNameDisplayText": "EGLINTON AVE E, MISSISSAUGA"
      }
    ]
  },
  {
    "postal": "L4W4E1",
    "result": [
      {
        "electoralDistricts": [
          {
            "election": null,
            "id": 64,
            "name": "Mississauga—Malton"
          }
        ],
        "pollDivisionIds": [
          10139809
        ],
        "postalCode": "L4W4E1",
        "streetName": "BRITANNIA",
        "streetDirectionId": "E",
        "streetTypeId": "RD",
        "placeName": "MISSISSAUGA",
        "streetNameDisplayText": "BRITANNIA RD E, MISSISSAUGA"
      }
    ]
  },
  {
    "postal": "L4W4R2",
    "result": [
      {
        "electoralDistricts": [
          {
            "election": null,
            "id": 61,
            "name": "Mississauga East—Cooksville"
          }
        ],
        "pollDivisionIds": [
          10135433
        ],
        "postalCode": "L4W4R2",
        "streetName": "STARLIGHT",
        "streetDirectionId": null,
        "streetTypeId": "CRES",
        "placeName": "MISSISSAUGA",
        "streetNameDisplayText": "STARLIGHT CRES, MISSISSAUGA"
      }
    ]
  },
  {
    "postal": "L4W6T0",
    "result": []
  },
  {
    "postal": "L4W3K5",
    "result": [
      {
        "electoralDistricts": [
          {
            "election": null,
            "id": 61,
            "name": "Mississauga East—Cooksville"
          }
        ],
        "pollDivisionIds": [
          10135434
        ],
        "postalCode": "L4W3K5",
        "streetName": "TYNEGROVE",
        "streetDirectionId": null,
        "streetTypeId": "RD",
        "placeName": "MISSISSAUGA",
        "streetNameDisplayText": "TYNEGROVE RD, MISSISSAUGA"
      }
    ]
  },
  {
    "postal": "L4W3S3",
    "result": [
      {
        "electoralDistricts": [
          {
            "election": null,
            "id": 61,
            "name": "Mississauga East—Cooksville"
          }
        ],
        "pollDivisionIds": [
          10135439
        ],
        "postalCode": "L4W3S3",
        "streetName": "FOREST FIRE",
        "streetDirectionId": null,
        "streetTypeId": "CRES",
        "placeName": "MISSISSAUGA",
        "streetNameDisplayText": "FOREST FIRE CRES, MISSISSAUGA"
      }
    ]
  },
  {
    "postal": "L4W3L4",
    "result": [
      {
        "electoralDistricts": [
          {
            "election": null,
            "id": 61,
            "name": "Mississauga East—Cooksville"
          }
        ],
        "pollDivisionIds": [
          10135439
        ],
        "postalCode": "L4W3L4",
        "streetName": "SUNSET VALLEY",
        "streetDirectionId": null,
        "streetTypeId": "CRT",
        "placeName": "MISSISSAUGA",
        "streetNameDisplayText": "SUNSET VALLEY CRT, MISSISSAUGA"
      }
    ]
  },
  {
    "postal": "L4W9Y2",
    "result": []
  },
  {
    "postal": "L4W1E0",
    "result": []
  },
  {
    "postal": "L4W9A4",
    "result": []
  },
  {
    "postal": "L4W1L3",
    "result": [
      {
        "electoralDistricts": [
          {
            "election": null,
            "id": 61,
            "name": "Mississauga East—Cooksville"
          }
        ],
        "pollDivisionIds": [
          10135434
        ],
        "postalCode": "L4W1L3",
        "streetName": "HICKORY",
        "streetDirectionId": null,
        "streetTypeId": "DR",
        "placeName": "MISSISSAUGA",
        "streetNameDisplayText": "HICKORY DR, MISSISSAUGA"
      }
    ]
  },
  {
    "postal": "L4W6N1",
    "result": []
  },
  {
    "postal": "L4W6G7",
    "result": []
  },
  {
    "postal": "L4W7W1",
    "result": []
  },
  {
    "postal": "L4W4M6",
    "result": [
      {
        "electoralDistricts": [
          {
            "election": null,
            "id": 64,
            "name": "Mississauga—Malton"
          }
        ],
        "pollDivisionIds": [
          10139811
        ],
        "postalCode": "L4W4M6",
        "streetName": "TIMBERLEA",
        "streetDirectionId": null,
        "streetTypeId": "BLVD",
        "placeName": "MISSISSAUGA",
        "streetNameDisplayText": "TIMBERLEA BLVD, MISSISSAUGA"
      }
    ]
  },
  {
    "postal": "L4W1K0",
    "result": []
  },
  {
    "postal": "L4W3E2",
    "result": [
      {
        "electoralDistricts": [
          {
            "election": null,
            "id": 61,
            "name": "Mississauga East—Cooksville"
          }
        ],
        "pollDivisionIds": [
          10135434
        ],
        "postalCode": "L4W3E2",
        "streetName": "GRYPHON",
        "streetDirectionId": null,
        "streetTypeId": "MEWS",
        "placeName": "MISSISSAUGA",
        "streetNameDisplayText": "GRYPHON MEWS, MISSISSAUGA"
      }
    ]
  },
  {
    "postal": "L4W5H4",
    "result": [
      {
        "electoralDistricts": [
          {
            "election": null,
            "id": 61,
            "name": "Mississauga East—Cooksville"
          }
        ],
        "pollDivisionIds": [
          10135434,
          10135425
        ],
        "postalCode": "L4W5H4",
        "streetName": "DIXIE",
        "streetDirectionId": null,
        "streetTypeId": "RD",
        "placeName": "MISSISSAUGA",
        "streetNameDisplayText": "DIXIE RD, MISSISSAUGA"
      }
    ]
  },
  {
    "postal": "L4W1K7",
    "result": [
      {
        "electoralDistricts": [
          {
            "election": null,
            "id": 64,
            "name": "Mississauga—Malton"
          }
        ],
        "pollDivisionIds": [
          10139811
        ],
        "postalCode": "L4W1K7",
        "streetName": "EGLINTON",
        "streetDirectionId": "E",
        "streetTypeId": "AVE",
        "placeName": "MISSISSAUGA",
        "streetNameDisplayText": "EGLINTON AVE E, MISSISSAUGA"
      }
    ]
  },
  {
    "postal": "L4W0H0",
    "result": []
  },
  {
    "postal": "L4W0J3",
    "result": []
  },
  {
    "postal": "L4W1X6",
    "result": [
      {
        "electoralDistricts": [
          {
            "election": null,
            "id": 64,
            "name": "Mississauga—Malton"
          }
        ],
        "pollDivisionIds": [
          10139811
        ],
        "postalCode": "L4W1X6",
        "streetName": "MAINGATE",
        "streetDirectionId": null,
        "streetTypeId": "DR",
        "placeName": "MISSISSAUGA",
        "streetNameDisplayText": "MAINGATE DR, MISSISSAUGA"
      }
    ]
  },
  {
    "postal": "L4W2Z6",
    "result": [
      {
        "electoralDistricts": [
          {
            "election": null,
            "id": 64,
            "name": "Mississauga—Malton"
          }
        ],
        "pollDivisionIds": [
          10139811
        ],
        "postalCode": "L4W2Z6",
        "streetName": "TOMKEN",
        "streetDirectionId": null,
        "streetTypeId": "RD",
        "placeName": "MISSISSAUGA",
        "streetNameDisplayText": "TOMKEN RD, MISSISSAUGA"
      }
    ]
  },
  {
    "postal": "L4W4R9",
    "result": [
      {
        "electoralDistricts": [
          {
            "election": null,
            "id": 61,
            "name": "Mississauga East—Cooksville"
          }
        ],
        "pollDivisionIds": [
          10135433
        ],
        "postalCode": "L4W4R9",
        "streetName": "WETHERBY",
        "streetDirectionId": null,
        "streetTypeId": "LANE",
        "placeName": "MISSISSAUGA",
        "streetNameDisplayText": "WETHERBY LANE, MISSISSAUGA"
      }
    ]
  },
  {
    "postal": "L4W0W8",
    "result": []
  },
  {
    "postal": "L4W1L4",
    "result": [
      {
        "electoralDistricts": [
          {
            "election": null,
            "id": 61,
            "name": "Mississauga East—Cooksville"
          }
        ],
        "pollDivisionIds": [
          10135434
        ],
        "postalCode": "L4W1L4",
        "streetName": "HICKORY",
        "streetDirectionId": null,
        "streetTypeId": "DR",
        "placeName": "MISSISSAUGA",
        "streetNameDisplayText": "HICKORY DR, MISSISSAUGA"
      }
    ]
  },
  {
    "postal": "L4W0C8",
    "result": []
  },
  {
    "postal": "L4W9X7",
    "result": []
  },
  {
    "postal": "L4W4T1",
    "result": [
      {
        "electoralDistricts": [
          {
            "election": null,
            "id": 64,
            "name": "Mississauga—Malton"
          }
        ],
        "pollDivisionIds": [
          10139813
        ],
        "postalCode": "L4W4T1",
        "streetName": "BRITANNIA",
        "streetDirectionId": "E",
        "streetTypeId": "RD",
        "placeName": "MISSISSAUGA",
        "streetNameDisplayText": "BRITANNIA RD E, MISSISSAUGA"
      }
    ]
  },
  {
    "postal": "L4W0M0",
    "result": []
  },
  {
    "postal": "L4W6A2",
    "result": []
  },
  {
    "postal": "L4W9S8",
    "result": []
  },
  {
    "postal": "L4W9T4",
    "result": []
  },
  {
    "postal": "L4W9Y4",
    "result": []
  },
  {
    "postal": "L4W6G5",
    "result": []
  },
  {
    "postal": "L4W6H9",
    "result": []
  },
  {
    "postal": "L4W2P3",
    "result": []
  },
  {
    "postal": "L4W1T6",
    "result": []
  },
  {
    "postal": "L4W4P6",
    "result": [
      {
        "electoralDistricts": [
          {
            "election": null,
            "id": 61,
            "name": "Mississauga East—Cooksville"
          }
        ],
        "pollDivisionIds": [
          10135434
        ],
        "postalCode": "L4W4P6",
        "streetName": "SUGAR MAPLE",
        "streetDirectionId": null,
        "streetTypeId": "CRT",
        "placeName": "MISSISSAUGA",
        "streetNameDisplayText": "SUGAR MAPLE CRT, MISSISSAUGA"
      }
    ]
  },
  {
    "postal": "L4W3K1",
    "result": [
      {
        "electoralDistricts": [
          {
            "election": null,
            "id": 61,
            "name": "Mississauga East—Cooksville"
          }
        ],
        "pollDivisionIds": [
          10135439
        ],
        "postalCode": "L4W3K1",
        "streetName": "SILVERHAZE",
        "streetDirectionId": null,
        "streetTypeId": "RD",
        "placeName": "MISSISSAUGA",
        "streetNameDisplayText": "SILVERHAZE RD, MISSISSAUGA"
      }
    ]
  },
  {
    "postal": "L4W6X4",
    "result": []
  },
  {
    "postal": "L4W4M8",
    "result": [
      {
        "electoralDistricts": [
          {
            "election": null,
            "id": 64,
            "name": "Mississauga—Malton"
          }
        ],
        "pollDivisionIds": [
          10139811
        ],
        "postalCode": "L4W4M8",
        "streetName": "MATHESON",
        "streetDirectionId": "E",
        "streetTypeId": "BLVD",
        "placeName": "MISSISSAUGA",
        "streetNameDisplayText": "MATHESON BLVD E, MISSISSAUGA"
      }
    ]
  },
  {
    "postal": "L4W2Y1",
    "result": [
      {
        "electoralDistricts": [
          {
            "election": null,
            "id": 61,
            "name": "Mississauga East—Cooksville"
          }
        ],
        "pollDivisionIds": [
          10135440,
          10135426
        ],
        "postalCode": "L4W2Y1",
        "streetName": "PONYTRAIL",
        "streetDirectionId": null,
        "streetTypeId": "DR",
        "placeName": "MISSISSAUGA",
        "streetNameDisplayText": "PONYTRAIL DR, MISSISSAUGA"
      }
    ]
  },
  {
    "postal": "L4W6M1",
    "result": []
  },
  {
    "postal": "L4W5L8",
    "result": []
  },
  {
    "postal": "L4W3P6",
    "result": [
      {
        "electoralDistricts": [
          {
            "election": null,
            "id": 61,
            "name": "Mississauga East—Cooksville"
          }
        ],
        "pollDivisionIds": [
          10135434
        ],
        "postalCode": "L4W3P6",
        "streetName": "IDEAL",
        "streetDirectionId": null,
        "streetTypeId": "CRT",
        "placeName": "MISSISSAUGA",
        "streetNameDisplayText": "IDEAL CRT, MISSISSAUGA"
      }
    ]
  },
  {
    "postal": "L4W9A5",
    "result": []
  },
  {
    "postal": "L4W7K1",
    "result": []
  },
  {
    "postal": "L4W3J4",
    "result": [
      {
        "electoralDistricts": [
          {
            "election": null,
            "id": 61,
            "name": "Mississauga East—Cooksville"
          }
        ],
        "pollDivisionIds": [
          10135439
        ],
        "postalCode": "L4W3J4",
        "streetName": "GREYCEDAR",
        "streetDirectionId": null,
        "streetTypeId": "CRES",
        "placeName": "MISSISSAUGA",
        "streetNameDisplayText": "GREYCEDAR CRES, MISSISSAUGA"
      }
    ]
  },
  {
    "postal": "L4W5E7",
    "result": []
  },
  {
    "postal": "L4W3A7",
    "result": [
      {
        "electoralDistricts": [
          {
            "election": null,
            "id": 61,
            "name": "Mississauga East—Cooksville"
          }
        ],
        "pollDivisionIds": [
          10135434
        ],
        "postalCode": "L4W3A7",
        "streetName": "GOLDEN ORCHARD",
        "streetDirectionId": null,
        "streetTypeId": "DR",
        "placeName": "MISSISSAUGA",
        "streetNameDisplayText": "GOLDEN ORCHARD DR, MISSISSAUGA"
      }
    ]
  },
  {
    "postal": "L4W1B9",
    "result": [
      {
        "electoralDistricts": [
          {
            "election": null,
            "id": 64,
            "name": "Mississauga—Malton"
          }
        ],
        "pollDivisionIds": [
          10139811
        ],
        "postalCode": "L4W1B9",
        "streetName": "AEROWOOD",
        "streetDirectionId": null,
        "streetTypeId": "DR",
        "placeName": "MISSISSAUGA",
        "streetNameDisplayText": "AEROWOOD DR, MISSISSAUGA"
      }
    ]
  },
  {
    "postal": "L4W9E8",
    "result": []
  },
  {
    "postal": "L4W1C9",
    "result": [
      {
        "electoralDistricts": [
          {
            "election": null,
            "id": 64,
            "name": "Mississauga—Malton"
          }
        ],
        "pollDivisionIds": [
          10139811
        ],
        "postalCode": "L4W1C9",
        "streetName": "DIXIE",
        "streetDirectionId": null,
        "streetTypeId": "RD",
        "placeName": "MISSISSAUGA",
        "streetNameDisplayText": "DIXIE RD, MISSISSAUGA"
      }
    ]
  },
  {
    "postal": "L4W3B5",
    "result": [
      {
        "electoralDistricts": [
          {
            "election": null,
            "id": 61,
            "name": "Mississauga East—Cooksville"
          }
        ],
        "pollDivisionIds": [
          10135425
        ],
        "postalCode": "L4W3B5",
        "streetName": "BOUGH BEECHES",
        "streetDirectionId": null,
        "streetTypeId": "BLVD",
        "placeName": "MISSISSAUGA",
        "streetNameDisplayText": "BOUGH BEECHES BLVD, MISSISSAUGA"
      }
    ]
  },
  {
    "postal": "L4W8R0",
    "result": []
  },
  {
    "postal": "L4W3P2",
    "result": [
      {
        "electoralDistricts": [
          {
            "election": null,
            "id": 61,
            "name": "Mississauga East—Cooksville"
          }
        ],
        "pollDivisionIds": [
          10135439
        ],
        "postalCode": "L4W3P2",
        "streetName": "FOREST FIRE",
        "streetDirectionId": null,
        "streetTypeId": "LANE",
        "placeName": "MISSISSAUGA",
        "streetNameDisplayText": "FOREST FIRE LANE, MISSISSAUGA"
      }
    ]
  },
  {
    "postal": "L4W5V4",
    "result": []
  },
  {
    "postal": "L4W4H0",
    "result": []
  },
  {
    "postal": "L4W4S7",
    "result": [
      {
        "electoralDistricts": [
          {
            "election": null,
            "id": 61,
            "name": "Mississauga East—Cooksville"
          }
        ],
        "pollDivisionIds": [
          10135433
        ],
        "postalCode": "L4W4S7",
        "streetName": "VINTNER",
        "streetDirectionId": null,
        "streetTypeId": "DR",
        "placeName": "MISSISSAUGA",
        "streetNameDisplayText": "VINTNER DR, MISSISSAUGA"
      },
      {
        "electoralDistricts": [
          {
            "election": null,
            "id": 61,
            "name": "Mississauga East—Cooksville"
          }
        ],
        "pollDivisionIds": [
          10135433
        ],
        "postalCode": "L4W4S7",
        "streetName": "WETHERBY",
        "streetDirectionId": null,
        "streetTypeId": "LANE",
        "placeName": "MISSISSAUGA",
        "streetNameDisplayText": "WETHERBY LANE, MISSISSAUGA"
      }
    ]
  },
  {
    "postal": "L4W6C2",
    "result": []
  },
  {
    "postal": "L4W8W3",
    "result": []
  },
  {
    "postal": "L4W4M5",
    "result": [
      {
        "electoralDistricts": [
          {
            "election": null,
            "id": 64,
            "name": "Mississauga—Malton"
          }
        ],
        "pollDivisionIds": [
          10139811
        ],
        "postalCode": "L4W4M5",
        "streetName": "MATHESON",
        "streetDirectionId": "E",
        "streetTypeId": "BLVD",
        "placeName": "MISSISSAUGA",
        "streetNameDisplayText": "MATHESON BLVD E, MISSISSAUGA"
      }
    ]
  },
  {
    "postal": "L4W5T1",
    "result": []
  },
  {
    "postal": "L4W3B3",
    "result": []
  },
  {
    "postal": "L4W6C6",
    "result": []
  },
  {
    "postal": "L4W7N8",
    "result": []
  },
  {
    "postal": "L4W2Y3",
    "result": [
      {
        "electoralDistricts": [
          {
            "election": null,
            "id": 61,
            "name": "Mississauga East—Cooksville"
          }
        ],
        "pollDivisionIds": [
          10135425
        ],
        "postalCode": "L4W2Y3",
        "streetName": "BACCHUS",
        "streetDirectionId": null,
        "streetTypeId": "CRES",
        "placeName": "MISSISSAUGA",
        "streetNameDisplayText": "BACCHUS CRES, MISSISSAUGA"
      }
    ]
  },
  {
    "postal": "L4W2R6",
    "result": [
      {
        "electoralDistricts": [
          {
            "election": null,
            "id": 64,
            "name": "Mississauga—Malton"
          }
        ],
        "pollDivisionIds": [
          10139811
        ],
        "postalCode": "L4W2R6",
        "streetName": "KAMATO",
        "streetDirectionId": null,
        "streetTypeId": "RD",
        "placeName": "MISSISSAUGA",
        "streetNameDisplayText": "KAMATO RD, MISSISSAUGA"
      }
    ]
  },
  {
    "postal": "L4W7N3",
    "result": []
  },
  {
    "postal": "L4W8J2",
    "result": []
  },
  {
    "postal": "L4W6A9",
    "result": []
  },
  {
    "postal": "L4W3V2",
    "result": [
      {
        "electoralDistricts": [
          {
            "election": null,
            "id": 61,
            "name": "Mississauga East—Cooksville"
          }
        ],
        "pollDivisionIds": [
          10135425
        ],
        "postalCode": "L4W3V2",
        "streetName": "BEECHKNOLL",
        "streetDirectionId": null,
        "streetTypeId": "AVE",
        "placeName": "MISSISSAUGA",
        "streetNameDisplayText": "BEECHKNOLL AVE, MISSISSAUGA"
      }
    ]
  },
  {
    "postal": "L4W2N3",
    "result": [
      {
        "electoralDistricts": [
          {
            "election": null,
            "id": 64,
            "name": "Mississauga—Malton"
          }
        ],
        "pollDivisionIds": [
          10139811
        ],
        "postalCode": "L4W2N3",
        "streetName": "AMBLER",
        "streetDirectionId": null,
        "streetTypeId": "DR",
        "placeName": "MISSISSAUGA",
        "streetNameDisplayText": "AMBLER DR, MISSISSAUGA"
      }
    ]
  },
  {
    "postal": "L4W1S5",
    "result": [
      {
        "electoralDistricts": [
          {
            "election": null,
            "id": 64,
            "name": "Mississauga—Malton"
          }
        ],
        "pollDivisionIds": [
          10139809
        ],
        "postalCode": "L4W1S5",
        "streetName": "BRITANNIA",
        "streetDirectionId": "E",
        "streetTypeId": "RD",
        "placeName": "MISSISSAUGA",
        "streetNameDisplayText": "BRITANNIA RD E, MISSISSAUGA"
      }
    ]
  },
  {
    "postal": "L4W4T7",
    "result": [
      {
        "electoralDistricts": [
          {
            "election": null,
            "id": 64,
            "name": "Mississauga—Malton"
          }
        ],
        "pollDivisionIds": [
          10139811
        ],
        "postalCode": "L4W4T7",
        "streetName": "EXPLORER",
        "streetDirectionId": null,
        "streetTypeId": "DR",
        "placeName": "MISSISSAUGA",
        "streetNameDisplayText": "EXPLORER DR, MISSISSAUGA"
      }
    ]
  },
  {
    "postal": "L4W6Y7",
    "result": []
  },
  {
    "postal": "L4W0W7",
    "result": []
  },
  {
    "postal": "L4W2W9",
    "result": [
      {
        "electoralDistricts": [
          {
            "election": null,
            "id": 64,
            "name": "Mississauga—Malton"
          }
        ],
        "pollDivisionIds": [
          10139811
        ],
        "postalCode": "L4W2W9",
        "streetName": "TIMBERLEA",
        "streetDirectionId": null,
        "streetTypeId": "BLVD",
        "placeName": "MISSISSAUGA",
        "streetNameDisplayText": "TIMBERLEA BLVD, MISSISSAUGA"
      }
    ]
  },
  {
    "postal": "L4W8V0",
    "result": []
  },
  {
    "postal": "L4W0H4",
    "result": []
  },
  {
    "postal": "L4W2T1",
    "result": [
      {
        "electoralDistricts": [
          {
            "election": null,
            "id": 64,
            "name": "Mississauga—Malton"
          }
        ],
        "pollDivisionIds": [
          10139811
        ],
        "postalCode": "L4W2T1",
        "streetName": "HAULTAIN",
        "streetDirectionId": null,
        "streetTypeId": "CRT",
        "placeName": "MISSISSAUGA",
        "streetNameDisplayText": "HAULTAIN CRT, MISSISSAUGA"
      }
    ]
  },
  {
    "postal": "L4W1B1",
    "result": []
  },
  {
    "postal": "L4W8B6",
    "result": []
  },
  {
    "postal": "L4W6H1",
    "result": []
  },
  {
    "postal": "L4W8T8",
    "result": []
  },
  {
    "postal": "L4W0T4",
    "result": []
  },
  {
    "postal": "L4W2C4",
    "result": [
      {
        "electoralDistricts": [
          {
            "election": null,
            "id": 61,
            "name": "Mississauga East—Cooksville"
          }
        ],
        "pollDivisionIds": [
          10135426
        ],
        "postalCode": "L4W2C4",
        "streetName": "FIELDGATE",
        "streetDirectionId": null,
        "streetTypeId": "DR",
        "placeName": "MISSISSAUGA",
        "streetNameDisplayText": "FIELDGATE DR, MISSISSAUGA"
      }
    ]
  },
  {
    "postal": "L4W8N3",
    "result": []
  },
  {
    "postal": "L4W4L8",
    "result": [
      {
        "electoralDistricts": [
          {
            "election": null,
            "id": 64,
            "name": "Mississauga—Malton"
          }
        ],
        "pollDivisionIds": [
          10139813
        ],
        "postalCode": "L4W4L8",
        "streetName": "TOMKEN",
        "streetDirectionId": null,
        "streetTypeId": "RD",
        "placeName": "MISSISSAUGA",
        "streetNameDisplayText": "TOMKEN RD, MISSISSAUGA"
      }
    ]
  },
  {
    "postal": "L4W2B5",
    "result": [
      {
        "electoralDistricts": [
          {
            "election": null,
            "id": 61,
            "name": "Mississauga East—Cooksville"
          }
        ],
        "pollDivisionIds": [
          10135426
        ],
        "postalCode": "L4W2B5",
        "streetName": "MAPLE RIDGE",
        "streetDirectionId": null,
        "streetTypeId": "DR",
        "placeName": "MISSISSAUGA",
        "streetNameDisplayText": "MAPLE RIDGE DR, MISSISSAUGA"
      }
    ]
  },
  {
    "postal": "L4W3H1",
    "result": [
      {
        "electoralDistricts": [
          {
            "election": null,
            "id": 61,
            "name": "Mississauga East—Cooksville"
          }
        ],
        "pollDivisionIds": [
          10135434
        ],
        "postalCode": "L4W3H1",
        "streetName": "HIGH GATE CRESENT",
        "streetDirectionId": null,
        "streetTypeId": "CRES",
        "placeName": "MISSISSAUGA",
        "streetNameDisplayText": "HIGH GATE CRESENT CRES, MISSISSAUGA"
      },
      {
        "electoralDistricts": [
          {
            "election": null,
            "id": 61,
            "name": "Mississauga East—Cooksville"
          }
        ],
        "pollDivisionIds": [
          10135434
        ],
        "postalCode": "L4W3H1",
        "streetName": "HIGHGATE",
        "streetDirectionId": null,
        "streetTypeId": "CRES",
        "placeName": "MISSISSAUGA",
        "streetNameDisplayText": "HIGHGATE CRES, MISSISSAUGA"
      },
      {
        "electoralDistricts": [
          {
            "election": null,
            "id": 61,
            "name": "Mississauga East—Cooksville"
          }
        ],
        "pollDivisionIds": [
          10135434
        ],
        "postalCode": "L4W3H1",
        "streetName": "HIGHGATE CRESENT",
        "streetDirectionId": null,
        "streetTypeId": "CRES",
        "placeName": "MISSISSAUGA",
        "streetNameDisplayText": "HIGHGATE CRESENT CRES, MISSISSAUGA"
      }
    ]
  },
  {
    "postal": "L4W4Y1",
    "result": []
  },
  {
    "postal": "L4W7E2",
    "result": []
  },
  {
    "postal": "L4W2P5",
    "result": [
      {
        "electoralDistricts": [
          {
            "election": null,
            "id": 64,
            "name": "Mississauga—Malton"
          }
        ],
        "pollDivisionIds": [
          10139811
        ],
        "postalCode": "L4W2P5",
        "streetName": "MATHESON",
        "streetDirectionId": "E",
        "streetTypeId": "BLVD",
        "placeName": "MISSISSAUGA",
        "streetNameDisplayText": "MATHESON BLVD E, MISSISSAUGA"
      }
    ]
  },
  {
    "postal": "L4W8R7",
    "result": []
  },
  {
    "postal": "L4W9P1",
    "result": []
  },
  {
    "postal": "L4W3B8",
    "result": [
      {
        "electoralDistricts": [
          {
            "election": null,
            "id": 61,
            "name": "Mississauga East—Cooksville"
          }
        ],
        "pollDivisionIds": [
          10135425
        ],
        "postalCode": "L4W3B8",
        "streetName": "POLTAVA",
        "streetDirectionId": null,
        "streetTypeId": "CRES",
        "placeName": "MISSISSAUGA",
        "streetNameDisplayText": "POLTAVA CRES, MISSISSAUGA"
      }
    ]
  },
  {
    "postal": "L4W3P7",
    "result": [
      {
        "electoralDistricts": [
          {
            "election": null,
            "id": 61,
            "name": "Mississauga East—Cooksville"
          }
        ],
        "pollDivisionIds": [
          10135433
        ],
        "postalCode": "L4W3P7",
        "streetName": "WILLOWBANK",
        "streetDirectionId": null,
        "streetTypeId": "TRAIL",
        "placeName": "MISSISSAUGA",
        "streetNameDisplayText": "WILLOWBANK TRAIL, MISSISSAUGA"
      }
    ]
  },
  {
    "postal": "L4W9B2",
    "result": []
  },
  {
    "postal": "L4W6Z3",
    "result": []
  },
  {
    "postal": "L4W4N5",
    "result": [
      {
        "electoralDistricts": [
          {
            "election": null,
            "id": 64,
            "name": "Mississauga—Malton"
          }
        ],
        "pollDivisionIds": [
          10139811
        ],
        "postalCode": "L4W4N5",
        "streetName": "TIMBERLEA",
        "streetDirectionId": null,
        "streetTypeId": "BLVD",
        "placeName": "MISSISSAUGA",
        "streetNameDisplayText": "TIMBERLEA BLVD, MISSISSAUGA"
      }
    ]
  },
  {
    "postal": "L4W8T3",
    "result": []
  },
  {
    "postal": "L4W1V2",
    "result": [
      {
        "electoralDistricts": [
          {
            "election": null,
            "id": 64,
            "name": "Mississauga—Malton"
          }
        ],
        "pollDivisionIds": [
          10139811
        ],
        "postalCode": "L4W1V2",
        "streetName": "MATHESON",
        "streetDirectionId": null,
        "streetTypeId": "BLVD",
        "placeName": "MISSISSAUGA",
        "streetNameDisplayText": "MATHESON BLVD, MISSISSAUGA"
      }
    ]
  },
  {
    "postal": "L4W1Y0",
    "result": []
  },
  {
    "postal": "L4W3G6",
    "result": [
      {
        "electoralDistricts": [
          {
            "election": null,
            "id": 61,
            "name": "Mississauga East—Cooksville"
          }
        ],
        "pollDivisionIds": [
          10135434
        ],
        "postalCode": "L4W3G6",
        "streetName": "GREYBROOK",
        "streetDirectionId": null,
        "streetTypeId": "CRES",
        "placeName": "MISSISSAUGA",
        "streetNameDisplayText": "GREYBROOK CRES, MISSISSAUGA"
      }
    ]
  },
  {
    "postal": "L4W3H7",
    "result": [
      {
        "electoralDistricts": [
          {
            "election": null,
            "id": 61,
            "name": "Mississauga East—Cooksville"
          }
        ],
        "pollDivisionIds": [
          10135434
        ],
        "postalCode": "L4W3H7",
        "streetName": "WARNER",
        "streetDirectionId": null,
        "streetTypeId": "WAY",
        "placeName": "MISSISSAUGA",
        "streetNameDisplayText": "WARNER WAY, MISSISSAUGA"
      }
    ]
  },
  {
    "postal": "L4W7X8",
    "result": []
  },
  {
    "postal": "L4W0C7",
    "result": []
  },
  {
    "postal": "L4W0W9",
    "result": []
  },
  {
    "postal": "L4W8E6",
    "result": []
  },
  {
    "postal": "L4W9Z8",
    "result": []
  },
  {
    "postal": "L4W3P4",
    "result": [
      {
        "electoralDistricts": [
          {
            "election": null,
            "id": 61,
            "name": "Mississauga East—Cooksville"
          }
        ],
        "pollDivisionIds": [
          10135439
        ],
        "postalCode": "L4W3P4",
        "streetName": "FOREST FIRE",
        "streetDirectionId": null,
        "streetTypeId": "LANE",
        "placeName": "MISSISSAUGA",
        "streetNameDisplayText": "FOREST FIRE LANE, MISSISSAUGA"
      }
    ]
  },
  {
    "postal": "L4W6L8",
    "result": []
  },
  {
    "postal": "L4W2R4",
    "result": [
      {
        "electoralDistricts": [
          {
            "election": null,
            "id": 64,
            "name": "Mississauga—Malton"
          }
        ],
        "pollDivisionIds": [
          10139811
        ],
        "postalCode": "L4W2R4",
        "streetName": "EVEREST",
        "streetDirectionId": null,
        "streetTypeId": "DR",
        "placeName": "MISSISSAUGA",
        "streetNameDisplayText": "EVEREST DR, MISSISSAUGA"
      }
    ]
  },
  {
    "postal": "L4W2W1",
    "result": [
      {
        "electoralDistricts": [
          {
            "election": null,
            "id": 61,
            "name": "Mississauga East—Cooksville"
          }
        ],
        "pollDivisionIds": [
          10135426
        ],
        "postalCode": "L4W2W1",
        "streetName": "ANWORLD",
        "streetDirectionId": null,
        "streetTypeId": "PL",
        "placeName": "MISSISSAUGA",
        "streetNameDisplayText": "ANWORLD PL, MISSISSAUGA"
      }
    ]
  },
  {
    "postal": "L4W9H8",
    "result": []
  },
  {
    "postal": "L4W8X9",
    "result": []
  },
  {
    "postal": "L4W7H4",
    "result": []
  },
  {
    "postal": "L4W3J1",
    "result": [
      {
        "electoralDistricts": [
          {
            "election": null,
            "id": 61,
            "name": "Mississauga East—Cooksville"
          }
        ],
        "pollDivisionIds": [
          10135439
        ],
        "postalCode": "L4W3J1",
        "streetName": "GREYCEDAR",
        "streetDirectionId": null,
        "streetTypeId": "CRT",
        "placeName": "MISSISSAUGA",
        "streetNameDisplayText": "GREYCEDAR CRT, MISSISSAUGA"
      }
    ]
  },
  {
    "postal": "L4W1P4",
    "result": [
      {
        "electoralDistricts": [
          {
            "election": null,
            "id": 64,
            "name": "Mississauga—Malton"
          }
        ],
        "pollDivisionIds": [
          10139811
        ],
        "postalCode": "L4W1P4",
        "streetName": "TOMKEN",
        "streetDirectionId": null,
        "streetTypeId": "RD",
        "placeName": "MISSISSAUGA",
        "streetNameDisplayText": "TOMKEN RD, MISSISSAUGA"
      }
    ]
  },
  {
    "postal": "L4W2A3",
    "result": [
      {
        "electoralDistricts": [
          {
            "election": null,
            "id": 64,
            "name": "Mississauga—Malton"
          }
        ],
        "pollDivisionIds": [
          10139809
        ],
        "postalCode": "L4W2A3",
        "streetName": "BRITANNIA",
        "streetDirectionId": "E",
        "streetTypeId": "RD",
        "placeName": "MISSISSAUGA",
        "streetNameDisplayText": "BRITANNIA RD E, MISSISSAUGA"
      }
    ]
  },
  {
    "postal": "L4W0Z1",
    "result": []
  },
  {
    "postal": "L4W1C1",
    "result": [
      {
        "electoralDistricts": [
          {
            "election": null,
            "id": 64,
            "name": "Mississauga—Malton"
          }
        ],
        "pollDivisionIds": [
          10139811
        ],
        "postalCode": "L4W1C1",
        "streetName": "AEROWOOD",
        "streetDirectionId": null,
        "streetTypeId": "DR",
        "placeName": "MISSISSAUGA",
        "streetNameDisplayText": "AEROWOOD DR, MISSISSAUGA"
      }
    ]
  },
  {
    "postal": "L4W0H3",
    "result": []
  },
  {
    "postal": "L4W7B0",
    "result": []
  },
  {
    "postal": "L4W5K2",
    "result": []
  },
  {
    "postal": "L4W1E9",
    "result": [
      {
        "electoralDistricts": [
          {
            "election": null,
            "id": 64,
            "name": "Mississauga—Malton"
          }
        ],
        "pollDivisionIds": [
          10139813
        ],
        "postalCode": "L4W1E9",
        "streetName": "DIXIE",
        "streetDirectionId": null,
        "streetTypeId": "RD",
        "placeName": "MISSISSAUGA",
        "streetNameDisplayText": "DIXIE RD, MISSISSAUGA"
      }
    ]
  },
  {
    "postal": "L4W9W7",
    "result": []
  },
  {
    "postal": "L4W5W6",
    "result": []
  },
  {
    "postal": "L4W6S6",
    "result": []
  },
  {
    "postal": "L4W2P8",
    "result": []
  },
  {
    "postal": "L4W4P8",
    "result": []
  },
  {
    "postal": "L4W0V9",
    "result": []
  },
  {
    "postal": "L4W5Y2",
    "result": []
  },
  {
    "postal": "L4W7Z7",
    "result": []
  },
  {
    "postal": "L4W6Y8",
    "result": []
  },
  {
    "postal": "L4W2G7",
    "result": [
      {
        "electoralDistricts": [
          {
            "election": null,
            "id": 61,
            "name": "Mississauga East—Cooksville"
          }
        ],
        "pollDivisionIds": [
          10135426
        ],
        "postalCode": "L4W2G7",
        "streetName": "GARNETWOOD",
        "streetDirectionId": null,
        "streetTypeId": "CHASE",
        "placeName": "MISSISSAUGA",
        "streetNameDisplayText": "GARNETWOOD CHASE, MISSISSAUGA"
      }
    ]
  },
  {
    "postal": "L4W8C1",
    "result": []
  },
  {
    "postal": "L4W5C5",
    "result": [
      {
        "electoralDistricts": [
          {
            "election": null,
            "id": 64,
            "name": "Mississauga—Malton"
          }
        ],
        "pollDivisionIds": [
          10139811
        ],
        "postalCode": "L4W5C5",
        "streetName": "TIMBERLEA",
        "streetDirectionId": null,
        "streetTypeId": "BLVD",
        "placeName": "MISSISSAUGA",
        "streetNameDisplayText": "TIMBERLEA BLVD, MISSISSAUGA"
      }
    ]
  },
  {
    "postal": "L4W2X8",
    "result": [
      {
        "electoralDistricts": [
          {
            "election": null,
            "id": 64,
            "name": "Mississauga—Malton"
          }
        ],
        "pollDivisionIds": [
          10139811
        ],
        "postalCode": "L4W2X8",
        "streetName": "STACEY",
        "streetDirectionId": null,
        "streetTypeId": "CRT",
        "placeName": "MISSISSAUGA",
        "streetNameDisplayText": "STACEY CRT, MISSISSAUGA"
      }
    ]
  },
  {
    "postal": "L4W1W5",
    "result": []
  },
  {
    "postal": "L4W7G0",
    "result": []
  },
  {
    "postal": "L4W8J8",
    "result": []
  },
  {
    "postal": "L4W3Y0",
    "result": []
  },
  {
    "postal": "L4W9T7",
    "result": []
  },
  {
    "postal": "L4W5P4",
    "result": [
      {
        "electoralDistricts": [
          {
            "election": null,
            "id": 64,
            "name": "Mississauga—Malton"
          }
        ],
        "pollDivisionIds": [
          10139811
        ],
        "postalCode": "L4W5P4",
        "streetName": "TECH",
        "streetDirectionId": null,
        "streetTypeId": "AVE",
        "placeName": "MISSISSAUGA",
        "streetNameDisplayText": "TECH AVE, MISSISSAUGA"
      }
    ]
  },
  {
    "postal": "L4W4B0",
    "result": []
  },
  {
    "postal": "L4W9N8",
    "result": []
  },
  {
    "postal": "L4W4A7",
    "result": [
      {
        "electoralDistricts": [
          {
            "election": null,
            "id": 64,
            "name": "Mississauga—Malton"
          }
        ],
        "pollDivisionIds": [
          10139811
        ],
        "postalCode": "L4W4A7",
        "streetName": "PANTERA",
        "streetDirectionId": null,
        "streetTypeId": "DR",
        "placeName": "MISSISSAUGA",
        "streetNameDisplayText": "PANTERA DR, MISSISSAUGA"
      }
    ]
  },
  {
    "postal": "L4W4H9",
    "result": [
      {
        "electoralDistricts": [
          {
            "election": null,
            "id": 61,
            "name": "Mississauga East—Cooksville"
          }
        ],
        "pollDivisionIds": [
          10135426
        ],
        "postalCode": "L4W4H9",
        "streetName": "CAPILANO",
        "streetDirectionId": null,
        "streetTypeId": "CRT",
        "placeName": "MISSISSAUGA",
        "streetNameDisplayText": "CAPILANO CRT, MISSISSAUGA"
      }
    ]
  },
  {
    "postal": "L4W6X1",
    "result": []
  },
  {
    "postal": "L4W9Y7",
    "result": []
  },
  {
    "postal": "L4W2Y5",
    "result": [
      {
        "electoralDistricts": [
          {
            "election": null,
            "id": 61,
            "name": "Mississauga East—Cooksville"
          }
        ],
        "pollDivisionIds": [
          10135425
        ],
        "postalCode": "L4W2Y5",
        "streetName": "HARTFIELD",
        "streetDirectionId": null,
        "streetTypeId": "GROVE",
        "placeName": "MISSISSAUGA",
        "streetNameDisplayText": "HARTFIELD GROVE, MISSISSAUGA"
      }
    ]
  },
  {
    "postal": "L4W8L7",
    "result": []
  },
  {
    "postal": "L4W2A8",
    "result": []
  },
  {
    "postal": "L4W2K9",
    "result": [
      {
        "electoralDistricts": [
          {
            "election": null,
            "id": 64,
            "name": "Mississauga—Malton"
          }
        ],
        "pollDivisionIds": [
          10139811
        ],
        "postalCode": "L4W2K9",
        "streetName": "AMBLER",
        "streetDirectionId": null,
        "streetTypeId": "DR",
        "placeName": "MISSISSAUGA",
        "streetNameDisplayText": "AMBLER DR, MISSISSAUGA"
      }
    ]
  },
  {
    "postal": "L4W3E5",
    "result": [
      {
        "electoralDistricts": [
          {
            "election": null,
            "id": 61,
            "name": "Mississauga East—Cooksville"
          }
        ],
        "pollDivisionIds": [
          10135434
        ],
        "postalCode": "L4W3E5",
        "streetName": "GRYPHON",
        "streetDirectionId": null,
        "streetTypeId": "MEWS",
        "placeName": "MISSISSAUGA",
        "streetNameDisplayText": "GRYPHON MEWS, MISSISSAUGA"
      }
    ]
  },
  {
    "postal": "L4W8N6",
    "result": []
  },
  {
    "postal": "L4W8J4",
    "result": []
  },
  {
    "postal": "L4W4R7",
    "result": [
      {
        "electoralDistricts": [
          {
            "election": null,
            "id": 61,
            "name": "Mississauga East—Cooksville"
          }
        ],
        "pollDivisionIds": [
          10135433
        ],
        "postalCode": "L4W4R7",
        "streetName": "PRESTON",
        "streetDirectionId": null,
        "streetTypeId": "TRAIL",
        "placeName": "MISSISSAUGA",
        "streetNameDisplayText": "PRESTON TRAIL, MISSISSAUGA"
      }
    ]
  },
  {
    "postal": "L4W9K1",
    "result": []
  },
  {
    "postal": "L4W8E1",
    "result": []
  },
  {
    "postal": "L4W0R1",
    "result": []
  },
  {
    "postal": "L4W4J3",
    "result": []
  },
  {
    "postal": "L4W7E7",
    "result": []
  },
  {
    "postal": "L4W0J0",
    "result": []
  },
  {
    "postal": "L4W7R8",
    "result": []
  },
  {
    "postal": "L4W9X0",
    "result": []
  },
  {
    "postal": "L4W7P6",
    "result": []
  },
  {
    "postal": "L4W0R7",
    "result": []
  },
  {
    "postal": "L4W5W1",
    "result": []
  },
  {
    "postal": "L4W0K4",
    "result": []
  },
  {
    "postal": "L4W7N9",
    "result": []
  },
  {
    "postal": "L4W1N0",
    "result": []
  },
  {
    "postal": "L4W6P3",
    "result": []
  },
  {
    "postal": "L4W5A1",
    "result": [
      {
        "electoralDistricts": [
          {
            "election": null,
            "id": 64,
            "name": "Mississauga—Malton"
          }
        ],
        "pollDivisionIds": [
          10139811
        ],
        "postalCode": "L4W5A1",
        "streetName": "SPECTRUM",
        "streetDirectionId": null,
        "streetTypeId": "WAY",
        "placeName": "MISSISSAUGA",
        "streetNameDisplayText": "SPECTRUM WAY, MISSISSAUGA"
      }
    ]
  },
  {
    "postal": "L4W9M9",
    "result": []
  },
  {
    "postal": "L4W7T6",
    "result": []
  },
  {
    "postal": "L4W3X0",
    "result": []
  },
  {
    "postal": "L4W2T0",
    "result": []
  },
  {
    "postal": "L4W5X9",
    "result": []
  },
  {
    "postal": "L4W2R3",
    "result": []
  },
  {
    "postal": "L4W5N2",
    "result": [
      {
        "electoralDistricts": [
          {
            "election": null,
            "id": 64,
            "name": "Mississauga—Malton"
          }
        ],
        "pollDivisionIds": [
          10139811
        ],
        "postalCode": "L4W5N2",
        "streetName": "CREEKBANK",
        "streetDirectionId": null,
        "streetTypeId": "RD",
        "placeName": "MISSISSAUGA",
        "streetNameDisplayText": "CREEKBANK RD, MISSISSAUGA"
      }
    ]
  },
  {
    "postal": "L4W4Y7",
    "result": []
  },
  {
    "postal": "L4W7M0",
    "result": []
  },
  {
    "postal": "L4W8P3",
    "result": []
  },
  {
    "postal": "L4W3N3",
    "result": [
      {
        "electoralDistricts": [
          {
            "election": null,
            "id": 61,
            "name": "Mississauga East—Cooksville"
          }
        ],
        "pollDivisionIds": [
          10135433
        ],
        "postalCode": "L4W3N3",
        "streetName": "UXBRIDGE",
        "streetDirectionId": null,
        "streetTypeId": "LANE",
        "placeName": "MISSISSAUGA",
        "streetNameDisplayText": "UXBRIDGE LANE, MISSISSAUGA"
      }
    ]
  },
  {
    "postal": "L4W7S3",
    "result": []
  },
  {
    "postal": "L4W3V9",
    "result": [
      {
        "electoralDistricts": [
          {
            "election": null,
            "id": 64,
            "name": "Mississauga—Malton"
          }
        ],
        "pollDivisionIds": [
          10139811
        ],
        "postalCode": "L4W3V9",
        "streetName": "BREVIK",
        "streetDirectionId": null,
        "streetTypeId": "PL",
        "placeName": "MISSISSAUGA",
        "streetNameDisplayText": "BREVIK PL, MISSISSAUGA"
      }
    ]
  },
  {
    "postal": "L4W9N7",
    "result": []
  },
  {
    "postal": "L4W0G4",
    "result": []
  },
  {
    "postal": "L4W2E2",
    "result": [
      {
        "electoralDistricts": [
          {
            "election": null,
            "id": 61,
            "name": "Mississauga East—Cooksville"
          }
        ],
        "pollDivisionIds": [
          10135425
        ],
        "postalCode": "L4W2E2",
        "streetName": "FIELDGATE",
        "streetDirectionId": null,
        "streetTypeId": "DR",
        "placeName": "MISSISSAUGA",
        "streetNameDisplayText": "FIELDGATE DR, MISSISSAUGA"
      }
    ]
  },
  {
    "postal": "L4W7W8",
    "result": []
  },
  {
    "postal": "L4W7M5",
    "result": []
  },
  {
    "postal": "L4W5W8",
    "result": []
  },
  {
    "postal": "L4W5E5",
    "result": []
  },
  {
    "postal": "L4W1P9",
    "result": [
      {
        "electoralDistricts": [
          {
            "election": null,
            "id": 64,
            "name": "Mississauga—Malton"
          }
        ],
        "pollDivisionIds": [
          10139811
        ],
        "postalCode": "L4W1P9",
        "streetName": "SISMET",
        "streetDirectionId": null,
        "streetTypeId": "RD",
        "placeName": "MISSISSAUGA",
        "streetNameDisplayText": "SISMET RD, MISSISSAUGA"
      }
    ]
  },
  {
    "postal": "L4W8V8",
    "result": []
  },
  {
    "postal": "L4W9G8",
    "result": []
  },
  {
    "postal": "L4W8H9",
    "result": []
  },
  {
    "postal": "L4W1Z1",
    "result": [
      {
        "electoralDistricts": [
          {
            "election": null,
            "id": 64,
            "name": "Mississauga—Malton"
          }
        ],
        "pollDivisionIds": [
          10139811
        ],
        "postalCode": "L4W1Z1",
        "streetName": "MATHESON",
        "streetDirectionId": null,
        "streetTypeId": "BLVD",
        "placeName": "MISSISSAUGA",
        "streetNameDisplayText": "MATHESON BLVD, MISSISSAUGA"
      }
    ]
  },
  {
    "postal": "L4W8M3",
    "result": []
  },
  {
    "postal": "L4W5H6",
    "result": []
  },
  {
    "postal": "L4W7W7",
    "result": []
  },
  {
    "postal": "L4W4L0",
    "result": []
  },
  {
    "postal": "L4W2N1",
    "result": [
      {
        "electoralDistricts": [
          {
            "election": null,
            "id": 61,
            "name": "Mississauga East—Cooksville"
          }
        ],
        "pollDivisionIds": [
          10135426
        ],
        "postalCode": "L4W2N1",
        "streetName": "FIELDGATE",
        "streetDirectionId": null,
        "streetTypeId": "DR",
        "placeName": "MISSISSAUGA",
        "streetNameDisplayText": "FIELDGATE DR, MISSISSAUGA"
      }
    ]
  },
  {
    "postal": "L4W2H4",
    "result": [
      {
        "electoralDistricts": [
          {
            "election": null,
            "id": 61,
            "name": "Mississauga East—Cooksville"
          }
        ],
        "pollDivisionIds": [
          10135426
        ],
        "postalCode": "L4W2H4",
        "streetName": "GARROWHILL",
        "streetDirectionId": null,
        "streetTypeId": "TRAIL",
        "placeName": "MISSISSAUGA",
        "streetNameDisplayText": "GARROWHILL TRAIL, MISSISSAUGA"
      }
    ]
  },
  {
    "postal": "L4W5C8",
    "result": [
      {
        "electoralDistricts": [
          {
            "election": null,
            "id": 61,
            "name": "Mississauga East—Cooksville"
          }
        ],
        "pollDivisionIds": [
          10135426
        ],
        "postalCode": "L4W5C8",
        "streetName": "MAPLE RIDGE",
        "streetDirectionId": null,
        "streetTypeId": "DR",
        "placeName": "MISSISSAUGA",
        "streetNameDisplayText": "MAPLE RIDGE DR, MISSISSAUGA"
      }
    ]
  },
  {
    "postal": "L4W8B0",
    "result": []
  },
  {
    "postal": "L4W1T4",
    "result": []
  },
  {
    "postal": "L4W7N7",
    "result": []
  },
  {
    "postal": "L4W4L3",
    "result": []
  },
  {
    "postal": "L4W2N2",
    "result": [
      {
        "electoralDistricts": [
          {
            "election": null,
            "id": 64,
            "name": "Mississauga—Malton"
          }
        ],
        "pollDivisionIds": [
          10139811
        ],
        "postalCode": "L4W2N2",
        "streetName": "KAMATO",
        "streetDirectionId": null,
        "streetTypeId": "RD",
        "placeName": "MISSISSAUGA",
        "streetNameDisplayText": "KAMATO RD, MISSISSAUGA"
      }
    ]
  },
  {
    "postal": "L4W4N8",
    "result": [
      {
        "electoralDistricts": [
          {
            "election": null,
            "id": 64,
            "name": "Mississauga—Malton"
          }
        ],
        "pollDivisionIds": [
          10139809
        ],
        "postalCode": "L4W4N8",
        "streetName": "ATLANTIC",
        "streetDirectionId": null,
        "streetTypeId": "DR",
        "placeName": "MISSISSAUGA",
        "streetNameDisplayText": "ATLANTIC DR, MISSISSAUGA"
      }
    ]
  },
  {
    "postal": "L4W3M5",
    "result": [
      {
        "electoralDistricts": [
          {
            "election": null,
            "id": 61,
            "name": "Mississauga East—Cooksville"
          }
        ],
        "pollDivisionIds": [
          10135434
        ],
        "postalCode": "L4W3M5",
        "streetName": "LOVINGSTON",
        "streetDirectionId": null,
        "streetTypeId": "CRES",
        "placeName": "MISSISSAUGA",
        "streetNameDisplayText": "LOVINGSTON CRES, MISSISSAUGA"
      }
    ]
  },
  {
    "postal": "L4W6H7",
    "result": []
  },
  {
    "postal": "L4W8Y8",
    "result": []
  },
  {
    "postal": "L4W5R9",
    "result": [
      {
        "electoralDistricts": [
          {
            "election": null,
            "id": 64,
            "name": "Mississauga—Malton"
          }
        ],
        "pollDivisionIds": [
          10139811
        ],
        "postalCode": "L4W5R9",
        "streetName": "MATHESON",
        "streetDirectionId": "E",
        "streetTypeId": "BLVD",
        "placeName": "MISSISSAUGA",
        "streetNameDisplayText": "MATHESON BLVD E, MISSISSAUGA"
      }
    ]
  },
  {
    "postal": "L4W8G3",
    "result": []
  },
  {
    "postal": "L4W4N7",
    "result": [
      {
        "electoralDistricts": [
          {
            "election": null,
            "id": 64,
            "name": "Mississauga—Malton"
          }
        ],
        "pollDivisionIds": [
          10139811
        ],
        "postalCode": "L4W4N7",
        "streetName": "BREVIK",
        "streetDirectionId": null,
        "streetTypeId": "PL",
        "placeName": "MISSISSAUGA",
        "streetNameDisplayText": "BREVIK PL, MISSISSAUGA"
      }
    ]
  },
  {
    "postal": "L4W0B9",
    "result": [
      {
        "electoralDistricts": [
          {
            "election": null,
            "id": 64,
            "name": "Mississauga—Malton"
          }
        ],
        "pollDivisionIds": [
          10139811
        ],
        "postalCode": "L4W0B9",
        "streetName": "AIMCO",
        "streetDirectionId": null,
        "streetTypeId": "BLVD",
        "placeName": "MISSISSAUGA",
        "streetNameDisplayText": "AIMCO BLVD, MISSISSAUGA"
      }
    ]
  },
  {
    "postal": "L4W9K7",
    "result": []
  },
  {
    "postal": "L4W9K9",
    "result": []
  },
  {
    "postal": "L4W3Z2",
    "result": []
  },
  {
    "postal": "L4W6W7",
    "result": []
  },
  {
    "postal": "L4W0P1",
    "result": []
  },
  {
    "postal": "L4W3A0",
    "result": []
  },
  {
    "postal": "L4W8L9",
    "result": []
  },
  {
    "postal": "L4W6X0",
    "result": []
  },
  {
    "postal": "L4W3E9",
    "result": []
  },
  {
    "postal": "L4W0S5",
    "result": []
  },
  {
    "postal": "L4W1A2",
    "result": [
      {
        "electoralDistricts": [
          {
            "election": null,
            "id": 61,
            "name": "Mississauga East—Cooksville"
          }
        ],
        "pollDivisionIds": [
          10135433
        ],
        "postalCode": "L4W1A2",
        "streetName": "FEWSTER",
        "streetDirectionId": null,
        "streetTypeId": "DR",
        "placeName": "MISSISSAUGA",
        "streetNameDisplayText": "FEWSTER DR, MISSISSAUGA"
      }
    ]
  },
  {
    "postal": "L4W5V8",
    "result": []
  },
  {
    "postal": "L4W8C5",
    "result": []
  },
  {
    "postal": "L4W6N0",
    "result": []
  },
  {
    "postal": "L4W9E6",
    "result": []
  },
  {
    "postal": "L4W5J7",
    "result": [
      {
        "electoralDistricts": [
          {
            "election": null,
            "id": 64,
            "name": "Mississauga—Malton"
          }
        ],
        "pollDivisionIds": [
          10139811
        ],
        "postalCode": "L4W5J7",
        "streetName": "SATELLITE",
        "streetDirectionId": null,
        "streetTypeId": "DR",
        "placeName": "MISSISSAUGA",
        "streetNameDisplayText": "SATELLITE DR, MISSISSAUGA"
      }
    ]
  },
  {
    "postal": "L4W2R2",
    "result": [
      {
        "electoralDistricts": [
          {
            "election": null,
            "id": 64,
            "name": "Mississauga—Malton"
          }
        ],
        "pollDivisionIds": [
          10139811
        ],
        "postalCode": "L4W2R2",
        "streetName": "EVEREST",
        "streetDirectionId": null,
        "streetTypeId": "DR",
        "placeName": "MISSISSAUGA",
        "streetNameDisplayText": "EVEREST DR, MISSISSAUGA"
      }
    ]
  },
  {
    "postal": "L4W0P5",
    "result": []
  },
  {
    "postal": "L4W5A7",
    "result": [
      {
        "electoralDistricts": [
          {
            "election": null,
            "id": 64,
            "name": "Mississauga—Malton"
          }
        ],
        "pollDivisionIds": [
          10139811
        ],
        "postalCode": "L4W5A7",
        "streetName": "SKYMARK",
        "streetDirectionId": null,
        "streetTypeId": "AVE",
        "placeName": "MISSISSAUGA",
        "streetNameDisplayText": "SKYMARK AVE, MISSISSAUGA"
      }
    ]
  },
  {
    "postal": "L4W1G1",
    "result": [
      {
        "electoralDistricts": [
          {
            "election": null,
            "id": 61,
            "name": "Mississauga East—Cooksville"
          }
        ],
        "pollDivisionIds": [
          10135433
        ],
        "postalCode": "L4W1G1",
        "streetName": "BURGOYNE",
        "streetDirectionId": null,
        "streetTypeId": "ST",
        "placeName": "MISSISSAUGA",
        "streetNameDisplayText": "BURGOYNE ST, MISSISSAUGA"
      }
    ]
  },
  {
    "postal": "L4W9R6",
    "result": []
  },
  {
    "postal": "L4W4Z9",
    "result": [
      {
        "electoralDistricts": [
          {
            "election": null,
            "id": 61,
            "name": "Mississauga East—Cooksville"
          }
        ],
        "pollDivisionIds": [
          10135432
        ],
        "postalCode": "L4W4Z9",
        "streetName": "GRAZIA",
        "streetDirectionId": null,
        "streetTypeId": "CRT",
        "placeName": "MISSISSAUGA",
        "streetNameDisplayText": "GRAZIA CRT, MISSISSAUGA"
      }
    ]
  },
  {
    "postal": "L4W1V5",
    "result": [
      {
        "electoralDistricts": [
          {
            "election": null,
            "id": 61,
            "name": "Mississauga East—Cooksville"
          }
        ],
        "pollDivisionIds": [
          10135432
        ],
        "postalCode": "L4W1V5",
        "streetName": "DIXIE",
        "streetDirectionId": null,
        "streetTypeId": "RD",
        "placeName": "MISSISSAUGA",
        "streetNameDisplayText": "DIXIE RD, MISSISSAUGA"
      }
    ]
  },
  {
    "postal": "L4W9Y5",
    "result": []
  },
  {
    "postal": "L4W1P2",
    "result": [
      {
        "electoralDistricts": [
          {
            "election": null,
            "id": 64,
            "name": "Mississauga—Malton"
          }
        ],
        "pollDivisionIds": [
          10139811
        ],
        "postalCode": "L4W1P2",
        "streetName": "TOMKEN",
        "streetDirectionId": null,
        "streetTypeId": "RD",
        "placeName": "MISSISSAUGA",
        "streetNameDisplayText": "TOMKEN RD, MISSISSAUGA"
      }
    ]
  },
  {
    "postal": "L4W5X0",
    "result": []
  },
  {
    "postal": "L4W7B8",
    "result": []
  },
  {
    "postal": "L4W0C6",
    "result": []
  },
  {
    "postal": "L4W6G1",
    "result": []
  },
  {
    "postal": "L4W3K3",
    "result": [
      {
        "electoralDistricts": [
          {
            "election": null,
            "id": 61,
            "name": "Mississauga East—Cooksville"
          }
        ],
        "pollDivisionIds": [
          10135439
        ],
        "postalCode": "L4W3K3",
        "streetName": "WILLOWBANK",
        "streetDirectionId": null,
        "streetTypeId": "TRAIL",
        "placeName": "MISSISSAUGA",
        "streetNameDisplayText": "WILLOWBANK TRAIL, MISSISSAUGA"
      }
    ]
  },
  {
    "postal": "L4W9R0",
    "result": []
  },
  {
    "postal": "L4W4R8",
    "result": [
      {
        "electoralDistricts": [
          {
            "election": null,
            "id": 61,
            "name": "Mississauga East—Cooksville"
          }
        ],
        "pollDivisionIds": [
          10135433
        ],
        "postalCode": "L4W4R8",
        "streetName": "WETHERBY",
        "streetDirectionId": null,
        "streetTypeId": "LANE",
        "placeName": "MISSISSAUGA",
        "streetNameDisplayText": "WETHERBY LANE, MISSISSAUGA"
      }
    ]
  },
  {
    "postal": "L4W5P9",
    "result": [
      {
        "electoralDistricts": [
          {
            "election": null,
            "id": 64,
            "name": "Mississauga—Malton"
          }
        ],
        "pollDivisionIds": [
          10139811
        ],
        "postalCode": "L4W5P9",
        "streetName": "SATELLITE",
        "streetDirectionId": null,
        "streetTypeId": "DR",
        "placeName": "MISSISSAUGA",
        "streetNameDisplayText": "SATELLITE DR, MISSISSAUGA"
      }
    ]
  },
  {
    "postal": "L4W8N4",
    "result": []
  },
  {
    "postal": "L4W8H4",
    "result": []
  },
  {
    "postal": "L4W4V1",
    "result": []
  },
  {
    "postal": "L4W1K5",
    "result": [
      {
        "electoralDistricts": [
          {
            "election": null,
            "id": 61,
            "name": "Mississauga East—Cooksville"
          }
        ],
        "pollDivisionIds": [
          10135433
        ],
        "postalCode": "L4W1K5",
        "streetName": "EGLINTON",
        "streetDirectionId": "E",
        "streetTypeId": "AVE",
        "placeName": "MISSISSAUGA",
        "streetNameDisplayText": "EGLINTON AVE E, MISSISSAUGA"
      }
    ]
  },
  {
    "postal": "L4W1Z5",
    "result": []
  },
  {
    "postal": "L4W9L9",
    "result": []
  },
  {
    "postal": "L4W5L2",
    "result": [
      {
        "electoralDistricts": [
          {
            "election": null,
            "id": 64,
            "name": "Mississauga—Malton"
          }
        ],
        "pollDivisionIds": [
          10139811
        ],
        "postalCode": "L4W5L2",
        "streetName": "EXPLORER",
        "streetDirectionId": null,
        "streetTypeId": "DR",
        "placeName": "MISSISSAUGA",
        "streetNameDisplayText": "EXPLORER DR, MISSISSAUGA"
      }
    ]
  },
  {
    "postal": "L4W0M2",
    "result": []
  },
  {
    "postal": "L4W1K8",
    "result": [
      {
        "electoralDistricts": [
          {
            "election": null,
            "id": 64,
            "name": "Mississauga—Malton"
          },
          {
            "election": null,
            "id": 61,
            "name": "Mississauga East—Cooksville"
          }
        ],
        "pollDivisionIds": [
          10139811,
          10135433
        ],
        "postalCode": "L4W1K8",
        "streetName": "EGLINTON",
        "streetDirectionId": "E",
        "streetTypeId": "AVE",
        "placeName": "MISSISSAUGA",
        "streetNameDisplayText": "EGLINTON AVE E, MISSISSAUGA"
      }
    ]
  },
  {
    "postal": "L4W3M7",
    "result": [
      {
        "electoralDistricts": [
          {
            "election": null,
            "id": 61,
            "name": "Mississauga East—Cooksville"
          }
        ],
        "pollDivisionIds": [
          10135434
        ],
        "postalCode": "L4W3M7",
        "streetName": "ROWAN",
        "streetDirectionId": null,
        "streetTypeId": "CRT",
        "placeName": "MISSISSAUGA",
        "streetNameDisplayText": "ROWAN CRT, MISSISSAUGA"
      }
    ]
  },
  {
    "postal": "L4W1B2",
    "result": [
      {
        "electoralDistricts": [
          {
            "election": null,
            "id": 64,
            "name": "Mississauga—Malton"
          }
        ],
        "pollDivisionIds": [
          10139811
        ],
        "postalCode": "L4W1B2",
        "streetName": "AIMCO",
        "streetDirectionId": null,
        "streetTypeId": "BLVD",
        "placeName": "MISSISSAUGA",
        "streetNameDisplayText": "AIMCO BLVD, MISSISSAUGA"
      }
    ]
  },
  {
    "postal": "L4W0H9",
    "result": []
  },
  {
    "postal": "L4W8M4",
    "result": []
  },
  {
    "postal": "L4W2M5",
    "result": [
      {
        "electoralDistricts": [
          {
            "election": null,
            "id": 61,
            "name": "Mississauga East—Cooksville"
          }
        ],
        "pollDivisionIds": [
          10135430,
          10135426
        ],
        "postalCode": "L4W2M5",
        "streetName": "FIELDGATE",
        "streetDirectionId": null,
        "streetTypeId": "DR",
        "placeName": "MISSISSAUGA",
        "streetNameDisplayText": "FIELDGATE DR, MISSISSAUGA"
      }
    ]
  },
  {
    "postal": "L4W0T9",
    "result": []
  },
  {
    "postal": "L4W3P1",
    "result": [
      {
        "electoralDistricts": [
          {
            "election": null,
            "id": 64,
            "name": "Mississauga—Malton"
          }
        ],
        "pollDivisionIds": [
          10139811
        ],
        "postalCode": "L4W3P1",
        "streetName": "MATHESON",
        "streetDirectionId": "E",
        "streetTypeId": "BLVD",
        "placeName": "MISSISSAUGA",
        "streetNameDisplayText": "MATHESON BLVD E, MISSISSAUGA"
      }
    ]
  },
  {
    "postal": "L4W1R6",
    "result": [
      {
        "electoralDistricts": [
          {
            "election": null,
            "id": 64,
            "name": "Mississauga—Malton"
          }
        ],
        "pollDivisionIds": [
          10139811
        ],
        "postalCode": "L4W1R6",
        "streetName": "SISMET",
        "streetDirectionId": null,
        "streetTypeId": "RD",
        "placeName": "MISSISSAUGA",
        "streetNameDisplayText": "SISMET RD, MISSISSAUGA"
      }
    ]
  },
  {
    "postal": "L4W9V5",
    "result": []
  },
  {
    "postal": "L4W9T0",
    "result": []
  },
  {
    "postal": "L4W0A9",
    "result": [
      {
        "electoralDistricts": [
          {
            "election": null,
            "id": 64,
            "name": "Mississauga—Malton"
          }
        ],
        "pollDivisionIds": [
          10139811
        ],
        "postalCode": "L4W0A9",
        "streetName": "EXPLORER",
        "streetDirectionId": null,
        "streetTypeId": "DR",
        "placeName": "MISSISSAUGA",
        "streetNameDisplayText": "EXPLORER DR, MISSISSAUGA"
      }
    ]
  },
  {
    "postal": "L4W1M3",
    "result": [
      {
        "electoralDistricts": [
          {
            "election": null,
            "id": 61,
            "name": "Mississauga East—Cooksville"
          }
        ],
        "pollDivisionIds": [
          10135432
        ],
        "postalCode": "L4W1M3",
        "streetName": "DIXIE",
        "streetDirectionId": null,
        "streetTypeId": "RD",
        "placeName": "MISSISSAUGA",
        "streetNameDisplayText": "DIXIE RD, MISSISSAUGA"
      }
    ]
  },
  {
    "postal": "L4W1W8",
    "result": [
      {
        "electoralDistricts": [
          {
            "election": null,
            "id": 64,
            "name": "Mississauga—Malton"
          }
        ],
        "pollDivisionIds": [
          10139811
        ],
        "postalCode": "L4W1W8",
        "streetName": "SISMET",
        "streetDirectionId": null,
        "streetTypeId": "RD",
        "placeName": "MISSISSAUGA",
        "streetNameDisplayText": "SISMET RD, MISSISSAUGA"
      }
    ]
  },
  {
    "postal": "L4W9J1",
    "result": []
  },
  {
    "postal": "L4W8N5",
    "result": []
  },
  {
    "postal": "L4W5X1",
    "result": []
  },
  {
    "postal": "L4W6S2",
    "result": []
  },
  {
    "postal": "L4W2A2",
    "result": []
  },
  {
    "postal": "L4W6A6",
    "result": []
  },
  {
    "postal": "L4W0S3",
    "result": []
  },
  {
    "postal": "L4W3E7",
    "result": [
      {
        "electoralDistricts": [
          {
            "election": null,
            "id": 61,
            "name": "Mississauga East—Cooksville"
          }
        ],
        "pollDivisionIds": [
          10135434
        ],
        "postalCode": "L4W3E7",
        "streetName": "GOLDEN ORCHARD",
        "streetDirectionId": null,
        "streetTypeId": "DR",
        "placeName": "MISSISSAUGA",
        "streetNameDisplayText": "GOLDEN ORCHARD DR, MISSISSAUGA"
      }
    ]
  },
  {
    "postal": "L4W5R7",
    "result": [
      {
        "electoralDistricts": [
          {
            "election": null,
            "id": 64,
            "name": "Mississauga—Malton"
          }
        ],
        "pollDivisionIds": [
          10139811
        ],
        "postalCode": "L4W5R7",
        "streetName": "MATHESON",
        "streetDirectionId": "E",
        "streetTypeId": "BLVD",
        "placeName": "MISSISSAUGA",
        "streetNameDisplayText": "MATHESON BLVD E, MISSISSAUGA"
      }
    ]
  },
  {
    "postal": "L4W3R6",
    "result": [
      {
        "electoralDistricts": [
          {
            "election": null,
            "id": 61,
            "name": "Mississauga East—Cooksville"
          }
        ],
        "pollDivisionIds": [
          10135426
        ],
        "postalCode": "L4W3R6",
        "streetName": "MAPLE RIDGE",
        "streetDirectionId": null,
        "streetTypeId": "DR",
        "placeName": "MISSISSAUGA",
        "streetNameDisplayText": "MAPLE RIDGE DR, MISSISSAUGA"
      }
    ]
  },
  {
    "postal": "L4W6K4",
    "result": []
  },
  {
    "postal": "L4W2W5",
    "result": []
  },
  {
    "postal": "L4W8W4",
    "result": []
  },
  {
    "postal": "L4W9C2",
    "result": []
  },
  {
    "postal": "L4W2C0",
    "result": []
  },
  {
    "postal": "L4W0E1",
    "result": []
  },
  {
    "postal": "L4W1K9",
    "result": [
      {
        "electoralDistricts": [
          {
            "election": null,
            "id": 61,
            "name": "Mississauga East—Cooksville"
          }
        ],
        "pollDivisionIds": [
          10135434
        ],
        "postalCode": "L4W1K9",
        "streetName": "HICKORY",
        "streetDirectionId": null,
        "streetTypeId": "DR",
        "placeName": "MISSISSAUGA",
        "streetNameDisplayText": "HICKORY DR, MISSISSAUGA"
      }
    ]
  },
  {
    "postal": "L4W1G7",
    "result": [
      {
        "electoralDistricts": [
          {
            "election": null,
            "id": 64,
            "name": "Mississauga—Malton"
          }
        ],
        "pollDivisionIds": [
          10139811
        ],
        "postalCode": "L4W1G7",
        "streetName": "BRADCO",
        "streetDirectionId": null,
        "streetTypeId": "BLVD",
        "placeName": "MISSISSAUGA",
        "streetNameDisplayText": "BRADCO BLVD, MISSISSAUGA"
      }
    ]
  },
  {
    "postal": "L4W4E9",
    "result": [
      {
        "electoralDistricts": [
          {
            "election": null,
            "id": 61,
            "name": "Mississauga East—Cooksville"
          }
        ],
        "pollDivisionIds": [
          10135426
        ],
        "postalCode": "L4W4E9",
        "streetName": "LOOKOUT",
        "streetDirectionId": null,
        "streetTypeId": "CRT",
        "placeName": "MISSISSAUGA",
        "streetNameDisplayText": "LOOKOUT CRT, MISSISSAUGA"
      }
    ]
  },
  {
    "postal": "L4W9P0",
    "result": []
  },
  {
    "postal": "L4W5H3",
    "result": [
      {
        "electoralDistricts": [
          {
            "election": null,
            "id": 64,
            "name": "Mississauga—Malton"
          }
        ],
        "pollDivisionIds": [
          10139809
        ],
        "postalCode": "L4W5H3",
        "streetName": "ATLANTIC",
        "streetDirectionId": null,
        "streetTypeId": "DR",
        "placeName": "MISSISSAUGA",
        "streetNameDisplayText": "ATLANTIC DR, MISSISSAUGA"
      }
    ]
  },
  {
    "postal": "L4W9X6",
    "result": []
  },
  {
    "postal": "L4W5N7",
    "result": []
  },
  {
    "postal": "L4W5A6",
    "result": [
      {
        "electoralDistricts": [
          {
            "election": null,
            "id": 64,
            "name": "Mississauga—Malton"
          }
        ],
        "pollDivisionIds": [
          10139811
        ],
        "postalCode": "L4W5A6",
        "streetName": "SKYMARK",
        "streetDirectionId": null,
        "streetTypeId": "AVE",
        "placeName": "MISSISSAUGA",
        "streetNameDisplayText": "SKYMARK AVE, MISSISSAUGA"
      }
    ]
  },
  {
    "postal": "L4W4M0",
    "result": []
  },
  {
    "postal": "L4W3V6",
    "result": [
      {
        "electoralDistricts": [
          {
            "election": null,
            "id": 61,
            "name": "Mississauga East—Cooksville"
          }
        ],
        "pollDivisionIds": [
          10135434
        ],
        "postalCode": "L4W3V6",
        "streetName": "WILLOWBANK",
        "streetDirectionId": null,
        "streetTypeId": "TRAIL",
        "placeName": "MISSISSAUGA",
        "streetNameDisplayText": "WILLOWBANK TRAIL, MISSISSAUGA"
      }
    ]
  },
  {
    "postal": "L4W1L7",
    "result": [
      {
        "electoralDistricts": [
          {
            "election": null,
            "id": 61,
            "name": "Mississauga East—Cooksville"
          }
        ],
        "pollDivisionIds": [
          10135425
        ],
        "postalCode": "L4W1L7",
        "streetName": "ROCKWOOD",
        "streetDirectionId": null,
        "streetTypeId": "RD",
        "placeName": "MISSISSAUGA",
        "streetNameDisplayText": "ROCKWOOD RD, MISSISSAUGA"
      }
    ]
  },
  {
    "postal": "L4W2P9",
    "result": []
  },
  {
    "postal": "L4W5T4",
    "result": []
  },
  {
    "postal": "L4W5Z1",
    "result": []
  },
  {
    "postal": "L4W2X0",
    "result": []
  },
  {
    "postal": "L4W6Z2",
    "result": []
  },
  {
    "postal": "L4W0E0",
    "result": []
  },
  {
    "postal": "L4W3Z5",
    "result": [
      {
        "electoralDistricts": [
          {
            "election": null,
            "id": 61,
            "name": "Mississauga East—Cooksville"
          }
        ],
        "pollDivisionIds": [
          10135426
        ],
        "postalCode": "L4W3Z5",
        "streetName": "MAPLE RIDGE",
        "streetDirectionId": null,
        "streetTypeId": "DR",
        "placeName": "MISSISSAUGA",
        "streetNameDisplayText": "MAPLE RIDGE DR, MISSISSAUGA"
      }
    ]
  },
  {
    "postal": "L4W8H3",
    "result": []
  },
  {
    "postal": "L4W7S6",
    "result": []
  },
  {
    "postal": "L4W4C1",
    "result": [
      {
        "electoralDistricts": [
          {
            "election": null,
            "id": 61,
            "name": "Mississauga East—Cooksville"
          }
        ],
        "pollDivisionIds": [
          10135426
        ],
        "postalCode": "L4W4C1",
        "streetName": "RIVER MILL",
        "streetDirectionId": null,
        "streetTypeId": "WAY",
        "placeName": "MISSISSAUGA",
        "streetNameDisplayText": "RIVER MILL WAY, MISSISSAUGA"
      }
    ]
  },
  {
    "postal": "L4W3K2",
    "result": [
      {
        "electoralDistricts": [
          {
            "election": null,
            "id": 61,
            "name": "Mississauga East—Cooksville"
          }
        ],
        "pollDivisionIds": [
          10135439
        ],
        "postalCode": "L4W3K2",
        "streetName": "WILLOWBANK",
        "streetDirectionId": null,
        "streetTypeId": "TRAIL",
        "placeName": "MISSISSAUGA",
        "streetNameDisplayText": "WILLOWBANK TRAIL, MISSISSAUGA"
      }
    ]
  },
  {
    "postal": "L4W1Y5",
    "result": [
      {
        "electoralDistricts": [
          {
            "election": null,
            "id": 64,
            "name": "Mississauga—Malton"
          }
        ],
        "pollDivisionIds": [
          10139811
        ],
        "postalCode": "L4W1Y5",
        "streetName": "AEROWOOD",
        "streetDirectionId": null,
        "streetTypeId": "DR",
        "placeName": "MISSISSAUGA",
        "streetNameDisplayText": "AEROWOOD DR, MISSISSAUGA"
      }
    ]
  },
  {
    "postal": "L4W6P6",
    "result": []
  },
  {
    "postal": "L4W3N9",
    "result": [
      {
        "electoralDistricts": [
          {
            "election": null,
            "id": 64,
            "name": "Mississauga—Malton"
          }
        ],
        "pollDivisionIds": [
          10139811
        ],
        "postalCode": "L4W3N9",
        "streetName": "TOMKEN",
        "streetDirectionId": null,
        "streetTypeId": "RD",
        "placeName": "MISSISSAUGA",
        "streetNameDisplayText": "TOMKEN RD, MISSISSAUGA"
      }
    ]
  },
  {
    "postal": "L4W3W2",
    "result": []
  },
  {
    "postal": "L4W6H8",
    "result": []
  },
  {
    "postal": "L4W9T3",
    "result": []
  },
  {
    "postal": "L4W5L9",
    "result": [
      {
        "electoralDistricts": [
          {
            "election": null,
            "id": 64,
            "name": "Mississauga—Malton"
          }
        ],
        "pollDivisionIds": [
          10139811
        ],
        "postalCode": "L4W5L9",
        "streetName": "ORBITOR",
        "streetDirectionId": null,
        "streetTypeId": "DR",
        "placeName": "MISSISSAUGA",
        "streetNameDisplayText": "ORBITOR DR, MISSISSAUGA"
      }
    ]
  },
  {
    "postal": "L4W7X7",
    "result": []
  },
  {
    "postal": "L4W3J5",
    "result": [
      {
        "electoralDistricts": [
          {
            "election": null,
            "id": 61,
            "name": "Mississauga East—Cooksville"
          }
        ],
        "pollDivisionIds": [
          10135439
        ],
        "postalCode": "L4W3J5",
        "streetName": "GREYCEDAR",
        "streetDirectionId": null,
        "streetTypeId": "CRES",
        "placeName": "MISSISSAUGA",
        "streetNameDisplayText": "GREYCEDAR CRES, MISSISSAUGA"
      }
    ]
  },
  {
    "postal": "L4W4J5",
    "result": [
      {
        "electoralDistricts": [
          {
            "election": null,
            "id": 64,
            "name": "Mississauga—Malton"
          }
        ],
        "pollDivisionIds": [
          10139811
        ],
        "postalCode": "L4W4J5",
        "streetName": "AMBLER",
        "streetDirectionId": null,
        "streetTypeId": "DR",
        "placeName": "MISSISSAUGA",
        "streetNameDisplayText": "AMBLER DR, MISSISSAUGA"
      }
    ]
  },
  {
    "postal": "L4W6J2",
    "result": []
  },
  {
    "postal": "L4W5V6",
    "result": []
  },
  {
    "postal": "L4W3N2",
    "result": [
      {
        "electoralDistricts": [
          {
            "election": null,
            "id": 61,
            "name": "Mississauga East—Cooksville"
          }
        ],
        "pollDivisionIds": [
          10135433
        ],
        "postalCode": "L4W3N2",
        "streetName": "UXBRIDGE",
        "streetDirectionId": null,
        "streetTypeId": "LANE",
        "placeName": "MISSISSAUGA",
        "streetNameDisplayText": "UXBRIDGE LANE, MISSISSAUGA"
      }
    ]
  },
  {
    "postal": "L4W3B1",
    "result": []
  },
  {
    "postal": "L4W8B5",
    "result": []
  },
  {
    "postal": "L4W0K1",
    "result": []
  },
  {
    "postal": "L4W7M7",
    "result": []
  },
  {
    "postal": "L4W2M2",
    "result": [
      {
        "electoralDistricts": [
          {
            "election": null,
            "id": 64,
            "name": "Mississauga—Malton"
          }
        ],
        "pollDivisionIds": [
          10139811
        ],
        "postalCode": "L4W2M2",
        "streetName": "KAMATO",
        "streetDirectionId": null,
        "streetTypeId": "RD",
        "placeName": "MISSISSAUGA",
        "streetNameDisplayText": "KAMATO RD, MISSISSAUGA"
      }
    ]
  },
  {
    "postal": "L4W9N3",
    "result": []
  },
  {
    "postal": "L4W4Y8",
    "result": [
      {
        "electoralDistricts": [
          {
            "election": null,
            "id": 64,
            "name": "Mississauga—Malton"
          }
        ],
        "pollDivisionIds": [
          10139811
        ],
        "postalCode": "L4W4Y8",
        "streetName": "ORBITOR",
        "streetDirectionId": null,
        "streetTypeId": "DR",
        "placeName": "MISSISSAUGA",
        "streetNameDisplayText": "ORBITOR DR, MISSISSAUGA"
      }
    ]
  },
  {
    "postal": "L4W3V7",
    "result": [
      {
        "electoralDistricts": [
          {
            "election": null,
            "id": 61,
            "name": "Mississauga East—Cooksville"
          }
        ],
        "pollDivisionIds": [
          10135433
        ],
        "postalCode": "L4W3V7",
        "streetName": "LOVINGSTON",
        "streetDirectionId": null,
        "streetTypeId": "CRES",
        "placeName": "MISSISSAUGA",
        "streetNameDisplayText": "LOVINGSTON CRES, MISSISSAUGA"
      }
    ]
  },
  {
    "postal": "L4W8Z1",
    "result": []
  },
  {
    "postal": "L4W7B3",
    "result": []
  },
  {
    "postal": "L4W3A8",
    "result": [
      {
        "electoralDistricts": [
          {
            "election": null,
            "id": 61,
            "name": "Mississauga East—Cooksville"
          }
        ],
        "pollDivisionIds": [
          10135434
        ],
        "postalCode": "L4W3A8",
        "streetName": "GOLDEN ORCHARD",
        "streetDirectionId": null,
        "streetTypeId": "DR",
        "placeName": "MISSISSAUGA",
        "streetNameDisplayText": "GOLDEN ORCHARD DR, MISSISSAUGA"
      }
    ]
  },
  {
    "postal": "L4W7V5",
    "result": []
  },
  {
    "postal": "L4W2T2",
    "result": [
      {
        "electoralDistricts": [
          {
            "election": null,
            "id": 61,
            "name": "Mississauga East—Cooksville"
          }
        ],
        "pollDivisionIds": [
          10135433
        ],
        "postalCode": "L4W2T2",
        "streetName": "FEWSTER",
        "streetDirectionId": null,
        "streetTypeId": "DR",
        "placeName": "MISSISSAUGA",
        "streetNameDisplayText": "FEWSTER DR, MISSISSAUGA"
      }
    ]
  },
  {
    "postal": "L4W6L3",
    "result": []
  },
  {
    "postal": "L4W0L2",
    "result": []
  },
  {
    "postal": "L4W5Y8",
    "result": []
  },
  {
    "postal": "L4W0B8",
    "result": []
  },
  {
    "postal": "L4W6R5",
    "result": []
  },
  {
    "postal": "L4W8W6",
    "result": []
  },
  {
    "postal": "L4W8G6",
    "result": []
  },
  {
    "postal": "L4W6X3",
    "result": []
  },
  {
    "postal": "L4W7R7",
    "result": []
  },
  {
    "postal": "L4W4B6",
    "result": [
      {
        "electoralDistricts": [
          {
            "election": null,
            "id": 64,
            "name": "Mississauga—Malton"
          }
        ],
        "pollDivisionIds": [
          10139811
        ],
        "postalCode": "L4W4B6",
        "streetName": "KAMATO",
        "streetDirectionId": null,
        "streetTypeId": "RD",
        "placeName": "MISSISSAUGA",
        "streetNameDisplayText": "KAMATO RD, MISSISSAUGA"
      }
    ]
  },
  {
    "postal": "L4W3P9",
    "result": [
      {
        "electoralDistricts": [
          {
            "election": null,
            "id": 61,
            "name": "Mississauga East—Cooksville"
          }
        ],
        "pollDivisionIds": [
          10135433
        ],
        "postalCode": "L4W3P9",
        "streetName": "WILLOWBANK",
        "streetDirectionId": null,
        "streetTypeId": "TRAIL",
        "placeName": "MISSISSAUGA",
        "streetNameDisplayText": "WILLOWBANK TRAIL, MISSISSAUGA"
      }
    ]
  },
  {
    "postal": "L4W2T3",
    "result": [
      {
        "electoralDistricts": [
          {
            "election": null,
            "id": 64,
            "name": "Mississauga—Malton"
          }
        ],
        "pollDivisionIds": [
          10139811
        ],
        "postalCode": "L4W2T3",
        "streetName": "AMBLER",
        "streetDirectionId": null,
        "streetTypeId": "DR",
        "placeName": "MISSISSAUGA",
        "streetNameDisplayText": "AMBLER DR, MISSISSAUGA"
      }
    ]
  },
  {
    "postal": "L4W1M4",
    "result": [
      {
        "electoralDistricts": [
          {
            "election": null,
            "id": 61,
            "name": "Mississauga East—Cooksville"
          }
        ],
        "pollDivisionIds": [
          10135434
        ],
        "postalCode": "L4W1M4",
        "streetName": "DIXIE",
        "streetDirectionId": null,
        "streetTypeId": "RD",
        "placeName": "MISSISSAUGA",
        "streetNameDisplayText": "DIXIE RD, MISSISSAUGA"
      }
    ]
  },
  {
    "postal": "L4W0H1",
    "result": []
  },
  {
    "postal": "L4W9W3",
    "result": []
  },
  {
    "postal": "L4W6P1",
    "result": []
  },
  {
    "postal": "L4W7G2",
    "result": []
  },
  {
    "postal": "L4W4J9",
    "result": [
      {
        "electoralDistricts": [
          {
            "election": null,
            "id": 64,
            "name": "Mississauga—Malton"
          }
        ],
        "pollDivisionIds": [
          10139811
        ],
        "postalCode": "L4W4J9",
        "streetName": "MATHESON",
        "streetDirectionId": "E",
        "streetTypeId": "BLVD",
        "placeName": "MISSISSAUGA",
        "streetNameDisplayText": "MATHESON BLVD E, MISSISSAUGA"
      }
    ]
  },
  {
    "postal": "L4W9E4",
    "result": []
  },
  {
    "postal": "L4W8H0",
    "result": []
  },
  {
    "postal": "L4W4M7",
    "result": []
  },
  {
    "postal": "L4W2G9",
    "result": [
      {
        "electoralDistricts": [
          {
            "election": null,
            "id": 61,
            "name": "Mississauga East—Cooksville"
          }
        ],
        "pollDivisionIds": [
          10135425
        ],
        "postalCode": "L4W2G9",
        "streetName": "GARNETWOOD",
        "streetDirectionId": null,
        "streetTypeId": "CHASE",
        "placeName": "MISSISSAUGA",
        "streetNameDisplayText": "GARNETWOOD CHASE, MISSISSAUGA"
      }
    ]
  },
  {
    "postal": "L4W8T2",
    "result": []
  },
  {
    "postal": "L4W7G7",
    "result": []
  },
  {
    "postal": "L4W4Z3",
    "result": [
      {
        "electoralDistricts": [
          {
            "election": null,
            "id": 64,
            "name": "Mississauga—Malton"
          }
        ],
        "pollDivisionIds": [
          10139811
        ],
        "postalCode": "L4W4Z3",
        "streetName": "MATHESON",
        "streetDirectionId": "E",
        "streetTypeId": "BLVD",
        "placeName": "MISSISSAUGA",
        "streetNameDisplayText": "MATHESON BLVD E, MISSISSAUGA"
      }
    ]
  },
  {
    "postal": "L4W5B3",
    "result": [
      {
        "electoralDistricts": [
          {
            "election": null,
            "id": 64,
            "name": "Mississauga—Malton"
          }
        ],
        "pollDivisionIds": [
          10139811
        ],
        "postalCode": "L4W5B3",
        "streetName": "MATHESON",
        "streetDirectionId": "E",
        "streetTypeId": "BLVD",
        "placeName": "MISSISSAUGA",
        "streetNameDisplayText": "MATHESON BLVD E, MISSISSAUGA"
      }
    ]
  },
  {
    "postal": "L4W1S7",
    "result": []
  },
  {
    "postal": "L4W2N7",
    "result": [
      {
        "electoralDistricts": [
          {
            "election": null,
            "id": 61,
            "name": "Mississauga East—Cooksville"
          }
        ],
        "pollDivisionIds": [
          10135426
        ],
        "postalCode": "L4W2N7",
        "streetName": "MAPLE RIDGE",
        "streetDirectionId": null,
        "streetTypeId": "DR",
        "placeName": "MISSISSAUGA",
        "streetNameDisplayText": "MAPLE RIDGE DR, MISSISSAUGA"
      }
    ]
  },
  {
    "postal": "L4W0H8",
    "result": []
  },
  {
    "postal": "L4W7Z4",
    "result": []
  },
  {
    "postal": "L4W7B1",
    "result": []
  },
  {
    "postal": "L4W7P8",
    "result": []
  },
  {
    "postal": "L4W7N0",
    "result": []
  },
  {
    "postal": "L4W3Y5",
    "result": [
      {
        "electoralDistricts": [
          {
            "election": null,
            "id": 64,
            "name": "Mississauga—Malton"
          }
        ],
        "pollDivisionIds": [
          10139811
        ],
        "postalCode": "L4W3Y5",
        "streetName": "BREVIK",
        "streetDirectionId": null,
        "streetTypeId": "PL",
        "placeName": "MISSISSAUGA",
        "streetNameDisplayText": "BREVIK PL, MISSISSAUGA"
      }
    ]
  },
  {
    "postal": "L4W6K1",
    "result": []
  },
  {
    "postal": "L4W9X5",
    "result": []
  },
  {
    "postal": "L4W7S5",
    "result": []
  },
  {
    "postal": "L4W0A4",
    "result": []
  },
  {
    "postal": "L4W4T5",
    "result": []
  },
  {
    "postal": "L4W5K1",
    "result": []
  },
  {
    "postal": "L4W0Z9",
    "result": []
  },
  {
    "postal": "L4W7T2",
    "result": []
  },
  {
    "postal": "L4W1L5",
    "result": [
      {
        "electoralDistricts": [
          {
            "election": null,
            "id": 61,
            "name": "Mississauga East—Cooksville"
          }
        ],
        "pollDivisionIds": [
          10135434
        ],
        "postalCode": "L4W1L5",
        "streetName": "HICKORY",
        "streetDirectionId": null,
        "streetTypeId": "DR",
        "placeName": "MISSISSAUGA",
        "streetNameDisplayText": "HICKORY DR, MISSISSAUGA"
      }
    ]
  },
  {
    "postal": "L4W3N5",
    "result": [
      {
        "electoralDistricts": [
          {
            "election": null,
            "id": 61,
            "name": "Mississauga East—Cooksville"
          }
        ],
        "pollDivisionIds": [
          10135439
        ],
        "postalCode": "L4W3N5",
        "streetName": "SHELBY",
        "streetDirectionId": null,
        "streetTypeId": "CRES",
        "placeName": "MISSISSAUGA",
        "streetNameDisplayText": "SHELBY CRES, MISSISSAUGA"
      }
    ]
  },
  {
    "postal": "L4W6H4",
    "result": []
  },
  {
    "postal": "L4W5A5",
    "result": []
  },
  {
    "postal": "L4W3R9",
    "result": [
      {
        "electoralDistricts": [
          {
            "election": null,
            "id": 61,
            "name": "Mississauga East—Cooksville"
          }
        ],
        "pollDivisionIds": [
          10135425
        ],
        "postalCode": "L4W3R9",
        "streetName": "CARSCADDEN",
        "streetDirectionId": null,
        "streetTypeId": "CHASE",
        "placeName": "MISSISSAUGA",
        "streetNameDisplayText": "CARSCADDEN CHASE, MISSISSAUGA"
      }
    ]
  },
  {
    "postal": "L4W7L8",
    "result": []
  },
  {
    "postal": "L4W6T6",
    "result": []
  },
  {
    "postal": "L4W7Y7",
    "result": []
  },
  {
    "postal": "L4W3M8",
    "result": [
      {
        "electoralDistricts": [
          {
            "election": null,
            "id": 61,
            "name": "Mississauga East—Cooksville"
          }
        ],
        "pollDivisionIds": [
          10135434
        ],
        "postalCode": "L4W3M8",
        "streetName": "ROWAN",
        "streetDirectionId": null,
        "streetTypeId": "CRT",
        "placeName": "MISSISSAUGA",
        "streetNameDisplayText": "ROWAN CRT, MISSISSAUGA"
      }
    ]
  },
  {
    "postal": "L4W2E0",
    "result": []
  },
  {
    "postal": "L4W4B5",
    "result": [
      {
        "electoralDistricts": [
          {
            "election": null,
            "id": 61,
            "name": "Mississauga East—Cooksville"
          }
        ],
        "pollDivisionIds": [
          10135439
        ],
        "postalCode": "L4W4B5",
        "streetName": "FOREST FIRE",
        "streetDirectionId": null,
        "streetTypeId": "LANE",
        "placeName": "MISSISSAUGA",
        "streetNameDisplayText": "FOREST FIRE LANE, MISSISSAUGA"
      }
    ]
  },
  {
    "postal": "L4W1J3",
    "result": [
      {
        "electoralDistricts": [
          {
            "election": null,
            "id": 64,
            "name": "Mississauga—Malton"
          }
        ],
        "pollDivisionIds": [
          10139809
        ],
        "postalCode": "L4W1J3",
        "streetName": "BRITANNIA",
        "streetDirectionId": "E",
        "streetTypeId": "RD",
        "placeName": "MISSISSAUGA",
        "streetNameDisplayText": "BRITANNIA RD E, MISSISSAUGA"
      }
    ]
  },
  {
    "postal": "L4W5S6",
    "result": [
      {
        "electoralDistricts": [
          {
            "election": null,
            "id": 64,
            "name": "Mississauga—Malton"
          }
        ],
        "pollDivisionIds": [
          10139811
        ],
        "postalCode": "L4W5S6",
        "streetName": "DIXIE",
        "streetDirectionId": null,
        "streetTypeId": "RD",
        "placeName": "MISSISSAUGA",
        "streetNameDisplayText": "DIXIE RD, MISSISSAUGA"
      }
    ]
  },
  {
    "postal": "L4W8P7",
    "result": []
  },
  {
    "postal": "L4W7S7",
    "result": []
  },
  {
    "postal": "L4W4C2",
    "result": [
      {
        "electoralDistricts": [
          {
            "election": null,
            "id": 61,
            "name": "Mississauga East—Cooksville"
          }
        ],
        "pollDivisionIds": [
          10135426
        ],
        "postalCode": "L4W4C2",
        "streetName": "UNICORN",
        "streetDirectionId": null,
        "streetTypeId": "CRT",
        "placeName": "MISSISSAUGA",
        "streetNameDisplayText": "UNICORN CRT, MISSISSAUGA"
      }
    ]
  },
  {
    "postal": "L4W5Y0",
    "result": []
  },
  {
    "postal": "L4W2V7",
    "result": [
      {
        "electoralDistricts": [
          {
            "election": null,
            "id": 61,
            "name": "Mississauga East—Cooksville"
          }
        ],
        "pollDivisionIds": [
          10135433
        ],
        "postalCode": "L4W2V7",
        "streetName": "FEWSTER",
        "streetDirectionId": null,
        "streetTypeId": "DR",
        "placeName": "MISSISSAUGA",
        "streetNameDisplayText": "FEWSTER DR, MISSISSAUGA"
      }
    ]
  },
  {
    "postal": "L4W8P5",
    "result": []
  },
  {
    "postal": "L4W5P5",
    "result": [
      {
        "electoralDistricts": [
          {
            "election": null,
            "id": 64,
            "name": "Mississauga—Malton"
          }
        ],
        "pollDivisionIds": [
          10139811
        ],
        "postalCode": "L4W5P5",
        "streetName": "TECH",
        "streetDirectionId": null,
        "streetTypeId": "AVE",
        "placeName": "MISSISSAUGA",
        "streetNameDisplayText": "TECH AVE, MISSISSAUGA"
      }
    ]
  },
  {
    "postal": "L4W5Z0",
    "result": []
  },
  {
    "postal": "L4W9B0",
    "result": []
  },
  {
    "postal": "L4W1L0",
    "result": []
  },
  {
    "postal": "L4W0B5",
    "result": [
      {
        "electoralDistricts": [
          {
            "election": null,
            "id": 61,
            "name": "Mississauga East—Cooksville"
          }
        ],
        "pollDivisionIds": [
          10135425
        ],
        "postalCode": "L4W0B5",
        "streetName": "TAHOE",
        "streetDirectionId": null,
        "streetTypeId": "BLVD",
        "placeName": "MISSISSAUGA",
        "streetNameDisplayText": "TAHOE BLVD, MISSISSAUGA"
      }
    ]
  },
  {
    "postal": "L4W3L2",
    "result": [
      {
        "electoralDistricts": [
          {
            "election": null,
            "id": 61,
            "name": "Mississauga East—Cooksville"
          }
        ],
        "pollDivisionIds": [
          10135426
        ],
        "postalCode": "L4W3L2",
        "streetName": "LEWES",
        "streetDirectionId": null,
        "streetTypeId": "WAY",
        "placeName": "MISSISSAUGA",
        "streetNameDisplayText": "LEWES WAY, MISSISSAUGA"
      }
    ]
  },
  {
    "postal": "L4W3B7",
    "result": [
      {
        "electoralDistricts": [
          {
            "election": null,
            "id": 61,
            "name": "Mississauga East—Cooksville"
          }
        ],
        "pollDivisionIds": [
          10135426
        ],
        "postalCode": "L4W3B7",
        "streetName": "DEWBERRY",
        "streetDirectionId": null,
        "streetTypeId": "CRES",
        "placeName": "MISSISSAUGA",
        "streetNameDisplayText": "DEWBERRY CRES, MISSISSAUGA"
      }
    ]
  },
  {
    "postal": "L4W8L1",
    "result": []
  },
  {
    "postal": "L4W5M4",
    "result": [
      {
        "electoralDistricts": [
          {
            "election": null,
            "id": 64,
            "name": "Mississauga—Malton"
          }
        ],
        "pollDivisionIds": [
          10139811
        ],
        "postalCode": "L4W5M4",
        "streetName": "COMMERCE",
        "streetDirectionId": null,
        "streetTypeId": "BLVD",
        "placeName": "MISSISSAUGA",
        "streetNameDisplayText": "COMMERCE BLVD, MISSISSAUGA"
      }
    ]
  },
  {
    "postal": "L4W4G9",
    "result": [
      {
        "electoralDistricts": [
          {
            "election": null,
            "id": 61,
            "name": "Mississauga East—Cooksville"
          }
        ],
        "pollDivisionIds": [
          10135425
        ],
        "postalCode": "L4W4G9",
        "streetName": "HARTFIELD",
        "streetDirectionId": null,
        "streetTypeId": "GROVE",
        "placeName": "MISSISSAUGA",
        "streetNameDisplayText": "HARTFIELD GROVE, MISSISSAUGA"
      }
    ]
  },
  {
    "postal": "L4W0P0",
    "result": []
  },
  {
    "postal": "L4W8G2",
    "result": []
  },
  {
    "postal": "L4W1V9",
    "result": [
      {
        "electoralDistricts": [
          {
            "election": null,
            "id": 61,
            "name": "Mississauga East—Cooksville"
          }
        ],
        "pollDivisionIds": [
          10135433
        ],
        "postalCode": "L4W1V9",
        "streetName": "BURGOYNE",
        "streetDirectionId": null,
        "streetTypeId": "ST",
        "placeName": "MISSISSAUGA",
        "streetNameDisplayText": "BURGOYNE ST, MISSISSAUGA"
      }
    ]
  },
  {
    "postal": "L4W8N8",
    "result": []
  },
  {
    "postal": "L4W6S8",
    "result": []
  },
  {
    "postal": "L4W8H2",
    "result": []
  },
  {
    "postal": "L4W5R8",
    "result": []
  },
  {
    "postal": "L4W5L4",
    "result": []
  },
  {
    "postal": "L4W9E1",
    "result": []
  },
  {
    "postal": "L4W1C4",
    "result": [
      {
        "electoralDistricts": [
          {
            "election": null,
            "id": 64,
            "name": "Mississauga—Malton"
          }
        ],
        "pollDivisionIds": [
          10139813
        ],
        "postalCode": "L4W1C4",
        "streetName": "SHAWSON",
        "streetDirectionId": null,
        "streetTypeId": "DR",
        "placeName": "MISSISSAUGA",
        "streetNameDisplayText": "SHAWSON DR, MISSISSAUGA"
      }
    ]
  },
  {
    "postal": "L4W8W5",
    "result": []
  },
  {
    "postal": "L4W1Y4",
    "result": [
      {
        "electoralDistricts": [
          {
            "election": null,
            "id": 64,
            "name": "Mississauga—Malton"
          }
        ],
        "pollDivisionIds": [
          10139811
        ],
        "postalCode": "L4W1Y4",
        "streetName": "MATHESON",
        "streetDirectionId": null,
        "streetTypeId": "BLVD",
        "placeName": "MISSISSAUGA",
        "streetNameDisplayText": "MATHESON BLVD, MISSISSAUGA"
      }
    ]
  },
  {
    "postal": "L4W1C0",
    "result": []
  },
  {
    "postal": "L4W2J2",
    "result": [
      {
        "electoralDistricts": [
          {
            "election": null,
            "id": 61,
            "name": "Mississauga East—Cooksville"
          }
        ],
        "pollDivisionIds": [
          10135425
        ],
        "postalCode": "L4W2J2",
        "streetName": "OWLSNEST",
        "streetDirectionId": null,
        "streetTypeId": "LANE",
        "placeName": "MISSISSAUGA",
        "streetNameDisplayText": "OWLSNEST LANE, MISSISSAUGA"
      }
    ]
  },
  {
    "postal": "L4W2J0",
    "result": []
  },
  {
    "postal": "L4W7A3",
    "result": []
  },
  {
    "postal": "L4W8M1",
    "result": []
  },
  {
    "postal": "L4W7T9",
    "result": []
  },
  {
    "postal": "L4W6C0",
    "result": []
  },
  {
    "postal": "L4W7X1",
    "result": []
  },
  {
    "postal": "L4W0G1",
    "result": []
  },
  {
    "postal": "L4W4X2",
    "result": [
      {
        "electoralDistricts": [
          {
            "election": null,
            "id": 64,
            "name": "Mississauga—Malton"
          }
        ],
        "pollDivisionIds": [
          10139811
        ],
        "postalCode": "L4W4X2",
        "streetName": "ORBITOR",
        "streetDirectionId": null,
        "streetTypeId": "DR",
        "placeName": "MISSISSAUGA",
        "streetNameDisplayText": "ORBITOR DR, MISSISSAUGA"
      }
    ]
  },
  {
    "postal": "L4W0N6",
    "result": []
  },
  {
    "postal": "L4W8E3",
    "result": []
  },
  {
    "postal": "L4W5S8",
    "result": []
  },
  {
    "postal": "L4W0R0",
    "result": []
  },
  {
    "postal": "L4W6J6",
    "result": []
  },
  {
    "postal": "L4W4B4",
    "result": [
      {
        "electoralDistricts": [
          {
            "election": null,
            "id": 61,
            "name": "Mississauga East—Cooksville"
          }
        ],
        "pollDivisionIds": [
          10135432,
          10135426
        ],
        "postalCode": "L4W4B4",
        "streetName": "GRAZIA",
        "streetDirectionId": null,
        "streetTypeId": "CRT",
        "placeName": "MISSISSAUGA",
        "streetNameDisplayText": "GRAZIA CRT, MISSISSAUGA"
      }
    ]
  },
  {
    "postal": "L4W7E3",
    "result": []
  },
  {
    "postal": "L4W3N6",
    "result": [
      {
        "electoralDistricts": [
          {
            "election": null,
            "id": 61,
            "name": "Mississauga East—Cooksville"
          }
        ],
        "pollDivisionIds": [
          10135434
        ],
        "postalCode": "L4W3N6",
        "streetName": "CARLO",
        "streetDirectionId": null,
        "streetTypeId": "CRT",
        "placeName": "MISSISSAUGA",
        "streetNameDisplayText": "CARLO CRT, MISSISSAUGA"
      }
    ]
  },
  {
    "postal": "L4W3X6",
    "result": [
      {
        "electoralDistricts": [
          {
            "election": null,
            "id": 61,
            "name": "Mississauga East—Cooksville"
          }
        ],
        "pollDivisionIds": [
          10135433
        ],
        "postalCode": "L4W3X6",
        "streetName": "MANNINGTON",
        "streetDirectionId": null,
        "streetTypeId": "LANE",
        "placeName": "MISSISSAUGA",
        "streetNameDisplayText": "MANNINGTON LANE, MISSISSAUGA"
      }
    ]
  },
  {
    "postal": "L4W8L0",
    "result": []
  },
  {
    "postal": "L4W8N1",
    "result": []
  },
  {
    "postal": "L4W4J0",
    "result": []
  },
  {
    "postal": "L4W0X7",
    "result": []
  },
  {
    "postal": "L4W6S4",
    "result": []
  },
  {
    "postal": "L4W0Z0",
    "result": []
  },
  {
    "postal": "L4W9X8",
    "result": []
  },
  {
    "postal": "L4W3H3",
    "result": [
      {
        "electoralDistricts": [
          {
            "election": null,
            "id": 61,
            "name": "Mississauga East—Cooksville"
          }
        ],
        "pollDivisionIds": [
          10135433
        ],
        "postalCode": "L4W3H3",
        "streetName": "HIGHGATE",
        "streetDirectionId": null,
        "streetTypeId": "PL",
        "placeName": "MISSISSAUGA",
        "streetNameDisplayText": "HIGHGATE PL, MISSISSAUGA"
      }
    ]
  },
  {
    "postal": "L4W7S2",
    "result": []
  },
  {
    "postal": "L4W3T3",
    "result": [
      {
        "electoralDistricts": [
          {
            "election": null,
            "id": 61,
            "name": "Mississauga East—Cooksville"
          }
        ],
        "pollDivisionIds": [
          10135439
        ],
        "postalCode": "L4W3T3",
        "streetName": "SHELBY",
        "streetDirectionId": null,
        "streetTypeId": "CRES",
        "placeName": "MISSISSAUGA",
        "streetNameDisplayText": "SHELBY CRES, MISSISSAUGA"
      }
    ]
  },
  {
    "postal": "L4W9P3",
    "result": []
  },
  {
    "postal": "L4W4H8",
    "result": []
  },
  {
    "postal": "L4W6R1",
    "result": []
  },
  {
    "postal": "L4W1S0",
    "result": []
  },
  {
    "postal": "L4W3W8",
    "result": [
      {
        "electoralDistricts": [
          {
            "election": null,
            "id": 61,
            "name": "Mississauga East—Cooksville"
          }
        ],
        "pollDivisionIds": [
          10135439
        ],
        "postalCode": "L4W3W8",
        "streetName": "SHELBY",
        "streetDirectionId": null,
        "streetTypeId": "CRES",
        "placeName": "MISSISSAUGA",
        "streetNameDisplayText": "SHELBY CRES, MISSISSAUGA"
      }
    ]
  },
  {
    "postal": "L4W4S3",
    "result": [
      {
        "electoralDistricts": [
          {
            "election": null,
            "id": 61,
            "name": "Mississauga East—Cooksville"
          }
        ],
        "pollDivisionIds": [
          10135433
        ],
        "postalCode": "L4W4S3",
        "streetName": "VINTNER",
        "streetDirectionId": null,
        "streetTypeId": "DR",
        "placeName": "MISSISSAUGA",
        "streetNameDisplayText": "VINTNER DR, MISSISSAUGA"
      },
      {
        "electoralDistricts": [
          {
            "election": null,
            "id": 61,
            "name": "Mississauga East—Cooksville"
          }
        ],
        "pollDivisionIds": [
          10135433
        ],
        "postalCode": "L4W4S3",
        "streetName": "WETHERBY",
        "streetDirectionId": null,
        "streetTypeId": "LANE",
        "placeName": "MISSISSAUGA",
        "streetNameDisplayText": "WETHERBY LANE, MISSISSAUGA"
      }
    ]
  },
  {
    "postal": "L4W1B6",
    "result": [
      {
        "electoralDistricts": [
          {
            "election": null,
            "id": 64,
            "name": "Mississauga—Malton"
          }
        ],
        "pollDivisionIds": [
          10139811
        ],
        "postalCode": "L4W1B6",
        "streetName": "MATHESON",
        "streetDirectionId": "E",
        "streetTypeId": "BLVD",
        "placeName": "MISSISSAUGA",
        "streetNameDisplayText": "MATHESON BLVD E, MISSISSAUGA"
      }
    ]
  },
  {
    "postal": "L4W8R3",
    "result": []
  },
  {
    "postal": "L4W4V9",
    "result": [
      {
        "electoralDistricts": [
          {
            "election": null,
            "id": 64,
            "name": "Mississauga—Malton"
          }
        ],
        "pollDivisionIds": [
          10139811
        ],
        "postalCode": "L4W4V9",
        "streetName": "MATHESON",
        "streetDirectionId": "E",
        "streetTypeId": "BLVD",
        "placeName": "MISSISSAUGA",
        "streetNameDisplayText": "MATHESON BLVD E, MISSISSAUGA"
      }
    ]
  },
  {
    "postal": "L4W9W4",
    "result": []
  },
  {
    "postal": "L4W3T4",
    "result": [
      {
        "electoralDistricts": [
          {
            "election": null,
            "id": 61,
            "name": "Mississauga East—Cooksville"
          }
        ],
        "pollDivisionIds": [
          10135439
        ],
        "postalCode": "L4W3T4",
        "streetName": "TORINO",
        "streetDirectionId": null,
        "streetTypeId": "CRES",
        "placeName": "MISSISSAUGA",
        "streetNameDisplayText": "TORINO CRES, MISSISSAUGA"
      }
    ]
  },
  {
    "postal": "L4W5C7",
    "result": [
      {
        "electoralDistricts": [
          {
            "election": null,
            "id": 64,
            "name": "Mississauga—Malton"
          }
        ],
        "pollDivisionIds": [
          10139811
        ],
        "postalCode": "L4W5C7",
        "streetName": "EXPLORER",
        "streetDirectionId": null,
        "streetTypeId": "DR",
        "placeName": "MISSISSAUGA",
        "streetNameDisplayText": "EXPLORER DR, MISSISSAUGA"
      }
    ]
  },
  {
    "postal": "L4W3Y1",
    "result": [
      {
        "electoralDistricts": [
          {
            "election": null,
            "id": 61,
            "name": "Mississauga East—Cooksville"
          }
        ],
        "pollDivisionIds": [
          10135433
        ],
        "postalCode": "L4W3Y1",
        "streetName": "MANNINGTON",
        "streetDirectionId": null,
        "streetTypeId": "LANE",
        "placeName": "MISSISSAUGA",
        "streetNameDisplayText": "MANNINGTON LANE, MISSISSAUGA"
      }
    ]
  },
  {
    "postal": "L4W5V0",
    "result": []
  },
  {
    "postal": "L4W8G8",
    "result": []
  },
  {
    "postal": "L4W8B1",
    "result": []
  },
  {
    "postal": "L4W4P5",
    "result": [
      {
        "electoralDistricts": [
          {
            "election": null,
            "id": 61,
            "name": "Mississauga East—Cooksville"
          }
        ],
        "pollDivisionIds": [
          10135434
        ],
        "postalCode": "L4W4P5",
        "streetName": "SILVERGROVE",
        "streetDirectionId": null,
        "streetTypeId": "CRT",
        "placeName": "MISSISSAUGA",
        "streetNameDisplayText": "SILVERGROVE CRT, MISSISSAUGA"
      }
    ]
  },
  {
    "postal": "L4W7B2",
    "result": []
  },
  {
    "postal": "L4W0R2",
    "result": []
  },
  {
    "postal": "L4W4M4",
    "result": [
      {
        "electoralDistricts": [
          {
            "election": null,
            "id": 61,
            "name": "Mississauga East—Cooksville"
          }
        ],
        "pollDivisionIds": [
          10135426
        ],
        "postalCode": "L4W4M4",
        "streetName": "BRYCE",
        "streetDirectionId": null,
        "streetTypeId": "RD",
        "placeName": "MISSISSAUGA",
        "streetNameDisplayText": "BRYCE RD, MISSISSAUGA"
      }
    ]
  },
  {
    "postal": "L4W7M4",
    "result": []
  },
  {
    "postal": "L4W9S7",
    "result": []
  },
  {
    "postal": "L4W5Z7",
    "result": []
  },
  {
    "postal": "L4W7J7",
    "result": []
  },
  {
    "postal": "L4W8R8",
    "result": []
  },
  {
    "postal": "L4W9X1",
    "result": []
  },
  {
    "postal": "L4W5M9",
    "result": []
  },
  {
    "postal": "L4W9B4",
    "result": []
  },
  {
    "postal": "L4W0L9",
    "result": []
  },
  {
    "postal": "L4W9G4",
    "result": []
  },
  {
    "postal": "L4W1J4",
    "result": [
      {
        "electoralDistricts": [
          {
            "election": null,
            "id": 61,
            "name": "Mississauga East—Cooksville"
          }
        ],
        "pollDivisionIds": [
          10135433
        ],
        "postalCode": "L4W1J4",
        "streetName": "TOMKEN",
        "streetDirectionId": null,
        "streetTypeId": "RD",
        "placeName": "MISSISSAUGA",
        "streetNameDisplayText": "TOMKEN RD, MISSISSAUGA"
      }
    ]
  },
  {
    "postal": "L4W0W6",
    "result": []
  }
]
