[
  {
    "postal": "L8H9J6",
    "result": []
  },
  {
    "postal": "L8H9Z5",
    "result": []
  },
  {
    "postal": "L8H7H8",
    "result": [
      {
        "electoralDistricts": [
          {
            "election": null,
            "id": 37,
            "name": "Hamilton East—Stoney Creek"
          }
        ],
        "pollDivisionIds": [
          10138640
        ],
        "postalCode": "L8H7H8",
        "streetName": "FOURTH",
        "streetDirectionId": null,
        "streetTypeId": "AVE",
        "placeName": "HAMILTON",
        "streetNameDisplayText": "FOURTH AVE, HAMILTON"
      }
    ]
  },
  {
    "postal": "L8H0P6",
    "result": []
  },
  {
    "postal": "L8H0S7",
    "result": []
  },
  {
    "postal": "L8H8B9",
    "result": []
  },
  {
    "postal": "L8H2A6",
    "result": [
      {
        "electoralDistricts": [
          {
            "election": null,
            "id": 37,
            "name": "Hamilton East—Stoney Creek"
          }
        ],
        "pollDivisionIds": [
          10138642
        ],
        "postalCode": "L8H2A6",
        "streetName": "BRITANNIA",
        "streetDirectionId": null,
        "streetTypeId": "AVE",
        "placeName": "HAMILTON",
        "streetNameDisplayText": "BRITANNIA AVE, HAMILTON"
      }
    ]
  },
  {
    "postal": "L8H7V2",
    "result": []
  },
  {
    "postal": "L8H9P4",
    "result": []
  },
  {
    "postal": "L8H6G0",
    "result": []
  },
  {
    "postal": "L8H2K0",
    "result": []
  },
  {
    "postal": "L8H7N6",
    "result": [
      {
        "electoralDistricts": [
          {
            "election": null,
            "id": 37,
            "name": "Hamilton East—Stoney Creek"
          }
        ],
        "pollDivisionIds": [
          10138647
        ],
        "postalCode": "L8H7N6",
        "streetName": "DUNSMURE",
        "streetDirectionId": null,
        "streetTypeId": "RD",
        "placeName": "HAMILTON",
        "streetNameDisplayText": "DUNSMURE RD, HAMILTON"
      }
    ]
  },
  {
    "postal": "L8H5R3",
    "result": [
      {
        "electoralDistricts": [
          {
            "election": null,
            "id": 37,
            "name": "Hamilton East—Stoney Creek"
          }
        ],
        "pollDivisionIds": [
          10138642
        ],
        "postalCode": "L8H5R3",
        "streetName": "WALTER",
        "streetDirectionId": "N",
        "streetTypeId": "AVE",
        "placeName": "HAMILTON",
        "streetNameDisplayText": "WALTER AVE N, HAMILTON"
      }
    ]
  },
  {
    "postal": "L8H7K0",
    "result": []
  },
  {
    "postal": "L8H3R2",
    "result": [
      {
        "electoralDistricts": [
          {
            "election": null,
            "id": 37,
            "name": "Hamilton East—Stoney Creek"
          }
        ],
        "pollDivisionIds": [
          10138642
        ],
        "postalCode": "L8H3R2",
        "streetName": "RENNIE",
        "streetDirectionId": null,
        "streetTypeId": "ST",
        "placeName": "HAMILTON",
        "streetNameDisplayText": "RENNIE ST, HAMILTON"
      }
    ]
  },
  {
    "postal": "L8H0J1",
    "result": []
  },
  {
    "postal": "L8H0B0",
    "result": []
  },
  {
    "postal": "L8H5Z2",
    "result": []
  },
  {
    "postal": "L8H7P3",
    "result": [
      {
        "electoralDistricts": [
          {
            "election": null,
            "id": 37,
            "name": "Hamilton East—Stoney Creek"
          }
        ],
        "pollDivisionIds": [
          10138648
        ],
        "postalCode": "L8H7P3",
        "streetName": "POTTRUFF",
        "streetDirectionId": "N",
        "streetTypeId": "RD",
        "placeName": "HAMILTON",
        "streetNameDisplayText": "POTTRUFF RD N, HAMILTON"
      }
    ]
  },
  {
    "postal": "L8H2K3",
    "result": [
      {
        "electoralDistricts": [
          {
            "election": null,
            "id": 37,
            "name": "Hamilton East—Stoney Creek"
          }
        ],
        "pollDivisionIds": [
          10138642
        ],
        "postalCode": "L8H2K3",
        "streetName": "MELVIN",
        "streetDirectionId": null,
        "streetTypeId": "AVE",
        "placeName": "HAMILTON",
        "streetNameDisplayText": "MELVIN AVE, HAMILTON"
      }
    ]
  },
  {
    "postal": "L8H7Y6",
    "result": []
  },
  {
    "postal": "L8H1L9",
    "result": [
      {
        "electoralDistricts": [
          {
            "election": null,
            "id": 37,
            "name": "Hamilton East—Stoney Creek"
          }
        ],
        "pollDivisionIds": [
          10138647
        ],
        "postalCode": "L8H1L9",
        "streetName": "LANG",
        "streetDirectionId": null,
        "streetTypeId": "ST",
        "placeName": "HAMILTON",
        "streetNameDisplayText": "LANG ST, HAMILTON"
      }
    ]
  },
  {
    "postal": "L8H8T0",
    "result": []
  },
  {
    "postal": "L8H3K8",
    "result": [
      {
        "electoralDistricts": [
          {
            "election": null,
            "id": 37,
            "name": "Hamilton East—Stoney Creek"
          }
        ],
        "pollDivisionIds": [
          10138641
        ],
        "postalCode": "L8H3K8",
        "streetName": "BEACH",
        "streetDirectionId": null,
        "streetTypeId": "RD",
        "placeName": "HAMILTON",
        "streetNameDisplayText": "BEACH RD, HAMILTON"
      }
    ]
  },
  {
    "postal": "L8H5W9",
    "result": [
      {
        "electoralDistricts": [
          {
            "election": null,
            "id": 37,
            "name": "Hamilton East—Stoney Creek"
          }
        ],
        "pollDivisionIds": [
          10138647
        ],
        "postalCode": "L8H5W9",
        "streetName": "PARKDALE",
        "streetDirectionId": "N",
        "streetTypeId": "AVE",
        "placeName": "HAMILTON",
        "streetNameDisplayText": "PARKDALE AVE N, HAMILTON"
      }
    ]
  },
  {
    "postal": "L8H6T9",
    "result": [
      {
        "electoralDistricts": [
          {
            "election": null,
            "id": 37,
            "name": "Hamilton East—Stoney Creek"
          }
        ],
        "pollDivisionIds": [
          10138642
        ],
        "postalCode": "L8H6T9",
        "streetName": "BARNABY",
        "streetDirectionId": null,
        "streetTypeId": "ST",
        "placeName": "HAMILTON",
        "streetNameDisplayText": "BARNABY ST, HAMILTON"
      }
    ]
  },
  {
    "postal": "L8H4H1",
    "result": [
      {
        "electoralDistricts": [
          {
            "election": null,
            "id": 36,
            "name": "Hamilton Centre"
          }
        ],
        "pollDivisionIds": [
          10138620
        ],
        "postalCode": "L8H4H1",
        "streetName": "AGNES",
        "streetDirectionId": null,
        "streetTypeId": "ST",
        "placeName": "HAMILTON",
        "streetNameDisplayText": "AGNES ST, HAMILTON"
      }
    ]
  },
  {
    "postal": "L8H7A2",
    "result": []
  },
  {
    "postal": "L8H5G0",
    "result": []
  },
  {
    "postal": "L8H8V5",
    "result": []
  },
  {
    "postal": "L8H2Y8",
    "result": [
      {
        "electoralDistricts": [
          {
            "election": null,
            "id": 37,
            "name": "Hamilton East—Stoney Creek"
          }
        ],
        "pollDivisionIds": [
          10138642
        ],
        "postalCode": "L8H2Y8",
        "streetName": "BARTON",
        "streetDirectionId": "E",
        "streetTypeId": "ST",
        "placeName": "HAMILTON",
        "streetNameDisplayText": "BARTON ST E, HAMILTON"
      }
    ]
  },
  {
    "postal": "L8H2B6",
    "result": [
      {
        "electoralDistricts": [
          {
            "election": null,
            "id": 37,
            "name": "Hamilton East—Stoney Creek"
          }
        ],
        "pollDivisionIds": [
          10138642
        ],
        "postalCode": "L8H2B6",
        "streetName": "BRITANNIA",
        "streetDirectionId": null,
        "streetTypeId": "AVE",
        "placeName": "HAMILTON",
        "streetNameDisplayText": "BRITANNIA AVE, HAMILTON"
      }
    ]
  },
  {
    "postal": "L8H4W8",
    "result": [
      {
        "electoralDistricts": [
          {
            "election": null,
            "id": 37,
            "name": "Hamilton East—Stoney Creek"
          }
        ],
        "pollDivisionIds": [
          10138644
        ],
        "postalCode": "L8H4W8",
        "streetName": "GARSIDE",
        "streetDirectionId": "N",
        "streetTypeId": "AVE",
        "placeName": "HAMILTON",
        "streetNameDisplayText": "GARSIDE AVE N, HAMILTON"
      }
    ]
  },
  {
    "postal": "L8H8H7",
    "result": []
  },
  {
    "postal": "L8H5P1",
    "result": [
      {
        "electoralDistricts": [
          {
            "election": null,
            "id": 37,
            "name": "Hamilton East—Stoney Creek"
          }
        ],
        "pollDivisionIds": [
          10138642
        ],
        "postalCode": "L8H5P1",
        "streetName": "TOLTON",
        "streetDirectionId": null,
        "streetTypeId": "AVE",
        "placeName": "HAMILTON",
        "streetNameDisplayText": "TOLTON AVE, HAMILTON"
      }
    ]
  },
  {
    "postal": "L8H2B8",
    "result": [
      {
        "electoralDistricts": [
          {
            "election": null,
            "id": 37,
            "name": "Hamilton East—Stoney Creek"
          }
        ],
        "pollDivisionIds": [
          10138647
        ],
        "postalCode": "L8H2B8",
        "streetName": "MARTHA",
        "streetDirectionId": null,
        "streetTypeId": "ST",
        "placeName": "HAMILTON",
        "streetNameDisplayText": "MARTHA ST, HAMILTON"
      }
    ]
  },
  {
    "postal": "L8H0P2",
    "result": []
  },
  {
    "postal": "L8H9M1",
    "result": []
  },
  {
    "postal": "L8H3G0",
    "result": []
  },
  {
    "postal": "L8H9Z2",
    "result": []
  },
  {
    "postal": "L8H2A0",
    "result": []
  },
  {
    "postal": "L8H6Y0",
    "result": []
  },
  {
    "postal": "L8H2Z8",
    "result": [
      {
        "electoralDistricts": [
          {
            "election": null,
            "id": 37,
            "name": "Hamilton East—Stoney Creek"
          }
        ],
        "pollDivisionIds": [
          10138641
        ],
        "postalCode": "L8H2Z8",
        "streetName": "HARRISON",
        "streetDirectionId": null,
        "streetTypeId": "AVE",
        "placeName": "HAMILTON",
        "streetNameDisplayText": "HARRISON AVE, HAMILTON"
      }
    ]
  },
  {
    "postal": "L8H7Y3",
    "result": []
  },
  {
    "postal": "L8H6Z5",
    "result": [
      {
        "electoralDistricts": [
          {
            "election": null,
            "id": 37,
            "name": "Hamilton East—Stoney Creek"
          }
        ],
        "pollDivisionIds": [
          10138640
        ],
        "postalCode": "L8H6Z5",
        "streetName": "BEACH",
        "streetDirectionId": null,
        "streetTypeId": "BLVD",
        "placeName": "HAMILTON",
        "streetNameDisplayText": "BEACH BLVD, HAMILTON"
      }
    ]
  },
  {
    "postal": "L8H6E0",
    "result": []
  },
  {
    "postal": "L8H9B7",
    "result": []
  },
  {
    "postal": "L8H9S5",
    "result": []
  },
  {
    "postal": "L8H3X3",
    "result": [
      {
        "electoralDistricts": [
          {
            "election": null,
            "id": 37,
            "name": "Hamilton East—Stoney Creek"
          }
        ],
        "pollDivisionIds": [
          10138642
        ],
        "postalCode": "L8H3X3",
        "streetName": "GRACE",
        "streetDirectionId": null,
        "streetTypeId": "AVE",
        "placeName": "HAMILTON",
        "streetNameDisplayText": "GRACE AVE, HAMILTON"
      }
    ]
  },
  {
    "postal": "L8H7R5",
    "result": [
      {
        "electoralDistricts": [
          {
            "election": null,
            "id": 37,
            "name": "Hamilton East—Stoney Creek"
          }
        ],
        "pollDivisionIds": [
          10138647
        ],
        "postalCode": "L8H7R5",
        "streetName": "MAIN",
        "streetDirectionId": "E",
        "streetTypeId": "ST",
        "placeName": "HAMILTON",
        "streetNameDisplayText": "MAIN ST E, HAMILTON"
      }
    ]
  },
  {
    "postal": "L8H2X3",
    "result": [
      {
        "electoralDistricts": [
          {
            "election": null,
            "id": 37,
            "name": "Hamilton East—Stoney Creek"
          }
        ],
        "pollDivisionIds": [
          10138641
        ],
        "postalCode": "L8H2X3",
        "streetName": "BARTON",
        "streetDirectionId": "E",
        "streetTypeId": "ST",
        "placeName": "HAMILTON",
        "streetNameDisplayText": "BARTON ST E, HAMILTON"
      }
    ]
  },
  {
    "postal": "L8H8Z9",
    "result": []
  },
  {
    "postal": "L8H0N4",
    "result": []
  },
  {
    "postal": "L8H1K1",
    "result": [
      {
        "electoralDistricts": [
          {
            "election": null,
            "id": 37,
            "name": "Hamilton East—Stoney Creek"
          }
        ],
        "pollDivisionIds": [
          10138647
        ],
        "postalCode": "L8H1K1",
        "streetName": "DUNSMURE",
        "streetDirectionId": null,
        "streetTypeId": "RD",
        "placeName": "HAMILTON",
        "streetNameDisplayText": "DUNSMURE RD, HAMILTON"
      }
    ]
  },
  {
    "postal": "L8H1S3",
    "result": [
      {
        "electoralDistricts": [
          {
            "election": null,
            "id": 37,
            "name": "Hamilton East—Stoney Creek"
          }
        ],
        "pollDivisionIds": [
          10138647
        ],
        "postalCode": "L8H1S3",
        "streetName": "ROXBOROUGH",
        "streetDirectionId": null,
        "streetTypeId": "AVE",
        "placeName": "HAMILTON",
        "streetNameDisplayText": "ROXBOROUGH AVE, HAMILTON"
      }
    ]
  },
  {
    "postal": "L8H6M4",
    "result": [
      {
        "electoralDistricts": [
          {
            "election": null,
            "id": 37,
            "name": "Hamilton East—Stoney Creek"
          }
        ],
        "pollDivisionIds": [
          10138642
        ],
        "postalCode": "L8H6M4",
        "streetName": "DUNN",
        "streetDirectionId": null,
        "streetTypeId": "AVE",
        "placeName": "HAMILTON",
        "streetNameDisplayText": "DUNN AVE, HAMILTON"
      }
    ]
  },
  {
    "postal": "L8H9A9",
    "result": []
  },
  {
    "postal": "L8H9Z9",
    "result": []
  },
  {
    "postal": "L8H6T4",
    "result": [
      {
        "electoralDistricts": [
          {
            "election": null,
            "id": 37,
            "name": "Hamilton East—Stoney Creek"
          }
        ],
        "pollDivisionIds": [
          10138642
        ],
        "postalCode": "L8H6T4",
        "streetName": "TALBOT",
        "streetDirectionId": null,
        "streetTypeId": "ST",
        "placeName": "HAMILTON",
        "streetNameDisplayText": "TALBOT ST, HAMILTON"
      }
    ]
  },
  {
    "postal": "L8H0B2",
    "result": [
      {
        "electoralDistricts": [
          {
            "election": null,
            "id": 36,
            "name": "Hamilton Centre"
          }
        ],
        "pollDivisionIds": [
          10138615
        ],
        "postalCode": "L8H0B2",
        "streetName": "OTTAWA",
        "streetDirectionId": "N",
        "streetTypeId": "ST",
        "placeName": "HAMILTON",
        "streetNameDisplayText": "OTTAWA ST N, HAMILTON"
      }
    ]
  },
  {
    "postal": "L8H2L9",
    "result": [
      {
        "electoralDistricts": [
          {
            "election": null,
            "id": 37,
            "name": "Hamilton East—Stoney Creek"
          }
        ],
        "pollDivisionIds": [
          10138642
        ],
        "postalCode": "L8H2L9",
        "streetName": "MELVIN",
        "streetDirectionId": null,
        "streetTypeId": "AVE",
        "placeName": "HAMILTON",
        "streetNameDisplayText": "MELVIN AVE, HAMILTON"
      }
    ]
  },
  {
    "postal": "L8H8K9",
    "result": []
  },
  {
    "postal": "L8H2H9",
    "result": [
      {
        "electoralDistricts": [
          {
            "election": null,
            "id": 37,
            "name": "Hamilton East—Stoney Creek"
          }
        ],
        "pollDivisionIds": [
          10138642
        ],
        "postalCode": "L8H2H9",
        "streetName": "MELVIN",
        "streetDirectionId": null,
        "streetTypeId": "AVE",
        "placeName": "HAMILTON",
        "streetNameDisplayText": "MELVIN AVE, HAMILTON"
      }
    ]
  },
  {
    "postal": "L8H3Z6",
    "result": [
      {
        "electoralDistricts": [
          {
            "election": null,
            "id": 36,
            "name": "Hamilton Centre"
          }
        ],
        "pollDivisionIds": [
          10138620
        ],
        "postalCode": "L8H3Z6",
        "streetName": "OTTAWA",
        "streetDirectionId": "N",
        "streetTypeId": "ST",
        "placeName": "HAMILTON",
        "streetNameDisplayText": "OTTAWA ST N, HAMILTON"
      }
    ]
  },
  {
    "postal": "L8H3B0",
    "result": []
  },
  {
    "postal": "L8H2H8",
    "result": [
      {
        "electoralDistricts": [
          {
            "election": null,
            "id": 37,
            "name": "Hamilton East—Stoney Creek"
          }
        ],
        "pollDivisionIds": [
          10138642
        ],
        "postalCode": "L8H2H8",
        "streetName": "MELVIN",
        "streetDirectionId": null,
        "streetTypeId": "AVE",
        "placeName": "HAMILTON",
        "streetNameDisplayText": "MELVIN AVE, HAMILTON"
      }
    ]
  },
  {
    "postal": "L8H3X2",
    "result": [
      {
        "electoralDistricts": [
          {
            "election": null,
            "id": 37,
            "name": "Hamilton East—Stoney Creek"
          }
        ],
        "pollDivisionIds": [
          10138642
        ],
        "postalCode": "L8H3X2",
        "streetName": "GRACE",
        "streetDirectionId": null,
        "streetTypeId": "AVE",
        "placeName": "HAMILTON",
        "streetNameDisplayText": "GRACE AVE, HAMILTON"
      }
    ]
  },
  {
    "postal": "L8H2E9",
    "result": [
      {
        "electoralDistricts": [
          {
            "election": null,
            "id": 36,
            "name": "Hamilton Centre"
          }
        ],
        "pollDivisionIds": [
          10138620
        ],
        "postalCode": "L8H2E9",
        "streetName": "CAMPBELL",
        "streetDirectionId": null,
        "streetTypeId": "AVE",
        "placeName": "HAMILTON",
        "streetNameDisplayText": "CAMPBELL AVE, HAMILTON"
      }
    ]
  },
  {
    "postal": "L8H9P6",
    "result": []
  },
  {
    "postal": "L8H9E2",
    "result": []
  },
  {
    "postal": "L8H9H2",
    "result": []
  },
  {
    "postal": "L8H1S8",
    "result": [
      {
        "electoralDistricts": [
          {
            "election": null,
            "id": 37,
            "name": "Hamilton East—Stoney Creek"
          }
        ],
        "pollDivisionIds": [
          10138647
        ],
        "postalCode": "L8H1S8",
        "streetName": "ROXBOROUGH",
        "streetDirectionId": null,
        "streetTypeId": "AVE",
        "placeName": "HAMILTON",
        "streetNameDisplayText": "ROXBOROUGH AVE, HAMILTON"
      }
    ]
  },
  {
    "postal": "L8H3M6",
    "result": [
      {
        "electoralDistricts": [
          {
            "election": null,
            "id": 36,
            "name": "Hamilton Centre"
          }
        ],
        "pollDivisionIds": [
          10138620
        ],
        "postalCode": "L8H3M6",
        "streetName": "HOLLY",
        "streetDirectionId": null,
        "streetTypeId": "AVE",
        "placeName": "HAMILTON",
        "streetNameDisplayText": "HOLLY AVE, HAMILTON"
      }
    ]
  },
  {
    "postal": "L8H6Z8",
    "result": [
      {
        "electoralDistricts": [
          {
            "election": null,
            "id": 37,
            "name": "Hamilton East—Stoney Creek"
          }
        ],
        "pollDivisionIds": [
          10138640
        ],
        "postalCode": "L8H6Z8",
        "streetName": "BEACH",
        "streetDirectionId": null,
        "streetTypeId": "BLVD",
        "placeName": "HAMILTON",
        "streetNameDisplayText": "BEACH BLVD, HAMILTON"
      }
    ]
  },
  {
    "postal": "L8H4J2",
    "result": [
      {
        "electoralDistricts": [
          {
            "election": null,
            "id": 36,
            "name": "Hamilton Centre"
          }
        ],
        "pollDivisionIds": [
          10138620
        ],
        "postalCode": "L8H4J2",
        "streetName": "PROVINCE",
        "streetDirectionId": "N",
        "streetTypeId": "ST",
        "placeName": "HAMILTON",
        "streetNameDisplayText": "PROVINCE ST N, HAMILTON"
      }
    ]
  },
  {
    "postal": "L8H9Y1",
    "result": []
  },
  {
    "postal": "L8H8V6",
    "result": []
  },
  {
    "postal": "L8H6B2",
    "result": [
      {
        "electoralDistricts": [
          {
            "election": null,
            "id": 37,
            "name": "Hamilton East—Stoney Creek"
          }
        ],
        "pollDivisionIds": [
          10138642
        ],
        "postalCode": "L8H6B2",
        "streetName": "ADAIR",
        "streetDirectionId": "N",
        "streetTypeId": "AVE",
        "placeName": "HAMILTON",
        "streetNameDisplayText": "ADAIR AVE N, HAMILTON"
      }
    ]
  },
  {
    "postal": "L8H1P8",
    "result": [
      {
        "electoralDistricts": [
          {
            "election": null,
            "id": 36,
            "name": "Hamilton Centre"
          }
        ],
        "pollDivisionIds": [
          10138619
        ],
        "postalCode": "L8H1P8",
        "streetName": "ROXBOROUGH",
        "streetDirectionId": null,
        "streetTypeId": "AVE",
        "placeName": "HAMILTON",
        "streetNameDisplayText": "ROXBOROUGH AVE, HAMILTON"
      }
    ]
  },
  {
    "postal": "L8H0V8",
    "result": []
  },
  {
    "postal": "L8H4Y0",
    "result": []
  },
  {
    "postal": "L8H2T4",
    "result": [
      {
        "electoralDistricts": [
          {
            "election": null,
            "id": 36,
            "name": "Hamilton Centre"
          }
        ],
        "pollDivisionIds": [
          10138619
        ],
        "postalCode": "L8H2T4",
        "streetName": "NEWLANDS",
        "streetDirectionId": null,
        "streetTypeId": "AVE",
        "placeName": "HAMILTON",
        "streetNameDisplayText": "NEWLANDS AVE, HAMILTON"
      }
    ]
  },
  {
    "postal": "L8H2S3",
    "result": [
      {
        "electoralDistricts": [
          {
            "election": null,
            "id": 37,
            "name": "Hamilton East—Stoney Creek"
          }
        ],
        "pollDivisionIds": [
          10138648
        ],
        "postalCode": "L8H2S3",
        "streetName": "CAVALIER",
        "streetDirectionId": null,
        "streetTypeId": "CRT",
        "placeName": "HAMILTON",
        "streetNameDisplayText": "CAVALIER CRT, HAMILTON"
      }
    ]
  },
  {
    "postal": "L8H0K0",
    "result": []
  },
  {
    "postal": "L8H5N1",
    "result": [
      {
        "electoralDistricts": [
          {
            "election": null,
            "id": 37,
            "name": "Hamilton East—Stoney Creek"
          }
        ],
        "pollDivisionIds": [
          10138642
        ],
        "postalCode": "L8H5N1",
        "streetName": "NORMANHURST",
        "streetDirectionId": null,
        "streetTypeId": "AVE",
        "placeName": "HAMILTON",
        "streetNameDisplayText": "NORMANHURST AVE, HAMILTON"
      }
    ]
  },
  {
    "postal": "L8H7T0",
    "result": []
  },
  {
    "postal": "L8H9N2",
    "result": []
  },
  {
    "postal": "L8H5L1",
    "result": []
  },
  {
    "postal": "L8H7G5",
    "result": [
      {
        "electoralDistricts": [
          {
            "election": null,
            "id": 37,
            "name": "Hamilton East—Stoney Creek"
          }
        ],
        "pollDivisionIds": [
          10138640
        ],
        "postalCode": "L8H7G5",
        "streetName": "REMBE",
        "streetDirectionId": null,
        "streetTypeId": "AVE",
        "placeName": "HAMILTON",
        "streetNameDisplayText": "REMBE AVE, HAMILTON"
      }
    ]
  },
  {
    "postal": "L8H6K2",
    "result": [
      {
        "electoralDistricts": [
          {
            "election": null,
            "id": 37,
            "name": "Hamilton East—Stoney Creek"
          }
        ],
        "pollDivisionIds": [
          10138642
        ],
        "postalCode": "L8H6K2",
        "streetName": "KNOX",
        "streetDirectionId": null,
        "streetTypeId": "AVE",
        "placeName": "HAMILTON",
        "streetNameDisplayText": "KNOX AVE, HAMILTON"
      }
    ]
  },
  {
    "postal": "L8H6P9",
    "result": [
      {
        "electoralDistricts": [
          {
            "election": null,
            "id": 37,
            "name": "Hamilton East—Stoney Creek"
          }
        ],
        "pollDivisionIds": [
          10138642
        ],
        "postalCode": "L8H6P9",
        "streetName": "WAVERLY",
        "streetDirectionId": null,
        "streetTypeId": "ST",
        "placeName": "HAMILTON",
        "streetNameDisplayText": "WAVERLY ST, HAMILTON"
      }
    ]
  },
  {
    "postal": "L8H0E6",
    "result": []
  },
  {
    "postal": "L8H8R9",
    "result": []
  },
  {
    "postal": "L8H3G9",
    "result": [
      {
        "electoralDistricts": [
          {
            "election": null,
            "id": 36,
            "name": "Hamilton Centre"
          }
        ],
        "pollDivisionIds": [
          10138620
        ],
        "postalCode": "L8H3G9",
        "streetName": "MCANULTY",
        "streetDirectionId": null,
        "streetTypeId": "BLVD",
        "placeName": "HAMILTON",
        "streetNameDisplayText": "MCANULTY BLVD, HAMILTON"
      }
    ]
  },
  {
    "postal": "L8H0V7",
    "result": []
  },
  {
    "postal": "L8H2Z1",
    "result": []
  },
  {
    "postal": "L8H7N1",
    "result": []
  },
  {
    "postal": "L8H3C6",
    "result": [
      {
        "electoralDistricts": [
          {
            "election": null,
            "id": 37,
            "name": "Hamilton East—Stoney Creek"
          }
        ],
        "pollDivisionIds": [
          10138642
        ],
        "postalCode": "L8H3C6",
        "streetName": "GUELPH",
        "streetDirectionId": null,
        "streetTypeId": "ST",
        "placeName": "HAMILTON",
        "streetNameDisplayText": "GUELPH ST, HAMILTON"
      }
    ]
  },
  {
    "postal": "L8H4M1",
    "result": [
      {
        "electoralDistricts": [
          {
            "election": null,
            "id": 36,
            "name": "Hamilton Centre"
          }
        ],
        "pollDivisionIds": [
          10138619
        ],
        "postalCode": "L8H4M1",
        "streetName": "WEXFORD",
        "streetDirectionId": "N",
        "streetTypeId": "AVE",
        "placeName": "HAMILTON",
        "streetNameDisplayText": "WEXFORD AVE N, HAMILTON"
      }
    ]
  },
  {
    "postal": "L8H9K2",
    "result": []
  },
  {
    "postal": "L8H9S6",
    "result": []
  },
  {
    "postal": "L8H4X1",
    "result": [
      {
        "electoralDistricts": [
          {
            "election": null,
            "id": 37,
            "name": "Hamilton East—Stoney Creek"
          }
        ],
        "pollDivisionIds": [
          10138644
        ],
        "postalCode": "L8H4X1",
        "streetName": "HARMONY",
        "streetDirectionId": null,
        "streetTypeId": "AVE",
        "placeName": "HAMILTON",
        "streetNameDisplayText": "HARMONY AVE, HAMILTON"
      }
    ]
  },
  {
    "postal": "L8H8W2",
    "result": []
  },
  {
    "postal": "L8H7N2",
    "result": [
      {
        "electoralDistricts": [
          {
            "election": null,
            "id": 37,
            "name": "Hamilton East—Stoney Creek"
          }
        ],
        "pollDivisionIds": [
          10138642
        ],
        "postalCode": "L8H7N2",
        "streetName": "WOODWARD",
        "streetDirectionId": null,
        "streetTypeId": "AVE",
        "placeName": "HAMILTON",
        "streetNameDisplayText": "WOODWARD AVE, HAMILTON"
      }
    ]
  },
  {
    "postal": "L8H8S3",
    "result": []
  },
  {
    "postal": "L8H4V0",
    "result": []
  },
  {
    "postal": "L8H6W4",
    "result": [
      {
        "electoralDistricts": [
          {
            "election": null,
            "id": 37,
            "name": "Hamilton East—Stoney Creek"
          }
        ],
        "pollDivisionIds": [
          10138640
        ],
        "postalCode": "L8H6W4",
        "streetName": "BEACH",
        "streetDirectionId": null,
        "streetTypeId": "BLVD",
        "placeName": "HAMILTON",
        "streetNameDisplayText": "BEACH BLVD, HAMILTON"
      }
    ]
  },
  {
    "postal": "L8H5M1",
    "result": [
      {
        "electoralDistricts": [
          {
            "election": null,
            "id": 37,
            "name": "Hamilton East—Stoney Creek"
          }
        ],
        "pollDivisionIds": [
          10138642
        ],
        "postalCode": "L8H5M1",
        "streetName": "SELKIRK",
        "streetDirectionId": null,
        "streetTypeId": "AVE",
        "placeName": "HAMILTON",
        "streetNameDisplayText": "SELKIRK AVE, HAMILTON"
      }
    ]
  },
  {
    "postal": "L8H0S4",
    "result": []
  },
  {
    "postal": "L8H5X6",
    "result": [
      {
        "electoralDistricts": [
          {
            "election": null,
            "id": 37,
            "name": "Hamilton East—Stoney Creek"
          }
        ],
        "pollDivisionIds": [
          10138642
        ],
        "postalCode": "L8H5X6",
        "streetName": "PARKDALE",
        "streetDirectionId": "N",
        "streetTypeId": "AVE",
        "placeName": "HAMILTON",
        "streetNameDisplayText": "PARKDALE AVE N, HAMILTON"
      }
    ]
  },
  {
    "postal": "L8H8L5",
    "result": []
  },
  {
    "postal": "L8H5M8",
    "result": [
      {
        "electoralDistricts": [
          {
            "election": null,
            "id": 37,
            "name": "Hamilton East—Stoney Creek"
          }
        ],
        "pollDivisionIds": [
          10138642
        ],
        "postalCode": "L8H5M8",
        "streetName": "NORMANHURST",
        "streetDirectionId": null,
        "streetTypeId": "AVE",
        "placeName": "HAMILTON",
        "streetNameDisplayText": "NORMANHURST AVE, HAMILTON"
      }
    ]
  },
  {
    "postal": "L8H2G3",
    "result": [
      {
        "electoralDistricts": [
          {
            "election": null,
            "id": 36,
            "name": "Hamilton Centre"
          }
        ],
        "pollDivisionIds": [
          10138619
        ],
        "postalCode": "L8H2G3",
        "streetName": "CAMPBELL",
        "streetDirectionId": null,
        "streetTypeId": "AVE",
        "placeName": "HAMILTON",
        "streetNameDisplayText": "CAMPBELL AVE, HAMILTON"
      }
    ]
  },
  {
    "postal": "L8H8E4",
    "result": []
  },
  {
    "postal": "L8H7S9",
    "result": []
  },
  {
    "postal": "L8H1K3",
    "result": [
      {
        "electoralDistricts": [
          {
            "election": null,
            "id": 37,
            "name": "Hamilton East—Stoney Creek"
          }
        ],
        "pollDivisionIds": [
          10138647
        ],
        "postalCode": "L8H1K3",
        "streetName": "DUNSMURE",
        "streetDirectionId": null,
        "streetTypeId": "RD",
        "placeName": "HAMILTON",
        "streetNameDisplayText": "DUNSMURE RD, HAMILTON"
      }
    ]
  },
  {
    "postal": "L8H4E1",
    "result": [
      {
        "electoralDistricts": [
          {
            "election": null,
            "id": 36,
            "name": "Hamilton Centre"
          }
        ],
        "pollDivisionIds": [
          10138619
        ],
        "postalCode": "L8H4E1",
        "streetName": "EDGEMONT",
        "streetDirectionId": "N",
        "streetTypeId": "ST",
        "placeName": "HAMILTON",
        "streetNameDisplayText": "EDGEMONT ST N, HAMILTON"
      }
    ]
  },
  {
    "postal": "L8H4R2",
    "result": [
      {
        "electoralDistricts": [
          {
            "election": null,
            "id": 36,
            "name": "Hamilton Centre"
          }
        ],
        "pollDivisionIds": [
          10138619
        ],
        "postalCode": "L8H4R2",
        "streetName": "ALICE",
        "streetDirectionId": null,
        "streetTypeId": "ST",
        "placeName": "HAMILTON",
        "streetNameDisplayText": "ALICE ST, HAMILTON"
      }
    ]
  },
  {
    "postal": "L8H6T0",
    "result": []
  },
  {
    "postal": "L8H3K5",
    "result": [
      {
        "electoralDistricts": [
          {
            "election": null,
            "id": 37,
            "name": "Hamilton East—Stoney Creek"
          }
        ],
        "pollDivisionIds": [
          10138640
        ],
        "postalCode": "L8H3K5",
        "streetName": "BEACH",
        "streetDirectionId": null,
        "streetTypeId": "BLVD",
        "placeName": "HAMILTON",
        "streetNameDisplayText": "BEACH BLVD, HAMILTON"
      },
      {
        "electoralDistricts": [
          {
            "election": null,
            "id": 36,
            "name": "Hamilton Centre"
          }
        ],
        "pollDivisionIds": [
          10138620
        ],
        "postalCode": "L8H3K5",
        "streetName": "BEACH",
        "streetDirectionId": null,
        "streetTypeId": "RD",
        "placeName": "HAMILTON",
        "streetNameDisplayText": "BEACH RD, HAMILTON"
      }
    ]
  },
  {
    "postal": "L8H3S3",
    "result": [
      {
        "electoralDistricts": [
          {
            "election": null,
            "id": 37,
            "name": "Hamilton East—Stoney Creek"
          }
        ],
        "pollDivisionIds": [
          10138642
        ],
        "postalCode": "L8H3S3",
        "streetName": "BRAMPTON",
        "streetDirectionId": null,
        "streetTypeId": "ST",
        "placeName": "HAMILTON",
        "streetNameDisplayText": "BRAMPTON ST, HAMILTON"
      }
    ]
  },
  {
    "postal": "L8H3L4",
    "result": [
      {
        "electoralDistricts": [
          {
            "election": null,
            "id": 37,
            "name": "Hamilton East—Stoney Creek"
          }
        ],
        "pollDivisionIds": [
          10138642
        ],
        "postalCode": "L8H3L4",
        "streetName": "BURLINGTON",
        "streetDirectionId": "E",
        "streetTypeId": "ST",
        "placeName": "HAMILTON",
        "streetNameDisplayText": "BURLINGTON ST E, HAMILTON"
      }
    ]
  },
  {
    "postal": "L8H9Y2",
    "result": []
  },
  {
    "postal": "L8H1E0",
    "result": []
  },
  {
    "postal": "L8H9A4",
    "result": []
  },
  {
    "postal": "L8H1L3",
    "result": [
      {
        "electoralDistricts": [
          {
            "election": null,
            "id": 37,
            "name": "Hamilton East—Stoney Creek"
          }
        ],
        "pollDivisionIds": [
          10138647
        ],
        "postalCode": "L8H1L3",
        "streetName": "DUNSMURE",
        "streetDirectionId": null,
        "streetTypeId": "RD",
        "placeName": "HAMILTON",
        "streetNameDisplayText": "DUNSMURE RD, HAMILTON"
      }
    ]
  },
  {
    "postal": "L8H6N1",
    "result": [
      {
        "electoralDistricts": [
          {
            "election": null,
            "id": 37,
            "name": "Hamilton East—Stoney Creek"
          }
        ],
        "pollDivisionIds": [
          10138642
        ],
        "postalCode": "L8H6N1",
        "streetName": "DUNN",
        "streetDirectionId": null,
        "streetTypeId": "AVE",
        "placeName": "HAMILTON",
        "streetNameDisplayText": "DUNN AVE, HAMILTON"
      }
    ]
  },
  {
    "postal": "L8H6G7",
    "result": [
      {
        "electoralDistricts": [
          {
            "election": null,
            "id": 73,
            "name": "Northumberland—Peterborough South"
          }
        ],
        "pollDivisionIds": [
          10140261
        ],
        "postalCode": "L8H6G7",
        "streetName": "ORIOLE",
        "streetDirectionId": null,
        "streetTypeId": "CRES",
        "placeName": "BALTIMORE",
        "streetNameDisplayText": "ORIOLE CRES, BALTIMORE"
      },
      {
        "electoralDistricts": [
          {
            "election": null,
            "id": 37,
            "name": "Hamilton East—Stoney Creek"
          },
          {
            "election": null,
            "id": 73,
            "name": "Northumberland—Peterborough South"
          }
        ],
        "pollDivisionIds": [
          10138647,
          10140261
        ],
        "postalCode": "L8H6G7",
        "streetName": "ORIOLE",
        "streetDirectionId": null,
        "streetTypeId": "CRES",
        "placeName": "HAMILTON",
        "streetNameDisplayText": "ORIOLE CRES, HAMILTON"
      }
    ]
  },
  {
    "postal": "L8H7W1",
    "result": []
  },
  {
    "postal": "L8H4M6",
    "result": [
      {
        "electoralDistricts": [
          {
            "election": null,
            "id": 36,
            "name": "Hamilton Centre"
          }
        ],
        "pollDivisionIds": [
          10138619
        ],
        "postalCode": "L8H4M6",
        "streetName": "ROBINS",
        "streetDirectionId": null,
        "streetTypeId": "AVE",
        "placeName": "HAMILTON",
        "streetNameDisplayText": "ROBINS AVE, HAMILTON"
      }
    ]
  },
  {
    "postal": "L8H1K0",
    "result": []
  },
  {
    "postal": "L8H3E2",
    "result": []
  },
  {
    "postal": "L8H5H4",
    "result": [
      {
        "electoralDistricts": [
          {
            "election": null,
            "id": 37,
            "name": "Hamilton East—Stoney Creek"
          }
        ],
        "pollDivisionIds": [
          10138646
        ],
        "postalCode": "L8H5H4",
        "streetName": "FAIRFIELD",
        "streetDirectionId": null,
        "streetTypeId": "AVE",
        "placeName": "HAMILTON",
        "streetNameDisplayText": "FAIRFIELD AVE, HAMILTON"
      }
    ]
  },
  {
    "postal": "L8H1K7",
    "result": [
      {
        "electoralDistricts": [
          {
            "election": null,
            "id": 37,
            "name": "Hamilton East—Stoney Creek"
          }
        ],
        "pollDivisionIds": [
          10138647
        ],
        "postalCode": "L8H1K7",
        "streetName": "DUNSMURE",
        "streetDirectionId": null,
        "streetTypeId": "RD",
        "placeName": "HAMILTON",
        "streetNameDisplayText": "DUNSMURE RD, HAMILTON"
      }
    ]
  },
  {
    "postal": "L8H0H0",
    "result": []
  },
  {
    "postal": "L8H0J3",
    "result": []
  },
  {
    "postal": "L8H1X6",
    "result": [
      {
        "electoralDistricts": [
          {
            "election": null,
            "id": 36,
            "name": "Hamilton Centre"
          }
        ],
        "pollDivisionIds": [
          10138619
        ],
        "postalCode": "L8H1X6",
        "streetName": "BRITANNIA",
        "streetDirectionId": null,
        "streetTypeId": "AVE",
        "placeName": "HAMILTON",
        "streetNameDisplayText": "BRITANNIA AVE, HAMILTON"
      }
    ]
  },
  {
    "postal": "L8H2Z6",
    "result": [
      {
        "electoralDistricts": [
          {
            "election": null,
            "id": 37,
            "name": "Hamilton East—Stoney Creek"
          }
        ],
        "pollDivisionIds": [
          10138642
        ],
        "postalCode": "L8H2Z6",
        "streetName": "BARTON",
        "streetDirectionId": "E",
        "streetTypeId": "ST",
        "placeName": "HAMILTON",
        "streetNameDisplayText": "BARTON ST E, HAMILTON"
      }
    ]
  },
  {
    "postal": "L8H4R9",
    "result": [
      {
        "electoralDistricts": [
          {
            "election": null,
            "id": 36,
            "name": "Hamilton Centre"
          }
        ],
        "pollDivisionIds": [
          10138619
        ],
        "postalCode": "L8H4R9",
        "streetName": "KENILWORTH",
        "streetDirectionId": "N",
        "streetTypeId": "AVE",
        "placeName": "HAMILTON",
        "streetNameDisplayText": "KENILWORTH AVE N, HAMILTON"
      }
    ]
  },
  {
    "postal": "L8H0W8",
    "result": []
  },
  {
    "postal": "L8H1L4",
    "result": [
      {
        "electoralDistricts": [
          {
            "election": null,
            "id": 37,
            "name": "Hamilton East—Stoney Creek"
          }
        ],
        "pollDivisionIds": [
          10138647
        ],
        "postalCode": "L8H1L4",
        "streetName": "DUNSMURE",
        "streetDirectionId": null,
        "streetTypeId": "RD",
        "placeName": "HAMILTON",
        "streetNameDisplayText": "DUNSMURE RD, HAMILTON"
      }
    ]
  },
  {
    "postal": "L8H0C8",
    "result": []
  },
  {
    "postal": "L8H9X7",
    "result": []
  },
  {
    "postal": "L8H4T1",
    "result": []
  },
  {
    "postal": "L8H0M0",
    "result": []
  },
  {
    "postal": "L8H6A2",
    "result": [
      {
        "electoralDistricts": [
          {
            "election": null,
            "id": 37,
            "name": "Hamilton East—Stoney Creek"
          }
        ],
        "pollDivisionIds": [
          10138647
        ],
        "postalCode": "L8H6A2",
        "streetName": "GLASSCO",
        "streetDirectionId": "N",
        "streetTypeId": "AVE",
        "placeName": "HAMILTON",
        "streetNameDisplayText": "GLASSCO AVE N, HAMILTON"
      }
    ]
  },
  {
    "postal": "L8H9S8",
    "result": []
  },
  {
    "postal": "L8H9T4",
    "result": []
  },
  {
    "postal": "L8H9Y4",
    "result": []
  },
  {
    "postal": "L8H6G5",
    "result": [
      {
        "electoralDistricts": [
          {
            "election": null,
            "id": 37,
            "name": "Hamilton East—Stoney Creek"
          }
        ],
        "pollDivisionIds": [
          10138642
        ],
        "postalCode": "L8H6G5",
        "streetName": "MACLAREN",
        "streetDirectionId": null,
        "streetTypeId": "AVE",
        "placeName": "HAMILTON",
        "streetNameDisplayText": "MACLAREN AVE, HAMILTON"
      }
    ]
  },
  {
    "postal": "L8H6H9",
    "result": [
      {
        "electoralDistricts": [
          {
            "election": null,
            "id": 37,
            "name": "Hamilton East—Stoney Creek"
          }
        ],
        "pollDivisionIds": [
          10138642
        ],
        "postalCode": "L8H6H9",
        "streetName": "BURGESS",
        "streetDirectionId": null,
        "streetTypeId": "AVE",
        "placeName": "HAMILTON",
        "streetNameDisplayText": "BURGESS AVE, HAMILTON"
      }
    ]
  },
  {
    "postal": "L8H2P3",
    "result": [
      {
        "electoralDistricts": [
          {
            "election": null,
            "id": 37,
            "name": "Hamilton East—Stoney Creek"
          }
        ],
        "pollDivisionIds": [
          10138648
        ],
        "postalCode": "L8H2P3",
        "streetName": "NASH",
        "streetDirectionId": "N",
        "streetTypeId": "RD",
        "placeName": "HAMILTON",
        "streetNameDisplayText": "NASH RD N, HAMILTON"
      }
    ]
  },
  {
    "postal": "L8H1T6",
    "result": [
      {
        "electoralDistricts": [
          {
            "election": null,
            "id": 36,
            "name": "Hamilton Centre"
          }
        ],
        "pollDivisionIds": [
          10138619
        ],
        "postalCode": "L8H1T6",
        "streetName": "CAMBRIDGE",
        "streetDirectionId": null,
        "streetTypeId": "AVE",
        "placeName": "HAMILTON",
        "streetNameDisplayText": "CAMBRIDGE AVE, HAMILTON"
      }
    ]
  },
  {
    "postal": "L8H4P6",
    "result": [
      {
        "electoralDistricts": [
          {
            "election": null,
            "id": 36,
            "name": "Hamilton Centre"
          }
        ],
        "pollDivisionIds": [
          10138619
        ],
        "postalCode": "L8H4P6",
        "streetName": "TUXEDO",
        "streetDirectionId": "N",
        "streetTypeId": "AVE",
        "placeName": "HAMILTON",
        "streetNameDisplayText": "TUXEDO AVE N, HAMILTON"
      }
    ]
  },
  {
    "postal": "L8H3K1",
    "result": []
  },
  {
    "postal": "L8H6X4",
    "result": [
      {
        "electoralDistricts": [
          {
            "election": null,
            "id": 37,
            "name": "Hamilton East—Stoney Creek"
          }
        ],
        "pollDivisionIds": [
          10138640
        ],
        "postalCode": "L8H6X4",
        "streetName": "BEACH",
        "streetDirectionId": null,
        "streetTypeId": "BLVD",
        "placeName": "HAMILTON",
        "streetNameDisplayText": "BEACH BLVD, HAMILTON"
      }
    ]
  },
  {
    "postal": "L8H4M8",
    "result": [
      {
        "electoralDistricts": [
          {
            "election": null,
            "id": 36,
            "name": "Hamilton Centre"
          }
        ],
        "pollDivisionIds": [
          10138619
        ],
        "postalCode": "L8H4M8",
        "streetName": "ROBINS",
        "streetDirectionId": null,
        "streetTypeId": "AVE",
        "placeName": "HAMILTON",
        "streetNameDisplayText": "ROBINS AVE, HAMILTON"
      }
    ]
  },
  {
    "postal": "L8H2Y1",
    "result": []
  },
  {
    "postal": "L8H6M1",
    "result": [
      {
        "electoralDistricts": [
          {
            "election": null,
            "id": 37,
            "name": "Hamilton East—Stoney Creek"
          }
        ],
        "pollDivisionIds": [
          10138642
        ],
        "postalCode": "L8H6M1",
        "streetName": "TATE",
        "streetDirectionId": null,
        "streetTypeId": "AVE",
        "placeName": "HAMILTON",
        "streetNameDisplayText": "TATE AVE, HAMILTON"
      }
    ]
  },
  {
    "postal": "L8H5L8",
    "result": [
      {
        "electoralDistricts": [
          {
            "election": null,
            "id": 37,
            "name": "Hamilton East—Stoney Creek"
          }
        ],
        "pollDivisionIds": [
          10138647
        ],
        "postalCode": "L8H5L8",
        "streetName": "SELKIRK",
        "streetDirectionId": null,
        "streetTypeId": "AVE",
        "placeName": "HAMILTON",
        "streetNameDisplayText": "SELKIRK AVE, HAMILTON"
      }
    ]
  },
  {
    "postal": "L8H3P6",
    "result": [
      {
        "electoralDistricts": [
          {
            "election": null,
            "id": 37,
            "name": "Hamilton East—Stoney Creek"
          }
        ],
        "pollDivisionIds": [
          10138642
        ],
        "postalCode": "L8H3P6",
        "streetName": "RENNIE",
        "streetDirectionId": null,
        "streetTypeId": "ST",
        "placeName": "HAMILTON",
        "streetNameDisplayText": "RENNIE ST, HAMILTON"
      }
    ]
  },
  {
    "postal": "L8H9A5",
    "result": []
  },
  {
    "postal": "L8H7K1",
    "result": []
  },
  {
    "postal": "L8H3J4",
    "result": [
      {
        "electoralDistricts": [
          {
            "election": null,
            "id": 36,
            "name": "Hamilton Centre"
          }
        ],
        "pollDivisionIds": [
          10138620
        ],
        "postalCode": "L8H3J4",
        "streetName": "GRENFELL",
        "streetDirectionId": null,
        "streetTypeId": "ST",
        "placeName": "HAMILTON",
        "streetNameDisplayText": "GRENFELL ST, HAMILTON"
      }
    ]
  },
  {
    "postal": "L8H5E7",
    "result": [
      {
        "electoralDistricts": [
          {
            "election": null,
            "id": 37,
            "name": "Hamilton East—Stoney Creek"
          }
        ],
        "pollDivisionIds": [
          10138646
        ],
        "postalCode": "L8H5E7",
        "streetName": "WEIR",
        "streetDirectionId": "N",
        "streetTypeId": "ST",
        "placeName": "HAMILTON",
        "streetNameDisplayText": "WEIR ST N, HAMILTON"
      }
    ]
  },
  {
    "postal": "L8H3A7",
    "result": [
      {
        "electoralDistricts": [
          {
            "election": null,
            "id": 37,
            "name": "Hamilton East—Stoney Creek"
          }
        ],
        "pollDivisionIds": [
          10138641
        ],
        "postalCode": "L8H3A7",
        "streetName": "VANSITMART",
        "streetDirectionId": null,
        "streetTypeId": "AVE",
        "placeName": "HAMILTON",
        "streetNameDisplayText": "VANSITMART AVE, HAMILTON"
      }
    ]
  },
  {
    "postal": "L8H1B9",
    "result": [
      {
        "electoralDistricts": [
          {
            "election": null,
            "id": 37,
            "name": "Hamilton East—Stoney Creek"
          }
        ],
        "pollDivisionIds": [
          10138654
        ],
        "postalCode": "L8H1B9",
        "streetName": "BELAND",
        "streetDirectionId": "S",
        "streetTypeId": "AVE",
        "placeName": "HAMILTON",
        "streetNameDisplayText": "BELAND AVE S, HAMILTON"
      }
    ]
  },
  {
    "postal": "L8H9E8",
    "result": []
  },
  {
    "postal": "L8H1C9",
    "result": [
      {
        "electoralDistricts": [
          {
            "election": null,
            "id": 37,
            "name": "Hamilton East—Stoney Creek"
          }
        ],
        "pollDivisionIds": [
          10138647
        ],
        "postalCode": "L8H1C9",
        "streetName": "MAIN",
        "streetDirectionId": "E",
        "streetTypeId": "ST",
        "placeName": "HAMILTON",
        "streetNameDisplayText": "MAIN ST E, HAMILTON"
      }
    ]
  },
  {
    "postal": "L8H3B5",
    "result": [
      {
        "electoralDistricts": [
          {
            "election": null,
            "id": 37,
            "name": "Hamilton East—Stoney Creek"
          }
        ],
        "pollDivisionIds": [
          10138642
        ],
        "postalCode": "L8H3B5",
        "streetName": "VANSITMART",
        "streetDirectionId": null,
        "streetTypeId": "AVE",
        "placeName": "HAMILTON",
        "streetNameDisplayText": "VANSITMART AVE, HAMILTON"
      }
    ]
  },
  {
    "postal": "L8H8R0",
    "result": []
  },
  {
    "postal": "L8H3P2",
    "result": [
      {
        "electoralDistricts": [
          {
            "election": null,
            "id": 37,
            "name": "Hamilton East—Stoney Creek"
          }
        ],
        "pollDivisionIds": [
          10138641
        ],
        "postalCode": "L8H3P2",
        "streetName": "ROOSEVELT",
        "streetDirectionId": null,
        "streetTypeId": "AVE",
        "placeName": "HAMILTON",
        "streetNameDisplayText": "ROOSEVELT AVE, HAMILTON"
      }
    ]
  },
  {
    "postal": "L8H5V4",
    "result": [
      {
        "electoralDistricts": [
          {
            "election": null,
            "id": 37,
            "name": "Hamilton East—Stoney Creek"
          }
        ],
        "pollDivisionIds": [
          10138642
        ],
        "postalCode": "L8H5V4",
        "streetName": "ADELINE",
        "streetDirectionId": null,
        "streetTypeId": "AVE",
        "placeName": "HAMILTON",
        "streetNameDisplayText": "ADELINE AVE, HAMILTON"
      }
    ]
  },
  {
    "postal": "L8H4H0",
    "result": []
  },
  {
    "postal": "L8H4S7",
    "result": [
      {
        "electoralDistricts": [
          {
            "election": null,
            "id": 37,
            "name": "Hamilton East—Stoney Creek"
          }
        ],
        "pollDivisionIds": [
          10138641
        ],
        "postalCode": "L8H4S7",
        "streetName": "KENILWORTH",
        "streetDirectionId": "N",
        "streetTypeId": "AVE",
        "placeName": "HAMILTON",
        "streetNameDisplayText": "KENILWORTH AVE N, HAMILTON"
      }
    ]
  },
  {
    "postal": "L8H6C2",
    "result": [
      {
        "electoralDistricts": [
          {
            "election": null,
            "id": 37,
            "name": "Hamilton East—Stoney Creek"
          }
        ],
        "pollDivisionIds": [
          10138647
        ],
        "postalCode": "L8H6C2",
        "streetName": "BELAND",
        "streetDirectionId": "N",
        "streetTypeId": "AVE",
        "placeName": "HAMILTON",
        "streetNameDisplayText": "BELAND AVE N, HAMILTON"
      }
    ]
  },
  {
    "postal": "L8H8W3",
    "result": []
  },
  {
    "postal": "L8H4M5",
    "result": [
      {
        "electoralDistricts": [
          {
            "election": null,
            "id": 36,
            "name": "Hamilton Centre"
          }
        ],
        "pollDivisionIds": [
          10138619
        ],
        "postalCode": "L8H4M5",
        "streetName": "ROBINS",
        "streetDirectionId": null,
        "streetTypeId": "AVE",
        "placeName": "HAMILTON",
        "streetNameDisplayText": "ROBINS AVE, HAMILTON"
      }
    ]
  },
  {
    "postal": "L8H5T1",
    "result": [
      {
        "electoralDistricts": [
          {
            "election": null,
            "id": 37,
            "name": "Hamilton East—Stoney Creek"
          }
        ],
        "pollDivisionIds": [
          10138642
        ],
        "postalCode": "L8H5T1",
        "streetName": "IVON",
        "streetDirectionId": null,
        "streetTypeId": "AVE",
        "placeName": "HAMILTON",
        "streetNameDisplayText": "IVON AVE, HAMILTON"
      }
    ]
  },
  {
    "postal": "L8H3B3",
    "result": [
      {
        "electoralDistricts": [
          {
            "election": null,
            "id": 37,
            "name": "Hamilton East—Stoney Creek"
          }
        ],
        "pollDivisionIds": [
          10138642
        ],
        "postalCode": "L8H3B3",
        "streetName": "VANSITMART",
        "streetDirectionId": null,
        "streetTypeId": "AVE",
        "placeName": "HAMILTON",
        "streetNameDisplayText": "VANSITMART AVE, HAMILTON"
      }
    ]
  },
  {
    "postal": "L8H6C6",
    "result": [
      {
        "electoralDistricts": [
          {
            "election": null,
            "id": 37,
            "name": "Hamilton East—Stoney Creek"
          }
        ],
        "pollDivisionIds": [
          10138647
        ],
        "postalCode": "L8H6C6",
        "streetName": "BERNARD",
        "streetDirectionId": null,
        "streetTypeId": "ST",
        "placeName": "HAMILTON",
        "streetNameDisplayText": "BERNARD ST, HAMILTON"
      }
    ]
  },
  {
    "postal": "L8H7N8",
    "result": [
      {
        "electoralDistricts": [
          {
            "election": null,
            "id": 37,
            "name": "Hamilton East—Stoney Creek"
          }
        ],
        "pollDivisionIds": [
          10138640
        ],
        "postalCode": "L8H7N8",
        "streetName": "STRATHEARNE",
        "streetDirectionId": null,
        "streetTypeId": "AVE",
        "placeName": "HAMILTON",
        "streetNameDisplayText": "STRATHEARNE AVE, HAMILTON"
      }
    ]
  },
  {
    "postal": "L8H2Y3",
    "result": [
      {
        "electoralDistricts": [
          {
            "election": null,
            "id": 36,
            "name": "Hamilton Centre"
          }
        ],
        "pollDivisionIds": [
          10138620
        ],
        "postalCode": "L8H2Y3",
        "streetName": "BARTON",
        "streetDirectionId": "E",
        "streetTypeId": "ST",
        "placeName": "HAMILTON",
        "streetNameDisplayText": "BARTON ST E, HAMILTON"
      }
    ]
  },
  {
    "postal": "L8H2R6",
    "result": [
      {
        "electoralDistricts": [
          {
            "election": null,
            "id": 37,
            "name": "Hamilton East—Stoney Creek"
          }
        ],
        "pollDivisionIds": [
          10138648
        ],
        "postalCode": "L8H2R6",
        "streetName": "KENTLEY",
        "streetDirectionId": null,
        "streetTypeId": "DR",
        "placeName": "HAMILTON",
        "streetNameDisplayText": "KENTLEY DR, HAMILTON"
      }
    ]
  },
  {
    "postal": "L8H7N3",
    "result": []
  },
  {
    "postal": "L8H8J2",
    "result": []
  },
  {
    "postal": "L8H6A9",
    "result": [
      {
        "electoralDistricts": [
          {
            "election": null,
            "id": 37,
            "name": "Hamilton East—Stoney Creek"
          }
        ],
        "pollDivisionIds": [
          10138647
        ],
        "postalCode": "L8H6A9",
        "streetName": "ADAIR",
        "streetDirectionId": "N",
        "streetTypeId": "AVE",
        "placeName": "HAMILTON",
        "streetNameDisplayText": "ADAIR AVE N, HAMILTON"
      }
    ]
  },
  {
    "postal": "L8H3V2",
    "result": [
      {
        "electoralDistricts": [
          {
            "election": null,
            "id": 37,
            "name": "Hamilton East—Stoney Creek"
          }
        ],
        "pollDivisionIds": [
          10138642
        ],
        "postalCode": "L8H3V2",
        "streetName": "MEAD",
        "streetDirectionId": null,
        "streetTypeId": "AVE",
        "placeName": "HAMILTON",
        "streetNameDisplayText": "MEAD AVE, HAMILTON"
      }
    ]
  },
  {
    "postal": "L8H2N3",
    "result": [
      {
        "electoralDistricts": [
          {
            "election": null,
            "id": 37,
            "name": "Hamilton East—Stoney Creek"
          }
        ],
        "pollDivisionIds": [
          10138648
        ],
        "postalCode": "L8H2N3",
        "streetName": "NUGENT",
        "streetDirectionId": null,
        "streetTypeId": "DR",
        "placeName": "HAMILTON",
        "streetNameDisplayText": "NUGENT DR, HAMILTON"
      }
    ]
  },
  {
    "postal": "L8H1S5",
    "result": [
      {
        "electoralDistricts": [
          {
            "election": null,
            "id": 37,
            "name": "Hamilton East—Stoney Creek"
          }
        ],
        "pollDivisionIds": [
          10138647
        ],
        "postalCode": "L8H1S5",
        "streetName": "ROXBOROUGH",
        "streetDirectionId": null,
        "streetTypeId": "AVE",
        "placeName": "HAMILTON",
        "streetNameDisplayText": "ROXBOROUGH AVE, HAMILTON"
      }
    ]
  },
  {
    "postal": "L8H4T7",
    "result": []
  },
  {
    "postal": "L8H6Y7",
    "result": [
      {
        "electoralDistricts": [
          {
            "election": null,
            "id": 37,
            "name": "Hamilton East—Stoney Creek"
          }
        ],
        "pollDivisionIds": [
          10138640
        ],
        "postalCode": "L8H6Y7",
        "streetName": "BEACH",
        "streetDirectionId": null,
        "streetTypeId": "BLVD",
        "placeName": "HAMILTON",
        "streetNameDisplayText": "BEACH BLVD, HAMILTON"
      }
    ]
  },
  {
    "postal": "L8H0W7",
    "result": []
  },
  {
    "postal": "L8H2W9",
    "result": [
      {
        "electoralDistricts": [
          {
            "election": null,
            "id": 37,
            "name": "Hamilton East—Stoney Creek"
          }
        ],
        "pollDivisionIds": [
          10138641
        ],
        "postalCode": "L8H2W9",
        "streetName": "BARTON",
        "streetDirectionId": "E",
        "streetTypeId": "ST",
        "placeName": "HAMILTON",
        "streetNameDisplayText": "BARTON ST E, HAMILTON"
      }
    ]
  },
  {
    "postal": "L8H8V0",
    "result": []
  },
  {
    "postal": "L8H0H4",
    "result": []
  },
  {
    "postal": "L8H2T1",
    "result": [
      {
        "electoralDistricts": [
          {
            "election": null,
            "id": 36,
            "name": "Hamilton Centre"
          }
        ],
        "pollDivisionIds": [
          10138619
        ],
        "postalCode": "L8H2T1",
        "streetName": "ARGYLE",
        "streetDirectionId": null,
        "streetTypeId": "AVE",
        "placeName": "HAMILTON",
        "streetNameDisplayText": "ARGYLE AVE, HAMILTON"
      }
    ]
  },
  {
    "postal": "L8H1B1",
    "result": [
      {
        "electoralDistricts": [
          {
            "election": null,
            "id": 37,
            "name": "Hamilton East—Stoney Creek"
          }
        ],
        "pollDivisionIds": [
          10138654
        ],
        "postalCode": "L8H1B1",
        "streetName": "PARKDALE",
        "streetDirectionId": "S",
        "streetTypeId": "AVE",
        "placeName": "HAMILTON",
        "streetNameDisplayText": "PARKDALE AVE S, HAMILTON"
      }
    ]
  },
  {
    "postal": "L8H8B6",
    "result": []
  },
  {
    "postal": "L8H6H1",
    "result": [
      {
        "electoralDistricts": [
          {
            "election": null,
            "id": 37,
            "name": "Hamilton East—Stoney Creek"
          }
        ],
        "pollDivisionIds": [
          10138642
        ],
        "postalCode": "L8H6H1",
        "streetName": "BRIGHTON",
        "streetDirectionId": null,
        "streetTypeId": "AVE",
        "placeName": "HAMILTON",
        "streetNameDisplayText": "BRIGHTON AVE, HAMILTON"
      }
    ]
  },
  {
    "postal": "L8H8T8",
    "result": []
  },
  {
    "postal": "L8H0T4",
    "result": []
  },
  {
    "postal": "L8H2C4",
    "result": [
      {
        "electoralDistricts": [
          {
            "election": null,
            "id": 36,
            "name": "Hamilton Centre"
          }
        ],
        "pollDivisionIds": [
          10138620
        ],
        "postalCode": "L8H2C4",
        "streetName": "EDINBURGH",
        "streetDirectionId": null,
        "streetTypeId": "AVE",
        "placeName": "HAMILTON",
        "streetNameDisplayText": "EDINBURGH AVE, HAMILTON"
      }
    ]
  },
  {
    "postal": "L8H8N3",
    "result": []
  },
  {
    "postal": "L8H4L8",
    "result": [
      {
        "electoralDistricts": [
          {
            "election": null,
            "id": 36,
            "name": "Hamilton Centre"
          }
        ],
        "pollDivisionIds": [
          10138619
        ],
        "postalCode": "L8H4L8",
        "streetName": "ELLIS",
        "streetDirectionId": null,
        "streetTypeId": "AVE",
        "placeName": "HAMILTON",
        "streetNameDisplayText": "ELLIS AVE, HAMILTON"
      }
    ]
  },
  {
    "postal": "L8H2B5",
    "result": [
      {
        "electoralDistricts": [
          {
            "election": null,
            "id": 37,
            "name": "Hamilton East—Stoney Creek"
          }
        ],
        "pollDivisionIds": [
          10138647
        ],
        "postalCode": "L8H2B5",
        "streetName": "BRITANNIA",
        "streetDirectionId": null,
        "streetTypeId": "AVE",
        "placeName": "HAMILTON",
        "streetNameDisplayText": "BRITANNIA AVE, HAMILTON"
      }
    ]
  },
  {
    "postal": "L8H3H1",
    "result": [
      {
        "electoralDistricts": [
          {
            "election": null,
            "id": 36,
            "name": "Hamilton Centre"
          }
        ],
        "pollDivisionIds": [
          10138620
        ],
        "postalCode": "L8H3H1",
        "streetName": "MCANULTY",
        "streetDirectionId": null,
        "streetTypeId": "BLVD",
        "placeName": "HAMILTON",
        "streetNameDisplayText": "MCANULTY BLVD, HAMILTON"
      }
    ]
  },
  {
    "postal": "L8H4Y1",
    "result": [
      {
        "electoralDistricts": [
          {
            "election": null,
            "id": 37,
            "name": "Hamilton East—Stoney Creek"
          }
        ],
        "pollDivisionIds": [
          10138641
        ],
        "postalCode": "L8H4Y1",
        "streetName": "HARMONY",
        "streetDirectionId": null,
        "streetTypeId": "AVE",
        "placeName": "HAMILTON",
        "streetNameDisplayText": "HARMONY AVE, HAMILTON"
      }
    ]
  },
  {
    "postal": "L8H7E2",
    "result": [
      {
        "electoralDistricts": [
          {
            "election": null,
            "id": 37,
            "name": "Hamilton East—Stoney Creek"
          }
        ],
        "pollDivisionIds": [
          10138640
        ],
        "postalCode": "L8H7E2",
        "streetName": "GRANVILLE",
        "streetDirectionId": null,
        "streetTypeId": "AVE",
        "placeName": "HAMILTON",
        "streetNameDisplayText": "GRANVILLE AVE, HAMILTON"
      }
    ]
  },
  {
    "postal": "L8H2P5",
    "result": [
      {
        "electoralDistricts": [
          {
            "election": null,
            "id": 37,
            "name": "Hamilton East—Stoney Creek"
          }
        ],
        "pollDivisionIds": [
          10138648
        ],
        "postalCode": "L8H2P5",
        "streetName": "NASH",
        "streetDirectionId": "N",
        "streetTypeId": "RD",
        "placeName": "HAMILTON",
        "streetNameDisplayText": "NASH RD N, HAMILTON"
      }
    ]
  },
  {
    "postal": "L8H8R7",
    "result": []
  },
  {
    "postal": "L8H9P1",
    "result": []
  },
  {
    "postal": "L8H3B8",
    "result": [
      {
        "electoralDistricts": [
          {
            "election": null,
            "id": 37,
            "name": "Hamilton East—Stoney Creek"
          }
        ],
        "pollDivisionIds": [
          10138642
        ],
        "postalCode": "L8H3B8",
        "streetName": "VANSITMART",
        "streetDirectionId": null,
        "streetTypeId": "AVE",
        "placeName": "HAMILTON",
        "streetNameDisplayText": "VANSITMART AVE, HAMILTON"
      }
    ]
  },
  {
    "postal": "L8H3P7",
    "result": [
      {
        "electoralDistricts": [
          {
            "election": null,
            "id": 37,
            "name": "Hamilton East—Stoney Creek"
          }
        ],
        "pollDivisionIds": [
          10138642
        ],
        "postalCode": "L8H3P7",
        "streetName": "RENNIE",
        "streetDirectionId": null,
        "streetTypeId": "ST",
        "placeName": "HAMILTON",
        "streetNameDisplayText": "RENNIE ST, HAMILTON"
      }
    ]
  },
  {
    "postal": "L8H9B2",
    "result": []
  },
  {
    "postal": "L8H6Z3",
    "result": [
      {
        "electoralDistricts": [
          {
            "election": null,
            "id": 37,
            "name": "Hamilton East—Stoney Creek"
          }
        ],
        "pollDivisionIds": [
          10138640
        ],
        "postalCode": "L8H6Z3",
        "streetName": "BEACH",
        "streetDirectionId": null,
        "streetTypeId": "BLVD",
        "placeName": "HAMILTON",
        "streetNameDisplayText": "BEACH BLVD, HAMILTON"
      }
    ]
  },
  {
    "postal": "L8H4N5",
    "result": [
      {
        "electoralDistricts": [
          {
            "election": null,
            "id": 36,
            "name": "Hamilton Centre"
          }
        ],
        "pollDivisionIds": [
          10138619
        ],
        "postalCode": "L8H4N5",
        "streetName": "ROBINS",
        "streetDirectionId": null,
        "streetTypeId": "AVE",
        "placeName": "HAMILTON",
        "streetNameDisplayText": "ROBINS AVE, HAMILTON"
      }
    ]
  },
  {
    "postal": "L8H8T3",
    "result": []
  },
  {
    "postal": "L8H1V2",
    "result": [
      {
        "electoralDistricts": [
          {
            "election": null,
            "id": 36,
            "name": "Hamilton Centre"
          }
        ],
        "pollDivisionIds": [
          10138620
        ],
        "postalCode": "L8H1V2",
        "streetName": "CANNON",
        "streetDirectionId": "E",
        "streetTypeId": "ST",
        "placeName": "HAMILTON",
        "streetNameDisplayText": "CANNON ST E, HAMILTON"
      }
    ]
  },
  {
    "postal": "L8H1Y0",
    "result": []
  },
  {
    "postal": "L8H3G6",
    "result": []
  },
  {
    "postal": "L8H3H7",
    "result": [
      {
        "electoralDistricts": [
          {
            "election": null,
            "id": 36,
            "name": "Hamilton Centre"
          }
        ],
        "pollDivisionIds": [
          10138620
        ],
        "postalCode": "L8H3H7",
        "streetName": "MCANULTY",
        "streetDirectionId": null,
        "streetTypeId": "BLVD",
        "placeName": "HAMILTON",
        "streetNameDisplayText": "MCANULTY BLVD, HAMILTON"
      }
    ]
  },
  {
    "postal": "L8H7X8",
    "result": []
  },
  {
    "postal": "L8H0C7",
    "result": []
  },
  {
    "postal": "L8H0W9",
    "result": []
  },
  {
    "postal": "L8H8E6",
    "result": []
  },
  {
    "postal": "L8H9Z8",
    "result": []
  },
  {
    "postal": "L8H3P4",
    "result": [
      {
        "electoralDistricts": [
          {
            "election": null,
            "id": 37,
            "name": "Hamilton East—Stoney Creek"
          }
        ],
        "pollDivisionIds": [
          10138641
        ],
        "postalCode": "L8H3P4",
        "streetName": "BEATTY",
        "streetDirectionId": null,
        "streetTypeId": "AVE",
        "placeName": "HAMILTON",
        "streetNameDisplayText": "BEATTY AVE, HAMILTON"
      }
    ]
  },
  {
    "postal": "L8H6L8",
    "result": [
      {
        "electoralDistricts": [
          {
            "election": null,
            "id": 37,
            "name": "Hamilton East—Stoney Creek"
          }
        ],
        "pollDivisionIds": [
          10138642
        ],
        "postalCode": "L8H6L8",
        "streetName": "TATE",
        "streetDirectionId": null,
        "streetTypeId": "AVE",
        "placeName": "HAMILTON",
        "streetNameDisplayText": "TATE AVE, HAMILTON"
      }
    ]
  },
  {
    "postal": "L8H2R4",
    "result": [
      {
        "electoralDistricts": [
          {
            "election": null,
            "id": 37,
            "name": "Hamilton East—Stoney Creek"
          }
        ],
        "pollDivisionIds": [
          10138648
        ],
        "postalCode": "L8H2R4",
        "streetName": "SANDLYN",
        "streetDirectionId": null,
        "streetTypeId": "CRT",
        "placeName": "HAMILTON",
        "streetNameDisplayText": "SANDLYN CRT, HAMILTON"
      }
    ]
  },
  {
    "postal": "L8H2W1",
    "result": [
      {
        "electoralDistricts": [
          {
            "election": null,
            "id": 36,
            "name": "Hamilton Centre"
          },
          {
            "election": null,
            "id": 37,
            "name": "Hamilton East—Stoney Creek"
          }
        ],
        "pollDivisionIds": [
          10138619,
          10138669
        ],
        "postalCode": "L8H2W1",
        "streetName": "BARTON",
        "streetDirectionId": "E",
        "streetTypeId": "ST",
        "placeName": "HAMILTON",
        "streetNameDisplayText": "BARTON ST E, HAMILTON"
      }
    ]
  },
  {
    "postal": "L8H9H8",
    "result": []
  },
  {
    "postal": "L8H8X9",
    "result": []
  },
  {
    "postal": "L8H7H4",
    "result": [
      {
        "electoralDistricts": [
          {
            "election": null,
            "id": 37,
            "name": "Hamilton East—Stoney Creek"
          }
        ],
        "pollDivisionIds": [
          10138640
        ],
        "postalCode": "L8H7H4",
        "streetName": "DUNRAVEN",
        "streetDirectionId": null,
        "streetTypeId": "AVE",
        "placeName": "HAMILTON",
        "streetNameDisplayText": "DUNRAVEN AVE, HAMILTON"
      }
    ]
  },
  {
    "postal": "L8H3J1",
    "result": [
      {
        "electoralDistricts": [
          {
            "election": null,
            "id": 36,
            "name": "Hamilton Centre"
          }
        ],
        "pollDivisionIds": [
          10138620
        ],
        "postalCode": "L8H3J1",
        "streetName": "MCANULTY",
        "streetDirectionId": null,
        "streetTypeId": "BLVD",
        "placeName": "HAMILTON",
        "streetNameDisplayText": "MCANULTY BLVD, HAMILTON"
      }
    ]
  },
  {
    "postal": "L8H1P4",
    "result": [
      {
        "electoralDistricts": [
          {
            "election": null,
            "id": 36,
            "name": "Hamilton Centre"
          }
        ],
        "pollDivisionIds": [
          10138619
        ],
        "postalCode": "L8H1P4",
        "streetName": "ROXBOROUGH",
        "streetDirectionId": null,
        "streetTypeId": "AVE",
        "placeName": "HAMILTON",
        "streetNameDisplayText": "ROXBOROUGH AVE, HAMILTON"
      }
    ]
  },
  {
    "postal": "L8H2A3",
    "result": [
      {
        "electoralDistricts": [
          {
            "election": null,
            "id": 37,
            "name": "Hamilton East—Stoney Creek"
          }
        ],
        "pollDivisionIds": [
          10138642
        ],
        "postalCode": "L8H2A3",
        "streetName": "BRITANNIA",
        "streetDirectionId": null,
        "streetTypeId": "AVE",
        "placeName": "HAMILTON",
        "streetNameDisplayText": "BRITANNIA AVE, HAMILTON"
      }
    ]
  },
  {
    "postal": "L8H0Z1",
    "result": []
  },
  {
    "postal": "L8H1C1",
    "result": [
      {
        "electoralDistricts": [
          {
            "election": null,
            "id": 37,
            "name": "Hamilton East—Stoney Creek"
          }
        ],
        "pollDivisionIds": [
          10138647
        ],
        "postalCode": "L8H1C1",
        "streetName": "REID",
        "streetDirectionId": "S",
        "streetTypeId": "AVE",
        "placeName": "HAMILTON",
        "streetNameDisplayText": "REID AVE S, HAMILTON"
      }
    ]
  },
  {
    "postal": "L8H0H3",
    "result": []
  },
  {
    "postal": "L8H7B0",
    "result": []
  },
  {
    "postal": "L8H5K2",
    "result": [
      {
        "electoralDistricts": [
          {
            "election": null,
            "id": 37,
            "name": "Hamilton East—Stoney Creek"
          }
        ],
        "pollDivisionIds": [
          10138641
        ],
        "postalCode": "L8H5K2",
        "streetName": "PALING",
        "streetDirectionId": null,
        "streetTypeId": "AVE",
        "placeName": "HAMILTON",
        "streetNameDisplayText": "PALING AVE, HAMILTON"
      }
    ]
  },
  {
    "postal": "L8H1E9",
    "result": [
      {
        "electoralDistricts": [
          {
            "election": null,
            "id": 37,
            "name": "Hamilton East—Stoney Creek"
          }
        ],
        "pollDivisionIds": [
          10138647
        ],
        "postalCode": "L8H1E9",
        "streetName": "MAIN",
        "streetDirectionId": "E",
        "streetTypeId": "ST",
        "placeName": "HAMILTON",
        "streetNameDisplayText": "MAIN ST E, HAMILTON"
      }
    ]
  },
  {
    "postal": "L8H9W7",
    "result": []
  },
  {
    "postal": "L8H5W6",
    "result": [
      {
        "electoralDistricts": [
          {
            "election": null,
            "id": 37,
            "name": "Hamilton East—Stoney Creek"
          }
        ],
        "pollDivisionIds": [
          10138642
        ],
        "postalCode": "L8H5W6",
        "streetName": "GLENNIE",
        "streetDirectionId": null,
        "streetTypeId": "AVE",
        "placeName": "HAMILTON",
        "streetNameDisplayText": "GLENNIE AVE, HAMILTON"
      }
    ]
  },
  {
    "postal": "L8H6S6",
    "result": [
      {
        "electoralDistricts": [
          {
            "election": null,
            "id": 37,
            "name": "Hamilton East—Stoney Creek"
          }
        ],
        "pollDivisionIds": [
          10138642
        ],
        "postalCode": "L8H6S6",
        "streetName": "OSBORNE",
        "streetDirectionId": null,
        "streetTypeId": "ST",
        "placeName": "HAMILTON",
        "streetNameDisplayText": "OSBORNE ST, HAMILTON"
      }
    ]
  },
  {
    "postal": "L8H2P8",
    "result": [
      {
        "electoralDistricts": [
          {
            "election": null,
            "id": 37,
            "name": "Hamilton East—Stoney Creek"
          }
        ],
        "pollDivisionIds": [
          10138648
        ],
        "postalCode": "L8H2P8",
        "streetName": "NASH",
        "streetDirectionId": "N",
        "streetTypeId": "RD",
        "placeName": "HAMILTON",
        "streetNameDisplayText": "NASH RD N, HAMILTON"
      }
    ]
  },
  {
    "postal": "L8H4P8",
    "result": [
      {
        "electoralDistricts": [
          {
            "election": null,
            "id": 36,
            "name": "Hamilton Centre"
          }
        ],
        "pollDivisionIds": [
          10138619
        ],
        "postalCode": "L8H4P8",
        "streetName": "ALLANDALE",
        "streetDirectionId": null,
        "streetTypeId": "ST",
        "placeName": "HAMILTON",
        "streetNameDisplayText": "ALLANDALE ST, HAMILTON"
      }
    ]
  },
  {
    "postal": "L8H0V9",
    "result": []
  },
  {
    "postal": "L8H5Y2",
    "result": [
      {
        "electoralDistricts": [
          {
            "election": null,
            "id": 37,
            "name": "Hamilton East—Stoney Creek"
          }
        ],
        "pollDivisionIds": [
          10138642
        ],
        "postalCode": "L8H5Y2",
        "streetName": "PARKDALE",
        "streetDirectionId": "N",
        "streetTypeId": "AVE",
        "placeName": "HAMILTON",
        "streetNameDisplayText": "PARKDALE AVE N, HAMILTON"
      }
    ]
  },
  {
    "postal": "L8H7Z7",
    "result": []
  },
  {
    "postal": "L8H6Y8",
    "result": [
      {
        "electoralDistricts": [
          {
            "election": null,
            "id": 37,
            "name": "Hamilton East—Stoney Creek"
          }
        ],
        "pollDivisionIds": [
          10138640
        ],
        "postalCode": "L8H6Y8",
        "streetName": "BEACH",
        "streetDirectionId": null,
        "streetTypeId": "BLVD",
        "placeName": "HAMILTON",
        "streetNameDisplayText": "BEACH BLVD, HAMILTON"
      }
    ]
  },
  {
    "postal": "L8H2G7",
    "result": [
      {
        "electoralDistricts": [
          {
            "election": null,
            "id": 36,
            "name": "Hamilton Centre"
          }
        ],
        "pollDivisionIds": [
          10138619
        ],
        "postalCode": "L8H2G7",
        "streetName": "CAMPBELL",
        "streetDirectionId": null,
        "streetTypeId": "AVE",
        "placeName": "HAMILTON",
        "streetNameDisplayText": "CAMPBELL AVE, HAMILTON"
      }
    ]
  },
  {
    "postal": "L8H8C1",
    "result": []
  },
  {
    "postal": "L8H5C5",
    "result": [
      {
        "electoralDistricts": [
          {
            "election": null,
            "id": 37,
            "name": "Hamilton East—Stoney Creek"
          }
        ],
        "pollDivisionIds": [
          10138646
        ],
        "postalCode": "L8H5C5",
        "streetName": "TRAGINA",
        "streetDirectionId": "N",
        "streetTypeId": "AVE",
        "placeName": "HAMILTON",
        "streetNameDisplayText": "TRAGINA AVE N, HAMILTON"
      }
    ]
  },
  {
    "postal": "L8H2X8",
    "result": [
      {
        "electoralDistricts": [
          {
            "election": null,
            "id": 37,
            "name": "Hamilton East—Stoney Creek"
          }
        ],
        "pollDivisionIds": [
          10138642
        ],
        "postalCode": "L8H2X8",
        "streetName": "BARTON",
        "streetDirectionId": "E",
        "streetTypeId": "ST",
        "placeName": "HAMILTON",
        "streetNameDisplayText": "BARTON ST E, HAMILTON"
      }
    ]
  },
  {
    "postal": "L8H1W5",
    "result": [
      {
        "electoralDistricts": [
          {
            "election": null,
            "id": 36,
            "name": "Hamilton Centre"
          }
        ],
        "pollDivisionIds": [
          10138620
        ],
        "postalCode": "L8H1W5",
        "streetName": "BRITANNIA",
        "streetDirectionId": null,
        "streetTypeId": "AVE",
        "placeName": "HAMILTON",
        "streetNameDisplayText": "BRITANNIA AVE, HAMILTON"
      }
    ]
  },
  {
    "postal": "L8H7G0",
    "result": []
  },
  {
    "postal": "L8H8J8",
    "result": []
  },
  {
    "postal": "L8H3Y0",
    "result": []
  },
  {
    "postal": "L8H9T7",
    "result": []
  },
  {
    "postal": "L8H5P4",
    "result": [
      {
        "electoralDistricts": [
          {
            "election": null,
            "id": 37,
            "name": "Hamilton East—Stoney Creek"
          }
        ],
        "pollDivisionIds": [
          10138642
        ],
        "postalCode": "L8H5P4",
        "streetName": "TOLTON",
        "streetDirectionId": null,
        "streetTypeId": "AVE",
        "placeName": "HAMILTON",
        "streetNameDisplayText": "TOLTON AVE, HAMILTON"
      }
    ]
  },
  {
    "postal": "L8H4B0",
    "result": []
  },
  {
    "postal": "L8H9N8",
    "result": []
  },
  {
    "postal": "L8H4A7",
    "result": [
      {
        "electoralDistricts": [
          {
            "election": null,
            "id": 36,
            "name": "Hamilton Centre"
          }
        ],
        "pollDivisionIds": [
          10138620
        ],
        "postalCode": "L8H4A7",
        "streetName": "OTTAWA",
        "streetDirectionId": "N",
        "streetTypeId": "ST",
        "placeName": "HAMILTON",
        "streetNameDisplayText": "OTTAWA ST N, HAMILTON"
      }
    ]
  },
  {
    "postal": "L8H4H9",
    "result": [
      {
        "electoralDistricts": [
          {
            "election": null,
            "id": 36,
            "name": "Hamilton Centre"
          }
        ],
        "pollDivisionIds": [
          10138620
        ],
        "postalCode": "L8H4H9",
        "streetName": "PROVINCE",
        "streetDirectionId": "N",
        "streetTypeId": "ST",
        "placeName": "HAMILTON",
        "streetNameDisplayText": "PROVINCE ST N, HAMILTON"
      }
    ]
  },
  {
    "postal": "L8H6X1",
    "result": [
      {
        "electoralDistricts": [
          {
            "election": null,
            "id": 37,
            "name": "Hamilton East—Stoney Creek"
          }
        ],
        "pollDivisionIds": [
          10138640
        ],
        "postalCode": "L8H6X1",
        "streetName": "BEACH",
        "streetDirectionId": null,
        "streetTypeId": "BLVD",
        "placeName": "HAMILTON",
        "streetNameDisplayText": "BEACH BLVD, HAMILTON"
      }
    ]
  },
  {
    "postal": "L8H9Y7",
    "result": []
  },
  {
    "postal": "L8H2Y5",
    "result": [
      {
        "electoralDistricts": [
          {
            "election": null,
            "id": 37,
            "name": "Hamilton East—Stoney Creek"
          }
        ],
        "pollDivisionIds": [
          10138642
        ],
        "postalCode": "L8H2Y5",
        "streetName": "BARTON",
        "streetDirectionId": "E",
        "streetTypeId": "ST",
        "placeName": "HAMILTON",
        "streetNameDisplayText": "BARTON ST E, HAMILTON"
      }
    ]
  },
  {
    "postal": "L8H8L7",
    "result": []
  },
  {
    "postal": "L8H2A8",
    "result": [
      {
        "electoralDistricts": [
          {
            "election": null,
            "id": 37,
            "name": "Hamilton East—Stoney Creek"
          }
        ],
        "pollDivisionIds": [
          10138647
        ],
        "postalCode": "L8H2A8",
        "streetName": "BRITANNIA",
        "streetDirectionId": null,
        "streetTypeId": "AVE",
        "placeName": "HAMILTON",
        "streetNameDisplayText": "BRITANNIA AVE, HAMILTON"
      }
    ]
  },
  {
    "postal": "L8H2K9",
    "result": [
      {
        "electoralDistricts": [
          {
            "election": null,
            "id": 36,
            "name": "Hamilton Centre"
          }
        ],
        "pollDivisionIds": [
          10138591
        ],
        "postalCode": "L8H2K9",
        "streetName": "MELVIN AVE",
        "streetDirectionId": null,
        "streetTypeId": "AVE",
        "placeName": "HAMILTON",
        "streetNameDisplayText": "MELVIN AVE AVE, HAMILTON"
      },
      {
        "electoralDistricts": [
          {
            "election": null,
            "id": 37,
            "name": "Hamilton East—Stoney Creek"
          }
        ],
        "pollDivisionIds": [
          10138642
        ],
        "postalCode": "L8H2K9",
        "streetName": "MELVIN",
        "streetDirectionId": null,
        "streetTypeId": "AVE",
        "placeName": "HAMILTON",
        "streetNameDisplayText": "MELVIN AVE, HAMILTON"
      }
    ]
  },
  {
    "postal": "L8H3E5",
    "result": [
      {
        "electoralDistricts": [
          {
            "election": null,
            "id": 37,
            "name": "Hamilton East—Stoney Creek"
          }
        ],
        "pollDivisionIds": [
          10138642
        ],
        "postalCode": "L8H3E5",
        "streetName": "WALMER",
        "streetDirectionId": null,
        "streetTypeId": "RD",
        "placeName": "HAMILTON",
        "streetNameDisplayText": "WALMER RD, HAMILTON"
      }
    ]
  },
  {
    "postal": "L8H8N6",
    "result": []
  },
  {
    "postal": "L8H8J4",
    "result": []
  },
  {
    "postal": "L8H4R7",
    "result": [
      {
        "electoralDistricts": [
          {
            "election": null,
            "id": 36,
            "name": "Hamilton Centre"
          }
        ],
        "pollDivisionIds": [
          10138619
        ],
        "postalCode": "L8H4R7",
        "streetName": "KENILWORTH",
        "streetDirectionId": "N",
        "streetTypeId": "AVE",
        "placeName": "HAMILTON",
        "streetNameDisplayText": "KENILWORTH AVE N, HAMILTON"
      }
    ]
  },
  {
    "postal": "L8H9K1",
    "result": []
  },
  {
    "postal": "L8H8E1",
    "result": []
  },
  {
    "postal": "L8H0R1",
    "result": []
  },
  {
    "postal": "L8H4J3",
    "result": [
      {
        "electoralDistricts": [
          {
            "election": null,
            "id": 36,
            "name": "Hamilton Centre"
          }
        ],
        "pollDivisionIds": [
          10138619
        ],
        "postalCode": "L8H4J3",
        "streetName": "PROVINCE",
        "streetDirectionId": "N",
        "streetTypeId": "ST",
        "placeName": "HAMILTON",
        "streetNameDisplayText": "PROVINCE ST N, HAMILTON"
      },
      {
        "electoralDistricts": [
          {
            "election": null,
            "id": 36,
            "name": "Hamilton Centre"
          }
        ],
        "pollDivisionIds": [
          10138619
        ],
        "postalCode": "L8H4J3",
        "streetName": "PROVINCE STREET NORTH",
        "streetDirectionId": "N",
        "streetTypeId": "ST",
        "placeName": "HAMILTON",
        "streetNameDisplayText": "PROVINCE STREET NORTH ST N, HAMILTON"
      }
    ]
  },
  {
    "postal": "L8H7E7",
    "result": [
      {
        "electoralDistricts": [
          {
            "election": null,
            "id": 37,
            "name": "Hamilton East—Stoney Creek"
          }
        ],
        "pollDivisionIds": [
          10138640
        ],
        "postalCode": "L8H7E7",
        "streetName": "GRAFTON",
        "streetDirectionId": null,
        "streetTypeId": "AVE",
        "placeName": "HAMILTON",
        "streetNameDisplayText": "GRAFTON AVE, HAMILTON"
      }
    ]
  },
  {
    "postal": "L8H0J0",
    "result": []
  },
  {
    "postal": "L8H7R8",
    "result": [
      {
        "electoralDistricts": [
          {
            "election": null,
            "id": 37,
            "name": "Hamilton East—Stoney Creek"
          }
        ],
        "pollDivisionIds": [
          10138648
        ],
        "postalCode": "L8H7R8",
        "streetName": "NASH",
        "streetDirectionId": "N",
        "streetTypeId": "RD",
        "placeName": "HAMILTON",
        "streetNameDisplayText": "NASH RD N, HAMILTON"
      }
    ]
  },
  {
    "postal": "L8H9X0",
    "result": []
  },
  {
    "postal": "L8H7P6",
    "result": []
  },
  {
    "postal": "L8H0R7",
    "result": []
  },
  {
    "postal": "L8H5W1",
    "result": [
      {
        "electoralDistricts": [
          {
            "election": null,
            "id": 37,
            "name": "Hamilton East—Stoney Creek"
          }
        ],
        "pollDivisionIds": [
          10138647
        ],
        "postalCode": "L8H5W1",
        "streetName": "GLENNIE",
        "streetDirectionId": null,
        "streetTypeId": "AVE",
        "placeName": "HAMILTON",
        "streetNameDisplayText": "GLENNIE AVE, HAMILTON"
      }
    ]
  },
  {
    "postal": "L8H0K4",
    "result": []
  },
  {
    "postal": "L8H7N9",
    "result": []
  },
  {
    "postal": "L8H1N0",
    "result": []
  },
  {
    "postal": "L8H6P3",
    "result": [
      {
        "electoralDistricts": [
          {
            "election": null,
            "id": 37,
            "name": "Hamilton East—Stoney Creek"
          }
        ],
        "pollDivisionIds": [
          10138642
        ],
        "postalCode": "L8H6P3",
        "streetName": "WOODWARD",
        "streetDirectionId": null,
        "streetTypeId": "AVE",
        "placeName": "HAMILTON",
        "streetNameDisplayText": "WOODWARD AVE, HAMILTON"
      }
    ]
  },
  {
    "postal": "L8H5A1",
    "result": [
      {
        "electoralDistricts": [
          {
            "election": null,
            "id": 37,
            "name": "Hamilton East—Stoney Creek"
          }
        ],
        "pollDivisionIds": [
          10138641
        ],
        "postalCode": "L8H5A1",
        "streetName": "DIVISION",
        "streetDirectionId": null,
        "streetTypeId": "ST",
        "placeName": "HAMILTON",
        "streetNameDisplayText": "DIVISION ST, HAMILTON"
      }
    ]
  },
  {
    "postal": "L8H9M9",
    "result": []
  },
  {
    "postal": "L8H7T6",
    "result": []
  },
  {
    "postal": "L8H3X0",
    "result": []
  },
  {
    "postal": "L8H2T0",
    "result": []
  },
  {
    "postal": "L8H5X9",
    "result": [
      {
        "electoralDistricts": [
          {
            "election": null,
            "id": 37,
            "name": "Hamilton East—Stoney Creek"
          }
        ],
        "pollDivisionIds": [
          10138642
        ],
        "postalCode": "L8H5X9",
        "streetName": "PARKDALE",
        "streetDirectionId": "N",
        "streetTypeId": "AVE",
        "placeName": "HAMILTON",
        "streetNameDisplayText": "PARKDALE AVE N, HAMILTON"
      }
    ]
  },
  {
    "postal": "L8H2R3",
    "result": [
      {
        "electoralDistricts": [
          {
            "election": null,
            "id": 37,
            "name": "Hamilton East—Stoney Creek"
          }
        ],
        "pollDivisionIds": [
          10138648
        ],
        "postalCode": "L8H2R3",
        "streetName": "EUGENE",
        "streetDirectionId": null,
        "streetTypeId": "ST",
        "placeName": "HAMILTON",
        "streetNameDisplayText": "EUGENE ST, HAMILTON"
      }
    ]
  },
  {
    "postal": "L8H5N2",
    "result": [
      {
        "electoralDistricts": [
          {
            "election": null,
            "id": 37,
            "name": "Hamilton East—Stoney Creek"
          }
        ],
        "pollDivisionIds": [
          10138642
        ],
        "postalCode": "L8H5N2",
        "streetName": "NORMANHURST",
        "streetDirectionId": null,
        "streetTypeId": "AVE",
        "placeName": "HAMILTON",
        "streetNameDisplayText": "NORMANHURST AVE, HAMILTON"
      }
    ]
  },
  {
    "postal": "L8H4Y7",
    "result": [
      {
        "electoralDistricts": [
          {
            "election": null,
            "id": 37,
            "name": "Hamilton East—Stoney Creek"
          }
        ],
        "pollDivisionIds": [
          10138641
        ],
        "postalCode": "L8H4Y7",
        "streetName": "HARMONY",
        "streetDirectionId": null,
        "streetTypeId": "AVE",
        "placeName": "HAMILTON",
        "streetNameDisplayText": "HARMONY AVE, HAMILTON"
      }
    ]
  },
  {
    "postal": "L8H7M0",
    "result": []
  },
  {
    "postal": "L8H8P3",
    "result": []
  },
  {
    "postal": "L8H3N3",
    "result": [
      {
        "electoralDistricts": [
          {
            "election": null,
            "id": 36,
            "name": "Hamilton Centre"
          }
        ],
        "pollDivisionIds": [
          10138620
        ],
        "postalCode": "L8H3N3",
        "streetName": "MARTIMAS",
        "streetDirectionId": null,
        "streetTypeId": "AVE",
        "placeName": "HAMILTON",
        "streetNameDisplayText": "MARTIMAS AVE, HAMILTON"
      }
    ]
  },
  {
    "postal": "L8H7S3",
    "result": []
  },
  {
    "postal": "L8H3V9",
    "result": [
      {
        "electoralDistricts": [
          {
            "election": null,
            "id": 37,
            "name": "Hamilton East—Stoney Creek"
          }
        ],
        "pollDivisionIds": [
          10138642
        ],
        "postalCode": "L8H3V9",
        "streetName": "GLOW",
        "streetDirectionId": null,
        "streetTypeId": "AVE",
        "placeName": "HAMILTON",
        "streetNameDisplayText": "GLOW AVE, HAMILTON"
      }
    ]
  },
  {
    "postal": "L8H9N7",
    "result": []
  },
  {
    "postal": "L8H0G4",
    "result": []
  },
  {
    "postal": "L8H2E2",
    "result": [
      {
        "electoralDistricts": [
          {
            "election": null,
            "id": 36,
            "name": "Hamilton Centre"
          }
        ],
        "pollDivisionIds": [
          10138619
        ],
        "postalCode": "L8H2E2",
        "streetName": "HOPE",
        "streetDirectionId": null,
        "streetTypeId": "AVE",
        "placeName": "HAMILTON",
        "streetNameDisplayText": "HOPE AVE, HAMILTON"
      }
    ]
  },
  {
    "postal": "L8H7W8",
    "result": []
  },
  {
    "postal": "L8H7M5",
    "result": [
      {
        "electoralDistricts": [
          {
            "election": null,
            "id": 37,
            "name": "Hamilton East—Stoney Creek"
          }
        ],
        "pollDivisionIds": [
          10138640
        ],
        "postalCode": "L8H7M5",
        "streetName": "BURLINGTON",
        "streetDirectionId": "E",
        "streetTypeId": "ST",
        "placeName": "HAMILTON",
        "streetNameDisplayText": "BURLINGTON ST E, HAMILTON"
      }
    ]
  },
  {
    "postal": "L8H5W8",
    "result": [
      {
        "electoralDistricts": [
          {
            "election": null,
            "id": 37,
            "name": "Hamilton East—Stoney Creek"
          }
        ],
        "pollDivisionIds": [
          10138647
        ],
        "postalCode": "L8H5W8",
        "streetName": "PARKDALE",
        "streetDirectionId": "N",
        "streetTypeId": "AVE",
        "placeName": "HAMILTON",
        "streetNameDisplayText": "PARKDALE AVE N, HAMILTON"
      }
    ]
  },
  {
    "postal": "L8H5E5",
    "result": [
      {
        "electoralDistricts": [
          {
            "election": null,
            "id": 37,
            "name": "Hamilton East—Stoney Creek"
          }
        ],
        "pollDivisionIds": [
          10138641
        ],
        "postalCode": "L8H5E5",
        "streetName": "TRAGINA",
        "streetDirectionId": "N",
        "streetTypeId": "AVE",
        "placeName": "HAMILTON",
        "streetNameDisplayText": "TRAGINA AVE N, HAMILTON"
      }
    ]
  },
  {
    "postal": "L8H1P9",
    "result": [
      {
        "electoralDistricts": [
          {
            "election": null,
            "id": 36,
            "name": "Hamilton Centre"
          }
        ],
        "pollDivisionIds": [
          10138619
        ],
        "postalCode": "L8H1P9",
        "streetName": "ROXBOROUGH",
        "streetDirectionId": null,
        "streetTypeId": "AVE",
        "placeName": "HAMILTON",
        "streetNameDisplayText": "ROXBOROUGH AVE, HAMILTON"
      }
    ]
  },
  {
    "postal": "L8H8V8",
    "result": []
  },
  {
    "postal": "L8H9G8",
    "result": []
  },
  {
    "postal": "L8H8H9",
    "result": []
  },
  {
    "postal": "L8H1Z1",
    "result": [
      {
        "electoralDistricts": [
          {
            "election": null,
            "id": 37,
            "name": "Hamilton East—Stoney Creek"
          }
        ],
        "pollDivisionIds": [
          10138646
        ],
        "postalCode": "L8H1Z1",
        "streetName": "BRITANNIA",
        "streetDirectionId": null,
        "streetTypeId": "AVE",
        "placeName": "HAMILTON",
        "streetNameDisplayText": "BRITANNIA AVE, HAMILTON"
      }
    ]
  },
  {
    "postal": "L8H8M3",
    "result": []
  },
  {
    "postal": "L8H5H6",
    "result": [
      {
        "electoralDistricts": [
          {
            "election": null,
            "id": 37,
            "name": "Hamilton East—Stoney Creek"
          }
        ],
        "pollDivisionIds": [
          10138646
        ],
        "postalCode": "L8H5H6",
        "streetName": "FAIRFIELD",
        "streetDirectionId": null,
        "streetTypeId": "AVE",
        "placeName": "HAMILTON",
        "streetNameDisplayText": "FAIRFIELD AVE, HAMILTON"
      }
    ]
  },
  {
    "postal": "L8H7W7",
    "result": []
  },
  {
    "postal": "L8H4L0",
    "result": []
  },
  {
    "postal": "L8H2N1",
    "result": [
      {
        "electoralDistricts": [
          {
            "election": null,
            "id": 37,
            "name": "Hamilton East—Stoney Creek"
          }
        ],
        "pollDivisionIds": [
          10138648
        ],
        "postalCode": "L8H2N1",
        "streetName": "NUGENT",
        "streetDirectionId": null,
        "streetTypeId": "DR",
        "placeName": "HAMILTON",
        "streetNameDisplayText": "NUGENT DR, HAMILTON"
      }
    ]
  },
  {
    "postal": "L8H2H4",
    "result": [
      {
        "electoralDistricts": [
          {
            "election": null,
            "id": 37,
            "name": "Hamilton East—Stoney Creek"
          }
        ],
        "pollDivisionIds": [
          10138641
        ],
        "postalCode": "L8H2H4",
        "streetName": "ALBANY",
        "streetDirectionId": null,
        "streetTypeId": "AVE",
        "placeName": "HAMILTON",
        "streetNameDisplayText": "ALBANY AVE, HAMILTON"
      }
    ]
  },
  {
    "postal": "L8H5C8",
    "result": [
      {
        "electoralDistricts": [
          {
            "election": null,
            "id": 37,
            "name": "Hamilton East—Stoney Creek"
          }
        ],
        "pollDivisionIds": [
          10138641
        ],
        "postalCode": "L8H5C8",
        "streetName": "TRAGINA",
        "streetDirectionId": "N",
        "streetTypeId": "AVE",
        "placeName": "HAMILTON",
        "streetNameDisplayText": "TRAGINA AVE N, HAMILTON"
      }
    ]
  },
  {
    "postal": "L8H8B0",
    "result": []
  },
  {
    "postal": "L8H1T4",
    "result": [
      {
        "electoralDistricts": [
          {
            "election": null,
            "id": 36,
            "name": "Hamilton Centre"
          }
        ],
        "pollDivisionIds": [
          10138619
        ],
        "postalCode": "L8H1T4",
        "streetName": "CAMBRIDGE",
        "streetDirectionId": null,
        "streetTypeId": "AVE",
        "placeName": "HAMILTON",
        "streetNameDisplayText": "CAMBRIDGE AVE, HAMILTON"
      }
    ]
  },
  {
    "postal": "L8H7N7",
    "result": [
      {
        "electoralDistricts": [
          {
            "election": null,
            "id": 37,
            "name": "Hamilton East—Stoney Creek"
          }
        ],
        "pollDivisionIds": [
          10138640
        ],
        "postalCode": "L8H7N7",
        "streetName": "STRATHEARNE",
        "streetDirectionId": null,
        "streetTypeId": "AVE",
        "placeName": "HAMILTON",
        "streetNameDisplayText": "STRATHEARNE AVE, HAMILTON"
      }
    ]
  },
  {
    "postal": "L8H4L3",
    "result": [
      {
        "electoralDistricts": [
          {
            "election": null,
            "id": 36,
            "name": "Hamilton Centre"
          }
        ],
        "pollDivisionIds": [
          10138619
        ],
        "postalCode": "L8H4L3",
        "streetName": "HOUGHTON",
        "streetDirectionId": "N",
        "streetTypeId": "AVE",
        "placeName": "HAMILTON",
        "streetNameDisplayText": "HOUGHTON AVE N, HAMILTON"
      }
    ]
  },
  {
    "postal": "L8H2N2",
    "result": [
      {
        "electoralDistricts": [
          {
            "election": null,
            "id": 37,
            "name": "Hamilton East—Stoney Creek"
          }
        ],
        "pollDivisionIds": [
          10138648
        ],
        "postalCode": "L8H2N2",
        "streetName": "NUGENT",
        "streetDirectionId": null,
        "streetTypeId": "DR",
        "placeName": "HAMILTON",
        "streetNameDisplayText": "NUGENT DR, HAMILTON"
      }
    ]
  },
  {
    "postal": "L8H4N8",
    "result": [
      {
        "electoralDistricts": [
          {
            "election": null,
            "id": 36,
            "name": "Hamilton Centre"
          }
        ],
        "pollDivisionIds": [
          10138619
        ],
        "postalCode": "L8H4N8",
        "streetName": "ROBINS",
        "streetDirectionId": null,
        "streetTypeId": "AVE",
        "placeName": "HAMILTON",
        "streetNameDisplayText": "ROBINS AVE, HAMILTON"
      }
    ]
  },
  {
    "postal": "L8H3M5",
    "result": [
      {
        "electoralDistricts": [
          {
            "election": null,
            "id": 36,
            "name": "Hamilton Centre"
          }
        ],
        "pollDivisionIds": [
          10138620
        ],
        "postalCode": "L8H3M5",
        "streetName": "BAYFIELD",
        "streetDirectionId": null,
        "streetTypeId": "AVE",
        "placeName": "HAMILTON",
        "streetNameDisplayText": "BAYFIELD AVE, HAMILTON"
      }
    ]
  },
  {
    "postal": "L8H6H7",
    "result": [
      {
        "electoralDistricts": [
          {
            "election": null,
            "id": 37,
            "name": "Hamilton East—Stoney Creek"
          }
        ],
        "pollDivisionIds": [
          10138642
        ],
        "postalCode": "L8H6H7",
        "streetName": "BRIGHTON",
        "streetDirectionId": null,
        "streetTypeId": "AVE",
        "placeName": "HAMILTON",
        "streetNameDisplayText": "BRIGHTON AVE, HAMILTON"
      }
    ]
  },
  {
    "postal": "L8H8Y8",
    "result": []
  },
  {
    "postal": "L8H5R9",
    "result": [
      {
        "electoralDistricts": [
          {
            "election": null,
            "id": 37,
            "name": "Hamilton East—Stoney Creek"
          }
        ],
        "pollDivisionIds": [
          10138647
        ],
        "postalCode": "L8H5R9",
        "streetName": "JULIAN",
        "streetDirectionId": null,
        "streetTypeId": "AVE",
        "placeName": "HAMILTON",
        "streetNameDisplayText": "JULIAN AVE, HAMILTON"
      }
    ]
  },
  {
    "postal": "L8H8G3",
    "result": []
  },
  {
    "postal": "L8H4N7",
    "result": [
      {
        "electoralDistricts": [
          {
            "election": null,
            "id": 36,
            "name": "Hamilton Centre"
          }
        ],
        "pollDivisionIds": [
          10138619
        ],
        "postalCode": "L8H4N7",
        "streetName": "ROBINS",
        "streetDirectionId": null,
        "streetTypeId": "AVE",
        "placeName": "HAMILTON",
        "streetNameDisplayText": "ROBINS AVE, HAMILTON"
      }
    ]
  },
  {
    "postal": "L8H0B9",
    "result": []
  },
  {
    "postal": "L8H9K7",
    "result": []
  },
  {
    "postal": "L8H9K9",
    "result": []
  },
  {
    "postal": "L8H3Z2",
    "result": [
      {
        "electoralDistricts": [
          {
            "election": null,
            "id": 36,
            "name": "Hamilton Centre"
          }
        ],
        "pollDivisionIds": [
          10138614
        ],
        "postalCode": "L8H3Z2",
        "streetName": "OTTAWA",
        "streetDirectionId": "N",
        "streetTypeId": "ST",
        "placeName": "HAMILTON",
        "streetNameDisplayText": "OTTAWA ST N, HAMILTON"
      }
    ]
  },
  {
    "postal": "L8H6W7",
    "result": [
      {
        "electoralDistricts": [
          {
            "election": null,
            "id": 37,
            "name": "Hamilton East—Stoney Creek"
          }
        ],
        "pollDivisionIds": [
          10138640
        ],
        "postalCode": "L8H6W7",
        "streetName": "BEACH",
        "streetDirectionId": null,
        "streetTypeId": "BLVD",
        "placeName": "HAMILTON",
        "streetNameDisplayText": "BEACH BLVD, HAMILTON"
      },
      {
        "electoralDistricts": [
          {
            "election": null,
            "id": 36,
            "name": "Hamilton Centre"
          }
        ],
        "pollDivisionIds": [
          10138620
        ],
        "postalCode": "L8H6W7",
        "streetName": "BEACH",
        "streetDirectionId": null,
        "streetTypeId": "RD",
        "placeName": "HAMILTON",
        "streetNameDisplayText": "BEACH RD, HAMILTON"
      }
    ]
  },
  {
    "postal": "L8H0P1",
    "result": []
  },
  {
    "postal": "L8H3A0",
    "result": []
  },
  {
    "postal": "L8H8L9",
    "result": []
  },
  {
    "postal": "L8H6X0",
    "result": []
  },
  {
    "postal": "L8H3E9",
    "result": [
      {
        "electoralDistricts": [
          {
            "election": null,
            "id": 37,
            "name": "Hamilton East—Stoney Creek"
          }
        ],
        "pollDivisionIds": [
          10138642
        ],
        "postalCode": "L8H3E9",
        "streetName": "EMBURY",
        "streetDirectionId": null,
        "streetTypeId": "CRT",
        "placeName": "HAMILTON",
        "streetNameDisplayText": "EMBURY CRT, HAMILTON"
      }
    ]
  },
  {
    "postal": "L8H0S5",
    "result": []
  },
  {
    "postal": "L8H1A2",
    "result": [
      {
        "electoralDistricts": [
          {
            "election": null,
            "id": 37,
            "name": "Hamilton East—Stoney Creek"
          }
        ],
        "pollDivisionIds": [
          10138647
        ],
        "postalCode": "L8H1A2",
        "streetName": "CRAIGROYSTON",
        "streetDirectionId": null,
        "streetTypeId": "RD",
        "placeName": "HAMILTON",
        "streetNameDisplayText": "CRAIGROYSTON RD, HAMILTON"
      }
    ]
  },
  {
    "postal": "L8H5V8",
    "result": [
      {
        "electoralDistricts": [
          {
            "election": null,
            "id": 37,
            "name": "Hamilton East—Stoney Creek"
          }
        ],
        "pollDivisionIds": [
          10138647
        ],
        "postalCode": "L8H5V8",
        "streetName": "GLENNIE",
        "streetDirectionId": null,
        "streetTypeId": "AVE",
        "placeName": "HAMILTON",
        "streetNameDisplayText": "GLENNIE AVE, HAMILTON"
      }
    ]
  },
  {
    "postal": "L8H8C5",
    "result": []
  },
  {
    "postal": "L8H6N0",
    "result": []
  },
  {
    "postal": "L8H9E6",
    "result": []
  },
  {
    "postal": "L8H5J7",
    "result": [
      {
        "electoralDistricts": [
          {
            "election": null,
            "id": 37,
            "name": "Hamilton East—Stoney Creek"
          }
        ],
        "pollDivisionIds": [
          10138646
        ],
        "postalCode": "L8H5J7",
        "streetName": "PALING",
        "streetDirectionId": null,
        "streetTypeId": "AVE",
        "placeName": "HAMILTON",
        "streetNameDisplayText": "PALING AVE, HAMILTON"
      }
    ]
  },
  {
    "postal": "L8H2R2",
    "result": [
      {
        "electoralDistricts": [
          {
            "election": null,
            "id": 37,
            "name": "Hamilton East—Stoney Creek"
          }
        ],
        "pollDivisionIds": [
          10138648
        ],
        "postalCode": "L8H2R2",
        "streetName": "EUGENE",
        "streetDirectionId": null,
        "streetTypeId": "ST",
        "placeName": "HAMILTON",
        "streetNameDisplayText": "EUGENE ST, HAMILTON"
      }
    ]
  },
  {
    "postal": "L8H0P5",
    "result": []
  },
  {
    "postal": "L8H5A7",
    "result": [
      {
        "electoralDistricts": [
          {
            "election": null,
            "id": 37,
            "name": "Hamilton East—Stoney Creek"
          }
        ],
        "pollDivisionIds": [
          10138644
        ],
        "postalCode": "L8H5A7",
        "streetName": "BARONS",
        "streetDirectionId": "N",
        "streetTypeId": "AVE",
        "placeName": "HAMILTON",
        "streetNameDisplayText": "BARONS AVE N, HAMILTON"
      }
    ]
  },
  {
    "postal": "L8H1G1",
    "result": [
      {
        "electoralDistricts": [
          {
            "election": null,
            "id": 37,
            "name": "Hamilton East—Stoney Creek"
          }
        ],
        "pollDivisionIds": [
          10138654
        ],
        "postalCode": "L8H1G1",
        "streetName": "MAIN",
        "streetDirectionId": "E",
        "streetTypeId": "ST",
        "placeName": "HAMILTON",
        "streetNameDisplayText": "MAIN ST E, HAMILTON"
      }
    ]
  },
  {
    "postal": "L8H9R6",
    "result": []
  },
  {
    "postal": "L8H4Z9",
    "result": [
      {
        "electoralDistricts": [
          {
            "election": null,
            "id": 37,
            "name": "Hamilton East—Stoney Creek"
          }
        ],
        "pollDivisionIds": [
          10138641
        ],
        "postalCode": "L8H4Z9",
        "streetName": "DIVISION",
        "streetDirectionId": null,
        "streetTypeId": "ST",
        "placeName": "HAMILTON",
        "streetNameDisplayText": "DIVISION ST, HAMILTON"
      }
    ]
  },
  {
    "postal": "L8H1V5",
    "result": [
      {
        "electoralDistricts": [
          {
            "election": null,
            "id": 36,
            "name": "Hamilton Centre"
          }
        ],
        "pollDivisionIds": [
          10138620
        ],
        "postalCode": "L8H1V5",
        "streetName": "CANNON",
        "streetDirectionId": "E",
        "streetTypeId": "ST",
        "placeName": "HAMILTON",
        "streetNameDisplayText": "CANNON ST E, HAMILTON"
      }
    ]
  },
  {
    "postal": "L8H9Y5",
    "result": []
  },
  {
    "postal": "L8H1P2",
    "result": [
      {
        "electoralDistricts": [
          {
            "election": null,
            "id": 36,
            "name": "Hamilton Centre"
          }
        ],
        "pollDivisionIds": [
          10138619
        ],
        "postalCode": "L8H1P2",
        "streetName": "ROXBOROUGH",
        "streetDirectionId": null,
        "streetTypeId": "AVE",
        "placeName": "HAMILTON",
        "streetNameDisplayText": "ROXBOROUGH AVE, HAMILTON"
      }
    ]
  },
  {
    "postal": "L8H5X0",
    "result": []
  },
  {
    "postal": "L8H7B8",
    "result": []
  },
  {
    "postal": "L8H0C6",
    "result": []
  },
  {
    "postal": "L8H6G1",
    "result": [
      {
        "electoralDistricts": [
          {
            "election": null,
            "id": 37,
            "name": "Hamilton East—Stoney Creek"
          }
        ],
        "pollDivisionIds": [
          10138642
        ],
        "postalCode": "L8H6G1",
        "streetName": "AIRDRIE",
        "streetDirectionId": null,
        "streetTypeId": "AVE",
        "placeName": "HAMILTON",
        "streetNameDisplayText": "AIRDRIE AVE, HAMILTON"
      }
    ]
  },
  {
    "postal": "L8H3K3",
    "result": [
      {
        "electoralDistricts": [
          {
            "election": null,
            "id": 36,
            "name": "Hamilton Centre"
          }
        ],
        "pollDivisionIds": [
          10138620
        ],
        "postalCode": "L8H3K3",
        "streetName": "BEACH",
        "streetDirectionId": null,
        "streetTypeId": "RD",
        "placeName": "HAMILTON",
        "streetNameDisplayText": "BEACH RD, HAMILTON"
      }
    ]
  },
  {
    "postal": "L8H9R0",
    "result": []
  },
  {
    "postal": "L8H4R8",
    "result": [
      {
        "electoralDistricts": [
          {
            "election": null,
            "id": 37,
            "name": "Hamilton East—Stoney Creek"
          }
        ],
        "pollDivisionIds": [
          10138644
        ],
        "postalCode": "L8H4R8",
        "streetName": "KENILWORTH",
        "streetDirectionId": "N",
        "streetTypeId": "AVE",
        "placeName": "HAMILTON",
        "streetNameDisplayText": "KENILWORTH AVE N, HAMILTON"
      }
    ]
  },
  {
    "postal": "L8H5P9",
    "result": [
      {
        "electoralDistricts": [
          {
            "election": null,
            "id": 37,
            "name": "Hamilton East—Stoney Creek"
          }
        ],
        "pollDivisionIds": [
          10138642
        ],
        "postalCode": "L8H5P9",
        "streetName": "WALTER",
        "streetDirectionId": "N",
        "streetTypeId": "AVE",
        "placeName": "HAMILTON",
        "streetNameDisplayText": "WALTER AVE N, HAMILTON"
      }
    ]
  },
  {
    "postal": "L8H8N4",
    "result": []
  },
  {
    "postal": "L8H8H4",
    "result": []
  },
  {
    "postal": "L8H4V1",
    "result": [
      {
        "electoralDistricts": [
          {
            "election": null,
            "id": 37,
            "name": "Hamilton East—Stoney Creek"
          }
        ],
        "pollDivisionIds": [
          10138644
        ],
        "postalCode": "L8H4V1",
        "streetName": "CROSTHWAITE",
        "streetDirectionId": "N",
        "streetTypeId": "AVE",
        "placeName": "HAMILTON",
        "streetNameDisplayText": "CROSTHWAITE AVE N, HAMILTON"
      }
    ]
  },
  {
    "postal": "L8H1K5",
    "result": [
      {
        "electoralDistricts": [
          {
            "election": null,
            "id": 37,
            "name": "Hamilton East—Stoney Creek"
          }
        ],
        "pollDivisionIds": [
          10138647
        ],
        "postalCode": "L8H1K5",
        "streetName": "DUNSMURE",
        "streetDirectionId": null,
        "streetTypeId": "RD",
        "placeName": "HAMILTON",
        "streetNameDisplayText": "DUNSMURE RD, HAMILTON"
      }
    ]
  },
  {
    "postal": "L8H1Z5",
    "result": [
      {
        "electoralDistricts": [
          {
            "election": null,
            "id": 37,
            "name": "Hamilton East—Stoney Creek"
          }
        ],
        "pollDivisionIds": [
          10138642
        ],
        "postalCode": "L8H1Z5",
        "streetName": "BRITANNIA",
        "streetDirectionId": null,
        "streetTypeId": "AVE",
        "placeName": "HAMILTON",
        "streetNameDisplayText": "BRITANNIA AVE, HAMILTON"
      }
    ]
  },
  {
    "postal": "L8H9L9",
    "result": []
  },
  {
    "postal": "L8H5L2",
    "result": [
      {
        "electoralDistricts": [
          {
            "election": null,
            "id": 37,
            "name": "Hamilton East—Stoney Creek"
          }
        ],
        "pollDivisionIds": [
          10138641
        ],
        "postalCode": "L8H5L2",
        "streetName": "STRATHEARNE",
        "streetDirectionId": null,
        "streetTypeId": "AVE",
        "placeName": "HAMILTON",
        "streetNameDisplayText": "STRATHEARNE AVE, HAMILTON"
      }
    ]
  },
  {
    "postal": "L8H0M2",
    "result": []
  },
  {
    "postal": "L8H1K8",
    "result": [
      {
        "electoralDistricts": [
          {
            "election": null,
            "id": 37,
            "name": "Hamilton East—Stoney Creek"
          }
        ],
        "pollDivisionIds": [
          10138647
        ],
        "postalCode": "L8H1K8",
        "streetName": "DUNSMURE",
        "streetDirectionId": null,
        "streetTypeId": "RD",
        "placeName": "HAMILTON",
        "streetNameDisplayText": "DUNSMURE RD, HAMILTON"
      }
    ]
  },
  {
    "postal": "L8H3M7",
    "result": []
  },
  {
    "postal": "L8H1B2",
    "result": [
      {
        "electoralDistricts": [
          {
            "election": null,
            "id": 37,
            "name": "Hamilton East—Stoney Creek"
          }
        ],
        "pollDivisionIds": [
          10138654
        ],
        "postalCode": "L8H1B2",
        "streetName": "GLASSCO",
        "streetDirectionId": "S",
        "streetTypeId": "AVE",
        "placeName": "HAMILTON",
        "streetNameDisplayText": "GLASSCO AVE S, HAMILTON"
      }
    ]
  },
  {
    "postal": "L8H0H9",
    "result": []
  },
  {
    "postal": "L8H8M4",
    "result": []
  },
  {
    "postal": "L8H2M5",
    "result": [
      {
        "electoralDistricts": [
          {
            "election": null,
            "id": 37,
            "name": "Hamilton East—Stoney Creek"
          }
        ],
        "pollDivisionIds": [
          10138648
        ],
        "postalCode": "L8H2M5",
        "streetName": "WOODMAN",
        "streetDirectionId": "N",
        "streetTypeId": "DR",
        "placeName": "HAMILTON",
        "streetNameDisplayText": "WOODMAN DR N, HAMILTON"
      }
    ]
  },
  {
    "postal": "L8H0T9",
    "result": []
  },
  {
    "postal": "L8H3P1",
    "result": [
      {
        "electoralDistricts": [
          {
            "election": null,
            "id": 37,
            "name": "Hamilton East—Stoney Creek"
          }
        ],
        "pollDivisionIds": [
          10138641
        ],
        "postalCode": "L8H3P1",
        "streetName": "ROOSEVELT",
        "streetDirectionId": null,
        "streetTypeId": "AVE",
        "placeName": "HAMILTON",
        "streetNameDisplayText": "ROOSEVELT AVE, HAMILTON"
      }
    ]
  },
  {
    "postal": "L8H1R6",
    "result": [
      {
        "electoralDistricts": [
          {
            "election": null,
            "id": 37,
            "name": "Hamilton East—Stoney Creek"
          }
        ],
        "pollDivisionIds": [
          10138646
        ],
        "postalCode": "L8H1R6",
        "streetName": "ROXBOROUGH",
        "streetDirectionId": null,
        "streetTypeId": "AVE",
        "placeName": "HAMILTON",
        "streetNameDisplayText": "ROXBOROUGH AVE, HAMILTON"
      }
    ]
  },
  {
    "postal": "L8H9V5",
    "result": []
  },
  {
    "postal": "L8H9T0",
    "result": []
  },
  {
    "postal": "L8H0A9",
    "result": [
      {
        "electoralDistricts": [
          {
            "election": null,
            "id": 37,
            "name": "Hamilton East—Stoney Creek"
          }
        ],
        "pollDivisionIds": [
          10138640
        ],
        "postalCode": "L8H0A9",
        "streetName": "FIFTH",
        "streetDirectionId": null,
        "streetTypeId": "AVE",
        "placeName": "HAMILTON",
        "streetNameDisplayText": "FIFTH AVE, HAMILTON"
      }
    ]
  },
  {
    "postal": "L8H1M3",
    "result": [
      {
        "electoralDistricts": [
          {
            "election": null,
            "id": 37,
            "name": "Hamilton East—Stoney Creek"
          }
        ],
        "pollDivisionIds": [
          10138647
        ],
        "postalCode": "L8H1M3",
        "streetName": "HAYES",
        "streetDirectionId": null,
        "streetTypeId": "AVE",
        "placeName": "HAMILTON",
        "streetNameDisplayText": "HAYES AVE, HAMILTON"
      }
    ]
  },
  {
    "postal": "L8H1W8",
    "result": [
      {
        "electoralDistricts": [
          {
            "election": null,
            "id": 36,
            "name": "Hamilton Centre"
          }
        ],
        "pollDivisionIds": [
          10138620
        ],
        "postalCode": "L8H1W8",
        "streetName": "BRITANNIA",
        "streetDirectionId": null,
        "streetTypeId": "AVE",
        "placeName": "HAMILTON",
        "streetNameDisplayText": "BRITANNIA AVE, HAMILTON"
      }
    ]
  },
  {
    "postal": "L8H9J1",
    "result": []
  },
  {
    "postal": "L8H8N5",
    "result": []
  },
  {
    "postal": "L8H5X1",
    "result": [
      {
        "electoralDistricts": [
          {
            "election": null,
            "id": 37,
            "name": "Hamilton East—Stoney Creek"
          }
        ],
        "pollDivisionIds": [
          10138647
        ],
        "postalCode": "L8H5X1",
        "streetName": "PARKDALE",
        "streetDirectionId": "N",
        "streetTypeId": "AVE",
        "placeName": "HAMILTON",
        "streetNameDisplayText": "PARKDALE AVE N, HAMILTON"
      }
    ]
  },
  {
    "postal": "L8H6S2",
    "result": [
      {
        "electoralDistricts": [
          {
            "election": null,
            "id": 37,
            "name": "Hamilton East—Stoney Creek"
          }
        ],
        "pollDivisionIds": [
          10138642
        ],
        "postalCode": "L8H6S2",
        "streetName": "BRUNSWICK",
        "streetDirectionId": null,
        "streetTypeId": "ST",
        "placeName": "HAMILTON",
        "streetNameDisplayText": "BRUNSWICK ST, HAMILTON"
      }
    ]
  },
  {
    "postal": "L8H2A2",
    "result": [
      {
        "electoralDistricts": [
          {
            "election": null,
            "id": 37,
            "name": "Hamilton East—Stoney Creek"
          }
        ],
        "pollDivisionIds": [
          10138647
        ],
        "postalCode": "L8H2A2",
        "streetName": "BRITANNIA",
        "streetDirectionId": null,
        "streetTypeId": "AVE",
        "placeName": "HAMILTON",
        "streetNameDisplayText": "BRITANNIA AVE, HAMILTON"
      }
    ]
  },
  {
    "postal": "L8H6A6",
    "result": [
      {
        "electoralDistricts": [
          {
            "election": null,
            "id": 37,
            "name": "Hamilton East—Stoney Creek"
          }
        ],
        "pollDivisionIds": [
          10138647
        ],
        "postalCode": "L8H6A6",
        "streetName": "ADAIR",
        "streetDirectionId": "N",
        "streetTypeId": "AVE",
        "placeName": "HAMILTON",
        "streetNameDisplayText": "ADAIR AVE N, HAMILTON"
      }
    ]
  },
  {
    "postal": "L8H0S3",
    "result": []
  },
  {
    "postal": "L8H3E7",
    "result": [
      {
        "electoralDistricts": [
          {
            "election": null,
            "id": 37,
            "name": "Hamilton East—Stoney Creek"
          }
        ],
        "pollDivisionIds": [
          10138642
        ],
        "postalCode": "L8H3E7",
        "streetName": "WALMER",
        "streetDirectionId": null,
        "streetTypeId": "RD",
        "placeName": "HAMILTON",
        "streetNameDisplayText": "WALMER RD, HAMILTON"
      }
    ]
  },
  {
    "postal": "L8H5R7",
    "result": [
      {
        "electoralDistricts": [
          {
            "election": null,
            "id": 37,
            "name": "Hamilton East—Stoney Creek"
          }
        ],
        "pollDivisionIds": [
          10138647
        ],
        "postalCode": "L8H5R7",
        "streetName": "JULIAN",
        "streetDirectionId": null,
        "streetTypeId": "AVE",
        "placeName": "HAMILTON",
        "streetNameDisplayText": "JULIAN AVE, HAMILTON"
      }
    ]
  },
  {
    "postal": "L8H3R6",
    "result": [
      {
        "electoralDistricts": [
          {
            "election": null,
            "id": 37,
            "name": "Hamilton East—Stoney Creek"
          }
        ],
        "pollDivisionIds": [
          10138642
        ],
        "postalCode": "L8H3R6",
        "streetName": "MORLEY",
        "streetDirectionId": null,
        "streetTypeId": "ST",
        "placeName": "HAMILTON",
        "streetNameDisplayText": "MORLEY ST, HAMILTON"
      }
    ]
  },
  {
    "postal": "L8H6K4",
    "result": [
      {
        "electoralDistricts": [
          {
            "election": null,
            "id": 37,
            "name": "Hamilton East—Stoney Creek"
          }
        ],
        "pollDivisionIds": [
          10138642
        ],
        "postalCode": "L8H6K4",
        "streetName": "KNOX",
        "streetDirectionId": null,
        "streetTypeId": "AVE",
        "placeName": "HAMILTON",
        "streetNameDisplayText": "KNOX AVE, HAMILTON"
      }
    ]
  },
  {
    "postal": "L8H2W5",
    "result": [
      {
        "electoralDistricts": [
          {
            "election": null,
            "id": 37,
            "name": "Hamilton East—Stoney Creek"
          }
        ],
        "pollDivisionIds": [
          10138641
        ],
        "postalCode": "L8H2W5",
        "streetName": "BARTON",
        "streetDirectionId": "E",
        "streetTypeId": "ST",
        "placeName": "HAMILTON",
        "streetNameDisplayText": "BARTON ST E, HAMILTON"
      }
    ]
  },
  {
    "postal": "L8H8W4",
    "result": []
  },
  {
    "postal": "L8H9C2",
    "result": []
  },
  {
    "postal": "L8H2C0",
    "result": []
  },
  {
    "postal": "L8H0E1",
    "result": []
  },
  {
    "postal": "L8H1K9",
    "result": [
      {
        "electoralDistricts": [
          {
            "election": null,
            "id": 37,
            "name": "Hamilton East—Stoney Creek"
          }
        ],
        "pollDivisionIds": [
          10138647
        ],
        "postalCode": "L8H1K9",
        "streetName": "DUNSMURE",
        "streetDirectionId": null,
        "streetTypeId": "RD",
        "placeName": "HAMILTON",
        "streetNameDisplayText": "DUNSMURE RD, HAMILTON"
      }
    ]
  },
  {
    "postal": "L8H1G7",
    "result": [
      {
        "electoralDistricts": [
          {
            "election": null,
            "id": 36,
            "name": "Hamilton Centre"
          }
        ],
        "pollDivisionIds": [
          10138619
        ],
        "postalCode": "L8H1G7",
        "streetName": "DUNSMURE",
        "streetDirectionId": null,
        "streetTypeId": "RD",
        "placeName": "HAMILTON",
        "streetNameDisplayText": "DUNSMURE RD, HAMILTON"
      }
    ]
  },
  {
    "postal": "L8H4E9",
    "result": [
      {
        "electoralDistricts": [
          {
            "election": null,
            "id": 36,
            "name": "Hamilton Centre"
          }
        ],
        "pollDivisionIds": [
          10138620
        ],
        "postalCode": "L8H4E9",
        "streetName": "PARK",
        "streetDirectionId": "N",
        "streetTypeId": "ROW",
        "placeName": "HAMILTON",
        "streetNameDisplayText": "PARK ROW N, HAMILTON"
      }
    ]
  },
  {
    "postal": "L8H9P0",
    "result": []
  },
  {
    "postal": "L8H5H3",
    "result": [
      {
        "electoralDistricts": [
          {
            "election": null,
            "id": 37,
            "name": "Hamilton East—Stoney Creek"
          }
        ],
        "pollDivisionIds": [
          10138646,
          10138641
        ],
        "postalCode": "L8H5H3",
        "streetName": "FAIRFIELD",
        "streetDirectionId": null,
        "streetTypeId": "AVE",
        "placeName": "HAMILTON",
        "streetNameDisplayText": "FAIRFIELD AVE, HAMILTON"
      }
    ]
  },
  {
    "postal": "L8H9X6",
    "result": []
  },
  {
    "postal": "L8H5N7",
    "result": [
      {
        "electoralDistricts": [
          {
            "election": null,
            "id": 37,
            "name": "Hamilton East—Stoney Creek"
          }
        ],
        "pollDivisionIds": [
          10138647
        ],
        "postalCode": "L8H5N7",
        "streetName": "TOLTON",
        "streetDirectionId": null,
        "streetTypeId": "AVE",
        "placeName": "HAMILTON",
        "streetNameDisplayText": "TOLTON AVE, HAMILTON"
      }
    ]
  },
  {
    "postal": "L8H5A6",
    "result": [
      {
        "electoralDistricts": [
          {
            "election": null,
            "id": 37,
            "name": "Hamilton East—Stoney Creek"
          }
        ],
        "pollDivisionIds": [
          10138644
        ],
        "postalCode": "L8H5A6",
        "streetName": "BARONS",
        "streetDirectionId": "N",
        "streetTypeId": "AVE",
        "placeName": "HAMILTON",
        "streetNameDisplayText": "BARONS AVE N, HAMILTON"
      }
    ]
  },
  {
    "postal": "L8H4M0",
    "result": []
  },
  {
    "postal": "L8H3V6",
    "result": [
      {
        "electoralDistricts": [
          {
            "election": null,
            "id": 37,
            "name": "Hamilton East—Stoney Creek"
          }
        ],
        "pollDivisionIds": [
          10138642
        ],
        "postalCode": "L8H3V6",
        "streetName": "MEAD",
        "streetDirectionId": null,
        "streetTypeId": "AVE",
        "placeName": "HAMILTON",
        "streetNameDisplayText": "MEAD AVE, HAMILTON"
      }
    ]
  },
  {
    "postal": "L8H1L7",
    "result": [
      {
        "electoralDistricts": [
          {
            "election": null,
            "id": 37,
            "name": "Hamilton East—Stoney Creek"
          }
        ],
        "pollDivisionIds": [
          10138647
        ],
        "postalCode": "L8H1L7",
        "streetName": "DUNSMURE",
        "streetDirectionId": null,
        "streetTypeId": "RD",
        "placeName": "HAMILTON",
        "streetNameDisplayText": "DUNSMURE RD, HAMILTON"
      }
    ]
  },
  {
    "postal": "L8H2P9",
    "result": [
      {
        "electoralDistricts": [
          {
            "election": null,
            "id": 37,
            "name": "Hamilton East—Stoney Creek"
          }
        ],
        "pollDivisionIds": [
          10138648
        ],
        "postalCode": "L8H2P9",
        "streetName": "REDWOOD",
        "streetDirectionId": null,
        "streetTypeId": "CRT",
        "placeName": "HAMILTON",
        "streetNameDisplayText": "REDWOOD CRT, HAMILTON"
      }
    ]
  },
  {
    "postal": "L8H5T4",
    "result": [
      {
        "electoralDistricts": [
          {
            "election": null,
            "id": 37,
            "name": "Hamilton East—Stoney Creek"
          }
        ],
        "pollDivisionIds": [
          10138647
        ],
        "postalCode": "L8H5T4",
        "streetName": "ADELINE",
        "streetDirectionId": null,
        "streetTypeId": "AVE",
        "placeName": "HAMILTON",
        "streetNameDisplayText": "ADELINE AVE, HAMILTON"
      }
    ]
  },
  {
    "postal": "L8H5Z1",
    "result": [
      {
        "electoralDistricts": [
          {
            "election": null,
            "id": 37,
            "name": "Hamilton East—Stoney Creek"
          }
        ],
        "pollDivisionIds": [
          10138642
        ],
        "postalCode": "L8H5Z1",
        "streetName": "PARKDALE",
        "streetDirectionId": "N",
        "streetTypeId": "AVE",
        "placeName": "HAMILTON",
        "streetNameDisplayText": "PARKDALE AVE N, HAMILTON"
      }
    ]
  },
  {
    "postal": "L8H2X0",
    "result": []
  },
  {
    "postal": "L8H6Z2",
    "result": [
      {
        "electoralDistricts": [
          {
            "election": null,
            "id": 37,
            "name": "Hamilton East—Stoney Creek"
          }
        ],
        "pollDivisionIds": [
          10138640
        ],
        "postalCode": "L8H6Z2",
        "streetName": "BEACH",
        "streetDirectionId": null,
        "streetTypeId": "BLVD",
        "placeName": "HAMILTON",
        "streetNameDisplayText": "BEACH BLVD, HAMILTON"
      }
    ]
  },
  {
    "postal": "L8H0E0",
    "result": []
  },
  {
    "postal": "L8H3Z5",
    "result": [
      {
        "electoralDistricts": [
          {
            "election": null,
            "id": 36,
            "name": "Hamilton Centre"
          }
        ],
        "pollDivisionIds": [
          10138620,
          10138619
        ],
        "postalCode": "L8H3Z5",
        "streetName": "OTTAWA",
        "streetDirectionId": "N",
        "streetTypeId": "ST",
        "placeName": "HAMILTON",
        "streetNameDisplayText": "OTTAWA ST N, HAMILTON"
      }
    ]
  },
  {
    "postal": "L8H8H3",
    "result": []
  },
  {
    "postal": "L8H7S6",
    "result": []
  },
  {
    "postal": "L8H4C1",
    "result": [
      {
        "electoralDistricts": [
          {
            "election": null,
            "id": 36,
            "name": "Hamilton Centre"
          }
        ],
        "pollDivisionIds": [
          10138620
        ],
        "postalCode": "L8H4C1",
        "streetName": "LONDON",
        "streetDirectionId": "N",
        "streetTypeId": "ST",
        "placeName": "HAMILTON",
        "streetNameDisplayText": "LONDON ST N, HAMILTON"
      }
    ]
  },
  {
    "postal": "L8H3K2",
    "result": []
  },
  {
    "postal": "L8H1Y5",
    "result": [
      {
        "electoralDistricts": [
          {
            "election": null,
            "id": 37,
            "name": "Hamilton East—Stoney Creek"
          }
        ],
        "pollDivisionIds": [
          10138646
        ],
        "postalCode": "L8H1Y5",
        "streetName": "BRITANNIA",
        "streetDirectionId": null,
        "streetTypeId": "AVE",
        "placeName": "HAMILTON",
        "streetNameDisplayText": "BRITANNIA AVE, HAMILTON"
      }
    ]
  },
  {
    "postal": "L8H6P6",
    "result": []
  },
  {
    "postal": "L8H3N9",
    "result": []
  },
  {
    "postal": "L8H3W2",
    "result": [
      {
        "electoralDistricts": [
          {
            "election": null,
            "id": 37,
            "name": "Hamilton East—Stoney Creek"
          }
        ],
        "pollDivisionIds": [
          10138642
        ],
        "postalCode": "L8H3W2",
        "streetName": "GLOW",
        "streetDirectionId": null,
        "streetTypeId": "AVE",
        "placeName": "HAMILTON",
        "streetNameDisplayText": "GLOW AVE, HAMILTON"
      }
    ]
  },
  {
    "postal": "L8H6H8",
    "result": [
      {
        "electoralDistricts": [
          {
            "election": null,
            "id": 37,
            "name": "Hamilton East—Stoney Creek"
          }
        ],
        "pollDivisionIds": [
          10138642
        ],
        "postalCode": "L8H6H8",
        "streetName": "BURGESS",
        "streetDirectionId": null,
        "streetTypeId": "AVE",
        "placeName": "HAMILTON",
        "streetNameDisplayText": "BURGESS AVE, HAMILTON"
      }
    ]
  },
  {
    "postal": "L8H9T3",
    "result": []
  },
  {
    "postal": "L8H5L9",
    "result": [
      {
        "electoralDistricts": [
          {
            "election": null,
            "id": 37,
            "name": "Hamilton East—Stoney Creek"
          }
        ],
        "pollDivisionIds": [
          10138647
        ],
        "postalCode": "L8H5L9",
        "streetName": "SELKIRK",
        "streetDirectionId": null,
        "streetTypeId": "AVE",
        "placeName": "HAMILTON",
        "streetNameDisplayText": "SELKIRK AVE, HAMILTON"
      }
    ]
  },
  {
    "postal": "L8H7X7",
    "result": []
  },
  {
    "postal": "L8H3J5",
    "result": [
      {
        "electoralDistricts": [
          {
            "election": null,
            "id": 36,
            "name": "Hamilton Centre"
          }
        ],
        "pollDivisionIds": [
          10138620
        ],
        "postalCode": "L8H3J5",
        "streetName": "GRENFELL",
        "streetDirectionId": null,
        "streetTypeId": "ST",
        "placeName": "HAMILTON",
        "streetNameDisplayText": "GRENFELL ST, HAMILTON"
      }
    ]
  },
  {
    "postal": "L8H4J5",
    "result": [
      {
        "electoralDistricts": [
          {
            "election": null,
            "id": 36,
            "name": "Hamilton Centre"
          }
        ],
        "pollDivisionIds": [
          10138619
        ],
        "postalCode": "L8H4J5",
        "streetName": "NORMAN",
        "streetDirectionId": null,
        "streetTypeId": "ST",
        "placeName": "HAMILTON",
        "streetNameDisplayText": "NORMAN ST, HAMILTON"
      }
    ]
  },
  {
    "postal": "L8H6J2",
    "result": [
      {
        "electoralDistricts": [
          {
            "election": null,
            "id": 37,
            "name": "Hamilton East—Stoney Creek"
          }
        ],
        "pollDivisionIds": [
          10138642
        ],
        "postalCode": "L8H6J2",
        "streetName": "BURGESS",
        "streetDirectionId": null,
        "streetTypeId": "AVE",
        "placeName": "HAMILTON",
        "streetNameDisplayText": "BURGESS AVE, HAMILTON"
      }
    ]
  },
  {
    "postal": "L8H5V6",
    "result": [
      {
        "electoralDistricts": [
          {
            "election": null,
            "id": 37,
            "name": "Hamilton East—Stoney Creek"
          }
        ],
        "pollDivisionIds": [
          10138647
        ],
        "postalCode": "L8H5V6",
        "streetName": "GLENNIE",
        "streetDirectionId": null,
        "streetTypeId": "AVE",
        "placeName": "HAMILTON",
        "streetNameDisplayText": "GLENNIE AVE, HAMILTON"
      }
    ]
  },
  {
    "postal": "L8H3N2",
    "result": [
      {
        "electoralDistricts": [
          {
            "election": null,
            "id": 36,
            "name": "Hamilton Centre"
          }
        ],
        "pollDivisionIds": [
          10138620
        ],
        "postalCode": "L8H3N2",
        "streetName": "MARTIMAS",
        "streetDirectionId": null,
        "streetTypeId": "AVE",
        "placeName": "HAMILTON",
        "streetNameDisplayText": "MARTIMAS AVE, HAMILTON"
      }
    ]
  },
  {
    "postal": "L8H3B1",
    "result": [
      {
        "electoralDistricts": [
          {
            "election": null,
            "id": 37,
            "name": "Hamilton East—Stoney Creek"
          }
        ],
        "pollDivisionIds": [
          10138642
        ],
        "postalCode": "L8H3B1",
        "streetName": "VANSITMART",
        "streetDirectionId": null,
        "streetTypeId": "AVE",
        "placeName": "HAMILTON",
        "streetNameDisplayText": "VANSITMART AVE, HAMILTON"
      }
    ]
  },
  {
    "postal": "L8H8B5",
    "result": []
  },
  {
    "postal": "L8H0K1",
    "result": []
  },
  {
    "postal": "L8H7M7",
    "result": []
  },
  {
    "postal": "L8H2M2",
    "result": [
      {
        "electoralDistricts": [
          {
            "election": null,
            "id": 37,
            "name": "Hamilton East—Stoney Creek"
          }
        ],
        "pollDivisionIds": [
          10138648
        ],
        "postalCode": "L8H2M2",
        "streetName": "POTTRUFF",
        "streetDirectionId": "N",
        "streetTypeId": "RD",
        "placeName": "HAMILTON",
        "streetNameDisplayText": "POTTRUFF RD N, HAMILTON"
      }
    ]
  },
  {
    "postal": "L8H9N3",
    "result": []
  },
  {
    "postal": "L8H4Y8",
    "result": [
      {
        "electoralDistricts": [
          {
            "election": null,
            "id": 37,
            "name": "Hamilton East—Stoney Creek"
          }
        ],
        "pollDivisionIds": [
          10138646
        ],
        "postalCode": "L8H4Y8",
        "streetName": "CAMERON",
        "streetDirectionId": "N",
        "streetTypeId": "AVE",
        "placeName": "HAMILTON",
        "streetNameDisplayText": "CAMERON AVE N, HAMILTON"
      }
    ]
  },
  {
    "postal": "L8H3V7",
    "result": [
      {
        "electoralDistricts": [
          {
            "election": null,
            "id": 37,
            "name": "Hamilton East—Stoney Creek"
          }
        ],
        "pollDivisionIds": [
          10138642
        ],
        "postalCode": "L8H3V7",
        "streetName": "GLOW",
        "streetDirectionId": null,
        "streetTypeId": "AVE",
        "placeName": "HAMILTON",
        "streetNameDisplayText": "GLOW AVE, HAMILTON"
      }
    ]
  },
  {
    "postal": "L8H8Z1",
    "result": []
  },
  {
    "postal": "L8H7B3",
    "result": [
      {
        "electoralDistricts": [
          {
            "election": null,
            "id": 37,
            "name": "Hamilton East—Stoney Creek"
          }
        ],
        "pollDivisionIds": [
          10138640
        ],
        "postalCode": "L8H7B3",
        "streetName": "BAYSIDE",
        "streetDirectionId": null,
        "streetTypeId": "AVE",
        "placeName": "HAMILTON",
        "streetNameDisplayText": "BAYSIDE AVE, HAMILTON"
      }
    ]
  },
  {
    "postal": "L8H3A8",
    "result": [
      {
        "electoralDistricts": [
          {
            "election": null,
            "id": 37,
            "name": "Hamilton East—Stoney Creek"
          }
        ],
        "pollDivisionIds": [
          10138641
        ],
        "postalCode": "L8H3A8",
        "streetName": "VANSITMART",
        "streetDirectionId": null,
        "streetTypeId": "AVE",
        "placeName": "HAMILTON",
        "streetNameDisplayText": "VANSITMART AVE, HAMILTON"
      }
    ]
  },
  {
    "postal": "L8H7V5",
    "result": []
  },
  {
    "postal": "L8H2T2",
    "result": [
      {
        "electoralDistricts": [
          {
            "election": null,
            "id": 36,
            "name": "Hamilton Centre"
          }
        ],
        "pollDivisionIds": [
          10138619
        ],
        "postalCode": "L8H2T2",
        "streetName": "ARGYLE",
        "streetDirectionId": null,
        "streetTypeId": "AVE",
        "placeName": "HAMILTON",
        "streetNameDisplayText": "ARGYLE AVE, HAMILTON"
      }
    ]
  },
  {
    "postal": "L8H6L3",
    "result": [
      {
        "electoralDistricts": [
          {
            "election": null,
            "id": 37,
            "name": "Hamilton East—Stoney Creek"
          }
        ],
        "pollDivisionIds": [
          10138642
        ],
        "postalCode": "L8H6L3",
        "streetName": "TATE",
        "streetDirectionId": null,
        "streetTypeId": "AVE",
        "placeName": "HAMILTON",
        "streetNameDisplayText": "TATE AVE, HAMILTON"
      }
    ]
  },
  {
    "postal": "L8H0L2",
    "result": []
  },
  {
    "postal": "L8H5Y8",
    "result": []
  },
  {
    "postal": "L8H0B8",
    "result": []
  },
  {
    "postal": "L8H6R5",
    "result": [
      {
        "electoralDistricts": [
          {
            "election": null,
            "id": 37,
            "name": "Hamilton East—Stoney Creek"
          }
        ],
        "pollDivisionIds": [
          10138642
        ],
        "postalCode": "L8H6R5",
        "streetName": "WAVERLY",
        "streetDirectionId": null,
        "streetTypeId": "ST",
        "placeName": "HAMILTON",
        "streetNameDisplayText": "WAVERLY ST, HAMILTON"
      }
    ]
  },
  {
    "postal": "L8H8W6",
    "result": []
  },
  {
    "postal": "L8H8G6",
    "result": []
  },
  {
    "postal": "L8H6X3",
    "result": [
      {
        "electoralDistricts": [
          {
            "election": null,
            "id": 37,
            "name": "Hamilton East—Stoney Creek"
          }
        ],
        "pollDivisionIds": [
          10138640
        ],
        "postalCode": "L8H6X3",
        "streetName": "BEACH",
        "streetDirectionId": null,
        "streetTypeId": "BLVD",
        "placeName": "HAMILTON",
        "streetNameDisplayText": "BEACH BLVD, HAMILTON"
      }
    ]
  },
  {
    "postal": "L8H7R7",
    "result": [
      {
        "electoralDistricts": [
          {
            "election": null,
            "id": 37,
            "name": "Hamilton East—Stoney Creek"
          }
        ],
        "pollDivisionIds": [
          10138642
        ],
        "postalCode": "L8H7R7",
        "streetName": "BARTON",
        "streetDirectionId": "E",
        "streetTypeId": "ST",
        "placeName": "HAMILTON",
        "streetNameDisplayText": "BARTON ST E, HAMILTON"
      }
    ]
  },
  {
    "postal": "L8H4B6",
    "result": [
      {
        "electoralDistricts": [
          {
            "election": null,
            "id": 36,
            "name": "Hamilton Centre"
          }
        ],
        "pollDivisionIds": [
          10138619
        ],
        "postalCode": "L8H4B6",
        "streetName": "LONDON",
        "streetDirectionId": "N",
        "streetTypeId": "ST",
        "placeName": "HAMILTON",
        "streetNameDisplayText": "LONDON ST N, HAMILTON"
      }
    ]
  },
  {
    "postal": "L8H3P9",
    "result": [
      {
        "electoralDistricts": [
          {
            "election": null,
            "id": 37,
            "name": "Hamilton East—Stoney Creek"
          }
        ],
        "pollDivisionIds": [
          10138642
        ],
        "postalCode": "L8H3P9",
        "streetName": "RENNIE",
        "streetDirectionId": null,
        "streetTypeId": "ST",
        "placeName": "HAMILTON",
        "streetNameDisplayText": "RENNIE ST, HAMILTON"
      }
    ]
  },
  {
    "postal": "L8H2T3",
    "result": [
      {
        "electoralDistricts": [
          {
            "election": null,
            "id": 36,
            "name": "Hamilton Centre"
          }
        ],
        "pollDivisionIds": [
          10138619
        ],
        "postalCode": "L8H2T3",
        "streetName": "ARGYLE",
        "streetDirectionId": null,
        "streetTypeId": "AVE",
        "placeName": "HAMILTON",
        "streetNameDisplayText": "ARGYLE AVE, HAMILTON"
      }
    ]
  },
  {
    "postal": "L8H1M4",
    "result": []
  },
  {
    "postal": "L8H0H1",
    "result": []
  },
  {
    "postal": "L8H9W3",
    "result": []
  },
  {
    "postal": "L8H6P1",
    "result": [
      {
        "electoralDistricts": [
          {
            "election": null,
            "id": 37,
            "name": "Hamilton East—Stoney Creek"
          }
        ],
        "pollDivisionIds": [
          10138642
        ],
        "postalCode": "L8H6P1",
        "streetName": "WOODWARD",
        "streetDirectionId": null,
        "streetTypeId": "AVE",
        "placeName": "HAMILTON",
        "streetNameDisplayText": "WOODWARD AVE, HAMILTON"
      }
    ]
  },
  {
    "postal": "L8H7G2",
    "result": [
      {
        "electoralDistricts": [
          {
            "election": null,
            "id": 37,
            "name": "Hamilton East—Stoney Creek"
          }
        ],
        "pollDivisionIds": [
          10138640
        ],
        "postalCode": "L8H7G2",
        "streetName": "KNAPMANS",
        "streetDirectionId": null,
        "streetTypeId": "DR",
        "placeName": "HAMILTON",
        "streetNameDisplayText": "KNAPMANS DR, HAMILTON"
      }
    ]
  },
  {
    "postal": "L8H4J9",
    "result": [
      {
        "electoralDistricts": [
          {
            "election": null,
            "id": 36,
            "name": "Hamilton Centre"
          }
        ],
        "pollDivisionIds": [
          10138619
        ],
        "postalCode": "L8H4J9",
        "streetName": "GRAHAM",
        "streetDirectionId": "N",
        "streetTypeId": "AVE",
        "placeName": "HAMILTON",
        "streetNameDisplayText": "GRAHAM AVE N, HAMILTON"
      }
    ]
  },
  {
    "postal": "L8H9E4",
    "result": []
  },
  {
    "postal": "L8H8H0",
    "result": []
  },
  {
    "postal": "L8H4M7",
    "result": [
      {
        "electoralDistricts": [
          {
            "election": null,
            "id": 36,
            "name": "Hamilton Centre"
          }
        ],
        "pollDivisionIds": [
          10138619
        ],
        "postalCode": "L8H4M7",
        "streetName": "ROBINS",
        "streetDirectionId": null,
        "streetTypeId": "AVE",
        "placeName": "HAMILTON",
        "streetNameDisplayText": "ROBINS AVE, HAMILTON"
      }
    ]
  },
  {
    "postal": "L8H2G9",
    "result": [
      {
        "electoralDistricts": [
          {
            "election": null,
            "id": 36,
            "name": "Hamilton Centre"
          }
        ],
        "pollDivisionIds": [
          10138619
        ],
        "postalCode": "L8H2G9",
        "streetName": "CAMPBELL",
        "streetDirectionId": null,
        "streetTypeId": "AVE",
        "placeName": "HAMILTON",
        "streetNameDisplayText": "CAMPBELL AVE, HAMILTON"
      }
    ]
  },
  {
    "postal": "L8H8T2",
    "result": []
  },
  {
    "postal": "L8H7G7",
    "result": [
      {
        "electoralDistricts": [
          {
            "election": null,
            "id": 37,
            "name": "Hamilton East—Stoney Creek"
          }
        ],
        "pollDivisionIds": [
          10138640
        ],
        "postalCode": "L8H7G7",
        "streetName": "NORTH PARK",
        "streetDirectionId": null,
        "streetTypeId": "AVE",
        "placeName": "HAMILTON",
        "streetNameDisplayText": "NORTH PARK AVE, HAMILTON"
      }
    ]
  },
  {
    "postal": "L8H4Z3",
    "result": [
      {
        "electoralDistricts": [
          {
            "election": null,
            "id": 37,
            "name": "Hamilton East—Stoney Creek"
          }
        ],
        "pollDivisionIds": [
          10138644
        ],
        "postalCode": "L8H4Z3",
        "streetName": "CAMERON",
        "streetDirectionId": "N",
        "streetTypeId": "AVE",
        "placeName": "HAMILTON",
        "streetNameDisplayText": "CAMERON AVE N, HAMILTON"
      }
    ]
  },
  {
    "postal": "L8H5B3",
    "result": [
      {
        "electoralDistricts": [
          {
            "election": null,
            "id": 37,
            "name": "Hamilton East—Stoney Creek"
          }
        ],
        "pollDivisionIds": [
          10138646
        ],
        "postalCode": "L8H5B3",
        "streetName": "COPE",
        "streetDirectionId": null,
        "streetTypeId": "ST",
        "placeName": "HAMILTON",
        "streetNameDisplayText": "COPE ST, HAMILTON"
      }
    ]
  },
  {
    "postal": "L8H1S7",
    "result": [
      {
        "electoralDistricts": [
          {
            "election": null,
            "id": 37,
            "name": "Hamilton East—Stoney Creek"
          }
        ],
        "pollDivisionIds": [
          10138647
        ],
        "postalCode": "L8H1S7",
        "streetName": "ROXBOROUGH",
        "streetDirectionId": null,
        "streetTypeId": "AVE",
        "placeName": "HAMILTON",
        "streetNameDisplayText": "ROXBOROUGH AVE, HAMILTON"
      }
    ]
  },
  {
    "postal": "L8H2N7",
    "result": [
      {
        "electoralDistricts": [
          {
            "election": null,
            "id": 37,
            "name": "Hamilton East—Stoney Creek"
          }
        ],
        "pollDivisionIds": [
          10138648
        ],
        "postalCode": "L8H2N7",
        "streetName": "NUGENT",
        "streetDirectionId": null,
        "streetTypeId": "DR",
        "placeName": "HAMILTON",
        "streetNameDisplayText": "NUGENT DR, HAMILTON"
      }
    ]
  },
  {
    "postal": "L8H0H8",
    "result": []
  },
  {
    "postal": "L8H7Z4",
    "result": []
  },
  {
    "postal": "L8H7B1",
    "result": [
      {
        "electoralDistricts": [
          {
            "election": null,
            "id": 37,
            "name": "Hamilton East—Stoney Creek"
          }
        ],
        "pollDivisionIds": [
          10138640
        ],
        "postalCode": "L8H7B1",
        "streetName": "FITCH",
        "streetDirectionId": null,
        "streetTypeId": "AVE",
        "placeName": "HAMILTON",
        "streetNameDisplayText": "FITCH AVE, HAMILTON"
      }
    ]
  },
  {
    "postal": "L8H7P8",
    "result": [
      {
        "electoralDistricts": [
          {
            "election": null,
            "id": 37,
            "name": "Hamilton East—Stoney Creek"
          }
        ],
        "pollDivisionIds": [
          10138642
        ],
        "postalCode": "L8H7P8",
        "streetName": "MELVIN",
        "streetDirectionId": null,
        "streetTypeId": "AVE",
        "placeName": "HAMILTON",
        "streetNameDisplayText": "MELVIN AVE, HAMILTON"
      }
    ]
  },
  {
    "postal": "L8H7N0",
    "result": []
  },
  {
    "postal": "L8H3Y5",
    "result": [
      {
        "electoralDistricts": [
          {
            "election": null,
            "id": 37,
            "name": "Hamilton East—Stoney Creek"
          }
        ],
        "pollDivisionIds": [
          10138642
        ],
        "postalCode": "L8H3Y5",
        "streetName": "HEATH",
        "streetDirectionId": null,
        "streetTypeId": "ST",
        "placeName": "HAMILTON",
        "streetNameDisplayText": "HEATH ST, HAMILTON"
      }
    ]
  },
  {
    "postal": "L8H6K1",
    "result": [
      {
        "electoralDistricts": [
          {
            "election": null,
            "id": 37,
            "name": "Hamilton East—Stoney Creek"
          }
        ],
        "pollDivisionIds": [
          10138642
        ],
        "postalCode": "L8H6K1",
        "streetName": "SHYNAL",
        "streetDirectionId": null,
        "streetTypeId": "AVE",
        "placeName": "HAMILTON",
        "streetNameDisplayText": "SHYNAL AVE, HAMILTON"
      }
    ]
  },
  {
    "postal": "L8H9X5",
    "result": []
  },
  {
    "postal": "L8H7S5",
    "result": []
  },
  {
    "postal": "L8H0A4",
    "result": []
  },
  {
    "postal": "L8H4T5",
    "result": [
      {
        "electoralDistricts": [
          {
            "election": null,
            "id": 36,
            "name": "Hamilton Centre"
          }
        ],
        "pollDivisionIds": [
          10138620
        ],
        "postalCode": "L8H4T5",
        "streetName": "KENILWORTH",
        "streetDirectionId": "N",
        "streetTypeId": "AVE",
        "placeName": "HAMILTON",
        "streetNameDisplayText": "KENILWORTH AVE N, HAMILTON"
      }
    ]
  },
  {
    "postal": "L8H5K1",
    "result": [
      {
        "electoralDistricts": [
          {
            "election": null,
            "id": 37,
            "name": "Hamilton East—Stoney Creek"
          }
        ],
        "pollDivisionIds": [
          10138641
        ],
        "postalCode": "L8H5K1",
        "streetName": "PALING",
        "streetDirectionId": null,
        "streetTypeId": "AVE",
        "placeName": "HAMILTON",
        "streetNameDisplayText": "PALING AVE, HAMILTON"
      }
    ]
  },
  {
    "postal": "L8H0Z9",
    "result": []
  },
  {
    "postal": "L8H7T2",
    "result": [
      {
        "electoralDistricts": [
          {
            "election": null,
            "id": 37,
            "name": "Hamilton East—Stoney Creek"
          }
        ],
        "pollDivisionIds": [
          10138648
        ],
        "postalCode": "L8H7T2",
        "streetName": "KENTLEY",
        "streetDirectionId": null,
        "streetTypeId": "DR",
        "placeName": "HAMILTON",
        "streetNameDisplayText": "KENTLEY DR, HAMILTON"
      }
    ]
  },
  {
    "postal": "L8H1L5",
    "result": [
      {
        "electoralDistricts": [
          {
            "election": null,
            "id": 37,
            "name": "Hamilton East—Stoney Creek"
          }
        ],
        "pollDivisionIds": [
          10138647
        ],
        "postalCode": "L8H1L5",
        "streetName": "DUNSMURE",
        "streetDirectionId": null,
        "streetTypeId": "RD",
        "placeName": "HAMILTON",
        "streetNameDisplayText": "DUNSMURE RD, HAMILTON"
      }
    ]
  },
  {
    "postal": "L8H3N5",
    "result": [
      {
        "electoralDistricts": [
          {
            "election": null,
            "id": 36,
            "name": "Hamilton Centre"
          }
        ],
        "pollDivisionIds": [
          10138620
        ],
        "postalCode": "L8H3N5",
        "streetName": "STAPLETON",
        "streetDirectionId": null,
        "streetTypeId": "AVE",
        "placeName": "HAMILTON",
        "streetNameDisplayText": "STAPLETON AVE, HAMILTON"
      }
    ]
  },
  {
    "postal": "L8H6H4",
    "result": [
      {
        "electoralDistricts": [
          {
            "election": null,
            "id": 37,
            "name": "Hamilton East—Stoney Creek"
          }
        ],
        "pollDivisionIds": [
          10138642
        ],
        "postalCode": "L8H6H4",
        "streetName": "BRIGHTON",
        "streetDirectionId": null,
        "streetTypeId": "AVE",
        "placeName": "HAMILTON",
        "streetNameDisplayText": "BRIGHTON AVE, HAMILTON"
      }
    ]
  },
  {
    "postal": "L8H5A5",
    "result": [
      {
        "electoralDistricts": [
          {
            "election": null,
            "id": 37,
            "name": "Hamilton East—Stoney Creek"
          }
        ],
        "pollDivisionIds": [
          10138646
        ],
        "postalCode": "L8H5A5",
        "streetName": "BARONS",
        "streetDirectionId": "N",
        "streetTypeId": "AVE",
        "placeName": "HAMILTON",
        "streetNameDisplayText": "BARONS AVE N, HAMILTON"
      }
    ]
  },
  {
    "postal": "L8H3R9",
    "result": [
      {
        "electoralDistricts": [
          {
            "election": null,
            "id": 37,
            "name": "Hamilton East—Stoney Creek"
          }
        ],
        "pollDivisionIds": [
          10138642
        ],
        "postalCode": "L8H3R9",
        "streetName": "MORLEY",
        "streetDirectionId": null,
        "streetTypeId": "ST",
        "placeName": "HAMILTON",
        "streetNameDisplayText": "MORLEY ST, HAMILTON"
      }
    ]
  },
  {
    "postal": "L8H7L8",
    "result": []
  },
  {
    "postal": "L8H6T6",
    "result": [
      {
        "electoralDistricts": [
          {
            "election": null,
            "id": 37,
            "name": "Hamilton East—Stoney Creek"
          }
        ],
        "pollDivisionIds": [
          10138642
        ],
        "postalCode": "L8H6T6",
        "streetName": "TALBOT",
        "streetDirectionId": null,
        "streetTypeId": "ST",
        "placeName": "HAMILTON",
        "streetNameDisplayText": "TALBOT ST, HAMILTON"
      }
    ]
  },
  {
    "postal": "L8H7Y7",
    "result": []
  },
  {
    "postal": "L8H3M8",
    "result": [
      {
        "electoralDistricts": [
          {
            "election": null,
            "id": 36,
            "name": "Hamilton Centre"
          }
        ],
        "pollDivisionIds": [
          10138620
        ],
        "postalCode": "L8H3M8",
        "streetName": "BENSON",
        "streetDirectionId": null,
        "streetTypeId": "AVE",
        "placeName": "HAMILTON",
        "streetNameDisplayText": "BENSON AVE, HAMILTON"
      }
    ]
  },
  {
    "postal": "L8H2E0",
    "result": []
  },
  {
    "postal": "L8H4B5",
    "result": [
      {
        "electoralDistricts": [
          {
            "election": null,
            "id": 36,
            "name": "Hamilton Centre"
          }
        ],
        "pollDivisionIds": [
          10138619
        ],
        "postalCode": "L8H4B5",
        "streetName": "LONDON",
        "streetDirectionId": "N",
        "streetTypeId": "ST",
        "placeName": "HAMILTON",
        "streetNameDisplayText": "LONDON ST N, HAMILTON"
      }
    ]
  },
  {
    "postal": "L8H1J3",
    "result": [
      {
        "electoralDistricts": [
          {
            "election": null,
            "id": 37,
            "name": "Hamilton East—Stoney Creek"
          }
        ],
        "pollDivisionIds": [
          10138646
        ],
        "postalCode": "L8H1J3",
        "streetName": "DUNSMURE",
        "streetDirectionId": null,
        "streetTypeId": "RD",
        "placeName": "HAMILTON",
        "streetNameDisplayText": "DUNSMURE RD, HAMILTON"
      }
    ]
  },
  {
    "postal": "L8H5S6",
    "result": [
      {
        "electoralDistricts": [
          {
            "election": null,
            "id": 37,
            "name": "Hamilton East—Stoney Creek"
          }
        ],
        "pollDivisionIds": [
          10138647
        ],
        "postalCode": "L8H5S6",
        "streetName": "IVON",
        "streetDirectionId": null,
        "streetTypeId": "AVE",
        "placeName": "HAMILTON",
        "streetNameDisplayText": "IVON AVE, HAMILTON"
      }
    ]
  },
  {
    "postal": "L8H8P7",
    "result": []
  },
  {
    "postal": "L8H7S7",
    "result": []
  },
  {
    "postal": "L8H4C2",
    "result": [
      {
        "electoralDistricts": [
          {
            "election": null,
            "id": 36,
            "name": "Hamilton Centre"
          }
        ],
        "pollDivisionIds": [
          10138620
        ],
        "postalCode": "L8H4C2",
        "streetName": "LONDON",
        "streetDirectionId": "N",
        "streetTypeId": "ST",
        "placeName": "HAMILTON",
        "streetNameDisplayText": "LONDON ST N, HAMILTON"
      }
    ]
  },
  {
    "postal": "L8H5Y0",
    "result": []
  },
  {
    "postal": "L8H2V7",
    "result": [
      {
        "electoralDistricts": [
          {
            "election": null,
            "id": 36,
            "name": "Hamilton Centre"
          }
        ],
        "pollDivisionIds": [
          10138620,
          10138619
        ],
        "postalCode": "L8H2V7",
        "streetName": "BARTON",
        "streetDirectionId": "E",
        "streetTypeId": "ST",
        "placeName": "HAMILTON",
        "streetNameDisplayText": "BARTON ST E, HAMILTON"
      }
    ]
  },
  {
    "postal": "L8H8P5",
    "result": []
  },
  {
    "postal": "L8H5P5",
    "result": [
      {
        "electoralDistricts": [
          {
            "election": null,
            "id": 37,
            "name": "Hamilton East—Stoney Creek"
          }
        ],
        "pollDivisionIds": [
          10138642
        ],
        "postalCode": "L8H5P5",
        "streetName": "TOLTON",
        "streetDirectionId": null,
        "streetTypeId": "AVE",
        "placeName": "HAMILTON",
        "streetNameDisplayText": "TOLTON AVE, HAMILTON"
      }
    ]
  },
  {
    "postal": "L8H5Z0",
    "result": []
  },
  {
    "postal": "L8H9B0",
    "result": []
  },
  {
    "postal": "L8H1L0",
    "result": []
  },
  {
    "postal": "L8H0B5",
    "result": []
  },
  {
    "postal": "L8H3L2",
    "result": [
      {
        "electoralDistricts": [
          {
            "election": null,
            "id": 37,
            "name": "Hamilton East—Stoney Creek"
          }
        ],
        "pollDivisionIds": [
          10138640
        ],
        "postalCode": "L8H3L2",
        "streetName": "BURLINGTON",
        "streetDirectionId": "E",
        "streetTypeId": "ST",
        "placeName": "HAMILTON",
        "streetNameDisplayText": "BURLINGTON ST E, HAMILTON"
      }
    ]
  },
  {
    "postal": "L8H3B7",
    "result": [
      {
        "electoralDistricts": [
          {
            "election": null,
            "id": 37,
            "name": "Hamilton East—Stoney Creek"
          }
        ],
        "pollDivisionIds": [
          10138642
        ],
        "postalCode": "L8H3B7",
        "streetName": "VANSITMART",
        "streetDirectionId": null,
        "streetTypeId": "AVE",
        "placeName": "HAMILTON",
        "streetNameDisplayText": "VANSITMART AVE, HAMILTON"
      }
    ]
  },
  {
    "postal": "L8H8L1",
    "result": []
  },
  {
    "postal": "L8H5M4",
    "result": [
      {
        "electoralDistricts": [
          {
            "election": null,
            "id": 37,
            "name": "Hamilton East—Stoney Creek"
          }
        ],
        "pollDivisionIds": [
          10138647
        ],
        "postalCode": "L8H5M4",
        "streetName": "NORMANHURST",
        "streetDirectionId": null,
        "streetTypeId": "AVE",
        "placeName": "HAMILTON",
        "streetNameDisplayText": "NORMANHURST AVE, HAMILTON"
      }
    ]
  },
  {
    "postal": "L8H4G9",
    "result": [
      {
        "electoralDistricts": [
          {
            "election": null,
            "id": 36,
            "name": "Hamilton Centre"
          }
        ],
        "pollDivisionIds": [
          10138620
        ],
        "postalCode": "L8H4G9",
        "streetName": "FRASER",
        "streetDirectionId": null,
        "streetTypeId": "AVE",
        "placeName": "HAMILTON",
        "streetNameDisplayText": "FRASER AVE, HAMILTON"
      }
    ]
  },
  {
    "postal": "L8H0P0",
    "result": []
  },
  {
    "postal": "L8H8G2",
    "result": []
  },
  {
    "postal": "L8H1V9",
    "result": [
      {
        "electoralDistricts": [
          {
            "election": null,
            "id": 36,
            "name": "Hamilton Centre"
          }
        ],
        "pollDivisionIds": [
          10138619
        ],
        "postalCode": "L8H1V9",
        "streetName": "CANNON",
        "streetDirectionId": "E",
        "streetTypeId": "ST",
        "placeName": "HAMILTON",
        "streetNameDisplayText": "CANNON ST E, HAMILTON"
      }
    ]
  },
  {
    "postal": "L8H8N8",
    "result": []
  },
  {
    "postal": "L8H6S8",
    "result": [
      {
        "electoralDistricts": [
          {
            "election": null,
            "id": 37,
            "name": "Hamilton East—Stoney Creek"
          }
        ],
        "pollDivisionIds": [
          10138642
        ],
        "postalCode": "L8H6S8",
        "streetName": "OSBORNE",
        "streetDirectionId": null,
        "streetTypeId": "ST",
        "placeName": "HAMILTON",
        "streetNameDisplayText": "OSBORNE ST, HAMILTON"
      }
    ]
  },
  {
    "postal": "L8H8H2",
    "result": []
  },
  {
    "postal": "L8H5R8",
    "result": [
      {
        "electoralDistricts": [
          {
            "election": null,
            "id": 37,
            "name": "Hamilton East—Stoney Creek"
          }
        ],
        "pollDivisionIds": [
          10138642
        ],
        "postalCode": "L8H5R8",
        "streetName": "JULIAN",
        "streetDirectionId": null,
        "streetTypeId": "AVE",
        "placeName": "HAMILTON",
        "streetNameDisplayText": "JULIAN AVE, HAMILTON"
      },
      {
        "electoralDistricts": [
          {
            "election": null,
            "id": 37,
            "name": "Hamilton East—Stoney Creek"
          }
        ],
        "pollDivisionIds": [
          10138642
        ],
        "postalCode": "L8H5R8",
        "streetName": "JULIAN",
        "streetDirectionId": null,
        "streetTypeId": "DR",
        "placeName": "HAMILTON",
        "streetNameDisplayText": "JULIAN DR, HAMILTON"
      }
    ]
  },
  {
    "postal": "L8H5L4",
    "result": [
      {
        "electoralDistricts": [
          {
            "election": null,
            "id": 37,
            "name": "Hamilton East—Stoney Creek"
          }
        ],
        "pollDivisionIds": [
          10138642
        ],
        "postalCode": "L8H5L4",
        "streetName": "SHELBY",
        "streetDirectionId": null,
        "streetTypeId": "AVE",
        "placeName": "HAMILTON",
        "streetNameDisplayText": "SHELBY AVE, HAMILTON"
      }
    ]
  },
  {
    "postal": "L8H9E1",
    "result": []
  },
  {
    "postal": "L8H1C4",
    "result": [
      {
        "electoralDistricts": [
          {
            "election": null,
            "id": 37,
            "name": "Hamilton East—Stoney Creek"
          }
        ],
        "pollDivisionIds": [
          10138646
        ],
        "postalCode": "L8H1C4",
        "streetName": "MAIN",
        "streetDirectionId": "E",
        "streetTypeId": "ST",
        "placeName": "HAMILTON",
        "streetNameDisplayText": "MAIN ST E, HAMILTON"
      }
    ]
  },
  {
    "postal": "L8H8W5",
    "result": []
  },
  {
    "postal": "L8H1Y4",
    "result": [
      {
        "electoralDistricts": [
          {
            "election": null,
            "id": 37,
            "name": "Hamilton East—Stoney Creek"
          }
        ],
        "pollDivisionIds": [
          10138644
        ],
        "postalCode": "L8H1Y4",
        "streetName": "BRITANNIA",
        "streetDirectionId": null,
        "streetTypeId": "AVE",
        "placeName": "HAMILTON",
        "streetNameDisplayText": "BRITANNIA AVE, HAMILTON"
      }
    ]
  },
  {
    "postal": "L8H1C0",
    "result": []
  },
  {
    "postal": "L8H2J2",
    "result": [
      {
        "electoralDistricts": [
          {
            "election": null,
            "id": 37,
            "name": "Hamilton East—Stoney Creek"
          }
        ],
        "pollDivisionIds": [
          10138642
        ],
        "postalCode": "L8H2J2",
        "streetName": "MELVIN",
        "streetDirectionId": null,
        "streetTypeId": "AVE",
        "placeName": "HAMILTON",
        "streetNameDisplayText": "MELVIN AVE, HAMILTON"
      }
    ]
  },
  {
    "postal": "L8H2J0",
    "result": []
  },
  {
    "postal": "L8H7A3",
    "result": [
      {
        "electoralDistricts": [
          {
            "election": null,
            "id": 37,
            "name": "Hamilton East—Stoney Creek"
          }
        ],
        "pollDivisionIds": [
          10138640
        ],
        "postalCode": "L8H7A3",
        "streetName": "KIRK",
        "streetDirectionId": null,
        "streetTypeId": "RD",
        "placeName": "HAMILTON",
        "streetNameDisplayText": "KIRK RD, HAMILTON"
      }
    ]
  },
  {
    "postal": "L8H8M1",
    "result": []
  },
  {
    "postal": "L8H7T9",
    "result": []
  },
  {
    "postal": "L8H6C0",
    "result": []
  },
  {
    "postal": "L8H7X1",
    "result": []
  },
  {
    "postal": "L8H0G1",
    "result": []
  },
  {
    "postal": "L8H4X2",
    "result": [
      {
        "electoralDistricts": [
          {
            "election": null,
            "id": 37,
            "name": "Hamilton East—Stoney Creek"
          }
        ],
        "pollDivisionIds": [
          10138641
        ],
        "postalCode": "L8H4X2",
        "streetName": "HARMONY",
        "streetDirectionId": null,
        "streetTypeId": "AVE",
        "placeName": "HAMILTON",
        "streetNameDisplayText": "HARMONY AVE, HAMILTON"
      }
    ]
  },
  {
    "postal": "L8H0N6",
    "result": []
  },
  {
    "postal": "L8H8E3",
    "result": []
  },
  {
    "postal": "L8H5S8",
    "result": [
      {
        "electoralDistricts": [
          {
            "election": null,
            "id": 37,
            "name": "Hamilton East—Stoney Creek"
          }
        ],
        "pollDivisionIds": [
          10138647
        ],
        "postalCode": "L8H5S8",
        "streetName": "IVON",
        "streetDirectionId": null,
        "streetTypeId": "AVE",
        "placeName": "HAMILTON",
        "streetNameDisplayText": "IVON AVE, HAMILTON"
      }
    ]
  },
  {
    "postal": "L8H0R0",
    "result": []
  },
  {
    "postal": "L8H6J6",
    "result": [
      {
        "electoralDistricts": [
          {
            "election": null,
            "id": 37,
            "name": "Hamilton East—Stoney Creek"
          }
        ],
        "pollDivisionIds": [
          10138642
        ],
        "postalCode": "L8H6J6",
        "streetName": "BURGESS",
        "streetDirectionId": null,
        "streetTypeId": "AVE",
        "placeName": "HAMILTON",
        "streetNameDisplayText": "BURGESS AVE, HAMILTON"
      }
    ]
  },
  {
    "postal": "L8H4B4",
    "result": [
      {
        "electoralDistricts": [
          {
            "election": null,
            "id": 36,
            "name": "Hamilton Centre"
          }
        ],
        "pollDivisionIds": [
          10138619
        ],
        "postalCode": "L8H4B4",
        "streetName": "LONDON",
        "streetDirectionId": "N",
        "streetTypeId": "ST",
        "placeName": "HAMILTON",
        "streetNameDisplayText": "LONDON ST N, HAMILTON"
      }
    ]
  },
  {
    "postal": "L8H7E3",
    "result": [
      {
        "electoralDistricts": [
          {
            "election": null,
            "id": 37,
            "name": "Hamilton East—Stoney Creek"
          }
        ],
        "pollDivisionIds": [
          10138640
        ],
        "postalCode": "L8H7E3",
        "streetName": "GRANVILLE",
        "streetDirectionId": null,
        "streetTypeId": "AVE",
        "placeName": "HAMILTON",
        "streetNameDisplayText": "GRANVILLE AVE, HAMILTON"
      }
    ]
  },
  {
    "postal": "L8H3N6",
    "result": [
      {
        "electoralDistricts": [
          {
            "election": null,
            "id": 36,
            "name": "Hamilton Centre"
          }
        ],
        "pollDivisionIds": [
          10138620
        ],
        "postalCode": "L8H3N6",
        "streetName": "STAPLETON",
        "streetDirectionId": null,
        "streetTypeId": "AVE",
        "placeName": "HAMILTON",
        "streetNameDisplayText": "STAPLETON AVE, HAMILTON"
      }
    ]
  },
  {
    "postal": "L8H3X6",
    "result": [
      {
        "electoralDistricts": [
          {
            "election": null,
            "id": 37,
            "name": "Hamilton East—Stoney Creek"
          }
        ],
        "pollDivisionIds": [
          10138642
        ],
        "postalCode": "L8H3X6",
        "streetName": "GRACE",
        "streetDirectionId": null,
        "streetTypeId": "AVE",
        "placeName": "HAMILTON",
        "streetNameDisplayText": "GRACE AVE, HAMILTON"
      }
    ]
  },
  {
    "postal": "L8H8L0",
    "result": []
  },
  {
    "postal": "L8H8N1",
    "result": []
  },
  {
    "postal": "L8H4J0",
    "result": []
  },
  {
    "postal": "L8H0X7",
    "result": []
  },
  {
    "postal": "L8H6S4",
    "result": [
      {
        "electoralDistricts": [
          {
            "election": null,
            "id": 37,
            "name": "Hamilton East—Stoney Creek"
          }
        ],
        "pollDivisionIds": [
          10138642
        ],
        "postalCode": "L8H6S4",
        "streetName": "BRUNSWICK",
        "streetDirectionId": null,
        "streetTypeId": "ST",
        "placeName": "HAMILTON",
        "streetNameDisplayText": "BRUNSWICK ST, HAMILTON"
      }
    ]
  },
  {
    "postal": "L8H0Z0",
    "result": []
  },
  {
    "postal": "L8H9X8",
    "result": []
  },
  {
    "postal": "L8H3H3",
    "result": [
      {
        "electoralDistricts": [
          {
            "election": null,
            "id": 36,
            "name": "Hamilton Centre"
          }
        ],
        "pollDivisionIds": [
          10138620
        ],
        "postalCode": "L8H3H3",
        "streetName": "MCANULTY",
        "streetDirectionId": null,
        "streetTypeId": "BLVD",
        "placeName": "HAMILTON",
        "streetNameDisplayText": "MCANULTY BLVD, HAMILTON"
      }
    ]
  },
  {
    "postal": "L8H7S2",
    "result": []
  },
  {
    "postal": "L8H3T3",
    "result": [
      {
        "electoralDistricts": [
          {
            "election": null,
            "id": 37,
            "name": "Hamilton East—Stoney Creek"
          }
        ],
        "pollDivisionIds": [
          10138642
        ],
        "postalCode": "L8H3T3",
        "streetName": "BRAMPTON",
        "streetDirectionId": null,
        "streetTypeId": "ST",
        "placeName": "HAMILTON",
        "streetNameDisplayText": "BRAMPTON ST, HAMILTON"
      }
    ]
  },
  {
    "postal": "L8H9P3",
    "result": []
  },
  {
    "postal": "L8H4H8",
    "result": [
      {
        "electoralDistricts": [
          {
            "election": null,
            "id": 36,
            "name": "Hamilton Centre"
          }
        ],
        "pollDivisionIds": [
          10138619
        ],
        "postalCode": "L8H4H8",
        "streetName": "PROVINCE",
        "streetDirectionId": "N",
        "streetTypeId": "ST",
        "placeName": "HAMILTON",
        "streetNameDisplayText": "PROVINCE ST N, HAMILTON"
      }
    ]
  },
  {
    "postal": "L8H6R1",
    "result": [
      {
        "electoralDistricts": [
          {
            "election": null,
            "id": 37,
            "name": "Hamilton East—Stoney Creek"
          }
        ],
        "pollDivisionIds": [
          10138642
        ],
        "postalCode": "L8H6R1",
        "streetName": "WAVERLY",
        "streetDirectionId": null,
        "streetTypeId": "ST",
        "placeName": "HAMILTON",
        "streetNameDisplayText": "WAVERLY ST, HAMILTON"
      }
    ]
  },
  {
    "postal": "L8H1S0",
    "result": []
  },
  {
    "postal": "L8H3W8",
    "result": [
      {
        "electoralDistricts": [
          {
            "election": null,
            "id": 37,
            "name": "Hamilton East—Stoney Creek"
          }
        ],
        "pollDivisionIds": [
          10138642
        ],
        "postalCode": "L8H3W8",
        "streetName": "GRACE",
        "streetDirectionId": null,
        "streetTypeId": "AVE",
        "placeName": "HAMILTON",
        "streetNameDisplayText": "GRACE AVE, HAMILTON"
      }
    ]
  },
  {
    "postal": "L8H4S3",
    "result": [
      {
        "electoralDistricts": [
          {
            "election": null,
            "id": 36,
            "name": "Hamilton Centre"
          }
        ],
        "pollDivisionIds": [
          10138619
        ],
        "postalCode": "L8H4S3",
        "streetName": "KENILWORTH",
        "streetDirectionId": "N",
        "streetTypeId": "AVE",
        "placeName": "HAMILTON",
        "streetNameDisplayText": "KENILWORTH AVE N, HAMILTON"
      }
    ]
  },
  {
    "postal": "L8H1B6",
    "result": [
      {
        "electoralDistricts": [
          {
            "election": null,
            "id": 37,
            "name": "Hamilton East—Stoney Creek"
          }
        ],
        "pollDivisionIds": [
          10138654
        ],
        "postalCode": "L8H1B6",
        "streetName": "DELENA",
        "streetDirectionId": "S",
        "streetTypeId": "AVE",
        "placeName": "HAMILTON",
        "streetNameDisplayText": "DELENA AVE S, HAMILTON"
      }
    ]
  },
  {
    "postal": "L8H8R3",
    "result": []
  },
  {
    "postal": "L8H4V9",
    "result": [
      {
        "electoralDistricts": [
          {
            "election": null,
            "id": 37,
            "name": "Hamilton East—Stoney Creek"
          }
        ],
        "pollDivisionIds": [
          10138644
        ],
        "postalCode": "L8H4V9",
        "streetName": "ARCHIBALD",
        "streetDirectionId": null,
        "streetTypeId": "ST",
        "placeName": "HAMILTON",
        "streetNameDisplayText": "ARCHIBALD ST, HAMILTON"
      }
    ]
  },
  {
    "postal": "L8H9W4",
    "result": []
  },
  {
    "postal": "L8H3T4",
    "result": [
      {
        "electoralDistricts": [
          {
            "election": null,
            "id": 37,
            "name": "Hamilton East—Stoney Creek"
          }
        ],
        "pollDivisionIds": [
          10138642
        ],
        "postalCode": "L8H3T4",
        "streetName": "BRAMPTON",
        "streetDirectionId": null,
        "streetTypeId": "ST",
        "placeName": "HAMILTON",
        "streetNameDisplayText": "BRAMPTON ST, HAMILTON"
      }
    ]
  },
  {
    "postal": "L8H5C7",
    "result": [
      {
        "electoralDistricts": [
          {
            "election": null,
            "id": 37,
            "name": "Hamilton East—Stoney Creek"
          }
        ],
        "pollDivisionIds": [
          10138646
        ],
        "postalCode": "L8H5C7",
        "streetName": "TRAGINA",
        "streetDirectionId": "N",
        "streetTypeId": "AVE",
        "placeName": "HAMILTON",
        "streetNameDisplayText": "TRAGINA AVE N, HAMILTON"
      }
    ]
  },
  {
    "postal": "L8H3Y1",
    "result": [
      {
        "electoralDistricts": [
          {
            "election": null,
            "id": 37,
            "name": "Hamilton East—Stoney Creek"
          }
        ],
        "pollDivisionIds": [
          10138642
        ],
        "postalCode": "L8H3Y1",
        "streetName": "LEASIDE",
        "streetDirectionId": null,
        "streetTypeId": "RD",
        "placeName": "HAMILTON",
        "streetNameDisplayText": "LEASIDE RD, HAMILTON"
      }
    ]
  },
  {
    "postal": "L8H5V0",
    "result": []
  },
  {
    "postal": "L8H8G8",
    "result": []
  },
  {
    "postal": "L8H8B1",
    "result": []
  },
  {
    "postal": "L8H4P5",
    "result": [
      {
        "electoralDistricts": [
          {
            "election": null,
            "id": 36,
            "name": "Hamilton Centre"
          }
        ],
        "pollDivisionIds": [
          10138619
        ],
        "postalCode": "L8H4P5",
        "streetName": "TUXEDO",
        "streetDirectionId": "N",
        "streetTypeId": "AVE",
        "placeName": "HAMILTON",
        "streetNameDisplayText": "TUXEDO AVE N, HAMILTON"
      }
    ]
  },
  {
    "postal": "L8H7B2",
    "result": [
      {
        "electoralDistricts": [
          {
            "election": null,
            "id": 37,
            "name": "Hamilton East—Stoney Creek"
          }
        ],
        "pollDivisionIds": [
          10138640
        ],
        "postalCode": "L8H7B2",
        "streetName": "FITCH",
        "streetDirectionId": null,
        "streetTypeId": "AVE",
        "placeName": "HAMILTON",
        "streetNameDisplayText": "FITCH AVE, HAMILTON"
      }
    ]
  },
  {
    "postal": "L8H0R2",
    "result": []
  },
  {
    "postal": "L8H4M4",
    "result": [
      {
        "electoralDistricts": [
          {
            "election": null,
            "id": 36,
            "name": "Hamilton Centre"
          }
        ],
        "pollDivisionIds": [
          10138619
        ],
        "postalCode": "L8H4M4",
        "streetName": "WEXFORD",
        "streetDirectionId": "N",
        "streetTypeId": "AVE",
        "placeName": "HAMILTON",
        "streetNameDisplayText": "WEXFORD AVE N, HAMILTON"
      }
    ]
  },
  {
    "postal": "L8H7M4",
    "result": []
  },
  {
    "postal": "L8H9S7",
    "result": []
  },
  {
    "postal": "L8H5Z7",
    "result": [
      {
        "electoralDistricts": [
          {
            "election": null,
            "id": 37,
            "name": "Hamilton East—Stoney Creek"
          }
        ],
        "pollDivisionIds": [
          10138647
        ],
        "postalCode": "L8H5Z7",
        "streetName": "GLASSCO",
        "streetDirectionId": "N",
        "streetTypeId": "AVE",
        "placeName": "HAMILTON",
        "streetNameDisplayText": "GLASSCO AVE N, HAMILTON"
      }
    ]
  },
  {
    "postal": "L8H7J7",
    "result": []
  },
  {
    "postal": "L8H8R8",
    "result": []
  },
  {
    "postal": "L8H9X1",
    "result": []
  },
  {
    "postal": "L8H5M9",
    "result": [
      {
        "electoralDistricts": [
          {
            "election": null,
            "id": 37,
            "name": "Hamilton East—Stoney Creek"
          }
        ],
        "pollDivisionIds": [
          10138642
        ],
        "postalCode": "L8H5M9",
        "streetName": "NORMANHURST",
        "streetDirectionId": null,
        "streetTypeId": "AVE",
        "placeName": "HAMILTON",
        "streetNameDisplayText": "NORMANHURST AVE, HAMILTON"
      }
    ]
  },
  {
    "postal": "L8H9B4",
    "result": []
  },
  {
    "postal": "L8H0L9",
    "result": []
  },
  {
    "postal": "L8H9G4",
    "result": []
  },
  {
    "postal": "L8H1J4",
    "result": [
      {
        "electoralDistricts": [
          {
            "election": null,
            "id": 37,
            "name": "Hamilton East—Stoney Creek"
          }
        ],
        "pollDivisionIds": [
          10138646
        ],
        "postalCode": "L8H1J4",
        "streetName": "DUNSMURE",
        "streetDirectionId": null,
        "streetTypeId": "RD",
        "placeName": "HAMILTON",
        "streetNameDisplayText": "DUNSMURE RD, HAMILTON"
      }
    ]
  },
  {
    "postal": "L8H0W6",
    "result": []
  }
]
