[
  {
    "postal": "N5R9J6",
    "result": []
  },
  {
    "postal": "N5R9Z5",
    "result": []
  },
  {
    "postal": "N5R7H8",
    "result": []
  },
  {
    "postal": "N5R0P6",
    "result": []
  },
  {
    "postal": "N5R0S7",
    "result": []
  },
  {
    "postal": "N5R8B9",
    "result": []
  },
  {
    "postal": "N5R2A6",
    "result": [
      {
        "electoralDistricts": [
          {
            "election": null,
            "id": 26,
            "name": "Elgin—Middlesex—London"
          }
        ],
        "pollDivisionIds": [
          10143317
        ],
        "postalCode": "N5R2A6",
        "streetName": "LEILA",
        "streetDirectionId": null,
        "streetTypeId": "ST",
        "placeName": "ST THOMAS",
        "streetNameDisplayText": "LEILA ST, ST THOMAS"
      }
    ]
  },
  {
    "postal": "N5R7V2",
    "result": []
  },
  {
    "postal": "N5R9P4",
    "result": []
  },
  {
    "postal": "N5R6G0",
    "result": []
  },
  {
    "postal": "N5R2K0",
    "result": []
  },
  {
    "postal": "N5R7N6",
    "result": []
  },
  {
    "postal": "N5R5R3",
    "result": [
      {
        "electoralDistricts": [
          {
            "election": null,
            "id": 26,
            "name": "Elgin—Middlesex—London"
          }
        ],
        "pollDivisionIds": [
          10137975
        ],
        "postalCode": "N5R5R3",
        "streetName": "MANOR",
        "streetDirectionId": null,
        "streetTypeId": "RD",
        "placeName": "ST THOMAS",
        "streetNameDisplayText": "MANOR RD, ST THOMAS"
      }
    ]
  },
  {
    "postal": "N5R7K0",
    "result": []
  },
  {
    "postal": "N5R3R2",
    "result": [
      {
        "electoralDistricts": [
          {
            "election": null,
            "id": 26,
            "name": "Elgin—Middlesex—London"
          }
        ],
        "pollDivisionIds": [
          10137997
        ],
        "postalCode": "N5R3R2",
        "streetName": "WILSON",
        "streetDirectionId": null,
        "streetTypeId": "AVE",
        "placeName": "ST THOMAS",
        "streetNameDisplayText": "WILSON AVE, ST THOMAS"
      }
    ]
  },
  {
    "postal": "N5R0J1",
    "result": []
  },
  {
    "postal": "N5R0B0",
    "result": []
  },
  {
    "postal": "N5R5Z2",
    "result": [
      {
        "electoralDistricts": [
          {
            "election": null,
            "id": 26,
            "name": "Elgin—Middlesex—London"
          }
        ],
        "pollDivisionIds": [
          10137993
        ],
        "postalCode": "N5R5Z2",
        "streetName": "HINCKS",
        "streetDirectionId": null,
        "streetTypeId": "ST",
        "placeName": "ST THOMAS",
        "streetNameDisplayText": "HINCKS ST, ST THOMAS"
      }
    ]
  },
  {
    "postal": "N5R7P3",
    "result": []
  },
  {
    "postal": "N5R2K3",
    "result": [
      {
        "electoralDistricts": [
          {
            "election": null,
            "id": 26,
            "name": "Elgin—Middlesex—London"
          }
        ],
        "pollDivisionIds": [
          10143317
        ],
        "postalCode": "N5R2K3",
        "streetName": "FOREST",
        "streetDirectionId": null,
        "streetTypeId": "AVE",
        "placeName": "ST THOMAS",
        "streetNameDisplayText": "FOREST AVE, ST THOMAS"
      }
    ]
  },
  {
    "postal": "N5R7Y6",
    "result": []
  },
  {
    "postal": "N5R1L9",
    "result": [
      {
        "electoralDistricts": [
          {
            "election": null,
            "id": 26,
            "name": "Elgin—Middlesex—London"
          }
        ],
        "pollDivisionIds": [
          10143317
        ],
        "postalCode": "N5R1L9",
        "streetName": "PINE",
        "streetDirectionId": null,
        "streetTypeId": "ST",
        "placeName": "ST THOMAS",
        "streetNameDisplayText": "PINE ST, ST THOMAS"
      }
    ]
  },
  {
    "postal": "N5R8T0",
    "result": []
  },
  {
    "postal": "N5R3K8",
    "result": [
      {
        "electoralDistricts": [
          {
            "election": null,
            "id": 26,
            "name": "Elgin—Middlesex—London"
          }
        ],
        "pollDivisionIds": [
          10137997
        ],
        "postalCode": "N5R3K8",
        "streetName": "METCALFE",
        "streetDirectionId": null,
        "streetTypeId": "ST",
        "placeName": "ST THOMAS",
        "streetNameDisplayText": "METCALFE ST, ST THOMAS"
      }
    ]
  },
  {
    "postal": "N5R5W9",
    "result": [
      {
        "electoralDistricts": [
          {
            "election": null,
            "id": 26,
            "name": "Elgin—Middlesex—London"
          }
        ],
        "pollDivisionIds": [
          10143318
        ],
        "postalCode": "N5R5W9",
        "streetName": "FARMINGTON",
        "streetDirectionId": null,
        "streetTypeId": "DR",
        "placeName": "ST THOMAS",
        "streetNameDisplayText": "FARMINGTON DR, ST THOMAS"
      },
      {
        "electoralDistricts": [
          {
            "election": null,
            "id": 26,
            "name": "Elgin—Middlesex—London"
          }
        ],
        "pollDivisionIds": [
          10143318
        ],
        "postalCode": "N5R5W9",
        "streetName": "HIGHVIEW",
        "streetDirectionId": null,
        "streetTypeId": "DR",
        "placeName": "ST THOMAS",
        "streetNameDisplayText": "HIGHVIEW DR, ST THOMAS"
      },
      {
        "electoralDistricts": [
          {
            "election": null,
            "id": 26,
            "name": "Elgin—Middlesex—London"
          }
        ],
        "pollDivisionIds": [
          10137992
        ],
        "postalCode": "N5R5W9",
        "streetName": "RIPLEY",
        "streetDirectionId": null,
        "streetTypeId": "LANE",
        "placeName": "ST THOMAS",
        "streetNameDisplayText": "RIPLEY LANE, ST THOMAS"
      }
    ]
  },
  {
    "postal": "N5R6T9",
    "result": []
  },
  {
    "postal": "N5R4H1",
    "result": [
      {
        "electoralDistricts": [
          {
            "election": null,
            "id": 26,
            "name": "Elgin—Middlesex—London"
          }
        ],
        "pollDivisionIds": [
          10143317
        ],
        "postalCode": "N5R4H1",
        "streetName": "FOURTH",
        "streetDirectionId": null,
        "streetTypeId": "AVE",
        "placeName": "ST THOMAS",
        "streetNameDisplayText": "FOURTH AVE, ST THOMAS"
      }
    ]
  },
  {
    "postal": "N5R7A2",
    "result": []
  },
  {
    "postal": "N5R5G0",
    "result": []
  },
  {
    "postal": "N5R8V5",
    "result": []
  },
  {
    "postal": "N5R2Y8",
    "result": [
      {
        "electoralDistricts": [
          {
            "election": null,
            "id": 26,
            "name": "Elgin—Middlesex—London"
          }
        ],
        "pollDivisionIds": [
          10143316
        ],
        "postalCode": "N5R2Y8",
        "streetName": "WALNUT",
        "streetDirectionId": null,
        "streetTypeId": "ST",
        "placeName": "ST THOMAS",
        "streetNameDisplayText": "WALNUT ST, ST THOMAS"
      }
    ]
  },
  {
    "postal": "N5R2B6",
    "result": [
      {
        "electoralDistricts": [
          {
            "election": null,
            "id": 26,
            "name": "Elgin—Middlesex—London"
          }
        ],
        "pollDivisionIds": [
          10143317
        ],
        "postalCode": "N5R2B6",
        "streetName": "CRUISE",
        "streetDirectionId": null,
        "streetTypeId": "ST",
        "placeName": "ST THOMAS",
        "streetNameDisplayText": "CRUISE ST, ST THOMAS"
      }
    ]
  },
  {
    "postal": "N5R4W8",
    "result": [
      {
        "electoralDistricts": [
          {
            "election": null,
            "id": 26,
            "name": "Elgin—Middlesex—London"
          }
        ],
        "pollDivisionIds": [
          10137998
        ],
        "postalCode": "N5R4W8",
        "streetName": "PARISH",
        "streetDirectionId": null,
        "streetTypeId": "ST",
        "placeName": "ST THOMAS",
        "streetNameDisplayText": "PARISH ST, ST THOMAS"
      }
    ]
  },
  {
    "postal": "N5R8H7",
    "result": []
  },
  {
    "postal": "N5R5P1",
    "result": [
      {
        "electoralDistricts": [
          {
            "election": null,
            "id": 26,
            "name": "Elgin—Middlesex—London"
          }
        ],
        "pollDivisionIds": [
          10137975
        ],
        "postalCode": "N5R5P1",
        "streetName": "ERINLEA",
        "streetDirectionId": null,
        "streetTypeId": "DR",
        "placeName": "ST THOMAS",
        "streetNameDisplayText": "ERINLEA DR, ST THOMAS"
      }
    ]
  },
  {
    "postal": "N5R2B8",
    "result": [
      {
        "electoralDistricts": [
          {
            "election": null,
            "id": 26,
            "name": "Elgin—Middlesex—London"
          }
        ],
        "pollDivisionIds": [
          10143317
        ],
        "postalCode": "N5R2B8",
        "streetName": "COLLEGE",
        "streetDirectionId": null,
        "streetTypeId": "ST",
        "placeName": "ST THOMAS",
        "streetNameDisplayText": "COLLEGE ST, ST THOMAS"
      }
    ]
  },
  {
    "postal": "N5R0P2",
    "result": []
  },
  {
    "postal": "N5R9M1",
    "result": []
  },
  {
    "postal": "N5R3G0",
    "result": []
  },
  {
    "postal": "N5R9Z2",
    "result": []
  },
  {
    "postal": "N5R2A0",
    "result": []
  },
  {
    "postal": "N5R6Y0",
    "result": []
  },
  {
    "postal": "N5R2Z8",
    "result": [
      {
        "electoralDistricts": [
          {
            "election": null,
            "id": 26,
            "name": "Elgin—Middlesex—London"
          }
        ],
        "pollDivisionIds": [
          10137993
        ],
        "postalCode": "N5R2Z8",
        "streetName": "CENTRE",
        "streetDirectionId": null,
        "streetTypeId": "ST",
        "placeName": "ST THOMAS",
        "streetNameDisplayText": "CENTRE ST, ST THOMAS"
      }
    ]
  },
  {
    "postal": "N5R7Y3",
    "result": []
  },
  {
    "postal": "N5R6Z5",
    "result": []
  },
  {
    "postal": "N5R6E0",
    "result": []
  },
  {
    "postal": "N5R9B7",
    "result": []
  },
  {
    "postal": "N5R9S5",
    "result": []
  },
  {
    "postal": "N5R3X3",
    "result": [
      {
        "electoralDistricts": [
          {
            "election": null,
            "id": 26,
            "name": "Elgin—Middlesex—London"
          }
        ],
        "pollDivisionIds": [
          10143317
        ],
        "postalCode": "N5R3X3",
        "streetName": "OLIVER",
        "streetDirectionId": null,
        "streetTypeId": "ST",
        "placeName": "ST THOMAS",
        "streetNameDisplayText": "OLIVER ST, ST THOMAS"
      }
    ]
  },
  {
    "postal": "N5R7R5",
    "result": []
  },
  {
    "postal": "N5R2X3",
    "result": [
      {
        "electoralDistricts": [
          {
            "election": null,
            "id": 26,
            "name": "Elgin—Middlesex—London"
          }
        ],
        "pollDivisionIds": [
          10137993
        ],
        "postalCode": "N5R2X3",
        "streetName": "ELIZABETH",
        "streetDirectionId": null,
        "streetTypeId": "ST",
        "placeName": "ST THOMAS",
        "streetNameDisplayText": "ELIZABETH ST, ST THOMAS"
      }
    ]
  },
  {
    "postal": "N5R8Z9",
    "result": []
  },
  {
    "postal": "N5R0N4",
    "result": []
  },
  {
    "postal": "N5R1K1",
    "result": [
      {
        "electoralDistricts": [
          {
            "election": null,
            "id": 26,
            "name": "Elgin—Middlesex—London"
          }
        ],
        "pollDivisionIds": [
          10137995
        ],
        "postalCode": "N5R1K1",
        "streetName": "ELM",
        "streetDirectionId": null,
        "streetTypeId": "ST",
        "placeName": "ST THOMAS",
        "streetNameDisplayText": "ELM ST, ST THOMAS"
      }
    ]
  },
  {
    "postal": "N5R1S3",
    "result": [
      {
        "electoralDistricts": [
          {
            "election": null,
            "id": 26,
            "name": "Elgin—Middlesex—London"
          }
        ],
        "pollDivisionIds": [
          10143317
        ],
        "postalCode": "N5R1S3",
        "streetName": "DUNKIRK",
        "streetDirectionId": null,
        "streetTypeId": "DR",
        "placeName": "ST THOMAS",
        "streetNameDisplayText": "DUNKIRK DR, ST THOMAS"
      }
    ]
  },
  {
    "postal": "N5R6M4",
    "result": [
      {
        "electoralDistricts": [
          {
            "election": null,
            "id": 26,
            "name": "Elgin—Middlesex—London"
          }
        ],
        "pollDivisionIds": [
          10137997
        ],
        "postalCode": "N5R6M4",
        "streetName": "HUMMINGBIRD",
        "streetDirectionId": null,
        "streetTypeId": "LANE",
        "placeName": "ST THOMAS",
        "streetNameDisplayText": "HUMMINGBIRD LANE, ST THOMAS"
      },
      {
        "electoralDistricts": [
          {
            "election": null,
            "id": 26,
            "name": "Elgin—Middlesex—London"
          }
        ],
        "pollDivisionIds": [
          10137997
        ],
        "postalCode": "N5R6M4",
        "streetName": "OSPREY",
        "streetDirectionId": null,
        "streetTypeId": "LANE",
        "placeName": "ST THOMAS",
        "streetNameDisplayText": "OSPREY LANE, ST THOMAS"
      }
    ]
  },
  {
    "postal": "N5R9A9",
    "result": []
  },
  {
    "postal": "N5R9Z9",
    "result": []
  },
  {
    "postal": "N5R6T4",
    "result": []
  },
  {
    "postal": "N5R0B2",
    "result": [
      {
        "electoralDistricts": [
          {
            "election": null,
            "id": 26,
            "name": "Elgin—Middlesex—London"
          }
        ],
        "pollDivisionIds": [
          10137998
        ],
        "postalCode": "N5R0B2",
        "streetName": "SOUTHGATE",
        "streetDirectionId": null,
        "streetTypeId": "PKY",
        "placeName": "ST THOMAS",
        "streetNameDisplayText": "SOUTHGATE PKY, ST THOMAS"
      }
    ]
  },
  {
    "postal": "N5R2L9",
    "result": [
      {
        "electoralDistricts": [
          {
            "election": null,
            "id": 26,
            "name": "Elgin—Middlesex—London"
          }
        ],
        "pollDivisionIds": [
          10137993
        ],
        "postalCode": "N5R2L9",
        "streetName": "GLADSTONE",
        "streetDirectionId": null,
        "streetTypeId": "AVE",
        "placeName": "ST THOMAS",
        "streetNameDisplayText": "GLADSTONE AVE, ST THOMAS"
      }
    ]
  },
  {
    "postal": "N5R8K9",
    "result": []
  },
  {
    "postal": "N5R2H9",
    "result": [
      {
        "electoralDistricts": [
          {
            "election": null,
            "id": 26,
            "name": "Elgin—Middlesex—London"
          }
        ],
        "pollDivisionIds": [
          10137993
        ],
        "postalCode": "N5R2H9",
        "streetName": "ROSEBERY",
        "streetDirectionId": null,
        "streetTypeId": "PL",
        "placeName": "ST THOMAS",
        "streetNameDisplayText": "ROSEBERY PL, ST THOMAS"
      }
    ]
  },
  {
    "postal": "N5R3Z6",
    "result": [
      {
        "electoralDistricts": [
          {
            "election": null,
            "id": 26,
            "name": "Elgin—Middlesex—London"
          }
        ],
        "pollDivisionIds": [
          10143317
        ],
        "postalCode": "N5R3Z6",
        "streetName": "LYDIA",
        "streetDirectionId": null,
        "streetTypeId": "ST",
        "placeName": "ST THOMAS",
        "streetNameDisplayText": "LYDIA ST, ST THOMAS"
      }
    ]
  },
  {
    "postal": "N5R3B0",
    "result": []
  },
  {
    "postal": "N5R2H8",
    "result": [
      {
        "electoralDistricts": [
          {
            "election": null,
            "id": 26,
            "name": "Elgin—Middlesex—London"
          }
        ],
        "pollDivisionIds": [
          10137993
        ],
        "postalCode": "N5R2H8",
        "streetName": "ROSEBERY",
        "streetDirectionId": null,
        "streetTypeId": "PL",
        "placeName": "ST THOMAS",
        "streetNameDisplayText": "ROSEBERY PL, ST THOMAS"
      }
    ]
  },
  {
    "postal": "N5R3X2",
    "result": [
      {
        "electoralDistricts": [
          {
            "election": null,
            "id": 26,
            "name": "Elgin—Middlesex—London"
          }
        ],
        "pollDivisionIds": [
          10143317
        ],
        "postalCode": "N5R3X2",
        "streetName": "OLIVER",
        "streetDirectionId": null,
        "streetTypeId": "ST",
        "placeName": "ST THOMAS",
        "streetNameDisplayText": "OLIVER ST, ST THOMAS"
      }
    ]
  },
  {
    "postal": "N5R2E9",
    "result": [
      {
        "electoralDistricts": [
          {
            "election": null,
            "id": 26,
            "name": "Elgin—Middlesex—London"
          }
        ],
        "pollDivisionIds": [
          10143317
        ],
        "postalCode": "N5R2E9",
        "streetName": "MYRTLE",
        "streetDirectionId": null,
        "streetTypeId": "ST",
        "placeName": "ST THOMAS",
        "streetNameDisplayText": "MYRTLE ST, ST THOMAS"
      }
    ]
  },
  {
    "postal": "N5R9P6",
    "result": []
  },
  {
    "postal": "N5R9E2",
    "result": []
  },
  {
    "postal": "N5R9H2",
    "result": []
  },
  {
    "postal": "N5R1S8",
    "result": [
      {
        "electoralDistricts": [
          {
            "election": null,
            "id": 26,
            "name": "Elgin—Middlesex—London"
          }
        ],
        "pollDivisionIds": [
          10137995
        ],
        "postalCode": "N5R1S8",
        "streetName": "ST JOSEPH",
        "streetDirectionId": null,
        "streetTypeId": "ST",
        "placeName": "ST THOMAS",
        "streetNameDisplayText": "ST JOSEPH ST, ST THOMAS"
      }
    ]
  },
  {
    "postal": "N5R3M6",
    "result": [
      {
        "electoralDistricts": [
          {
            "election": null,
            "id": 26,
            "name": "Elgin—Middlesex—London"
          }
        ],
        "pollDivisionIds": [
          10137997
        ],
        "postalCode": "N5R3M6",
        "streetName": "ELGIN",
        "streetDirectionId": null,
        "streetTypeId": "ST",
        "placeName": "ST THOMAS",
        "streetNameDisplayText": "ELGIN ST, ST THOMAS"
      }
    ]
  },
  {
    "postal": "N5R6Z8",
    "result": []
  },
  {
    "postal": "N5R4J2",
    "result": [
      {
        "electoralDistricts": [
          {
            "election": null,
            "id": 26,
            "name": "Elgin—Middlesex—London"
          }
        ],
        "pollDivisionIds": [
          10137997
        ],
        "postalCode": "N5R4J2",
        "streetName": "MANDEVILLE",
        "streetDirectionId": null,
        "streetTypeId": "RD",
        "placeName": "ST THOMAS",
        "streetNameDisplayText": "MANDEVILLE RD, ST THOMAS"
      }
    ]
  },
  {
    "postal": "N5R9Y1",
    "result": []
  },
  {
    "postal": "N5R8V6",
    "result": []
  },
  {
    "postal": "N5R6B2",
    "result": [
      {
        "electoralDistricts": [
          {
            "election": null,
            "id": 26,
            "name": "Elgin—Middlesex—London"
          }
        ],
        "pollDivisionIds": [
          10137975
        ],
        "postalCode": "N5R6B2",
        "streetName": "FANJOY",
        "streetDirectionId": null,
        "streetTypeId": "DR",
        "placeName": "ST THOMAS",
        "streetNameDisplayText": "FANJOY DR, ST THOMAS"
      },
      {
        "electoralDistricts": [
          {
            "election": null,
            "id": 26,
            "name": "Elgin—Middlesex—London"
          }
        ],
        "pollDivisionIds": [
          10137975
        ],
        "postalCode": "N5R6B2",
        "streetName": "OLDEWOOD",
        "streetDirectionId": null,
        "streetTypeId": "CRES",
        "placeName": "ST THOMAS",
        "streetNameDisplayText": "OLDEWOOD CRES, ST THOMAS"
      }
    ]
  },
  {
    "postal": "N5R1P8",
    "result": [
      {
        "electoralDistricts": [
          {
            "election": null,
            "id": 26,
            "name": "Elgin—Middlesex—London"
          }
        ],
        "pollDivisionIds": [
          10143317
        ],
        "postalCode": "N5R1P8",
        "streetName": "CHURCHILL",
        "streetDirectionId": null,
        "streetTypeId": "CRES",
        "placeName": "ST THOMAS",
        "streetNameDisplayText": "CHURCHILL CRES, ST THOMAS"
      }
    ]
  },
  {
    "postal": "N5R0V8",
    "result": []
  },
  {
    "postal": "N5R4Y0",
    "result": []
  },
  {
    "postal": "N5R2T4",
    "result": [
      {
        "electoralDistricts": [
          {
            "election": null,
            "id": 26,
            "name": "Elgin—Middlesex—London"
          }
        ],
        "pollDivisionIds": [
          10137992
        ],
        "postalCode": "N5R2T4",
        "streetName": "WELLINGTON",
        "streetDirectionId": null,
        "streetTypeId": "ST",
        "placeName": "ST THOMAS",
        "streetNameDisplayText": "WELLINGTON ST, ST THOMAS"
      }
    ]
  },
  {
    "postal": "N5R2S3",
    "result": [
      {
        "electoralDistricts": [
          {
            "election": null,
            "id": 26,
            "name": "Elgin—Middlesex—London"
          }
        ],
        "pollDivisionIds": [
          10143317,
          10137993
        ],
        "postalCode": "N5R2S3",
        "streetName": "WELLINGTON",
        "streetDirectionId": null,
        "streetTypeId": "ST",
        "placeName": "ST THOMAS",
        "streetNameDisplayText": "WELLINGTON ST, ST THOMAS"
      }
    ]
  },
  {
    "postal": "N5R0K0",
    "result": []
  },
  {
    "postal": "N5R5N1",
    "result": [
      {
        "electoralDistricts": [
          {
            "election": null,
            "id": 26,
            "name": "Elgin—Middlesex—London"
          }
        ],
        "pollDivisionIds": [
          10137995
        ],
        "postalCode": "N5R5N1",
        "streetName": "CHESTNUT",
        "streetDirectionId": null,
        "streetTypeId": "ST",
        "placeName": "ST THOMAS",
        "streetNameDisplayText": "CHESTNUT ST, ST THOMAS"
      }
    ]
  },
  {
    "postal": "N5R7T0",
    "result": []
  },
  {
    "postal": "N5R9N2",
    "result": []
  },
  {
    "postal": "N5R5L1",
    "result": [
      {
        "electoralDistricts": [
          {
            "election": null,
            "id": 26,
            "name": "Elgin—Middlesex—London"
          }
        ],
        "pollDivisionIds": [
          10137998
        ],
        "postalCode": "N5R5L1",
        "streetName": "RAVEN",
        "streetDirectionId": null,
        "streetTypeId": "AVE",
        "placeName": "ST THOMAS",
        "streetNameDisplayText": "RAVEN AVE, ST THOMAS"
      }
    ]
  },
  {
    "postal": "N5R7G5",
    "result": []
  },
  {
    "postal": "N5R6K2",
    "result": [
      {
        "electoralDistricts": [
          {
            "election": null,
            "id": 26,
            "name": "Elgin—Middlesex—London"
          }
        ],
        "pollDivisionIds": [
          10137998
        ],
        "postalCode": "N5R6K2",
        "streetName": "FAITH",
        "streetDirectionId": null,
        "streetTypeId": "BLVD",
        "placeName": "ST THOMAS",
        "streetNameDisplayText": "FAITH BLVD, ST THOMAS"
      },
      {
        "electoralDistricts": [
          {
            "election": null,
            "id": 26,
            "name": "Elgin—Middlesex—London"
          }
        ],
        "pollDivisionIds": [
          10137998
        ],
        "postalCode": "N5R6K2",
        "streetName": "HAGERMAN",
        "streetDirectionId": null,
        "streetTypeId": "CRES",
        "placeName": "ST THOMAS",
        "streetNameDisplayText": "HAGERMAN CRES, ST THOMAS"
      }
    ]
  },
  {
    "postal": "N5R6P9",
    "result": []
  },
  {
    "postal": "N5R0E6",
    "result": []
  },
  {
    "postal": "N5R8R9",
    "result": []
  },
  {
    "postal": "N5R3G9",
    "result": []
  },
  {
    "postal": "N5R0V7",
    "result": []
  },
  {
    "postal": "N5R2Z1",
    "result": [
      {
        "electoralDistricts": [
          {
            "election": null,
            "id": 26,
            "name": "Elgin—Middlesex—London"
          }
        ],
        "pollDivisionIds": [
          10143316
        ],
        "postalCode": "N5R2Z1",
        "streetName": "CENTRE",
        "streetDirectionId": null,
        "streetTypeId": "ST",
        "placeName": "ST THOMAS",
        "streetNameDisplayText": "CENTRE ST, ST THOMAS"
      }
    ]
  },
  {
    "postal": "N5R7N1",
    "result": []
  },
  {
    "postal": "N5R3C6",
    "result": [
      {
        "electoralDistricts": [
          {
            "election": null,
            "id": 26,
            "name": "Elgin—Middlesex—London"
          }
        ],
        "pollDivisionIds": [
          10143939,
          10137998,
          10138010
        ],
        "postalCode": "N5R3C6",
        "streetName": "SUNSET",
        "streetDirectionId": null,
        "streetTypeId": "DR",
        "placeName": "ST THOMAS",
        "streetNameDisplayText": "SUNSET DR, ST THOMAS"
      }
    ]
  },
  {
    "postal": "N5R4M1",
    "result": [
      {
        "electoralDistricts": [
          {
            "election": null,
            "id": 26,
            "name": "Elgin—Middlesex—London"
          }
        ],
        "pollDivisionIds": [
          10137997
        ],
        "postalCode": "N5R4M1",
        "streetName": "RAPELJE",
        "streetDirectionId": null,
        "streetTypeId": "ST",
        "placeName": "ST THOMAS",
        "streetNameDisplayText": "RAPELJE ST, ST THOMAS"
      }
    ]
  },
  {
    "postal": "N5R9K2",
    "result": []
  },
  {
    "postal": "N5R9S6",
    "result": []
  },
  {
    "postal": "N5R4X1",
    "result": [
      {
        "electoralDistricts": [
          {
            "election": null,
            "id": 26,
            "name": "Elgin—Middlesex—London"
          }
        ],
        "pollDivisionIds": [
          10137995
        ],
        "postalCode": "N5R4X1",
        "streetName": "RHONDA",
        "streetDirectionId": null,
        "streetTypeId": "CRT",
        "placeName": "ST THOMAS",
        "streetNameDisplayText": "RHONDA CRT, ST THOMAS"
      }
    ]
  },
  {
    "postal": "N5R8W2",
    "result": []
  },
  {
    "postal": "N5R7N2",
    "result": []
  },
  {
    "postal": "N5R8S3",
    "result": []
  },
  {
    "postal": "N5R4V0",
    "result": []
  },
  {
    "postal": "N5R6W4",
    "result": []
  },
  {
    "postal": "N5R5M1",
    "result": []
  },
  {
    "postal": "N5R0S4",
    "result": []
  },
  {
    "postal": "N5R5X6",
    "result": [
      {
        "electoralDistricts": [
          {
            "election": null,
            "id": 26,
            "name": "Elgin—Middlesex—London"
          }
        ],
        "pollDivisionIds": [
          10137995
        ],
        "postalCode": "N5R5X6",
        "streetName": "ELM",
        "streetDirectionId": null,
        "streetTypeId": "ST",
        "placeName": "ST THOMAS",
        "streetNameDisplayText": "ELM ST, ST THOMAS"
      }
    ]
  },
  {
    "postal": "N5R8L5",
    "result": []
  },
  {
    "postal": "N5R5M8",
    "result": [
      {
        "electoralDistricts": [
          {
            "election": null,
            "id": 26,
            "name": "Elgin—Middlesex—London"
          }
        ],
        "pollDivisionIds": [
          10137998,
          10137975
        ],
        "postalCode": "N5R5M8",
        "streetName": "LEGER",
        "streetDirectionId": null,
        "streetTypeId": "AVE",
        "placeName": "ST THOMAS",
        "streetNameDisplayText": "LEGER AVE, ST THOMAS"
      }
    ]
  },
  {
    "postal": "N5R2G3",
    "result": [
      {
        "electoralDistricts": [
          {
            "election": null,
            "id": 26,
            "name": "Elgin—Middlesex—London"
          }
        ],
        "pollDivisionIds": [
          10143317
        ],
        "postalCode": "N5R2G3",
        "streetName": "MYRTLE",
        "streetDirectionId": null,
        "streetTypeId": "ST",
        "placeName": "ST THOMAS",
        "streetNameDisplayText": "MYRTLE ST, ST THOMAS"
      }
    ]
  },
  {
    "postal": "N5R8E4",
    "result": []
  },
  {
    "postal": "N5R7S9",
    "result": []
  },
  {
    "postal": "N5R1K3",
    "result": []
  },
  {
    "postal": "N5R4E1",
    "result": [
      {
        "electoralDistricts": [
          {
            "election": null,
            "id": 26,
            "name": "Elgin—Middlesex—London"
          }
        ],
        "pollDivisionIds": [
          10143317
        ],
        "postalCode": "N5R4E1",
        "streetName": "FIFTH",
        "streetDirectionId": null,
        "streetTypeId": "AVE",
        "placeName": "ST THOMAS",
        "streetNameDisplayText": "FIFTH AVE, ST THOMAS"
      }
    ]
  },
  {
    "postal": "N5R4R2",
    "result": [
      {
        "electoralDistricts": [
          {
            "election": null,
            "id": 26,
            "name": "Elgin—Middlesex—London"
          }
        ],
        "pollDivisionIds": [
          10137998
        ],
        "postalCode": "N5R4R2",
        "streetName": "ASHTON",
        "streetDirectionId": null,
        "streetTypeId": "PL",
        "placeName": "ST THOMAS",
        "streetNameDisplayText": "ASHTON PL, ST THOMAS"
      }
    ]
  },
  {
    "postal": "N5R6T0",
    "result": []
  },
  {
    "postal": "N5R3K5",
    "result": [
      {
        "electoralDistricts": [
          {
            "election": null,
            "id": 26,
            "name": "Elgin—Middlesex—London"
          }
        ],
        "pollDivisionIds": [
          10137993
        ],
        "postalCode": "N5R3K5",
        "streetName": "METCALFE",
        "streetDirectionId": null,
        "streetTypeId": "ST",
        "placeName": "ST THOMAS",
        "streetNameDisplayText": "METCALFE ST, ST THOMAS"
      }
    ]
  },
  {
    "postal": "N5R3S3",
    "result": []
  },
  {
    "postal": "N5R3L4",
    "result": [
      {
        "electoralDistricts": [
          {
            "election": null,
            "id": 26,
            "name": "Elgin—Middlesex—London"
          }
        ],
        "pollDivisionIds": [
          10137997
        ],
        "postalCode": "N5R3L4",
        "streetName": "HENRY",
        "streetDirectionId": null,
        "streetTypeId": "ST",
        "placeName": "ST THOMAS",
        "streetNameDisplayText": "HENRY ST, ST THOMAS"
      }
    ]
  },
  {
    "postal": "N5R9Y2",
    "result": []
  },
  {
    "postal": "N5R1E0",
    "result": []
  },
  {
    "postal": "N5R9A4",
    "result": []
  },
  {
    "postal": "N5R1L3",
    "result": [
      {
        "electoralDistricts": [
          {
            "election": null,
            "id": 26,
            "name": "Elgin—Middlesex—London"
          }
        ],
        "pollDivisionIds": [
          10137975
        ],
        "postalCode": "N5R1L3",
        "streetName": "ELM",
        "streetDirectionId": null,
        "streetTypeId": "ST",
        "placeName": "ST THOMAS",
        "streetNameDisplayText": "ELM ST, ST THOMAS"
      }
    ]
  },
  {
    "postal": "N5R6N1",
    "result": []
  },
  {
    "postal": "N5R6G7",
    "result": [
      {
        "electoralDistricts": [
          {
            "election": null,
            "id": 26,
            "name": "Elgin—Middlesex—London"
          }
        ],
        "pollDivisionIds": [
          10137998,
          10137997
        ],
        "postalCode": "N5R6G7",
        "streetName": "AXFORD",
        "streetDirectionId": null,
        "streetTypeId": "PKY",
        "placeName": "ST THOMAS",
        "streetNameDisplayText": "AXFORD PKY, ST THOMAS"
      }
    ]
  },
  {
    "postal": "N5R7W1",
    "result": []
  },
  {
    "postal": "N5R4M6",
    "result": []
  },
  {
    "postal": "N5R1K0",
    "result": []
  },
  {
    "postal": "N5R3E2",
    "result": [
      {
        "electoralDistricts": [
          {
            "election": null,
            "id": 26,
            "name": "Elgin—Middlesex—London"
          }
        ],
        "pollDivisionIds": [
          10143316
        ],
        "postalCode": "N5R3E2",
        "streetName": "KING",
        "streetDirectionId": null,
        "streetTypeId": "ST",
        "placeName": "ST THOMAS",
        "streetNameDisplayText": "KING ST, ST THOMAS"
      }
    ]
  },
  {
    "postal": "N5R5H4",
    "result": [
      {
        "electoralDistricts": [
          {
            "election": null,
            "id": 26,
            "name": "Elgin—Middlesex—London"
          }
        ],
        "pollDivisionIds": [
          10137998
        ],
        "postalCode": "N5R5H4",
        "streetName": "PARISH",
        "streetDirectionId": null,
        "streetTypeId": "ST",
        "placeName": "ST THOMAS",
        "streetNameDisplayText": "PARISH ST, ST THOMAS"
      }
    ]
  },
  {
    "postal": "N5R1K7",
    "result": [
      {
        "electoralDistricts": [
          {
            "election": null,
            "id": 26,
            "name": "Elgin—Middlesex—London"
          }
        ],
        "pollDivisionIds": [
          10137975
        ],
        "postalCode": "N5R1K7",
        "streetName": "ELM",
        "streetDirectionId": null,
        "streetTypeId": "ST",
        "placeName": "ST THOMAS",
        "streetNameDisplayText": "ELM ST, ST THOMAS"
      }
    ]
  },
  {
    "postal": "N5R0H0",
    "result": []
  },
  {
    "postal": "N5R0J3",
    "result": []
  },
  {
    "postal": "N5R1X6",
    "result": [
      {
        "electoralDistricts": [
          {
            "election": null,
            "id": 26,
            "name": "Elgin—Middlesex—London"
          }
        ],
        "pollDivisionIds": [
          10143317
        ],
        "postalCode": "N5R1X6",
        "streetName": "HEMLOCK",
        "streetDirectionId": null,
        "streetTypeId": "ST",
        "placeName": "ST THOMAS",
        "streetNameDisplayText": "HEMLOCK ST, ST THOMAS"
      }
    ]
  },
  {
    "postal": "N5R2Z6",
    "result": [
      {
        "electoralDistricts": [
          {
            "election": null,
            "id": 26,
            "name": "Elgin—Middlesex—London"
          }
        ],
        "pollDivisionIds": [
          10137993
        ],
        "postalCode": "N5R2Z6",
        "streetName": "CENTRE",
        "streetDirectionId": null,
        "streetTypeId": "ST",
        "placeName": "ST THOMAS",
        "streetNameDisplayText": "CENTRE ST, ST THOMAS"
      }
    ]
  },
  {
    "postal": "N5R4R9",
    "result": [
      {
        "electoralDistricts": [
          {
            "election": null,
            "id": 26,
            "name": "Elgin—Middlesex—London"
          }
        ],
        "pollDivisionIds": [
          10137995
        ],
        "postalCode": "N5R4R9",
        "streetName": "RYERSON",
        "streetDirectionId": null,
        "streetTypeId": "PL",
        "placeName": "ST THOMAS",
        "streetNameDisplayText": "RYERSON PL, ST THOMAS"
      }
    ]
  },
  {
    "postal": "N5R0W8",
    "result": []
  },
  {
    "postal": "N5R1L4",
    "result": [
      {
        "electoralDistricts": [
          {
            "election": null,
            "id": 26,
            "name": "Elgin—Middlesex—London"
          }
        ],
        "pollDivisionIds": [
          10137975
        ],
        "postalCode": "N5R1L4",
        "streetName": "ELM",
        "streetDirectionId": null,
        "streetTypeId": "ST",
        "placeName": "ST THOMAS",
        "streetNameDisplayText": "ELM ST, ST THOMAS"
      }
    ]
  },
  {
    "postal": "N5R0C8",
    "result": [
      {
        "electoralDistricts": [
          {
            "election": null,
            "id": 26,
            "name": "Elgin—Middlesex—London"
          }
        ],
        "pollDivisionIds": [
          10137997
        ],
        "postalCode": "N5R0C8",
        "streetName": "OLD COURSE",
        "streetDirectionId": null,
        "streetTypeId": "RD",
        "placeName": "ST THOMAS",
        "streetNameDisplayText": "OLD COURSE RD, ST THOMAS"
      },
      {
        "electoralDistricts": [
          {
            "election": null,
            "id": 26,
            "name": "Elgin—Middlesex—London"
          }
        ],
        "pollDivisionIds": [
          10137997
        ],
        "postalCode": "N5R0C8",
        "streetName": "SHAW VALLEY",
        "streetDirectionId": null,
        "streetTypeId": "DR",
        "placeName": "ST THOMAS",
        "streetNameDisplayText": "SHAW VALLEY DR, ST THOMAS"
      }
    ]
  },
  {
    "postal": "N5R9X7",
    "result": []
  },
  {
    "postal": "N5R4T1",
    "result": [
      {
        "electoralDistricts": [
          {
            "election": null,
            "id": 26,
            "name": "Elgin—Middlesex—London"
          }
        ],
        "pollDivisionIds": [
          10137995
        ],
        "postalCode": "N5R4T1",
        "streetName": "ALDBOROUGH",
        "streetDirectionId": null,
        "streetTypeId": "AVE",
        "placeName": "ST THOMAS",
        "streetNameDisplayText": "ALDBOROUGH AVE, ST THOMAS"
      }
    ]
  },
  {
    "postal": "N5R0M0",
    "result": []
  },
  {
    "postal": "N5R6A2",
    "result": [
      {
        "electoralDistricts": [
          {
            "election": null,
            "id": 26,
            "name": "Elgin—Middlesex—London"
          }
        ],
        "pollDivisionIds": [
          10143317
        ],
        "postalCode": "N5R6A2",
        "streetName": "SECOND",
        "streetDirectionId": null,
        "streetTypeId": "AVE",
        "placeName": "ST THOMAS",
        "streetNameDisplayText": "SECOND AVE, ST THOMAS"
      }
    ]
  },
  {
    "postal": "N5R9S8",
    "result": []
  },
  {
    "postal": "N5R9T4",
    "result": []
  },
  {
    "postal": "N5R9Y4",
    "result": []
  },
  {
    "postal": "N5R6G5",
    "result": [
      {
        "electoralDistricts": [
          {
            "election": null,
            "id": 26,
            "name": "Elgin—Middlesex—London"
          }
        ],
        "pollDivisionIds": [
          10137992
        ],
        "postalCode": "N5R6G5",
        "streetName": "RICKWOOD",
        "streetDirectionId": null,
        "streetTypeId": "PL",
        "placeName": "ST THOMAS",
        "streetNameDisplayText": "RICKWOOD PL, ST THOMAS"
      }
    ]
  },
  {
    "postal": "N5R6H9",
    "result": [
      {
        "electoralDistricts": [
          {
            "election": null,
            "id": 26,
            "name": "Elgin—Middlesex—London"
          }
        ],
        "pollDivisionIds": [
          10143318
        ],
        "postalCode": "N5R6H9",
        "streetName": "WELLINGTON",
        "streetDirectionId": null,
        "streetTypeId": "ST",
        "placeName": "ST THOMAS",
        "streetNameDisplayText": "WELLINGTON ST, ST THOMAS"
      }
    ]
  },
  {
    "postal": "N5R2P3",
    "result": [
      {
        "electoralDistricts": [
          {
            "election": null,
            "id": 26,
            "name": "Elgin—Middlesex—London"
          }
        ],
        "pollDivisionIds": [
          10137993
        ],
        "postalCode": "N5R2P3",
        "streetName": "WELLINGTON",
        "streetDirectionId": null,
        "streetTypeId": "ST",
        "placeName": "ST THOMAS",
        "streetNameDisplayText": "WELLINGTON ST, ST THOMAS"
      }
    ]
  },
  {
    "postal": "N5R1T6",
    "result": [
      {
        "electoralDistricts": [
          {
            "election": null,
            "id": 26,
            "name": "Elgin—Middlesex—London"
          }
        ],
        "pollDivisionIds": [
          10137975
        ],
        "postalCode": "N5R1T6",
        "streetName": "PAUL",
        "streetDirectionId": null,
        "streetTypeId": "ST",
        "placeName": "ST THOMAS",
        "streetNameDisplayText": "PAUL ST, ST THOMAS"
      }
    ]
  },
  {
    "postal": "N5R4P6",
    "result": [
      {
        "electoralDistricts": [
          {
            "election": null,
            "id": 26,
            "name": "Elgin—Middlesex—London"
          }
        ],
        "pollDivisionIds": [
          10137997
        ],
        "postalCode": "N5R4P6",
        "streetName": "FIRST",
        "streetDirectionId": null,
        "streetTypeId": "AVE",
        "placeName": "ST THOMAS",
        "streetNameDisplayText": "FIRST AVE, ST THOMAS"
      }
    ]
  },
  {
    "postal": "N5R3K1",
    "result": [
      {
        "electoralDistricts": [
          {
            "election": null,
            "id": 26,
            "name": "Elgin—Middlesex—London"
          }
        ],
        "pollDivisionIds": [
          10137993
        ],
        "postalCode": "N5R3K1",
        "streetName": "METCALFE",
        "streetDirectionId": null,
        "streetTypeId": "ST",
        "placeName": "ST THOMAS",
        "streetNameDisplayText": "METCALFE ST, ST THOMAS"
      }
    ]
  },
  {
    "postal": "N5R6X4",
    "result": []
  },
  {
    "postal": "N5R4M8",
    "result": [
      {
        "electoralDistricts": [
          {
            "election": null,
            "id": 26,
            "name": "Elgin—Middlesex—London"
          }
        ],
        "pollDivisionIds": [
          10137995
        ],
        "postalCode": "N5R4M8",
        "streetName": "FIRST",
        "streetDirectionId": null,
        "streetTypeId": "AVE",
        "placeName": "ST THOMAS",
        "streetNameDisplayText": "FIRST AVE, ST THOMAS"
      }
    ]
  },
  {
    "postal": "N5R2Y1",
    "result": [
      {
        "electoralDistricts": [
          {
            "election": null,
            "id": 26,
            "name": "Elgin—Middlesex—London"
          }
        ],
        "pollDivisionIds": [
          10143317
        ],
        "postalCode": "N5R2Y1",
        "streetName": "JONAS",
        "streetDirectionId": null,
        "streetTypeId": "ST",
        "placeName": "ST THOMAS",
        "streetNameDisplayText": "JONAS ST, ST THOMAS"
      }
    ]
  },
  {
    "postal": "N5R6M1",
    "result": [
      {
        "electoralDistricts": [
          {
            "election": null,
            "id": 26,
            "name": "Elgin—Middlesex—London"
          }
        ],
        "pollDivisionIds": [
          10137998
        ],
        "postalCode": "N5R6M1",
        "streetName": "BARRETT",
        "streetDirectionId": null,
        "streetTypeId": "CRES",
        "placeName": "ST THOMAS",
        "streetNameDisplayText": "BARRETT CRES, ST THOMAS"
      },
      {
        "electoralDistricts": [
          {
            "election": null,
            "id": 26,
            "name": "Elgin—Middlesex—London"
          }
        ],
        "pollDivisionIds": [
          10137998
        ],
        "postalCode": "N5R6M1",
        "streetName": "SOUTHGATE",
        "streetDirectionId": null,
        "streetTypeId": "PKY",
        "placeName": "ST THOMAS",
        "streetNameDisplayText": "SOUTHGATE PKY, ST THOMAS"
      }
    ]
  },
  {
    "postal": "N5R5L8",
    "result": [
      {
        "electoralDistricts": [
          {
            "election": null,
            "id": 26,
            "name": "Elgin—Middlesex—London"
          }
        ],
        "pollDivisionIds": [
          10137998
        ],
        "postalCode": "N5R5L8",
        "streetName": "ALDBOROUGH",
        "streetDirectionId": null,
        "streetTypeId": "AVE",
        "placeName": "ST THOMAS",
        "streetNameDisplayText": "ALDBOROUGH AVE, ST THOMAS"
      }
    ]
  },
  {
    "postal": "N5R3P6",
    "result": [
      {
        "electoralDistricts": [
          {
            "election": null,
            "id": 26,
            "name": "Elgin—Middlesex—London"
          }
        ],
        "pollDivisionIds": [
          10137997
        ],
        "postalCode": "N5R3P6",
        "streetName": "WEST",
        "streetDirectionId": null,
        "streetTypeId": "AVE",
        "placeName": "ST THOMAS",
        "streetNameDisplayText": "WEST AVE, ST THOMAS"
      }
    ]
  },
  {
    "postal": "N5R9A5",
    "result": []
  },
  {
    "postal": "N5R7K1",
    "result": []
  },
  {
    "postal": "N5R3J4",
    "result": [
      {
        "electoralDistricts": [
          {
            "election": null,
            "id": 26,
            "name": "Elgin—Middlesex—London"
          }
        ],
        "pollDivisionIds": [
          10137993
        ],
        "postalCode": "N5R3J4",
        "streetName": "QUEEN",
        "streetDirectionId": null,
        "streetTypeId": "ST",
        "placeName": "ST THOMAS",
        "streetNameDisplayText": "QUEEN ST, ST THOMAS"
      }
    ]
  },
  {
    "postal": "N5R5E7",
    "result": [
      {
        "electoralDistricts": [
          {
            "election": null,
            "id": 26,
            "name": "Elgin—Middlesex—London"
          }
        ],
        "pollDivisionIds": [
          10137975
        ],
        "postalCode": "N5R5E7",
        "streetName": "HIGHVIEW",
        "streetDirectionId": null,
        "streetTypeId": "DR",
        "placeName": "ST THOMAS",
        "streetNameDisplayText": "HIGHVIEW DR, ST THOMAS"
      }
    ]
  },
  {
    "postal": "N5R3A7",
    "result": [
      {
        "electoralDistricts": [
          {
            "election": null,
            "id": 26,
            "name": "Elgin—Middlesex—London"
          }
        ],
        "pollDivisionIds": [
          10137992
        ],
        "postalCode": "N5R3A7",
        "streetName": "WAREHOUSE",
        "streetDirectionId": null,
        "streetTypeId": "ST",
        "placeName": "ST THOMAS",
        "streetNameDisplayText": "WAREHOUSE ST, ST THOMAS"
      }
    ]
  },
  {
    "postal": "N5R1B9",
    "result": [
      {
        "electoralDistricts": [
          {
            "election": null,
            "id": 26,
            "name": "Elgin—Middlesex—London"
          }
        ],
        "pollDivisionIds": [
          10137997
        ],
        "postalCode": "N5R1B9",
        "streetName": "SOUTHDALE",
        "streetDirectionId": null,
        "streetTypeId": "LINE",
        "placeName": "ST THOMAS",
        "streetNameDisplayText": "SOUTHDALE LINE, ST THOMAS"
      }
    ]
  },
  {
    "postal": "N5R9E8",
    "result": []
  },
  {
    "postal": "N5R1C9",
    "result": [
      {
        "electoralDistricts": [
          {
            "election": null,
            "id": 26,
            "name": "Elgin—Middlesex—London"
          }
        ],
        "pollDivisionIds": [
          10137998
        ],
        "postalCode": "N5R1C9",
        "streetName": "AIREY",
        "streetDirectionId": null,
        "streetTypeId": "AVE",
        "placeName": "ST THOMAS",
        "streetNameDisplayText": "AIREY AVE, ST THOMAS"
      }
    ]
  },
  {
    "postal": "N5R3B5",
    "result": [
      {
        "electoralDistricts": [
          {
            "election": null,
            "id": 26,
            "name": "Elgin—Middlesex—London"
          }
        ],
        "pollDivisionIds": [
          10137997
        ],
        "postalCode": "N5R3B5",
        "streetName": "SUNSET",
        "streetDirectionId": null,
        "streetTypeId": "DR",
        "placeName": "ST THOMAS",
        "streetNameDisplayText": "SUNSET DR, ST THOMAS"
      }
    ]
  },
  {
    "postal": "N5R8R0",
    "result": []
  },
  {
    "postal": "N5R3P2",
    "result": [
      {
        "electoralDistricts": [
          {
            "election": null,
            "id": 26,
            "name": "Elgin—Middlesex—London"
          }
        ],
        "pollDivisionIds": [
          10137993
        ],
        "postalCode": "N5R3P2",
        "streetName": "HINCKS",
        "streetDirectionId": null,
        "streetTypeId": "ST",
        "placeName": "ST THOMAS",
        "streetNameDisplayText": "HINCKS ST, ST THOMAS"
      }
    ]
  },
  {
    "postal": "N5R5V4",
    "result": [
      {
        "electoralDistricts": [
          {
            "election": null,
            "id": 26,
            "name": "Elgin—Middlesex—London"
          }
        ],
        "pollDivisionIds": [
          10137998
        ],
        "postalCode": "N5R5V4",
        "streetName": "LUTON",
        "streetDirectionId": null,
        "streetTypeId": "CRES",
        "placeName": "ST THOMAS",
        "streetNameDisplayText": "LUTON CRES, ST THOMAS"
      }
    ]
  },
  {
    "postal": "N5R4H0",
    "result": []
  },
  {
    "postal": "N5R4S7",
    "result": [
      {
        "electoralDistricts": [
          {
            "election": null,
            "id": 26,
            "name": "Elgin—Middlesex—London"
          }
        ],
        "pollDivisionIds": [
          10137998
        ],
        "postalCode": "N5R4S7",
        "streetName": "ALDBOROUGH",
        "streetDirectionId": null,
        "streetTypeId": "AVE",
        "placeName": "ST THOMAS",
        "streetNameDisplayText": "ALDBOROUGH AVE, ST THOMAS"
      }
    ]
  },
  {
    "postal": "N5R6C2",
    "result": [
      {
        "electoralDistricts": [
          {
            "election": null,
            "id": 26,
            "name": "Elgin—Middlesex—London"
          }
        ],
        "pollDivisionIds": [
          10137975
        ],
        "postalCode": "N5R6C2",
        "streetName": "CARRIE",
        "streetDirectionId": null,
        "streetTypeId": "CRES",
        "placeName": "ST THOMAS",
        "streetNameDisplayText": "CARRIE CRES, ST THOMAS"
      },
      {
        "electoralDistricts": [
          {
            "election": null,
            "id": 26,
            "name": "Elgin—Middlesex—London"
          }
        ],
        "pollDivisionIds": [
          10137975
        ],
        "postalCode": "N5R6C2",
        "streetName": "CHESTNUT",
        "streetDirectionId": null,
        "streetTypeId": "ST",
        "placeName": "ST THOMAS",
        "streetNameDisplayText": "CHESTNUT ST, ST THOMAS"
      }
    ]
  },
  {
    "postal": "N5R8W3",
    "result": []
  },
  {
    "postal": "N5R4M5",
    "result": [
      {
        "electoralDistricts": [
          {
            "election": null,
            "id": 26,
            "name": "Elgin—Middlesex—London"
          }
        ],
        "pollDivisionIds": [
          10137992
        ],
        "postalCode": "N5R4M5",
        "streetName": "FIRST",
        "streetDirectionId": null,
        "streetTypeId": "AVE",
        "placeName": "ST THOMAS",
        "streetNameDisplayText": "FIRST AVE, ST THOMAS"
      }
    ]
  },
  {
    "postal": "N5R5T1",
    "result": [
      {
        "electoralDistricts": [
          {
            "election": null,
            "id": 26,
            "name": "Elgin—Middlesex—London"
          }
        ],
        "pollDivisionIds": [
          10137992
        ],
        "postalCode": "N5R5T1",
        "streetName": "WAREHOUSE",
        "streetDirectionId": null,
        "streetTypeId": "ST",
        "placeName": "ST THOMAS",
        "streetNameDisplayText": "WAREHOUSE ST, ST THOMAS"
      }
    ]
  },
  {
    "postal": "N5R3B3",
    "result": [
      {
        "electoralDistricts": [
          {
            "election": null,
            "id": 26,
            "name": "Elgin—Middlesex—London"
          }
        ],
        "pollDivisionIds": [
          10137997
        ],
        "postalCode": "N5R3B3",
        "streetName": "SUNSET",
        "streetDirectionId": null,
        "streetTypeId": "DR",
        "placeName": "ST THOMAS",
        "streetNameDisplayText": "SUNSET DR, ST THOMAS"
      }
    ]
  },
  {
    "postal": "N5R6C6",
    "result": [
      {
        "electoralDistricts": [
          {
            "election": null,
            "id": 26,
            "name": "Elgin—Middlesex—London"
          }
        ],
        "pollDivisionIds": [
          10143318
        ],
        "postalCode": "N5R6C6",
        "streetName": "HIGHVIEW",
        "streetDirectionId": null,
        "streetTypeId": "DR",
        "placeName": "ST THOMAS",
        "streetNameDisplayText": "HIGHVIEW DR, ST THOMAS"
      },
      {
        "electoralDistricts": [
          {
            "election": null,
            "id": 26,
            "name": "Elgin—Middlesex—London"
          }
        ],
        "pollDivisionIds": [
          10143318
        ],
        "postalCode": "N5R6C6",
        "streetName": "LYFORD",
        "streetDirectionId": null,
        "streetTypeId": "CRT",
        "placeName": "ST THOMAS",
        "streetNameDisplayText": "LYFORD CRT, ST THOMAS"
      },
      {
        "electoralDistricts": [
          {
            "election": null,
            "id": 26,
            "name": "Elgin—Middlesex—London"
          }
        ],
        "pollDivisionIds": [
          10143318
        ],
        "postalCode": "N5R6C6",
        "streetName": "SIFTON",
        "streetDirectionId": null,
        "streetTypeId": "DR",
        "placeName": "ST THOMAS",
        "streetNameDisplayText": "SIFTON DR, ST THOMAS"
      }
    ]
  },
  {
    "postal": "N5R7N8",
    "result": []
  },
  {
    "postal": "N5R2Y3",
    "result": [
      {
        "electoralDistricts": [
          {
            "election": null,
            "id": 26,
            "name": "Elgin—Middlesex—London"
          }
        ],
        "pollDivisionIds": [
          10137992
        ],
        "postalCode": "N5R2Y3",
        "streetName": "STEELE",
        "streetDirectionId": null,
        "streetTypeId": "ST",
        "placeName": "ST THOMAS",
        "streetNameDisplayText": "STEELE ST, ST THOMAS"
      }
    ]
  },
  {
    "postal": "N5R2R6",
    "result": [
      {
        "electoralDistricts": [
          {
            "election": null,
            "id": 26,
            "name": "Elgin—Middlesex—London"
          }
        ],
        "pollDivisionIds": [
          10143317
        ],
        "postalCode": "N5R2R6",
        "streetName": "WELLINGTON",
        "streetDirectionId": null,
        "streetTypeId": "ST",
        "placeName": "ST THOMAS",
        "streetNameDisplayText": "WELLINGTON ST, ST THOMAS"
      }
    ]
  },
  {
    "postal": "N5R7N3",
    "result": []
  },
  {
    "postal": "N5R8J2",
    "result": []
  },
  {
    "postal": "N5R6A9",
    "result": [
      {
        "electoralDistricts": [
          {
            "election": null,
            "id": 26,
            "name": "Elgin—Middlesex—London"
          }
        ],
        "pollDivisionIds": [
          10143318
        ],
        "postalCode": "N5R6A9",
        "streetName": "STOKES",
        "streetDirectionId": null,
        "streetTypeId": "RD",
        "placeName": "ST THOMAS",
        "streetNameDisplayText": "STOKES RD, ST THOMAS"
      }
    ]
  },
  {
    "postal": "N5R3V2",
    "result": [
      {
        "electoralDistricts": [
          {
            "election": null,
            "id": 26,
            "name": "Elgin—Middlesex—London"
          }
        ],
        "pollDivisionIds": [
          10137993,
          10143317
        ],
        "postalCode": "N5R3V2",
        "streetName": "PRINCESS",
        "streetDirectionId": null,
        "streetTypeId": "AVE",
        "placeName": "ST THOMAS",
        "streetNameDisplayText": "PRINCESS AVE, ST THOMAS"
      }
    ]
  },
  {
    "postal": "N5R2N3",
    "result": [
      {
        "electoralDistricts": [
          {
            "election": null,
            "id": 26,
            "name": "Elgin—Middlesex—London"
          }
        ],
        "pollDivisionIds": [
          10143317
        ],
        "postalCode": "N5R2N3",
        "streetName": "ERIE",
        "streetDirectionId": null,
        "streetTypeId": "ST",
        "placeName": "ST THOMAS",
        "streetNameDisplayText": "ERIE ST, ST THOMAS"
      }
    ]
  },
  {
    "postal": "N5R1S5",
    "result": [
      {
        "electoralDistricts": [
          {
            "election": null,
            "id": 26,
            "name": "Elgin—Middlesex—London"
          }
        ],
        "pollDivisionIds": [
          10143317
        ],
        "postalCode": "N5R1S5",
        "streetName": "MONTGOMERY",
        "streetDirectionId": null,
        "streetTypeId": "RD",
        "placeName": "ST THOMAS",
        "streetNameDisplayText": "MONTGOMERY RD, ST THOMAS"
      }
    ]
  },
  {
    "postal": "N5R4T7",
    "result": [
      {
        "electoralDistricts": [
          {
            "election": null,
            "id": 26,
            "name": "Elgin—Middlesex—London"
          }
        ],
        "pollDivisionIds": [
          10137998
        ],
        "postalCode": "N5R4T7",
        "streetName": "DUNWICH",
        "streetDirectionId": null,
        "streetTypeId": "DR",
        "placeName": "ST THOMAS",
        "streetNameDisplayText": "DUNWICH DR, ST THOMAS"
      }
    ]
  },
  {
    "postal": "N5R6Y7",
    "result": []
  },
  {
    "postal": "N5R0W7",
    "result": []
  },
  {
    "postal": "N5R2W9",
    "result": [
      {
        "electoralDistricts": [
          {
            "election": null,
            "id": 26,
            "name": "Elgin—Middlesex—London"
          }
        ],
        "pollDivisionIds": [
          10137993
        ],
        "postalCode": "N5R2W9",
        "streetName": "ELIZABETH",
        "streetDirectionId": null,
        "streetTypeId": "ST",
        "placeName": "ST THOMAS",
        "streetNameDisplayText": "ELIZABETH ST, ST THOMAS"
      }
    ]
  },
  {
    "postal": "N5R8V0",
    "result": []
  },
  {
    "postal": "N5R0H4",
    "result": []
  },
  {
    "postal": "N5R2T1",
    "result": [
      {
        "electoralDistricts": [
          {
            "election": null,
            "id": 26,
            "name": "Elgin—Middlesex—London"
          }
        ],
        "pollDivisionIds": [
          10137995
        ],
        "postalCode": "N5R2T1",
        "streetName": "WELLINGTON",
        "streetDirectionId": null,
        "streetTypeId": "ST",
        "placeName": "ST THOMAS",
        "streetNameDisplayText": "WELLINGTON ST, ST THOMAS"
      }
    ]
  },
  {
    "postal": "N5R1B1",
    "result": [
      {
        "electoralDistricts": [
          {
            "election": null,
            "id": 26,
            "name": "Elgin—Middlesex—London"
          }
        ],
        "pollDivisionIds": [
          10143939
        ],
        "postalCode": "N5R1B1",
        "streetName": "VALERIE",
        "streetDirectionId": "S",
        "streetTypeId": "ST",
        "placeName": "ST THOMAS",
        "streetNameDisplayText": "VALERIE ST S, ST THOMAS"
      }
    ]
  },
  {
    "postal": "N5R8B6",
    "result": []
  },
  {
    "postal": "N5R6H1",
    "result": [
      {
        "electoralDistricts": [
          {
            "election": null,
            "id": 26,
            "name": "Elgin—Middlesex—London"
          }
        ],
        "pollDivisionIds": [
          10137995
        ],
        "postalCode": "N5R6H1",
        "streetName": "HUNTINGTON",
        "streetDirectionId": null,
        "streetTypeId": "TERR",
        "placeName": "ST THOMAS",
        "streetNameDisplayText": "HUNTINGTON TERR, ST THOMAS"
      }
    ]
  },
  {
    "postal": "N5R8T8",
    "result": []
  },
  {
    "postal": "N5R0T4",
    "result": []
  },
  {
    "postal": "N5R2C4",
    "result": [
      {
        "electoralDistricts": [
          {
            "election": null,
            "id": 26,
            "name": "Elgin—Middlesex—London"
          }
        ],
        "pollDivisionIds": [
          10143317
        ],
        "postalCode": "N5R2C4",
        "streetName": "LOCUST",
        "streetDirectionId": null,
        "streetTypeId": "ST",
        "placeName": "ST THOMAS",
        "streetNameDisplayText": "LOCUST ST, ST THOMAS"
      }
    ]
  },
  {
    "postal": "N5R8N3",
    "result": []
  },
  {
    "postal": "N5R4L8",
    "result": [
      {
        "electoralDistricts": [
          {
            "election": null,
            "id": 26,
            "name": "Elgin—Middlesex—London"
          }
        ],
        "pollDivisionIds": [
          10143317
        ],
        "postalCode": "N5R4L8",
        "streetName": "SIMCOE",
        "streetDirectionId": null,
        "streetTypeId": "ST",
        "placeName": "ST THOMAS",
        "streetNameDisplayText": "SIMCOE ST, ST THOMAS"
      }
    ]
  },
  {
    "postal": "N5R2B5",
    "result": [
      {
        "electoralDistricts": [
          {
            "election": null,
            "id": 26,
            "name": "Elgin—Middlesex—London"
          }
        ],
        "pollDivisionIds": [
          10137995
        ],
        "postalCode": "N5R2B5",
        "streetName": "CHESTNUT",
        "streetDirectionId": null,
        "streetTypeId": "ST",
        "placeName": "ST THOMAS",
        "streetNameDisplayText": "CHESTNUT ST, ST THOMAS"
      }
    ]
  },
  {
    "postal": "N5R3H1",
    "result": [
      {
        "electoralDistricts": [
          {
            "election": null,
            "id": 26,
            "name": "Elgin—Middlesex—London"
          }
        ],
        "pollDivisionIds": [
          10137993
        ],
        "postalCode": "N5R3H1",
        "streetName": "WILLIAM",
        "streetDirectionId": null,
        "streetTypeId": "ST",
        "placeName": "ST THOMAS",
        "streetNameDisplayText": "WILLIAM ST, ST THOMAS"
      }
    ]
  },
  {
    "postal": "N5R4Y1",
    "result": [
      {
        "electoralDistricts": [
          {
            "election": null,
            "id": 26,
            "name": "Elgin—Middlesex—London"
          }
        ],
        "pollDivisionIds": [
          10137998
        ],
        "postalCode": "N5R4Y1",
        "streetName": "FAIRVIEW",
        "streetDirectionId": null,
        "streetTypeId": "AVE",
        "placeName": "ST THOMAS",
        "streetNameDisplayText": "FAIRVIEW AVE, ST THOMAS"
      }
    ]
  },
  {
    "postal": "N5R7E2",
    "result": []
  },
  {
    "postal": "N5R2P5",
    "result": [
      {
        "electoralDistricts": [
          {
            "election": null,
            "id": 26,
            "name": "Elgin—Middlesex—London"
          }
        ],
        "pollDivisionIds": [
          10137993
        ],
        "postalCode": "N5R2P5",
        "streetName": "WELLINGTON",
        "streetDirectionId": null,
        "streetTypeId": "ST",
        "placeName": "ST THOMAS",
        "streetNameDisplayText": "WELLINGTON ST, ST THOMAS"
      }
    ]
  },
  {
    "postal": "N5R8R7",
    "result": []
  },
  {
    "postal": "N5R9P1",
    "result": []
  },
  {
    "postal": "N5R3B8",
    "result": [
      {
        "electoralDistricts": [
          {
            "election": null,
            "id": 26,
            "name": "Elgin—Middlesex—London"
          }
        ],
        "pollDivisionIds": [
          10137997
        ],
        "postalCode": "N5R3B8",
        "streetName": "SUNSET",
        "streetDirectionId": null,
        "streetTypeId": "DR",
        "placeName": "ST THOMAS",
        "streetNameDisplayText": "SUNSET DR, ST THOMAS"
      }
    ]
  },
  {
    "postal": "N5R3P7",
    "result": [
      {
        "electoralDistricts": [
          {
            "election": null,
            "id": 26,
            "name": "Elgin—Middlesex—London"
          }
        ],
        "pollDivisionIds": [
          10137997
        ],
        "postalCode": "N5R3P7",
        "streetName": "WEST",
        "streetDirectionId": null,
        "streetTypeId": "AVE",
        "placeName": "ST THOMAS",
        "streetNameDisplayText": "WEST AVE, ST THOMAS"
      }
    ]
  },
  {
    "postal": "N5R9B2",
    "result": []
  },
  {
    "postal": "N5R6Z3",
    "result": []
  },
  {
    "postal": "N5R4N5",
    "result": [
      {
        "electoralDistricts": [
          {
            "election": null,
            "id": 26,
            "name": "Elgin—Middlesex—London"
          }
        ],
        "pollDivisionIds": [
          10137995
        ],
        "postalCode": "N5R4N5",
        "streetName": "FIRST",
        "streetDirectionId": null,
        "streetTypeId": "AVE",
        "placeName": "ST THOMAS",
        "streetNameDisplayText": "FIRST AVE, ST THOMAS"
      }
    ]
  },
  {
    "postal": "N5R8T3",
    "result": []
  },
  {
    "postal": "N5R1V2",
    "result": [
      {
        "electoralDistricts": [
          {
            "election": null,
            "id": 26,
            "name": "Elgin—Middlesex—London"
          }
        ],
        "pollDivisionIds": [
          10137997
        ],
        "postalCode": "N5R1V2",
        "streetName": "CHESTER",
        "streetDirectionId": null,
        "streetTypeId": "ST",
        "placeName": "ST THOMAS",
        "streetNameDisplayText": "CHESTER ST, ST THOMAS"
      }
    ]
  },
  {
    "postal": "N5R1Y0",
    "result": []
  },
  {
    "postal": "N5R3G6",
    "result": []
  },
  {
    "postal": "N5R3H7",
    "result": [
      {
        "electoralDistricts": [
          {
            "election": null,
            "id": 26,
            "name": "Elgin—Middlesex—London"
          }
        ],
        "pollDivisionIds": [
          10137997
        ],
        "postalCode": "N5R3H7",
        "streetName": "MARGARET",
        "streetDirectionId": null,
        "streetTypeId": "ST",
        "placeName": "ST THOMAS",
        "streetNameDisplayText": "MARGARET ST, ST THOMAS"
      }
    ]
  },
  {
    "postal": "N5R7X8",
    "result": []
  },
  {
    "postal": "N5R0C7",
    "result": [
      {
        "electoralDistricts": [
          {
            "election": null,
            "id": 26,
            "name": "Elgin—Middlesex—London"
          }
        ],
        "pollDivisionIds": [
          10137975
        ],
        "postalCode": "N5R0C7",
        "streetName": "SOUTHGATE",
        "streetDirectionId": null,
        "streetTypeId": "PKY",
        "placeName": "ST THOMAS",
        "streetNameDisplayText": "SOUTHGATE PKY, ST THOMAS"
      }
    ]
  },
  {
    "postal": "N5R0W9",
    "result": []
  },
  {
    "postal": "N5R8E6",
    "result": []
  },
  {
    "postal": "N5R9Z8",
    "result": []
  },
  {
    "postal": "N5R3P4",
    "result": [
      {
        "electoralDistricts": [
          {
            "election": null,
            "id": 26,
            "name": "Elgin—Middlesex—London"
          }
        ],
        "pollDivisionIds": [
          10137997
        ],
        "postalCode": "N5R3P4",
        "streetName": "WEST",
        "streetDirectionId": null,
        "streetTypeId": "AVE",
        "placeName": "ST THOMAS",
        "streetNameDisplayText": "WEST AVE, ST THOMAS"
      }
    ]
  },
  {
    "postal": "N5R6L8",
    "result": [
      {
        "electoralDistricts": [
          {
            "election": null,
            "id": 26,
            "name": "Elgin—Middlesex—London"
          }
        ],
        "pollDivisionIds": [
          10137997
        ],
        "postalCode": "N5R6L8",
        "streetName": "HUMMINGBIRD",
        "streetDirectionId": null,
        "streetTypeId": "LANE",
        "placeName": "ST THOMAS",
        "streetNameDisplayText": "HUMMINGBIRD LANE, ST THOMAS"
      },
      {
        "electoralDistricts": [
          {
            "election": null,
            "id": 26,
            "name": "Elgin—Middlesex—London"
          }
        ],
        "pollDivisionIds": [
          10137997
        ],
        "postalCode": "N5R6L8",
        "streetName": "LAKE MARGARET",
        "streetDirectionId": null,
        "streetTypeId": "TRAIL",
        "placeName": "ST THOMAS",
        "streetNameDisplayText": "LAKE MARGARET TRAIL, ST THOMAS"
      }
    ]
  },
  {
    "postal": "N5R2R4",
    "result": [
      {
        "electoralDistricts": [
          {
            "election": null,
            "id": 26,
            "name": "Elgin—Middlesex—London"
          }
        ],
        "pollDivisionIds": [
          10137997
        ],
        "postalCode": "N5R2R4",
        "streetName": "WELLINGTON",
        "streetDirectionId": null,
        "streetTypeId": "ST",
        "placeName": "ST THOMAS",
        "streetNameDisplayText": "WELLINGTON ST, ST THOMAS"
      }
    ]
  },
  {
    "postal": "N5R2W1",
    "result": [
      {
        "electoralDistricts": [
          {
            "election": null,
            "id": 26,
            "name": "Elgin—Middlesex—London"
          }
        ],
        "pollDivisionIds": [
          10137993
        ],
        "postalCode": "N5R2W1",
        "streetName": "ST ANNE'S",
        "streetDirectionId": null,
        "streetTypeId": "PL",
        "placeName": "ST THOMAS",
        "streetNameDisplayText": "ST ANNE'S PL, ST THOMAS"
      },
      {
        "electoralDistricts": [
          {
            "election": null,
            "id": 26,
            "name": "Elgin—Middlesex—London"
          }
        ],
        "pollDivisionIds": [
          10143316
        ],
        "postalCode": "N5R2W1",
        "streetName": "ST. ANNE'S",
        "streetDirectionId": null,
        "streetTypeId": "PL",
        "placeName": "ST THOMAS",
        "streetNameDisplayText": "ST. ANNE'S PL, ST THOMAS"
      }
    ]
  },
  {
    "postal": "N5R9H8",
    "result": []
  },
  {
    "postal": "N5R8X9",
    "result": []
  },
  {
    "postal": "N5R7H4",
    "result": []
  },
  {
    "postal": "N5R3J1",
    "result": [
      {
        "electoralDistricts": [
          {
            "election": null,
            "id": 26,
            "name": "Elgin—Middlesex—London"
          }
        ],
        "pollDivisionIds": [
          10137993
        ],
        "postalCode": "N5R3J1",
        "streetName": "QUEEN",
        "streetDirectionId": null,
        "streetTypeId": "ST",
        "placeName": "ST THOMAS",
        "streetNameDisplayText": "QUEEN ST, ST THOMAS"
      }
    ]
  },
  {
    "postal": "N5R1P4",
    "result": [
      {
        "electoralDistricts": [
          {
            "election": null,
            "id": 26,
            "name": "Elgin—Middlesex—London"
          }
        ],
        "pollDivisionIds": [
          10143317
        ],
        "postalCode": "N5R1P4",
        "streetName": "CHURCHILL",
        "streetDirectionId": null,
        "streetTypeId": "CRES",
        "placeName": "ST THOMAS",
        "streetNameDisplayText": "CHURCHILL CRES, ST THOMAS"
      }
    ]
  },
  {
    "postal": "N5R2A3",
    "result": [
      {
        "electoralDistricts": [
          {
            "election": null,
            "id": 26,
            "name": "Elgin—Middlesex—London"
          }
        ],
        "pollDivisionIds": [
          10137997
        ],
        "postalCode": "N5R2A3",
        "streetName": "REGENT",
        "streetDirectionId": null,
        "streetTypeId": "ST",
        "placeName": "ST THOMAS",
        "streetNameDisplayText": "REGENT ST, ST THOMAS"
      }
    ]
  },
  {
    "postal": "N5R0Z1",
    "result": []
  },
  {
    "postal": "N5R1C1",
    "result": [
      {
        "electoralDistricts": [
          {
            "election": null,
            "id": 26,
            "name": "Elgin—Middlesex—London"
          }
        ],
        "pollDivisionIds": [
          10143939
        ],
        "postalCode": "N5R1C1",
        "streetName": "SOUTHDALE",
        "streetDirectionId": null,
        "streetTypeId": "LINE",
        "placeName": "ST THOMAS",
        "streetNameDisplayText": "SOUTHDALE LINE, ST THOMAS"
      }
    ]
  },
  {
    "postal": "N5R0H3",
    "result": [
      {
        "electoralDistricts": [
          {
            "election": null,
            "id": 26,
            "name": "Elgin—Middlesex—London"
          }
        ],
        "pollDivisionIds": [
          10137975
        ],
        "postalCode": "N5R0H3",
        "streetName": "CAROLINA",
        "streetDirectionId": null,
        "streetTypeId": "CRES",
        "placeName": "ST THOMAS",
        "streetNameDisplayText": "CAROLINA CRES, ST THOMAS"
      },
      {
        "electoralDistricts": [
          {
            "election": null,
            "id": 26,
            "name": "Elgin—Middlesex—London"
          }
        ],
        "pollDivisionIds": [
          10137975
        ],
        "postalCode": "N5R0H3",
        "streetName": "PEACH TREE",
        "streetDirectionId": null,
        "streetTypeId": "BLVD",
        "placeName": "ST THOMAS",
        "streetNameDisplayText": "PEACH TREE BLVD, ST THOMAS"
      },
      {
        "electoralDistricts": [
          {
            "election": null,
            "id": 26,
            "name": "Elgin—Middlesex—London"
          }
        ],
        "pollDivisionIds": [
          10137975
        ],
        "postalCode": "N5R0H3",
        "streetName": "PEACHTREE",
        "streetDirectionId": null,
        "streetTypeId": "BLVD",
        "placeName": "ST THOMAS",
        "streetNameDisplayText": "PEACHTREE BLVD, ST THOMAS"
      }
    ]
  },
  {
    "postal": "N5R7B0",
    "result": []
  },
  {
    "postal": "N5R5K2",
    "result": [
      {
        "electoralDistricts": [
          {
            "election": null,
            "id": 26,
            "name": "Elgin—Middlesex—London"
          }
        ],
        "pollDivisionIds": [
          10137998
        ],
        "postalCode": "N5R5K2",
        "streetName": "DYER",
        "streetDirectionId": null,
        "streetTypeId": "ST",
        "placeName": "ST THOMAS",
        "streetNameDisplayText": "DYER ST, ST THOMAS"
      }
    ]
  },
  {
    "postal": "N5R1E9",
    "result": [
      {
        "electoralDistricts": [
          {
            "election": null,
            "id": 26,
            "name": "Elgin—Middlesex—London"
          }
        ],
        "pollDivisionIds": [
          10137998
        ],
        "postalCode": "N5R1E9",
        "streetName": "HOWARD",
        "streetDirectionId": null,
        "streetTypeId": "PL",
        "placeName": "ST THOMAS",
        "streetNameDisplayText": "HOWARD PL, ST THOMAS"
      }
    ]
  },
  {
    "postal": "N5R9W7",
    "result": []
  },
  {
    "postal": "N5R5W6",
    "result": [
      {
        "electoralDistricts": [
          {
            "election": null,
            "id": 26,
            "name": "Elgin—Middlesex—London"
          }
        ],
        "pollDivisionIds": [
          10143318
        ],
        "postalCode": "N5R5W6",
        "streetName": "BONNIE",
        "streetDirectionId": null,
        "streetTypeId": "PL",
        "placeName": "ST THOMAS",
        "streetNameDisplayText": "BONNIE PL, ST THOMAS"
      },
      {
        "electoralDistricts": [
          {
            "election": null,
            "id": 26,
            "name": "Elgin—Middlesex—London"
          }
        ],
        "pollDivisionIds": [
          10143318
        ],
        "postalCode": "N5R5W6",
        "streetName": "WELLINGTON",
        "streetDirectionId": null,
        "streetTypeId": "ST",
        "placeName": "ST THOMAS",
        "streetNameDisplayText": "WELLINGTON ST, ST THOMAS"
      }
    ]
  },
  {
    "postal": "N5R6S6",
    "result": []
  },
  {
    "postal": "N5R2P8",
    "result": [
      {
        "electoralDistricts": [
          {
            "election": null,
            "id": 26,
            "name": "Elgin—Middlesex—London"
          }
        ],
        "pollDivisionIds": [
          10137993
        ],
        "postalCode": "N5R2P8",
        "streetName": "WELLINGTON",
        "streetDirectionId": null,
        "streetTypeId": "ST",
        "placeName": "ST THOMAS",
        "streetNameDisplayText": "WELLINGTON ST, ST THOMAS"
      }
    ]
  },
  {
    "postal": "N5R4P8",
    "result": [
      {
        "electoralDistricts": [
          {
            "election": null,
            "id": 26,
            "name": "Elgin—Middlesex—London"
          }
        ],
        "pollDivisionIds": [
          10137997
        ],
        "postalCode": "N5R4P8",
        "streetName": "FIRST",
        "streetDirectionId": null,
        "streetTypeId": "AVE",
        "placeName": "ST THOMAS",
        "streetNameDisplayText": "FIRST AVE, ST THOMAS"
      }
    ]
  },
  {
    "postal": "N5R0V9",
    "result": []
  },
  {
    "postal": "N5R5Y2",
    "result": [
      {
        "electoralDistricts": [
          {
            "election": null,
            "id": 26,
            "name": "Elgin—Middlesex—London"
          }
        ],
        "pollDivisionIds": [
          10137995
        ],
        "postalCode": "N5R5Y2",
        "streetName": "CAVANAUGH",
        "streetDirectionId": null,
        "streetTypeId": "CRES",
        "placeName": "ST THOMAS",
        "streetNameDisplayText": "CAVANAUGH CRES, ST THOMAS"
      },
      {
        "electoralDistricts": [
          {
            "election": null,
            "id": 26,
            "name": "Elgin—Middlesex—London"
          }
        ],
        "pollDivisionIds": [
          10137995
        ],
        "postalCode": "N5R5Y2",
        "streetName": "TREVITHICK",
        "streetDirectionId": null,
        "streetTypeId": "TERR",
        "placeName": "ST THOMAS",
        "streetNameDisplayText": "TREVITHICK TERR, ST THOMAS"
      }
    ]
  },
  {
    "postal": "N5R7Z7",
    "result": []
  },
  {
    "postal": "N5R6Y8",
    "result": []
  },
  {
    "postal": "N5R2G7",
    "result": [
      {
        "electoralDistricts": [
          {
            "election": null,
            "id": 26,
            "name": "Elgin—Middlesex—London"
          }
        ],
        "pollDivisionIds": [
          10143317
        ],
        "postalCode": "N5R2G7",
        "streetName": "MYRTLE",
        "streetDirectionId": null,
        "streetTypeId": "ST",
        "placeName": "ST THOMAS",
        "streetNameDisplayText": "MYRTLE ST, ST THOMAS"
      }
    ]
  },
  {
    "postal": "N5R8C1",
    "result": []
  },
  {
    "postal": "N5R5C5",
    "result": [
      {
        "electoralDistricts": [
          {
            "election": null,
            "id": 26,
            "name": "Elgin—Middlesex—London"
          }
        ],
        "pollDivisionIds": [
          10137997
        ],
        "postalCode": "N5R5C5",
        "streetName": "ELM",
        "streetDirectionId": null,
        "streetTypeId": "ST",
        "placeName": "ST THOMAS",
        "streetNameDisplayText": "ELM ST, ST THOMAS"
      }
    ]
  },
  {
    "postal": "N5R2X8",
    "result": [
      {
        "electoralDistricts": [
          {
            "election": null,
            "id": 26,
            "name": "Elgin—Middlesex—London"
          }
        ],
        "pollDivisionIds": [
          10143317
        ],
        "postalCode": "N5R2X8",
        "streetName": "JONAS",
        "streetDirectionId": null,
        "streetTypeId": "ST",
        "placeName": "ST THOMAS",
        "streetNameDisplayText": "JONAS ST, ST THOMAS"
      }
    ]
  },
  {
    "postal": "N5R1W5",
    "result": [
      {
        "electoralDistricts": [
          {
            "election": null,
            "id": 26,
            "name": "Elgin—Middlesex—London"
          }
        ],
        "pollDivisionIds": [
          10137995
        ],
        "postalCode": "N5R1W5",
        "streetName": "PHILLIP",
        "streetDirectionId": null,
        "streetTypeId": "ST",
        "placeName": "ST THOMAS",
        "streetNameDisplayText": "PHILLIP ST, ST THOMAS"
      }
    ]
  },
  {
    "postal": "N5R7G0",
    "result": []
  },
  {
    "postal": "N5R8J8",
    "result": []
  },
  {
    "postal": "N5R3Y0",
    "result": []
  },
  {
    "postal": "N5R9T7",
    "result": []
  },
  {
    "postal": "N5R5P4",
    "result": [
      {
        "electoralDistricts": [
          {
            "election": null,
            "id": 26,
            "name": "Elgin—Middlesex—London"
          }
        ],
        "pollDivisionIds": [
          10137992
        ],
        "postalCode": "N5R5P4",
        "streetName": "CHESTNUT",
        "streetDirectionId": null,
        "streetTypeId": "ST",
        "placeName": "ST THOMAS",
        "streetNameDisplayText": "CHESTNUT ST, ST THOMAS"
      }
    ]
  },
  {
    "postal": "N5R4B0",
    "result": []
  },
  {
    "postal": "N5R9N8",
    "result": []
  },
  {
    "postal": "N5R4A7",
    "result": [
      {
        "electoralDistricts": [
          {
            "election": null,
            "id": 26,
            "name": "Elgin—Middlesex—London"
          }
        ],
        "pollDivisionIds": [
          10143317
        ],
        "postalCode": "N5R4A7",
        "streetName": "VERNA",
        "streetDirectionId": null,
        "streetTypeId": "ST",
        "placeName": "ST THOMAS",
        "streetNameDisplayText": "VERNA ST, ST THOMAS"
      }
    ]
  },
  {
    "postal": "N5R4H9",
    "result": [
      {
        "electoralDistricts": [
          {
            "election": null,
            "id": 26,
            "name": "Elgin—Middlesex—London"
          }
        ],
        "pollDivisionIds": [
          10137997
        ],
        "postalCode": "N5R4H9",
        "streetName": "MANDEVILLE",
        "streetDirectionId": null,
        "streetTypeId": "RD",
        "placeName": "ST THOMAS",
        "streetNameDisplayText": "MANDEVILLE RD, ST THOMAS"
      }
    ]
  },
  {
    "postal": "N5R6X1",
    "result": []
  },
  {
    "postal": "N5R9Y7",
    "result": []
  },
  {
    "postal": "N5R2Y5",
    "result": [
      {
        "electoralDistricts": [
          {
            "election": null,
            "id": 26,
            "name": "Elgin—Middlesex—London"
          }
        ],
        "pollDivisionIds": [
          10137992
        ],
        "postalCode": "N5R2Y5",
        "streetName": "STEELE",
        "streetDirectionId": null,
        "streetTypeId": "ST",
        "placeName": "ST THOMAS",
        "streetNameDisplayText": "STEELE ST, ST THOMAS"
      }
    ]
  },
  {
    "postal": "N5R8L7",
    "result": []
  },
  {
    "postal": "N5R2A8",
    "result": [
      {
        "electoralDistricts": [
          {
            "election": null,
            "id": 26,
            "name": "Elgin—Middlesex—London"
          }
        ],
        "pollDivisionIds": [
          10143317
        ],
        "postalCode": "N5R2A8",
        "streetName": "CHESTNUT",
        "streetDirectionId": null,
        "streetTypeId": "ST",
        "placeName": "ST THOMAS",
        "streetNameDisplayText": "CHESTNUT ST, ST THOMAS"
      }
    ]
  },
  {
    "postal": "N5R2K9",
    "result": [
      {
        "electoralDistricts": [
          {
            "election": null,
            "id": 26,
            "name": "Elgin—Middlesex—London"
          }
        ],
        "pollDivisionIds": [
          10137992
        ],
        "postalCode": "N5R2K9",
        "streetName": "FOREST",
        "streetDirectionId": null,
        "streetTypeId": "AVE",
        "placeName": "ST THOMAS",
        "streetNameDisplayText": "FOREST AVE, ST THOMAS"
      }
    ]
  },
  {
    "postal": "N5R3E5",
    "result": [
      {
        "electoralDistricts": [
          {
            "election": null,
            "id": 26,
            "name": "Elgin—Middlesex—London"
          }
        ],
        "pollDivisionIds": [
          10137997
        ],
        "postalCode": "N5R3E5",
        "streetName": "FARLEY",
        "streetDirectionId": null,
        "streetTypeId": "PL",
        "placeName": "ST THOMAS",
        "streetNameDisplayText": "FARLEY PL, ST THOMAS"
      }
    ]
  },
  {
    "postal": "N5R8N6",
    "result": []
  },
  {
    "postal": "N5R8J4",
    "result": []
  },
  {
    "postal": "N5R4R7",
    "result": [
      {
        "electoralDistricts": [
          {
            "election": null,
            "id": 26,
            "name": "Elgin—Middlesex—London"
          }
        ],
        "pollDivisionIds": [
          10137995
        ],
        "postalCode": "N5R4R7",
        "streetName": "TALEQUAH",
        "streetDirectionId": null,
        "streetTypeId": "ST",
        "placeName": "ST THOMAS",
        "streetNameDisplayText": "TALEQUAH ST, ST THOMAS"
      }
    ]
  },
  {
    "postal": "N5R9K1",
    "result": []
  },
  {
    "postal": "N5R8E1",
    "result": []
  },
  {
    "postal": "N5R0R1",
    "result": []
  },
  {
    "postal": "N5R4J3",
    "result": [
      {
        "electoralDistricts": [
          {
            "election": null,
            "id": 26,
            "name": "Elgin—Middlesex—London"
          }
        ],
        "pollDivisionIds": [
          10137997
        ],
        "postalCode": "N5R4J3",
        "streetName": "MANDEVILLE",
        "streetDirectionId": null,
        "streetTypeId": "RD",
        "placeName": "ST THOMAS",
        "streetNameDisplayText": "MANDEVILLE RD, ST THOMAS"
      }
    ]
  },
  {
    "postal": "N5R7E7",
    "result": []
  },
  {
    "postal": "N5R0J0",
    "result": []
  },
  {
    "postal": "N5R7R8",
    "result": []
  },
  {
    "postal": "N5R9X0",
    "result": []
  },
  {
    "postal": "N5R7P6",
    "result": []
  },
  {
    "postal": "N5R0R7",
    "result": []
  },
  {
    "postal": "N5R5W1",
    "result": [
      {
        "electoralDistricts": [
          {
            "election": null,
            "id": 26,
            "name": "Elgin—Middlesex—London"
          }
        ],
        "pollDivisionIds": [
          10143318
        ],
        "postalCode": "N5R5W1",
        "streetName": "MANOR",
        "streetDirectionId": null,
        "streetTypeId": "RD",
        "placeName": "ST THOMAS",
        "streetNameDisplayText": "MANOR RD, ST THOMAS"
      }
    ]
  },
  {
    "postal": "N5R0K4",
    "result": []
  },
  {
    "postal": "N5R7N9",
    "result": []
  },
  {
    "postal": "N5R1N0",
    "result": []
  },
  {
    "postal": "N5R6P3",
    "result": []
  },
  {
    "postal": "N5R5A1",
    "result": [
      {
        "electoralDistricts": [
          {
            "election": null,
            "id": 26,
            "name": "Elgin—Middlesex—London"
          }
        ],
        "pollDivisionIds": [
          10137975
        ],
        "postalCode": "N5R5A1",
        "streetName": "BAILEY",
        "streetDirectionId": null,
        "streetTypeId": "AVE",
        "placeName": "ST THOMAS",
        "streetNameDisplayText": "BAILEY AVE, ST THOMAS"
      }
    ]
  },
  {
    "postal": "N5R9M9",
    "result": []
  },
  {
    "postal": "N5R7T6",
    "result": []
  },
  {
    "postal": "N5R3X0",
    "result": []
  },
  {
    "postal": "N5R2T0",
    "result": []
  },
  {
    "postal": "N5R5X9",
    "result": [
      {
        "electoralDistricts": [
          {
            "election": null,
            "id": 26,
            "name": "Elgin—Middlesex—London"
          }
        ],
        "pollDivisionIds": [
          10143318
        ],
        "postalCode": "N5R5X9",
        "streetName": "HITCH",
        "streetDirectionId": null,
        "streetTypeId": "CRES",
        "placeName": "ST THOMAS",
        "streetNameDisplayText": "HITCH CRES, ST THOMAS"
      },
      {
        "electoralDistricts": [
          {
            "election": null,
            "id": 26,
            "name": "Elgin—Middlesex—London"
          }
        ],
        "pollDivisionIds": [
          10143318
        ],
        "postalCode": "N5R5X9",
        "streetName": "RICE",
        "streetDirectionId": null,
        "streetTypeId": "RD",
        "placeName": "ST THOMAS",
        "streetNameDisplayText": "RICE RD, ST THOMAS"
      }
    ]
  },
  {
    "postal": "N5R2R3",
    "result": [
      {
        "electoralDistricts": [
          {
            "election": null,
            "id": 26,
            "name": "Elgin—Middlesex—London"
          }
        ],
        "pollDivisionIds": [
          10137997
        ],
        "postalCode": "N5R2R3",
        "streetName": "TALBOT",
        "streetDirectionId": null,
        "streetTypeId": "LINE",
        "placeName": "ST THOMAS",
        "streetNameDisplayText": "TALBOT LINE, ST THOMAS"
      },
      {
        "electoralDistricts": [
          {
            "election": null,
            "id": 26,
            "name": "Elgin—Middlesex—London"
          }
        ],
        "pollDivisionIds": [
          10137993
        ],
        "postalCode": "N5R2R3",
        "streetName": "WELLINGTON",
        "streetDirectionId": null,
        "streetTypeId": "ST",
        "placeName": "ST THOMAS",
        "streetNameDisplayText": "WELLINGTON ST, ST THOMAS"
      }
    ]
  },
  {
    "postal": "N5R5N2",
    "result": [
      {
        "electoralDistricts": [
          {
            "election": null,
            "id": 26,
            "name": "Elgin—Middlesex—London"
          }
        ],
        "pollDivisionIds": [
          10137995
        ],
        "postalCode": "N5R5N2",
        "streetName": "CHESTNUT",
        "streetDirectionId": null,
        "streetTypeId": "ST",
        "placeName": "ST THOMAS",
        "streetNameDisplayText": "CHESTNUT ST, ST THOMAS"
      }
    ]
  },
  {
    "postal": "N5R4Y7",
    "result": [
      {
        "electoralDistricts": [
          {
            "election": null,
            "id": 26,
            "name": "Elgin—Middlesex—London"
          }
        ],
        "pollDivisionIds": [
          10137975
        ],
        "postalCode": "N5R4Y7",
        "streetName": "LAWRENCE",
        "streetDirectionId": null,
        "streetTypeId": "AVE",
        "placeName": "ST THOMAS",
        "streetNameDisplayText": "LAWRENCE AVE, ST THOMAS"
      }
    ]
  },
  {
    "postal": "N5R7M0",
    "result": []
  },
  {
    "postal": "N5R8P3",
    "result": []
  },
  {
    "postal": "N5R3N3",
    "result": [
      {
        "electoralDistricts": [
          {
            "election": null,
            "id": 26,
            "name": "Elgin—Middlesex—London"
          }
        ],
        "pollDivisionIds": [
          10137997
        ],
        "postalCode": "N5R3N3",
        "streetName": "DEVONSHIRE",
        "streetDirectionId": null,
        "streetTypeId": "PL",
        "placeName": "ST THOMAS",
        "streetNameDisplayText": "DEVONSHIRE PL, ST THOMAS"
      }
    ]
  },
  {
    "postal": "N5R7S3",
    "result": []
  },
  {
    "postal": "N5R3V9",
    "result": [
      {
        "electoralDistricts": [
          {
            "election": null,
            "id": 26,
            "name": "Elgin—Middlesex—London"
          }
        ],
        "pollDivisionIds": [
          10137993
        ],
        "postalCode": "N5R3V9",
        "streetName": "PRINCESS",
        "streetDirectionId": null,
        "streetTypeId": "AVE",
        "placeName": "ST THOMAS",
        "streetNameDisplayText": "PRINCESS AVE, ST THOMAS"
      }
    ]
  },
  {
    "postal": "N5R9N7",
    "result": []
  },
  {
    "postal": "N5R0G4",
    "result": [
      {
        "electoralDistricts": [
          {
            "election": null,
            "id": 26,
            "name": "Elgin—Middlesex—London"
          }
        ],
        "pollDivisionIds": [
          10137997
        ],
        "postalCode": "N5R0G4",
        "streetName": "DORAL CRT",
        "streetDirectionId": null,
        "streetTypeId": "CRT",
        "placeName": "ST THOMAS",
        "streetNameDisplayText": "DORAL CRT CRT, ST THOMAS"
      },
      {
        "electoralDistricts": [
          {
            "election": null,
            "id": 26,
            "name": "Elgin—Middlesex—London"
          }
        ],
        "pollDivisionIds": [
          10137997
        ],
        "postalCode": "N5R0G4",
        "streetName": "DORAL",
        "streetDirectionId": null,
        "streetTypeId": "CRT",
        "placeName": "ST THOMAS",
        "streetNameDisplayText": "DORAL CRT, ST THOMAS"
      },
      {
        "electoralDistricts": [
          {
            "election": null,
            "id": 26,
            "name": "Elgin—Middlesex—London"
          }
        ],
        "pollDivisionIds": [
          10137997
        ],
        "postalCode": "N5R0G4",
        "streetName": "ST ANDREWS",
        "streetDirectionId": null,
        "streetTypeId": "DR",
        "placeName": "ST THOMAS",
        "streetNameDisplayText": "ST ANDREWS DR, ST THOMAS"
      },
      {
        "electoralDistricts": [
          {
            "election": null,
            "id": 26,
            "name": "Elgin—Middlesex—London"
          }
        ],
        "pollDivisionIds": [
          10137997
        ],
        "postalCode": "N5R0G4",
        "streetName": "ST. ANDREWS",
        "streetDirectionId": null,
        "streetTypeId": "DR",
        "placeName": "ST THOMAS",
        "streetNameDisplayText": "ST. ANDREWS DR, ST THOMAS"
      },
      {
        "electoralDistricts": [
          {
            "election": null,
            "id": 26,
            "name": "Elgin—Middlesex—London"
          }
        ],
        "pollDivisionIds": [
          10137997
        ],
        "postalCode": "N5R0G4",
        "streetName": "ST. ANDREW'S",
        "streetDirectionId": null,
        "streetTypeId": "ST",
        "placeName": "ST THOMAS",
        "streetNameDisplayText": "ST. ANDREW'S ST, ST THOMAS"
      }
    ]
  },
  {
    "postal": "N5R2E2",
    "result": [
      {
        "electoralDistricts": [
          {
            "election": null,
            "id": 26,
            "name": "Elgin—Middlesex—London"
          }
        ],
        "pollDivisionIds": [
          10137997
        ],
        "postalCode": "N5R2E2",
        "streetName": "VICTORIA",
        "streetDirectionId": null,
        "streetTypeId": "ST",
        "placeName": "ST THOMAS",
        "streetNameDisplayText": "VICTORIA ST, ST THOMAS"
      }
    ]
  },
  {
    "postal": "N5R7W8",
    "result": []
  },
  {
    "postal": "N5R7M5",
    "result": []
  },
  {
    "postal": "N5R5W8",
    "result": [
      {
        "electoralDistricts": [
          {
            "election": null,
            "id": 26,
            "name": "Elgin—Middlesex—London"
          }
        ],
        "pollDivisionIds": [
          10143318
        ],
        "postalCode": "N5R5W8",
        "streetName": "FARMINGTON",
        "streetDirectionId": null,
        "streetTypeId": "DR",
        "placeName": "ST THOMAS",
        "streetNameDisplayText": "FARMINGTON DR, ST THOMAS"
      }
    ]
  },
  {
    "postal": "N5R5E5",
    "result": [
      {
        "electoralDistricts": [
          {
            "election": null,
            "id": 26,
            "name": "Elgin—Middlesex—London"
          }
        ],
        "pollDivisionIds": [
          10137975
        ],
        "postalCode": "N5R5E5",
        "streetName": "HIGHVIEW",
        "streetDirectionId": null,
        "streetTypeId": "DR",
        "placeName": "ST THOMAS",
        "streetNameDisplayText": "HIGHVIEW DR, ST THOMAS"
      }
    ]
  },
  {
    "postal": "N5R1P9",
    "result": [
      {
        "electoralDistricts": [
          {
            "election": null,
            "id": 26,
            "name": "Elgin—Middlesex—London"
          }
        ],
        "pollDivisionIds": [
          10143317
        ],
        "postalCode": "N5R1P9",
        "streetName": "CHURCHILL",
        "streetDirectionId": null,
        "streetTypeId": "CRES",
        "placeName": "ST THOMAS",
        "streetNameDisplayText": "CHURCHILL CRES, ST THOMAS"
      }
    ]
  },
  {
    "postal": "N5R8V8",
    "result": []
  },
  {
    "postal": "N5R9G8",
    "result": []
  },
  {
    "postal": "N5R8H9",
    "result": []
  },
  {
    "postal": "N5R1Z1",
    "result": [
      {
        "electoralDistricts": [
          {
            "election": null,
            "id": 26,
            "name": "Elgin—Middlesex—London"
          }
        ],
        "pollDivisionIds": [
          10143317
        ],
        "postalCode": "N5R1Z1",
        "streetName": "MAPLE",
        "streetDirectionId": null,
        "streetTypeId": "ST",
        "placeName": "ST THOMAS",
        "streetNameDisplayText": "MAPLE ST, ST THOMAS"
      }
    ]
  },
  {
    "postal": "N5R8M3",
    "result": []
  },
  {
    "postal": "N5R5H6",
    "result": [
      {
        "electoralDistricts": [
          {
            "election": null,
            "id": 26,
            "name": "Elgin—Middlesex—London"
          }
        ],
        "pollDivisionIds": [
          10137992
        ],
        "postalCode": "N5R5H6",
        "streetName": "HIGHVIEW",
        "streetDirectionId": null,
        "streetTypeId": "DR",
        "placeName": "ST THOMAS",
        "streetNameDisplayText": "HIGHVIEW DR, ST THOMAS"
      }
    ]
  },
  {
    "postal": "N5R7W7",
    "result": []
  },
  {
    "postal": "N5R4L0",
    "result": []
  },
  {
    "postal": "N5R2N1",
    "result": [
      {
        "electoralDistricts": [
          {
            "election": null,
            "id": 26,
            "name": "Elgin—Middlesex—London"
          }
        ],
        "pollDivisionIds": [
          10143317
        ],
        "postalCode": "N5R2N1",
        "streetName": "ERIE",
        "streetDirectionId": null,
        "streetTypeId": "ST",
        "placeName": "ST THOMAS",
        "streetNameDisplayText": "ERIE ST, ST THOMAS"
      }
    ]
  },
  {
    "postal": "N5R2H4",
    "result": [
      {
        "electoralDistricts": [
          {
            "election": null,
            "id": 26,
            "name": "Elgin—Middlesex—London"
          }
        ],
        "pollDivisionIds": [
          10137997
        ],
        "postalCode": "N5R2H4",
        "streetName": "DRAKE",
        "streetDirectionId": null,
        "streetTypeId": "ST",
        "placeName": "ST THOMAS",
        "streetNameDisplayText": "DRAKE ST, ST THOMAS"
      }
    ]
  },
  {
    "postal": "N5R5C8",
    "result": [
      {
        "electoralDistricts": [
          {
            "election": null,
            "id": 26,
            "name": "Elgin—Middlesex—London"
          }
        ],
        "pollDivisionIds": [
          10137998
        ],
        "postalCode": "N5R5C8",
        "streetName": "LAWRENCE",
        "streetDirectionId": null,
        "streetTypeId": "AVE",
        "placeName": "ST THOMAS",
        "streetNameDisplayText": "LAWRENCE AVE, ST THOMAS"
      }
    ]
  },
  {
    "postal": "N5R8B0",
    "result": []
  },
  {
    "postal": "N5R1T4",
    "result": [
      {
        "electoralDistricts": [
          {
            "election": null,
            "id": 26,
            "name": "Elgin—Middlesex—London"
          }
        ],
        "pollDivisionIds": [
          10137975
        ],
        "postalCode": "N5R1T4",
        "streetName": "PAUL",
        "streetDirectionId": null,
        "streetTypeId": "ST",
        "placeName": "ST THOMAS",
        "streetNameDisplayText": "PAUL ST, ST THOMAS"
      }
    ]
  },
  {
    "postal": "N5R7N7",
    "result": []
  },
  {
    "postal": "N5R4L3",
    "result": [
      {
        "electoralDistricts": [
          {
            "election": null,
            "id": 26,
            "name": "Elgin—Middlesex—London"
          }
        ],
        "pollDivisionIds": [
          10143317
        ],
        "postalCode": "N5R4L3",
        "streetName": "SECOND",
        "streetDirectionId": null,
        "streetTypeId": "AVE",
        "placeName": "ST THOMAS",
        "streetNameDisplayText": "SECOND AVE, ST THOMAS"
      }
    ]
  },
  {
    "postal": "N5R2N2",
    "result": [
      {
        "electoralDistricts": [
          {
            "election": null,
            "id": 26,
            "name": "Elgin—Middlesex—London"
          }
        ],
        "pollDivisionIds": [
          10143317
        ],
        "postalCode": "N5R2N2",
        "streetName": "ERIE",
        "streetDirectionId": null,
        "streetTypeId": "ST",
        "placeName": "ST THOMAS",
        "streetNameDisplayText": "ERIE ST, ST THOMAS"
      }
    ]
  },
  {
    "postal": "N5R4N8",
    "result": [
      {
        "electoralDistricts": [
          {
            "election": null,
            "id": 26,
            "name": "Elgin—Middlesex—London"
          }
        ],
        "pollDivisionIds": [
          10143317
        ],
        "postalCode": "N5R4N8",
        "streetName": "FIRST",
        "streetDirectionId": null,
        "streetTypeId": "AVE",
        "placeName": "ST THOMAS",
        "streetNameDisplayText": "FIRST AVE, ST THOMAS"
      }
    ]
  },
  {
    "postal": "N5R3M5",
    "result": [
      {
        "electoralDistricts": [
          {
            "election": null,
            "id": 26,
            "name": "Elgin—Middlesex—London"
          }
        ],
        "pollDivisionIds": [
          10137997
        ],
        "postalCode": "N5R3M5",
        "streetName": "ELGIN",
        "streetDirectionId": null,
        "streetTypeId": "ST",
        "placeName": "ST THOMAS",
        "streetNameDisplayText": "ELGIN ST, ST THOMAS"
      }
    ]
  },
  {
    "postal": "N5R6H7",
    "result": [
      {
        "electoralDistricts": [
          {
            "election": null,
            "id": 26,
            "name": "Elgin—Middlesex—London"
          }
        ],
        "pollDivisionIds": [
          10143318
        ],
        "postalCode": "N5R6H7",
        "streetName": "HIGHVIEW",
        "streetDirectionId": null,
        "streetTypeId": "DR",
        "placeName": "ST THOMAS",
        "streetNameDisplayText": "HIGHVIEW DR, ST THOMAS"
      },
      {
        "electoralDistricts": [
          {
            "election": null,
            "id": 26,
            "name": "Elgin—Middlesex—London"
          }
        ],
        "pollDivisionIds": [
          10137975
        ],
        "postalCode": "N5R6H7",
        "streetName": "LEXINGTON",
        "streetDirectionId": null,
        "streetTypeId": "CRT",
        "placeName": "ST THOMAS",
        "streetNameDisplayText": "LEXINGTON CRT, ST THOMAS"
      }
    ]
  },
  {
    "postal": "N5R8Y8",
    "result": []
  },
  {
    "postal": "N5R5R9",
    "result": [
      {
        "electoralDistricts": [
          {
            "election": null,
            "id": 26,
            "name": "Elgin—Middlesex—London"
          }
        ],
        "pollDivisionIds": [
          10137975
        ],
        "postalCode": "N5R5R9",
        "streetName": "CHESTNUT",
        "streetDirectionId": null,
        "streetTypeId": "ST",
        "placeName": "ST THOMAS",
        "streetNameDisplayText": "CHESTNUT ST, ST THOMAS"
      }
    ]
  },
  {
    "postal": "N5R8G3",
    "result": []
  },
  {
    "postal": "N5R4N7",
    "result": [
      {
        "electoralDistricts": [
          {
            "election": null,
            "id": 26,
            "name": "Elgin—Middlesex—London"
          }
        ],
        "pollDivisionIds": [
          10137995
        ],
        "postalCode": "N5R4N7",
        "streetName": "FIRST",
        "streetDirectionId": null,
        "streetTypeId": "AVE",
        "placeName": "ST THOMAS",
        "streetNameDisplayText": "FIRST AVE, ST THOMAS"
      }
    ]
  },
  {
    "postal": "N5R0B9",
    "result": [
      {
        "electoralDistricts": [
          {
            "election": null,
            "id": 26,
            "name": "Elgin—Middlesex—London"
          }
        ],
        "pollDivisionIds": [
          10137975
        ],
        "postalCode": "N5R0B9",
        "streetName": "LAWRENCE",
        "streetDirectionId": null,
        "streetTypeId": "AVE",
        "placeName": "ST THOMAS",
        "streetNameDisplayText": "LAWRENCE AVE, ST THOMAS"
      },
      {
        "electoralDistricts": [
          {
            "election": null,
            "id": 26,
            "name": "Elgin—Middlesex—London"
          }
        ],
        "pollDivisionIds": [
          10137975
        ],
        "postalCode": "N5R0B9",
        "streetName": "MAJESTIC",
        "streetDirectionId": null,
        "streetTypeId": "CRT",
        "placeName": "ST THOMAS",
        "streetNameDisplayText": "MAJESTIC CRT, ST THOMAS"
      }
    ]
  },
  {
    "postal": "N5R9K7",
    "result": []
  },
  {
    "postal": "N5R9K9",
    "result": []
  },
  {
    "postal": "N5R3Z2",
    "result": [
      {
        "electoralDistricts": [
          {
            "election": null,
            "id": 26,
            "name": "Elgin—Middlesex—London"
          }
        ],
        "pollDivisionIds": [
          10143317
        ],
        "postalCode": "N5R3Z2",
        "streetName": "ROSS",
        "streetDirectionId": null,
        "streetTypeId": "ST",
        "placeName": "ST THOMAS",
        "streetNameDisplayText": "ROSS ST, ST THOMAS"
      }
    ]
  },
  {
    "postal": "N5R6W7",
    "result": []
  },
  {
    "postal": "N5R0P1",
    "result": []
  },
  {
    "postal": "N5R3A0",
    "result": []
  },
  {
    "postal": "N5R8L9",
    "result": []
  },
  {
    "postal": "N5R6X0",
    "result": []
  },
  {
    "postal": "N5R3E9",
    "result": [
      {
        "electoralDistricts": [
          {
            "election": null,
            "id": 26,
            "name": "Elgin—Middlesex—London"
          }
        ],
        "pollDivisionIds": [
          10143316
        ],
        "postalCode": "N5R3E9",
        "streetName": "STANLEY",
        "streetDirectionId": null,
        "streetTypeId": "ST",
        "placeName": "ST THOMAS",
        "streetNameDisplayText": "STANLEY ST, ST THOMAS"
      }
    ]
  },
  {
    "postal": "N5R0S5",
    "result": []
  },
  {
    "postal": "N5R1A2",
    "result": [
      {
        "electoralDistricts": [
          {
            "election": null,
            "id": 26,
            "name": "Elgin—Middlesex—London"
          }
        ],
        "pollDivisionIds": [
          10143939
        ],
        "postalCode": "N5R1A2",
        "streetName": "GERTRUDE",
        "streetDirectionId": null,
        "streetTypeId": "ST",
        "placeName": "ST THOMAS",
        "streetNameDisplayText": "GERTRUDE ST, ST THOMAS"
      }
    ]
  },
  {
    "postal": "N5R5V8",
    "result": []
  },
  {
    "postal": "N5R8C5",
    "result": []
  },
  {
    "postal": "N5R6N0",
    "result": []
  },
  {
    "postal": "N5R9E6",
    "result": []
  },
  {
    "postal": "N5R5J7",
    "result": [
      {
        "electoralDistricts": [
          {
            "election": null,
            "id": 26,
            "name": "Elgin—Middlesex—London"
          }
        ],
        "pollDivisionIds": [
          10137998
        ],
        "postalCode": "N5R5J7",
        "streetName": "MCLARTY",
        "streetDirectionId": null,
        "streetTypeId": "DR",
        "placeName": "ST THOMAS",
        "streetNameDisplayText": "MCLARTY DR, ST THOMAS"
      }
    ]
  },
  {
    "postal": "N5R2R2",
    "result": [
      {
        "electoralDistricts": [
          {
            "election": null,
            "id": 26,
            "name": "Elgin—Middlesex—London"
          }
        ],
        "pollDivisionIds": [
          10137993
        ],
        "postalCode": "N5R2R2",
        "streetName": "WELLINGTON",
        "streetDirectionId": null,
        "streetTypeId": "ST",
        "placeName": "ST THOMAS",
        "streetNameDisplayText": "WELLINGTON ST, ST THOMAS"
      }
    ]
  },
  {
    "postal": "N5R0P5",
    "result": []
  },
  {
    "postal": "N5R5A7",
    "result": [
      {
        "electoralDistricts": [
          {
            "election": null,
            "id": 26,
            "name": "Elgin—Middlesex—London"
          }
        ],
        "pollDivisionIds": [
          10137975,
          10137956
        ],
        "postalCode": "N5R5A7",
        "streetName": "COULTER",
        "streetDirectionId": null,
        "streetTypeId": "AVE",
        "placeName": "ST THOMAS",
        "streetNameDisplayText": "COULTER AVE, ST THOMAS"
      }
    ]
  },
  {
    "postal": "N5R1G1",
    "result": [
      {
        "electoralDistricts": [
          {
            "election": null,
            "id": 26,
            "name": "Elgin—Middlesex—London"
          }
        ],
        "pollDivisionIds": [
          10137998
        ],
        "postalCode": "N5R1G1",
        "streetName": "THOMPSON",
        "streetDirectionId": null,
        "streetTypeId": "AVE",
        "placeName": "ST THOMAS",
        "streetNameDisplayText": "THOMPSON AVE, ST THOMAS"
      }
    ]
  },
  {
    "postal": "N5R9R6",
    "result": []
  },
  {
    "postal": "N5R4Z9",
    "result": [
      {
        "electoralDistricts": [
          {
            "election": null,
            "id": 26,
            "name": "Elgin—Middlesex—London"
          }
        ],
        "pollDivisionIds": [
          10137975
        ],
        "postalCode": "N5R4Z9",
        "streetName": "BAILEY",
        "streetDirectionId": null,
        "streetTypeId": "AVE",
        "placeName": "ST THOMAS",
        "streetNameDisplayText": "BAILEY AVE, ST THOMAS"
      }
    ]
  },
  {
    "postal": "N5R1V5",
    "result": [
      {
        "electoralDistricts": [
          {
            "election": null,
            "id": 26,
            "name": "Elgin—Middlesex—London"
          }
        ],
        "pollDivisionIds": [
          10137997,
          10137998
        ],
        "postalCode": "N5R1V5",
        "streetName": "CHESTER",
        "streetDirectionId": null,
        "streetTypeId": "ST",
        "placeName": "ST THOMAS",
        "streetNameDisplayText": "CHESTER ST, ST THOMAS"
      }
    ]
  },
  {
    "postal": "N5R9Y5",
    "result": []
  },
  {
    "postal": "N5R1P2",
    "result": [
      {
        "electoralDistricts": [
          {
            "election": null,
            "id": 26,
            "name": "Elgin—Middlesex—London"
          }
        ],
        "pollDivisionIds": [
          10143317
        ],
        "postalCode": "N5R1P2",
        "streetName": "CHURCHILL",
        "streetDirectionId": null,
        "streetTypeId": "CRES",
        "placeName": "ST THOMAS",
        "streetNameDisplayText": "CHURCHILL CRES, ST THOMAS"
      }
    ]
  },
  {
    "postal": "N5R5X0",
    "result": []
  },
  {
    "postal": "N5R7B8",
    "result": []
  },
  {
    "postal": "N5R0C6",
    "result": [
      {
        "electoralDistricts": [
          {
            "election": null,
            "id": 26,
            "name": "Elgin—Middlesex—London"
          }
        ],
        "pollDivisionIds": [
          10137975
        ],
        "postalCode": "N5R0C6",
        "streetName": "LAWTON",
        "streetDirectionId": null,
        "streetTypeId": "AVE",
        "placeName": "ST THOMAS",
        "streetNameDisplayText": "LAWTON AVE, ST THOMAS"
      },
      {
        "electoralDistricts": [
          {
            "election": null,
            "id": 26,
            "name": "Elgin—Middlesex—London"
          }
        ],
        "pollDivisionIds": [
          10137975
        ],
        "postalCode": "N5R0C6",
        "streetName": "LAWTON",
        "streetDirectionId": null,
        "streetTypeId": "ST",
        "placeName": "ST THOMAS",
        "streetNameDisplayText": "LAWTON ST, ST THOMAS"
      }
    ]
  },
  {
    "postal": "N5R6G1",
    "result": [
      {
        "electoralDistricts": [
          {
            "election": null,
            "id": 26,
            "name": "Elgin—Middlesex—London"
          }
        ],
        "pollDivisionIds": [
          10137998
        ],
        "postalCode": "N5R6G1",
        "streetName": "SOUTHDALE",
        "streetDirectionId": null,
        "streetTypeId": "LINE",
        "placeName": "ST THOMAS",
        "streetNameDisplayText": "SOUTHDALE LINE, ST THOMAS"
      }
    ]
  },
  {
    "postal": "N5R3K3",
    "result": [
      {
        "electoralDistricts": [
          {
            "election": null,
            "id": 26,
            "name": "Elgin—Middlesex—London"
          }
        ],
        "pollDivisionIds": [
          10137993
        ],
        "postalCode": "N5R3K3",
        "streetName": "METCALFE",
        "streetDirectionId": null,
        "streetTypeId": "ST",
        "placeName": "ST THOMAS",
        "streetNameDisplayText": "METCALFE ST, ST THOMAS"
      }
    ]
  },
  {
    "postal": "N5R9R0",
    "result": []
  },
  {
    "postal": "N5R4R8",
    "result": [
      {
        "electoralDistricts": [
          {
            "election": null,
            "id": 26,
            "name": "Elgin—Middlesex—London"
          }
        ],
        "pollDivisionIds": [
          10137995
        ],
        "postalCode": "N5R4R8",
        "streetName": "TALEQUAH",
        "streetDirectionId": null,
        "streetTypeId": "ST",
        "placeName": "ST THOMAS",
        "streetNameDisplayText": "TALEQUAH ST, ST THOMAS"
      }
    ]
  },
  {
    "postal": "N5R5P9",
    "result": [
      {
        "electoralDistricts": [
          {
            "election": null,
            "id": 26,
            "name": "Elgin—Middlesex—London"
          }
        ],
        "pollDivisionIds": [
          10137995
        ],
        "postalCode": "N5R5P9",
        "streetName": "POL",
        "streetDirectionId": null,
        "streetTypeId": "CRT",
        "placeName": "ST THOMAS",
        "streetNameDisplayText": "POL CRT, ST THOMAS"
      }
    ]
  },
  {
    "postal": "N5R8N4",
    "result": []
  },
  {
    "postal": "N5R8H4",
    "result": []
  },
  {
    "postal": "N5R4V1",
    "result": [
      {
        "electoralDistricts": [
          {
            "election": null,
            "id": 26,
            "name": "Elgin—Middlesex—London"
          }
        ],
        "pollDivisionIds": [
          10137992
        ],
        "postalCode": "N5R4V1",
        "streetName": "PARK",
        "streetDirectionId": null,
        "streetTypeId": "AVE",
        "placeName": "ST THOMAS",
        "streetNameDisplayText": "PARK AVE, ST THOMAS"
      }
    ]
  },
  {
    "postal": "N5R1K5",
    "result": [
      {
        "electoralDistricts": [
          {
            "election": null,
            "id": 26,
            "name": "Elgin—Middlesex—London"
          }
        ],
        "pollDivisionIds": [
          10137995
        ],
        "postalCode": "N5R1K5",
        "streetName": "ELM",
        "streetDirectionId": null,
        "streetTypeId": "ST",
        "placeName": "ST THOMAS",
        "streetNameDisplayText": "ELM ST, ST THOMAS"
      }
    ]
  },
  {
    "postal": "N5R1Z5",
    "result": [
      {
        "electoralDistricts": [
          {
            "election": null,
            "id": 26,
            "name": "Elgin—Middlesex—London"
          }
        ],
        "pollDivisionIds": [
          10143317
        ],
        "postalCode": "N5R1Z5",
        "streetName": "BRANT",
        "streetDirectionId": null,
        "streetTypeId": "AVE",
        "placeName": "ST THOMAS",
        "streetNameDisplayText": "BRANT AVE, ST THOMAS"
      }
    ]
  },
  {
    "postal": "N5R9L9",
    "result": []
  },
  {
    "postal": "N5R5L2",
    "result": [
      {
        "electoralDistricts": [
          {
            "election": null,
            "id": 26,
            "name": "Elgin—Middlesex—London"
          }
        ],
        "pollDivisionIds": [
          10137998
        ],
        "postalCode": "N5R5L2",
        "streetName": "VANIER",
        "streetDirectionId": null,
        "streetTypeId": "PL",
        "placeName": "ST THOMAS",
        "streetNameDisplayText": "VANIER PL, ST THOMAS"
      }
    ]
  },
  {
    "postal": "N5R0M2",
    "result": []
  },
  {
    "postal": "N5R1K8",
    "result": [
      {
        "electoralDistricts": [
          {
            "election": null,
            "id": 26,
            "name": "Elgin—Middlesex—London"
          }
        ],
        "pollDivisionIds": [
          10137975
        ],
        "postalCode": "N5R1K8",
        "streetName": "ELM",
        "streetDirectionId": null,
        "streetTypeId": "ST",
        "placeName": "ST THOMAS",
        "streetNameDisplayText": "ELM ST, ST THOMAS"
      }
    ]
  },
  {
    "postal": "N5R3M7",
    "result": [
      {
        "electoralDistricts": [
          {
            "election": null,
            "id": 26,
            "name": "Elgin—Middlesex—London"
          }
        ],
        "pollDivisionIds": [
          10137997
        ],
        "postalCode": "N5R3M7",
        "streetName": "ELGIN",
        "streetDirectionId": null,
        "streetTypeId": "ST",
        "placeName": "ST THOMAS",
        "streetNameDisplayText": "ELGIN ST, ST THOMAS"
      }
    ]
  },
  {
    "postal": "N5R1B2",
    "result": [
      {
        "electoralDistricts": [
          {
            "election": null,
            "id": 26,
            "name": "Elgin—Middlesex—London"
          }
        ],
        "pollDivisionIds": [
          10143939
        ],
        "postalCode": "N5R1B2",
        "streetName": "MARLENE",
        "streetDirectionId": null,
        "streetTypeId": "ST",
        "placeName": "ST THOMAS",
        "streetNameDisplayText": "MARLENE ST, ST THOMAS"
      }
    ]
  },
  {
    "postal": "N5R0H9",
    "result": [
      {
        "electoralDistricts": [
          {
            "election": null,
            "id": 26,
            "name": "Elgin—Middlesex—London"
          }
        ],
        "pollDivisionIds": [
          10137975
        ],
        "postalCode": "N5R0H9",
        "streetName": "ASHBERRY",
        "streetDirectionId": null,
        "streetTypeId": "PL",
        "placeName": "ST THOMAS",
        "streetNameDisplayText": "ASHBERRY PL, ST THOMAS"
      }
    ]
  },
  {
    "postal": "N5R8M4",
    "result": []
  },
  {
    "postal": "N5R2M5",
    "result": [
      {
        "electoralDistricts": [
          {
            "election": null,
            "id": 26,
            "name": "Elgin—Middlesex—London"
          }
        ],
        "pollDivisionIds": [
          10143317
        ],
        "postalCode": "N5R2M5",
        "streetName": "ERIE",
        "streetDirectionId": null,
        "streetTypeId": "ST",
        "placeName": "ST THOMAS",
        "streetNameDisplayText": "ERIE ST, ST THOMAS"
      }
    ]
  },
  {
    "postal": "N5R0T9",
    "result": []
  },
  {
    "postal": "N5R3P1",
    "result": [
      {
        "electoralDistricts": [
          {
            "election": null,
            "id": 26,
            "name": "Elgin—Middlesex—London"
          }
        ],
        "pollDivisionIds": [
          10137993
        ],
        "postalCode": "N5R3P1",
        "streetName": "HINCKS",
        "streetDirectionId": null,
        "streetTypeId": "ST",
        "placeName": "ST THOMAS",
        "streetNameDisplayText": "HINCKS ST, ST THOMAS"
      },
      {
        "electoralDistricts": [
          {
            "election": null,
            "id": 26,
            "name": "Elgin—Middlesex—London"
          }
        ],
        "pollDivisionIds": [
          10137993
        ],
        "postalCode": "N5R3P1",
        "streetName": "HINCKS",
        "streetDirectionId": null,
        "streetTypeId": "ST",
        "placeName": "ST. THOMAS",
        "streetNameDisplayText": "HINCKS ST, ST. THOMAS"
      }
    ]
  },
  {
    "postal": "N5R1R6",
    "result": [
      {
        "electoralDistricts": [
          {
            "election": null,
            "id": 26,
            "name": "Elgin—Middlesex—London"
          }
        ],
        "pollDivisionIds": [
          10143317
        ],
        "postalCode": "N5R1R6",
        "streetName": "DUNKIRK",
        "streetDirectionId": null,
        "streetTypeId": "DR",
        "placeName": "ST THOMAS",
        "streetNameDisplayText": "DUNKIRK DR, ST THOMAS"
      }
    ]
  },
  {
    "postal": "N5R9V5",
    "result": []
  },
  {
    "postal": "N5R9T0",
    "result": []
  },
  {
    "postal": "N5R0A9",
    "result": [
      {
        "electoralDistricts": [
          {
            "election": null,
            "id": 26,
            "name": "Elgin—Middlesex—London"
          }
        ],
        "pollDivisionIds": [
          10137997
        ],
        "postalCode": "N5R0A9",
        "streetName": "MOURNING DOVE",
        "streetDirectionId": null,
        "streetTypeId": "LANE",
        "placeName": "ST THOMAS",
        "streetNameDisplayText": "MOURNING DOVE LANE, ST THOMAS"
      },
      {
        "electoralDistricts": [
          {
            "election": null,
            "id": 26,
            "name": "Elgin—Middlesex—London"
          }
        ],
        "pollDivisionIds": [
          10137997
        ],
        "postalCode": "N5R0A9",
        "streetName": "SANDPIPER",
        "streetDirectionId": null,
        "streetTypeId": "PL",
        "placeName": "ST THOMAS",
        "streetNameDisplayText": "SANDPIPER PL, ST THOMAS"
      }
    ]
  },
  {
    "postal": "N5R1M3",
    "result": [
      {
        "electoralDistricts": [
          {
            "election": null,
            "id": 26,
            "name": "Elgin—Middlesex—London"
          }
        ],
        "pollDivisionIds": [
          10143317
        ],
        "postalCode": "N5R1M3",
        "streetName": "CEDAR",
        "streetDirectionId": null,
        "streetTypeId": "ST",
        "placeName": "ST THOMAS",
        "streetNameDisplayText": "CEDAR ST, ST THOMAS"
      }
    ]
  },
  {
    "postal": "N5R1W8",
    "result": [
      {
        "electoralDistricts": [
          {
            "election": null,
            "id": 26,
            "name": "Elgin—Middlesex—London"
          }
        ],
        "pollDivisionIds": [
          10137975
        ],
        "postalCode": "N5R1W8",
        "streetName": "LAWTON",
        "streetDirectionId": null,
        "streetTypeId": "ST",
        "placeName": "ST THOMAS",
        "streetNameDisplayText": "LAWTON ST, ST THOMAS"
      }
    ]
  },
  {
    "postal": "N5R9J1",
    "result": []
  },
  {
    "postal": "N5R8N5",
    "result": []
  },
  {
    "postal": "N5R5X1",
    "result": [
      {
        "electoralDistricts": [
          {
            "election": null,
            "id": 26,
            "name": "Elgin—Middlesex—London"
          }
        ],
        "pollDivisionIds": [
          10143318
        ],
        "postalCode": "N5R5X1",
        "streetName": "HIGHVIEW",
        "streetDirectionId": null,
        "streetTypeId": "DR",
        "placeName": "ST THOMAS",
        "streetNameDisplayText": "HIGHVIEW DR, ST THOMAS"
      },
      {
        "electoralDistricts": [
          {
            "election": null,
            "id": 26,
            "name": "Elgin—Middlesex—London"
          }
        ],
        "pollDivisionIds": [
          10137992,
          10143318
        ],
        "postalCode": "N5R5X1",
        "streetName": "RIPLEY",
        "streetDirectionId": null,
        "streetTypeId": "LANE",
        "placeName": "ST THOMAS",
        "streetNameDisplayText": "RIPLEY LANE, ST THOMAS"
      }
    ]
  },
  {
    "postal": "N5R6S2",
    "result": []
  },
  {
    "postal": "N5R2A2",
    "result": [
      {
        "electoralDistricts": [
          {
            "election": null,
            "id": 26,
            "name": "Elgin—Middlesex—London"
          }
        ],
        "pollDivisionIds": [
          10137997
        ],
        "postalCode": "N5R2A2",
        "streetName": "REGENT",
        "streetDirectionId": null,
        "streetTypeId": "ST",
        "placeName": "ST THOMAS",
        "streetNameDisplayText": "REGENT ST, ST THOMAS"
      }
    ]
  },
  {
    "postal": "N5R6A6",
    "result": [
      {
        "electoralDistricts": [
          {
            "election": null,
            "id": 26,
            "name": "Elgin—Middlesex—London"
          }
        ],
        "pollDivisionIds": [
          10137995
        ],
        "postalCode": "N5R6A6",
        "streetName": "CHESTNUT",
        "streetDirectionId": null,
        "streetTypeId": "ST",
        "placeName": "ST THOMAS",
        "streetNameDisplayText": "CHESTNUT ST, ST THOMAS"
      }
    ]
  },
  {
    "postal": "N5R0S3",
    "result": []
  },
  {
    "postal": "N5R3E7",
    "result": [
      {
        "electoralDistricts": [
          {
            "election": null,
            "id": 26,
            "name": "Elgin—Middlesex—London"
          }
        ],
        "pollDivisionIds": [
          10143316
        ],
        "postalCode": "N5R3E7",
        "streetName": "STANLEY",
        "streetDirectionId": null,
        "streetTypeId": "ST",
        "placeName": "ST THOMAS",
        "streetNameDisplayText": "STANLEY ST, ST THOMAS"
      }
    ]
  },
  {
    "postal": "N5R5R7",
    "result": [
      {
        "electoralDistricts": [
          {
            "election": null,
            "id": 26,
            "name": "Elgin—Middlesex—London"
          }
        ],
        "pollDivisionIds": [
          10137998
        ],
        "postalCode": "N5R5R7",
        "streetName": "LUTON",
        "streetDirectionId": null,
        "streetTypeId": "CRES",
        "placeName": "ST THOMAS",
        "streetNameDisplayText": "LUTON CRES, ST THOMAS"
      }
    ]
  },
  {
    "postal": "N5R3R6",
    "result": [
      {
        "electoralDistricts": [
          {
            "election": null,
            "id": 26,
            "name": "Elgin—Middlesex—London"
          }
        ],
        "pollDivisionIds": [
          10137993
        ],
        "postalCode": "N5R3R6",
        "streetName": "SOUTHWICK",
        "streetDirectionId": null,
        "streetTypeId": "ST",
        "placeName": "ST THOMAS",
        "streetNameDisplayText": "SOUTHWICK ST, ST THOMAS"
      }
    ]
  },
  {
    "postal": "N5R6K4",
    "result": [
      {
        "electoralDistricts": [
          {
            "election": null,
            "id": 26,
            "name": "Elgin—Middlesex—London"
          }
        ],
        "pollDivisionIds": [
          10137997
        ],
        "postalCode": "N5R6K4",
        "streetName": "BEECHWOOD",
        "streetDirectionId": null,
        "streetTypeId": "CIR",
        "placeName": "ST THOMAS",
        "streetNameDisplayText": "BEECHWOOD CIR, ST THOMAS"
      },
      {
        "electoralDistricts": [
          {
            "election": null,
            "id": 26,
            "name": "Elgin—Middlesex—London"
          }
        ],
        "pollDivisionIds": [
          10137998
        ],
        "postalCode": "N5R6K4",
        "streetName": "HICKORY",
        "streetDirectionId": null,
        "streetTypeId": "LANE",
        "placeName": "ST THOMAS",
        "streetNameDisplayText": "HICKORY LANE, ST THOMAS"
      },
      {
        "electoralDistricts": [
          {
            "election": null,
            "id": 26,
            "name": "Elgin—Middlesex—London"
          }
        ],
        "pollDivisionIds": [
          10137997
        ],
        "postalCode": "N5R6K4",
        "streetName": "LAKE MARGARET",
        "streetDirectionId": null,
        "streetTypeId": "TRAIL",
        "placeName": "ST THOMAS",
        "streetNameDisplayText": "LAKE MARGARET TRAIL, ST THOMAS"
      }
    ]
  },
  {
    "postal": "N5R2W5",
    "result": [
      {
        "electoralDistricts": [
          {
            "election": null,
            "id": 26,
            "name": "Elgin—Middlesex—London"
          }
        ],
        "pollDivisionIds": [
          10137993
        ],
        "postalCode": "N5R2W5",
        "streetName": "ST. ANNE'S",
        "streetDirectionId": null,
        "streetTypeId": "PL",
        "placeName": "ST THOMAS",
        "streetNameDisplayText": "ST. ANNE'S PL, ST THOMAS"
      }
    ]
  },
  {
    "postal": "N5R8W4",
    "result": []
  },
  {
    "postal": "N5R9C2",
    "result": []
  },
  {
    "postal": "N5R2C0",
    "result": []
  },
  {
    "postal": "N5R0E1",
    "result": [
      {
        "electoralDistricts": [
          {
            "election": null,
            "id": 26,
            "name": "Elgin—Middlesex—London"
          }
        ],
        "pollDivisionIds": [
          10137975
        ],
        "postalCode": "N5R0E1",
        "streetName": "BLAIRMONT",
        "streetDirectionId": null,
        "streetTypeId": "TERR",
        "placeName": "ST THOMAS",
        "streetNameDisplayText": "BLAIRMONT TERR, ST THOMAS"
      }
    ]
  },
  {
    "postal": "N5R1K9",
    "result": [
      {
        "electoralDistricts": [
          {
            "election": null,
            "id": 26,
            "name": "Elgin—Middlesex—London"
          }
        ],
        "pollDivisionIds": [
          10137975
        ],
        "postalCode": "N5R1K9",
        "streetName": "ELM",
        "streetDirectionId": null,
        "streetTypeId": "ST",
        "placeName": "ST THOMAS",
        "streetNameDisplayText": "ELM ST, ST THOMAS"
      }
    ]
  },
  {
    "postal": "N5R1G7",
    "result": [
      {
        "electoralDistricts": [
          {
            "election": null,
            "id": 26,
            "name": "Elgin—Middlesex—London"
          }
        ],
        "pollDivisionIds": [
          10137995
        ],
        "postalCode": "N5R1G7",
        "streetName": "FRANCIS",
        "streetDirectionId": "S",
        "streetTypeId": "ST",
        "placeName": "ST THOMAS",
        "streetNameDisplayText": "FRANCIS ST S, ST THOMAS"
      }
    ]
  },
  {
    "postal": "N5R4E9",
    "result": [
      {
        "electoralDistricts": [
          {
            "election": null,
            "id": 26,
            "name": "Elgin—Middlesex—London"
          }
        ],
        "pollDivisionIds": [
          10143317
        ],
        "postalCode": "N5R4E9",
        "streetName": "FIFTH",
        "streetDirectionId": null,
        "streetTypeId": "AVE",
        "placeName": "ST THOMAS",
        "streetNameDisplayText": "FIFTH AVE, ST THOMAS"
      }
    ]
  },
  {
    "postal": "N5R9P0",
    "result": []
  },
  {
    "postal": "N5R5H3",
    "result": [
      {
        "electoralDistricts": [
          {
            "election": null,
            "id": 26,
            "name": "Elgin—Middlesex—London"
          }
        ],
        "pollDivisionIds": [
          10137998
        ],
        "postalCode": "N5R5H3",
        "streetName": "ALDBOROUGH",
        "streetDirectionId": null,
        "streetTypeId": "AVE",
        "placeName": "ST THOMAS",
        "streetNameDisplayText": "ALDBOROUGH AVE, ST THOMAS"
      }
    ]
  },
  {
    "postal": "N5R9X6",
    "result": []
  },
  {
    "postal": "N5R5N7",
    "result": [
      {
        "electoralDistricts": [
          {
            "election": null,
            "id": 26,
            "name": "Elgin—Middlesex—London"
          }
        ],
        "pollDivisionIds": [
          10137975
        ],
        "postalCode": "N5R5N7",
        "streetName": "MANOR",
        "streetDirectionId": null,
        "streetTypeId": "RD",
        "placeName": "ST THOMAS",
        "streetNameDisplayText": "MANOR RD, ST THOMAS"
      }
    ]
  },
  {
    "postal": "N5R5A6",
    "result": [
      {
        "electoralDistricts": [
          {
            "election": null,
            "id": 26,
            "name": "Elgin—Middlesex—London"
          }
        ],
        "pollDivisionIds": [
          10137975
        ],
        "postalCode": "N5R5A6",
        "streetName": "COULTER",
        "streetDirectionId": null,
        "streetTypeId": "AVE",
        "placeName": "ST THOMAS",
        "streetNameDisplayText": "COULTER AVE, ST THOMAS"
      }
    ]
  },
  {
    "postal": "N5R4M0",
    "result": []
  },
  {
    "postal": "N5R3V6",
    "result": [
      {
        "electoralDistricts": [
          {
            "election": null,
            "id": 26,
            "name": "Elgin—Middlesex—London"
          }
        ],
        "pollDivisionIds": [
          10143317
        ],
        "postalCode": "N5R3V6",
        "streetName": "PRINCESS",
        "streetDirectionId": null,
        "streetTypeId": "AVE",
        "placeName": "ST THOMAS",
        "streetNameDisplayText": "PRINCESS AVE, ST THOMAS"
      }
    ]
  },
  {
    "postal": "N5R1L7",
    "result": [
      {
        "electoralDistricts": [
          {
            "election": null,
            "id": 26,
            "name": "Elgin—Middlesex—London"
          }
        ],
        "pollDivisionIds": [
          10137975
        ],
        "postalCode": "N5R1L7",
        "streetName": "ELM",
        "streetDirectionId": null,
        "streetTypeId": "LINE",
        "placeName": "ST THOMAS",
        "streetNameDisplayText": "ELM LINE, ST THOMAS"
      }
    ]
  },
  {
    "postal": "N5R2P9",
    "result": [
      {
        "electoralDistricts": [
          {
            "election": null,
            "id": 26,
            "name": "Elgin—Middlesex—London"
          }
        ],
        "pollDivisionIds": [
          10137993
        ],
        "postalCode": "N5R2P9",
        "streetName": "WELLINGTON",
        "streetDirectionId": null,
        "streetTypeId": "ST",
        "placeName": "ST THOMAS",
        "streetNameDisplayText": "WELLINGTON ST, ST THOMAS"
      }
    ]
  },
  {
    "postal": "N5R5T4",
    "result": [
      {
        "electoralDistricts": [
          {
            "election": null,
            "id": 26,
            "name": "Elgin—Middlesex—London"
          }
        ],
        "pollDivisionIds": [
          10143939
        ],
        "postalCode": "N5R5T4",
        "streetName": "JOHN WISE",
        "streetDirectionId": null,
        "streetTypeId": "LINE",
        "placeName": "ST THOMAS",
        "streetNameDisplayText": "JOHN WISE LINE, ST THOMAS"
      }
    ]
  },
  {
    "postal": "N5R5Z1",
    "result": [
      {
        "electoralDistricts": [
          {
            "election": null,
            "id": 26,
            "name": "Elgin—Middlesex—London"
          }
        ],
        "pollDivisionIds": [
          10143318
        ],
        "postalCode": "N5R5Z1",
        "streetName": "MANOR",
        "streetDirectionId": null,
        "streetTypeId": "RD",
        "placeName": "ST THOMAS",
        "streetNameDisplayText": "MANOR RD, ST THOMAS"
      }
    ]
  },
  {
    "postal": "N5R2X0",
    "result": []
  },
  {
    "postal": "N5R6Z2",
    "result": []
  },
  {
    "postal": "N5R0E0",
    "result": []
  },
  {
    "postal": "N5R3Z5",
    "result": [
      {
        "electoralDistricts": [
          {
            "election": null,
            "id": 26,
            "name": "Elgin—Middlesex—London"
          }
        ],
        "pollDivisionIds": [
          10143317
        ],
        "postalCode": "N5R3Z5",
        "streetName": "ROSS",
        "streetDirectionId": null,
        "streetTypeId": "ST",
        "placeName": "ST THOMAS",
        "streetNameDisplayText": "ROSS ST, ST THOMAS"
      }
    ]
  },
  {
    "postal": "N5R8H3",
    "result": []
  },
  {
    "postal": "N5R7S6",
    "result": []
  },
  {
    "postal": "N5R4C1",
    "result": [
      {
        "electoralDistricts": [
          {
            "election": null,
            "id": 26,
            "name": "Elgin—Middlesex—London"
          }
        ],
        "pollDivisionIds": [
          10143317
        ],
        "postalCode": "N5R4C1",
        "streetName": "FIFTH",
        "streetDirectionId": null,
        "streetTypeId": "AVE",
        "placeName": "ST THOMAS",
        "streetNameDisplayText": "FIFTH AVE, ST THOMAS"
      }
    ]
  },
  {
    "postal": "N5R3K2",
    "result": [
      {
        "electoralDistricts": [
          {
            "election": null,
            "id": 26,
            "name": "Elgin—Middlesex—London"
          }
        ],
        "pollDivisionIds": [
          10137993
        ],
        "postalCode": "N5R3K2",
        "streetName": "METCALFE",
        "streetDirectionId": null,
        "streetTypeId": "ST",
        "placeName": "ST THOMAS",
        "streetNameDisplayText": "METCALFE ST, ST THOMAS"
      }
    ]
  },
  {
    "postal": "N5R1Y5",
    "result": [
      {
        "electoralDistricts": [
          {
            "election": null,
            "id": 26,
            "name": "Elgin—Middlesex—London"
          }
        ],
        "pollDivisionIds": [
          10143317
        ],
        "postalCode": "N5R1Y5",
        "streetName": "MABEL",
        "streetDirectionId": null,
        "streetTypeId": "ST",
        "placeName": "ST THOMAS",
        "streetNameDisplayText": "MABEL ST, ST THOMAS"
      }
    ]
  },
  {
    "postal": "N5R6P6",
    "result": []
  },
  {
    "postal": "N5R3N9",
    "result": [
      {
        "electoralDistricts": [
          {
            "election": null,
            "id": 26,
            "name": "Elgin—Middlesex—London"
          }
        ],
        "pollDivisionIds": [
          10137993
        ],
        "postalCode": "N5R3N9",
        "streetName": "HINCKS",
        "streetDirectionId": null,
        "streetTypeId": "ST",
        "placeName": "ST THOMAS",
        "streetNameDisplayText": "HINCKS ST, ST THOMAS"
      }
    ]
  },
  {
    "postal": "N5R3W2",
    "result": [
      {
        "electoralDistricts": [
          {
            "election": null,
            "id": 26,
            "name": "Elgin—Middlesex—London"
          }
        ],
        "pollDivisionIds": [
          10143317
        ],
        "postalCode": "N5R3W2",
        "streetName": "MOORE",
        "streetDirectionId": null,
        "streetTypeId": "ST",
        "placeName": "ST THOMAS",
        "streetNameDisplayText": "MOORE ST, ST THOMAS"
      }
    ]
  },
  {
    "postal": "N5R6H8",
    "result": []
  },
  {
    "postal": "N5R9T3",
    "result": []
  },
  {
    "postal": "N5R5L9",
    "result": []
  },
  {
    "postal": "N5R7X7",
    "result": []
  },
  {
    "postal": "N5R3J5",
    "result": [
      {
        "electoralDistricts": [
          {
            "election": null,
            "id": 26,
            "name": "Elgin—Middlesex—London"
          }
        ],
        "pollDivisionIds": [
          10137997
        ],
        "postalCode": "N5R3J5",
        "streetName": "ISABEL",
        "streetDirectionId": null,
        "streetTypeId": "ST",
        "placeName": "ST THOMAS",
        "streetNameDisplayText": "ISABEL ST, ST THOMAS"
      }
    ]
  },
  {
    "postal": "N5R4J5",
    "result": [
      {
        "electoralDistricts": [
          {
            "election": null,
            "id": 26,
            "name": "Elgin—Middlesex—London"
          }
        ],
        "pollDivisionIds": [
          10137997
        ],
        "postalCode": "N5R4J5",
        "streetName": "HEPBURN",
        "streetDirectionId": null,
        "streetTypeId": "AVE",
        "placeName": "ST THOMAS",
        "streetNameDisplayText": "HEPBURN AVE, ST THOMAS"
      }
    ]
  },
  {
    "postal": "N5R6J2",
    "result": [
      {
        "electoralDistricts": [
          {
            "election": null,
            "id": 26,
            "name": "Elgin—Middlesex—London"
          }
        ],
        "pollDivisionIds": [
          10137975
        ],
        "postalCode": "N5R6J2",
        "streetName": "FALCONRIDGE",
        "streetDirectionId": null,
        "streetTypeId": "CRT",
        "placeName": "ST THOMAS",
        "streetNameDisplayText": "FALCONRIDGE CRT, ST THOMAS"
      },
      {
        "electoralDistricts": [
          {
            "election": null,
            "id": 26,
            "name": "Elgin—Middlesex—London"
          }
        ],
        "pollDivisionIds": [
          10143318
        ],
        "postalCode": "N5R6J2",
        "streetName": "HIGHVIEW",
        "streetDirectionId": null,
        "streetTypeId": "DR",
        "placeName": "ST THOMAS",
        "streetNameDisplayText": "HIGHVIEW DR, ST THOMAS"
      }
    ]
  },
  {
    "postal": "N5R5V6",
    "result": []
  },
  {
    "postal": "N5R3N2",
    "result": [
      {
        "electoralDistricts": [
          {
            "election": null,
            "id": 26,
            "name": "Elgin—Middlesex—London"
          }
        ],
        "pollDivisionIds": [
          10137997
        ],
        "postalCode": "N5R3N2",
        "streetName": "DEVONSHIRE",
        "streetDirectionId": null,
        "streetTypeId": "PL",
        "placeName": "ST THOMAS",
        "streetNameDisplayText": "DEVONSHIRE PL, ST THOMAS"
      }
    ]
  },
  {
    "postal": "N5R3B1",
    "result": [
      {
        "electoralDistricts": [
          {
            "election": null,
            "id": 26,
            "name": "Elgin—Middlesex—London"
          }
        ],
        "pollDivisionIds": [
          10143316
        ],
        "postalCode": "N5R3B1",
        "streetName": "SUNSET",
        "streetDirectionId": null,
        "streetTypeId": "DR",
        "placeName": "ST THOMAS",
        "streetNameDisplayText": "SUNSET DR, ST THOMAS"
      }
    ]
  },
  {
    "postal": "N5R8B5",
    "result": []
  },
  {
    "postal": "N5R0K1",
    "result": []
  },
  {
    "postal": "N5R7M7",
    "result": []
  },
  {
    "postal": "N5R2M2",
    "result": [
      {
        "electoralDistricts": [
          {
            "election": null,
            "id": 26,
            "name": "Elgin—Middlesex—London"
          }
        ],
        "pollDivisionIds": [
          10143317
        ],
        "postalCode": "N5R2M2",
        "streetName": "MCINTYRE",
        "streetDirectionId": null,
        "streetTypeId": "ST",
        "placeName": "ST THOMAS",
        "streetNameDisplayText": "MCINTYRE ST, ST THOMAS"
      }
    ]
  },
  {
    "postal": "N5R9N3",
    "result": []
  },
  {
    "postal": "N5R4Y8",
    "result": [
      {
        "electoralDistricts": [
          {
            "election": null,
            "id": 26,
            "name": "Elgin—Middlesex—London"
          }
        ],
        "pollDivisionIds": [
          10137998,
          10137975
        ],
        "postalCode": "N5R4Y8",
        "streetName": "BUTLER",
        "streetDirectionId": null,
        "streetTypeId": "DR",
        "placeName": "ST THOMAS",
        "streetNameDisplayText": "BUTLER DR, ST THOMAS"
      }
    ]
  },
  {
    "postal": "N5R3V7",
    "result": [
      {
        "electoralDistricts": [
          {
            "election": null,
            "id": 26,
            "name": "Elgin—Middlesex—London"
          }
        ],
        "pollDivisionIds": [
          10137993
        ],
        "postalCode": "N5R3V7",
        "streetName": "PRINCESS",
        "streetDirectionId": null,
        "streetTypeId": "AVE",
        "placeName": "ST THOMAS",
        "streetNameDisplayText": "PRINCESS AVE, ST THOMAS"
      }
    ]
  },
  {
    "postal": "N5R8Z1",
    "result": []
  },
  {
    "postal": "N5R7B3",
    "result": []
  },
  {
    "postal": "N5R3A8",
    "result": [
      {
        "electoralDistricts": [
          {
            "election": null,
            "id": 26,
            "name": "Elgin—Middlesex—London"
          }
        ],
        "pollDivisionIds": [
          10143318,
          10137992
        ],
        "postalCode": "N5R3A8",
        "streetName": "SINCLAIR",
        "streetDirectionId": null,
        "streetTypeId": "AVE",
        "placeName": "ST THOMAS",
        "streetNameDisplayText": "SINCLAIR AVE, ST THOMAS"
      }
    ]
  },
  {
    "postal": "N5R7V5",
    "result": []
  },
  {
    "postal": "N5R2T2",
    "result": [
      {
        "electoralDistricts": [
          {
            "election": null,
            "id": 26,
            "name": "Elgin—Middlesex—London"
          }
        ],
        "pollDivisionIds": [
          10137992
        ],
        "postalCode": "N5R2T2",
        "streetName": "WELLINGTON",
        "streetDirectionId": null,
        "streetTypeId": "ST",
        "placeName": "ST THOMAS",
        "streetNameDisplayText": "WELLINGTON ST, ST THOMAS"
      }
    ]
  },
  {
    "postal": "N5R6L3",
    "result": [
      {
        "electoralDistricts": [
          {
            "election": null,
            "id": 26,
            "name": "Elgin—Middlesex—London"
          }
        ],
        "pollDivisionIds": [
          10137998
        ],
        "postalCode": "N5R6L3",
        "streetName": "FAITH",
        "streetDirectionId": null,
        "streetTypeId": "BLVD",
        "placeName": "ST THOMAS",
        "streetNameDisplayText": "FAITH BLVD, ST THOMAS"
      },
      {
        "electoralDistricts": [
          {
            "election": null,
            "id": 26,
            "name": "Elgin—Middlesex—London"
          }
        ],
        "pollDivisionIds": [
          10137998
        ],
        "postalCode": "N5R6L3",
        "streetName": "HAGERMAN",
        "streetDirectionId": null,
        "streetTypeId": "CRES",
        "placeName": "ST THOMAS",
        "streetNameDisplayText": "HAGERMAN CRES, ST THOMAS"
      }
    ]
  },
  {
    "postal": "N5R0L2",
    "result": [
      {
        "electoralDistricts": [
          {
            "election": null,
            "id": 26,
            "name": "Elgin—Middlesex—London"
          }
        ],
        "pollDivisionIds": [
          10137975
        ],
        "postalCode": "N5R0L2",
        "streetName": "CHARTER CREEK",
        "streetDirectionId": null,
        "streetTypeId": "CRT",
        "placeName": "ST THOMAS",
        "streetNameDisplayText": "CHARTER CREEK CRT, ST THOMAS"
      }
    ]
  },
  {
    "postal": "N5R5Y8",
    "result": [
      {
        "electoralDistricts": [
          {
            "election": null,
            "id": 26,
            "name": "Elgin—Middlesex—London"
          }
        ],
        "pollDivisionIds": [
          10143318
        ],
        "postalCode": "N5R5Y8",
        "streetName": "HIGHVIEW",
        "streetDirectionId": null,
        "streetTypeId": "DR",
        "placeName": "ST THOMAS",
        "streetNameDisplayText": "HIGHVIEW DR, ST THOMAS"
      }
    ]
  },
  {
    "postal": "N5R0B8",
    "result": [
      {
        "electoralDistricts": [
          {
            "election": null,
            "id": 26,
            "name": "Elgin—Middlesex—London"
          }
        ],
        "pollDivisionIds": [
          10137975
        ],
        "postalCode": "N5R0B8",
        "streetName": "HARVEST",
        "streetDirectionId": null,
        "streetTypeId": "CRT",
        "placeName": "ST THOMAS",
        "streetNameDisplayText": "HARVEST CRT, ST THOMAS"
      },
      {
        "electoralDistricts": [
          {
            "election": null,
            "id": 26,
            "name": "Elgin—Middlesex—London"
          }
        ],
        "pollDivisionIds": [
          10137975
        ],
        "postalCode": "N5R0B8",
        "streetName": "LAWRENCE",
        "streetDirectionId": null,
        "streetTypeId": "AVE",
        "placeName": "ST THOMAS",
        "streetNameDisplayText": "LAWRENCE AVE, ST THOMAS"
      }
    ]
  },
  {
    "postal": "N5R6R5",
    "result": []
  },
  {
    "postal": "N5R8W6",
    "result": []
  },
  {
    "postal": "N5R8G6",
    "result": []
  },
  {
    "postal": "N5R6X3",
    "result": []
  },
  {
    "postal": "N5R7R7",
    "result": []
  },
  {
    "postal": "N5R4B6",
    "result": [
      {
        "electoralDistricts": [
          {
            "election": null,
            "id": 26,
            "name": "Elgin—Middlesex—London"
          }
        ],
        "pollDivisionIds": [
          10137997
        ],
        "postalCode": "N5R4B6",
        "streetName": "PARKVIEW",
        "streetDirectionId": null,
        "streetTypeId": "DR",
        "placeName": "ST THOMAS",
        "streetNameDisplayText": "PARKVIEW DR, ST THOMAS"
      }
    ]
  },
  {
    "postal": "N5R3P9",
    "result": [
      {
        "electoralDistricts": [
          {
            "election": null,
            "id": 26,
            "name": "Elgin—Middlesex—London"
          }
        ],
        "pollDivisionIds": [
          10137997
        ],
        "postalCode": "N5R3P9",
        "streetName": "WILSON",
        "streetDirectionId": null,
        "streetTypeId": "AVE",
        "placeName": "ST THOMAS",
        "streetNameDisplayText": "WILSON AVE, ST THOMAS"
      }
    ]
  },
  {
    "postal": "N5R2T3",
    "result": [
      {
        "electoralDistricts": [
          {
            "election": null,
            "id": 26,
            "name": "Elgin—Middlesex—London"
          }
        ],
        "pollDivisionIds": [
          10137995
        ],
        "postalCode": "N5R2T3",
        "streetName": "WELLINGTON",
        "streetDirectionId": null,
        "streetTypeId": "ST",
        "placeName": "ST THOMAS",
        "streetNameDisplayText": "WELLINGTON ST, ST THOMAS"
      }
    ]
  },
  {
    "postal": "N5R1M4",
    "result": [
      {
        "electoralDistricts": [
          {
            "election": null,
            "id": 26,
            "name": "Elgin—Middlesex—London"
          }
        ],
        "pollDivisionIds": [
          10143317
        ],
        "postalCode": "N5R1M4",
        "streetName": "CEDAR",
        "streetDirectionId": null,
        "streetTypeId": "ST",
        "placeName": "ST THOMAS",
        "streetNameDisplayText": "CEDAR ST, ST THOMAS"
      }
    ]
  },
  {
    "postal": "N5R0H1",
    "result": [
      {
        "electoralDistricts": [
          {
            "election": null,
            "id": 26,
            "name": "Elgin—Middlesex—London"
          }
        ],
        "pollDivisionIds": [
          10137975,
          10143317,
          10137998
        ],
        "postalCode": "N5R0H1",
        "streetName": "ARBOR",
        "streetDirectionId": null,
        "streetTypeId": "TRAIL",
        "placeName": "ST THOMAS",
        "streetNameDisplayText": "ARBOR TRAIL, ST THOMAS"
      }
    ]
  },
  {
    "postal": "N5R9W3",
    "result": []
  },
  {
    "postal": "N5R6P1",
    "result": []
  },
  {
    "postal": "N5R7G2",
    "result": []
  },
  {
    "postal": "N5R4J9",
    "result": [
      {
        "electoralDistricts": [
          {
            "election": null,
            "id": 26,
            "name": "Elgin—Middlesex—London"
          }
        ],
        "pollDivisionIds": [
          10143317
        ],
        "postalCode": "N5R4J9",
        "streetName": "THIRD",
        "streetDirectionId": null,
        "streetTypeId": "AVE",
        "placeName": "ST THOMAS",
        "streetNameDisplayText": "THIRD AVE, ST THOMAS"
      }
    ]
  },
  {
    "postal": "N5R9E4",
    "result": []
  },
  {
    "postal": "N5R8H0",
    "result": []
  },
  {
    "postal": "N5R4M7",
    "result": [
      {
        "electoralDistricts": [
          {
            "election": null,
            "id": 26,
            "name": "Elgin—Middlesex—London"
          }
        ],
        "pollDivisionIds": [
          10143317
        ],
        "postalCode": "N5R4M7",
        "streetName": "FIRST",
        "streetDirectionId": null,
        "streetTypeId": "AVE",
        "placeName": "ST THOMAS",
        "streetNameDisplayText": "FIRST AVE, ST THOMAS"
      }
    ]
  },
  {
    "postal": "N5R2G9",
    "result": [
      {
        "electoralDistricts": [
          {
            "election": null,
            "id": 26,
            "name": "Elgin—Middlesex—London"
          }
        ],
        "pollDivisionIds": [
          10137995
        ],
        "postalCode": "N5R2G9",
        "streetName": "MYRTLE",
        "streetDirectionId": null,
        "streetTypeId": "ST",
        "placeName": "ST THOMAS",
        "streetNameDisplayText": "MYRTLE ST, ST THOMAS"
      }
    ]
  },
  {
    "postal": "N5R8T2",
    "result": []
  },
  {
    "postal": "N5R7G7",
    "result": []
  },
  {
    "postal": "N5R4Z3",
    "result": [
      {
        "electoralDistricts": [
          {
            "election": null,
            "id": 26,
            "name": "Elgin—Middlesex—London"
          }
        ],
        "pollDivisionIds": [
          10137975
        ],
        "postalCode": "N5R4Z3",
        "streetName": "VANBUSKIRK",
        "streetDirectionId": null,
        "streetTypeId": "DR",
        "placeName": "ST THOMAS",
        "streetNameDisplayText": "VANBUSKIRK DR, ST THOMAS"
      }
    ]
  },
  {
    "postal": "N5R5B3",
    "result": [
      {
        "electoralDistricts": [
          {
            "election": null,
            "id": 26,
            "name": "Elgin—Middlesex—London"
          }
        ],
        "pollDivisionIds": [
          10137975
        ],
        "postalCode": "N5R5B3",
        "streetName": "CENTENNIAL",
        "streetDirectionId": null,
        "streetTypeId": "AVE",
        "placeName": "ST THOMAS",
        "streetNameDisplayText": "CENTENNIAL AVE, ST THOMAS"
      },
      {
        "electoralDistricts": [
          {
            "election": null,
            "id": 26,
            "name": "Elgin—Middlesex—London"
          }
        ],
        "pollDivisionIds": [
          10137975
        ],
        "postalCode": "N5R5B3",
        "streetName": "CENTENNIAL",
        "streetDirectionId": null,
        "streetTypeId": "RD",
        "placeName": "ST THOMAS",
        "streetNameDisplayText": "CENTENNIAL RD, ST THOMAS"
      }
    ]
  },
  {
    "postal": "N5R1S7",
    "result": [
      {
        "electoralDistricts": [
          {
            "election": null,
            "id": 26,
            "name": "Elgin—Middlesex—London"
          }
        ],
        "pollDivisionIds": [
          10137995
        ],
        "postalCode": "N5R1S7",
        "streetName": "ST JOSEPH",
        "streetDirectionId": null,
        "streetTypeId": "ST",
        "placeName": "ST THOMAS",
        "streetNameDisplayText": "ST JOSEPH ST, ST THOMAS"
      }
    ]
  },
  {
    "postal": "N5R2N7",
    "result": [
      {
        "electoralDistricts": [
          {
            "election": null,
            "id": 26,
            "name": "Elgin—Middlesex—London"
          }
        ],
        "pollDivisionIds": [
          10137995
        ],
        "postalCode": "N5R2N7",
        "streetName": "ERIE",
        "streetDirectionId": null,
        "streetTypeId": "ST",
        "placeName": "ST THOMAS",
        "streetNameDisplayText": "ERIE ST, ST THOMAS"
      }
    ]
  },
  {
    "postal": "N5R0H8",
    "result": [
      {
        "electoralDistricts": [
          {
            "election": null,
            "id": 26,
            "name": "Elgin—Middlesex—London"
          }
        ],
        "pollDivisionIds": [
          10137975
        ],
        "postalCode": "N5R0H8",
        "streetName": "ACORN",
        "streetDirectionId": null,
        "streetTypeId": "TRAIL",
        "placeName": "ST THOMAS",
        "streetNameDisplayText": "ACORN TRAIL, ST THOMAS"
      }
    ]
  },
  {
    "postal": "N5R7Z4",
    "result": []
  },
  {
    "postal": "N5R7B1",
    "result": []
  },
  {
    "postal": "N5R7P8",
    "result": []
  },
  {
    "postal": "N5R7N0",
    "result": []
  },
  {
    "postal": "N5R3Y5",
    "result": [
      {
        "electoralDistricts": [
          {
            "election": null,
            "id": 26,
            "name": "Elgin—Middlesex—London"
          }
        ],
        "pollDivisionIds": [
          10143317,
          10137993,
          10143140
        ],
        "postalCode": "N5R3Y5",
        "streetName": "ROSS",
        "streetDirectionId": null,
        "streetTypeId": "ST",
        "placeName": "ST THOMAS",
        "streetNameDisplayText": "ROSS ST, ST THOMAS"
      }
    ]
  },
  {
    "postal": "N5R6K1",
    "result": [
      {
        "electoralDistricts": [
          {
            "election": null,
            "id": 26,
            "name": "Elgin—Middlesex—London"
          }
        ],
        "pollDivisionIds": [
          10137997
        ],
        "postalCode": "N5R6K1",
        "streetName": "AUGUSTA",
        "streetDirectionId": null,
        "streetTypeId": "CRES",
        "placeName": "ST THOMAS",
        "streetNameDisplayText": "AUGUSTA CRES, ST THOMAS"
      },
      {
        "electoralDistricts": [
          {
            "election": null,
            "id": 26,
            "name": "Elgin—Middlesex—London"
          }
        ],
        "pollDivisionIds": [
          10137997
        ],
        "postalCode": "N5R6K1",
        "streetName": "SHAW VALLEY",
        "streetDirectionId": null,
        "streetTypeId": "DR",
        "placeName": "ST THOMAS",
        "streetNameDisplayText": "SHAW VALLEY DR, ST THOMAS"
      }
    ]
  },
  {
    "postal": "N5R9X5",
    "result": []
  },
  {
    "postal": "N5R7S5",
    "result": []
  },
  {
    "postal": "N5R0A4",
    "result": [
      {
        "electoralDistricts": [
          {
            "election": null,
            "id": 26,
            "name": "Elgin—Middlesex—London"
          }
        ],
        "pollDivisionIds": [
          10137998
        ],
        "postalCode": "N5R0A4",
        "streetName": "CHAMBERLAIN",
        "streetDirectionId": null,
        "streetTypeId": "CRT",
        "placeName": "ST THOMAS",
        "streetNameDisplayText": "CHAMBERLAIN CRT, ST THOMAS"
      },
      {
        "electoralDistricts": [
          {
            "election": null,
            "id": 26,
            "name": "Elgin—Middlesex—London"
          }
        ],
        "pollDivisionIds": [
          10137998
        ],
        "postalCode": "N5R0A4",
        "streetName": "PENHALE",
        "streetDirectionId": null,
        "streetTypeId": "AVE",
        "placeName": "ST THOMAS",
        "streetNameDisplayText": "PENHALE AVE, ST THOMAS"
      }
    ]
  },
  {
    "postal": "N5R4T5",
    "result": [
      {
        "electoralDistricts": [
          {
            "election": null,
            "id": 26,
            "name": "Elgin—Middlesex—London"
          }
        ],
        "pollDivisionIds": [
          10137995
        ],
        "postalCode": "N5R4T5",
        "streetName": "PULLEN",
        "streetDirectionId": null,
        "streetTypeId": "AVE",
        "placeName": "ST THOMAS",
        "streetNameDisplayText": "PULLEN AVE, ST THOMAS"
      }
    ]
  },
  {
    "postal": "N5R5K1",
    "result": [
      {
        "electoralDistricts": [
          {
            "election": null,
            "id": 26,
            "name": "Elgin—Middlesex—London"
          }
        ],
        "pollDivisionIds": [
          10137998
        ],
        "postalCode": "N5R5K1",
        "streetName": "LUTON",
        "streetDirectionId": null,
        "streetTypeId": "CRES",
        "placeName": "ST THOMAS",
        "streetNameDisplayText": "LUTON CRES, ST THOMAS"
      }
    ]
  },
  {
    "postal": "N5R0Z9",
    "result": []
  },
  {
    "postal": "N5R7T2",
    "result": []
  },
  {
    "postal": "N5R1L5",
    "result": [
      {
        "electoralDistricts": [
          {
            "election": null,
            "id": 26,
            "name": "Elgin—Middlesex—London"
          }
        ],
        "pollDivisionIds": [
          10137975
        ],
        "postalCode": "N5R1L5",
        "streetName": "ELM",
        "streetDirectionId": null,
        "streetTypeId": "ST",
        "placeName": "ST THOMAS",
        "streetNameDisplayText": "ELM ST, ST THOMAS"
      }
    ]
  },
  {
    "postal": "N5R3N5",
    "result": [
      {
        "electoralDistricts": [
          {
            "election": null,
            "id": 26,
            "name": "Elgin—Middlesex—London"
          }
        ],
        "pollDivisionIds": [
          10137993
        ],
        "postalCode": "N5R3N5",
        "streetName": "HINCKS",
        "streetDirectionId": null,
        "streetTypeId": "ST",
        "placeName": "ST THOMAS",
        "streetNameDisplayText": "HINCKS ST, ST THOMAS"
      }
    ]
  },
  {
    "postal": "N5R6H4",
    "result": [
      {
        "electoralDistricts": [
          {
            "election": null,
            "id": 26,
            "name": "Elgin—Middlesex—London"
          }
        ],
        "pollDivisionIds": [
          10143318,
          10137975
        ],
        "postalCode": "N5R6H4",
        "streetName": "HIGHVIEW",
        "streetDirectionId": null,
        "streetTypeId": "DR",
        "placeName": "ST THOMAS",
        "streetNameDisplayText": "HIGHVIEW DR, ST THOMAS"
      },
      {
        "electoralDistricts": [
          {
            "election": null,
            "id": 26,
            "name": "Elgin—Middlesex—London"
          }
        ],
        "pollDivisionIds": [
          10137975
        ],
        "postalCode": "N5R6H4",
        "streetName": "STEEPLECHASE",
        "streetDirectionId": null,
        "streetTypeId": "CRT",
        "placeName": "ST THOMAS",
        "streetNameDisplayText": "STEEPLECHASE CRT, ST THOMAS"
      }
    ]
  },
  {
    "postal": "N5R5A5",
    "result": [
      {
        "electoralDistricts": [
          {
            "election": null,
            "id": 26,
            "name": "Elgin—Middlesex—London"
          }
        ],
        "pollDivisionIds": [
          10137975
        ],
        "postalCode": "N5R5A5",
        "streetName": "COULTER",
        "streetDirectionId": null,
        "streetTypeId": "AVE",
        "placeName": "ST THOMAS",
        "streetNameDisplayText": "COULTER AVE, ST THOMAS"
      }
    ]
  },
  {
    "postal": "N5R3R9",
    "result": [
      {
        "electoralDistricts": [
          {
            "election": null,
            "id": 26,
            "name": "Elgin—Middlesex—London"
          }
        ],
        "pollDivisionIds": [
          10137993
        ],
        "postalCode": "N5R3R9",
        "streetName": "SOUTHWICK",
        "streetDirectionId": null,
        "streetTypeId": "ST",
        "placeName": "ST THOMAS",
        "streetNameDisplayText": "SOUTHWICK ST, ST THOMAS"
      }
    ]
  },
  {
    "postal": "N5R7L8",
    "result": []
  },
  {
    "postal": "N5R6T6",
    "result": []
  },
  {
    "postal": "N5R7Y7",
    "result": []
  },
  {
    "postal": "N5R3M8",
    "result": [
      {
        "electoralDistricts": [
          {
            "election": null,
            "id": 26,
            "name": "Elgin—Middlesex—London"
          }
        ],
        "pollDivisionIds": [
          10137997
        ],
        "postalCode": "N5R3M8",
        "streetName": "DEVONSHIRE",
        "streetDirectionId": null,
        "streetTypeId": "PL",
        "placeName": "ST THOMAS",
        "streetNameDisplayText": "DEVONSHIRE PL, ST THOMAS"
      }
    ]
  },
  {
    "postal": "N5R2E0",
    "result": []
  },
  {
    "postal": "N5R4B5",
    "result": [
      {
        "electoralDistricts": [
          {
            "election": null,
            "id": 26,
            "name": "Elgin—Middlesex—London"
          }
        ],
        "pollDivisionIds": [
          10137997
        ],
        "postalCode": "N5R4B5",
        "streetName": "PARKVIEW",
        "streetDirectionId": null,
        "streetTypeId": "DR",
        "placeName": "ST THOMAS",
        "streetNameDisplayText": "PARKVIEW DR, ST THOMAS"
      }
    ]
  },
  {
    "postal": "N5R1J3",
    "result": [
      {
        "electoralDistricts": [
          {
            "election": null,
            "id": 26,
            "name": "Elgin—Middlesex—London"
          }
        ],
        "pollDivisionIds": [
          10143317
        ],
        "postalCode": "N5R1J3",
        "streetName": "ELM",
        "streetDirectionId": null,
        "streetTypeId": "ST",
        "placeName": "ST THOMAS",
        "streetNameDisplayText": "ELM ST, ST THOMAS"
      }
    ]
  },
  {
    "postal": "N5R5S6",
    "result": [
      {
        "electoralDistricts": [
          {
            "election": null,
            "id": 26,
            "name": "Elgin—Middlesex—London"
          }
        ],
        "pollDivisionIds": [
          10137998
        ],
        "postalCode": "N5R5S6",
        "streetName": "VANIER",
        "streetDirectionId": null,
        "streetTypeId": "PL",
        "placeName": "ST THOMAS",
        "streetNameDisplayText": "VANIER PL, ST THOMAS"
      }
    ]
  },
  {
    "postal": "N5R8P7",
    "result": []
  },
  {
    "postal": "N5R7S7",
    "result": []
  },
  {
    "postal": "N5R4C2",
    "result": [
      {
        "electoralDistricts": [
          {
            "election": null,
            "id": 26,
            "name": "Elgin—Middlesex—London"
          }
        ],
        "pollDivisionIds": [
          10143317
        ],
        "postalCode": "N5R4C2",
        "streetName": "FIFTH",
        "streetDirectionId": null,
        "streetTypeId": "AVE",
        "placeName": "ST THOMAS",
        "streetNameDisplayText": "FIFTH AVE, ST THOMAS"
      }
    ]
  },
  {
    "postal": "N5R5Y0",
    "result": []
  },
  {
    "postal": "N5R2V7",
    "result": [
      {
        "electoralDistricts": [
          {
            "election": null,
            "id": 26,
            "name": "Elgin—Middlesex—London"
          }
        ],
        "pollDivisionIds": [
          10137992,
          10143316
        ],
        "postalCode": "N5R2V7",
        "streetName": "MARY",
        "streetDirectionId": "E",
        "streetTypeId": "ST",
        "placeName": "ST THOMAS",
        "streetNameDisplayText": "MARY ST E, ST THOMAS"
      }
    ]
  },
  {
    "postal": "N5R8P5",
    "result": []
  },
  {
    "postal": "N5R5P5",
    "result": [
      {
        "electoralDistricts": [
          {
            "election": null,
            "id": 26,
            "name": "Elgin—Middlesex—London"
          }
        ],
        "pollDivisionIds": [
          10137975
        ],
        "postalCode": "N5R5P5",
        "streetName": "IDSARDI",
        "streetDirectionId": null,
        "streetTypeId": "AVE",
        "placeName": "ST THOMAS",
        "streetNameDisplayText": "IDSARDI AVE, ST THOMAS"
      }
    ]
  },
  {
    "postal": "N5R5Z0",
    "result": []
  },
  {
    "postal": "N5R9B0",
    "result": []
  },
  {
    "postal": "N5R1L0",
    "result": []
  },
  {
    "postal": "N5R0B5",
    "result": [
      {
        "electoralDistricts": [
          {
            "election": null,
            "id": 26,
            "name": "Elgin—Middlesex—London"
          }
        ],
        "pollDivisionIds": [
          10137975
        ],
        "postalCode": "N5R0B5",
        "streetName": "LAWRENCE",
        "streetDirectionId": null,
        "streetTypeId": "AVE",
        "placeName": "ST THOMAS",
        "streetNameDisplayText": "LAWRENCE AVE, ST THOMAS"
      },
      {
        "electoralDistricts": [
          {
            "election": null,
            "id": 26,
            "name": "Elgin—Middlesex—London"
          }
        ],
        "pollDivisionIds": [
          10137975
        ],
        "postalCode": "N5R0B5",
        "streetName": "PEACH TREE",
        "streetDirectionId": null,
        "streetTypeId": "BLVD",
        "placeName": "ST THOMAS",
        "streetNameDisplayText": "PEACH TREE BLVD, ST THOMAS"
      },
      {
        "electoralDistricts": [
          {
            "election": null,
            "id": 26,
            "name": "Elgin—Middlesex—London"
          }
        ],
        "pollDivisionIds": [
          10137975
        ],
        "postalCode": "N5R0B5",
        "streetName": "PEACHTREE",
        "streetDirectionId": null,
        "streetTypeId": "BLVD",
        "placeName": "ST THOMAS",
        "streetNameDisplayText": "PEACHTREE BLVD, ST THOMAS"
      },
      {
        "electoralDistricts": [
          {
            "election": null,
            "id": 26,
            "name": "Elgin—Middlesex—London"
          }
        ],
        "pollDivisionIds": [
          10137975
        ],
        "postalCode": "N5R0B5",
        "streetName": "PEAR TREE",
        "streetDirectionId": null,
        "streetTypeId": "AVE",
        "placeName": "ST THOMAS",
        "streetNameDisplayText": "PEAR TREE AVE, ST THOMAS"
      }
    ]
  },
  {
    "postal": "N5R3L2",
    "result": []
  },
  {
    "postal": "N5R3B7",
    "result": [
      {
        "electoralDistricts": [
          {
            "election": null,
            "id": 26,
            "name": "Elgin—Middlesex—London"
          }
        ],
        "pollDivisionIds": [
          10137997
        ],
        "postalCode": "N5R3B7",
        "streetName": "SUNSET",
        "streetDirectionId": null,
        "streetTypeId": "DR",
        "placeName": "ST THOMAS",
        "streetNameDisplayText": "SUNSET DR, ST THOMAS"
      }
    ]
  },
  {
    "postal": "N5R8L1",
    "result": []
  },
  {
    "postal": "N5R5M4",
    "result": [
      {
        "electoralDistricts": [
          {
            "election": null,
            "id": 26,
            "name": "Elgin—Middlesex—London"
          }
        ],
        "pollDivisionIds": [
          10137998
        ],
        "postalCode": "N5R5M4",
        "streetName": "LEGER",
        "streetDirectionId": null,
        "streetTypeId": "AVE",
        "placeName": "ST THOMAS",
        "streetNameDisplayText": "LEGER AVE, ST THOMAS"
      }
    ]
  },
  {
    "postal": "N5R4G9",
    "result": [
      {
        "electoralDistricts": [
          {
            "election": null,
            "id": 26,
            "name": "Elgin—Middlesex—London"
          }
        ],
        "pollDivisionIds": [
          10143317
        ],
        "postalCode": "N5R4G9",
        "streetName": "FOURTH",
        "streetDirectionId": null,
        "streetTypeId": "AVE",
        "placeName": "ST THOMAS",
        "streetNameDisplayText": "FOURTH AVE, ST THOMAS"
      }
    ]
  },
  {
    "postal": "N5R0P0",
    "result": []
  },
  {
    "postal": "N5R8G2",
    "result": []
  },
  {
    "postal": "N5R1V9",
    "result": [
      {
        "electoralDistricts": [
          {
            "election": null,
            "id": 26,
            "name": "Elgin—Middlesex—London"
          }
        ],
        "pollDivisionIds": [
          10143317
        ],
        "postalCode": "N5R1V9",
        "streetName": "OPECHEE",
        "streetDirectionId": null,
        "streetTypeId": "ST",
        "placeName": "ST THOMAS",
        "streetNameDisplayText": "OPECHEE ST, ST THOMAS"
      }
    ]
  },
  {
    "postal": "N5R8N8",
    "result": []
  },
  {
    "postal": "N5R6S8",
    "result": []
  },
  {
    "postal": "N5R8H2",
    "result": []
  },
  {
    "postal": "N5R5R8",
    "result": []
  },
  {
    "postal": "N5R5L4",
    "result": [
      {
        "electoralDistricts": [
          {
            "election": null,
            "id": 26,
            "name": "Elgin—Middlesex—London"
          }
        ],
        "pollDivisionIds": [
          10137998
        ],
        "postalCode": "N5R5L4",
        "streetName": "DAVID",
        "streetDirectionId": null,
        "streetTypeId": "DR",
        "placeName": "ST THOMAS",
        "streetNameDisplayText": "DAVID DR, ST THOMAS"
      }
    ]
  },
  {
    "postal": "N5R9E1",
    "result": []
  },
  {
    "postal": "N5R1C4",
    "result": [
      {
        "electoralDistricts": [
          {
            "election": null,
            "id": 26,
            "name": "Elgin—Middlesex—London"
          }
        ],
        "pollDivisionIds": [
          10137997
        ],
        "postalCode": "N5R1C4",
        "streetName": "LYNDALE",
        "streetDirectionId": null,
        "streetTypeId": "AVE",
        "placeName": "ST THOMAS",
        "streetNameDisplayText": "LYNDALE AVE, ST THOMAS"
      }
    ]
  },
  {
    "postal": "N5R8W5",
    "result": []
  },
  {
    "postal": "N5R1Y4",
    "result": [
      {
        "electoralDistricts": [
          {
            "election": null,
            "id": 26,
            "name": "Elgin—Middlesex—London"
          }
        ],
        "pollDivisionIds": [
          10137997
        ],
        "postalCode": "N5R1Y4",
        "streetName": "PALM",
        "streetDirectionId": null,
        "streetTypeId": "ST",
        "placeName": "ST THOMAS",
        "streetNameDisplayText": "PALM ST, ST THOMAS"
      }
    ]
  },
  {
    "postal": "N5R1C0",
    "result": []
  },
  {
    "postal": "N5R2J2",
    "result": [
      {
        "electoralDistricts": [
          {
            "election": null,
            "id": 26,
            "name": "Elgin—Middlesex—London"
          }
        ],
        "pollDivisionIds": [
          10143317
        ],
        "postalCode": "N5R2J2",
        "streetName": "FOREST",
        "streetDirectionId": null,
        "streetTypeId": "AVE",
        "placeName": "ST THOMAS",
        "streetNameDisplayText": "FOREST AVE, ST THOMAS"
      }
    ]
  },
  {
    "postal": "N5R2J0",
    "result": []
  },
  {
    "postal": "N5R7A3",
    "result": []
  },
  {
    "postal": "N5R8M1",
    "result": []
  },
  {
    "postal": "N5R7T9",
    "result": []
  },
  {
    "postal": "N5R6C0",
    "result": []
  },
  {
    "postal": "N5R7X1",
    "result": []
  },
  {
    "postal": "N5R0G1",
    "result": [
      {
        "electoralDistricts": [
          {
            "election": null,
            "id": 26,
            "name": "Elgin—Middlesex—London"
          }
        ],
        "pollDivisionIds": [
          10137998,
          10137972,
          10137975
        ],
        "postalCode": "N5R0G1",
        "streetName": "PEACH TREE",
        "streetDirectionId": null,
        "streetTypeId": "BLVD",
        "placeName": "ST THOMAS",
        "streetNameDisplayText": "PEACH TREE BLVD, ST THOMAS"
      },
      {
        "electoralDistricts": [
          {
            "election": null,
            "id": 26,
            "name": "Elgin—Middlesex—London"
          }
        ],
        "pollDivisionIds": [
          10137975
        ],
        "postalCode": "N5R0G1",
        "streetName": "PEACHTREE",
        "streetDirectionId": null,
        "streetTypeId": "BLVD",
        "placeName": "ST THOMAS",
        "streetNameDisplayText": "PEACHTREE BLVD, ST THOMAS"
      }
    ]
  },
  {
    "postal": "N5R4X2",
    "result": [
      {
        "electoralDistricts": [
          {
            "election": null,
            "id": 26,
            "name": "Elgin—Middlesex—London"
          }
        ],
        "pollDivisionIds": [
          10137992
        ],
        "postalCode": "N5R4X2",
        "streetName": "FAIRVIEW",
        "streetDirectionId": null,
        "streetTypeId": "AVE",
        "placeName": "ST THOMAS",
        "streetNameDisplayText": "FAIRVIEW AVE, ST THOMAS"
      }
    ]
  },
  {
    "postal": "N5R0N6",
    "result": []
  },
  {
    "postal": "N5R8E3",
    "result": []
  },
  {
    "postal": "N5R5S8",
    "result": [
      {
        "electoralDistricts": [
          {
            "election": null,
            "id": 26,
            "name": "Elgin—Middlesex—London"
          }
        ],
        "pollDivisionIds": [
          10137995
        ],
        "postalCode": "N5R5S8",
        "streetName": "PADDON",
        "streetDirectionId": null,
        "streetTypeId": "ST",
        "placeName": "ST THOMAS",
        "streetNameDisplayText": "PADDON ST, ST THOMAS"
      }
    ]
  },
  {
    "postal": "N5R0R0",
    "result": []
  },
  {
    "postal": "N5R6J6",
    "result": [
      {
        "electoralDistricts": [
          {
            "election": null,
            "id": 26,
            "name": "Elgin—Middlesex—London"
          }
        ],
        "pollDivisionIds": [
          10137998
        ],
        "postalCode": "N5R6J6",
        "streetName": "BLUE HERON",
        "streetDirectionId": null,
        "streetTypeId": "PL",
        "placeName": "ST THOMAS",
        "streetNameDisplayText": "BLUE HERON PL, ST THOMAS"
      },
      {
        "electoralDistricts": [
          {
            "election": null,
            "id": 26,
            "name": "Elgin—Middlesex—London"
          }
        ],
        "pollDivisionIds": [
          10137998
        ],
        "postalCode": "N5R6J6",
        "streetName": "BLUE HERON",
        "streetDirectionId": null,
        "streetTypeId": "PLACE",
        "placeName": "ST THOMAS",
        "streetNameDisplayText": "BLUE HERON PLACE, ST THOMAS"
      },
      {
        "electoralDistricts": [
          {
            "election": null,
            "id": 26,
            "name": "Elgin—Middlesex—London"
          }
        ],
        "pollDivisionIds": [
          10137998
        ],
        "postalCode": "N5R6J6",
        "streetName": "LAKE MARGARET",
        "streetDirectionId": null,
        "streetTypeId": "TRAIL",
        "placeName": "ST THOMAS",
        "streetNameDisplayText": "LAKE MARGARET TRAIL, ST THOMAS"
      },
      {
        "electoralDistricts": [
          {
            "election": null,
            "id": 26,
            "name": "Elgin—Middlesex—London"
          }
        ],
        "pollDivisionIds": [
          10137998
        ],
        "postalCode": "N5R6J6",
        "streetName": "MULBERRY",
        "streetDirectionId": null,
        "streetTypeId": "LANE",
        "placeName": "ST THOMAS",
        "streetNameDisplayText": "MULBERRY LANE, ST THOMAS"
      }
    ]
  },
  {
    "postal": "N5R4B4",
    "result": [
      {
        "electoralDistricts": [
          {
            "election": null,
            "id": 26,
            "name": "Elgin—Middlesex—London"
          }
        ],
        "pollDivisionIds": [
          10137997
        ],
        "postalCode": "N5R4B4",
        "streetName": "PARKVIEW",
        "streetDirectionId": null,
        "streetTypeId": "DR",
        "placeName": "ST THOMAS",
        "streetNameDisplayText": "PARKVIEW DR, ST THOMAS"
      }
    ]
  },
  {
    "postal": "N5R7E3",
    "result": []
  },
  {
    "postal": "N5R3N6",
    "result": [
      {
        "electoralDistricts": [
          {
            "election": null,
            "id": 26,
            "name": "Elgin—Middlesex—London"
          }
        ],
        "pollDivisionIds": [
          10137993
        ],
        "postalCode": "N5R3N6",
        "streetName": "HINCKS",
        "streetDirectionId": null,
        "streetTypeId": "ST",
        "placeName": "ST THOMAS",
        "streetNameDisplayText": "HINCKS ST, ST THOMAS"
      }
    ]
  },
  {
    "postal": "N5R3X6",
    "result": [
      {
        "electoralDistricts": [
          {
            "election": null,
            "id": 26,
            "name": "Elgin—Middlesex—London"
          }
        ],
        "pollDivisionIds": [
          10143317
        ],
        "postalCode": "N5R3X6",
        "streetName": "ROSS",
        "streetDirectionId": null,
        "streetTypeId": "ST",
        "placeName": "ST THOMAS",
        "streetNameDisplayText": "ROSS ST, ST THOMAS"
      },
      {
        "electoralDistricts": [
          {
            "election": null,
            "id": 26,
            "name": "Elgin—Middlesex—London"
          }
        ],
        "pollDivisionIds": [
          10143317
        ],
        "postalCode": "N5R3X6",
        "streetName": "ROSS",
        "streetDirectionId": null,
        "streetTypeId": "ST",
        "placeName": "ST. THOMAS",
        "streetNameDisplayText": "ROSS ST, ST. THOMAS"
      }
    ]
  },
  {
    "postal": "N5R8L0",
    "result": []
  },
  {
    "postal": "N5R8N1",
    "result": []
  },
  {
    "postal": "N5R4J0",
    "result": []
  },
  {
    "postal": "N5R0X7",
    "result": []
  },
  {
    "postal": "N5R6S4",
    "result": []
  },
  {
    "postal": "N5R0Z0",
    "result": []
  },
  {
    "postal": "N5R9X8",
    "result": []
  },
  {
    "postal": "N5R3H3",
    "result": [
      {
        "electoralDistricts": [
          {
            "election": null,
            "id": 26,
            "name": "Elgin—Middlesex—London"
          }
        ],
        "pollDivisionIds": [
          10137993
        ],
        "postalCode": "N5R3H3",
        "streetName": "WILLIAM",
        "streetDirectionId": null,
        "streetTypeId": "ST",
        "placeName": "ST THOMAS",
        "streetNameDisplayText": "WILLIAM ST, ST THOMAS"
      }
    ]
  },
  {
    "postal": "N5R7S2",
    "result": []
  },
  {
    "postal": "N5R3T3",
    "result": [
      {
        "electoralDistricts": [
          {
            "election": null,
            "id": 26,
            "name": "Elgin—Middlesex—London"
          }
        ],
        "pollDivisionIds": [
          10137993
        ],
        "postalCode": "N5R3T3",
        "streetName": "WHITE",
        "streetDirectionId": null,
        "streetTypeId": "ST",
        "placeName": "ST THOMAS",
        "streetNameDisplayText": "WHITE ST, ST THOMAS"
      }
    ]
  },
  {
    "postal": "N5R9P3",
    "result": []
  },
  {
    "postal": "N5R4H8",
    "result": [
      {
        "electoralDistricts": [
          {
            "election": null,
            "id": 26,
            "name": "Elgin—Middlesex—London"
          }
        ],
        "pollDivisionIds": [
          10137997
        ],
        "postalCode": "N5R4H8",
        "streetName": "MANDEVILLE",
        "streetDirectionId": null,
        "streetTypeId": "RD",
        "placeName": "ST THOMAS",
        "streetNameDisplayText": "MANDEVILLE RD, ST THOMAS"
      }
    ]
  },
  {
    "postal": "N5R6R1",
    "result": []
  },
  {
    "postal": "N5R1S0",
    "result": []
  },
  {
    "postal": "N5R3W8",
    "result": [
      {
        "electoralDistricts": [
          {
            "election": null,
            "id": 26,
            "name": "Elgin—Middlesex—London"
          }
        ],
        "pollDivisionIds": [
          10143317
        ],
        "postalCode": "N5R3W8",
        "streetName": "WAWA",
        "streetDirectionId": null,
        "streetTypeId": "ST",
        "placeName": "ST THOMAS",
        "streetNameDisplayText": "WAWA ST, ST THOMAS"
      }
    ]
  },
  {
    "postal": "N5R4S3",
    "result": [
      {
        "electoralDistricts": [
          {
            "election": null,
            "id": 26,
            "name": "Elgin—Middlesex—London"
          }
        ],
        "pollDivisionIds": [
          10137995
        ],
        "postalCode": "N5R4S3",
        "streetName": "HOLLAND",
        "streetDirectionId": null,
        "streetTypeId": "ST",
        "placeName": "ST THOMAS",
        "streetNameDisplayText": "HOLLAND ST, ST THOMAS"
      }
    ]
  },
  {
    "postal": "N5R1B6",
    "result": [
      {
        "electoralDistricts": [
          {
            "election": null,
            "id": 26,
            "name": "Elgin—Middlesex—London"
          }
        ],
        "pollDivisionIds": [
          10143939
        ],
        "postalCode": "N5R1B6",
        "streetName": "MARLENE",
        "streetDirectionId": null,
        "streetTypeId": "ST",
        "placeName": "ST THOMAS",
        "streetNameDisplayText": "MARLENE ST, ST THOMAS"
      }
    ]
  },
  {
    "postal": "N5R8R3",
    "result": []
  },
  {
    "postal": "N5R4V9",
    "result": [
      {
        "electoralDistricts": [
          {
            "election": null,
            "id": 26,
            "name": "Elgin—Middlesex—London"
          }
        ],
        "pollDivisionIds": [
          10137995
        ],
        "postalCode": "N5R4V9",
        "streetName": "PARK",
        "streetDirectionId": null,
        "streetTypeId": "AVE",
        "placeName": "ST THOMAS",
        "streetNameDisplayText": "PARK AVE, ST THOMAS"
      }
    ]
  },
  {
    "postal": "N5R9W4",
    "result": []
  },
  {
    "postal": "N5R3T4",
    "result": [
      {
        "electoralDistricts": [
          {
            "election": null,
            "id": 26,
            "name": "Elgin—Middlesex—London"
          }
        ],
        "pollDivisionIds": [
          10137993
        ],
        "postalCode": "N5R3T4",
        "streetName": "WHITE",
        "streetDirectionId": null,
        "streetTypeId": "ST",
        "placeName": "ST THOMAS",
        "streetNameDisplayText": "WHITE ST, ST THOMAS"
      }
    ]
  },
  {
    "postal": "N5R5C7",
    "result": [
      {
        "electoralDistricts": [
          {
            "election": null,
            "id": 26,
            "name": "Elgin—Middlesex—London"
          }
        ],
        "pollDivisionIds": [
          10137975
        ],
        "postalCode": "N5R5C7",
        "streetName": "COULTER",
        "streetDirectionId": null,
        "streetTypeId": "AVE",
        "placeName": "ST THOMAS",
        "streetNameDisplayText": "COULTER AVE, ST THOMAS"
      }
    ]
  },
  {
    "postal": "N5R3Y1",
    "result": [
      {
        "electoralDistricts": [
          {
            "election": null,
            "id": 26,
            "name": "Elgin—Middlesex—London"
          }
        ],
        "pollDivisionIds": [
          10143317
        ],
        "postalCode": "N5R3Y1",
        "streetName": "ROSS",
        "streetDirectionId": null,
        "streetTypeId": "ST",
        "placeName": "ST THOMAS",
        "streetNameDisplayText": "ROSS ST, ST THOMAS"
      }
    ]
  },
  {
    "postal": "N5R5V0",
    "result": []
  },
  {
    "postal": "N5R8G8",
    "result": []
  },
  {
    "postal": "N5R8B1",
    "result": []
  },
  {
    "postal": "N5R4P5",
    "result": [
      {
        "electoralDistricts": [
          {
            "election": null,
            "id": 26,
            "name": "Elgin—Middlesex—London"
          }
        ],
        "pollDivisionIds": [
          10137995
        ],
        "postalCode": "N5R4P5",
        "streetName": "FIRST",
        "streetDirectionId": null,
        "streetTypeId": "AVE",
        "placeName": "ST THOMAS",
        "streetNameDisplayText": "FIRST AVE, ST THOMAS"
      }
    ]
  },
  {
    "postal": "N5R7B2",
    "result": []
  },
  {
    "postal": "N5R0R2",
    "result": []
  },
  {
    "postal": "N5R4M4",
    "result": [
      {
        "electoralDistricts": [
          {
            "election": null,
            "id": 26,
            "name": "Elgin—Middlesex—London"
          }
        ],
        "pollDivisionIds": [
          10137992
        ],
        "postalCode": "N5R4M4",
        "streetName": "FIRST",
        "streetDirectionId": null,
        "streetTypeId": "AVE",
        "placeName": "ST THOMAS",
        "streetNameDisplayText": "FIRST AVE, ST THOMAS"
      }
    ]
  },
  {
    "postal": "N5R7M4",
    "result": []
  },
  {
    "postal": "N5R9S7",
    "result": []
  },
  {
    "postal": "N5R5Z7",
    "result": [
      {
        "electoralDistricts": [
          {
            "election": null,
            "id": 26,
            "name": "Elgin—Middlesex—London"
          }
        ],
        "pollDivisionIds": [
          10137997
        ],
        "postalCode": "N5R5Z7",
        "streetName": "WILLOW",
        "streetDirectionId": null,
        "streetTypeId": "ST",
        "placeName": "ST THOMAS",
        "streetNameDisplayText": "WILLOW ST, ST THOMAS"
      }
    ]
  },
  {
    "postal": "N5R7J7",
    "result": []
  },
  {
    "postal": "N5R8R8",
    "result": []
  },
  {
    "postal": "N5R9X1",
    "result": []
  },
  {
    "postal": "N5R5M9",
    "result": [
      {
        "electoralDistricts": [
          {
            "election": null,
            "id": 26,
            "name": "Elgin—Middlesex—London"
          }
        ],
        "pollDivisionIds": [
          10137998
        ],
        "postalCode": "N5R5M9",
        "streetName": "PENHALE",
        "streetDirectionId": null,
        "streetTypeId": "AVE",
        "placeName": "ST THOMAS",
        "streetNameDisplayText": "PENHALE AVE, ST THOMAS"
      }
    ]
  },
  {
    "postal": "N5R9B4",
    "result": []
  },
  {
    "postal": "N5R0L9",
    "result": []
  },
  {
    "postal": "N5R9G4",
    "result": []
  },
  {
    "postal": "N5R1J4",
    "result": [
      {
        "electoralDistricts": [
          {
            "election": null,
            "id": 26,
            "name": "Elgin—Middlesex—London"
          }
        ],
        "pollDivisionIds": [
          10137997
        ],
        "postalCode": "N5R1J4",
        "streetName": "ELM",
        "streetDirectionId": null,
        "streetTypeId": "ST",
        "placeName": "ST THOMAS",
        "streetNameDisplayText": "ELM ST, ST THOMAS"
      }
    ]
  },
  {
    "postal": "N5R0W6",
    "result": []
  }
]
