[
  {
    "postal": "L5C9J6",
    "result": []
  },
  {
    "postal": "L5C9Z5",
    "result": []
  },
  {
    "postal": "L5C7H8",
    "result": []
  },
  {
    "postal": "L5C0P6",
    "result": []
  },
  {
    "postal": "L5C0S7",
    "result": []
  },
  {
    "postal": "L5C8B9",
    "result": []
  },
  {
    "postal": "L5C2A6",
    "result": [
      {
        "electoralDistricts": [
          {
            "election": null,
            "id": 60,
            "name": "Mississauga Centre"
          }
        ],
        "pollDivisionIds": [
          10135101
        ],
        "postalCode": "L5C2A6",
        "streetName": "VALMARIE",
        "streetDirectionId": null,
        "streetTypeId": "AVE",
        "placeName": "MISSISSAUGA",
        "streetNameDisplayText": "VALMARIE AVE, MISSISSAUGA"
      }
    ]
  },
  {
    "postal": "L5C7V2",
    "result": []
  },
  {
    "postal": "L5C9P4",
    "result": []
  },
  {
    "postal": "L5C6G0",
    "result": []
  },
  {
    "postal": "L5C2K0",
    "result": []
  },
  {
    "postal": "L5C7N6",
    "result": []
  },
  {
    "postal": "L5C5R3",
    "result": []
  },
  {
    "postal": "L5C7K0",
    "result": []
  },
  {
    "postal": "L5C3R2",
    "result": [
      {
        "electoralDistricts": [
          {
            "election": null,
            "id": 60,
            "name": "Mississauga Centre"
          }
        ],
        "pollDivisionIds": [
          10135095
        ],
        "postalCode": "L5C3R2",
        "streetName": "STAGHORN",
        "streetDirectionId": null,
        "streetTypeId": "CRT",
        "placeName": "MISSISSAUGA",
        "streetNameDisplayText": "STAGHORN CRT, MISSISSAUGA"
      }
    ]
  },
  {
    "postal": "L5C0J1",
    "result": []
  },
  {
    "postal": "L5C0B0",
    "result": []
  },
  {
    "postal": "L5C5Z2",
    "result": []
  },
  {
    "postal": "L5C7P3",
    "result": []
  },
  {
    "postal": "L5C2K3",
    "result": [
      {
        "electoralDistricts": [
          {
            "election": null,
            "id": 60,
            "name": "Mississauga Centre"
          }
        ],
        "pollDivisionIds": [
          10135104
        ],
        "postalCode": "L5C2K3",
        "streetName": "THE CREDIT WOODLANDS",
        "streetDirectionId": null,
        "streetTypeId": null,
        "placeName": "MISSISSAUGA",
        "streetNameDisplayText": "THE CREDIT WOODLANDS, MISSISSAUGA"
      }
    ]
  },
  {
    "postal": "L5C7Y6",
    "result": []
  },
  {
    "postal": "L5C1L9",
    "result": [
      {
        "electoralDistricts": [
          {
            "election": null,
            "id": 60,
            "name": "Mississauga Centre"
          }
        ],
        "pollDivisionIds": [
          10135096
        ],
        "postalCode": "L5C1L9",
        "streetName": "MCBRIDE",
        "streetDirectionId": null,
        "streetTypeId": "AVE",
        "placeName": "MISSISSAUGA",
        "streetNameDisplayText": "MCBRIDE AVE, MISSISSAUGA"
      }
    ]
  },
  {
    "postal": "L5C8T0",
    "result": []
  },
  {
    "postal": "L5C3K8",
    "result": [
      {
        "electoralDistricts": [
          {
            "election": null,
            "id": 60,
            "name": "Mississauga Centre"
          }
        ],
        "pollDivisionIds": [
          10135095
        ],
        "postalCode": "L5C3K8",
        "streetName": "SANDOVER",
        "streetDirectionId": null,
        "streetTypeId": "CRT",
        "placeName": "MISSISSAUGA",
        "streetNameDisplayText": "SANDOVER CRT, MISSISSAUGA"
      }
    ]
  },
  {
    "postal": "L5C5W9",
    "result": []
  },
  {
    "postal": "L5C6T9",
    "result": []
  },
  {
    "postal": "L5C4H1",
    "result": []
  },
  {
    "postal": "L5C7A2",
    "result": []
  },
  {
    "postal": "L5C5G0",
    "result": []
  },
  {
    "postal": "L5C8V5",
    "result": []
  },
  {
    "postal": "L5C2Y8",
    "result": [
      {
        "electoralDistricts": [
          {
            "election": null,
            "id": 63,
            "name": "Mississauga—Lakeshore"
          }
        ],
        "pollDivisionIds": [
          10139756
        ],
        "postalCode": "L5C2Y8",
        "streetName": "PAPILON",
        "streetDirectionId": null,
        "streetTypeId": "CRT",
        "placeName": "MISSISSAUGA",
        "streetNameDisplayText": "PAPILON CRT, MISSISSAUGA"
      }
    ]
  },
  {
    "postal": "L5C2B6",
    "result": [
      {
        "electoralDistricts": [
          {
            "election": null,
            "id": 60,
            "name": "Mississauga Centre"
          }
        ],
        "pollDivisionIds": [
          10135101
        ],
        "postalCode": "L5C2B6",
        "streetName": "FROBEX",
        "streetDirectionId": null,
        "streetTypeId": "CRT",
        "placeName": "MISSISSAUGA",
        "streetNameDisplayText": "FROBEX CRT, MISSISSAUGA"
      }
    ]
  },
  {
    "postal": "L5C4W8",
    "result": []
  },
  {
    "postal": "L5C8H7",
    "result": []
  },
  {
    "postal": "L5C5P1",
    "result": []
  },
  {
    "postal": "L5C2B8",
    "result": [
      {
        "electoralDistricts": [
          {
            "election": null,
            "id": 60,
            "name": "Mississauga Centre"
          }
        ],
        "pollDivisionIds": [
          10135102
        ],
        "postalCode": "L5C2B8",
        "streetName": "LENESTER",
        "streetDirectionId": null,
        "streetTypeId": "DR",
        "placeName": "MISSISSAUGA",
        "streetNameDisplayText": "LENESTER DR, MISSISSAUGA"
      }
    ]
  },
  {
    "postal": "L5C0P2",
    "result": []
  },
  {
    "postal": "L5C9M1",
    "result": []
  },
  {
    "postal": "L5C3G0",
    "result": []
  },
  {
    "postal": "L5C9Z2",
    "result": []
  },
  {
    "postal": "L5C2A0",
    "result": []
  },
  {
    "postal": "L5C6Y0",
    "result": []
  },
  {
    "postal": "L5C2Z8",
    "result": [
      {
        "electoralDistricts": [
          {
            "election": null,
            "id": 63,
            "name": "Mississauga—Lakeshore"
          }
        ],
        "pollDivisionIds": [
          10139756
        ],
        "postalCode": "L5C2Z8",
        "streetName": "ANNELYN",
        "streetDirectionId": null,
        "streetTypeId": "CRT",
        "placeName": "MISSISSAUGA",
        "streetNameDisplayText": "ANNELYN CRT, MISSISSAUGA"
      }
    ]
  },
  {
    "postal": "L5C7Y3",
    "result": []
  },
  {
    "postal": "L5C6Z5",
    "result": []
  },
  {
    "postal": "L5C6E0",
    "result": []
  },
  {
    "postal": "L5C9B7",
    "result": []
  },
  {
    "postal": "L5C9S5",
    "result": []
  },
  {
    "postal": "L5C3X3",
    "result": []
  },
  {
    "postal": "L5C7R5",
    "result": []
  },
  {
    "postal": "L5C2X3",
    "result": [
      {
        "electoralDistricts": [
          {
            "election": null,
            "id": 63,
            "name": "Mississauga—Lakeshore"
          }
        ],
        "pollDivisionIds": [
          10139756
        ],
        "postalCode": "L5C2X3",
        "streetName": "AVONGATE",
        "streetDirectionId": null,
        "streetTypeId": "DR",
        "placeName": "MISSISSAUGA",
        "streetNameDisplayText": "AVONGATE DR, MISSISSAUGA"
      }
    ]
  },
  {
    "postal": "L5C8Z9",
    "result": []
  },
  {
    "postal": "L5C0N4",
    "result": []
  },
  {
    "postal": "L5C1K1",
    "result": [
      {
        "electoralDistricts": [
          {
            "election": null,
            "id": 60,
            "name": "Mississauga Centre"
          }
        ],
        "pollDivisionIds": [
          10135101
        ],
        "postalCode": "L5C1K1",
        "streetName": "CONYERS",
        "streetDirectionId": null,
        "streetTypeId": "CRES",
        "placeName": "MISSISSAUGA",
        "streetNameDisplayText": "CONYERS CRES, MISSISSAUGA"
      }
    ]
  },
  {
    "postal": "L5C1S3",
    "result": [
      {
        "electoralDistricts": [
          {
            "election": null,
            "id": 60,
            "name": "Mississauga Centre"
          }
        ],
        "pollDivisionIds": [
          10135104
        ],
        "postalCode": "L5C1S3",
        "streetName": "CHALICE",
        "streetDirectionId": null,
        "streetTypeId": "CRES",
        "placeName": "MISSISSAUGA",
        "streetNameDisplayText": "CHALICE CRES, MISSISSAUGA"
      }
    ]
  },
  {
    "postal": "L5C6M4",
    "result": []
  },
  {
    "postal": "L5C9A9",
    "result": []
  },
  {
    "postal": "L5C9Z9",
    "result": []
  },
  {
    "postal": "L5C6T4",
    "result": []
  },
  {
    "postal": "L5C0B2",
    "result": []
  },
  {
    "postal": "L5C2L9",
    "result": [
      {
        "electoralDistricts": [
          {
            "election": null,
            "id": 60,
            "name": "Mississauga Centre"
          }
        ],
        "pollDivisionIds": [
          10135104
        ],
        "postalCode": "L5C2L9",
        "streetName": "CREDIT HEIGHTS",
        "streetDirectionId": null,
        "streetTypeId": "DR",
        "placeName": "MISSISSAUGA",
        "streetNameDisplayText": "CREDIT HEIGHTS DR, MISSISSAUGA"
      }
    ]
  },
  {
    "postal": "L5C8K9",
    "result": []
  },
  {
    "postal": "L5C2H9",
    "result": [
      {
        "electoralDistricts": [
          {
            "election": null,
            "id": 60,
            "name": "Mississauga Centre"
          }
        ],
        "pollDivisionIds": [
          10135102
        ],
        "postalCode": "L5C2H9",
        "streetName": "THE CREDIT WOODLANDS",
        "streetDirectionId": null,
        "streetTypeId": null,
        "placeName": "MISSISSAUGA",
        "streetNameDisplayText": "THE CREDIT WOODLANDS, MISSISSAUGA"
      }
    ]
  },
  {
    "postal": "L5C3Z6",
    "result": []
  },
  {
    "postal": "L5C3B0",
    "result": []
  },
  {
    "postal": "L5C2H8",
    "result": [
      {
        "electoralDistricts": [
          {
            "election": null,
            "id": 60,
            "name": "Mississauga Centre"
          }
        ],
        "pollDivisionIds": [
          10135102
        ],
        "postalCode": "L5C2H8",
        "streetName": "FLYNN",
        "streetDirectionId": null,
        "streetTypeId": "CRES",
        "placeName": "MISSISSAUGA, ON",
        "streetNameDisplayText": "FLYNN CRES, MISSISSAUGA, ON"
      },
      {
        "electoralDistricts": [
          {
            "election": null,
            "id": 60,
            "name": "Mississauga Centre"
          }
        ],
        "pollDivisionIds": [
          10135104
        ],
        "postalCode": "L5C2H8",
        "streetName": "ORION",
        "streetDirectionId": null,
        "streetTypeId": "CRES",
        "placeName": "MISSISSAUGA",
        "streetNameDisplayText": "ORION CRES, MISSISSAUGA"
      }
    ]
  },
  {
    "postal": "L5C3X2",
    "result": [
      {
        "electoralDistricts": [
          {
            "election": null,
            "id": 60,
            "name": "Mississauga Centre"
          }
        ],
        "pollDivisionIds": [
          10135095
        ],
        "postalCode": "L5C3X2",
        "streetName": "QUEENSBRIDGE",
        "streetDirectionId": null,
        "streetTypeId": "DR",
        "placeName": "MISSISSAUGA",
        "streetNameDisplayText": "QUEENSBRIDGE DR, MISSISSAUGA"
      }
    ]
  },
  {
    "postal": "L5C2E9",
    "result": [
      {
        "electoralDistricts": [
          {
            "election": null,
            "id": 60,
            "name": "Mississauga Centre"
          }
        ],
        "pollDivisionIds": [
          10135104
        ],
        "postalCode": "L5C2E9",
        "streetName": "CODRINGTON",
        "streetDirectionId": null,
        "streetTypeId": "CRT",
        "placeName": "MISSISSAUGA",
        "streetNameDisplayText": "CODRINGTON CRT, MISSISSAUGA"
      }
    ]
  },
  {
    "postal": "L5C9P6",
    "result": []
  },
  {
    "postal": "L5C9E2",
    "result": []
  },
  {
    "postal": "L5C9H2",
    "result": []
  },
  {
    "postal": "L5C1S8",
    "result": [
      {
        "electoralDistricts": [
          {
            "election": null,
            "id": 60,
            "name": "Mississauga Centre"
          }
        ],
        "pollDivisionIds": [
          10135104
        ],
        "postalCode": "L5C1S8",
        "streetName": "FREEPORT",
        "streetDirectionId": null,
        "streetTypeId": "DR",
        "placeName": "MISSISSAUGA",
        "streetNameDisplayText": "FREEPORT DR, MISSISSAUGA"
      }
    ]
  },
  {
    "postal": "L5C3M6",
    "result": [
      {
        "electoralDistricts": [
          {
            "election": null,
            "id": 60,
            "name": "Mississauga Centre"
          }
        ],
        "pollDivisionIds": [
          10135095
        ],
        "postalCode": "L5C3M6",
        "streetName": "PERIVALE",
        "streetDirectionId": null,
        "streetTypeId": "RD",
        "placeName": "MISSISSAUGA",
        "streetNameDisplayText": "PERIVALE RD, MISSISSAUGA"
      }
    ]
  },
  {
    "postal": "L5C6Z8",
    "result": []
  },
  {
    "postal": "L5C4J2",
    "result": [
      {
        "electoralDistricts": [
          {
            "election": null,
            "id": 60,
            "name": "Mississauga Centre"
          }
        ],
        "pollDivisionIds": [
          10135095
        ],
        "postalCode": "L5C4J2",
        "streetName": "MELIA",
        "streetDirectionId": null,
        "streetTypeId": "DR",
        "placeName": "MISSISSAUGA",
        "streetNameDisplayText": "MELIA DR, MISSISSAUGA"
      }
    ]
  },
  {
    "postal": "L5C9Y1",
    "result": []
  },
  {
    "postal": "L5C8V6",
    "result": []
  },
  {
    "postal": "L5C6B2",
    "result": []
  },
  {
    "postal": "L5C1P8",
    "result": [
      {
        "electoralDistricts": [
          {
            "election": null,
            "id": 60,
            "name": "Mississauga Centre"
          }
        ],
        "pollDivisionIds": [
          10135101
        ],
        "postalCode": "L5C1P8",
        "streetName": "CHADA",
        "streetDirectionId": null,
        "streetTypeId": "AVE",
        "placeName": "MISSISSAUGA",
        "streetNameDisplayText": "CHADA AVE, MISSISSAUGA"
      }
    ]
  },
  {
    "postal": "L5C0V8",
    "result": []
  },
  {
    "postal": "L5C4Y0",
    "result": []
  },
  {
    "postal": "L5C2T4",
    "result": [
      {
        "electoralDistricts": [
          {
            "election": null,
            "id": 60,
            "name": "Mississauga Centre"
          }
        ],
        "pollDivisionIds": [
          10135104
        ],
        "postalCode": "L5C2T4",
        "streetName": "CREDIT HEIGHTS",
        "streetDirectionId": null,
        "streetTypeId": "DR",
        "placeName": "MISSISSAUGA",
        "streetNameDisplayText": "CREDIT HEIGHTS DR, MISSISSAUGA"
      }
    ]
  },
  {
    "postal": "L5C2S3",
    "result": [
      {
        "electoralDistricts": [
          {
            "election": null,
            "id": 60,
            "name": "Mississauga Centre"
          }
        ],
        "pollDivisionIds": [
          10135096
        ],
        "postalCode": "L5C2S3",
        "streetName": "BURNHAMTHORPE",
        "streetDirectionId": "W",
        "streetTypeId": "RD",
        "placeName": "MISSISSAUGA",
        "streetNameDisplayText": "BURNHAMTHORPE RD W, MISSISSAUGA"
      }
    ]
  },
  {
    "postal": "L5C0K0",
    "result": []
  },
  {
    "postal": "L5C5N1",
    "result": []
  },
  {
    "postal": "L5C7T0",
    "result": []
  },
  {
    "postal": "L5C9N2",
    "result": []
  },
  {
    "postal": "L5C5L1",
    "result": []
  },
  {
    "postal": "L5C7G5",
    "result": []
  },
  {
    "postal": "L5C6K2",
    "result": []
  },
  {
    "postal": "L5C6P9",
    "result": []
  },
  {
    "postal": "L5C0E6",
    "result": []
  },
  {
    "postal": "L5C8R9",
    "result": []
  },
  {
    "postal": "L5C3G9",
    "result": [
      {
        "electoralDistricts": [
          {
            "election": null,
            "id": 63,
            "name": "Mississauga—Lakeshore"
          }
        ],
        "pollDivisionIds": [
          10139756
        ],
        "postalCode": "L5C3G9",
        "streetName": "POLLARD",
        "streetDirectionId": null,
        "streetTypeId": "DR",
        "placeName": "MISSISSAUGA",
        "streetNameDisplayText": "POLLARD DR, MISSISSAUGA"
      }
    ]
  },
  {
    "postal": "L5C0V7",
    "result": []
  },
  {
    "postal": "L5C2Z1",
    "result": [
      {
        "electoralDistricts": [
          {
            "election": null,
            "id": 63,
            "name": "Mississauga—Lakeshore"
          }
        ],
        "pollDivisionIds": [
          10139756
        ],
        "postalCode": "L5C2Z1",
        "streetName": "CONQUEST",
        "streetDirectionId": null,
        "streetTypeId": "DR",
        "placeName": "MISSISSAUGA",
        "streetNameDisplayText": "CONQUEST DR, MISSISSAUGA"
      }
    ]
  },
  {
    "postal": "L5C7N1",
    "result": []
  },
  {
    "postal": "L5C3C6",
    "result": [
      {
        "electoralDistricts": [
          {
            "election": null,
            "id": 63,
            "name": "Mississauga—Lakeshore"
          }
        ],
        "pollDivisionIds": [
          10139756
        ],
        "postalCode": "L5C3C6",
        "streetName": "MORRISON",
        "streetDirectionId": null,
        "streetTypeId": "AVE",
        "placeName": "MISSISSAUGA",
        "streetNameDisplayText": "MORRISON AVE, MISSISSAUGA"
      }
    ]
  },
  {
    "postal": "L5C4M1",
    "result": [
      {
        "electoralDistricts": [
          {
            "election": null,
            "id": 60,
            "name": "Mississauga Centre"
          }
        ],
        "pollDivisionIds": [
          10135095
        ],
        "postalCode": "L5C4M1",
        "streetName": "WAKEFIELD",
        "streetDirectionId": null,
        "streetTypeId": "CRES",
        "placeName": "MISSISSAUGA",
        "streetNameDisplayText": "WAKEFIELD CRES, MISSISSAUGA"
      }
    ]
  },
  {
    "postal": "L5C9K2",
    "result": []
  },
  {
    "postal": "L5C9S6",
    "result": []
  },
  {
    "postal": "L5C4X1",
    "result": []
  },
  {
    "postal": "L5C8W2",
    "result": []
  },
  {
    "postal": "L5C7N2",
    "result": []
  },
  {
    "postal": "L5C8S3",
    "result": []
  },
  {
    "postal": "L5C4V0",
    "result": []
  },
  {
    "postal": "L5C6W4",
    "result": []
  },
  {
    "postal": "L5C5M1",
    "result": []
  },
  {
    "postal": "L5C0S4",
    "result": []
  },
  {
    "postal": "L5C5X6",
    "result": []
  },
  {
    "postal": "L5C8L5",
    "result": []
  },
  {
    "postal": "L5C5M8",
    "result": []
  },
  {
    "postal": "L5C2G3",
    "result": [
      {
        "electoralDistricts": [
          {
            "election": null,
            "id": 60,
            "name": "Mississauga Centre"
          }
        ],
        "pollDivisionIds": [
          10135104
        ],
        "postalCode": "L5C2G3",
        "streetName": "GLENCOLIN",
        "streetDirectionId": null,
        "streetTypeId": "CRT",
        "placeName": "MISSISSAUGA",
        "streetNameDisplayText": "GLENCOLIN CRT, MISSISSAUGA"
      }
    ]
  },
  {
    "postal": "L5C8E4",
    "result": []
  },
  {
    "postal": "L5C7S9",
    "result": []
  },
  {
    "postal": "L5C1K3",
    "result": [
      {
        "electoralDistricts": [
          {
            "election": null,
            "id": 60,
            "name": "Mississauga Centre"
          }
        ],
        "pollDivisionIds": [
          10135101,
          10135102
        ],
        "postalCode": "L5C1K3",
        "streetName": "FAIRDALE",
        "streetDirectionId": null,
        "streetTypeId": "DR",
        "placeName": "MISSISSAUGA",
        "streetNameDisplayText": "FAIRDALE DR, MISSISSAUGA"
      }
    ]
  },
  {
    "postal": "L5C4E1",
    "result": []
  },
  {
    "postal": "L5C4R2",
    "result": [
      {
        "electoralDistricts": [
          {
            "election": null,
            "id": 63,
            "name": "Mississauga—Lakeshore"
          }
        ],
        "pollDivisionIds": [
          10139756,
          10139780
        ],
        "postalCode": "L5C4R2",
        "streetName": "CEDARGLEN",
        "streetDirectionId": null,
        "streetTypeId": "GATE",
        "placeName": "MISSISSAUGA",
        "streetNameDisplayText": "CEDARGLEN GATE, MISSISSAUGA"
      }
    ]
  },
  {
    "postal": "L5C6T0",
    "result": []
  },
  {
    "postal": "L5C3K5",
    "result": [
      {
        "electoralDistricts": [
          {
            "election": null,
            "id": 60,
            "name": "Mississauga Centre"
          }
        ],
        "pollDivisionIds": [
          10135095
        ],
        "postalCode": "L5C3K5",
        "streetName": "THISTLE DOWN",
        "streetDirectionId": null,
        "streetTypeId": "CIR",
        "placeName": "MISSISSAUGA",
        "streetNameDisplayText": "THISTLE DOWN CIR, MISSISSAUGA"
      }
    ]
  },
  {
    "postal": "L5C3S3",
    "result": [
      {
        "electoralDistricts": [
          {
            "election": null,
            "id": 60,
            "name": "Mississauga Centre"
          }
        ],
        "pollDivisionIds": [
          10135095
        ],
        "postalCode": "L5C3S3",
        "streetName": "DEER",
        "streetDirectionId": null,
        "streetTypeId": "RUN",
        "placeName": "MISSISSAUGA",
        "streetNameDisplayText": "DEER RUN, MISSISSAUGA"
      }
    ]
  },
  {
    "postal": "L5C3L4",
    "result": [
      {
        "electoralDistricts": [
          {
            "election": null,
            "id": 60,
            "name": "Mississauga Centre"
          }
        ],
        "pollDivisionIds": [
          10135087,
          10135095
        ],
        "postalCode": "L5C3L4",
        "streetName": "TEAKWOOD",
        "streetDirectionId": null,
        "streetTypeId": "DR",
        "placeName": "MISSISSAUGA",
        "streetNameDisplayText": "TEAKWOOD DR, MISSISSAUGA"
      }
    ]
  },
  {
    "postal": "L5C9Y2",
    "result": []
  },
  {
    "postal": "L5C1E0",
    "result": []
  },
  {
    "postal": "L5C9A4",
    "result": []
  },
  {
    "postal": "L5C1L3",
    "result": [
      {
        "electoralDistricts": [
          {
            "election": null,
            "id": 60,
            "name": "Mississauga Centre"
          }
        ],
        "pollDivisionIds": [
          10135104
        ],
        "postalCode": "L5C1L3",
        "streetName": "ROONEY",
        "streetDirectionId": null,
        "streetTypeId": "GATE",
        "placeName": "MISSISSAUGA",
        "streetNameDisplayText": "ROONEY GATE, MISSISSAUGA"
      }
    ]
  },
  {
    "postal": "L5C6N1",
    "result": []
  },
  {
    "postal": "L5C6G7",
    "result": []
  },
  {
    "postal": "L5C7W1",
    "result": []
  },
  {
    "postal": "L5C4M6",
    "result": [
      {
        "electoralDistricts": [
          {
            "election": null,
            "id": 60,
            "name": "Mississauga Centre"
          }
        ],
        "pollDivisionIds": [
          10135095
        ],
        "postalCode": "L5C4M6",
        "streetName": "GUILD",
        "streetDirectionId": null,
        "streetTypeId": "CRT",
        "placeName": "MISSISSAUGA",
        "streetNameDisplayText": "GUILD CRT, MISSISSAUGA"
      }
    ]
  },
  {
    "postal": "L5C1K0",
    "result": []
  },
  {
    "postal": "L5C3E2",
    "result": [
      {
        "electoralDistricts": [
          {
            "election": null,
            "id": 60,
            "name": "Mississauga Centre"
          }
        ],
        "pollDivisionIds": [
          10135097
        ],
        "postalCode": "L5C3E2",
        "streetName": "STAINTON",
        "streetDirectionId": null,
        "streetTypeId": "DR",
        "placeName": "MISSISSAUGA",
        "streetNameDisplayText": "STAINTON DR, MISSISSAUGA"
      }
    ]
  },
  {
    "postal": "L5C5H4",
    "result": []
  },
  {
    "postal": "L5C1K7",
    "result": [
      {
        "electoralDistricts": [
          {
            "election": null,
            "id": 60,
            "name": "Mississauga Centre"
          }
        ],
        "pollDivisionIds": [
          10135096
        ],
        "postalCode": "L5C1K7",
        "streetName": "WESTLOCK",
        "streetDirectionId": null,
        "streetTypeId": "RD",
        "placeName": "MISSISSAUGA",
        "streetNameDisplayText": "WESTLOCK RD, MISSISSAUGA"
      }
    ]
  },
  {
    "postal": "L5C0H0",
    "result": []
  },
  {
    "postal": "L5C0J3",
    "result": []
  },
  {
    "postal": "L5C1X6",
    "result": [
      {
        "electoralDistricts": [
          {
            "election": null,
            "id": 60,
            "name": "Mississauga Centre"
          }
        ],
        "pollDivisionIds": [
          10135097
        ],
        "postalCode": "L5C1X6",
        "streetName": "JESSICA",
        "streetDirectionId": null,
        "streetTypeId": "CRT",
        "placeName": "MISSISSAUGA",
        "streetNameDisplayText": "JESSICA CRT, MISSISSAUGA"
      }
    ]
  },
  {
    "postal": "L5C2Z6",
    "result": [
      {
        "electoralDistricts": [
          {
            "election": null,
            "id": 63,
            "name": "Mississauga—Lakeshore"
          }
        ],
        "pollDivisionIds": [
          10139756
        ],
        "postalCode": "L5C2Z6",
        "streetName": "VALDESE",
        "streetDirectionId": null,
        "streetTypeId": "DR",
        "placeName": "MISSISSAUGA",
        "streetNameDisplayText": "VALDESE DR, MISSISSAUGA"
      }
    ]
  },
  {
    "postal": "L5C4R9",
    "result": []
  },
  {
    "postal": "L5C0W8",
    "result": []
  },
  {
    "postal": "L5C1L4",
    "result": [
      {
        "electoralDistricts": [
          {
            "election": null,
            "id": 60,
            "name": "Mississauga Centre"
          }
        ],
        "pollDivisionIds": [
          10135104
        ],
        "postalCode": "L5C1L4",
        "streetName": "KILLKEE",
        "streetDirectionId": null,
        "streetTypeId": "GATE",
        "placeName": "MISSISSAUGA",
        "streetNameDisplayText": "KILLKEE GATE, MISSISSAUGA"
      }
    ]
  },
  {
    "postal": "L5C0C8",
    "result": []
  },
  {
    "postal": "L5C9X7",
    "result": []
  },
  {
    "postal": "L5C4T1",
    "result": [
      {
        "electoralDistricts": [
          {
            "election": null,
            "id": 63,
            "name": "Mississauga—Lakeshore"
          }
        ],
        "pollDivisionIds": [
          10139756
        ],
        "postalCode": "L5C4T1",
        "streetName": "DUNDAS",
        "streetDirectionId": "W",
        "streetTypeId": "ST",
        "placeName": "MISSISSAUGA",
        "streetNameDisplayText": "DUNDAS ST W, MISSISSAUGA"
      }
    ]
  },
  {
    "postal": "L5C0M0",
    "result": []
  },
  {
    "postal": "L5C6A2",
    "result": []
  },
  {
    "postal": "L5C9S8",
    "result": []
  },
  {
    "postal": "L5C9T4",
    "result": []
  },
  {
    "postal": "L5C9Y4",
    "result": []
  },
  {
    "postal": "L5C6G5",
    "result": []
  },
  {
    "postal": "L5C6H9",
    "result": []
  },
  {
    "postal": "L5C2P3",
    "result": [
      {
        "electoralDistricts": [
          {
            "election": null,
            "id": 63,
            "name": "Mississauga—Lakeshore"
          }
        ],
        "pollDivisionIds": [
          10139756
        ],
        "postalCode": "L5C2P3",
        "streetName": "ROBINSON",
        "streetDirectionId": null,
        "streetTypeId": "ST",
        "placeName": "MISSISSAUGA",
        "streetNameDisplayText": "ROBINSON ST, MISSISSAUGA"
      }
    ]
  },
  {
    "postal": "L5C1T6",
    "result": []
  },
  {
    "postal": "L5C4P6",
    "result": [
      {
        "electoralDistricts": [
          {
            "election": null,
            "id": 60,
            "name": "Mississauga Centre"
          }
        ],
        "pollDivisionIds": [
          10135097
        ],
        "postalCode": "L5C4P6",
        "streetName": "DUNDAS",
        "streetDirectionId": "W",
        "streetTypeId": "ST",
        "placeName": "MISSISSAUGA",
        "streetNameDisplayText": "DUNDAS ST W, MISSISSAUGA"
      }
    ]
  },
  {
    "postal": "L5C3K1",
    "result": [
      {
        "electoralDistricts": [
          {
            "election": null,
            "id": 60,
            "name": "Mississauga Centre"
          }
        ],
        "pollDivisionIds": [
          10135096
        ],
        "postalCode": "L5C3K1",
        "streetName": "MAVIS",
        "streetDirectionId": null,
        "streetTypeId": "RD",
        "placeName": "MISSISSAUGA",
        "streetNameDisplayText": "MAVIS RD, MISSISSAUGA"
      }
    ]
  },
  {
    "postal": "L5C6X4",
    "result": []
  },
  {
    "postal": "L5C4M8",
    "result": [
      {
        "electoralDistricts": [
          {
            "election": null,
            "id": 60,
            "name": "Mississauga Centre"
          }
        ],
        "pollDivisionIds": [
          10135095
        ],
        "postalCode": "L5C4M8",
        "streetName": "WAKEFIELD",
        "streetDirectionId": null,
        "streetTypeId": "CRES",
        "placeName": "MISSISSAUGA",
        "streetNameDisplayText": "WAKEFIELD CRES, MISSISSAUGA"
      },
      {
        "electoralDistricts": [
          {
            "election": null,
            "id": 60,
            "name": "Mississauga Centre"
          }
        ],
        "pollDivisionIds": [
          10135095
        ],
        "postalCode": "L5C4M8",
        "streetName": "WOBURN WOODS",
        "streetDirectionId": null,
        "streetTypeId": "LANE",
        "placeName": "MISSISSAUGA",
        "streetNameDisplayText": "WOBURN WOODS LANE, MISSISSAUGA"
      }
    ]
  },
  {
    "postal": "L5C2Y1",
    "result": [
      {
        "electoralDistricts": [
          {
            "election": null,
            "id": 63,
            "name": "Mississauga—Lakeshore"
          }
        ],
        "pollDivisionIds": [
          10139756
        ],
        "postalCode": "L5C2Y1",
        "streetName": "VICKI",
        "streetDirectionId": null,
        "streetTypeId": "LANE",
        "placeName": "MISSISSAUGA",
        "streetNameDisplayText": "VICKI LANE, MISSISSAUGA"
      }
    ]
  },
  {
    "postal": "L5C6M1",
    "result": []
  },
  {
    "postal": "L5C5L8",
    "result": []
  },
  {
    "postal": "L5C3P6",
    "result": [
      {
        "electoralDistricts": [
          {
            "election": null,
            "id": 60,
            "name": "Mississauga Centre"
          }
        ],
        "pollDivisionIds": [
          10135095
        ],
        "postalCode": "L5C3P6",
        "streetName": "DEER RUN",
        "streetDirectionId": null,
        "streetTypeId": "RUN",
        "placeName": "MISSISSAUGA",
        "streetNameDisplayText": "DEER RUN RUN, MISSISSAUGA"
      },
      {
        "electoralDistricts": [
          {
            "election": null,
            "id": 60,
            "name": "Mississauga Centre"
          }
        ],
        "pollDivisionIds": [
          10135095
        ],
        "postalCode": "L5C3P6",
        "streetName": "DEER",
        "streetDirectionId": null,
        "streetTypeId": "RUN",
        "placeName": "MISSISSAUGA",
        "streetNameDisplayText": "DEER RUN, MISSISSAUGA"
      }
    ]
  },
  {
    "postal": "L5C9A5",
    "result": []
  },
  {
    "postal": "L5C7K1",
    "result": []
  },
  {
    "postal": "L5C3J4",
    "result": [
      {
        "electoralDistricts": [
          {
            "election": null,
            "id": 63,
            "name": "Mississauga—Lakeshore"
          }
        ],
        "pollDivisionIds": [
          10139756
        ],
        "postalCode": "L5C3J4",
        "streetName": "CORNERBROOK",
        "streetDirectionId": null,
        "streetTypeId": "PL",
        "placeName": "MISSISSAUGA",
        "streetNameDisplayText": "CORNERBROOK PL, MISSISSAUGA"
      }
    ]
  },
  {
    "postal": "L5C5E7",
    "result": []
  },
  {
    "postal": "L5C3A7",
    "result": [
      {
        "electoralDistricts": [
          {
            "election": null,
            "id": 63,
            "name": "Mississauga—Lakeshore"
          }
        ],
        "pollDivisionIds": [
          10139756
        ],
        "postalCode": "L5C3A7",
        "streetName": "CEDARGLEN",
        "streetDirectionId": null,
        "streetTypeId": "GATE",
        "placeName": "MISSISSAUGA",
        "streetNameDisplayText": "CEDARGLEN GATE, MISSISSAUGA"
      }
    ]
  },
  {
    "postal": "L5C1B9",
    "result": []
  },
  {
    "postal": "L5C9E8",
    "result": []
  },
  {
    "postal": "L5C1C9",
    "result": [
      {
        "electoralDistricts": [
          {
            "election": null,
            "id": 60,
            "name": "Mississauga Centre"
          }
        ],
        "pollDivisionIds": [
          10135102
        ],
        "postalCode": "L5C1C9",
        "streetName": "DUNDAS",
        "streetDirectionId": "W",
        "streetTypeId": "ST",
        "placeName": "MISSISSAUGA",
        "streetNameDisplayText": "DUNDAS ST W, MISSISSAUGA"
      }
    ]
  },
  {
    "postal": "L5C3B5",
    "result": [
      {
        "electoralDistricts": [
          {
            "election": null,
            "id": 63,
            "name": "Mississauga—Lakeshore"
          }
        ],
        "pollDivisionIds": [
          10139756
        ],
        "postalCode": "L5C3B5",
        "streetName": "AVONGATE",
        "streetDirectionId": null,
        "streetTypeId": "DR",
        "placeName": "MISSISSAUGA",
        "streetNameDisplayText": "AVONGATE DR, MISSISSAUGA"
      }
    ]
  },
  {
    "postal": "L5C8R0",
    "result": []
  },
  {
    "postal": "L5C3P2",
    "result": [
      {
        "electoralDistricts": [
          {
            "election": null,
            "id": 60,
            "name": "Mississauga Centre"
          }
        ],
        "pollDivisionIds": [
          10135095
        ],
        "postalCode": "L5C3P2",
        "streetName": "DEER RUN",
        "streetDirectionId": null,
        "streetTypeId": "CRT",
        "placeName": "MISSISSAUGA",
        "streetNameDisplayText": "DEER RUN CRT, MISSISSAUGA"
      }
    ]
  },
  {
    "postal": "L5C5V4",
    "result": []
  },
  {
    "postal": "L5C4H0",
    "result": []
  },
  {
    "postal": "L5C4S7",
    "result": [
      {
        "electoralDistricts": [
          {
            "election": null,
            "id": 62,
            "name": "Mississauga—Erin Mills"
          },
          {
            "election": null,
            "id": 60,
            "name": "Mississauga Centre"
          }
        ],
        "pollDivisionIds": [
          10139707,
          10135097
        ],
        "postalCode": "L5C4S7",
        "streetName": "CEDARGLEN",
        "streetDirectionId": null,
        "streetTypeId": "GATE",
        "placeName": "MISSISSAUGA",
        "streetNameDisplayText": "CEDARGLEN GATE, MISSISSAUGA"
      }
    ]
  },
  {
    "postal": "L5C6C2",
    "result": []
  },
  {
    "postal": "L5C8W3",
    "result": []
  },
  {
    "postal": "L5C4M5",
    "result": [
      {
        "electoralDistricts": [
          {
            "election": null,
            "id": 60,
            "name": "Mississauga Centre"
          }
        ],
        "pollDivisionIds": [
          10135095
        ],
        "postalCode": "L5C4M5",
        "streetName": "WAKEFIELD",
        "streetDirectionId": null,
        "streetTypeId": "CRES",
        "placeName": "MISSISSAUGA",
        "streetNameDisplayText": "WAKEFIELD CRES, MISSISSAUGA"
      }
    ]
  },
  {
    "postal": "L5C5T1",
    "result": []
  },
  {
    "postal": "L5C3B3",
    "result": [
      {
        "electoralDistricts": [
          {
            "election": null,
            "id": 63,
            "name": "Mississauga—Lakeshore"
          }
        ],
        "pollDivisionIds": [
          10139756
        ],
        "postalCode": "L5C3B3",
        "streetName": "DUNDAS",
        "streetDirectionId": "W",
        "streetTypeId": "ST",
        "placeName": "MISSISSAUGA",
        "streetNameDisplayText": "DUNDAS ST W, MISSISSAUGA"
      }
    ]
  },
  {
    "postal": "L5C6C6",
    "result": []
  },
  {
    "postal": "L5C7N8",
    "result": []
  },
  {
    "postal": "L5C2Y3",
    "result": [
      {
        "electoralDistricts": [
          {
            "election": null,
            "id": 63,
            "name": "Mississauga—Lakeshore"
          }
        ],
        "pollDivisionIds": [
          10139756
        ],
        "postalCode": "L5C2Y3",
        "streetName": "PARMEER",
        "streetDirectionId": null,
        "streetTypeId": "DR",
        "placeName": "MISSISSAUGA",
        "streetNameDisplayText": "PARMEER DR, MISSISSAUGA"
      }
    ]
  },
  {
    "postal": "L5C2R6",
    "result": [
      {
        "electoralDistricts": [
          {
            "election": null,
            "id": 60,
            "name": "Mississauga Centre"
          }
        ],
        "pollDivisionIds": [
          10135104
        ],
        "postalCode": "L5C2R6",
        "streetName": "BURNBRAE",
        "streetDirectionId": null,
        "streetTypeId": "DR",
        "placeName": "MISSISSAUGA",
        "streetNameDisplayText": "BURNBRAE DR, MISSISSAUGA"
      }
    ]
  },
  {
    "postal": "L5C7N3",
    "result": []
  },
  {
    "postal": "L5C8J2",
    "result": []
  },
  {
    "postal": "L5C6A9",
    "result": []
  },
  {
    "postal": "L5C3V2",
    "result": [
      {
        "electoralDistricts": [
          {
            "election": null,
            "id": 60,
            "name": "Mississauga Centre"
          }
        ],
        "pollDivisionIds": [
          10135095
        ],
        "postalCode": "L5C3V2",
        "streetName": "SAWGRASS",
        "streetDirectionId": null,
        "streetTypeId": "CRES",
        "placeName": "MISSISSAUGA",
        "streetNameDisplayText": "SAWGRASS CRES, MISSISSAUGA"
      }
    ]
  },
  {
    "postal": "L5C2N3",
    "result": [
      {
        "electoralDistricts": [
          {
            "election": null,
            "id": 60,
            "name": "Mississauga Centre"
          }
        ],
        "pollDivisionIds": [
          10135101,
          10135104
        ],
        "postalCode": "L5C2N3",
        "streetName": "GALLAGER",
        "streetDirectionId": null,
        "streetTypeId": "DR",
        "placeName": "MISSISSAUGA",
        "streetNameDisplayText": "GALLAGER DR, MISSISSAUGA"
      }
    ]
  },
  {
    "postal": "L5C1S5",
    "result": [
      {
        "electoralDistricts": [
          {
            "election": null,
            "id": 60,
            "name": "Mississauga Centre"
          }
        ],
        "pollDivisionIds": [
          10135104
        ],
        "postalCode": "L5C1S5",
        "streetName": "FREEPORT",
        "streetDirectionId": null,
        "streetTypeId": "DR",
        "placeName": "MISSISSAUGA",
        "streetNameDisplayText": "FREEPORT DR, MISSISSAUGA"
      }
    ]
  },
  {
    "postal": "L5C4T7",
    "result": []
  },
  {
    "postal": "L5C6Y7",
    "result": []
  },
  {
    "postal": "L5C0W7",
    "result": []
  },
  {
    "postal": "L5C2W9",
    "result": [
      {
        "electoralDistricts": [
          {
            "election": null,
            "id": 63,
            "name": "Mississauga—Lakeshore"
          }
        ],
        "pollDivisionIds": [
          10139756
        ],
        "postalCode": "L5C2W9",
        "streetName": "SAMI",
        "streetDirectionId": null,
        "streetTypeId": "ST",
        "placeName": "MISSISSAUGA",
        "streetNameDisplayText": "SAMI ST, MISSISSAUGA"
      }
    ]
  },
  {
    "postal": "L5C8V0",
    "result": []
  },
  {
    "postal": "L5C0H4",
    "result": []
  },
  {
    "postal": "L5C2T1",
    "result": [
      {
        "electoralDistricts": [
          {
            "election": null,
            "id": 60,
            "name": "Mississauga Centre"
          }
        ],
        "pollDivisionIds": [
          10135101
        ],
        "postalCode": "L5C2T1",
        "streetName": "ERINDALE STATION",
        "streetDirectionId": null,
        "streetTypeId": "RD",
        "placeName": "MISSISSAUGA",
        "streetNameDisplayText": "ERINDALE STATION RD, MISSISSAUGA"
      }
    ]
  },
  {
    "postal": "L5C1B1",
    "result": [
      {
        "electoralDistricts": [
          {
            "election": null,
            "id": 63,
            "name": "Mississauga—Lakeshore"
          }
        ],
        "pollDivisionIds": [
          10139756
        ],
        "postalCode": "L5C1B1",
        "streetName": "TALKA",
        "streetDirectionId": null,
        "streetTypeId": "CRT",
        "placeName": "MISSISSAUGA",
        "streetNameDisplayText": "TALKA CRT, MISSISSAUGA"
      }
    ]
  },
  {
    "postal": "L5C8B6",
    "result": []
  },
  {
    "postal": "L5C6H1",
    "result": []
  },
  {
    "postal": "L5C8T8",
    "result": []
  },
  {
    "postal": "L5C0T4",
    "result": []
  },
  {
    "postal": "L5C2C4",
    "result": [
      {
        "electoralDistricts": [
          {
            "election": null,
            "id": 60,
            "name": "Mississauga Centre"
          }
        ],
        "pollDivisionIds": [
          10135102
        ],
        "postalCode": "L5C2C4",
        "streetName": "O'HAGAN",
        "streetDirectionId": null,
        "streetTypeId": "DR",
        "placeName": "MISSISSAUGA",
        "streetNameDisplayText": "O'HAGAN DR, MISSISSAUGA"
      }
    ]
  },
  {
    "postal": "L5C8N3",
    "result": []
  },
  {
    "postal": "L5C4L8",
    "result": [
      {
        "electoralDistricts": [
          {
            "election": null,
            "id": 60,
            "name": "Mississauga Centre"
          }
        ],
        "pollDivisionIds": [
          10135095
        ],
        "postalCode": "L5C4L8",
        "streetName": "APPLE GATE",
        "streetDirectionId": null,
        "streetTypeId": "CRT",
        "placeName": "MISSISSAUGA",
        "streetNameDisplayText": "APPLE GATE CRT, MISSISSAUGA"
      }
    ]
  },
  {
    "postal": "L5C2B5",
    "result": [
      {
        "electoralDistricts": [
          {
            "election": null,
            "id": 60,
            "name": "Mississauga Centre"
          }
        ],
        "pollDivisionIds": [
          10135101
        ],
        "postalCode": "L5C2B5",
        "streetName": "FROBEX",
        "streetDirectionId": null,
        "streetTypeId": "CRT",
        "placeName": "MISSISSAUGA",
        "streetNameDisplayText": "FROBEX CRT, MISSISSAUGA"
      }
    ]
  },
  {
    "postal": "L5C3H1",
    "result": [
      {
        "electoralDistricts": [
          {
            "election": null,
            "id": 63,
            "name": "Mississauga—Lakeshore"
          }
        ],
        "pollDivisionIds": [
          10139756
        ],
        "postalCode": "L5C3H1",
        "streetName": "POLLARD",
        "streetDirectionId": null,
        "streetTypeId": "DR",
        "placeName": "MISSISSAUGA",
        "streetNameDisplayText": "POLLARD DR, MISSISSAUGA"
      }
    ]
  },
  {
    "postal": "L5C4Y1",
    "result": []
  },
  {
    "postal": "L5C7E2",
    "result": []
  },
  {
    "postal": "L5C2P5",
    "result": [
      {
        "electoralDistricts": [
          {
            "election": null,
            "id": 63,
            "name": "Mississauga—Lakeshore"
          }
        ],
        "pollDivisionIds": [
          10139756
        ],
        "postalCode": "L5C2P5",
        "streetName": "ROBINSON",
        "streetDirectionId": null,
        "streetTypeId": "ST",
        "placeName": "MISSISSAUGA",
        "streetNameDisplayText": "ROBINSON ST, MISSISSAUGA"
      }
    ]
  },
  {
    "postal": "L5C8R7",
    "result": []
  },
  {
    "postal": "L5C9P1",
    "result": []
  },
  {
    "postal": "L5C3B8",
    "result": [
      {
        "electoralDistricts": [
          {
            "election": null,
            "id": 63,
            "name": "Mississauga—Lakeshore"
          }
        ],
        "pollDivisionIds": [
          10139756
        ],
        "postalCode": "L5C3B8",
        "streetName": "CAMERON",
        "streetDirectionId": null,
        "streetTypeId": "CRT",
        "placeName": "MISSISSAUGA",
        "streetNameDisplayText": "CAMERON CRT, MISSISSAUGA"
      }
    ]
  },
  {
    "postal": "L5C3P7",
    "result": [
      {
        "electoralDistricts": [
          {
            "election": null,
            "id": 60,
            "name": "Mississauga Centre"
          }
        ],
        "pollDivisionIds": [
          10135095
        ],
        "postalCode": "L5C3P7",
        "streetName": "DEER",
        "streetDirectionId": null,
        "streetTypeId": "RUN",
        "placeName": "MISSISSAUGA",
        "streetNameDisplayText": "DEER RUN, MISSISSAUGA"
      }
    ]
  },
  {
    "postal": "L5C9B2",
    "result": []
  },
  {
    "postal": "L5C6Z3",
    "result": []
  },
  {
    "postal": "L5C4N5",
    "result": [
      {
        "electoralDistricts": [
          {
            "election": null,
            "id": 60,
            "name": "Mississauga Centre"
          }
        ],
        "pollDivisionIds": [
          10135095
        ],
        "postalCode": "L5C4N5",
        "streetName": "HEATHERWOOD",
        "streetDirectionId": null,
        "streetTypeId": "SQ",
        "placeName": "MISSISSAUGA",
        "streetNameDisplayText": "HEATHERWOOD SQ, MISSISSAUGA"
      },
      {
        "electoralDistricts": [
          {
            "election": null,
            "id": 60,
            "name": "Mississauga Centre"
          }
        ],
        "pollDivisionIds": [
          10135095
        ],
        "postalCode": "L5C4N5",
        "streetName": "OXFORD",
        "streetDirectionId": null,
        "streetTypeId": "SQ",
        "placeName": "MISSISSAUGA",
        "streetNameDisplayText": "OXFORD SQ, MISSISSAUGA"
      },
      {
        "electoralDistricts": [
          {
            "election": null,
            "id": 60,
            "name": "Mississauga Centre"
          }
        ],
        "pollDivisionIds": [
          10135095
        ],
        "postalCode": "L5C4N5",
        "streetName": "WAKEFIELD",
        "streetDirectionId": null,
        "streetTypeId": "CRES",
        "placeName": "MISSISSAUGA",
        "streetNameDisplayText": "WAKEFIELD CRES, MISSISSAUGA"
      }
    ]
  },
  {
    "postal": "L5C8T3",
    "result": []
  },
  {
    "postal": "L5C1V2",
    "result": [
      {
        "electoralDistricts": [
          {
            "election": null,
            "id": 63,
            "name": "Mississauga—Lakeshore"
          }
        ],
        "pollDivisionIds": [
          10139754
        ],
        "postalCode": "L5C1V2",
        "streetName": "COURRIER",
        "streetDirectionId": null,
        "streetTypeId": "LANE",
        "placeName": "MISSISSAUGA",
        "streetNameDisplayText": "COURRIER LANE, MISSISSAUGA"
      }
    ]
  },
  {
    "postal": "L5C1Y0",
    "result": []
  },
  {
    "postal": "L5C3G6",
    "result": [
      {
        "electoralDistricts": [
          {
            "election": null,
            "id": 63,
            "name": "Mississauga—Lakeshore"
          }
        ],
        "pollDivisionIds": [
          10139756
        ],
        "postalCode": "L5C3G6",
        "streetName": "OSTLER",
        "streetDirectionId": null,
        "streetTypeId": "CRT",
        "placeName": "MISSISSAUGA",
        "streetNameDisplayText": "OSTLER CRT, MISSISSAUGA"
      }
    ]
  },
  {
    "postal": "L5C3H7",
    "result": [
      {
        "electoralDistricts": [
          {
            "election": null,
            "id": 63,
            "name": "Mississauga—Lakeshore"
          }
        ],
        "pollDivisionIds": [
          10139756
        ],
        "postalCode": "L5C3H7",
        "streetName": "CARLANNE",
        "streetDirectionId": null,
        "streetTypeId": "PL",
        "placeName": "MISSISSAUGA",
        "streetNameDisplayText": "CARLANNE PL, MISSISSAUGA"
      }
    ]
  },
  {
    "postal": "L5C7X8",
    "result": []
  },
  {
    "postal": "L5C0C7",
    "result": []
  },
  {
    "postal": "L5C0W9",
    "result": []
  },
  {
    "postal": "L5C8E6",
    "result": []
  },
  {
    "postal": "L5C9Z8",
    "result": []
  },
  {
    "postal": "L5C3P4",
    "result": [
      {
        "electoralDistricts": [
          {
            "election": null,
            "id": 63,
            "name": "Mississauga—Lakeshore"
          }
        ],
        "pollDivisionIds": [
          10139756
        ],
        "postalCode": "L5C3P4",
        "streetName": "CEDARGLEN",
        "streetDirectionId": null,
        "streetTypeId": "GATE",
        "placeName": "MISSISSAUGA",
        "streetNameDisplayText": "CEDARGLEN GATE, MISSISSAUGA"
      }
    ]
  },
  {
    "postal": "L5C6L8",
    "result": []
  },
  {
    "postal": "L5C2R4",
    "result": [
      {
        "electoralDistricts": [
          {
            "election": null,
            "id": 60,
            "name": "Mississauga Centre"
          }
        ],
        "pollDivisionIds": [
          10135096
        ],
        "postalCode": "L5C2R4",
        "streetName": "GRECHEN",
        "streetDirectionId": null,
        "streetTypeId": "RD",
        "placeName": "MISSISSAUGA",
        "streetNameDisplayText": "GRECHEN RD, MISSISSAUGA"
      }
    ]
  },
  {
    "postal": "L5C2W1",
    "result": [
      {
        "electoralDistricts": [
          {
            "election": null,
            "id": 63,
            "name": "Mississauga—Lakeshore"
          }
        ],
        "pollDivisionIds": [
          10139756
        ],
        "postalCode": "L5C2W1",
        "streetName": "CONQUEST",
        "streetDirectionId": null,
        "streetTypeId": "DR",
        "placeName": "MISSISSAUGA",
        "streetNameDisplayText": "CONQUEST DR, MISSISSAUGA"
      }
    ]
  },
  {
    "postal": "L5C9H8",
    "result": []
  },
  {
    "postal": "L5C8X9",
    "result": []
  },
  {
    "postal": "L5C7H4",
    "result": []
  },
  {
    "postal": "L5C3J1",
    "result": [
      {
        "electoralDistricts": [
          {
            "election": null,
            "id": 63,
            "name": "Mississauga—Lakeshore"
          }
        ],
        "pollDivisionIds": [
          10139756
        ],
        "postalCode": "L5C3J1",
        "streetName": "POLLARD",
        "streetDirectionId": null,
        "streetTypeId": "CRT",
        "placeName": "MISSISSAUGA",
        "streetNameDisplayText": "POLLARD CRT, MISSISSAUGA"
      }
    ]
  },
  {
    "postal": "L5C1P4",
    "result": [
      {
        "electoralDistricts": [
          {
            "election": null,
            "id": 60,
            "name": "Mississauga Centre"
          }
        ],
        "pollDivisionIds": [
          10135101
        ],
        "postalCode": "L5C1P4",
        "streetName": "SHADELAND",
        "streetDirectionId": null,
        "streetTypeId": "DR",
        "placeName": "MISSISSAUGA",
        "streetNameDisplayText": "SHADELAND DR, MISSISSAUGA"
      }
    ]
  },
  {
    "postal": "L5C2A3",
    "result": [
      {
        "electoralDistricts": [
          {
            "election": null,
            "id": 60,
            "name": "Mississauga Centre"
          }
        ],
        "pollDivisionIds": [
          10135101
        ],
        "postalCode": "L5C2A3",
        "streetName": "VALMARIE",
        "streetDirectionId": null,
        "streetTypeId": "AVE",
        "placeName": "MISSISSAUGA",
        "streetNameDisplayText": "VALMARIE AVE, MISSISSAUGA"
      }
    ]
  },
  {
    "postal": "L5C0Z1",
    "result": []
  },
  {
    "postal": "L5C1C1",
    "result": []
  },
  {
    "postal": "L5C0H3",
    "result": []
  },
  {
    "postal": "L5C7B0",
    "result": []
  },
  {
    "postal": "L5C5K2",
    "result": []
  },
  {
    "postal": "L5C1E9",
    "result": [
      {
        "electoralDistricts": [
          {
            "election": null,
            "id": 63,
            "name": "Mississauga—Lakeshore"
          }
        ],
        "pollDivisionIds": [
          10139756
        ],
        "postalCode": "L5C1E9",
        "streetName": "DUNDAS",
        "streetDirectionId": null,
        "streetTypeId": "CRES",
        "placeName": "MISSISSAUGA",
        "streetNameDisplayText": "DUNDAS CRES, MISSISSAUGA"
      }
    ]
  },
  {
    "postal": "L5C9W7",
    "result": []
  },
  {
    "postal": "L5C5W6",
    "result": []
  },
  {
    "postal": "L5C6S6",
    "result": []
  },
  {
    "postal": "L5C2P8",
    "result": [
      {
        "electoralDistricts": [
          {
            "election": null,
            "id": 63,
            "name": "Mississauga—Lakeshore"
          }
        ],
        "pollDivisionIds": [
          10139756
        ],
        "postalCode": "L5C2P8",
        "streetName": "JARVIS",
        "streetDirectionId": null,
        "streetTypeId": "ST",
        "placeName": "MISSISSAUGA",
        "streetNameDisplayText": "JARVIS ST, MISSISSAUGA"
      }
    ]
  },
  {
    "postal": "L5C4P8",
    "result": [
      {
        "electoralDistricts": [
          {
            "election": null,
            "id": 60,
            "name": "Mississauga Centre"
          }
        ],
        "pollDivisionIds": [
          10135096
        ],
        "postalCode": "L5C4P8",
        "streetName": "SEMENYK",
        "streetDirectionId": null,
        "streetTypeId": "CRT",
        "placeName": "MISSISSAUGA",
        "streetNameDisplayText": "SEMENYK CRT, MISSISSAUGA"
      }
    ]
  },
  {
    "postal": "L5C0V9",
    "result": []
  },
  {
    "postal": "L5C5Y2",
    "result": []
  },
  {
    "postal": "L5C7Z7",
    "result": []
  },
  {
    "postal": "L5C6Y8",
    "result": []
  },
  {
    "postal": "L5C2G7",
    "result": [
      {
        "electoralDistricts": [
          {
            "election": null,
            "id": 60,
            "name": "Mississauga Centre"
          }
        ],
        "pollDivisionIds": [
          10135104
        ],
        "postalCode": "L5C2G7",
        "streetName": "QUEENSTON",
        "streetDirectionId": null,
        "streetTypeId": "DR",
        "placeName": "MISSISSAUGA",
        "streetNameDisplayText": "QUEENSTON DR, MISSISSAUGA"
      }
    ]
  },
  {
    "postal": "L5C8C1",
    "result": []
  },
  {
    "postal": "L5C5C5",
    "result": []
  },
  {
    "postal": "L5C2X8",
    "result": [
      {
        "electoralDistricts": [
          {
            "election": null,
            "id": 63,
            "name": "Mississauga—Lakeshore"
          }
        ],
        "pollDivisionIds": [
          10139756
        ],
        "postalCode": "L5C2X8",
        "streetName": "AVONGATE",
        "streetDirectionId": null,
        "streetTypeId": "DR",
        "placeName": "MISSISSAUGA",
        "streetNameDisplayText": "AVONGATE DR, MISSISSAUGA"
      }
    ]
  },
  {
    "postal": "L5C1W5",
    "result": [
      {
        "electoralDistricts": [
          {
            "election": null,
            "id": 63,
            "name": "Mississauga—Lakeshore"
          }
        ],
        "pollDivisionIds": [
          10139754
        ],
        "postalCode": "L5C1W5",
        "streetName": "SHARDAWN",
        "streetDirectionId": null,
        "streetTypeId": "MEWS",
        "placeName": "MISSISSAUGA",
        "streetNameDisplayText": "SHARDAWN MEWS, MISSISSAUGA"
      }
    ]
  },
  {
    "postal": "L5C7G0",
    "result": []
  },
  {
    "postal": "L5C8J8",
    "result": []
  },
  {
    "postal": "L5C3Y0",
    "result": []
  },
  {
    "postal": "L5C9T7",
    "result": []
  },
  {
    "postal": "L5C5P4",
    "result": []
  },
  {
    "postal": "L5C4B0",
    "result": []
  },
  {
    "postal": "L5C9N8",
    "result": []
  },
  {
    "postal": "L5C4A7",
    "result": []
  },
  {
    "postal": "L5C4H9",
    "result": [
      {
        "electoralDistricts": [
          {
            "election": null,
            "id": 60,
            "name": "Mississauga Centre"
          }
        ],
        "pollDivisionIds": [
          10135095
        ],
        "postalCode": "L5C4H9",
        "streetName": "MURRAY HILL",
        "streetDirectionId": null,
        "streetTypeId": "CRES",
        "placeName": "MISSISSAUGA",
        "streetNameDisplayText": "MURRAY HILL CRES, MISSISSAUGA"
      }
    ]
  },
  {
    "postal": "L5C6X1",
    "result": []
  },
  {
    "postal": "L5C9Y7",
    "result": []
  },
  {
    "postal": "L5C2Y5",
    "result": [
      {
        "electoralDistricts": [
          {
            "election": null,
            "id": 63,
            "name": "Mississauga—Lakeshore"
          }
        ],
        "pollDivisionIds": [
          10139756
        ],
        "postalCode": "L5C2Y5",
        "streetName": "RAVENSTHORPE",
        "streetDirectionId": null,
        "streetTypeId": "CRES",
        "placeName": "MISSISSAUGA",
        "streetNameDisplayText": "RAVENSTHORPE CRES, MISSISSAUGA"
      }
    ]
  },
  {
    "postal": "L5C8L7",
    "result": []
  },
  {
    "postal": "L5C2A8",
    "result": [
      {
        "electoralDistricts": [
          {
            "election": null,
            "id": 60,
            "name": "Mississauga Centre"
          }
        ],
        "pollDivisionIds": [
          10135101
        ],
        "postalCode": "L5C2A8",
        "streetName": "VALMARIE",
        "streetDirectionId": null,
        "streetTypeId": "AVE",
        "placeName": "MISSISSAUGA",
        "streetNameDisplayText": "VALMARIE AVE, MISSISSAUGA"
      }
    ]
  },
  {
    "postal": "L5C2K9",
    "result": [
      {
        "electoralDistricts": [
          {
            "election": null,
            "id": 60,
            "name": "Mississauga Centre"
          }
        ],
        "pollDivisionIds": [
          10135104
        ],
        "postalCode": "L5C2K9",
        "streetName": "THE CREDIT WOODLANDS",
        "streetDirectionId": null,
        "streetTypeId": null,
        "placeName": "MISSISSAUGA",
        "streetNameDisplayText": "THE CREDIT WOODLANDS, MISSISSAUGA"
      }
    ]
  },
  {
    "postal": "L5C3E5",
    "result": [
      {
        "electoralDistricts": [
          {
            "election": null,
            "id": 63,
            "name": "Mississauga—Lakeshore"
          }
        ],
        "pollDivisionIds": [
          10139756
        ],
        "postalCode": "L5C3E5",
        "streetName": "LANDAU",
        "streetDirectionId": null,
        "streetTypeId": "CRT",
        "placeName": "MISSISSAUGA",
        "streetNameDisplayText": "LANDAU CRT, MISSISSAUGA"
      }
    ]
  },
  {
    "postal": "L5C8N6",
    "result": []
  },
  {
    "postal": "L5C8J4",
    "result": []
  },
  {
    "postal": "L5C4R7",
    "result": []
  },
  {
    "postal": "L5C9K1",
    "result": []
  },
  {
    "postal": "L5C8E1",
    "result": []
  },
  {
    "postal": "L5C0R1",
    "result": []
  },
  {
    "postal": "L5C4J3",
    "result": [
      {
        "electoralDistricts": [
          {
            "election": null,
            "id": 60,
            "name": "Mississauga Centre"
          }
        ],
        "pollDivisionIds": [
          10135095
        ],
        "postalCode": "L5C4J3",
        "streetName": "MELIA",
        "streetDirectionId": null,
        "streetTypeId": "DR",
        "placeName": "MISSISSAUGA",
        "streetNameDisplayText": "MELIA DR, MISSISSAUGA"
      },
      {
        "electoralDistricts": [
          {
            "election": null,
            "id": 60,
            "name": "Mississauga Centre"
          }
        ],
        "pollDivisionIds": [
          10135095
        ],
        "postalCode": "L5C4J3",
        "streetName": "QUINPOOL",
        "streetDirectionId": null,
        "streetTypeId": "CRT",
        "placeName": "MISSISSAUGA",
        "streetNameDisplayText": "QUINPOOL CRT, MISSISSAUGA"
      }
    ]
  },
  {
    "postal": "L5C7E7",
    "result": []
  },
  {
    "postal": "L5C0J0",
    "result": []
  },
  {
    "postal": "L5C7R8",
    "result": []
  },
  {
    "postal": "L5C9X0",
    "result": []
  },
  {
    "postal": "L5C7P6",
    "result": []
  },
  {
    "postal": "L5C0R7",
    "result": []
  },
  {
    "postal": "L5C5W1",
    "result": []
  },
  {
    "postal": "L5C0K4",
    "result": []
  },
  {
    "postal": "L5C7N9",
    "result": []
  },
  {
    "postal": "L5C1N0",
    "result": []
  },
  {
    "postal": "L5C6P3",
    "result": []
  },
  {
    "postal": "L5C5A1",
    "result": []
  },
  {
    "postal": "L5C9M9",
    "result": []
  },
  {
    "postal": "L5C7T6",
    "result": []
  },
  {
    "postal": "L5C3X0",
    "result": []
  },
  {
    "postal": "L5C2T0",
    "result": []
  },
  {
    "postal": "L5C5X9",
    "result": []
  },
  {
    "postal": "L5C2R3",
    "result": []
  },
  {
    "postal": "L5C5N2",
    "result": []
  },
  {
    "postal": "L5C4Y7",
    "result": []
  },
  {
    "postal": "L5C7M0",
    "result": []
  },
  {
    "postal": "L5C8P3",
    "result": []
  },
  {
    "postal": "L5C3N3",
    "result": [
      {
        "electoralDistricts": [
          {
            "election": null,
            "id": 60,
            "name": "Mississauga Centre"
          }
        ],
        "pollDivisionIds": [
          10135095
        ],
        "postalCode": "L5C3N3",
        "streetName": "BLACK WILLOW",
        "streetDirectionId": null,
        "streetTypeId": "CRT",
        "placeName": "MISSISSAUGA",
        "streetNameDisplayText": "BLACK WILLOW CRT, MISSISSAUGA"
      },
      {
        "electoralDistricts": [
          {
            "election": null,
            "id": 60,
            "name": "Mississauga Centre"
          }
        ],
        "pollDivisionIds": [
          10135095
        ],
        "postalCode": "L5C3N3",
        "streetName": "BLACKWILLOW",
        "streetDirectionId": null,
        "streetTypeId": "CRT",
        "placeName": "MISSISSAUGA",
        "streetNameDisplayText": "BLACKWILLOW CRT, MISSISSAUGA"
      }
    ]
  },
  {
    "postal": "L5C7S3",
    "result": []
  },
  {
    "postal": "L5C3V9",
    "result": [
      {
        "electoralDistricts": [
          {
            "election": null,
            "id": 60,
            "name": "Mississauga Centre"
          }
        ],
        "pollDivisionIds": [
          10135095
        ],
        "postalCode": "L5C3V9",
        "streetName": "BEACON",
        "streetDirectionId": null,
        "streetTypeId": "LANE",
        "placeName": "MISSISSAUGA",
        "streetNameDisplayText": "BEACON LANE, MISSISSAUGA"
      },
      {
        "electoralDistricts": [
          {
            "election": null,
            "id": 60,
            "name": "Mississauga Centre"
          }
        ],
        "pollDivisionIds": [
          10135095
        ],
        "postalCode": "L5C3V9",
        "streetName": "BEACON",
        "streetDirectionId": null,
        "streetTypeId": "LANE",
        "placeName": "MISSISSAUGA, ON",
        "streetNameDisplayText": "BEACON LANE, MISSISSAUGA, ON"
      }
    ]
  },
  {
    "postal": "L5C9N7",
    "result": []
  },
  {
    "postal": "L5C0G4",
    "result": []
  },
  {
    "postal": "L5C2E2",
    "result": [
      {
        "electoralDistricts": [
          {
            "election": null,
            "id": 60,
            "name": "Mississauga Centre"
          }
        ],
        "pollDivisionIds": [
          10135101,
          10135104
        ],
        "postalCode": "L5C2E2",
        "streetName": "FELLMORE",
        "streetDirectionId": null,
        "streetTypeId": "DR",
        "placeName": "MISSISSAUGA",
        "streetNameDisplayText": "FELLMORE DR, MISSISSAUGA"
      }
    ]
  },
  {
    "postal": "L5C7W8",
    "result": []
  },
  {
    "postal": "L5C7M5",
    "result": []
  },
  {
    "postal": "L5C5W8",
    "result": []
  },
  {
    "postal": "L5C5E5",
    "result": []
  },
  {
    "postal": "L5C1P9",
    "result": [
      {
        "electoralDistricts": [
          {
            "election": null,
            "id": 60,
            "name": "Mississauga Centre"
          }
        ],
        "pollDivisionIds": [
          10135101
        ],
        "postalCode": "L5C1P9",
        "streetName": "CHADA",
        "streetDirectionId": null,
        "streetTypeId": "AVE",
        "placeName": "MISSISSAUGA",
        "streetNameDisplayText": "CHADA AVE, MISSISSAUGA"
      }
    ]
  },
  {
    "postal": "L5C8V8",
    "result": []
  },
  {
    "postal": "L5C9G8",
    "result": []
  },
  {
    "postal": "L5C8H9",
    "result": []
  },
  {
    "postal": "L5C1Z1",
    "result": [
      {
        "electoralDistricts": [
          {
            "election": null,
            "id": 60,
            "name": "Mississauga Centre"
          }
        ],
        "pollDivisionIds": [
          10135101
        ],
        "postalCode": "L5C1Z1",
        "streetName": "IBBETSON",
        "streetDirectionId": null,
        "streetTypeId": "CRES",
        "placeName": "MISSISSAUGA",
        "streetNameDisplayText": "IBBETSON CRES, MISSISSAUGA"
      }
    ]
  },
  {
    "postal": "L5C8M3",
    "result": []
  },
  {
    "postal": "L5C5H6",
    "result": []
  },
  {
    "postal": "L5C7W7",
    "result": []
  },
  {
    "postal": "L5C4L0",
    "result": []
  },
  {
    "postal": "L5C2N1",
    "result": [
      {
        "electoralDistricts": [
          {
            "election": null,
            "id": 60,
            "name": "Mississauga Centre"
          }
        ],
        "pollDivisionIds": [
          10135104
        ],
        "postalCode": "L5C2N1",
        "streetName": "ENNISKILLEN",
        "streetDirectionId": null,
        "streetTypeId": "CIR",
        "placeName": "MISSISSAUGA",
        "streetNameDisplayText": "ENNISKILLEN CIR, MISSISSAUGA"
      }
    ]
  },
  {
    "postal": "L5C2H4",
    "result": [
      {
        "electoralDistricts": [
          {
            "election": null,
            "id": 60,
            "name": "Mississauga Centre"
          }
        ],
        "pollDivisionIds": [
          10135104
        ],
        "postalCode": "L5C2H4",
        "streetName": "QUEENSTON",
        "streetDirectionId": null,
        "streetTypeId": "DR",
        "placeName": "MISSISSAUGA",
        "streetNameDisplayText": "QUEENSTON DR, MISSISSAUGA"
      }
    ]
  },
  {
    "postal": "L5C5C8",
    "result": []
  },
  {
    "postal": "L5C8B0",
    "result": []
  },
  {
    "postal": "L5C1T4",
    "result": []
  },
  {
    "postal": "L5C7N7",
    "result": []
  },
  {
    "postal": "L5C4L3",
    "result": [
      {
        "electoralDistricts": [
          {
            "election": null,
            "id": 60,
            "name": "Mississauga Centre"
          }
        ],
        "pollDivisionIds": [
          10135095
        ],
        "postalCode": "L5C4L3",
        "streetName": "RATHBURN",
        "streetDirectionId": "W",
        "streetTypeId": "RD",
        "placeName": "MISSISSAUGA",
        "streetNameDisplayText": "RATHBURN RD W, MISSISSAUGA"
      }
    ]
  },
  {
    "postal": "L5C2N2",
    "result": [
      {
        "electoralDistricts": [
          {
            "election": null,
            "id": 60,
            "name": "Mississauga Centre"
          }
        ],
        "pollDivisionIds": [
          10135104
        ],
        "postalCode": "L5C2N2",
        "streetName": "GALLAGER",
        "streetDirectionId": null,
        "streetTypeId": "DR",
        "placeName": "MISSISSAUGA",
        "streetNameDisplayText": "GALLAGER DR, MISSISSAUGA"
      }
    ]
  },
  {
    "postal": "L5C4N8",
    "result": [
      {
        "electoralDistricts": [
          {
            "election": null,
            "id": 63,
            "name": "Mississauga—Lakeshore"
          }
        ],
        "pollDivisionIds": [
          10139756
        ],
        "postalCode": "L5C4N8",
        "streetName": "HURONDALE",
        "streetDirectionId": null,
        "streetTypeId": "DR",
        "placeName": "MISSISSAUGA",
        "streetNameDisplayText": "HURONDALE DR, MISSISSAUGA"
      }
    ]
  },
  {
    "postal": "L5C3M5",
    "result": [
      {
        "electoralDistricts": [
          {
            "election": null,
            "id": 63,
            "name": "Mississauga—Lakeshore"
          }
        ],
        "pollDivisionIds": [
          10139756
        ],
        "postalCode": "L5C3M5",
        "streetName": "FIELDSTONE",
        "streetDirectionId": null,
        "streetTypeId": "RD",
        "placeName": "MISSISSAUGA",
        "streetNameDisplayText": "FIELDSTONE RD, MISSISSAUGA"
      }
    ]
  },
  {
    "postal": "L5C6H7",
    "result": []
  },
  {
    "postal": "L5C8Y8",
    "result": []
  },
  {
    "postal": "L5C5R9",
    "result": []
  },
  {
    "postal": "L5C8G3",
    "result": []
  },
  {
    "postal": "L5C4N7",
    "result": [
      {
        "electoralDistricts": [
          {
            "election": null,
            "id": 63,
            "name": "Mississauga—Lakeshore"
          }
        ],
        "pollDivisionIds": [
          10139756
        ],
        "postalCode": "L5C4N7",
        "streetName": "HURONDALE",
        "streetDirectionId": null,
        "streetTypeId": "DR",
        "placeName": "MISSISSAUGA",
        "streetNameDisplayText": "HURONDALE DR, MISSISSAUGA"
      }
    ]
  },
  {
    "postal": "L5C0B9",
    "result": []
  },
  {
    "postal": "L5C9K7",
    "result": []
  },
  {
    "postal": "L5C9K9",
    "result": []
  },
  {
    "postal": "L5C3Z2",
    "result": [
      {
        "electoralDistricts": [
          {
            "election": null,
            "id": 60,
            "name": "Mississauga Centre"
          }
        ],
        "pollDivisionIds": [
          10135095
        ],
        "postalCode": "L5C3Z2",
        "streetName": "ERINDALE STATION",
        "streetDirectionId": null,
        "streetTypeId": "RD",
        "placeName": "MISSISSAUGA",
        "streetNameDisplayText": "ERINDALE STATION RD, MISSISSAUGA"
      }
    ]
  },
  {
    "postal": "L5C6W7",
    "result": []
  },
  {
    "postal": "L5C0P1",
    "result": []
  },
  {
    "postal": "L5C3A0",
    "result": []
  },
  {
    "postal": "L5C8L9",
    "result": []
  },
  {
    "postal": "L5C6X0",
    "result": []
  },
  {
    "postal": "L5C3E9",
    "result": [
      {
        "electoralDistricts": [
          {
            "election": null,
            "id": 63,
            "name": "Mississauga—Lakeshore"
          }
        ],
        "pollDivisionIds": [
          10139756
        ],
        "postalCode": "L5C3E9",
        "streetName": "MORRISON",
        "streetDirectionId": null,
        "streetTypeId": "AVE",
        "placeName": "MISSISSAUGA",
        "streetNameDisplayText": "MORRISON AVE, MISSISSAUGA"
      }
    ]
  },
  {
    "postal": "L5C0S5",
    "result": []
  },
  {
    "postal": "L5C1A2",
    "result": [
      {
        "electoralDistricts": [
          {
            "election": null,
            "id": 63,
            "name": "Mississauga—Lakeshore"
          }
        ],
        "pollDivisionIds": [
          10139754
        ],
        "postalCode": "L5C1A2",
        "streetName": "SIR RICHARD'S",
        "streetDirectionId": null,
        "streetTypeId": "RD",
        "placeName": "MISSISSAUGA",
        "streetNameDisplayText": "SIR RICHARD'S RD, MISSISSAUGA"
      }
    ]
  },
  {
    "postal": "L5C5V8",
    "result": []
  },
  {
    "postal": "L5C8C5",
    "result": []
  },
  {
    "postal": "L5C6N0",
    "result": []
  },
  {
    "postal": "L5C9E6",
    "result": []
  },
  {
    "postal": "L5C5J7",
    "result": []
  },
  {
    "postal": "L5C2R2",
    "result": [
      {
        "electoralDistricts": [
          {
            "election": null,
            "id": 63,
            "name": "Mississauga—Lakeshore"
          }
        ],
        "pollDivisionIds": [
          10139756
        ],
        "postalCode": "L5C2R2",
        "streetName": "MINDEMOYA",
        "streetDirectionId": null,
        "streetTypeId": "RD",
        "placeName": "MISSISSAUGA",
        "streetNameDisplayText": "MINDEMOYA RD, MISSISSAUGA"
      }
    ]
  },
  {
    "postal": "L5C0P5",
    "result": []
  },
  {
    "postal": "L5C5A7",
    "result": []
  },
  {
    "postal": "L5C1G1",
    "result": [
      {
        "electoralDistricts": [
          {
            "election": null,
            "id": 60,
            "name": "Mississauga Centre"
          }
        ],
        "pollDivisionIds": [
          10135097
        ],
        "postalCode": "L5C1G1",
        "streetName": "STAINTON",
        "streetDirectionId": null,
        "streetTypeId": "DR",
        "placeName": "MISSISSAUGA",
        "streetNameDisplayText": "STAINTON DR, MISSISSAUGA"
      }
    ]
  },
  {
    "postal": "L5C9R6",
    "result": []
  },
  {
    "postal": "L5C4Z9",
    "result": []
  },
  {
    "postal": "L5C1V5",
    "result": [
      {
        "electoralDistricts": [
          {
            "election": null,
            "id": 63,
            "name": "Mississauga—Lakeshore"
          }
        ],
        "pollDivisionIds": [
          10139754
        ],
        "postalCode": "L5C1V5",
        "streetName": "PINENEEDLE",
        "streetDirectionId": null,
        "streetTypeId": "ROW",
        "placeName": "MISSISSAUGA",
        "streetNameDisplayText": "PINENEEDLE ROW, MISSISSAUGA"
      }
    ]
  },
  {
    "postal": "L5C9Y5",
    "result": []
  },
  {
    "postal": "L5C1P2",
    "result": [
      {
        "electoralDistricts": [
          {
            "election": null,
            "id": 60,
            "name": "Mississauga Centre"
          }
        ],
        "pollDivisionIds": [
          10135101
        ],
        "postalCode": "L5C1P2",
        "streetName": "SHADELAND",
        "streetDirectionId": null,
        "streetTypeId": "DR",
        "placeName": "MISSISSAUGA",
        "streetNameDisplayText": "SHADELAND DR, MISSISSAUGA"
      }
    ]
  },
  {
    "postal": "L5C5X0",
    "result": []
  },
  {
    "postal": "L5C7B8",
    "result": []
  },
  {
    "postal": "L5C0C6",
    "result": []
  },
  {
    "postal": "L5C6G1",
    "result": []
  },
  {
    "postal": "L5C3K3",
    "result": [
      {
        "electoralDistricts": [
          {
            "election": null,
            "id": 60,
            "name": "Mississauga Centre"
          }
        ],
        "pollDivisionIds": [
          10135095
        ],
        "postalCode": "L5C3K3",
        "streetName": "QUEENSBRIDGE",
        "streetDirectionId": null,
        "streetTypeId": "DR",
        "placeName": "MISSISSAUGA",
        "streetNameDisplayText": "QUEENSBRIDGE DR, MISSISSAUGA"
      }
    ]
  },
  {
    "postal": "L5C9R0",
    "result": []
  },
  {
    "postal": "L5C4R8",
    "result": []
  },
  {
    "postal": "L5C5P9",
    "result": []
  },
  {
    "postal": "L5C8N4",
    "result": []
  },
  {
    "postal": "L5C8H4",
    "result": []
  },
  {
    "postal": "L5C4V1",
    "result": []
  },
  {
    "postal": "L5C1K5",
    "result": [
      {
        "electoralDistricts": [
          {
            "election": null,
            "id": 60,
            "name": "Mississauga Centre"
          }
        ],
        "pollDivisionIds": [
          10135101
        ],
        "postalCode": "L5C1K5",
        "streetName": "FAIRDALE",
        "streetDirectionId": null,
        "streetTypeId": "DR",
        "placeName": "MISSISSAUGA",
        "streetNameDisplayText": "FAIRDALE DR, MISSISSAUGA"
      }
    ]
  },
  {
    "postal": "L5C1Z5",
    "result": [
      {
        "electoralDistricts": [
          {
            "election": null,
            "id": 60,
            "name": "Mississauga Centre"
          }
        ],
        "pollDivisionIds": [
          10135101
        ],
        "postalCode": "L5C1Z5",
        "streetName": "ELLENGALE",
        "streetDirectionId": null,
        "streetTypeId": "DR",
        "placeName": "MISSISSAUGA",
        "streetNameDisplayText": "ELLENGALE DR, MISSISSAUGA"
      }
    ]
  },
  {
    "postal": "L5C9L9",
    "result": []
  },
  {
    "postal": "L5C5L2",
    "result": []
  },
  {
    "postal": "L5C0M2",
    "result": []
  },
  {
    "postal": "L5C1K8",
    "result": [
      {
        "electoralDistricts": [
          {
            "election": null,
            "id": 60,
            "name": "Mississauga Centre"
          }
        ],
        "pollDivisionIds": [
          10135096
        ],
        "postalCode": "L5C1K8",
        "streetName": "WESTLOCK",
        "streetDirectionId": null,
        "streetTypeId": "RD",
        "placeName": "MISSISSAUGA",
        "streetNameDisplayText": "WESTLOCK RD, MISSISSAUGA"
      }
    ]
  },
  {
    "postal": "L5C3M7",
    "result": [
      {
        "electoralDistricts": [
          {
            "election": null,
            "id": 60,
            "name": "Mississauga Centre"
          }
        ],
        "pollDivisionIds": [
          10135095
        ],
        "postalCode": "L5C3M7",
        "streetName": "PERIVALE",
        "streetDirectionId": null,
        "streetTypeId": "RD",
        "placeName": "MISSISSAUGA",
        "streetNameDisplayText": "PERIVALE RD, MISSISSAUGA"
      }
    ]
  },
  {
    "postal": "L5C1B2",
    "result": [
      {
        "electoralDistricts": [
          {
            "election": null,
            "id": 63,
            "name": "Mississauga—Lakeshore"
          }
        ],
        "pollDivisionIds": [
          10139756
        ],
        "postalCode": "L5C1B2",
        "streetName": "TALKA",
        "streetDirectionId": null,
        "streetTypeId": "CRT",
        "placeName": "MISSISSAUGA",
        "streetNameDisplayText": "TALKA CRT, MISSISSAUGA"
      }
    ]
  },
  {
    "postal": "L5C0H9",
    "result": []
  },
  {
    "postal": "L5C8M4",
    "result": []
  },
  {
    "postal": "L5C2M5",
    "result": [
      {
        "electoralDistricts": [
          {
            "election": null,
            "id": 60,
            "name": "Mississauga Centre"
          }
        ],
        "pollDivisionIds": [
          10135102,
          10135104
        ],
        "postalCode": "L5C2M5",
        "streetName": "FLANAGAN",
        "streetDirectionId": null,
        "streetTypeId": "CRES",
        "placeName": "MISSISSAUGA",
        "streetNameDisplayText": "FLANAGAN CRES, MISSISSAUGA"
      }
    ]
  },
  {
    "postal": "L5C0T9",
    "result": []
  },
  {
    "postal": "L5C3P1",
    "result": [
      {
        "electoralDistricts": [
          {
            "election": null,
            "id": 63,
            "name": "Mississauga—Lakeshore"
          }
        ],
        "pollDivisionIds": [
          10139756
        ],
        "postalCode": "L5C3P1",
        "streetName": "CULVER",
        "streetDirectionId": null,
        "streetTypeId": "WAY",
        "placeName": "MISSISSAUGA",
        "streetNameDisplayText": "CULVER WAY, MISSISSAUGA"
      }
    ]
  },
  {
    "postal": "L5C1R6",
    "result": [
      {
        "electoralDistricts": [
          {
            "election": null,
            "id": 60,
            "name": "Mississauga Centre"
          }
        ],
        "pollDivisionIds": [
          10135104
        ],
        "postalCode": "L5C1R6",
        "streetName": "ASHINGTON",
        "streetDirectionId": null,
        "streetTypeId": "CRT",
        "placeName": "MISSISSAUGA",
        "streetNameDisplayText": "ASHINGTON CRT, MISSISSAUGA"
      }
    ]
  },
  {
    "postal": "L5C9V5",
    "result": []
  },
  {
    "postal": "L5C9T0",
    "result": []
  },
  {
    "postal": "L5C0A9",
    "result": []
  },
  {
    "postal": "L5C1M3",
    "result": [
      {
        "electoralDistricts": [
          {
            "election": null,
            "id": 60,
            "name": "Mississauga Centre"
          }
        ],
        "pollDivisionIds": [
          10135096
        ],
        "postalCode": "L5C1M3",
        "streetName": "MCBRIDE",
        "streetDirectionId": null,
        "streetTypeId": "AVE",
        "placeName": "MISSISSAUGA",
        "streetNameDisplayText": "MCBRIDE AVE, MISSISSAUGA"
      }
    ]
  },
  {
    "postal": "L5C1W8",
    "result": [
      {
        "electoralDistricts": [
          {
            "election": null,
            "id": 60,
            "name": "Mississauga Centre"
          }
        ],
        "pollDivisionIds": [
          10135096
        ],
        "postalCode": "L5C1W8",
        "streetName": "STRABANE",
        "streetDirectionId": null,
        "streetTypeId": "DR",
        "placeName": "MISSISSAUGA",
        "streetNameDisplayText": "STRABANE DR, MISSISSAUGA"
      }
    ]
  },
  {
    "postal": "L5C9J1",
    "result": []
  },
  {
    "postal": "L5C8N5",
    "result": []
  },
  {
    "postal": "L5C5X1",
    "result": []
  },
  {
    "postal": "L5C6S2",
    "result": []
  },
  {
    "postal": "L5C2A2",
    "result": [
      {
        "electoralDistricts": [
          {
            "election": null,
            "id": 60,
            "name": "Mississauga Centre"
          }
        ],
        "pollDivisionIds": [
          10135101
        ],
        "postalCode": "L5C2A2",
        "streetName": "VALMARIE",
        "streetDirectionId": null,
        "streetTypeId": "AVE",
        "placeName": "MISSISSAUGA",
        "streetNameDisplayText": "VALMARIE AVE, MISSISSAUGA"
      }
    ]
  },
  {
    "postal": "L5C6A6",
    "result": []
  },
  {
    "postal": "L5C0S3",
    "result": []
  },
  {
    "postal": "L5C3E7",
    "result": [
      {
        "electoralDistricts": [
          {
            "election": null,
            "id": 63,
            "name": "Mississauga—Lakeshore"
          }
        ],
        "pollDivisionIds": [
          10139756
        ],
        "postalCode": "L5C3E7",
        "streetName": "MORRISON",
        "streetDirectionId": null,
        "streetTypeId": "AVE",
        "placeName": "MISSISSAUGA",
        "streetNameDisplayText": "MORRISON AVE, MISSISSAUGA"
      }
    ]
  },
  {
    "postal": "L5C5R7",
    "result": []
  },
  {
    "postal": "L5C3R6",
    "result": [
      {
        "electoralDistricts": [
          {
            "election": null,
            "id": 60,
            "name": "Mississauga Centre"
          }
        ],
        "pollDivisionIds": [
          10135095
        ],
        "postalCode": "L5C3R6",
        "streetName": "DEER",
        "streetDirectionId": null,
        "streetTypeId": "RUN",
        "placeName": "MISSISSAUGA",
        "streetNameDisplayText": "DEER RUN, MISSISSAUGA"
      }
    ]
  },
  {
    "postal": "L5C6K4",
    "result": []
  },
  {
    "postal": "L5C2W5",
    "result": [
      {
        "electoralDistricts": [
          {
            "election": null,
            "id": 63,
            "name": "Mississauga—Lakeshore"
          }
        ],
        "pollDivisionIds": [
          10139756
        ],
        "postalCode": "L5C2W5",
        "streetName": "FREDONIA",
        "streetDirectionId": null,
        "streetTypeId": "DR",
        "placeName": "MISSISSAUGA",
        "streetNameDisplayText": "FREDONIA DR, MISSISSAUGA"
      }
    ]
  },
  {
    "postal": "L5C8W4",
    "result": []
  },
  {
    "postal": "L5C9C2",
    "result": []
  },
  {
    "postal": "L5C2C0",
    "result": []
  },
  {
    "postal": "L5C0E1",
    "result": []
  },
  {
    "postal": "L5C1K9",
    "result": [
      {
        "electoralDistricts": [
          {
            "election": null,
            "id": 60,
            "name": "Mississauga Centre"
          }
        ],
        "pollDivisionIds": [
          10135101
        ],
        "postalCode": "L5C1K9",
        "streetName": "IBBETSON",
        "streetDirectionId": null,
        "streetTypeId": "CRES",
        "placeName": "MISSISSAUGA",
        "streetNameDisplayText": "IBBETSON CRES, MISSISSAUGA"
      }
    ]
  },
  {
    "postal": "L5C1G7",
    "result": [
      {
        "electoralDistricts": [
          {
            "election": null,
            "id": 60,
            "name": "Mississauga Centre"
          }
        ],
        "pollDivisionIds": [
          10135097
        ],
        "postalCode": "L5C1G7",
        "streetName": "FORESTWOOD",
        "streetDirectionId": null,
        "streetTypeId": "DR",
        "placeName": "MISSISSAUGA",
        "streetNameDisplayText": "FORESTWOOD DR, MISSISSAUGA"
      }
    ]
  },
  {
    "postal": "L5C4E9",
    "result": []
  },
  {
    "postal": "L5C9P0",
    "result": []
  },
  {
    "postal": "L5C5H3",
    "result": []
  },
  {
    "postal": "L5C9X6",
    "result": []
  },
  {
    "postal": "L5C5N7",
    "result": []
  },
  {
    "postal": "L5C5A6",
    "result": []
  },
  {
    "postal": "L5C4M0",
    "result": []
  },
  {
    "postal": "L5C3V6",
    "result": [
      {
        "electoralDistricts": [
          {
            "election": null,
            "id": 60,
            "name": "Mississauga Centre"
          }
        ],
        "pollDivisionIds": [
          10135095
        ],
        "postalCode": "L5C3V6",
        "streetName": "PERIVALE",
        "streetDirectionId": null,
        "streetTypeId": "RD",
        "placeName": "MISSISSAUGA",
        "streetNameDisplayText": "PERIVALE RD, MISSISSAUGA"
      }
    ]
  },
  {
    "postal": "L5C1L7",
    "result": [
      {
        "electoralDistricts": [
          {
            "election": null,
            "id": 60,
            "name": "Mississauga Centre"
          }
        ],
        "pollDivisionIds": [
          10135096
        ],
        "postalCode": "L5C1L7",
        "streetName": "MCBRIDE",
        "streetDirectionId": null,
        "streetTypeId": "AVE",
        "placeName": "MISSISSAUGA",
        "streetNameDisplayText": "MCBRIDE AVE, MISSISSAUGA"
      }
    ]
  },
  {
    "postal": "L5C2P9",
    "result": [
      {
        "electoralDistricts": [
          {
            "election": null,
            "id": 63,
            "name": "Mississauga—Lakeshore"
          }
        ],
        "pollDivisionIds": [
          10139756
        ],
        "postalCode": "L5C2P9",
        "streetName": "JARVIS",
        "streetDirectionId": null,
        "streetTypeId": "ST",
        "placeName": "MISSISSAUGA",
        "streetNameDisplayText": "JARVIS ST, MISSISSAUGA"
      }
    ]
  },
  {
    "postal": "L5C5T4",
    "result": []
  },
  {
    "postal": "L5C5Z1",
    "result": []
  },
  {
    "postal": "L5C2X0",
    "result": []
  },
  {
    "postal": "L5C6Z2",
    "result": []
  },
  {
    "postal": "L5C0E0",
    "result": []
  },
  {
    "postal": "L5C3Z5",
    "result": [
      {
        "electoralDistricts": [
          {
            "election": null,
            "id": 63,
            "name": "Mississauga—Lakeshore"
          }
        ],
        "pollDivisionIds": [
          10139756
        ],
        "postalCode": "L5C3Z5",
        "streetName": "CEDARGLEN",
        "streetDirectionId": null,
        "streetTypeId": "GATE",
        "placeName": "MISSISSAUGA",
        "streetNameDisplayText": "CEDARGLEN GATE, MISSISSAUGA"
      }
    ]
  },
  {
    "postal": "L5C8H3",
    "result": []
  },
  {
    "postal": "L5C7S6",
    "result": []
  },
  {
    "postal": "L5C4C1",
    "result": []
  },
  {
    "postal": "L5C3K2",
    "result": [
      {
        "electoralDistricts": [
          {
            "election": null,
            "id": 60,
            "name": "Mississauga Centre"
          }
        ],
        "pollDivisionIds": [
          10135095
        ],
        "postalCode": "L5C3K2",
        "streetName": "MAGNOLIA",
        "streetDirectionId": null,
        "streetTypeId": "CRT",
        "placeName": "MISSISSAUGA",
        "streetNameDisplayText": "MAGNOLIA CRT, MISSISSAUGA"
      }
    ]
  },
  {
    "postal": "L5C1Y5",
    "result": [
      {
        "electoralDistricts": [
          {
            "election": null,
            "id": 60,
            "name": "Mississauga Centre"
          }
        ],
        "pollDivisionIds": [
          10135097
        ],
        "postalCode": "L5C1Y5",
        "streetName": "ERINDALE STATION",
        "streetDirectionId": null,
        "streetTypeId": "RD",
        "placeName": "MISSISSAUGA",
        "streetNameDisplayText": "ERINDALE STATION RD, MISSISSAUGA"
      }
    ]
  },
  {
    "postal": "L5C6P6",
    "result": []
  },
  {
    "postal": "L5C3N9",
    "result": [
      {
        "electoralDistricts": [
          {
            "election": null,
            "id": 63,
            "name": "Mississauga—Lakeshore"
          }
        ],
        "pollDivisionIds": [
          10139756
        ],
        "postalCode": "L5C3N9",
        "streetName": "MORRISON",
        "streetDirectionId": null,
        "streetTypeId": "AVE",
        "placeName": "MISSISSAUGA",
        "streetNameDisplayText": "MORRISON AVE, MISSISSAUGA"
      }
    ]
  },
  {
    "postal": "L5C3W2",
    "result": [
      {
        "electoralDistricts": [
          {
            "election": null,
            "id": 60,
            "name": "Mississauga Centre"
          }
        ],
        "pollDivisionIds": [
          10135095
        ],
        "postalCode": "L5C3W2",
        "streetName": "GALLOWAY",
        "streetDirectionId": null,
        "streetTypeId": "CRES",
        "placeName": "MISSISSAUGA",
        "streetNameDisplayText": "GALLOWAY CRES, MISSISSAUGA"
      }
    ]
  },
  {
    "postal": "L5C6H8",
    "result": []
  },
  {
    "postal": "L5C9T3",
    "result": []
  },
  {
    "postal": "L5C5L9",
    "result": []
  },
  {
    "postal": "L5C7X7",
    "result": []
  },
  {
    "postal": "L5C3J5",
    "result": [
      {
        "electoralDistricts": [
          {
            "election": null,
            "id": 63,
            "name": "Mississauga—Lakeshore"
          }
        ],
        "pollDivisionIds": [
          10139756
        ],
        "postalCode": "L5C3J5",
        "streetName": "CREDIT WOODLANDS",
        "streetDirectionId": null,
        "streetTypeId": "CRT",
        "placeName": "MISSISSAUGA",
        "streetNameDisplayText": "CREDIT WOODLANDS CRT, MISSISSAUGA"
      }
    ]
  },
  {
    "postal": "L5C4J5",
    "result": [
      {
        "electoralDistricts": [
          {
            "election": null,
            "id": 60,
            "name": "Mississauga Centre"
          }
        ],
        "pollDivisionIds": [
          10135095
        ],
        "postalCode": "L5C4J5",
        "streetName": "MELIA",
        "streetDirectionId": null,
        "streetTypeId": "DR",
        "placeName": "MISSISSAUGA",
        "streetNameDisplayText": "MELIA DR, MISSISSAUGA"
      },
      {
        "electoralDistricts": [
          {
            "election": null,
            "id": 60,
            "name": "Mississauga Centre"
          }
        ],
        "pollDivisionIds": [
          10135095
        ],
        "postalCode": "L5C4J5",
        "streetName": "MURRAY HILL",
        "streetDirectionId": null,
        "streetTypeId": "CRES",
        "placeName": "MISSISSAUGA",
        "streetNameDisplayText": "MURRAY HILL CRES, MISSISSAUGA"
      }
    ]
  },
  {
    "postal": "L5C6J2",
    "result": []
  },
  {
    "postal": "L5C5V6",
    "result": []
  },
  {
    "postal": "L5C3N2",
    "result": [
      {
        "electoralDistricts": [
          {
            "election": null,
            "id": 60,
            "name": "Mississauga Centre"
          }
        ],
        "pollDivisionIds": [
          10135095
        ],
        "postalCode": "L5C3N2",
        "streetName": "BLACK WILLOW",
        "streetDirectionId": null,
        "streetTypeId": "CRT",
        "placeName": "MISSISSAUGA",
        "streetNameDisplayText": "BLACK WILLOW CRT, MISSISSAUGA"
      }
    ]
  },
  {
    "postal": "L5C3B1",
    "result": [
      {
        "electoralDistricts": [
          {
            "election": null,
            "id": 60,
            "name": "Mississauga Centre"
          }
        ],
        "pollDivisionIds": [
          10135096
        ],
        "postalCode": "L5C3B1",
        "streetName": "CENTRAL",
        "streetDirectionId": "W",
        "streetTypeId": "PKY",
        "placeName": "MISSISSAUGA",
        "streetNameDisplayText": "CENTRAL PKY W, MISSISSAUGA"
      }
    ]
  },
  {
    "postal": "L5C8B5",
    "result": []
  },
  {
    "postal": "L5C0K1",
    "result": []
  },
  {
    "postal": "L5C7M7",
    "result": []
  },
  {
    "postal": "L5C2M2",
    "result": [
      {
        "electoralDistricts": [
          {
            "election": null,
            "id": 60,
            "name": "Mississauga Centre"
          }
        ],
        "pollDivisionIds": [
          10135102,
          10135104
        ],
        "postalCode": "L5C2M2",
        "streetName": "CREDIT HEIGHTS",
        "streetDirectionId": null,
        "streetTypeId": "DR",
        "placeName": "MISSISSAUGA",
        "streetNameDisplayText": "CREDIT HEIGHTS DR, MISSISSAUGA"
      }
    ]
  },
  {
    "postal": "L5C9N3",
    "result": []
  },
  {
    "postal": "L5C4Y8",
    "result": []
  },
  {
    "postal": "L5C3V7",
    "result": [
      {
        "electoralDistricts": [
          {
            "election": null,
            "id": 63,
            "name": "Mississauga—Lakeshore"
          }
        ],
        "pollDivisionIds": [
          10139756
        ],
        "postalCode": "L5C3V7",
        "streetName": "CREDIT WOODLANDS",
        "streetDirectionId": null,
        "streetTypeId": "CRT",
        "placeName": "MISSISSAUGA",
        "streetNameDisplayText": "CREDIT WOODLANDS CRT, MISSISSAUGA"
      }
    ]
  },
  {
    "postal": "L5C8Z1",
    "result": []
  },
  {
    "postal": "L5C7B3",
    "result": []
  },
  {
    "postal": "L5C3A8",
    "result": [
      {
        "electoralDistricts": [
          {
            "election": null,
            "id": 63,
            "name": "Mississauga—Lakeshore"
          }
        ],
        "pollDivisionIds": [
          10139756
        ],
        "postalCode": "L5C3A8",
        "streetName": "CEDARGLEN",
        "streetDirectionId": null,
        "streetTypeId": "GATE",
        "placeName": "MISSISSAUGA",
        "streetNameDisplayText": "CEDARGLEN GATE, MISSISSAUGA"
      }
    ]
  },
  {
    "postal": "L5C7V5",
    "result": []
  },
  {
    "postal": "L5C2T2",
    "result": [
      {
        "electoralDistricts": [
          {
            "election": null,
            "id": 60,
            "name": "Mississauga Centre"
          }
        ],
        "pollDivisionIds": [
          10135097
        ],
        "postalCode": "L5C2T2",
        "streetName": "STAINTON",
        "streetDirectionId": null,
        "streetTypeId": "DR",
        "placeName": "MISSISSAUGA",
        "streetNameDisplayText": "STAINTON DR, MISSISSAUGA"
      }
    ]
  },
  {
    "postal": "L5C6L3",
    "result": []
  },
  {
    "postal": "L5C0L2",
    "result": []
  },
  {
    "postal": "L5C5Y8",
    "result": []
  },
  {
    "postal": "L5C0B8",
    "result": []
  },
  {
    "postal": "L5C6R5",
    "result": []
  },
  {
    "postal": "L5C8W6",
    "result": []
  },
  {
    "postal": "L5C8G6",
    "result": []
  },
  {
    "postal": "L5C6X3",
    "result": []
  },
  {
    "postal": "L5C7R7",
    "result": []
  },
  {
    "postal": "L5C4B6",
    "result": []
  },
  {
    "postal": "L5C3P9",
    "result": [
      {
        "electoralDistricts": [
          {
            "election": null,
            "id": 60,
            "name": "Mississauga Centre"
          }
        ],
        "pollDivisionIds": [
          10135095
        ],
        "postalCode": "L5C3P9",
        "streetName": "DEER",
        "streetDirectionId": null,
        "streetTypeId": "RUN",
        "placeName": "MISSISSAUGA",
        "streetNameDisplayText": "DEER RUN, MISSISSAUGA"
      }
    ]
  },
  {
    "postal": "L5C2T3",
    "result": []
  },
  {
    "postal": "L5C1M4",
    "result": [
      {
        "electoralDistricts": [
          {
            "election": null,
            "id": 60,
            "name": "Mississauga Centre"
          }
        ],
        "pollDivisionIds": [
          10135096
        ],
        "postalCode": "L5C1M4",
        "streetName": "MCBRIDE",
        "streetDirectionId": null,
        "streetTypeId": "AVE",
        "placeName": "MISSISSAUGA",
        "streetNameDisplayText": "MCBRIDE AVE, MISSISSAUGA"
      }
    ]
  },
  {
    "postal": "L5C0H1",
    "result": []
  },
  {
    "postal": "L5C9W3",
    "result": []
  },
  {
    "postal": "L5C6P1",
    "result": []
  },
  {
    "postal": "L5C7G2",
    "result": []
  },
  {
    "postal": "L5C4J9",
    "result": [
      {
        "electoralDistricts": [
          {
            "election": null,
            "id": 63,
            "name": "Mississauga—Lakeshore"
          }
        ],
        "pollDivisionIds": [
          10139756
        ],
        "postalCode": "L5C4J9",
        "streetName": "HURON PARK",
        "streetDirectionId": null,
        "streetTypeId": "PL",
        "placeName": "MISSISSAUGA",
        "streetNameDisplayText": "HURON PARK PL, MISSISSAUGA"
      }
    ]
  },
  {
    "postal": "L5C9E4",
    "result": []
  },
  {
    "postal": "L5C8H0",
    "result": []
  },
  {
    "postal": "L5C4M7",
    "result": [
      {
        "electoralDistricts": [
          {
            "election": null,
            "id": 60,
            "name": "Mississauga Centre"
          }
        ],
        "pollDivisionIds": [
          10135095
        ],
        "postalCode": "L5C4M7",
        "streetName": "GUILD",
        "streetDirectionId": null,
        "streetTypeId": "CRT",
        "placeName": "MISSISSAUGA",
        "streetNameDisplayText": "GUILD CRT, MISSISSAUGA"
      },
      {
        "electoralDistricts": [
          {
            "election": null,
            "id": 60,
            "name": "Mississauga Centre"
          }
        ],
        "pollDivisionIds": [
          10135095
        ],
        "postalCode": "L5C4M7",
        "streetName": "WAKEFIELD",
        "streetDirectionId": null,
        "streetTypeId": "CRES",
        "placeName": "MISSISSAUGA",
        "streetNameDisplayText": "WAKEFIELD CRES, MISSISSAUGA"
      }
    ]
  },
  {
    "postal": "L5C2G9",
    "result": [
      {
        "electoralDistricts": [
          {
            "election": null,
            "id": 60,
            "name": "Mississauga Centre"
          }
        ],
        "pollDivisionIds": [
          10135104
        ],
        "postalCode": "L5C2G9",
        "streetName": "QUEENSTON",
        "streetDirectionId": null,
        "streetTypeId": "DR",
        "placeName": "MISSISSAUGA",
        "streetNameDisplayText": "QUEENSTON DR, MISSISSAUGA"
      }
    ]
  },
  {
    "postal": "L5C8T2",
    "result": []
  },
  {
    "postal": "L5C7G7",
    "result": []
  },
  {
    "postal": "L5C4Z3",
    "result": []
  },
  {
    "postal": "L5C5B3",
    "result": []
  },
  {
    "postal": "L5C1S7",
    "result": [
      {
        "electoralDistricts": [
          {
            "election": null,
            "id": 60,
            "name": "Mississauga Centre"
          }
        ],
        "pollDivisionIds": [
          10135104
        ],
        "postalCode": "L5C1S7",
        "streetName": "FREEPORT",
        "streetDirectionId": null,
        "streetTypeId": "DR",
        "placeName": "MISSISSAUGA",
        "streetNameDisplayText": "FREEPORT DR, MISSISSAUGA"
      }
    ]
  },
  {
    "postal": "L5C2N7",
    "result": [
      {
        "electoralDistricts": [
          {
            "election": null,
            "id": 60,
            "name": "Mississauga Centre"
          }
        ],
        "pollDivisionIds": [
          10135104
        ],
        "postalCode": "L5C2N7",
        "streetName": "BURNBRAE",
        "streetDirectionId": null,
        "streetTypeId": "DR",
        "placeName": "MISSISSAUGA",
        "streetNameDisplayText": "BURNBRAE DR, MISSISSAUGA"
      }
    ]
  },
  {
    "postal": "L5C0H8",
    "result": []
  },
  {
    "postal": "L5C7Z4",
    "result": []
  },
  {
    "postal": "L5C7B1",
    "result": []
  },
  {
    "postal": "L5C7P8",
    "result": []
  },
  {
    "postal": "L5C7N0",
    "result": []
  },
  {
    "postal": "L5C3Y5",
    "result": [
      {
        "electoralDistricts": [
          {
            "election": null,
            "id": 60,
            "name": "Mississauga Centre"
          }
        ],
        "pollDivisionIds": [
          10135095
        ],
        "postalCode": "L5C3Y5",
        "streetName": "PERIVALE",
        "streetDirectionId": null,
        "streetTypeId": "RD",
        "placeName": "MISSISSAUGA",
        "streetNameDisplayText": "PERIVALE RD, MISSISSAUGA"
      }
    ]
  },
  {
    "postal": "L5C6K1",
    "result": []
  },
  {
    "postal": "L5C9X5",
    "result": []
  },
  {
    "postal": "L5C7S5",
    "result": []
  },
  {
    "postal": "L5C0A4",
    "result": []
  },
  {
    "postal": "L5C4T5",
    "result": []
  },
  {
    "postal": "L5C5K1",
    "result": []
  },
  {
    "postal": "L5C0Z9",
    "result": []
  },
  {
    "postal": "L5C7T2",
    "result": []
  },
  {
    "postal": "L5C1L5",
    "result": [
      {
        "electoralDistricts": [
          {
            "election": null,
            "id": 60,
            "name": "Mississauga Centre"
          }
        ],
        "pollDivisionIds": [
          10135104
        ],
        "postalCode": "L5C1L5",
        "streetName": "KILLKEE",
        "streetDirectionId": null,
        "streetTypeId": "GATE",
        "placeName": "MISSISSAUGA",
        "streetNameDisplayText": "KILLKEE GATE, MISSISSAUGA"
      }
    ]
  },
  {
    "postal": "L5C3N5",
    "result": [
      {
        "electoralDistricts": [
          {
            "election": null,
            "id": 60,
            "name": "Mississauga Centre"
          }
        ],
        "pollDivisionIds": [
          10135095
        ],
        "postalCode": "L5C3N5",
        "streetName": "SHAGBARK",
        "streetDirectionId": null,
        "streetTypeId": "CRES",
        "placeName": "MISSISSAUGA",
        "streetNameDisplayText": "SHAGBARK CRES, MISSISSAUGA"
      }
    ]
  },
  {
    "postal": "L5C6H4",
    "result": []
  },
  {
    "postal": "L5C5A5",
    "result": []
  },
  {
    "postal": "L5C3R9",
    "result": [
      {
        "electoralDistricts": [
          {
            "election": null,
            "id": 60,
            "name": "Mississauga Centre"
          }
        ],
        "pollDivisionIds": [
          10135095
        ],
        "postalCode": "L5C3R9",
        "streetName": "IRONWOOD",
        "streetDirectionId": null,
        "streetTypeId": "CRT",
        "placeName": "MISSISSAUGA",
        "streetNameDisplayText": "IRONWOOD CRT, MISSISSAUGA"
      }
    ]
  },
  {
    "postal": "L5C7L8",
    "result": []
  },
  {
    "postal": "L5C6T6",
    "result": []
  },
  {
    "postal": "L5C7Y7",
    "result": []
  },
  {
    "postal": "L5C3M8",
    "result": [
      {
        "electoralDistricts": [
          {
            "election": null,
            "id": 60,
            "name": "Mississauga Centre"
          }
        ],
        "pollDivisionIds": [
          10135095
        ],
        "postalCode": "L5C3M8",
        "streetName": "QUEENSBRIDGE",
        "streetDirectionId": null,
        "streetTypeId": "DR",
        "placeName": "MISSISSAUGA",
        "streetNameDisplayText": "QUEENSBRIDGE DR, MISSISSAUGA"
      }
    ]
  },
  {
    "postal": "L5C2E0",
    "result": []
  },
  {
    "postal": "L5C4B5",
    "result": []
  },
  {
    "postal": "L5C1J3",
    "result": [
      {
        "electoralDistricts": [
          {
            "election": null,
            "id": 60,
            "name": "Mississauga Centre"
          }
        ],
        "pollDivisionIds": [
          10135102
        ],
        "postalCode": "L5C1J3",
        "streetName": "FORESTWOOD",
        "streetDirectionId": null,
        "streetTypeId": "DR",
        "placeName": "MISSISSAUGA",
        "streetNameDisplayText": "FORESTWOOD DR, MISSISSAUGA"
      }
    ]
  },
  {
    "postal": "L5C5S6",
    "result": []
  },
  {
    "postal": "L5C8P7",
    "result": []
  },
  {
    "postal": "L5C7S7",
    "result": []
  },
  {
    "postal": "L5C4C2",
    "result": []
  },
  {
    "postal": "L5C5Y0",
    "result": []
  },
  {
    "postal": "L5C2V7",
    "result": [
      {
        "electoralDistricts": [
          {
            "election": null,
            "id": 60,
            "name": "Mississauga Centre"
          }
        ],
        "pollDivisionIds": [
          10135097,
          10135096
        ],
        "postalCode": "L5C2V7",
        "streetName": "CEDARGLEN",
        "streetDirectionId": null,
        "streetTypeId": "GATE",
        "placeName": "MISSISSAUGA",
        "streetNameDisplayText": "CEDARGLEN GATE, MISSISSAUGA"
      }
    ]
  },
  {
    "postal": "L5C8P5",
    "result": []
  },
  {
    "postal": "L5C5P5",
    "result": []
  },
  {
    "postal": "L5C5Z0",
    "result": []
  },
  {
    "postal": "L5C9B0",
    "result": []
  },
  {
    "postal": "L5C1L0",
    "result": []
  },
  {
    "postal": "L5C0B5",
    "result": []
  },
  {
    "postal": "L5C3L2",
    "result": [
      {
        "electoralDistricts": [
          {
            "election": null,
            "id": 60,
            "name": "Mississauga Centre"
          }
        ],
        "pollDivisionIds": [
          10135095
        ],
        "postalCode": "L5C3L2",
        "streetName": "TEAKWOOD",
        "streetDirectionId": null,
        "streetTypeId": "DR",
        "placeName": "MISSISSAUGA",
        "streetNameDisplayText": "TEAKWOOD DR, MISSISSAUGA"
      }
    ]
  },
  {
    "postal": "L5C3B7",
    "result": [
      {
        "electoralDistricts": [
          {
            "election": null,
            "id": 63,
            "name": "Mississauga—Lakeshore"
          }
        ],
        "pollDivisionIds": [
          10139756
        ],
        "postalCode": "L5C3B7",
        "streetName": "CONQUEST",
        "streetDirectionId": null,
        "streetTypeId": "DR",
        "placeName": "MISSISSAUGA",
        "streetNameDisplayText": "CONQUEST DR, MISSISSAUGA"
      }
    ]
  },
  {
    "postal": "L5C8L1",
    "result": []
  },
  {
    "postal": "L5C5M4",
    "result": []
  },
  {
    "postal": "L5C4G9",
    "result": [
      {
        "electoralDistricts": [
          {
            "election": null,
            "id": 63,
            "name": "Mississauga—Lakeshore"
          }
        ],
        "pollDivisionIds": [
          10139754
        ],
        "postalCode": "L5C4G9",
        "streetName": "SIR RICHARD'S",
        "streetDirectionId": null,
        "streetTypeId": "RD",
        "placeName": "MISSISSAUGA",
        "streetNameDisplayText": "SIR RICHARD'S RD, MISSISSAUGA"
      }
    ]
  },
  {
    "postal": "L5C0P0",
    "result": []
  },
  {
    "postal": "L5C8G2",
    "result": []
  },
  {
    "postal": "L5C1V9",
    "result": []
  },
  {
    "postal": "L5C8N8",
    "result": []
  },
  {
    "postal": "L5C6S8",
    "result": []
  },
  {
    "postal": "L5C8H2",
    "result": []
  },
  {
    "postal": "L5C5R8",
    "result": []
  },
  {
    "postal": "L5C5L4",
    "result": []
  },
  {
    "postal": "L5C9E1",
    "result": []
  },
  {
    "postal": "L5C1C4",
    "result": [
      {
        "electoralDistricts": [
          {
            "election": null,
            "id": 60,
            "name": "Mississauga Centre"
          }
        ],
        "pollDivisionIds": [
          10135102
        ],
        "postalCode": "L5C1C4",
        "streetName": "DUNDAS",
        "streetDirectionId": "W",
        "streetTypeId": "ST",
        "placeName": "MISSISSAUGA",
        "streetNameDisplayText": "DUNDAS ST W, MISSISSAUGA"
      }
    ]
  },
  {
    "postal": "L5C8W5",
    "result": []
  },
  {
    "postal": "L5C1Y4",
    "result": [
      {
        "electoralDistricts": [
          {
            "election": null,
            "id": 60,
            "name": "Mississauga Centre"
          }
        ],
        "pollDivisionIds": [
          10135101
        ],
        "postalCode": "L5C1Y4",
        "streetName": "ERINDALE STATION",
        "streetDirectionId": null,
        "streetTypeId": "RD",
        "placeName": "MISSISSAUGA",
        "streetNameDisplayText": "ERINDALE STATION RD, MISSISSAUGA"
      }
    ]
  },
  {
    "postal": "L5C1C0",
    "result": []
  },
  {
    "postal": "L5C2J2",
    "result": [
      {
        "electoralDistricts": [
          {
            "election": null,
            "id": 60,
            "name": "Mississauga Centre"
          }
        ],
        "pollDivisionIds": [
          10135102
        ],
        "postalCode": "L5C2J2",
        "streetName": "THE CREDIT WOODLANDS",
        "streetDirectionId": null,
        "streetTypeId": null,
        "placeName": "MISSISSAUGA",
        "streetNameDisplayText": "THE CREDIT WOODLANDS, MISSISSAUGA"
      }
    ]
  },
  {
    "postal": "L5C2J0",
    "result": []
  },
  {
    "postal": "L5C7A3",
    "result": []
  },
  {
    "postal": "L5C8M1",
    "result": []
  },
  {
    "postal": "L5C7T9",
    "result": []
  },
  {
    "postal": "L5C6C0",
    "result": []
  },
  {
    "postal": "L5C7X1",
    "result": []
  },
  {
    "postal": "L5C0G1",
    "result": []
  },
  {
    "postal": "L5C4X2",
    "result": []
  },
  {
    "postal": "L5C0N6",
    "result": []
  },
  {
    "postal": "L5C8E3",
    "result": []
  },
  {
    "postal": "L5C5S8",
    "result": []
  },
  {
    "postal": "L5C0R0",
    "result": []
  },
  {
    "postal": "L5C6J6",
    "result": []
  },
  {
    "postal": "L5C4B4",
    "result": []
  },
  {
    "postal": "L5C7E3",
    "result": []
  },
  {
    "postal": "L5C3N6",
    "result": [
      {
        "electoralDistricts": [
          {
            "election": null,
            "id": 60,
            "name": "Mississauga Centre"
          }
        ],
        "pollDivisionIds": [
          10135095
        ],
        "postalCode": "L5C3N6",
        "streetName": "SHAGBARK",
        "streetDirectionId": null,
        "streetTypeId": "CRES",
        "placeName": "MISSISSAUGA",
        "streetNameDisplayText": "SHAGBARK CRES, MISSISSAUGA"
      }
    ]
  },
  {
    "postal": "L5C3X6",
    "result": [
      {
        "electoralDistricts": [
          {
            "election": null,
            "id": 60,
            "name": "Mississauga Centre"
          }
        ],
        "pollDivisionIds": [
          10135095
        ],
        "postalCode": "L5C3X6",
        "streetName": "LUCERNE",
        "streetDirectionId": null,
        "streetTypeId": "CRES",
        "placeName": "MISSISSAUGA",
        "streetNameDisplayText": "LUCERNE CRES, MISSISSAUGA"
      }
    ]
  },
  {
    "postal": "L5C8L0",
    "result": []
  },
  {
    "postal": "L5C8N1",
    "result": []
  },
  {
    "postal": "L5C4J0",
    "result": []
  },
  {
    "postal": "L5C0X7",
    "result": []
  },
  {
    "postal": "L5C6S4",
    "result": []
  },
  {
    "postal": "L5C0Z0",
    "result": []
  },
  {
    "postal": "L5C9X8",
    "result": []
  },
  {
    "postal": "L5C3H3",
    "result": [
      {
        "electoralDistricts": [
          {
            "election": null,
            "id": 63,
            "name": "Mississauga—Lakeshore"
          }
        ],
        "pollDivisionIds": [
          10139756
        ],
        "postalCode": "L5C3H3",
        "streetName": "DAMIEN",
        "streetDirectionId": null,
        "streetTypeId": "WAY",
        "placeName": "MISSISSAUGA",
        "streetNameDisplayText": "DAMIEN WAY, MISSISSAUGA"
      }
    ]
  },
  {
    "postal": "L5C7S2",
    "result": []
  },
  {
    "postal": "L5C3T3",
    "result": [
      {
        "electoralDistricts": [
          {
            "election": null,
            "id": 60,
            "name": "Mississauga Centre"
          }
        ],
        "pollDivisionIds": [
          10135095
        ],
        "postalCode": "L5C3T3",
        "streetName": "QUEENSBRIDGE",
        "streetDirectionId": null,
        "streetTypeId": "DR",
        "placeName": "MISSISSAUGA",
        "streetNameDisplayText": "QUEENSBRIDGE DR, MISSISSAUGA"
      }
    ]
  },
  {
    "postal": "L5C9P3",
    "result": []
  },
  {
    "postal": "L5C4H8",
    "result": [
      {
        "electoralDistricts": [
          {
            "election": null,
            "id": 60,
            "name": "Mississauga Centre"
          }
        ],
        "pollDivisionIds": [
          10135095
        ],
        "postalCode": "L5C4H8",
        "streetName": "MURRAY HILL",
        "streetDirectionId": null,
        "streetTypeId": "CRES",
        "placeName": "MISSISSAUGA",
        "streetNameDisplayText": "MURRAY HILL CRES, MISSISSAUGA"
      }
    ]
  },
  {
    "postal": "L5C6R1",
    "result": []
  },
  {
    "postal": "L5C1S0",
    "result": []
  },
  {
    "postal": "L5C3W8",
    "result": []
  },
  {
    "postal": "L5C4S3",
    "result": [
      {
        "electoralDistricts": [
          {
            "election": null,
            "id": 60,
            "name": "Mississauga Centre"
          }
        ],
        "pollDivisionIds": [
          10135097
        ],
        "postalCode": "L5C4S3",
        "streetName": "CEDARGLEN GATE",
        "streetDirectionId": null,
        "streetTypeId": "GATE",
        "placeName": "MISSISSAUGA",
        "streetNameDisplayText": "CEDARGLEN GATE GATE, MISSISSAUGA"
      },
      {
        "electoralDistricts": [
          {
            "election": null,
            "id": 60,
            "name": "Mississauga Centre"
          }
        ],
        "pollDivisionIds": [
          10135097
        ],
        "postalCode": "L5C4S3",
        "streetName": "CEDARGLEN",
        "streetDirectionId": null,
        "streetTypeId": "GATE",
        "placeName": "MISSISSAUGA",
        "streetNameDisplayText": "CEDARGLEN GATE, MISSISSAUGA"
      }
    ]
  },
  {
    "postal": "L5C1B6",
    "result": [
      {
        "electoralDistricts": [
          {
            "election": null,
            "id": 63,
            "name": "Mississauga—Lakeshore"
          }
        ],
        "pollDivisionIds": [
          10139756
        ],
        "postalCode": "L5C1B6",
        "streetName": "ADAMSON",
        "streetDirectionId": null,
        "streetTypeId": "ST",
        "placeName": "MISSISSAUGA",
        "streetNameDisplayText": "ADAMSON ST, MISSISSAUGA"
      }
    ]
  },
  {
    "postal": "L5C8R3",
    "result": []
  },
  {
    "postal": "L5C4V9",
    "result": []
  },
  {
    "postal": "L5C9W4",
    "result": []
  },
  {
    "postal": "L5C3T4",
    "result": [
      {
        "electoralDistricts": [
          {
            "election": null,
            "id": 60,
            "name": "Mississauga Centre"
          }
        ],
        "pollDivisionIds": [
          10135095
        ],
        "postalCode": "L5C3T4",
        "streetName": "QUEENSBRIDGE",
        "streetDirectionId": null,
        "streetTypeId": "DR",
        "placeName": "MISSISSAUGA",
        "streetNameDisplayText": "QUEENSBRIDGE DR, MISSISSAUGA"
      }
    ]
  },
  {
    "postal": "L5C5C7",
    "result": []
  },
  {
    "postal": "L5C3Y1",
    "result": [
      {
        "electoralDistricts": [
          {
            "election": null,
            "id": 60,
            "name": "Mississauga Centre"
          }
        ],
        "pollDivisionIds": [
          10135095
        ],
        "postalCode": "L5C3Y1",
        "streetName": "SAWGRASS",
        "streetDirectionId": null,
        "streetTypeId": "CRT",
        "placeName": "MISSISSAUGA",
        "streetNameDisplayText": "SAWGRASS CRT, MISSISSAUGA"
      }
    ]
  },
  {
    "postal": "L5C5V0",
    "result": []
  },
  {
    "postal": "L5C8G8",
    "result": []
  },
  {
    "postal": "L5C8B1",
    "result": []
  },
  {
    "postal": "L5C4P5",
    "result": [
      {
        "electoralDistricts": [
          {
            "election": null,
            "id": 63,
            "name": "Mississauga—Lakeshore"
          }
        ],
        "pollDivisionIds": [
          10139756
        ],
        "postalCode": "L5C4P5",
        "streetName": "OLINDA",
        "streetDirectionId": null,
        "streetTypeId": "CRT",
        "placeName": "MISSISSAUGA",
        "streetNameDisplayText": "OLINDA CRT, MISSISSAUGA"
      }
    ]
  },
  {
    "postal": "L5C7B2",
    "result": []
  },
  {
    "postal": "L5C0R2",
    "result": []
  },
  {
    "postal": "L5C4M4",
    "result": [
      {
        "electoralDistricts": [
          {
            "election": null,
            "id": 60,
            "name": "Mississauga Centre"
          }
        ],
        "pollDivisionIds": [
          10135095
        ],
        "postalCode": "L5C4M4",
        "streetName": "BUCKINGHAM",
        "streetDirectionId": null,
        "streetTypeId": "CRT",
        "placeName": "MISSISSAUGA",
        "streetNameDisplayText": "BUCKINGHAM CRT, MISSISSAUGA"
      },
      {
        "electoralDistricts": [
          {
            "election": null,
            "id": 60,
            "name": "Mississauga Centre"
          }
        ],
        "pollDivisionIds": [
          10135095
        ],
        "postalCode": "L5C4M4",
        "streetName": "WAKEFIELD",
        "streetDirectionId": null,
        "streetTypeId": "CRES",
        "placeName": "MISSISSAUGA",
        "streetNameDisplayText": "WAKEFIELD CRES, MISSISSAUGA"
      }
    ]
  },
  {
    "postal": "L5C7M4",
    "result": []
  },
  {
    "postal": "L5C9S7",
    "result": []
  },
  {
    "postal": "L5C5Z7",
    "result": []
  },
  {
    "postal": "L5C7J7",
    "result": []
  },
  {
    "postal": "L5C8R8",
    "result": []
  },
  {
    "postal": "L5C9X1",
    "result": []
  },
  {
    "postal": "L5C5M9",
    "result": []
  },
  {
    "postal": "L5C9B4",
    "result": []
  },
  {
    "postal": "L5C0L9",
    "result": []
  },
  {
    "postal": "L5C9G4",
    "result": []
  },
  {
    "postal": "L5C1J4",
    "result": [
      {
        "electoralDistricts": [
          {
            "election": null,
            "id": 60,
            "name": "Mississauga Centre"
          }
        ],
        "pollDivisionIds": [
          10135102
        ],
        "postalCode": "L5C1J4",
        "streetName": "BALLYCLARE",
        "streetDirectionId": null,
        "streetTypeId": "DR",
        "placeName": "MISSISSAUGA",
        "streetNameDisplayText": "BALLYCLARE DR, MISSISSAUGA"
      }
    ]
  },
  {
    "postal": "L5C0W6",
    "result": []
  }
]
