[
  {
    "postal": "K2B9J6",
    "result": []
  },
  {
    "postal": "K2B9Z5",
    "result": []
  },
  {
    "postal": "K2B7H8",
    "result": [
      {
        "electoralDistricts": [
          {
            "election": null,
            "id": 81,
            "name": "Ottawa West—Nepean"
          }
        ],
        "pollDivisionIds": [
          10140829
        ],
        "postalCode": "K2B7H8",
        "streetName": "CARLING",
        "streetDirectionId": null,
        "streetTypeId": "AVE",
        "placeName": "OTTAWA",
        "streetNameDisplayText": "CARLING AVE, OTTAWA"
      }
    ]
  },
  {
    "postal": "K2B0P6",
    "result": []
  },
  {
    "postal": "K2B0S7",
    "result": []
  },
  {
    "postal": "K2B8B9",
    "result": [
      {
        "electoralDistricts": [
          {
            "election": null,
            "id": 81,
            "name": "Ottawa West—Nepean"
          }
        ],
        "pollDivisionIds": [
          10140830
        ],
        "postalCode": "K2B8B9",
        "streetName": "RICHMOND",
        "streetDirectionId": null,
        "streetTypeId": "RD",
        "placeName": "OTTAWA",
        "streetNameDisplayText": "RICHMOND RD, OTTAWA"
      }
    ]
  },
  {
    "postal": "K2B2A6",
    "result": []
  },
  {
    "postal": "K2B7V2",
    "result": [
      {
        "electoralDistricts": [
          {
            "election": null,
            "id": 81,
            "name": "Ottawa West—Nepean"
          }
        ],
        "pollDivisionIds": [
          10140828
        ],
        "postalCode": "K2B7V2",
        "streetName": "KELLY",
        "streetDirectionId": null,
        "streetTypeId": "AVE",
        "placeName": "OTTAWA",
        "streetNameDisplayText": "KELLY AVE, OTTAWA"
      }
    ]
  },
  {
    "postal": "K2B9P4",
    "result": []
  },
  {
    "postal": "K2B6G0",
    "result": []
  },
  {
    "postal": "K2B2K0",
    "result": []
  },
  {
    "postal": "K2B7N6",
    "result": [
      {
        "electoralDistricts": [
          {
            "election": null,
            "id": 81,
            "name": "Ottawa West—Nepean"
          }
        ],
        "pollDivisionIds": [
          10140829
        ],
        "postalCode": "K2B7N6",
        "streetName": "ELMHURST",
        "streetDirectionId": null,
        "streetTypeId": "ST",
        "placeName": "OTTAWA",
        "streetNameDisplayText": "ELMHURST ST, OTTAWA"
      }
    ]
  },
  {
    "postal": "K2B5R3",
    "result": [
      {
        "electoralDistricts": [
          {
            "election": null,
            "id": 81,
            "name": "Ottawa West—Nepean"
          }
        ],
        "pollDivisionIds": [
          10140829
        ],
        "postalCode": "K2B5R3",
        "streetName": "ARKELL",
        "streetDirectionId": null,
        "streetTypeId": "ST",
        "placeName": "OTTAWA",
        "streetNameDisplayText": "ARKELL ST, OTTAWA"
      }
    ]
  },
  {
    "postal": "K2B7K0",
    "result": []
  },
  {
    "postal": "K2B3R2",
    "result": []
  },
  {
    "postal": "K2B0J1",
    "result": []
  },
  {
    "postal": "K2B0B0",
    "result": []
  },
  {
    "postal": "K2B5Z2",
    "result": [
      {
        "electoralDistricts": [
          {
            "election": null,
            "id": 81,
            "name": "Ottawa West—Nepean"
          }
        ],
        "pollDivisionIds": [
          10140823
        ],
        "postalCode": "K2B5Z2",
        "streetName": "BRADFORD",
        "streetDirectionId": null,
        "streetTypeId": "ST",
        "placeName": "OTTAWA",
        "streetNameDisplayText": "BRADFORD ST, OTTAWA"
      }
    ]
  },
  {
    "postal": "K2B7P3",
    "result": [
      {
        "electoralDistricts": [
          {
            "election": null,
            "id": 81,
            "name": "Ottawa West—Nepean"
          }
        ],
        "pollDivisionIds": [
          10140822
        ],
        "postalCode": "K2B7P3",
        "streetName": "MICHELE",
        "streetDirectionId": null,
        "streetTypeId": "DR",
        "placeName": "OTTAWA",
        "streetNameDisplayText": "MICHELE DR, OTTAWA"
      }
    ]
  },
  {
    "postal": "K2B2K3",
    "result": []
  },
  {
    "postal": "K2B7Y6",
    "result": [
      {
        "electoralDistricts": [
          {
            "election": null,
            "id": 81,
            "name": "Ottawa West—Nepean"
          }
        ],
        "pollDivisionIds": [
          10140820
        ],
        "postalCode": "K2B7Y6",
        "streetName": "CARLING",
        "streetDirectionId": null,
        "streetTypeId": "AVE",
        "placeName": "OTTAWA",
        "streetNameDisplayText": "CARLING AVE, OTTAWA"
      }
    ]
  },
  {
    "postal": "K2B1L9",
    "result": []
  },
  {
    "postal": "K2B8T0",
    "result": []
  },
  {
    "postal": "K2B3K8",
    "result": []
  },
  {
    "postal": "K2B5W9",
    "result": [
      {
        "electoralDistricts": [
          {
            "election": null,
            "id": 81,
            "name": "Ottawa West—Nepean"
          }
        ],
        "pollDivisionIds": [
          10140823
        ],
        "postalCode": "K2B5W9",
        "streetName": "BRITANNIA",
        "streetDirectionId": null,
        "streetTypeId": "RD",
        "placeName": "OTTAWA",
        "streetNameDisplayText": "BRITANNIA RD, OTTAWA"
      }
    ]
  },
  {
    "postal": "K2B6T9",
    "result": [
      {
        "electoralDistricts": [
          {
            "election": null,
            "id": 81,
            "name": "Ottawa West—Nepean"
          }
        ],
        "pollDivisionIds": [
          10140830
        ],
        "postalCode": "K2B6T9",
        "streetName": "ANTHONY",
        "streetDirectionId": null,
        "streetTypeId": "AVE",
        "placeName": "OTTAWA",
        "streetNameDisplayText": "ANTHONY AVE, OTTAWA"
      }
    ]
  },
  {
    "postal": "K2B4H1",
    "result": []
  },
  {
    "postal": "K2B7A2",
    "result": [
      {
        "electoralDistricts": [
          {
            "election": null,
            "id": 81,
            "name": "Ottawa West—Nepean"
          }
        ],
        "pollDivisionIds": [
          10140820
        ],
        "postalCode": "K2B7A2",
        "streetName": "AHEARN",
        "streetDirectionId": null,
        "streetTypeId": "AVE",
        "placeName": "OTTAWA",
        "streetNameDisplayText": "AHEARN AVE, OTTAWA"
      }
    ]
  },
  {
    "postal": "K2B5G0",
    "result": []
  },
  {
    "postal": "K2B8V5",
    "result": []
  },
  {
    "postal": "K2B2Y8",
    "result": []
  },
  {
    "postal": "K2B2B6",
    "result": []
  },
  {
    "postal": "K2B4W8",
    "result": []
  },
  {
    "postal": "K2B8H7",
    "result": [
      {
        "electoralDistricts": [
          {
            "election": null,
            "id": 81,
            "name": "Ottawa West—Nepean"
          }
        ],
        "pollDivisionIds": [
          10140828
        ],
        "postalCode": "K2B8H7",
        "streetName": "HARWOOD",
        "streetDirectionId": null,
        "streetTypeId": "AVE",
        "placeName": "OTTAWA",
        "streetNameDisplayText": "HARWOOD AVE, OTTAWA"
      }
    ]
  },
  {
    "postal": "K2B5P1",
    "result": [
      {
        "electoralDistricts": [
          {
            "election": null,
            "id": 81,
            "name": "Ottawa West—Nepean"
          }
        ],
        "pollDivisionIds": [
          10140829
        ],
        "postalCode": "K2B5P1",
        "streetName": "TAVISTOCK",
        "streetDirectionId": null,
        "streetTypeId": "RD",
        "placeName": "OTTAWA",
        "streetNameDisplayText": "TAVISTOCK RD, OTTAWA"
      }
    ]
  },
  {
    "postal": "K2B2B8",
    "result": []
  },
  {
    "postal": "K2B0P2",
    "result": []
  },
  {
    "postal": "K2B9M1",
    "result": []
  },
  {
    "postal": "K2B3G0",
    "result": []
  },
  {
    "postal": "K2B9Z2",
    "result": []
  },
  {
    "postal": "K2B2A0",
    "result": []
  },
  {
    "postal": "K2B6Y0",
    "result": []
  },
  {
    "postal": "K2B2Z8",
    "result": []
  },
  {
    "postal": "K2B7Y3",
    "result": [
      {
        "electoralDistricts": [
          {
            "election": null,
            "id": 81,
            "name": "Ottawa West—Nepean"
          }
        ],
        "pollDivisionIds": [
          10140831
        ],
        "postalCode": "K2B7Y3",
        "streetName": "EDGEWORTH",
        "streetDirectionId": null,
        "streetTypeId": "AVE",
        "placeName": "OTTAWA",
        "streetNameDisplayText": "EDGEWORTH AVE, OTTAWA"
      }
    ]
  },
  {
    "postal": "K2B6Z5",
    "result": [
      {
        "electoralDistricts": [
          {
            "election": null,
            "id": 81,
            "name": "Ottawa West—Nepean"
          }
        ],
        "pollDivisionIds": [
          10140820
        ],
        "postalCode": "K2B6Z5",
        "streetName": "HAUGHTON",
        "streetDirectionId": null,
        "streetTypeId": "AVE",
        "placeName": "OTTAWA",
        "streetNameDisplayText": "HAUGHTON AVE, OTTAWA"
      }
    ]
  },
  {
    "postal": "K2B6E0",
    "result": []
  },
  {
    "postal": "K2B9B7",
    "result": []
  },
  {
    "postal": "K2B9S5",
    "result": []
  },
  {
    "postal": "K2B3X3",
    "result": []
  },
  {
    "postal": "K2B7R5",
    "result": [
      {
        "electoralDistricts": [
          {
            "election": null,
            "id": 81,
            "name": "Ottawa West—Nepean"
          }
        ],
        "pollDivisionIds": [
          10140829
        ],
        "postalCode": "K2B7R5",
        "streetName": "STUART KETTLES",
        "streetDirectionId": null,
        "streetTypeId": "ST",
        "placeName": "OTTAWA",
        "streetNameDisplayText": "STUART KETTLES ST, OTTAWA"
      }
    ]
  },
  {
    "postal": "K2B2X3",
    "result": []
  },
  {
    "postal": "K2B8Z9",
    "result": []
  },
  {
    "postal": "K2B0N4",
    "result": []
  },
  {
    "postal": "K2B1K1",
    "result": []
  },
  {
    "postal": "K2B1S3",
    "result": []
  },
  {
    "postal": "K2B6M4",
    "result": [
      {
        "electoralDistricts": [
          {
            "election": null,
            "id": 81,
            "name": "Ottawa West—Nepean"
          }
        ],
        "pollDivisionIds": [
          10140820
        ],
        "postalCode": "K2B6M4",
        "streetName": "WYLIE",
        "streetDirectionId": null,
        "streetTypeId": "AVE",
        "placeName": "OTTAWA",
        "streetNameDisplayText": "WYLIE AVE, OTTAWA"
      }
    ]
  },
  {
    "postal": "K2B9A9",
    "result": []
  },
  {
    "postal": "K2B9Z9",
    "result": []
  },
  {
    "postal": "K2B6T4",
    "result": [
      {
        "electoralDistricts": [
          {
            "election": null,
            "id": 81,
            "name": "Ottawa West—Nepean"
          }
        ],
        "pollDivisionIds": [
          10140830
        ],
        "postalCode": "K2B6T4",
        "streetName": "BYRON",
        "streetDirectionId": null,
        "streetTypeId": "AVE",
        "placeName": "OTTAWA",
        "streetNameDisplayText": "BYRON AVE, OTTAWA"
      }
    ]
  },
  {
    "postal": "K2B0B2",
    "result": []
  },
  {
    "postal": "K2B2L9",
    "result": []
  },
  {
    "postal": "K2B8K9",
    "result": [
      {
        "electoralDistricts": [
          {
            "election": null,
            "id": 81,
            "name": "Ottawa West—Nepean"
          }
        ],
        "pollDivisionIds": [
          10140826
        ],
        "postalCode": "K2B8K9",
        "streetName": "SKUCE",
        "streetDirectionId": null,
        "streetTypeId": "PVT",
        "placeName": "OTTAWA",
        "streetNameDisplayText": "SKUCE PVT, OTTAWA"
      }
    ]
  },
  {
    "postal": "K2B2H9",
    "result": []
  },
  {
    "postal": "K2B3Z6",
    "result": []
  },
  {
    "postal": "K2B3B0",
    "result": []
  },
  {
    "postal": "K2B2H8",
    "result": []
  },
  {
    "postal": "K2B3X2",
    "result": []
  },
  {
    "postal": "K2B2E9",
    "result": []
  },
  {
    "postal": "K2B9P6",
    "result": []
  },
  {
    "postal": "K2B9E2",
    "result": []
  },
  {
    "postal": "K2B9H2",
    "result": []
  },
  {
    "postal": "K2B1S8",
    "result": []
  },
  {
    "postal": "K2B3M6",
    "result": []
  },
  {
    "postal": "K2B6Z8",
    "result": [
      {
        "electoralDistricts": [
          {
            "election": null,
            "id": 81,
            "name": "Ottawa West—Nepean"
          }
        ],
        "pollDivisionIds": [
          10140820
        ],
        "postalCode": "K2B6Z8",
        "streetName": "AHEARN",
        "streetDirectionId": null,
        "streetTypeId": "AVE",
        "placeName": "OTTAWA",
        "streetNameDisplayText": "AHEARN AVE, OTTAWA"
      }
    ]
  },
  {
    "postal": "K2B4J2",
    "result": []
  },
  {
    "postal": "K2B9Y1",
    "result": []
  },
  {
    "postal": "K2B8V6",
    "result": []
  },
  {
    "postal": "K2B6B2",
    "result": [
      {
        "electoralDistricts": [
          {
            "election": null,
            "id": 81,
            "name": "Ottawa West—Nepean"
          }
        ],
        "pollDivisionIds": [
          10140828
        ],
        "postalCode": "K2B6B2",
        "streetName": "PINECREST",
        "streetDirectionId": null,
        "streetTypeId": "RD",
        "placeName": "OTTAWA",
        "streetNameDisplayText": "PINECREST RD, OTTAWA"
      }
    ]
  },
  {
    "postal": "K2B1P8",
    "result": []
  },
  {
    "postal": "K2B0V8",
    "result": []
  },
  {
    "postal": "K2B4Y0",
    "result": []
  },
  {
    "postal": "K2B2T4",
    "result": []
  },
  {
    "postal": "K2B2S3",
    "result": []
  },
  {
    "postal": "K2B0K0",
    "result": []
  },
  {
    "postal": "K2B5N1",
    "result": [
      {
        "electoralDistricts": [
          {
            "election": null,
            "id": 81,
            "name": "Ottawa West—Nepean"
          }
        ],
        "pollDivisionIds": [
          10140829
        ],
        "postalCode": "K2B5N1",
        "streetName": "CONNAUGHT",
        "streetDirectionId": null,
        "streetTypeId": "AVE",
        "placeName": "OTTAWA",
        "streetNameDisplayText": "CONNAUGHT AVE, OTTAWA"
      }
    ]
  },
  {
    "postal": "K2B7T0",
    "result": []
  },
  {
    "postal": "K2B9N2",
    "result": []
  },
  {
    "postal": "K2B5L1",
    "result": [
      {
        "electoralDistricts": [
          {
            "election": null,
            "id": 81,
            "name": "Ottawa West—Nepean"
          }
        ],
        "pollDivisionIds": [
          10140831
        ],
        "postalCode": "K2B5L1",
        "streetName": "EDGEWORTH",
        "streetDirectionId": null,
        "streetTypeId": "AVE",
        "placeName": "OTTAWA",
        "streetNameDisplayText": "EDGEWORTH AVE, OTTAWA"
      }
    ]
  },
  {
    "postal": "K2B7G5",
    "result": [
      {
        "electoralDistricts": [
          {
            "election": null,
            "id": 81,
            "name": "Ottawa West—Nepean"
          }
        ],
        "pollDivisionIds": [
          10140873
        ],
        "postalCode": "K2B7G5",
        "streetName": "CARLING",
        "streetDirectionId": null,
        "streetTypeId": "AVE",
        "placeName": "OTTAWA",
        "streetNameDisplayText": "CARLING AVE, OTTAWA"
      }
    ]
  },
  {
    "postal": "K2B6K2",
    "result": [
      {
        "electoralDistricts": [
          {
            "election": null,
            "id": 81,
            "name": "Ottawa West—Nepean"
          }
        ],
        "pollDivisionIds": [
          10140819
        ],
        "postalCode": "K2B6K2",
        "streetName": "FIRWOOD",
        "streetDirectionId": null,
        "streetTypeId": "CRES",
        "placeName": "NEPEAN",
        "streetNameDisplayText": "FIRWOOD CRES, NEPEAN"
      }
    ]
  },
  {
    "postal": "K2B6P9",
    "result": [
      {
        "electoralDistricts": [
          {
            "election": null,
            "id": 81,
            "name": "Ottawa West—Nepean"
          }
        ],
        "pollDivisionIds": [
          10140823
        ],
        "postalCode": "K2B6P9",
        "streetName": "SALINA",
        "streetDirectionId": null,
        "streetTypeId": "ST",
        "placeName": "OTTAWA",
        "streetNameDisplayText": "SALINA ST, OTTAWA"
      }
    ]
  },
  {
    "postal": "K2B0E6",
    "result": []
  },
  {
    "postal": "K2B8R9",
    "result": [
      {
        "electoralDistricts": [
          {
            "election": null,
            "id": 81,
            "name": "Ottawa West—Nepean"
          }
        ],
        "pollDivisionIds": [
          10140828
        ],
        "postalCode": "K2B8R9",
        "streetName": "FALLIS",
        "streetDirectionId": null,
        "streetTypeId": "AVE",
        "placeName": "OTTAWA",
        "streetNameDisplayText": "FALLIS AVE, OTTAWA"
      }
    ]
  },
  {
    "postal": "K2B3G9",
    "result": []
  },
  {
    "postal": "K2B0V7",
    "result": []
  },
  {
    "postal": "K2B2Z1",
    "result": []
  },
  {
    "postal": "K2B7N1",
    "result": [
      {
        "electoralDistricts": [
          {
            "election": null,
            "id": 81,
            "name": "Ottawa West—Nepean"
          }
        ],
        "pollDivisionIds": [
          10140831
        ],
        "postalCode": "K2B7N1",
        "streetName": "GEORGINA",
        "streetDirectionId": null,
        "streetTypeId": "DR",
        "placeName": "OTTAWA",
        "streetNameDisplayText": "GEORGINA DR, OTTAWA"
      }
    ]
  },
  {
    "postal": "K2B3C6",
    "result": []
  },
  {
    "postal": "K2B4M1",
    "result": []
  },
  {
    "postal": "K2B9K2",
    "result": []
  },
  {
    "postal": "K2B9S6",
    "result": []
  },
  {
    "postal": "K2B4X1",
    "result": []
  },
  {
    "postal": "K2B8W2",
    "result": []
  },
  {
    "postal": "K2B7N2",
    "result": [
      {
        "electoralDistricts": [
          {
            "election": null,
            "id": 81,
            "name": "Ottawa West—Nepean"
          }
        ],
        "pollDivisionIds": [
          10140829
        ],
        "postalCode": "K2B7N2",
        "streetName": "ELMHURST",
        "streetDirectionId": null,
        "streetTypeId": "ST",
        "placeName": "OTTAWA",
        "streetNameDisplayText": "ELMHURST ST, OTTAWA"
      }
    ]
  },
  {
    "postal": "K2B8S3",
    "result": [
      {
        "electoralDistricts": [
          {
            "election": null,
            "id": 81,
            "name": "Ottawa West—Nepean"
          }
        ],
        "pollDivisionIds": [
          10140826
        ],
        "postalCode": "K2B8S3",
        "streetName": "RICHLIN",
        "streetDirectionId": null,
        "streetTypeId": "CRES",
        "placeName": "OTTAWA",
        "streetNameDisplayText": "RICHLIN CRES, OTTAWA"
      }
    ]
  },
  {
    "postal": "K2B4V0",
    "result": []
  },
  {
    "postal": "K2B6W4",
    "result": [
      {
        "electoralDistricts": [
          {
            "election": null,
            "id": 81,
            "name": "Ottawa West—Nepean"
          }
        ],
        "pollDivisionIds": [
          10140831
        ],
        "postalCode": "K2B6W4",
        "streetName": "MIDWAY",
        "streetDirectionId": null,
        "streetTypeId": "AVE",
        "placeName": "OTTAWA",
        "streetNameDisplayText": "MIDWAY AVE, OTTAWA"
      }
    ]
  },
  {
    "postal": "K2B5M1",
    "result": [
      {
        "electoralDistricts": [
          {
            "election": null,
            "id": 81,
            "name": "Ottawa West—Nepean"
          }
        ],
        "pollDivisionIds": [
          10140829
        ],
        "postalCode": "K2B5M1",
        "streetName": "HINDLEY",
        "streetDirectionId": null,
        "streetTypeId": "ST",
        "placeName": "OTTAWA",
        "streetNameDisplayText": "HINDLEY ST, OTTAWA"
      }
    ]
  },
  {
    "postal": "K2B0S4",
    "result": []
  },
  {
    "postal": "K2B5X6",
    "result": [
      {
        "electoralDistricts": [
          {
            "election": null,
            "id": 81,
            "name": "Ottawa West—Nepean"
          }
        ],
        "pollDivisionIds": [
          10140826
        ],
        "postalCode": "K2B5X6",
        "streetName": "BRITANNIA",
        "streetDirectionId": null,
        "streetTypeId": "RD",
        "placeName": "OTTAWA",
        "streetNameDisplayText": "BRITANNIA RD, OTTAWA"
      }
    ]
  },
  {
    "postal": "K2B8L5",
    "result": [
      {
        "electoralDistricts": [
          {
            "election": null,
            "id": 81,
            "name": "Ottawa West—Nepean"
          }
        ],
        "pollDivisionIds": [
          10140826
        ],
        "postalCode": "K2B8L5",
        "streetName": "RICHLIN",
        "streetDirectionId": null,
        "streetTypeId": "CRES",
        "placeName": "OTTAWA",
        "streetNameDisplayText": "RICHLIN CRES, OTTAWA"
      }
    ]
  },
  {
    "postal": "K2B5M8",
    "result": [
      {
        "electoralDistricts": [
          {
            "election": null,
            "id": 81,
            "name": "Ottawa West—Nepean"
          }
        ],
        "pollDivisionIds": [
          10140829
        ],
        "postalCode": "K2B5M8",
        "streetName": "CONNAUGHT",
        "streetDirectionId": null,
        "streetTypeId": "AVE",
        "placeName": "OTTAWA",
        "streetNameDisplayText": "CONNAUGHT AVE, OTTAWA"
      }
    ]
  },
  {
    "postal": "K2B2G3",
    "result": []
  },
  {
    "postal": "K2B8E4",
    "result": [
      {
        "electoralDistricts": [
          {
            "election": null,
            "id": 81,
            "name": "Ottawa West—Nepean"
          }
        ],
        "pollDivisionIds": [
          10140859
        ],
        "postalCode": "K2B8E4",
        "streetName": "RICHMOND",
        "streetDirectionId": null,
        "streetTypeId": "RD",
        "placeName": "OTTAWA",
        "streetNameDisplayText": "RICHMOND RD, OTTAWA"
      }
    ]
  },
  {
    "postal": "K2B7S9",
    "result": [
      {
        "electoralDistricts": [
          {
            "election": null,
            "id": 81,
            "name": "Ottawa West—Nepean"
          }
        ],
        "pollDivisionIds": [
          10140821,
          10140819
        ],
        "postalCode": "K2B7S9",
        "streetName": "WOODRIDGE",
        "streetDirectionId": null,
        "streetTypeId": "CRES",
        "placeName": "NEPEAN",
        "streetNameDisplayText": "WOODRIDGE CRES, NEPEAN"
      },
      {
        "electoralDistricts": [
          {
            "election": null,
            "id": 81,
            "name": "Ottawa West—Nepean"
          }
        ],
        "pollDivisionIds": [
          10140821,
          10140819
        ],
        "postalCode": "K2B7S9",
        "streetName": "WOODRIDGE",
        "streetDirectionId": null,
        "streetTypeId": "CRES",
        "placeName": "OTTAWA",
        "streetNameDisplayText": "WOODRIDGE CRES, OTTAWA"
      },
      {
        "electoralDistricts": [
          {
            "election": null,
            "id": 81,
            "name": "Ottawa West—Nepean"
          }
        ],
        "pollDivisionIds": [
          10140821
        ],
        "postalCode": "K2B7S9",
        "streetName": "WOODRIDGE CRESC",
        "streetDirectionId": null,
        "streetTypeId": "CRES",
        "placeName": "NEPEAN",
        "streetNameDisplayText": "WOODRIDGE CRESC CRES, NEPEAN"
      },
      {
        "electoralDistricts": [
          {
            "election": null,
            "id": 81,
            "name": "Ottawa West—Nepean"
          }
        ],
        "pollDivisionIds": [
          10140821
        ],
        "postalCode": "K2B7S9",
        "streetName": "WOODRIDGE CRESCENT",
        "streetDirectionId": null,
        "streetTypeId": "CRES",
        "placeName": "NEPEAN",
        "streetNameDisplayText": "WOODRIDGE CRESCENT CRES, NEPEAN"
      }
    ]
  },
  {
    "postal": "K2B1K3",
    "result": []
  },
  {
    "postal": "K2B4E1",
    "result": []
  },
  {
    "postal": "K2B4R2",
    "result": []
  },
  {
    "postal": "K2B6T0",
    "result": []
  },
  {
    "postal": "K2B3K5",
    "result": []
  },
  {
    "postal": "K2B3S3",
    "result": []
  },
  {
    "postal": "K2B3L4",
    "result": []
  },
  {
    "postal": "K2B9Y2",
    "result": []
  },
  {
    "postal": "K2B1E0",
    "result": []
  },
  {
    "postal": "K2B9A4",
    "result": []
  },
  {
    "postal": "K2B1L3",
    "result": []
  },
  {
    "postal": "K2B6N1",
    "result": [
      {
        "electoralDistricts": [
          {
            "election": null,
            "id": 81,
            "name": "Ottawa West—Nepean"
          }
        ],
        "pollDivisionIds": [
          10140830
        ],
        "postalCode": "K2B6N1",
        "streetName": "ELDER",
        "streetDirectionId": null,
        "streetTypeId": "ST",
        "placeName": "OTTAWA",
        "streetNameDisplayText": "ELDER ST, OTTAWA"
      }
    ]
  },
  {
    "postal": "K2B6G7",
    "result": [
      {
        "electoralDistricts": [
          {
            "election": null,
            "id": 81,
            "name": "Ottawa West—Nepean"
          }
        ],
        "pollDivisionIds": [
          10140820
        ],
        "postalCode": "K2B6G7",
        "streetName": "DOANE",
        "streetDirectionId": null,
        "streetTypeId": "ST",
        "placeName": "OTTAWA",
        "streetNameDisplayText": "DOANE ST, OTTAWA"
      }
    ]
  },
  {
    "postal": "K2B7W1",
    "result": [
      {
        "electoralDistricts": [
          {
            "election": null,
            "id": 81,
            "name": "Ottawa West—Nepean"
          }
        ],
        "pollDivisionIds": [
          10140828,
          10140829
        ],
        "postalCode": "K2B7W1",
        "streetName": "MONCTON",
        "streetDirectionId": null,
        "streetTypeId": "RD",
        "placeName": "OTTAWA",
        "streetNameDisplayText": "MONCTON RD, OTTAWA"
      }
    ]
  },
  {
    "postal": "K2B4M6",
    "result": []
  },
  {
    "postal": "K2B1K0",
    "result": []
  },
  {
    "postal": "K2B3E2",
    "result": []
  },
  {
    "postal": "K2B5H4",
    "result": [
      {
        "electoralDistricts": [
          {
            "election": null,
            "id": 81,
            "name": "Ottawa West—Nepean"
          }
        ],
        "pollDivisionIds": [
          10140831
        ],
        "postalCode": "K2B5H4",
        "streetName": "WHITEHAVEN",
        "streetDirectionId": null,
        "streetTypeId": "CRES",
        "placeName": "OTTAWA",
        "streetNameDisplayText": "WHITEHAVEN CRES, OTTAWA"
      }
    ]
  },
  {
    "postal": "K2B1K7",
    "result": []
  },
  {
    "postal": "K2B0H0",
    "result": []
  },
  {
    "postal": "K2B0J3",
    "result": []
  },
  {
    "postal": "K2B1X6",
    "result": []
  },
  {
    "postal": "K2B2Z6",
    "result": []
  },
  {
    "postal": "K2B4R9",
    "result": []
  },
  {
    "postal": "K2B0W8",
    "result": []
  },
  {
    "postal": "K2B1L4",
    "result": []
  },
  {
    "postal": "K2B0C8",
    "result": []
  },
  {
    "postal": "K2B9X7",
    "result": []
  },
  {
    "postal": "K2B4T1",
    "result": []
  },
  {
    "postal": "K2B0M0",
    "result": []
  },
  {
    "postal": "K2B6A2",
    "result": [
      {
        "electoralDistricts": [
          {
            "election": null,
            "id": 81,
            "name": "Ottawa West—Nepean"
          }
        ],
        "pollDivisionIds": [
          10140817,
          10140823
        ],
        "postalCode": "K2B6A2",
        "streetName": "KIRBY",
        "streetDirectionId": null,
        "streetTypeId": "RD",
        "placeName": "OTTAWA",
        "streetNameDisplayText": "KIRBY RD, OTTAWA"
      }
    ]
  },
  {
    "postal": "K2B9S8",
    "result": []
  },
  {
    "postal": "K2B9T4",
    "result": []
  },
  {
    "postal": "K2B9Y4",
    "result": []
  },
  {
    "postal": "K2B6G5",
    "result": [
      {
        "electoralDistricts": [
          {
            "election": null,
            "id": 81,
            "name": "Ottawa West—Nepean"
          }
        ],
        "pollDivisionIds": [
          10140824
        ],
        "postalCode": "K2B6G5",
        "streetName": "HIGHFIELD",
        "streetDirectionId": null,
        "streetTypeId": "CRES",
        "placeName": "OTTAWA",
        "streetNameDisplayText": "HIGHFIELD CRES, OTTAWA"
      }
    ]
  },
  {
    "postal": "K2B6H9",
    "result": [
      {
        "electoralDistricts": [
          {
            "election": null,
            "id": 81,
            "name": "Ottawa West—Nepean"
          }
        ],
        "pollDivisionIds": [
          10140820
        ],
        "postalCode": "K2B6H9",
        "streetName": "BOYCE",
        "streetDirectionId": null,
        "streetTypeId": "AVE",
        "placeName": "OTTAWA",
        "streetNameDisplayText": "BOYCE AVE, OTTAWA"
      }
    ]
  },
  {
    "postal": "K2B2P3",
    "result": []
  },
  {
    "postal": "K2B1T6",
    "result": []
  },
  {
    "postal": "K2B4P6",
    "result": []
  },
  {
    "postal": "K2B3K1",
    "result": []
  },
  {
    "postal": "K2B6X4",
    "result": [
      {
        "electoralDistricts": [
          {
            "election": null,
            "id": 81,
            "name": "Ottawa West—Nepean"
          }
        ],
        "pollDivisionIds": [
          10140826
        ],
        "postalCode": "K2B6X4",
        "streetName": "REGINA",
        "streetDirectionId": null,
        "streetTypeId": "ST",
        "placeName": "OTTAWA",
        "streetNameDisplayText": "REGINA ST, OTTAWA"
      }
    ]
  },
  {
    "postal": "K2B4M8",
    "result": []
  },
  {
    "postal": "K2B2Y1",
    "result": []
  },
  {
    "postal": "K2B6M1",
    "result": [
      {
        "electoralDistricts": [
          {
            "election": null,
            "id": 81,
            "name": "Ottawa West—Nepean"
          }
        ],
        "pollDivisionIds": [
          10140820
        ],
        "postalCode": "K2B6M1",
        "streetName": "KEMPSTER",
        "streetDirectionId": null,
        "streetTypeId": "AVE",
        "placeName": "OTTAWA",
        "streetNameDisplayText": "KEMPSTER AVE, OTTAWA"
      }
    ]
  },
  {
    "postal": "K2B5L8",
    "result": [
      {
        "electoralDistricts": [
          {
            "election": null,
            "id": 81,
            "name": "Ottawa West—Nepean"
          }
        ],
        "pollDivisionIds": [
          10140826
        ],
        "postalCode": "K2B5L8",
        "streetName": "LINCOLN HEIGHTS",
        "streetDirectionId": null,
        "streetTypeId": "RD",
        "placeName": "OTTAWA",
        "streetNameDisplayText": "LINCOLN HEIGHTS RD, OTTAWA"
      }
    ]
  },
  {
    "postal": "K2B3P6",
    "result": []
  },
  {
    "postal": "K2B9A5",
    "result": []
  },
  {
    "postal": "K2B7K1",
    "result": [
      {
        "electoralDistricts": [
          {
            "election": null,
            "id": 81,
            "name": "Ottawa West—Nepean"
          }
        ],
        "pollDivisionIds": [
          10140820,
          10140819
        ],
        "postalCode": "K2B7K1",
        "streetName": "CARLING",
        "streetDirectionId": null,
        "streetTypeId": "AVE",
        "placeName": "OTTAWA",
        "streetNameDisplayText": "CARLING AVE, OTTAWA"
      }
    ]
  },
  {
    "postal": "K2B3J4",
    "result": []
  },
  {
    "postal": "K2B5E7",
    "result": [
      {
        "electoralDistricts": [
          {
            "election": null,
            "id": 81,
            "name": "Ottawa West—Nepean"
          }
        ],
        "pollDivisionIds": [
          10140830
        ],
        "postalCode": "K2B5E7",
        "streetName": "NEW ORCHARD",
        "streetDirectionId": "N",
        "streetTypeId": "AVE",
        "placeName": "OTTAWA",
        "streetNameDisplayText": "NEW ORCHARD AVE N, OTTAWA"
      }
    ]
  },
  {
    "postal": "K2B3A7",
    "result": []
  },
  {
    "postal": "K2B1B9",
    "result": []
  },
  {
    "postal": "K2B9E8",
    "result": []
  },
  {
    "postal": "K2B1C9",
    "result": []
  },
  {
    "postal": "K2B3B5",
    "result": []
  },
  {
    "postal": "K2B8R0",
    "result": []
  },
  {
    "postal": "K2B3P2",
    "result": []
  },
  {
    "postal": "K2B5V4",
    "result": [
      {
        "electoralDistricts": [
          {
            "election": null,
            "id": 81,
            "name": "Ottawa West—Nepean"
          }
        ],
        "pollDivisionIds": [
          10140829
        ],
        "postalCode": "K2B5V4",
        "streetName": "MAPLEWOOD",
        "streetDirectionId": null,
        "streetTypeId": "AVE",
        "placeName": "OTTAWA",
        "streetNameDisplayText": "MAPLEWOOD AVE, OTTAWA"
      }
    ]
  },
  {
    "postal": "K2B4H0",
    "result": []
  },
  {
    "postal": "K2B4S7",
    "result": []
  },
  {
    "postal": "K2B6C2",
    "result": [
      {
        "electoralDistricts": [
          {
            "election": null,
            "id": 81,
            "name": "Ottawa West—Nepean"
          }
        ],
        "pollDivisionIds": [
          10140828
        ],
        "postalCode": "K2B6C2",
        "streetName": "WATSON",
        "streetDirectionId": null,
        "streetTypeId": "ST",
        "placeName": "OTTAWA",
        "streetNameDisplayText": "WATSON ST, OTTAWA"
      }
    ]
  },
  {
    "postal": "K2B8W3",
    "result": []
  },
  {
    "postal": "K2B4M5",
    "result": []
  },
  {
    "postal": "K2B5T1",
    "result": [
      {
        "electoralDistricts": [
          {
            "election": null,
            "id": 81,
            "name": "Ottawa West—Nepean"
          }
        ],
        "pollDivisionIds": [
          10140829
        ],
        "postalCode": "K2B5T1",
        "streetName": "DUNDEE",
        "streetDirectionId": null,
        "streetTypeId": "AVE",
        "placeName": "OTTAWA",
        "streetNameDisplayText": "DUNDEE AVE, OTTAWA"
      }
    ]
  },
  {
    "postal": "K2B3B3",
    "result": []
  },
  {
    "postal": "K2B6C6",
    "result": [
      {
        "electoralDistricts": [
          {
            "election": null,
            "id": 81,
            "name": "Ottawa West—Nepean"
          }
        ],
        "pollDivisionIds": [
          10140828
        ],
        "postalCode": "K2B6C6",
        "streetName": "FARRELL",
        "streetDirectionId": null,
        "streetTypeId": "ST",
        "placeName": "OTTAWA",
        "streetNameDisplayText": "FARRELL ST, OTTAWA"
      }
    ]
  },
  {
    "postal": "K2B7N8",
    "result": [
      {
        "electoralDistricts": [
          {
            "election": null,
            "id": 81,
            "name": "Ottawa West—Nepean"
          }
        ],
        "pollDivisionIds": [
          10140829
        ],
        "postalCode": "K2B7N8",
        "streetName": "ELMHURST",
        "streetDirectionId": null,
        "streetTypeId": "ST",
        "placeName": "OTTAWA",
        "streetNameDisplayText": "ELMHURST ST, OTTAWA"
      }
    ]
  },
  {
    "postal": "K2B2Y3",
    "result": []
  },
  {
    "postal": "K2B2R6",
    "result": []
  },
  {
    "postal": "K2B7N3",
    "result": [
      {
        "electoralDistricts": [
          {
            "election": null,
            "id": 81,
            "name": "Ottawa West—Nepean"
          }
        ],
        "pollDivisionIds": [
          10140829
        ],
        "postalCode": "K2B7N3",
        "streetName": "ELMHURST",
        "streetDirectionId": null,
        "streetTypeId": "ST",
        "placeName": "OTTAWA",
        "streetNameDisplayText": "ELMHURST ST, OTTAWA"
      }
    ]
  },
  {
    "postal": "K2B8J2",
    "result": [
      {
        "electoralDistricts": [
          {
            "election": null,
            "id": 17,
            "name": "Carleton"
          },
          {
            "election": null,
            "id": 81,
            "name": "Ottawa West—Nepean"
          }
        ],
        "pollDivisionIds": [
          10137497,
          10140824
        ],
        "postalCode": "K2B8J2",
        "streetName": "DUMAURIER",
        "streetDirectionId": null,
        "streetTypeId": "AVE",
        "placeName": "OTTAWA",
        "streetNameDisplayText": "DUMAURIER AVE, OTTAWA"
      }
    ]
  },
  {
    "postal": "K2B6A9",
    "result": [
      {
        "electoralDistricts": [
          {
            "election": null,
            "id": 81,
            "name": "Ottawa West—Nepean"
          }
        ],
        "pollDivisionIds": [
          10140828
        ],
        "postalCode": "K2B6A9",
        "streetName": "PINECREST",
        "streetDirectionId": null,
        "streetTypeId": "RD",
        "placeName": "OTTAWA",
        "streetNameDisplayText": "PINECREST RD, OTTAWA"
      }
    ]
  },
  {
    "postal": "K2B3V2",
    "result": []
  },
  {
    "postal": "K2B2N3",
    "result": []
  },
  {
    "postal": "K2B1S5",
    "result": []
  },
  {
    "postal": "K2B4T7",
    "result": []
  },
  {
    "postal": "K2B6Y7",
    "result": [
      {
        "electoralDistricts": [
          {
            "election": null,
            "id": 81,
            "name": "Ottawa West—Nepean"
          }
        ],
        "pollDivisionIds": [
          10140823
        ],
        "postalCode": "K2B6Y7",
        "streetName": "DON",
        "streetDirectionId": null,
        "streetTypeId": "ST",
        "placeName": "OTTAWA",
        "streetNameDisplayText": "DON ST, OTTAWA"
      }
    ]
  },
  {
    "postal": "K2B0W7",
    "result": []
  },
  {
    "postal": "K2B2W9",
    "result": []
  },
  {
    "postal": "K2B8V0",
    "result": []
  },
  {
    "postal": "K2B0H4",
    "result": []
  },
  {
    "postal": "K2B2T1",
    "result": []
  },
  {
    "postal": "K2B1B1",
    "result": [
      {
        "electoralDistricts": [
          {
            "election": null,
            "id": 81,
            "name": "Ottawa West—Nepean"
          }
        ],
        "pollDivisionIds": [
          10140823
        ],
        "postalCode": "K2B1B1",
        "streetName": "GREENVIEW",
        "streetDirectionId": null,
        "streetTypeId": "AVE",
        "placeName": "OTTAWA",
        "streetNameDisplayText": "GREENVIEW AVE, OTTAWA"
      },
      {
        "electoralDistricts": [
          {
            "election": null,
            "id": 17,
            "name": "Carleton"
          }
        ],
        "pollDivisionIds": [
          10137485
        ],
        "postalCode": "K2B1B1",
        "streetName": "STITTSVILLE MAIN",
        "streetDirectionId": null,
        "streetTypeId": "ST",
        "placeName": "STITTSVILLE",
        "streetNameDisplayText": "STITTSVILLE MAIN ST, STITTSVILLE"
      }
    ]
  },
  {
    "postal": "K2B8B6",
    "result": [
      {
        "electoralDistricts": [
          {
            "election": null,
            "id": 81,
            "name": "Ottawa West—Nepean"
          }
        ],
        "pollDivisionIds": [
          10140826
        ],
        "postalCode": "K2B8B6",
        "streetName": "REGINA",
        "streetDirectionId": null,
        "streetTypeId": "ST",
        "placeName": "OTTAWA",
        "streetNameDisplayText": "REGINA ST, OTTAWA"
      }
    ]
  },
  {
    "postal": "K2B6H1",
    "result": [
      {
        "electoralDistricts": [
          {
            "election": null,
            "id": 81,
            "name": "Ottawa West—Nepean"
          }
        ],
        "pollDivisionIds": [
          10140820
        ],
        "postalCode": "K2B6H1",
        "streetName": "SCRIVENS",
        "streetDirectionId": null,
        "streetTypeId": "ST",
        "placeName": "OTTAWA",
        "streetNameDisplayText": "SCRIVENS ST, OTTAWA"
      }
    ]
  },
  {
    "postal": "K2B8T8",
    "result": []
  },
  {
    "postal": "K2B0T4",
    "result": []
  },
  {
    "postal": "K2B2C4",
    "result": []
  },
  {
    "postal": "K2B8N3",
    "result": [
      {
        "electoralDistricts": [
          {
            "election": null,
            "id": 81,
            "name": "Ottawa West—Nepean"
          }
        ],
        "pollDivisionIds": [
          10140824,
          10140828
        ],
        "postalCode": "K2B8N3",
        "streetName": "GRENON",
        "streetDirectionId": null,
        "streetTypeId": "AVE",
        "placeName": "OTTAWA",
        "streetNameDisplayText": "GRENON AVE, OTTAWA"
      }
    ]
  },
  {
    "postal": "K2B4L8",
    "result": []
  },
  {
    "postal": "K2B2B5",
    "result": []
  },
  {
    "postal": "K2B3H1",
    "result": []
  },
  {
    "postal": "K2B4Y1",
    "result": []
  },
  {
    "postal": "K2B7E2",
    "result": [
      {
        "electoralDistricts": [
          {
            "election": null,
            "id": 81,
            "name": "Ottawa West—Nepean"
          }
        ],
        "pollDivisionIds": [
          10140826
        ],
        "postalCode": "K2B7E2",
        "streetName": "PRISCILLA",
        "streetDirectionId": null,
        "streetTypeId": "ST",
        "placeName": "OTTAWA",
        "streetNameDisplayText": "PRISCILLA ST, OTTAWA"
      }
    ]
  },
  {
    "postal": "K2B2P5",
    "result": []
  },
  {
    "postal": "K2B8R7",
    "result": [
      {
        "electoralDistricts": [
          {
            "election": null,
            "id": 81,
            "name": "Ottawa West—Nepean"
          }
        ],
        "pollDivisionIds": [
          10140826
        ],
        "postalCode": "K2B8R7",
        "streetName": "WINTHROP",
        "streetDirectionId": null,
        "streetTypeId": "PVT",
        "placeName": "OTTAWA",
        "streetNameDisplayText": "WINTHROP PVT, OTTAWA"
      }
    ]
  },
  {
    "postal": "K2B9P1",
    "result": []
  },
  {
    "postal": "K2B3B8",
    "result": []
  },
  {
    "postal": "K2B3P7",
    "result": []
  },
  {
    "postal": "K2B9B2",
    "result": []
  },
  {
    "postal": "K2B6Z3",
    "result": [
      {
        "electoralDistricts": [
          {
            "election": null,
            "id": 81,
            "name": "Ottawa West—Nepean"
          }
        ],
        "pollDivisionIds": [
          10140820
        ],
        "postalCode": "K2B6Z3",
        "streetName": "HAUGHTON",
        "streetDirectionId": null,
        "streetTypeId": "AVE",
        "placeName": "OTTAWA",
        "streetNameDisplayText": "HAUGHTON AVE, OTTAWA"
      }
    ]
  },
  {
    "postal": "K2B4N5",
    "result": []
  },
  {
    "postal": "K2B8T3",
    "result": []
  },
  {
    "postal": "K2B1V2",
    "result": []
  },
  {
    "postal": "K2B1Y0",
    "result": []
  },
  {
    "postal": "K2B3G6",
    "result": []
  },
  {
    "postal": "K2B3H7",
    "result": []
  },
  {
    "postal": "K2B7X8",
    "result": [
      {
        "electoralDistricts": [
          {
            "election": null,
            "id": 81,
            "name": "Ottawa West—Nepean"
          }
        ],
        "pollDivisionIds": [
          10140829
        ],
        "postalCode": "K2B7X8",
        "streetName": "ROMAN",
        "streetDirectionId": null,
        "streetTypeId": "AVE",
        "placeName": "OTTAWA",
        "streetNameDisplayText": "ROMAN AVE, OTTAWA"
      }
    ]
  },
  {
    "postal": "K2B0C7",
    "result": []
  },
  {
    "postal": "K2B0W9",
    "result": []
  },
  {
    "postal": "K2B8E6",
    "result": [
      {
        "electoralDistricts": [
          {
            "election": null,
            "id": 81,
            "name": "Ottawa West—Nepean"
          }
        ],
        "pollDivisionIds": [
          10140829
        ],
        "postalCode": "K2B8E6",
        "streetName": "FOREST",
        "streetDirectionId": null,
        "streetTypeId": "ST",
        "placeName": "OTTAWA",
        "streetNameDisplayText": "FOREST ST, OTTAWA"
      }
    ]
  },
  {
    "postal": "K2B9Z8",
    "result": []
  },
  {
    "postal": "K2B3P4",
    "result": []
  },
  {
    "postal": "K2B6L8",
    "result": [
      {
        "electoralDistricts": [
          {
            "election": null,
            "id": 81,
            "name": "Ottawa West—Nepean"
          }
        ],
        "pollDivisionIds": [
          10140824
        ],
        "postalCode": "K2B6L8",
        "streetName": "PULFORD",
        "streetDirectionId": null,
        "streetTypeId": "CRES",
        "placeName": "NEPEAN",
        "streetNameDisplayText": "PULFORD CRES, NEPEAN"
      }
    ]
  },
  {
    "postal": "K2B2R4",
    "result": []
  },
  {
    "postal": "K2B2W1",
    "result": []
  },
  {
    "postal": "K2B9H8",
    "result": []
  },
  {
    "postal": "K2B8X9",
    "result": []
  },
  {
    "postal": "K2B7H4",
    "result": [
      {
        "electoralDistricts": [
          {
            "election": null,
            "id": 81,
            "name": "Ottawa West—Nepean"
          }
        ],
        "pollDivisionIds": [
          10140829
        ],
        "postalCode": "K2B7H4",
        "streetName": "CARLING",
        "streetDirectionId": null,
        "streetTypeId": "AVE",
        "placeName": "OTTAWA",
        "streetNameDisplayText": "CARLING AVE, OTTAWA"
      }
    ]
  },
  {
    "postal": "K2B3J1",
    "result": []
  },
  {
    "postal": "K2B1P4",
    "result": []
  },
  {
    "postal": "K2B2A3",
    "result": []
  },
  {
    "postal": "K2B0Z1",
    "result": []
  },
  {
    "postal": "K2B1C1",
    "result": []
  },
  {
    "postal": "K2B0H3",
    "result": []
  },
  {
    "postal": "K2B7B0",
    "result": []
  },
  {
    "postal": "K2B5K2",
    "result": [
      {
        "electoralDistricts": [
          {
            "election": null,
            "id": 81,
            "name": "Ottawa West—Nepean"
          }
        ],
        "pollDivisionIds": [
          10140831
        ],
        "postalCode": "K2B5K2",
        "streetName": "PARKHAVEN",
        "streetDirectionId": null,
        "streetTypeId": "AVE",
        "placeName": "OTTAWA",
        "streetNameDisplayText": "PARKHAVEN AVE, OTTAWA"
      }
    ]
  },
  {
    "postal": "K2B1E9",
    "result": []
  },
  {
    "postal": "K2B9W7",
    "result": []
  },
  {
    "postal": "K2B5W6",
    "result": [
      {
        "electoralDistricts": [
          {
            "election": null,
            "id": 81,
            "name": "Ottawa West—Nepean"
          }
        ],
        "pollDivisionIds": [
          10140828
        ],
        "postalCode": "K2B5W6",
        "streetName": "PINECREST",
        "streetDirectionId": null,
        "streetTypeId": "RD",
        "placeName": "OTTAWA",
        "streetNameDisplayText": "PINECREST RD, OTTAWA"
      }
    ]
  },
  {
    "postal": "K2B6S6",
    "result": [
      {
        "electoralDistricts": [
          {
            "election": null,
            "id": 81,
            "name": "Ottawa West—Nepean"
          }
        ],
        "pollDivisionIds": [
          10140822
        ],
        "postalCode": "K2B6S6",
        "streetName": "RICHMOND",
        "streetDirectionId": null,
        "streetTypeId": "RD",
        "placeName": "OTTAWA",
        "streetNameDisplayText": "RICHMOND RD, OTTAWA"
      }
    ]
  },
  {
    "postal": "K2B2P8",
    "result": []
  },
  {
    "postal": "K2B4P8",
    "result": []
  },
  {
    "postal": "K2B0V9",
    "result": []
  },
  {
    "postal": "K2B5Y2",
    "result": [
      {
        "electoralDistricts": [
          {
            "election": null,
            "id": 81,
            "name": "Ottawa West—Nepean"
          }
        ],
        "pollDivisionIds": [
          10140823
        ],
        "postalCode": "K2B5Y2",
        "streetName": "BRITANNIA",
        "streetDirectionId": null,
        "streetTypeId": "RD",
        "placeName": "OTTAWA",
        "streetNameDisplayText": "BRITANNIA RD, OTTAWA"
      }
    ]
  },
  {
    "postal": "K2B7Z7",
    "result": [
      {
        "electoralDistricts": [
          {
            "election": null,
            "id": 81,
            "name": "Ottawa West—Nepean"
          }
        ],
        "pollDivisionIds": [
          10140829
        ],
        "postalCode": "K2B7Z7",
        "streetName": "FOREST",
        "streetDirectionId": null,
        "streetTypeId": "ST",
        "placeName": "OTTAWA",
        "streetNameDisplayText": "FOREST ST, OTTAWA"
      }
    ]
  },
  {
    "postal": "K2B6Y8",
    "result": [
      {
        "electoralDistricts": [
          {
            "election": null,
            "id": 81,
            "name": "Ottawa West—Nepean"
          }
        ],
        "pollDivisionIds": [
          10140823
        ],
        "postalCode": "K2B6Y8",
        "streetName": "DON",
        "streetDirectionId": null,
        "streetTypeId": "ST",
        "placeName": "OTTAWA",
        "streetNameDisplayText": "DON ST, OTTAWA"
      }
    ]
  },
  {
    "postal": "K2B2G7",
    "result": []
  },
  {
    "postal": "K2B8C1",
    "result": [
      {
        "electoralDistricts": [
          {
            "election": null,
            "id": 81,
            "name": "Ottawa West—Nepean"
          }
        ],
        "pollDivisionIds": [
          10140821
        ],
        "postalCode": "K2B8C1",
        "streetName": "BAYSHORE",
        "streetDirectionId": null,
        "streetTypeId": "DR",
        "placeName": "OTTAWA",
        "streetNameDisplayText": "BAYSHORE DR, OTTAWA"
      }
    ]
  },
  {
    "postal": "K2B5C5",
    "result": [
      {
        "electoralDistricts": [
          {
            "election": null,
            "id": 81,
            "name": "Ottawa West—Nepean"
          }
        ],
        "pollDivisionIds": [
          10140835
        ],
        "postalCode": "K2B5C5",
        "streetName": "WINNINGTON",
        "streetDirectionId": null,
        "streetTypeId": "AVE",
        "placeName": "OTTAWA",
        "streetNameDisplayText": "WINNINGTON AVE, OTTAWA"
      }
    ]
  },
  {
    "postal": "K2B2X8",
    "result": []
  },
  {
    "postal": "K2B1W5",
    "result": []
  },
  {
    "postal": "K2B7G0",
    "result": []
  },
  {
    "postal": "K2B8J8",
    "result": [
      {
        "electoralDistricts": [
          {
            "election": null,
            "id": 81,
            "name": "Ottawa West—Nepean"
          }
        ],
        "pollDivisionIds": [
          10140823
        ],
        "postalCode": "K2B8J8",
        "streetName": "GREENVIEW",
        "streetDirectionId": null,
        "streetTypeId": "AVE",
        "placeName": "OTTAWA",
        "streetNameDisplayText": "GREENVIEW AVE, OTTAWA"
      }
    ]
  },
  {
    "postal": "K2B3Y0",
    "result": []
  },
  {
    "postal": "K2B9T7",
    "result": []
  },
  {
    "postal": "K2B5P4",
    "result": []
  },
  {
    "postal": "K2B4B0",
    "result": []
  },
  {
    "postal": "K2B9N8",
    "result": []
  },
  {
    "postal": "K2B4A7",
    "result": []
  },
  {
    "postal": "K2B4H9",
    "result": []
  },
  {
    "postal": "K2B6X1",
    "result": [
      {
        "electoralDistricts": [
          {
            "election": null,
            "id": 81,
            "name": "Ottawa West—Nepean"
          }
        ],
        "pollDivisionIds": [
          10140826
        ],
        "postalCode": "K2B6X1",
        "streetName": "VIOLET",
        "streetDirectionId": null,
        "streetTypeId": "ST",
        "placeName": "OTTAWA",
        "streetNameDisplayText": "VIOLET ST, OTTAWA"
      }
    ]
  },
  {
    "postal": "K2B9Y7",
    "result": []
  },
  {
    "postal": "K2B2Y5",
    "result": []
  },
  {
    "postal": "K2B8L7",
    "result": [
      {
        "electoralDistricts": [
          {
            "election": null,
            "id": 81,
            "name": "Ottawa West—Nepean"
          }
        ],
        "pollDivisionIds": [
          10140828
        ],
        "postalCode": "K2B8L7",
        "streetName": "GRENON",
        "streetDirectionId": null,
        "streetTypeId": "AVE",
        "placeName": "OTTAWA",
        "streetNameDisplayText": "GRENON AVE, OTTAWA"
      }
    ]
  },
  {
    "postal": "K2B2A8",
    "result": []
  },
  {
    "postal": "K2B2K9",
    "result": []
  },
  {
    "postal": "K2B3E5",
    "result": []
  },
  {
    "postal": "K2B8N6",
    "result": [
      {
        "electoralDistricts": [
          {
            "election": null,
            "id": 81,
            "name": "Ottawa West—Nepean"
          }
        ],
        "pollDivisionIds": [
          10140820
        ],
        "postalCode": "K2B8N6",
        "streetName": "RIGA",
        "streetDirectionId": null,
        "streetTypeId": "PVT",
        "placeName": "OTTAWA",
        "streetNameDisplayText": "RIGA PVT, OTTAWA"
      }
    ]
  },
  {
    "postal": "K2B8J4",
    "result": [
      {
        "electoralDistricts": [
          {
            "election": null,
            "id": 81,
            "name": "Ottawa West—Nepean"
          }
        ],
        "pollDivisionIds": [
          10140828
        ],
        "postalCode": "K2B8J4",
        "streetName": "CRESTHILL",
        "streetDirectionId": null,
        "streetTypeId": "ST",
        "placeName": "OTTAWA",
        "streetNameDisplayText": "CRESTHILL ST, OTTAWA"
      }
    ]
  },
  {
    "postal": "K2B4R7",
    "result": []
  },
  {
    "postal": "K2B9K1",
    "result": []
  },
  {
    "postal": "K2B8E1",
    "result": [
      {
        "electoralDistricts": [
          {
            "election": null,
            "id": 81,
            "name": "Ottawa West—Nepean"
          }
        ],
        "pollDivisionIds": [
          10140860
        ],
        "postalCode": "K2B8E1",
        "streetName": "AMBLESIDE",
        "streetDirectionId": null,
        "streetTypeId": "DR",
        "placeName": "OTTAWA",
        "streetNameDisplayText": "AMBLESIDE DR, OTTAWA"
      }
    ]
  },
  {
    "postal": "K2B0R1",
    "result": []
  },
  {
    "postal": "K2B4J3",
    "result": []
  },
  {
    "postal": "K2B7E7",
    "result": [
      {
        "electoralDistricts": [
          {
            "election": null,
            "id": 81,
            "name": "Ottawa West—Nepean"
          }
        ],
        "pollDivisionIds": [
          10140823
        ],
        "postalCode": "K2B7E7",
        "streetName": "MARIE",
        "streetDirectionId": null,
        "streetTypeId": "ST",
        "placeName": "OTTAWA",
        "streetNameDisplayText": "MARIE ST, OTTAWA"
      }
    ]
  },
  {
    "postal": "K2B0J0",
    "result": []
  },
  {
    "postal": "K2B7R8",
    "result": [
      {
        "electoralDistricts": [
          {
            "election": null,
            "id": 81,
            "name": "Ottawa West—Nepean"
          }
        ],
        "pollDivisionIds": [
          10140828
        ],
        "postalCode": "K2B7R8",
        "streetName": "STUART KETTLES",
        "streetDirectionId": null,
        "streetTypeId": "ST",
        "placeName": "OTTAWA",
        "streetNameDisplayText": "STUART KETTLES ST, OTTAWA"
      }
    ]
  },
  {
    "postal": "K2B9X0",
    "result": []
  },
  {
    "postal": "K2B7P6",
    "result": [
      {
        "electoralDistricts": [
          {
            "election": null,
            "id": 81,
            "name": "Ottawa West—Nepean"
          }
        ],
        "pollDivisionIds": [
          10140831
        ],
        "postalCode": "K2B7P6",
        "streetName": "REMBRANDT",
        "streetDirectionId": null,
        "streetTypeId": "RD",
        "placeName": "OTTAWA",
        "streetNameDisplayText": "REMBRANDT RD, OTTAWA"
      }
    ]
  },
  {
    "postal": "K2B0R7",
    "result": []
  },
  {
    "postal": "K2B5W1",
    "result": [
      {
        "electoralDistricts": [
          {
            "election": null,
            "id": 81,
            "name": "Ottawa West—Nepean"
          }
        ],
        "pollDivisionIds": [
          10140828
        ],
        "postalCode": "K2B5W1",
        "streetName": "NEVILLE",
        "streetDirectionId": null,
        "streetTypeId": "ST",
        "placeName": "OTTAWA",
        "streetNameDisplayText": "NEVILLE ST, OTTAWA"
      }
    ]
  },
  {
    "postal": "K2B0K4",
    "result": []
  },
  {
    "postal": "K2B7N9",
    "result": [
      {
        "electoralDistricts": [
          {
            "election": null,
            "id": 81,
            "name": "Ottawa West—Nepean"
          }
        ],
        "pollDivisionIds": [
          10140829
        ],
        "postalCode": "K2B7N9",
        "streetName": "CRESTHILL",
        "streetDirectionId": null,
        "streetTypeId": "ST",
        "placeName": "OTTAWA",
        "streetNameDisplayText": "CRESTHILL ST, OTTAWA"
      }
    ]
  },
  {
    "postal": "K2B1N0",
    "result": []
  },
  {
    "postal": "K2B6P3",
    "result": [
      {
        "electoralDistricts": [
          {
            "election": null,
            "id": 81,
            "name": "Ottawa West—Nepean"
          }
        ],
        "pollDivisionIds": [
          10140823
        ],
        "postalCode": "K2B6P3",
        "streetName": "JAMIESON",
        "streetDirectionId": null,
        "streetTypeId": "ST",
        "placeName": "OTTAWA",
        "streetNameDisplayText": "JAMIESON ST, OTTAWA"
      }
    ]
  },
  {
    "postal": "K2B5A1",
    "result": [
      {
        "electoralDistricts": [
          {
            "election": null,
            "id": 81,
            "name": "Ottawa West—Nepean"
          }
        ],
        "pollDivisionIds": [
          10140830
        ],
        "postalCode": "K2B5A1",
        "streetName": "ORVIGALE",
        "streetDirectionId": null,
        "streetTypeId": "RD",
        "placeName": "OTTAWA",
        "streetNameDisplayText": "ORVIGALE RD, OTTAWA"
      }
    ]
  },
  {
    "postal": "K2B9M9",
    "result": []
  },
  {
    "postal": "K2B7T6",
    "result": [
      {
        "electoralDistricts": [
          {
            "election": null,
            "id": 81,
            "name": "Ottawa West—Nepean"
          }
        ],
        "pollDivisionIds": [
          10140819
        ],
        "postalCode": "K2B7T6",
        "streetName": "WOODRIDGE",
        "streetDirectionId": null,
        "streetTypeId": "CRES",
        "placeName": "NEPEAN",
        "streetNameDisplayText": "WOODRIDGE CRES, NEPEAN"
      },
      {
        "electoralDistricts": [
          {
            "election": null,
            "id": 81,
            "name": "Ottawa West—Nepean"
          }
        ],
        "pollDivisionIds": [
          10140819
        ],
        "postalCode": "K2B7T6",
        "streetName": "WOODRIDGE",
        "streetDirectionId": null,
        "streetTypeId": "CRES",
        "placeName": "OTTAWA",
        "streetNameDisplayText": "WOODRIDGE CRES, OTTAWA"
      },
      {
        "electoralDistricts": [
          {
            "election": null,
            "id": 81,
            "name": "Ottawa West—Nepean"
          }
        ],
        "pollDivisionIds": [
          10140819
        ],
        "postalCode": "K2B7T6",
        "streetName": "WOODRIDGE CRESENT",
        "streetDirectionId": null,
        "streetTypeId": "CRES",
        "placeName": "NEPEAN",
        "streetNameDisplayText": "WOODRIDGE CRESENT CRES, NEPEAN"
      }
    ]
  },
  {
    "postal": "K2B3X0",
    "result": []
  },
  {
    "postal": "K2B2T0",
    "result": []
  },
  {
    "postal": "K2B5X9",
    "result": [
      {
        "electoralDistricts": [
          {
            "election": null,
            "id": 81,
            "name": "Ottawa West—Nepean"
          }
        ],
        "pollDivisionIds": [
          10140826
        ],
        "postalCode": "K2B5X9",
        "streetName": "BRITANNIA",
        "streetDirectionId": null,
        "streetTypeId": "RD",
        "placeName": "OTTAWA",
        "streetNameDisplayText": "BRITANNIA RD, OTTAWA"
      }
    ]
  },
  {
    "postal": "K2B2R3",
    "result": []
  },
  {
    "postal": "K2B5N2",
    "result": [
      {
        "electoralDistricts": [
          {
            "election": null,
            "id": 81,
            "name": "Ottawa West—Nepean"
          }
        ],
        "pollDivisionIds": [
          10140829
        ],
        "postalCode": "K2B5N2",
        "streetName": "CONNAUGHT",
        "streetDirectionId": null,
        "streetTypeId": "AVE",
        "placeName": "OTTAWA",
        "streetNameDisplayText": "CONNAUGHT AVE, OTTAWA"
      }
    ]
  },
  {
    "postal": "K2B4Y7",
    "result": []
  },
  {
    "postal": "K2B7M0",
    "result": []
  },
  {
    "postal": "K2B8P3",
    "result": [
      {
        "electoralDistricts": [
          {
            "election": null,
            "id": 81,
            "name": "Ottawa West—Nepean"
          }
        ],
        "pollDivisionIds": [
          10140828
        ],
        "postalCode": "K2B8P3",
        "streetName": "MARIELLE",
        "streetDirectionId": null,
        "streetTypeId": "CRT",
        "placeName": "OTTAWA",
        "streetNameDisplayText": "MARIELLE CRT, OTTAWA"
      }
    ]
  },
  {
    "postal": "K2B3N3",
    "result": []
  },
  {
    "postal": "K2B7S3",
    "result": [
      {
        "electoralDistricts": [
          {
            "election": null,
            "id": 81,
            "name": "Ottawa West—Nepean"
          }
        ],
        "pollDivisionIds": [
          10140829
        ],
        "postalCode": "K2B7S3",
        "streetName": "CLARENDA",
        "streetDirectionId": null,
        "streetTypeId": "ST",
        "placeName": "OTTAWA",
        "streetNameDisplayText": "CLARENDA ST, OTTAWA"
      }
    ]
  },
  {
    "postal": "K2B3V9",
    "result": []
  },
  {
    "postal": "K2B9N7",
    "result": []
  },
  {
    "postal": "K2B0G4",
    "result": []
  },
  {
    "postal": "K2B2E2",
    "result": []
  },
  {
    "postal": "K2B7W8",
    "result": [
      {
        "electoralDistricts": [
          {
            "election": null,
            "id": 81,
            "name": "Ottawa West—Nepean"
          }
        ],
        "pollDivisionIds": [
          10140824
        ],
        "postalCode": "K2B7W8",
        "streetName": "BURGESS",
        "streetDirectionId": null,
        "streetTypeId": "AVE",
        "placeName": "NEPEAN",
        "streetNameDisplayText": "BURGESS AVE, NEPEAN"
      }
    ]
  },
  {
    "postal": "K2B7M5",
    "result": [
      {
        "electoralDistricts": [
          {
            "election": null,
            "id": 81,
            "name": "Ottawa West—Nepean"
          }
        ],
        "pollDivisionIds": [
          10140831
        ],
        "postalCode": "K2B7M5",
        "streetName": "GEORGINA",
        "streetDirectionId": null,
        "streetTypeId": "DR",
        "placeName": "OTTAWA",
        "streetNameDisplayText": "GEORGINA DR, OTTAWA"
      }
    ]
  },
  {
    "postal": "K2B5W8",
    "result": [
      {
        "electoralDistricts": [
          {
            "election": null,
            "id": 81,
            "name": "Ottawa West—Nepean"
          }
        ],
        "pollDivisionIds": [
          10140826,
          10140823
        ],
        "postalCode": "K2B5W8",
        "streetName": "REGINA",
        "streetDirectionId": null,
        "streetTypeId": "ST",
        "placeName": "OTTAWA",
        "streetNameDisplayText": "REGINA ST, OTTAWA"
      }
    ]
  },
  {
    "postal": "K2B5E5",
    "result": [
      {
        "electoralDistricts": [
          {
            "election": null,
            "id": 81,
            "name": "Ottawa West—Nepean"
          }
        ],
        "pollDivisionIds": [
          10140831
        ],
        "postalCode": "K2B5E5",
        "streetName": "WOODLAND",
        "streetDirectionId": null,
        "streetTypeId": "AVE",
        "placeName": "OTTAWA",
        "streetNameDisplayText": "WOODLAND AVE, OTTAWA"
      }
    ]
  },
  {
    "postal": "K2B1P9",
    "result": []
  },
  {
    "postal": "K2B8V8",
    "result": []
  },
  {
    "postal": "K2B9G8",
    "result": []
  },
  {
    "postal": "K2B8H9",
    "result": [
      {
        "electoralDistricts": [
          {
            "election": null,
            "id": 81,
            "name": "Ottawa West—Nepean"
          }
        ],
        "pollDivisionIds": [
          10140824
        ],
        "postalCode": "K2B8H9",
        "streetName": "ALENMEDE",
        "streetDirectionId": null,
        "streetTypeId": "CRES",
        "placeName": "OTTAWA",
        "streetNameDisplayText": "ALENMEDE CRES, OTTAWA"
      }
    ]
  },
  {
    "postal": "K2B1Z1",
    "result": []
  },
  {
    "postal": "K2B8M3",
    "result": [
      {
        "electoralDistricts": [
          {
            "election": null,
            "id": 81,
            "name": "Ottawa West—Nepean"
          }
        ],
        "pollDivisionIds": [
          10140829
        ],
        "postalCode": "K2B8M3",
        "streetName": "RICHMOND",
        "streetDirectionId": null,
        "streetTypeId": "RD",
        "placeName": "OTTAWA",
        "streetNameDisplayText": "RICHMOND RD, OTTAWA"
      }
    ]
  },
  {
    "postal": "K2B5H6",
    "result": [
      {
        "electoralDistricts": [
          {
            "election": null,
            "id": 81,
            "name": "Ottawa West—Nepean"
          }
        ],
        "pollDivisionIds": [
          10140831
        ],
        "postalCode": "K2B5H6",
        "streetName": "SADLER",
        "streetDirectionId": null,
        "streetTypeId": "CRES",
        "placeName": "OTTAWA",
        "streetNameDisplayText": "SADLER CRES, OTTAWA"
      }
    ]
  },
  {
    "postal": "K2B7W7",
    "result": [
      {
        "electoralDistricts": [
          {
            "election": null,
            "id": 81,
            "name": "Ottawa West—Nepean"
          }
        ],
        "pollDivisionIds": [
          10140824
        ],
        "postalCode": "K2B7W7",
        "streetName": "MOSGROVE",
        "streetDirectionId": null,
        "streetTypeId": "AVE",
        "placeName": "NEPEAN",
        "streetNameDisplayText": "MOSGROVE AVE, NEPEAN"
      }
    ]
  },
  {
    "postal": "K2B4L0",
    "result": []
  },
  {
    "postal": "K2B2N1",
    "result": []
  },
  {
    "postal": "K2B2H4",
    "result": []
  },
  {
    "postal": "K2B5C8",
    "result": [
      {
        "electoralDistricts": [
          {
            "election": null,
            "id": 81,
            "name": "Ottawa West—Nepean"
          }
        ],
        "pollDivisionIds": [
          10140831
        ],
        "postalCode": "K2B5C8",
        "streetName": "WOODLAND",
        "streetDirectionId": null,
        "streetTypeId": "AVE",
        "placeName": "OTTAWA",
        "streetNameDisplayText": "WOODLAND AVE, OTTAWA"
      }
    ]
  },
  {
    "postal": "K2B8B0",
    "result": []
  },
  {
    "postal": "K2B1T4",
    "result": []
  },
  {
    "postal": "K2B7N7",
    "result": [
      {
        "electoralDistricts": [
          {
            "election": null,
            "id": 81,
            "name": "Ottawa West—Nepean"
          }
        ],
        "pollDivisionIds": [
          10140829
        ],
        "postalCode": "K2B7N7",
        "streetName": "ELMHURST",
        "streetDirectionId": null,
        "streetTypeId": "ST",
        "placeName": "OTTAWA",
        "streetNameDisplayText": "ELMHURST ST, OTTAWA"
      }
    ]
  },
  {
    "postal": "K2B4L3",
    "result": []
  },
  {
    "postal": "K2B2N2",
    "result": []
  },
  {
    "postal": "K2B4N8",
    "result": []
  },
  {
    "postal": "K2B3M5",
    "result": []
  },
  {
    "postal": "K2B6H7",
    "result": [
      {
        "electoralDistricts": [
          {
            "election": null,
            "id": 81,
            "name": "Ottawa West—Nepean"
          }
        ],
        "pollDivisionIds": [
          10140822
        ],
        "postalCode": "K2B6H7",
        "streetName": "PENNY",
        "streetDirectionId": null,
        "streetTypeId": "DR",
        "placeName": "OTTAWA",
        "streetNameDisplayText": "PENNY DR, OTTAWA"
      }
    ]
  },
  {
    "postal": "K2B8Y8",
    "result": []
  },
  {
    "postal": "K2B5R9",
    "result": [
      {
        "electoralDistricts": [
          {
            "election": null,
            "id": 81,
            "name": "Ottawa West—Nepean"
          }
        ],
        "pollDivisionIds": [
          10140829
        ],
        "postalCode": "K2B5R9",
        "streetName": "ALPINE",
        "streetDirectionId": null,
        "streetTypeId": "AVE",
        "placeName": "OTTAWA",
        "streetNameDisplayText": "ALPINE AVE, OTTAWA"
      }
    ]
  },
  {
    "postal": "K2B8G3",
    "result": [
      {
        "electoralDistricts": [
          {
            "election": null,
            "id": 81,
            "name": "Ottawa West—Nepean"
          }
        ],
        "pollDivisionIds": [
          10140822
        ],
        "postalCode": "K2B8G3",
        "streetName": "MICHELE",
        "streetDirectionId": null,
        "streetTypeId": "DR",
        "placeName": "OTTAWA",
        "streetNameDisplayText": "MICHELE DR, OTTAWA"
      }
    ]
  },
  {
    "postal": "K2B4N7",
    "result": []
  },
  {
    "postal": "K2B0B9",
    "result": []
  },
  {
    "postal": "K2B9K7",
    "result": []
  },
  {
    "postal": "K2B9K9",
    "result": []
  },
  {
    "postal": "K2B3Z2",
    "result": []
  },
  {
    "postal": "K2B6W7",
    "result": [
      {
        "electoralDistricts": [
          {
            "election": null,
            "id": 81,
            "name": "Ottawa West—Nepean"
          }
        ],
        "pollDivisionIds": [
          10140826
        ],
        "postalCode": "K2B6W7",
        "streetName": "HOWE",
        "streetDirectionId": null,
        "streetTypeId": "ST",
        "placeName": "OTTAWA",
        "streetNameDisplayText": "HOWE ST, OTTAWA"
      }
    ]
  },
  {
    "postal": "K2B0P1",
    "result": []
  },
  {
    "postal": "K2B3A0",
    "result": []
  },
  {
    "postal": "K2B8L9",
    "result": []
  },
  {
    "postal": "K2B6X0",
    "result": []
  },
  {
    "postal": "K2B3E9",
    "result": []
  },
  {
    "postal": "K2B0S5",
    "result": []
  },
  {
    "postal": "K2B1A2",
    "result": []
  },
  {
    "postal": "K2B5V8",
    "result": [
      {
        "electoralDistricts": [
          {
            "election": null,
            "id": 81,
            "name": "Ottawa West—Nepean"
          }
        ],
        "pollDivisionIds": [
          10140828
        ],
        "postalCode": "K2B5V8",
        "streetName": "ROB ROY",
        "streetDirectionId": null,
        "streetTypeId": "AVE",
        "placeName": "OTTAWA",
        "streetNameDisplayText": "ROB ROY AVE, OTTAWA"
      }
    ]
  },
  {
    "postal": "K2B8C5",
    "result": [
      {
        "electoralDistricts": [
          {
            "election": null,
            "id": 81,
            "name": "Ottawa West—Nepean"
          }
        ],
        "pollDivisionIds": [
          10140829
        ],
        "postalCode": "K2B8C5",
        "streetName": "GOLD",
        "streetDirectionId": null,
        "streetTypeId": "CRES",
        "placeName": "OTTAWA",
        "streetNameDisplayText": "GOLD CRES, OTTAWA"
      }
    ]
  },
  {
    "postal": "K2B6N0",
    "result": []
  },
  {
    "postal": "K2B9E6",
    "result": []
  },
  {
    "postal": "K2B5J7",
    "result": [
      {
        "electoralDistricts": [
          {
            "election": null,
            "id": 81,
            "name": "Ottawa West—Nepean"
          }
        ],
        "pollDivisionIds": [
          10140831
        ],
        "postalCode": "K2B5J7",
        "streetName": "WENTWORTH",
        "streetDirectionId": null,
        "streetTypeId": "AVE",
        "placeName": "OTTAWA",
        "streetNameDisplayText": "WENTWORTH AVE, OTTAWA"
      }
    ]
  },
  {
    "postal": "K2B2R2",
    "result": []
  },
  {
    "postal": "K2B0P5",
    "result": []
  },
  {
    "postal": "K2B5A7",
    "result": [
      {
        "electoralDistricts": [
          {
            "election": null,
            "id": 81,
            "name": "Ottawa West—Nepean"
          }
        ],
        "pollDivisionIds": [
          10140830
        ],
        "postalCode": "K2B5A7",
        "streetName": "COMPTON",
        "streetDirectionId": null,
        "streetTypeId": "AVE",
        "placeName": "OTTAWA",
        "streetNameDisplayText": "COMPTON AVE, OTTAWA"
      }
    ]
  },
  {
    "postal": "K2B1G1",
    "result": []
  },
  {
    "postal": "K2B9R6",
    "result": []
  },
  {
    "postal": "K2B4Z9",
    "result": []
  },
  {
    "postal": "K2B1V5",
    "result": []
  },
  {
    "postal": "K2B9Y5",
    "result": []
  },
  {
    "postal": "K2B1P2",
    "result": []
  },
  {
    "postal": "K2B5X0",
    "result": []
  },
  {
    "postal": "K2B7B8",
    "result": [
      {
        "electoralDistricts": [
          {
            "election": null,
            "id": 81,
            "name": "Ottawa West—Nepean"
          }
        ],
        "pollDivisionIds": [
          10140831
        ],
        "postalCode": "K2B7B8",
        "streetName": "HALLDON",
        "streetDirectionId": null,
        "streetTypeId": "PL",
        "placeName": "OTTAWA",
        "streetNameDisplayText": "HALLDON PL, OTTAWA"
      }
    ]
  },
  {
    "postal": "K2B0C6",
    "result": []
  },
  {
    "postal": "K2B6G1",
    "result": [
      {
        "electoralDistricts": [
          {
            "election": null,
            "id": 81,
            "name": "Ottawa West—Nepean"
          }
        ],
        "pollDivisionIds": [
          10140822
        ],
        "postalCode": "K2B6G1",
        "streetName": "GRENON",
        "streetDirectionId": null,
        "streetTypeId": "AVE",
        "placeName": "OTTAWA",
        "streetNameDisplayText": "GRENON AVE, OTTAWA"
      }
    ]
  },
  {
    "postal": "K2B3K3",
    "result": []
  },
  {
    "postal": "K2B9R0",
    "result": []
  },
  {
    "postal": "K2B4R8",
    "result": []
  },
  {
    "postal": "K2B5P9",
    "result": [
      {
        "electoralDistricts": [
          {
            "election": null,
            "id": 81,
            "name": "Ottawa West—Nepean"
          }
        ],
        "pollDivisionIds": [
          10140829
        ],
        "postalCode": "K2B5P9",
        "streetName": "FOREST",
        "streetDirectionId": "S",
        "streetTypeId": "ST",
        "placeName": "OTTAWA",
        "streetNameDisplayText": "FOREST ST S, OTTAWA"
      }
    ]
  },
  {
    "postal": "K2B8N4",
    "result": []
  },
  {
    "postal": "K2B8H4",
    "result": [
      {
        "electoralDistricts": [
          {
            "election": null,
            "id": 81,
            "name": "Ottawa West—Nepean"
          }
        ],
        "pollDivisionIds": [
          10140824
        ],
        "postalCode": "K2B8H4",
        "streetName": "BARWELL",
        "streetDirectionId": null,
        "streetTypeId": "AVE",
        "placeName": "OTTAWA",
        "streetNameDisplayText": "BARWELL AVE, OTTAWA"
      }
    ]
  },
  {
    "postal": "K2B4V1",
    "result": []
  },
  {
    "postal": "K2B1K5",
    "result": []
  },
  {
    "postal": "K2B1Z5",
    "result": []
  },
  {
    "postal": "K2B9L9",
    "result": []
  },
  {
    "postal": "K2B5L2",
    "result": [
      {
        "electoralDistricts": [
          {
            "election": null,
            "id": 81,
            "name": "Ottawa West—Nepean"
          }
        ],
        "pollDivisionIds": [
          10140831
        ],
        "postalCode": "K2B5L2",
        "streetName": "EDGEWORTH",
        "streetDirectionId": null,
        "streetTypeId": "AVE",
        "placeName": "OTTAWA",
        "streetNameDisplayText": "EDGEWORTH AVE, OTTAWA"
      }
    ]
  },
  {
    "postal": "K2B0M2",
    "result": []
  },
  {
    "postal": "K2B1K8",
    "result": []
  },
  {
    "postal": "K2B3M7",
    "result": []
  },
  {
    "postal": "K2B1B2",
    "result": [
      {
        "electoralDistricts": [
          {
            "election": null,
            "id": 81,
            "name": "Ottawa West—Nepean"
          }
        ],
        "pollDivisionIds": [
          10140824
        ],
        "postalCode": "K2B1B2",
        "streetName": "SPLINTER",
        "streetDirectionId": null,
        "streetTypeId": "CRES",
        "placeName": "OTTAWA",
        "streetNameDisplayText": "SPLINTER CRES, OTTAWA"
      }
    ]
  },
  {
    "postal": "K2B0H9",
    "result": []
  },
  {
    "postal": "K2B8M4",
    "result": [
      {
        "electoralDistricts": [
          {
            "election": null,
            "id": 81,
            "name": "Ottawa West—Nepean"
          }
        ],
        "pollDivisionIds": [
          10140823
        ],
        "postalCode": "K2B8M4",
        "streetName": "CARLING",
        "streetDirectionId": null,
        "streetTypeId": "AVE",
        "placeName": "OTTAWA",
        "streetNameDisplayText": "CARLING AVE, OTTAWA"
      }
    ]
  },
  {
    "postal": "K2B2M5",
    "result": []
  },
  {
    "postal": "K2B0T9",
    "result": []
  },
  {
    "postal": "K2B3P1",
    "result": []
  },
  {
    "postal": "K2B1R6",
    "result": []
  },
  {
    "postal": "K2B9V5",
    "result": []
  },
  {
    "postal": "K2B9T0",
    "result": []
  },
  {
    "postal": "K2B0A9",
    "result": []
  },
  {
    "postal": "K2B1M3",
    "result": []
  },
  {
    "postal": "K2B1W8",
    "result": []
  },
  {
    "postal": "K2B9J1",
    "result": []
  },
  {
    "postal": "K2B8N5",
    "result": [
      {
        "electoralDistricts": [
          {
            "election": null,
            "id": 81,
            "name": "Ottawa West—Nepean"
          }
        ],
        "pollDivisionIds": [
          10140830
        ],
        "postalCode": "K2B8N5",
        "streetName": "ANTHONY",
        "streetDirectionId": null,
        "streetTypeId": "AVE",
        "placeName": "OTTAWA",
        "streetNameDisplayText": "ANTHONY AVE, OTTAWA"
      }
    ]
  },
  {
    "postal": "K2B5X1",
    "result": [
      {
        "electoralDistricts": [
          {
            "election": null,
            "id": 81,
            "name": "Ottawa West—Nepean"
          }
        ],
        "pollDivisionIds": [
          10140823
        ],
        "postalCode": "K2B5X1",
        "streetName": "BRITANNIA",
        "streetDirectionId": null,
        "streetTypeId": "RD",
        "placeName": "OTTAWA",
        "streetNameDisplayText": "BRITANNIA RD, OTTAWA"
      }
    ]
  },
  {
    "postal": "K2B6S2",
    "result": [
      {
        "electoralDistricts": [
          {
            "election": null,
            "id": 81,
            "name": "Ottawa West—Nepean"
          }
        ],
        "pollDivisionIds": [
          10140828
        ],
        "postalCode": "K2B6S2",
        "streetName": "RICHMOND",
        "streetDirectionId": null,
        "streetTypeId": "RD",
        "placeName": "OTTAWA",
        "streetNameDisplayText": "RICHMOND RD, OTTAWA"
      }
    ]
  },
  {
    "postal": "K2B2A2",
    "result": [
      {
        "electoralDistricts": [
          {
            "election": null,
            "id": 81,
            "name": "Ottawa West—Nepean"
          }
        ],
        "pollDivisionIds": [
          10140828
        ],
        "postalCode": "K2B2A2",
        "streetName": "QUEENSVIEW",
        "streetDirectionId": null,
        "streetTypeId": "DR",
        "placeName": "OTTAWA",
        "streetNameDisplayText": "QUEENSVIEW DR, OTTAWA"
      }
    ]
  },
  {
    "postal": "K2B6A6",
    "result": [
      {
        "electoralDistricts": [
          {
            "election": null,
            "id": 81,
            "name": "Ottawa West—Nepean"
          }
        ],
        "pollDivisionIds": [
          10140823
        ],
        "postalCode": "K2B6A6",
        "streetName": "KEHOE",
        "streetDirectionId": null,
        "streetTypeId": "ST",
        "placeName": "OTTAWA",
        "streetNameDisplayText": "KEHOE ST, OTTAWA"
      }
    ]
  },
  {
    "postal": "K2B0S3",
    "result": []
  },
  {
    "postal": "K2B3E7",
    "result": []
  },
  {
    "postal": "K2B5R7",
    "result": [
      {
        "electoralDistricts": [
          {
            "election": null,
            "id": 81,
            "name": "Ottawa West—Nepean"
          }
        ],
        "pollDivisionIds": [
          10140828,
          10140829
        ],
        "postalCode": "K2B5R7",
        "streetName": "ALPINE",
        "streetDirectionId": null,
        "streetTypeId": "AVE",
        "placeName": "OTTAWA",
        "streetNameDisplayText": "ALPINE AVE, OTTAWA"
      }
    ]
  },
  {
    "postal": "K2B3R6",
    "result": []
  },
  {
    "postal": "K2B6K4",
    "result": [
      {
        "electoralDistricts": [
          {
            "election": null,
            "id": 81,
            "name": "Ottawa West—Nepean"
          }
        ],
        "pollDivisionIds": [
          10140819
        ],
        "postalCode": "K2B6K4",
        "streetName": "FIRWOOD",
        "streetDirectionId": null,
        "streetTypeId": "CRES",
        "placeName": "NEPEAN",
        "streetNameDisplayText": "FIRWOOD CRES, NEPEAN"
      }
    ]
  },
  {
    "postal": "K2B2W5",
    "result": []
  },
  {
    "postal": "K2B8W4",
    "result": []
  },
  {
    "postal": "K2B9C2",
    "result": []
  },
  {
    "postal": "K2B2C0",
    "result": []
  },
  {
    "postal": "K2B0E1",
    "result": []
  },
  {
    "postal": "K2B1K9",
    "result": []
  },
  {
    "postal": "K2B1G7",
    "result": []
  },
  {
    "postal": "K2B4E9",
    "result": []
  },
  {
    "postal": "K2B9P0",
    "result": []
  },
  {
    "postal": "K2B5H3",
    "result": [
      {
        "electoralDistricts": [
          {
            "election": null,
            "id": 81,
            "name": "Ottawa West—Nepean"
          }
        ],
        "pollDivisionIds": [
          10140831
        ],
        "postalCode": "K2B5H3",
        "streetName": "WHITEHAVEN",
        "streetDirectionId": null,
        "streetTypeId": "CRES",
        "placeName": "OTTAWA",
        "streetNameDisplayText": "WHITEHAVEN CRES, OTTAWA"
      }
    ]
  },
  {
    "postal": "K2B9X6",
    "result": []
  },
  {
    "postal": "K2B5N7",
    "result": [
      {
        "electoralDistricts": [
          {
            "election": null,
            "id": 81,
            "name": "Ottawa West—Nepean"
          }
        ],
        "pollDivisionIds": [
          10140829
        ],
        "postalCode": "K2B5N7",
        "streetName": "TAVISTOCK",
        "streetDirectionId": null,
        "streetTypeId": "RD",
        "placeName": "OTTAWA",
        "streetNameDisplayText": "TAVISTOCK RD, OTTAWA"
      }
    ]
  },
  {
    "postal": "K2B5A6",
    "result": [
      {
        "electoralDistricts": [
          {
            "election": null,
            "id": 81,
            "name": "Ottawa West—Nepean"
          }
        ],
        "pollDivisionIds": [
          10140830
        ],
        "postalCode": "K2B5A6",
        "streetName": "COMPTON",
        "streetDirectionId": null,
        "streetTypeId": "AVE",
        "placeName": "OTTAWA",
        "streetNameDisplayText": "COMPTON AVE, OTTAWA"
      }
    ]
  },
  {
    "postal": "K2B4M0",
    "result": []
  },
  {
    "postal": "K2B3V6",
    "result": []
  },
  {
    "postal": "K2B1L7",
    "result": []
  },
  {
    "postal": "K2B2P9",
    "result": []
  },
  {
    "postal": "K2B5T4",
    "result": [
      {
        "electoralDistricts": [
          {
            "election": null,
            "id": 81,
            "name": "Ottawa West—Nepean"
          }
        ],
        "pollDivisionIds": [
          10140826
        ],
        "postalCode": "K2B5T4",
        "streetName": "POULIN",
        "streetDirectionId": null,
        "streetTypeId": "AVE",
        "placeName": "OTTAWA",
        "streetNameDisplayText": "POULIN AVE, OTTAWA"
      }
    ]
  },
  {
    "postal": "K2B5Z1",
    "result": [
      {
        "electoralDistricts": [
          {
            "election": null,
            "id": 81,
            "name": "Ottawa West—Nepean"
          }
        ],
        "pollDivisionIds": [
          10140823
        ],
        "postalCode": "K2B5Z1",
        "streetName": "BRADFORD",
        "streetDirectionId": null,
        "streetTypeId": "ST",
        "placeName": "OTTAWA",
        "streetNameDisplayText": "BRADFORD ST, OTTAWA"
      }
    ]
  },
  {
    "postal": "K2B2X0",
    "result": []
  },
  {
    "postal": "K2B6Z2",
    "result": [
      {
        "electoralDistricts": [
          {
            "election": null,
            "id": 81,
            "name": "Ottawa West—Nepean"
          }
        ],
        "pollDivisionIds": [
          10140820
        ],
        "postalCode": "K2B6Z2",
        "streetName": "HAUGHTON",
        "streetDirectionId": null,
        "streetTypeId": "AVE",
        "placeName": "OTTAWA",
        "streetNameDisplayText": "HAUGHTON AVE, OTTAWA"
      }
    ]
  },
  {
    "postal": "K2B0E0",
    "result": []
  },
  {
    "postal": "K2B3Z5",
    "result": []
  },
  {
    "postal": "K2B8H3",
    "result": [
      {
        "electoralDistricts": [
          {
            "election": null,
            "id": 81,
            "name": "Ottawa West—Nepean"
          }
        ],
        "pollDivisionIds": [
          10140824
        ],
        "postalCode": "K2B8H3",
        "streetName": "ALENMEDE",
        "streetDirectionId": null,
        "streetTypeId": "CRES",
        "placeName": "OTTAWA",
        "streetNameDisplayText": "ALENMEDE CRES, OTTAWA"
      }
    ]
  },
  {
    "postal": "K2B7S6",
    "result": [
      {
        "electoralDistricts": [
          {
            "election": null,
            "id": 81,
            "name": "Ottawa West—Nepean"
          }
        ],
        "pollDivisionIds": [
          10140828
        ],
        "postalCode": "K2B7S6",
        "streetName": "ST. STEPHEN'S",
        "streetDirectionId": null,
        "streetTypeId": "ST",
        "placeName": "OTTAWA",
        "streetNameDisplayText": "ST. STEPHEN'S ST, OTTAWA"
      }
    ]
  },
  {
    "postal": "K2B4C1",
    "result": []
  },
  {
    "postal": "K2B3K2",
    "result": []
  },
  {
    "postal": "K2B1Y5",
    "result": []
  },
  {
    "postal": "K2B6P6",
    "result": [
      {
        "electoralDistricts": [
          {
            "election": null,
            "id": 81,
            "name": "Ottawa West—Nepean"
          }
        ],
        "pollDivisionIds": [
          10140823
        ],
        "postalCode": "K2B6P6",
        "streetName": "CASCADES",
        "streetDirectionId": null,
        "streetTypeId": "AVE",
        "placeName": "OTTAWA",
        "streetNameDisplayText": "CASCADES AVE, OTTAWA"
      }
    ]
  },
  {
    "postal": "K2B3N9",
    "result": []
  },
  {
    "postal": "K2B3W2",
    "result": []
  },
  {
    "postal": "K2B6H8",
    "result": [
      {
        "electoralDistricts": [
          {
            "election": null,
            "id": 81,
            "name": "Ottawa West—Nepean"
          }
        ],
        "pollDivisionIds": [
          10140820
        ],
        "postalCode": "K2B6H8",
        "streetName": "BOYCE",
        "streetDirectionId": null,
        "streetTypeId": "AVE",
        "placeName": "OTTAWA",
        "streetNameDisplayText": "BOYCE AVE, OTTAWA"
      }
    ]
  },
  {
    "postal": "K2B9T3",
    "result": []
  },
  {
    "postal": "K2B5L9",
    "result": [
      {
        "electoralDistricts": [
          {
            "election": null,
            "id": 81,
            "name": "Ottawa West—Nepean"
          }
        ],
        "pollDivisionIds": [
          10140829
        ],
        "postalCode": "K2B5L9",
        "streetName": "HINDLEY",
        "streetDirectionId": null,
        "streetTypeId": "ST",
        "placeName": "OTTAWA",
        "streetNameDisplayText": "HINDLEY ST, OTTAWA"
      }
    ]
  },
  {
    "postal": "K2B7X7",
    "result": [
      {
        "electoralDistricts": [
          {
            "election": null,
            "id": 81,
            "name": "Ottawa West—Nepean"
          }
        ],
        "pollDivisionIds": [
          10140829
        ],
        "postalCode": "K2B7X7",
        "streetName": "HOPKINS",
        "streetDirectionId": null,
        "streetTypeId": "RD",
        "placeName": "OTTAWA",
        "streetNameDisplayText": "HOPKINS RD, OTTAWA"
      }
    ]
  },
  {
    "postal": "K2B3J5",
    "result": []
  },
  {
    "postal": "K2B4J5",
    "result": []
  },
  {
    "postal": "K2B6J2",
    "result": [
      {
        "electoralDistricts": [
          {
            "election": null,
            "id": 81,
            "name": "Ottawa West—Nepean"
          }
        ],
        "pollDivisionIds": [
          10140820
        ],
        "postalCode": "K2B6J2",
        "streetName": "BOYCE",
        "streetDirectionId": null,
        "streetTypeId": "AVE",
        "placeName": "OTTAWA",
        "streetNameDisplayText": "BOYCE AVE, OTTAWA"
      }
    ]
  },
  {
    "postal": "K2B5V6",
    "result": [
      {
        "electoralDistricts": [
          {
            "election": null,
            "id": 81,
            "name": "Ottawa West—Nepean"
          }
        ],
        "pollDivisionIds": [
          10140829
        ],
        "postalCode": "K2B5V6",
        "streetName": "MAPLEWOOD",
        "streetDirectionId": null,
        "streetTypeId": "AVE",
        "placeName": "OTTAWA",
        "streetNameDisplayText": "MAPLEWOOD AVE, OTTAWA"
      }
    ]
  },
  {
    "postal": "K2B3N2",
    "result": []
  },
  {
    "postal": "K2B3B1",
    "result": []
  },
  {
    "postal": "K2B8B5",
    "result": [
      {
        "electoralDistricts": [
          {
            "election": null,
            "id": 81,
            "name": "Ottawa West—Nepean"
          }
        ],
        "pollDivisionIds": [
          10140826
        ],
        "postalCode": "K2B8B5",
        "streetName": "REGINA",
        "streetDirectionId": null,
        "streetTypeId": "ST",
        "placeName": "OTTAWA",
        "streetNameDisplayText": "REGINA ST, OTTAWA"
      }
    ]
  },
  {
    "postal": "K2B0K1",
    "result": []
  },
  {
    "postal": "K2B7M7",
    "result": [
      {
        "electoralDistricts": [
          {
            "election": null,
            "id": 81,
            "name": "Ottawa West—Nepean"
          }
        ],
        "pollDivisionIds": [
          10140831
        ],
        "postalCode": "K2B7M7",
        "streetName": "GEORGINA",
        "streetDirectionId": null,
        "streetTypeId": "DR",
        "placeName": "OTTAWA",
        "streetNameDisplayText": "GEORGINA DR, OTTAWA"
      }
    ]
  },
  {
    "postal": "K2B2M2",
    "result": []
  },
  {
    "postal": "K2B9N3",
    "result": []
  },
  {
    "postal": "K2B4Y8",
    "result": []
  },
  {
    "postal": "K2B3V7",
    "result": []
  },
  {
    "postal": "K2B8Z1",
    "result": []
  },
  {
    "postal": "K2B7B3",
    "result": [
      {
        "electoralDistricts": [
          {
            "election": null,
            "id": 81,
            "name": "Ottawa West—Nepean"
          }
        ],
        "pollDivisionIds": [
          10140831
        ],
        "postalCode": "K2B7B3",
        "streetName": "LAWN",
        "streetDirectionId": null,
        "streetTypeId": "AVE",
        "placeName": "OTTAWA",
        "streetNameDisplayText": "LAWN AVE, OTTAWA"
      }
    ]
  },
  {
    "postal": "K2B3A8",
    "result": []
  },
  {
    "postal": "K2B7V5",
    "result": []
  },
  {
    "postal": "K2B2T2",
    "result": []
  },
  {
    "postal": "K2B6L3",
    "result": [
      {
        "electoralDistricts": [
          {
            "election": null,
            "id": 81,
            "name": "Ottawa West—Nepean"
          }
        ],
        "pollDivisionIds": [
          10140819
        ],
        "postalCode": "K2B6L3",
        "streetName": "RIDGEVALLEY",
        "streetDirectionId": null,
        "streetTypeId": "DR",
        "placeName": "NEPEAN",
        "streetNameDisplayText": "RIDGEVALLEY DR, NEPEAN"
      }
    ]
  },
  {
    "postal": "K2B0L2",
    "result": []
  },
  {
    "postal": "K2B5Y8",
    "result": [
      {
        "electoralDistricts": [
          {
            "election": null,
            "id": 81,
            "name": "Ottawa West—Nepean"
          }
        ],
        "pollDivisionIds": [
          10140823
        ],
        "postalCode": "K2B5Y8",
        "streetName": "BRADFORD",
        "streetDirectionId": null,
        "streetTypeId": "ST",
        "placeName": "OTTAWA",
        "streetNameDisplayText": "BRADFORD ST, OTTAWA"
      }
    ]
  },
  {
    "postal": "K2B0B8",
    "result": []
  },
  {
    "postal": "K2B6R5",
    "result": [
      {
        "electoralDistricts": [
          {
            "election": null,
            "id": 81,
            "name": "Ottawa West—Nepean"
          }
        ],
        "pollDivisionIds": [
          10140830
        ],
        "postalCode": "K2B6R5",
        "streetName": "RICHMOND",
        "streetDirectionId": null,
        "streetTypeId": "RD",
        "placeName": "OTTAWA",
        "streetNameDisplayText": "RICHMOND RD, OTTAWA"
      }
    ]
  },
  {
    "postal": "K2B8W6",
    "result": []
  },
  {
    "postal": "K2B8G6",
    "result": [
      {
        "electoralDistricts": [
          {
            "election": null,
            "id": 81,
            "name": "Ottawa West—Nepean"
          }
        ],
        "pollDivisionIds": [
          10140817,
          10140862
        ],
        "postalCode": "K2B8G6",
        "streetName": "AMBLESIDE",
        "streetDirectionId": null,
        "streetTypeId": "DR",
        "placeName": "OTTAWA",
        "streetNameDisplayText": "AMBLESIDE DR, OTTAWA"
      }
    ]
  },
  {
    "postal": "K2B6X3",
    "result": [
      {
        "electoralDistricts": [
          {
            "election": null,
            "id": 81,
            "name": "Ottawa West—Nepean"
          }
        ],
        "pollDivisionIds": [
          10140826
        ],
        "postalCode": "K2B6X3",
        "streetName": "REGINA",
        "streetDirectionId": null,
        "streetTypeId": "ST",
        "placeName": "OTTAWA",
        "streetNameDisplayText": "REGINA ST, OTTAWA"
      }
    ]
  },
  {
    "postal": "K2B7R7",
    "result": [
      {
        "electoralDistricts": [
          {
            "election": null,
            "id": 81,
            "name": "Ottawa West—Nepean"
          }
        ],
        "pollDivisionIds": [
          10140828
        ],
        "postalCode": "K2B7R7",
        "streetName": "STUART KETTLES",
        "streetDirectionId": null,
        "streetTypeId": "ST",
        "placeName": "OTTAWA",
        "streetNameDisplayText": "STUART KETTLES ST, OTTAWA"
      }
    ]
  },
  {
    "postal": "K2B4B6",
    "result": []
  },
  {
    "postal": "K2B3P9",
    "result": []
  },
  {
    "postal": "K2B2T3",
    "result": []
  },
  {
    "postal": "K2B1M4",
    "result": []
  },
  {
    "postal": "K2B0H1",
    "result": []
  },
  {
    "postal": "K2B9W3",
    "result": []
  },
  {
    "postal": "K2B6P1",
    "result": [
      {
        "electoralDistricts": [
          {
            "election": null,
            "id": 81,
            "name": "Ottawa West—Nepean"
          }
        ],
        "pollDivisionIds": [
          10140823
        ],
        "postalCode": "K2B6P1",
        "streetName": "ROWATT",
        "streetDirectionId": null,
        "streetTypeId": "ST",
        "placeName": "OTTAWA",
        "streetNameDisplayText": "ROWATT ST, OTTAWA"
      }
    ]
  },
  {
    "postal": "K2B7G2",
    "result": [
      {
        "electoralDistricts": [
          {
            "election": null,
            "id": 81,
            "name": "Ottawa West—Nepean"
          }
        ],
        "pollDivisionIds": [
          10140835
        ],
        "postalCode": "K2B7G2",
        "streetName": "CARLING",
        "streetDirectionId": null,
        "streetTypeId": "AVE",
        "placeName": "OTTAWA",
        "streetNameDisplayText": "CARLING AVE, OTTAWA"
      }
    ]
  },
  {
    "postal": "K2B4J9",
    "result": []
  },
  {
    "postal": "K2B9E4",
    "result": []
  },
  {
    "postal": "K2B8H0",
    "result": []
  },
  {
    "postal": "K2B4M7",
    "result": []
  },
  {
    "postal": "K2B2G9",
    "result": []
  },
  {
    "postal": "K2B8T2",
    "result": []
  },
  {
    "postal": "K2B7G7",
    "result": [
      {
        "electoralDistricts": [
          {
            "election": null,
            "id": 81,
            "name": "Ottawa West—Nepean"
          }
        ],
        "pollDivisionIds": [
          10140831
        ],
        "postalCode": "K2B7G7",
        "streetName": "CARLING",
        "streetDirectionId": null,
        "streetTypeId": "AVE",
        "placeName": "OTTAWA",
        "streetNameDisplayText": "CARLING AVE, OTTAWA"
      }
    ]
  },
  {
    "postal": "K2B4Z3",
    "result": []
  },
  {
    "postal": "K2B5B3",
    "result": [
      {
        "electoralDistricts": [
          {
            "election": null,
            "id": 81,
            "name": "Ottawa West—Nepean"
          }
        ],
        "pollDivisionIds": [
          10140830
        ],
        "postalCode": "K2B5B3",
        "streetName": "ANCASTER",
        "streetDirectionId": null,
        "streetTypeId": "AVE",
        "placeName": "OTTAWA",
        "streetNameDisplayText": "ANCASTER AVE, OTTAWA"
      }
    ]
  },
  {
    "postal": "K2B1S7",
    "result": []
  },
  {
    "postal": "K2B2N7",
    "result": []
  },
  {
    "postal": "K2B0H8",
    "result": []
  },
  {
    "postal": "K2B7Z4",
    "result": [
      {
        "electoralDistricts": [
          {
            "election": null,
            "id": 81,
            "name": "Ottawa West—Nepean"
          }
        ],
        "pollDivisionIds": [
          10140856,
          10140842
        ],
        "postalCode": "K2B7Z4",
        "streetName": "RICHMOND",
        "streetDirectionId": null,
        "streetTypeId": "RD",
        "placeName": "OTTAWA",
        "streetNameDisplayText": "RICHMOND RD, OTTAWA"
      }
    ]
  },
  {
    "postal": "K2B7B1",
    "result": [
      {
        "electoralDistricts": [
          {
            "election": null,
            "id": 81,
            "name": "Ottawa West—Nepean"
          }
        ],
        "pollDivisionIds": [
          10140831
        ],
        "postalCode": "K2B7B1",
        "streetName": "LAWN",
        "streetDirectionId": null,
        "streetTypeId": "AVE",
        "placeName": "OTTAWA",
        "streetNameDisplayText": "LAWN AVE, OTTAWA"
      }
    ]
  },
  {
    "postal": "K2B7P8",
    "result": [
      {
        "electoralDistricts": [
          {
            "election": null,
            "id": 81,
            "name": "Ottawa West—Nepean"
          }
        ],
        "pollDivisionIds": [
          10140835
        ],
        "postalCode": "K2B7P8",
        "streetName": "REMBRANDT",
        "streetDirectionId": null,
        "streetTypeId": "RD",
        "placeName": "OTTAWA",
        "streetNameDisplayText": "REMBRANDT RD, OTTAWA"
      }
    ]
  },
  {
    "postal": "K2B7N0",
    "result": []
  },
  {
    "postal": "K2B3Y5",
    "result": []
  },
  {
    "postal": "K2B6K1",
    "result": [
      {
        "electoralDistricts": [
          {
            "election": null,
            "id": 81,
            "name": "Ottawa West—Nepean"
          }
        ],
        "pollDivisionIds": [
          10140820
        ],
        "postalCode": "K2B6K1",
        "streetName": "BURLAND",
        "streetDirectionId": null,
        "streetTypeId": "ST",
        "placeName": "OTTAWA",
        "streetNameDisplayText": "BURLAND ST, OTTAWA"
      }
    ]
  },
  {
    "postal": "K2B9X5",
    "result": []
  },
  {
    "postal": "K2B7S5",
    "result": [
      {
        "electoralDistricts": [
          {
            "election": null,
            "id": 81,
            "name": "Ottawa West—Nepean"
          }
        ],
        "pollDivisionIds": [
          10140828
        ],
        "postalCode": "K2B7S5",
        "streetName": "CLARENDA",
        "streetDirectionId": null,
        "streetTypeId": "ST",
        "placeName": "OTTAWA",
        "streetNameDisplayText": "CLARENDA ST, OTTAWA"
      }
    ]
  },
  {
    "postal": "K2B0A4",
    "result": [
      {
        "electoralDistricts": [
          {
            "election": null,
            "id": 81,
            "name": "Ottawa West—Nepean"
          }
        ],
        "pollDivisionIds": [
          10140829
        ],
        "postalCode": "K2B0A4",
        "streetName": "CROYDON",
        "streetDirectionId": null,
        "streetTypeId": "AVE",
        "placeName": "OTTAWA",
        "streetNameDisplayText": "CROYDON AVE, OTTAWA"
      }
    ]
  },
  {
    "postal": "K2B4T5",
    "result": []
  },
  {
    "postal": "K2B5K1",
    "result": [
      {
        "electoralDistricts": [
          {
            "election": null,
            "id": 81,
            "name": "Ottawa West—Nepean"
          }
        ],
        "pollDivisionIds": [
          10140831
        ],
        "postalCode": "K2B5K1",
        "streetName": "WENTWORTH",
        "streetDirectionId": null,
        "streetTypeId": "AVE",
        "placeName": "OTTAWA",
        "streetNameDisplayText": "WENTWORTH AVE, OTTAWA"
      }
    ]
  },
  {
    "postal": "K2B0Z9",
    "result": []
  },
  {
    "postal": "K2B7T2",
    "result": [
      {
        "electoralDistricts": [
          {
            "election": null,
            "id": 81,
            "name": "Ottawa West—Nepean"
          }
        ],
        "pollDivisionIds": [
          10140821,
          10140819,
          10140817
        ],
        "postalCode": "K2B7T2",
        "streetName": "WOODRIDGE",
        "streetDirectionId": null,
        "streetTypeId": "CRES",
        "placeName": "NEPEAN",
        "streetNameDisplayText": "WOODRIDGE CRES, NEPEAN"
      },
      {
        "electoralDistricts": [
          {
            "election": null,
            "id": 81,
            "name": "Ottawa West—Nepean"
          }
        ],
        "pollDivisionIds": [
          10140821,
          10140819
        ],
        "postalCode": "K2B7T2",
        "streetName": "WOODRIDGE",
        "streetDirectionId": null,
        "streetTypeId": "CRES",
        "placeName": "OTTAWA",
        "streetNameDisplayText": "WOODRIDGE CRES, OTTAWA"
      },
      {
        "electoralDistricts": [
          {
            "election": null,
            "id": 81,
            "name": "Ottawa West—Nepean"
          }
        ],
        "pollDivisionIds": [
          10140821
        ],
        "postalCode": "K2B7T2",
        "streetName": "WOODRIDGE",
        "streetDirectionId": null,
        "streetTypeId": "CRES",
        "placeName": "OTTAWA WEST NEPEAN",
        "streetNameDisplayText": "WOODRIDGE CRES, OTTAWA WEST NEPEAN"
      },
      {
        "electoralDistricts": [
          {
            "election": null,
            "id": 79,
            "name": "Ottawa South"
          }
        ],
        "pollDivisionIds": [
          10140676
        ],
        "postalCode": "K2B7T2",
        "streetName": "WOODRIDGE CRES.",
        "streetDirectionId": null,
        "streetTypeId": "CRES",
        "placeName": "NEPEAN",
        "streetNameDisplayText": "WOODRIDGE CRES. CRES, NEPEAN"
      },
      {
        "electoralDistricts": [
          {
            "election": null,
            "id": 81,
            "name": "Ottawa West—Nepean"
          }
        ],
        "pollDivisionIds": [
          10140821
        ],
        "postalCode": "K2B7T2",
        "streetName": "WOODRIDGE CRESC",
        "streetDirectionId": null,
        "streetTypeId": "CRES",
        "placeName": "NEPEAN",
        "streetNameDisplayText": "WOODRIDGE CRESC CRES, NEPEAN"
      }
    ]
  },
  {
    "postal": "K2B1L5",
    "result": []
  },
  {
    "postal": "K2B3N5",
    "result": []
  },
  {
    "postal": "K2B6H4",
    "result": [
      {
        "electoralDistricts": [
          {
            "election": null,
            "id": 81,
            "name": "Ottawa West—Nepean"
          }
        ],
        "pollDivisionIds": [
          10140820
        ],
        "postalCode": "K2B6H4",
        "streetName": "SCRIVENS",
        "streetDirectionId": null,
        "streetTypeId": "ST",
        "placeName": "OTTAWA",
        "streetNameDisplayText": "SCRIVENS ST, OTTAWA"
      }
    ]
  },
  {
    "postal": "K2B5A5",
    "result": [
      {
        "electoralDistricts": [
          {
            "election": null,
            "id": 81,
            "name": "Ottawa West—Nepean"
          }
        ],
        "pollDivisionIds": [
          10140830
        ],
        "postalCode": "K2B5A5",
        "streetName": "POOLER",
        "streetDirectionId": null,
        "streetTypeId": "AVE",
        "placeName": "OTTAWA",
        "streetNameDisplayText": "POOLER AVE, OTTAWA"
      }
    ]
  },
  {
    "postal": "K2B3R9",
    "result": []
  },
  {
    "postal": "K2B7L8",
    "result": [
      {
        "electoralDistricts": [
          {
            "election": null,
            "id": 81,
            "name": "Ottawa West—Nepean"
          }
        ],
        "pollDivisionIds": [
          10140829
        ],
        "postalCode": "K2B7L8",
        "streetName": "SACKVILLE",
        "streetDirectionId": null,
        "streetTypeId": "ST",
        "placeName": "OTTAWA",
        "streetNameDisplayText": "SACKVILLE ST, OTTAWA"
      }
    ]
  },
  {
    "postal": "K2B6T6",
    "result": [
      {
        "electoralDistricts": [
          {
            "election": null,
            "id": 81,
            "name": "Ottawa West—Nepean"
          }
        ],
        "pollDivisionIds": [
          10140830,
          10140831
        ],
        "postalCode": "K2B6T6",
        "streetName": "BYRON",
        "streetDirectionId": null,
        "streetTypeId": "AVE",
        "placeName": "OTTAWA",
        "streetNameDisplayText": "BYRON AVE, OTTAWA"
      }
    ]
  },
  {
    "postal": "K2B7Y7",
    "result": [
      {
        "electoralDistricts": [
          {
            "election": null,
            "id": 81,
            "name": "Ottawa West—Nepean"
          }
        ],
        "pollDivisionIds": [
          10140823
        ],
        "postalCode": "K2B7Y7",
        "streetName": "LORNE GREENE",
        "streetDirectionId": null,
        "streetTypeId": "WAY",
        "placeName": "OTTAWA",
        "streetNameDisplayText": "LORNE GREENE WAY, OTTAWA"
      }
    ]
  },
  {
    "postal": "K2B3M8",
    "result": []
  },
  {
    "postal": "K2B2E0",
    "result": []
  },
  {
    "postal": "K2B4B5",
    "result": []
  },
  {
    "postal": "K2B1J3",
    "result": []
  },
  {
    "postal": "K2B5S6",
    "result": [
      {
        "electoralDistricts": [
          {
            "election": null,
            "id": 81,
            "name": "Ottawa West—Nepean"
          }
        ],
        "pollDivisionIds": [
          10140829
        ],
        "postalCode": "K2B5S6",
        "streetName": "MOSSDALE",
        "streetDirectionId": null,
        "streetTypeId": "ST",
        "placeName": "OTTAWA",
        "streetNameDisplayText": "MOSSDALE ST, OTTAWA"
      }
    ]
  },
  {
    "postal": "K2B8P7",
    "result": [
      {
        "electoralDistricts": [
          {
            "election": null,
            "id": 81,
            "name": "Ottawa West—Nepean"
          }
        ],
        "pollDivisionIds": [
          10140828
        ],
        "postalCode": "K2B8P7",
        "streetName": "NOREN",
        "streetDirectionId": null,
        "streetTypeId": "AVE",
        "placeName": "OTTAWA",
        "streetNameDisplayText": "NOREN AVE, OTTAWA"
      }
    ]
  },
  {
    "postal": "K2B7S7",
    "result": [
      {
        "electoralDistricts": [
          {
            "election": null,
            "id": 81,
            "name": "Ottawa West—Nepean"
          }
        ],
        "pollDivisionIds": [
          10140828
        ],
        "postalCode": "K2B7S7",
        "streetName": "ST. STEPHEN'S",
        "streetDirectionId": null,
        "streetTypeId": "ST",
        "placeName": "OTTAWA",
        "streetNameDisplayText": "ST. STEPHEN'S ST, OTTAWA"
      }
    ]
  },
  {
    "postal": "K2B4C2",
    "result": []
  },
  {
    "postal": "K2B5Y0",
    "result": []
  },
  {
    "postal": "K2B2V7",
    "result": []
  },
  {
    "postal": "K2B8P5",
    "result": [
      {
        "electoralDistricts": [
          {
            "election": null,
            "id": 81,
            "name": "Ottawa West—Nepean"
          }
        ],
        "pollDivisionIds": [
          10140828
        ],
        "postalCode": "K2B8P5",
        "streetName": "MARIELLE",
        "streetDirectionId": null,
        "streetTypeId": "CRT",
        "placeName": "OTTAWA",
        "streetNameDisplayText": "MARIELLE CRT, OTTAWA"
      }
    ]
  },
  {
    "postal": "K2B5P5",
    "result": [
      {
        "electoralDistricts": [
          {
            "election": null,
            "id": 81,
            "name": "Ottawa West—Nepean"
          }
        ],
        "pollDivisionIds": [
          10140829
        ],
        "postalCode": "K2B5P5",
        "streetName": "NORTON",
        "streetDirectionId": null,
        "streetTypeId": "AVE",
        "placeName": "OTTAWA",
        "streetNameDisplayText": "NORTON AVE, OTTAWA"
      }
    ]
  },
  {
    "postal": "K2B5Z0",
    "result": []
  },
  {
    "postal": "K2B9B0",
    "result": []
  },
  {
    "postal": "K2B1L0",
    "result": []
  },
  {
    "postal": "K2B0B5",
    "result": []
  },
  {
    "postal": "K2B3L2",
    "result": []
  },
  {
    "postal": "K2B3B7",
    "result": []
  },
  {
    "postal": "K2B8L1",
    "result": [
      {
        "electoralDistricts": [
          {
            "election": null,
            "id": 81,
            "name": "Ottawa West—Nepean"
          }
        ],
        "pollDivisionIds": [
          10140826
        ],
        "postalCode": "K2B8L1",
        "streetName": "EVA TAYLOR",
        "streetDirectionId": null,
        "streetTypeId": "PVT",
        "placeName": "OTTAWA",
        "streetNameDisplayText": "EVA TAYLOR PVT, OTTAWA"
      }
    ]
  },
  {
    "postal": "K2B5M4",
    "result": [
      {
        "electoralDistricts": [
          {
            "election": null,
            "id": 81,
            "name": "Ottawa West—Nepean"
          }
        ],
        "pollDivisionIds": [
          10140829
        ],
        "postalCode": "K2B5M4",
        "streetName": "CONNAUGHT",
        "streetDirectionId": null,
        "streetTypeId": "AVE",
        "placeName": "OTTAWA",
        "streetNameDisplayText": "CONNAUGHT AVE, OTTAWA"
      }
    ]
  },
  {
    "postal": "K2B4G9",
    "result": []
  },
  {
    "postal": "K2B0P0",
    "result": []
  },
  {
    "postal": "K2B8G2",
    "result": [
      {
        "electoralDistricts": [
          {
            "election": null,
            "id": 81,
            "name": "Ottawa West—Nepean"
          }
        ],
        "pollDivisionIds": [
          10140819
        ],
        "postalCode": "K2B8G2",
        "streetName": "WOODRIDGE",
        "streetDirectionId": null,
        "streetTypeId": "CRES",
        "placeName": "NEPEAN",
        "streetNameDisplayText": "WOODRIDGE CRES, NEPEAN"
      },
      {
        "electoralDistricts": [
          {
            "election": null,
            "id": 81,
            "name": "Ottawa West—Nepean"
          }
        ],
        "pollDivisionIds": [
          10140819
        ],
        "postalCode": "K2B8G2",
        "streetName": "WOODRIDGE",
        "streetDirectionId": null,
        "streetTypeId": "CRES",
        "placeName": "OTTAWA",
        "streetNameDisplayText": "WOODRIDGE CRES, OTTAWA"
      }
    ]
  },
  {
    "postal": "K2B1V9",
    "result": []
  },
  {
    "postal": "K2B8N8",
    "result": [
      {
        "electoralDistricts": [
          {
            "election": null,
            "id": 81,
            "name": "Ottawa West—Nepean"
          }
        ],
        "pollDivisionIds": [
          10140820
        ],
        "postalCode": "K2B8N8",
        "streetName": "LATS",
        "streetDirectionId": null,
        "streetTypeId": "PVT",
        "placeName": "OTTAWA",
        "streetNameDisplayText": "LATS PVT, OTTAWA"
      },
      {
        "electoralDistricts": [
          {
            "election": null,
            "id": 81,
            "name": "Ottawa West—Nepean"
          }
        ],
        "pollDivisionIds": [
          10140820
        ],
        "postalCode": "K2B8N8",
        "streetName": "RIGA",
        "streetDirectionId": null,
        "streetTypeId": "PVT",
        "placeName": "OTTAWA",
        "streetNameDisplayText": "RIGA PVT, OTTAWA"
      }
    ]
  },
  {
    "postal": "K2B6S8",
    "result": [
      {
        "electoralDistricts": [
          {
            "election": null,
            "id": 81,
            "name": "Ottawa West—Nepean"
          }
        ],
        "pollDivisionIds": [
          10140824
        ],
        "postalCode": "K2B6S8",
        "streetName": "RICHMOND",
        "streetDirectionId": null,
        "streetTypeId": "RD",
        "placeName": "OTTAWA",
        "streetNameDisplayText": "RICHMOND RD, OTTAWA"
      }
    ]
  },
  {
    "postal": "K2B8H2",
    "result": [
      {
        "electoralDistricts": [
          {
            "election": null,
            "id": 81,
            "name": "Ottawa West—Nepean"
          }
        ],
        "pollDivisionIds": [
          10140824
        ],
        "postalCode": "K2B8H2",
        "streetName": "ALENMEDE",
        "streetDirectionId": null,
        "streetTypeId": "CRES",
        "placeName": "OTTAWA",
        "streetNameDisplayText": "ALENMEDE CRES, OTTAWA"
      }
    ]
  },
  {
    "postal": "K2B5R8",
    "result": [
      {
        "electoralDistricts": [
          {
            "election": null,
            "id": 81,
            "name": "Ottawa West—Nepean"
          }
        ],
        "pollDivisionIds": [
          10140829
        ],
        "postalCode": "K2B5R8",
        "streetName": "ALPINE",
        "streetDirectionId": null,
        "streetTypeId": "AVE",
        "placeName": "OTTAWA",
        "streetNameDisplayText": "ALPINE AVE, OTTAWA"
      }
    ]
  },
  {
    "postal": "K2B5L4",
    "result": [
      {
        "electoralDistricts": [
          {
            "election": null,
            "id": 81,
            "name": "Ottawa West—Nepean"
          }
        ],
        "pollDivisionIds": [
          10140831
        ],
        "postalCode": "K2B5L4",
        "streetName": "EDGEWORTH",
        "streetDirectionId": null,
        "streetTypeId": "AVE",
        "placeName": "OTTAWA",
        "streetNameDisplayText": "EDGEWORTH AVE, OTTAWA"
      }
    ]
  },
  {
    "postal": "K2B9E1",
    "result": []
  },
  {
    "postal": "K2B1C4",
    "result": []
  },
  {
    "postal": "K2B8W5",
    "result": []
  },
  {
    "postal": "K2B1Y4",
    "result": []
  },
  {
    "postal": "K2B1C0",
    "result": []
  },
  {
    "postal": "K2B2J2",
    "result": []
  },
  {
    "postal": "K2B2J0",
    "result": []
  },
  {
    "postal": "K2B7A3",
    "result": [
      {
        "electoralDistricts": [
          {
            "election": null,
            "id": 81,
            "name": "Ottawa West—Nepean"
          }
        ],
        "pollDivisionIds": [
          10140820
        ],
        "postalCode": "K2B7A3",
        "streetName": "AHEARN",
        "streetDirectionId": null,
        "streetTypeId": "AVE",
        "placeName": "OTTAWA",
        "streetNameDisplayText": "AHEARN AVE, OTTAWA"
      }
    ]
  },
  {
    "postal": "K2B8M1",
    "result": []
  },
  {
    "postal": "K2B7T9",
    "result": [
      {
        "electoralDistricts": [
          {
            "election": null,
            "id": 81,
            "name": "Ottawa West—Nepean"
          }
        ],
        "pollDivisionIds": [
          10140819
        ],
        "postalCode": "K2B7T9",
        "streetName": "ELSTREE",
        "streetDirectionId": null,
        "streetTypeId": "AVE",
        "placeName": "NEPEAN",
        "streetNameDisplayText": "ELSTREE AVE, NEPEAN"
      }
    ]
  },
  {
    "postal": "K2B6C0",
    "result": []
  },
  {
    "postal": "K2B7X1",
    "result": [
      {
        "electoralDistricts": [
          {
            "election": null,
            "id": 81,
            "name": "Ottawa West—Nepean"
          }
        ],
        "pollDivisionIds": [
          10140824
        ],
        "postalCode": "K2B7X1",
        "streetName": "BURGESS",
        "streetDirectionId": null,
        "streetTypeId": "AVE",
        "placeName": "NEPEAN",
        "streetNameDisplayText": "BURGESS AVE, NEPEAN"
      },
      {
        "electoralDistricts": [
          {
            "election": null,
            "id": 81,
            "name": "Ottawa West—Nepean"
          }
        ],
        "pollDivisionIds": [
          10140824
        ],
        "postalCode": "K2B7X1",
        "streetName": "BURGESS",
        "streetDirectionId": null,
        "streetTypeId": "AVE",
        "placeName": "OTTAWA",
        "streetNameDisplayText": "BURGESS AVE, OTTAWA"
      }
    ]
  },
  {
    "postal": "K2B0G1",
    "result": []
  },
  {
    "postal": "K2B4X2",
    "result": []
  },
  {
    "postal": "K2B0N6",
    "result": []
  },
  {
    "postal": "K2B8E3",
    "result": [
      {
        "electoralDistricts": [
          {
            "election": null,
            "id": 81,
            "name": "Ottawa West—Nepean"
          }
        ],
        "pollDivisionIds": [
          10140826
        ],
        "postalCode": "K2B8E3",
        "streetName": "RICHMOND",
        "streetDirectionId": null,
        "streetTypeId": "RD",
        "placeName": "OTTAWA",
        "streetNameDisplayText": "RICHMOND RD, OTTAWA"
      }
    ]
  },
  {
    "postal": "K2B5S8",
    "result": [
      {
        "electoralDistricts": [
          {
            "election": null,
            "id": 81,
            "name": "Ottawa West—Nepean"
          }
        ],
        "pollDivisionIds": [
          10140829
        ],
        "postalCode": "K2B5S8",
        "streetName": "DUNDEE",
        "streetDirectionId": null,
        "streetTypeId": "AVE",
        "placeName": "OTTAWA",
        "streetNameDisplayText": "DUNDEE AVE, OTTAWA"
      }
    ]
  },
  {
    "postal": "K2B0R0",
    "result": []
  },
  {
    "postal": "K2B6J6",
    "result": [
      {
        "electoralDistricts": [
          {
            "election": null,
            "id": 81,
            "name": "Ottawa West—Nepean"
          }
        ],
        "pollDivisionIds": [
          10140823,
          10140819
        ],
        "postalCode": "K2B6J6",
        "streetName": "CARLING",
        "streetDirectionId": null,
        "streetTypeId": "AVE",
        "placeName": "NEPEAN",
        "streetNameDisplayText": "CARLING AVE, NEPEAN"
      },
      {
        "electoralDistricts": [
          {
            "election": null,
            "id": 81,
            "name": "Ottawa West—Nepean"
          }
        ],
        "pollDivisionIds": [
          10140819
        ],
        "postalCode": "K2B6J6",
        "streetName": "CARLING",
        "streetDirectionId": null,
        "streetTypeId": "AVE",
        "placeName": "OTTAWA",
        "streetNameDisplayText": "CARLING AVE, OTTAWA"
      }
    ]
  },
  {
    "postal": "K2B4B4",
    "result": []
  },
  {
    "postal": "K2B7E3",
    "result": [
      {
        "electoralDistricts": [
          {
            "election": null,
            "id": 81,
            "name": "Ottawa West—Nepean"
          }
        ],
        "pollDivisionIds": [
          10140826
        ],
        "postalCode": "K2B7E3",
        "streetName": "MARIE",
        "streetDirectionId": null,
        "streetTypeId": "ST",
        "placeName": "OTTAWA",
        "streetNameDisplayText": "MARIE ST, OTTAWA"
      }
    ]
  },
  {
    "postal": "K2B3N6",
    "result": []
  },
  {
    "postal": "K2B3X6",
    "result": []
  },
  {
    "postal": "K2B8L0",
    "result": []
  },
  {
    "postal": "K2B8N1",
    "result": [
      {
        "electoralDistricts": [
          {
            "election": null,
            "id": 81,
            "name": "Ottawa West—Nepean"
          }
        ],
        "pollDivisionIds": [
          10140828
        ],
        "postalCode": "K2B8N1",
        "streetName": "GRENON",
        "streetDirectionId": null,
        "streetTypeId": "AVE",
        "placeName": "OTTAWA",
        "streetNameDisplayText": "GRENON AVE, OTTAWA"
      }
    ]
  },
  {
    "postal": "K2B4J0",
    "result": []
  },
  {
    "postal": "K2B0X7",
    "result": []
  },
  {
    "postal": "K2B6S4",
    "result": [
      {
        "electoralDistricts": [
          {
            "election": null,
            "id": 81,
            "name": "Ottawa West—Nepean"
          }
        ],
        "pollDivisionIds": [
          10140828
        ],
        "postalCode": "K2B6S4",
        "streetName": "RICHMOND",
        "streetDirectionId": null,
        "streetTypeId": "RD",
        "placeName": "OTTAWA",
        "streetNameDisplayText": "RICHMOND RD, OTTAWA"
      }
    ]
  },
  {
    "postal": "K2B0Z0",
    "result": []
  },
  {
    "postal": "K2B9X8",
    "result": []
  },
  {
    "postal": "K2B3H3",
    "result": []
  },
  {
    "postal": "K2B7S2",
    "result": [
      {
        "electoralDistricts": [
          {
            "election": null,
            "id": 81,
            "name": "Ottawa West—Nepean"
          }
        ],
        "pollDivisionIds": [
          10140829
        ],
        "postalCode": "K2B7S2",
        "streetName": "CHAMBERS",
        "streetDirectionId": null,
        "streetTypeId": "AVE",
        "placeName": "OTTAWA",
        "streetNameDisplayText": "CHAMBERS AVE, OTTAWA"
      }
    ]
  },
  {
    "postal": "K2B3T3",
    "result": []
  },
  {
    "postal": "K2B9P3",
    "result": []
  },
  {
    "postal": "K2B4H8",
    "result": []
  },
  {
    "postal": "K2B6R1",
    "result": [
      {
        "electoralDistricts": [
          {
            "election": null,
            "id": 81,
            "name": "Ottawa West—Nepean"
          }
        ],
        "pollDivisionIds": [
          10140830
        ],
        "postalCode": "K2B6R1",
        "streetName": "RICHMOND",
        "streetDirectionId": null,
        "streetTypeId": "RD",
        "placeName": "OTTAWA",
        "streetNameDisplayText": "RICHMOND RD, OTTAWA"
      }
    ]
  },
  {
    "postal": "K2B1S0",
    "result": []
  },
  {
    "postal": "K2B3W8",
    "result": []
  },
  {
    "postal": "K2B4S3",
    "result": []
  },
  {
    "postal": "K2B1B6",
    "result": [
      {
        "electoralDistricts": [
          {
            "election": null,
            "id": 81,
            "name": "Ottawa West—Nepean"
          }
        ],
        "pollDivisionIds": [
          10140828
        ],
        "postalCode": "K2B1B6",
        "streetName": "ST. STEPHENS",
        "streetDirectionId": null,
        "streetTypeId": "ST",
        "placeName": "OTTAWA",
        "streetNameDisplayText": "ST. STEPHENS ST, OTTAWA"
      },
      {
        "electoralDistricts": [
          {
            "election": null,
            "id": 81,
            "name": "Ottawa West—Nepean"
          }
        ],
        "pollDivisionIds": [
          10140828
        ],
        "postalCode": "K2B1B6",
        "streetName": "ST. STEPHEN'S",
        "streetDirectionId": null,
        "streetTypeId": "ST",
        "placeName": "OTTAWA",
        "streetNameDisplayText": "ST. STEPHEN'S ST, OTTAWA"
      }
    ]
  },
  {
    "postal": "K2B8R3",
    "result": [
      {
        "electoralDistricts": [
          {
            "election": null,
            "id": 81,
            "name": "Ottawa West—Nepean"
          }
        ],
        "pollDivisionIds": [
          10140826
        ],
        "postalCode": "K2B8R3",
        "streetName": "WINTHROP",
        "streetDirectionId": null,
        "streetTypeId": "PVT",
        "placeName": "OTTAWA",
        "streetNameDisplayText": "WINTHROP PVT, OTTAWA"
      }
    ]
  },
  {
    "postal": "K2B4V9",
    "result": []
  },
  {
    "postal": "K2B9W4",
    "result": []
  },
  {
    "postal": "K2B3T4",
    "result": []
  },
  {
    "postal": "K2B5C7",
    "result": [
      {
        "electoralDistricts": [
          {
            "election": null,
            "id": 81,
            "name": "Ottawa West—Nepean"
          }
        ],
        "pollDivisionIds": [
          10140835
        ],
        "postalCode": "K2B5C7",
        "streetName": "WINNINGTON",
        "streetDirectionId": null,
        "streetTypeId": "AVE",
        "placeName": "OTTAWA",
        "streetNameDisplayText": "WINNINGTON AVE, OTTAWA"
      }
    ]
  },
  {
    "postal": "K2B3Y1",
    "result": []
  },
  {
    "postal": "K2B5V0",
    "result": []
  },
  {
    "postal": "K2B8G8",
    "result": [
      {
        "electoralDistricts": [
          {
            "election": null,
            "id": 81,
            "name": "Ottawa West—Nepean"
          }
        ],
        "pollDivisionIds": [
          10140864
        ],
        "postalCode": "K2B8G8",
        "streetName": "RICHMOND",
        "streetDirectionId": null,
        "streetTypeId": "RD",
        "placeName": "OTTAWA",
        "streetNameDisplayText": "RICHMOND RD, OTTAWA"
      }
    ]
  },
  {
    "postal": "K2B8B1",
    "result": [
      {
        "electoralDistricts": [
          {
            "election": null,
            "id": 81,
            "name": "Ottawa West—Nepean"
          }
        ],
        "pollDivisionIds": [
          10140826
        ],
        "postalCode": "K2B8B1",
        "streetName": "LINCOLN HEIGHTS",
        "streetDirectionId": null,
        "streetTypeId": "RD",
        "placeName": "OTTAWA",
        "streetNameDisplayText": "LINCOLN HEIGHTS RD, OTTAWA"
      }
    ]
  },
  {
    "postal": "K2B4P5",
    "result": []
  },
  {
    "postal": "K2B7B2",
    "result": [
      {
        "electoralDistricts": [
          {
            "election": null,
            "id": 81,
            "name": "Ottawa West—Nepean"
          }
        ],
        "pollDivisionIds": [
          10140831
        ],
        "postalCode": "K2B7B2",
        "streetName": "LAWN",
        "streetDirectionId": null,
        "streetTypeId": "AVE",
        "placeName": "OTTAWA",
        "streetNameDisplayText": "LAWN AVE, OTTAWA"
      }
    ]
  },
  {
    "postal": "K2B0R2",
    "result": []
  },
  {
    "postal": "K2B4M4",
    "result": []
  },
  {
    "postal": "K2B7M4",
    "result": [
      {
        "electoralDistricts": [
          {
            "election": null,
            "id": 81,
            "name": "Ottawa West—Nepean"
          }
        ],
        "pollDivisionIds": [
          10140831
        ],
        "postalCode": "K2B7M4",
        "streetName": "GEORGINA",
        "streetDirectionId": null,
        "streetTypeId": "DR",
        "placeName": "OTTAWA",
        "streetNameDisplayText": "GEORGINA DR, OTTAWA"
      }
    ]
  },
  {
    "postal": "K2B9S7",
    "result": []
  },
  {
    "postal": "K2B5Z7",
    "result": [
      {
        "electoralDistricts": [
          {
            "election": null,
            "id": 81,
            "name": "Ottawa West—Nepean"
          }
        ],
        "pollDivisionIds": [
          10140823
        ],
        "postalCode": "K2B5Z7",
        "streetName": "ZEPHYR",
        "streetDirectionId": null,
        "streetTypeId": "AVE",
        "placeName": "OTTAWA",
        "streetNameDisplayText": "ZEPHYR AVE, OTTAWA"
      }
    ]
  },
  {
    "postal": "K2B7J7",
    "result": [
      {
        "electoralDistricts": [
          {
            "election": null,
            "id": 81,
            "name": "Ottawa West—Nepean"
          }
        ],
        "pollDivisionIds": [
          10140822
        ],
        "postalCode": "K2B7J7",
        "streetName": "CARLING",
        "streetDirectionId": null,
        "streetTypeId": "AVE",
        "placeName": "OTTAWA",
        "streetNameDisplayText": "CARLING AVE, OTTAWA"
      }
    ]
  },
  {
    "postal": "K2B8R8",
    "result": [
      {
        "electoralDistricts": [
          {
            "election": null,
            "id": 81,
            "name": "Ottawa West—Nepean"
          }
        ],
        "pollDivisionIds": [
          10140826
        ],
        "postalCode": "K2B8R8",
        "streetName": "WINTHROP",
        "streetDirectionId": null,
        "streetTypeId": "PVT",
        "placeName": "OTTAWA",
        "streetNameDisplayText": "WINTHROP PVT, OTTAWA"
      }
    ]
  },
  {
    "postal": "K2B9X1",
    "result": []
  },
  {
    "postal": "K2B5M9",
    "result": [
      {
        "electoralDistricts": [
          {
            "election": null,
            "id": 81,
            "name": "Ottawa West—Nepean"
          }
        ],
        "pollDivisionIds": [
          10140829
        ],
        "postalCode": "K2B5M9",
        "streetName": "CONNAUGHT",
        "streetDirectionId": null,
        "streetTypeId": "AVE",
        "placeName": "OTTAWA",
        "streetNameDisplayText": "CONNAUGHT AVE, OTTAWA"
      }
    ]
  },
  {
    "postal": "K2B9B4",
    "result": []
  },
  {
    "postal": "K2B0L9",
    "result": []
  },
  {
    "postal": "K2B9G4",
    "result": []
  },
  {
    "postal": "K2B1J4",
    "result": []
  },
  {
    "postal": "K2B0W6",
    "result": []
  }
]
