[
  {
    "postal": "M6N9J6",
    "result": []
  },
  {
    "postal": "M6N9Z5",
    "result": []
  },
  {
    "postal": "M6N7H8",
    "result": []
  },
  {
    "postal": "M6N0P6",
    "result": []
  },
  {
    "postal": "M6N0S7",
    "result": []
  },
  {
    "postal": "M6N8B9",
    "result": []
  },
  {
    "postal": "M6N2A6",
    "result": [
      {
        "electoralDistricts": [
          {
            "election": null,
            "id": 122,
            "name": "York South—Weston"
          }
        ],
        "pollDivisionIds": [
          10142980
        ],
        "postalCode": "M6N2A6",
        "streetName": "ELLINS",
        "streetDirectionId": null,
        "streetTypeId": "AVE",
        "placeName": "YORK",
        "streetNameDisplayText": "ELLINS AVE, YORK"
      }
    ]
  },
  {
    "postal": "M6N7V2",
    "result": []
  },
  {
    "postal": "M6N9P4",
    "result": []
  },
  {
    "postal": "M6N6G0",
    "result": []
  },
  {
    "postal": "M6N2K0",
    "result": []
  },
  {
    "postal": "M6N7N6",
    "result": []
  },
  {
    "postal": "M6N5R3",
    "result": []
  },
  {
    "postal": "M6N7K0",
    "result": []
  },
  {
    "postal": "M6N3R2",
    "result": [
      {
        "electoralDistricts": [
          {
            "election": null,
            "id": 122,
            "name": "York South—Weston"
          }
        ],
        "pollDivisionIds": [
          10142982
        ],
        "postalCode": "M6N3R2",
        "streetName": "WESTON",
        "streetDirectionId": null,
        "streetTypeId": "RD",
        "placeName": "YORK",
        "streetNameDisplayText": "WESTON RD, YORK"
      }
    ]
  },
  {
    "postal": "M6N0J1",
    "result": []
  },
  {
    "postal": "M6N0B0",
    "result": []
  },
  {
    "postal": "M6N5Z2",
    "result": []
  },
  {
    "postal": "M6N7P3",
    "result": []
  },
  {
    "postal": "M6N2K3",
    "result": [
      {
        "electoralDistricts": [
          {
            "election": null,
            "id": 122,
            "name": "York South—Weston"
          }
        ],
        "pollDivisionIds": [
          10142975
        ],
        "postalCode": "M6N2K3",
        "streetName": "DEAKIN",
        "streetDirectionId": null,
        "streetTypeId": "AVE",
        "placeName": "YORK",
        "streetNameDisplayText": "DEAKIN AVE, YORK"
      }
    ]
  },
  {
    "postal": "M6N7Y6",
    "result": []
  },
  {
    "postal": "M6N1L9",
    "result": [
      {
        "electoralDistricts": [
          {
            "election": null,
            "id": 122,
            "name": "York South—Weston"
          }
        ],
        "pollDivisionIds": [
          10142983
        ],
        "postalCode": "M6N1L9",
        "streetName": "ST CLAIR",
        "streetDirectionId": "W",
        "streetTypeId": "AVE",
        "placeName": "YORK",
        "streetNameDisplayText": "ST CLAIR AVE W, YORK"
      }
    ]
  },
  {
    "postal": "M6N8T0",
    "result": []
  },
  {
    "postal": "M6N3K8",
    "result": [
      {
        "electoralDistricts": [
          {
            "election": null,
            "id": 19,
            "name": "Davenport"
          }
        ],
        "pollDivisionIds": [
          10136078
        ],
        "postalCode": "M6N3K8",
        "streetName": "ROSETHORN",
        "streetDirectionId": null,
        "streetTypeId": "AVE",
        "placeName": "TORONTO",
        "streetNameDisplayText": "ROSETHORN AVE, TORONTO"
      }
    ]
  },
  {
    "postal": "M6N5W9",
    "result": []
  },
  {
    "postal": "M6N6T9",
    "result": []
  },
  {
    "postal": "M6N4H1",
    "result": [
      {
        "electoralDistricts": [
          {
            "election": null,
            "id": 122,
            "name": "York South—Weston"
          }
        ],
        "pollDivisionIds": [
          10142980
        ],
        "postalCode": "M6N4H1",
        "streetName": "KINGHORN",
        "streetDirectionId": null,
        "streetTypeId": "AVE",
        "placeName": "YORK",
        "streetNameDisplayText": "KINGHORN AVE, YORK"
      }
    ]
  },
  {
    "postal": "M6N7A2",
    "result": []
  },
  {
    "postal": "M6N5G0",
    "result": []
  },
  {
    "postal": "M6N8V5",
    "result": []
  },
  {
    "postal": "M6N2Y8",
    "result": [
      {
        "electoralDistricts": [
          {
            "election": null,
            "id": 19,
            "name": "Davenport"
          }
        ],
        "pollDivisionIds": [
          10136085
        ],
        "postalCode": "M6N2Y8",
        "streetName": "OSLER",
        "streetDirectionId": null,
        "streetTypeId": "ST",
        "placeName": "TORONTO",
        "streetNameDisplayText": "OSLER ST, TORONTO"
      }
    ]
  },
  {
    "postal": "M6N2B6",
    "result": [
      {
        "electoralDistricts": [
          {
            "election": null,
            "id": 19,
            "name": "Davenport"
          }
        ],
        "pollDivisionIds": [
          10136078
        ],
        "postalCode": "M6N2B6",
        "streetName": "LAVENDER",
        "streetDirectionId": null,
        "streetTypeId": "RD",
        "placeName": "YORK",
        "streetNameDisplayText": "LAVENDER RD, YORK"
      }
    ]
  },
  {
    "postal": "M6N4W8",
    "result": [
      {
        "electoralDistricts": [
          {
            "election": null,
            "id": 122,
            "name": "York South—Weston"
          }
        ],
        "pollDivisionIds": [
          10142976
        ],
        "postalCode": "M6N4W8",
        "streetName": "LOUVAIN",
        "streetDirectionId": null,
        "streetTypeId": "ST",
        "placeName": "YORK",
        "streetNameDisplayText": "LOUVAIN ST, YORK"
      }
    ]
  },
  {
    "postal": "M6N8H7",
    "result": []
  },
  {
    "postal": "M6N5P1",
    "result": []
  },
  {
    "postal": "M6N2B8",
    "result": [
      {
        "electoralDistricts": [
          {
            "election": null,
            "id": 122,
            "name": "York South—Weston"
          }
        ],
        "pollDivisionIds": [
          10142979
        ],
        "postalCode": "M6N2B8",
        "streetName": "HILLARY",
        "streetDirectionId": null,
        "streetTypeId": "AVE",
        "placeName": "TORONTO",
        "streetNameDisplayText": "HILLARY AVE, TORONTO"
      }
    ]
  },
  {
    "postal": "M6N0P2",
    "result": []
  },
  {
    "postal": "M6N9M1",
    "result": []
  },
  {
    "postal": "M6N3G0",
    "result": []
  },
  {
    "postal": "M6N9Z2",
    "result": []
  },
  {
    "postal": "M6N2A0",
    "result": []
  },
  {
    "postal": "M6N6Y0",
    "result": []
  },
  {
    "postal": "M6N2Z8",
    "result": [
      {
        "electoralDistricts": [
          {
            "election": null,
            "id": 19,
            "name": "Davenport"
          }
        ],
        "pollDivisionIds": [
          10136085
        ],
        "postalCode": "M6N2Z8",
        "streetName": "MILLER",
        "streetDirectionId": null,
        "streetTypeId": "ST",
        "placeName": "TORONTO",
        "streetNameDisplayText": "MILLER ST, TORONTO"
      }
    ]
  },
  {
    "postal": "M6N7Y3",
    "result": []
  },
  {
    "postal": "M6N6Z5",
    "result": []
  },
  {
    "postal": "M6N6E0",
    "result": []
  },
  {
    "postal": "M6N9B7",
    "result": []
  },
  {
    "postal": "M6N9S5",
    "result": []
  },
  {
    "postal": "M6N3X3",
    "result": [
      {
        "electoralDistricts": [
          {
            "election": null,
            "id": 122,
            "name": "York South—Weston"
          }
        ],
        "pollDivisionIds": [
          10142982
        ],
        "postalCode": "M6N3X3",
        "streetName": "LEIGH",
        "streetDirectionId": null,
        "streetTypeId": "ST",
        "placeName": "YORK",
        "streetNameDisplayText": "LEIGH ST, YORK"
      }
    ]
  },
  {
    "postal": "M6N7R5",
    "result": []
  },
  {
    "postal": "M6N2X3",
    "result": [
      {
        "electoralDistricts": [
          {
            "election": null,
            "id": 19,
            "name": "Davenport"
          }
        ],
        "pollDivisionIds": [
          10136085
        ],
        "postalCode": "M6N2X3",
        "streetName": "LAUGHTON",
        "streetDirectionId": null,
        "streetTypeId": "AVE",
        "placeName": "TORONTO",
        "streetNameDisplayText": "LAUGHTON AVE, TORONTO"
      }
    ]
  },
  {
    "postal": "M6N8Z9",
    "result": []
  },
  {
    "postal": "M6N0N4",
    "result": []
  },
  {
    "postal": "M6N1K1",
    "result": [
      {
        "electoralDistricts": [
          {
            "election": null,
            "id": 122,
            "name": "York South—Weston"
          }
        ],
        "pollDivisionIds": [
          10142984
        ],
        "postalCode": "M6N1K1",
        "streetName": "ST CLAIR",
        "streetDirectionId": "W",
        "streetTypeId": "AVE",
        "placeName": "TORONTO",
        "streetNameDisplayText": "ST CLAIR AVE W, TORONTO"
      }
    ]
  },
  {
    "postal": "M6N1S3",
    "result": []
  },
  {
    "postal": "M6N6M4",
    "result": []
  },
  {
    "postal": "M6N9A9",
    "result": []
  },
  {
    "postal": "M6N9Z9",
    "result": []
  },
  {
    "postal": "M6N6T4",
    "result": []
  },
  {
    "postal": "M6N0B2",
    "result": []
  },
  {
    "postal": "M6N2L9",
    "result": [
      {
        "electoralDistricts": [
          {
            "election": null,
            "id": 122,
            "name": "York South—Weston"
          }
        ],
        "pollDivisionIds": [
          10142975
        ],
        "postalCode": "M6N2L9",
        "streetName": "CAESAR",
        "streetDirectionId": null,
        "streetTypeId": "AVE",
        "placeName": "YORK",
        "streetNameDisplayText": "CAESAR AVE, YORK"
      }
    ]
  },
  {
    "postal": "M6N8K9",
    "result": []
  },
  {
    "postal": "M6N2H9",
    "result": []
  },
  {
    "postal": "M6N3Z6",
    "result": [
      {
        "electoralDistricts": [
          {
            "election": null,
            "id": 122,
            "name": "York South—Weston"
          }
        ],
        "pollDivisionIds": [
          10142983
        ],
        "postalCode": "M6N3Z6",
        "streetName": "CASTLETON",
        "streetDirectionId": null,
        "streetTypeId": "AVE",
        "placeName": "YORK",
        "streetNameDisplayText": "CASTLETON AVE, YORK"
      }
    ]
  },
  {
    "postal": "M6N3B0",
    "result": []
  },
  {
    "postal": "M6N2H8",
    "result": [
      {
        "electoralDistricts": [
          {
            "election": null,
            "id": 122,
            "name": "York South—Weston"
          }
        ],
        "pollDivisionIds": [
          10142976,
          10142975
        ],
        "postalCode": "M6N2H8",
        "streetName": "ALLIANCE",
        "streetDirectionId": null,
        "streetTypeId": "AVE",
        "placeName": "YORK",
        "streetNameDisplayText": "ALLIANCE AVE, YORK"
      }
    ]
  },
  {
    "postal": "M6N3X2",
    "result": []
  },
  {
    "postal": "M6N2E9",
    "result": [
      {
        "electoralDistricts": [
          {
            "election": null,
            "id": 122,
            "name": "York South—Weston"
          }
        ],
        "pollDivisionIds": [
          10142980
        ],
        "postalCode": "M6N2E9",
        "streetName": "EDINBOROUGH",
        "streetDirectionId": null,
        "streetTypeId": "CRT",
        "placeName": "YORK",
        "streetNameDisplayText": "EDINBOROUGH CRT, YORK"
      }
    ]
  },
  {
    "postal": "M6N9P6",
    "result": []
  },
  {
    "postal": "M6N9E2",
    "result": []
  },
  {
    "postal": "M6N9H2",
    "result": []
  },
  {
    "postal": "M6N1S8",
    "result": [
      {
        "electoralDistricts": [
          {
            "election": null,
            "id": 122,
            "name": "York South—Weston"
          }
        ],
        "pollDivisionIds": [
          10142980
        ],
        "postalCode": "M6N1S8",
        "streetName": "HOMEVIEW",
        "streetDirectionId": null,
        "streetTypeId": "AVE",
        "placeName": "YORK",
        "streetNameDisplayText": "HOMEVIEW AVE, YORK"
      }
    ]
  },
  {
    "postal": "M6N3M6",
    "result": [
      {
        "electoralDistricts": [
          {
            "election": null,
            "id": 19,
            "name": "Davenport"
          },
          {
            "election": null,
            "id": 122,
            "name": "York South—Weston"
          }
        ],
        "pollDivisionIds": [
          10136078,
          10142979
        ],
        "postalCode": "M6N3M6",
        "streetName": "CHAMBERS",
        "streetDirectionId": null,
        "streetTypeId": "AVE",
        "placeName": "YORK",
        "streetNameDisplayText": "CHAMBERS AVE, YORK"
      }
    ]
  },
  {
    "postal": "M6N6Z8",
    "result": []
  },
  {
    "postal": "M6N4J2",
    "result": [
      {
        "electoralDistricts": [
          {
            "election": null,
            "id": 122,
            "name": "York South—Weston"
          }
        ],
        "pollDivisionIds": [
          10142980
        ],
        "postalCode": "M6N4J2",
        "streetName": "ELVIN",
        "streetDirectionId": null,
        "streetTypeId": "AVE",
        "placeName": "YORK",
        "streetNameDisplayText": "ELVIN AVE, YORK"
      }
    ]
  },
  {
    "postal": "M6N9Y1",
    "result": []
  },
  {
    "postal": "M6N8V6",
    "result": []
  },
  {
    "postal": "M6N6B2",
    "result": []
  },
  {
    "postal": "M6N1P8",
    "result": [
      {
        "electoralDistricts": [
          {
            "election": null,
            "id": 19,
            "name": "Davenport"
          }
        ],
        "pollDivisionIds": [
          10136078
        ],
        "postalCode": "M6N1P8",
        "streetName": "TURNBERRY",
        "streetDirectionId": null,
        "streetTypeId": "AVE",
        "placeName": "TORONTO",
        "streetNameDisplayText": "TURNBERRY AVE, TORONTO"
      }
    ]
  },
  {
    "postal": "M6N0V8",
    "result": []
  },
  {
    "postal": "M6N4Y0",
    "result": []
  },
  {
    "postal": "M6N2T4",
    "result": [
      {
        "electoralDistricts": [
          {
            "election": null,
            "id": 122,
            "name": "York South—Weston"
          }
        ],
        "pollDivisionIds": [
          10142973
        ],
        "postalCode": "M6N2T4",
        "streetName": "LAMBTON",
        "streetDirectionId": null,
        "streetTypeId": "AVE",
        "placeName": "YORK",
        "streetNameDisplayText": "LAMBTON AVE, YORK"
      }
    ]
  },
  {
    "postal": "M6N2S3",
    "result": [
      {
        "electoralDistricts": [
          {
            "election": null,
            "id": 122,
            "name": "York South—Weston"
          }
        ],
        "pollDivisionIds": [
          10142976
        ],
        "postalCode": "M6N2S3",
        "streetName": "LAMBTON",
        "streetDirectionId": null,
        "streetTypeId": "AVE",
        "placeName": "YORK",
        "streetNameDisplayText": "LAMBTON AVE, YORK"
      }
    ]
  },
  {
    "postal": "M6N0K0",
    "result": []
  },
  {
    "postal": "M6N5N1",
    "result": []
  },
  {
    "postal": "M6N7T0",
    "result": []
  },
  {
    "postal": "M6N9N2",
    "result": []
  },
  {
    "postal": "M6N5L1",
    "result": []
  },
  {
    "postal": "M6N7G5",
    "result": []
  },
  {
    "postal": "M6N6K2",
    "result": []
  },
  {
    "postal": "M6N6P9",
    "result": []
  },
  {
    "postal": "M6N0E6",
    "result": []
  },
  {
    "postal": "M6N8R9",
    "result": []
  },
  {
    "postal": "M6N3G9",
    "result": [
      {
        "electoralDistricts": [
          {
            "election": null,
            "id": 19,
            "name": "Davenport"
          }
        ],
        "pollDivisionIds": [
          10136085
        ],
        "postalCode": "M6N3G9",
        "streetName": "PRESCOTT",
        "streetDirectionId": null,
        "streetTypeId": "AVE",
        "placeName": "TORONTO",
        "streetNameDisplayText": "PRESCOTT AVE, TORONTO"
      }
    ]
  },
  {
    "postal": "M6N0V7",
    "result": []
  },
  {
    "postal": "M6N2Z1",
    "result": [
      {
        "electoralDistricts": [
          {
            "election": null,
            "id": 19,
            "name": "Davenport"
          }
        ],
        "pollDivisionIds": [
          10136085
        ],
        "postalCode": "M6N2Z1",
        "streetName": "OSLER",
        "streetDirectionId": null,
        "streetTypeId": "ST",
        "placeName": "TORONTO",
        "streetNameDisplayText": "OSLER ST, TORONTO"
      }
    ]
  },
  {
    "postal": "M6N7N1",
    "result": []
  },
  {
    "postal": "M6N3C6",
    "result": [
      {
        "electoralDistricts": [
          {
            "election": null,
            "id": 122,
            "name": "York South—Weston"
          }
        ],
        "pollDivisionIds": [
          10142984
        ],
        "postalCode": "M6N3C6",
        "streetName": "MULOCK",
        "streetDirectionId": null,
        "streetTypeId": "AVE",
        "placeName": "TORONTO",
        "streetNameDisplayText": "MULOCK AVE, TORONTO"
      }
    ]
  },
  {
    "postal": "M6N4M1",
    "result": [
      {
        "electoralDistricts": [
          {
            "election": null,
            "id": 122,
            "name": "York South—Weston"
          }
        ],
        "pollDivisionIds": [
          10142976
        ],
        "postalCode": "M6N4M1",
        "streetName": "CLIFF",
        "streetDirectionId": null,
        "streetTypeId": "ST",
        "placeName": "YORK",
        "streetNameDisplayText": "CLIFF ST, YORK"
      }
    ]
  },
  {
    "postal": "M6N9K2",
    "result": []
  },
  {
    "postal": "M6N9S6",
    "result": []
  },
  {
    "postal": "M6N4X1",
    "result": []
  },
  {
    "postal": "M6N8W2",
    "result": []
  },
  {
    "postal": "M6N7N2",
    "result": []
  },
  {
    "postal": "M6N8S3",
    "result": []
  },
  {
    "postal": "M6N4V0",
    "result": []
  },
  {
    "postal": "M6N6W4",
    "result": []
  },
  {
    "postal": "M6N5M1",
    "result": []
  },
  {
    "postal": "M6N0S4",
    "result": []
  },
  {
    "postal": "M6N5X6",
    "result": []
  },
  {
    "postal": "M6N8L5",
    "result": []
  },
  {
    "postal": "M6N5M8",
    "result": []
  },
  {
    "postal": "M6N2G3",
    "result": [
      {
        "electoralDistricts": [
          {
            "election": null,
            "id": 122,
            "name": "York South—Weston"
          }
        ],
        "pollDivisionIds": [
          10142982
        ],
        "postalCode": "M6N2G3",
        "streetName": "CAYUGA",
        "streetDirectionId": null,
        "streetTypeId": "AVE",
        "placeName": "YORK",
        "streetNameDisplayText": "CAYUGA AVE, YORK"
      }
    ]
  },
  {
    "postal": "M6N8E4",
    "result": []
  },
  {
    "postal": "M6N7S9",
    "result": []
  },
  {
    "postal": "M6N1K3",
    "result": []
  },
  {
    "postal": "M6N4E1",
    "result": [
      {
        "electoralDistricts": [
          {
            "election": null,
            "id": 122,
            "name": "York South—Weston"
          }
        ],
        "pollDivisionIds": [
          10142973
        ],
        "postalCode": "M6N4E1",
        "streetName": "JANE",
        "streetDirectionId": null,
        "streetTypeId": "ST",
        "placeName": "YORK",
        "streetNameDisplayText": "JANE ST, YORK"
      }
    ]
  },
  {
    "postal": "M6N4R2",
    "result": [
      {
        "electoralDistricts": [
          {
            "election": null,
            "id": 122,
            "name": "York South—Weston"
          }
        ],
        "pollDivisionIds": [
          10142975
        ],
        "postalCode": "M6N4R2",
        "streetName": "ROCKCLIFFE",
        "streetDirectionId": null,
        "streetTypeId": "BLVD",
        "placeName": "TORONTO",
        "streetNameDisplayText": "ROCKCLIFFE BLVD, TORONTO"
      }
    ]
  },
  {
    "postal": "M6N6T0",
    "result": []
  },
  {
    "postal": "M6N3K5",
    "result": [
      {
        "electoralDistricts": [
          {
            "election": null,
            "id": 19,
            "name": "Davenport"
          }
        ],
        "pollDivisionIds": [
          10136078
        ],
        "postalCode": "M6N3K5",
        "streetName": "SILVERTHORN",
        "streetDirectionId": null,
        "streetTypeId": "AVE",
        "placeName": "YORK",
        "streetNameDisplayText": "SILVERTHORN AVE, YORK"
      }
    ]
  },
  {
    "postal": "M6N3S3",
    "result": [
      {
        "electoralDistricts": [
          {
            "election": null,
            "id": 122,
            "name": "York South—Weston"
          }
        ],
        "pollDivisionIds": [
          10142974
        ],
        "postalCode": "M6N3S3",
        "streetName": "WESTON",
        "streetDirectionId": null,
        "streetTypeId": "RD",
        "placeName": "YORK",
        "streetNameDisplayText": "WESTON RD, YORK"
      }
    ]
  },
  {
    "postal": "M6N3L4",
    "result": [
      {
        "electoralDistricts": [
          {
            "election": null,
            "id": 19,
            "name": "Davenport"
          }
        ],
        "pollDivisionIds": [
          10136078
        ],
        "postalCode": "M6N3L4",
        "streetName": "ROSETHORN",
        "streetDirectionId": null,
        "streetTypeId": "AVE",
        "placeName": "YORK",
        "streetNameDisplayText": "ROSETHORN AVE, YORK"
      }
    ]
  },
  {
    "postal": "M6N9Y2",
    "result": []
  },
  {
    "postal": "M6N1E0",
    "result": []
  },
  {
    "postal": "M6N9A4",
    "result": []
  },
  {
    "postal": "M6N1L3",
    "result": [
      {
        "electoralDistricts": [
          {
            "election": null,
            "id": 122,
            "name": "York South—Weston"
          }
        ],
        "pollDivisionIds": [
          10142983
        ],
        "postalCode": "M6N1L3",
        "streetName": "ST CLAIR",
        "streetDirectionId": "W",
        "streetTypeId": "AVE",
        "placeName": "YORK",
        "streetNameDisplayText": "ST CLAIR AVE W, YORK"
      }
    ]
  },
  {
    "postal": "M6N6N1",
    "result": []
  },
  {
    "postal": "M6N6G7",
    "result": []
  },
  {
    "postal": "M6N7W1",
    "result": []
  },
  {
    "postal": "M6N4M6",
    "result": [
      {
        "electoralDistricts": [
          {
            "election": null,
            "id": 122,
            "name": "York South—Weston"
          }
        ],
        "pollDivisionIds": [
          10142976
        ],
        "postalCode": "M6N4M6",
        "streetName": "CASHMAN",
        "streetDirectionId": null,
        "streetTypeId": "CRES",
        "placeName": "YORK",
        "streetNameDisplayText": "CASHMAN CRES, YORK"
      }
    ]
  },
  {
    "postal": "M6N1K0",
    "result": []
  },
  {
    "postal": "M6N3E2",
    "result": [
      {
        "electoralDistricts": [
          {
            "election": null,
            "id": 122,
            "name": "York South—Weston"
          }
        ],
        "pollDivisionIds": [
          10142984
        ],
        "postalCode": "M6N3E2",
        "streetName": "KEELE",
        "streetDirectionId": null,
        "streetTypeId": "ST",
        "placeName": "TORONTO",
        "streetNameDisplayText": "KEELE ST, TORONTO"
      }
    ]
  },
  {
    "postal": "M6N5H4",
    "result": [
      {
        "electoralDistricts": [
          {
            "election": null,
            "id": 111,
            "name": "Toronto—St. Paul's"
          },
          {
            "election": null,
            "id": 122,
            "name": "York South—Weston"
          }
        ],
        "pollDivisionIds": [
          10136047,
          10142984
        ],
        "postalCode": "M6N5H4",
        "streetName": "WESTON",
        "streetDirectionId": null,
        "streetTypeId": "RD",
        "placeName": "TORONTO",
        "streetNameDisplayText": "WESTON RD, TORONTO"
      }
    ]
  },
  {
    "postal": "M6N1K7",
    "result": []
  },
  {
    "postal": "M6N0H0",
    "result": []
  },
  {
    "postal": "M6N0J3",
    "result": []
  },
  {
    "postal": "M6N1X6",
    "result": [
      {
        "electoralDistricts": [
          {
            "election": null,
            "id": 122,
            "name": "York South—Weston"
          }
        ],
        "pollDivisionIds": [
          10142982
        ],
        "postalCode": "M6N1X6",
        "streetName": "MCCORMACK",
        "streetDirectionId": null,
        "streetTypeId": "ST",
        "placeName": "YORK",
        "streetNameDisplayText": "MCCORMACK ST, YORK"
      }
    ]
  },
  {
    "postal": "M6N2Z6",
    "result": [
      {
        "electoralDistricts": [
          {
            "election": null,
            "id": 19,
            "name": "Davenport"
          }
        ],
        "pollDivisionIds": [
          10136085
        ],
        "postalCode": "M6N2Z6",
        "streetName": "MILLER",
        "streetDirectionId": null,
        "streetTypeId": "ST",
        "placeName": "TORONTO",
        "streetNameDisplayText": "MILLER ST, TORONTO"
      }
    ]
  },
  {
    "postal": "M6N4R9",
    "result": [
      {
        "electoralDistricts": [
          {
            "election": null,
            "id": 122,
            "name": "York South—Weston"
          }
        ],
        "pollDivisionIds": [
          10142975
        ],
        "postalCode": "M6N4R9",
        "streetName": "TESTON",
        "streetDirectionId": null,
        "streetTypeId": "BLVD",
        "placeName": "YORK",
        "streetNameDisplayText": "TESTON BLVD, YORK"
      }
    ]
  },
  {
    "postal": "M6N0W8",
    "result": []
  },
  {
    "postal": "M6N1L4",
    "result": [
      {
        "electoralDistricts": [
          {
            "election": null,
            "id": 122,
            "name": "York South—Weston"
          }
        ],
        "pollDivisionIds": [
          10142983
        ],
        "postalCode": "M6N1L4",
        "streetName": "ST CLAIR",
        "streetDirectionId": "W",
        "streetTypeId": "AVE",
        "placeName": "TORONTO",
        "streetNameDisplayText": "ST CLAIR AVE W, TORONTO"
      }
    ]
  },
  {
    "postal": "M6N0C8",
    "result": []
  },
  {
    "postal": "M6N9X7",
    "result": []
  },
  {
    "postal": "M6N4T1",
    "result": [
      {
        "electoralDistricts": [
          {
            "election": null,
            "id": 122,
            "name": "York South—Weston"
          },
          {
            "election": null,
            "id": 22,
            "name": "Don Valley West"
          }
        ],
        "pollDivisionIds": [
          10142975,
          10137737
        ],
        "postalCode": "M6N4T1",
        "streetName": "BEECHWOOD",
        "streetDirectionId": null,
        "streetTypeId": "AVE",
        "placeName": "YORK",
        "streetNameDisplayText": "BEECHWOOD AVE, YORK"
      },
      {
        "electoralDistricts": [
          {
            "election": null,
            "id": 122,
            "name": "York South—Weston"
          }
        ],
        "pollDivisionIds": [
          10142981
        ],
        "postalCode": "M6N4T1",
        "streetName": "BEECHWOOD AVE.",
        "streetDirectionId": null,
        "streetTypeId": "AVE",
        "placeName": "YORK",
        "streetNameDisplayText": "BEECHWOOD AVE. AVE, YORK"
      }
    ]
  },
  {
    "postal": "M6N0M0",
    "result": []
  },
  {
    "postal": "M6N6A2",
    "result": []
  },
  {
    "postal": "M6N9S8",
    "result": []
  },
  {
    "postal": "M6N9T4",
    "result": []
  },
  {
    "postal": "M6N9Y4",
    "result": []
  },
  {
    "postal": "M6N6G5",
    "result": []
  },
  {
    "postal": "M6N6H9",
    "result": []
  },
  {
    "postal": "M6N2P3",
    "result": [
      {
        "electoralDistricts": [
          {
            "election": null,
            "id": 122,
            "name": "York South—Weston"
          }
        ],
        "pollDivisionIds": [
          10142973
        ],
        "postalCode": "M6N2P3",
        "streetName": "PENDEEN",
        "streetDirectionId": null,
        "streetTypeId": "AVE",
        "placeName": "YORK",
        "streetNameDisplayText": "PENDEEN AVE, YORK"
      }
    ]
  },
  {
    "postal": "M6N1T6",
    "result": [
      {
        "electoralDistricts": [
          {
            "election": null,
            "id": 122,
            "name": "York South—Weston"
          }
        ],
        "pollDivisionIds": [
          10142983
        ],
        "postalCode": "M6N1T6",
        "streetName": "PRITCHARD",
        "streetDirectionId": null,
        "streetTypeId": "AVE",
        "placeName": "YORK",
        "streetNameDisplayText": "PRITCHARD AVE, YORK"
      }
    ]
  },
  {
    "postal": "M6N4P6",
    "result": [
      {
        "electoralDistricts": [
          {
            "election": null,
            "id": 122,
            "name": "York South—Weston"
          }
        ],
        "pollDivisionIds": [
          10142975
        ],
        "postalCode": "M6N4P6",
        "streetName": "GREENDALE",
        "streetDirectionId": null,
        "streetTypeId": "AVE",
        "placeName": "YORK",
        "streetNameDisplayText": "GREENDALE AVE, YORK"
      }
    ]
  },
  {
    "postal": "M6N3K1",
    "result": [
      {
        "electoralDistricts": [
          {
            "election": null,
            "id": 19,
            "name": "Davenport"
          }
        ],
        "pollDivisionIds": [
          10136078,
          10136077
        ],
        "postalCode": "M6N3K1",
        "streetName": "SILVERTHORN",
        "streetDirectionId": null,
        "streetTypeId": "AVE",
        "placeName": "TORONTO",
        "streetNameDisplayText": "SILVERTHORN AVE, TORONTO"
      }
    ]
  },
  {
    "postal": "M6N6X4",
    "result": []
  },
  {
    "postal": "M6N4M8",
    "result": [
      {
        "electoralDistricts": [
          {
            "election": null,
            "id": 122,
            "name": "York South—Weston"
          }
        ],
        "pollDivisionIds": [
          10142976
        ],
        "postalCode": "M6N4M8",
        "streetName": "ARNOLD",
        "streetDirectionId": null,
        "streetTypeId": "AVE",
        "placeName": "YORK",
        "streetNameDisplayText": "ARNOLD AVE, YORK"
      }
    ]
  },
  {
    "postal": "M6N2Y1",
    "result": [
      {
        "electoralDistricts": [
          {
            "election": null,
            "id": 19,
            "name": "Davenport"
          }
        ],
        "pollDivisionIds": [
          10136084
        ],
        "postalCode": "M6N2Y1",
        "streetName": "UXBRIDGE",
        "streetDirectionId": null,
        "streetTypeId": "AVE",
        "placeName": "TORONTO",
        "streetNameDisplayText": "UXBRIDGE AVE, TORONTO"
      }
    ]
  },
  {
    "postal": "M6N6M1",
    "result": []
  },
  {
    "postal": "M6N5L8",
    "result": []
  },
  {
    "postal": "M6N3P6",
    "result": [
      {
        "electoralDistricts": [
          {
            "election": null,
            "id": 122,
            "name": "York South—Weston"
          }
        ],
        "pollDivisionIds": [
          10142982
        ],
        "postalCode": "M6N3P6",
        "streetName": "WESTON",
        "streetDirectionId": null,
        "streetTypeId": "RD",
        "placeName": "TORONTO",
        "streetNameDisplayText": "WESTON RD, TORONTO"
      }
    ]
  },
  {
    "postal": "M6N9A5",
    "result": []
  },
  {
    "postal": "M6N7K1",
    "result": []
  },
  {
    "postal": "M6N3J4",
    "result": [
      {
        "electoralDistricts": [
          {
            "election": null,
            "id": 19,
            "name": "Davenport"
          }
        ],
        "pollDivisionIds": [
          10136085
        ],
        "postalCode": "M6N3J4",
        "streetName": "CARRICK",
        "streetDirectionId": null,
        "streetTypeId": "AVE",
        "placeName": "TORONTO",
        "streetNameDisplayText": "CARRICK AVE, TORONTO"
      }
    ]
  },
  {
    "postal": "M6N5E7",
    "result": [
      {
        "electoralDistricts": [
          {
            "election": null,
            "id": 19,
            "name": "Davenport"
          }
        ],
        "pollDivisionIds": [
          10136078
        ],
        "postalCode": "M6N5E7",
        "streetName": "ALGARVE",
        "streetDirectionId": null,
        "streetTypeId": "CRES",
        "placeName": "TORONTO",
        "streetNameDisplayText": "ALGARVE CRES, TORONTO"
      }
    ]
  },
  {
    "postal": "M6N3A7",
    "result": [
      {
        "electoralDistricts": [
          {
            "election": null,
            "id": 19,
            "name": "Davenport"
          }
        ],
        "pollDivisionIds": [
          10136085
        ],
        "postalCode": "M6N3A7",
        "streetName": "OLD WESTON",
        "streetDirectionId": null,
        "streetTypeId": "RD",
        "placeName": "TORONTO",
        "streetNameDisplayText": "OLD WESTON RD, TORONTO"
      },
      {
        "electoralDistricts": [
          {
            "election": null,
            "id": 19,
            "name": "Davenport"
          }
        ],
        "pollDivisionIds": [
          10136085
        ],
        "postalCode": "M6N3A7",
        "streetName": "OLD WESTON",
        "streetDirectionId": null,
        "streetTypeId": "RD",
        "placeName": "YORK",
        "streetNameDisplayText": "OLD WESTON RD, YORK"
      }
    ]
  },
  {
    "postal": "M6N1B9",
    "result": [
      {
        "electoralDistricts": [
          {
            "election": null,
            "id": 19,
            "name": "Davenport"
          }
        ],
        "pollDivisionIds": [
          10136084
        ],
        "postalCode": "M6N1B9",
        "streetName": "DAVENPORT",
        "streetDirectionId": null,
        "streetTypeId": "RD",
        "placeName": "TORONTO",
        "streetNameDisplayText": "DAVENPORT RD, TORONTO"
      }
    ]
  },
  {
    "postal": "M6N9E8",
    "result": []
  },
  {
    "postal": "M6N1C9",
    "result": [
      {
        "electoralDistricts": [
          {
            "election": null,
            "id": 19,
            "name": "Davenport"
          }
        ],
        "pollDivisionIds": [
          10136085
        ],
        "postalCode": "M6N1C9",
        "streetName": "DAVENPORT",
        "streetDirectionId": null,
        "streetTypeId": "RD",
        "placeName": "TORONTO",
        "streetNameDisplayText": "DAVENPORT RD, TORONTO"
      }
    ]
  },
  {
    "postal": "M6N3B5",
    "result": [
      {
        "electoralDistricts": [
          {
            "election": null,
            "id": 19,
            "name": "Davenport"
          }
        ],
        "pollDivisionIds": [
          10136078
        ],
        "postalCode": "M6N3B5",
        "streetName": "OLD WESTON",
        "streetDirectionId": null,
        "streetTypeId": "RD",
        "placeName": "YORK",
        "streetNameDisplayText": "OLD WESTON RD, YORK"
      }
    ]
  },
  {
    "postal": "M6N8R0",
    "result": []
  },
  {
    "postal": "M6N3P2",
    "result": []
  },
  {
    "postal": "M6N5V4",
    "result": []
  },
  {
    "postal": "M6N4H0",
    "result": []
  },
  {
    "postal": "M6N4S7",
    "result": [
      {
        "electoralDistricts": [
          {
            "election": null,
            "id": 122,
            "name": "York South—Weston"
          }
        ],
        "pollDivisionIds": [
          10142975
        ],
        "postalCode": "M6N4S7",
        "streetName": "GRAY",
        "streetDirectionId": null,
        "streetTypeId": "AVE",
        "placeName": "YORK",
        "streetNameDisplayText": "GRAY AVE, YORK"
      }
    ]
  },
  {
    "postal": "M6N6C2",
    "result": []
  },
  {
    "postal": "M6N8W3",
    "result": []
  },
  {
    "postal": "M6N4M5",
    "result": [
      {
        "electoralDistricts": [
          {
            "election": null,
            "id": 122,
            "name": "York South—Weston"
          }
        ],
        "pollDivisionIds": [
          10142974
        ],
        "postalCode": "M6N4M5",
        "streetName": "SYNDICATE",
        "streetDirectionId": null,
        "streetTypeId": "AVE",
        "placeName": "YORK",
        "streetNameDisplayText": "SYNDICATE AVE, YORK"
      }
    ]
  },
  {
    "postal": "M6N5T1",
    "result": []
  },
  {
    "postal": "M6N3B3",
    "result": [
      {
        "electoralDistricts": [
          {
            "election": null,
            "id": 19,
            "name": "Davenport"
          }
        ],
        "pollDivisionIds": [
          10136078
        ],
        "postalCode": "M6N3B3",
        "streetName": "OLD WESTON",
        "streetDirectionId": null,
        "streetTypeId": "RD",
        "placeName": "TORONTO",
        "streetNameDisplayText": "OLD WESTON RD, TORONTO"
      }
    ]
  },
  {
    "postal": "M6N6C6",
    "result": []
  },
  {
    "postal": "M6N7N8",
    "result": []
  },
  {
    "postal": "M6N2Y3",
    "result": [
      {
        "electoralDistricts": [
          {
            "election": null,
            "id": 19,
            "name": "Davenport"
          }
        ],
        "pollDivisionIds": [
          10136085
        ],
        "postalCode": "M6N2Y3",
        "streetName": "UXBRIDGE",
        "streetDirectionId": null,
        "streetTypeId": "AVE",
        "placeName": "TORONTO",
        "streetNameDisplayText": "UXBRIDGE AVE, TORONTO"
      }
    ]
  },
  {
    "postal": "M6N2R6",
    "result": [
      {
        "electoralDistricts": [
          {
            "election": null,
            "id": 122,
            "name": "York South—Weston"
          }
        ],
        "pollDivisionIds": [
          10142975
        ],
        "postalCode": "M6N2R6",
        "streetName": "RUTHVEN",
        "streetDirectionId": null,
        "streetTypeId": "PL",
        "placeName": "YORK",
        "streetNameDisplayText": "RUTHVEN PL, YORK"
      }
    ]
  },
  {
    "postal": "M6N7N3",
    "result": []
  },
  {
    "postal": "M6N8J2",
    "result": []
  },
  {
    "postal": "M6N6A9",
    "result": []
  },
  {
    "postal": "M6N3V2",
    "result": [
      {
        "electoralDistricts": [
          {
            "election": null,
            "id": 122,
            "name": "York South—Weston"
          }
        ],
        "pollDivisionIds": [
          10142984
        ],
        "postalCode": "M6N3V2",
        "streetName": "HAGAR",
        "streetDirectionId": null,
        "streetTypeId": "AVE",
        "placeName": "TORONTO",
        "streetNameDisplayText": "HAGAR AVE, TORONTO"
      }
    ]
  },
  {
    "postal": "M6N2N3",
    "result": [
      {
        "electoralDistricts": [
          {
            "election": null,
            "id": 122,
            "name": "York South—Weston"
          }
        ],
        "pollDivisionIds": [
          10142975
        ],
        "postalCode": "M6N2N3",
        "streetName": "HOMER",
        "streetDirectionId": null,
        "streetTypeId": "AVE",
        "placeName": "YORK",
        "streetNameDisplayText": "HOMER AVE, YORK"
      }
    ]
  },
  {
    "postal": "M6N1S5",
    "result": [
      {
        "electoralDistricts": [
          {
            "election": null,
            "id": 122,
            "name": "York South—Weston"
          }
        ],
        "pollDivisionIds": [
          10142983
        ],
        "postalCode": "M6N1S5",
        "streetName": "HENRIETTA",
        "streetDirectionId": null,
        "streetTypeId": "ST",
        "placeName": "YORK",
        "streetNameDisplayText": "HENRIETTA ST, YORK"
      }
    ]
  },
  {
    "postal": "M6N4T7",
    "result": [
      {
        "electoralDistricts": [
          {
            "election": null,
            "id": 122,
            "name": "York South—Weston"
          }
        ],
        "pollDivisionIds": [
          10142973
        ],
        "postalCode": "M6N4T7",
        "streetName": "CHRYESSA",
        "streetDirectionId": null,
        "streetTypeId": "AVE",
        "placeName": "YORK",
        "streetNameDisplayText": "CHRYESSA AVE, YORK"
      }
    ]
  },
  {
    "postal": "M6N6Y7",
    "result": []
  },
  {
    "postal": "M6N0W7",
    "result": []
  },
  {
    "postal": "M6N2W9",
    "result": [
      {
        "electoralDistricts": [
          {
            "election": null,
            "id": 19,
            "name": "Davenport"
          }
        ],
        "pollDivisionIds": [
          10136084
        ],
        "postalCode": "M6N2W9",
        "streetName": "LAUGHTON",
        "streetDirectionId": null,
        "streetTypeId": "AVE",
        "placeName": "TORONTO",
        "streetNameDisplayText": "LAUGHTON AVE, TORONTO"
      }
    ]
  },
  {
    "postal": "M6N8V0",
    "result": []
  },
  {
    "postal": "M6N0H4",
    "result": []
  },
  {
    "postal": "M6N2T1",
    "result": [
      {
        "electoralDistricts": [
          {
            "election": null,
            "id": 122,
            "name": "York South—Weston"
          }
        ],
        "pollDivisionIds": [
          10142975
        ],
        "postalCode": "M6N2T1",
        "streetName": "LAMBTON",
        "streetDirectionId": null,
        "streetTypeId": "AVE",
        "placeName": "YORK",
        "streetNameDisplayText": "LAMBTON AVE, YORK"
      }
    ]
  },
  {
    "postal": "M6N1B1",
    "result": [
      {
        "electoralDistricts": [
          {
            "election": null,
            "id": 19,
            "name": "Davenport"
          }
        ],
        "pollDivisionIds": [
          10136085
        ],
        "postalCode": "M6N1B1",
        "streetName": "LINDNER",
        "streetDirectionId": null,
        "streetTypeId": "ST",
        "placeName": "TORONTO",
        "streetNameDisplayText": "LINDNER ST, TORONTO"
      }
    ]
  },
  {
    "postal": "M6N8B6",
    "result": []
  },
  {
    "postal": "M6N6H1",
    "result": []
  },
  {
    "postal": "M6N8T8",
    "result": []
  },
  {
    "postal": "M6N0T4",
    "result": []
  },
  {
    "postal": "M6N2C4",
    "result": [
      {
        "electoralDistricts": [
          {
            "election": null,
            "id": 122,
            "name": "York South—Weston"
          }
        ],
        "pollDivisionIds": [
          10142982
        ],
        "postalCode": "M6N2C4",
        "streetName": "FELTHAM",
        "streetDirectionId": null,
        "streetTypeId": "AVE",
        "placeName": "YORK",
        "streetNameDisplayText": "FELTHAM AVE, YORK"
      }
    ]
  },
  {
    "postal": "M6N8N3",
    "result": []
  },
  {
    "postal": "M6N4L8",
    "result": [
      {
        "electoralDistricts": [
          {
            "election": null,
            "id": 122,
            "name": "York South—Weston"
          }
        ],
        "pollDivisionIds": [
          10142976
        ],
        "postalCode": "M6N4L8",
        "streetName": "CLIFF",
        "streetDirectionId": null,
        "streetTypeId": "ST",
        "placeName": "YORK",
        "streetNameDisplayText": "CLIFF ST, YORK"
      }
    ]
  },
  {
    "postal": "M6N2B5",
    "result": [
      {
        "electoralDistricts": [
          {
            "election": null,
            "id": 122,
            "name": "York South—Weston"
          }
        ],
        "pollDivisionIds": [
          10142979
        ],
        "postalCode": "M6N2B5",
        "streetName": "LAVENDER",
        "streetDirectionId": null,
        "streetTypeId": "RD",
        "placeName": "YORK",
        "streetNameDisplayText": "LAVENDER RD, YORK"
      }
    ]
  },
  {
    "postal": "M6N3H1",
    "result": [
      {
        "electoralDistricts": [
          {
            "election": null,
            "id": 19,
            "name": "Davenport"
          }
        ],
        "pollDivisionIds": [
          10136078
        ],
        "postalCode": "M6N3H1",
        "streetName": "PRESCOTT",
        "streetDirectionId": null,
        "streetTypeId": "AVE",
        "placeName": "TORONTO",
        "streetNameDisplayText": "PRESCOTT AVE, TORONTO"
      }
    ]
  },
  {
    "postal": "M6N4Y1",
    "result": []
  },
  {
    "postal": "M6N7E2",
    "result": []
  },
  {
    "postal": "M6N2P5",
    "result": [
      {
        "electoralDistricts": [
          {
            "election": null,
            "id": 122,
            "name": "York South—Weston"
          }
        ],
        "pollDivisionIds": [
          10142973
        ],
        "postalCode": "M6N2P5",
        "streetName": "BEXLEY",
        "streetDirectionId": null,
        "streetTypeId": "CRES",
        "placeName": "YORK",
        "streetNameDisplayText": "BEXLEY CRES, YORK"
      }
    ]
  },
  {
    "postal": "M6N8R7",
    "result": []
  },
  {
    "postal": "M6N9P1",
    "result": []
  },
  {
    "postal": "M6N3B8",
    "result": [
      {
        "electoralDistricts": [
          {
            "election": null,
            "id": 122,
            "name": "York South—Weston"
          }
        ],
        "pollDivisionIds": [
          10142979
        ],
        "postalCode": "M6N3B8",
        "streetName": "OLD WESTON",
        "streetDirectionId": null,
        "streetTypeId": "RD",
        "placeName": "YORK",
        "streetNameDisplayText": "OLD WESTON RD, YORK"
      }
    ]
  },
  {
    "postal": "M6N3P7",
    "result": [
      {
        "electoralDistricts": [
          {
            "election": null,
            "id": 122,
            "name": "York South—Weston"
          }
        ],
        "pollDivisionIds": [
          10142982
        ],
        "postalCode": "M6N3P7",
        "streetName": "WESTON",
        "streetDirectionId": null,
        "streetTypeId": "RD",
        "placeName": "YORK",
        "streetNameDisplayText": "WESTON RD, YORK"
      }
    ]
  },
  {
    "postal": "M6N9B2",
    "result": []
  },
  {
    "postal": "M6N6Z3",
    "result": []
  },
  {
    "postal": "M6N4N5",
    "result": [
      {
        "electoralDistricts": [
          {
            "election": null,
            "id": 122,
            "name": "York South—Weston"
          }
        ],
        "pollDivisionIds": [
          10142974
        ],
        "postalCode": "M6N4N5",
        "streetName": "GUESTVILLE",
        "streetDirectionId": null,
        "streetTypeId": "AVE",
        "placeName": "YORK",
        "streetNameDisplayText": "GUESTVILLE AVE, YORK"
      }
    ]
  },
  {
    "postal": "M6N8T3",
    "result": []
  },
  {
    "postal": "M6N1V2",
    "result": [
      {
        "electoralDistricts": [
          {
            "election": null,
            "id": 122,
            "name": "York South—Weston"
          }
        ],
        "pollDivisionIds": [
          10142983
        ],
        "postalCode": "M6N1V2",
        "streetName": "CORBETT",
        "streetDirectionId": null,
        "streetTypeId": "AVE",
        "placeName": "YORK",
        "streetNameDisplayText": "CORBETT AVE, YORK"
      }
    ]
  },
  {
    "postal": "M6N1Y0",
    "result": []
  },
  {
    "postal": "M6N3G6",
    "result": [
      {
        "electoralDistricts": [
          {
            "election": null,
            "id": 19,
            "name": "Davenport"
          }
        ],
        "pollDivisionIds": [
          10136085
        ],
        "postalCode": "M6N3G6",
        "streetName": "PRESCOTT",
        "streetDirectionId": null,
        "streetTypeId": "AVE",
        "placeName": "TORONTO",
        "streetNameDisplayText": "PRESCOTT AVE, TORONTO"
      }
    ]
  },
  {
    "postal": "M6N3H7",
    "result": [
      {
        "electoralDistricts": [
          {
            "election": null,
            "id": 19,
            "name": "Davenport"
          }
        ],
        "pollDivisionIds": [
          10136078
        ],
        "postalCode": "M6N3H7",
        "streetName": "BLACKTHORN",
        "streetDirectionId": null,
        "streetTypeId": "AVE",
        "placeName": "TORONTO",
        "streetNameDisplayText": "BLACKTHORN AVE, TORONTO"
      }
    ]
  },
  {
    "postal": "M6N7X8",
    "result": []
  },
  {
    "postal": "M6N0C7",
    "result": []
  },
  {
    "postal": "M6N0W9",
    "result": []
  },
  {
    "postal": "M6N8E6",
    "result": []
  },
  {
    "postal": "M6N9Z8",
    "result": []
  },
  {
    "postal": "M6N3P4",
    "result": [
      {
        "electoralDistricts": [
          {
            "election": null,
            "id": 122,
            "name": "York South—Weston"
          }
        ],
        "pollDivisionIds": [
          10142984
        ],
        "postalCode": "M6N3P4",
        "streetName": "WESTON",
        "streetDirectionId": null,
        "streetTypeId": "RD",
        "placeName": "TORONTO",
        "streetNameDisplayText": "WESTON RD, TORONTO"
      }
    ]
  },
  {
    "postal": "M6N6L8",
    "result": []
  },
  {
    "postal": "M6N2R4",
    "result": [
      {
        "electoralDistricts": [
          {
            "election": null,
            "id": 122,
            "name": "York South—Weston"
          }
        ],
        "pollDivisionIds": [
          10142976
        ],
        "postalCode": "M6N2R4",
        "streetName": "BUSHEY",
        "streetDirectionId": null,
        "streetTypeId": "AVE",
        "placeName": "YORK",
        "streetNameDisplayText": "BUSHEY AVE, YORK"
      }
    ]
  },
  {
    "postal": "M6N2W1",
    "result": [
      {
        "electoralDistricts": [
          {
            "election": null,
            "id": 19,
            "name": "Davenport"
          }
        ],
        "pollDivisionIds": [
          10136084
        ],
        "postalCode": "M6N2W1",
        "streetName": "WILTSHIRE",
        "streetDirectionId": null,
        "streetTypeId": "AVE",
        "placeName": "TORONTO",
        "streetNameDisplayText": "WILTSHIRE AVE, TORONTO"
      }
    ]
  },
  {
    "postal": "M6N9H8",
    "result": []
  },
  {
    "postal": "M6N8X9",
    "result": []
  },
  {
    "postal": "M6N7H4",
    "result": []
  },
  {
    "postal": "M6N3J1",
    "result": [
      {
        "electoralDistricts": [
          {
            "election": null,
            "id": 19,
            "name": "Davenport"
          }
        ],
        "pollDivisionIds": [
          10136078
        ],
        "postalCode": "M6N3J1",
        "streetName": "BLACKTHORN",
        "streetDirectionId": null,
        "streetTypeId": "AVE",
        "placeName": "TORONTO",
        "streetNameDisplayText": "BLACKTHORN AVE, TORONTO"
      }
    ]
  },
  {
    "postal": "M6N1P4",
    "result": [
      {
        "electoralDistricts": [
          {
            "election": null,
            "id": 122,
            "name": "York South—Weston"
          }
        ],
        "pollDivisionIds": [
          10142984
        ],
        "postalCode": "M6N1P4",
        "streetName": "GLEN SCARLETT",
        "streetDirectionId": null,
        "streetTypeId": "RD",
        "placeName": "TORONTO",
        "streetNameDisplayText": "GLEN SCARLETT RD, TORONTO"
      }
    ]
  },
  {
    "postal": "M6N2A3",
    "result": [
      {
        "electoralDistricts": [
          {
            "election": null,
            "id": 122,
            "name": "York South—Weston"
          }
        ],
        "pollDivisionIds": [
          10142981
        ],
        "postalCode": "M6N2A3",
        "streetName": "ELLINS",
        "streetDirectionId": null,
        "streetTypeId": "AVE",
        "placeName": "YORK",
        "streetNameDisplayText": "ELLINS AVE, YORK"
      }
    ]
  },
  {
    "postal": "M6N0Z1",
    "result": []
  },
  {
    "postal": "M6N1C1",
    "result": [
      {
        "electoralDistricts": [
          {
            "election": null,
            "id": 19,
            "name": "Davenport"
          }
        ],
        "pollDivisionIds": [
          10136084
        ],
        "postalCode": "M6N1C1",
        "streetName": "DAVENPORT",
        "streetDirectionId": null,
        "streetTypeId": "RD",
        "placeName": "TORONTO",
        "streetNameDisplayText": "DAVENPORT RD, TORONTO"
      }
    ]
  },
  {
    "postal": "M6N0H3",
    "result": []
  },
  {
    "postal": "M6N7B0",
    "result": []
  },
  {
    "postal": "M6N5K2",
    "result": []
  },
  {
    "postal": "M6N1E9",
    "result": [
      {
        "electoralDistricts": [
          {
            "election": null,
            "id": 19,
            "name": "Davenport"
          }
        ],
        "pollDivisionIds": [
          10136085
        ],
        "postalCode": "M6N1E9",
        "streetName": "CONNOLLY",
        "streetDirectionId": null,
        "streetTypeId": "ST",
        "placeName": "TORONTO",
        "streetNameDisplayText": "CONNOLLY ST, TORONTO"
      }
    ]
  },
  {
    "postal": "M6N9W7",
    "result": []
  },
  {
    "postal": "M6N5W6",
    "result": []
  },
  {
    "postal": "M6N6S6",
    "result": []
  },
  {
    "postal": "M6N2P8",
    "result": [
      {
        "electoralDistricts": [
          {
            "election": null,
            "id": 122,
            "name": "York South—Weston"
          }
        ],
        "pollDivisionIds": [
          10142973
        ],
        "postalCode": "M6N2P8",
        "streetName": "CYNTHIA",
        "streetDirectionId": null,
        "streetTypeId": "RD",
        "placeName": "YORK",
        "streetNameDisplayText": "CYNTHIA RD, YORK"
      }
    ]
  },
  {
    "postal": "M6N4P8",
    "result": [
      {
        "electoralDistricts": [
          {
            "election": null,
            "id": 122,
            "name": "York South—Weston"
          }
        ],
        "pollDivisionIds": [
          10142975
        ],
        "postalCode": "M6N4P8",
        "streetName": "ROCKCLIFFE",
        "streetDirectionId": null,
        "streetTypeId": "BLVD",
        "placeName": "TORONTO",
        "streetNameDisplayText": "ROCKCLIFFE BLVD, TORONTO"
      }
    ]
  },
  {
    "postal": "M6N0V9",
    "result": []
  },
  {
    "postal": "M6N5Y2",
    "result": []
  },
  {
    "postal": "M6N7Z7",
    "result": []
  },
  {
    "postal": "M6N6Y8",
    "result": []
  },
  {
    "postal": "M6N2G7",
    "result": [
      {
        "electoralDistricts": [
          {
            "election": null,
            "id": 101,
            "name": "Spadina—Fort York"
          },
          {
            "election": null,
            "id": 122,
            "name": "York South—Weston"
          }
        ],
        "pollDivisionIds": [
          10141974,
          10142982
        ],
        "postalCode": "M6N2G7",
        "streetName": "SENECA",
        "streetDirectionId": null,
        "streetTypeId": "AVE",
        "placeName": "YORK",
        "streetNameDisplayText": "SENECA AVE, YORK"
      }
    ]
  },
  {
    "postal": "M6N8C1",
    "result": []
  },
  {
    "postal": "M6N5C5",
    "result": [
      {
        "electoralDistricts": [
          {
            "election": null,
            "id": 122,
            "name": "York South—Weston"
          }
        ],
        "pollDivisionIds": [
          10142984
        ],
        "postalCode": "M6N5C5",
        "streetName": "TARRAGONA",
        "streetDirectionId": null,
        "streetTypeId": "BLVD",
        "placeName": "TORONTO",
        "streetNameDisplayText": "TARRAGONA BLVD, TORONTO"
      }
    ]
  },
  {
    "postal": "M6N2X8",
    "result": [
      {
        "electoralDistricts": [
          {
            "election": null,
            "id": 19,
            "name": "Davenport"
          }
        ],
        "pollDivisionIds": [
          10136085
        ],
        "postalCode": "M6N2X8",
        "streetName": "LAUGHTON",
        "streetDirectionId": null,
        "streetTypeId": "AVE",
        "placeName": "TORONTO",
        "streetNameDisplayText": "LAUGHTON AVE, TORONTO"
      }
    ]
  },
  {
    "postal": "M6N1W5",
    "result": [
      {
        "electoralDistricts": [
          {
            "election": null,
            "id": 122,
            "name": "York South—Weston"
          }
        ],
        "pollDivisionIds": [
          10142980
        ],
        "postalCode": "M6N1W5",
        "streetName": "EILEEN",
        "streetDirectionId": null,
        "streetTypeId": "AVE",
        "placeName": "YORK",
        "streetNameDisplayText": "EILEEN AVE, YORK"
      }
    ]
  },
  {
    "postal": "M6N7G0",
    "result": []
  },
  {
    "postal": "M6N8J8",
    "result": []
  },
  {
    "postal": "M6N3Y0",
    "result": []
  },
  {
    "postal": "M6N9T7",
    "result": []
  },
  {
    "postal": "M6N5P4",
    "result": []
  },
  {
    "postal": "M6N4B0",
    "result": []
  },
  {
    "postal": "M6N9N8",
    "result": []
  },
  {
    "postal": "M6N4A7",
    "result": [
      {
        "electoralDistricts": [
          {
            "election": null,
            "id": 122,
            "name": "York South—Weston"
          }
        ],
        "pollDivisionIds": [
          10142983
        ],
        "postalCode": "M6N4A7",
        "streetName": "JANE",
        "streetDirectionId": null,
        "streetTypeId": "ST",
        "placeName": "YORK",
        "streetNameDisplayText": "JANE ST, YORK"
      }
    ]
  },
  {
    "postal": "M6N4H9",
    "result": [
      {
        "electoralDistricts": [
          {
            "election": null,
            "id": 122,
            "name": "York South—Weston"
          }
        ],
        "pollDivisionIds": [
          10142980
        ],
        "postalCode": "M6N4H9",
        "streetName": "MILDRED",
        "streetDirectionId": null,
        "streetTypeId": "AVE",
        "placeName": "YORK",
        "streetNameDisplayText": "MILDRED AVE, YORK"
      }
    ]
  },
  {
    "postal": "M6N6X1",
    "result": []
  },
  {
    "postal": "M6N9Y7",
    "result": []
  },
  {
    "postal": "M6N2Y5",
    "result": [
      {
        "electoralDistricts": [
          {
            "election": null,
            "id": 19,
            "name": "Davenport"
          }
        ],
        "pollDivisionIds": [
          10136085
        ],
        "postalCode": "M6N2Y5",
        "streetName": "GILLESPIE",
        "streetDirectionId": null,
        "streetTypeId": "AVE",
        "placeName": "TORONTO",
        "streetNameDisplayText": "GILLESPIE AVE, TORONTO"
      }
    ]
  },
  {
    "postal": "M6N8L7",
    "result": []
  },
  {
    "postal": "M6N2A8",
    "result": [
      {
        "electoralDistricts": [
          {
            "election": null,
            "id": 122,
            "name": "York South—Weston"
          }
        ],
        "pollDivisionIds": [
          10142980
        ],
        "postalCode": "M6N2A8",
        "streetName": "ELLINS",
        "streetDirectionId": null,
        "streetTypeId": "AVE",
        "placeName": "YORK",
        "streetNameDisplayText": "ELLINS AVE, YORK"
      }
    ]
  },
  {
    "postal": "M6N2K9",
    "result": [
      {
        "electoralDistricts": [
          {
            "election": null,
            "id": 122,
            "name": "York South—Weston"
          }
        ],
        "pollDivisionIds": [
          10142973
        ],
        "postalCode": "M6N2K9",
        "streetName": "BLACK CREEK",
        "streetDirectionId": null,
        "streetTypeId": "BLVD",
        "placeName": "YORK",
        "streetNameDisplayText": "BLACK CREEK BLVD, YORK"
      }
    ]
  },
  {
    "postal": "M6N3E5",
    "result": [
      {
        "electoralDistricts": [
          {
            "election": null,
            "id": 122,
            "name": "York South—Weston"
          }
        ],
        "pollDivisionIds": [
          10142984
        ],
        "postalCode": "M6N3E5",
        "streetName": "KEELE",
        "streetDirectionId": null,
        "streetTypeId": "ST",
        "placeName": "TORONTO",
        "streetNameDisplayText": "KEELE ST, TORONTO"
      }
    ]
  },
  {
    "postal": "M6N8N6",
    "result": []
  },
  {
    "postal": "M6N8J4",
    "result": []
  },
  {
    "postal": "M6N4R7",
    "result": [
      {
        "electoralDistricts": [
          {
            "election": null,
            "id": 122,
            "name": "York South—Weston"
          }
        ],
        "pollDivisionIds": [
          10142975
        ],
        "postalCode": "M6N4R7",
        "streetName": "ROCKCLIFFE",
        "streetDirectionId": null,
        "streetTypeId": "BLVD",
        "placeName": "TORONTO",
        "streetNameDisplayText": "ROCKCLIFFE BLVD, TORONTO"
      }
    ]
  },
  {
    "postal": "M6N9K1",
    "result": []
  },
  {
    "postal": "M6N8E1",
    "result": []
  },
  {
    "postal": "M6N0R1",
    "result": []
  },
  {
    "postal": "M6N4J3",
    "result": [
      {
        "electoralDistricts": [
          {
            "election": null,
            "id": 122,
            "name": "York South—Weston"
          }
        ],
        "pollDivisionIds": [
          10142980
        ],
        "postalCode": "M6N4J3",
        "streetName": "LYDON",
        "streetDirectionId": null,
        "streetTypeId": "AVE",
        "placeName": "YORK",
        "streetNameDisplayText": "LYDON AVE, YORK"
      }
    ]
  },
  {
    "postal": "M6N7E7",
    "result": []
  },
  {
    "postal": "M6N0J0",
    "result": []
  },
  {
    "postal": "M6N7R8",
    "result": []
  },
  {
    "postal": "M6N9X0",
    "result": []
  },
  {
    "postal": "M6N7P6",
    "result": []
  },
  {
    "postal": "M6N0R7",
    "result": []
  },
  {
    "postal": "M6N5W1",
    "result": []
  },
  {
    "postal": "M6N0K4",
    "result": []
  },
  {
    "postal": "M6N7N9",
    "result": []
  },
  {
    "postal": "M6N1N0",
    "result": []
  },
  {
    "postal": "M6N6P3",
    "result": []
  },
  {
    "postal": "M6N5A1",
    "result": []
  },
  {
    "postal": "M6N9M9",
    "result": []
  },
  {
    "postal": "M6N7T6",
    "result": []
  },
  {
    "postal": "M6N3X0",
    "result": []
  },
  {
    "postal": "M6N2T0",
    "result": []
  },
  {
    "postal": "M6N5X9",
    "result": []
  },
  {
    "postal": "M6N2R3",
    "result": [
      {
        "electoralDistricts": [
          {
            "election": null,
            "id": 122,
            "name": "York South—Weston"
          }
        ],
        "pollDivisionIds": [
          10142976
        ],
        "postalCode": "M6N2R3",
        "streetName": "BUSHEY",
        "streetDirectionId": null,
        "streetTypeId": "AVE",
        "placeName": "YORK",
        "streetNameDisplayText": "BUSHEY AVE, YORK"
      }
    ]
  },
  {
    "postal": "M6N5N2",
    "result": []
  },
  {
    "postal": "M6N4Y7",
    "result": [
      {
        "electoralDistricts": [
          {
            "election": null,
            "id": 122,
            "name": "York South—Weston"
          }
        ],
        "pollDivisionIds": [
          10142982
        ],
        "postalCode": "M6N4Y7",
        "streetName": "WESTON",
        "streetDirectionId": null,
        "streetTypeId": "RD",
        "placeName": "YORK",
        "streetNameDisplayText": "WESTON RD, YORK"
      }
    ]
  },
  {
    "postal": "M6N7M0",
    "result": []
  },
  {
    "postal": "M6N8P3",
    "result": []
  },
  {
    "postal": "M6N3N3",
    "result": []
  },
  {
    "postal": "M6N7S3",
    "result": []
  },
  {
    "postal": "M6N3V9",
    "result": [
      {
        "electoralDistricts": [
          {
            "election": null,
            "id": 122,
            "name": "York South—Weston"
          }
        ],
        "pollDivisionIds": [
          10142983
        ],
        "postalCode": "M6N3V9",
        "streetName": "RUNNYMEDE",
        "streetDirectionId": null,
        "streetTypeId": "RD",
        "placeName": "YORK",
        "streetNameDisplayText": "RUNNYMEDE RD, YORK"
      }
    ]
  },
  {
    "postal": "M6N9N7",
    "result": []
  },
  {
    "postal": "M6N0G4",
    "result": []
  },
  {
    "postal": "M6N2E2",
    "result": [
      {
        "electoralDistricts": [
          {
            "election": null,
            "id": 122,
            "name": "York South—Weston"
          }
        ],
        "pollDivisionIds": [
          10142982
        ],
        "postalCode": "M6N2E2",
        "streetName": "NORTHLAND",
        "streetDirectionId": null,
        "streetTypeId": "AVE",
        "placeName": "TORONTO",
        "streetNameDisplayText": "NORTHLAND AVE, TORONTO"
      }
    ]
  },
  {
    "postal": "M6N7W8",
    "result": []
  },
  {
    "postal": "M6N7M5",
    "result": []
  },
  {
    "postal": "M6N5W8",
    "result": []
  },
  {
    "postal": "M6N5E5",
    "result": [
      {
        "electoralDistricts": [
          {
            "election": null,
            "id": 19,
            "name": "Davenport"
          }
        ],
        "pollDivisionIds": [
          10136085
        ],
        "postalCode": "M6N5E5",
        "streetName": "SAGRES",
        "streetDirectionId": null,
        "streetTypeId": "CRES",
        "placeName": "TORONTO",
        "streetNameDisplayText": "SAGRES CRES, TORONTO"
      }
    ]
  },
  {
    "postal": "M6N1P9",
    "result": [
      {
        "electoralDistricts": [
          {
            "election": null,
            "id": 19,
            "name": "Davenport"
          }
        ],
        "pollDivisionIds": [
          10136078
        ],
        "postalCode": "M6N1P9",
        "streetName": "TURNBERRY",
        "streetDirectionId": null,
        "streetTypeId": "AVE",
        "placeName": "TORONTO",
        "streetNameDisplayText": "TURNBERRY AVE, TORONTO"
      }
    ]
  },
  {
    "postal": "M6N8V8",
    "result": []
  },
  {
    "postal": "M6N9G8",
    "result": []
  },
  {
    "postal": "M6N8H9",
    "result": []
  },
  {
    "postal": "M6N1Z1",
    "result": [
      {
        "electoralDistricts": [
          {
            "election": null,
            "id": 122,
            "name": "York South—Weston"
          }
        ],
        "pollDivisionIds": [
          10142980
        ],
        "postalCode": "M6N1Z1",
        "streetName": "FOXWELL",
        "streetDirectionId": null,
        "streetTypeId": "ST",
        "placeName": "YORK",
        "streetNameDisplayText": "FOXWELL ST, YORK"
      }
    ]
  },
  {
    "postal": "M6N8M3",
    "result": []
  },
  {
    "postal": "M6N5H6",
    "result": [
      {
        "electoralDistricts": [
          {
            "election": null,
            "id": 122,
            "name": "York South—Weston"
          }
        ],
        "pollDivisionIds": [
          10142984
        ],
        "postalCode": "M6N5H6",
        "streetName": "BIRDSTONE",
        "streetDirectionId": null,
        "streetTypeId": "CRES",
        "placeName": "TORONTO",
        "streetNameDisplayText": "BIRDSTONE CRES, TORONTO"
      }
    ]
  },
  {
    "postal": "M6N7W7",
    "result": []
  },
  {
    "postal": "M6N4L0",
    "result": []
  },
  {
    "postal": "M6N2N1",
    "result": [
      {
        "electoralDistricts": [
          {
            "election": null,
            "id": 122,
            "name": "York South—Weston"
          }
        ],
        "pollDivisionIds": [
          10142976
        ],
        "postalCode": "M6N2N1",
        "streetName": "JASPER",
        "streetDirectionId": null,
        "streetTypeId": "AVE",
        "placeName": "YORK",
        "streetNameDisplayText": "JASPER AVE, YORK"
      }
    ]
  },
  {
    "postal": "M6N2H4",
    "result": [
      {
        "electoralDistricts": [
          {
            "election": null,
            "id": 122,
            "name": "York South—Weston"
          }
        ],
        "pollDivisionIds": [
          10142982
        ],
        "postalCode": "M6N2H4",
        "streetName": "HUMBER",
        "streetDirectionId": null,
        "streetTypeId": "BLVD",
        "placeName": "YORK",
        "streetNameDisplayText": "HUMBER BLVD, YORK"
      }
    ]
  },
  {
    "postal": "M6N5C8",
    "result": [
      {
        "electoralDistricts": [
          {
            "election": null,
            "id": 122,
            "name": "York South—Weston"
          }
        ],
        "pollDivisionIds": [
          10142984
        ],
        "postalCode": "M6N5C8",
        "streetName": "VIELLA",
        "streetDirectionId": null,
        "streetTypeId": "ST",
        "placeName": "TORONTO",
        "streetNameDisplayText": "VIELLA ST, TORONTO"
      }
    ]
  },
  {
    "postal": "M6N8B0",
    "result": []
  },
  {
    "postal": "M6N1T4",
    "result": [
      {
        "electoralDistricts": [
          {
            "election": null,
            "id": 122,
            "name": "York South—Weston"
          }
        ],
        "pollDivisionIds": [
          10142983
        ],
        "postalCode": "M6N1T4",
        "streetName": "PRITCHARD",
        "streetDirectionId": null,
        "streetTypeId": "AVE",
        "placeName": "YORK",
        "streetNameDisplayText": "PRITCHARD AVE, YORK"
      }
    ]
  },
  {
    "postal": "M6N7N7",
    "result": []
  },
  {
    "postal": "M6N4L3",
    "result": [
      {
        "electoralDistricts": [
          {
            "election": null,
            "id": 122,
            "name": "York South—Weston"
          }
        ],
        "pollDivisionIds": [
          10142974
        ],
        "postalCode": "M6N4L3",
        "streetName": "BROWNVILLE",
        "streetDirectionId": null,
        "streetTypeId": "AVE",
        "placeName": "YORK",
        "streetNameDisplayText": "BROWNVILLE AVE, YORK"
      }
    ]
  },
  {
    "postal": "M6N2N2",
    "result": [
      {
        "electoralDistricts": [
          {
            "election": null,
            "id": 122,
            "name": "York South—Weston"
          }
        ],
        "pollDivisionIds": [
          10142976
        ],
        "postalCode": "M6N2N2",
        "streetName": "JASPER",
        "streetDirectionId": null,
        "streetTypeId": "AVE",
        "placeName": "YORK",
        "streetNameDisplayText": "JASPER AVE, YORK"
      }
    ]
  },
  {
    "postal": "M6N4N8",
    "result": [
      {
        "electoralDistricts": [
          {
            "election": null,
            "id": 122,
            "name": "York South—Weston"
          }
        ],
        "pollDivisionIds": [
          10142974
        ],
        "postalCode": "M6N4N8",
        "streetName": "GUESTVILLE",
        "streetDirectionId": null,
        "streetTypeId": "AVE",
        "placeName": "YORK",
        "streetNameDisplayText": "GUESTVILLE AVE, YORK"
      }
    ]
  },
  {
    "postal": "M6N3M5",
    "result": [
      {
        "electoralDistricts": [
          {
            "election": null,
            "id": 19,
            "name": "Davenport"
          }
        ],
        "pollDivisionIds": [
          10136078
        ],
        "postalCode": "M6N3M5",
        "streetName": "CHAMBERS",
        "streetDirectionId": null,
        "streetTypeId": "AVE",
        "placeName": "YORK",
        "streetNameDisplayText": "CHAMBERS AVE, YORK"
      }
    ]
  },
  {
    "postal": "M6N6H7",
    "result": []
  },
  {
    "postal": "M6N8Y8",
    "result": []
  },
  {
    "postal": "M6N5R9",
    "result": []
  },
  {
    "postal": "M6N8G3",
    "result": []
  },
  {
    "postal": "M6N4N7",
    "result": [
      {
        "electoralDistricts": [
          {
            "election": null,
            "id": 122,
            "name": "York South—Weston"
          }
        ],
        "pollDivisionIds": [
          10142974
        ],
        "postalCode": "M6N4N7",
        "streetName": "GUESTVILLE",
        "streetDirectionId": null,
        "streetTypeId": "AVE",
        "placeName": "YORK",
        "streetNameDisplayText": "GUESTVILLE AVE, YORK"
      }
    ]
  },
  {
    "postal": "M6N0B9",
    "result": []
  },
  {
    "postal": "M6N9K7",
    "result": []
  },
  {
    "postal": "M6N9K9",
    "result": []
  },
  {
    "postal": "M6N3Z2",
    "result": [
      {
        "electoralDistricts": [
          {
            "election": null,
            "id": 122,
            "name": "York South—Weston"
          }
        ],
        "pollDivisionIds": [
          10142983
        ],
        "postalCode": "M6N3Z2",
        "streetName": "NORVAL",
        "streetDirectionId": null,
        "streetTypeId": "ST",
        "placeName": "YORK",
        "streetNameDisplayText": "NORVAL ST, YORK"
      }
    ]
  },
  {
    "postal": "M6N6W7",
    "result": []
  },
  {
    "postal": "M6N0P1",
    "result": []
  },
  {
    "postal": "M6N3A0",
    "result": []
  },
  {
    "postal": "M6N8L9",
    "result": []
  },
  {
    "postal": "M6N6X0",
    "result": []
  },
  {
    "postal": "M6N3E9",
    "result": [
      {
        "electoralDistricts": [
          {
            "election": null,
            "id": 122,
            "name": "York South—Weston"
          }
        ],
        "pollDivisionIds": [
          10142979
        ],
        "postalCode": "M6N3E9",
        "streetName": "KEELE",
        "streetDirectionId": null,
        "streetTypeId": "ST",
        "placeName": "YORK",
        "streetNameDisplayText": "KEELE ST, YORK"
      }
    ]
  },
  {
    "postal": "M6N0S5",
    "result": []
  },
  {
    "postal": "M6N1A2",
    "result": [
      {
        "electoralDistricts": [
          {
            "election": null,
            "id": 19,
            "name": "Davenport"
          }
        ],
        "pollDivisionIds": [
          10136084
        ],
        "postalCode": "M6N1A2",
        "streetName": "KINGSLEY",
        "streetDirectionId": null,
        "streetTypeId": "AVE",
        "placeName": "TORONTO",
        "streetNameDisplayText": "KINGSLEY AVE, TORONTO"
      }
    ]
  },
  {
    "postal": "M6N5V8",
    "result": []
  },
  {
    "postal": "M6N8C5",
    "result": []
  },
  {
    "postal": "M6N6N0",
    "result": []
  },
  {
    "postal": "M6N9E6",
    "result": []
  },
  {
    "postal": "M6N5J7",
    "result": []
  },
  {
    "postal": "M6N2R2",
    "result": [
      {
        "electoralDistricts": [
          {
            "election": null,
            "id": 122,
            "name": "York South—Weston"
          }
        ],
        "pollDivisionIds": [
          10142973
        ],
        "postalCode": "M6N2R2",
        "streetName": "CYNTHIA",
        "streetDirectionId": null,
        "streetTypeId": "RD",
        "placeName": "YORK",
        "streetNameDisplayText": "CYNTHIA RD, YORK"
      }
    ]
  },
  {
    "postal": "M6N0P5",
    "result": []
  },
  {
    "postal": "M6N5A7",
    "result": []
  },
  {
    "postal": "M6N1G1",
    "result": [
      {
        "electoralDistricts": [
          {
            "election": null,
            "id": 19,
            "name": "Davenport"
          }
        ],
        "pollDivisionIds": [
          10136085
        ],
        "postalCode": "M6N1G1",
        "streetName": "RUTLAND",
        "streetDirectionId": null,
        "streetTypeId": "ST",
        "placeName": "TORONTO",
        "streetNameDisplayText": "RUTLAND ST, TORONTO"
      }
    ]
  },
  {
    "postal": "M6N9R6",
    "result": []
  },
  {
    "postal": "M6N4Z9",
    "result": [
      {
        "electoralDistricts": [
          {
            "election": null,
            "id": 122,
            "name": "York South—Weston"
          }
        ],
        "pollDivisionIds": [
          10142982
        ],
        "postalCode": "M6N4Z9",
        "streetName": "WESTON",
        "streetDirectionId": null,
        "streetTypeId": "RD",
        "placeName": "YORK",
        "streetNameDisplayText": "WESTON RD, YORK"
      }
    ]
  },
  {
    "postal": "M6N1V5",
    "result": [
      {
        "electoralDistricts": [
          {
            "election": null,
            "id": 122,
            "name": "York South—Weston"
          }
        ],
        "pollDivisionIds": [
          10142980
        ],
        "postalCode": "M6N1V5",
        "streetName": "EILEEN",
        "streetDirectionId": null,
        "streetTypeId": "AVE",
        "placeName": "YORK",
        "streetNameDisplayText": "EILEEN AVE, YORK"
      }
    ]
  },
  {
    "postal": "M6N9Y5",
    "result": []
  },
  {
    "postal": "M6N1P2",
    "result": [
      {
        "electoralDistricts": [
          {
            "election": null,
            "id": 19,
            "name": "Davenport"
          }
        ],
        "pollDivisionIds": [
          10136078
        ],
        "postalCode": "M6N1P2",
        "streetName": "ROCKWELL",
        "streetDirectionId": null,
        "streetTypeId": "AVE",
        "placeName": "TORONTO",
        "streetNameDisplayText": "ROCKWELL AVE, TORONTO"
      }
    ]
  },
  {
    "postal": "M6N5X0",
    "result": []
  },
  {
    "postal": "M6N7B8",
    "result": []
  },
  {
    "postal": "M6N0C6",
    "result": []
  },
  {
    "postal": "M6N6G1",
    "result": []
  },
  {
    "postal": "M6N3K3",
    "result": [
      {
        "electoralDistricts": [
          {
            "election": null,
            "id": 19,
            "name": "Davenport"
          }
        ],
        "pollDivisionIds": [
          10136078
        ],
        "postalCode": "M6N3K3",
        "streetName": "SILVERTHORN",
        "streetDirectionId": null,
        "streetTypeId": "AVE",
        "placeName": "TORONTO",
        "streetNameDisplayText": "SILVERTHORN AVE, TORONTO"
      }
    ]
  },
  {
    "postal": "M6N9R0",
    "result": []
  },
  {
    "postal": "M6N4R8",
    "result": [
      {
        "electoralDistricts": [
          {
            "election": null,
            "id": 122,
            "name": "York South—Weston"
          }
        ],
        "pollDivisionIds": [
          10142981
        ],
        "postalCode": "M6N4R8",
        "streetName": "ROCKCLIFFE",
        "streetDirectionId": null,
        "streetTypeId": "BLVD",
        "placeName": "TORONTO",
        "streetNameDisplayText": "ROCKCLIFFE BLVD, TORONTO"
      }
    ]
  },
  {
    "postal": "M6N5P9",
    "result": []
  },
  {
    "postal": "M6N8N4",
    "result": []
  },
  {
    "postal": "M6N8H4",
    "result": []
  },
  {
    "postal": "M6N4V1",
    "result": [
      {
        "electoralDistricts": [
          {
            "election": null,
            "id": 122,
            "name": "York South—Weston"
          }
        ],
        "pollDivisionIds": [
          10142973
        ],
        "postalCode": "M6N4V1",
        "streetName": "GRANDVILLE",
        "streetDirectionId": null,
        "streetTypeId": "AVE",
        "placeName": "YORK",
        "streetNameDisplayText": "GRANDVILLE AVE, YORK"
      }
    ]
  },
  {
    "postal": "M6N1K5",
    "result": [
      {
        "electoralDistricts": [
          {
            "election": null,
            "id": 122,
            "name": "York South—Weston"
          }
        ],
        "pollDivisionIds": [
          10142984
        ],
        "postalCode": "M6N1K5",
        "streetName": "ST CLAIR",
        "streetDirectionId": "W",
        "streetTypeId": "AVE",
        "placeName": "TORONTO",
        "streetNameDisplayText": "ST CLAIR AVE W, TORONTO"
      }
    ]
  },
  {
    "postal": "M6N1Z5",
    "result": [
      {
        "electoralDistricts": [
          {
            "election": null,
            "id": 122,
            "name": "York South—Weston"
          }
        ],
        "pollDivisionIds": [
          10142980
        ],
        "postalCode": "M6N1Z5",
        "streetName": "FOXWELL",
        "streetDirectionId": null,
        "streetTypeId": "ST",
        "placeName": "YORK",
        "streetNameDisplayText": "FOXWELL ST, YORK"
      }
    ]
  },
  {
    "postal": "M6N9L9",
    "result": []
  },
  {
    "postal": "M6N5L2",
    "result": []
  },
  {
    "postal": "M6N0M2",
    "result": []
  },
  {
    "postal": "M6N1K8",
    "result": [
      {
        "electoralDistricts": [
          {
            "election": null,
            "id": 122,
            "name": "York South—Weston"
          },
          {
            "election": null,
            "id": 111,
            "name": "Toronto—St. Paul's"
          }
        ],
        "pollDivisionIds": [
          10142984,
          10136124
        ],
        "postalCode": "M6N1K8",
        "streetName": "ST CLAIR",
        "streetDirectionId": "W",
        "streetTypeId": "AVE",
        "placeName": "TORONTO",
        "streetNameDisplayText": "ST CLAIR AVE W, TORONTO"
      }
    ]
  },
  {
    "postal": "M6N3M7",
    "result": [
      {
        "electoralDistricts": [
          {
            "election": null,
            "id": 122,
            "name": "York South—Weston"
          },
          {
            "election": null,
            "id": 19,
            "name": "Davenport"
          }
        ],
        "pollDivisionIds": [
          10142979,
          10136078
        ],
        "postalCode": "M6N3M7",
        "streetName": "KANE",
        "streetDirectionId": null,
        "streetTypeId": "AVE",
        "placeName": "YORK",
        "streetNameDisplayText": "KANE AVE, YORK"
      }
    ]
  },
  {
    "postal": "M6N1B2",
    "result": [
      {
        "electoralDistricts": [
          {
            "election": null,
            "id": 19,
            "name": "Davenport"
          }
        ],
        "pollDivisionIds": [
          10136085
        ],
        "postalCode": "M6N1B2",
        "streetName": "LINDNER",
        "streetDirectionId": null,
        "streetTypeId": "ST",
        "placeName": "TORONTO",
        "streetNameDisplayText": "LINDNER ST, TORONTO"
      }
    ]
  },
  {
    "postal": "M6N0H9",
    "result": []
  },
  {
    "postal": "M6N8M4",
    "result": []
  },
  {
    "postal": "M6N2M5",
    "result": [
      {
        "electoralDistricts": [
          {
            "election": null,
            "id": 122,
            "name": "York South—Weston"
          }
        ],
        "pollDivisionIds": [
          10142973
        ],
        "postalCode": "M6N2M5",
        "streetName": "SANDCLIFF",
        "streetDirectionId": null,
        "streetTypeId": "RD",
        "placeName": "YORK",
        "streetNameDisplayText": "SANDCLIFF RD, YORK"
      }
    ]
  },
  {
    "postal": "M6N0T9",
    "result": []
  },
  {
    "postal": "M6N3P1",
    "result": [
      {
        "electoralDistricts": [
          {
            "election": null,
            "id": 122,
            "name": "York South—Weston"
          }
        ],
        "pollDivisionIds": [
          10142982
        ],
        "postalCode": "M6N3P1",
        "streetName": "WESTON",
        "streetDirectionId": null,
        "streetTypeId": "RD",
        "placeName": "TORONTO",
        "streetNameDisplayText": "WESTON RD, TORONTO"
      },
      {
        "electoralDistricts": [
          {
            "election": null,
            "id": 122,
            "name": "York South—Weston"
          }
        ],
        "pollDivisionIds": [
          10142954,
          10142993
        ],
        "postalCode": "M6N3P1",
        "streetName": "WESTON",
        "streetDirectionId": null,
        "streetTypeId": "RD",
        "placeName": "TORONTO,ONTARIO",
        "streetNameDisplayText": "WESTON RD, TORONTO,ONTARIO"
      },
      {
        "electoralDistricts": [
          {
            "election": null,
            "id": 122,
            "name": "York South—Weston"
          }
        ],
        "pollDivisionIds": [
          10142982
        ],
        "postalCode": "M6N3P1",
        "streetName": "WESTON",
        "streetDirectionId": null,
        "streetTypeId": "RD",
        "placeName": "YORK",
        "streetNameDisplayText": "WESTON RD, YORK"
      }
    ]
  },
  {
    "postal": "M6N1R6",
    "result": [
      {
        "electoralDistricts": [
          {
            "election": null,
            "id": 19,
            "name": "Davenport"
          }
        ],
        "pollDivisionIds": [
          10136078
        ],
        "postalCode": "M6N1R6",
        "streetName": "ROWNTREE",
        "streetDirectionId": null,
        "streetTypeId": "AVE",
        "placeName": "TORONTO",
        "streetNameDisplayText": "ROWNTREE AVE, TORONTO"
      }
    ]
  },
  {
    "postal": "M6N9V5",
    "result": []
  },
  {
    "postal": "M6N9T0",
    "result": []
  },
  {
    "postal": "M6N0A9",
    "result": []
  },
  {
    "postal": "M6N1M3",
    "result": [
      {
        "electoralDistricts": [
          {
            "election": null,
            "id": 19,
            "name": "Davenport"
          }
        ],
        "pollDivisionIds": [
          10136085
        ],
        "postalCode": "M6N1M3",
        "streetName": "EAST",
        "streetDirectionId": null,
        "streetTypeId": "AVE",
        "placeName": "TORONTO",
        "streetNameDisplayText": "EAST AVE, TORONTO"
      },
      {
        "electoralDistricts": [
          {
            "election": null,
            "id": 19,
            "name": "Davenport"
          }
        ],
        "pollDivisionIds": [
          10136085
        ],
        "postalCode": "M6N1M3",
        "streetName": "GRIEVES",
        "streetDirectionId": null,
        "streetTypeId": "AVE",
        "placeName": "TORONTO",
        "streetNameDisplayText": "GRIEVES AVE, TORONTO"
      }
    ]
  },
  {
    "postal": "M6N1W8",
    "result": [
      {
        "electoralDistricts": [
          {
            "election": null,
            "id": 122,
            "name": "York South—Weston"
          }
        ],
        "pollDivisionIds": [
          10142980
        ],
        "postalCode": "M6N1W8",
        "streetName": "BERNICE",
        "streetDirectionId": null,
        "streetTypeId": "CRES",
        "placeName": "YORK",
        "streetNameDisplayText": "BERNICE CRES, YORK"
      }
    ]
  },
  {
    "postal": "M6N9J1",
    "result": []
  },
  {
    "postal": "M6N8N5",
    "result": []
  },
  {
    "postal": "M6N5X1",
    "result": []
  },
  {
    "postal": "M6N6S2",
    "result": []
  },
  {
    "postal": "M6N2A2",
    "result": [
      {
        "electoralDistricts": [
          {
            "election": null,
            "id": 122,
            "name": "York South—Weston"
          }
        ],
        "pollDivisionIds": [
          10142980
        ],
        "postalCode": "M6N2A2",
        "streetName": "ELLINS",
        "streetDirectionId": null,
        "streetTypeId": "AVE",
        "placeName": "YORK",
        "streetNameDisplayText": "ELLINS AVE, YORK"
      }
    ]
  },
  {
    "postal": "M6N6A6",
    "result": []
  },
  {
    "postal": "M6N0S3",
    "result": []
  },
  {
    "postal": "M6N3E7",
    "result": [
      {
        "electoralDistricts": [
          {
            "election": null,
            "id": 122,
            "name": "York South—Weston"
          }
        ],
        "pollDivisionIds": [
          10142979
        ],
        "postalCode": "M6N3E7",
        "streetName": "KEELE",
        "streetDirectionId": null,
        "streetTypeId": "ST",
        "placeName": "TORONTO",
        "streetNameDisplayText": "KEELE ST, TORONTO"
      }
    ]
  },
  {
    "postal": "M6N5R7",
    "result": []
  },
  {
    "postal": "M6N3R6",
    "result": [
      {
        "electoralDistricts": [
          {
            "election": null,
            "id": 122,
            "name": "York South—Weston"
          }
        ],
        "pollDivisionIds": [
          10142976
        ],
        "postalCode": "M6N3R6",
        "streetName": "WESTON",
        "streetDirectionId": null,
        "streetTypeId": "RD",
        "placeName": "YORK",
        "streetNameDisplayText": "WESTON RD, YORK"
      }
    ]
  },
  {
    "postal": "M6N6K4",
    "result": []
  },
  {
    "postal": "M6N2W5",
    "result": [
      {
        "electoralDistricts": [
          {
            "election": null,
            "id": 19,
            "name": "Davenport"
          }
        ],
        "pollDivisionIds": [
          10136084
        ],
        "postalCode": "M6N2W5",
        "streetName": "SYMINGTON",
        "streetDirectionId": null,
        "streetTypeId": "AVE",
        "placeName": "TORONTO",
        "streetNameDisplayText": "SYMINGTON AVE, TORONTO"
      }
    ]
  },
  {
    "postal": "M6N8W4",
    "result": []
  },
  {
    "postal": "M6N9C2",
    "result": []
  },
  {
    "postal": "M6N2C0",
    "result": []
  },
  {
    "postal": "M6N0E1",
    "result": []
  },
  {
    "postal": "M6N1K9",
    "result": [
      {
        "electoralDistricts": [
          {
            "election": null,
            "id": 122,
            "name": "York South—Weston"
          }
        ],
        "pollDivisionIds": [
          10142984
        ],
        "postalCode": "M6N1K9",
        "streetName": "ST CLAIR",
        "streetDirectionId": "W",
        "streetTypeId": "AVE",
        "placeName": "TORONTO",
        "streetNameDisplayText": "ST CLAIR AVE W, TORONTO"
      }
    ]
  },
  {
    "postal": "M6N1G7",
    "result": [
      {
        "electoralDistricts": [
          {
            "election": null,
            "id": 19,
            "name": "Davenport"
          }
        ],
        "pollDivisionIds": [
          10136085
        ],
        "postalCode": "M6N1G7",
        "streetName": "HOUNSLOW HEATH",
        "streetDirectionId": null,
        "streetTypeId": "RD",
        "placeName": "TORONTO",
        "streetNameDisplayText": "HOUNSLOW HEATH RD, TORONTO"
      }
    ]
  },
  {
    "postal": "M6N4E9",
    "result": [
      {
        "electoralDistricts": [
          {
            "election": null,
            "id": 122,
            "name": "York South—Weston"
          }
        ],
        "pollDivisionIds": [
          10142980
        ],
        "postalCode": "M6N4E9",
        "streetName": "HANDEL",
        "streetDirectionId": null,
        "streetTypeId": "ST",
        "placeName": "YORK",
        "streetNameDisplayText": "HANDEL ST, YORK"
      }
    ]
  },
  {
    "postal": "M6N9P0",
    "result": []
  },
  {
    "postal": "M6N5H3",
    "result": [
      {
        "electoralDistricts": [
          {
            "election": null,
            "id": 122,
            "name": "York South—Weston"
          }
        ],
        "pollDivisionIds": [
          10142984
        ],
        "postalCode": "M6N5H3",
        "streetName": "WESTON",
        "streetDirectionId": null,
        "streetTypeId": "RD",
        "placeName": "TORONTO",
        "streetNameDisplayText": "WESTON RD, TORONTO"
      }
    ]
  },
  {
    "postal": "M6N9X6",
    "result": []
  },
  {
    "postal": "M6N5N7",
    "result": []
  },
  {
    "postal": "M6N5A6",
    "result": []
  },
  {
    "postal": "M6N4M0",
    "result": []
  },
  {
    "postal": "M6N3V6",
    "result": [
      {
        "electoralDistricts": [
          {
            "election": null,
            "id": 122,
            "name": "York South—Weston"
          }
        ],
        "pollDivisionIds": [
          10142984
        ],
        "postalCode": "M6N3V6",
        "streetName": "RUNNYMEDE",
        "streetDirectionId": null,
        "streetTypeId": "RD",
        "placeName": "TORONTO",
        "streetNameDisplayText": "RUNNYMEDE RD, TORONTO"
      }
    ]
  },
  {
    "postal": "M6N1L7",
    "result": [
      {
        "electoralDistricts": [
          {
            "election": null,
            "id": 122,
            "name": "York South—Weston"
          }
        ],
        "pollDivisionIds": [
          10142983
        ],
        "postalCode": "M6N1L7",
        "streetName": "ST CLAIR",
        "streetDirectionId": "W",
        "streetTypeId": "AVE",
        "placeName": "YORK",
        "streetNameDisplayText": "ST CLAIR AVE W, YORK"
      }
    ]
  },
  {
    "postal": "M6N2P9",
    "result": [
      {
        "electoralDistricts": [
          {
            "election": null,
            "id": 122,
            "name": "York South—Weston"
          }
        ],
        "pollDivisionIds": [
          10142973
        ],
        "postalCode": "M6N2P9",
        "streetName": "CYNTHIA",
        "streetDirectionId": null,
        "streetTypeId": "RD",
        "placeName": "YORK",
        "streetNameDisplayText": "CYNTHIA RD, YORK"
      }
    ]
  },
  {
    "postal": "M6N5T4",
    "result": []
  },
  {
    "postal": "M6N5Z1",
    "result": []
  },
  {
    "postal": "M6N2X0",
    "result": []
  },
  {
    "postal": "M6N6Z2",
    "result": []
  },
  {
    "postal": "M6N0E0",
    "result": []
  },
  {
    "postal": "M6N3Z5",
    "result": [
      {
        "electoralDistricts": [
          {
            "election": null,
            "id": 122,
            "name": "York South—Weston"
          }
        ],
        "pollDivisionIds": [
          10142983
        ],
        "postalCode": "M6N3Z5",
        "streetName": "CASTLETON",
        "streetDirectionId": null,
        "streetTypeId": "AVE",
        "placeName": "YORK",
        "streetNameDisplayText": "CASTLETON AVE, YORK"
      }
    ]
  },
  {
    "postal": "M6N8H3",
    "result": []
  },
  {
    "postal": "M6N7S6",
    "result": []
  },
  {
    "postal": "M6N4C1",
    "result": [
      {
        "electoralDistricts": [
          {
            "election": null,
            "id": 122,
            "name": "York South—Weston"
          }
        ],
        "pollDivisionIds": [
          10142981
        ],
        "postalCode": "M6N4C1",
        "streetName": "JANE",
        "streetDirectionId": null,
        "streetTypeId": "ST",
        "placeName": "YORK",
        "streetNameDisplayText": "JANE ST, YORK"
      }
    ]
  },
  {
    "postal": "M6N3K2",
    "result": [
      {
        "electoralDistricts": [
          {
            "election": null,
            "id": 19,
            "name": "Davenport"
          }
        ],
        "pollDivisionIds": [
          10136085,
          10136078
        ],
        "postalCode": "M6N3K2",
        "streetName": "SILVERTHORN",
        "streetDirectionId": null,
        "streetTypeId": "AVE",
        "placeName": "TORONTO",
        "streetNameDisplayText": "SILVERTHORN AVE, TORONTO"
      }
    ]
  },
  {
    "postal": "M6N1Y5",
    "result": [
      {
        "electoralDistricts": [
          {
            "election": null,
            "id": 122,
            "name": "York South—Weston"
          }
        ],
        "pollDivisionIds": [
          10142981
        ],
        "postalCode": "M6N1Y5",
        "streetName": "WOOLNER",
        "streetDirectionId": null,
        "streetTypeId": "AVE",
        "placeName": "YORK",
        "streetNameDisplayText": "WOOLNER AVE, YORK"
      }
    ]
  },
  {
    "postal": "M6N6P6",
    "result": []
  },
  {
    "postal": "M6N3N9",
    "result": [
      {
        "electoralDistricts": [
          {
            "election": null,
            "id": 122,
            "name": "York South—Weston"
          }
        ],
        "pollDivisionIds": [
          10142979
        ],
        "postalCode": "M6N3N9",
        "streetName": "REGENT",
        "streetDirectionId": null,
        "streetTypeId": "ST",
        "placeName": "YORK",
        "streetNameDisplayText": "REGENT ST, YORK"
      }
    ]
  },
  {
    "postal": "M6N3W2",
    "result": [
      {
        "electoralDistricts": [
          {
            "election": null,
            "id": 122,
            "name": "York South—Weston"
          }
        ],
        "pollDivisionIds": [
          10142983
        ],
        "postalCode": "M6N3W2",
        "streetName": "RUNNYMEDE",
        "streetDirectionId": null,
        "streetTypeId": "RD",
        "placeName": "YORK",
        "streetNameDisplayText": "RUNNYMEDE RD, YORK"
      }
    ]
  },
  {
    "postal": "M6N6H8",
    "result": []
  },
  {
    "postal": "M6N9T3",
    "result": []
  },
  {
    "postal": "M6N5L9",
    "result": []
  },
  {
    "postal": "M6N7X7",
    "result": []
  },
  {
    "postal": "M6N3J5",
    "result": [
      {
        "electoralDistricts": [
          {
            "election": null,
            "id": 19,
            "name": "Davenport"
          }
        ],
        "pollDivisionIds": [
          10136085
        ],
        "postalCode": "M6N3J5",
        "streetName": "CARRICK",
        "streetDirectionId": null,
        "streetTypeId": "AVE",
        "placeName": "TORONTO",
        "streetNameDisplayText": "CARRICK AVE, TORONTO"
      }
    ]
  },
  {
    "postal": "M6N4J5",
    "result": [
      {
        "electoralDistricts": [
          {
            "election": null,
            "id": 122,
            "name": "York South—Weston"
          }
        ],
        "pollDivisionIds": [
          10142980,
          10142950
        ],
        "postalCode": "M6N4J5",
        "streetName": "SCARLETT",
        "streetDirectionId": null,
        "streetTypeId": "RD",
        "placeName": "YORK",
        "streetNameDisplayText": "SCARLETT RD, YORK"
      }
    ]
  },
  {
    "postal": "M6N6J2",
    "result": []
  },
  {
    "postal": "M6N5V6",
    "result": []
  },
  {
    "postal": "M6N3N2",
    "result": [
      {
        "electoralDistricts": [
          {
            "election": null,
            "id": 19,
            "name": "Davenport"
          }
        ],
        "pollDivisionIds": [
          10136085
        ],
        "postalCode": "M6N3N2",
        "streetName": "UNION",
        "streetDirectionId": null,
        "streetTypeId": "ST",
        "placeName": "TORONTO",
        "streetNameDisplayText": "UNION ST, TORONTO"
      }
    ]
  },
  {
    "postal": "M6N3B1",
    "result": [
      {
        "electoralDistricts": [
          {
            "election": null,
            "id": 19,
            "name": "Davenport"
          }
        ],
        "pollDivisionIds": [
          10136085
        ],
        "postalCode": "M6N3B1",
        "streetName": "OLD WESTON",
        "streetDirectionId": null,
        "streetTypeId": "RD",
        "placeName": "TORONTO",
        "streetNameDisplayText": "OLD WESTON RD, TORONTO"
      }
    ]
  },
  {
    "postal": "M6N8B5",
    "result": []
  },
  {
    "postal": "M6N0K1",
    "result": []
  },
  {
    "postal": "M6N7M7",
    "result": []
  },
  {
    "postal": "M6N2M2",
    "result": [
      {
        "electoralDistricts": [
          {
            "election": null,
            "id": 122,
            "name": "York South—Weston"
          }
        ],
        "pollDivisionIds": [
          10142975
        ],
        "postalCode": "M6N2M2",
        "streetName": "HECTOR",
        "streetDirectionId": null,
        "streetTypeId": "AVE",
        "placeName": "YORK",
        "streetNameDisplayText": "HECTOR AVE, YORK"
      }
    ]
  },
  {
    "postal": "M6N9N3",
    "result": []
  },
  {
    "postal": "M6N4Y8",
    "result": [
      {
        "electoralDistricts": [
          {
            "election": null,
            "id": 122,
            "name": "York South—Weston"
          }
        ],
        "pollDivisionIds": [
          10142983
        ],
        "postalCode": "M6N4Y8",
        "streetName": "TERRY",
        "streetDirectionId": null,
        "streetTypeId": "DR",
        "placeName": "YORK",
        "streetNameDisplayText": "TERRY DR, YORK"
      }
    ]
  },
  {
    "postal": "M6N3V7",
    "result": [
      {
        "electoralDistricts": [
          {
            "election": null,
            "id": 122,
            "name": "York South—Weston"
          }
        ],
        "pollDivisionIds": [
          10142984
        ],
        "postalCode": "M6N3V7",
        "streetName": "RUNNYMEDE",
        "streetDirectionId": null,
        "streetTypeId": "RD",
        "placeName": "TORONTO",
        "streetNameDisplayText": "RUNNYMEDE RD, TORONTO"
      }
    ]
  },
  {
    "postal": "M6N8Z1",
    "result": []
  },
  {
    "postal": "M6N7B3",
    "result": []
  },
  {
    "postal": "M6N3A8",
    "result": [
      {
        "electoralDistricts": [
          {
            "election": null,
            "id": 19,
            "name": "Davenport"
          }
        ],
        "pollDivisionIds": [
          10136085
        ],
        "postalCode": "M6N3A8",
        "streetName": "OLD WESTON",
        "streetDirectionId": null,
        "streetTypeId": "RD",
        "placeName": "TORONTO",
        "streetNameDisplayText": "OLD WESTON RD, TORONTO"
      }
    ]
  },
  {
    "postal": "M6N7V5",
    "result": []
  },
  {
    "postal": "M6N2T2",
    "result": [
      {
        "electoralDistricts": [
          {
            "election": null,
            "id": 122,
            "name": "York South—Weston"
          }
        ],
        "pollDivisionIds": [
          10142975
        ],
        "postalCode": "M6N2T2",
        "streetName": "LAMBTON",
        "streetDirectionId": null,
        "streetTypeId": "AVE",
        "placeName": "YORK",
        "streetNameDisplayText": "LAMBTON AVE, YORK"
      }
    ]
  },
  {
    "postal": "M6N6L3",
    "result": []
  },
  {
    "postal": "M6N0L2",
    "result": []
  },
  {
    "postal": "M6N5Y8",
    "result": []
  },
  {
    "postal": "M6N0B8",
    "result": []
  },
  {
    "postal": "M6N6R5",
    "result": []
  },
  {
    "postal": "M6N8W6",
    "result": []
  },
  {
    "postal": "M6N8G6",
    "result": []
  },
  {
    "postal": "M6N6X3",
    "result": []
  },
  {
    "postal": "M6N7R7",
    "result": []
  },
  {
    "postal": "M6N4B6",
    "result": [
      {
        "electoralDistricts": [
          {
            "election": null,
            "id": 122,
            "name": "York South—Weston"
          }
        ],
        "pollDivisionIds": [
          10142981
        ],
        "postalCode": "M6N4B6",
        "streetName": "JANE",
        "streetDirectionId": null,
        "streetTypeId": "ST",
        "placeName": "TORONTO,ONTARIO",
        "streetNameDisplayText": "JANE ST, TORONTO,ONTARIO"
      },
      {
        "electoralDistricts": [
          {
            "election": null,
            "id": 122,
            "name": "York South—Weston"
          }
        ],
        "pollDivisionIds": [
          10142981
        ],
        "postalCode": "M6N4B6",
        "streetName": "JANE",
        "streetDirectionId": null,
        "streetTypeId": "ST",
        "placeName": "YORK",
        "streetNameDisplayText": "JANE ST, YORK"
      }
    ]
  },
  {
    "postal": "M6N3P9",
    "result": [
      {
        "electoralDistricts": [
          {
            "election": null,
            "id": 122,
            "name": "York South—Weston"
          }
        ],
        "pollDivisionIds": [
          10142982
        ],
        "postalCode": "M6N3P9",
        "streetName": "WESTON",
        "streetDirectionId": null,
        "streetTypeId": "RD",
        "placeName": "YORK",
        "streetNameDisplayText": "WESTON RD, YORK"
      }
    ]
  },
  {
    "postal": "M6N2T3",
    "result": [
      {
        "electoralDistricts": [
          {
            "election": null,
            "id": 122,
            "name": "York South—Weston"
          }
        ],
        "pollDivisionIds": [
          10142975
        ],
        "postalCode": "M6N2T3",
        "streetName": "LAMBTON",
        "streetDirectionId": null,
        "streetTypeId": "AVE",
        "placeName": "YORK",
        "streetNameDisplayText": "LAMBTON AVE, YORK"
      }
    ]
  },
  {
    "postal": "M6N1M4",
    "result": [
      {
        "electoralDistricts": [
          {
            "election": null,
            "id": 19,
            "name": "Davenport"
          }
        ],
        "pollDivisionIds": [
          10136085
        ],
        "postalCode": "M6N1M4",
        "streetName": "PRYOR",
        "streetDirectionId": null,
        "streetTypeId": "AVE",
        "placeName": "TORONTO",
        "streetNameDisplayText": "PRYOR AVE, TORONTO"
      }
    ]
  },
  {
    "postal": "M6N0H1",
    "result": []
  },
  {
    "postal": "M6N9W3",
    "result": []
  },
  {
    "postal": "M6N6P1",
    "result": []
  },
  {
    "postal": "M6N7G2",
    "result": []
  },
  {
    "postal": "M6N4J9",
    "result": [
      {
        "electoralDistricts": [
          {
            "election": null,
            "id": 122,
            "name": "York South—Weston"
          }
        ],
        "pollDivisionIds": [
          10142980
        ],
        "postalCode": "M6N4J9",
        "streetName": "SCARLETT",
        "streetDirectionId": null,
        "streetTypeId": "RD",
        "placeName": "YORK",
        "streetNameDisplayText": "SCARLETT RD, YORK"
      }
    ]
  },
  {
    "postal": "M6N9E4",
    "result": []
  },
  {
    "postal": "M6N8H0",
    "result": []
  },
  {
    "postal": "M6N4M7",
    "result": [
      {
        "electoralDistricts": [
          {
            "election": null,
            "id": 122,
            "name": "York South—Weston"
          }
        ],
        "pollDivisionIds": [
          10142976
        ],
        "postalCode": "M6N4M7",
        "streetName": "CASHMAN",
        "streetDirectionId": null,
        "streetTypeId": "CRES",
        "placeName": "YORK",
        "streetNameDisplayText": "CASHMAN CRES, YORK"
      }
    ]
  },
  {
    "postal": "M6N2G9",
    "result": [
      {
        "electoralDistricts": [
          {
            "election": null,
            "id": 122,
            "name": "York South—Weston"
          }
        ],
        "pollDivisionIds": [
          10142982
        ],
        "postalCode": "M6N2G9",
        "streetName": "PORTER",
        "streetDirectionId": null,
        "streetTypeId": "AVE",
        "placeName": "YORK",
        "streetNameDisplayText": "PORTER AVE, YORK"
      }
    ]
  },
  {
    "postal": "M6N8T2",
    "result": []
  },
  {
    "postal": "M6N7G7",
    "result": []
  },
  {
    "postal": "M6N4Z3",
    "result": [
      {
        "electoralDistricts": [
          {
            "election": null,
            "id": 122,
            "name": "York South—Weston"
          }
        ],
        "pollDivisionIds": [
          10142982
        ],
        "postalCode": "M6N4Z3",
        "streetName": "WESTON",
        "streetDirectionId": null,
        "streetTypeId": "RD",
        "placeName": "TORONTO",
        "streetNameDisplayText": "WESTON RD, TORONTO"
      }
    ]
  },
  {
    "postal": "M6N5B3",
    "result": [
      {
        "electoralDistricts": [
          {
            "election": null,
            "id": 122,
            "name": "York South—Weston"
          }
        ],
        "pollDivisionIds": [
          10142984
        ],
        "postalCode": "M6N5B3",
        "streetName": "CAWTHRA",
        "streetDirectionId": null,
        "streetTypeId": "AVE",
        "placeName": "TORONTO",
        "streetNameDisplayText": "CAWTHRA AVE, TORONTO"
      }
    ]
  },
  {
    "postal": "M6N1S7",
    "result": [
      {
        "electoralDistricts": [
          {
            "election": null,
            "id": 122,
            "name": "York South—Weston"
          }
        ],
        "pollDivisionIds": [
          10142983
        ],
        "postalCode": "M6N1S7",
        "streetName": "WHITE",
        "streetDirectionId": null,
        "streetTypeId": "AVE",
        "placeName": "YORK",
        "streetNameDisplayText": "WHITE AVE, YORK"
      }
    ]
  },
  {
    "postal": "M6N2N7",
    "result": [
      {
        "electoralDistricts": [
          {
            "election": null,
            "id": 122,
            "name": "York South—Weston"
          }
        ],
        "pollDivisionIds": [
          10142973
        ],
        "postalCode": "M6N2N7",
        "streetName": "EAST",
        "streetDirectionId": null,
        "streetTypeId": "DR",
        "placeName": "YORK",
        "streetNameDisplayText": "EAST DR, YORK"
      }
    ]
  },
  {
    "postal": "M6N0H8",
    "result": []
  },
  {
    "postal": "M6N7Z4",
    "result": []
  },
  {
    "postal": "M6N7B1",
    "result": []
  },
  {
    "postal": "M6N7P8",
    "result": []
  },
  {
    "postal": "M6N7N0",
    "result": []
  },
  {
    "postal": "M6N3Y5",
    "result": [
      {
        "electoralDistricts": [
          {
            "election": null,
            "id": 122,
            "name": "York South—Weston"
          }
        ],
        "pollDivisionIds": [
          10142984
        ],
        "postalCode": "M6N3Y5",
        "streetName": "BLAKLEY",
        "streetDirectionId": null,
        "streetTypeId": "AVE",
        "placeName": "YORK",
        "streetNameDisplayText": "BLAKLEY AVE, YORK"
      }
    ]
  },
  {
    "postal": "M6N6K1",
    "result": []
  },
  {
    "postal": "M6N9X5",
    "result": []
  },
  {
    "postal": "M6N7S5",
    "result": []
  },
  {
    "postal": "M6N0A4",
    "result": []
  },
  {
    "postal": "M6N4T5",
    "result": [
      {
        "electoralDistricts": [
          {
            "election": null,
            "id": 122,
            "name": "York South—Weston"
          }
        ],
        "pollDivisionIds": [
          10142973
        ],
        "postalCode": "M6N4T5",
        "streetName": "CHRYESSA",
        "streetDirectionId": null,
        "streetTypeId": "AVE",
        "placeName": "YORK",
        "streetNameDisplayText": "CHRYESSA AVE, YORK"
      }
    ]
  },
  {
    "postal": "M6N5K1",
    "result": []
  },
  {
    "postal": "M6N0Z9",
    "result": []
  },
  {
    "postal": "M6N7T2",
    "result": []
  },
  {
    "postal": "M6N1L5",
    "result": []
  },
  {
    "postal": "M6N3N5",
    "result": []
  },
  {
    "postal": "M6N6H4",
    "result": []
  },
  {
    "postal": "M6N5A5",
    "result": [
      {
        "electoralDistricts": [
          {
            "election": null,
            "id": 122,
            "name": "York South—Weston"
          }
        ],
        "pollDivisionIds": [
          10142984
        ],
        "postalCode": "M6N5A5",
        "streetName": "OSCAR ROMERO",
        "streetDirectionId": null,
        "streetTypeId": "PL",
        "placeName": "TORONTO",
        "streetNameDisplayText": "OSCAR ROMERO PL, TORONTO"
      }
    ]
  },
  {
    "postal": "M6N3R9",
    "result": [
      {
        "electoralDistricts": [
          {
            "election": null,
            "id": 122,
            "name": "York South—Weston"
          }
        ],
        "pollDivisionIds": [
          10142974
        ],
        "postalCode": "M6N3R9",
        "streetName": "WESTON",
        "streetDirectionId": null,
        "streetTypeId": "RD",
        "placeName": "YORK",
        "streetNameDisplayText": "WESTON RD, YORK"
      }
    ]
  },
  {
    "postal": "M6N7L8",
    "result": []
  },
  {
    "postal": "M6N6T6",
    "result": []
  },
  {
    "postal": "M6N7Y7",
    "result": []
  },
  {
    "postal": "M6N3M8",
    "result": [
      {
        "electoralDistricts": [
          {
            "election": null,
            "id": 19,
            "name": "Davenport"
          }
        ],
        "pollDivisionIds": [
          10136078
        ],
        "postalCode": "M6N3M8",
        "streetName": "KANE",
        "streetDirectionId": null,
        "streetTypeId": "AVE",
        "placeName": "YORK",
        "streetNameDisplayText": "KANE AVE, YORK"
      }
    ]
  },
  {
    "postal": "M6N2E0",
    "result": []
  },
  {
    "postal": "M6N4B5",
    "result": []
  },
  {
    "postal": "M6N1J3",
    "result": [
      {
        "electoralDistricts": [
          {
            "election": null,
            "id": 19,
            "name": "Davenport"
          }
        ],
        "pollDivisionIds": [
          10136085
        ],
        "postalCode": "M6N1J3",
        "streetName": "ST CLAIR",
        "streetDirectionId": "W",
        "streetTypeId": "AV",
        "placeName": "TORONTO",
        "streetNameDisplayText": "ST CLAIR AV W, TORONTO"
      },
      {
        "electoralDistricts": [
          {
            "election": null,
            "id": 19,
            "name": "Davenport"
          }
        ],
        "pollDivisionIds": [
          10136085
        ],
        "postalCode": "M6N1J3",
        "streetName": "ST CLAIR",
        "streetDirectionId": "W",
        "streetTypeId": "AVE",
        "placeName": "TORONTO",
        "streetNameDisplayText": "ST CLAIR AVE W, TORONTO"
      },
      {
        "electoralDistricts": [
          {
            "election": null,
            "id": 19,
            "name": "Davenport"
          }
        ],
        "pollDivisionIds": [
          10136085
        ],
        "postalCode": "M6N1J3",
        "streetName": "ST. CLAIR",
        "streetDirectionId": "W",
        "streetTypeId": "AVE",
        "placeName": "TORONTO",
        "streetNameDisplayText": "ST. CLAIR AVE W, TORONTO"
      }
    ]
  },
  {
    "postal": "M6N5S6",
    "result": []
  },
  {
    "postal": "M6N8P7",
    "result": []
  },
  {
    "postal": "M6N7S7",
    "result": []
  },
  {
    "postal": "M6N4C2",
    "result": [
      {
        "electoralDistricts": [
          {
            "election": null,
            "id": 122,
            "name": "York South—Weston"
          }
        ],
        "pollDivisionIds": [
          10142973
        ],
        "postalCode": "M6N4C2",
        "streetName": "JANE",
        "streetDirectionId": null,
        "streetTypeId": "ST",
        "placeName": "YORK",
        "streetNameDisplayText": "JANE ST, YORK"
      }
    ]
  },
  {
    "postal": "M6N5Y0",
    "result": []
  },
  {
    "postal": "M6N2V7",
    "result": [
      {
        "electoralDistricts": [
          {
            "election": null,
            "id": 19,
            "name": "Davenport"
          }
        ],
        "pollDivisionIds": [
          10136084
        ],
        "postalCode": "M6N2V7",
        "streetName": "WILTSHIRE",
        "streetDirectionId": null,
        "streetTypeId": "AVE",
        "placeName": "TORONTO",
        "streetNameDisplayText": "WILTSHIRE AVE, TORONTO"
      }
    ]
  },
  {
    "postal": "M6N8P5",
    "result": []
  },
  {
    "postal": "M6N5P5",
    "result": []
  },
  {
    "postal": "M6N5Z0",
    "result": []
  },
  {
    "postal": "M6N9B0",
    "result": []
  },
  {
    "postal": "M6N1L0",
    "result": []
  },
  {
    "postal": "M6N0B5",
    "result": []
  },
  {
    "postal": "M6N3L2",
    "result": [
      {
        "electoralDistricts": [
          {
            "election": null,
            "id": 19,
            "name": "Davenport"
          }
        ],
        "pollDivisionIds": [
          10136078
        ],
        "postalCode": "M6N3L2",
        "streetName": "ROSETHORN",
        "streetDirectionId": null,
        "streetTypeId": "AVE",
        "placeName": "TORONTO",
        "streetNameDisplayText": "ROSETHORN AVE, TORONTO"
      }
    ]
  },
  {
    "postal": "M6N3B7",
    "result": [
      {
        "electoralDistricts": [
          {
            "election": null,
            "id": 19,
            "name": "Davenport"
          }
        ],
        "pollDivisionIds": [
          10136078
        ],
        "postalCode": "M6N3B7",
        "streetName": "OLD WESTON",
        "streetDirectionId": null,
        "streetTypeId": "RD",
        "placeName": "TORONTO",
        "streetNameDisplayText": "OLD WESTON RD, TORONTO"
      }
    ]
  },
  {
    "postal": "M6N8L1",
    "result": []
  },
  {
    "postal": "M6N5M4",
    "result": []
  },
  {
    "postal": "M6N4G9",
    "result": [
      {
        "electoralDistricts": [
          {
            "election": null,
            "id": 122,
            "name": "York South—Weston"
          }
        ],
        "pollDivisionIds": [
          10142980
        ],
        "postalCode": "M6N4G9",
        "streetName": "KINGHORN",
        "streetDirectionId": null,
        "streetTypeId": "AVE",
        "placeName": "YORK",
        "streetNameDisplayText": "KINGHORN AVE, YORK"
      }
    ]
  },
  {
    "postal": "M6N0P0",
    "result": []
  },
  {
    "postal": "M6N8G2",
    "result": []
  },
  {
    "postal": "M6N1V9",
    "result": [
      {
        "electoralDistricts": [
          {
            "election": null,
            "id": 122,
            "name": "York South—Weston"
          }
        ],
        "pollDivisionIds": [
          10142980
        ],
        "postalCode": "M6N1V9",
        "streetName": "EILEEN",
        "streetDirectionId": null,
        "streetTypeId": "AVE",
        "placeName": "YORK",
        "streetNameDisplayText": "EILEEN AVE, YORK"
      }
    ]
  },
  {
    "postal": "M6N8N8",
    "result": []
  },
  {
    "postal": "M6N6S8",
    "result": []
  },
  {
    "postal": "M6N8H2",
    "result": []
  },
  {
    "postal": "M6N5R8",
    "result": []
  },
  {
    "postal": "M6N5L4",
    "result": []
  },
  {
    "postal": "M6N9E1",
    "result": []
  },
  {
    "postal": "M6N1C4",
    "result": [
      {
        "electoralDistricts": [
          {
            "election": null,
            "id": 19,
            "name": "Davenport"
          }
        ],
        "pollDivisionIds": [
          10136085
        ],
        "postalCode": "M6N1C4",
        "streetName": "DAVENPORT",
        "streetDirectionId": null,
        "streetTypeId": "RD",
        "placeName": "TORONTO",
        "streetNameDisplayText": "DAVENPORT RD, TORONTO"
      }
    ]
  },
  {
    "postal": "M6N8W5",
    "result": []
  },
  {
    "postal": "M6N1Y4",
    "result": [
      {
        "electoralDistricts": [
          {
            "election": null,
            "id": 122,
            "name": "York South—Weston"
          }
        ],
        "pollDivisionIds": [
          10142981
        ],
        "postalCode": "M6N1Y4",
        "streetName": "WOOLNER",
        "streetDirectionId": null,
        "streetTypeId": "AVE",
        "placeName": "YORK",
        "streetNameDisplayText": "WOOLNER AVE, YORK"
      }
    ]
  },
  {
    "postal": "M6N1C0",
    "result": []
  },
  {
    "postal": "M6N2J2",
    "result": []
  },
  {
    "postal": "M6N2J0",
    "result": []
  },
  {
    "postal": "M6N7A3",
    "result": []
  },
  {
    "postal": "M6N8M1",
    "result": []
  },
  {
    "postal": "M6N7T9",
    "result": []
  },
  {
    "postal": "M6N6C0",
    "result": []
  },
  {
    "postal": "M6N7X1",
    "result": []
  },
  {
    "postal": "M6N0G1",
    "result": []
  },
  {
    "postal": "M6N4X2",
    "result": []
  },
  {
    "postal": "M6N0N6",
    "result": []
  },
  {
    "postal": "M6N8E3",
    "result": []
  },
  {
    "postal": "M6N5S8",
    "result": []
  },
  {
    "postal": "M6N0R0",
    "result": []
  },
  {
    "postal": "M6N6J6",
    "result": []
  },
  {
    "postal": "M6N4B4",
    "result": []
  },
  {
    "postal": "M6N7E3",
    "result": []
  },
  {
    "postal": "M6N3N6",
    "result": [
      {
        "electoralDistricts": [
          {
            "election": null,
            "id": 122,
            "name": "York South—Weston"
          }
        ],
        "pollDivisionIds": [
          10142979
        ],
        "postalCode": "M6N3N6",
        "streetName": "REGENT",
        "streetDirectionId": null,
        "streetTypeId": "ST",
        "placeName": "YORK",
        "streetNameDisplayText": "REGENT ST, YORK"
      }
    ]
  },
  {
    "postal": "M6N3X6",
    "result": [
      {
        "electoralDistricts": [
          {
            "election": null,
            "id": 122,
            "name": "York South—Weston"
          }
        ],
        "pollDivisionIds": [
          10142982
        ],
        "postalCode": "M6N3X6",
        "streetName": "SPEARS",
        "streetDirectionId": null,
        "streetTypeId": "ST",
        "placeName": "YORK",
        "streetNameDisplayText": "SPEARS ST, YORK"
      }
    ]
  },
  {
    "postal": "M6N8L0",
    "result": []
  },
  {
    "postal": "M6N8N1",
    "result": []
  },
  {
    "postal": "M6N4J0",
    "result": []
  },
  {
    "postal": "M6N0X7",
    "result": []
  },
  {
    "postal": "M6N6S4",
    "result": []
  },
  {
    "postal": "M6N0Z0",
    "result": []
  },
  {
    "postal": "M6N9X8",
    "result": []
  },
  {
    "postal": "M6N3H3",
    "result": [
      {
        "electoralDistricts": [
          {
            "election": null,
            "id": 19,
            "name": "Davenport"
          }
        ],
        "pollDivisionIds": [
          10136085
        ],
        "postalCode": "M6N3H3",
        "streetName": "SPRING GROVE",
        "streetDirectionId": null,
        "streetTypeId": "AVE",
        "placeName": "TORONTO",
        "streetNameDisplayText": "SPRING GROVE AVE, TORONTO"
      }
    ]
  },
  {
    "postal": "M6N7S2",
    "result": []
  },
  {
    "postal": "M6N3T3",
    "result": [
      {
        "electoralDistricts": [
          {
            "election": null,
            "id": 122,
            "name": "York South—Weston"
          }
        ],
        "pollDivisionIds": [
          10142982
        ],
        "postalCode": "M6N3T3",
        "streetName": "SYMES",
        "streetDirectionId": null,
        "streetTypeId": "RD",
        "placeName": "YORK",
        "streetNameDisplayText": "SYMES RD, YORK"
      }
    ]
  },
  {
    "postal": "M6N9P3",
    "result": []
  },
  {
    "postal": "M6N4H8",
    "result": [
      {
        "electoralDistricts": [
          {
            "election": null,
            "id": 122,
            "name": "York South—Weston"
          }
        ],
        "pollDivisionIds": [
          10142980
        ],
        "postalCode": "M6N4H8",
        "streetName": "MILDRED",
        "streetDirectionId": null,
        "streetTypeId": "AVE",
        "placeName": "YORK",
        "streetNameDisplayText": "MILDRED AVE, YORK"
      }
    ]
  },
  {
    "postal": "M6N6R1",
    "result": []
  },
  {
    "postal": "M6N1S0",
    "result": []
  },
  {
    "postal": "M6N3W8",
    "result": [
      {
        "electoralDistricts": [
          {
            "election": null,
            "id": 122,
            "name": "York South—Weston"
          }
        ],
        "pollDivisionIds": [
          10142982
        ],
        "postalCode": "M6N3W8",
        "streetName": "AVON",
        "streetDirectionId": null,
        "streetTypeId": "AVE",
        "placeName": "YORK",
        "streetNameDisplayText": "AVON AVE, YORK"
      }
    ]
  },
  {
    "postal": "M6N4S3",
    "result": [
      {
        "electoralDistricts": [
          {
            "election": null,
            "id": 122,
            "name": "York South—Weston"
          }
        ],
        "pollDivisionIds": [
          10142975
        ],
        "postalCode": "M6N4S3",
        "streetName": "DALRYMPLE",
        "streetDirectionId": null,
        "streetTypeId": "DR",
        "placeName": "YORK",
        "streetNameDisplayText": "DALRYMPLE DR, YORK"
      }
    ]
  },
  {
    "postal": "M6N1B6",
    "result": [
      {
        "electoralDistricts": [
          {
            "election": null,
            "id": 122,
            "name": "York South—Weston"
          }
        ],
        "pollDivisionIds": [
          10142984
        ],
        "postalCode": "M6N1B6",
        "streetName": "JUNCTION",
        "streetDirectionId": null,
        "streetTypeId": "RD",
        "placeName": "TORONTO",
        "streetNameDisplayText": "JUNCTION RD, TORONTO"
      }
    ]
  },
  {
    "postal": "M6N8R3",
    "result": []
  },
  {
    "postal": "M6N4V9",
    "result": [
      {
        "electoralDistricts": [
          {
            "election": null,
            "id": 122,
            "name": "York South—Weston"
          }
        ],
        "pollDivisionIds": [
          10142973
        ],
        "postalCode": "M6N4V9",
        "streetName": "ROSE VALLEY",
        "streetDirectionId": null,
        "streetTypeId": "CRES",
        "placeName": "YORK",
        "streetNameDisplayText": "ROSE VALLEY CRES, YORK"
      }
    ]
  },
  {
    "postal": "M6N9W4",
    "result": []
  },
  {
    "postal": "M6N3T4",
    "result": [
      {
        "electoralDistricts": [
          {
            "election": null,
            "id": 122,
            "name": "York South—Weston"
          }
        ],
        "pollDivisionIds": [
          10142982
        ],
        "postalCode": "M6N3T4",
        "streetName": "SYMES",
        "streetDirectionId": null,
        "streetTypeId": "RD",
        "placeName": "YORK",
        "streetNameDisplayText": "SYMES RD, YORK"
      }
    ]
  },
  {
    "postal": "M6N5C7",
    "result": [
      {
        "electoralDistricts": [
          {
            "election": null,
            "id": 122,
            "name": "York South—Weston"
          }
        ],
        "pollDivisionIds": [
          10142984
        ],
        "postalCode": "M6N5C7",
        "streetName": "VIELLA",
        "streetDirectionId": null,
        "streetTypeId": "ST",
        "placeName": "TORONTO",
        "streetNameDisplayText": "VIELLA ST, TORONTO"
      }
    ]
  },
  {
    "postal": "M6N3Y1",
    "result": [
      {
        "electoralDistricts": [
          {
            "election": null,
            "id": 122,
            "name": "York South—Weston"
          }
        ],
        "pollDivisionIds": [
          10142982
        ],
        "postalCode": "M6N3Y1",
        "streetName": "HILLDALE",
        "streetDirectionId": null,
        "streetTypeId": "RD",
        "placeName": "YORK",
        "streetNameDisplayText": "HILLDALE RD, YORK"
      }
    ]
  },
  {
    "postal": "M6N5V0",
    "result": []
  },
  {
    "postal": "M6N8G8",
    "result": []
  },
  {
    "postal": "M6N8B1",
    "result": []
  },
  {
    "postal": "M6N4P5",
    "result": [
      {
        "electoralDistricts": [
          {
            "election": null,
            "id": 122,
            "name": "York South—Weston"
          }
        ],
        "pollDivisionIds": [
          10142975
        ],
        "postalCode": "M6N4P5",
        "streetName": "GREENDALE",
        "streetDirectionId": null,
        "streetTypeId": "AVE",
        "placeName": "YORK",
        "streetNameDisplayText": "GREENDALE AVE, YORK"
      }
    ]
  },
  {
    "postal": "M6N7B2",
    "result": []
  },
  {
    "postal": "M6N0R2",
    "result": []
  },
  {
    "postal": "M6N4M4",
    "result": [
      {
        "electoralDistricts": [
          {
            "election": null,
            "id": 122,
            "name": "York South—Weston"
          }
        ],
        "pollDivisionIds": [
          10142974
        ],
        "postalCode": "M6N4M4",
        "streetName": "SYNDICATE",
        "streetDirectionId": null,
        "streetTypeId": "AVE",
        "placeName": "YORK",
        "streetNameDisplayText": "SYNDICATE AVE, YORK"
      }
    ]
  },
  {
    "postal": "M6N7M4",
    "result": []
  },
  {
    "postal": "M6N9S7",
    "result": []
  },
  {
    "postal": "M6N5Z7",
    "result": []
  },
  {
    "postal": "M6N7J7",
    "result": []
  },
  {
    "postal": "M6N8R8",
    "result": []
  },
  {
    "postal": "M6N9X1",
    "result": []
  },
  {
    "postal": "M6N5M9",
    "result": []
  },
  {
    "postal": "M6N9B4",
    "result": []
  },
  {
    "postal": "M6N0L9",
    "result": []
  },
  {
    "postal": "M6N9G4",
    "result": []
  },
  {
    "postal": "M6N1J4",
    "result": [
      {
        "electoralDistricts": [
          {
            "election": null,
            "id": 19,
            "name": "Davenport"
          }
        ],
        "pollDivisionIds": [
          10136085
        ],
        "postalCode": "M6N1J4",
        "streetName": "ST CLAIR",
        "streetDirectionId": "W",
        "streetTypeId": "AVE",
        "placeName": "TORONTO",
        "streetNameDisplayText": "ST CLAIR AVE W, TORONTO"
      },
      {
        "electoralDistricts": [
          {
            "election": null,
            "id": 19,
            "name": "Davenport"
          }
        ],
        "pollDivisionIds": [
          10136085
        ],
        "postalCode": "M6N1J4",
        "streetName": "ST. CLAIR",
        "streetDirectionId": "W",
        "streetTypeId": "AVE",
        "placeName": "TORONTO",
        "streetNameDisplayText": "ST. CLAIR AVE W, TORONTO"
      }
    ]
  },
  {
    "postal": "M6N0W6",
    "result": []
  }
]
