[
  {
    "postal": "L1K9J6",
    "result": []
  },
  {
    "postal": "L1K9Z5",
    "result": []
  },
  {
    "postal": "L1K7H8",
    "result": []
  },
  {
    "postal": "L1K0P6",
    "result": [
      {
        "electoralDistricts": [
          {
            "election": null,
            "id": 24,
            "name": "Durham"
          }
        ],
        "pollDivisionIds": [
          10137867
        ],
        "postalCode": "L1K0P6",
        "streetName": "BLACK CHERRY",
        "streetDirectionId": null,
        "streetTypeId": "DR",
        "placeName": "OSHAWA",
        "streetNameDisplayText": "BLACK CHERRY DR, OSHAWA"
      },
      {
        "electoralDistricts": [
          {
            "election": null,
            "id": 24,
            "name": "Durham"
          }
        ],
        "pollDivisionIds": [
          10137867
        ],
        "postalCode": "L1K0P6",
        "streetName": "RIVERTON",
        "streetDirectionId": null,
        "streetTypeId": "ST",
        "placeName": "OSHAWA",
        "streetNameDisplayText": "RIVERTON ST, OSHAWA"
      }
    ]
  },
  {
    "postal": "L1K0S7",
    "result": [
      {
        "electoralDistricts": [
          {
            "election": null,
            "id": 24,
            "name": "Durham"
          }
        ],
        "pollDivisionIds": [
          10137868
        ],
        "postalCode": "L1K0S7",
        "streetName": "GRANDVIEW",
        "streetDirectionId": "N",
        "streetTypeId": "ST",
        "placeName": "OSHAWA",
        "streetNameDisplayText": "GRANDVIEW ST N, OSHAWA"
      }
    ]
  },
  {
    "postal": "L1K8B9",
    "result": []
  },
  {
    "postal": "L1K2A6",
    "result": [
      {
        "electoralDistricts": [
          {
            "election": null,
            "id": 77,
            "name": "Oshawa"
          }
        ],
        "pollDivisionIds": [
          10140493
        ],
        "postalCode": "L1K2A6",
        "streetName": "BRIARWOOD",
        "streetDirectionId": null,
        "streetTypeId": "DR",
        "placeName": "OSHAWA",
        "streetNameDisplayText": "BRIARWOOD DR, OSHAWA"
      },
      {
        "electoralDistricts": [
          {
            "election": null,
            "id": 77,
            "name": "Oshawa"
          }
        ],
        "pollDivisionIds": [
          10140493
        ],
        "postalCode": "L1K2A6",
        "streetName": "PINECREST",
        "streetDirectionId": null,
        "streetTypeId": "RD",
        "placeName": "OSHAWA",
        "streetNameDisplayText": "PINECREST RD, OSHAWA"
      }
    ]
  },
  {
    "postal": "L1K7V2",
    "result": []
  },
  {
    "postal": "L1K9P4",
    "result": []
  },
  {
    "postal": "L1K6G0",
    "result": []
  },
  {
    "postal": "L1K2K0",
    "result": []
  },
  {
    "postal": "L1K7N6",
    "result": []
  },
  {
    "postal": "L1K5R3",
    "result": []
  },
  {
    "postal": "L1K7K0",
    "result": []
  },
  {
    "postal": "L1K3R2",
    "result": []
  },
  {
    "postal": "L1K0J1",
    "result": [
      {
        "electoralDistricts": [
          {
            "election": null,
            "id": 24,
            "name": "Durham"
          }
        ],
        "pollDivisionIds": [
          10137868
        ],
        "postalCode": "L1K0J1",
        "streetName": "ESTERBROOK",
        "streetDirectionId": null,
        "streetTypeId": "DR",
        "placeName": "OSHAWA",
        "streetNameDisplayText": "ESTERBROOK DR, OSHAWA"
      },
      {
        "electoralDistricts": [
          {
            "election": null,
            "id": 24,
            "name": "Durham"
          }
        ],
        "pollDivisionIds": [
          10137868
        ],
        "postalCode": "L1K0J1",
        "streetName": "HARLSTONE",
        "streetDirectionId": null,
        "streetTypeId": "CRES",
        "placeName": "OSHAWA",
        "streetNameDisplayText": "HARLSTONE CRES, OSHAWA"
      }
    ]
  },
  {
    "postal": "L1K0B0",
    "result": []
  },
  {
    "postal": "L1K5Z2",
    "result": []
  },
  {
    "postal": "L1K7P3",
    "result": []
  },
  {
    "postal": "L1K2K3",
    "result": [
      {
        "electoralDistricts": [
          {
            "election": null,
            "id": 77,
            "name": "Oshawa"
          }
        ],
        "pollDivisionIds": [
          10140504
        ],
        "postalCode": "L1K2K3",
        "streetName": "ALDERSHOT",
        "streetDirectionId": null,
        "streetTypeId": "DR",
        "placeName": "OSHAWA",
        "streetNameDisplayText": "ALDERSHOT DR, OSHAWA"
      },
      {
        "electoralDistricts": [
          {
            "election": null,
            "id": 77,
            "name": "Oshawa"
          }
        ],
        "pollDivisionIds": [
          10140504
        ],
        "postalCode": "L1K2K3",
        "streetName": "ANDOVER",
        "streetDirectionId": null,
        "streetTypeId": "DR",
        "placeName": "OSHAWA",
        "streetNameDisplayText": "ANDOVER DR, OSHAWA"
      }
    ]
  },
  {
    "postal": "L1K7Y6",
    "result": []
  },
  {
    "postal": "L1K1L9",
    "result": [
      {
        "electoralDistricts": [
          {
            "election": null,
            "id": 77,
            "name": "Oshawa"
          }
        ],
        "pollDivisionIds": [
          10140503
        ],
        "postalCode": "L1K1L9",
        "streetName": "GALAHAD",
        "streetDirectionId": null,
        "streetTypeId": "DR",
        "placeName": "OSHAWA",
        "streetNameDisplayText": "GALAHAD DR, OSHAWA"
      }
    ]
  },
  {
    "postal": "L1K8T0",
    "result": []
  },
  {
    "postal": "L1K3K8",
    "result": []
  },
  {
    "postal": "L1K5W9",
    "result": []
  },
  {
    "postal": "L1K6T9",
    "result": []
  },
  {
    "postal": "L1K4H1",
    "result": []
  },
  {
    "postal": "L1K7A2",
    "result": []
  },
  {
    "postal": "L1K5G0",
    "result": []
  },
  {
    "postal": "L1K8V5",
    "result": []
  },
  {
    "postal": "L1K2Y8",
    "result": [
      {
        "electoralDistricts": [
          {
            "election": null,
            "id": 24,
            "name": "Durham"
          }
        ],
        "pollDivisionIds": [
          10137868
        ],
        "postalCode": "L1K2Y8",
        "streetName": "COLDSTREAM",
        "streetDirectionId": null,
        "streetTypeId": "DR",
        "placeName": "OSHAWA",
        "streetNameDisplayText": "COLDSTREAM DR, OSHAWA"
      }
    ]
  },
  {
    "postal": "L1K2B6",
    "result": [
      {
        "electoralDistricts": [
          {
            "election": null,
            "id": 24,
            "name": "Durham"
          }
        ],
        "pollDivisionIds": [
          10137866
        ],
        "postalCode": "L1K2B6",
        "streetName": "LAWLOR",
        "streetDirectionId": null,
        "streetTypeId": "AVE",
        "placeName": "OSHAWA",
        "streetNameDisplayText": "LAWLOR AVE, OSHAWA"
      },
      {
        "electoralDistricts": [
          {
            "election": null,
            "id": 24,
            "name": "Durham"
          },
          {
            "election": null,
            "id": 77,
            "name": "Oshawa"
          }
        ],
        "pollDivisionIds": [
          10137866,
          10140490,
          10140492
        ],
        "postalCode": "L1K2B6",
        "streetName": "WILSON",
        "streetDirectionId": "N",
        "streetTypeId": "RD",
        "placeName": "OSHAWA",
        "streetNameDisplayText": "WILSON RD N, OSHAWA"
      }
    ]
  },
  {
    "postal": "L1K4W8",
    "result": []
  },
  {
    "postal": "L1K8H7",
    "result": []
  },
  {
    "postal": "L1K5P1",
    "result": []
  },
  {
    "postal": "L1K2B8",
    "result": [
      {
        "electoralDistricts": [
          {
            "election": null,
            "id": 24,
            "name": "Durham"
          }
        ],
        "pollDivisionIds": [
          10137866
        ],
        "postalCode": "L1K2B8",
        "streetName": "LARRY",
        "streetDirectionId": null,
        "streetTypeId": "AVE",
        "placeName": "OSHAWA",
        "streetNameDisplayText": "LARRY AVE, OSHAWA"
      },
      {
        "electoralDistricts": [
          {
            "election": null,
            "id": 24,
            "name": "Durham"
          }
        ],
        "pollDivisionIds": [
          10137866
        ],
        "postalCode": "L1K2B8",
        "streetName": "ST PATRICK",
        "streetDirectionId": null,
        "streetTypeId": "ST",
        "placeName": "OSHAWA",
        "streetNameDisplayText": "ST PATRICK ST, OSHAWA"
      },
      {
        "electoralDistricts": [
          {
            "election": null,
            "id": 24,
            "name": "Durham"
          }
        ],
        "pollDivisionIds": [
          10137866
        ],
        "postalCode": "L1K2B8",
        "streetName": "TAUNTON",
        "streetDirectionId": "E",
        "streetTypeId": "RD",
        "placeName": "OSHAWA",
        "streetNameDisplayText": "TAUNTON RD E, OSHAWA"
      },
      {
        "electoralDistricts": [
          {
            "election": null,
            "id": 77,
            "name": "Oshawa"
          },
          {
            "election": null,
            "id": 24,
            "name": "Durham"
          }
        ],
        "pollDivisionIds": [
          10140493,
          10137866,
          10140490
        ],
        "postalCode": "L1K2B8",
        "streetName": "WILSON",
        "streetDirectionId": "N",
        "streetTypeId": "RD",
        "placeName": "OSHAWA",
        "streetNameDisplayText": "WILSON RD N, OSHAWA"
      }
    ]
  },
  {
    "postal": "L1K0P2",
    "result": [
      {
        "electoralDistricts": [
          {
            "election": null,
            "id": 24,
            "name": "Durham"
          }
        ],
        "pollDivisionIds": [
          10137867
        ],
        "postalCode": "L1K0P2",
        "streetName": "RIVERTON",
        "streetDirectionId": null,
        "streetTypeId": "CRT",
        "placeName": "OSHAWA",
        "streetNameDisplayText": "RIVERTON CRT, OSHAWA"
      }
    ]
  },
  {
    "postal": "L1K9M1",
    "result": []
  },
  {
    "postal": "L1K3G0",
    "result": []
  },
  {
    "postal": "L1K9Z2",
    "result": []
  },
  {
    "postal": "L1K2A0",
    "result": []
  },
  {
    "postal": "L1K6Y0",
    "result": []
  },
  {
    "postal": "L1K2Z8",
    "result": [
      {
        "electoralDistricts": [
          {
            "election": null,
            "id": 24,
            "name": "Durham"
          }
        ],
        "pollDivisionIds": [
          10137865
        ],
        "postalCode": "L1K2Z8",
        "streetName": "FLAGSTONE",
        "streetDirectionId": null,
        "streetTypeId": "CRT",
        "placeName": "OSHAWA",
        "streetNameDisplayText": "FLAGSTONE CRT, OSHAWA"
      }
    ]
  },
  {
    "postal": "L1K7Y3",
    "result": []
  },
  {
    "postal": "L1K6Z5",
    "result": []
  },
  {
    "postal": "L1K6E0",
    "result": []
  },
  {
    "postal": "L1K9B7",
    "result": []
  },
  {
    "postal": "L1K9S5",
    "result": []
  },
  {
    "postal": "L1K3X3",
    "result": []
  },
  {
    "postal": "L1K7R5",
    "result": []
  },
  {
    "postal": "L1K2X3",
    "result": [
      {
        "electoralDistricts": [
          {
            "election": null,
            "id": 24,
            "name": "Durham"
          }
        ],
        "pollDivisionIds": [
          10137866
        ],
        "postalCode": "L1K2X3",
        "streetName": "SHERBROOK",
        "streetDirectionId": null,
        "streetTypeId": "DR",
        "placeName": "OSHAWA",
        "streetNameDisplayText": "SHERBROOK DR, OSHAWA"
      }
    ]
  },
  {
    "postal": "L1K8Z9",
    "result": []
  },
  {
    "postal": "L1K0N4",
    "result": [
      {
        "electoralDistricts": [
          {
            "election": null,
            "id": 24,
            "name": "Durham"
          }
        ],
        "pollDivisionIds": [
          10137868
        ],
        "postalCode": "L1K0N4",
        "streetName": "ESTERBROOK",
        "streetDirectionId": null,
        "streetTypeId": "DR",
        "placeName": "OSHAWA",
        "streetNameDisplayText": "ESTERBROOK DR, OSHAWA"
      },
      {
        "electoralDistricts": [
          {
            "election": null,
            "id": 24,
            "name": "Durham"
          }
        ],
        "pollDivisionIds": [
          10137868
        ],
        "postalCode": "L1K0N4",
        "streetName": "HARLSTONE",
        "streetDirectionId": null,
        "streetTypeId": "CRES",
        "placeName": "OSHAWA",
        "streetNameDisplayText": "HARLSTONE CRES, OSHAWA"
      }
    ]
  },
  {
    "postal": "L1K1K1",
    "result": [
      {
        "electoralDistricts": [
          {
            "election": null,
            "id": 77,
            "name": "Oshawa"
          }
        ],
        "pollDivisionIds": [
          10140502
        ],
        "postalCode": "L1K1K1",
        "streetName": "LANCELOT",
        "streetDirectionId": null,
        "streetTypeId": "CRES",
        "placeName": "OSHAWA",
        "streetNameDisplayText": "LANCELOT CRES, OSHAWA"
      }
    ]
  },
  {
    "postal": "L1K1S3",
    "result": [
      {
        "electoralDistricts": [
          {
            "election": null,
            "id": 77,
            "name": "Oshawa"
          }
        ],
        "pollDivisionIds": [
          10140504
        ],
        "postalCode": "L1K1S3",
        "streetName": "COPPERFIELD",
        "streetDirectionId": null,
        "streetTypeId": "DR",
        "placeName": "OSHAWA",
        "streetNameDisplayText": "COPPERFIELD DR, OSHAWA"
      }
    ]
  },
  {
    "postal": "L1K6M4",
    "result": []
  },
  {
    "postal": "L1K9A9",
    "result": []
  },
  {
    "postal": "L1K9Z9",
    "result": []
  },
  {
    "postal": "L1K6T4",
    "result": []
  },
  {
    "postal": "L1K0B2",
    "result": [
      {
        "electoralDistricts": [
          {
            "election": null,
            "id": 24,
            "name": "Durham"
          }
        ],
        "pollDivisionIds": [
          10137868
        ],
        "postalCode": "L1K0B2",
        "streetName": "SALMERS",
        "streetDirectionId": null,
        "streetTypeId": "DR",
        "placeName": "OSHAWA",
        "streetNameDisplayText": "SALMERS DR, OSHAWA"
      },
      {
        "electoralDistricts": [
          {
            "election": null,
            "id": 24,
            "name": "Durham"
          }
        ],
        "pollDivisionIds": [
          10137868
        ],
        "postalCode": "L1K0B2",
        "streetName": "SPENCELY",
        "streetDirectionId": null,
        "streetTypeId": "DR",
        "placeName": "OSHAWA",
        "streetNameDisplayText": "SPENCELY DR, OSHAWA"
      }
    ]
  },
  {
    "postal": "L1K2L9",
    "result": [
      {
        "electoralDistricts": [
          {
            "election": null,
            "id": 77,
            "name": "Oshawa"
          }
        ],
        "pollDivisionIds": [
          10143689
        ],
        "postalCode": "L1K2L9",
        "streetName": "TIMBERLAND",
        "streetDirectionId": null,
        "streetTypeId": "CRES",
        "placeName": "OSHAWA",
        "streetNameDisplayText": "TIMBERLAND CRES, OSHAWA"
      }
    ]
  },
  {
    "postal": "L1K8K9",
    "result": []
  },
  {
    "postal": "L1K2H9",
    "result": [
      {
        "electoralDistricts": [
          {
            "election": null,
            "id": 77,
            "name": "Oshawa"
          }
        ],
        "pollDivisionIds": [
          10140492
        ],
        "postalCode": "L1K2H9",
        "streetName": "BUTTONBUSH",
        "streetDirectionId": null,
        "streetTypeId": "CRT",
        "placeName": "OSHAWA",
        "streetNameDisplayText": "BUTTONBUSH CRT, OSHAWA"
      },
      {
        "electoralDistricts": [
          {
            "election": null,
            "id": 77,
            "name": "Oshawa"
          }
        ],
        "pollDivisionIds": [
          10140492
        ],
        "postalCode": "L1K2H9",
        "streetName": "SNOWBERRY",
        "streetDirectionId": null,
        "streetTypeId": "ST",
        "placeName": "OSHAWA",
        "streetNameDisplayText": "SNOWBERRY ST, OSHAWA"
      }
    ]
  },
  {
    "postal": "L1K3Z6",
    "result": []
  },
  {
    "postal": "L1K3B0",
    "result": []
  },
  {
    "postal": "L1K2H8",
    "result": [
      {
        "electoralDistricts": [
          {
            "election": null,
            "id": 77,
            "name": "Oshawa"
          }
        ],
        "pollDivisionIds": [
          10140492
        ],
        "postalCode": "L1K2H8",
        "streetName": "BEATRICE",
        "streetDirectionId": "E",
        "streetTypeId": "ST",
        "placeName": "OSHAWA",
        "streetNameDisplayText": "BEATRICE ST E, OSHAWA"
      }
    ]
  },
  {
    "postal": "L1K3X2",
    "result": []
  },
  {
    "postal": "L1K2E9",
    "result": [
      {
        "electoralDistricts": [
          {
            "election": null,
            "id": 77,
            "name": "Oshawa"
          }
        ],
        "pollDivisionIds": [
          10140503
        ],
        "postalCode": "L1K2E9",
        "streetName": "COPPERFIELD",
        "streetDirectionId": null,
        "streetTypeId": "DR",
        "placeName": "OSHAWA",
        "streetNameDisplayText": "COPPERFIELD DR, OSHAWA"
      }
    ]
  },
  {
    "postal": "L1K9P6",
    "result": []
  },
  {
    "postal": "L1K9E2",
    "result": []
  },
  {
    "postal": "L1K9H2",
    "result": []
  },
  {
    "postal": "L1K1S8",
    "result": [
      {
        "electoralDistricts": [
          {
            "election": null,
            "id": 77,
            "name": "Oshawa"
          }
        ],
        "pollDivisionIds": [
          10140492
        ],
        "postalCode": "L1K1S8",
        "streetName": "AVERY",
        "streetDirectionId": null,
        "streetTypeId": "CRT",
        "placeName": "OSHAWA",
        "streetNameDisplayText": "AVERY CRT, OSHAWA"
      }
    ]
  },
  {
    "postal": "L1K3M6",
    "result": []
  },
  {
    "postal": "L1K6Z8",
    "result": []
  },
  {
    "postal": "L1K4J2",
    "result": []
  },
  {
    "postal": "L1K9Y1",
    "result": []
  },
  {
    "postal": "L1K8V6",
    "result": []
  },
  {
    "postal": "L1K6B2",
    "result": []
  },
  {
    "postal": "L1K1P8",
    "result": [
      {
        "electoralDistricts": [
          {
            "election": null,
            "id": 77,
            "name": "Oshawa"
          }
        ],
        "pollDivisionIds": [
          10140492
        ],
        "postalCode": "L1K1P8",
        "streetName": "COURVILLE",
        "streetDirectionId": null,
        "streetTypeId": "CRT",
        "placeName": "OSHAWA",
        "streetNameDisplayText": "COURVILLE CRT, OSHAWA"
      }
    ]
  },
  {
    "postal": "L1K0V8",
    "result": [
      {
        "electoralDistricts": [
          {
            "election": null,
            "id": 24,
            "name": "Durham"
          }
        ],
        "pollDivisionIds": [
          10137867
        ],
        "postalCode": "L1K0V8",
        "streetName": "WRENWOOD",
        "streetDirectionId": null,
        "streetTypeId": "DR",
        "placeName": "OSHAWA",
        "streetNameDisplayText": "WRENWOOD DR, OSHAWA"
      }
    ]
  },
  {
    "postal": "L1K4Y0",
    "result": []
  },
  {
    "postal": "L1K2T4",
    "result": [
      {
        "electoralDistricts": [
          {
            "election": null,
            "id": 24,
            "name": "Durham"
          }
        ],
        "pollDivisionIds": [
          10137865
        ],
        "postalCode": "L1K2T4",
        "streetName": "ORMOND",
        "streetDirectionId": null,
        "streetTypeId": "DR",
        "placeName": "OSHAWA",
        "streetNameDisplayText": "ORMOND DR, OSHAWA"
      }
    ]
  },
  {
    "postal": "L1K2S3",
    "result": [
      {
        "electoralDistricts": [
          {
            "election": null,
            "id": 24,
            "name": "Durham"
          }
        ],
        "pollDivisionIds": [
          10137867
        ],
        "postalCode": "L1K2S3",
        "streetName": "CLEARBROOK",
        "streetDirectionId": null,
        "streetTypeId": "DR",
        "placeName": "OSHAWA",
        "streetNameDisplayText": "CLEARBROOK DR, OSHAWA"
      },
      {
        "electoralDistricts": [
          {
            "election": null,
            "id": 24,
            "name": "Durham"
          }
        ],
        "pollDivisionIds": [
          10137867
        ],
        "postalCode": "L1K2S3",
        "streetName": "SKYVIEW",
        "streetDirectionId": null,
        "streetTypeId": "ST",
        "placeName": "OSHAWA",
        "streetNameDisplayText": "SKYVIEW ST, OSHAWA"
      }
    ]
  },
  {
    "postal": "L1K0K0",
    "result": []
  },
  {
    "postal": "L1K5N1",
    "result": []
  },
  {
    "postal": "L1K7T0",
    "result": []
  },
  {
    "postal": "L1K9N2",
    "result": []
  },
  {
    "postal": "L1K5L1",
    "result": []
  },
  {
    "postal": "L1K7G5",
    "result": []
  },
  {
    "postal": "L1K6K2",
    "result": []
  },
  {
    "postal": "L1K6P9",
    "result": []
  },
  {
    "postal": "L1K0E6",
    "result": [
      {
        "electoralDistricts": [
          {
            "election": null,
            "id": 77,
            "name": "Oshawa"
          }
        ],
        "pollDivisionIds": [
          10140493
        ],
        "postalCode": "L1K0E6",
        "streetName": "GRAND RIDGE",
        "streetDirectionId": null,
        "streetTypeId": "AVE",
        "placeName": "OSHAWA",
        "streetNameDisplayText": "GRAND RIDGE AVE, OSHAWA"
      },
      {
        "electoralDistricts": [
          {
            "election": null,
            "id": 77,
            "name": "Oshawa"
          },
          {
            "election": null,
            "id": 24,
            "name": "Durham"
          }
        ],
        "pollDivisionIds": [
          10140493,
          10137867
        ],
        "postalCode": "L1K0E6",
        "streetName": "TAGGART",
        "streetDirectionId": null,
        "streetTypeId": "CRES",
        "placeName": "OSHAWA",
        "streetNameDisplayText": "TAGGART CRES, OSHAWA"
      }
    ]
  },
  {
    "postal": "L1K8R9",
    "result": []
  },
  {
    "postal": "L1K3G9",
    "result": []
  },
  {
    "postal": "L1K0V7",
    "result": []
  },
  {
    "postal": "L1K2Z1",
    "result": [
      {
        "electoralDistricts": [
          {
            "election": null,
            "id": 77,
            "name": "Oshawa"
          }
        ],
        "pollDivisionIds": [
          10140493
        ],
        "postalCode": "L1K2Z1",
        "streetName": "BRASSWINDS",
        "streetDirectionId": null,
        "streetTypeId": "TRAIL",
        "placeName": "OSHAWA",
        "streetNameDisplayText": "BRASSWINDS TRAIL, OSHAWA"
      },
      {
        "electoralDistricts": [
          {
            "election": null,
            "id": 77,
            "name": "Oshawa"
          }
        ],
        "pollDivisionIds": [
          10140493
        ],
        "postalCode": "L1K2Z1",
        "streetName": "SONGBIRD",
        "streetDirectionId": null,
        "streetTypeId": "DR",
        "placeName": "OSHAWA",
        "streetNameDisplayText": "SONGBIRD DR, OSHAWA"
      }
    ]
  },
  {
    "postal": "L1K7N1",
    "result": []
  },
  {
    "postal": "L1K3C6",
    "result": [
      {
        "electoralDistricts": [
          {
            "election": null,
            "id": 77,
            "name": "Oshawa"
          }
        ],
        "pollDivisionIds": [
          10140503
        ],
        "postalCode": "L1K3C6",
        "streetName": "COPPERFIELD",
        "streetDirectionId": null,
        "streetTypeId": "DR",
        "placeName": "OSHAWA",
        "streetNameDisplayText": "COPPERFIELD DR, OSHAWA"
      },
      {
        "electoralDistricts": [
          {
            "election": null,
            "id": 77,
            "name": "Oshawa"
          }
        ],
        "pollDivisionIds": [
          10140503
        ],
        "postalCode": "L1K3C6",
        "streetName": "COYSTON",
        "streetDirectionId": null,
        "streetTypeId": "DR",
        "placeName": "OSHAWA",
        "streetNameDisplayText": "COYSTON DR, OSHAWA"
      }
    ]
  },
  {
    "postal": "L1K4M1",
    "result": []
  },
  {
    "postal": "L1K9K2",
    "result": []
  },
  {
    "postal": "L1K9S6",
    "result": []
  },
  {
    "postal": "L1K4X1",
    "result": []
  },
  {
    "postal": "L1K8W2",
    "result": []
  },
  {
    "postal": "L1K7N2",
    "result": []
  },
  {
    "postal": "L1K8S3",
    "result": []
  },
  {
    "postal": "L1K4V0",
    "result": []
  },
  {
    "postal": "L1K6W4",
    "result": []
  },
  {
    "postal": "L1K5M1",
    "result": []
  },
  {
    "postal": "L1K0S4",
    "result": [
      {
        "electoralDistricts": [
          {
            "election": null,
            "id": 77,
            "name": "Oshawa"
          }
        ],
        "pollDivisionIds": [
          10140503
        ],
        "postalCode": "L1K0S4",
        "streetName": "ALDSWORTH",
        "streetDirectionId": null,
        "streetTypeId": "CRES",
        "placeName": "OSHAWA",
        "streetNameDisplayText": "ALDSWORTH CRES, OSHAWA"
      },
      {
        "electoralDistricts": [
          {
            "election": null,
            "id": 77,
            "name": "Oshawa"
          }
        ],
        "pollDivisionIds": [
          10140503
        ],
        "postalCode": "L1K0S4",
        "streetName": "CRONK",
        "streetDirectionId": null,
        "streetTypeId": "CRT",
        "placeName": "OSHAWA",
        "streetNameDisplayText": "CRONK CRT, OSHAWA"
      }
    ]
  },
  {
    "postal": "L1K5X6",
    "result": []
  },
  {
    "postal": "L1K8L5",
    "result": []
  },
  {
    "postal": "L1K5M8",
    "result": []
  },
  {
    "postal": "L1K2G3",
    "result": [
      {
        "electoralDistricts": [
          {
            "election": null,
            "id": 77,
            "name": "Oshawa"
          }
        ],
        "pollDivisionIds": [
          10143689
        ],
        "postalCode": "L1K2G3",
        "streetName": "RIDGE VALLEY",
        "streetDirectionId": null,
        "streetTypeId": "DR",
        "placeName": "OSHAWA",
        "streetNameDisplayText": "RIDGE VALLEY DR, OSHAWA"
      }
    ]
  },
  {
    "postal": "L1K8E4",
    "result": []
  },
  {
    "postal": "L1K7S9",
    "result": []
  },
  {
    "postal": "L1K1K3",
    "result": [
      {
        "electoralDistricts": [
          {
            "election": null,
            "id": 24,
            "name": "Durham"
          },
          {
            "election": null,
            "id": 77,
            "name": "Oshawa"
          }
        ],
        "pollDivisionIds": [
          10137862,
          10140502
        ],
        "postalCode": "L1K1K3",
        "streetName": "CAMELOT",
        "streetDirectionId": null,
        "streetTypeId": "DR",
        "placeName": "OSHAWA",
        "streetNameDisplayText": "CAMELOT DR, OSHAWA"
      }
    ]
  },
  {
    "postal": "L1K4E1",
    "result": []
  },
  {
    "postal": "L1K4R2",
    "result": []
  },
  {
    "postal": "L1K6T0",
    "result": []
  },
  {
    "postal": "L1K3K5",
    "result": []
  },
  {
    "postal": "L1K3S3",
    "result": []
  },
  {
    "postal": "L1K3L4",
    "result": []
  },
  {
    "postal": "L1K9Y2",
    "result": []
  },
  {
    "postal": "L1K1E0",
    "result": []
  },
  {
    "postal": "L1K9A4",
    "result": []
  },
  {
    "postal": "L1K1L3",
    "result": [
      {
        "electoralDistricts": [
          {
            "election": null,
            "id": 77,
            "name": "Oshawa"
          }
        ],
        "pollDivisionIds": [
          10140504
        ],
        "postalCode": "L1K1L3",
        "streetName": "BLACKTHORN",
        "streetDirectionId": null,
        "streetTypeId": "ST",
        "placeName": "OSHAWA",
        "streetNameDisplayText": "BLACKTHORN ST, OSHAWA"
      }
    ]
  },
  {
    "postal": "L1K6N1",
    "result": []
  },
  {
    "postal": "L1K6G7",
    "result": []
  },
  {
    "postal": "L1K7W1",
    "result": []
  },
  {
    "postal": "L1K4M6",
    "result": []
  },
  {
    "postal": "L1K1K0",
    "result": []
  },
  {
    "postal": "L1K3E2",
    "result": [
      {
        "electoralDistricts": [
          {
            "election": null,
            "id": 77,
            "name": "Oshawa"
          }
        ],
        "pollDivisionIds": [
          10143689,
          10140492
        ],
        "postalCode": "L1K3E2",
        "streetName": "HARMONY",
        "streetDirectionId": "N",
        "streetTypeId": "RD",
        "placeName": "OSHAWA",
        "streetNameDisplayText": "HARMONY RD N, OSHAWA"
      }
    ]
  },
  {
    "postal": "L1K5H4",
    "result": []
  },
  {
    "postal": "L1K1K7",
    "result": [
      {
        "electoralDistricts": [
          {
            "election": null,
            "id": 77,
            "name": "Oshawa"
          }
        ],
        "pollDivisionIds": [
          10140503
        ],
        "postalCode": "L1K1K7",
        "streetName": "GLADFERN",
        "streetDirectionId": null,
        "streetTypeId": "ST",
        "placeName": "OSHAWA",
        "streetNameDisplayText": "GLADFERN ST, OSHAWA"
      }
    ]
  },
  {
    "postal": "L1K0H0",
    "result": []
  },
  {
    "postal": "L1K0J3",
    "result": [
      {
        "electoralDistricts": [
          {
            "election": null,
            "id": 24,
            "name": "Durham"
          }
        ],
        "pollDivisionIds": [
          10137868
        ],
        "postalCode": "L1K0J3",
        "streetName": "ESTERBROOK",
        "streetDirectionId": null,
        "streetTypeId": "DR",
        "placeName": "OSHAWA",
        "streetNameDisplayText": "ESTERBROOK DR, OSHAWA"
      },
      {
        "electoralDistricts": [
          {
            "election": null,
            "id": 24,
            "name": "Durham"
          }
        ],
        "pollDivisionIds": [
          10137868
        ],
        "postalCode": "L1K0J3",
        "streetName": "GRANDVIEW",
        "streetDirectionId": "N",
        "streetTypeId": "ST",
        "placeName": "OSHAWA",
        "streetNameDisplayText": "GRANDVIEW ST N, OSHAWA"
      }
    ]
  },
  {
    "postal": "L1K1X6",
    "result": [
      {
        "electoralDistricts": [
          {
            "election": null,
            "id": 77,
            "name": "Oshawa"
          }
        ],
        "pollDivisionIds": [
          10140492
        ],
        "postalCode": "L1K1X6",
        "streetName": "MEADOWHILL",
        "streetDirectionId": null,
        "streetTypeId": "CRT",
        "placeName": "OSHAWA",
        "streetNameDisplayText": "MEADOWHILL CRT, OSHAWA"
      }
    ]
  },
  {
    "postal": "L1K2Z6",
    "result": [
      {
        "electoralDistricts": [
          {
            "election": null,
            "id": 24,
            "name": "Durham"
          }
        ],
        "pollDivisionIds": [
          10137865
        ],
        "postalCode": "L1K2Z6",
        "streetName": "CLEARWATER",
        "streetDirectionId": null,
        "streetTypeId": "CRT",
        "placeName": "OSHAWA",
        "streetNameDisplayText": "CLEARWATER CRT, OSHAWA"
      },
      {
        "electoralDistricts": [
          {
            "election": null,
            "id": 24,
            "name": "Durham"
          }
        ],
        "pollDivisionIds": [
          10137865
        ],
        "postalCode": "L1K2Z6",
        "streetName": "ORMOND",
        "streetDirectionId": null,
        "streetTypeId": "DR",
        "placeName": "OSHAWA",
        "streetNameDisplayText": "ORMOND DR, OSHAWA"
      }
    ]
  },
  {
    "postal": "L1K4R9",
    "result": []
  },
  {
    "postal": "L1K0W8",
    "result": [
      {
        "electoralDistricts": [
          {
            "election": null,
            "id": 24,
            "name": "Durham"
          }
        ],
        "pollDivisionIds": [
          10137868
        ],
        "postalCode": "L1K0W8",
        "streetName": "KURELO",
        "streetDirectionId": null,
        "streetTypeId": "DR",
        "placeName": "OSHAWA",
        "streetNameDisplayText": "KURELO DR, OSHAWA"
      },
      {
        "electoralDistricts": [
          {
            "election": null,
            "id": 24,
            "name": "Durham"
          }
        ],
        "pollDivisionIds": [
          10137868
        ],
        "postalCode": "L1K0W8",
        "streetName": "MAGEE",
        "streetDirectionId": null,
        "streetTypeId": "ST",
        "placeName": "OSHAWA",
        "streetNameDisplayText": "MAGEE ST, OSHAWA"
      },
      {
        "electoralDistricts": [
          {
            "election": null,
            "id": 24,
            "name": "Durham"
          }
        ],
        "pollDivisionIds": [
          10137868
        ],
        "postalCode": "L1K0W8",
        "streetName": "WOODSTREAM",
        "streetDirectionId": null,
        "streetTypeId": "AVE",
        "placeName": "OSHAWA",
        "streetNameDisplayText": "WOODSTREAM AVE, OSHAWA"
      }
    ]
  },
  {
    "postal": "L1K1L4",
    "result": [
      {
        "electoralDistricts": [
          {
            "election": null,
            "id": 77,
            "name": "Oshawa"
          }
        ],
        "pollDivisionIds": [
          10140503
        ],
        "postalCode": "L1K1L4",
        "streetName": "GAYLORD",
        "streetDirectionId": null,
        "streetTypeId": "DR",
        "placeName": "OSHAWA",
        "streetNameDisplayText": "GAYLORD DR, OSHAWA"
      }
    ]
  },
  {
    "postal": "L1K0C8",
    "result": [
      {
        "electoralDistricts": [
          {
            "election": null,
            "id": 24,
            "name": "Durham"
          }
        ],
        "pollDivisionIds": [
          10137867
        ],
        "postalCode": "L1K0C8",
        "streetName": "EAGLE RIDGE",
        "streetDirectionId": null,
        "streetTypeId": "DR",
        "placeName": "OSHAWA",
        "streetNameDisplayText": "EAGLE RIDGE DR, OSHAWA"
      },
      {
        "electoralDistricts": [
          {
            "election": null,
            "id": 24,
            "name": "Durham"
          }
        ],
        "pollDivisionIds": [
          10137867
        ],
        "postalCode": "L1K0C8",
        "streetName": "GREENHILL",
        "streetDirectionId": null,
        "streetTypeId": "AVE",
        "placeName": "OSHAWA",
        "streetNameDisplayText": "GREENHILL AVE, OSHAWA"
      }
    ]
  },
  {
    "postal": "L1K9X7",
    "result": []
  },
  {
    "postal": "L1K4T1",
    "result": []
  },
  {
    "postal": "L1K0M0",
    "result": []
  },
  {
    "postal": "L1K6A2",
    "result": []
  },
  {
    "postal": "L1K9S8",
    "result": []
  },
  {
    "postal": "L1K9T4",
    "result": []
  },
  {
    "postal": "L1K9Y4",
    "result": []
  },
  {
    "postal": "L1K6G5",
    "result": []
  },
  {
    "postal": "L1K6H9",
    "result": []
  },
  {
    "postal": "L1K2P3",
    "result": [
      {
        "electoralDistricts": [
          {
            "election": null,
            "id": 24,
            "name": "Durham"
          }
        ],
        "pollDivisionIds": [
          10137869
        ],
        "postalCode": "L1K2P3",
        "streetName": "HEARTLAND",
        "streetDirectionId": null,
        "streetTypeId": "BLVD",
        "placeName": "OSHAWA",
        "streetNameDisplayText": "HEARTLAND BLVD, OSHAWA"
      },
      {
        "electoralDistricts": [
          {
            "election": null,
            "id": 24,
            "name": "Durham"
          }
        ],
        "pollDivisionIds": [
          10137869
        ],
        "postalCode": "L1K2P3",
        "streetName": "MIDDLEBURY",
        "streetDirectionId": null,
        "streetTypeId": "AVE",
        "placeName": "OSHAWA",
        "streetNameDisplayText": "MIDDLEBURY AVE, OSHAWA"
      }
    ]
  },
  {
    "postal": "L1K1T6",
    "result": [
      {
        "electoralDistricts": [
          {
            "election": null,
            "id": 77,
            "name": "Oshawa"
          }
        ],
        "pollDivisionIds": [
          10140492
        ],
        "postalCode": "L1K1T6",
        "streetName": "BENNETT",
        "streetDirectionId": null,
        "streetTypeId": "CRES",
        "placeName": "OSHAWA",
        "streetNameDisplayText": "BENNETT CRES, OSHAWA"
      }
    ]
  },
  {
    "postal": "L1K4P6",
    "result": []
  },
  {
    "postal": "L1K3K1",
    "result": []
  },
  {
    "postal": "L1K6X4",
    "result": []
  },
  {
    "postal": "L1K4M8",
    "result": []
  },
  {
    "postal": "L1K2Y1",
    "result": [
      {
        "electoralDistricts": [
          {
            "election": null,
            "id": 77,
            "name": "Oshawa"
          }
        ],
        "pollDivisionIds": [
          10143689
        ],
        "postalCode": "L1K2Y1",
        "streetName": "TALL PINE",
        "streetDirectionId": null,
        "streetTypeId": "AVE",
        "placeName": "OSHAWA",
        "streetNameDisplayText": "TALL PINE AVE, OSHAWA"
      }
    ]
  },
  {
    "postal": "L1K6M1",
    "result": []
  },
  {
    "postal": "L1K5L8",
    "result": []
  },
  {
    "postal": "L1K3P6",
    "result": []
  },
  {
    "postal": "L1K9A5",
    "result": []
  },
  {
    "postal": "L1K7K1",
    "result": []
  },
  {
    "postal": "L1K3J4",
    "result": []
  },
  {
    "postal": "L1K5E7",
    "result": []
  },
  {
    "postal": "L1K3A7",
    "result": [
      {
        "electoralDistricts": [
          {
            "election": null,
            "id": 77,
            "name": "Oshawa"
          }
        ],
        "pollDivisionIds": [
          10140504
        ],
        "postalCode": "L1K3A7",
        "streetName": "ALDERSHOT",
        "streetDirectionId": null,
        "streetTypeId": "DR",
        "placeName": "OSHAWA",
        "streetNameDisplayText": "ALDERSHOT DR, OSHAWA"
      },
      {
        "electoralDistricts": [
          {
            "election": null,
            "id": 77,
            "name": "Oshawa"
          }
        ],
        "pollDivisionIds": [
          10140504
        ],
        "postalCode": "L1K3A7",
        "streetName": "KETTERING",
        "streetDirectionId": null,
        "streetTypeId": "DR",
        "placeName": "OSHAWA",
        "streetNameDisplayText": "KETTERING DR, OSHAWA"
      },
      {
        "electoralDistricts": [
          {
            "election": null,
            "id": 77,
            "name": "Oshawa"
          }
        ],
        "pollDivisionIds": [
          10140504
        ],
        "postalCode": "L1K3A7",
        "streetName": "OXBOW",
        "streetDirectionId": null,
        "streetTypeId": "CRES",
        "placeName": "OSHAWA",
        "streetNameDisplayText": "OXBOW CRES, OSHAWA"
      },
      {
        "electoralDistricts": [
          {
            "election": null,
            "id": 77,
            "name": "Oshawa"
          }
        ],
        "pollDivisionIds": [
          10140504
        ],
        "postalCode": "L1K3A7",
        "streetName": "WADEBRIDGE",
        "streetDirectionId": null,
        "streetTypeId": "CRES",
        "placeName": "OSHAWA",
        "streetNameDisplayText": "WADEBRIDGE CRES, OSHAWA"
      }
    ]
  },
  {
    "postal": "L1K1B9",
    "result": [
      {
        "electoralDistricts": [
          {
            "election": null,
            "id": 77,
            "name": "Oshawa"
          }
        ],
        "pollDivisionIds": [
          10140504
        ],
        "postalCode": "L1K1B9",
        "streetName": "FLEETWOOD",
        "streetDirectionId": null,
        "streetTypeId": "DR",
        "placeName": "OSHAWA",
        "streetNameDisplayText": "FLEETWOOD DR, OSHAWA"
      }
    ]
  },
  {
    "postal": "L1K9E8",
    "result": []
  },
  {
    "postal": "L1K1C9",
    "result": [
      {
        "electoralDistricts": [
          {
            "election": null,
            "id": 77,
            "name": "Oshawa"
          }
        ],
        "pollDivisionIds": [
          10140504
        ],
        "postalCode": "L1K1C9",
        "streetName": "LAGUNA",
        "streetDirectionId": null,
        "streetTypeId": "ST",
        "placeName": "OSHAWA",
        "streetNameDisplayText": "LAGUNA ST, OSHAWA"
      }
    ]
  },
  {
    "postal": "L1K3B5",
    "result": [
      {
        "electoralDistricts": [
          {
            "election": null,
            "id": 24,
            "name": "Durham"
          }
        ],
        "pollDivisionIds": [
          10137868,
          10137869
        ],
        "postalCode": "L1K3B5",
        "streetName": "COLDSTREAM",
        "streetDirectionId": null,
        "streetTypeId": "DR",
        "placeName": "OSHAWA",
        "streetNameDisplayText": "COLDSTREAM DR, OSHAWA"
      }
    ]
  },
  {
    "postal": "L1K8R0",
    "result": []
  },
  {
    "postal": "L1K3P2",
    "result": []
  },
  {
    "postal": "L1K5V4",
    "result": []
  },
  {
    "postal": "L1K4H0",
    "result": []
  },
  {
    "postal": "L1K4S7",
    "result": []
  },
  {
    "postal": "L1K6C2",
    "result": []
  },
  {
    "postal": "L1K8W3",
    "result": []
  },
  {
    "postal": "L1K4M5",
    "result": []
  },
  {
    "postal": "L1K5T1",
    "result": []
  },
  {
    "postal": "L1K3B3",
    "result": []
  },
  {
    "postal": "L1K6C6",
    "result": []
  },
  {
    "postal": "L1K7N8",
    "result": []
  },
  {
    "postal": "L1K2Y3",
    "result": [
      {
        "electoralDistricts": [
          {
            "election": null,
            "id": 24,
            "name": "Durham"
          }
        ],
        "pollDivisionIds": [
          10137869
        ],
        "postalCode": "L1K2Y3",
        "streetName": "ALDERGROVE",
        "streetDirectionId": null,
        "streetTypeId": "DR",
        "placeName": "OSHAWA",
        "streetNameDisplayText": "ALDERGROVE DR, OSHAWA"
      },
      {
        "electoralDistricts": [
          {
            "election": null,
            "id": 24,
            "name": "Durham"
          }
        ],
        "pollDivisionIds": [
          10137869
        ],
        "postalCode": "L1K2Y3",
        "streetName": "RAVENCLIFFE",
        "streetDirectionId": null,
        "streetTypeId": "CRT",
        "placeName": "OSHAWA",
        "streetNameDisplayText": "RAVENCLIFFE CRT, OSHAWA"
      }
    ]
  },
  {
    "postal": "L1K2R6",
    "result": [
      {
        "electoralDistricts": [
          {
            "election": null,
            "id": 77,
            "name": "Oshawa"
          }
        ],
        "pollDivisionIds": [
          10140504
        ],
        "postalCode": "L1K2R6",
        "streetName": "ALDERSHOT",
        "streetDirectionId": null,
        "streetTypeId": "DR",
        "placeName": "OSHAWA",
        "streetNameDisplayText": "ALDERSHOT DR, OSHAWA"
      },
      {
        "electoralDistricts": [
          {
            "election": null,
            "id": 77,
            "name": "Oshawa"
          }
        ],
        "pollDivisionIds": [
          10140504
        ],
        "postalCode": "L1K2R6",
        "streetName": "ANDOVER",
        "streetDirectionId": null,
        "streetTypeId": "DR",
        "placeName": "OSHAWA",
        "streetNameDisplayText": "ANDOVER DR, OSHAWA"
      }
    ]
  },
  {
    "postal": "L1K7N3",
    "result": []
  },
  {
    "postal": "L1K8J2",
    "result": []
  },
  {
    "postal": "L1K6A9",
    "result": []
  },
  {
    "postal": "L1K3V2",
    "result": []
  },
  {
    "postal": "L1K2N3",
    "result": [
      {
        "electoralDistricts": [
          {
            "election": null,
            "id": 77,
            "name": "Oshawa"
          }
        ],
        "pollDivisionIds": [
          10140504
        ],
        "postalCode": "L1K2N3",
        "streetName": "HARTGROVE",
        "streetDirectionId": null,
        "streetTypeId": "LANE",
        "placeName": "OSHAWA",
        "streetNameDisplayText": "HARTGROVE LANE, OSHAWA"
      }
    ]
  },
  {
    "postal": "L1K1S5",
    "result": [
      {
        "electoralDistricts": [
          {
            "election": null,
            "id": 77,
            "name": "Oshawa"
          }
        ],
        "pollDivisionIds": [
          10140504
        ],
        "postalCode": "L1K1S5",
        "streetName": "DICKENS",
        "streetDirectionId": null,
        "streetTypeId": "DR",
        "placeName": "OSHAWA",
        "streetNameDisplayText": "DICKENS DR, OSHAWA"
      }
    ]
  },
  {
    "postal": "L1K4T7",
    "result": []
  },
  {
    "postal": "L1K6Y7",
    "result": []
  },
  {
    "postal": "L1K0W7",
    "result": [
      {
        "electoralDistricts": [
          {
            "election": null,
            "id": 24,
            "name": "Durham"
          }
        ],
        "pollDivisionIds": [
          10137868
        ],
        "postalCode": "L1K0W7",
        "streetName": "KURELO",
        "streetDirectionId": null,
        "streetTypeId": "DR",
        "placeName": "OSHAWA",
        "streetNameDisplayText": "KURELO DR, OSHAWA"
      },
      {
        "electoralDistricts": [
          {
            "election": null,
            "id": 24,
            "name": "Durham"
          }
        ],
        "pollDivisionIds": [
          10137868
        ],
        "postalCode": "L1K0W7",
        "streetName": "MAGEE",
        "streetDirectionId": null,
        "streetTypeId": "CRT",
        "placeName": "OSHAWA",
        "streetNameDisplayText": "MAGEE CRT, OSHAWA"
      },
      {
        "electoralDistricts": [
          {
            "election": null,
            "id": 24,
            "name": "Durham"
          }
        ],
        "pollDivisionIds": [
          10137868
        ],
        "postalCode": "L1K0W7",
        "streetName": "MAGEE",
        "streetDirectionId": null,
        "streetTypeId": "ST",
        "placeName": "OSHAWA",
        "streetNameDisplayText": "MAGEE ST, OSHAWA"
      }
    ]
  },
  {
    "postal": "L1K2W9",
    "result": [
      {
        "electoralDistricts": [
          {
            "election": null,
            "id": 24,
            "name": "Durham"
          }
        ],
        "pollDivisionIds": [
          10137866
        ],
        "postalCode": "L1K2W9",
        "streetName": "COLDSTREAM",
        "streetDirectionId": null,
        "streetTypeId": "DR",
        "placeName": "OSHAWA",
        "streetNameDisplayText": "COLDSTREAM DR, OSHAWA"
      },
      {
        "electoralDistricts": [
          {
            "election": null,
            "id": 24,
            "name": "Durham"
          }
        ],
        "pollDivisionIds": [
          10137866
        ],
        "postalCode": "L1K2W9",
        "streetName": "ORMOND",
        "streetDirectionId": null,
        "streetTypeId": "DR",
        "placeName": "OSHAWA",
        "streetNameDisplayText": "ORMOND DR, OSHAWA"
      }
    ]
  },
  {
    "postal": "L1K8V0",
    "result": []
  },
  {
    "postal": "L1K0H4",
    "result": [
      {
        "electoralDistricts": [
          {
            "election": null,
            "id": 24,
            "name": "Durham"
          }
        ],
        "pollDivisionIds": [
          10137868
        ],
        "postalCode": "L1K0H4",
        "streetName": "DOCKING",
        "streetDirectionId": null,
        "streetTypeId": "CRT",
        "placeName": "OSHAWA",
        "streetNameDisplayText": "DOCKING CRT, OSHAWA"
      }
    ]
  },
  {
    "postal": "L1K2T1",
    "result": [
      {
        "electoralDistricts": [
          {
            "election": null,
            "id": 24,
            "name": "Durham"
          }
        ],
        "pollDivisionIds": [
          10137865
        ],
        "postalCode": "L1K2T1",
        "streetName": "RADCLIFFE",
        "streetDirectionId": null,
        "streetTypeId": "DR",
        "placeName": "OSHAWA",
        "streetNameDisplayText": "RADCLIFFE DR, OSHAWA"
      },
      {
        "electoralDistricts": [
          {
            "election": null,
            "id": 24,
            "name": "Durham"
          }
        ],
        "pollDivisionIds": [
          10137865
        ],
        "postalCode": "L1K2T1",
        "streetName": "WOODMOUNT",
        "streetDirectionId": null,
        "streetTypeId": "CRES",
        "placeName": "OSHAWA",
        "streetNameDisplayText": "WOODMOUNT CRES, OSHAWA"
      }
    ]
  },
  {
    "postal": "L1K1B1",
    "result": [
      {
        "electoralDistricts": [
          {
            "election": null,
            "id": 77,
            "name": "Oshawa"
          }
        ],
        "pollDivisionIds": [
          10140514
        ],
        "postalCode": "L1K1B1",
        "streetName": "TOWNLINE",
        "streetDirectionId": "S",
        "streetTypeId": "RD",
        "placeName": "OSHAWA",
        "streetNameDisplayText": "TOWNLINE RD S, OSHAWA"
      }
    ]
  },
  {
    "postal": "L1K8B6",
    "result": []
  },
  {
    "postal": "L1K6H1",
    "result": []
  },
  {
    "postal": "L1K8T8",
    "result": []
  },
  {
    "postal": "L1K0T4",
    "result": []
  },
  {
    "postal": "L1K2C4",
    "result": [
      {
        "electoralDistricts": [
          {
            "election": null,
            "id": 77,
            "name": "Oshawa"
          }
        ],
        "pollDivisionIds": [
          10140503
        ],
        "postalCode": "L1K2C4",
        "streetName": "PEGGOTY",
        "streetDirectionId": null,
        "streetTypeId": "CIR",
        "placeName": "OSHAWA",
        "streetNameDisplayText": "PEGGOTY CIR, OSHAWA"
      }
    ]
  },
  {
    "postal": "L1K8N3",
    "result": []
  },
  {
    "postal": "L1K4L8",
    "result": []
  },
  {
    "postal": "L1K2B5",
    "result": [
      {
        "electoralDistricts": [
          {
            "election": null,
            "id": 24,
            "name": "Durham"
          }
        ],
        "pollDivisionIds": [
          10137866
        ],
        "postalCode": "L1K2B5",
        "streetName": "KELLY",
        "streetDirectionId": null,
        "streetTypeId": "AVE",
        "placeName": "OSHAWA",
        "streetNameDisplayText": "KELLY AVE, OSHAWA"
      },
      {
        "electoralDistricts": [
          {
            "election": null,
            "id": 24,
            "name": "Durham"
          }
        ],
        "pollDivisionIds": [
          10137866
        ],
        "postalCode": "L1K2B5",
        "streetName": "LAWLOR",
        "streetDirectionId": null,
        "streetTypeId": "AVE",
        "placeName": "OSHAWA",
        "streetNameDisplayText": "LAWLOR AVE, OSHAWA"
      }
    ]
  },
  {
    "postal": "L1K3H1",
    "result": []
  },
  {
    "postal": "L1K4Y1",
    "result": []
  },
  {
    "postal": "L1K7E2",
    "result": []
  },
  {
    "postal": "L1K2P5",
    "result": [
      {
        "electoralDistricts": [
          {
            "election": null,
            "id": 24,
            "name": "Durham"
          }
        ],
        "pollDivisionIds": [
          10137869
        ],
        "postalCode": "L1K2P5",
        "streetName": "BRIDGEPORT",
        "streetDirectionId": null,
        "streetTypeId": "ST",
        "placeName": "OSHAWA",
        "streetNameDisplayText": "BRIDGEPORT ST, OSHAWA"
      },
      {
        "electoralDistricts": [
          {
            "election": null,
            "id": 24,
            "name": "Durham"
          }
        ],
        "pollDivisionIds": [
          10137869
        ],
        "postalCode": "L1K2P5",
        "streetName": "MIDDLEBURY",
        "streetDirectionId": null,
        "streetTypeId": "AVE",
        "placeName": "OSHAWA",
        "streetNameDisplayText": "MIDDLEBURY AVE, OSHAWA"
      }
    ]
  },
  {
    "postal": "L1K8R7",
    "result": []
  },
  {
    "postal": "L1K9P1",
    "result": []
  },
  {
    "postal": "L1K3B8",
    "result": [
      {
        "electoralDistricts": [
          {
            "election": null,
            "id": 24,
            "name": "Durham"
          }
        ],
        "pollDivisionIds": [
          10137866
        ],
        "postalCode": "L1K3B8",
        "streetName": "ROCKCREEK",
        "streetDirectionId": null,
        "streetTypeId": "DR",
        "placeName": "OSHAWA",
        "streetNameDisplayText": "ROCKCREEK DR, OSHAWA"
      }
    ]
  },
  {
    "postal": "L1K3P7",
    "result": []
  },
  {
    "postal": "L1K9B2",
    "result": []
  },
  {
    "postal": "L1K6Z3",
    "result": []
  },
  {
    "postal": "L1K4N5",
    "result": []
  },
  {
    "postal": "L1K8T3",
    "result": []
  },
  {
    "postal": "L1K1V2",
    "result": [
      {
        "electoralDistricts": [
          {
            "election": null,
            "id": 77,
            "name": "Oshawa"
          }
        ],
        "pollDivisionIds": [
          10140492
        ],
        "postalCode": "L1K1V2",
        "streetName": "BENNETT",
        "streetDirectionId": null,
        "streetTypeId": "CRT",
        "placeName": "OSHAWA",
        "streetNameDisplayText": "BENNETT CRT, OSHAWA"
      }
    ]
  },
  {
    "postal": "L1K1Y0",
    "result": []
  },
  {
    "postal": "L1K3G6",
    "result": []
  },
  {
    "postal": "L1K3H7",
    "result": []
  },
  {
    "postal": "L1K7X8",
    "result": []
  },
  {
    "postal": "L1K0C7",
    "result": [
      {
        "electoralDistricts": [
          {
            "election": null,
            "id": 77,
            "name": "Oshawa"
          }
        ],
        "pollDivisionIds": [
          10143689
        ],
        "postalCode": "L1K0C7",
        "streetName": "BAYNES",
        "streetDirectionId": null,
        "streetTypeId": "AVE",
        "placeName": "OSHAWA",
        "streetNameDisplayText": "BAYNES AVE, OSHAWA"
      },
      {
        "electoralDistricts": [
          {
            "election": null,
            "id": 77,
            "name": "Oshawa"
          }
        ],
        "pollDivisionIds": [
          10143689
        ],
        "postalCode": "L1K0C7",
        "streetName": "MADDOCK",
        "streetDirectionId": null,
        "streetTypeId": "CRT",
        "placeName": "OSHAWA",
        "streetNameDisplayText": "MADDOCK CRT, OSHAWA"
      }
    ]
  },
  {
    "postal": "L1K0W9",
    "result": [
      {
        "electoralDistricts": [
          {
            "election": null,
            "id": 24,
            "name": "Durham"
          }
        ],
        "pollDivisionIds": [
          10137868
        ],
        "postalCode": "L1K0W9",
        "streetName": "CHEESEWRIGHT",
        "streetDirectionId": null,
        "streetTypeId": "CRT",
        "placeName": "OSHAWA",
        "streetNameDisplayText": "CHEESEWRIGHT CRT, OSHAWA"
      },
      {
        "electoralDistricts": [
          {
            "election": null,
            "id": 24,
            "name": "Durham"
          }
        ],
        "pollDivisionIds": [
          10137868
        ],
        "postalCode": "L1K0W9",
        "streetName": "WOODSTREAM",
        "streetDirectionId": null,
        "streetTypeId": "AVE",
        "placeName": "OSHAWA",
        "streetNameDisplayText": "WOODSTREAM AVE, OSHAWA"
      }
    ]
  },
  {
    "postal": "L1K8E6",
    "result": []
  },
  {
    "postal": "L1K9Z8",
    "result": []
  },
  {
    "postal": "L1K3P4",
    "result": []
  },
  {
    "postal": "L1K6L8",
    "result": []
  },
  {
    "postal": "L1K2R4",
    "result": [
      {
        "electoralDistricts": [
          {
            "election": null,
            "id": 24,
            "name": "Durham"
          }
        ],
        "pollDivisionIds": [
          10137869
        ],
        "postalCode": "L1K2R4",
        "streetName": "ARBORWOOD",
        "streetDirectionId": null,
        "streetTypeId": "DR",
        "placeName": "OSHAWA",
        "streetNameDisplayText": "ARBORWOOD DR, OSHAWA"
      },
      {
        "electoralDistricts": [
          {
            "election": null,
            "id": 24,
            "name": "Durham"
          }
        ],
        "pollDivisionIds": [
          10137869
        ],
        "postalCode": "L1K2R4",
        "streetName": "OAKHILL",
        "streetDirectionId": null,
        "streetTypeId": "AVE",
        "placeName": "OSHAWA",
        "streetNameDisplayText": "OAKHILL AVE, OSHAWA"
      }
    ]
  },
  {
    "postal": "L1K2W1",
    "result": [
      {
        "electoralDistricts": [
          {
            "election": null,
            "id": 77,
            "name": "Oshawa"
          }
        ],
        "pollDivisionIds": [
          10140504
        ],
        "postalCode": "L1K2W1",
        "streetName": "LANGFORD",
        "streetDirectionId": null,
        "streetTypeId": "ST",
        "placeName": "OSHAWA",
        "streetNameDisplayText": "LANGFORD ST, OSHAWA"
      }
    ]
  },
  {
    "postal": "L1K9H8",
    "result": []
  },
  {
    "postal": "L1K8X9",
    "result": []
  },
  {
    "postal": "L1K7H4",
    "result": []
  },
  {
    "postal": "L1K3J1",
    "result": []
  },
  {
    "postal": "L1K1P4",
    "result": [
      {
        "electoralDistricts": [
          {
            "election": null,
            "id": 77,
            "name": "Oshawa"
          }
        ],
        "pollDivisionIds": [
          10140504
        ],
        "postalCode": "L1K1P4",
        "streetName": "PINETREE",
        "streetDirectionId": null,
        "streetTypeId": "CRT",
        "placeName": "OSHAWA",
        "streetNameDisplayText": "PINETREE CRT, OSHAWA"
      }
    ]
  },
  {
    "postal": "L1K2A3",
    "result": [
      {
        "electoralDistricts": [
          {
            "election": null,
            "id": 77,
            "name": "Oshawa"
          }
        ],
        "pollDivisionIds": [
          10140504
        ],
        "postalCode": "L1K2A3",
        "streetName": "KILMAURS",
        "streetDirectionId": null,
        "streetTypeId": "AVE",
        "placeName": "OSHAWA",
        "streetNameDisplayText": "KILMAURS AVE, OSHAWA"
      }
    ]
  },
  {
    "postal": "L1K0Z1",
    "result": [
      {
        "electoralDistricts": [
          {
            "election": null,
            "id": 24,
            "name": "Durham"
          }
        ],
        "pollDivisionIds": [
          10137868
        ],
        "postalCode": "L1K0Z1",
        "streetName": "GRANDVIEW",
        "streetDirectionId": "N",
        "streetTypeId": "ST",
        "placeName": "OSHAWA",
        "streetNameDisplayText": "GRANDVIEW ST N, OSHAWA"
      }
    ]
  },
  {
    "postal": "L1K1C1",
    "result": [
      {
        "electoralDistricts": [
          {
            "election": null,
            "id": 77,
            "name": "Oshawa"
          }
        ],
        "pollDivisionIds": [
          10140504
        ],
        "postalCode": "L1K1C1",
        "streetName": "FLEETWOOD",
        "streetDirectionId": null,
        "streetTypeId": "DR",
        "placeName": "OSHAWA",
        "streetNameDisplayText": "FLEETWOOD DR, OSHAWA"
      }
    ]
  },
  {
    "postal": "L1K0H3",
    "result": [
      {
        "electoralDistricts": [
          {
            "election": null,
            "id": 24,
            "name": "Durham"
          }
        ],
        "pollDivisionIds": [
          10137868
        ],
        "postalCode": "L1K0H3",
        "streetName": "BADGLEY",
        "streetDirectionId": null,
        "streetTypeId": "DR",
        "placeName": "OSHAWA",
        "streetNameDisplayText": "BADGLEY DR, OSHAWA"
      },
      {
        "electoralDistricts": [
          {
            "election": null,
            "id": 24,
            "name": "Durham"
          }
        ],
        "pollDivisionIds": [
          10137868
        ],
        "postalCode": "L1K0H3",
        "streetName": "DOCKING",
        "streetDirectionId": null,
        "streetTypeId": "CRT",
        "placeName": "OSHAWA",
        "streetNameDisplayText": "DOCKING CRT, OSHAWA"
      }
    ]
  },
  {
    "postal": "L1K7B0",
    "result": []
  },
  {
    "postal": "L1K5K2",
    "result": []
  },
  {
    "postal": "L1K1E9",
    "result": [
      {
        "electoralDistricts": [
          {
            "election": null,
            "id": 77,
            "name": "Oshawa"
          }
        ],
        "pollDivisionIds": [
          10140504
        ],
        "postalCode": "L1K1E9",
        "streetName": "ELDORADO",
        "streetDirectionId": null,
        "streetTypeId": "AVE",
        "placeName": "OSHAWA",
        "streetNameDisplayText": "ELDORADO AVE, OSHAWA"
      }
    ]
  },
  {
    "postal": "L1K9W7",
    "result": []
  },
  {
    "postal": "L1K5W6",
    "result": []
  },
  {
    "postal": "L1K6S6",
    "result": []
  },
  {
    "postal": "L1K2P8",
    "result": [
      {
        "electoralDistricts": [
          {
            "election": null,
            "id": 77,
            "name": "Oshawa"
          }
        ],
        "pollDivisionIds": [
          10140493
        ],
        "postalCode": "L1K2P8",
        "streetName": "GLENBOURNE",
        "streetDirectionId": null,
        "streetTypeId": "CRT",
        "placeName": "OSHAWA",
        "streetNameDisplayText": "GLENBOURNE CRT, OSHAWA"
      },
      {
        "electoralDistricts": [
          {
            "election": null,
            "id": 77,
            "name": "Oshawa"
          }
        ],
        "pollDivisionIds": [
          10140493
        ],
        "postalCode": "L1K2P8",
        "streetName": "ROSEHEATH",
        "streetDirectionId": null,
        "streetTypeId": "ST",
        "placeName": "OSHAWA",
        "streetNameDisplayText": "ROSEHEATH ST, OSHAWA"
      }
    ]
  },
  {
    "postal": "L1K4P8",
    "result": []
  },
  {
    "postal": "L1K0V9",
    "result": [
      {
        "electoralDistricts": [
          {
            "election": null,
            "id": 24,
            "name": "Durham"
          }
        ],
        "pollDivisionIds": [
          10137867
        ],
        "postalCode": "L1K0V9",
        "streetName": "CLEARBROOK",
        "streetDirectionId": null,
        "streetTypeId": "DR",
        "placeName": "OSHAWA",
        "streetNameDisplayText": "CLEARBROOK DR, OSHAWA"
      },
      {
        "electoralDistricts": [
          {
            "election": null,
            "id": 24,
            "name": "Durham"
          }
        ],
        "pollDivisionIds": [
          10137867,
          10137849
        ],
        "postalCode": "L1K0V9",
        "streetName": "GROVELAND",
        "streetDirectionId": null,
        "streetTypeId": "AVE",
        "placeName": "OSHAWA",
        "streetNameDisplayText": "GROVELAND AVE, OSHAWA"
      },
      {
        "electoralDistricts": [
          {
            "election": null,
            "id": 24,
            "name": "Durham"
          }
        ],
        "pollDivisionIds": [
          10137867
        ],
        "postalCode": "L1K0V9",
        "streetName": "JACK GLENN",
        "streetDirectionId": null,
        "streetTypeId": "ST",
        "placeName": "OSHAWA",
        "streetNameDisplayText": "JACK GLENN ST, OSHAWA"
      },
      {
        "electoralDistricts": [
          {
            "election": null,
            "id": 24,
            "name": "Durham"
          }
        ],
        "pollDivisionIds": [
          10137867
        ],
        "postalCode": "L1K0V9",
        "streetName": "WRENWOOD",
        "streetDirectionId": null,
        "streetTypeId": "DR",
        "placeName": "OSHAWA",
        "streetNameDisplayText": "WRENWOOD DR, OSHAWA"
      }
    ]
  },
  {
    "postal": "L1K5Y2",
    "result": []
  },
  {
    "postal": "L1K7Z7",
    "result": []
  },
  {
    "postal": "L1K6Y8",
    "result": []
  },
  {
    "postal": "L1K2G7",
    "result": [
      {
        "electoralDistricts": [
          {
            "election": null,
            "id": 77,
            "name": "Oshawa"
          }
        ],
        "pollDivisionIds": [
          10140492
        ],
        "postalCode": "L1K2G7",
        "streetName": "GREENLANE",
        "streetDirectionId": null,
        "streetTypeId": "DR",
        "placeName": "OSHAWA",
        "streetNameDisplayText": "GREENLANE DR, OSHAWA"
      },
      {
        "electoralDistricts": [
          {
            "election": null,
            "id": 77,
            "name": "Oshawa"
          }
        ],
        "pollDivisionIds": [
          10140492
        ],
        "postalCode": "L1K2G7",
        "streetName": "IDYLWOOD",
        "streetDirectionId": null,
        "streetTypeId": "CRT",
        "placeName": "OSHAWA",
        "streetNameDisplayText": "IDYLWOOD CRT, OSHAWA"
      }
    ]
  },
  {
    "postal": "L1K8C1",
    "result": []
  },
  {
    "postal": "L1K5C5",
    "result": []
  },
  {
    "postal": "L1K2X8",
    "result": [
      {
        "electoralDistricts": [
          {
            "election": null,
            "id": 77,
            "name": "Oshawa"
          }
        ],
        "pollDivisionIds": [
          10143689
        ],
        "postalCode": "L1K2X8",
        "streetName": "TALL PINE",
        "streetDirectionId": null,
        "streetTypeId": "AVE",
        "placeName": "OSHAWA",
        "streetNameDisplayText": "TALL PINE AVE, OSHAWA"
      }
    ]
  },
  {
    "postal": "L1K1W5",
    "result": [
      {
        "electoralDistricts": [
          {
            "election": null,
            "id": 77,
            "name": "Oshawa"
          }
        ],
        "pollDivisionIds": [
          10140492
        ],
        "postalCode": "L1K1W5",
        "streetName": "LAVIS",
        "streetDirectionId": null,
        "streetTypeId": "CRT",
        "placeName": "OSHAWA",
        "streetNameDisplayText": "LAVIS CRT, OSHAWA"
      }
    ]
  },
  {
    "postal": "L1K7G0",
    "result": []
  },
  {
    "postal": "L1K8J8",
    "result": []
  },
  {
    "postal": "L1K3Y0",
    "result": []
  },
  {
    "postal": "L1K9T7",
    "result": []
  },
  {
    "postal": "L1K5P4",
    "result": []
  },
  {
    "postal": "L1K4B0",
    "result": []
  },
  {
    "postal": "L1K9N8",
    "result": []
  },
  {
    "postal": "L1K4A7",
    "result": []
  },
  {
    "postal": "L1K4H9",
    "result": []
  },
  {
    "postal": "L1K6X1",
    "result": []
  },
  {
    "postal": "L1K9Y7",
    "result": []
  },
  {
    "postal": "L1K2Y5",
    "result": [
      {
        "electoralDistricts": [
          {
            "election": null,
            "id": 24,
            "name": "Durham"
          }
        ],
        "pollDivisionIds": [
          10137869
        ],
        "postalCode": "L1K2Y5",
        "streetName": "ALDERGROVE",
        "streetDirectionId": null,
        "streetTypeId": "CRT",
        "placeName": "OSHAWA",
        "streetNameDisplayText": "ALDERGROVE CRT, OSHAWA"
      },
      {
        "electoralDistricts": [
          {
            "election": null,
            "id": 24,
            "name": "Durham"
          }
        ],
        "pollDivisionIds": [
          10137869
        ],
        "postalCode": "L1K2Y5",
        "streetName": "ARBORWOOD",
        "streetDirectionId": null,
        "streetTypeId": "DR",
        "placeName": "OSHAWA",
        "streetNameDisplayText": "ARBORWOOD DR, OSHAWA"
      }
    ]
  },
  {
    "postal": "L1K8L7",
    "result": []
  },
  {
    "postal": "L1K2A8",
    "result": [
      {
        "electoralDistricts": [
          {
            "election": null,
            "id": 77,
            "name": "Oshawa"
          }
        ],
        "pollDivisionIds": [
          10140493
        ],
        "postalCode": "L1K2A8",
        "streetName": "PINECREST",
        "streetDirectionId": null,
        "streetTypeId": "RD",
        "placeName": "OSHAWA",
        "streetNameDisplayText": "PINECREST RD, OSHAWA"
      }
    ]
  },
  {
    "postal": "L1K2K9",
    "result": [
      {
        "electoralDistricts": [
          {
            "election": null,
            "id": 77,
            "name": "Oshawa"
          }
        ],
        "pollDivisionIds": [
          10140493
        ],
        "postalCode": "L1K2K9",
        "streetName": "FOREST HILL",
        "streetDirectionId": null,
        "streetTypeId": "CRT",
        "placeName": "OSHAWA",
        "streetNameDisplayText": "FOREST HILL CRT, OSHAWA"
      },
      {
        "electoralDistricts": [
          {
            "election": null,
            "id": 77,
            "name": "Oshawa"
          }
        ],
        "pollDivisionIds": [
          10143689,
          10140493
        ],
        "postalCode": "L1K2K9",
        "streetName": "RIDGEMOUNT",
        "streetDirectionId": null,
        "streetTypeId": "BLVD",
        "placeName": "OSHAWA",
        "streetNameDisplayText": "RIDGEMOUNT BLVD, OSHAWA"
      }
    ]
  },
  {
    "postal": "L1K3E5",
    "result": []
  },
  {
    "postal": "L1K8N6",
    "result": []
  },
  {
    "postal": "L1K8J4",
    "result": []
  },
  {
    "postal": "L1K4R7",
    "result": []
  },
  {
    "postal": "L1K9K1",
    "result": []
  },
  {
    "postal": "L1K8E1",
    "result": []
  },
  {
    "postal": "L1K0R1",
    "result": [
      {
        "electoralDistricts": [
          {
            "election": null,
            "id": 24,
            "name": "Durham"
          }
        ],
        "pollDivisionIds": [
          10137867
        ],
        "postalCode": "L1K0R1",
        "streetName": "MCCUE",
        "streetDirectionId": null,
        "streetTypeId": "DR",
        "placeName": "OSHAWA",
        "streetNameDisplayText": "MCCUE DR, OSHAWA"
      }
    ]
  },
  {
    "postal": "L1K4J3",
    "result": []
  },
  {
    "postal": "L1K7E7",
    "result": []
  },
  {
    "postal": "L1K0J0",
    "result": []
  },
  {
    "postal": "L1K7R8",
    "result": []
  },
  {
    "postal": "L1K9X0",
    "result": []
  },
  {
    "postal": "L1K7P6",
    "result": []
  },
  {
    "postal": "L1K0R7",
    "result": [
      {
        "electoralDistricts": [
          {
            "election": null,
            "id": 24,
            "name": "Durham"
          }
        ],
        "pollDivisionIds": [
          10137868
        ],
        "postalCode": "L1K0R7",
        "streetName": "ARBORWOOD",
        "streetDirectionId": null,
        "streetTypeId": "DR",
        "placeName": "OSHAWA",
        "streetNameDisplayText": "ARBORWOOD DR, OSHAWA"
      },
      {
        "electoralDistricts": [
          {
            "election": null,
            "id": 24,
            "name": "Durham"
          }
        ],
        "pollDivisionIds": [
          10137868
        ],
        "postalCode": "L1K0R7",
        "streetName": "SALMERS",
        "streetDirectionId": null,
        "streetTypeId": "DR",
        "placeName": "OSHAWA",
        "streetNameDisplayText": "SALMERS DR, OSHAWA"
      }
    ]
  },
  {
    "postal": "L1K5W1",
    "result": []
  },
  {
    "postal": "L1K0K4",
    "result": [
      {
        "electoralDistricts": [
          {
            "election": null,
            "id": 24,
            "name": "Durham"
          }
        ],
        "pollDivisionIds": [
          10137865
        ],
        "postalCode": "L1K0K4",
        "streetName": "WOODMOUNT",
        "streetDirectionId": null,
        "streetTypeId": "DR",
        "placeName": "OSHAWA",
        "streetNameDisplayText": "WOODMOUNT DR, OSHAWA"
      }
    ]
  },
  {
    "postal": "L1K7N9",
    "result": []
  },
  {
    "postal": "L1K1N0",
    "result": []
  },
  {
    "postal": "L1K6P3",
    "result": []
  },
  {
    "postal": "L1K5A1",
    "result": []
  },
  {
    "postal": "L1K9M9",
    "result": []
  },
  {
    "postal": "L1K7T6",
    "result": []
  },
  {
    "postal": "L1K3X0",
    "result": []
  },
  {
    "postal": "L1K2T0",
    "result": []
  },
  {
    "postal": "L1K5X9",
    "result": []
  },
  {
    "postal": "L1K2R3",
    "result": [
      {
        "electoralDistricts": [
          {
            "election": null,
            "id": 24,
            "name": "Durham"
          }
        ],
        "pollDivisionIds": [
          10137869
        ],
        "postalCode": "L1K2R3",
        "streetName": "ARBORWOOD",
        "streetDirectionId": null,
        "streetTypeId": "DR",
        "placeName": "OSHAWA",
        "streetNameDisplayText": "ARBORWOOD DR, OSHAWA"
      },
      {
        "electoralDistricts": [
          {
            "election": null,
            "id": 24,
            "name": "Durham"
          }
        ],
        "pollDivisionIds": [
          10137869
        ],
        "postalCode": "L1K2R3",
        "streetName": "LEACOCK",
        "streetDirectionId": null,
        "streetTypeId": "CRT",
        "placeName": "OSHAWA",
        "streetNameDisplayText": "LEACOCK CRT, OSHAWA"
      }
    ]
  },
  {
    "postal": "L1K5N2",
    "result": []
  },
  {
    "postal": "L1K4Y7",
    "result": []
  },
  {
    "postal": "L1K7M0",
    "result": []
  },
  {
    "postal": "L1K8P3",
    "result": []
  },
  {
    "postal": "L1K3N3",
    "result": []
  },
  {
    "postal": "L1K7S3",
    "result": []
  },
  {
    "postal": "L1K3V9",
    "result": []
  },
  {
    "postal": "L1K9N7",
    "result": []
  },
  {
    "postal": "L1K0G4",
    "result": [
      {
        "electoralDistricts": [
          {
            "election": null,
            "id": 77,
            "name": "Oshawa"
          }
        ],
        "pollDivisionIds": [
          10143689
        ],
        "postalCode": "L1K0G4",
        "streetName": "STIRE",
        "streetDirectionId": null,
        "streetTypeId": "ST",
        "placeName": "OSHAWA",
        "streetNameDisplayText": "STIRE ST, OSHAWA"
      },
      {
        "electoralDistricts": [
          {
            "election": null,
            "id": 77,
            "name": "Oshawa"
          }
        ],
        "pollDivisionIds": [
          10143689
        ],
        "postalCode": "L1K0G4",
        "streetName": "TALL PINE",
        "streetDirectionId": null,
        "streetTypeId": "AVE",
        "placeName": "OSHAWA",
        "streetNameDisplayText": "TALL PINE AVE, OSHAWA"
      }
    ]
  },
  {
    "postal": "L1K2E2",
    "result": [
      {
        "electoralDistricts": [
          {
            "election": null,
            "id": 77,
            "name": "Oshawa"
          }
        ],
        "pollDivisionIds": [
          10143689
        ],
        "postalCode": "L1K2E2",
        "streetName": "GRANDVIEW",
        "streetDirectionId": "N",
        "streetTypeId": "ST",
        "placeName": "OSHAWA",
        "streetNameDisplayText": "GRANDVIEW ST N, OSHAWA"
      },
      {
        "electoralDistricts": [
          {
            "election": null,
            "id": 77,
            "name": "Oshawa"
          }
        ],
        "pollDivisionIds": [
          10143689
        ],
        "postalCode": "L1K2E2",
        "streetName": "RIDGE VALLEY",
        "streetDirectionId": null,
        "streetTypeId": "DR",
        "placeName": "OSHAWA",
        "streetNameDisplayText": "RIDGE VALLEY DR, OSHAWA"
      }
    ]
  },
  {
    "postal": "L1K7W8",
    "result": []
  },
  {
    "postal": "L1K7M5",
    "result": []
  },
  {
    "postal": "L1K5W8",
    "result": []
  },
  {
    "postal": "L1K5E5",
    "result": []
  },
  {
    "postal": "L1K1P9",
    "result": [
      {
        "electoralDistricts": [
          {
            "election": null,
            "id": 77,
            "name": "Oshawa"
          }
        ],
        "pollDivisionIds": [
          10140492
        ],
        "postalCode": "L1K1P9",
        "streetName": "ATTERSLEY",
        "streetDirectionId": null,
        "streetTypeId": "DR",
        "placeName": "OSHAWA",
        "streetNameDisplayText": "ATTERSLEY DR, OSHAWA"
      }
    ]
  },
  {
    "postal": "L1K8V8",
    "result": []
  },
  {
    "postal": "L1K9G8",
    "result": []
  },
  {
    "postal": "L1K8H9",
    "result": []
  },
  {
    "postal": "L1K1Z1",
    "result": [
      {
        "electoralDistricts": [
          {
            "election": null,
            "id": 77,
            "name": "Oshawa"
          }
        ],
        "pollDivisionIds": [
          10143689
        ],
        "postalCode": "L1K1Z1",
        "streetName": "CORBETTS",
        "streetDirectionId": null,
        "streetTypeId": "RD",
        "placeName": "OSHAWA",
        "streetNameDisplayText": "CORBETTS RD, OSHAWA"
      },
      {
        "electoralDistricts": [
          {
            "election": null,
            "id": 77,
            "name": "Oshawa"
          }
        ],
        "pollDivisionIds": [
          10143689
        ],
        "postalCode": "L1K1Z1",
        "streetName": "CORBETT'S",
        "streetDirectionId": null,
        "streetTypeId": "RD",
        "placeName": "OSHAWA",
        "streetNameDisplayText": "CORBETT'S RD, OSHAWA"
      }
    ]
  },
  {
    "postal": "L1K8M3",
    "result": []
  },
  {
    "postal": "L1K5H6",
    "result": []
  },
  {
    "postal": "L1K7W7",
    "result": []
  },
  {
    "postal": "L1K4L0",
    "result": []
  },
  {
    "postal": "L1K2N1",
    "result": [
      {
        "electoralDistricts": [
          {
            "election": null,
            "id": 77,
            "name": "Oshawa"
          }
        ],
        "pollDivisionIds": [
          10143689
        ],
        "postalCode": "L1K2N1",
        "streetName": "GRANDLEA",
        "streetDirectionId": null,
        "streetTypeId": "CRT",
        "placeName": "OSHAWA",
        "streetNameDisplayText": "GRANDLEA CRT, OSHAWA"
      },
      {
        "electoralDistricts": [
          {
            "election": null,
            "id": 77,
            "name": "Oshawa"
          }
        ],
        "pollDivisionIds": [
          10143689
        ],
        "postalCode": "L1K2N1",
        "streetName": "GRANDVIEW",
        "streetDirectionId": "N",
        "streetTypeId": "ST",
        "placeName": "OSHAWA",
        "streetNameDisplayText": "GRANDVIEW ST N, OSHAWA"
      }
    ]
  },
  {
    "postal": "L1K2H4",
    "result": []
  },
  {
    "postal": "L1K5C8",
    "result": []
  },
  {
    "postal": "L1K8B0",
    "result": []
  },
  {
    "postal": "L1K1T4",
    "result": [
      {
        "electoralDistricts": [
          {
            "election": null,
            "id": 77,
            "name": "Oshawa"
          }
        ],
        "pollDivisionIds": [
          10140492
        ],
        "postalCode": "L1K1T4",
        "streetName": "ATTERSLEY",
        "streetDirectionId": null,
        "streetTypeId": "DR",
        "placeName": "OSHAWA",
        "streetNameDisplayText": "ATTERSLEY DR, OSHAWA"
      },
      {
        "electoralDistricts": [
          {
            "election": null,
            "id": 77,
            "name": "Oshawa"
          }
        ],
        "pollDivisionIds": [
          10140492
        ],
        "postalCode": "L1K1T4",
        "streetName": "PASCOE",
        "streetDirectionId": null,
        "streetTypeId": "CRT",
        "placeName": "OSHAWA",
        "streetNameDisplayText": "PASCOE CRT, OSHAWA"
      }
    ]
  },
  {
    "postal": "L1K7N7",
    "result": []
  },
  {
    "postal": "L1K4L3",
    "result": []
  },
  {
    "postal": "L1K2N2",
    "result": [
      {
        "electoralDistricts": [
          {
            "election": null,
            "id": 77,
            "name": "Oshawa"
          }
        ],
        "pollDivisionIds": [
          10140504
        ],
        "postalCode": "L1K2N2",
        "streetName": "ALDERSHOT",
        "streetDirectionId": null,
        "streetTypeId": "DR",
        "placeName": "OSHAWA",
        "streetNameDisplayText": "ALDERSHOT DR, OSHAWA"
      },
      {
        "electoralDistricts": [
          {
            "election": null,
            "id": 77,
            "name": "Oshawa"
          }
        ],
        "pollDivisionIds": [
          10140504
        ],
        "postalCode": "L1K2N2",
        "streetName": "HARTGROVE",
        "streetDirectionId": null,
        "streetTypeId": "LANE",
        "placeName": "OSHAWA",
        "streetNameDisplayText": "HARTGROVE LANE, OSHAWA"
      }
    ]
  },
  {
    "postal": "L1K4N8",
    "result": []
  },
  {
    "postal": "L1K3M5",
    "result": []
  },
  {
    "postal": "L1K6H7",
    "result": []
  },
  {
    "postal": "L1K8Y8",
    "result": []
  },
  {
    "postal": "L1K5R9",
    "result": []
  },
  {
    "postal": "L1K8G3",
    "result": []
  },
  {
    "postal": "L1K4N7",
    "result": []
  },
  {
    "postal": "L1K0B9",
    "result": [
      {
        "electoralDistricts": [
          {
            "election": null,
            "id": 24,
            "name": "Durham"
          }
        ],
        "pollDivisionIds": [
          10137863
        ],
        "postalCode": "L1K0B9",
        "streetName": "FALCONRIDGE",
        "streetDirectionId": null,
        "streetTypeId": "DR",
        "placeName": "OSHAWA",
        "streetNameDisplayText": "FALCONRIDGE DR, OSHAWA"
      },
      {
        "electoralDistricts": [
          {
            "election": null,
            "id": 24,
            "name": "Durham"
          }
        ],
        "pollDivisionIds": [
          10137863
        ],
        "postalCode": "L1K0B9",
        "streetName": "NORTHFIELD",
        "streetDirectionId": null,
        "streetTypeId": "AVE",
        "placeName": "OSHAWA",
        "streetNameDisplayText": "NORTHFIELD AVE, OSHAWA"
      }
    ]
  },
  {
    "postal": "L1K9K7",
    "result": []
  },
  {
    "postal": "L1K9K9",
    "result": []
  },
  {
    "postal": "L1K3Z2",
    "result": []
  },
  {
    "postal": "L1K6W7",
    "result": []
  },
  {
    "postal": "L1K0P1",
    "result": [
      {
        "electoralDistricts": [
          {
            "election": null,
            "id": 24,
            "name": "Durham"
          }
        ],
        "pollDivisionIds": [
          10137868
        ],
        "postalCode": "L1K0P1",
        "streetName": "ARBORWOOD",
        "streetDirectionId": null,
        "streetTypeId": "DR",
        "placeName": "OSHAWA",
        "streetNameDisplayText": "ARBORWOOD DR, OSHAWA"
      }
    ]
  },
  {
    "postal": "L1K3A0",
    "result": []
  },
  {
    "postal": "L1K8L9",
    "result": []
  },
  {
    "postal": "L1K6X0",
    "result": []
  },
  {
    "postal": "L1K3E9",
    "result": []
  },
  {
    "postal": "L1K0S5",
    "result": [
      {
        "electoralDistricts": [
          {
            "election": null,
            "id": 77,
            "name": "Oshawa"
          }
        ],
        "pollDivisionIds": [
          10140503
        ],
        "postalCode": "L1K0S5",
        "streetName": "ALDSWORTH",
        "streetDirectionId": null,
        "streetTypeId": "CRES",
        "placeName": "OSHAWA",
        "streetNameDisplayText": "ALDSWORTH CRES, OSHAWA"
      }
    ]
  },
  {
    "postal": "L1K1A2",
    "result": []
  },
  {
    "postal": "L1K5V8",
    "result": []
  },
  {
    "postal": "L1K8C5",
    "result": []
  },
  {
    "postal": "L1K6N0",
    "result": []
  },
  {
    "postal": "L1K9E6",
    "result": []
  },
  {
    "postal": "L1K5J7",
    "result": []
  },
  {
    "postal": "L1K2R2",
    "result": [
      {
        "electoralDistricts": [
          {
            "election": null,
            "id": 24,
            "name": "Durham"
          }
        ],
        "pollDivisionIds": [
          10137869
        ],
        "postalCode": "L1K2R2",
        "streetName": "ARBORWOOD",
        "streetDirectionId": null,
        "streetTypeId": "DR",
        "placeName": "OSHAWA",
        "streetNameDisplayText": "ARBORWOOD DR, OSHAWA"
      },
      {
        "electoralDistricts": [
          {
            "election": null,
            "id": 24,
            "name": "Durham"
          }
        ],
        "pollDivisionIds": [
          10137869
        ],
        "postalCode": "L1K2R2",
        "streetName": "PARK RIDGE",
        "streetDirectionId": null,
        "streetTypeId": "DR",
        "placeName": "OSHAWA",
        "streetNameDisplayText": "PARK RIDGE DR, OSHAWA"
      }
    ]
  },
  {
    "postal": "L1K0P5",
    "result": [
      {
        "electoralDistricts": [
          {
            "election": null,
            "id": 24,
            "name": "Durham"
          }
        ],
        "pollDivisionIds": [
          10137867
        ],
        "postalCode": "L1K0P5",
        "streetName": "BLACK CHERRY",
        "streetDirectionId": null,
        "streetTypeId": "DR",
        "placeName": "OSHAWA",
        "streetNameDisplayText": "BLACK CHERRY DR, OSHAWA"
      }
    ]
  },
  {
    "postal": "L1K5A7",
    "result": []
  },
  {
    "postal": "L1K1G1",
    "result": [
      {
        "electoralDistricts": [
          {
            "election": null,
            "id": 77,
            "name": "Oshawa"
          }
        ],
        "pollDivisionIds": [
          10140504
        ],
        "postalCode": "L1K1G1",
        "streetName": "ELDORADO",
        "streetDirectionId": null,
        "streetTypeId": "AVE",
        "placeName": "OSHAWA",
        "streetNameDisplayText": "ELDORADO AVE, OSHAWA"
      }
    ]
  },
  {
    "postal": "L1K9R6",
    "result": []
  },
  {
    "postal": "L1K4Z9",
    "result": []
  },
  {
    "postal": "L1K1V5",
    "result": [
      {
        "electoralDistricts": [
          {
            "election": null,
            "id": 77,
            "name": "Oshawa"
          }
        ],
        "pollDivisionIds": [
          10140492
        ],
        "postalCode": "L1K1V5",
        "streetName": "ATTERSLEY",
        "streetDirectionId": null,
        "streetTypeId": "DR",
        "placeName": "OSHAWA",
        "streetNameDisplayText": "ATTERSLEY DR, OSHAWA"
      }
    ]
  },
  {
    "postal": "L1K9Y5",
    "result": []
  },
  {
    "postal": "L1K1P2",
    "result": [
      {
        "electoralDistricts": [
          {
            "election": null,
            "id": 77,
            "name": "Oshawa"
          }
        ],
        "pollDivisionIds": [
          10140504
        ],
        "postalCode": "L1K1P2",
        "streetName": "CRANBERRY",
        "streetDirectionId": null,
        "streetTypeId": "ST",
        "placeName": "OSHAWA",
        "streetNameDisplayText": "CRANBERRY ST, OSHAWA"
      }
    ]
  },
  {
    "postal": "L1K5X0",
    "result": []
  },
  {
    "postal": "L1K7B8",
    "result": []
  },
  {
    "postal": "L1K0C6",
    "result": [
      {
        "electoralDistricts": [
          {
            "election": null,
            "id": 77,
            "name": "Oshawa"
          }
        ],
        "pollDivisionIds": [
          10143689
        ],
        "postalCode": "L1K0C6",
        "streetName": "BAYNES",
        "streetDirectionId": null,
        "streetTypeId": "AVE",
        "placeName": "OSHAWA",
        "streetNameDisplayText": "BAYNES AVE, OSHAWA"
      },
      {
        "electoralDistricts": [
          {
            "election": null,
            "id": 77,
            "name": "Oshawa"
          }
        ],
        "pollDivisionIds": [
          10143689
        ],
        "postalCode": "L1K0C6",
        "streetName": "MADDOCK",
        "streetDirectionId": null,
        "streetTypeId": "DR",
        "placeName": "OSHAWA",
        "streetNameDisplayText": "MADDOCK DR, OSHAWA"
      }
    ]
  },
  {
    "postal": "L1K6G1",
    "result": []
  },
  {
    "postal": "L1K3K3",
    "result": []
  },
  {
    "postal": "L1K9R0",
    "result": []
  },
  {
    "postal": "L1K4R8",
    "result": []
  },
  {
    "postal": "L1K5P9",
    "result": []
  },
  {
    "postal": "L1K8N4",
    "result": []
  },
  {
    "postal": "L1K8H4",
    "result": []
  },
  {
    "postal": "L1K4V1",
    "result": []
  },
  {
    "postal": "L1K1K5",
    "result": [
      {
        "electoralDistricts": [
          {
            "election": null,
            "id": 77,
            "name": "Oshawa"
          }
        ],
        "pollDivisionIds": [
          10140503
        ],
        "postalCode": "L1K1K5",
        "streetName": "CAMELOT",
        "streetDirectionId": null,
        "streetTypeId": "DR",
        "placeName": "OSHAWA",
        "streetNameDisplayText": "CAMELOT DR, OSHAWA"
      }
    ]
  },
  {
    "postal": "L1K1Z5",
    "result": [
      {
        "electoralDistricts": [
          {
            "election": null,
            "id": 77,
            "name": "Oshawa"
          }
        ],
        "pollDivisionIds": [
          10143689
        ],
        "postalCode": "L1K1Z5",
        "streetName": "STONE COTTAGE",
        "streetDirectionId": null,
        "streetTypeId": "CRES",
        "placeName": "OSHAWA",
        "streetNameDisplayText": "STONE COTTAGE CRES, OSHAWA"
      }
    ]
  },
  {
    "postal": "L1K9L9",
    "result": []
  },
  {
    "postal": "L1K5L2",
    "result": []
  },
  {
    "postal": "L1K0M2",
    "result": [
      {
        "electoralDistricts": [
          {
            "election": null,
            "id": 77,
            "name": "Oshawa"
          }
        ],
        "pollDivisionIds": [
          10143689
        ],
        "postalCode": "L1K0M2",
        "streetName": "GLASPELL",
        "streetDirectionId": null,
        "streetTypeId": "CRES",
        "placeName": "OSHAWA",
        "streetNameDisplayText": "GLASPELL CRES, OSHAWA"
      },
      {
        "electoralDistricts": [
          {
            "election": null,
            "id": 77,
            "name": "Oshawa"
          }
        ],
        "pollDivisionIds": [
          10143689
        ],
        "postalCode": "L1K0M2",
        "streetName": "GYATT",
        "streetDirectionId": null,
        "streetTypeId": "CRES",
        "placeName": "OSHAWA",
        "streetNameDisplayText": "GYATT CRES, OSHAWA"
      }
    ]
  },
  {
    "postal": "L1K1K8",
    "result": [
      {
        "electoralDistricts": [
          {
            "election": null,
            "id": 77,
            "name": "Oshawa"
          }
        ],
        "pollDivisionIds": [
          10140502
        ],
        "postalCode": "L1K1K8",
        "streetName": "ROSSLAND",
        "streetDirectionId": "E",
        "streetTypeId": "RD",
        "placeName": "OSHAWA",
        "streetNameDisplayText": "ROSSLAND RD E, OSHAWA"
      },
      {
        "electoralDistricts": [
          {
            "election": null,
            "id": 77,
            "name": "Oshawa"
          }
        ],
        "pollDivisionIds": [
          10140496
        ],
        "postalCode": "L1K1K8",
        "streetName": "ROSSLAND",
        "streetDirectionId": "W",
        "streetTypeId": "RD",
        "placeName": "OSHAWA",
        "streetNameDisplayText": "ROSSLAND RD W, OSHAWA"
      }
    ]
  },
  {
    "postal": "L1K3M7",
    "result": []
  },
  {
    "postal": "L1K1B2",
    "result": [
      {
        "electoralDistricts": [
          {
            "election": null,
            "id": 77,
            "name": "Oshawa"
          }
        ],
        "pollDivisionIds": [
          10140514
        ],
        "postalCode": "L1K1B2",
        "streetName": "TOWNLINE",
        "streetDirectionId": "S",
        "streetTypeId": "RD",
        "placeName": "OSHAWA",
        "streetNameDisplayText": "TOWNLINE RD S, OSHAWA"
      }
    ]
  },
  {
    "postal": "L1K0H9",
    "result": [
      {
        "electoralDistricts": [
          {
            "election": null,
            "id": 24,
            "name": "Durham"
          }
        ],
        "pollDivisionIds": [
          10137866
        ],
        "postalCode": "L1K0H9",
        "streetName": "KINGSFIELD",
        "streetDirectionId": null,
        "streetTypeId": "AVE",
        "placeName": "OSHAWA",
        "streetNameDisplayText": "KINGSFIELD AVE, OSHAWA"
      },
      {
        "electoralDistricts": [
          {
            "election": null,
            "id": 24,
            "name": "Durham"
          }
        ],
        "pollDivisionIds": [
          10137866
        ],
        "postalCode": "L1K0H9",
        "streetName": "KINGSFIELD",
        "streetDirectionId": null,
        "streetTypeId": "LOOP",
        "placeName": "OSHAWA",
        "streetNameDisplayText": "KINGSFIELD LOOP, OSHAWA"
      }
    ]
  },
  {
    "postal": "L1K8M4",
    "result": []
  },
  {
    "postal": "L1K2M5",
    "result": [
      {
        "electoralDistricts": [
          {
            "election": null,
            "id": 77,
            "name": "Oshawa"
          }
        ],
        "pollDivisionIds": [
          10140493
        ],
        "postalCode": "L1K2M5",
        "streetName": "INTERLAKE",
        "streetDirectionId": null,
        "streetTypeId": "DR",
        "placeName": "OSHAWA",
        "streetNameDisplayText": "INTERLAKE DR, OSHAWA"
      },
      {
        "electoralDistricts": [
          {
            "election": null,
            "id": 77,
            "name": "Oshawa"
          }
        ],
        "pollDivisionIds": [
          10140493
        ],
        "postalCode": "L1K2M5",
        "streetName": "MATTERHORN",
        "streetDirectionId": null,
        "streetTypeId": "ST",
        "placeName": "OSHAWA",
        "streetNameDisplayText": "MATTERHORN ST, OSHAWA"
      }
    ]
  },
  {
    "postal": "L1K0T9",
    "result": [
      {
        "electoralDistricts": [
          {
            "election": null,
            "id": 24,
            "name": "Durham"
          }
        ],
        "pollDivisionIds": [
          10137868
        ],
        "postalCode": "L1K0T9",
        "streetName": "ARBORWOOD",
        "streetDirectionId": null,
        "streetTypeId": "DR",
        "placeName": "OSHAWA",
        "streetNameDisplayText": "ARBORWOOD DR, OSHAWA"
      },
      {
        "electoralDistricts": [
          {
            "election": null,
            "id": 24,
            "name": "Durham"
          }
        ],
        "pollDivisionIds": [
          10137868
        ],
        "postalCode": "L1K0T9",
        "streetName": "DUNEDIN",
        "streetDirectionId": null,
        "streetTypeId": "CRES",
        "placeName": "OSHAWA",
        "streetNameDisplayText": "DUNEDIN CRES, OSHAWA"
      }
    ]
  },
  {
    "postal": "L1K3P1",
    "result": []
  },
  {
    "postal": "L1K1R6",
    "result": [
      {
        "electoralDistricts": [
          {
            "election": null,
            "id": 77,
            "name": "Oshawa"
          }
        ],
        "pollDivisionIds": [
          10140492
        ],
        "postalCode": "L1K1R6",
        "streetName": "CRICKLEWOOD",
        "streetDirectionId": null,
        "streetTypeId": "DR",
        "placeName": "OSHAWA",
        "streetNameDisplayText": "CRICKLEWOOD DR, OSHAWA"
      }
    ]
  },
  {
    "postal": "L1K9V5",
    "result": []
  },
  {
    "postal": "L1K9T0",
    "result": []
  },
  {
    "postal": "L1K0A9",
    "result": [
      {
        "electoralDistricts": [
          {
            "election": null,
            "id": 24,
            "name": "Durham"
          }
        ],
        "pollDivisionIds": [
          10137868
        ],
        "postalCode": "L1K0A9",
        "streetName": "SALMERS",
        "streetDirectionId": null,
        "streetTypeId": "DR",
        "placeName": "OSHAWA",
        "streetNameDisplayText": "SALMERS DR, OSHAWA"
      }
    ]
  },
  {
    "postal": "L1K1M3",
    "result": [
      {
        "electoralDistricts": [
          {
            "election": null,
            "id": 77,
            "name": "Oshawa"
          }
        ],
        "pollDivisionIds": [
          10140503
        ],
        "postalCode": "L1K1M3",
        "streetName": "MERLIN",
        "streetDirectionId": null,
        "streetTypeId": "CRT",
        "placeName": "OSHAWA",
        "streetNameDisplayText": "MERLIN CRT, OSHAWA"
      }
    ]
  },
  {
    "postal": "L1K1W8",
    "result": [
      {
        "electoralDistricts": [
          {
            "election": null,
            "id": 77,
            "name": "Oshawa"
          }
        ],
        "pollDivisionIds": [
          10140492
        ],
        "postalCode": "L1K1W8",
        "streetName": "LAVIS",
        "streetDirectionId": null,
        "streetTypeId": "ST",
        "placeName": "OSHAWA",
        "streetNameDisplayText": "LAVIS ST, OSHAWA"
      },
      {
        "electoralDistricts": [
          {
            "election": null,
            "id": 77,
            "name": "Oshawa"
          }
        ],
        "pollDivisionIds": [
          10140492
        ],
        "postalCode": "L1K1W8",
        "streetName": "MOUNTJOY",
        "streetDirectionId": null,
        "streetTypeId": "CRT",
        "placeName": "OSHAWA",
        "streetNameDisplayText": "MOUNTJOY CRT, OSHAWA"
      }
    ]
  },
  {
    "postal": "L1K9J1",
    "result": []
  },
  {
    "postal": "L1K8N5",
    "result": []
  },
  {
    "postal": "L1K5X1",
    "result": []
  },
  {
    "postal": "L1K6S2",
    "result": []
  },
  {
    "postal": "L1K2A2",
    "result": [
      {
        "electoralDistricts": [
          {
            "election": null,
            "id": 77,
            "name": "Oshawa"
          }
        ],
        "pollDivisionIds": [
          10143689
        ],
        "postalCode": "L1K2A2",
        "streetName": "ROYAL ORCHARD",
        "streetDirectionId": null,
        "streetTypeId": "DR",
        "placeName": "OSHAWA",
        "streetNameDisplayText": "ROYAL ORCHARD DR, OSHAWA"
      }
    ]
  },
  {
    "postal": "L1K6A6",
    "result": []
  },
  {
    "postal": "L1K0S3",
    "result": [
      {
        "electoralDistricts": [
          {
            "election": null,
            "id": 24,
            "name": "Durham"
          }
        ],
        "pollDivisionIds": [
          10137867
        ],
        "postalCode": "L1K0S3",
        "streetName": "SCHOOLING",
        "streetDirectionId": null,
        "streetTypeId": "DR",
        "placeName": "OSHAWA",
        "streetNameDisplayText": "SCHOOLING DR, OSHAWA"
      }
    ]
  },
  {
    "postal": "L1K3E7",
    "result": []
  },
  {
    "postal": "L1K5R7",
    "result": []
  },
  {
    "postal": "L1K3R6",
    "result": []
  },
  {
    "postal": "L1K6K4",
    "result": []
  },
  {
    "postal": "L1K2W5",
    "result": [
      {
        "electoralDistricts": [
          {
            "election": null,
            "id": 77,
            "name": "Oshawa"
          }
        ],
        "pollDivisionIds": [
          10143689
        ],
        "postalCode": "L1K2W5",
        "streetName": "ASHGROVE",
        "streetDirectionId": null,
        "streetTypeId": "CRES",
        "placeName": "OSHAWA",
        "streetNameDisplayText": "ASHGROVE CRES, OSHAWA"
      }
    ]
  },
  {
    "postal": "L1K8W4",
    "result": []
  },
  {
    "postal": "L1K9C2",
    "result": []
  },
  {
    "postal": "L1K2C0",
    "result": []
  },
  {
    "postal": "L1K0E1",
    "result": [
      {
        "electoralDistricts": [
          {
            "election": null,
            "id": 24,
            "name": "Durham"
          }
        ],
        "pollDivisionIds": [
          10137867
        ],
        "postalCode": "L1K0E1",
        "streetName": "QUAIL RUN",
        "streetDirectionId": null,
        "streetTypeId": "DR",
        "placeName": "OSHAWA",
        "streetNameDisplayText": "QUAIL RUN DR, OSHAWA"
      },
      {
        "electoralDistricts": [
          {
            "election": null,
            "id": 24,
            "name": "Durham"
          }
        ],
        "pollDivisionIds": [
          10137867
        ],
        "postalCode": "L1K0E1",
        "streetName": "RED DEER",
        "streetDirectionId": null,
        "streetTypeId": "AVE",
        "placeName": "OSHAWA",
        "streetNameDisplayText": "RED DEER AVE, OSHAWA"
      }
    ]
  },
  {
    "postal": "L1K1K9",
    "result": [
      {
        "electoralDistricts": [
          {
            "election": null,
            "id": 77,
            "name": "Oshawa"
          }
        ],
        "pollDivisionIds": [
          10140504
        ],
        "postalCode": "L1K1K9",
        "streetName": "BLACKTHORN",
        "streetDirectionId": null,
        "streetTypeId": "ST",
        "placeName": "OSHAWA",
        "streetNameDisplayText": "BLACKTHORN ST, OSHAWA"
      }
    ]
  },
  {
    "postal": "L1K1G7",
    "result": [
      {
        "electoralDistricts": [
          {
            "election": null,
            "id": 77,
            "name": "Oshawa"
          }
        ],
        "pollDivisionIds": [
          10140504
        ],
        "postalCode": "L1K1G7",
        "streetName": "SKYLARK",
        "streetDirectionId": null,
        "streetTypeId": "AVE",
        "placeName": "OSHAWA",
        "streetNameDisplayText": "SKYLARK AVE, OSHAWA"
      }
    ]
  },
  {
    "postal": "L1K4E9",
    "result": []
  },
  {
    "postal": "L1K9P0",
    "result": []
  },
  {
    "postal": "L1K5H3",
    "result": []
  },
  {
    "postal": "L1K9X6",
    "result": []
  },
  {
    "postal": "L1K5N7",
    "result": []
  },
  {
    "postal": "L1K5A6",
    "result": []
  },
  {
    "postal": "L1K4M0",
    "result": []
  },
  {
    "postal": "L1K3V6",
    "result": []
  },
  {
    "postal": "L1K1L7",
    "result": [
      {
        "electoralDistricts": [
          {
            "election": null,
            "id": 77,
            "name": "Oshawa"
          }
        ],
        "pollDivisionIds": [
          10140503
        ],
        "postalCode": "L1K1L7",
        "streetName": "GENTRY",
        "streetDirectionId": null,
        "streetTypeId": "CRES",
        "placeName": "OSHAWA",
        "streetNameDisplayText": "GENTRY CRES, OSHAWA"
      }
    ]
  },
  {
    "postal": "L1K2P9",
    "result": [
      {
        "electoralDistricts": [
          {
            "election": null,
            "id": 77,
            "name": "Oshawa"
          }
        ],
        "pollDivisionIds": [
          10140493
        ],
        "postalCode": "L1K2P9",
        "streetName": "GLENBOURNE",
        "streetDirectionId": null,
        "streetTypeId": "DR",
        "placeName": "OSHAWA",
        "streetNameDisplayText": "GLENBOURNE DR, OSHAWA"
      },
      {
        "electoralDistricts": [
          {
            "election": null,
            "id": 77,
            "name": "Oshawa"
          }
        ],
        "pollDivisionIds": [
          10140493
        ],
        "postalCode": "L1K2P9",
        "streetName": "ROSEHEATH",
        "streetDirectionId": null,
        "streetTypeId": "ST",
        "placeName": "OSHAWA",
        "streetNameDisplayText": "ROSEHEATH ST, OSHAWA"
      }
    ]
  },
  {
    "postal": "L1K5T4",
    "result": []
  },
  {
    "postal": "L1K5Z1",
    "result": []
  },
  {
    "postal": "L1K2X0",
    "result": []
  },
  {
    "postal": "L1K6Z2",
    "result": []
  },
  {
    "postal": "L1K0E0",
    "result": []
  },
  {
    "postal": "L1K3Z5",
    "result": []
  },
  {
    "postal": "L1K8H3",
    "result": []
  },
  {
    "postal": "L1K7S6",
    "result": []
  },
  {
    "postal": "L1K4C1",
    "result": []
  },
  {
    "postal": "L1K3K2",
    "result": []
  },
  {
    "postal": "L1K1Y5",
    "result": [
      {
        "electoralDistricts": [
          {
            "election": null,
            "id": 77,
            "name": "Oshawa"
          }
        ],
        "pollDivisionIds": [
          10140492
        ],
        "postalCode": "L1K1Y5",
        "streetName": "TRAILRIDGE",
        "streetDirectionId": null,
        "streetTypeId": "CRES",
        "placeName": "OSHAWA",
        "streetNameDisplayText": "TRAILRIDGE CRES, OSHAWA"
      }
    ]
  },
  {
    "postal": "L1K6P6",
    "result": []
  },
  {
    "postal": "L1K3N9",
    "result": []
  },
  {
    "postal": "L1K3W2",
    "result": []
  },
  {
    "postal": "L1K6H8",
    "result": []
  },
  {
    "postal": "L1K9T3",
    "result": []
  },
  {
    "postal": "L1K5L9",
    "result": []
  },
  {
    "postal": "L1K7X7",
    "result": []
  },
  {
    "postal": "L1K3J5",
    "result": []
  },
  {
    "postal": "L1K4J5",
    "result": []
  },
  {
    "postal": "L1K6J2",
    "result": []
  },
  {
    "postal": "L1K5V6",
    "result": []
  },
  {
    "postal": "L1K3N2",
    "result": []
  },
  {
    "postal": "L1K3B1",
    "result": [
      {
        "electoralDistricts": [
          {
            "election": null,
            "id": 77,
            "name": "Oshawa"
          }
        ],
        "pollDivisionIds": [
          10140504
        ],
        "postalCode": "L1K3B1",
        "streetName": "ALDERSHOT",
        "streetDirectionId": null,
        "streetTypeId": "DR",
        "placeName": "OSHAWA",
        "streetNameDisplayText": "ALDERSHOT DR, OSHAWA"
      },
      {
        "electoralDistricts": [
          {
            "election": null,
            "id": 77,
            "name": "Oshawa"
          }
        ],
        "pollDivisionIds": [
          10140504
        ],
        "postalCode": "L1K3B1",
        "streetName": "KETTERING",
        "streetDirectionId": null,
        "streetTypeId": "DR",
        "placeName": "OSHAWA",
        "streetNameDisplayText": "KETTERING DR, OSHAWA"
      },
      {
        "electoralDistricts": [
          {
            "election": null,
            "id": 77,
            "name": "Oshawa"
          }
        ],
        "pollDivisionIds": [
          10140504
        ],
        "postalCode": "L1K3B1",
        "streetName": "WADEBRIDGE",
        "streetDirectionId": null,
        "streetTypeId": "CRES",
        "placeName": "OSHAWA",
        "streetNameDisplayText": "WADEBRIDGE CRES, OSHAWA"
      }
    ]
  },
  {
    "postal": "L1K8B5",
    "result": []
  },
  {
    "postal": "L1K0K1",
    "result": [
      {
        "electoralDistricts": [
          {
            "election": null,
            "id": 24,
            "name": "Durham"
          }
        ],
        "pollDivisionIds": [
          10137867
        ],
        "postalCode": "L1K0K1",
        "streetName": "PENNEL",
        "streetDirectionId": null,
        "streetTypeId": "DR",
        "placeName": "OSHAWA",
        "streetNameDisplayText": "PENNEL DR, OSHAWA"
      },
      {
        "electoralDistricts": [
          {
            "election": null,
            "id": 24,
            "name": "Durham"
          }
        ],
        "pollDivisionIds": [
          10137867
        ],
        "postalCode": "L1K0K1",
        "streetName": "RORISON",
        "streetDirectionId": null,
        "streetTypeId": "ST",
        "placeName": "OSHAWA",
        "streetNameDisplayText": "RORISON ST, OSHAWA"
      },
      {
        "electoralDistricts": [
          {
            "election": null,
            "id": 24,
            "name": "Durham"
          }
        ],
        "pollDivisionIds": [
          10137867
        ],
        "postalCode": "L1K0K1",
        "streetName": "SCHOOLING",
        "streetDirectionId": null,
        "streetTypeId": "DR",
        "placeName": "OSHAWA",
        "streetNameDisplayText": "SCHOOLING DR, OSHAWA"
      }
    ]
  },
  {
    "postal": "L1K7M7",
    "result": []
  },
  {
    "postal": "L1K2M2",
    "result": [
      {
        "electoralDistricts": [
          {
            "election": null,
            "id": 77,
            "name": "Oshawa"
          }
        ],
        "pollDivisionIds": [
          10140493
        ],
        "postalCode": "L1K2M2",
        "streetName": "OBERLAND",
        "streetDirectionId": null,
        "streetTypeId": "DR",
        "placeName": "OSHAWA",
        "streetNameDisplayText": "OBERLAND DR, OSHAWA"
      },
      {
        "electoralDistricts": [
          {
            "election": null,
            "id": 77,
            "name": "Oshawa"
          }
        ],
        "pollDivisionIds": [
          10140493
        ],
        "postalCode": "L1K2M2",
        "streetName": "SWISS HEIGHTS",
        "streetDirectionId": null,
        "streetTypeId": "DR",
        "placeName": "OSHAWA",
        "streetNameDisplayText": "SWISS HEIGHTS DR, OSHAWA"
      }
    ]
  },
  {
    "postal": "L1K9N3",
    "result": []
  },
  {
    "postal": "L1K4Y8",
    "result": []
  },
  {
    "postal": "L1K3V7",
    "result": []
  },
  {
    "postal": "L1K8Z1",
    "result": []
  },
  {
    "postal": "L1K7B3",
    "result": []
  },
  {
    "postal": "L1K3A8",
    "result": [
      {
        "electoralDistricts": [
          {
            "election": null,
            "id": 77,
            "name": "Oshawa"
          }
        ],
        "pollDivisionIds": [
          10140504
        ],
        "postalCode": "L1K3A8",
        "streetName": "AUTUMNWOOD",
        "streetDirectionId": null,
        "streetTypeId": "TRAIL",
        "placeName": "OSHAWA",
        "streetNameDisplayText": "AUTUMNWOOD TRAIL, OSHAWA"
      },
      {
        "electoralDistricts": [
          {
            "election": null,
            "id": 77,
            "name": "Oshawa"
          }
        ],
        "pollDivisionIds": [
          10140504
        ],
        "postalCode": "L1K3A8",
        "streetName": "OXBOW",
        "streetDirectionId": null,
        "streetTypeId": "CRES",
        "placeName": "OSHAWA",
        "streetNameDisplayText": "OXBOW CRES, OSHAWA"
      },
      {
        "electoralDistricts": [
          {
            "election": null,
            "id": 77,
            "name": "Oshawa"
          }
        ],
        "pollDivisionIds": [
          10140504
        ],
        "postalCode": "L1K3A8",
        "streetName": "WADEBRIDGE",
        "streetDirectionId": null,
        "streetTypeId": "CRES",
        "placeName": "OSHAWA",
        "streetNameDisplayText": "WADEBRIDGE CRES, OSHAWA"
      }
    ]
  },
  {
    "postal": "L1K7V5",
    "result": []
  },
  {
    "postal": "L1K2T2",
    "result": [
      {
        "electoralDistricts": [
          {
            "election": null,
            "id": 24,
            "name": "Durham"
          }
        ],
        "pollDivisionIds": [
          10137865
        ],
        "postalCode": "L1K2T2",
        "streetName": "RADCLIFFE",
        "streetDirectionId": null,
        "streetTypeId": "DR",
        "placeName": "OSHAWA",
        "streetNameDisplayText": "RADCLIFFE DR, OSHAWA"
      },
      {
        "electoralDistricts": [
          {
            "election": null,
            "id": 24,
            "name": "Durham"
          }
        ],
        "pollDivisionIds": [
          10137865
        ],
        "postalCode": "L1K2T2",
        "streetName": "WOODMOUNT",
        "streetDirectionId": null,
        "streetTypeId": "CRES",
        "placeName": "OSHAWA",
        "streetNameDisplayText": "WOODMOUNT CRES, OSHAWA"
      }
    ]
  },
  {
    "postal": "L1K6L3",
    "result": []
  },
  {
    "postal": "L1K0L2",
    "result": [
      {
        "electoralDistricts": [
          {
            "election": null,
            "id": 24,
            "name": "Durham"
          }
        ],
        "pollDivisionIds": [
          10137867
        ],
        "postalCode": "L1K0L2",
        "streetName": "FETCHISON",
        "streetDirectionId": null,
        "streetTypeId": "DR",
        "placeName": "OSHAWA",
        "streetNameDisplayText": "FETCHISON DR, OSHAWA"
      },
      {
        "electoralDistricts": [
          {
            "election": null,
            "id": 24,
            "name": "Durham"
          }
        ],
        "pollDivisionIds": [
          10137867
        ],
        "postalCode": "L1K0L2",
        "streetName": "FROLIS",
        "streetDirectionId": null,
        "streetTypeId": "ST",
        "placeName": "OSHAWA",
        "streetNameDisplayText": "FROLIS ST, OSHAWA"
      }
    ]
  },
  {
    "postal": "L1K5Y8",
    "result": []
  },
  {
    "postal": "L1K0B8",
    "result": [
      {
        "electoralDistricts": [
          {
            "election": null,
            "id": 77,
            "name": "Oshawa"
          }
        ],
        "pollDivisionIds": [
          10143689
        ],
        "postalCode": "L1K0B8",
        "streetName": "GLENBOURNE",
        "streetDirectionId": null,
        "streetTypeId": "DR",
        "placeName": "OSHAWA",
        "streetNameDisplayText": "GLENBOURNE DR, OSHAWA"
      },
      {
        "electoralDistricts": [
          {
            "election": null,
            "id": 77,
            "name": "Oshawa"
          }
        ],
        "pollDivisionIds": [
          10143689
        ],
        "postalCode": "L1K0B8",
        "streetName": "MACINALLY",
        "streetDirectionId": null,
        "streetTypeId": "CRT",
        "placeName": "OSHAWA",
        "streetNameDisplayText": "MACINALLY CRT, OSHAWA"
      }
    ]
  },
  {
    "postal": "L1K6R5",
    "result": []
  },
  {
    "postal": "L1K8W6",
    "result": []
  },
  {
    "postal": "L1K8G6",
    "result": []
  },
  {
    "postal": "L1K6X3",
    "result": []
  },
  {
    "postal": "L1K7R7",
    "result": []
  },
  {
    "postal": "L1K4B6",
    "result": []
  },
  {
    "postal": "L1K3P9",
    "result": []
  },
  {
    "postal": "L1K2T3",
    "result": [
      {
        "electoralDistricts": [
          {
            "election": null,
            "id": 24,
            "name": "Durham"
          }
        ],
        "pollDivisionIds": [
          10137865
        ],
        "postalCode": "L1K2T3",
        "streetName": "RADCLIFFE",
        "streetDirectionId": null,
        "streetTypeId": "DR",
        "placeName": "OSHAWA",
        "streetNameDisplayText": "RADCLIFFE DR, OSHAWA"
      },
      {
        "electoralDistricts": [
          {
            "election": null,
            "id": 24,
            "name": "Durham"
          }
        ],
        "pollDivisionIds": [
          10137865
        ],
        "postalCode": "L1K2T3",
        "streetName": "WOODMOUNT",
        "streetDirectionId": null,
        "streetTypeId": "CRES",
        "placeName": "OSHAWA",
        "streetNameDisplayText": "WOODMOUNT CRES, OSHAWA"
      }
    ]
  },
  {
    "postal": "L1K1M4",
    "result": [
      {
        "electoralDistricts": [
          {
            "election": null,
            "id": 77,
            "name": "Oshawa"
          }
        ],
        "pollDivisionIds": [
          10140503
        ],
        "postalCode": "L1K1M4",
        "streetName": "PERCIVAL",
        "streetDirectionId": null,
        "streetTypeId": "CRT",
        "placeName": "OSHAWA",
        "streetNameDisplayText": "PERCIVAL CRT, OSHAWA"
      }
    ]
  },
  {
    "postal": "L1K0H1",
    "result": [
      {
        "electoralDistricts": [
          {
            "election": null,
            "id": 24,
            "name": "Durham"
          }
        ],
        "pollDivisionIds": [
          10137867
        ],
        "postalCode": "L1K0H1",
        "streetName": "CORDICK",
        "streetDirectionId": null,
        "streetTypeId": "ST",
        "placeName": "OSHAWA",
        "streetNameDisplayText": "CORDICK ST, OSHAWA"
      },
      {
        "electoralDistricts": [
          {
            "election": null,
            "id": 24,
            "name": "Durham"
          }
        ],
        "pollDivisionIds": [
          10137867
        ],
        "postalCode": "L1K0H1",
        "streetName": "MCCUE",
        "streetDirectionId": null,
        "streetTypeId": "DR",
        "placeName": "OSHAWA",
        "streetNameDisplayText": "MCCUE DR, OSHAWA"
      },
      {
        "electoralDistricts": [
          {
            "election": null,
            "id": 24,
            "name": "Durham"
          }
        ],
        "pollDivisionIds": [
          10137867
        ],
        "postalCode": "L1K0H1",
        "streetName": "RENNIE",
        "streetDirectionId": null,
        "streetTypeId": "ST",
        "placeName": "OSHAWA",
        "streetNameDisplayText": "RENNIE ST, OSHAWA"
      }
    ]
  },
  {
    "postal": "L1K9W3",
    "result": []
  },
  {
    "postal": "L1K6P1",
    "result": []
  },
  {
    "postal": "L1K7G2",
    "result": []
  },
  {
    "postal": "L1K4J9",
    "result": []
  },
  {
    "postal": "L1K9E4",
    "result": []
  },
  {
    "postal": "L1K8H0",
    "result": []
  },
  {
    "postal": "L1K4M7",
    "result": []
  },
  {
    "postal": "L1K2G9",
    "result": [
      {
        "electoralDistricts": [
          {
            "election": null,
            "id": 77,
            "name": "Oshawa"
          }
        ],
        "pollDivisionIds": [
          10140492
        ],
        "postalCode": "L1K2G9",
        "streetName": "ATTERSLEY",
        "streetDirectionId": null,
        "streetTypeId": "DR",
        "placeName": "OSHAWA",
        "streetNameDisplayText": "ATTERSLEY DR, OSHAWA"
      }
    ]
  },
  {
    "postal": "L1K8T2",
    "result": []
  },
  {
    "postal": "L1K7G7",
    "result": []
  },
  {
    "postal": "L1K4Z3",
    "result": []
  },
  {
    "postal": "L1K5B3",
    "result": []
  },
  {
    "postal": "L1K1S7",
    "result": [
      {
        "electoralDistricts": [
          {
            "election": null,
            "id": 77,
            "name": "Oshawa"
          }
        ],
        "pollDivisionIds": [
          10140504
        ],
        "postalCode": "L1K1S7",
        "streetName": "NINA",
        "streetDirectionId": null,
        "streetTypeId": "CRT",
        "placeName": "OSHAWA",
        "streetNameDisplayText": "NINA CRT, OSHAWA"
      }
    ]
  },
  {
    "postal": "L1K2N7",
    "result": [
      {
        "electoralDistricts": [
          {
            "election": null,
            "id": 24,
            "name": "Durham"
          }
        ],
        "pollDivisionIds": [
          10137867
        ],
        "postalCode": "L1K2N7",
        "streetName": "CLEARBROOK",
        "streetDirectionId": null,
        "streetTypeId": "DR",
        "placeName": "OSHAWA",
        "streetNameDisplayText": "CLEARBROOK DR, OSHAWA"
      },
      {
        "electoralDistricts": [
          {
            "election": null,
            "id": 24,
            "name": "Durham"
          }
        ],
        "pollDivisionIds": [
          10137867
        ],
        "postalCode": "L1K2N7",
        "streetName": "SKYVIEW",
        "streetDirectionId": null,
        "streetTypeId": "ST",
        "placeName": "OSHAWA",
        "streetNameDisplayText": "SKYVIEW ST, OSHAWA"
      },
      {
        "electoralDistricts": [
          {
            "election": null,
            "id": 24,
            "name": "Durham"
          }
        ],
        "pollDivisionIds": [
          10137867
        ],
        "postalCode": "L1K2N7",
        "streetName": "SPRINGWATER",
        "streetDirectionId": null,
        "streetTypeId": "CRES",
        "placeName": "OSHAWA",
        "streetNameDisplayText": "SPRINGWATER CRES, OSHAWA"
      }
    ]
  },
  {
    "postal": "L1K0H8",
    "result": [
      {
        "electoralDistricts": [
          {
            "election": null,
            "id": 24,
            "name": "Durham"
          }
        ],
        "pollDivisionIds": [
          10137866
        ],
        "postalCode": "L1K0H8",
        "streetName": "KINGSFIELD",
        "streetDirectionId": null,
        "streetTypeId": "LOOP",
        "placeName": "OSHAWA",
        "streetNameDisplayText": "KINGSFIELD LOOP, OSHAWA"
      }
    ]
  },
  {
    "postal": "L1K7Z4",
    "result": []
  },
  {
    "postal": "L1K7B1",
    "result": []
  },
  {
    "postal": "L1K7P8",
    "result": []
  },
  {
    "postal": "L1K7N0",
    "result": []
  },
  {
    "postal": "L1K3Y5",
    "result": []
  },
  {
    "postal": "L1K6K1",
    "result": []
  },
  {
    "postal": "L1K9X5",
    "result": []
  },
  {
    "postal": "L1K7S5",
    "result": []
  },
  {
    "postal": "L1K0A4",
    "result": [
      {
        "electoralDistricts": [
          {
            "election": null,
            "id": 77,
            "name": "Oshawa"
          }
        ],
        "pollDivisionIds": [
          10140504
        ],
        "postalCode": "L1K0A4",
        "streetName": "COTSWOLD",
        "streetDirectionId": null,
        "streetTypeId": "CRT",
        "placeName": "OSHAWA",
        "streetNameDisplayText": "COTSWOLD CRT, OSHAWA"
      },
      {
        "electoralDistricts": [
          {
            "election": null,
            "id": 77,
            "name": "Oshawa"
          }
        ],
        "pollDivisionIds": [
          10140504
        ],
        "postalCode": "L1K0A4",
        "streetName": "LANGFORD",
        "streetDirectionId": null,
        "streetTypeId": "ST",
        "placeName": "OSHAWA",
        "streetNameDisplayText": "LANGFORD ST, OSHAWA"
      }
    ]
  },
  {
    "postal": "L1K4T5",
    "result": []
  },
  {
    "postal": "L1K5K1",
    "result": []
  },
  {
    "postal": "L1K0Z9",
    "result": [
      {
        "electoralDistricts": [
          {
            "election": null,
            "id": 24,
            "name": "Durham"
          }
        ],
        "pollDivisionIds": [
          10137865
        ],
        "postalCode": "L1K0Z9",
        "streetName": "RITSON",
        "streetDirectionId": "N",
        "streetTypeId": "RD",
        "placeName": "OSHAWA",
        "streetNameDisplayText": "RITSON RD N, OSHAWA"
      }
    ]
  },
  {
    "postal": "L1K7T2",
    "result": []
  },
  {
    "postal": "L1K1L5",
    "result": [
      {
        "electoralDistricts": [
          {
            "election": null,
            "id": 77,
            "name": "Oshawa"
          }
        ],
        "pollDivisionIds": [
          10140503
        ],
        "postalCode": "L1K1L5",
        "streetName": "GAYLORD",
        "streetDirectionId": null,
        "streetTypeId": "DR",
        "placeName": "OSHAWA",
        "streetNameDisplayText": "GAYLORD DR, OSHAWA"
      }
    ]
  },
  {
    "postal": "L1K3N5",
    "result": []
  },
  {
    "postal": "L1K6H4",
    "result": []
  },
  {
    "postal": "L1K5A5",
    "result": []
  },
  {
    "postal": "L1K3R9",
    "result": []
  },
  {
    "postal": "L1K7L8",
    "result": []
  },
  {
    "postal": "L1K6T6",
    "result": []
  },
  {
    "postal": "L1K7Y7",
    "result": []
  },
  {
    "postal": "L1K3M8",
    "result": []
  },
  {
    "postal": "L1K2E0",
    "result": []
  },
  {
    "postal": "L1K4B5",
    "result": []
  },
  {
    "postal": "L1K1J3",
    "result": [
      {
        "electoralDistricts": [
          {
            "election": null,
            "id": 24,
            "name": "Durham"
          }
        ],
        "pollDivisionIds": [
          10137866
        ],
        "postalCode": "L1K1J3",
        "streetName": "ORMOND",
        "streetDirectionId": null,
        "streetTypeId": "DR",
        "placeName": "OSHAWA",
        "streetNameDisplayText": "ORMOND DR, OSHAWA"
      }
    ]
  },
  {
    "postal": "L1K5S6",
    "result": []
  },
  {
    "postal": "L1K8P7",
    "result": []
  },
  {
    "postal": "L1K7S7",
    "result": []
  },
  {
    "postal": "L1K4C2",
    "result": []
  },
  {
    "postal": "L1K5Y0",
    "result": []
  },
  {
    "postal": "L1K2V7",
    "result": [
      {
        "electoralDistricts": [
          {
            "election": null,
            "id": 77,
            "name": "Oshawa"
          }
        ],
        "pollDivisionIds": [
          10140504
        ],
        "postalCode": "L1K2V7",
        "streetName": "FLEETWOOD",
        "streetDirectionId": null,
        "streetTypeId": "DR",
        "placeName": "OSHAWA",
        "streetNameDisplayText": "FLEETWOOD DR, OSHAWA"
      },
      {
        "electoralDistricts": [
          {
            "election": null,
            "id": 77,
            "name": "Oshawa"
          }
        ],
        "pollDivisionIds": [
          10140504
        ],
        "postalCode": "L1K2V7",
        "streetName": "NOTTINGHAM",
        "streetDirectionId": null,
        "streetTypeId": "CRES",
        "placeName": "OSHAWA",
        "streetNameDisplayText": "NOTTINGHAM CRES, OSHAWA"
      },
      {
        "electoralDistricts": [
          {
            "election": null,
            "id": 77,
            "name": "Oshawa"
          }
        ],
        "pollDivisionIds": [
          10140504
        ],
        "postalCode": "L1K2V7",
        "streetName": "WADEBRIDGE",
        "streetDirectionId": null,
        "streetTypeId": "CRES",
        "placeName": "OSHAWA",
        "streetNameDisplayText": "WADEBRIDGE CRES, OSHAWA"
      }
    ]
  },
  {
    "postal": "L1K8P5",
    "result": []
  },
  {
    "postal": "L1K5P5",
    "result": []
  },
  {
    "postal": "L1K5Z0",
    "result": []
  },
  {
    "postal": "L1K9B0",
    "result": []
  },
  {
    "postal": "L1K1L0",
    "result": []
  },
  {
    "postal": "L1K0B5",
    "result": [
      {
        "electoralDistricts": [
          {
            "election": null,
            "id": 24,
            "name": "Durham"
          }
        ],
        "pollDivisionIds": [
          10137868,
          10137869
        ],
        "postalCode": "L1K0B5",
        "streetName": "COLDSTREAM",
        "streetDirectionId": null,
        "streetTypeId": "DR",
        "placeName": "OSHAWA",
        "streetNameDisplayText": "COLDSTREAM DR, OSHAWA"
      }
    ]
  },
  {
    "postal": "L1K3L2",
    "result": []
  },
  {
    "postal": "L1K3B7",
    "result": [
      {
        "electoralDistricts": [
          {
            "election": null,
            "id": 24,
            "name": "Durham"
          }
        ],
        "pollDivisionIds": [
          10137866
        ],
        "postalCode": "L1K3B7",
        "streetName": "ORMOND",
        "streetDirectionId": null,
        "streetTypeId": "DR",
        "placeName": "OSHAWA",
        "streetNameDisplayText": "ORMOND DR, OSHAWA"
      }
    ]
  },
  {
    "postal": "L1K8L1",
    "result": []
  },
  {
    "postal": "L1K5M4",
    "result": []
  },
  {
    "postal": "L1K4G9",
    "result": []
  },
  {
    "postal": "L1K0P0",
    "result": []
  },
  {
    "postal": "L1K8G2",
    "result": []
  },
  {
    "postal": "L1K1V9",
    "result": [
      {
        "electoralDistricts": [
          {
            "election": null,
            "id": 77,
            "name": "Oshawa"
          }
        ],
        "pollDivisionIds": [
          10140492
        ],
        "postalCode": "L1K1V9",
        "streetName": "DYER",
        "streetDirectionId": null,
        "streetTypeId": "CRT",
        "placeName": "OSHAWA",
        "streetNameDisplayText": "DYER CRT, OSHAWA"
      }
    ]
  },
  {
    "postal": "L1K8N8",
    "result": []
  },
  {
    "postal": "L1K6S8",
    "result": []
  },
  {
    "postal": "L1K8H2",
    "result": []
  },
  {
    "postal": "L1K5R8",
    "result": []
  },
  {
    "postal": "L1K5L4",
    "result": []
  },
  {
    "postal": "L1K9E1",
    "result": []
  },
  {
    "postal": "L1K1C4",
    "result": [
      {
        "electoralDistricts": [
          {
            "election": null,
            "id": 77,
            "name": "Oshawa"
          }
        ],
        "pollDivisionIds": [
          10140504
        ],
        "postalCode": "L1K1C4",
        "streetName": "FLEETWOOD",
        "streetDirectionId": null,
        "streetTypeId": "DR",
        "placeName": "OSHAWA",
        "streetNameDisplayText": "FLEETWOOD DR, OSHAWA"
      }
    ]
  },
  {
    "postal": "L1K8W5",
    "result": []
  },
  {
    "postal": "L1K1Y4",
    "result": [
      {
        "electoralDistricts": [
          {
            "election": null,
            "id": 77,
            "name": "Oshawa"
          }
        ],
        "pollDivisionIds": [
          10140492
        ],
        "postalCode": "L1K1Y4",
        "streetName": "BEACONHILL",
        "streetDirectionId": null,
        "streetTypeId": "CRT",
        "placeName": "OSHAWA",
        "streetNameDisplayText": "BEACONHILL CRT, OSHAWA"
      },
      {
        "electoralDistricts": [
          {
            "election": null,
            "id": 77,
            "name": "Oshawa"
          }
        ],
        "pollDivisionIds": [
          10140492
        ],
        "postalCode": "L1K1Y4",
        "streetName": "TRAILRIDGE",
        "streetDirectionId": null,
        "streetTypeId": "CRES",
        "placeName": "OSHAWA",
        "streetNameDisplayText": "TRAILRIDGE CRES, OSHAWA"
      }
    ]
  },
  {
    "postal": "L1K1C0",
    "result": []
  },
  {
    "postal": "L1K2J2",
    "result": [
      {
        "electoralDistricts": [
          {
            "election": null,
            "id": 77,
            "name": "Oshawa"
          }
        ],
        "pollDivisionIds": [
          10140492
        ],
        "postalCode": "L1K2J2",
        "streetName": "ELDERBERRY",
        "streetDirectionId": null,
        "streetTypeId": "DR",
        "placeName": "OSHAWA",
        "streetNameDisplayText": "ELDERBERRY DR, OSHAWA"
      },
      {
        "electoralDistricts": [
          {
            "election": null,
            "id": 77,
            "name": "Oshawa"
          }
        ],
        "pollDivisionIds": [
          10140492
        ],
        "postalCode": "L1K2J2",
        "streetName": "SNOWBERRY",
        "streetDirectionId": null,
        "streetTypeId": "ST",
        "placeName": "OSHAWA",
        "streetNameDisplayText": "SNOWBERRY ST, OSHAWA"
      },
      {
        "electoralDistricts": [
          {
            "election": null,
            "id": 77,
            "name": "Oshawa"
          }
        ],
        "pollDivisionIds": [
          10140492
        ],
        "postalCode": "L1K2J2",
        "streetName": "WOLFBERRY",
        "streetDirectionId": null,
        "streetTypeId": "CRT",
        "placeName": "OSHAWA",
        "streetNameDisplayText": "WOLFBERRY CRT, OSHAWA"
      }
    ]
  },
  {
    "postal": "L1K2J0",
    "result": []
  },
  {
    "postal": "L1K7A3",
    "result": []
  },
  {
    "postal": "L1K8M1",
    "result": []
  },
  {
    "postal": "L1K7T9",
    "result": []
  },
  {
    "postal": "L1K6C0",
    "result": []
  },
  {
    "postal": "L1K7X1",
    "result": []
  },
  {
    "postal": "L1K0G1",
    "result": [
      {
        "electoralDistricts": [
          {
            "election": null,
            "id": 77,
            "name": "Oshawa"
          }
        ],
        "pollDivisionIds": [
          10143689
        ],
        "postalCode": "L1K0G1",
        "streetName": "GRANDVIEW",
        "streetDirectionId": "N",
        "streetTypeId": "ST",
        "placeName": "OSHAWA",
        "streetNameDisplayText": "GRANDVIEW ST N, OSHAWA"
      }
    ]
  },
  {
    "postal": "L1K4X2",
    "result": []
  },
  {
    "postal": "L1K0N6",
    "result": [
      {
        "electoralDistricts": [
          {
            "election": null,
            "id": 24,
            "name": "Durham"
          }
        ],
        "pollDivisionIds": [
          10137868
        ],
        "postalCode": "L1K0N6",
        "streetName": "ESTERBROOK",
        "streetDirectionId": null,
        "streetTypeId": "DR",
        "placeName": "OSHAWA",
        "streetNameDisplayText": "ESTERBROOK DR, OSHAWA"
      },
      {
        "electoralDistricts": [
          {
            "election": null,
            "id": 24,
            "name": "Durham"
          }
        ],
        "pollDivisionIds": [
          10137868
        ],
        "postalCode": "L1K0N6",
        "streetName": "WOODSTREAM",
        "streetDirectionId": null,
        "streetTypeId": "AVE",
        "placeName": "OSHAWA",
        "streetNameDisplayText": "WOODSTREAM AVE, OSHAWA"
      }
    ]
  },
  {
    "postal": "L1K8E3",
    "result": []
  },
  {
    "postal": "L1K5S8",
    "result": []
  },
  {
    "postal": "L1K0R0",
    "result": []
  },
  {
    "postal": "L1K6J6",
    "result": []
  },
  {
    "postal": "L1K4B4",
    "result": []
  },
  {
    "postal": "L1K7E3",
    "result": []
  },
  {
    "postal": "L1K3N6",
    "result": []
  },
  {
    "postal": "L1K3X6",
    "result": []
  },
  {
    "postal": "L1K8L0",
    "result": []
  },
  {
    "postal": "L1K8N1",
    "result": []
  },
  {
    "postal": "L1K4J0",
    "result": []
  },
  {
    "postal": "L1K0X7",
    "result": [
      {
        "electoralDistricts": [
          {
            "election": null,
            "id": 24,
            "name": "Durham"
          }
        ],
        "pollDivisionIds": [
          10137868
        ],
        "postalCode": "L1K0X7",
        "streetName": "GREENHILL",
        "streetDirectionId": null,
        "streetTypeId": "AVE",
        "placeName": "OSHAWA",
        "streetNameDisplayText": "GREENHILL AVE, OSHAWA"
      }
    ]
  },
  {
    "postal": "L1K6S4",
    "result": []
  },
  {
    "postal": "L1K0Z0",
    "result": []
  },
  {
    "postal": "L1K9X8",
    "result": []
  },
  {
    "postal": "L1K3H3",
    "result": []
  },
  {
    "postal": "L1K7S2",
    "result": []
  },
  {
    "postal": "L1K3T3",
    "result": []
  },
  {
    "postal": "L1K9P3",
    "result": []
  },
  {
    "postal": "L1K4H8",
    "result": []
  },
  {
    "postal": "L1K6R1",
    "result": []
  },
  {
    "postal": "L1K1S0",
    "result": []
  },
  {
    "postal": "L1K3W8",
    "result": []
  },
  {
    "postal": "L1K4S3",
    "result": []
  },
  {
    "postal": "L1K1B6",
    "result": [
      {
        "electoralDistricts": [
          {
            "election": null,
            "id": 77,
            "name": "Oshawa"
          }
        ],
        "pollDivisionIds": [
          10140504
        ],
        "postalCode": "L1K1B6",
        "streetName": "SAFARI",
        "streetDirectionId": null,
        "streetTypeId": "DR",
        "placeName": "OSHAWA",
        "streetNameDisplayText": "SAFARI DR, OSHAWA"
      }
    ]
  },
  {
    "postal": "L1K8R3",
    "result": []
  },
  {
    "postal": "L1K4V9",
    "result": []
  },
  {
    "postal": "L1K9W4",
    "result": []
  },
  {
    "postal": "L1K3T4",
    "result": []
  },
  {
    "postal": "L1K5C7",
    "result": []
  },
  {
    "postal": "L1K3Y1",
    "result": []
  },
  {
    "postal": "L1K5V0",
    "result": []
  },
  {
    "postal": "L1K8G8",
    "result": []
  },
  {
    "postal": "L1K8B1",
    "result": []
  },
  {
    "postal": "L1K4P5",
    "result": []
  },
  {
    "postal": "L1K7B2",
    "result": []
  },
  {
    "postal": "L1K0R2",
    "result": [
      {
        "electoralDistricts": [
          {
            "election": null,
            "id": 24,
            "name": "Durham"
          }
        ],
        "pollDivisionIds": [
          10137867
        ],
        "postalCode": "L1K0R2",
        "streetName": "MCCUE",
        "streetDirectionId": null,
        "streetTypeId": "DR",
        "placeName": "OSHAWA",
        "streetNameDisplayText": "MCCUE DR, OSHAWA"
      }
    ]
  },
  {
    "postal": "L1K4M4",
    "result": []
  },
  {
    "postal": "L1K7M4",
    "result": []
  },
  {
    "postal": "L1K9S7",
    "result": []
  },
  {
    "postal": "L1K5Z7",
    "result": []
  },
  {
    "postal": "L1K7J7",
    "result": []
  },
  {
    "postal": "L1K8R8",
    "result": []
  },
  {
    "postal": "L1K9X1",
    "result": []
  },
  {
    "postal": "L1K5M9",
    "result": []
  },
  {
    "postal": "L1K9B4",
    "result": []
  },
  {
    "postal": "L1K0L9",
    "result": [
      {
        "electoralDistricts": [
          {
            "election": null,
            "id": 24,
            "name": "Durham"
          }
        ],
        "pollDivisionIds": [
          10137867
        ],
        "postalCode": "L1K0L9",
        "streetName": "QUAIL RUN",
        "streetDirectionId": null,
        "streetTypeId": "DR",
        "placeName": "OSHAWA",
        "streetNameDisplayText": "QUAIL RUN DR, OSHAWA"
      },
      {
        "electoralDistricts": [
          {
            "election": null,
            "id": 24,
            "name": "Durham"
          }
        ],
        "pollDivisionIds": [
          10137867
        ],
        "postalCode": "L1K0L9",
        "streetName": "ROCKAWAY",
        "streetDirectionId": null,
        "streetTypeId": "ST",
        "placeName": "OSHAWA",
        "streetNameDisplayText": "ROCKAWAY ST, OSHAWA"
      }
    ]
  },
  {
    "postal": "L1K9G4",
    "result": []
  },
  {
    "postal": "L1K1J4",
    "result": [
      {
        "electoralDistricts": [
          {
            "election": null,
            "id": 24,
            "name": "Durham"
          }
        ],
        "pollDivisionIds": [
          10137866
        ],
        "postalCode": "L1K1J4",
        "streetName": "ORMOND",
        "streetDirectionId": null,
        "streetTypeId": "DR",
        "placeName": "OSHAWA",
        "streetNameDisplayText": "ORMOND DR, OSHAWA"
      }
    ]
  },
  {
    "postal": "L1K0W6",
    "result": [
      {
        "electoralDistricts": [
          {
            "election": null,
            "id": 77,
            "name": "Oshawa"
          }
        ],
        "pollDivisionIds": [
          10143691
        ],
        "postalCode": "L1K0W6",
        "streetName": "BENSON",
        "streetDirectionId": null,
        "streetTypeId": "ST",
        "placeName": "OSHAWA",
        "streetNameDisplayText": "BENSON ST, OSHAWA"
      }
    ]
  }
]
