[
  {
    "postal": "K7S9J6",
    "result": []
  },
  {
    "postal": "K7S9Z5",
    "result": []
  },
  {
    "postal": "K7S7H8",
    "result": []
  },
  {
    "postal": "K7S0P6",
    "result": []
  },
  {
    "postal": "K7S0S7",
    "result": []
  },
  {
    "postal": "K7S8B9",
    "result": []
  },
  {
    "postal": "K7S2A6",
    "result": [
      {
        "electoralDistricts": [
          {
            "election": null,
            "id": 88,
            "name": "Renfrew—Nipissing—Pembroke"
          }
        ],
        "pollDivisionIds": [
          10141237
        ],
        "postalCode": "K7S2A6",
        "streetName": "HAYES",
        "streetDirectionId": null,
        "streetTypeId": "ST",
        "placeName": "ARNPRIOR",
        "streetNameDisplayText": "HAYES ST, ARNPRIOR"
      }
    ]
  },
  {
    "postal": "K7S7V2",
    "result": []
  },
  {
    "postal": "K7S9P4",
    "result": []
  },
  {
    "postal": "K7S6G0",
    "result": []
  },
  {
    "postal": "K7S2K0",
    "result": []
  },
  {
    "postal": "K7S7N6",
    "result": []
  },
  {
    "postal": "K7S5R3",
    "result": []
  },
  {
    "postal": "K7S7K0",
    "result": []
  },
  {
    "postal": "K7S3R2",
    "result": [
      {
        "electoralDistricts": [
          {
            "election": null,
            "id": 88,
            "name": "Renfrew—Nipissing—Pembroke"
          }
        ],
        "pollDivisionIds": [
          10141240
        ],
        "postalCode": "K7S3R2",
        "streetName": "THOMAS",
        "streetDirectionId": "S",
        "streetTypeId": "ST",
        "placeName": "ARNPRIOR",
        "streetNameDisplayText": "THOMAS ST S, ARNPRIOR"
      }
    ]
  },
  {
    "postal": "K7S0J1",
    "result": []
  },
  {
    "postal": "K7S0B0",
    "result": []
  },
  {
    "postal": "K7S5Z2",
    "result": []
  },
  {
    "postal": "K7S7P3",
    "result": []
  },
  {
    "postal": "K7S2K3",
    "result": [
      {
        "electoralDistricts": [
          {
            "election": null,
            "id": 88,
            "name": "Renfrew—Nipissing—Pembroke"
          }
        ],
        "pollDivisionIds": [
          10141240
        ],
        "postalCode": "K7S2K3",
        "streetName": "RUSSELL",
        "streetDirectionId": "S",
        "streetTypeId": "ST",
        "placeName": "ARNPRIOR",
        "streetNameDisplayText": "RUSSELL ST S, ARNPRIOR"
      }
    ]
  },
  {
    "postal": "K7S7Y6",
    "result": []
  },
  {
    "postal": "K7S1L9",
    "result": [
      {
        "electoralDistricts": [
          {
            "election": null,
            "id": 88,
            "name": "Renfrew—Nipissing—Pembroke"
          }
        ],
        "pollDivisionIds": [
          10141240
        ],
        "postalCode": "K7S1L9",
        "streetName": "MCGONIGAL",
        "streetDirectionId": "W",
        "streetTypeId": "ST",
        "placeName": "ARNPRIOR",
        "streetNameDisplayText": "MCGONIGAL ST W, ARNPRIOR"
      }
    ]
  },
  {
    "postal": "K7S8T0",
    "result": []
  },
  {
    "postal": "K7S3K8",
    "result": [
      {
        "electoralDistricts": [
          {
            "election": null,
            "id": 88,
            "name": "Renfrew—Nipissing—Pembroke"
          }
        ],
        "pollDivisionIds": [
          10141240
        ],
        "postalCode": "K7S3K8",
        "streetName": "ISABELLA",
        "streetDirectionId": null,
        "streetTypeId": "ST",
        "placeName": "ARNPRIOR",
        "streetNameDisplayText": "ISABELLA ST, ARNPRIOR"
      }
    ]
  },
  {
    "postal": "K7S5W9",
    "result": []
  },
  {
    "postal": "K7S6T9",
    "result": []
  },
  {
    "postal": "K7S4H1",
    "result": []
  },
  {
    "postal": "K7S7A2",
    "result": []
  },
  {
    "postal": "K7S5G0",
    "result": []
  },
  {
    "postal": "K7S8V5",
    "result": []
  },
  {
    "postal": "K7S2Y8",
    "result": [
      {
        "electoralDistricts": [
          {
            "election": null,
            "id": 88,
            "name": "Renfrew—Nipissing—Pembroke"
          }
        ],
        "pollDivisionIds": [
          10141238
        ],
        "postalCode": "K7S2Y8",
        "streetName": "MCLACHLIN",
        "streetDirectionId": "S",
        "streetTypeId": "ST",
        "placeName": "ARNPRIOR",
        "streetNameDisplayText": "MCLACHLIN ST S, ARNPRIOR"
      }
    ]
  },
  {
    "postal": "K7S2B6",
    "result": []
  },
  {
    "postal": "K7S4W8",
    "result": []
  },
  {
    "postal": "K7S8H7",
    "result": []
  },
  {
    "postal": "K7S5P1",
    "result": []
  },
  {
    "postal": "K7S2B8",
    "result": [
      {
        "electoralDistricts": [
          {
            "election": null,
            "id": 88,
            "name": "Renfrew—Nipissing—Pembroke"
          }
        ],
        "pollDivisionIds": [
          10141239
        ],
        "postalCode": "K7S2B8",
        "streetName": "CNR ROADWAY",
        "streetDirectionId": null,
        "streetTypeId": null,
        "placeName": "ARNPRIOR",
        "streetNameDisplayText": "CNR ROADWAY, ARNPRIOR"
      },
      {
        "electoralDistricts": [
          {
            "election": null,
            "id": 88,
            "name": "Renfrew—Nipissing—Pembroke"
          }
        ],
        "pollDivisionIds": [
          10141239
        ],
        "postalCode": "K7S2B8",
        "streetName": "SAINT JOHNS",
        "streetDirectionId": null,
        "streetTypeId": "WAY",
        "placeName": "ARNPRIOR",
        "streetNameDisplayText": "SAINT JOHNS WAY, ARNPRIOR"
      }
    ]
  },
  {
    "postal": "K7S0P2",
    "result": []
  },
  {
    "postal": "K7S9M1",
    "result": []
  },
  {
    "postal": "K7S3G0",
    "result": []
  },
  {
    "postal": "K7S9Z2",
    "result": []
  },
  {
    "postal": "K7S2A0",
    "result": []
  },
  {
    "postal": "K7S6Y0",
    "result": []
  },
  {
    "postal": "K7S2Z8",
    "result": [
      {
        "electoralDistricts": [
          {
            "election": null,
            "id": 88,
            "name": "Renfrew—Nipissing—Pembroke"
          }
        ],
        "pollDivisionIds": [
          10141238
        ],
        "postalCode": "K7S2Z8",
        "streetName": "VANCOURTLAND",
        "streetDirectionId": "S",
        "streetTypeId": "ST",
        "placeName": "ARNPRIOR",
        "streetNameDisplayText": "VANCOURTLAND ST S, ARNPRIOR"
      }
    ]
  },
  {
    "postal": "K7S7Y3",
    "result": []
  },
  {
    "postal": "K7S6Z5",
    "result": []
  },
  {
    "postal": "K7S6E0",
    "result": []
  },
  {
    "postal": "K7S9B7",
    "result": []
  },
  {
    "postal": "K7S9S5",
    "result": []
  },
  {
    "postal": "K7S3X3",
    "result": [
      {
        "electoralDistricts": [
          {
            "election": null,
            "id": 88,
            "name": "Renfrew—Nipissing—Pembroke"
          }
        ],
        "pollDivisionIds": [
          10141237
        ],
        "postalCode": "K7S3X3",
        "streetName": "GOODWIN",
        "streetDirectionId": null,
        "streetTypeId": "LANE",
        "placeName": "ARNPRIOR",
        "streetNameDisplayText": "GOODWIN LANE, ARNPRIOR"
      }
    ]
  },
  {
    "postal": "K7S7R5",
    "result": []
  },
  {
    "postal": "K7S2X3",
    "result": [
      {
        "electoralDistricts": [
          {
            "election": null,
            "id": 88,
            "name": "Renfrew—Nipissing—Pembroke"
          }
        ],
        "pollDivisionIds": [
          10141238,
          10141239
        ],
        "postalCode": "K7S2X3",
        "streetName": "EDWARD",
        "streetDirectionId": "S",
        "streetTypeId": "ST",
        "placeName": "ARNPRIOR",
        "streetNameDisplayText": "EDWARD ST S, ARNPRIOR"
      }
    ]
  },
  {
    "postal": "K7S8Z9",
    "result": []
  },
  {
    "postal": "K7S0N4",
    "result": []
  },
  {
    "postal": "K7S1K1",
    "result": [
      {
        "electoralDistricts": [
          {
            "election": null,
            "id": 88,
            "name": "Renfrew—Nipissing—Pembroke"
          }
        ],
        "pollDivisionIds": [
          10141239
        ],
        "postalCode": "K7S1K1",
        "streetName": "WILLIAM",
        "streetDirectionId": "W",
        "streetTypeId": "ST",
        "placeName": "ARNPRIOR",
        "streetNameDisplayText": "WILLIAM ST W, ARNPRIOR"
      }
    ]
  },
  {
    "postal": "K7S1S3",
    "result": [
      {
        "electoralDistricts": [
          {
            "election": null,
            "id": 88,
            "name": "Renfrew—Nipissing—Pembroke"
          }
        ],
        "pollDivisionIds": [
          10141240
        ],
        "postalCode": "K7S1S3",
        "streetName": "MADAWASKA",
        "streetDirectionId": null,
        "streetTypeId": "ST",
        "placeName": "ARNPRIOR",
        "streetNameDisplayText": "MADAWASKA ST, ARNPRIOR"
      }
    ]
  },
  {
    "postal": "K7S6M4",
    "result": []
  },
  {
    "postal": "K7S9A9",
    "result": []
  },
  {
    "postal": "K7S9Z9",
    "result": []
  },
  {
    "postal": "K7S6T4",
    "result": []
  },
  {
    "postal": "K7S0B2",
    "result": [
      {
        "electoralDistricts": [
          {
            "election": null,
            "id": 88,
            "name": "Renfrew—Nipissing—Pembroke"
          }
        ],
        "pollDivisionIds": [
          10141237
        ],
        "postalCode": "K7S0B2",
        "streetName": "SMELTZER",
        "streetDirectionId": null,
        "streetTypeId": "LANE",
        "placeName": "ARNPRIOR",
        "streetNameDisplayText": "SMELTZER LANE, ARNPRIOR"
      }
    ]
  },
  {
    "postal": "K7S2L9",
    "result": [
      {
        "electoralDistricts": [
          {
            "election": null,
            "id": 88,
            "name": "Renfrew—Nipissing—Pembroke"
          }
        ],
        "pollDivisionIds": [
          10141240
        ],
        "postalCode": "K7S2L9",
        "streetName": "DANIEL",
        "streetDirectionId": "S",
        "streetTypeId": "ST",
        "placeName": "ARNPRIOR",
        "streetNameDisplayText": "DANIEL ST S, ARNPRIOR"
      }
    ]
  },
  {
    "postal": "K7S8K9",
    "result": []
  },
  {
    "postal": "K7S2H9",
    "result": [
      {
        "electoralDistricts": [
          {
            "election": null,
            "id": 88,
            "name": "Renfrew—Nipissing—Pembroke"
          }
        ],
        "pollDivisionIds": [
          10141240
        ],
        "postalCode": "K7S2H9",
        "streetName": "THOMAS",
        "streetDirectionId": "N",
        "streetTypeId": "ST",
        "placeName": "ARNPRIOR",
        "streetNameDisplayText": "THOMAS ST N, ARNPRIOR"
      }
    ]
  },
  {
    "postal": "K7S3Z6",
    "result": [
      {
        "electoralDistricts": [
          {
            "election": null,
            "id": 88,
            "name": "Renfrew—Nipissing—Pembroke"
          }
        ],
        "pollDivisionIds": [
          10141240
        ],
        "postalCode": "K7S3Z6",
        "streetName": "ARTHUR",
        "streetDirectionId": null,
        "streetTypeId": "ST",
        "placeName": "ARNPRIOR",
        "streetNameDisplayText": "ARTHUR ST, ARNPRIOR"
      }
    ]
  },
  {
    "postal": "K7S3B0",
    "result": []
  },
  {
    "postal": "K7S2H8",
    "result": [
      {
        "electoralDistricts": [
          {
            "election": null,
            "id": 88,
            "name": "Renfrew—Nipissing—Pembroke"
          }
        ],
        "pollDivisionIds": [
          10141240
        ],
        "postalCode": "K7S2H8",
        "streetName": "THOMAS",
        "streetDirectionId": "N",
        "streetTypeId": "ST",
        "placeName": "ARNPRIOR",
        "streetNameDisplayText": "THOMAS ST N, ARNPRIOR"
      }
    ]
  },
  {
    "postal": "K7S3X2",
    "result": [
      {
        "electoralDistricts": [
          {
            "election": null,
            "id": 88,
            "name": "Renfrew—Nipissing—Pembroke"
          }
        ],
        "pollDivisionIds": [
          10141237
        ],
        "postalCode": "K7S3X2",
        "streetName": "GOODWIN",
        "streetDirectionId": null,
        "streetTypeId": "LANE",
        "placeName": "ARNPRIOR",
        "streetNameDisplayText": "GOODWIN LANE, ARNPRIOR"
      }
    ]
  },
  {
    "postal": "K7S2E9",
    "result": [
      {
        "electoralDistricts": [
          {
            "election": null,
            "id": 88,
            "name": "Renfrew—Nipissing—Pembroke"
          }
        ],
        "pollDivisionIds": [
          10141239
        ],
        "postalCode": "K7S2E9",
        "streetName": "RIVERVIEW",
        "streetDirectionId": null,
        "streetTypeId": "DR",
        "placeName": "ARNPRIOR",
        "streetNameDisplayText": "RIVERVIEW DR, ARNPRIOR"
      }
    ]
  },
  {
    "postal": "K7S9P6",
    "result": []
  },
  {
    "postal": "K7S9E2",
    "result": []
  },
  {
    "postal": "K7S9H2",
    "result": []
  },
  {
    "postal": "K7S1S8",
    "result": [
      {
        "electoralDistricts": [
          {
            "election": null,
            "id": 88,
            "name": "Renfrew—Nipissing—Pembroke"
          }
        ],
        "pollDivisionIds": [
          10141240
        ],
        "postalCode": "K7S1S8",
        "streetName": "MADAWASKA",
        "streetDirectionId": null,
        "streetTypeId": "BLVD",
        "placeName": "ARNPRIOR",
        "streetNameDisplayText": "MADAWASKA BLVD, ARNPRIOR"
      }
    ]
  },
  {
    "postal": "K7S3M6",
    "result": []
  },
  {
    "postal": "K7S6Z8",
    "result": []
  },
  {
    "postal": "K7S4J2",
    "result": []
  },
  {
    "postal": "K7S9Y1",
    "result": []
  },
  {
    "postal": "K7S8V6",
    "result": []
  },
  {
    "postal": "K7S6B2",
    "result": []
  },
  {
    "postal": "K7S1P8",
    "result": [
      {
        "electoralDistricts": [
          {
            "election": null,
            "id": 88,
            "name": "Renfrew—Nipissing—Pembroke"
          }
        ],
        "pollDivisionIds": [
          10141239
        ],
        "postalCode": "K7S1P8",
        "streetName": "ELGIN",
        "streetDirectionId": "W",
        "streetTypeId": "ST",
        "placeName": "ARNPRIOR",
        "streetNameDisplayText": "ELGIN ST W, ARNPRIOR"
      }
    ]
  },
  {
    "postal": "K7S0V8",
    "result": []
  },
  {
    "postal": "K7S4Y0",
    "result": []
  },
  {
    "postal": "K7S2T4",
    "result": [
      {
        "electoralDistricts": [
          {
            "election": null,
            "id": 88,
            "name": "Renfrew—Nipissing—Pembroke"
          }
        ],
        "pollDivisionIds": [
          10141239
        ],
        "postalCode": "K7S2T4",
        "streetName": "HARRIET",
        "streetDirectionId": null,
        "streetTypeId": "ST",
        "placeName": "ARNPRIOR",
        "streetNameDisplayText": "HARRIET ST, ARNPRIOR"
      }
    ]
  },
  {
    "postal": "K7S2S3",
    "result": [
      {
        "electoralDistricts": [
          {
            "election": null,
            "id": 88,
            "name": "Renfrew—Nipissing—Pembroke"
          }
        ],
        "pollDivisionIds": [
          10141239
        ],
        "postalCode": "K7S2S3",
        "streetName": "TIERNEY",
        "streetDirectionId": "S",
        "streetTypeId": "ST",
        "placeName": "ARNPRIOR",
        "streetNameDisplayText": "TIERNEY ST S, ARNPRIOR"
      }
    ]
  },
  {
    "postal": "K7S0K0",
    "result": []
  },
  {
    "postal": "K7S5N1",
    "result": []
  },
  {
    "postal": "K7S7T0",
    "result": []
  },
  {
    "postal": "K7S9N2",
    "result": []
  },
  {
    "postal": "K7S5L1",
    "result": []
  },
  {
    "postal": "K7S7G5",
    "result": []
  },
  {
    "postal": "K7S6K2",
    "result": []
  },
  {
    "postal": "K7S6P9",
    "result": []
  },
  {
    "postal": "K7S0E6",
    "result": [
      {
        "electoralDistricts": [
          {
            "election": null,
            "id": 88,
            "name": "Renfrew—Nipissing—Pembroke"
          }
        ],
        "pollDivisionIds": [
          10141238
        ],
        "postalCode": "K7S0E6",
        "streetName": "FAIRBROOKE",
        "streetDirectionId": null,
        "streetTypeId": "CRT",
        "placeName": "ARNPRIOR",
        "streetNameDisplayText": "FAIRBROOKE CRT, ARNPRIOR"
      }
    ]
  },
  {
    "postal": "K7S8R9",
    "result": []
  },
  {
    "postal": "K7S3G9",
    "result": [
      {
        "electoralDistricts": [
          {
            "election": null,
            "id": 51,
            "name": "Lanark—Frontenac—Kingston"
          }
        ],
        "pollDivisionIds": [
          10139396
        ],
        "postalCode": "K7S3G9",
        "streetName": "7 CON NORTH PAKENHAM",
        "streetDirectionId": null,
        "streetTypeId": null,
        "placeName": "ARNPRIOR",
        "streetNameDisplayText": "7 CON NORTH PAKENHAM, ARNPRIOR"
      },
      {
        "electoralDistricts": [
          {
            "election": null,
            "id": 88,
            "name": "Renfrew—Nipissing—Pembroke"
          }
        ],
        "pollDivisionIds": [
          10141247
        ],
        "postalCode": "K7S3G9",
        "streetName": "ALGONKIN",
        "streetDirectionId": null,
        "streetTypeId": "TRAIL",
        "placeName": "ARNPRIOR",
        "streetNameDisplayText": "ALGONKIN TRAIL, ARNPRIOR"
      },
      {
        "electoralDistricts": [
          {
            "election": null,
            "id": 88,
            "name": "Renfrew—Nipissing—Pembroke"
          }
        ],
        "pollDivisionIds": [
          10141247,
          10141236
        ],
        "postalCode": "K7S3G9",
        "streetName": "BARRIE",
        "streetDirectionId": null,
        "streetTypeId": "RD",
        "placeName": "ARNPRIOR",
        "streetNameDisplayText": "BARRIE RD, ARNPRIOR"
      },
      {
        "electoralDistricts": [
          {
            "election": null,
            "id": 88,
            "name": "Renfrew—Nipissing—Pembroke"
          }
        ],
        "pollDivisionIds": [
          10141237,
          10141238
        ],
        "postalCode": "K7S3G9",
        "streetName": "CAMPBELL",
        "streetDirectionId": null,
        "streetTypeId": "DR",
        "placeName": "ARNPRIOR",
        "streetNameDisplayText": "CAMPBELL DR, ARNPRIOR"
      },
      {
        "electoralDistricts": [
          {
            "election": null,
            "id": 88,
            "name": "Renfrew—Nipissing—Pembroke"
          }
        ],
        "pollDivisionIds": [
          10141240
        ],
        "postalCode": "K7S3G9",
        "streetName": "DANIEL",
        "streetDirectionId": "S",
        "streetTypeId": "ST",
        "placeName": "ARNPRIOR",
        "streetNameDisplayText": "DANIEL ST S, ARNPRIOR"
      },
      {
        "electoralDistricts": [
          {
            "election": null,
            "id": 88,
            "name": "Renfrew—Nipissing—Pembroke"
          }
        ],
        "pollDivisionIds": [
          10141247
        ],
        "postalCode": "K7S3G9",
        "streetName": "FRANK",
        "streetDirectionId": null,
        "streetTypeId": "ST",
        "placeName": "ARNPRIOR",
        "streetNameDisplayText": "FRANK ST, ARNPRIOR"
      },
      {
        "electoralDistricts": [
          {
            "election": null,
            "id": 88,
            "name": "Renfrew—Nipissing—Pembroke"
          }
        ],
        "pollDivisionIds": [
          10141247
        ],
        "postalCode": "K7S3G9",
        "streetName": "GREEN MEADOW",
        "streetDirectionId": null,
        "streetTypeId": "RD",
        "placeName": "ARNPRIOR",
        "streetNameDisplayText": "GREEN MEADOW RD, ARNPRIOR"
      },
      {
        "electoralDistricts": [
          {
            "election": null,
            "id": 88,
            "name": "Renfrew—Nipissing—Pembroke"
          }
        ],
        "pollDivisionIds": [
          10141247
        ],
        "postalCode": "K7S3G9",
        "streetName": "HIDDEN RIVER",
        "streetDirectionId": null,
        "streetTypeId": "RD",
        "placeName": "ARNPRIOR",
        "streetNameDisplayText": "HIDDEN RIVER RD, ARNPRIOR"
      },
      {
        "electoralDistricts": [
          {
            "election": null,
            "id": 88,
            "name": "Renfrew—Nipissing—Pembroke"
          }
        ],
        "pollDivisionIds": [
          10141247
        ],
        "postalCode": "K7S3G9",
        "streetName": "HIGHLAND",
        "streetDirectionId": null,
        "streetTypeId": "RD",
        "placeName": "ARNPRIOR",
        "streetNameDisplayText": "HIGHLAND RD, ARNPRIOR"
      },
      {
        "electoralDistricts": [
          {
            "election": null,
            "id": 88,
            "name": "Renfrew—Nipissing—Pembroke"
          }
        ],
        "pollDivisionIds": [
          10141247
        ],
        "postalCode": "K7S3G9",
        "streetName": "MCKENZIE",
        "streetDirectionId": null,
        "streetTypeId": "AVE",
        "placeName": "ARNPRIOR",
        "streetNameDisplayText": "MCKENZIE AVE, ARNPRIOR"
      },
      {
        "electoralDistricts": [
          {
            "election": null,
            "id": 88,
            "name": "Renfrew—Nipissing—Pembroke"
          }
        ],
        "pollDivisionIds": [
          10141247
        ],
        "postalCode": "K7S3G9",
        "streetName": "MEYER",
        "streetDirectionId": null,
        "streetTypeId": "RD",
        "placeName": "ARNPRIOR",
        "streetNameDisplayText": "MEYER RD, ARNPRIOR"
      },
      {
        "electoralDistricts": [
          {
            "election": null,
            "id": 88,
            "name": "Renfrew—Nipissing—Pembroke"
          }
        ],
        "pollDivisionIds": [
          10141237
        ],
        "postalCode": "K7S3G9",
        "streetName": "MOORHEAD",
        "streetDirectionId": null,
        "streetTypeId": "CRES",
        "placeName": "ARNPRIOR",
        "streetNameDisplayText": "MOORHEAD CRES, ARNPRIOR"
      },
      {
        "electoralDistricts": [
          {
            "election": null,
            "id": 88,
            "name": "Renfrew—Nipissing—Pembroke"
          }
        ],
        "pollDivisionIds": [
          10141247
        ],
        "postalCode": "K7S3G9",
        "streetName": "MOUNTAIN VIEW",
        "streetDirectionId": null,
        "streetTypeId": "RD",
        "placeName": "ARNPRIOR",
        "streetNameDisplayText": "MOUNTAIN VIEW RD, ARNPRIOR"
      },
      {
        "electoralDistricts": [
          {
            "election": null,
            "id": 88,
            "name": "Renfrew—Nipissing—Pembroke"
          }
        ],
        "pollDivisionIds": [
          10141247
        ],
        "postalCode": "K7S3G9",
        "streetName": "MOUNTAIN",
        "streetDirectionId": null,
        "streetTypeId": "VIEW",
        "placeName": "ARNPRIOR",
        "streetNameDisplayText": "MOUNTAIN VIEW, ARNPRIOR"
      },
      {
        "electoralDistricts": [
          {
            "election": null,
            "id": 88,
            "name": "Renfrew—Nipissing—Pembroke"
          }
        ],
        "pollDivisionIds": [
          10141227
        ],
        "postalCode": "K7S3G9",
        "streetName": "MOUNTAINVIEW",
        "streetDirectionId": null,
        "streetTypeId": "RD",
        "placeName": "ARNPRIOR",
        "streetNameDisplayText": "MOUNTAINVIEW RD, ARNPRIOR"
      },
      {
        "electoralDistricts": [
          {
            "election": null,
            "id": 88,
            "name": "Renfrew—Nipissing—Pembroke"
          }
        ],
        "pollDivisionIds": [
          10141247
        ],
        "postalCode": "K7S3G9",
        "streetName": "REED",
        "streetDirectionId": null,
        "streetTypeId": "RD",
        "placeName": "ARNPRIOR",
        "streetNameDisplayText": "REED RD, ARNPRIOR"
      },
      {
        "electoralDistricts": [
          {
            "election": null,
            "id": 88,
            "name": "Renfrew—Nipissing—Pembroke"
          }
        ],
        "pollDivisionIds": [
          10141238
        ],
        "postalCode": "K7S3G9",
        "streetName": "RICHARDS",
        "streetDirectionId": null,
        "streetTypeId": "LANE",
        "placeName": "ARNPRIOR",
        "streetNameDisplayText": "RICHARDS LANE, ARNPRIOR"
      },
      {
        "electoralDistricts": [
          {
            "election": null,
            "id": 88,
            "name": "Renfrew—Nipissing—Pembroke"
          }
        ],
        "pollDivisionIds": [
          10141247
        ],
        "postalCode": "K7S3G9",
        "streetName": "ROBERSTON",
        "streetDirectionId": null,
        "streetTypeId": "LINE",
        "placeName": "ARNPRIOR",
        "streetNameDisplayText": "ROBERSTON LINE, ARNPRIOR"
      },
      {
        "electoralDistricts": [
          {
            "election": null,
            "id": 88,
            "name": "Renfrew—Nipissing—Pembroke"
          },
          {
            "election": null,
            "id": 51,
            "name": "Lanark—Frontenac—Kingston"
          }
        ],
        "pollDivisionIds": [
          10141247,
          10139396
        ],
        "postalCode": "K7S3G9",
        "streetName": "ROBERTSON",
        "streetDirectionId": null,
        "streetTypeId": "LINE",
        "placeName": "ARNPRIOR",
        "streetNameDisplayText": "ROBERTSON LINE, ARNPRIOR"
      },
      {
        "electoralDistricts": [
          {
            "election": null,
            "id": 88,
            "name": "Renfrew—Nipissing—Pembroke"
          }
        ],
        "pollDivisionIds": [
          10141247
        ],
        "postalCode": "K7S3G9",
        "streetName": "SAWMILL",
        "streetDirectionId": null,
        "streetTypeId": "RD",
        "placeName": "ARNPRIOR",
        "streetNameDisplayText": "SAWMILL RD, ARNPRIOR"
      },
      {
        "electoralDistricts": [
          {
            "election": null,
            "id": 88,
            "name": "Renfrew—Nipissing—Pembroke"
          }
        ],
        "pollDivisionIds": [
          10141238
        ],
        "postalCode": "K7S3G9",
        "streetName": "VAN DUSEN",
        "streetDirectionId": null,
        "streetTypeId": "DR",
        "placeName": "ARNPRIOR",
        "streetNameDisplayText": "VAN DUSEN DR, ARNPRIOR"
      },
      {
        "electoralDistricts": [
          {
            "election": null,
            "id": 88,
            "name": "Renfrew—Nipissing—Pembroke"
          }
        ],
        "pollDivisionIds": [
          10141238
        ],
        "postalCode": "K7S3G9",
        "streetName": "WABALAC",
        "streetDirectionId": null,
        "streetTypeId": "DR",
        "placeName": "ARNPRIOR",
        "streetNameDisplayText": "WABALAC DR, ARNPRIOR"
      },
      {
        "electoralDistricts": [
          {
            "election": null,
            "id": 88,
            "name": "Renfrew—Nipissing—Pembroke"
          }
        ],
        "pollDivisionIds": [
          10141237
        ],
        "postalCode": "K7S3G9",
        "streetName": "WALLACE",
        "streetDirectionId": null,
        "streetTypeId": "RD",
        "placeName": "ARNPRIOR",
        "streetNameDisplayText": "WALLACE RD, ARNPRIOR"
      },
      {
        "electoralDistricts": [
          {
            "election": null,
            "id": 88,
            "name": "Renfrew—Nipissing—Pembroke"
          }
        ],
        "pollDivisionIds": [
          10141237,
          10141247,
          10141238,
          10141240
        ],
        "postalCode": "K7S3G9",
        "streetName": "WHITE LAKE",
        "streetDirectionId": null,
        "streetTypeId": "RD",
        "placeName": "ARNPRIOR",
        "streetNameDisplayText": "WHITE LAKE RD, ARNPRIOR"
      },
      {
        "electoralDistricts": [
          {
            "election": null,
            "id": 88,
            "name": "Renfrew—Nipissing—Pembroke"
          }
        ],
        "pollDivisionIds": [
          10141247
        ],
        "postalCode": "K7S3G9",
        "streetName": "YOUNG",
        "streetDirectionId": null,
        "streetTypeId": "RD",
        "placeName": "ARNPRIOR",
        "streetNameDisplayText": "YOUNG RD, ARNPRIOR"
      }
    ]
  },
  {
    "postal": "K7S0V7",
    "result": []
  },
  {
    "postal": "K7S2Z1",
    "result": [
      {
        "electoralDistricts": [
          {
            "election": null,
            "id": 88,
            "name": "Renfrew—Nipissing—Pembroke"
          }
        ],
        "pollDivisionIds": [
          10141238
        ],
        "postalCode": "K7S2Z1",
        "streetName": "MCLACHLIN",
        "streetDirectionId": "S",
        "streetTypeId": "ST",
        "placeName": "ARNPRIOR",
        "streetNameDisplayText": "MCLACHLIN ST S, ARNPRIOR"
      }
    ]
  },
  {
    "postal": "K7S7N1",
    "result": []
  },
  {
    "postal": "K7S3C6",
    "result": [
      {
        "electoralDistricts": [
          {
            "election": null,
            "id": 88,
            "name": "Renfrew—Nipissing—Pembroke"
          }
        ],
        "pollDivisionIds": [
          10141237
        ],
        "postalCode": "K7S3C6",
        "streetName": "DIVISION",
        "streetDirectionId": "S",
        "streetTypeId": "ST",
        "placeName": "ARNPRIOR",
        "streetNameDisplayText": "DIVISION ST S, ARNPRIOR"
      }
    ]
  },
  {
    "postal": "K7S4M1",
    "result": []
  },
  {
    "postal": "K7S9K2",
    "result": []
  },
  {
    "postal": "K7S9S6",
    "result": []
  },
  {
    "postal": "K7S4X1",
    "result": []
  },
  {
    "postal": "K7S8W2",
    "result": []
  },
  {
    "postal": "K7S7N2",
    "result": []
  },
  {
    "postal": "K7S8S3",
    "result": []
  },
  {
    "postal": "K7S4V0",
    "result": []
  },
  {
    "postal": "K7S6W4",
    "result": []
  },
  {
    "postal": "K7S5M1",
    "result": []
  },
  {
    "postal": "K7S0S4",
    "result": []
  },
  {
    "postal": "K7S5X6",
    "result": []
  },
  {
    "postal": "K7S8L5",
    "result": []
  },
  {
    "postal": "K7S5M8",
    "result": []
  },
  {
    "postal": "K7S2G3",
    "result": [
      {
        "electoralDistricts": [
          {
            "election": null,
            "id": 88,
            "name": "Renfrew—Nipissing—Pembroke"
          }
        ],
        "pollDivisionIds": [
          10141240
        ],
        "postalCode": "K7S2G3",
        "streetName": "RIVERVIEW",
        "streetDirectionId": null,
        "streetTypeId": "DR",
        "placeName": "ARNPRIOR",
        "streetNameDisplayText": "RIVERVIEW DR, ARNPRIOR"
      }
    ]
  },
  {
    "postal": "K7S8E4",
    "result": []
  },
  {
    "postal": "K7S7S9",
    "result": []
  },
  {
    "postal": "K7S1K3",
    "result": [
      {
        "electoralDistricts": [
          {
            "election": null,
            "id": 88,
            "name": "Renfrew—Nipissing—Pembroke"
          }
        ],
        "pollDivisionIds": [
          10141239
        ],
        "postalCode": "K7S1K3",
        "streetName": "WILLIAM",
        "streetDirectionId": "W",
        "streetTypeId": "ST",
        "placeName": "ARNPRIOR",
        "streetNameDisplayText": "WILLIAM ST W, ARNPRIOR"
      }
    ]
  },
  {
    "postal": "K7S4E1",
    "result": []
  },
  {
    "postal": "K7S4R2",
    "result": []
  },
  {
    "postal": "K7S6T0",
    "result": []
  },
  {
    "postal": "K7S3K5",
    "result": [
      {
        "electoralDistricts": [
          {
            "election": null,
            "id": 88,
            "name": "Renfrew—Nipissing—Pembroke"
          }
        ],
        "pollDivisionIds": [
          10141240
        ],
        "postalCode": "K7S3K5",
        "streetName": "DANIEL",
        "streetDirectionId": "S",
        "streetTypeId": "ST",
        "placeName": "ARNPRIOR",
        "streetNameDisplayText": "DANIEL ST S, ARNPRIOR"
      }
    ]
  },
  {
    "postal": "K7S3S3",
    "result": [
      {
        "electoralDistricts": [
          {
            "election": null,
            "id": 88,
            "name": "Renfrew—Nipissing—Pembroke"
          }
        ],
        "pollDivisionIds": [
          10141240
        ],
        "postalCode": "K7S3S3",
        "streetName": "SEVENTH",
        "streetDirectionId": null,
        "streetTypeId": "AVE",
        "placeName": "ARNPRIOR",
        "streetNameDisplayText": "SEVENTH AVE, ARNPRIOR"
      }
    ]
  },
  {
    "postal": "K7S3L4",
    "result": [
      {
        "electoralDistricts": [
          {
            "election": null,
            "id": 88,
            "name": "Renfrew—Nipissing—Pembroke"
          }
        ],
        "pollDivisionIds": [
          10141240
        ],
        "postalCode": "K7S3L4",
        "streetName": "HUGH",
        "streetDirectionId": "N",
        "streetTypeId": "ST",
        "placeName": "ARNPRIOR",
        "streetNameDisplayText": "HUGH ST N, ARNPRIOR"
      }
    ]
  },
  {
    "postal": "K7S9Y2",
    "result": []
  },
  {
    "postal": "K7S1E0",
    "result": []
  },
  {
    "postal": "K7S9A4",
    "result": []
  },
  {
    "postal": "K7S1L3",
    "result": [
      {
        "electoralDistricts": [
          {
            "election": null,
            "id": 88,
            "name": "Renfrew—Nipissing—Pembroke"
          }
        ],
        "pollDivisionIds": [
          10141240
        ],
        "postalCode": "K7S1L3",
        "streetName": "MCGONIGAL",
        "streetDirectionId": "E",
        "streetTypeId": "ST",
        "placeName": "ARNPRIOR",
        "streetNameDisplayText": "MCGONIGAL ST E, ARNPRIOR"
      }
    ]
  },
  {
    "postal": "K7S6N1",
    "result": []
  },
  {
    "postal": "K7S6G7",
    "result": []
  },
  {
    "postal": "K7S7W1",
    "result": []
  },
  {
    "postal": "K7S4M6",
    "result": []
  },
  {
    "postal": "K7S1K0",
    "result": []
  },
  {
    "postal": "K7S3E2",
    "result": [
      {
        "electoralDistricts": [
          {
            "election": null,
            "id": 88,
            "name": "Renfrew—Nipissing—Pembroke"
          }
        ],
        "pollDivisionIds": [
          10141237
        ],
        "postalCode": "K7S3E2",
        "streetName": "SOMERVILLE",
        "streetDirectionId": null,
        "streetTypeId": "ST",
        "placeName": "ARNPRIOR",
        "streetNameDisplayText": "SOMERVILLE ST, ARNPRIOR"
      }
    ]
  },
  {
    "postal": "K7S5H4",
    "result": []
  },
  {
    "postal": "K7S1K7",
    "result": [
      {
        "electoralDistricts": [
          {
            "election": null,
            "id": 88,
            "name": "Renfrew—Nipissing—Pembroke"
          }
        ],
        "pollDivisionIds": [
          10141238
        ],
        "postalCode": "K7S1K7",
        "streetName": "WILLIAM",
        "streetDirectionId": "W",
        "streetTypeId": "ST",
        "placeName": "ARNPRIOR",
        "streetNameDisplayText": "WILLIAM ST W, ARNPRIOR"
      }
    ]
  },
  {
    "postal": "K7S0H0",
    "result": []
  },
  {
    "postal": "K7S0J3",
    "result": []
  },
  {
    "postal": "K7S1X6",
    "result": [
      {
        "electoralDistricts": [
          {
            "election": null,
            "id": 88,
            "name": "Renfrew—Nipissing—Pembroke"
          }
        ],
        "pollDivisionIds": [
          10141239
        ],
        "postalCode": "K7S1X6",
        "streetName": "OTTAWA",
        "streetDirectionId": null,
        "streetTypeId": "ST",
        "placeName": "ARNPRIOR",
        "streetNameDisplayText": "OTTAWA ST, ARNPRIOR"
      }
    ]
  },
  {
    "postal": "K7S2Z6",
    "result": [
      {
        "electoralDistricts": [
          {
            "election": null,
            "id": 88,
            "name": "Renfrew—Nipissing—Pembroke"
          }
        ],
        "pollDivisionIds": [
          10141238
        ],
        "postalCode": "K7S2Z6",
        "streetName": "VANCOURTLAND",
        "streetDirectionId": "S",
        "streetTypeId": "ST",
        "placeName": "ARNPRIOR",
        "streetNameDisplayText": "VANCOURTLAND ST S, ARNPRIOR"
      }
    ]
  },
  {
    "postal": "K7S4R9",
    "result": []
  },
  {
    "postal": "K7S0W8",
    "result": []
  },
  {
    "postal": "K7S1L4",
    "result": [
      {
        "electoralDistricts": [
          {
            "election": null,
            "id": 88,
            "name": "Renfrew—Nipissing—Pembroke"
          }
        ],
        "pollDivisionIds": [
          10141240
        ],
        "postalCode": "K7S1L4",
        "streetName": "MCGONIGAL",
        "streetDirectionId": "E",
        "streetTypeId": "ST",
        "placeName": "ARNPRIOR",
        "streetNameDisplayText": "MCGONIGAL ST E, ARNPRIOR"
      }
    ]
  },
  {
    "postal": "K7S0C8",
    "result": [
      {
        "electoralDistricts": [
          {
            "election": null,
            "id": 88,
            "name": "Renfrew—Nipissing—Pembroke"
          }
        ],
        "pollDivisionIds": [
          10141240
        ],
        "postalCode": "K7S0C8",
        "streetName": "THOMAS",
        "streetDirectionId": "S",
        "streetTypeId": "ST",
        "placeName": "ARNPRIOR",
        "streetNameDisplayText": "THOMAS ST S, ARNPRIOR"
      }
    ]
  },
  {
    "postal": "K7S9X7",
    "result": []
  },
  {
    "postal": "K7S4T1",
    "result": []
  },
  {
    "postal": "K7S0M0",
    "result": []
  },
  {
    "postal": "K7S6A2",
    "result": []
  },
  {
    "postal": "K7S9S8",
    "result": []
  },
  {
    "postal": "K7S9T4",
    "result": []
  },
  {
    "postal": "K7S9Y4",
    "result": []
  },
  {
    "postal": "K7S6G5",
    "result": []
  },
  {
    "postal": "K7S6H9",
    "result": []
  },
  {
    "postal": "K7S2P3",
    "result": [
      {
        "electoralDistricts": [
          {
            "election": null,
            "id": 88,
            "name": "Renfrew—Nipissing—Pembroke"
          }
        ],
        "pollDivisionIds": [
          10141239
        ],
        "postalCode": "K7S2P3",
        "streetName": "JOHN",
        "streetDirectionId": "N",
        "streetTypeId": "ST",
        "placeName": "ARNPRIOR",
        "streetNameDisplayText": "JOHN ST N, ARNPRIOR"
      }
    ]
  },
  {
    "postal": "K7S1T6",
    "result": [
      {
        "electoralDistricts": [
          {
            "election": null,
            "id": 88,
            "name": "Renfrew—Nipissing—Pembroke"
          }
        ],
        "pollDivisionIds": [
          10141240
        ],
        "postalCode": "K7S1T6",
        "streetName": "VICTORIA",
        "streetDirectionId": null,
        "streetTypeId": "ST",
        "placeName": "ARNPRIOR",
        "streetNameDisplayText": "VICTORIA ST, ARNPRIOR"
      }
    ]
  },
  {
    "postal": "K7S4P6",
    "result": []
  },
  {
    "postal": "K7S3K1",
    "result": [
      {
        "electoralDistricts": [
          {
            "election": null,
            "id": 88,
            "name": "Renfrew—Nipissing—Pembroke"
          }
        ],
        "pollDivisionIds": [
          10141240
        ],
        "postalCode": "K7S3K1",
        "streetName": "MADAWASKA",
        "streetDirectionId": null,
        "streetTypeId": "BLVD",
        "placeName": "ARNPRIOR",
        "streetNameDisplayText": "MADAWASKA BLVD, ARNPRIOR"
      }
    ]
  },
  {
    "postal": "K7S6X4",
    "result": []
  },
  {
    "postal": "K7S4M8",
    "result": []
  },
  {
    "postal": "K7S2Y1",
    "result": [
      {
        "electoralDistricts": [
          {
            "election": null,
            "id": 88,
            "name": "Renfrew—Nipissing—Pembroke"
          }
        ],
        "pollDivisionIds": [
          10141238
        ],
        "postalCode": "K7S2Y1",
        "streetName": "SULLIVAN",
        "streetDirectionId": null,
        "streetTypeId": "CRES",
        "placeName": "ARNPRIOR",
        "streetNameDisplayText": "SULLIVAN CRES, ARNPRIOR"
      }
    ]
  },
  {
    "postal": "K7S6M1",
    "result": []
  },
  {
    "postal": "K7S5L8",
    "result": []
  },
  {
    "postal": "K7S3P6",
    "result": []
  },
  {
    "postal": "K7S9A5",
    "result": []
  },
  {
    "postal": "K7S7K1",
    "result": []
  },
  {
    "postal": "K7S3J4",
    "result": [
      {
        "electoralDistricts": [
          {
            "election": null,
            "id": 88,
            "name": "Renfrew—Nipissing—Pembroke"
          }
        ],
        "pollDivisionIds": [
          10141239
        ],
        "postalCode": "K7S3J4",
        "streetName": "VICTORIA",
        "streetDirectionId": null,
        "streetTypeId": "ST",
        "placeName": "ARNPRIOR",
        "streetNameDisplayText": "VICTORIA ST, ARNPRIOR"
      }
    ]
  },
  {
    "postal": "K7S5E7",
    "result": []
  },
  {
    "postal": "K7S3A7",
    "result": [
      {
        "electoralDistricts": [
          {
            "election": null,
            "id": 88,
            "name": "Renfrew—Nipissing—Pembroke"
          }
        ],
        "pollDivisionIds": [
          10141239
        ],
        "postalCode": "K7S3A7",
        "streetName": "NORMA",
        "streetDirectionId": "N",
        "streetTypeId": "ST",
        "placeName": "ARNPRIOR",
        "streetNameDisplayText": "NORMA ST N, ARNPRIOR"
      }
    ]
  },
  {
    "postal": "K7S1B9",
    "result": [
      {
        "electoralDistricts": [
          {
            "election": null,
            "id": 88,
            "name": "Renfrew—Nipissing—Pembroke"
          }
        ],
        "pollDivisionIds": [
          10141239
        ],
        "postalCode": "K7S1B9",
        "streetName": "EDEY",
        "streetDirectionId": null,
        "streetTypeId": "ST",
        "placeName": "ARNPRIOR",
        "streetNameDisplayText": "EDEY ST, ARNPRIOR"
      }
    ]
  },
  {
    "postal": "K7S9E8",
    "result": []
  },
  {
    "postal": "K7S1C9",
    "result": [
      {
        "electoralDistricts": [
          {
            "election": null,
            "id": 88,
            "name": "Renfrew—Nipissing—Pembroke"
          }
        ],
        "pollDivisionIds": [
          10141240
        ],
        "postalCode": "K7S1C9",
        "streetName": "JAMES",
        "streetDirectionId": null,
        "streetTypeId": "ST",
        "placeName": "ARNPRIOR",
        "streetNameDisplayText": "JAMES ST, ARNPRIOR"
      }
    ]
  },
  {
    "postal": "K7S3B5",
    "result": [
      {
        "electoralDistricts": [
          {
            "election": null,
            "id": 88,
            "name": "Renfrew—Nipissing—Pembroke"
          }
        ],
        "pollDivisionIds": [
          10141238
        ],
        "postalCode": "K7S3B5",
        "streetName": "NORMA",
        "streetDirectionId": "S",
        "streetTypeId": "ST",
        "placeName": "ARNPRIOR",
        "streetNameDisplayText": "NORMA ST S, ARNPRIOR"
      }
    ]
  },
  {
    "postal": "K7S8R0",
    "result": []
  },
  {
    "postal": "K7S3P2",
    "result": []
  },
  {
    "postal": "K7S5V4",
    "result": []
  },
  {
    "postal": "K7S4H0",
    "result": []
  },
  {
    "postal": "K7S4S7",
    "result": []
  },
  {
    "postal": "K7S6C2",
    "result": []
  },
  {
    "postal": "K7S8W3",
    "result": []
  },
  {
    "postal": "K7S4M5",
    "result": []
  },
  {
    "postal": "K7S5T1",
    "result": []
  },
  {
    "postal": "K7S3B3",
    "result": [
      {
        "electoralDistricts": [
          {
            "election": null,
            "id": 88,
            "name": "Renfrew—Nipissing—Pembroke"
          }
        ],
        "pollDivisionIds": [
          10141238
        ],
        "postalCode": "K7S3B3",
        "streetName": "NORMA",
        "streetDirectionId": "S",
        "streetTypeId": "ST",
        "placeName": "ARNPRIOR",
        "streetNameDisplayText": "NORMA ST S, ARNPRIOR"
      }
    ]
  },
  {
    "postal": "K7S6C6",
    "result": []
  },
  {
    "postal": "K7S7N8",
    "result": []
  },
  {
    "postal": "K7S2Y3",
    "result": [
      {
        "electoralDistricts": [
          {
            "election": null,
            "id": 88,
            "name": "Renfrew—Nipissing—Pembroke"
          }
        ],
        "pollDivisionIds": [
          10141239
        ],
        "postalCode": "K7S2Y3",
        "streetName": "MCLACHLIN",
        "streetDirectionId": "N",
        "streetTypeId": "ST",
        "placeName": "ARNPRIOR",
        "streetNameDisplayText": "MCLACHLIN ST N, ARNPRIOR"
      }
    ]
  },
  {
    "postal": "K7S2R6",
    "result": [
      {
        "electoralDistricts": [
          {
            "election": null,
            "id": 88,
            "name": "Renfrew—Nipissing—Pembroke"
          }
        ],
        "pollDivisionIds": [
          10141239
        ],
        "postalCode": "K7S2R6",
        "streetName": "BELL",
        "streetDirectionId": null,
        "streetTypeId": "ST",
        "placeName": "ARNPRIOR",
        "streetNameDisplayText": "BELL ST, ARNPRIOR"
      }
    ]
  },
  {
    "postal": "K7S7N3",
    "result": []
  },
  {
    "postal": "K7S8J2",
    "result": []
  },
  {
    "postal": "K7S6A9",
    "result": []
  },
  {
    "postal": "K7S3V2",
    "result": [
      {
        "electoralDistricts": [
          {
            "election": null,
            "id": 88,
            "name": "Renfrew—Nipissing—Pembroke"
          }
        ],
        "pollDivisionIds": [
          10141237
        ],
        "postalCode": "K7S3V2",
        "streetName": "RICHMOND",
        "streetDirectionId": null,
        "streetTypeId": "ST",
        "placeName": "ARNPRIOR",
        "streetNameDisplayText": "RICHMOND ST, ARNPRIOR"
      }
    ]
  },
  {
    "postal": "K7S2N3",
    "result": [
      {
        "electoralDistricts": [
          {
            "election": null,
            "id": 88,
            "name": "Renfrew—Nipissing—Pembroke"
          }
        ],
        "pollDivisionIds": [
          10141240
        ],
        "postalCode": "K7S2N3",
        "streetName": "JOHN",
        "streetDirectionId": "N",
        "streetTypeId": "ST",
        "placeName": "ARNPRIOR",
        "streetNameDisplayText": "JOHN ST N, ARNPRIOR"
      }
    ]
  },
  {
    "postal": "K7S1S5",
    "result": [
      {
        "electoralDistricts": [
          {
            "election": null,
            "id": 88,
            "name": "Renfrew—Nipissing—Pembroke"
          }
        ],
        "pollDivisionIds": [
          10141239
        ],
        "postalCode": "K7S1S5",
        "streetName": "MADAWASKA",
        "streetDirectionId": null,
        "streetTypeId": "BLVD",
        "placeName": "ARNPRIOR",
        "streetNameDisplayText": "MADAWASKA BLVD, ARNPRIOR"
      }
    ]
  },
  {
    "postal": "K7S4T7",
    "result": []
  },
  {
    "postal": "K7S6Y7",
    "result": []
  },
  {
    "postal": "K7S0W7",
    "result": []
  },
  {
    "postal": "K7S2W9",
    "result": [
      {
        "electoralDistricts": [
          {
            "election": null,
            "id": 88,
            "name": "Renfrew—Nipissing—Pembroke"
          }
        ],
        "pollDivisionIds": [
          10141238
        ],
        "postalCode": "K7S2W9",
        "streetName": "WILFRED",
        "streetDirectionId": null,
        "streetTypeId": "CRES",
        "placeName": "ARNPRIOR",
        "streetNameDisplayText": "WILFRED CRES, ARNPRIOR"
      }
    ]
  },
  {
    "postal": "K7S8V0",
    "result": []
  },
  {
    "postal": "K7S0H4",
    "result": []
  },
  {
    "postal": "K7S2T1",
    "result": [
      {
        "electoralDistricts": [
          {
            "election": null,
            "id": 88,
            "name": "Renfrew—Nipissing—Pembroke"
          }
        ],
        "pollDivisionIds": [
          10141240
        ],
        "postalCode": "K7S2T1",
        "streetName": "HARRIET",
        "streetDirectionId": null,
        "streetTypeId": "ST",
        "placeName": "ARNPRIOR",
        "streetNameDisplayText": "HARRIET ST, ARNPRIOR"
      }
    ]
  },
  {
    "postal": "K7S1B1",
    "result": [
      {
        "electoralDistricts": [
          {
            "election": null,
            "id": 88,
            "name": "Renfrew—Nipissing—Pembroke"
          }
        ],
        "pollDivisionIds": [
          10141237
        ],
        "postalCode": "K7S1B1",
        "streetName": "ABIGAIL",
        "streetDirectionId": null,
        "streetTypeId": "ST",
        "placeName": "ARNPRIOR",
        "streetNameDisplayText": "ABIGAIL ST, ARNPRIOR"
      }
    ]
  },
  {
    "postal": "K7S8B6",
    "result": []
  },
  {
    "postal": "K7S6H1",
    "result": []
  },
  {
    "postal": "K7S8T8",
    "result": []
  },
  {
    "postal": "K7S0T4",
    "result": []
  },
  {
    "postal": "K7S2C4",
    "result": [
      {
        "electoralDistricts": [
          {
            "election": null,
            "id": 88,
            "name": "Renfrew—Nipissing—Pembroke"
          }
        ],
        "pollDivisionIds": [
          10141240
        ],
        "postalCode": "K7S2C4",
        "streetName": "ROCK",
        "streetDirectionId": "W",
        "streetTypeId": "LANE",
        "placeName": "ARNPRIOR",
        "streetNameDisplayText": "ROCK LANE W, ARNPRIOR"
      }
    ]
  },
  {
    "postal": "K7S8N3",
    "result": []
  },
  {
    "postal": "K7S4L8",
    "result": []
  },
  {
    "postal": "K7S2B5",
    "result": []
  },
  {
    "postal": "K7S3H1",
    "result": []
  },
  {
    "postal": "K7S4Y1",
    "result": []
  },
  {
    "postal": "K7S7E2",
    "result": []
  },
  {
    "postal": "K7S2P5",
    "result": [
      {
        "electoralDistricts": [
          {
            "election": null,
            "id": 88,
            "name": "Renfrew—Nipissing—Pembroke"
          }
        ],
        "pollDivisionIds": [
          10141239
        ],
        "postalCode": "K7S2P5",
        "streetName": "JOHN",
        "streetDirectionId": "N",
        "streetTypeId": "ST",
        "placeName": "ARNPRIOR",
        "streetNameDisplayText": "JOHN ST N, ARNPRIOR"
      }
    ]
  },
  {
    "postal": "K7S8R7",
    "result": []
  },
  {
    "postal": "K7S9P1",
    "result": []
  },
  {
    "postal": "K7S3B8",
    "result": [
      {
        "electoralDistricts": [
          {
            "election": null,
            "id": 88,
            "name": "Renfrew—Nipissing—Pembroke"
          }
        ],
        "pollDivisionIds": [
          10141238
        ],
        "postalCode": "K7S3B8",
        "streetName": "CHARLOTTE",
        "streetDirectionId": "S",
        "streetTypeId": "ST",
        "placeName": "ARNPRIOR",
        "streetNameDisplayText": "CHARLOTTE ST S, ARNPRIOR"
      }
    ]
  },
  {
    "postal": "K7S3P7",
    "result": [
      {
        "electoralDistricts": [
          {
            "election": null,
            "id": 88,
            "name": "Renfrew—Nipissing—Pembroke"
          }
        ],
        "pollDivisionIds": [
          10141240
        ],
        "postalCode": "K7S3P7",
        "streetName": "ISABELLA",
        "streetDirectionId": null,
        "streetTypeId": "ST",
        "placeName": "ARNPRIOR",
        "streetNameDisplayText": "ISABELLA ST, ARNPRIOR"
      }
    ]
  },
  {
    "postal": "K7S9B2",
    "result": []
  },
  {
    "postal": "K7S6Z3",
    "result": []
  },
  {
    "postal": "K7S4N5",
    "result": []
  },
  {
    "postal": "K7S8T3",
    "result": []
  },
  {
    "postal": "K7S1V2",
    "result": []
  },
  {
    "postal": "K7S1Y0",
    "result": []
  },
  {
    "postal": "K7S3G6",
    "result": [
      {
        "electoralDistricts": [
          {
            "election": null,
            "id": 88,
            "name": "Renfrew—Nipissing—Pembroke"
          }
        ],
        "pollDivisionIds": [
          10141188
        ],
        "postalCode": "K7S3G6",
        "streetName": "ROCK",
        "streetDirectionId": "W",
        "streetTypeId": "LANE",
        "placeName": "ARNPRIOR",
        "streetNameDisplayText": "ROCK LANE W, ARNPRIOR"
      }
    ]
  },
  {
    "postal": "K7S3H7",
    "result": []
  },
  {
    "postal": "K7S7X8",
    "result": []
  },
  {
    "postal": "K7S0C7",
    "result": [
      {
        "electoralDistricts": [
          {
            "election": null,
            "id": 88,
            "name": "Renfrew—Nipissing—Pembroke"
          }
        ],
        "pollDivisionIds": [
          10141240
        ],
        "postalCode": "K7S0C7",
        "streetName": "MOE ROBILLARD",
        "streetDirectionId": null,
        "streetTypeId": "ST",
        "placeName": "ARNPRIOR",
        "streetNameDisplayText": "MOE ROBILLARD ST, ARNPRIOR"
      }
    ]
  },
  {
    "postal": "K7S0W9",
    "result": []
  },
  {
    "postal": "K7S8E6",
    "result": []
  },
  {
    "postal": "K7S9Z8",
    "result": []
  },
  {
    "postal": "K7S3P4",
    "result": [
      {
        "electoralDistricts": [
          {
            "election": null,
            "id": 88,
            "name": "Renfrew—Nipissing—Pembroke"
          }
        ],
        "pollDivisionIds": [
          10141238
        ],
        "postalCode": "K7S3P4",
        "streetName": "ALLAN",
        "streetDirectionId": null,
        "streetTypeId": "DR",
        "placeName": "ARNPRIOR",
        "streetNameDisplayText": "ALLAN DR, ARNPRIOR"
      }
    ]
  },
  {
    "postal": "K7S6L8",
    "result": []
  },
  {
    "postal": "K7S2R4",
    "result": [
      {
        "electoralDistricts": [
          {
            "election": null,
            "id": 88,
            "name": "Renfrew—Nipissing—Pembroke"
          }
        ],
        "pollDivisionIds": [
          10141240
        ],
        "postalCode": "K7S2R4",
        "streetName": "BELL",
        "streetDirectionId": null,
        "streetTypeId": "ST",
        "placeName": "ARNPRIOR",
        "streetNameDisplayText": "BELL ST, ARNPRIOR"
      }
    ]
  },
  {
    "postal": "K7S2W1",
    "result": [
      {
        "electoralDistricts": [
          {
            "election": null,
            "id": 88,
            "name": "Renfrew—Nipissing—Pembroke"
          }
        ],
        "pollDivisionIds": [
          10141239
        ],
        "postalCode": "K7S2W1",
        "streetName": "CRAIG",
        "streetDirectionId": null,
        "streetTypeId": "ST",
        "placeName": "ARNPRIOR",
        "streetNameDisplayText": "CRAIG ST, ARNPRIOR"
      }
    ]
  },
  {
    "postal": "K7S9H8",
    "result": []
  },
  {
    "postal": "K7S8X9",
    "result": []
  },
  {
    "postal": "K7S7H4",
    "result": []
  },
  {
    "postal": "K7S3J1",
    "result": [
      {
        "electoralDistricts": [
          {
            "election": null,
            "id": 88,
            "name": "Renfrew—Nipissing—Pembroke"
          }
        ],
        "pollDivisionIds": [
          10141237
        ],
        "postalCode": "K7S3J1",
        "streetName": "SOMERVILLE",
        "streetDirectionId": null,
        "streetTypeId": "ST",
        "placeName": "ARNPRIOR",
        "streetNameDisplayText": "SOMERVILLE ST, ARNPRIOR"
      }
    ]
  },
  {
    "postal": "K7S1P4",
    "result": [
      {
        "electoralDistricts": [
          {
            "election": null,
            "id": 88,
            "name": "Renfrew—Nipissing—Pembroke"
          }
        ],
        "pollDivisionIds": [
          10141239
        ],
        "postalCode": "K7S1P4",
        "streetName": "ELGIN",
        "streetDirectionId": "W",
        "streetTypeId": "ST",
        "placeName": "ARNPRIOR",
        "streetNameDisplayText": "ELGIN ST W, ARNPRIOR"
      }
    ]
  },
  {
    "postal": "K7S2A3",
    "result": [
      {
        "electoralDistricts": [
          {
            "election": null,
            "id": 88,
            "name": "Renfrew—Nipissing—Pembroke"
          }
        ],
        "pollDivisionIds": [
          10141237
        ],
        "postalCode": "K7S2A3",
        "streetName": "BAKERS",
        "streetDirectionId": null,
        "streetTypeId": "LANE",
        "placeName": "ARNPRIOR",
        "streetNameDisplayText": "BAKERS LANE, ARNPRIOR"
      }
    ]
  },
  {
    "postal": "K7S0Z1",
    "result": []
  },
  {
    "postal": "K7S1C1",
    "result": [
      {
        "electoralDistricts": [
          {
            "election": null,
            "id": 88,
            "name": "Renfrew—Nipissing—Pembroke"
          }
        ],
        "pollDivisionIds": [
          10141238
        ],
        "postalCode": "K7S1C1",
        "streetName": "EDEY",
        "streetDirectionId": null,
        "streetTypeId": "ST",
        "placeName": "ARNPRIOR",
        "streetNameDisplayText": "EDEY ST, ARNPRIOR"
      }
    ]
  },
  {
    "postal": "K7S0H3",
    "result": [
      {
        "electoralDistricts": [
          {
            "election": null,
            "id": 88,
            "name": "Renfrew—Nipissing—Pembroke"
          }
        ],
        "pollDivisionIds": [
          10141238
        ],
        "postalCode": "K7S0H3",
        "streetName": "BELLWOOD",
        "streetDirectionId": null,
        "streetTypeId": "DR",
        "placeName": "ARNPRIOR",
        "streetNameDisplayText": "BELLWOOD DR, ARNPRIOR"
      }
    ]
  },
  {
    "postal": "K7S7B0",
    "result": []
  },
  {
    "postal": "K7S5K2",
    "result": []
  },
  {
    "postal": "K7S1E9",
    "result": [
      {
        "electoralDistricts": [
          {
            "election": null,
            "id": 88,
            "name": "Renfrew—Nipissing—Pembroke"
          }
        ],
        "pollDivisionIds": [
          10141238
        ],
        "postalCode": "K7S1E9",
        "streetName": "CARUSO",
        "streetDirectionId": null,
        "streetTypeId": "ST",
        "placeName": "ARNPRIOR",
        "streetNameDisplayText": "CARUSO ST, ARNPRIOR"
      }
    ]
  },
  {
    "postal": "K7S9W7",
    "result": []
  },
  {
    "postal": "K7S5W6",
    "result": []
  },
  {
    "postal": "K7S6S6",
    "result": []
  },
  {
    "postal": "K7S2P8",
    "result": [
      {
        "electoralDistricts": [
          {
            "election": null,
            "id": 88,
            "name": "Renfrew—Nipissing—Pembroke"
          }
        ],
        "pollDivisionIds": [
          10141239
        ],
        "postalCode": "K7S2P8",
        "streetName": "JOHN",
        "streetDirectionId": "N",
        "streetTypeId": "ST",
        "placeName": "ARNPRIOR",
        "streetNameDisplayText": "JOHN ST N, ARNPRIOR"
      }
    ]
  },
  {
    "postal": "K7S4P8",
    "result": []
  },
  {
    "postal": "K7S0V9",
    "result": []
  },
  {
    "postal": "K7S5Y2",
    "result": []
  },
  {
    "postal": "K7S7Z7",
    "result": []
  },
  {
    "postal": "K7S6Y8",
    "result": []
  },
  {
    "postal": "K7S2G7",
    "result": [
      {
        "electoralDistricts": [
          {
            "election": null,
            "id": 88,
            "name": "Renfrew—Nipissing—Pembroke"
          }
        ],
        "pollDivisionIds": [
          10141240
        ],
        "postalCode": "K7S2G7",
        "streetName": "MULVIHILL",
        "streetDirectionId": null,
        "streetTypeId": "CRES",
        "placeName": "ARNPRIOR",
        "streetNameDisplayText": "MULVIHILL CRES, ARNPRIOR"
      }
    ]
  },
  {
    "postal": "K7S8C1",
    "result": []
  },
  {
    "postal": "K7S5C5",
    "result": []
  },
  {
    "postal": "K7S2X8",
    "result": [
      {
        "electoralDistricts": [
          {
            "election": null,
            "id": 88,
            "name": "Renfrew—Nipissing—Pembroke"
          }
        ],
        "pollDivisionIds": [
          10141239
        ],
        "postalCode": "K7S2X8",
        "streetName": "LAURENTIAN",
        "streetDirectionId": null,
        "streetTypeId": "PL",
        "placeName": "ARNPRIOR",
        "streetNameDisplayText": "LAURENTIAN PL, ARNPRIOR"
      }
    ]
  },
  {
    "postal": "K7S1W5",
    "result": [
      {
        "electoralDistricts": [
          {
            "election": null,
            "id": 88,
            "name": "Renfrew—Nipissing—Pembroke"
          }
        ],
        "pollDivisionIds": [
          10141240
        ],
        "postalCode": "K7S1W5",
        "streetName": "FIRST",
        "streetDirectionId": null,
        "streetTypeId": "AVE",
        "placeName": "ARNPRIOR",
        "streetNameDisplayText": "FIRST AVE, ARNPRIOR"
      }
    ]
  },
  {
    "postal": "K7S7G0",
    "result": []
  },
  {
    "postal": "K7S8J8",
    "result": []
  },
  {
    "postal": "K7S3Y0",
    "result": []
  },
  {
    "postal": "K7S9T7",
    "result": []
  },
  {
    "postal": "K7S5P4",
    "result": []
  },
  {
    "postal": "K7S4B0",
    "result": []
  },
  {
    "postal": "K7S9N8",
    "result": []
  },
  {
    "postal": "K7S4A7",
    "result": []
  },
  {
    "postal": "K7S4H9",
    "result": []
  },
  {
    "postal": "K7S6X1",
    "result": []
  },
  {
    "postal": "K7S9Y7",
    "result": []
  },
  {
    "postal": "K7S2Y5",
    "result": [
      {
        "electoralDistricts": [
          {
            "election": null,
            "id": 88,
            "name": "Renfrew—Nipissing—Pembroke"
          }
        ],
        "pollDivisionIds": [
          10141239
        ],
        "postalCode": "K7S2Y5",
        "streetName": "MCLACHLIN",
        "streetDirectionId": "N",
        "streetTypeId": "ST",
        "placeName": "ARNPRIOR",
        "streetNameDisplayText": "MCLACHLIN ST N, ARNPRIOR"
      }
    ]
  },
  {
    "postal": "K7S8L7",
    "result": []
  },
  {
    "postal": "K7S2A8",
    "result": [
      {
        "electoralDistricts": [
          {
            "election": null,
            "id": 88,
            "name": "Renfrew—Nipissing—Pembroke"
          }
        ],
        "pollDivisionIds": [
          10141237
        ],
        "postalCode": "K7S2A8",
        "streetName": "HAYES",
        "streetDirectionId": null,
        "streetTypeId": "ST",
        "placeName": "ARNPRIOR",
        "streetNameDisplayText": "HAYES ST, ARNPRIOR"
      }
    ]
  },
  {
    "postal": "K7S2K9",
    "result": [
      {
        "electoralDistricts": [
          {
            "election": null,
            "id": 88,
            "name": "Renfrew—Nipissing—Pembroke"
          }
        ],
        "pollDivisionIds": [
          10141240
        ],
        "postalCode": "K7S2K9",
        "streetName": "DANIEL",
        "streetDirectionId": "N",
        "streetTypeId": "ST",
        "placeName": "ARNPRIOR",
        "streetNameDisplayText": "DANIEL ST N, ARNPRIOR"
      }
    ]
  },
  {
    "postal": "K7S3E5",
    "result": []
  },
  {
    "postal": "K7S8N6",
    "result": []
  },
  {
    "postal": "K7S8J4",
    "result": []
  },
  {
    "postal": "K7S4R7",
    "result": []
  },
  {
    "postal": "K7S9K1",
    "result": []
  },
  {
    "postal": "K7S8E1",
    "result": []
  },
  {
    "postal": "K7S0R1",
    "result": []
  },
  {
    "postal": "K7S4J3",
    "result": []
  },
  {
    "postal": "K7S7E7",
    "result": []
  },
  {
    "postal": "K7S0J0",
    "result": []
  },
  {
    "postal": "K7S7R8",
    "result": []
  },
  {
    "postal": "K7S9X0",
    "result": []
  },
  {
    "postal": "K7S7P6",
    "result": []
  },
  {
    "postal": "K7S0R7",
    "result": []
  },
  {
    "postal": "K7S5W1",
    "result": []
  },
  {
    "postal": "K7S0K4",
    "result": []
  },
  {
    "postal": "K7S7N9",
    "result": []
  },
  {
    "postal": "K7S1N0",
    "result": []
  },
  {
    "postal": "K7S6P3",
    "result": []
  },
  {
    "postal": "K7S5A1",
    "result": []
  },
  {
    "postal": "K7S9M9",
    "result": []
  },
  {
    "postal": "K7S7T6",
    "result": []
  },
  {
    "postal": "K7S3X0",
    "result": []
  },
  {
    "postal": "K7S2T0",
    "result": []
  },
  {
    "postal": "K7S5X9",
    "result": []
  },
  {
    "postal": "K7S2R3",
    "result": [
      {
        "electoralDistricts": [
          {
            "election": null,
            "id": 88,
            "name": "Renfrew—Nipissing—Pembroke"
          }
        ],
        "pollDivisionIds": [
          10141240
        ],
        "postalCode": "K7S2R3",
        "streetName": "GARY",
        "streetDirectionId": null,
        "streetTypeId": "CRES",
        "placeName": "ARNPRIOR",
        "streetNameDisplayText": "GARY CRES, ARNPRIOR"
      }
    ]
  },
  {
    "postal": "K7S5N2",
    "result": []
  },
  {
    "postal": "K7S4Y7",
    "result": []
  },
  {
    "postal": "K7S7M0",
    "result": []
  },
  {
    "postal": "K7S8P3",
    "result": []
  },
  {
    "postal": "K7S3N3",
    "result": []
  },
  {
    "postal": "K7S7S3",
    "result": []
  },
  {
    "postal": "K7S3V9",
    "result": [
      {
        "electoralDistricts": [
          {
            "election": null,
            "id": 88,
            "name": "Renfrew—Nipissing—Pembroke"
          }
        ],
        "pollDivisionIds": [
          10141240
        ],
        "postalCode": "K7S3V9",
        "streetName": "SPRUCE",
        "streetDirectionId": null,
        "streetTypeId": "CRES",
        "placeName": "ARNPRIOR",
        "streetNameDisplayText": "SPRUCE CRES, ARNPRIOR"
      }
    ]
  },
  {
    "postal": "K7S9N7",
    "result": []
  },
  {
    "postal": "K7S0G4",
    "result": [
      {
        "electoralDistricts": [
          {
            "election": null,
            "id": 88,
            "name": "Renfrew—Nipissing—Pembroke"
          }
        ],
        "pollDivisionIds": [
          10141238
        ],
        "postalCode": "K7S0G4",
        "streetName": "EDEY",
        "streetDirectionId": null,
        "streetTypeId": "ST",
        "placeName": "ARNPRIOR",
        "streetNameDisplayText": "EDEY ST, ARNPRIOR"
      },
      {
        "electoralDistricts": [
          {
            "election": null,
            "id": 88,
            "name": "Renfrew—Nipissing—Pembroke"
          }
        ],
        "pollDivisionIds": [
          10141238
        ],
        "postalCode": "K7S0G4",
        "streetName": "LEO MOSKOS",
        "streetDirectionId": null,
        "streetTypeId": "DR",
        "placeName": "ARNPRIOR",
        "streetNameDisplayText": "LEO MOSKOS DR, ARNPRIOR"
      },
      {
        "electoralDistricts": [
          {
            "election": null,
            "id": 88,
            "name": "Renfrew—Nipissing—Pembroke"
          }
        ],
        "pollDivisionIds": [
          10141238
        ],
        "postalCode": "K7S0G4",
        "streetName": "LEO MOSKOS",
        "streetDirectionId": null,
        "streetTypeId": "ST",
        "placeName": "ARNPRIOR",
        "streetNameDisplayText": "LEO MOSKOS ST, ARNPRIOR"
      },
      {
        "electoralDistricts": [
          {
            "election": null,
            "id": 88,
            "name": "Renfrew—Nipissing—Pembroke"
          }
        ],
        "pollDivisionIds": [
          10141238
        ],
        "postalCode": "K7S0G4",
        "streetName": "MONA MCBRIDE",
        "streetDirectionId": null,
        "streetTypeId": "DR",
        "placeName": "ARNPRIOR",
        "streetNameDisplayText": "MONA MCBRIDE DR, ARNPRIOR"
      }
    ]
  },
  {
    "postal": "K7S2E2",
    "result": [
      {
        "electoralDistricts": [
          {
            "election": null,
            "id": 88,
            "name": "Renfrew—Nipissing—Pembroke"
          }
        ],
        "pollDivisionIds": [
          10141240
        ],
        "postalCode": "K7S2E2",
        "streetName": "LAIRD",
        "streetDirectionId": null,
        "streetTypeId": "ST",
        "placeName": "ARNPRIOR",
        "streetNameDisplayText": "LAIRD ST, ARNPRIOR"
      }
    ]
  },
  {
    "postal": "K7S7W8",
    "result": []
  },
  {
    "postal": "K7S7M5",
    "result": []
  },
  {
    "postal": "K7S5W8",
    "result": []
  },
  {
    "postal": "K7S5E5",
    "result": []
  },
  {
    "postal": "K7S1P9",
    "result": [
      {
        "electoralDistricts": [
          {
            "election": null,
            "id": 88,
            "name": "Renfrew—Nipissing—Pembroke"
          }
        ],
        "pollDivisionIds": [
          10141239
        ],
        "postalCode": "K7S1P9",
        "streetName": "ELGIN",
        "streetDirectionId": "W",
        "streetTypeId": "ST",
        "placeName": "ARNPRIOR",
        "streetNameDisplayText": "ELGIN ST W, ARNPRIOR"
      }
    ]
  },
  {
    "postal": "K7S8V8",
    "result": []
  },
  {
    "postal": "K7S9G8",
    "result": []
  },
  {
    "postal": "K7S8H9",
    "result": []
  },
  {
    "postal": "K7S1Z1",
    "result": [
      {
        "electoralDistricts": [
          {
            "election": null,
            "id": 88,
            "name": "Renfrew—Nipissing—Pembroke"
          }
        ],
        "pollDivisionIds": [
          10141240
        ],
        "postalCode": "K7S1Z1",
        "streetName": "THIRD",
        "streetDirectionId": null,
        "streetTypeId": "AVE",
        "placeName": "ARNPRIOR",
        "streetNameDisplayText": "THIRD AVE, ARNPRIOR"
      }
    ]
  },
  {
    "postal": "K7S8M3",
    "result": []
  },
  {
    "postal": "K7S5H6",
    "result": []
  },
  {
    "postal": "K7S7W7",
    "result": []
  },
  {
    "postal": "K7S4L0",
    "result": []
  },
  {
    "postal": "K7S2N1",
    "result": [
      {
        "electoralDistricts": [
          {
            "election": null,
            "id": 88,
            "name": "Renfrew—Nipissing—Pembroke"
          }
        ],
        "pollDivisionIds": [
          10141239
        ],
        "postalCode": "K7S2N1",
        "streetName": "JOHN",
        "streetDirectionId": "N",
        "streetTypeId": "ST",
        "placeName": "ARNPRIOR",
        "streetNameDisplayText": "JOHN ST N, ARNPRIOR"
      }
    ]
  },
  {
    "postal": "K7S2H4",
    "result": [
      {
        "electoralDistricts": [
          {
            "election": null,
            "id": 88,
            "name": "Renfrew—Nipissing—Pembroke"
          }
        ],
        "pollDivisionIds": [
          10141240
        ],
        "postalCode": "K7S2H4",
        "streetName": "CLAUDE",
        "streetDirectionId": null,
        "streetTypeId": "ST",
        "placeName": "ARNPRIOR",
        "streetNameDisplayText": "CLAUDE ST, ARNPRIOR"
      }
    ]
  },
  {
    "postal": "K7S5C8",
    "result": []
  },
  {
    "postal": "K7S8B0",
    "result": []
  },
  {
    "postal": "K7S1T4",
    "result": [
      {
        "electoralDistricts": [
          {
            "election": null,
            "id": 88,
            "name": "Renfrew—Nipissing—Pembroke"
          }
        ],
        "pollDivisionIds": [
          10141239
        ],
        "postalCode": "K7S1T4",
        "streetName": "VICTORIA",
        "streetDirectionId": null,
        "streetTypeId": "ST",
        "placeName": "ARNPRIOR",
        "streetNameDisplayText": "VICTORIA ST, ARNPRIOR"
      }
    ]
  },
  {
    "postal": "K7S7N7",
    "result": []
  },
  {
    "postal": "K7S4L3",
    "result": []
  },
  {
    "postal": "K7S2N2",
    "result": [
      {
        "electoralDistricts": [
          {
            "election": null,
            "id": 88,
            "name": "Renfrew—Nipissing—Pembroke"
          }
        ],
        "pollDivisionIds": [
          10141239
        ],
        "postalCode": "K7S2N2",
        "streetName": "JOHN",
        "streetDirectionId": "N",
        "streetTypeId": "ST",
        "placeName": "ARNPRIOR",
        "streetNameDisplayText": "JOHN ST N, ARNPRIOR"
      }
    ]
  },
  {
    "postal": "K7S4N8",
    "result": []
  },
  {
    "postal": "K7S3M5",
    "result": []
  },
  {
    "postal": "K7S6H7",
    "result": []
  },
  {
    "postal": "K7S8Y8",
    "result": []
  },
  {
    "postal": "K7S5R9",
    "result": []
  },
  {
    "postal": "K7S8G3",
    "result": []
  },
  {
    "postal": "K7S4N7",
    "result": []
  },
  {
    "postal": "K7S0B9",
    "result": [
      {
        "electoralDistricts": [
          {
            "election": null,
            "id": 88,
            "name": "Renfrew—Nipissing—Pembroke"
          }
        ],
        "pollDivisionIds": [
          10141240
        ],
        "postalCode": "K7S0B9",
        "streetName": "SHORT",
        "streetDirectionId": null,
        "streetTypeId": "RD",
        "placeName": "ARNPRIOR",
        "streetNameDisplayText": "SHORT RD, ARNPRIOR"
      },
      {
        "electoralDistricts": [
          {
            "election": null,
            "id": 88,
            "name": "Renfrew—Nipissing—Pembroke"
          }
        ],
        "pollDivisionIds": [
          10141240
        ],
        "postalCode": "K7S0B9",
        "streetName": "WOLFF",
        "streetDirectionId": null,
        "streetTypeId": "CRES",
        "placeName": "ARNPRIOR",
        "streetNameDisplayText": "WOLFF CRES, ARNPRIOR"
      }
    ]
  },
  {
    "postal": "K7S9K7",
    "result": []
  },
  {
    "postal": "K7S9K9",
    "result": []
  },
  {
    "postal": "K7S3Z2",
    "result": [
      {
        "electoralDistricts": [
          {
            "election": null,
            "id": 88,
            "name": "Renfrew—Nipissing—Pembroke"
          }
        ],
        "pollDivisionIds": [
          10141240
        ],
        "postalCode": "K7S3Z2",
        "streetName": "MCNAB",
        "streetDirectionId": null,
        "streetTypeId": "ST",
        "placeName": "ARNPRIOR",
        "streetNameDisplayText": "MCNAB ST, ARNPRIOR"
      }
    ]
  },
  {
    "postal": "K7S6W7",
    "result": []
  },
  {
    "postal": "K7S0P1",
    "result": []
  },
  {
    "postal": "K7S3A0",
    "result": []
  },
  {
    "postal": "K7S8L9",
    "result": []
  },
  {
    "postal": "K7S6X0",
    "result": []
  },
  {
    "postal": "K7S3E9",
    "result": [
      {
        "electoralDistricts": [
          {
            "election": null,
            "id": 88,
            "name": "Renfrew—Nipissing—Pembroke"
          }
        ],
        "pollDivisionIds": [
          10141237
        ],
        "postalCode": "K7S3E9",
        "streetName": "HILL",
        "streetDirectionId": null,
        "streetTypeId": "RD",
        "placeName": "ARNPRIOR",
        "streetNameDisplayText": "HILL RD, ARNPRIOR"
      }
    ]
  },
  {
    "postal": "K7S0S5",
    "result": []
  },
  {
    "postal": "K7S1A2",
    "result": [
      {
        "electoralDistricts": [
          {
            "election": null,
            "id": 88,
            "name": "Renfrew—Nipissing—Pembroke"
          }
        ],
        "pollDivisionIds": [
          10141240
        ],
        "postalCode": "K7S1A2",
        "streetName": "ARTHUR",
        "streetDirectionId": null,
        "streetTypeId": "ST",
        "placeName": "ARNPRIOR",
        "streetNameDisplayText": "ARTHUR ST, ARNPRIOR"
      }
    ]
  },
  {
    "postal": "K7S5V8",
    "result": []
  },
  {
    "postal": "K7S8C5",
    "result": []
  },
  {
    "postal": "K7S6N0",
    "result": []
  },
  {
    "postal": "K7S9E6",
    "result": []
  },
  {
    "postal": "K7S5J7",
    "result": []
  },
  {
    "postal": "K7S2R2",
    "result": [
      {
        "electoralDistricts": [
          {
            "election": null,
            "id": 88,
            "name": "Renfrew—Nipissing—Pembroke"
          }
        ],
        "pollDivisionIds": [
          10141240
        ],
        "postalCode": "K7S2R2",
        "streetName": "GARY",
        "streetDirectionId": null,
        "streetTypeId": "CRES",
        "placeName": "ARNPRIOR",
        "streetNameDisplayText": "GARY CRES, ARNPRIOR"
      }
    ]
  },
  {
    "postal": "K7S0P5",
    "result": []
  },
  {
    "postal": "K7S5A7",
    "result": []
  },
  {
    "postal": "K7S1G1",
    "result": [
      {
        "electoralDistricts": [
          {
            "election": null,
            "id": 88,
            "name": "Renfrew—Nipissing—Pembroke"
          }
        ],
        "pollDivisionIds": [
          10141238
        ],
        "postalCode": "K7S1G1",
        "streetName": "CARUSO",
        "streetDirectionId": null,
        "streetTypeId": "ST",
        "placeName": "ARNPRIOR",
        "streetNameDisplayText": "CARUSO ST, ARNPRIOR"
      }
    ]
  },
  {
    "postal": "K7S9R6",
    "result": []
  },
  {
    "postal": "K7S4Z9",
    "result": []
  },
  {
    "postal": "K7S1V5",
    "result": [
      {
        "electoralDistricts": [
          {
            "election": null,
            "id": 88,
            "name": "Renfrew—Nipissing—Pembroke"
          }
        ],
        "pollDivisionIds": [
          10141239
        ],
        "postalCode": "K7S1V5",
        "streetName": "KINSMEN",
        "streetDirectionId": null,
        "streetTypeId": "CRES",
        "placeName": "ARNPRIOR",
        "streetNameDisplayText": "KINSMEN CRES, ARNPRIOR"
      }
    ]
  },
  {
    "postal": "K7S9Y5",
    "result": []
  },
  {
    "postal": "K7S1P2",
    "result": [
      {
        "electoralDistricts": [
          {
            "election": null,
            "id": 88,
            "name": "Renfrew—Nipissing—Pembroke"
          }
        ],
        "pollDivisionIds": [
          10141239
        ],
        "postalCode": "K7S1P2",
        "streetName": "ELGIN",
        "streetDirectionId": "W",
        "streetTypeId": "ST",
        "placeName": "ARNPRIOR",
        "streetNameDisplayText": "ELGIN ST W, ARNPRIOR"
      }
    ]
  },
  {
    "postal": "K7S5X0",
    "result": []
  },
  {
    "postal": "K7S7B8",
    "result": []
  },
  {
    "postal": "K7S0C6",
    "result": [
      {
        "electoralDistricts": [
          {
            "election": null,
            "id": 88,
            "name": "Renfrew—Nipissing—Pembroke"
          }
        ],
        "pollDivisionIds": [
          10141240
        ],
        "postalCode": "K7S0C6",
        "streetName": "EDWARD VINCE EVANS",
        "streetDirectionId": null,
        "streetTypeId": "CRT",
        "placeName": "ARNPRIOR",
        "streetNameDisplayText": "EDWARD VINCE EVANS CRT, ARNPRIOR"
      },
      {
        "electoralDistricts": [
          {
            "election": null,
            "id": 88,
            "name": "Renfrew—Nipissing—Pembroke"
          }
        ],
        "pollDivisionIds": [
          10141238
        ],
        "postalCode": "K7S0C6",
        "streetName": "MONA MCBRIDE",
        "streetDirectionId": null,
        "streetTypeId": "DR",
        "placeName": "ARNPRIOR",
        "streetNameDisplayText": "MONA MCBRIDE DR, ARNPRIOR"
      },
      {
        "electoralDistricts": [
          {
            "election": null,
            "id": 88,
            "name": "Renfrew—Nipissing—Pembroke"
          }
        ],
        "pollDivisionIds": [
          10141238
        ],
        "postalCode": "K7S0C6",
        "streetName": "TOM GAVINSKI",
        "streetDirectionId": null,
        "streetTypeId": "ST",
        "placeName": "ARNPRIOR",
        "streetNameDisplayText": "TOM GAVINSKI ST, ARNPRIOR"
      }
    ]
  },
  {
    "postal": "K7S6G1",
    "result": []
  },
  {
    "postal": "K7S3K3",
    "result": [
      {
        "electoralDistricts": [
          {
            "election": null,
            "id": 88,
            "name": "Renfrew—Nipissing—Pembroke"
          }
        ],
        "pollDivisionIds": [
          10141238
        ],
        "postalCode": "K7S3K3",
        "streetName": "CARUSO",
        "streetDirectionId": null,
        "streetTypeId": "ST",
        "placeName": "ARNPRIOR",
        "streetNameDisplayText": "CARUSO ST, ARNPRIOR"
      }
    ]
  },
  {
    "postal": "K7S9R0",
    "result": []
  },
  {
    "postal": "K7S4R8",
    "result": []
  },
  {
    "postal": "K7S5P9",
    "result": []
  },
  {
    "postal": "K7S8N4",
    "result": []
  },
  {
    "postal": "K7S8H4",
    "result": []
  },
  {
    "postal": "K7S4V1",
    "result": []
  },
  {
    "postal": "K7S1K5",
    "result": [
      {
        "electoralDistricts": [
          {
            "election": null,
            "id": 88,
            "name": "Renfrew—Nipissing—Pembroke"
          }
        ],
        "pollDivisionIds": [
          10141238
        ],
        "postalCode": "K7S1K5",
        "streetName": "WILLIAM",
        "streetDirectionId": "N",
        "streetTypeId": "ST",
        "placeName": "ARNPRIOR",
        "streetNameDisplayText": "WILLIAM ST N, ARNPRIOR"
      },
      {
        "electoralDistricts": [
          {
            "election": null,
            "id": 88,
            "name": "Renfrew—Nipissing—Pembroke"
          }
        ],
        "pollDivisionIds": [
          10141238
        ],
        "postalCode": "K7S1K5",
        "streetName": "WILLIAM",
        "streetDirectionId": "W",
        "streetTypeId": "ST",
        "placeName": "ARNPRIOR",
        "streetNameDisplayText": "WILLIAM ST W, ARNPRIOR"
      }
    ]
  },
  {
    "postal": "K7S1Z5",
    "result": [
      {
        "electoralDistricts": [
          {
            "election": null,
            "id": 88,
            "name": "Renfrew—Nipissing—Pembroke"
          }
        ],
        "pollDivisionIds": [
          10141240
        ],
        "postalCode": "K7S1Z5",
        "streetName": "FOURTH",
        "streetDirectionId": null,
        "streetTypeId": "AVE",
        "placeName": "ARNPRIOR",
        "streetNameDisplayText": "FOURTH AVE, ARNPRIOR"
      }
    ]
  },
  {
    "postal": "K7S9L9",
    "result": []
  },
  {
    "postal": "K7S5L2",
    "result": []
  },
  {
    "postal": "K7S0M2",
    "result": []
  },
  {
    "postal": "K7S1K8",
    "result": [
      {
        "electoralDistricts": [
          {
            "election": null,
            "id": 88,
            "name": "Renfrew—Nipissing—Pembroke"
          }
        ],
        "pollDivisionIds": [
          10141238
        ],
        "postalCode": "K7S1K8",
        "streetName": "WILLIAM",
        "streetDirectionId": "W",
        "streetTypeId": "ST",
        "placeName": "ARNPRIOR",
        "streetNameDisplayText": "WILLIAM ST W, ARNPRIOR"
      }
    ]
  },
  {
    "postal": "K7S3M7",
    "result": [
      {
        "electoralDistricts": [
          {
            "election": null,
            "id": 88,
            "name": "Renfrew—Nipissing—Pembroke"
          }
        ],
        "pollDivisionIds": [
          10141274
        ],
        "postalCode": "K7S3M7",
        "streetName": "IDA",
        "streetDirectionId": "N",
        "streetTypeId": "ST",
        "placeName": "ARNPRIOR",
        "streetNameDisplayText": "IDA ST N, ARNPRIOR"
      }
    ]
  },
  {
    "postal": "K7S1B2",
    "result": [
      {
        "electoralDistricts": [
          {
            "election": null,
            "id": 88,
            "name": "Renfrew—Nipissing—Pembroke"
          }
        ],
        "pollDivisionIds": [
          10141237
        ],
        "postalCode": "K7S1B2",
        "streetName": "ABIGAIL",
        "streetDirectionId": null,
        "streetTypeId": "ST",
        "placeName": "ARNPRIOR",
        "streetNameDisplayText": "ABIGAIL ST, ARNPRIOR"
      }
    ]
  },
  {
    "postal": "K7S0H9",
    "result": []
  },
  {
    "postal": "K7S8M4",
    "result": []
  },
  {
    "postal": "K7S2M5",
    "result": [
      {
        "electoralDistricts": [
          {
            "election": null,
            "id": 88,
            "name": "Renfrew—Nipissing—Pembroke"
          }
        ],
        "pollDivisionIds": [
          10141239
        ],
        "postalCode": "K7S2M5",
        "streetName": "ALBERT",
        "streetDirectionId": null,
        "streetTypeId": "ST",
        "placeName": "ARNPRIOR",
        "streetNameDisplayText": "ALBERT ST, ARNPRIOR"
      }
    ]
  },
  {
    "postal": "K7S0T9",
    "result": []
  },
  {
    "postal": "K7S3P1",
    "result": []
  },
  {
    "postal": "K7S1R6",
    "result": [
      {
        "electoralDistricts": [
          {
            "election": null,
            "id": 88,
            "name": "Renfrew—Nipissing—Pembroke"
          }
        ],
        "pollDivisionIds": [
          10141239
        ],
        "postalCode": "K7S1R6",
        "streetName": "MADAWASKA",
        "streetDirectionId": null,
        "streetTypeId": "ST",
        "placeName": "ARNPRIOR",
        "streetNameDisplayText": "MADAWASKA ST, ARNPRIOR"
      }
    ]
  },
  {
    "postal": "K7S9V5",
    "result": []
  },
  {
    "postal": "K7S9T0",
    "result": []
  },
  {
    "postal": "K7S0A9",
    "result": [
      {
        "electoralDistricts": [
          {
            "election": null,
            "id": 88,
            "name": "Renfrew—Nipissing—Pembroke"
          }
        ],
        "pollDivisionIds": [
          10141240
        ],
        "postalCode": "K7S0A9",
        "streetName": "FOURTH",
        "streetDirectionId": null,
        "streetTypeId": "AVE",
        "placeName": "ARNPRIOR",
        "streetNameDisplayText": "FOURTH AVE, ARNPRIOR"
      }
    ]
  },
  {
    "postal": "K7S1M3",
    "result": [
      {
        "electoralDistricts": [
          {
            "election": null,
            "id": 88,
            "name": "Renfrew—Nipissing—Pembroke"
          }
        ],
        "pollDivisionIds": [
          10141239
        ],
        "postalCode": "K7S1M3",
        "streetName": "MCGONIGAL",
        "streetDirectionId": "W",
        "streetTypeId": "ST",
        "placeName": "ARNPRIOR",
        "streetNameDisplayText": "MCGONIGAL ST W, ARNPRIOR"
      }
    ]
  },
  {
    "postal": "K7S1W8",
    "result": [
      {
        "electoralDistricts": [
          {
            "election": null,
            "id": 88,
            "name": "Renfrew—Nipissing—Pembroke"
          }
        ],
        "pollDivisionIds": [
          10141239
        ],
        "postalCode": "K7S1W8",
        "streetName": "OTTAWA",
        "streetDirectionId": null,
        "streetTypeId": "ST",
        "placeName": "ARNPRIOR",
        "streetNameDisplayText": "OTTAWA ST, ARNPRIOR"
      }
    ]
  },
  {
    "postal": "K7S9J1",
    "result": []
  },
  {
    "postal": "K7S8N5",
    "result": []
  },
  {
    "postal": "K7S5X1",
    "result": []
  },
  {
    "postal": "K7S6S2",
    "result": []
  },
  {
    "postal": "K7S2A2",
    "result": [
      {
        "electoralDistricts": [
          {
            "election": null,
            "id": 88,
            "name": "Renfrew—Nipissing—Pembroke"
          }
        ],
        "pollDivisionIds": [
          10141237
        ],
        "postalCode": "K7S2A2",
        "streetName": "BAKERS",
        "streetDirectionId": null,
        "streetTypeId": "LANE",
        "placeName": "ARNPRIOR",
        "streetNameDisplayText": "BAKERS LANE, ARNPRIOR"
      }
    ]
  },
  {
    "postal": "K7S6A6",
    "result": []
  },
  {
    "postal": "K7S0S3",
    "result": []
  },
  {
    "postal": "K7S3E7",
    "result": [
      {
        "electoralDistricts": [
          {
            "election": null,
            "id": 88,
            "name": "Renfrew—Nipissing—Pembroke"
          }
        ],
        "pollDivisionIds": [
          10141237
        ],
        "postalCode": "K7S3E7",
        "streetName": "MURPHY",
        "streetDirectionId": null,
        "streetTypeId": "ST",
        "placeName": "ARNPRIOR",
        "streetNameDisplayText": "MURPHY ST, ARNPRIOR"
      }
    ]
  },
  {
    "postal": "K7S5R7",
    "result": []
  },
  {
    "postal": "K7S3R6",
    "result": [
      {
        "electoralDistricts": [
          {
            "election": null,
            "id": 88,
            "name": "Renfrew—Nipissing—Pembroke"
          }
        ],
        "pollDivisionIds": [
          10141240
        ],
        "postalCode": "K7S3R6",
        "streetName": "HAVEY",
        "streetDirectionId": null,
        "streetTypeId": "ST",
        "placeName": "ARNPRIOR",
        "streetNameDisplayText": "HAVEY ST, ARNPRIOR"
      }
    ]
  },
  {
    "postal": "K7S6K4",
    "result": []
  },
  {
    "postal": "K7S2W5",
    "result": [
      {
        "electoralDistricts": [
          {
            "election": null,
            "id": 88,
            "name": "Renfrew—Nipissing—Pembroke"
          }
        ],
        "pollDivisionIds": [
          10141239
        ],
        "postalCode": "K7S2W5",
        "streetName": "MACDONALD",
        "streetDirectionId": "S",
        "streetTypeId": "ST",
        "placeName": "ARNPRIOR",
        "streetNameDisplayText": "MACDONALD ST S, ARNPRIOR"
      }
    ]
  },
  {
    "postal": "K7S8W4",
    "result": []
  },
  {
    "postal": "K7S9C2",
    "result": []
  },
  {
    "postal": "K7S2C0",
    "result": []
  },
  {
    "postal": "K7S0E1",
    "result": [
      {
        "electoralDistricts": [
          {
            "election": null,
            "id": 88,
            "name": "Renfrew—Nipissing—Pembroke"
          }
        ],
        "pollDivisionIds": [
          10141237
        ],
        "postalCode": "K7S0E1",
        "streetName": "CAMPBELL",
        "streetDirectionId": null,
        "streetTypeId": "DR",
        "placeName": "MCNAB/BRAESIDE",
        "streetNameDisplayText": "CAMPBELL DR, MCNAB/BRAESIDE"
      },
      {
        "electoralDistricts": [
          {
            "election": null,
            "id": 88,
            "name": "Renfrew—Nipissing—Pembroke"
          }
        ],
        "pollDivisionIds": [
          10141236
        ],
        "postalCode": "K7S0E1",
        "streetName": "CARMICHAEL",
        "streetDirectionId": null,
        "streetTypeId": "SIDERD",
        "placeName": "MCNAB/BRAESIDE",
        "streetNameDisplayText": "CARMICHAEL SIDERD, MCNAB/BRAESIDE"
      },
      {
        "electoralDistricts": [
          {
            "election": null,
            "id": 88,
            "name": "Renfrew—Nipissing—Pembroke"
          }
        ],
        "pollDivisionIds": [
          10141237
        ],
        "postalCode": "K7S0E1",
        "streetName": "DUNCAN",
        "streetDirectionId": null,
        "streetTypeId": "DR",
        "placeName": "MCNAB/BRAESIDE",
        "streetNameDisplayText": "DUNCAN DR, MCNAB/BRAESIDE"
      },
      {
        "electoralDistricts": [
          {
            "election": null,
            "id": 88,
            "name": "Renfrew—Nipissing—Pembroke"
          }
        ],
        "pollDivisionIds": [
          10141236
        ],
        "postalCode": "K7S0E1",
        "streetName": "LAVENTURE",
        "streetDirectionId": null,
        "streetTypeId": "RD",
        "placeName": "MCNAB/BRAESIDE",
        "streetNameDisplayText": "LAVENTURE RD, MCNAB/BRAESIDE"
      },
      {
        "electoralDistricts": [
          {
            "election": null,
            "id": 88,
            "name": "Renfrew—Nipissing—Pembroke"
          }
        ],
        "pollDivisionIds": [
          10141236
        ],
        "postalCode": "K7S0E1",
        "streetName": "LIBBYS",
        "streetDirectionId": null,
        "streetTypeId": "RD",
        "placeName": "MCNAB/BRAESIDE",
        "streetNameDisplayText": "LIBBYS RD, MCNAB/BRAESIDE"
      },
      {
        "electoralDistricts": [
          {
            "election": null,
            "id": 88,
            "name": "Renfrew—Nipissing—Pembroke"
          }
        ],
        "pollDivisionIds": [
          10141236
        ],
        "postalCode": "K7S0E1",
        "streetName": "MABELS",
        "streetDirectionId": null,
        "streetTypeId": "RD",
        "placeName": "ARNPRIOR",
        "streetNameDisplayText": "MABELS RD, ARNPRIOR"
      },
      {
        "electoralDistricts": [
          {
            "election": null,
            "id": 88,
            "name": "Renfrew—Nipissing—Pembroke"
          }
        ],
        "pollDivisionIds": [
          10141236
        ],
        "postalCode": "K7S0E1",
        "streetName": "MCLEAN",
        "streetDirectionId": null,
        "streetTypeId": "DR",
        "placeName": "MCNAB/BRAESIDE",
        "streetNameDisplayText": "MCLEAN DR, MCNAB/BRAESIDE"
      },
      {
        "electoralDistricts": [
          {
            "election": null,
            "id": 88,
            "name": "Renfrew—Nipissing—Pembroke"
          }
        ],
        "pollDivisionIds": [
          10141236
        ],
        "postalCode": "K7S0E1",
        "streetName": "MILTON STEWART",
        "streetDirectionId": null,
        "streetTypeId": "AVE",
        "placeName": "ARNPRIOR",
        "streetNameDisplayText": "MILTON STEWART AVE, ARNPRIOR"
      },
      {
        "electoralDistricts": [
          {
            "election": null,
            "id": 88,
            "name": "Renfrew—Nipissing—Pembroke"
          }
        ],
        "pollDivisionIds": [
          10141236
        ],
        "postalCode": "K7S0E1",
        "streetName": "MILTON STEWART",
        "streetDirectionId": null,
        "streetTypeId": "AVE",
        "placeName": "MCNAB/BRAESIDE",
        "streetNameDisplayText": "MILTON STEWART AVE, MCNAB/BRAESIDE"
      },
      {
        "electoralDistricts": [
          {
            "election": null,
            "id": 88,
            "name": "Renfrew—Nipissing—Pembroke"
          }
        ],
        "pollDivisionIds": [
          10141236
        ],
        "postalCode": "K7S0E1",
        "streetName": "RR 4",
        "streetDirectionId": null,
        "streetTypeId": null,
        "placeName": "ARNPRIOR",
        "streetNameDisplayText": "RR 4, ARNPRIOR"
      },
      {
        "electoralDistricts": [
          {
            "election": null,
            "id": 88,
            "name": "Renfrew—Nipissing—Pembroke"
          }
        ],
        "pollDivisionIds": [
          10141236
        ],
        "postalCode": "K7S0E1",
        "streetName": "SCHEEL",
        "streetDirectionId": null,
        "streetTypeId": "DR",
        "placeName": "MCNAB/BRAESIDE",
        "streetNameDisplayText": "SCHEEL DR, MCNAB/BRAESIDE"
      }
    ]
  },
  {
    "postal": "K7S1K9",
    "result": []
  },
  {
    "postal": "K7S1G7",
    "result": [
      {
        "electoralDistricts": [
          {
            "election": null,
            "id": 88,
            "name": "Renfrew—Nipissing—Pembroke"
          }
        ],
        "pollDivisionIds": [
          10141240
        ],
        "postalCode": "K7S1G7",
        "streetName": "HAVEY",
        "streetDirectionId": null,
        "streetTypeId": "ST",
        "placeName": "ARNPRIOR",
        "streetNameDisplayText": "HAVEY ST, ARNPRIOR"
      }
    ]
  },
  {
    "postal": "K7S4E9",
    "result": []
  },
  {
    "postal": "K7S9P0",
    "result": []
  },
  {
    "postal": "K7S5H3",
    "result": []
  },
  {
    "postal": "K7S9X6",
    "result": []
  },
  {
    "postal": "K7S5N7",
    "result": []
  },
  {
    "postal": "K7S5A6",
    "result": []
  },
  {
    "postal": "K7S4M0",
    "result": []
  },
  {
    "postal": "K7S3V6",
    "result": []
  },
  {
    "postal": "K7S1L7",
    "result": [
      {
        "electoralDistricts": [
          {
            "election": null,
            "id": 88,
            "name": "Renfrew—Nipissing—Pembroke"
          }
        ],
        "pollDivisionIds": [
          10141240
        ],
        "postalCode": "K7S1L7",
        "streetName": "MCGONIGAL",
        "streetDirectionId": "E",
        "streetTypeId": "ST",
        "placeName": "ARNPRIOR",
        "streetNameDisplayText": "MCGONIGAL ST E, ARNPRIOR"
      }
    ]
  },
  {
    "postal": "K7S2P9",
    "result": [
      {
        "electoralDistricts": [
          {
            "election": null,
            "id": 88,
            "name": "Renfrew—Nipissing—Pembroke"
          }
        ],
        "pollDivisionIds": [
          10141240
        ],
        "postalCode": "K7S2P9",
        "streetName": "JOHN",
        "streetDirectionId": "S",
        "streetTypeId": "ST",
        "placeName": "ARNPRIOR",
        "streetNameDisplayText": "JOHN ST S, ARNPRIOR"
      }
    ]
  },
  {
    "postal": "K7S5T4",
    "result": []
  },
  {
    "postal": "K7S5Z1",
    "result": []
  },
  {
    "postal": "K7S2X0",
    "result": []
  },
  {
    "postal": "K7S6Z2",
    "result": []
  },
  {
    "postal": "K7S0E0",
    "result": []
  },
  {
    "postal": "K7S3Z5",
    "result": [
      {
        "electoralDistricts": [
          {
            "election": null,
            "id": 88,
            "name": "Renfrew—Nipissing—Pembroke"
          }
        ],
        "pollDivisionIds": [
          10141240
        ],
        "postalCode": "K7S3Z5",
        "streetName": "DIAMOND SPRINGS",
        "streetDirectionId": null,
        "streetTypeId": "ST",
        "placeName": "ARNPRIOR",
        "streetNameDisplayText": "DIAMOND SPRINGS ST, ARNPRIOR"
      }
    ]
  },
  {
    "postal": "K7S8H3",
    "result": []
  },
  {
    "postal": "K7S7S6",
    "result": []
  },
  {
    "postal": "K7S4C1",
    "result": []
  },
  {
    "postal": "K7S3K2",
    "result": [
      {
        "electoralDistricts": [
          {
            "election": null,
            "id": 88,
            "name": "Renfrew—Nipissing—Pembroke"
          }
        ],
        "pollDivisionIds": [
          10141240
        ],
        "postalCode": "K7S3K2",
        "streetName": "MADAWASKA",
        "streetDirectionId": null,
        "streetTypeId": "BLVD",
        "placeName": "ARNPRIOR",
        "streetNameDisplayText": "MADAWASKA BLVD, ARNPRIOR"
      }
    ]
  },
  {
    "postal": "K7S1Y5",
    "result": [
      {
        "electoralDistricts": [
          {
            "election": null,
            "id": 88,
            "name": "Renfrew—Nipissing—Pembroke"
          }
        ],
        "pollDivisionIds": [
          10141239
        ],
        "postalCode": "K7S1Y5",
        "streetName": "THIRD",
        "streetDirectionId": null,
        "streetTypeId": "AVE",
        "placeName": "ARNPRIOR",
        "streetNameDisplayText": "THIRD AVE, ARNPRIOR"
      }
    ]
  },
  {
    "postal": "K7S6P6",
    "result": []
  },
  {
    "postal": "K7S3N9",
    "result": []
  },
  {
    "postal": "K7S3W2",
    "result": [
      {
        "electoralDistricts": [
          {
            "election": null,
            "id": 88,
            "name": "Renfrew—Nipissing—Pembroke"
          }
        ],
        "pollDivisionIds": [
          10141240
        ],
        "postalCode": "K7S3W2",
        "streetName": "ELIZABETH",
        "streetDirectionId": null,
        "streetTypeId": "ST",
        "placeName": "ARNPRIOR",
        "streetNameDisplayText": "ELIZABETH ST, ARNPRIOR"
      }
    ]
  },
  {
    "postal": "K7S6H8",
    "result": []
  },
  {
    "postal": "K7S9T3",
    "result": []
  },
  {
    "postal": "K7S5L9",
    "result": []
  },
  {
    "postal": "K7S7X7",
    "result": []
  },
  {
    "postal": "K7S3J5",
    "result": [
      {
        "electoralDistricts": [
          {
            "election": null,
            "id": 88,
            "name": "Renfrew—Nipissing—Pembroke"
          }
        ],
        "pollDivisionIds": [
          10141239
        ],
        "postalCode": "K7S3J5",
        "streetName": "KINSMEN",
        "streetDirectionId": null,
        "streetTypeId": "CRES",
        "placeName": "ARNPRIOR",
        "streetNameDisplayText": "KINSMEN CRES, ARNPRIOR"
      }
    ]
  },
  {
    "postal": "K7S4J5",
    "result": []
  },
  {
    "postal": "K7S6J2",
    "result": []
  },
  {
    "postal": "K7S5V6",
    "result": []
  },
  {
    "postal": "K7S3N2",
    "result": []
  },
  {
    "postal": "K7S3B1",
    "result": [
      {
        "electoralDistricts": [
          {
            "election": null,
            "id": 88,
            "name": "Renfrew—Nipissing—Pembroke"
          }
        ],
        "pollDivisionIds": [
          10141239
        ],
        "postalCode": "K7S3B1",
        "streetName": "NORMA",
        "streetDirectionId": "N",
        "streetTypeId": "ST",
        "placeName": "ARNPRIOR",
        "streetNameDisplayText": "NORMA ST N, ARNPRIOR"
      }
    ]
  },
  {
    "postal": "K7S8B5",
    "result": []
  },
  {
    "postal": "K7S0K1",
    "result": []
  },
  {
    "postal": "K7S7M7",
    "result": []
  },
  {
    "postal": "K7S2M2",
    "result": [
      {
        "electoralDistricts": [
          {
            "election": null,
            "id": 88,
            "name": "Renfrew—Nipissing—Pembroke"
          }
        ],
        "pollDivisionIds": [
          10141240
        ],
        "postalCode": "K7S2M2",
        "streetName": "DANIEL",
        "streetDirectionId": "S",
        "streetTypeId": "ST",
        "placeName": "ARNPRIOR",
        "streetNameDisplayText": "DANIEL ST S, ARNPRIOR"
      }
    ]
  },
  {
    "postal": "K7S9N3",
    "result": []
  },
  {
    "postal": "K7S4Y8",
    "result": []
  },
  {
    "postal": "K7S3V7",
    "result": [
      {
        "electoralDistricts": [
          {
            "election": null,
            "id": 88,
            "name": "Renfrew—Nipissing—Pembroke"
          }
        ],
        "pollDivisionIds": [
          10141240
        ],
        "postalCode": "K7S3V7",
        "streetName": "FAIRVIEW",
        "streetDirectionId": null,
        "streetTypeId": "CRES",
        "placeName": "ARNPRIOR",
        "streetNameDisplayText": "FAIRVIEW CRES, ARNPRIOR"
      }
    ]
  },
  {
    "postal": "K7S8Z1",
    "result": []
  },
  {
    "postal": "K7S7B3",
    "result": []
  },
  {
    "postal": "K7S3A8",
    "result": [
      {
        "electoralDistricts": [
          {
            "election": null,
            "id": 88,
            "name": "Renfrew—Nipissing—Pembroke"
          }
        ],
        "pollDivisionIds": [
          10141239
        ],
        "postalCode": "K7S3A8",
        "streetName": "NORMA",
        "streetDirectionId": "N",
        "streetTypeId": "ST",
        "placeName": "ARNPRIOR",
        "streetNameDisplayText": "NORMA ST N, ARNPRIOR"
      }
    ]
  },
  {
    "postal": "K7S7V5",
    "result": []
  },
  {
    "postal": "K7S2T2",
    "result": [
      {
        "electoralDistricts": [
          {
            "election": null,
            "id": 88,
            "name": "Renfrew—Nipissing—Pembroke"
          }
        ],
        "pollDivisionIds": [
          10141240
        ],
        "postalCode": "K7S2T2",
        "streetName": "HARRIET",
        "streetDirectionId": null,
        "streetTypeId": "ST",
        "placeName": "ARNPRIOR",
        "streetNameDisplayText": "HARRIET ST, ARNPRIOR"
      }
    ]
  },
  {
    "postal": "K7S6L3",
    "result": []
  },
  {
    "postal": "K7S0L2",
    "result": []
  },
  {
    "postal": "K7S5Y8",
    "result": []
  },
  {
    "postal": "K7S0B8",
    "result": [
      {
        "electoralDistricts": [
          {
            "election": null,
            "id": 88,
            "name": "Renfrew—Nipissing—Pembroke"
          }
        ],
        "pollDivisionIds": [
          10141240
        ],
        "postalCode": "K7S0B8",
        "streetName": "HARTNEY",
        "streetDirectionId": null,
        "streetTypeId": "ST",
        "placeName": "ARNPRIOR",
        "streetNameDisplayText": "HARTNEY ST, ARNPRIOR"
      }
    ]
  },
  {
    "postal": "K7S6R5",
    "result": []
  },
  {
    "postal": "K7S8W6",
    "result": []
  },
  {
    "postal": "K7S8G6",
    "result": []
  },
  {
    "postal": "K7S6X3",
    "result": []
  },
  {
    "postal": "K7S7R7",
    "result": []
  },
  {
    "postal": "K7S4B6",
    "result": []
  },
  {
    "postal": "K7S3P9",
    "result": []
  },
  {
    "postal": "K7S2T3",
    "result": [
      {
        "electoralDistricts": [
          {
            "election": null,
            "id": 88,
            "name": "Renfrew—Nipissing—Pembroke"
          }
        ],
        "pollDivisionIds": [
          10141239
        ],
        "postalCode": "K7S2T3",
        "streetName": "HARRIET",
        "streetDirectionId": null,
        "streetTypeId": "ST",
        "placeName": "ARNPRIOR",
        "streetNameDisplayText": "HARRIET ST, ARNPRIOR"
      }
    ]
  },
  {
    "postal": "K7S1M4",
    "result": [
      {
        "electoralDistricts": [
          {
            "election": null,
            "id": 88,
            "name": "Renfrew—Nipissing—Pembroke"
          }
        ],
        "pollDivisionIds": [
          10141239
        ],
        "postalCode": "K7S1M4",
        "streetName": "MCGONIGAL",
        "streetDirectionId": "W",
        "streetTypeId": "ST",
        "placeName": "ARNPRIOR",
        "streetNameDisplayText": "MCGONIGAL ST W, ARNPRIOR"
      }
    ]
  },
  {
    "postal": "K7S0H1",
    "result": [
      {
        "electoralDistricts": [
          {
            "election": null,
            "id": 88,
            "name": "Renfrew—Nipissing—Pembroke"
          }
        ],
        "pollDivisionIds": [
          10141238,
          10141237,
          10141188
        ],
        "postalCode": "K7S0H1",
        "streetName": "BERT HALL",
        "streetDirectionId": null,
        "streetTypeId": "ST",
        "placeName": "ARNPRIOR",
        "streetNameDisplayText": "BERT HALL ST, ARNPRIOR"
      },
      {
        "electoralDistricts": [
          {
            "election": null,
            "id": 88,
            "name": "Renfrew—Nipissing—Pembroke"
          }
        ],
        "pollDivisionIds": [
          10141238
        ],
        "postalCode": "K7S0H1",
        "streetName": "DESMOND TRUDEAU",
        "streetDirectionId": null,
        "streetTypeId": "DR",
        "placeName": "ARNPRIOR",
        "streetNameDisplayText": "DESMOND TRUDEAU DR, ARNPRIOR"
      }
    ]
  },
  {
    "postal": "K7S9W3",
    "result": []
  },
  {
    "postal": "K7S6P1",
    "result": []
  },
  {
    "postal": "K7S7G2",
    "result": []
  },
  {
    "postal": "K7S4J9",
    "result": []
  },
  {
    "postal": "K7S9E4",
    "result": []
  },
  {
    "postal": "K7S8H0",
    "result": []
  },
  {
    "postal": "K7S4M7",
    "result": []
  },
  {
    "postal": "K7S2G9",
    "result": [
      {
        "electoralDistricts": [
          {
            "election": null,
            "id": 88,
            "name": "Renfrew—Nipissing—Pembroke"
          }
        ],
        "pollDivisionIds": [
          10141240
        ],
        "postalCode": "K7S2G9",
        "streetName": "CARSS",
        "streetDirectionId": null,
        "streetTypeId": "ST",
        "placeName": "ARNPRIOR",
        "streetNameDisplayText": "CARSS ST, ARNPRIOR"
      }
    ]
  },
  {
    "postal": "K7S8T2",
    "result": []
  },
  {
    "postal": "K7S7G7",
    "result": []
  },
  {
    "postal": "K7S4Z3",
    "result": []
  },
  {
    "postal": "K7S5B3",
    "result": []
  },
  {
    "postal": "K7S1S7",
    "result": [
      {
        "electoralDistricts": [
          {
            "election": null,
            "id": 88,
            "name": "Renfrew—Nipissing—Pembroke"
          }
        ],
        "pollDivisionIds": [
          10141240
        ],
        "postalCode": "K7S1S7",
        "streetName": "MADAWASKA",
        "streetDirectionId": null,
        "streetTypeId": "BLVD",
        "placeName": "ARNPRIOR",
        "streetNameDisplayText": "MADAWASKA BLVD, ARNPRIOR"
      }
    ]
  },
  {
    "postal": "K7S2N7",
    "result": [
      {
        "electoralDistricts": [
          {
            "election": null,
            "id": 88,
            "name": "Renfrew—Nipissing—Pembroke"
          }
        ],
        "pollDivisionIds": [
          10141240
        ],
        "postalCode": "K7S2N7",
        "streetName": "JOHN",
        "streetDirectionId": "N",
        "streetTypeId": "ST",
        "placeName": "ARNPRIOR",
        "streetNameDisplayText": "JOHN ST N, ARNPRIOR"
      }
    ]
  },
  {
    "postal": "K7S0H8",
    "result": []
  },
  {
    "postal": "K7S7Z4",
    "result": []
  },
  {
    "postal": "K7S7B1",
    "result": []
  },
  {
    "postal": "K7S7P8",
    "result": []
  },
  {
    "postal": "K7S7N0",
    "result": []
  },
  {
    "postal": "K7S3Y5",
    "result": [
      {
        "electoralDistricts": [
          {
            "election": null,
            "id": 88,
            "name": "Renfrew—Nipissing—Pembroke"
          }
        ],
        "pollDivisionIds": [
          10141238
        ],
        "postalCode": "K7S3Y5",
        "streetName": "MCLACHLIN",
        "streetDirectionId": "S",
        "streetTypeId": "ST",
        "placeName": "ARNPRIOR",
        "streetNameDisplayText": "MCLACHLIN ST S, ARNPRIOR"
      },
      {
        "electoralDistricts": [
          {
            "election": null,
            "id": 88,
            "name": "Renfrew—Nipissing—Pembroke"
          }
        ],
        "pollDivisionIds": [
          10141238
        ],
        "postalCode": "K7S3Y5",
        "streetName": "VANCOURTLAND",
        "streetDirectionId": "S",
        "streetTypeId": "ST",
        "placeName": "ARNPRIOR",
        "streetNameDisplayText": "VANCOURTLAND ST S, ARNPRIOR"
      }
    ]
  },
  {
    "postal": "K7S6K1",
    "result": []
  },
  {
    "postal": "K7S9X5",
    "result": []
  },
  {
    "postal": "K7S7S5",
    "result": []
  },
  {
    "postal": "K7S0A4",
    "result": [
      {
        "electoralDistricts": [
          {
            "election": null,
            "id": 88,
            "name": "Renfrew—Nipissing—Pembroke"
          }
        ],
        "pollDivisionIds": [
          10141240
        ],
        "postalCode": "K7S0A4",
        "streetName": "LENA",
        "streetDirectionId": null,
        "streetTypeId": "ST",
        "placeName": "ARNPRIOR",
        "streetNameDisplayText": "LENA ST, ARNPRIOR"
      }
    ]
  },
  {
    "postal": "K7S4T5",
    "result": []
  },
  {
    "postal": "K7S5K1",
    "result": []
  },
  {
    "postal": "K7S0Z9",
    "result": []
  },
  {
    "postal": "K7S7T2",
    "result": []
  },
  {
    "postal": "K7S1L5",
    "result": [
      {
        "electoralDistricts": [
          {
            "election": null,
            "id": 88,
            "name": "Renfrew—Nipissing—Pembroke"
          }
        ],
        "pollDivisionIds": [
          10141240
        ],
        "postalCode": "K7S1L5",
        "streetName": "MCGONIGAL",
        "streetDirectionId": "E",
        "streetTypeId": "ST",
        "placeName": "ARNPRIOR",
        "streetNameDisplayText": "MCGONIGAL ST E, ARNPRIOR"
      }
    ]
  },
  {
    "postal": "K7S3N5",
    "result": [
      {
        "electoralDistricts": [
          {
            "election": null,
            "id": 88,
            "name": "Renfrew—Nipissing—Pembroke"
          }
        ],
        "pollDivisionIds": [
          10141240
        ],
        "postalCode": "K7S3N5",
        "streetName": "ROBERT",
        "streetDirectionId": null,
        "streetTypeId": "ST",
        "placeName": "ARNPRIOR",
        "streetNameDisplayText": "ROBERT ST, ARNPRIOR"
      }
    ]
  },
  {
    "postal": "K7S6H4",
    "result": []
  },
  {
    "postal": "K7S5A5",
    "result": []
  },
  {
    "postal": "K7S3R9",
    "result": [
      {
        "electoralDistricts": [
          {
            "election": null,
            "id": 88,
            "name": "Renfrew—Nipissing—Pembroke"
          }
        ],
        "pollDivisionIds": [
          10141238
        ],
        "postalCode": "K7S3R9",
        "streetName": "SMOLKIN",
        "streetDirectionId": null,
        "streetTypeId": "ST",
        "placeName": "ARNPRIOR",
        "streetNameDisplayText": "SMOLKIN ST, ARNPRIOR"
      }
    ]
  },
  {
    "postal": "K7S7L8",
    "result": []
  },
  {
    "postal": "K7S6T6",
    "result": []
  },
  {
    "postal": "K7S7Y7",
    "result": []
  },
  {
    "postal": "K7S3M8",
    "result": []
  },
  {
    "postal": "K7S2E0",
    "result": []
  },
  {
    "postal": "K7S4B5",
    "result": []
  },
  {
    "postal": "K7S1J3",
    "result": [
      {
        "electoralDistricts": [
          {
            "election": null,
            "id": 88,
            "name": "Renfrew—Nipissing—Pembroke"
          }
        ],
        "pollDivisionIds": [
          10141240
        ],
        "postalCode": "K7S1J3",
        "streetName": "ADDIE",
        "streetDirectionId": null,
        "streetTypeId": "ST",
        "placeName": "ARNPRIOR",
        "streetNameDisplayText": "ADDIE ST, ARNPRIOR"
      }
    ]
  },
  {
    "postal": "K7S5S6",
    "result": []
  },
  {
    "postal": "K7S8P7",
    "result": []
  },
  {
    "postal": "K7S7S7",
    "result": []
  },
  {
    "postal": "K7S4C2",
    "result": []
  },
  {
    "postal": "K7S5Y0",
    "result": []
  },
  {
    "postal": "K7S2V7",
    "result": [
      {
        "electoralDistricts": [
          {
            "election": null,
            "id": 88,
            "name": "Renfrew—Nipissing—Pembroke"
          }
        ],
        "pollDivisionIds": [
          10141239
        ],
        "postalCode": "K7S2V7",
        "streetName": "HUGH",
        "streetDirectionId": "S",
        "streetTypeId": "ST",
        "placeName": "ARNPRIOR",
        "streetNameDisplayText": "HUGH ST S, ARNPRIOR"
      }
    ]
  },
  {
    "postal": "K7S8P5",
    "result": []
  },
  {
    "postal": "K7S5P5",
    "result": []
  },
  {
    "postal": "K7S5Z0",
    "result": []
  },
  {
    "postal": "K7S9B0",
    "result": []
  },
  {
    "postal": "K7S1L0",
    "result": []
  },
  {
    "postal": "K7S0B5",
    "result": [
      {
        "electoralDistricts": [
          {
            "election": null,
            "id": 88,
            "name": "Renfrew—Nipissing—Pembroke"
          }
        ],
        "pollDivisionIds": [
          10141240
        ],
        "postalCode": "K7S0B5",
        "streetName": "DECOSTA",
        "streetDirectionId": null,
        "streetTypeId": "ST",
        "placeName": "ARNPRIOR",
        "streetNameDisplayText": "DECOSTA ST, ARNPRIOR"
      }
    ]
  },
  {
    "postal": "K7S3L2",
    "result": [
      {
        "electoralDistricts": [
          {
            "election": null,
            "id": 88,
            "name": "Renfrew—Nipissing—Pembroke"
          }
        ],
        "pollDivisionIds": [
          10141237
        ],
        "postalCode": "K7S3L2",
        "streetName": "TIMOTHY",
        "streetDirectionId": null,
        "streetTypeId": "DR",
        "placeName": "ARNPRIOR",
        "streetNameDisplayText": "TIMOTHY DR, ARNPRIOR"
      }
    ]
  },
  {
    "postal": "K7S3B7",
    "result": [
      {
        "electoralDistricts": [
          {
            "election": null,
            "id": 88,
            "name": "Renfrew—Nipissing—Pembroke"
          }
        ],
        "pollDivisionIds": [
          10141238
        ],
        "postalCode": "K7S3B7",
        "streetName": "CHARLOTTE",
        "streetDirectionId": "S",
        "streetTypeId": "ST",
        "placeName": "ARNPRIOR",
        "streetNameDisplayText": "CHARLOTTE ST S, ARNPRIOR"
      }
    ]
  },
  {
    "postal": "K7S8L1",
    "result": []
  },
  {
    "postal": "K7S5M4",
    "result": []
  },
  {
    "postal": "K7S4G9",
    "result": []
  },
  {
    "postal": "K7S0P0",
    "result": []
  },
  {
    "postal": "K7S8G2",
    "result": []
  },
  {
    "postal": "K7S1V9",
    "result": [
      {
        "electoralDistricts": [
          {
            "election": null,
            "id": 88,
            "name": "Renfrew—Nipissing—Pembroke"
          }
        ],
        "pollDivisionIds": [
          10141237
        ],
        "postalCode": "K7S1V9",
        "streetName": "USBORNE",
        "streetDirectionId": null,
        "streetTypeId": "ST",
        "placeName": "ARNPRIOR",
        "streetNameDisplayText": "USBORNE ST, ARNPRIOR"
      }
    ]
  },
  {
    "postal": "K7S8N8",
    "result": []
  },
  {
    "postal": "K7S6S8",
    "result": []
  },
  {
    "postal": "K7S8H2",
    "result": []
  },
  {
    "postal": "K7S5R8",
    "result": []
  },
  {
    "postal": "K7S5L4",
    "result": []
  },
  {
    "postal": "K7S9E1",
    "result": []
  },
  {
    "postal": "K7S1C4",
    "result": [
      {
        "electoralDistricts": [
          {
            "election": null,
            "id": 88,
            "name": "Renfrew—Nipissing—Pembroke"
          }
        ],
        "pollDivisionIds": [
          10141237
        ],
        "postalCode": "K7S1C4",
        "streetName": "STADACONNA",
        "streetDirectionId": null,
        "streetTypeId": "ST",
        "placeName": "ARNPRIOR",
        "streetNameDisplayText": "STADACONNA ST, ARNPRIOR"
      }
    ]
  },
  {
    "postal": "K7S8W5",
    "result": []
  },
  {
    "postal": "K7S1Y4",
    "result": [
      {
        "electoralDistricts": [
          {
            "election": null,
            "id": 88,
            "name": "Renfrew—Nipissing—Pembroke"
          }
        ],
        "pollDivisionIds": [
          10141240
        ],
        "postalCode": "K7S1Y4",
        "streetName": "SECOND",
        "streetDirectionId": null,
        "streetTypeId": "AVE",
        "placeName": "ARNPRIOR",
        "streetNameDisplayText": "SECOND AVE, ARNPRIOR"
      }
    ]
  },
  {
    "postal": "K7S1C0",
    "result": []
  },
  {
    "postal": "K7S2J2",
    "result": [
      {
        "electoralDistricts": [
          {
            "election": null,
            "id": 88,
            "name": "Renfrew—Nipissing—Pembroke"
          }
        ],
        "pollDivisionIds": [
          10141240
        ],
        "postalCode": "K7S2J2",
        "streetName": "RUSSELL",
        "streetDirectionId": "N",
        "streetTypeId": "ST",
        "placeName": "ARNPRIOR",
        "streetNameDisplayText": "RUSSELL ST N, ARNPRIOR"
      }
    ]
  },
  {
    "postal": "K7S2J0",
    "result": []
  },
  {
    "postal": "K7S7A3",
    "result": []
  },
  {
    "postal": "K7S8M1",
    "result": []
  },
  {
    "postal": "K7S7T9",
    "result": []
  },
  {
    "postal": "K7S6C0",
    "result": []
  },
  {
    "postal": "K7S7X1",
    "result": []
  },
  {
    "postal": "K7S0G1",
    "result": [
      {
        "electoralDistricts": [
          {
            "election": null,
            "id": 88,
            "name": "Renfrew—Nipissing—Pembroke"
          }
        ],
        "pollDivisionIds": [
          10141240
        ],
        "postalCode": "K7S0G1",
        "streetName": "FOURTH",
        "streetDirectionId": null,
        "streetTypeId": "AVE",
        "placeName": "ARNPRIOR",
        "streetNameDisplayText": "FOURTH AVE, ARNPRIOR"
      }
    ]
  },
  {
    "postal": "K7S4X2",
    "result": []
  },
  {
    "postal": "K7S0N6",
    "result": []
  },
  {
    "postal": "K7S8E3",
    "result": []
  },
  {
    "postal": "K7S5S8",
    "result": []
  },
  {
    "postal": "K7S0R0",
    "result": []
  },
  {
    "postal": "K7S6J6",
    "result": []
  },
  {
    "postal": "K7S4B4",
    "result": []
  },
  {
    "postal": "K7S7E3",
    "result": []
  },
  {
    "postal": "K7S3N6",
    "result": []
  },
  {
    "postal": "K7S3X6",
    "result": []
  },
  {
    "postal": "K7S8L0",
    "result": []
  },
  {
    "postal": "K7S8N1",
    "result": []
  },
  {
    "postal": "K7S4J0",
    "result": []
  },
  {
    "postal": "K7S0X7",
    "result": []
  },
  {
    "postal": "K7S6S4",
    "result": []
  },
  {
    "postal": "K7S0Z0",
    "result": []
  },
  {
    "postal": "K7S9X8",
    "result": []
  },
  {
    "postal": "K7S3H3",
    "result": []
  },
  {
    "postal": "K7S7S2",
    "result": []
  },
  {
    "postal": "K7S3T3",
    "result": [
      {
        "electoralDistricts": [
          {
            "election": null,
            "id": 88,
            "name": "Renfrew—Nipissing—Pembroke"
          }
        ],
        "pollDivisionIds": [
          10141237
        ],
        "postalCode": "K7S3T3",
        "streetName": "FOREST RIDGE",
        "streetDirectionId": null,
        "streetTypeId": "RD",
        "placeName": "ARNPRIOR",
        "streetNameDisplayText": "FOREST RIDGE RD, ARNPRIOR"
      },
      {
        "electoralDistricts": [
          {
            "election": null,
            "id": 88,
            "name": "Renfrew—Nipissing—Pembroke"
          }
        ],
        "pollDivisionIds": [
          10141237
        ],
        "postalCode": "K7S3T3",
        "streetName": "FOXTAIL",
        "streetDirectionId": null,
        "streetTypeId": "CRES",
        "placeName": "ARNPRIOR",
        "streetNameDisplayText": "FOXTAIL CRES, ARNPRIOR"
      },
      {
        "electoralDistricts": [
          {
            "election": null,
            "id": 88,
            "name": "Renfrew—Nipissing—Pembroke"
          }
        ],
        "pollDivisionIds": [
          10141237
        ],
        "postalCode": "K7S3T3",
        "streetName": "OLD ORCHARD",
        "streetDirectionId": null,
        "streetTypeId": "LANE",
        "placeName": "ARNPRIOR",
        "streetNameDisplayText": "OLD ORCHARD LANE, ARNPRIOR"
      }
    ]
  },
  {
    "postal": "K7S9P3",
    "result": []
  },
  {
    "postal": "K7S4H8",
    "result": []
  },
  {
    "postal": "K7S6R1",
    "result": []
  },
  {
    "postal": "K7S1S0",
    "result": []
  },
  {
    "postal": "K7S3W8",
    "result": [
      {
        "electoralDistricts": [
          {
            "election": null,
            "id": 88,
            "name": "Renfrew—Nipissing—Pembroke"
          }
        ],
        "pollDivisionIds": [
          10141237
        ],
        "postalCode": "K7S3W8",
        "streetName": "ROBINSON",
        "streetDirectionId": null,
        "streetTypeId": "ST",
        "placeName": "ARNPRIOR",
        "streetNameDisplayText": "ROBINSON ST, ARNPRIOR"
      }
    ]
  },
  {
    "postal": "K7S4S3",
    "result": []
  },
  {
    "postal": "K7S1B6",
    "result": [
      {
        "electoralDistricts": [
          {
            "election": null,
            "id": 88,
            "name": "Renfrew—Nipissing—Pembroke"
          }
        ],
        "pollDivisionIds": [
          10141240
        ],
        "postalCode": "K7S1B6",
        "streetName": "EDEY",
        "streetDirectionId": null,
        "streetTypeId": "ST",
        "placeName": "ARNPRIOR",
        "streetNameDisplayText": "EDEY ST, ARNPRIOR"
      }
    ]
  },
  {
    "postal": "K7S8R3",
    "result": []
  },
  {
    "postal": "K7S4V9",
    "result": []
  },
  {
    "postal": "K7S9W4",
    "result": []
  },
  {
    "postal": "K7S3T4",
    "result": [
      {
        "electoralDistricts": [
          {
            "election": null,
            "id": 88,
            "name": "Renfrew—Nipissing—Pembroke"
          }
        ],
        "pollDivisionIds": [
          10141237
        ],
        "postalCode": "K7S3T4",
        "streetName": "BAYSIDE",
        "streetDirectionId": null,
        "streetTypeId": "ST",
        "placeName": "ARNPRIOR",
        "streetNameDisplayText": "BAYSIDE ST, ARNPRIOR"
      },
      {
        "electoralDistricts": [
          {
            "election": null,
            "id": 88,
            "name": "Renfrew—Nipissing—Pembroke"
          }
        ],
        "pollDivisionIds": [
          10141237
        ],
        "postalCode": "K7S3T4",
        "streetName": "FOREST RIDGE",
        "streetDirectionId": null,
        "streetTypeId": "RD",
        "placeName": "ARNPRIOR",
        "streetNameDisplayText": "FOREST RIDGE RD, ARNPRIOR"
      },
      {
        "electoralDistricts": [
          {
            "election": null,
            "id": 88,
            "name": "Renfrew—Nipissing—Pembroke"
          }
        ],
        "pollDivisionIds": [
          10141237,
          10141188
        ],
        "postalCode": "K7S3T4",
        "streetName": "FOXTAIL",
        "streetDirectionId": null,
        "streetTypeId": "CRES",
        "placeName": "ARNPRIOR",
        "streetNameDisplayText": "FOXTAIL CRES, ARNPRIOR"
      },
      {
        "electoralDistricts": [
          {
            "election": null,
            "id": 88,
            "name": "Renfrew—Nipissing—Pembroke"
          }
        ],
        "pollDivisionIds": [
          10141237
        ],
        "postalCode": "K7S3T4",
        "streetName": "OLD ORCHARD",
        "streetDirectionId": null,
        "streetTypeId": "LANE",
        "placeName": "ARNPRIOR",
        "streetNameDisplayText": "OLD ORCHARD LANE, ARNPRIOR"
      },
      {
        "electoralDistricts": [
          {
            "election": null,
            "id": 88,
            "name": "Renfrew—Nipissing—Pembroke"
          }
        ],
        "pollDivisionIds": [
          10141237
        ],
        "postalCode": "K7S3T4",
        "streetName": "RUTH",
        "streetDirectionId": null,
        "streetTypeId": "ST",
        "placeName": "ARNPRIOR",
        "streetNameDisplayText": "RUTH ST, ARNPRIOR"
      }
    ]
  },
  {
    "postal": "K7S5C7",
    "result": []
  },
  {
    "postal": "K7S3Y1",
    "result": [
      {
        "electoralDistricts": [
          {
            "election": null,
            "id": 88,
            "name": "Renfrew—Nipissing—Pembroke"
          }
        ],
        "pollDivisionIds": [
          10141237
        ],
        "postalCode": "K7S3Y1",
        "streetName": "RATH",
        "streetDirectionId": null,
        "streetTypeId": "ST",
        "placeName": "ARNPRIOR",
        "streetNameDisplayText": "RATH ST, ARNPRIOR"
      }
    ]
  },
  {
    "postal": "K7S5V0",
    "result": []
  },
  {
    "postal": "K7S8G8",
    "result": []
  },
  {
    "postal": "K7S8B1",
    "result": []
  },
  {
    "postal": "K7S4P5",
    "result": []
  },
  {
    "postal": "K7S7B2",
    "result": []
  },
  {
    "postal": "K7S0R2",
    "result": []
  },
  {
    "postal": "K7S4M4",
    "result": []
  },
  {
    "postal": "K7S7M4",
    "result": []
  },
  {
    "postal": "K7S9S7",
    "result": []
  },
  {
    "postal": "K7S5Z7",
    "result": []
  },
  {
    "postal": "K7S7J7",
    "result": []
  },
  {
    "postal": "K7S8R8",
    "result": []
  },
  {
    "postal": "K7S9X1",
    "result": []
  },
  {
    "postal": "K7S5M9",
    "result": []
  },
  {
    "postal": "K7S9B4",
    "result": []
  },
  {
    "postal": "K7S0L9",
    "result": []
  },
  {
    "postal": "K7S9G4",
    "result": []
  },
  {
    "postal": "K7S1J4",
    "result": [
      {
        "electoralDistricts": [
          {
            "election": null,
            "id": 88,
            "name": "Renfrew—Nipissing—Pembroke"
          }
        ],
        "pollDivisionIds": [
          10141240
        ],
        "postalCode": "K7S1J4",
        "streetName": "ATKINSON",
        "streetDirectionId": null,
        "streetTypeId": "ST",
        "placeName": "ARNPRIOR",
        "streetNameDisplayText": "ATKINSON ST, ARNPRIOR"
      }
    ]
  },
  {
    "postal": "K7S0W6",
    "result": []
  }
]
