[
  {
    "postal": "N1T9J6",
    "result": []
  },
  {
    "postal": "N1T9Z5",
    "result": []
  },
  {
    "postal": "N1T7H8",
    "result": []
  },
  {
    "postal": "N1T0P6",
    "result": []
  },
  {
    "postal": "N1T0S7",
    "result": []
  },
  {
    "postal": "N1T8B9",
    "result": []
  },
  {
    "postal": "N1T2A6",
    "result": [
      {
        "electoralDistricts": [
          {
            "election": null,
            "id": 16,
            "name": "Cambridge"
          }
        ],
        "pollDivisionIds": [
          10137427
        ],
        "postalCode": "N1T2A6",
        "streetName": "ARCHWOOD",
        "streetDirectionId": null,
        "streetTypeId": "CRES",
        "placeName": "CAMBRIDGE",
        "streetNameDisplayText": "ARCHWOOD CRES, CAMBRIDGE"
      },
      {
        "electoralDistricts": [
          {
            "election": null,
            "id": 16,
            "name": "Cambridge"
          }
        ],
        "pollDivisionIds": [
          10137427
        ],
        "postalCode": "N1T2A6",
        "streetName": "GRANITE HILL",
        "streetDirectionId": null,
        "streetTypeId": "RD",
        "placeName": "CAMBRIDGE",
        "streetNameDisplayText": "GRANITE HILL RD, CAMBRIDGE"
      },
      {
        "electoralDistricts": [
          {
            "election": null,
            "id": 16,
            "name": "Cambridge"
          }
        ],
        "pollDivisionIds": [
          10137427
        ],
        "postalCode": "N1T2A6",
        "streetName": "SAGINAW",
        "streetDirectionId": null,
        "streetTypeId": "PKY",
        "placeName": "CAMBRIDGE",
        "streetNameDisplayText": "SAGINAW PKY, CAMBRIDGE"
      }
    ]
  },
  {
    "postal": "N1T7V2",
    "result": []
  },
  {
    "postal": "N1T9P4",
    "result": []
  },
  {
    "postal": "N1T6G0",
    "result": []
  },
  {
    "postal": "N1T2K0",
    "result": []
  },
  {
    "postal": "N1T7N6",
    "result": []
  },
  {
    "postal": "N1T5R3",
    "result": []
  },
  {
    "postal": "N1T7K0",
    "result": []
  },
  {
    "postal": "N1T3R2",
    "result": []
  },
  {
    "postal": "N1T0J1",
    "result": []
  },
  {
    "postal": "N1T0B0",
    "result": []
  },
  {
    "postal": "N1T5Z2",
    "result": []
  },
  {
    "postal": "N1T7P3",
    "result": []
  },
  {
    "postal": "N1T2K3",
    "result": [
      {
        "electoralDistricts": [
          {
            "election": null,
            "id": 16,
            "name": "Cambridge"
          }
        ],
        "pollDivisionIds": [
          10137427
        ],
        "postalCode": "N1T2K3",
        "streetName": "GARTH MASSEY",
        "streetDirectionId": null,
        "streetTypeId": "DR",
        "placeName": "CAMBRIDGE",
        "streetNameDisplayText": "GARTH MASSEY DR, CAMBRIDGE"
      },
      {
        "electoralDistricts": [
          {
            "election": null,
            "id": 16,
            "name": "Cambridge"
          }
        ],
        "pollDivisionIds": [
          10137427
        ],
        "postalCode": "N1T2K3",
        "streetName": "LONGSPUR",
        "streetDirectionId": null,
        "streetTypeId": "WAY",
        "placeName": "CAMBRIDGE",
        "streetNameDisplayText": "LONGSPUR WAY, CAMBRIDGE"
      },
      {
        "electoralDistricts": [
          {
            "election": null,
            "id": 16,
            "name": "Cambridge"
          }
        ],
        "pollDivisionIds": [
          10137427
        ],
        "postalCode": "N1T2K3",
        "streetName": "REDSTART",
        "streetDirectionId": null,
        "streetTypeId": "DR",
        "placeName": "CAMBRIDGE",
        "streetNameDisplayText": "REDSTART DR, CAMBRIDGE"
      }
    ]
  },
  {
    "postal": "N1T7Y6",
    "result": []
  },
  {
    "postal": "N1T1L9",
    "result": [
      {
        "electoralDistricts": [
          {
            "election": null,
            "id": 16,
            "name": "Cambridge"
          }
        ],
        "pollDivisionIds": [
          10137436
        ],
        "postalCode": "N1T1L9",
        "streetName": "ANGLEROCK",
        "streetDirectionId": null,
        "streetTypeId": "DR",
        "placeName": "CAMBRIDGE",
        "streetNameDisplayText": "ANGLEROCK DR, CAMBRIDGE"
      },
      {
        "electoralDistricts": [
          {
            "election": null,
            "id": 16,
            "name": "Cambridge"
          }
        ],
        "pollDivisionIds": [
          10137426,
          10137436
        ],
        "postalCode": "N1T1L9",
        "streetName": "NUTCRACKER",
        "streetDirectionId": null,
        "streetTypeId": "ST",
        "placeName": "CAMBRIDGE",
        "streetNameDisplayText": "NUTCRACKER ST, CAMBRIDGE"
      }
    ]
  },
  {
    "postal": "N1T8T0",
    "result": []
  },
  {
    "postal": "N1T3K8",
    "result": []
  },
  {
    "postal": "N1T5W9",
    "result": []
  },
  {
    "postal": "N1T6T9",
    "result": []
  },
  {
    "postal": "N1T4H1",
    "result": []
  },
  {
    "postal": "N1T7A2",
    "result": []
  },
  {
    "postal": "N1T5G0",
    "result": []
  },
  {
    "postal": "N1T8V5",
    "result": []
  },
  {
    "postal": "N1T2Y8",
    "result": []
  },
  {
    "postal": "N1T2B6",
    "result": [
      {
        "electoralDistricts": [
          {
            "election": null,
            "id": 16,
            "name": "Cambridge"
          }
        ],
        "pollDivisionIds": [
          10137427
        ],
        "postalCode": "N1T2B6",
        "streetName": "COUNTRY CLUB",
        "streetDirectionId": null,
        "streetTypeId": "DR",
        "placeName": "CAMBRIDGE",
        "streetNameDisplayText": "COUNTRY CLUB DR, CAMBRIDGE"
      },
      {
        "electoralDistricts": [
          {
            "election": null,
            "id": 16,
            "name": "Cambridge"
          }
        ],
        "pollDivisionIds": [
          10137427
        ],
        "postalCode": "N1T2B6",
        "streetName": "GREEN BANK",
        "streetDirectionId": null,
        "streetTypeId": "DR",
        "placeName": "CAMBRIDGE",
        "streetNameDisplayText": "GREEN BANK DR, CAMBRIDGE"
      }
    ]
  },
  {
    "postal": "N1T4W8",
    "result": []
  },
  {
    "postal": "N1T8H7",
    "result": []
  },
  {
    "postal": "N1T5P1",
    "result": []
  },
  {
    "postal": "N1T2B8",
    "result": [
      {
        "electoralDistricts": [
          {
            "election": null,
            "id": 16,
            "name": "Cambridge"
          }
        ],
        "pollDivisionIds": [
          10137419
        ],
        "postalCode": "N1T2B8",
        "streetName": "FLEMING",
        "streetDirectionId": null,
        "streetTypeId": "DR",
        "placeName": "CAMBRIDGE",
        "streetNameDisplayText": "FLEMING DR, CAMBRIDGE"
      }
    ]
  },
  {
    "postal": "N1T0P2",
    "result": []
  },
  {
    "postal": "N1T9M1",
    "result": []
  },
  {
    "postal": "N1T3G0",
    "result": []
  },
  {
    "postal": "N1T9Z2",
    "result": []
  },
  {
    "postal": "N1T2A0",
    "result": []
  },
  {
    "postal": "N1T6Y0",
    "result": []
  },
  {
    "postal": "N1T2Z8",
    "result": []
  },
  {
    "postal": "N1T7Y3",
    "result": []
  },
  {
    "postal": "N1T6Z5",
    "result": []
  },
  {
    "postal": "N1T6E0",
    "result": []
  },
  {
    "postal": "N1T9B7",
    "result": []
  },
  {
    "postal": "N1T9S5",
    "result": []
  },
  {
    "postal": "N1T3X3",
    "result": []
  },
  {
    "postal": "N1T7R5",
    "result": []
  },
  {
    "postal": "N1T2X3",
    "result": []
  },
  {
    "postal": "N1T8Z9",
    "result": []
  },
  {
    "postal": "N1T0N4",
    "result": []
  },
  {
    "postal": "N1T1K1",
    "result": [
      {
        "electoralDistricts": [
          {
            "election": null,
            "id": 16,
            "name": "Cambridge"
          }
        ],
        "pollDivisionIds": [
          10137436
        ],
        "postalCode": "N1T1K1",
        "streetName": "BEASLEY",
        "streetDirectionId": null,
        "streetTypeId": "CRES",
        "placeName": "CAMBRIDGE",
        "streetNameDisplayText": "BEASLEY CRES, CAMBRIDGE"
      },
      {
        "electoralDistricts": [
          {
            "election": null,
            "id": 16,
            "name": "Cambridge"
          }
        ],
        "pollDivisionIds": [
          10137436
        ],
        "postalCode": "N1T1K1",
        "streetName": "LEE",
        "streetDirectionId": null,
        "streetTypeId": "CRT",
        "placeName": "CAMBRIDGE",
        "streetNameDisplayText": "LEE CRT, CAMBRIDGE"
      }
    ]
  },
  {
    "postal": "N1T1S3",
    "result": [
      {
        "electoralDistricts": [
          {
            "election": null,
            "id": 16,
            "name": "Cambridge"
          }
        ],
        "pollDivisionIds": [
          10137435
        ],
        "postalCode": "N1T1S3",
        "streetName": "SAVAGE",
        "streetDirectionId": null,
        "streetTypeId": "DR",
        "placeName": "CAMBRIDGE",
        "streetNameDisplayText": "SAVAGE DR, CAMBRIDGE"
      }
    ]
  },
  {
    "postal": "N1T6M4",
    "result": []
  },
  {
    "postal": "N1T9A9",
    "result": []
  },
  {
    "postal": "N1T9Z9",
    "result": []
  },
  {
    "postal": "N1T6T4",
    "result": []
  },
  {
    "postal": "N1T0B2",
    "result": [
      {
        "electoralDistricts": [
          {
            "election": null,
            "id": 16,
            "name": "Cambridge"
          }
        ],
        "pollDivisionIds": [
          10137463
        ],
        "postalCode": "N1T0B2",
        "streetName": "CHESTER",
        "streetDirectionId": null,
        "streetTypeId": "DR",
        "placeName": "CAMBRIDGE",
        "streetNameDisplayText": "CHESTER DR, CAMBRIDGE"
      },
      {
        "electoralDistricts": [
          {
            "election": null,
            "id": 16,
            "name": "Cambridge"
          }
        ],
        "pollDivisionIds": [
          10137463,
          10137445
        ],
        "postalCode": "N1T0B2",
        "streetName": "FITZGERALD",
        "streetDirectionId": null,
        "streetTypeId": "DR",
        "placeName": "CAMBRIDGE",
        "streetNameDisplayText": "FITZGERALD DR, CAMBRIDGE"
      }
    ]
  },
  {
    "postal": "N1T2L9",
    "result": []
  },
  {
    "postal": "N1T8K9",
    "result": []
  },
  {
    "postal": "N1T2H9",
    "result": [
      {
        "electoralDistricts": [
          {
            "election": null,
            "id": 16,
            "name": "Cambridge"
          }
        ],
        "pollDivisionIds": [
          10137419
        ],
        "postalCode": "N1T2H9",
        "streetName": "SHELDON",
        "streetDirectionId": null,
        "streetTypeId": "DR",
        "placeName": "CAMBRIDGE",
        "streetNameDisplayText": "SHELDON DR, CAMBRIDGE"
      }
    ]
  },
  {
    "postal": "N1T3Z6",
    "result": []
  },
  {
    "postal": "N1T3B0",
    "result": []
  },
  {
    "postal": "N1T2H8",
    "result": [
      {
        "electoralDistricts": [
          {
            "election": null,
            "id": 16,
            "name": "Cambridge"
          }
        ],
        "pollDivisionIds": [
          10137427
        ],
        "postalCode": "N1T2H8",
        "streetName": "GLAZEBROOK",
        "streetDirectionId": null,
        "streetTypeId": "CRES",
        "placeName": "CAMBRIDGE",
        "streetNameDisplayText": "GLAZEBROOK CRES, CAMBRIDGE"
      }
    ]
  },
  {
    "postal": "N1T3X2",
    "result": []
  },
  {
    "postal": "N1T2E9",
    "result": [
      {
        "electoralDistricts": [
          {
            "election": null,
            "id": 16,
            "name": "Cambridge"
          }
        ],
        "pollDivisionIds": [
          10137427
        ],
        "postalCode": "N1T2E9",
        "streetName": "ARTHUR FACH",
        "streetDirectionId": null,
        "streetTypeId": "DR",
        "placeName": "CAMBRIDGE",
        "streetNameDisplayText": "ARTHUR FACH DR, CAMBRIDGE"
      },
      {
        "electoralDistricts": [
          {
            "election": null,
            "id": 16,
            "name": "Cambridge"
          }
        ],
        "pollDivisionIds": [
          10137427
        ],
        "postalCode": "N1T2E9",
        "streetName": "BAGGS",
        "streetDirectionId": null,
        "streetTypeId": "CRES",
        "placeName": "CAMBRIDGE",
        "streetNameDisplayText": "BAGGS CRES, CAMBRIDGE"
      },
      {
        "electoralDistricts": [
          {
            "election": null,
            "id": 16,
            "name": "Cambridge"
          }
        ],
        "pollDivisionIds": [
          10137427
        ],
        "postalCode": "N1T2E9",
        "streetName": "GOREING",
        "streetDirectionId": null,
        "streetTypeId": "ST",
        "placeName": "CAMBRIDGE",
        "streetNameDisplayText": "GOREING ST, CAMBRIDGE"
      },
      {
        "electoralDistricts": [
          {
            "election": null,
            "id": 16,
            "name": "Cambridge"
          }
        ],
        "pollDivisionIds": [
          10137427
        ],
        "postalCode": "N1T2E9",
        "streetName": "MAYO",
        "streetDirectionId": null,
        "streetTypeId": "AVE",
        "placeName": "CAMBRIDGE",
        "streetNameDisplayText": "MAYO AVE, CAMBRIDGE"
      }
    ]
  },
  {
    "postal": "N1T9P6",
    "result": []
  },
  {
    "postal": "N1T9E2",
    "result": []
  },
  {
    "postal": "N1T9H2",
    "result": []
  },
  {
    "postal": "N1T1S8",
    "result": [
      {
        "electoralDistricts": [
          {
            "election": null,
            "id": 16,
            "name": "Cambridge"
          }
        ],
        "pollDivisionIds": [
          10137446
        ],
        "postalCode": "N1T1S8",
        "streetName": "DOBBIE",
        "streetDirectionId": null,
        "streetTypeId": "DR",
        "placeName": "CAMBRIDGE",
        "streetNameDisplayText": "DOBBIE DR, CAMBRIDGE"
      }
    ]
  },
  {
    "postal": "N1T3M6",
    "result": []
  },
  {
    "postal": "N1T6Z8",
    "result": []
  },
  {
    "postal": "N1T4J2",
    "result": []
  },
  {
    "postal": "N1T9Y1",
    "result": []
  },
  {
    "postal": "N1T8V6",
    "result": []
  },
  {
    "postal": "N1T6B2",
    "result": []
  },
  {
    "postal": "N1T1P8",
    "result": [
      {
        "electoralDistricts": [
          {
            "election": null,
            "id": 16,
            "name": "Cambridge"
          }
        ],
        "pollDivisionIds": [
          10137461
        ],
        "postalCode": "N1T1P8",
        "streetName": "DUNDAS",
        "streetDirectionId": "S",
        "streetTypeId": "ST",
        "placeName": "CAMBRIDGE",
        "streetNameDisplayText": "DUNDAS ST S, CAMBRIDGE"
      }
    ]
  },
  {
    "postal": "N1T0V8",
    "result": []
  },
  {
    "postal": "N1T4Y0",
    "result": []
  },
  {
    "postal": "N1T2T4",
    "result": []
  },
  {
    "postal": "N1T2S3",
    "result": []
  },
  {
    "postal": "N1T0K0",
    "result": []
  },
  {
    "postal": "N1T5N1",
    "result": []
  },
  {
    "postal": "N1T7T0",
    "result": []
  },
  {
    "postal": "N1T9N2",
    "result": []
  },
  {
    "postal": "N1T5L1",
    "result": []
  },
  {
    "postal": "N1T7G5",
    "result": []
  },
  {
    "postal": "N1T6K2",
    "result": []
  },
  {
    "postal": "N1T6P9",
    "result": []
  },
  {
    "postal": "N1T0E6",
    "result": []
  },
  {
    "postal": "N1T8R9",
    "result": []
  },
  {
    "postal": "N1T3G9",
    "result": []
  },
  {
    "postal": "N1T0V7",
    "result": []
  },
  {
    "postal": "N1T2Z1",
    "result": []
  },
  {
    "postal": "N1T7N1",
    "result": []
  },
  {
    "postal": "N1T3C6",
    "result": []
  },
  {
    "postal": "N1T4M1",
    "result": []
  },
  {
    "postal": "N1T9K2",
    "result": []
  },
  {
    "postal": "N1T9S6",
    "result": []
  },
  {
    "postal": "N1T4X1",
    "result": []
  },
  {
    "postal": "N1T8W2",
    "result": []
  },
  {
    "postal": "N1T7N2",
    "result": []
  },
  {
    "postal": "N1T8S3",
    "result": []
  },
  {
    "postal": "N1T4V0",
    "result": []
  },
  {
    "postal": "N1T6W4",
    "result": []
  },
  {
    "postal": "N1T5M1",
    "result": []
  },
  {
    "postal": "N1T0S4",
    "result": []
  },
  {
    "postal": "N1T5X6",
    "result": []
  },
  {
    "postal": "N1T8L5",
    "result": []
  },
  {
    "postal": "N1T5M8",
    "result": []
  },
  {
    "postal": "N1T2G3",
    "result": [
      {
        "electoralDistricts": [
          {
            "election": null,
            "id": 16,
            "name": "Cambridge"
          }
        ],
        "pollDivisionIds": [
          10137427
        ],
        "postalCode": "N1T2G3",
        "streetName": "ARHTUR FACH",
        "streetDirectionId": null,
        "streetTypeId": "DR",
        "placeName": "CAMBRIDGE, ON",
        "streetNameDisplayText": "ARHTUR FACH DR, CAMBRIDGE, ON"
      },
      {
        "electoralDistricts": [
          {
            "election": null,
            "id": 16,
            "name": "Cambridge"
          }
        ],
        "pollDivisionIds": [
          10137427
        ],
        "postalCode": "N1T2G3",
        "streetName": "ARTHUR FACH",
        "streetDirectionId": null,
        "streetTypeId": "DR",
        "placeName": "CAMBRIDGE",
        "streetNameDisplayText": "ARTHUR FACH DR, CAMBRIDGE"
      },
      {
        "electoralDistricts": [
          {
            "election": null,
            "id": 16,
            "name": "Cambridge"
          }
        ],
        "pollDivisionIds": [
          10137427
        ],
        "postalCode": "N1T2G3",
        "streetName": "BRAYSHAW",
        "streetDirectionId": null,
        "streetTypeId": "DR",
        "placeName": "CAMBRIDGE",
        "streetNameDisplayText": "BRAYSHAW DR, CAMBRIDGE"
      }
    ]
  },
  {
    "postal": "N1T8E4",
    "result": []
  },
  {
    "postal": "N1T7S9",
    "result": []
  },
  {
    "postal": "N1T1K3",
    "result": [
      {
        "electoralDistricts": [
          {
            "election": null,
            "id": 16,
            "name": "Cambridge"
          }
        ],
        "pollDivisionIds": [
          10137425
        ],
        "postalCode": "N1T1K3",
        "streetName": "BAYNE",
        "streetDirectionId": null,
        "streetTypeId": "CRES",
        "placeName": "CAMBRIDGE",
        "streetNameDisplayText": "BAYNE CRES, CAMBRIDGE"
      },
      {
        "electoralDistricts": [
          {
            "election": null,
            "id": 16,
            "name": "Cambridge"
          }
        ],
        "pollDivisionIds": [
          10137425
        ],
        "postalCode": "N1T1K3",
        "streetName": "BURNETT",
        "streetDirectionId": null,
        "streetTypeId": "AVE",
        "placeName": "CAMBRIDGE",
        "streetNameDisplayText": "BURNETT AVE, CAMBRIDGE"
      }
    ]
  },
  {
    "postal": "N1T4E1",
    "result": []
  },
  {
    "postal": "N1T4R2",
    "result": []
  },
  {
    "postal": "N1T6T0",
    "result": []
  },
  {
    "postal": "N1T3K5",
    "result": []
  },
  {
    "postal": "N1T3S3",
    "result": []
  },
  {
    "postal": "N1T3L4",
    "result": []
  },
  {
    "postal": "N1T9Y2",
    "result": []
  },
  {
    "postal": "N1T1E0",
    "result": []
  },
  {
    "postal": "N1T9A4",
    "result": []
  },
  {
    "postal": "N1T1L3",
    "result": [
      {
        "electoralDistricts": [
          {
            "election": null,
            "id": 16,
            "name": "Cambridge"
          }
        ],
        "pollDivisionIds": [
          10137436
        ],
        "postalCode": "N1T1L3",
        "streetName": "ATTWOOD",
        "streetDirectionId": null,
        "streetTypeId": "DR",
        "placeName": "CAMBRIDGE",
        "streetNameDisplayText": "ATTWOOD DR, CAMBRIDGE"
      },
      {
        "electoralDistricts": [
          {
            "election": null,
            "id": 16,
            "name": "Cambridge"
          }
        ],
        "pollDivisionIds": [
          10137436,
          10137427
        ],
        "postalCode": "N1T1L3",
        "streetName": "BURNETT",
        "streetDirectionId": null,
        "streetTypeId": "AVE",
        "placeName": "CAMBRIDGE",
        "streetNameDisplayText": "BURNETT AVE, CAMBRIDGE"
      },
      {
        "electoralDistricts": [
          {
            "election": null,
            "id": 16,
            "name": "Cambridge"
          }
        ],
        "pollDivisionIds": [
          10137436,
          10137427
        ],
        "postalCode": "N1T1L3",
        "streetName": "DRUMLIN",
        "streetDirectionId": null,
        "streetTypeId": "DR",
        "placeName": "CAMBRIDGE",
        "streetNameDisplayText": "DRUMLIN DR, CAMBRIDGE"
      }
    ]
  },
  {
    "postal": "N1T6N1",
    "result": []
  },
  {
    "postal": "N1T6G7",
    "result": []
  },
  {
    "postal": "N1T7W1",
    "result": []
  },
  {
    "postal": "N1T4M6",
    "result": []
  },
  {
    "postal": "N1T1K0",
    "result": []
  },
  {
    "postal": "N1T3E2",
    "result": []
  },
  {
    "postal": "N1T5H4",
    "result": []
  },
  {
    "postal": "N1T1K7",
    "result": [
      {
        "electoralDistricts": [
          {
            "election": null,
            "id": 16,
            "name": "Cambridge"
          }
        ],
        "pollDivisionIds": [
          10137426,
          10137425
        ],
        "postalCode": "N1T1K7",
        "streetName": "COWAN",
        "streetDirectionId": null,
        "streetTypeId": "BLVD",
        "placeName": "CAMBRIDGE",
        "streetNameDisplayText": "COWAN BLVD, CAMBRIDGE"
      },
      {
        "electoralDistricts": [
          {
            "election": null,
            "id": 16,
            "name": "Cambridge"
          }
        ],
        "pollDivisionIds": [
          10137425
        ],
        "postalCode": "N1T1K7",
        "streetName": "WALLACE",
        "streetDirectionId": null,
        "streetTypeId": "DR",
        "placeName": "CAMBRIDGE",
        "streetNameDisplayText": "WALLACE DR, CAMBRIDGE"
      }
    ]
  },
  {
    "postal": "N1T0H0",
    "result": []
  },
  {
    "postal": "N1T0J3",
    "result": []
  },
  {
    "postal": "N1T1X6",
    "result": [
      {
        "electoralDistricts": [
          {
            "election": null,
            "id": 16,
            "name": "Cambridge"
          }
        ],
        "pollDivisionIds": [
          10137424
        ],
        "postalCode": "N1T1X6",
        "streetName": "CRAWFORD",
        "streetDirectionId": null,
        "streetTypeId": "CRES",
        "placeName": "CAMBRIDGE",
        "streetNameDisplayText": "CRAWFORD CRES, CAMBRIDGE"
      }
    ]
  },
  {
    "postal": "N1T2Z6",
    "result": []
  },
  {
    "postal": "N1T4R9",
    "result": []
  },
  {
    "postal": "N1T0W8",
    "result": []
  },
  {
    "postal": "N1T1L4",
    "result": [
      {
        "electoralDistricts": [
          {
            "election": null,
            "id": 16,
            "name": "Cambridge"
          }
        ],
        "pollDivisionIds": [
          10137436,
          10137427
        ],
        "postalCode": "N1T1L4",
        "streetName": "ATTWOOD",
        "streetDirectionId": null,
        "streetTypeId": "DR",
        "placeName": "CAMBRIDGE",
        "streetNameDisplayText": "ATTWOOD DR, CAMBRIDGE"
      },
      {
        "electoralDistricts": [
          {
            "election": null,
            "id": 16,
            "name": "Cambridge"
          }
        ],
        "pollDivisionIds": [
          10137427,
          10137436
        ],
        "postalCode": "N1T1L4",
        "streetName": "DRUMLIN",
        "streetDirectionId": null,
        "streetTypeId": "DR",
        "placeName": "CAMBRIDGE",
        "streetNameDisplayText": "DRUMLIN DR, CAMBRIDGE"
      }
    ]
  },
  {
    "postal": "N1T0C8",
    "result": [
      {
        "electoralDistricts": [
          {
            "election": null,
            "id": 16,
            "name": "Cambridge"
          }
        ],
        "pollDivisionIds": [
          10137463
        ],
        "postalCode": "N1T0C8",
        "streetName": "CHESTER",
        "streetDirectionId": null,
        "streetTypeId": "DR",
        "placeName": "CAMBRIDGE",
        "streetNameDisplayText": "CHESTER DR, CAMBRIDGE"
      }
    ]
  },
  {
    "postal": "N1T9X7",
    "result": []
  },
  {
    "postal": "N1T4T1",
    "result": []
  },
  {
    "postal": "N1T0M0",
    "result": []
  },
  {
    "postal": "N1T6A2",
    "result": []
  },
  {
    "postal": "N1T9S8",
    "result": []
  },
  {
    "postal": "N1T9T4",
    "result": []
  },
  {
    "postal": "N1T9Y4",
    "result": []
  },
  {
    "postal": "N1T6G5",
    "result": []
  },
  {
    "postal": "N1T6H9",
    "result": []
  },
  {
    "postal": "N1T2P3",
    "result": []
  },
  {
    "postal": "N1T1T6",
    "result": [
      {
        "electoralDistricts": [
          {
            "election": null,
            "id": 16,
            "name": "Cambridge"
          }
        ],
        "pollDivisionIds": [
          10137426
        ],
        "postalCode": "N1T1T6",
        "streetName": "FAIRGREEN",
        "streetDirectionId": null,
        "streetTypeId": "CLOSE",
        "placeName": "CAMBRIDGE",
        "streetNameDisplayText": "FAIRGREEN CLOSE, CAMBRIDGE"
      },
      {
        "electoralDistricts": [
          {
            "election": null,
            "id": 16,
            "name": "Cambridge"
          }
        ],
        "pollDivisionIds": [
          10137426
        ],
        "postalCode": "N1T1T6",
        "streetName": "SAGINAW",
        "streetDirectionId": null,
        "streetTypeId": "PKY",
        "placeName": "CAMBRIDGE",
        "streetNameDisplayText": "SAGINAW PKY, CAMBRIDGE"
      }
    ]
  },
  {
    "postal": "N1T4P6",
    "result": []
  },
  {
    "postal": "N1T3K1",
    "result": []
  },
  {
    "postal": "N1T6X4",
    "result": []
  },
  {
    "postal": "N1T4M8",
    "result": []
  },
  {
    "postal": "N1T2Y1",
    "result": []
  },
  {
    "postal": "N1T6M1",
    "result": []
  },
  {
    "postal": "N1T5L8",
    "result": []
  },
  {
    "postal": "N1T3P6",
    "result": []
  },
  {
    "postal": "N1T9A5",
    "result": []
  },
  {
    "postal": "N1T7K1",
    "result": []
  },
  {
    "postal": "N1T3J4",
    "result": []
  },
  {
    "postal": "N1T5E7",
    "result": []
  },
  {
    "postal": "N1T3A7",
    "result": []
  },
  {
    "postal": "N1T1B9",
    "result": [
      {
        "electoralDistricts": [
          {
            "election": null,
            "id": 16,
            "name": "Cambridge"
          }
        ],
        "pollDivisionIds": [
          10137419
        ],
        "postalCode": "N1T1B9",
        "streetName": "PINEBUSH",
        "streetDirectionId": null,
        "streetTypeId": "RD",
        "placeName": "CAMBRIDGE",
        "streetNameDisplayText": "PINEBUSH RD, CAMBRIDGE"
      }
    ]
  },
  {
    "postal": "N1T9E8",
    "result": []
  },
  {
    "postal": "N1T1C9",
    "result": [
      {
        "electoralDistricts": [
          {
            "election": null,
            "id": 16,
            "name": "Cambridge"
          }
        ],
        "pollDivisionIds": [
          10137436
        ],
        "postalCode": "N1T1C9",
        "streetName": "BAYNE",
        "streetDirectionId": null,
        "streetTypeId": "CRES",
        "placeName": "CAMBRIDGE",
        "streetNameDisplayText": "BAYNE CRES, CAMBRIDGE"
      }
    ]
  },
  {
    "postal": "N1T3B5",
    "result": []
  },
  {
    "postal": "N1T8R0",
    "result": []
  },
  {
    "postal": "N1T3P2",
    "result": []
  },
  {
    "postal": "N1T5V4",
    "result": []
  },
  {
    "postal": "N1T4H0",
    "result": []
  },
  {
    "postal": "N1T4S7",
    "result": []
  },
  {
    "postal": "N1T6C2",
    "result": []
  },
  {
    "postal": "N1T8W3",
    "result": []
  },
  {
    "postal": "N1T4M5",
    "result": []
  },
  {
    "postal": "N1T5T1",
    "result": []
  },
  {
    "postal": "N1T3B3",
    "result": []
  },
  {
    "postal": "N1T6C6",
    "result": []
  },
  {
    "postal": "N1T7N8",
    "result": []
  },
  {
    "postal": "N1T2Y3",
    "result": []
  },
  {
    "postal": "N1T2R6",
    "result": []
  },
  {
    "postal": "N1T7N3",
    "result": []
  },
  {
    "postal": "N1T8J2",
    "result": []
  },
  {
    "postal": "N1T6A9",
    "result": []
  },
  {
    "postal": "N1T3V2",
    "result": []
  },
  {
    "postal": "N1T2N3",
    "result": []
  },
  {
    "postal": "N1T1S5",
    "result": [
      {
        "electoralDistricts": [
          {
            "election": null,
            "id": 16,
            "name": "Cambridge"
          }
        ],
        "pollDivisionIds": [
          10137445
        ],
        "postalCode": "N1T1S5",
        "streetName": "SAVAGE",
        "streetDirectionId": null,
        "streetTypeId": "DR",
        "placeName": "CAMBRIDGE",
        "streetNameDisplayText": "SAVAGE DR, CAMBRIDGE"
      }
    ]
  },
  {
    "postal": "N1T4T7",
    "result": []
  },
  {
    "postal": "N1T6Y7",
    "result": []
  },
  {
    "postal": "N1T0W7",
    "result": []
  },
  {
    "postal": "N1T2W9",
    "result": []
  },
  {
    "postal": "N1T8V0",
    "result": []
  },
  {
    "postal": "N1T0H4",
    "result": []
  },
  {
    "postal": "N1T2T1",
    "result": []
  },
  {
    "postal": "N1T1B1",
    "result": [
      {
        "electoralDistricts": [
          {
            "election": null,
            "id": 16,
            "name": "Cambridge"
          }
        ],
        "pollDivisionIds": [
          10137419
        ],
        "postalCode": "N1T1B1",
        "streetName": "SHELDON",
        "streetDirectionId": null,
        "streetTypeId": "DR",
        "placeName": "CAMBRIDGE",
        "streetNameDisplayText": "SHELDON DR, CAMBRIDGE"
      }
    ]
  },
  {
    "postal": "N1T8B6",
    "result": []
  },
  {
    "postal": "N1T6H1",
    "result": []
  },
  {
    "postal": "N1T8T8",
    "result": []
  },
  {
    "postal": "N1T0T4",
    "result": []
  },
  {
    "postal": "N1T2C4",
    "result": [
      {
        "electoralDistricts": [
          {
            "election": null,
            "id": 16,
            "name": "Cambridge"
          }
        ],
        "pollDivisionIds": [
          10137462
        ],
        "postalCode": "N1T2C4",
        "streetName": "CHESTER",
        "streetDirectionId": null,
        "streetTypeId": "DR",
        "placeName": "CAMBRIDGE",
        "streetNameDisplayText": "CHESTER DR, CAMBRIDGE"
      },
      {
        "electoralDistricts": [
          {
            "election": null,
            "id": 16,
            "name": "Cambridge"
          }
        ],
        "pollDivisionIds": [
          10137462
        ],
        "postalCode": "N1T2C4",
        "streetName": "GREEN GATE",
        "streetDirectionId": null,
        "streetTypeId": "BLVD",
        "placeName": "CAMBRIDGE",
        "streetNameDisplayText": "GREEN GATE BLVD, CAMBRIDGE"
      }
    ]
  },
  {
    "postal": "N1T8N3",
    "result": []
  },
  {
    "postal": "N1T4L8",
    "result": []
  },
  {
    "postal": "N1T2B5",
    "result": [
      {
        "electoralDistricts": [
          {
            "election": null,
            "id": 16,
            "name": "Cambridge"
          }
        ],
        "pollDivisionIds": [
          10137427
        ],
        "postalCode": "N1T2B5",
        "streetName": "GREEN BANK",
        "streetDirectionId": null,
        "streetTypeId": "DR",
        "placeName": "CAMBRIDGE",
        "streetNameDisplayText": "GREEN BANK DR, CAMBRIDGE"
      },
      {
        "electoralDistricts": [
          {
            "election": null,
            "id": 16,
            "name": "Cambridge"
          }
        ],
        "pollDivisionIds": [
          10137427
        ],
        "postalCode": "N1T2B5",
        "streetName": "JENNER",
        "streetDirectionId": null,
        "streetTypeId": "CRT",
        "placeName": "CAMBRIDGE",
        "streetNameDisplayText": "JENNER CRT, CAMBRIDGE"
      }
    ]
  },
  {
    "postal": "N1T3H1",
    "result": []
  },
  {
    "postal": "N1T4Y1",
    "result": []
  },
  {
    "postal": "N1T7E2",
    "result": []
  },
  {
    "postal": "N1T2P5",
    "result": []
  },
  {
    "postal": "N1T8R7",
    "result": []
  },
  {
    "postal": "N1T9P1",
    "result": []
  },
  {
    "postal": "N1T3B8",
    "result": []
  },
  {
    "postal": "N1T3P7",
    "result": []
  },
  {
    "postal": "N1T9B2",
    "result": []
  },
  {
    "postal": "N1T6Z3",
    "result": []
  },
  {
    "postal": "N1T4N5",
    "result": []
  },
  {
    "postal": "N1T8T3",
    "result": []
  },
  {
    "postal": "N1T1V2",
    "result": [
      {
        "electoralDistricts": [
          {
            "election": null,
            "id": 16,
            "name": "Cambridge"
          }
        ],
        "pollDivisionIds": [
          10137427
        ],
        "postalCode": "N1T1V2",
        "streetName": "FORESTVIEW",
        "streetDirectionId": null,
        "streetTypeId": "DR",
        "placeName": "CAMBRIDGE",
        "streetNameDisplayText": "FORESTVIEW DR, CAMBRIDGE"
      },
      {
        "electoralDistricts": [
          {
            "election": null,
            "id": 16,
            "name": "Cambridge"
          }
        ],
        "pollDivisionIds": [
          10137427
        ],
        "postalCode": "N1T1V2",
        "streetName": "SHADELAND",
        "streetDirectionId": null,
        "streetTypeId": "CRT",
        "placeName": "CAMBRIDGE",
        "streetNameDisplayText": "SHADELAND CRT, CAMBRIDGE"
      }
    ]
  },
  {
    "postal": "N1T1Y0",
    "result": []
  },
  {
    "postal": "N1T3G6",
    "result": []
  },
  {
    "postal": "N1T3H7",
    "result": []
  },
  {
    "postal": "N1T7X8",
    "result": []
  },
  {
    "postal": "N1T0C7",
    "result": [
      {
        "electoralDistricts": [
          {
            "election": null,
            "id": 16,
            "name": "Cambridge"
          }
        ],
        "pollDivisionIds": [
          10137427
        ],
        "postalCode": "N1T0C7",
        "streetName": "SAGINAW",
        "streetDirectionId": null,
        "streetTypeId": "PKY",
        "placeName": "CAMBRIDGE",
        "streetNameDisplayText": "SAGINAW PKY, CAMBRIDGE"
      }
    ]
  },
  {
    "postal": "N1T0W9",
    "result": []
  },
  {
    "postal": "N1T8E6",
    "result": []
  },
  {
    "postal": "N1T9Z8",
    "result": []
  },
  {
    "postal": "N1T3P4",
    "result": []
  },
  {
    "postal": "N1T6L8",
    "result": []
  },
  {
    "postal": "N1T2R4",
    "result": []
  },
  {
    "postal": "N1T2W1",
    "result": []
  },
  {
    "postal": "N1T9H8",
    "result": []
  },
  {
    "postal": "N1T8X9",
    "result": []
  },
  {
    "postal": "N1T7H4",
    "result": []
  },
  {
    "postal": "N1T3J1",
    "result": []
  },
  {
    "postal": "N1T1P4",
    "result": [
      {
        "electoralDistricts": [
          {
            "election": null,
            "id": 16,
            "name": "Cambridge"
          }
        ],
        "pollDivisionIds": [
          10137419
        ],
        "postalCode": "N1T1P4",
        "streetName": "SHEARSON",
        "streetDirectionId": null,
        "streetTypeId": "CRES",
        "placeName": "CAMBRIDGE",
        "streetNameDisplayText": "SHEARSON CRES, CAMBRIDGE"
      }
    ]
  },
  {
    "postal": "N1T2A3",
    "result": [
      {
        "electoralDistricts": [
          {
            "election": null,
            "id": 16,
            "name": "Cambridge"
          }
        ],
        "pollDivisionIds": [
          10137427
        ],
        "postalCode": "N1T2A3",
        "streetName": "HAWKINS",
        "streetDirectionId": null,
        "streetTypeId": "DR",
        "placeName": "CAMBRIDGE",
        "streetNameDisplayText": "HAWKINS DR, CAMBRIDGE"
      }
    ]
  },
  {
    "postal": "N1T0Z1",
    "result": []
  },
  {
    "postal": "N1T1C1",
    "result": []
  },
  {
    "postal": "N1T0H3",
    "result": []
  },
  {
    "postal": "N1T7B0",
    "result": []
  },
  {
    "postal": "N1T5K2",
    "result": []
  },
  {
    "postal": "N1T1E9",
    "result": [
      {
        "electoralDistricts": [
          {
            "election": null,
            "id": 16,
            "name": "Cambridge"
          }
        ],
        "pollDivisionIds": [
          10137426,
          10137436
        ],
        "postalCode": "N1T1E9",
        "streetName": "BURNETT",
        "streetDirectionId": null,
        "streetTypeId": "AVE",
        "placeName": "CAMBRIDGE",
        "streetNameDisplayText": "BURNETT AVE, CAMBRIDGE"
      }
    ]
  },
  {
    "postal": "N1T9W7",
    "result": []
  },
  {
    "postal": "N1T5W6",
    "result": []
  },
  {
    "postal": "N1T6S6",
    "result": []
  },
  {
    "postal": "N1T2P8",
    "result": []
  },
  {
    "postal": "N1T4P8",
    "result": []
  },
  {
    "postal": "N1T0V9",
    "result": []
  },
  {
    "postal": "N1T5Y2",
    "result": []
  },
  {
    "postal": "N1T7Z7",
    "result": []
  },
  {
    "postal": "N1T6Y8",
    "result": []
  },
  {
    "postal": "N1T2G7",
    "result": [
      {
        "electoralDistricts": [
          {
            "election": null,
            "id": 16,
            "name": "Cambridge"
          }
        ],
        "pollDivisionIds": [
          10137427
        ],
        "postalCode": "N1T2G7",
        "streetName": "GARTH MASSEY",
        "streetDirectionId": null,
        "streetTypeId": "DR",
        "placeName": "CAMBRIDGE",
        "streetNameDisplayText": "GARTH MASSEY DR, CAMBRIDGE"
      },
      {
        "electoralDistricts": [
          {
            "election": null,
            "id": 16,
            "name": "Cambridge"
          }
        ],
        "pollDivisionIds": [
          10137427
        ],
        "postalCode": "N1T2G7",
        "streetName": "SENIOR",
        "streetDirectionId": null,
        "streetTypeId": "CRES",
        "placeName": "CAMBRIDGE",
        "streetNameDisplayText": "SENIOR CRES, CAMBRIDGE"
      }
    ]
  },
  {
    "postal": "N1T8C1",
    "result": []
  },
  {
    "postal": "N1T5C5",
    "result": []
  },
  {
    "postal": "N1T2X8",
    "result": []
  },
  {
    "postal": "N1T1W5",
    "result": [
      {
        "electoralDistricts": [
          {
            "election": null,
            "id": 16,
            "name": "Cambridge"
          }
        ],
        "pollDivisionIds": [
          10137424,
          10137426
        ],
        "postalCode": "N1T1W5",
        "streetName": "ESSEX POINT",
        "streetDirectionId": null,
        "streetTypeId": "DR",
        "placeName": "CAMBRIDGE",
        "streetNameDisplayText": "ESSEX POINT DR, CAMBRIDGE"
      },
      {
        "electoralDistricts": [
          {
            "election": null,
            "id": 16,
            "name": "Cambridge"
          }
        ],
        "pollDivisionIds": [
          10137424,
          10137426
        ],
        "postalCode": "N1T1W5",
        "streetName": "STONECAIRN",
        "streetDirectionId": null,
        "streetTypeId": "DR",
        "placeName": "CAMBRIDGE",
        "streetNameDisplayText": "STONECAIRN DR, CAMBRIDGE"
      }
    ]
  },
  {
    "postal": "N1T7G0",
    "result": []
  },
  {
    "postal": "N1T8J8",
    "result": []
  },
  {
    "postal": "N1T3Y0",
    "result": []
  },
  {
    "postal": "N1T9T7",
    "result": []
  },
  {
    "postal": "N1T5P4",
    "result": []
  },
  {
    "postal": "N1T4B0",
    "result": []
  },
  {
    "postal": "N1T9N8",
    "result": []
  },
  {
    "postal": "N1T4A7",
    "result": []
  },
  {
    "postal": "N1T4H9",
    "result": []
  },
  {
    "postal": "N1T6X1",
    "result": []
  },
  {
    "postal": "N1T9Y7",
    "result": []
  },
  {
    "postal": "N1T2Y5",
    "result": []
  },
  {
    "postal": "N1T8L7",
    "result": []
  },
  {
    "postal": "N1T2A8",
    "result": [
      {
        "electoralDistricts": [
          {
            "election": null,
            "id": 16,
            "name": "Cambridge"
          }
        ],
        "pollDivisionIds": [
          10137419
        ],
        "postalCode": "N1T2A8",
        "streetName": "LINGARD",
        "streetDirectionId": null,
        "streetTypeId": "RD",
        "placeName": "CAMBRIDGE",
        "streetNameDisplayText": "LINGARD RD, CAMBRIDGE"
      }
    ]
  },
  {
    "postal": "N1T2K9",
    "result": []
  },
  {
    "postal": "N1T3E5",
    "result": []
  },
  {
    "postal": "N1T8N6",
    "result": []
  },
  {
    "postal": "N1T8J4",
    "result": []
  },
  {
    "postal": "N1T4R7",
    "result": []
  },
  {
    "postal": "N1T9K1",
    "result": []
  },
  {
    "postal": "N1T8E1",
    "result": []
  },
  {
    "postal": "N1T0R1",
    "result": []
  },
  {
    "postal": "N1T4J3",
    "result": []
  },
  {
    "postal": "N1T7E7",
    "result": []
  },
  {
    "postal": "N1T0J0",
    "result": []
  },
  {
    "postal": "N1T7R8",
    "result": []
  },
  {
    "postal": "N1T9X0",
    "result": []
  },
  {
    "postal": "N1T7P6",
    "result": []
  },
  {
    "postal": "N1T0R7",
    "result": []
  },
  {
    "postal": "N1T5W1",
    "result": []
  },
  {
    "postal": "N1T0K4",
    "result": []
  },
  {
    "postal": "N1T7N9",
    "result": []
  },
  {
    "postal": "N1T1N0",
    "result": []
  },
  {
    "postal": "N1T6P3",
    "result": []
  },
  {
    "postal": "N1T5A1",
    "result": []
  },
  {
    "postal": "N1T9M9",
    "result": []
  },
  {
    "postal": "N1T7T6",
    "result": []
  },
  {
    "postal": "N1T3X0",
    "result": []
  },
  {
    "postal": "N1T2T0",
    "result": []
  },
  {
    "postal": "N1T5X9",
    "result": []
  },
  {
    "postal": "N1T2R3",
    "result": []
  },
  {
    "postal": "N1T5N2",
    "result": []
  },
  {
    "postal": "N1T4Y7",
    "result": []
  },
  {
    "postal": "N1T7M0",
    "result": []
  },
  {
    "postal": "N1T8P3",
    "result": []
  },
  {
    "postal": "N1T3N3",
    "result": []
  },
  {
    "postal": "N1T7S3",
    "result": []
  },
  {
    "postal": "N1T3V9",
    "result": []
  },
  {
    "postal": "N1T9N7",
    "result": []
  },
  {
    "postal": "N1T0G4",
    "result": []
  },
  {
    "postal": "N1T2E2",
    "result": [
      {
        "electoralDistricts": [
          {
            "election": null,
            "id": 16,
            "name": "Cambridge"
          }
        ],
        "pollDivisionIds": [
          10137462
        ],
        "postalCode": "N1T2E2",
        "streetName": "GREEN GATE",
        "streetDirectionId": null,
        "streetTypeId": "BLVD",
        "placeName": "CAMBRIDGE",
        "streetNameDisplayText": "GREEN GATE BLVD, CAMBRIDGE"
      },
      {
        "electoralDistricts": [
          {
            "election": null,
            "id": 16,
            "name": "Cambridge"
          }
        ],
        "pollDivisionIds": [
          10137445
        ],
        "postalCode": "N1T2E2",
        "streetName": "SPARROW",
        "streetDirectionId": null,
        "streetTypeId": "AVE",
        "placeName": "CAMBRIDGE",
        "streetNameDisplayText": "SPARROW AVE, CAMBRIDGE"
      }
    ]
  },
  {
    "postal": "N1T7W8",
    "result": []
  },
  {
    "postal": "N1T7M5",
    "result": []
  },
  {
    "postal": "N1T5W8",
    "result": []
  },
  {
    "postal": "N1T5E5",
    "result": []
  },
  {
    "postal": "N1T1P9",
    "result": [
      {
        "electoralDistricts": [
          {
            "election": null,
            "id": 16,
            "name": "Cambridge"
          }
        ],
        "pollDivisionIds": [
          10137427
        ],
        "postalCode": "N1T1P9",
        "streetName": "GLENVALLEY",
        "streetDirectionId": null,
        "streetTypeId": "DR",
        "placeName": "CAMBRIDGE",
        "streetNameDisplayText": "GLENVALLEY DR, CAMBRIDGE"
      },
      {
        "electoralDistricts": [
          {
            "election": null,
            "id": 16,
            "name": "Cambridge"
          }
        ],
        "pollDivisionIds": [
          10137427
        ],
        "postalCode": "N1T1P9",
        "streetName": "KINGFISHER",
        "streetDirectionId": null,
        "streetTypeId": "CRES",
        "placeName": "CAMBRIDGE",
        "streetNameDisplayText": "KINGFISHER CRES, CAMBRIDGE"
      }
    ]
  },
  {
    "postal": "N1T8V8",
    "result": []
  },
  {
    "postal": "N1T9G8",
    "result": []
  },
  {
    "postal": "N1T8H9",
    "result": []
  },
  {
    "postal": "N1T1Z1",
    "result": [
      {
        "electoralDistricts": [
          {
            "election": null,
            "id": 16,
            "name": "Cambridge"
          }
        ],
        "pollDivisionIds": [
          10137426
        ],
        "postalCode": "N1T1Z1",
        "streetName": "ESSEX POINT",
        "streetDirectionId": null,
        "streetTypeId": "DR",
        "placeName": "CAMBRIDGE",
        "streetNameDisplayText": "ESSEX POINT DR, CAMBRIDGE"
      },
      {
        "electoralDistricts": [
          {
            "election": null,
            "id": 16,
            "name": "Cambridge"
          }
        ],
        "pollDivisionIds": [
          10137424,
          10137426
        ],
        "postalCode": "N1T1Z1",
        "streetName": "GREEN VISTA",
        "streetDirectionId": null,
        "streetTypeId": "DR",
        "placeName": "CAMBRIDGE",
        "streetNameDisplayText": "GREEN VISTA DR, CAMBRIDGE"
      }
    ]
  },
  {
    "postal": "N1T8M3",
    "result": []
  },
  {
    "postal": "N1T5H6",
    "result": []
  },
  {
    "postal": "N1T7W7",
    "result": []
  },
  {
    "postal": "N1T4L0",
    "result": []
  },
  {
    "postal": "N1T2N1",
    "result": []
  },
  {
    "postal": "N1T2H4",
    "result": [
      {
        "electoralDistricts": [
          {
            "election": null,
            "id": 16,
            "name": "Cambridge"
          }
        ],
        "pollDivisionIds": [
          10137419
        ],
        "postalCode": "N1T2H4",
        "streetName": "LINGARD",
        "streetDirectionId": null,
        "streetTypeId": "RD",
        "placeName": "CAMBRIDGE",
        "streetNameDisplayText": "LINGARD RD, CAMBRIDGE"
      }
    ]
  },
  {
    "postal": "N1T5C8",
    "result": []
  },
  {
    "postal": "N1T8B0",
    "result": []
  },
  {
    "postal": "N1T1T4",
    "result": [
      {
        "electoralDistricts": [
          {
            "election": null,
            "id": 16,
            "name": "Cambridge"
          }
        ],
        "pollDivisionIds": [
          10137425
        ],
        "postalCode": "N1T1T4",
        "streetName": "MULLIN",
        "streetDirectionId": null,
        "streetTypeId": "CRES",
        "placeName": "CAMBRIDGE",
        "streetNameDisplayText": "MULLIN CRES, CAMBRIDGE"
      }
    ]
  },
  {
    "postal": "N1T7N7",
    "result": []
  },
  {
    "postal": "N1T4L3",
    "result": []
  },
  {
    "postal": "N1T2N2",
    "result": []
  },
  {
    "postal": "N1T4N8",
    "result": []
  },
  {
    "postal": "N1T3M5",
    "result": []
  },
  {
    "postal": "N1T6H7",
    "result": []
  },
  {
    "postal": "N1T8Y8",
    "result": []
  },
  {
    "postal": "N1T5R9",
    "result": []
  },
  {
    "postal": "N1T8G3",
    "result": []
  },
  {
    "postal": "N1T4N7",
    "result": []
  },
  {
    "postal": "N1T0B9",
    "result": [
      {
        "electoralDistricts": [
          {
            "election": null,
            "id": 16,
            "name": "Cambridge"
          }
        ],
        "pollDivisionIds": [
          10137474
        ],
        "postalCode": "N1T0B9",
        "streetName": "LIGHT",
        "streetDirectionId": null,
        "streetTypeId": "DR",
        "placeName": "CAMBRIDGE",
        "streetNameDisplayText": "LIGHT DR, CAMBRIDGE"
      }
    ]
  },
  {
    "postal": "N1T9K7",
    "result": []
  },
  {
    "postal": "N1T9K9",
    "result": []
  },
  {
    "postal": "N1T3Z2",
    "result": []
  },
  {
    "postal": "N1T6W7",
    "result": []
  },
  {
    "postal": "N1T0P1",
    "result": []
  },
  {
    "postal": "N1T3A0",
    "result": []
  },
  {
    "postal": "N1T8L9",
    "result": []
  },
  {
    "postal": "N1T6X0",
    "result": []
  },
  {
    "postal": "N1T3E9",
    "result": []
  },
  {
    "postal": "N1T0S5",
    "result": []
  },
  {
    "postal": "N1T1A2",
    "result": [
      {
        "electoralDistricts": [
          {
            "election": null,
            "id": 16,
            "name": "Cambridge"
          }
        ],
        "pollDivisionIds": [
          10137419
        ],
        "postalCode": "N1T1A2",
        "streetName": "SHELDON",
        "streetDirectionId": null,
        "streetTypeId": "DR",
        "placeName": "CAMBRIDGE",
        "streetNameDisplayText": "SHELDON DR, CAMBRIDGE"
      }
    ]
  },
  {
    "postal": "N1T5V8",
    "result": []
  },
  {
    "postal": "N1T8C5",
    "result": []
  },
  {
    "postal": "N1T6N0",
    "result": []
  },
  {
    "postal": "N1T9E6",
    "result": []
  },
  {
    "postal": "N1T5J7",
    "result": []
  },
  {
    "postal": "N1T2R2",
    "result": []
  },
  {
    "postal": "N1T0P5",
    "result": []
  },
  {
    "postal": "N1T5A7",
    "result": []
  },
  {
    "postal": "N1T1G1",
    "result": [
      {
        "electoralDistricts": [
          {
            "election": null,
            "id": 16,
            "name": "Cambridge"
          }
        ],
        "pollDivisionIds": [
          10137436
        ],
        "postalCode": "N1T1G1",
        "streetName": "BENN",
        "streetDirectionId": null,
        "streetTypeId": "DR",
        "placeName": "CAMBRIDGE",
        "streetNameDisplayText": "BENN DR, CAMBRIDGE"
      }
    ]
  },
  {
    "postal": "N1T9R6",
    "result": []
  },
  {
    "postal": "N1T4Z9",
    "result": []
  },
  {
    "postal": "N1T1V5",
    "result": [
      {
        "electoralDistricts": [
          {
            "election": null,
            "id": 16,
            "name": "Cambridge"
          }
        ],
        "pollDivisionIds": [
          10137425
        ],
        "postalCode": "N1T1V5",
        "streetName": "CORBETT",
        "streetDirectionId": null,
        "streetTypeId": "ST",
        "placeName": "CAMBRIDGE",
        "streetNameDisplayText": "CORBETT ST, CAMBRIDGE"
      }
    ]
  },
  {
    "postal": "N1T9Y5",
    "result": []
  },
  {
    "postal": "N1T1P2",
    "result": [
      {
        "electoralDistricts": [
          {
            "election": null,
            "id": 16,
            "name": "Cambridge"
          }
        ],
        "pollDivisionIds": [
          10137426
        ],
        "postalCode": "N1T1P2",
        "streetName": "FALCON",
        "streetDirectionId": null,
        "streetTypeId": "CRT",
        "placeName": "CAMBRIDGE",
        "streetNameDisplayText": "FALCON CRT, CAMBRIDGE"
      }
    ]
  },
  {
    "postal": "N1T5X0",
    "result": []
  },
  {
    "postal": "N1T7B8",
    "result": []
  },
  {
    "postal": "N1T0C6",
    "result": [
      {
        "electoralDistricts": [
          {
            "election": null,
            "id": 16,
            "name": "Cambridge"
          }
        ],
        "pollDivisionIds": [
          10137445
        ],
        "postalCode": "N1T0C6",
        "streetName": "GREEN GATE",
        "streetDirectionId": null,
        "streetTypeId": "BLVD",
        "placeName": "CAMBRIDGE",
        "streetNameDisplayText": "GREEN GATE BLVD, CAMBRIDGE"
      },
      {
        "electoralDistricts": [
          {
            "election": null,
            "id": 16,
            "name": "Cambridge"
          }
        ],
        "pollDivisionIds": [
          10137445
        ],
        "postalCode": "N1T0C6",
        "streetName": "HONEY",
        "streetDirectionId": null,
        "streetTypeId": "ST",
        "placeName": "CAMBRIDGE",
        "streetNameDisplayText": "HONEY ST, CAMBRIDGE"
      },
      {
        "electoralDistricts": [
          {
            "election": null,
            "id": 16,
            "name": "Cambridge"
          }
        ],
        "pollDivisionIds": [
          10137445
        ],
        "postalCode": "N1T0C6",
        "streetName": "NOTTINGHILL",
        "streetDirectionId": null,
        "streetTypeId": "DR",
        "placeName": "CAMBRIDGE",
        "streetNameDisplayText": "NOTTINGHILL DR, CAMBRIDGE"
      }
    ]
  },
  {
    "postal": "N1T6G1",
    "result": []
  },
  {
    "postal": "N1T3K3",
    "result": []
  },
  {
    "postal": "N1T9R0",
    "result": []
  },
  {
    "postal": "N1T4R8",
    "result": []
  },
  {
    "postal": "N1T5P9",
    "result": []
  },
  {
    "postal": "N1T8N4",
    "result": []
  },
  {
    "postal": "N1T8H4",
    "result": []
  },
  {
    "postal": "N1T4V1",
    "result": []
  },
  {
    "postal": "N1T1K5",
    "result": [
      {
        "electoralDistricts": [
          {
            "election": null,
            "id": 16,
            "name": "Cambridge"
          }
        ],
        "pollDivisionIds": [
          10137425
        ],
        "postalCode": "N1T1K5",
        "streetName": "BAYNE",
        "streetDirectionId": null,
        "streetTypeId": "CRES",
        "placeName": "CAMBRIDGE",
        "streetNameDisplayText": "BAYNE CRES, CAMBRIDGE"
      }
    ]
  },
  {
    "postal": "N1T1Z5",
    "result": [
      {
        "electoralDistricts": [
          {
            "election": null,
            "id": 16,
            "name": "Cambridge"
          }
        ],
        "pollDivisionIds": [
          10137419
        ],
        "postalCode": "N1T1Z5",
        "streetName": "RAGLIN",
        "streetDirectionId": null,
        "streetTypeId": "RD",
        "placeName": "CAMBRIDGE",
        "streetNameDisplayText": "RAGLIN RD, CAMBRIDGE"
      }
    ]
  },
  {
    "postal": "N1T9L9",
    "result": []
  },
  {
    "postal": "N1T5L2",
    "result": []
  },
  {
    "postal": "N1T0M2",
    "result": []
  },
  {
    "postal": "N1T1K8",
    "result": [
      {
        "electoralDistricts": [
          {
            "election": null,
            "id": 16,
            "name": "Cambridge"
          }
        ],
        "pollDivisionIds": [
          10137425
        ],
        "postalCode": "N1T1K8",
        "streetName": "WALLACE",
        "streetDirectionId": null,
        "streetTypeId": "DR",
        "placeName": "CAMBRIDGE",
        "streetNameDisplayText": "WALLACE DR, CAMBRIDGE"
      }
    ]
  },
  {
    "postal": "N1T3M7",
    "result": []
  },
  {
    "postal": "N1T1B2",
    "result": [
      {
        "electoralDistricts": [
          {
            "election": null,
            "id": 16,
            "name": "Cambridge"
          }
        ],
        "pollDivisionIds": [
          10137419
        ],
        "postalCode": "N1T1B2",
        "streetName": "PINEBUSH",
        "streetDirectionId": null,
        "streetTypeId": "RD",
        "placeName": "CAMBRIDGE",
        "streetNameDisplayText": "PINEBUSH RD, CAMBRIDGE"
      }
    ]
  },
  {
    "postal": "N1T0H9",
    "result": []
  },
  {
    "postal": "N1T8M4",
    "result": []
  },
  {
    "postal": "N1T2M5",
    "result": []
  },
  {
    "postal": "N1T0T9",
    "result": []
  },
  {
    "postal": "N1T3P1",
    "result": []
  },
  {
    "postal": "N1T1R6",
    "result": [
      {
        "electoralDistricts": [
          {
            "election": null,
            "id": 16,
            "name": "Cambridge"
          }
        ],
        "pollDivisionIds": [
          10137426
        ],
        "postalCode": "N1T1R6",
        "streetName": "SAGINAW",
        "streetDirectionId": null,
        "streetTypeId": "PKY",
        "placeName": "CAMBRIDGE",
        "streetNameDisplayText": "SAGINAW PKY, CAMBRIDGE"
      }
    ]
  },
  {
    "postal": "N1T9V5",
    "result": []
  },
  {
    "postal": "N1T9T0",
    "result": []
  },
  {
    "postal": "N1T0A9",
    "result": [
      {
        "electoralDistricts": [
          {
            "election": null,
            "id": 16,
            "name": "Cambridge"
          }
        ],
        "pollDivisionIds": [
          10137445
        ],
        "postalCode": "N1T0A9",
        "streetName": "BROADOAKS",
        "streetDirectionId": null,
        "streetTypeId": "DR",
        "placeName": "CAMBRIDGE",
        "streetNameDisplayText": "BROADOAKS DR, CAMBRIDGE"
      },
      {
        "electoralDistricts": [
          {
            "election": null,
            "id": 16,
            "name": "Cambridge"
          }
        ],
        "pollDivisionIds": [
          10137445
        ],
        "postalCode": "N1T0A9",
        "streetName": "HINRICHS",
        "streetDirectionId": null,
        "streetTypeId": "CRES",
        "placeName": "CAMBRIDGE",
        "streetNameDisplayText": "HINRICHS CRES, CAMBRIDGE"
      }
    ]
  },
  {
    "postal": "N1T1M3",
    "result": [
      {
        "electoralDistricts": [
          {
            "election": null,
            "id": 16,
            "name": "Cambridge"
          }
        ],
        "pollDivisionIds": [
          10137426
        ],
        "postalCode": "N1T1M3",
        "streetName": "CHAMBERLIN",
        "streetDirectionId": null,
        "streetTypeId": "DR",
        "placeName": "CAMBRIDGE",
        "streetNameDisplayText": "CHAMBERLIN DR, CAMBRIDGE"
      },
      {
        "electoralDistricts": [
          {
            "election": null,
            "id": 16,
            "name": "Cambridge"
          }
        ],
        "pollDivisionIds": [
          10137426
        ],
        "postalCode": "N1T1M3",
        "streetName": "NUTCRACKER",
        "streetDirectionId": null,
        "streetTypeId": "ST",
        "placeName": "CAMBRIDGE",
        "streetNameDisplayText": "NUTCRACKER ST, CAMBRIDGE"
      }
    ]
  },
  {
    "postal": "N1T1W8",
    "result": [
      {
        "electoralDistricts": [
          {
            "election": null,
            "id": 16,
            "name": "Cambridge"
          }
        ],
        "pollDivisionIds": [
          10137436
        ],
        "postalCode": "N1T1W8",
        "streetName": "CEDARBROOK",
        "streetDirectionId": null,
        "streetTypeId": "CRT",
        "placeName": "CAMBRIDGE",
        "streetNameDisplayText": "CEDARBROOK CRT, CAMBRIDGE"
      }
    ]
  },
  {
    "postal": "N1T9J1",
    "result": []
  },
  {
    "postal": "N1T8N5",
    "result": []
  },
  {
    "postal": "N1T5X1",
    "result": []
  },
  {
    "postal": "N1T6S2",
    "result": []
  },
  {
    "postal": "N1T2A2",
    "result": [
      {
        "electoralDistricts": [
          {
            "election": null,
            "id": 16,
            "name": "Cambridge"
          }
        ],
        "pollDivisionIds": [
          10137427,
          10137426
        ],
        "postalCode": "N1T2A2",
        "streetName": "BURNETT",
        "streetDirectionId": null,
        "streetTypeId": "AVE",
        "placeName": "CAMBRIDGE",
        "streetNameDisplayText": "BURNETT AVE, CAMBRIDGE"
      },
      {
        "electoralDistricts": [
          {
            "election": null,
            "id": 16,
            "name": "Cambridge"
          }
        ],
        "pollDivisionIds": [
          10137426
        ],
        "postalCode": "N1T2A2",
        "streetName": "ESSEX POINT",
        "streetDirectionId": null,
        "streetTypeId": "DR",
        "placeName": "CAMBRIDGE",
        "streetNameDisplayText": "ESSEX POINT DR, CAMBRIDGE"
      },
      {
        "electoralDistricts": [
          {
            "election": null,
            "id": 16,
            "name": "Cambridge"
          }
        ],
        "pollDivisionIds": [
          10137426
        ],
        "postalCode": "N1T2A2",
        "streetName": "WOOD GROVE",
        "streetDirectionId": null,
        "streetTypeId": "CRES",
        "placeName": "CAMBRIDGE",
        "streetNameDisplayText": "WOOD GROVE CRES, CAMBRIDGE"
      }
    ]
  },
  {
    "postal": "N1T6A6",
    "result": []
  },
  {
    "postal": "N1T0S3",
    "result": []
  },
  {
    "postal": "N1T3E7",
    "result": []
  },
  {
    "postal": "N1T5R7",
    "result": []
  },
  {
    "postal": "N1T3R6",
    "result": []
  },
  {
    "postal": "N1T6K4",
    "result": []
  },
  {
    "postal": "N1T2W5",
    "result": []
  },
  {
    "postal": "N1T8W4",
    "result": []
  },
  {
    "postal": "N1T9C2",
    "result": []
  },
  {
    "postal": "N1T2C0",
    "result": []
  },
  {
    "postal": "N1T0E1",
    "result": [
      {
        "electoralDistricts": [
          {
            "election": null,
            "id": 16,
            "name": "Cambridge"
          }
        ],
        "pollDivisionIds": [
          10137445
        ],
        "postalCode": "N1T0E1",
        "streetName": "WESLEY",
        "streetDirectionId": null,
        "streetTypeId": "BLVD",
        "placeName": "CAMBRIDGE",
        "streetNameDisplayText": "WESLEY BLVD, CAMBRIDGE"
      }
    ]
  },
  {
    "postal": "N1T1K9",
    "result": [
      {
        "electoralDistricts": [
          {
            "election": null,
            "id": 16,
            "name": "Cambridge"
          }
        ],
        "pollDivisionIds": [
          10137425,
          10137426
        ],
        "postalCode": "N1T1K9",
        "streetName": "COWAN",
        "streetDirectionId": null,
        "streetTypeId": "BLVD",
        "placeName": "CAMBRIDGE",
        "streetNameDisplayText": "COWAN BLVD, CAMBRIDGE"
      },
      {
        "electoralDistricts": [
          {
            "election": null,
            "id": 16,
            "name": "Cambridge"
          }
        ],
        "pollDivisionIds": [
          10137425
        ],
        "postalCode": "N1T1K9",
        "streetName": "ROBSON",
        "streetDirectionId": null,
        "streetTypeId": "AVE",
        "placeName": "CAMBRIDGE",
        "streetNameDisplayText": "ROBSON AVE, CAMBRIDGE"
      }
    ]
  },
  {
    "postal": "N1T1G7",
    "result": [
      {
        "electoralDistricts": [
          {
            "election": null,
            "id": 16,
            "name": "Cambridge"
          }
        ],
        "pollDivisionIds": [
          10137436
        ],
        "postalCode": "N1T1G7",
        "streetName": "BURNETT",
        "streetDirectionId": null,
        "streetTypeId": "AVE",
        "placeName": "CAMBRIDGE",
        "streetNameDisplayText": "BURNETT AVE, CAMBRIDGE"
      }
    ]
  },
  {
    "postal": "N1T4E9",
    "result": []
  },
  {
    "postal": "N1T9P0",
    "result": []
  },
  {
    "postal": "N1T5H3",
    "result": []
  },
  {
    "postal": "N1T9X6",
    "result": []
  },
  {
    "postal": "N1T5N7",
    "result": []
  },
  {
    "postal": "N1T5A6",
    "result": []
  },
  {
    "postal": "N1T4M0",
    "result": []
  },
  {
    "postal": "N1T3V6",
    "result": []
  },
  {
    "postal": "N1T1L7",
    "result": [
      {
        "electoralDistricts": [
          {
            "election": null,
            "id": 16,
            "name": "Cambridge"
          }
        ],
        "pollDivisionIds": [
          10137426,
          10137427
        ],
        "postalCode": "N1T1L7",
        "streetName": "BURNETT",
        "streetDirectionId": null,
        "streetTypeId": "AVE",
        "placeName": "CAMBRIDGE",
        "streetNameDisplayText": "BURNETT AVE, CAMBRIDGE"
      },
      {
        "electoralDistricts": [
          {
            "election": null,
            "id": 16,
            "name": "Cambridge"
          }
        ],
        "pollDivisionIds": [
          10137427
        ],
        "postalCode": "N1T1L7",
        "streetName": "MCTAGUE",
        "streetDirectionId": null,
        "streetTypeId": "DR",
        "placeName": "CAMBRIDGE",
        "streetNameDisplayText": "MCTAGUE DR, CAMBRIDGE"
      }
    ]
  },
  {
    "postal": "N1T2P9",
    "result": []
  },
  {
    "postal": "N1T5T4",
    "result": []
  },
  {
    "postal": "N1T5Z1",
    "result": []
  },
  {
    "postal": "N1T2X0",
    "result": []
  },
  {
    "postal": "N1T6Z2",
    "result": []
  },
  {
    "postal": "N1T0E0",
    "result": []
  },
  {
    "postal": "N1T3Z5",
    "result": []
  },
  {
    "postal": "N1T8H3",
    "result": []
  },
  {
    "postal": "N1T7S6",
    "result": []
  },
  {
    "postal": "N1T4C1",
    "result": []
  },
  {
    "postal": "N1T3K2",
    "result": []
  },
  {
    "postal": "N1T1Y5",
    "result": [
      {
        "electoralDistricts": [
          {
            "election": null,
            "id": 16,
            "name": "Cambridge"
          }
        ],
        "pollDivisionIds": [
          10137427
        ],
        "postalCode": "N1T1Y5",
        "streetName": "LIGHT",
        "streetDirectionId": null,
        "streetTypeId": "DR",
        "placeName": "CAMBRIDGE",
        "streetNameDisplayText": "LIGHT DR, CAMBRIDGE"
      },
      {
        "electoralDistricts": [
          {
            "election": null,
            "id": 16,
            "name": "Cambridge"
          }
        ],
        "pollDivisionIds": [
          10137427
        ],
        "postalCode": "N1T1Y5",
        "streetName": "MCGILL",
        "streetDirectionId": null,
        "streetTypeId": "CRES",
        "placeName": "CAMBRIDGE",
        "streetNameDisplayText": "MCGILL CRES, CAMBRIDGE"
      }
    ]
  },
  {
    "postal": "N1T6P6",
    "result": []
  },
  {
    "postal": "N1T3N9",
    "result": []
  },
  {
    "postal": "N1T3W2",
    "result": []
  },
  {
    "postal": "N1T6H8",
    "result": []
  },
  {
    "postal": "N1T9T3",
    "result": []
  },
  {
    "postal": "N1T5L9",
    "result": []
  },
  {
    "postal": "N1T7X7",
    "result": []
  },
  {
    "postal": "N1T3J5",
    "result": []
  },
  {
    "postal": "N1T4J5",
    "result": []
  },
  {
    "postal": "N1T6J2",
    "result": []
  },
  {
    "postal": "N1T5V6",
    "result": []
  },
  {
    "postal": "N1T3N2",
    "result": []
  },
  {
    "postal": "N1T3B1",
    "result": []
  },
  {
    "postal": "N1T8B5",
    "result": []
  },
  {
    "postal": "N1T0K1",
    "result": []
  },
  {
    "postal": "N1T7M7",
    "result": []
  },
  {
    "postal": "N1T2M2",
    "result": []
  },
  {
    "postal": "N1T9N3",
    "result": []
  },
  {
    "postal": "N1T4Y8",
    "result": []
  },
  {
    "postal": "N1T3V7",
    "result": []
  },
  {
    "postal": "N1T8Z1",
    "result": []
  },
  {
    "postal": "N1T7B3",
    "result": []
  },
  {
    "postal": "N1T3A8",
    "result": []
  },
  {
    "postal": "N1T7V5",
    "result": []
  },
  {
    "postal": "N1T2T2",
    "result": []
  },
  {
    "postal": "N1T6L3",
    "result": []
  },
  {
    "postal": "N1T0L2",
    "result": []
  },
  {
    "postal": "N1T5Y8",
    "result": []
  },
  {
    "postal": "N1T0B8",
    "result": [
      {
        "electoralDistricts": [
          {
            "election": null,
            "id": 16,
            "name": "Cambridge"
          }
        ],
        "pollDivisionIds": [
          10137445
        ],
        "postalCode": "N1T0B8",
        "streetName": "MAPLE BUSH",
        "streetDirectionId": null,
        "streetTypeId": "DR",
        "placeName": "CAMBRIDGE",
        "streetNameDisplayText": "MAPLE BUSH DR, CAMBRIDGE"
      },
      {
        "electoralDistricts": [
          {
            "election": null,
            "id": 16,
            "name": "Cambridge"
          }
        ],
        "pollDivisionIds": [
          10137445
        ],
        "postalCode": "N1T0B8",
        "streetName": "WESLEY",
        "streetDirectionId": null,
        "streetTypeId": "BLVD",
        "placeName": "CAMBRIDGE",
        "streetNameDisplayText": "WESLEY BLVD, CAMBRIDGE"
      }
    ]
  },
  {
    "postal": "N1T6R5",
    "result": []
  },
  {
    "postal": "N1T8W6",
    "result": []
  },
  {
    "postal": "N1T8G6",
    "result": []
  },
  {
    "postal": "N1T6X3",
    "result": []
  },
  {
    "postal": "N1T7R7",
    "result": []
  },
  {
    "postal": "N1T4B6",
    "result": []
  },
  {
    "postal": "N1T3P9",
    "result": []
  },
  {
    "postal": "N1T2T3",
    "result": []
  },
  {
    "postal": "N1T1M4",
    "result": [
      {
        "electoralDistricts": [
          {
            "election": null,
            "id": 16,
            "name": "Cambridge"
          }
        ],
        "pollDivisionIds": [
          10137426
        ],
        "postalCode": "N1T1M4",
        "streetName": "CHAMBERLAIN",
        "streetDirectionId": null,
        "streetTypeId": "DR",
        "placeName": "CAMBRIDGE",
        "streetNameDisplayText": "CHAMBERLAIN DR, CAMBRIDGE"
      },
      {
        "electoralDistricts": [
          {
            "election": null,
            "id": 16,
            "name": "Cambridge"
          }
        ],
        "pollDivisionIds": [
          10137426
        ],
        "postalCode": "N1T1M4",
        "streetName": "CHAMBERLIN",
        "streetDirectionId": null,
        "streetTypeId": "DR",
        "placeName": "CAMBRIDGE",
        "streetNameDisplayText": "CHAMBERLIN DR, CAMBRIDGE"
      },
      {
        "electoralDistricts": [
          {
            "election": null,
            "id": 16,
            "name": "Cambridge"
          }
        ],
        "pollDivisionIds": [
          10137426
        ],
        "postalCode": "N1T1M4",
        "streetName": "SAGINAW",
        "streetDirectionId": null,
        "streetTypeId": "PKY",
        "placeName": "CAMBRIDGE",
        "streetNameDisplayText": "SAGINAW PKY, CAMBRIDGE"
      }
    ]
  },
  {
    "postal": "N1T0H1",
    "result": []
  },
  {
    "postal": "N1T9W3",
    "result": []
  },
  {
    "postal": "N1T6P1",
    "result": []
  },
  {
    "postal": "N1T7G2",
    "result": []
  },
  {
    "postal": "N1T4J9",
    "result": []
  },
  {
    "postal": "N1T9E4",
    "result": []
  },
  {
    "postal": "N1T8H0",
    "result": []
  },
  {
    "postal": "N1T4M7",
    "result": []
  },
  {
    "postal": "N1T2G9",
    "result": [
      {
        "electoralDistricts": [
          {
            "election": null,
            "id": 16,
            "name": "Cambridge"
          }
        ],
        "pollDivisionIds": [
          10137427
        ],
        "postalCode": "N1T2G9",
        "streetName": "GARTH MASSEY",
        "streetDirectionId": null,
        "streetTypeId": "DR",
        "placeName": "CAMBRIDGE",
        "streetNameDisplayText": "GARTH MASSEY DR, CAMBRIDGE"
      },
      {
        "electoralDistricts": [
          {
            "election": null,
            "id": 16,
            "name": "Cambridge"
          }
        ],
        "pollDivisionIds": [
          10137427
        ],
        "postalCode": "N1T2G9",
        "streetName": "NANCROFT",
        "streetDirectionId": null,
        "streetTypeId": "CRES",
        "placeName": "CAMBRIDGE",
        "streetNameDisplayText": "NANCROFT CRES, CAMBRIDGE"
      }
    ]
  },
  {
    "postal": "N1T8T2",
    "result": []
  },
  {
    "postal": "N1T7G7",
    "result": []
  },
  {
    "postal": "N1T4Z3",
    "result": []
  },
  {
    "postal": "N1T5B3",
    "result": []
  },
  {
    "postal": "N1T1S7",
    "result": [
      {
        "electoralDistricts": [
          {
            "election": null,
            "id": 16,
            "name": "Cambridge"
          }
        ],
        "pollDivisionIds": [
          10137435
        ],
        "postalCode": "N1T1S7",
        "streetName": "DOBBIE",
        "streetDirectionId": null,
        "streetTypeId": "DR",
        "placeName": "CAMBRIDGE",
        "streetNameDisplayText": "DOBBIE DR, CAMBRIDGE"
      }
    ]
  },
  {
    "postal": "N1T2N7",
    "result": []
  },
  {
    "postal": "N1T0H8",
    "result": []
  },
  {
    "postal": "N1T7Z4",
    "result": []
  },
  {
    "postal": "N1T7B1",
    "result": []
  },
  {
    "postal": "N1T7P8",
    "result": []
  },
  {
    "postal": "N1T7N0",
    "result": []
  },
  {
    "postal": "N1T3Y5",
    "result": []
  },
  {
    "postal": "N1T6K1",
    "result": []
  },
  {
    "postal": "N1T9X5",
    "result": []
  },
  {
    "postal": "N1T7S5",
    "result": []
  },
  {
    "postal": "N1T0A4",
    "result": [
      {
        "electoralDistricts": [
          {
            "election": null,
            "id": 16,
            "name": "Cambridge"
          }
        ],
        "pollDivisionIds": [
          10137419
        ],
        "postalCode": "N1T0A4",
        "streetName": "SHELDON",
        "streetDirectionId": null,
        "streetTypeId": "DR",
        "placeName": "CAMBRIDGE",
        "streetNameDisplayText": "SHELDON DR, CAMBRIDGE"
      }
    ]
  },
  {
    "postal": "N1T4T5",
    "result": []
  },
  {
    "postal": "N1T5K1",
    "result": []
  },
  {
    "postal": "N1T0Z9",
    "result": []
  },
  {
    "postal": "N1T7T2",
    "result": []
  },
  {
    "postal": "N1T1L5",
    "result": [
      {
        "electoralDistricts": [
          {
            "election": null,
            "id": 16,
            "name": "Cambridge"
          }
        ],
        "pollDivisionIds": [
          10137427,
          10137436
        ],
        "postalCode": "N1T1L5",
        "streetName": "DRUMLIN",
        "streetDirectionId": null,
        "streetTypeId": "DR",
        "placeName": "CAMBRIDGE",
        "streetNameDisplayText": "DRUMLIN DR, CAMBRIDGE"
      },
      {
        "electoralDistricts": [
          {
            "election": null,
            "id": 16,
            "name": "Cambridge"
          }
        ],
        "pollDivisionIds": [
          10137427
        ],
        "postalCode": "N1T1L5",
        "streetName": "MCTAGUE",
        "streetDirectionId": null,
        "streetTypeId": "DR",
        "placeName": "CAMBRIDGE",
        "streetNameDisplayText": "MCTAGUE DR, CAMBRIDGE"
      }
    ]
  },
  {
    "postal": "N1T3N5",
    "result": []
  },
  {
    "postal": "N1T6H4",
    "result": []
  },
  {
    "postal": "N1T5A5",
    "result": []
  },
  {
    "postal": "N1T3R9",
    "result": []
  },
  {
    "postal": "N1T7L8",
    "result": []
  },
  {
    "postal": "N1T6T6",
    "result": []
  },
  {
    "postal": "N1T7Y7",
    "result": []
  },
  {
    "postal": "N1T3M8",
    "result": []
  },
  {
    "postal": "N1T2E0",
    "result": []
  },
  {
    "postal": "N1T4B5",
    "result": []
  },
  {
    "postal": "N1T1J3",
    "result": [
      {
        "electoralDistricts": [
          {
            "election": null,
            "id": 16,
            "name": "Cambridge"
          }
        ],
        "pollDivisionIds": [
          10137419
        ],
        "postalCode": "N1T1J3",
        "streetName": "SHEARSON",
        "streetDirectionId": null,
        "streetTypeId": "CRES",
        "placeName": "CAMBRIDGE",
        "streetNameDisplayText": "SHEARSON CRES, CAMBRIDGE"
      }
    ]
  },
  {
    "postal": "N1T5S6",
    "result": []
  },
  {
    "postal": "N1T8P7",
    "result": []
  },
  {
    "postal": "N1T7S7",
    "result": []
  },
  {
    "postal": "N1T4C2",
    "result": []
  },
  {
    "postal": "N1T5Y0",
    "result": []
  },
  {
    "postal": "N1T2V7",
    "result": []
  },
  {
    "postal": "N1T8P5",
    "result": []
  },
  {
    "postal": "N1T5P5",
    "result": []
  },
  {
    "postal": "N1T5Z0",
    "result": []
  },
  {
    "postal": "N1T9B0",
    "result": []
  },
  {
    "postal": "N1T1L0",
    "result": []
  },
  {
    "postal": "N1T0B5",
    "result": [
      {
        "electoralDistricts": [
          {
            "election": null,
            "id": 16,
            "name": "Cambridge"
          }
        ],
        "pollDivisionIds": [
          10137435
        ],
        "postalCode": "N1T0B5",
        "streetName": "TIMBER CREEK",
        "streetDirectionId": null,
        "streetTypeId": "CRES",
        "placeName": "CAMBRIDGE",
        "streetNameDisplayText": "TIMBER CREEK CRES, CAMBRIDGE"
      }
    ]
  },
  {
    "postal": "N1T3L2",
    "result": []
  },
  {
    "postal": "N1T3B7",
    "result": []
  },
  {
    "postal": "N1T8L1",
    "result": []
  },
  {
    "postal": "N1T5M4",
    "result": []
  },
  {
    "postal": "N1T4G9",
    "result": []
  },
  {
    "postal": "N1T0P0",
    "result": []
  },
  {
    "postal": "N1T8G2",
    "result": []
  },
  {
    "postal": "N1T1V9",
    "result": [
      {
        "electoralDistricts": [
          {
            "election": null,
            "id": 16,
            "name": "Cambridge"
          }
        ],
        "pollDivisionIds": [
          10137427
        ],
        "postalCode": "N1T1V9",
        "streetName": "CHIPCASE",
        "streetDirectionId": null,
        "streetTypeId": "CRT",
        "placeName": "CAMBRIDGE",
        "streetNameDisplayText": "CHIPCASE CRT, CAMBRIDGE"
      },
      {
        "electoralDistricts": [
          {
            "election": null,
            "id": 16,
            "name": "Cambridge"
          }
        ],
        "pollDivisionIds": [
          10137427
        ],
        "postalCode": "N1T1V9",
        "streetName": "SAGINAW",
        "streetDirectionId": null,
        "streetTypeId": "PKY",
        "placeName": "CAMBRIDGE",
        "streetNameDisplayText": "SAGINAW PKY, CAMBRIDGE"
      },
      {
        "electoralDistricts": [
          {
            "election": null,
            "id": 16,
            "name": "Cambridge"
          }
        ],
        "pollDivisionIds": [
          10137427
        ],
        "postalCode": "N1T1V9",
        "streetName": "SAGINAW",
        "streetDirectionId": null,
        "streetTypeId": "PKY",
        "placeName": "CAMBRIDGE, ON",
        "streetNameDisplayText": "SAGINAW PKY, CAMBRIDGE, ON"
      }
    ]
  },
  {
    "postal": "N1T8N8",
    "result": []
  },
  {
    "postal": "N1T6S8",
    "result": []
  },
  {
    "postal": "N1T8H2",
    "result": []
  },
  {
    "postal": "N1T5R8",
    "result": []
  },
  {
    "postal": "N1T5L4",
    "result": []
  },
  {
    "postal": "N1T9E1",
    "result": []
  },
  {
    "postal": "N1T1C4",
    "result": [
      {
        "electoralDistricts": [
          {
            "election": null,
            "id": 16,
            "name": "Cambridge"
          }
        ],
        "pollDivisionIds": [
          10137419
        ],
        "postalCode": "N1T1C4",
        "streetName": "BALMORAL",
        "streetDirectionId": null,
        "streetTypeId": "RD",
        "placeName": "CAMBRIDGE",
        "streetNameDisplayText": "BALMORAL RD, CAMBRIDGE"
      }
    ]
  },
  {
    "postal": "N1T8W5",
    "result": []
  },
  {
    "postal": "N1T1Y4",
    "result": [
      {
        "electoralDistricts": [
          {
            "election": null,
            "id": 16,
            "name": "Cambridge"
          }
        ],
        "pollDivisionIds": [
          10137427
        ],
        "postalCode": "N1T1Y4",
        "streetName": "LIGHT",
        "streetDirectionId": null,
        "streetTypeId": "DR",
        "placeName": "CAMBRIDGE",
        "streetNameDisplayText": "LIGHT DR, CAMBRIDGE"
      },
      {
        "electoralDistricts": [
          {
            "election": null,
            "id": 16,
            "name": "Cambridge"
          }
        ],
        "pollDivisionIds": [
          10137427
        ],
        "postalCode": "N1T1Y4",
        "streetName": "MCGILL",
        "streetDirectionId": null,
        "streetTypeId": "CRES",
        "placeName": "CAMBRIDGE",
        "streetNameDisplayText": "MCGILL CRES, CAMBRIDGE"
      }
    ]
  },
  {
    "postal": "N1T1C0",
    "result": []
  },
  {
    "postal": "N1T2J2",
    "result": [
      {
        "electoralDistricts": [
          {
            "election": null,
            "id": 16,
            "name": "Cambridge"
          }
        ],
        "pollDivisionIds": [
          10137419
        ],
        "postalCode": "N1T2J2",
        "streetName": "TOWNLINE",
        "streetDirectionId": null,
        "streetTypeId": "RD",
        "placeName": "CAMBRIDGE",
        "streetNameDisplayText": "TOWNLINE RD, CAMBRIDGE"
      }
    ]
  },
  {
    "postal": "N1T2J0",
    "result": []
  },
  {
    "postal": "N1T7A3",
    "result": []
  },
  {
    "postal": "N1T8M1",
    "result": []
  },
  {
    "postal": "N1T7T9",
    "result": []
  },
  {
    "postal": "N1T6C0",
    "result": []
  },
  {
    "postal": "N1T7X1",
    "result": []
  },
  {
    "postal": "N1T0G1",
    "result": []
  },
  {
    "postal": "N1T4X2",
    "result": []
  },
  {
    "postal": "N1T0N6",
    "result": []
  },
  {
    "postal": "N1T8E3",
    "result": []
  },
  {
    "postal": "N1T5S8",
    "result": []
  },
  {
    "postal": "N1T0R0",
    "result": []
  },
  {
    "postal": "N1T6J6",
    "result": []
  },
  {
    "postal": "N1T4B4",
    "result": []
  },
  {
    "postal": "N1T7E3",
    "result": []
  },
  {
    "postal": "N1T3N6",
    "result": []
  },
  {
    "postal": "N1T3X6",
    "result": []
  },
  {
    "postal": "N1T8L0",
    "result": []
  },
  {
    "postal": "N1T8N1",
    "result": []
  },
  {
    "postal": "N1T4J0",
    "result": []
  },
  {
    "postal": "N1T0X7",
    "result": []
  },
  {
    "postal": "N1T6S4",
    "result": []
  },
  {
    "postal": "N1T0Z0",
    "result": []
  },
  {
    "postal": "N1T9X8",
    "result": []
  },
  {
    "postal": "N1T3H3",
    "result": []
  },
  {
    "postal": "N1T7S2",
    "result": []
  },
  {
    "postal": "N1T3T3",
    "result": []
  },
  {
    "postal": "N1T9P3",
    "result": []
  },
  {
    "postal": "N1T4H8",
    "result": []
  },
  {
    "postal": "N1T6R1",
    "result": []
  },
  {
    "postal": "N1T1S0",
    "result": []
  },
  {
    "postal": "N1T3W8",
    "result": []
  },
  {
    "postal": "N1T4S3",
    "result": []
  },
  {
    "postal": "N1T1B6",
    "result": []
  },
  {
    "postal": "N1T8R3",
    "result": []
  },
  {
    "postal": "N1T4V9",
    "result": []
  },
  {
    "postal": "N1T9W4",
    "result": []
  },
  {
    "postal": "N1T3T4",
    "result": []
  },
  {
    "postal": "N1T5C7",
    "result": []
  },
  {
    "postal": "N1T3Y1",
    "result": []
  },
  {
    "postal": "N1T5V0",
    "result": []
  },
  {
    "postal": "N1T8G8",
    "result": []
  },
  {
    "postal": "N1T8B1",
    "result": []
  },
  {
    "postal": "N1T4P5",
    "result": []
  },
  {
    "postal": "N1T7B2",
    "result": []
  },
  {
    "postal": "N1T0R2",
    "result": []
  },
  {
    "postal": "N1T4M4",
    "result": []
  },
  {
    "postal": "N1T7M4",
    "result": []
  },
  {
    "postal": "N1T9S7",
    "result": []
  },
  {
    "postal": "N1T5Z7",
    "result": []
  },
  {
    "postal": "N1T7J7",
    "result": []
  },
  {
    "postal": "N1T8R8",
    "result": []
  },
  {
    "postal": "N1T9X1",
    "result": []
  },
  {
    "postal": "N1T5M9",
    "result": []
  },
  {
    "postal": "N1T9B4",
    "result": []
  },
  {
    "postal": "N1T0L9",
    "result": []
  },
  {
    "postal": "N1T9G4",
    "result": []
  },
  {
    "postal": "N1T1J4",
    "result": [
      {
        "electoralDistricts": [
          {
            "election": null,
            "id": 16,
            "name": "Cambridge"
          }
        ],
        "pollDivisionIds": [
          10137419
        ],
        "postalCode": "N1T1J4",
        "streetName": "SHEARSON",
        "streetDirectionId": null,
        "streetTypeId": "CRES",
        "placeName": "CAMBRIDGE",
        "streetNameDisplayText": "SHEARSON CRES, CAMBRIDGE"
      }
    ]
  },
  {
    "postal": "N1T0W6",
    "result": []
  },
  {
    "postal": "N1T4C5",
    "result": []
  },
  {
    "postal": "N1T7E4",
    "result": []
  },
  {
    "postal": "N1T1R9",
    "result": [
      {
        "electoralDistricts": [
          {
            "election": null,
            "id": 16,
            "setId": 0,
            "name": "Cambridge"
          }
        ],
        "pollDivisionIds": [
          10137446
        ],
        "postalCode": "N1T1R9",
        "streetName": "ORION",
        "streetDirectionId": null,
        "streetTypeId": "PL",
        "placeName": "CAMBRIDGE",
        "streetNameDisplayText": "ORION PL, CAMBRIDGE"
      }
    ]
  },
  {
    "postal": "N1T2P0",
    "result": []
  },
  {
    "postal": "N1T5S4",
    "result": []
  },
  {
    "postal": "N1T5K8",
    "result": []
  },
  {
    "postal": "N1T8K4",
    "result": []
  },
  {
    "postal": "N1T7C1",
    "result": []
  },
  {
    "postal": "N1T7K9",
    "result": []
  },
  {
    "postal": "N1T5J1",
    "result": []
  },
  {
    "postal": "N1T4P9",
    "result": []
  },
  {
    "postal": "N1T0N2",
    "result": []
  },
  {
    "postal": "N1T2G6",
    "result": [
      {
        "electoralDistricts": [
          {
            "election": null,
            "id": 16,
            "setId": 0,
            "name": "Cambridge"
          }
        ],
        "pollDivisionIds": [
          10137427
        ],
        "postalCode": "N1T2G6",
        "streetName": "ARTHUR FACH",
        "streetDirectionId": null,
        "streetTypeId": "DR",
        "placeName": "CAMBRIDGE",
        "streetNameDisplayText": "ARTHUR FACH DR, CAMBRIDGE"
      },
      {
        "electoralDistricts": [
          {
            "election": null,
            "id": 16,
            "setId": 0,
            "name": "Cambridge"
          }
        ],
        "pollDivisionIds": [
          10137427
        ],
        "postalCode": "N1T2G6",
        "streetName": "GARTH MASSEY",
        "streetDirectionId": null,
        "streetTypeId": "DR",
        "placeName": "CAMBRIDGE",
        "streetNameDisplayText": "GARTH MASSEY DR, CAMBRIDGE"
      },
      {
        "electoralDistricts": [
          {
            "election": null,
            "id": 16,
            "setId": 0,
            "name": "Cambridge"
          }
        ],
        "pollDivisionIds": [
          10137427
        ],
        "postalCode": "N1T2G6",
        "streetName": "REDSTART",
        "streetDirectionId": null,
        "streetTypeId": "DR",
        "placeName": "CAMBRIDGE",
        "streetNameDisplayText": "REDSTART DR, CAMBRIDGE"
      }
    ]
  },
  {
    "postal": "N1T6P4",
    "result": []
  },
  {
    "postal": "N1T3J0",
    "result": []
  },
  {
    "postal": "N1T8X4",
    "result": []
  },
  {
    "postal": "N1T1Y3",
    "result": [
      {
        "electoralDistricts": [
          {
            "election": null,
            "id": 16,
            "setId": 0,
            "name": "Cambridge"
          }
        ],
        "pollDivisionIds": [
          10137427
        ],
        "postalCode": "N1T1Y3",
        "streetName": "LIGHT",
        "streetDirectionId": null,
        "streetTypeId": "DR",
        "placeName": "CAMBRIDGE",
        "streetNameDisplayText": "LIGHT DR, CAMBRIDGE"
      }
    ]
  },
  {
    "postal": "N1T1A8",
    "result": [
      {
        "electoralDistricts": [
          {
            "election": null,
            "id": 16,
            "setId": 0,
            "name": "Cambridge"
          }
        ],
        "pollDivisionIds": [
          10137419
        ],
        "postalCode": "N1T1A8",
        "streetName": "SHELDON",
        "streetDirectionId": null,
        "streetTypeId": "DR",
        "placeName": "CAMBRIDGE",
        "streetNameDisplayText": "SHELDON DR, CAMBRIDGE"
      }
    ]
  },
  {
    "postal": "N1T6Y5",
    "result": []
  },
  {
    "postal": "N1T0J6",
    "result": []
  },
  {
    "postal": "N1T2C9",
    "result": [
      {
        "electoralDistricts": [
          {
            "election": null,
            "id": 16,
            "setId": 0,
            "name": "Cambridge"
          }
        ],
        "pollDivisionIds": [
          10137445,
          10137462
        ],
        "postalCode": "N1T2C9",
        "streetName": "HONEY",
        "streetDirectionId": null,
        "streetTypeId": "ST",
        "placeName": "CAMBRIDGE",
        "streetNameDisplayText": "HONEY ST, CAMBRIDGE"
      },
      {
        "electoralDistricts": [
          {
            "election": null,
            "id": 16,
            "setId": 0,
            "name": "Cambridge"
          }
        ],
        "pollDivisionIds": [
          10137445
        ],
        "postalCode": "N1T2C9",
        "streetName": "NOTTINGHILL",
        "streetDirectionId": null,
        "streetTypeId": "DR",
        "placeName": "CAMBRIDGE",
        "streetNameDisplayText": "NOTTINGHILL DR, CAMBRIDGE"
      }
    ]
  },
  {
    "postal": "N1T8J6",
    "result": []
  },
  {
    "postal": "N1T8T4",
    "result": []
  },
  {
    "postal": "N1T1P7",
    "result": [
      {
        "electoralDistricts": [
          {
            "election": null,
            "id": 16,
            "setId": 0,
            "name": "Cambridge"
          }
        ],
        "pollDivisionIds": [
          10137427
        ],
        "postalCode": "N1T1P7",
        "streetName": "GRANITE HILL",
        "streetDirectionId": null,
        "streetTypeId": "RD",
        "placeName": "CAMBRIDGE",
        "streetNameDisplayText": "GRANITE HILL RD, CAMBRIDGE"
      },
      {
        "electoralDistricts": [
          {
            "election": null,
            "id": 16,
            "setId": 0,
            "name": "Cambridge"
          }
        ],
        "pollDivisionIds": [
          10137427
        ],
        "postalCode": "N1T1P7",
        "streetName": "LIGHT",
        "streetDirectionId": null,
        "streetTypeId": "DR",
        "placeName": "CAMBRIDGE",
        "streetNameDisplayText": "LIGHT DR, CAMBRIDGE"
      },
      {
        "electoralDistricts": [
          {
            "election": null,
            "id": 16,
            "setId": 0,
            "name": "Cambridge"
          }
        ],
        "pollDivisionIds": [
          10137427
        ],
        "postalCode": "N1T1P7",
        "streetName": "UNGER",
        "streetDirectionId": null,
        "streetTypeId": "AVE",
        "placeName": "CAMBRIDGE",
        "streetNameDisplayText": "UNGER AVE, CAMBRIDGE"
      }
    ]
  },
  {
    "postal": "N1T9V9",
    "result": []
  },
  {
    "postal": "N1T0M1",
    "result": []
  },
  {
    "postal": "N1T6K5",
    "result": []
  },
  {
    "postal": "N1T2T5",
    "result": []
  },
  {
    "postal": "N1T7E9",
    "result": []
  },
  {
    "postal": "N1T5K5",
    "result": []
  },
  {
    "postal": "N1T3R5",
    "result": []
  },
  {
    "postal": "N1T5B1",
    "result": []
  },
  {
    "postal": "N1T2P1",
    "result": []
  },
  {
    "postal": "N1T7L0",
    "result": []
  },
  {
    "postal": "N1T3L6",
    "result": []
  },
  {
    "postal": "N1T2A4",
    "result": [
      {
        "electoralDistricts": [
          {
            "election": null,
            "id": 16,
            "setId": 0,
            "name": "Cambridge"
          }
        ],
        "pollDivisionIds": [
          10137427
        ],
        "postalCode": "N1T2A4",
        "streetName": "HAWKINS",
        "streetDirectionId": null,
        "streetTypeId": "DR",
        "placeName": "CAMBRIDGE",
        "streetNameDisplayText": "HAWKINS DR, CAMBRIDGE"
      }
    ]
  },
  {
    "postal": "N1T8S0",
    "result": []
  },
  {
    "postal": "N1T3L5",
    "result": []
  },
  {
    "postal": "N1T2R5",
    "result": []
  },
  {
    "postal": "N1T9T6",
    "result": []
  },
  {
    "postal": "N1T8Z2",
    "result": []
  },
  {
    "postal": "N1T0E9",
    "result": []
  },
  {
    "postal": "N1T8C0",
    "result": []
  },
  {
    "postal": "N1T3K7",
    "result": []
  },
  {
    "postal": "N1T2H3",
    "result": [
      {
        "electoralDistricts": [
          {
            "election": null,
            "id": 16,
            "setId": 0,
            "name": "Cambridge"
          }
        ],
        "pollDivisionIds": [
          10137427
        ],
        "postalCode": "N1T2H3",
        "streetName": "BAINTREE",
        "streetDirectionId": null,
        "streetTypeId": "WAY",
        "placeName": "CAMBRIDGE",
        "streetNameDisplayText": "BAINTREE WAY, CAMBRIDGE"
      },
      {
        "electoralDistricts": [
          {
            "election": null,
            "id": 16,
            "setId": 0,
            "name": "Cambridge"
          }
        ],
        "pollDivisionIds": [
          10137427
        ],
        "postalCode": "N1T2H3",
        "streetName": "GARTH MASSEY",
        "streetDirectionId": null,
        "streetTypeId": "DR",
        "placeName": "CAMBRIDGE",
        "streetNameDisplayText": "GARTH MASSEY DR, CAMBRIDGE"
      }
    ]
  },
  {
    "postal": "N1T2Y6",
    "result": []
  },
  {
    "postal": "N1T7M2",
    "result": []
  },
  {
    "postal": "N1T6E2",
    "result": []
  },
  {
    "postal": "N1T3R0",
    "result": []
  },
  {
    "postal": "N1T4J7",
    "result": []
  },
  {
    "postal": "N1T6N8",
    "result": []
  },
  {
    "postal": "N1T0J7",
    "result": []
  },
  {
    "postal": "N1T7P2",
    "result": []
  },
  {
    "postal": "N1T3T8",
    "result": []
  },
  {
    "postal": "N1T3S7",
    "result": []
  },
  {
    "postal": "N1T2S7",
    "result": []
  },
  {
    "postal": "N1T1S4",
    "result": [
      {
        "electoralDistricts": [
          {
            "election": null,
            "id": 16,
            "setId": 0,
            "name": "Cambridge"
          }
        ],
        "pollDivisionIds": [
          10137446
        ],
        "postalCode": "N1T1S4",
        "streetName": "SAVAGE",
        "streetDirectionId": null,
        "streetTypeId": "DR",
        "placeName": "CAMBRIDGE",
        "streetNameDisplayText": "SAVAGE DR, CAMBRIDGE"
      }
    ]
  },
  {
    "postal": "N1T1L8",
    "result": [
      {
        "electoralDistricts": [
          {
            "election": null,
            "id": 16,
            "setId": 0,
            "name": "Cambridge"
          }
        ],
        "pollDivisionIds": [
          10137436,
          10137426
        ],
        "postalCode": "N1T1L8",
        "streetName": "ANGLEROCK",
        "streetDirectionId": null,
        "streetTypeId": "DR",
        "placeName": "CAMBRIDGE",
        "streetNameDisplayText": "ANGLEROCK DR, CAMBRIDGE"
      },
      {
        "electoralDistricts": [
          {
            "election": null,
            "id": 16,
            "setId": 0,
            "name": "Cambridge"
          }
        ],
        "pollDivisionIds": [
          10137436
        ],
        "postalCode": "N1T1L8",
        "streetName": "BURNETT",
        "streetDirectionId": null,
        "streetTypeId": "AVE",
        "placeName": "CAMBRIDGE",
        "streetNameDisplayText": "BURNETT AVE, CAMBRIDGE"
      },
      {
        "electoralDistricts": [
          {
            "election": null,
            "id": 16,
            "setId": 0,
            "name": "Cambridge"
          }
        ],
        "pollDivisionIds": [
          10137436,
          10137426
        ],
        "postalCode": "N1T1L8",
        "streetName": "CHAMBERLIN",
        "streetDirectionId": null,
        "streetTypeId": "DR",
        "placeName": "CAMBRIDGE",
        "streetNameDisplayText": "CHAMBERLIN DR, CAMBRIDGE"
      }
    ]
  },
  {
    "postal": "N1T8E9",
    "result": []
  },
  {
    "postal": "N1T0T0",
    "result": []
  },
  {
    "postal": "N1T3G4",
    "result": []
  },
  {
    "postal": "N1T0V6",
    "result": []
  },
  {
    "postal": "N1T4W1",
    "result": []
  },
  {
    "postal": "N1T9G9",
    "result": []
  },
  {
    "postal": "N1T5W4",
    "result": []
  },
  {
    "postal": "N1T7M8",
    "result": []
  },
  {
    "postal": "N1T2C2",
    "result": [
      {
        "electoralDistricts": [
          {
            "election": null,
            "id": 16,
            "setId": 0,
            "name": "Cambridge"
          }
        ],
        "pollDivisionIds": [
          10137419
        ],
        "postalCode": "N1T2C2",
        "streetName": "SHELDON",
        "streetDirectionId": null,
        "streetTypeId": "DR",
        "placeName": "CAMBRIDGE",
        "streetNameDisplayText": "SHELDON DR, CAMBRIDGE"
      }
    ]
  },
  {
    "postal": "N1T4Y2",
    "result": []
  },
  {
    "postal": "N1T9X9",
    "result": []
  },
  {
    "postal": "N1T3T0",
    "result": []
  },
  {
    "postal": "N1T4T8",
    "result": []
  },
  {
    "postal": "N1T9C4",
    "result": []
  },
  {
    "postal": "N1T8P2",
    "result": []
  },
  {
    "postal": "N1T0Y8",
    "result": []
  },
  {
    "postal": "N1T1G8",
    "result": [
      {
        "electoralDistricts": [
          {
            "election": null,
            "id": 16,
            "setId": 0,
            "name": "Cambridge"
          }
        ],
        "pollDivisionIds": [
          10137436
        ],
        "postalCode": "N1T1G8",
        "streetName": "BURNETT",
        "streetDirectionId": null,
        "streetTypeId": "AVE",
        "placeName": "CAMBRIDGE",
        "streetNameDisplayText": "BURNETT AVE, CAMBRIDGE"
      },
      {
        "electoralDistricts": [
          {
            "election": null,
            "id": 16,
            "setId": 0,
            "name": "Cambridge"
          }
        ],
        "pollDivisionIds": [
          10137436
        ],
        "postalCode": "N1T1G8",
        "streetName": "CHIMNEY HILL",
        "streetDirectionId": null,
        "streetTypeId": "DR",
        "placeName": "CAMBRIDGE",
        "streetNameDisplayText": "CHIMNEY HILL DR, CAMBRIDGE"
      }
    ]
  },
  {
    "postal": "N1T2T6",
    "result": []
  },
  {
    "postal": "N1T1N7",
    "result": [
      {
        "electoralDistricts": [
          {
            "election": null,
            "id": 16,
            "setId": 0,
            "name": "Cambridge"
          }
        ],
        "pollDivisionIds": [
          10137419
        ],
        "postalCode": "N1T1N7",
        "streetName": "WERLICH",
        "streetDirectionId": null,
        "streetTypeId": "DR",
        "placeName": "CAMBRIDGE",
        "streetNameDisplayText": "WERLICH DR, CAMBRIDGE"
      }
    ]
  },
  {
    "postal": "N1T0L6",
    "result": []
  },
  {
    "postal": "N1T9V4",
    "result": []
  },
  {
    "postal": "N1T2V1",
    "result": []
  },
  {
    "postal": "N1T3L8",
    "result": []
  },
  {
    "postal": "N1T2R8",
    "result": []
  },
  {
    "postal": "N1T5C1",
    "result": []
  },
  {
    "postal": "N1T4W3",
    "result": []
  },
  {
    "postal": "N1T5X5",
    "result": []
  },
  {
    "postal": "N1T9W5",
    "result": []
  },
  {
    "postal": "N1T3C4",
    "result": []
  },
  {
    "postal": "N1T1N6",
    "result": [
      {
        "electoralDistricts": [
          {
            "election": null,
            "id": 16,
            "setId": 0,
            "name": "Cambridge"
          }
        ],
        "pollDivisionIds": [
          10137419
        ],
        "postalCode": "N1T1N6",
        "streetName": "WERLICH",
        "streetDirectionId": null,
        "streetTypeId": "DR",
        "placeName": "CAMBRIDGE",
        "streetNameDisplayText": "WERLICH DR, CAMBRIDGE"
      }
    ]
  },
  {
    "postal": "N1T9S9",
    "result": []
  },
  {
    "postal": "N1T9M2",
    "result": []
  },
  {
    "postal": "N1T8Y4",
    "result": []
  },
  {
    "postal": "N1T7S4",
    "result": []
  },
  {
    "postal": "N1T0K6",
    "result": []
  },
  {
    "postal": "N1T1W3",
    "result": [
      {
        "electoralDistricts": [
          {
            "election": null,
            "id": 16,
            "setId": 0,
            "name": "Cambridge"
          }
        ],
        "pollDivisionIds": [
          10137424,
          10137426
        ],
        "postalCode": "N1T1W3",
        "streetName": "STONECAIRN",
        "streetDirectionId": null,
        "streetTypeId": "DR",
        "placeName": "CAMBRIDGE",
        "streetNameDisplayText": "STONECAIRN DR, CAMBRIDGE"
      }
    ]
  },
  {
    "postal": "N1T7R2",
    "result": []
  },
  {
    "postal": "N1T2Y9",
    "result": []
  },
  {
    "postal": "N1T7G4",
    "result": []
  },
  {
    "postal": "N1T7E5",
    "result": []
  },
  {
    "postal": "N1T9G2",
    "result": []
  },
  {
    "postal": "N1T7Y8",
    "result": []
  },
  {
    "postal": "N1T9V2",
    "result": []
  },
  {
    "postal": "N1T3T7",
    "result": []
  },
  {
    "postal": "N1T1H0",
    "result": []
  },
  {
    "postal": "N1T1M7",
    "result": [
      {
        "electoralDistricts": [
          {
            "election": null,
            "id": 16,
            "setId": 0,
            "name": "Cambridge"
          }
        ],
        "pollDivisionIds": [
          10137435
        ],
        "postalCode": "N1T1M7",
        "streetName": "HILBORN",
        "streetDirectionId": null,
        "streetTypeId": "AVE",
        "placeName": "CAMBRIDGE",
        "streetNameDisplayText": "HILBORN AVE, CAMBRIDGE"
      }
    ]
  },
  {
    "postal": "N1T8V4",
    "result": []
  },
  {
    "postal": "N1T4M2",
    "result": []
  },
  {
    "postal": "N1T0X2",
    "result": []
  },
  {
    "postal": "N1T5Z4",
    "result": []
  },
  {
    "postal": "N1T6V4",
    "result": []
  },
  {
    "postal": "N1T8J3",
    "result": []
  },
  {
    "postal": "N1T8E5",
    "result": []
  },
  {
    "postal": "N1T2V5",
    "result": []
  },
  {
    "postal": "N1T7S1",
    "result": []
  },
  {
    "postal": "N1T6V3",
    "result": []
  },
  {
    "postal": "N1T2L8",
    "result": []
  },
  {
    "postal": "N1T9V0",
    "result": []
  },
  {
    "postal": "N1T3M4",
    "result": []
  },
  {
    "postal": "N1T5B2",
    "result": []
  },
  {
    "postal": "N1T3X5",
    "result": []
  },
  {
    "postal": "N1T9R7",
    "result": []
  },
  {
    "postal": "N1T2X2",
    "result": []
  },
  {
    "postal": "N1T8Z6",
    "result": []
  },
  {
    "postal": "N1T4R4",
    "result": []
  },
  {
    "postal": "N1T2R1",
    "result": []
  },
  {
    "postal": "N1T3R8",
    "result": []
  },
  {
    "postal": "N1T9A1",
    "result": []
  },
  {
    "postal": "N1T8L3",
    "result": []
  },
  {
    "postal": "N1T9K4",
    "result": []
  },
  {
    "postal": "N1T9S3",
    "result": []
  },
  {
    "postal": "N1T8N7",
    "result": []
  },
  {
    "postal": "N1T1C6",
    "result": [
      {
        "electoralDistricts": [
          {
            "election": null,
            "id": 16,
            "setId": 0,
            "name": "Cambridge"
          }
        ],
        "pollDivisionIds": [
          10137419
        ],
        "postalCode": "N1T1C6",
        "streetName": "TURNBULL",
        "streetDirectionId": null,
        "streetTypeId": "CRT",
        "placeName": "CAMBRIDGE",
        "streetNameDisplayText": "TURNBULL CRT, CAMBRIDGE"
      }
    ]
  },
  {
    "postal": "N1T3Z8",
    "result": []
  },
  {
    "postal": "N1T8G5",
    "result": []
  },
  {
    "postal": "N1T5R6",
    "result": []
  },
  {
    "postal": "N1T2W3",
    "result": []
  },
  {
    "postal": "N1T0A0",
    "result": []
  },
  {
    "postal": "N1T6P8",
    "result": []
  },
  {
    "postal": "N1T8N9",
    "result": []
  },
  {
    "postal": "N1T0S9",
    "result": []
  },
  {
    "postal": "N1T8G0",
    "result": []
  },
  {
    "postal": "N1T8C7",
    "result": []
  },
  {
    "postal": "N1T5X8",
    "result": []
  },
  {
    "postal": "N1T7E8",
    "result": []
  },
  {
    "postal": "N1T6X2",
    "result": []
  },
  {
    "postal": "N1T4C6",
    "result": []
  },
  {
    "postal": "N1T7H2",
    "result": []
  },
  {
    "postal": "N1T4R0",
    "result": []
  },
  {
    "postal": "N1T6J3",
    "result": []
  },
  {
    "postal": "N1T4B8",
    "result": []
  },
  {
    "postal": "N1T6H6",
    "result": []
  },
  {
    "postal": "N1T0S1",
    "result": []
  },
  {
    "postal": "N1T4E3",
    "result": []
  },
  {
    "postal": "N1T7K2",
    "result": []
  },
  {
    "postal": "N1T7T8",
    "result": []
  },
  {
    "postal": "N1T0J9",
    "result": []
  },
  {
    "postal": "N1T5J9",
    "result": []
  },
  {
    "postal": "N1T5S7",
    "result": []
  },
  {
    "postal": "N1T0G9",
    "result": []
  },
  {
    "postal": "N1T3J9",
    "result": []
  },
  {
    "postal": "N1T2Y0",
    "result": []
  },
  {
    "postal": "N1T8X5",
    "result": []
  },
  {
    "postal": "N1T2M7",
    "result": []
  },
  {
    "postal": "N1T9Z3",
    "result": []
  },
  {
    "postal": "N1T7W2",
    "result": []
  },
  {
    "postal": "N1T3W0",
    "result": []
  },
  {
    "postal": "N1T3M1",
    "result": []
  },
  {
    "postal": "N1T6A5",
    "result": []
  },
  {
    "postal": "N1T2M9",
    "result": []
  },
  {
    "postal": "N1T5C3",
    "result": []
  },
  {
    "postal": "N1T0Y6",
    "result": []
  },
  {
    "postal": "N1T9H7",
    "result": []
  },
  {
    "postal": "N1T3L0",
    "result": []
  },
  {
    "postal": "N1T5N9",
    "result": []
  },
  {
    "postal": "N1T5E3",
    "result": []
  },
  {
    "postal": "N1T7M9",
    "result": []
  },
  {
    "postal": "N1T8N2",
    "result": []
  },
  {
    "postal": "N1T9H3",
    "result": []
  },
  {
    "postal": "N1T2K8",
    "result": [
      {
        "electoralDistricts": [
          {
            "election": null,
            "id": 16,
            "setId": 0,
            "name": "Cambridge"
          }
        ],
        "pollDivisionIds": [
          10137419
        ],
        "postalCode": "N1T2K8",
        "streetName": "THOMPSON",
        "streetDirectionId": null,
        "streetTypeId": "DR",
        "placeName": "CAMBRIDGE",
        "streetNameDisplayText": "THOMPSON DR, CAMBRIDGE"
      }
    ]
  },
  {
    "postal": "N1T9L0",
    "result": []
  },
  {
    "postal": "N1T6L9",
    "result": []
  },
  {
    "postal": "N1T6A8",
    "result": []
  },
  {
    "postal": "N1T2K6",
    "result": [
      {
        "electoralDistricts": [
          {
            "election": null,
            "id": 16,
            "setId": 0,
            "name": "Cambridge"
          }
        ],
        "pollDivisionIds": [
          10137427
        ],
        "postalCode": "N1T2K6",
        "streetName": "SENIOR",
        "streetDirectionId": null,
        "streetTypeId": "CRES",
        "placeName": "CAMBRIDGE",
        "streetNameDisplayText": "SENIOR CRES, CAMBRIDGE"
      }
    ]
  },
  {
    "postal": "N1T2M0",
    "result": []
  },
  {
    "postal": "N1T5X7",
    "result": []
  },
  {
    "postal": "N1T0M7",
    "result": []
  },
  {
    "postal": "N1T7A6",
    "result": []
  },
  {
    "postal": "N1T3C5",
    "result": []
  },
  {
    "postal": "N1T2P2",
    "result": []
  },
  {
    "postal": "N1T9N4",
    "result": []
  },
  {
    "postal": "N1T3M9",
    "result": []
  },
  {
    "postal": "N1T8K6",
    "result": []
  },
  {
    "postal": "N1T1L2",
    "result": [
      {
        "electoralDistricts": [
          {
            "election": null,
            "id": 16,
            "setId": 0,
            "name": "Cambridge"
          }
        ],
        "pollDivisionIds": [
          10137425
        ],
        "postalCode": "N1T1L2",
        "streetName": "BURNETT",
        "streetDirectionId": null,
        "streetTypeId": "AVE",
        "placeName": "CAMBRIDGE",
        "streetNameDisplayText": "BURNETT AVE, CAMBRIDGE"
      },
      {
        "electoralDistricts": [
          {
            "election": null,
            "id": 16,
            "setId": 0,
            "name": "Cambridge"
          }
        ],
        "pollDivisionIds": [
          10137425
        ],
        "postalCode": "N1T1L2",
        "streetName": "ROBSON",
        "streetDirectionId": null,
        "streetTypeId": "AVE",
        "placeName": "CAMBRIDGE",
        "streetNameDisplayText": "ROBSON AVE, CAMBRIDGE"
      }
    ]
  },
  {
    "postal": "N1T2Z9",
    "result": []
  },
  {
    "postal": "N1T2S2",
    "result": []
  },
  {
    "postal": "N1T2W2",
    "result": []
  },
  {
    "postal": "N1T2C3",
    "result": [
      {
        "electoralDistricts": [
          {
            "election": null,
            "id": 16,
            "setId": 0,
            "name": "Cambridge"
          }
        ],
        "pollDivisionIds": [
          10137463,
          10137462
        ],
        "postalCode": "N1T2C3",
        "streetName": "BROADOAKS",
        "streetDirectionId": null,
        "streetTypeId": "DR",
        "placeName": "CAMBRIDGE",
        "streetNameDisplayText": "BROADOAKS DR, CAMBRIDGE"
      },
      {
        "electoralDistricts": [
          {
            "election": null,
            "id": 16,
            "setId": 0,
            "name": "Cambridge"
          }
        ],
        "pollDivisionIds": [
          10137462
        ],
        "postalCode": "N1T2C3",
        "streetName": "MAPLE BUSH",
        "streetDirectionId": null,
        "streetTypeId": "DR",
        "placeName": "CAMBRIDGE",
        "streetNameDisplayText": "MAPLE BUSH DR, CAMBRIDGE"
      }
    ]
  },
  {
    "postal": "N1T6L7",
    "result": []
  },
  {
    "postal": "N1T3K0",
    "result": []
  },
  {
    "postal": "N1T3C1",
    "result": []
  },
  {
    "postal": "N1T6M9",
    "result": []
  },
  {
    "postal": "N1T4N9",
    "result": []
  },
  {
    "postal": "N1T3Y7",
    "result": []
  },
  {
    "postal": "N1T2A9",
    "result": [
      {
        "electoralDistricts": [
          {
            "election": null,
            "id": 16,
            "setId": 0,
            "name": "Cambridge"
          }
        ],
        "pollDivisionIds": [
          10137419
        ],
        "postalCode": "N1T2A9",
        "streetName": "FLEMING",
        "streetDirectionId": null,
        "streetTypeId": "DR",
        "placeName": "CAMBRIDGE",
        "streetNameDisplayText": "FLEMING DR, CAMBRIDGE"
      }
    ]
  },
  {
    "postal": "N1T6H5",
    "result": []
  },
  {
    "postal": "N1T8B4",
    "result": []
  },
  {
    "postal": "N1T4Z2",
    "result": []
  },
  {
    "postal": "N1T9J0",
    "result": []
  },
  {
    "postal": "N1T7V7",
    "result": []
  },
  {
    "postal": "N1T5T5",
    "result": []
  },
  {
    "postal": "N1T4W5",
    "result": []
  },
  {
    "postal": "N1T1T8",
    "result": [
      {
        "electoralDistricts": [
          {
            "election": null,
            "id": 16,
            "setId": 0,
            "name": "Cambridge"
          }
        ],
        "pollDivisionIds": [
          10137426
        ],
        "postalCode": "N1T1T8",
        "streetName": "FAIRGREEN",
        "streetDirectionId": null,
        "streetTypeId": "CLOSE",
        "placeName": "CAMBRIDGE",
        "streetNameDisplayText": "FAIRGREEN CLOSE, CAMBRIDGE"
      },
      {
        "electoralDistricts": [
          {
            "election": null,
            "id": 16,
            "setId": 0,
            "name": "Cambridge"
          }
        ],
        "pollDivisionIds": [
          10137426
        ],
        "postalCode": "N1T1T8",
        "streetName": "SAGINAW",
        "streetDirectionId": null,
        "streetTypeId": "PKY",
        "placeName": "CAMBRIDGE",
        "streetNameDisplayText": "SAGINAW PKY, CAMBRIDGE"
      }
    ]
  },
  {
    "postal": "N1T9G6",
    "result": []
  },
  {
    "postal": "N1T1H3",
    "result": [
      {
        "electoralDistricts": [
          {
            "election": null,
            "id": 16,
            "setId": 0,
            "name": "Cambridge"
          }
        ],
        "pollDivisionIds": [
          10137436
        ],
        "postalCode": "N1T1H3",
        "streetName": "CHIMNEY HILL",
        "streetDirectionId": null,
        "streetTypeId": "DR",
        "placeName": "CAMBRIDGE",
        "streetNameDisplayText": "CHIMNEY HILL DR, CAMBRIDGE"
      },
      {
        "electoralDistricts": [
          {
            "election": null,
            "id": 16,
            "setId": 0,
            "name": "Cambridge"
          }
        ],
        "pollDivisionIds": [
          10137436
        ],
        "postalCode": "N1T1H3",
        "streetName": "VANESSA",
        "streetDirectionId": null,
        "streetTypeId": "PL",
        "placeName": "CAMBRIDGE",
        "streetNameDisplayText": "VANESSA PL, CAMBRIDGE"
      }
    ]
  },
  {
    "postal": "N1T5R5",
    "result": []
  },
  {
    "postal": "N1T8A4",
    "result": []
  },
  {
    "postal": "N1T3T6",
    "result": []
  },
  {
    "postal": "N1T9W8",
    "result": []
  },
  {
    "postal": "N1T0N3",
    "result": []
  },
  {
    "postal": "N1T7V0",
    "result": []
  },
  {
    "postal": "N1T8T5",
    "result": []
  },
  {
    "postal": "N1T5N3",
    "result": []
  },
  {
    "postal": "N1T5G9",
    "result": []
  },
  {
    "postal": "N1T3X8",
    "result": []
  },
  {
    "postal": "N1T9R3",
    "result": []
  },
  {
    "postal": "N1T2S1",
    "result": []
  },
  {
    "postal": "N1T9J7",
    "result": []
  },
  {
    "postal": "N1T2J3",
    "result": [
      {
        "electoralDistricts": [
          {
            "election": null,
            "id": 115,
            "setId": 0,
            "name": "WellingtonHalton Hills"
          }
        ],
        "pollDivisionIds": [
          10142574
        ],
        "postalCode": "N1T2J3",
        "streetName": "TOWNLINE",
        "streetDirectionId": null,
        "streetTypeId": "RD",
        "placeName": "CAMBRIDGE",
        "streetNameDisplayText": "TOWNLINE RD, CAMBRIDGE"
      }
    ]
  },
  {
    "postal": "N1T3B6",
    "result": []
  },
  {
    "postal": "N1T8J0",
    "result": []
  },
  {
    "postal": "N1T7R4",
    "result": []
  },
  {
    "postal": "N1T8K8",
    "result": []
  },
  {
    "postal": "N1T4P3",
    "result": []
  },
  {
    "postal": "N1T0A2",
    "result": [
      {
        "electoralDistricts": [
          {
            "election": null,
            "id": 16,
            "setId": 0,
            "name": "Cambridge"
          }
        ],
        "pollDivisionIds": [
          10137427
        ],
        "postalCode": "N1T0A2",
        "streetName": "CAN-AMERA",
        "streetDirectionId": null,
        "streetTypeId": "PKY",
        "placeName": "CAMBRIDGE",
        "streetNameDisplayText": "CAN-AMERA PKY, CAMBRIDGE"
      }
    ]
  },
  {
    "postal": "N1T2G2",
    "result": [
      {
        "electoralDistricts": [
          {
            "election": null,
            "id": 16,
            "setId": 0,
            "name": "Cambridge"
          }
        ],
        "pollDivisionIds": [
          10137427
        ],
        "postalCode": "N1T2G2",
        "streetName": "ARTHUR FACH",
        "streetDirectionId": null,
        "streetTypeId": "DR",
        "placeName": "CAMBRIDGE",
        "streetNameDisplayText": "ARTHUR FACH DR, CAMBRIDGE"
      },
      {
        "electoralDistricts": [
          {
            "election": null,
            "id": 16,
            "setId": 0,
            "name": "Cambridge"
          }
        ],
        "pollDivisionIds": [
          10137427
        ],
        "postalCode": "N1T2G2",
        "streetName": "ARTHURFACH",
        "streetDirectionId": null,
        "streetTypeId": "DR",
        "placeName": "CAMBRIDGE",
        "streetNameDisplayText": "ARTHURFACH DR, CAMBRIDGE"
      },
      {
        "electoralDistricts": [
          {
            "election": null,
            "id": 16,
            "setId": 0,
            "name": "Cambridge"
          }
        ],
        "pollDivisionIds": [
          10137427
        ],
        "postalCode": "N1T2G2",
        "streetName": "BRAYSHAW",
        "streetDirectionId": null,
        "streetTypeId": "DR",
        "placeName": "CAMBRIDGE",
        "streetNameDisplayText": "BRAYSHAW DR, CAMBRIDGE"
      }
    ]
  },
  {
    "postal": "N1T5Y9",
    "result": []
  },
  {
    "postal": "N1T7X0",
    "result": []
  },
  {
    "postal": "N1T7W3",
    "result": []
  },
  {
    "postal": "N1T7X5",
    "result": []
  },
  {
    "postal": "N1T5K6",
    "result": []
  },
  {
    "postal": "N1T5B6",
    "result": []
  },
  {
    "postal": "N1T7Z0",
    "result": []
  },
  {
    "postal": "N1T9H6",
    "result": []
  },
  {
    "postal": "N1T1B4",
    "result": []
  },
  {
    "postal": "N1T1A0",
    "result": []
  },
  {
    "postal": "N1T9A0",
    "result": []
  },
  {
    "postal": "N1T1M6",
    "result": [
      {
        "electoralDistricts": [
          {
            "election": null,
            "id": 16,
            "setId": 0,
            "name": "Cambridge"
          }
        ],
        "pollDivisionIds": [
          10137426,
          10137427
        ],
        "postalCode": "N1T1M6",
        "streetName": "BURNETT",
        "streetDirectionId": null,
        "streetTypeId": "AVE",
        "placeName": "CAMBRIDGE",
        "streetNameDisplayText": "BURNETT AVE, CAMBRIDGE"
      },
      {
        "electoralDistricts": [
          {
            "election": null,
            "id": 16,
            "setId": 0,
            "name": "Cambridge"
          }
        ],
        "pollDivisionIds": [
          10137426,
          10137427
        ],
        "postalCode": "N1T1M6",
        "streetName": "SAGINAW",
        "streetDirectionId": null,
        "streetTypeId": "PKY",
        "placeName": "CAMBRIDGE",
        "streetNameDisplayText": "SAGINAW PKY, CAMBRIDGE"
      }
    ]
  },
  {
    "postal": "N1T5H0",
    "result": []
  },
  {
    "postal": "N1T1K6",
    "result": [
      {
        "electoralDistricts": [
          {
            "election": null,
            "id": 16,
            "setId": 0,
            "name": "Cambridge"
          }
        ],
        "pollDivisionIds": [
          10137419,
          10137443
        ],
        "postalCode": "N1T1K6",
        "streetName": "TURNBULL",
        "streetDirectionId": null,
        "streetTypeId": "CRT",
        "placeName": "CAMBRIDGE",
        "streetNameDisplayText": "TURNBULL CRT, CAMBRIDGE"
      }
    ]
  },
  {
    "postal": "N1T5E1",
    "result": []
  },
  {
    "postal": "N1T3T9",
    "result": []
  },
  {
    "postal": "N1T2M6",
    "result": []
  },
  {
    "postal": "N1T0G5",
    "result": []
  },
  {
    "postal": "N1T0Y2",
    "result": []
  },
  {
    "postal": "N1T2Y7",
    "result": []
  },
  {
    "postal": "N1T2J7",
    "result": []
  },
  {
    "postal": "N1T4K7",
    "result": []
  },
  {
    "postal": "N1T7P9",
    "result": []
  },
  {
    "postal": "N1T8X0",
    "result": []
  },
  {
    "postal": "N1T3X1",
    "result": []
  },
  {
    "postal": "N1T1R5",
    "result": [
      {
        "electoralDistricts": [
          {
            "election": null,
            "id": 16,
            "setId": 0,
            "name": "Cambridge"
          }
        ],
        "pollDivisionIds": [
          10137427
        ],
        "postalCode": "N1T1R5",
        "streetName": "MIDDLEMISS",
        "streetDirectionId": null,
        "streetTypeId": "CRES",
        "placeName": "CAMBRIDGE",
        "streetNameDisplayText": "MIDDLEMISS CRES, CAMBRIDGE"
      }
    ]
  },
  {
    "postal": "N1T6X6",
    "result": []
  },
  {
    "postal": "N1T0Y1",
    "result": []
  },
  {
    "postal": "N1T8G1",
    "result": []
  },
  {
    "postal": "N1T3J3",
    "result": []
  },
  {
    "postal": "N1T8C2",
    "result": []
  },
  {
    "postal": "N1T4X9",
    "result": []
  },
  {
    "postal": "N1T6G9",
    "result": []
  },
  {
    "postal": "N1T4M3",
    "result": []
  },
  {
    "postal": "N1T9P7",
    "result": []
  },
  {
    "postal": "N1T4E5",
    "result": []
  },
  {
    "postal": "N1T5K9",
    "result": []
  },
  {
    "postal": "N1T2V2",
    "result": []
  },
  {
    "postal": "N1T2N9",
    "result": []
  },
  {
    "postal": "N1T6L4",
    "result": []
  },
  {
    "postal": "N1T8E0",
    "result": []
  },
  {
    "postal": "N1T0N0",
    "result": []
  },
  {
    "postal": "N1T6R0",
    "result": []
  },
  {
    "postal": "N1T9C1",
    "result": []
  },
  {
    "postal": "N1T4H4",
    "result": []
  },
  {
    "postal": "N1T5W3",
    "result": []
  },
  {
    "postal": "N1T9N9",
    "result": []
  },
  {
    "postal": "N1T1V7",
    "result": [
      {
        "electoralDistricts": [
          {
            "election": null,
            "id": 16,
            "setId": 0,
            "name": "Cambridge"
          }
        ],
        "pollDivisionIds": [
          10137427,
          10137436
        ],
        "postalCode": "N1T1V7",
        "streetName": "GRANITE HILL",
        "streetDirectionId": null,
        "streetTypeId": "RD",
        "placeName": "CAMBRIDGE",
        "streetNameDisplayText": "GRANITE HILL RD, CAMBRIDGE"
      },
      {
        "electoralDistricts": [
          {
            "election": null,
            "id": 16,
            "setId": 0,
            "name": "Cambridge"
          }
        ],
        "pollDivisionIds": [
          10137436
        ],
        "postalCode": "N1T1V7",
        "streetName": "HOLBROOK",
        "streetDirectionId": null,
        "streetTypeId": "CRES",
        "placeName": "CAMBRIDGE",
        "streetNameDisplayText": "HOLBROOK CRES, CAMBRIDGE"
      }
    ]
  },
  {
    "postal": "N1T8J1",
    "result": []
  },
  {
    "postal": "N1T5V9",
    "result": []
  },
  {
    "postal": "N1T2S8",
    "result": []
  },
  {
    "postal": "N1T6P0",
    "result": []
  },
  {
    "postal": "N1T4J8",
    "result": []
  },
  {
    "postal": "N1T0N1",
    "result": []
  },
  {
    "postal": "N1T1Y7",
    "result": [
      {
        "electoralDistricts": [
          {
            "election": null,
            "id": 16,
            "setId": 0,
            "name": "Cambridge"
          }
        ],
        "pollDivisionIds": [
          10137424
        ],
        "postalCode": "N1T1Y7",
        "streetName": "WHITTAKER",
        "streetDirectionId": null,
        "streetTypeId": "CRES",
        "placeName": "CAMBRIDGE",
        "streetNameDisplayText": "WHITTAKER CRES, CAMBRIDGE"
      }
    ]
  },
  {
    "postal": "N1T7W5",
    "result": []
  },
  {
    "postal": "N1T3Z1",
    "result": []
  },
  {
    "postal": "N1T7M6",
    "result": []
  },
  {
    "postal": "N1T1W7",
    "result": [
      {
        "electoralDistricts": [
          {
            "election": null,
            "id": 16,
            "setId": 0,
            "name": "Cambridge"
          }
        ],
        "pollDivisionIds": [
          10137436
        ],
        "postalCode": "N1T1W7",
        "streetName": "DRUMLIN",
        "streetDirectionId": null,
        "streetTypeId": "DR",
        "placeName": "CAMBRIDGE",
        "streetNameDisplayText": "DRUMLIN DR, CAMBRIDGE"
      },
      {
        "electoralDistricts": [
          {
            "election": null,
            "id": 16,
            "setId": 0,
            "name": "Cambridge"
          }
        ],
        "pollDivisionIds": [
          10137436
        ],
        "postalCode": "N1T1W7",
        "streetName": "HAHN VALLEY",
        "streetDirectionId": null,
        "streetTypeId": "PL",
        "placeName": "CAMBRIDGE",
        "streetNameDisplayText": "HAHN VALLEY PL, CAMBRIDGE"
      }
    ]
  },
  {
    "postal": "N1T1X1",
    "result": [
      {
        "electoralDistricts": [
          {
            "election": null,
            "id": 16,
            "setId": 0,
            "name": "Cambridge"
          }
        ],
        "pollDivisionIds": [
          10137426
        ],
        "postalCode": "N1T1X1",
        "streetName": "JADE",
        "streetDirectionId": null,
        "streetTypeId": "CRT",
        "placeName": "CAMBRIDGE",
        "streetNameDisplayText": "JADE CRT, CAMBRIDGE"
      },
      {
        "electoralDistricts": [
          {
            "election": null,
            "id": 16,
            "setId": 0,
            "name": "Cambridge"
          }
        ],
        "pollDivisionIds": [
          10137424
        ],
        "postalCode": "N1T1X1",
        "streetName": "STONECAIRN",
        "streetDirectionId": null,
        "streetTypeId": "DR",
        "placeName": "CAMBRIDGE",
        "streetNameDisplayText": "STONECAIRN DR, CAMBRIDGE"
      }
    ]
  },
  {
    "postal": "N1T0C1",
    "result": [
      {
        "electoralDistricts": [
          {
            "election": null,
            "id": 16,
            "setId": 0,
            "name": "Cambridge"
          }
        ],
        "pollDivisionIds": [
          10137427,
          10137424
        ],
        "postalCode": "N1T0C1",
        "streetName": "SAGINAW",
        "streetDirectionId": null,
        "streetTypeId": "PKY",
        "placeName": "CAMBRIDGE",
        "streetNameDisplayText": "SAGINAW PKY, CAMBRIDGE"
      }
    ]
  },
  {
    "postal": "N1T4N3",
    "result": []
  },
  {
    "postal": "N1T4S8",
    "result": []
  },
  {
    "postal": "N1T1H6",
    "result": [
      {
        "electoralDistricts": [
          {
            "election": null,
            "id": 16,
            "setId": 0,
            "name": "Cambridge"
          }
        ],
        "pollDivisionIds": [
          10137436
        ],
        "postalCode": "N1T1H6",
        "streetName": "DEERPATH",
        "streetDirectionId": null,
        "streetTypeId": "RD",
        "placeName": "CAMBRIDGE",
        "streetNameDisplayText": "DEERPATH RD, CAMBRIDGE"
      },
      {
        "electoralDistricts": [
          {
            "election": null,
            "id": 16,
            "setId": 0,
            "name": "Cambridge"
          }
        ],
        "pollDivisionIds": [
          10137436
        ],
        "postalCode": "N1T1H6",
        "streetName": "STONEBROOK",
        "streetDirectionId": null,
        "streetTypeId": "RD",
        "placeName": "CAMBRIDGE",
        "streetNameDisplayText": "STONEBROOK RD, CAMBRIDGE"
      }
    ]
  },
  {
    "postal": "N1T2Z4",
    "result": []
  },
  {
    "postal": "N1T7K3",
    "result": []
  },
  {
    "postal": "N1T8A2",
    "result": []
  },
  {
    "postal": "N1T6J1",
    "result": []
  },
  {
    "postal": "N1T5Z6",
    "result": []
  },
  {
    "postal": "N1T3Z0",
    "result": []
  },
  {
    "postal": "N1T8M0",
    "result": []
  },
  {
    "postal": "N1T1Z6",
    "result": [
      {
        "electoralDistricts": [
          {
            "election": null,
            "id": 16,
            "setId": 0,
            "name": "Cambridge"
          }
        ],
        "pollDivisionIds": [
          10137419
        ],
        "postalCode": "N1T1Z6",
        "streetName": "PINEBUSH",
        "streetDirectionId": null,
        "streetTypeId": "RD",
        "placeName": "CAMBRIDGE",
        "streetNameDisplayText": "PINEBUSH RD, CAMBRIDGE"
      }
    ]
  },
  {
    "postal": "N1T8K7",
    "result": []
  },
  {
    "postal": "N1T1N3",
    "result": [
      {
        "electoralDistricts": [
          {
            "election": null,
            "id": 16,
            "setId": 0,
            "name": "Cambridge"
          }
        ],
        "pollDivisionIds": [
          10137426
        ],
        "postalCode": "N1T1N3",
        "streetName": "HUME",
        "streetDirectionId": null,
        "streetTypeId": "DR",
        "placeName": "CAMBRIDGE",
        "streetNameDisplayText": "HUME DR, CAMBRIDGE"
      }
    ]
  },
  {
    "postal": "N1T9S2",
    "result": []
  },
  {
    "postal": "N1T2K1",
    "result": [
      {
        "electoralDistricts": [
          {
            "election": null,
            "id": 16,
            "setId": 0,
            "name": "Cambridge"
          }
        ],
        "pollDivisionIds": [
          10137419
        ],
        "postalCode": "N1T2K1",
        "streetName": "SHELDON",
        "streetDirectionId": null,
        "streetTypeId": "DR",
        "placeName": "CAMBRIDGE",
        "streetNameDisplayText": "SHELDON DR, CAMBRIDGE"
      }
    ]
  },
  {
    "postal": "N1T1E8",
    "result": [
      {
        "electoralDistricts": [
          {
            "election": null,
            "id": 16,
            "setId": 0,
            "name": "Cambridge"
          }
        ],
        "pollDivisionIds": [
          10137436
        ],
        "postalCode": "N1T1E8",
        "streetName": "BENN",
        "streetDirectionId": null,
        "streetTypeId": "DR",
        "placeName": "CAMBRIDGE",
        "streetNameDisplayText": "BENN DR, CAMBRIDGE"
      },
      {
        "electoralDistricts": [
          {
            "election": null,
            "id": 16,
            "setId": 0,
            "name": "Cambridge"
          }
        ],
        "pollDivisionIds": [
          10137436
        ],
        "postalCode": "N1T1E8",
        "streetName": "BUCHANAN",
        "streetDirectionId": null,
        "streetTypeId": "LANE",
        "placeName": "CAMBRIDGE",
        "streetNameDisplayText": "BUCHANAN LANE, CAMBRIDGE"
      },
      {
        "electoralDistricts": [
          {
            "election": null,
            "id": 16,
            "setId": 0,
            "name": "Cambridge"
          }
        ],
        "pollDivisionIds": [
          10137426
        ],
        "postalCode": "N1T1E8",
        "streetName": "BURNETT",
        "streetDirectionId": null,
        "streetTypeId": "AVE",
        "placeName": "CAMBRIDGE",
        "streetNameDisplayText": "BURNETT AVE, CAMBRIDGE"
      }
    ]
  },
  {
    "postal": "N1T9B8",
    "result": []
  },
  {
    "postal": "N1T7X4",
    "result": []
  },
  {
    "postal": "N1T1Z4",
    "result": [
      {
        "electoralDistricts": [
          {
            "election": null,
            "id": 16,
            "setId": 0,
            "name": "Cambridge"
          }
        ],
        "pollDivisionIds": [
          10137424
        ],
        "postalCode": "N1T1Z4",
        "streetName": "WHITTAKER",
        "streetDirectionId": null,
        "streetTypeId": "CRES",
        "placeName": "CAMBRIDGE",
        "streetNameDisplayText": "WHITTAKER CRES, CAMBRIDGE"
      }
    ]
  },
  {
    "postal": "N1T2C7",
    "result": [
      {
        "electoralDistricts": [
          {
            "election": null,
            "id": 16,
            "setId": 0,
            "name": "Cambridge"
          }
        ],
        "pollDivisionIds": [
          10137419
        ],
        "postalCode": "N1T2C7",
        "streetName": "LINGARD",
        "streetDirectionId": null,
        "streetTypeId": "RD",
        "placeName": "CAMBRIDGE",
        "streetNameDisplayText": "LINGARD RD, CAMBRIDGE"
      }
    ]
  },
  {
    "postal": "N1T2E7",
    "result": [
      {
        "electoralDistricts": [
          {
            "election": null,
            "id": 16,
            "setId": 0,
            "name": "Cambridge"
          }
        ],
        "pollDivisionIds": [
          10137427
        ],
        "postalCode": "N1T2E7",
        "streetName": "COULTHARD",
        "streetDirectionId": null,
        "streetTypeId": "BLVD",
        "placeName": "CAMBRIDGE",
        "streetNameDisplayText": "COULTHARD BLVD, CAMBRIDGE"
      },
      {
        "electoralDistricts": [
          {
            "election": null,
            "id": 16,
            "setId": 0,
            "name": "Cambridge"
          }
        ],
        "pollDivisionIds": [
          10137427
        ],
        "postalCode": "N1T2E7",
        "streetName": "MAYO",
        "streetDirectionId": null,
        "streetTypeId": "AVE",
        "placeName": "CAMBRIDGE",
        "streetNameDisplayText": "MAYO AVE, CAMBRIDGE"
      },
      {
        "electoralDistricts": [
          {
            "election": null,
            "id": 16,
            "setId": 0,
            "name": "Cambridge"
          }
        ],
        "pollDivisionIds": [
          10137427
        ],
        "postalCode": "N1T2E7",
        "streetName": "TOWNLINE",
        "streetDirectionId": null,
        "streetTypeId": "RD",
        "placeName": "CAMBRIDGE",
        "streetNameDisplayText": "TOWNLINE RD, CAMBRIDGE"
      }
    ]
  },
  {
    "postal": "N1T3R1",
    "result": []
  },
  {
    "postal": "N1T4K4",
    "result": []
  },
  {
    "postal": "N1T9G3",
    "result": []
  },
  {
    "postal": "N1T6C9",
    "result": []
  },
  {
    "postal": "N1T9H5",
    "result": []
  },
  {
    "postal": "N1T1P5",
    "result": [
      {
        "electoralDistricts": [
          {
            "election": null,
            "id": 16,
            "setId": 0,
            "name": "Cambridge"
          }
        ],
        "pollDivisionIds": [
          10137436
        ],
        "postalCode": "N1T1P5",
        "streetName": "BEASLEY",
        "streetDirectionId": null,
        "streetTypeId": "CRES",
        "placeName": "CAMBRIDGE",
        "streetNameDisplayText": "BEASLEY CRES, CAMBRIDGE"
      }
    ]
  },
  {
    "postal": "N1T2J5",
    "result": [
      {
        "electoralDistricts": [
          {
            "election": null,
            "id": 16,
            "setId": 0,
            "name": "Cambridge"
          }
        ],
        "pollDivisionIds": [
          10137427
        ],
        "postalCode": "N1T2J5",
        "streetName": "COULTHARD",
        "streetDirectionId": null,
        "streetTypeId": "BLVD",
        "placeName": "CAMBRIDGE",
        "streetNameDisplayText": "COULTHARD BLVD, CAMBRIDGE"
      }
    ]
  },
  {
    "postal": "N1T4W6",
    "result": []
  },
  {
    "postal": "N1T8M8",
    "result": []
  },
  {
    "postal": "N1T6C5",
    "result": []
  },
  {
    "postal": "N1T9H0",
    "result": []
  },
  {
    "postal": "N1T1X8",
    "result": [
      {
        "electoralDistricts": [
          {
            "election": null,
            "id": 16,
            "setId": 0,
            "name": "Cambridge"
          }
        ],
        "pollDivisionIds": [
          10137424
        ],
        "postalCode": "N1T1X8",
        "streetName": "CRAWFORD",
        "streetDirectionId": null,
        "streetTypeId": "CRES",
        "placeName": "CAMBRIDGE",
        "streetNameDisplayText": "CRAWFORD CRES, CAMBRIDGE"
      },
      {
        "electoralDistricts": [
          {
            "election": null,
            "id": 16,
            "setId": 0,
            "name": "Cambridge"
          }
        ],
        "pollDivisionIds": [
          10137424
        ],
        "postalCode": "N1T1X8",
        "streetName": "GREEN VISTA",
        "streetDirectionId": null,
        "streetTypeId": "DR",
        "placeName": "CAMBRIDGE",
        "streetNameDisplayText": "GREEN VISTA DR, CAMBRIDGE"
      }
    ]
  },
  {
    "postal": "N1T3H4",
    "result": []
  },
  {
    "postal": "N1T4E7",
    "result": []
  },
  {
    "postal": "N1T8A0",
    "result": []
  },
  {
    "postal": "N1T1Z7",
    "result": [
      {
        "electoralDistricts": [
          {
            "election": null,
            "id": 16,
            "setId": 0,
            "name": "Cambridge"
          }
        ],
        "pollDivisionIds": [
          10137427,
          10137426
        ],
        "postalCode": "N1T1Z7",
        "streetName": "COUNTRY CLUB",
        "streetDirectionId": null,
        "streetTypeId": "DR",
        "placeName": "CAMBRIDGE",
        "streetNameDisplayText": "COUNTRY CLUB DR, CAMBRIDGE"
      },
      {
        "electoralDistricts": [
          {
            "election": null,
            "id": 16,
            "setId": 0,
            "name": "Cambridge"
          }
        ],
        "pollDivisionIds": [
          10137427
        ],
        "postalCode": "N1T1Z7",
        "streetName": "HAWKINS",
        "streetDirectionId": null,
        "streetTypeId": "DR",
        "placeName": "CAMBRIDGE",
        "streetNameDisplayText": "HAWKINS DR, CAMBRIDGE"
      }
    ]
  },
  {
    "postal": "N1T7Z3",
    "result": []
  },
  {
    "postal": "N1T0L7",
    "result": []
  },
  {
    "postal": "N1T2C6",
    "result": [
      {
        "electoralDistricts": [
          {
            "election": null,
            "id": 16,
            "setId": 0,
            "name": "Cambridge"
          }
        ],
        "pollDivisionIds": [
          10137462
        ],
        "postalCode": "N1T2C6",
        "streetName": "CRITCHER",
        "streetDirectionId": null,
        "streetTypeId": "AVE",
        "placeName": "CAMBRIDGE",
        "streetNameDisplayText": "CRITCHER AVE, CAMBRIDGE"
      },
      {
        "electoralDistricts": [
          {
            "election": null,
            "id": 16,
            "setId": 0,
            "name": "Cambridge"
          }
        ],
        "pollDivisionIds": [
          10137462
        ],
        "postalCode": "N1T2C6",
        "streetName": "FERNCLIFFE",
        "streetDirectionId": null,
        "streetTypeId": "ST",
        "placeName": "CAMBRIDGE",
        "streetNameDisplayText": "FERNCLIFFE ST, CAMBRIDGE"
      },
      {
        "electoralDistricts": [
          {
            "election": null,
            "id": 16,
            "setId": 0,
            "name": "Cambridge"
          }
        ],
        "pollDivisionIds": [
          10137445,
          10137462
        ],
        "postalCode": "N1T2C6",
        "streetName": "MAPLE BUSH",
        "streetDirectionId": null,
        "streetTypeId": "DR",
        "placeName": "CAMBRIDGE",
        "streetNameDisplayText": "MAPLE BUSH DR, CAMBRIDGE"
      }
    ]
  },
  {
    "postal": "N1T6M3",
    "result": []
  },
  {
    "postal": "N1T2J1",
    "result": [
      {
        "electoralDistricts": [
          {
            "election": null,
            "id": 16,
            "setId": 0,
            "name": "Cambridge"
          }
        ],
        "pollDivisionIds": [
          10137427
        ],
        "postalCode": "N1T2J1",
        "streetName": "COTTONWOOD",
        "streetDirectionId": null,
        "streetTypeId": "CRES",
        "placeName": "CAMBRIDGE",
        "streetNameDisplayText": "COTTONWOOD CRES, CAMBRIDGE"
      },
      {
        "electoralDistricts": [
          {
            "election": null,
            "id": 16,
            "setId": 0,
            "name": "Cambridge"
          }
        ],
        "pollDivisionIds": [
          10137427
        ],
        "postalCode": "N1T2J1",
        "streetName": "GRANITE HILL",
        "streetDirectionId": null,
        "streetTypeId": "RD",
        "placeName": "CAMBRIDGE",
        "streetNameDisplayText": "GRANITE HILL RD, CAMBRIDGE"
      },
      {
        "electoralDistricts": [
          {
            "election": null,
            "id": 16,
            "setId": 0,
            "name": "Cambridge"
          }
        ],
        "pollDivisionIds": [
          10137427
        ],
        "postalCode": "N1T2J1",
        "streetName": "SAGINAW",
        "streetDirectionId": null,
        "streetTypeId": "PKY",
        "placeName": "CAMBRIDGE",
        "streetNameDisplayText": "SAGINAW PKY, CAMBRIDGE"
      }
    ]
  },
  {
    "postal": "N1T3E3",
    "result": []
  },
  {
    "postal": "N1T6Z9",
    "result": []
  },
  {
    "postal": "N1T3M3",
    "result": []
  },
  {
    "postal": "N1T9B1",
    "result": []
  },
  {
    "postal": "N1T9J5",
    "result": []
  },
  {
    "postal": "N1T4V8",
    "result": []
  },
  {
    "postal": "N1T6W2",
    "result": []
  },
  {
    "postal": "N1T0V5",
    "result": []
  },
  {
    "postal": "N1T0Z8",
    "result": []
  },
  {
    "postal": "N1T5G2",
    "result": []
  },
  {
    "postal": "N1T4N4",
    "result": []
  },
  {
    "postal": "N1T8G7",
    "result": []
  },
  {
    "postal": "N1T8W1",
    "result": []
  },
  {
    "postal": "N1T1S6",
    "result": [
      {
        "electoralDistricts": [
          {
            "election": null,
            "id": 16,
            "setId": 0,
            "name": "Cambridge"
          }
        ],
        "pollDivisionIds": [
          10137446
        ],
        "postalCode": "N1T1S6",
        "streetName": "SAVAGE",
        "streetDirectionId": null,
        "streetTypeId": "DR",
        "placeName": "CAMBRIDGE",
        "streetNameDisplayText": "SAVAGE DR, CAMBRIDGE"
      }
    ]
  },
  {
    "postal": "N1T4E0",
    "result": []
  },
  {
    "postal": "N1T4L9",
    "result": []
  },
  {
    "postal": "N1T5Z9",
    "result": []
  },
  {
    "postal": "N1T5V3",
    "result": []
  },
  {
    "postal": "N1T4V2",
    "result": []
  },
  {
    "postal": "N1T7C0",
    "result": []
  },
  {
    "postal": "N1T6L0",
    "result": []
  },
  {
    "postal": "N1T1S9",
    "result": [
      {
        "electoralDistricts": [
          {
            "election": null,
            "id": 16,
            "setId": 0,
            "name": "Cambridge"
          }
        ],
        "pollDivisionIds": [
          10137446
        ],
        "postalCode": "N1T1S9",
        "streetName": "DOBBIE",
        "streetDirectionId": null,
        "streetTypeId": "DR",
        "placeName": "CAMBRIDGE",
        "streetNameDisplayText": "DOBBIE DR, CAMBRIDGE"
      }
    ]
  },
  {
    "postal": "N1T7R6",
    "result": []
  },
  {
    "postal": "N1T7J0",
    "result": []
  },
  {
    "postal": "N1T5M0",
    "result": []
  },
  {
    "postal": "N1T2E5",
    "result": [
      {
        "electoralDistricts": [
          {
            "election": null,
            "id": 16,
            "setId": 0,
            "name": "Cambridge"
          }
        ],
        "pollDivisionIds": [
          10137419
        ],
        "postalCode": "N1T2E5",
        "streetName": "THOMPSON",
        "streetDirectionId": null,
        "streetTypeId": "DR",
        "placeName": "CAMBRIDGE",
        "streetNameDisplayText": "THOMPSON DR, CAMBRIDGE"
      }
    ]
  },
  {
    "postal": "N1T7C7",
    "result": []
  },
  {
    "postal": "N1T5C0",
    "result": []
  },
  {
    "postal": "N1T8V9",
    "result": []
  },
  {
    "postal": "N1T7E0",
    "result": []
  },
  {
    "postal": "N1T6R4",
    "result": []
  },
  {
    "postal": "N1T3Z7",
    "result": []
  },
  {
    "postal": "N1T1J9",
    "result": [
      {
        "electoralDistricts": [
          {
            "election": null,
            "id": 16,
            "setId": 0,
            "name": "Cambridge"
          }
        ],
        "pollDivisionIds": [
          10137436
        ],
        "postalCode": "N1T1J9",
        "streetName": "BEASLEY",
        "streetDirectionId": null,
        "streetTypeId": "CRES",
        "placeName": "CAMBRIDGE",
        "streetNameDisplayText": "BEASLEY CRES, CAMBRIDGE"
      }
    ]
  },
  {
    "postal": "N1T7K6",
    "result": []
  },
  {
    "postal": "N1T7Y5",
    "result": []
  },
  {
    "postal": "N1T1B7",
    "result": []
  },
  {
    "postal": "N1T4S9",
    "result": []
  },
  {
    "postal": "N1T9R9",
    "result": []
  },
  {
    "postal": "N1T5K7",
    "result": []
  },
  {
    "postal": "N1T6P2",
    "result": []
  },
  {
    "postal": "N1T2C5",
    "result": [
      {
        "electoralDistricts": [
          {
            "election": null,
            "id": 16,
            "setId": 0,
            "name": "Cambridge"
          }
        ],
        "pollDivisionIds": [
          10137462
        ],
        "postalCode": "N1T2C5",
        "streetName": "CRITCHER",
        "streetDirectionId": null,
        "streetTypeId": "AVE",
        "placeName": "CAMBRIDGE",
        "streetNameDisplayText": "CRITCHER AVE, CAMBRIDGE"
      },
      {
        "electoralDistricts": [
          {
            "election": null,
            "id": 16,
            "setId": 0,
            "name": "Cambridge"
          }
        ],
        "pollDivisionIds": [
          10137462
        ],
        "postalCode": "N1T2C5",
        "streetName": "GREEN GATE",
        "streetDirectionId": null,
        "streetTypeId": "BLVD",
        "placeName": "CAMBRIDGE",
        "streetNameDisplayText": "GREEN GATE BLVD, CAMBRIDGE"
      }
    ]
  },
  {
    "postal": "N1T2N0",
    "result": []
  },
  {
    "postal": "N1T1G0",
    "result": []
  },
  {
    "postal": "N1T4K5",
    "result": []
  },
  {
    "postal": "N1T9B5",
    "result": []
  },
  {
    "postal": "N1T6T5",
    "result": []
  },
  {
    "postal": "N1T1N8",
    "result": [
      {
        "electoralDistricts": [
          {
            "election": null,
            "id": 16,
            "setId": 0,
            "name": "Cambridge"
          }
        ],
        "pollDivisionIds": [
          10137427
        ],
        "postalCode": "N1T1N8",
        "streetName": "GLENVALLEY",
        "streetDirectionId": null,
        "streetTypeId": "DR",
        "placeName": "CAMBRIDGE",
        "streetNameDisplayText": "GLENVALLEY DR, CAMBRIDGE"
      }
    ]
  },
  {
    "postal": "N1T0C0",
    "result": []
  },
  {
    "postal": "N1T0R9",
    "result": []
  },
  {
    "postal": "N1T7L1",
    "result": []
  },
  {
    "postal": "N1T3Y8",
    "result": []
  },
  {
    "postal": "N1T7X9",
    "result": []
  },
  {
    "postal": "N1T1A7",
    "result": [
      {
        "electoralDistricts": [
          {
            "election": null,
            "id": 16,
            "setId": 0,
            "name": "Cambridge"
          }
        ],
        "pollDivisionIds": [
          10137419
        ],
        "postalCode": "N1T1A7",
        "streetName": "SHELDON",
        "streetDirectionId": null,
        "streetTypeId": "DR",
        "placeName": "CAMBRIDGE",
        "streetNameDisplayText": "SHELDON DR, CAMBRIDGE"
      }
    ]
  },
  {
    "postal": "N1T2T9",
    "result": []
  },
  {
    "postal": "N1T2E6",
    "result": [
      {
        "electoralDistricts": [
          {
            "election": null,
            "id": 16,
            "setId": 0,
            "name": "Cambridge"
          }
        ],
        "pollDivisionIds": [
          10137427
        ],
        "postalCode": "N1T2E6",
        "streetName": "BURNETT",
        "streetDirectionId": null,
        "streetTypeId": "AVE",
        "placeName": "CAMBRIDGE",
        "streetNameDisplayText": "BURNETT AVE, CAMBRIDGE"
      }
    ]
  },
  {
    "postal": "N1T8Y1",
    "result": []
  },
  {
    "postal": "N1T0J5",
    "result": []
  },
  {
    "postal": "N1T4J1",
    "result": []
  },
  {
    "postal": "N1T1A5",
    "result": [
      {
        "electoralDistricts": [
          {
            "election": null,
            "id": 16,
            "setId": 0,
            "name": "Cambridge"
          }
        ],
        "pollDivisionIds": [
          10137419
        ],
        "postalCode": "N1T1A5",
        "streetName": "BALMORAL",
        "streetDirectionId": null,
        "streetTypeId": "RD",
        "placeName": "CAMBRIDGE",
        "streetNameDisplayText": "BALMORAL RD, CAMBRIDGE"
      }
    ]
  },
  {
    "postal": "N1T6Z6",
    "result": []
  },
  {
    "postal": "N1T5K4",
    "result": []
  },
  {
    "postal": "N1T7R9",
    "result": []
  },
  {
    "postal": "N1T6G4",
    "result": []
  }
]
