[
  {
    "postal": "M4E9J6",
    "result": []
  },
  {
    "postal": "M4E9Z5",
    "result": []
  },
  {
    "postal": "M4E7H8",
    "result": []
  },
  {
    "postal": "M4E0P6",
    "result": []
  },
  {
    "postal": "M4E0S7",
    "result": []
  },
  {
    "postal": "M4E8B9",
    "result": []
  },
  {
    "postal": "M4E2A6",
    "result": [
      {
        "electoralDistricts": [
          {
            "election": null,
            "id": 7,
            "name": "Beaches—East York"
          }
        ],
        "pollDivisionIds": [
          10137051
        ],
        "postalCode": "M4E2A6",
        "streetName": "SWANWICK",
        "streetDirectionId": null,
        "streetTypeId": "AVE",
        "placeName": "TORONTO",
        "streetNameDisplayText": "SWANWICK AVE, TORONTO"
      }
    ]
  },
  {
    "postal": "M4E7V2",
    "result": []
  },
  {
    "postal": "M4E9P4",
    "result": []
  },
  {
    "postal": "M4E6G0",
    "result": []
  },
  {
    "postal": "M4E2K0",
    "result": []
  },
  {
    "postal": "M4E7N6",
    "result": []
  },
  {
    "postal": "M4E5R3",
    "result": []
  },
  {
    "postal": "M4E7K0",
    "result": []
  },
  {
    "postal": "M4E3R2",
    "result": [
      {
        "electoralDistricts": [
          {
            "election": null,
            "id": 7,
            "name": "Beaches—East York"
          }
        ],
        "pollDivisionIds": [
          10137051
        ],
        "postalCode": "M4E3R2",
        "streetName": "BINGHAM",
        "streetDirectionId": null,
        "streetTypeId": "AVE",
        "placeName": "TORONTO",
        "streetNameDisplayText": "BINGHAM AVE, TORONTO"
      }
    ]
  },
  {
    "postal": "M4E0J1",
    "result": []
  },
  {
    "postal": "M4E0B0",
    "result": []
  },
  {
    "postal": "M4E5Z2",
    "result": []
  },
  {
    "postal": "M4E7P3",
    "result": []
  },
  {
    "postal": "M4E2K3",
    "result": [
      {
        "electoralDistricts": [
          {
            "election": null,
            "id": 7,
            "name": "Beaches—East York"
          }
        ],
        "pollDivisionIds": [
          10137054
        ],
        "postalCode": "M4E2K3",
        "streetName": "GOLFVIEW",
        "streetDirectionId": null,
        "streetTypeId": "AVE",
        "placeName": "TORONTO",
        "streetNameDisplayText": "GOLFVIEW AVE, TORONTO"
      }
    ]
  },
  {
    "postal": "M4E7Y6",
    "result": []
  },
  {
    "postal": "M4E1L9",
    "result": [
      {
        "electoralDistricts": [
          {
            "election": null,
            "id": 7,
            "name": "Beaches—East York"
          }
        ],
        "pollDivisionIds": [
          10137060
        ],
        "postalCode": "M4E1L9",
        "streetName": "PINE",
        "streetDirectionId": null,
        "streetTypeId": "AVE",
        "placeName": "TORONTO",
        "streetNameDisplayText": "PINE AVE, TORONTO"
      }
    ]
  },
  {
    "postal": "M4E8T0",
    "result": []
  },
  {
    "postal": "M4E3K8",
    "result": [
      {
        "electoralDistricts": [
          {
            "election": null,
            "id": 7,
            "name": "Beaches—East York"
          }
        ],
        "pollDivisionIds": [
          10137060
        ],
        "postalCode": "M4E3K8",
        "streetName": "SILVER BIRCH",
        "streetDirectionId": null,
        "streetTypeId": "AVE",
        "placeName": "TORONTO",
        "streetNameDisplayText": "SILVER BIRCH AVE, TORONTO"
      }
    ]
  },
  {
    "postal": "M4E5W9",
    "result": []
  },
  {
    "postal": "M4E6T9",
    "result": []
  },
  {
    "postal": "M4E4H1",
    "result": []
  },
  {
    "postal": "M4E7A2",
    "result": []
  },
  {
    "postal": "M4E5G0",
    "result": []
  },
  {
    "postal": "M4E8V5",
    "result": []
  },
  {
    "postal": "M4E2Y8",
    "result": [
      {
        "electoralDistricts": [
          {
            "election": null,
            "id": 7,
            "name": "Beaches—East York"
          }
        ],
        "pollDivisionIds": [
          10137058
        ],
        "postalCode": "M4E2Y8",
        "streetName": "WINTHORPE",
        "streetDirectionId": null,
        "streetTypeId": "RD",
        "placeName": "TORONTO",
        "streetNameDisplayText": "WINTHORPE RD, TORONTO"
      }
    ]
  },
  {
    "postal": "M4E2B6",
    "result": [
      {
        "electoralDistricts": [
          {
            "election": null,
            "id": 7,
            "name": "Beaches—East York"
          }
        ],
        "pollDivisionIds": [
          10137050
        ],
        "postalCode": "M4E2B6",
        "streetName": "GERRARD",
        "streetDirectionId": "E",
        "streetTypeId": "ST",
        "placeName": "TORONTO",
        "streetNameDisplayText": "GERRARD ST E, TORONTO"
      }
    ]
  },
  {
    "postal": "M4E4W8",
    "result": []
  },
  {
    "postal": "M4E8H7",
    "result": []
  },
  {
    "postal": "M4E5P1",
    "result": []
  },
  {
    "postal": "M4E2B8",
    "result": [
      {
        "electoralDistricts": [
          {
            "election": null,
            "id": 7,
            "name": "Beaches—East York"
          }
        ],
        "pollDivisionIds": [
          10137050
        ],
        "postalCode": "M4E2B8",
        "streetName": "GERRARD",
        "streetDirectionId": "E",
        "streetTypeId": "ST",
        "placeName": "TORONTO",
        "streetNameDisplayText": "GERRARD ST E, TORONTO"
      }
    ]
  },
  {
    "postal": "M4E0P2",
    "result": []
  },
  {
    "postal": "M4E9M1",
    "result": []
  },
  {
    "postal": "M4E3G0",
    "result": []
  },
  {
    "postal": "M4E9Z2",
    "result": []
  },
  {
    "postal": "M4E2A0",
    "result": []
  },
  {
    "postal": "M4E6Y0",
    "result": []
  },
  {
    "postal": "M4E2Z8",
    "result": [
      {
        "electoralDistricts": [
          {
            "election": null,
            "id": 7,
            "name": "Beaches—East York"
          }
        ],
        "pollDivisionIds": [
          10137060
        ],
        "postalCode": "M4E2Z8",
        "streetName": "MACLEAN",
        "streetDirectionId": null,
        "streetTypeId": "AVE",
        "placeName": "TORONTO",
        "streetNameDisplayText": "MACLEAN AVE, TORONTO"
      }
    ]
  },
  {
    "postal": "M4E7Y3",
    "result": []
  },
  {
    "postal": "M4E6Z5",
    "result": []
  },
  {
    "postal": "M4E6E0",
    "result": []
  },
  {
    "postal": "M4E9B7",
    "result": []
  },
  {
    "postal": "M4E9S5",
    "result": []
  },
  {
    "postal": "M4E3X3",
    "result": [
      {
        "electoralDistricts": [
          {
            "election": null,
            "id": 7,
            "name": "Beaches—East York"
          }
        ],
        "pollDivisionIds": [
          10137051
        ],
        "postalCode": "M4E3X3",
        "streetName": "CROSSOVERS",
        "streetDirectionId": null,
        "streetTypeId": "ST",
        "placeName": "TORONTO",
        "streetNameDisplayText": "CROSSOVERS ST, TORONTO"
      }
    ]
  },
  {
    "postal": "M4E7R5",
    "result": []
  },
  {
    "postal": "M4E2X3",
    "result": [
      {
        "electoralDistricts": [
          {
            "election": null,
            "id": 7,
            "name": "Beaches—East York"
          }
        ],
        "pollDivisionIds": [
          10137057
        ],
        "postalCode": "M4E2X3",
        "streetName": "GLEN MANOR",
        "streetDirectionId": null,
        "streetTypeId": "DR",
        "placeName": "TORONTO",
        "streetNameDisplayText": "GLEN MANOR DR, TORONTO"
      }
    ]
  },
  {
    "postal": "M4E8Z9",
    "result": []
  },
  {
    "postal": "M4E0N4",
    "result": []
  },
  {
    "postal": "M4E1K1",
    "result": [
      {
        "electoralDistricts": [
          {
            "election": null,
            "id": 7,
            "name": "Beaches—East York"
          }
        ],
        "pollDivisionIds": [
          10137060
        ],
        "postalCode": "M4E1K1",
        "streetName": "CEDAR",
        "streetDirectionId": null,
        "streetTypeId": "AVE",
        "placeName": "TORONTO",
        "streetNameDisplayText": "CEDAR AVE, TORONTO"
      }
    ]
  },
  {
    "postal": "M4E1S3",
    "result": [
      {
        "electoralDistricts": [
          {
            "election": null,
            "id": 7,
            "name": "Beaches—East York"
          }
        ],
        "pollDivisionIds": [
          10137051
        ],
        "postalCode": "M4E1S3",
        "streetName": "KINGSTON",
        "streetDirectionId": null,
        "streetTypeId": "RD",
        "placeName": "TORONTO",
        "streetNameDisplayText": "KINGSTON RD, TORONTO"
      }
    ]
  },
  {
    "postal": "M4E6M4",
    "result": []
  },
  {
    "postal": "M4E9A9",
    "result": []
  },
  {
    "postal": "M4E9Z9",
    "result": []
  },
  {
    "postal": "M4E6T4",
    "result": []
  },
  {
    "postal": "M4E0B2",
    "result": [
      {
        "electoralDistricts": [
          {
            "election": null,
            "id": 7,
            "name": "Beaches—East York"
          }
        ],
        "pollDivisionIds": [
          10137051
        ],
        "postalCode": "M4E0B2",
        "streetName": "CARNAHAN",
        "streetDirectionId": null,
        "streetTypeId": "TERR",
        "placeName": "TORONTO",
        "streetNameDisplayText": "CARNAHAN TERR, TORONTO"
      }
    ]
  },
  {
    "postal": "M4E2L9",
    "result": [
      {
        "electoralDistricts": [
          {
            "election": null,
            "id": 7,
            "name": "Beaches—East York"
          }
        ],
        "pollDivisionIds": [
          10137054
        ],
        "postalCode": "M4E2L9",
        "streetName": "BROOKSIDE",
        "streetDirectionId": null,
        "streetTypeId": "DR",
        "placeName": "TORONTO",
        "streetNameDisplayText": "BROOKSIDE DR, TORONTO"
      }
    ]
  },
  {
    "postal": "M4E8K9",
    "result": []
  },
  {
    "postal": "M4E2H9",
    "result": [
      {
        "electoralDistricts": [
          {
            "election": null,
            "id": 7,
            "name": "Beaches—East York"
          }
        ],
        "pollDivisionIds": [
          10137054
        ],
        "postalCode": "M4E2H9",
        "streetName": "WOODBINE",
        "streetDirectionId": null,
        "streetTypeId": "AVE",
        "placeName": "TORONTO",
        "streetNameDisplayText": "WOODBINE AVE, TORONTO"
      }
    ]
  },
  {
    "postal": "M4E3Z6",
    "result": []
  },
  {
    "postal": "M4E3B0",
    "result": []
  },
  {
    "postal": "M4E2H8",
    "result": [
      {
        "electoralDistricts": [
          {
            "election": null,
            "id": 7,
            "name": "Beaches—East York"
          }
        ],
        "pollDivisionIds": [
          10137053
        ],
        "postalCode": "M4E2H8",
        "streetName": "WOODBINE",
        "streetDirectionId": null,
        "streetTypeId": "AVE",
        "placeName": "TORONTO",
        "streetNameDisplayText": "WOODBINE AVE, TORONTO"
      }
    ]
  },
  {
    "postal": "M4E3X2",
    "result": [
      {
        "electoralDistricts": [
          {
            "election": null,
            "id": 7,
            "name": "Beaches—East York"
          }
        ],
        "pollDivisionIds": [
          10137051
        ],
        "postalCode": "M4E3X2",
        "streetName": "CROSSOVERS",
        "streetDirectionId": null,
        "streetTypeId": "ST",
        "placeName": "TORONTO",
        "streetNameDisplayText": "CROSSOVERS ST, TORONTO"
      }
    ]
  },
  {
    "postal": "M4E2E9",
    "result": [
      {
        "electoralDistricts": [
          {
            "election": null,
            "id": 7,
            "name": "Beaches—East York"
          }
        ],
        "pollDivisionIds": [
          10137051
        ],
        "postalCode": "M4E2E9",
        "streetName": "GERRARD",
        "streetDirectionId": "E",
        "streetTypeId": "ST",
        "placeName": "TORONTO",
        "streetNameDisplayText": "GERRARD ST E, TORONTO"
      }
    ]
  },
  {
    "postal": "M4E9P6",
    "result": []
  },
  {
    "postal": "M4E9E2",
    "result": []
  },
  {
    "postal": "M4E9H2",
    "result": []
  },
  {
    "postal": "M4E1S8",
    "result": [
      {
        "electoralDistricts": [
          {
            "election": null,
            "id": 7,
            "name": "Beaches—East York"
          }
        ],
        "pollDivisionIds": [
          10137059
        ],
        "postalCode": "M4E1S8",
        "streetName": "KINGSTON",
        "streetDirectionId": null,
        "streetTypeId": "RD",
        "placeName": "TORONTO",
        "streetNameDisplayText": "KINGSTON RD, TORONTO"
      }
    ]
  },
  {
    "postal": "M4E3M6",
    "result": [
      {
        "electoralDistricts": [
          {
            "election": null,
            "id": 7,
            "name": "Beaches—East York"
          }
        ],
        "pollDivisionIds": [
          10137059
        ],
        "postalCode": "M4E3M6",
        "streetName": "SCARBOROUGH",
        "streetDirectionId": null,
        "streetTypeId": "RD",
        "placeName": "TORONTO",
        "streetNameDisplayText": "SCARBOROUGH RD, TORONTO"
      }
    ]
  },
  {
    "postal": "M4E6Z8",
    "result": []
  },
  {
    "postal": "M4E4J2",
    "result": []
  },
  {
    "postal": "M4E9Y1",
    "result": []
  },
  {
    "postal": "M4E8V6",
    "result": []
  },
  {
    "postal": "M4E6B2",
    "result": []
  },
  {
    "postal": "M4E1P8",
    "result": [
      {
        "electoralDistricts": [
          {
            "election": null,
            "id": 7,
            "name": "Beaches—East York"
          }
        ],
        "pollDivisionIds": [
          10137058
        ],
        "postalCode": "M4E1P8",
        "streetName": "GLEN STEWART",
        "streetDirectionId": null,
        "streetTypeId": "AVE",
        "placeName": "TORONTO",
        "streetNameDisplayText": "GLEN STEWART AVE, TORONTO"
      }
    ]
  },
  {
    "postal": "M4E0V8",
    "result": []
  },
  {
    "postal": "M4E4Y0",
    "result": []
  },
  {
    "postal": "M4E2T4",
    "result": [
      {
        "electoralDistricts": [
          {
            "election": null,
            "id": 7,
            "name": "Beaches—East York"
          }
        ],
        "pollDivisionIds": [
          10137057
        ],
        "postalCode": "M4E2T4",
        "streetName": "WINEVA",
        "streetDirectionId": null,
        "streetTypeId": "AVE",
        "placeName": "TORONTO",
        "streetNameDisplayText": "WINEVA AVE, TORONTO"
      }
    ]
  },
  {
    "postal": "M4E2S3",
    "result": [
      {
        "electoralDistricts": [
          {
            "election": null,
            "id": 7,
            "name": "Beaches—East York"
          }
        ],
        "pollDivisionIds": [
          10137050
        ],
        "postalCode": "M4E2S3",
        "streetName": "ENDERBY",
        "streetDirectionId": null,
        "streetTypeId": "RD",
        "placeName": "TORONTO",
        "streetNameDisplayText": "ENDERBY RD, TORONTO"
      }
    ]
  },
  {
    "postal": "M4E0K0",
    "result": []
  },
  {
    "postal": "M4E5N1",
    "result": []
  },
  {
    "postal": "M4E7T0",
    "result": []
  },
  {
    "postal": "M4E9N2",
    "result": []
  },
  {
    "postal": "M4E5L1",
    "result": []
  },
  {
    "postal": "M4E7G5",
    "result": []
  },
  {
    "postal": "M4E6K2",
    "result": []
  },
  {
    "postal": "M4E6P9",
    "result": []
  },
  {
    "postal": "M4E0E6",
    "result": []
  },
  {
    "postal": "M4E8R9",
    "result": []
  },
  {
    "postal": "M4E3G9",
    "result": [
      {
        "electoralDistricts": [
          {
            "election": null,
            "id": 7,
            "name": "Beaches—East York"
          }
        ],
        "pollDivisionIds": [
          10137051
        ],
        "postalCode": "M4E3G9",
        "streetName": "HANNAFORD",
        "streetDirectionId": null,
        "streetTypeId": "ST",
        "placeName": "TORONTO",
        "streetNameDisplayText": "HANNAFORD ST, TORONTO"
      }
    ]
  },
  {
    "postal": "M4E0V7",
    "result": []
  },
  {
    "postal": "M4E2Z1",
    "result": [
      {
        "electoralDistricts": [
          {
            "election": null,
            "id": 7,
            "name": "Beaches—East York"
          }
        ],
        "pollDivisionIds": [
          10137055
        ],
        "postalCode": "M4E2Z1",
        "streetName": "WALTER",
        "streetDirectionId": null,
        "streetTypeId": "ST",
        "placeName": "TORONTO",
        "streetNameDisplayText": "WALTER ST, TORONTO"
      }
    ]
  },
  {
    "postal": "M4E7N1",
    "result": []
  },
  {
    "postal": "M4E3C6",
    "result": [
      {
        "electoralDistricts": [
          {
            "election": null,
            "id": 7,
            "name": "Beaches—East York"
          }
        ],
        "pollDivisionIds": [
          10137055
        ],
        "postalCode": "M4E3C6",
        "streetName": "WAYLAND",
        "streetDirectionId": null,
        "streetTypeId": "AVE",
        "placeName": "TORONTO",
        "streetNameDisplayText": "WAYLAND AVE, TORONTO"
      }
    ]
  },
  {
    "postal": "M4E4M1",
    "result": []
  },
  {
    "postal": "M4E9K2",
    "result": []
  },
  {
    "postal": "M4E9S6",
    "result": []
  },
  {
    "postal": "M4E4X1",
    "result": []
  },
  {
    "postal": "M4E8W2",
    "result": []
  },
  {
    "postal": "M4E7N2",
    "result": []
  },
  {
    "postal": "M4E8S3",
    "result": []
  },
  {
    "postal": "M4E4V0",
    "result": []
  },
  {
    "postal": "M4E6W4",
    "result": []
  },
  {
    "postal": "M4E5M1",
    "result": []
  },
  {
    "postal": "M4E0S4",
    "result": []
  },
  {
    "postal": "M4E5X6",
    "result": []
  },
  {
    "postal": "M4E8L5",
    "result": []
  },
  {
    "postal": "M4E5M8",
    "result": []
  },
  {
    "postal": "M4E2G3",
    "result": [
      {
        "electoralDistricts": [
          {
            "election": null,
            "id": 7,
            "name": "Beaches—East York"
          }
        ],
        "pollDivisionIds": [
          10137051
        ],
        "postalCode": "M4E2G3",
        "streetName": "GERRARD",
        "streetDirectionId": "E",
        "streetTypeId": "ST",
        "placeName": "TORONTO",
        "streetNameDisplayText": "GERRARD ST E, TORONTO"
      }
    ]
  },
  {
    "postal": "M4E8E4",
    "result": []
  },
  {
    "postal": "M4E7S9",
    "result": []
  },
  {
    "postal": "M4E1K3",
    "result": [
      {
        "electoralDistricts": [
          {
            "election": null,
            "id": 7,
            "name": "Beaches—East York"
          }
        ],
        "pollDivisionIds": [
          10137060
        ],
        "postalCode": "M4E1K3",
        "streetName": "SYCAMORE",
        "streetDirectionId": null,
        "streetTypeId": "PL",
        "placeName": "TORONTO",
        "streetNameDisplayText": "SYCAMORE PL, TORONTO"
      }
    ]
  },
  {
    "postal": "M4E4E1",
    "result": []
  },
  {
    "postal": "M4E4R2",
    "result": []
  },
  {
    "postal": "M4E6T0",
    "result": []
  },
  {
    "postal": "M4E3K5",
    "result": [
      {
        "electoralDistricts": [
          {
            "election": null,
            "id": 7,
            "name": "Beaches—East York"
          }
        ],
        "pollDivisionIds": [
          10137060
        ],
        "postalCode": "M4E3K5",
        "streetName": "WILLOW",
        "streetDirectionId": null,
        "streetTypeId": "AVE",
        "placeName": "TORONTO",
        "streetNameDisplayText": "WILLOW AVE, TORONTO"
      }
    ]
  },
  {
    "postal": "M4E3S3",
    "result": [
      {
        "electoralDistricts": [
          {
            "election": null,
            "id": 98,
            "name": "Scarborough Southwest"
          }
        ],
        "pollDivisionIds": [
          10141811
        ],
        "postalCode": "M4E3S3",
        "streetName": "VICTORIA PARK",
        "streetDirectionId": null,
        "streetTypeId": "AVE",
        "placeName": "SCARBOROUGH",
        "streetNameDisplayText": "VICTORIA PARK AVE, SCARBOROUGH"
      }
    ]
  },
  {
    "postal": "M4E3L4",
    "result": [
      {
        "electoralDistricts": [
          {
            "election": null,
            "id": 7,
            "name": "Beaches—East York"
          }
        ],
        "pollDivisionIds": [
          10137060
        ],
        "postalCode": "M4E3L4",
        "streetName": "SILVER BIRCH",
        "streetDirectionId": null,
        "streetTypeId": "AVE",
        "placeName": "TORONTO",
        "streetNameDisplayText": "SILVER BIRCH AVE, TORONTO"
      }
    ]
  },
  {
    "postal": "M4E9Y2",
    "result": []
  },
  {
    "postal": "M4E1E0",
    "result": []
  },
  {
    "postal": "M4E9A4",
    "result": []
  },
  {
    "postal": "M4E1L3",
    "result": [
      {
        "electoralDistricts": [
          {
            "election": null,
            "id": 7,
            "name": "Beaches—East York"
          }
        ],
        "pollDivisionIds": [
          10137058
        ],
        "postalCode": "M4E1L3",
        "streetName": "PINE",
        "streetDirectionId": null,
        "streetTypeId": "CRES",
        "placeName": "TORONTO",
        "streetNameDisplayText": "PINE CRES, TORONTO"
      }
    ]
  },
  {
    "postal": "M4E6N1",
    "result": []
  },
  {
    "postal": "M4E6G7",
    "result": []
  },
  {
    "postal": "M4E7W1",
    "result": []
  },
  {
    "postal": "M4E4M6",
    "result": []
  },
  {
    "postal": "M4E1K0",
    "result": []
  },
  {
    "postal": "M4E3E2",
    "result": [
      {
        "electoralDistricts": [
          {
            "election": null,
            "id": 7,
            "name": "Beaches—East York"
          }
        ],
        "pollDivisionIds": [
          10137051
        ],
        "postalCode": "M4E3E2",
        "streetName": "MALVERN",
        "streetDirectionId": null,
        "streetTypeId": "AVE",
        "placeName": "TORONTO",
        "streetNameDisplayText": "MALVERN AVE, TORONTO"
      }
    ]
  },
  {
    "postal": "M4E5H4",
    "result": []
  },
  {
    "postal": "M4E1K7",
    "result": [
      {
        "electoralDistricts": [
          {
            "election": null,
            "id": 7,
            "name": "Beaches—East York"
          }
        ],
        "pollDivisionIds": [
          10137058
        ],
        "postalCode": "M4E1K7",
        "streetName": "WILLIAMSON",
        "streetDirectionId": null,
        "streetTypeId": "RD",
        "placeName": "TORONTO",
        "streetNameDisplayText": "WILLIAMSON RD, TORONTO"
      }
    ]
  },
  {
    "postal": "M4E0H0",
    "result": []
  },
  {
    "postal": "M4E0J3",
    "result": []
  },
  {
    "postal": "M4E1X6",
    "result": [
      {
        "electoralDistricts": [
          {
            "election": null,
            "id": 7,
            "name": "Beaches—East York"
          }
        ],
        "pollDivisionIds": [
          10137054
        ],
        "postalCode": "M4E1X6",
        "streetName": "GLEN DAVIS",
        "streetDirectionId": null,
        "streetTypeId": "CRES",
        "placeName": "TORONTO",
        "streetNameDisplayText": "GLEN DAVIS CRES, TORONTO"
      }
    ]
  },
  {
    "postal": "M4E2Z6",
    "result": [
      {
        "electoralDistricts": [
          {
            "election": null,
            "id": 7,
            "name": "Beaches—East York"
          }
        ],
        "pollDivisionIds": [
          10137058
        ],
        "postalCode": "M4E2Z6",
        "streetName": "LEONARD",
        "streetDirectionId": null,
        "streetTypeId": "CIR",
        "placeName": "TORONTO",
        "streetNameDisplayText": "LEONARD CIR, TORONTO"
      }
    ]
  },
  {
    "postal": "M4E4R9",
    "result": []
  },
  {
    "postal": "M4E0W8",
    "result": []
  },
  {
    "postal": "M4E1L4",
    "result": [
      {
        "electoralDistricts": [
          {
            "election": null,
            "id": 7,
            "name": "Beaches—East York"
          }
        ],
        "pollDivisionIds": [
          10137058
        ],
        "postalCode": "M4E1L4",
        "streetName": "PINE",
        "streetDirectionId": null,
        "streetTypeId": "CRES",
        "placeName": "TORONTO",
        "streetNameDisplayText": "PINE CRES, TORONTO"
      }
    ]
  },
  {
    "postal": "M4E0C8",
    "result": []
  },
  {
    "postal": "M4E9X7",
    "result": []
  },
  {
    "postal": "M4E4T1",
    "result": []
  },
  {
    "postal": "M4E0M0",
    "result": []
  },
  {
    "postal": "M4E6A2",
    "result": []
  },
  {
    "postal": "M4E9S8",
    "result": []
  },
  {
    "postal": "M4E9T4",
    "result": []
  },
  {
    "postal": "M4E9Y4",
    "result": []
  },
  {
    "postal": "M4E6G5",
    "result": []
  },
  {
    "postal": "M4E6H9",
    "result": []
  },
  {
    "postal": "M4E2P3",
    "result": [
      {
        "electoralDistricts": [
          {
            "election": null,
            "id": 7,
            "name": "Beaches—East York"
          }
        ],
        "pollDivisionIds": [
          10137058
        ],
        "postalCode": "M4E2P3",
        "streetName": "LEE",
        "streetDirectionId": null,
        "streetTypeId": "AVE",
        "placeName": "TORONTO",
        "streetNameDisplayText": "LEE AVE, TORONTO"
      }
    ]
  },
  {
    "postal": "M4E1T6",
    "result": [
      {
        "electoralDistricts": [
          {
            "election": null,
            "id": 7,
            "name": "Beaches—East York"
          }
        ],
        "pollDivisionIds": [
          10137054
        ],
        "postalCode": "M4E1T6",
        "streetName": "HEYWORTH",
        "streetDirectionId": null,
        "streetTypeId": "CRES",
        "placeName": "TORONTO",
        "streetNameDisplayText": "HEYWORTH CRES, TORONTO"
      }
    ]
  },
  {
    "postal": "M4E4P6",
    "result": []
  },
  {
    "postal": "M4E3K1",
    "result": [
      {
        "electoralDistricts": [
          {
            "election": null,
            "id": 7,
            "name": "Beaches—East York"
          }
        ],
        "pollDivisionIds": [
          10137060
        ],
        "postalCode": "M4E3K1",
        "streetName": "WILLOW",
        "streetDirectionId": null,
        "streetTypeId": "AVE",
        "placeName": "TORONTO",
        "streetNameDisplayText": "WILLOW AVE, TORONTO"
      }
    ]
  },
  {
    "postal": "M4E6X4",
    "result": []
  },
  {
    "postal": "M4E4M8",
    "result": []
  },
  {
    "postal": "M4E2Y1",
    "result": [
      {
        "electoralDistricts": [
          {
            "election": null,
            "id": 7,
            "name": "Beaches—East York"
          }
        ],
        "pollDivisionIds": [
          10137058
        ],
        "postalCode": "M4E2Y1",
        "streetName": "GLEN MANOR",
        "streetDirectionId": "W",
        "streetTypeId": "DR",
        "placeName": "TORONTO",
        "streetNameDisplayText": "GLEN MANOR DR W, TORONTO"
      }
    ]
  },
  {
    "postal": "M4E6M1",
    "result": []
  },
  {
    "postal": "M4E5L8",
    "result": []
  },
  {
    "postal": "M4E3P6",
    "result": [
      {
        "electoralDistricts": [
          {
            "election": null,
            "id": 7,
            "name": "Beaches—East York"
          }
        ],
        "pollDivisionIds": [
          10137060
        ],
        "postalCode": "M4E3P6",
        "streetName": "NEVILLE PARK",
        "streetDirectionId": null,
        "streetTypeId": "BLVD",
        "placeName": "TORONTO",
        "streetNameDisplayText": "NEVILLE PARK BLVD, TORONTO"
      }
    ]
  },
  {
    "postal": "M4E9A5",
    "result": []
  },
  {
    "postal": "M4E7K1",
    "result": []
  },
  {
    "postal": "M4E3J4",
    "result": [
      {
        "electoralDistricts": [
          {
            "election": null,
            "id": 7,
            "name": "Beaches—East York"
          }
        ],
        "pollDivisionIds": [
          10137059
        ],
        "postalCode": "M4E3J4",
        "streetName": "BEECH",
        "streetDirectionId": null,
        "streetTypeId": "AVE",
        "placeName": "TORONTO",
        "streetNameDisplayText": "BEECH AVE, TORONTO"
      }
    ]
  },
  {
    "postal": "M4E5E7",
    "result": []
  },
  {
    "postal": "M4E3A7",
    "result": [
      {
        "electoralDistricts": [
          {
            "election": null,
            "id": 7,
            "name": "Beaches—East York"
          }
        ],
        "pollDivisionIds": [
          10137058
        ],
        "postalCode": "M4E3A7",
        "streetName": "MACLEAN",
        "streetDirectionId": null,
        "streetTypeId": "AVE",
        "placeName": "TORONTO",
        "streetNameDisplayText": "MACLEAN AVE, TORONTO"
      }
    ]
  },
  {
    "postal": "M4E1B9",
    "result": [
      {
        "electoralDistricts": [
          {
            "election": null,
            "id": 7,
            "name": "Beaches—East York"
          }
        ],
        "pollDivisionIds": [
          10137057
        ],
        "postalCode": "M4E1B9",
        "streetName": "BONFIELD",
        "streetDirectionId": null,
        "streetTypeId": "AVE",
        "placeName": "TORONTO",
        "streetNameDisplayText": "BONFIELD AVE, TORONTO"
      }
    ]
  },
  {
    "postal": "M4E9E8",
    "result": []
  },
  {
    "postal": "M4E1C9",
    "result": [
      {
        "electoralDistricts": [
          {
            "election": null,
            "id": 7,
            "name": "Beaches—East York"
          }
        ],
        "pollDivisionIds": [
          10137057
        ],
        "postalCode": "M4E1C9",
        "streetName": "QUEEN",
        "streetDirectionId": "E",
        "streetTypeId": "ST",
        "placeName": "TORONTO",
        "streetNameDisplayText": "QUEEN ST E, TORONTO"
      }
    ]
  },
  {
    "postal": "M4E3B5",
    "result": [
      {
        "electoralDistricts": [
          {
            "election": null,
            "id": 7,
            "name": "Beaches—East York"
          }
        ],
        "pollDivisionIds": [
          10137060
        ],
        "postalCode": "M4E3B5",
        "streetName": "BALSAM",
        "streetDirectionId": null,
        "streetTypeId": "AVE",
        "placeName": "TORONTO",
        "streetNameDisplayText": "BALSAM AVE, TORONTO"
      }
    ]
  },
  {
    "postal": "M4E8R0",
    "result": []
  },
  {
    "postal": "M4E3P2",
    "result": [
      {
        "electoralDistricts": [
          {
            "election": null,
            "id": 7,
            "name": "Beaches—East York"
          }
        ],
        "pollDivisionIds": [
          10137051
        ],
        "postalCode": "M4E3P2",
        "streetName": "KINGSWOOD",
        "streetDirectionId": null,
        "streetTypeId": "RD",
        "placeName": "TORONTO",
        "streetNameDisplayText": "KINGSWOOD RD, TORONTO"
      }
    ]
  },
  {
    "postal": "M4E5V4",
    "result": []
  },
  {
    "postal": "M4E4H0",
    "result": []
  },
  {
    "postal": "M4E4S7",
    "result": []
  },
  {
    "postal": "M4E6C2",
    "result": []
  },
  {
    "postal": "M4E8W3",
    "result": []
  },
  {
    "postal": "M4E4M5",
    "result": []
  },
  {
    "postal": "M4E5T1",
    "result": []
  },
  {
    "postal": "M4E3B3",
    "result": [
      {
        "electoralDistricts": [
          {
            "election": null,
            "id": 7,
            "name": "Beaches—East York"
          }
        ],
        "pollDivisionIds": [
          10137060
        ],
        "postalCode": "M4E3B3",
        "streetName": "BALSAM",
        "streetDirectionId": null,
        "streetTypeId": "AVE",
        "placeName": "TORONTO",
        "streetNameDisplayText": "BALSAM AVE, TORONTO"
      }
    ]
  },
  {
    "postal": "M4E6C6",
    "result": []
  },
  {
    "postal": "M4E7N8",
    "result": []
  },
  {
    "postal": "M4E2Y3",
    "result": [
      {
        "electoralDistricts": [
          {
            "election": null,
            "id": 7,
            "name": "Beaches—East York"
          }
        ],
        "pollDivisionIds": [
          10137058
        ],
        "postalCode": "M4E2Y3",
        "streetName": "GLEN MANOR",
        "streetDirectionId": "E",
        "streetTypeId": "DR",
        "placeName": "TORONTO",
        "streetNameDisplayText": "GLEN MANOR DR E, TORONTO"
      }
    ]
  },
  {
    "postal": "M4E2R6",
    "result": [
      {
        "electoralDistricts": [
          {
            "election": null,
            "id": 7,
            "name": "Beaches—East York"
          }
        ],
        "pollDivisionIds": [
          10137057
        ],
        "postalCode": "M4E2R6",
        "streetName": "HAMBLY",
        "streetDirectionId": null,
        "streetTypeId": "AVE",
        "placeName": "TORONTO",
        "streetNameDisplayText": "HAMBLY AVE, TORONTO"
      }
    ]
  },
  {
    "postal": "M4E7N3",
    "result": []
  },
  {
    "postal": "M4E8J2",
    "result": []
  },
  {
    "postal": "M4E6A9",
    "result": []
  },
  {
    "postal": "M4E3V2",
    "result": []
  },
  {
    "postal": "M4E2N3",
    "result": [
      {
        "electoralDistricts": [
          {
            "election": null,
            "id": 7,
            "name": "Beaches—East York"
          }
        ],
        "pollDivisionIds": [
          10137054,
          10137050
        ],
        "postalCode": "M4E2N3",
        "streetName": "GLENMOUNT PARK",
        "streetDirectionId": null,
        "streetTypeId": "RD",
        "placeName": "TORONTO",
        "streetNameDisplayText": "GLENMOUNT PARK RD, TORONTO"
      }
    ]
  },
  {
    "postal": "M4E1S5",
    "result": [
      {
        "electoralDistricts": [
          {
            "election": null,
            "id": 7,
            "name": "Beaches—East York"
          }
        ],
        "pollDivisionIds": [
          10137051
        ],
        "postalCode": "M4E1S5",
        "streetName": "KINGSTON",
        "streetDirectionId": null,
        "streetTypeId": "RD",
        "placeName": "TORONTO",
        "streetNameDisplayText": "KINGSTON RD, TORONTO"
      }
    ]
  },
  {
    "postal": "M4E4T7",
    "result": []
  },
  {
    "postal": "M4E6Y7",
    "result": []
  },
  {
    "postal": "M4E0W7",
    "result": []
  },
  {
    "postal": "M4E2W9",
    "result": [
      {
        "electoralDistricts": [
          {
            "election": null,
            "id": 7,
            "name": "Beaches—East York"
          }
        ],
        "pollDivisionIds": [
          10137057
        ],
        "postalCode": "M4E2W9",
        "streetName": "SCARBORO BEACH",
        "streetDirectionId": null,
        "streetTypeId": "BLVD",
        "placeName": "TORONTO",
        "streetNameDisplayText": "SCARBORO BEACH BLVD, TORONTO"
      }
    ]
  },
  {
    "postal": "M4E8V0",
    "result": []
  },
  {
    "postal": "M4E0H4",
    "result": []
  },
  {
    "postal": "M4E2T1",
    "result": [
      {
        "electoralDistricts": [
          {
            "election": null,
            "id": 7,
            "name": "Beaches—East York"
          }
        ],
        "pollDivisionIds": [
          10137057
        ],
        "postalCode": "M4E2T1",
        "streetName": "WINEVA",
        "streetDirectionId": null,
        "streetTypeId": "AVE",
        "placeName": "TORONTO",
        "streetNameDisplayText": "WINEVA AVE, TORONTO"
      }
    ]
  },
  {
    "postal": "M4E1B1",
    "result": [
      {
        "electoralDistricts": [
          {
            "election": null,
            "id": 7,
            "name": "Beaches—East York"
          }
        ],
        "pollDivisionIds": [
          10137057
        ],
        "postalCode": "M4E1B1",
        "streetName": "VIOLET",
        "streetDirectionId": null,
        "streetTypeId": "AVE",
        "placeName": "TORONTO",
        "streetNameDisplayText": "VIOLET AVE, TORONTO"
      }
    ]
  },
  {
    "postal": "M4E8B6",
    "result": []
  },
  {
    "postal": "M4E6H1",
    "result": []
  },
  {
    "postal": "M4E8T8",
    "result": []
  },
  {
    "postal": "M4E0T4",
    "result": []
  },
  {
    "postal": "M4E2C4",
    "result": [
      {
        "electoralDistricts": [
          {
            "election": null,
            "id": 7,
            "name": "Beaches—East York"
          }
        ],
        "pollDivisionIds": [
          10137050
        ],
        "postalCode": "M4E2C4",
        "streetName": "GERRARD",
        "streetDirectionId": "E",
        "streetTypeId": "ST",
        "placeName": "TORONTO",
        "streetNameDisplayText": "GERRARD ST E, TORONTO"
      }
    ]
  },
  {
    "postal": "M4E8N3",
    "result": []
  },
  {
    "postal": "M4E4L8",
    "result": []
  },
  {
    "postal": "M4E2B5",
    "result": [
      {
        "electoralDistricts": [
          {
            "election": null,
            "id": 7,
            "name": "Beaches—East York"
          }
        ],
        "pollDivisionIds": [
          10137050
        ],
        "postalCode": "M4E2B5",
        "streetName": "GERRARD",
        "streetDirectionId": "E",
        "streetTypeId": "ST",
        "placeName": "TORONTO",
        "streetNameDisplayText": "GERRARD ST E, TORONTO"
      }
    ]
  },
  {
    "postal": "M4E3H1",
    "result": [
      {
        "electoralDistricts": [
          {
            "election": null,
            "id": 7,
            "name": "Beaches—East York"
          }
        ],
        "pollDivisionIds": [
          10137055
        ],
        "postalCode": "M4E3H1",
        "streetName": "HANNAFORD",
        "streetDirectionId": null,
        "streetTypeId": "ST",
        "placeName": "TORONTO",
        "streetNameDisplayText": "HANNAFORD ST, TORONTO"
      }
    ]
  },
  {
    "postal": "M4E4Y1",
    "result": []
  },
  {
    "postal": "M4E7E2",
    "result": []
  },
  {
    "postal": "M4E2P5",
    "result": [
      {
        "electoralDistricts": [
          {
            "election": null,
            "id": 7,
            "name": "Beaches—East York"
          }
        ],
        "pollDivisionIds": [
          10137058
        ],
        "postalCode": "M4E2P5",
        "streetName": "LEE",
        "streetDirectionId": null,
        "streetTypeId": "AVE",
        "placeName": "TORONTO",
        "streetNameDisplayText": "LEE AVE, TORONTO"
      }
    ]
  },
  {
    "postal": "M4E8R7",
    "result": []
  },
  {
    "postal": "M4E9P1",
    "result": []
  },
  {
    "postal": "M4E3B8",
    "result": [
      {
        "electoralDistricts": [
          {
            "election": null,
            "id": 7,
            "name": "Beaches—East York"
          }
        ],
        "pollDivisionIds": [
          10137060
        ],
        "postalCode": "M4E3B8",
        "streetName": "BALSAM",
        "streetDirectionId": null,
        "streetTypeId": "AVE",
        "placeName": "TORONTO",
        "streetNameDisplayText": "BALSAM AVE, TORONTO"
      }
    ]
  },
  {
    "postal": "M4E3P7",
    "result": [
      {
        "electoralDistricts": [
          {
            "election": null,
            "id": 7,
            "name": "Beaches—East York"
          }
        ],
        "pollDivisionIds": [
          10137060
        ],
        "postalCode": "M4E3P7",
        "streetName": "NEVILLE PARK",
        "streetDirectionId": null,
        "streetTypeId": "BLVD",
        "placeName": "TORONTO",
        "streetNameDisplayText": "NEVILLE PARK BLVD, TORONTO"
      }
    ]
  },
  {
    "postal": "M4E9B2",
    "result": []
  },
  {
    "postal": "M4E6Z3",
    "result": []
  },
  {
    "postal": "M4E4N5",
    "result": []
  },
  {
    "postal": "M4E8T3",
    "result": []
  },
  {
    "postal": "M4E1V2",
    "result": [
      {
        "electoralDistricts": [
          {
            "election": null,
            "id": 7,
            "name": "Beaches—East York"
          }
        ],
        "pollDivisionIds": [
          10137054
        ],
        "postalCode": "M4E1V2",
        "streetName": "CORLEY",
        "streetDirectionId": null,
        "streetTypeId": "AVE",
        "placeName": "TORONTO",
        "streetNameDisplayText": "CORLEY AVE, TORONTO"
      }
    ]
  },
  {
    "postal": "M4E1Y0",
    "result": []
  },
  {
    "postal": "M4E3G6",
    "result": [
      {
        "electoralDistricts": [
          {
            "election": null,
            "id": 7,
            "name": "Beaches—East York"
          }
        ],
        "pollDivisionIds": [
          10137051
        ],
        "postalCode": "M4E3G6",
        "streetName": "HANNAFORD",
        "streetDirectionId": null,
        "streetTypeId": "ST",
        "placeName": "TORONTO",
        "streetNameDisplayText": "HANNAFORD ST, TORONTO"
      }
    ]
  },
  {
    "postal": "M4E3H7",
    "result": [
      {
        "electoralDistricts": [
          {
            "election": null,
            "id": 7,
            "name": "Beaches—East York"
          }
        ],
        "pollDivisionIds": [
          10137060
        ],
        "postalCode": "M4E3H7",
        "streetName": "BEECH",
        "streetDirectionId": null,
        "streetTypeId": "AVE",
        "placeName": "TORONTO",
        "streetNameDisplayText": "BEECH AVE, TORONTO"
      }
    ]
  },
  {
    "postal": "M4E7X8",
    "result": []
  },
  {
    "postal": "M4E0C7",
    "result": []
  },
  {
    "postal": "M4E0W9",
    "result": []
  },
  {
    "postal": "M4E8E6",
    "result": []
  },
  {
    "postal": "M4E9Z8",
    "result": []
  },
  {
    "postal": "M4E3P4",
    "result": [
      {
        "electoralDistricts": [
          {
            "election": null,
            "id": 7,
            "name": "Beaches—East York"
          }
        ],
        "pollDivisionIds": [
          10137051
        ],
        "postalCode": "M4E3P4",
        "streetName": "KINGSWOOD",
        "streetDirectionId": null,
        "streetTypeId": "RD",
        "placeName": "TORONTO",
        "streetNameDisplayText": "KINGSWOOD RD, TORONTO"
      }
    ]
  },
  {
    "postal": "M4E6L8",
    "result": []
  },
  {
    "postal": "M4E2R4",
    "result": [
      {
        "electoralDistricts": [
          {
            "election": null,
            "id": 7,
            "name": "Beaches—East York"
          }
        ],
        "pollDivisionIds": [
          10137057
        ],
        "postalCode": "M4E2R4",
        "streetName": "LEUTY",
        "streetDirectionId": null,
        "streetTypeId": "AVE",
        "placeName": "TORONTO",
        "streetNameDisplayText": "LEUTY AVE, TORONTO"
      }
    ]
  },
  {
    "postal": "M4E2W1",
    "result": [
      {
        "electoralDistricts": [
          {
            "election": null,
            "id": 7,
            "name": "Beaches—East York"
          }
        ],
        "pollDivisionIds": [
          10137050
        ],
        "postalCode": "M4E2W1",
        "streetName": "MAIN",
        "streetDirectionId": null,
        "streetTypeId": "ST",
        "placeName": "TORONTO",
        "streetNameDisplayText": "MAIN ST, TORONTO"
      }
    ]
  },
  {
    "postal": "M4E9H8",
    "result": []
  },
  {
    "postal": "M4E8X9",
    "result": []
  },
  {
    "postal": "M4E7H4",
    "result": []
  },
  {
    "postal": "M4E3J1",
    "result": [
      {
        "electoralDistricts": [
          {
            "election": null,
            "id": 7,
            "name": "Beaches—East York"
          }
        ],
        "pollDivisionIds": [
          10137059
        ],
        "postalCode": "M4E3J1",
        "streetName": "BEECH",
        "streetDirectionId": null,
        "streetTypeId": "AVE",
        "placeName": "TORONTO",
        "streetNameDisplayText": "BEECH AVE, TORONTO"
      }
    ]
  },
  {
    "postal": "M4E1P4",
    "result": [
      {
        "electoralDistricts": [
          {
            "election": null,
            "id": 7,
            "name": "Beaches—East York"
          }
        ],
        "pollDivisionIds": [
          10137058
        ],
        "postalCode": "M4E1P4",
        "streetName": "GLEN STEWART",
        "streetDirectionId": null,
        "streetTypeId": "CRES",
        "placeName": "TORONTO",
        "streetNameDisplayText": "GLEN STEWART CRES, TORONTO"
      }
    ]
  },
  {
    "postal": "M4E2A3",
    "result": [
      {
        "electoralDistricts": [
          {
            "election": null,
            "id": 7,
            "name": "Beaches—East York"
          }
        ],
        "pollDivisionIds": [
          10137055
        ],
        "postalCode": "M4E2A3",
        "streetName": "SWANWICK",
        "streetDirectionId": null,
        "streetTypeId": "AVE",
        "placeName": "TORONTO",
        "streetNameDisplayText": "SWANWICK AVE, TORONTO"
      }
    ]
  },
  {
    "postal": "M4E0Z1",
    "result": []
  },
  {
    "postal": "M4E1C1",
    "result": [
      {
        "electoralDistricts": [
          {
            "election": null,
            "id": 7,
            "name": "Beaches—East York"
          }
        ],
        "pollDivisionIds": [
          10137057
        ],
        "postalCode": "M4E1C1",
        "streetName": "BONFIELD",
        "streetDirectionId": null,
        "streetTypeId": "AVE",
        "placeName": "TORONTO",
        "streetNameDisplayText": "BONFIELD AVE, TORONTO"
      }
    ]
  },
  {
    "postal": "M4E0H3",
    "result": []
  },
  {
    "postal": "M4E7B0",
    "result": []
  },
  {
    "postal": "M4E5K2",
    "result": []
  },
  {
    "postal": "M4E1E9",
    "result": [
      {
        "electoralDistricts": [
          {
            "election": null,
            "id": 7,
            "name": "Beaches—East York"
          }
        ],
        "pollDivisionIds": [
          10137060
        ],
        "postalCode": "M4E1E9",
        "streetName": "QUEEN",
        "streetDirectionId": "E",
        "streetTypeId": "ST",
        "placeName": "TORONTO",
        "streetNameDisplayText": "QUEEN ST E, TORONTO"
      }
    ]
  },
  {
    "postal": "M4E9W7",
    "result": []
  },
  {
    "postal": "M4E5W6",
    "result": []
  },
  {
    "postal": "M4E6S6",
    "result": []
  },
  {
    "postal": "M4E2P8",
    "result": [
      {
        "electoralDistricts": [
          {
            "election": null,
            "id": 7,
            "name": "Beaches—East York"
          }
        ],
        "pollDivisionIds": [
          10137058
        ],
        "postalCode": "M4E2P8",
        "streetName": "LEE",
        "streetDirectionId": null,
        "streetTypeId": "AVE",
        "placeName": "TORONTO",
        "streetNameDisplayText": "LEE AVE, TORONTO"
      }
    ]
  },
  {
    "postal": "M4E4P8",
    "result": []
  },
  {
    "postal": "M4E0V9",
    "result": []
  },
  {
    "postal": "M4E5Y2",
    "result": []
  },
  {
    "postal": "M4E7Z7",
    "result": []
  },
  {
    "postal": "M4E6Y8",
    "result": []
  },
  {
    "postal": "M4E2G7",
    "result": [
      {
        "electoralDistricts": [
          {
            "election": null,
            "id": 7,
            "name": "Beaches—East York"
          }
        ],
        "pollDivisionIds": [
          10137050
        ],
        "postalCode": "M4E2G7",
        "streetName": "COSTAIN",
        "streetDirectionId": null,
        "streetTypeId": "AVE",
        "placeName": "TORONTO",
        "streetNameDisplayText": "COSTAIN AVE, TORONTO"
      }
    ]
  },
  {
    "postal": "M4E8C1",
    "result": []
  },
  {
    "postal": "M4E5C5",
    "result": []
  },
  {
    "postal": "M4E2X8",
    "result": [
      {
        "electoralDistricts": [
          {
            "election": null,
            "id": 7,
            "name": "Beaches—East York"
          }
        ],
        "pollDivisionIds": [
          10137058
        ],
        "postalCode": "M4E2X8",
        "streetName": "GLEN MANOR",
        "streetDirectionId": null,
        "streetTypeId": "DR",
        "placeName": "TORONTO",
        "streetNameDisplayText": "GLEN MANOR DR, TORONTO"
      }
    ]
  },
  {
    "postal": "M4E1W5",
    "result": [
      {
        "electoralDistricts": [
          {
            "election": null,
            "id": 7,
            "name": "Beaches—East York"
          }
        ],
        "pollDivisionIds": [
          10137051
        ],
        "postalCode": "M4E1W5",
        "streetName": "LYALL",
        "streetDirectionId": null,
        "streetTypeId": "AVE",
        "placeName": "TORONTO",
        "streetNameDisplayText": "LYALL AVE, TORONTO"
      }
    ]
  },
  {
    "postal": "M4E7G0",
    "result": []
  },
  {
    "postal": "M4E8J8",
    "result": []
  },
  {
    "postal": "M4E3Y0",
    "result": []
  },
  {
    "postal": "M4E9T7",
    "result": []
  },
  {
    "postal": "M4E5P4",
    "result": []
  },
  {
    "postal": "M4E4B0",
    "result": []
  },
  {
    "postal": "M4E9N8",
    "result": []
  },
  {
    "postal": "M4E4A7",
    "result": []
  },
  {
    "postal": "M4E4H9",
    "result": []
  },
  {
    "postal": "M4E6X1",
    "result": []
  },
  {
    "postal": "M4E9Y7",
    "result": []
  },
  {
    "postal": "M4E2Y5",
    "result": [
      {
        "electoralDistricts": [
          {
            "election": null,
            "id": 7,
            "name": "Beaches—East York"
          }
        ],
        "pollDivisionIds": [
          10137058
        ],
        "postalCode": "M4E2Y5",
        "streetName": "WINTHORPE",
        "streetDirectionId": null,
        "streetTypeId": "RD",
        "placeName": "TORONTO",
        "streetNameDisplayText": "WINTHORPE RD, TORONTO"
      }
    ]
  },
  {
    "postal": "M4E8L7",
    "result": []
  },
  {
    "postal": "M4E2A8",
    "result": [
      {
        "electoralDistricts": [
          {
            "election": null,
            "id": 7,
            "name": "Beaches—East York"
          }
        ],
        "pollDivisionIds": [
          10137051
        ],
        "postalCode": "M4E2A8",
        "streetName": "SWANWICK",
        "streetDirectionId": null,
        "streetTypeId": "AVE",
        "placeName": "TORONTO",
        "streetNameDisplayText": "SWANWICK AVE, TORONTO"
      }
    ]
  },
  {
    "postal": "M4E2K9",
    "result": [
      {
        "electoralDistricts": [
          {
            "election": null,
            "id": 7,
            "name": "Beaches—East York"
          }
        ],
        "pollDivisionIds": [
          10137050
        ],
        "postalCode": "M4E2K9",
        "streetName": "GOLFVIEW",
        "streetDirectionId": null,
        "streetTypeId": "AVE",
        "placeName": "TORONTO",
        "streetNameDisplayText": "GOLFVIEW AVE, TORONTO"
      }
    ]
  },
  {
    "postal": "M4E3E5",
    "result": [
      {
        "electoralDistricts": [
          {
            "election": null,
            "id": 7,
            "name": "Beaches—East York"
          }
        ],
        "pollDivisionIds": [
          10137055
        ],
        "postalCode": "M4E3E5",
        "streetName": "MALVERN",
        "streetDirectionId": null,
        "streetTypeId": "AVE",
        "placeName": "TORONTO",
        "streetNameDisplayText": "MALVERN AVE, TORONTO"
      }
    ]
  },
  {
    "postal": "M4E8N6",
    "result": []
  },
  {
    "postal": "M4E8J4",
    "result": []
  },
  {
    "postal": "M4E4R7",
    "result": []
  },
  {
    "postal": "M4E9K1",
    "result": []
  },
  {
    "postal": "M4E8E1",
    "result": []
  },
  {
    "postal": "M4E0R1",
    "result": []
  },
  {
    "postal": "M4E4J3",
    "result": []
  },
  {
    "postal": "M4E7E7",
    "result": []
  },
  {
    "postal": "M4E0J0",
    "result": []
  },
  {
    "postal": "M4E7R8",
    "result": []
  },
  {
    "postal": "M4E9X0",
    "result": []
  },
  {
    "postal": "M4E7P6",
    "result": []
  },
  {
    "postal": "M4E0R7",
    "result": []
  },
  {
    "postal": "M4E5W1",
    "result": []
  },
  {
    "postal": "M4E0K4",
    "result": []
  },
  {
    "postal": "M4E7N9",
    "result": []
  },
  {
    "postal": "M4E1N0",
    "result": []
  },
  {
    "postal": "M4E6P3",
    "result": []
  },
  {
    "postal": "M4E5A1",
    "result": []
  },
  {
    "postal": "M4E9M9",
    "result": []
  },
  {
    "postal": "M4E7T6",
    "result": []
  },
  {
    "postal": "M4E3X0",
    "result": []
  },
  {
    "postal": "M4E2T0",
    "result": []
  },
  {
    "postal": "M4E5X9",
    "result": []
  },
  {
    "postal": "M4E2R3",
    "result": [
      {
        "electoralDistricts": [
          {
            "election": null,
            "id": 7,
            "name": "Beaches—East York"
          }
        ],
        "pollDivisionIds": [
          10137057
        ],
        "postalCode": "M4E2R3",
        "streetName": "LEUTY",
        "streetDirectionId": null,
        "streetTypeId": "AVE",
        "placeName": "TORONTO",
        "streetNameDisplayText": "LEUTY AVE, TORONTO"
      }
    ]
  },
  {
    "postal": "M4E5N2",
    "result": []
  },
  {
    "postal": "M4E4Y7",
    "result": []
  },
  {
    "postal": "M4E7M0",
    "result": []
  },
  {
    "postal": "M4E8P3",
    "result": []
  },
  {
    "postal": "M4E3N3",
    "result": [
      {
        "electoralDistricts": [
          {
            "election": null,
            "id": 7,
            "name": "Beaches—East York"
          }
        ],
        "pollDivisionIds": [
          10137051
        ],
        "postalCode": "M4E3N3",
        "streetName": "SCARBOROUGH",
        "streetDirectionId": null,
        "streetTypeId": "RD",
        "placeName": "TORONTO",
        "streetNameDisplayText": "SCARBOROUGH RD, TORONTO"
      }
    ]
  },
  {
    "postal": "M4E7S3",
    "result": []
  },
  {
    "postal": "M4E3V9",
    "result": [
      {
        "electoralDistricts": [
          {
            "election": null,
            "id": 7,
            "name": "Beaches—East York"
          }
        ],
        "pollDivisionIds": [
          10137055
        ],
        "postalCode": "M4E3V9",
        "streetName": "KINGSTON",
        "streetDirectionId": null,
        "streetTypeId": "RD",
        "placeName": "TORONTO",
        "streetNameDisplayText": "KINGSTON RD, TORONTO"
      }
    ]
  },
  {
    "postal": "M4E9N7",
    "result": []
  },
  {
    "postal": "M4E0G4",
    "result": []
  },
  {
    "postal": "M4E2E2",
    "result": []
  },
  {
    "postal": "M4E7W8",
    "result": []
  },
  {
    "postal": "M4E7M5",
    "result": []
  },
  {
    "postal": "M4E5W8",
    "result": []
  },
  {
    "postal": "M4E5E5",
    "result": []
  },
  {
    "postal": "M4E1P9",
    "result": [
      {
        "electoralDistricts": [
          {
            "election": null,
            "id": 7,
            "name": "Beaches—East York"
          }
        ],
        "pollDivisionIds": [
          10137054
        ],
        "postalCode": "M4E1P9",
        "streetName": "KINGSTON",
        "streetDirectionId": null,
        "streetTypeId": "RD",
        "placeName": "TORONTO",
        "streetNameDisplayText": "KINGSTON RD, TORONTO"
      }
    ]
  },
  {
    "postal": "M4E8V8",
    "result": []
  },
  {
    "postal": "M4E9G8",
    "result": []
  },
  {
    "postal": "M4E8H9",
    "result": []
  },
  {
    "postal": "M4E1Z1",
    "result": [
      {
        "electoralDistricts": [
          {
            "election": null,
            "id": 7,
            "name": "Beaches—East York"
          }
        ],
        "pollDivisionIds": [
          10137050
        ],
        "postalCode": "M4E1Z1",
        "streetName": "SWANWICK",
        "streetDirectionId": null,
        "streetTypeId": "AVE",
        "placeName": "TORONTO",
        "streetNameDisplayText": "SWANWICK AVE, TORONTO"
      }
    ]
  },
  {
    "postal": "M4E8M3",
    "result": []
  },
  {
    "postal": "M4E5H6",
    "result": []
  },
  {
    "postal": "M4E7W7",
    "result": []
  },
  {
    "postal": "M4E4L0",
    "result": []
  },
  {
    "postal": "M4E2N1",
    "result": [
      {
        "electoralDistricts": [
          {
            "election": null,
            "id": 7,
            "name": "Beaches—East York"
          }
        ],
        "pollDivisionIds": [
          10137054
        ],
        "postalCode": "M4E2N1",
        "streetName": "GLENMOUNT PARK",
        "streetDirectionId": null,
        "streetTypeId": "RD",
        "placeName": "TORONTO",
        "streetNameDisplayText": "GLENMOUNT PARK RD, TORONTO"
      }
    ]
  },
  {
    "postal": "M4E2H4",
    "result": []
  },
  {
    "postal": "M4E5C8",
    "result": []
  },
  {
    "postal": "M4E8B0",
    "result": []
  },
  {
    "postal": "M4E1T4",
    "result": [
      {
        "electoralDistricts": [
          {
            "election": null,
            "id": 7,
            "name": "Beaches—East York"
          }
        ],
        "pollDivisionIds": [
          10137051
        ],
        "postalCode": "M4E1T4",
        "streetName": "KINGSTON",
        "streetDirectionId": null,
        "streetTypeId": "RD",
        "placeName": "TORONTO",
        "streetNameDisplayText": "KINGSTON RD, TORONTO"
      }
    ]
  },
  {
    "postal": "M4E7N7",
    "result": []
  },
  {
    "postal": "M4E4L3",
    "result": []
  },
  {
    "postal": "M4E2N2",
    "result": [
      {
        "electoralDistricts": [
          {
            "election": null,
            "id": 7,
            "name": "Beaches—East York"
          }
        ],
        "pollDivisionIds": [
          10137054
        ],
        "postalCode": "M4E2N2",
        "streetName": "GLENMOUNT PARK",
        "streetDirectionId": null,
        "streetTypeId": "RD",
        "placeName": "TORONTO",
        "streetNameDisplayText": "GLENMOUNT PARK RD, TORONTO"
      }
    ]
  },
  {
    "postal": "M4E4N8",
    "result": []
  },
  {
    "postal": "M4E3M5",
    "result": [
      {
        "electoralDistricts": [
          {
            "election": null,
            "id": 7,
            "name": "Beaches—East York"
          }
        ],
        "pollDivisionIds": [
          10137060
        ],
        "postalCode": "M4E3M5",
        "streetName": "SCARBOROUGH",
        "streetDirectionId": null,
        "streetTypeId": "RD",
        "placeName": "TORONTO",
        "streetNameDisplayText": "SCARBOROUGH RD, TORONTO"
      }
    ]
  },
  {
    "postal": "M4E6H7",
    "result": []
  },
  {
    "postal": "M4E8Y8",
    "result": []
  },
  {
    "postal": "M4E5R9",
    "result": []
  },
  {
    "postal": "M4E8G3",
    "result": []
  },
  {
    "postal": "M4E4N7",
    "result": []
  },
  {
    "postal": "M4E0B9",
    "result": []
  },
  {
    "postal": "M4E9K7",
    "result": []
  },
  {
    "postal": "M4E9K9",
    "result": []
  },
  {
    "postal": "M4E3Z2",
    "result": []
  },
  {
    "postal": "M4E6W7",
    "result": []
  },
  {
    "postal": "M4E0P1",
    "result": []
  },
  {
    "postal": "M4E3A0",
    "result": []
  },
  {
    "postal": "M4E8L9",
    "result": []
  },
  {
    "postal": "M4E6X0",
    "result": []
  },
  {
    "postal": "M4E3E9",
    "result": [
      {
        "electoralDistricts": [
          {
            "election": null,
            "id": 7,
            "name": "Beaches—East York"
          }
        ],
        "pollDivisionIds": [
          10137038,
          10137060
        ],
        "postalCode": "M4E3E9",
        "streetName": "FERNWOOD PARK",
        "streetDirectionId": null,
        "streetTypeId": "AVE",
        "placeName": "TORONTO",
        "streetNameDisplayText": "FERNWOOD PARK AVE, TORONTO"
      }
    ]
  },
  {
    "postal": "M4E0S5",
    "result": []
  },
  {
    "postal": "M4E1A2",
    "result": [
      {
        "electoralDistricts": [
          {
            "election": null,
            "id": 7,
            "name": "Beaches—East York"
          }
        ],
        "pollDivisionIds": [
          10137057
        ],
        "postalCode": "M4E1A2",
        "streetName": "HUBBARD",
        "streetDirectionId": null,
        "streetTypeId": "BLVD",
        "placeName": "TORONTO",
        "streetNameDisplayText": "HUBBARD BLVD, TORONTO"
      }
    ]
  },
  {
    "postal": "M4E5V8",
    "result": []
  },
  {
    "postal": "M4E8C5",
    "result": []
  },
  {
    "postal": "M4E6N0",
    "result": []
  },
  {
    "postal": "M4E9E6",
    "result": []
  },
  {
    "postal": "M4E5J7",
    "result": []
  },
  {
    "postal": "M4E2R2",
    "result": [
      {
        "electoralDistricts": [
          {
            "election": null,
            "id": 7,
            "name": "Beaches—East York"
          }
        ],
        "pollDivisionIds": [
          10137057
        ],
        "postalCode": "M4E2R2",
        "streetName": "LEUTY",
        "streetDirectionId": null,
        "streetTypeId": "AVE",
        "placeName": "TORONTO",
        "streetNameDisplayText": "LEUTY AVE, TORONTO"
      }
    ]
  },
  {
    "postal": "M4E0P5",
    "result": []
  },
  {
    "postal": "M4E5A7",
    "result": []
  },
  {
    "postal": "M4E1G1",
    "result": [
      {
        "electoralDistricts": [
          {
            "election": null,
            "id": 7,
            "name": "Beaches—East York"
          }
        ],
        "pollDivisionIds": [
          10137057
        ],
        "postalCode": "M4E1G1",
        "streetName": "QUEEN",
        "streetDirectionId": "E",
        "streetTypeId": "ST",
        "placeName": "TORONTO",
        "streetNameDisplayText": "QUEEN ST E, TORONTO"
      }
    ]
  },
  {
    "postal": "M4E9R6",
    "result": []
  },
  {
    "postal": "M4E4Z9",
    "result": []
  },
  {
    "postal": "M4E1V5",
    "result": [
      {
        "electoralDistricts": [
          {
            "election": null,
            "id": 7,
            "name": "Beaches—East York"
          }
        ],
        "pollDivisionIds": [
          10137054
        ],
        "postalCode": "M4E1V5",
        "streetName": "DUVERNET",
        "streetDirectionId": null,
        "streetTypeId": "AVE",
        "placeName": "TORONTO",
        "streetNameDisplayText": "DUVERNET AVE, TORONTO"
      }
    ]
  },
  {
    "postal": "M4E9Y5",
    "result": []
  },
  {
    "postal": "M4E1P2",
    "result": [
      {
        "electoralDistricts": [
          {
            "election": null,
            "id": 7,
            "name": "Beaches—East York"
          }
        ],
        "pollDivisionIds": [
          10137058
        ],
        "postalCode": "M4E1P2",
        "streetName": "BALSAM",
        "streetDirectionId": null,
        "streetTypeId": "RD",
        "placeName": "TORONTO",
        "streetNameDisplayText": "BALSAM RD, TORONTO"
      }
    ]
  },
  {
    "postal": "M4E5X0",
    "result": []
  },
  {
    "postal": "M4E7B8",
    "result": []
  },
  {
    "postal": "M4E0C6",
    "result": []
  },
  {
    "postal": "M4E6G1",
    "result": []
  },
  {
    "postal": "M4E3K3",
    "result": [
      {
        "electoralDistricts": [
          {
            "election": null,
            "id": 7,
            "name": "Beaches—East York"
          }
        ],
        "pollDivisionIds": [
          10137060
        ],
        "postalCode": "M4E3K3",
        "streetName": "WILLOW",
        "streetDirectionId": null,
        "streetTypeId": "AVE",
        "placeName": "TORONTO",
        "streetNameDisplayText": "WILLOW AVE, TORONTO"
      }
    ]
  },
  {
    "postal": "M4E9R0",
    "result": []
  },
  {
    "postal": "M4E4R8",
    "result": []
  },
  {
    "postal": "M4E5P9",
    "result": []
  },
  {
    "postal": "M4E8N4",
    "result": []
  },
  {
    "postal": "M4E8H4",
    "result": []
  },
  {
    "postal": "M4E4V1",
    "result": []
  },
  {
    "postal": "M4E1K5",
    "result": [
      {
        "electoralDistricts": [
          {
            "election": null,
            "id": 7,
            "name": "Beaches—East York"
          }
        ],
        "pollDivisionIds": [
          10137058
        ],
        "postalCode": "M4E1K5",
        "streetName": "WILLIAMSON",
        "streetDirectionId": null,
        "streetTypeId": "RD",
        "placeName": "TORONTO",
        "streetNameDisplayText": "WILLIAMSON RD, TORONTO"
      }
    ]
  },
  {
    "postal": "M4E1Z5",
    "result": [
      {
        "electoralDistricts": [
          {
            "election": null,
            "id": 7,
            "name": "Beaches—East York"
          }
        ],
        "pollDivisionIds": [
          10137055
        ],
        "postalCode": "M4E1Z5",
        "streetName": "SWANWICK",
        "streetDirectionId": null,
        "streetTypeId": "AVE",
        "placeName": "TORONTO",
        "streetNameDisplayText": "SWANWICK AVE, TORONTO"
      }
    ]
  },
  {
    "postal": "M4E9L9",
    "result": []
  },
  {
    "postal": "M4E5L2",
    "result": []
  },
  {
    "postal": "M4E0M2",
    "result": []
  },
  {
    "postal": "M4E1K8",
    "result": [
      {
        "electoralDistricts": [
          {
            "election": null,
            "id": 7,
            "name": "Beaches—East York"
          }
        ],
        "pollDivisionIds": [
          10137058
        ],
        "postalCode": "M4E1K8",
        "streetName": "PINE GLEN",
        "streetDirectionId": null,
        "streetTypeId": "RD",
        "placeName": "TORONTO",
        "streetNameDisplayText": "PINE GLEN RD, TORONTO"
      }
    ]
  },
  {
    "postal": "M4E3M7",
    "result": [
      {
        "electoralDistricts": [
          {
            "election": null,
            "id": 7,
            "name": "Beaches—East York"
          }
        ],
        "pollDivisionIds": [
          10137059
        ],
        "postalCode": "M4E3M7",
        "streetName": "SCARBOROUGH",
        "streetDirectionId": null,
        "streetTypeId": "RD",
        "placeName": "TORONTO",
        "streetNameDisplayText": "SCARBOROUGH RD, TORONTO"
      }
    ]
  },
  {
    "postal": "M4E1B2",
    "result": [
      {
        "electoralDistricts": [
          {
            "election": null,
            "id": 7,
            "name": "Beaches—East York"
          }
        ],
        "pollDivisionIds": [
          10137057
        ],
        "postalCode": "M4E1B2",
        "streetName": "SELWOOD",
        "streetDirectionId": null,
        "streetTypeId": "AVE",
        "placeName": "TORONTO",
        "streetNameDisplayText": "SELWOOD AVE, TORONTO"
      }
    ]
  },
  {
    "postal": "M4E0H9",
    "result": []
  },
  {
    "postal": "M4E8M4",
    "result": []
  },
  {
    "postal": "M4E2M5",
    "result": [
      {
        "electoralDistricts": [
          {
            "election": null,
            "id": 7,
            "name": "Beaches—East York"
          }
        ],
        "pollDivisionIds": [
          10137050
        ],
        "postalCode": "M4E2M5",
        "streetName": "BROOKSIDE",
        "streetDirectionId": null,
        "streetTypeId": "DR",
        "placeName": "TORONTO",
        "streetNameDisplayText": "BROOKSIDE DR, TORONTO"
      }
    ]
  },
  {
    "postal": "M4E0T9",
    "result": []
  },
  {
    "postal": "M4E3P1",
    "result": [
      {
        "electoralDistricts": [
          {
            "election": null,
            "id": 7,
            "name": "Beaches—East York"
          }
        ],
        "pollDivisionIds": [
          10137051
        ],
        "postalCode": "M4E3P1",
        "streetName": "KINGSWOOD",
        "streetDirectionId": null,
        "streetTypeId": "RD",
        "placeName": "TORONTO",
        "streetNameDisplayText": "KINGSWOOD RD, TORONTO"
      }
    ]
  },
  {
    "postal": "M4E1R6",
    "result": [
      {
        "electoralDistricts": [
          {
            "election": null,
            "id": 7,
            "name": "Beaches—East York"
          }
        ],
        "pollDivisionIds": [
          10137058
        ],
        "postalCode": "M4E1R6",
        "streetName": "KINGSTON",
        "streetDirectionId": null,
        "streetTypeId": "RD",
        "placeName": "TORONTO",
        "streetNameDisplayText": "KINGSTON RD, TORONTO"
      }
    ]
  },
  {
    "postal": "M4E9V5",
    "result": []
  },
  {
    "postal": "M4E9T0",
    "result": []
  },
  {
    "postal": "M4E0A9",
    "result": [
      {
        "electoralDistricts": [
          {
            "election": null,
            "id": 7,
            "name": "Beaches—East York"
          }
        ],
        "pollDivisionIds": [
          10137051
        ],
        "postalCode": "M4E0A9",
        "streetName": "PHILPOTT",
        "streetDirectionId": null,
        "streetTypeId": "GDNS",
        "placeName": "TORONTO",
        "streetNameDisplayText": "PHILPOTT GDNS, TORONTO"
      }
    ]
  },
  {
    "postal": "M4E1M3",
    "result": [
      {
        "electoralDistricts": [
          {
            "election": null,
            "id": 7,
            "name": "Beaches—East York"
          }
        ],
        "pollDivisionIds": [
          10137058
        ],
        "postalCode": "M4E1M3",
        "streetName": "GLEN AMES",
        "streetDirectionId": null,
        "streetTypeId": null,
        "placeName": "TORONTO",
        "streetNameDisplayText": "GLEN AMES, TORONTO"
      }
    ]
  },
  {
    "postal": "M4E1W8",
    "result": [
      {
        "electoralDistricts": [
          {
            "election": null,
            "id": 7,
            "name": "Beaches—East York"
          }
        ],
        "pollDivisionIds": [
          10137050
        ],
        "postalCode": "M4E1W8",
        "streetName": "BURGESS",
        "streetDirectionId": null,
        "streetTypeId": "AVE",
        "placeName": "TORONTO",
        "streetNameDisplayText": "BURGESS AVE, TORONTO"
      }
    ]
  },
  {
    "postal": "M4E9J1",
    "result": []
  },
  {
    "postal": "M4E8N5",
    "result": []
  },
  {
    "postal": "M4E5X1",
    "result": []
  },
  {
    "postal": "M4E6S2",
    "result": []
  },
  {
    "postal": "M4E2A2",
    "result": [
      {
        "electoralDistricts": [
          {
            "election": null,
            "id": 7,
            "name": "Beaches—East York"
          }
        ],
        "pollDivisionIds": [
          10137055
        ],
        "postalCode": "M4E2A2",
        "streetName": "SWANWICK",
        "streetDirectionId": null,
        "streetTypeId": "AVE",
        "placeName": "TORONTO",
        "streetNameDisplayText": "SWANWICK AVE, TORONTO"
      }
    ]
  },
  {
    "postal": "M4E6A6",
    "result": []
  },
  {
    "postal": "M4E0S3",
    "result": []
  },
  {
    "postal": "M4E3E7",
    "result": [
      {
        "electoralDistricts": [
          {
            "election": null,
            "id": 7,
            "name": "Beaches—East York"
          }
        ],
        "pollDivisionIds": [
          10137060
        ],
        "postalCode": "M4E3E7",
        "streetName": "FERNWOOD PARK",
        "streetDirectionId": null,
        "streetTypeId": "AVE",
        "placeName": "TORONTO",
        "streetNameDisplayText": "FERNWOOD PARK AVE, TORONTO"
      }
    ]
  },
  {
    "postal": "M4E5R7",
    "result": []
  },
  {
    "postal": "M4E3R6",
    "result": [
      {
        "electoralDistricts": [
          {
            "election": null,
            "id": 7,
            "name": "Beaches—East York"
          }
        ],
        "pollDivisionIds": [
          10137051
        ],
        "postalCode": "M4E3R6",
        "streetName": "BINGHAM",
        "streetDirectionId": null,
        "streetTypeId": "AVE",
        "placeName": "TORONTO",
        "streetNameDisplayText": "BINGHAM AVE, TORONTO"
      }
    ]
  },
  {
    "postal": "M4E6K4",
    "result": []
  },
  {
    "postal": "M4E2W5",
    "result": [
      {
        "electoralDistricts": [
          {
            "election": null,
            "id": 7,
            "name": "Beaches—East York"
          }
        ],
        "pollDivisionIds": [
          10137058
        ],
        "postalCode": "M4E2W5",
        "streetName": "HAMMERSMITH",
        "streetDirectionId": null,
        "streetTypeId": "AVE",
        "placeName": "TORONTO",
        "streetNameDisplayText": "HAMMERSMITH AVE, TORONTO"
      }
    ]
  },
  {
    "postal": "M4E8W4",
    "result": []
  },
  {
    "postal": "M4E9C2",
    "result": []
  },
  {
    "postal": "M4E2C0",
    "result": []
  },
  {
    "postal": "M4E0E1",
    "result": []
  },
  {
    "postal": "M4E1K9",
    "result": [
      {
        "electoralDistricts": [
          {
            "election": null,
            "id": 7,
            "name": "Beaches—East York"
          }
        ],
        "pollDivisionIds": [
          10137058
        ],
        "postalCode": "M4E1K9",
        "streetName": "PINE GLEN",
        "streetDirectionId": null,
        "streetTypeId": "RD",
        "placeName": "TORONTO",
        "streetNameDisplayText": "PINE GLEN RD, TORONTO"
      }
    ]
  },
  {
    "postal": "M4E1G7",
    "result": [
      {
        "electoralDistricts": [
          {
            "election": null,
            "id": 7,
            "name": "Beaches—East York"
          }
        ],
        "pollDivisionIds": [
          10137057
        ],
        "postalCode": "M4E1G7",
        "streetName": "QUEEN",
        "streetDirectionId": "E",
        "streetTypeId": "ST",
        "placeName": "TORONTO",
        "streetNameDisplayText": "QUEEN ST E, TORONTO"
      }
    ]
  },
  {
    "postal": "M4E4E9",
    "result": []
  },
  {
    "postal": "M4E9P0",
    "result": []
  },
  {
    "postal": "M4E5H3",
    "result": []
  },
  {
    "postal": "M4E9X6",
    "result": []
  },
  {
    "postal": "M4E5N7",
    "result": []
  },
  {
    "postal": "M4E5A6",
    "result": []
  },
  {
    "postal": "M4E4M0",
    "result": []
  },
  {
    "postal": "M4E3V6",
    "result": [
      {
        "electoralDistricts": [
          {
            "election": null,
            "id": 7,
            "name": "Beaches—East York"
          }
        ],
        "pollDivisionIds": [
          10137054
        ],
        "postalCode": "M4E3V6",
        "streetName": "KINGSTON",
        "streetDirectionId": null,
        "streetTypeId": "RD",
        "placeName": "TORONTO",
        "streetNameDisplayText": "KINGSTON RD, TORONTO"
      }
    ]
  },
  {
    "postal": "M4E1L7",
    "result": [
      {
        "electoralDistricts": [
          {
            "election": null,
            "id": 7,
            "name": "Beaches—East York"
          }
        ],
        "pollDivisionIds": [
          10137060
        ],
        "postalCode": "M4E1L7",
        "streetName": "PINE",
        "streetDirectionId": null,
        "streetTypeId": "AVE",
        "placeName": "TORONTO",
        "streetNameDisplayText": "PINE AVE, TORONTO"
      }
    ]
  },
  {
    "postal": "M4E2P9",
    "result": [
      {
        "electoralDistricts": [
          {
            "election": null,
            "id": 7,
            "name": "Beaches—East York"
          }
        ],
        "pollDivisionIds": [
          10137050
        ],
        "postalCode": "M4E2P9",
        "streetName": "WOODLEE",
        "streetDirectionId": null,
        "streetTypeId": "RD",
        "placeName": "TORONTO",
        "streetNameDisplayText": "WOODLEE RD, TORONTO"
      }
    ]
  },
  {
    "postal": "M4E5T4",
    "result": []
  },
  {
    "postal": "M4E5Z1",
    "result": []
  },
  {
    "postal": "M4E2X0",
    "result": []
  },
  {
    "postal": "M4E6Z2",
    "result": []
  },
  {
    "postal": "M4E0E0",
    "result": []
  },
  {
    "postal": "M4E3Z5",
    "result": []
  },
  {
    "postal": "M4E8H3",
    "result": []
  },
  {
    "postal": "M4E7S6",
    "result": []
  },
  {
    "postal": "M4E4C1",
    "result": []
  },
  {
    "postal": "M4E3K2",
    "result": [
      {
        "electoralDistricts": [
          {
            "election": null,
            "id": 7,
            "name": "Beaches—East York"
          }
        ],
        "pollDivisionIds": [
          10137060
        ],
        "postalCode": "M4E3K2",
        "streetName": "WILLOW",
        "streetDirectionId": null,
        "streetTypeId": "AVE",
        "placeName": "TORONTO",
        "streetNameDisplayText": "WILLOW AVE, TORONTO"
      }
    ]
  },
  {
    "postal": "M4E1Y5",
    "result": [
      {
        "electoralDistricts": [
          {
            "election": null,
            "id": 7,
            "name": "Beaches—East York"
          }
        ],
        "pollDivisionIds": [
          10137050
        ],
        "postalCode": "M4E1Y5",
        "streetName": "GLEN OAK",
        "streetDirectionId": null,
        "streetTypeId": "DR",
        "placeName": "TORONTO",
        "streetNameDisplayText": "GLEN OAK DR, TORONTO"
      }
    ]
  },
  {
    "postal": "M4E6P6",
    "result": []
  },
  {
    "postal": "M4E3N9",
    "result": [
      {
        "electoralDistricts": [
          {
            "election": null,
            "id": 7,
            "name": "Beaches—East York"
          }
        ],
        "pollDivisionIds": [
          10137051
        ],
        "postalCode": "M4E3N9",
        "streetName": "KINGSWOOD",
        "streetDirectionId": null,
        "streetTypeId": "RD",
        "placeName": "TORONTO",
        "streetNameDisplayText": "KINGSWOOD RD, TORONTO"
      }
    ]
  },
  {
    "postal": "M4E3W2",
    "result": [
      {
        "electoralDistricts": [
          {
            "election": null,
            "id": 7,
            "name": "Beaches—East York"
          }
        ],
        "pollDivisionIds": [
          10137051
        ],
        "postalCode": "M4E3W2",
        "streetName": "MUSGRAVE",
        "streetDirectionId": null,
        "streetTypeId": "ST",
        "placeName": "TORONTO",
        "streetNameDisplayText": "MUSGRAVE ST, TORONTO"
      }
    ]
  },
  {
    "postal": "M4E6H8",
    "result": []
  },
  {
    "postal": "M4E9T3",
    "result": []
  },
  {
    "postal": "M4E5L9",
    "result": []
  },
  {
    "postal": "M4E7X7",
    "result": []
  },
  {
    "postal": "M4E3J5",
    "result": [
      {
        "electoralDistricts": [
          {
            "election": null,
            "id": 7,
            "name": "Beaches—East York"
          }
        ],
        "pollDivisionIds": [
          10137051
        ],
        "postalCode": "M4E3J5",
        "streetName": "PICKERING",
        "streetDirectionId": null,
        "streetTypeId": "ST",
        "placeName": "TORONTO",
        "streetNameDisplayText": "PICKERING ST, TORONTO"
      }
    ]
  },
  {
    "postal": "M4E4J5",
    "result": []
  },
  {
    "postal": "M4E6J2",
    "result": []
  },
  {
    "postal": "M4E5V6",
    "result": []
  },
  {
    "postal": "M4E3N2",
    "result": [
      {
        "electoralDistricts": [
          {
            "election": null,
            "id": 7,
            "name": "Beaches—East York"
          }
        ],
        "pollDivisionIds": [
          10137051
        ],
        "postalCode": "M4E3N2",
        "streetName": "SCARBOROUGH",
        "streetDirectionId": null,
        "streetTypeId": "RD",
        "placeName": "TORONTO",
        "streetNameDisplayText": "SCARBOROUGH RD, TORONTO"
      }
    ]
  },
  {
    "postal": "M4E3B1",
    "result": [
      {
        "electoralDistricts": [
          {
            "election": null,
            "id": 7,
            "name": "Beaches—East York"
          }
        ],
        "pollDivisionIds": [
          10137055
        ],
        "postalCode": "M4E3B1",
        "streetName": "OSBORNE",
        "streetDirectionId": null,
        "streetTypeId": "AVE",
        "placeName": "TORONTO",
        "streetNameDisplayText": "OSBORNE AVE, TORONTO"
      }
    ]
  },
  {
    "postal": "M4E8B5",
    "result": []
  },
  {
    "postal": "M4E0K1",
    "result": []
  },
  {
    "postal": "M4E7M7",
    "result": []
  },
  {
    "postal": "M4E2M2",
    "result": [
      {
        "electoralDistricts": [
          {
            "election": null,
            "id": 7,
            "name": "Beaches—East York"
          }
        ],
        "pollDivisionIds": [
          10137054
        ],
        "postalCode": "M4E2M2",
        "streetName": "BROOKSIDE",
        "streetDirectionId": null,
        "streetTypeId": "DR",
        "placeName": "TORONTO",
        "streetNameDisplayText": "BROOKSIDE DR, TORONTO"
      }
    ]
  },
  {
    "postal": "M4E9N3",
    "result": []
  },
  {
    "postal": "M4E4Y8",
    "result": []
  },
  {
    "postal": "M4E3V7",
    "result": []
  },
  {
    "postal": "M4E8Z1",
    "result": []
  },
  {
    "postal": "M4E7B3",
    "result": []
  },
  {
    "postal": "M4E3A8",
    "result": [
      {
        "electoralDistricts": [
          {
            "election": null,
            "id": 7,
            "name": "Beaches—East York"
          }
        ],
        "pollDivisionIds": [
          10137055
        ],
        "postalCode": "M4E3A8",
        "streetName": "A OSBORNE",
        "streetDirectionId": null,
        "streetTypeId": "AVE",
        "placeName": "TORONTO",
        "streetNameDisplayText": "A OSBORNE AVE, TORONTO"
      },
      {
        "electoralDistricts": [
          {
            "election": null,
            "id": 7,
            "name": "Beaches—East York"
          }
        ],
        "pollDivisionIds": [
          10137055
        ],
        "postalCode": "M4E3A8",
        "streetName": "OSBORNE",
        "streetDirectionId": null,
        "streetTypeId": "AVE",
        "placeName": "TORONTO",
        "streetNameDisplayText": "OSBORNE AVE, TORONTO"
      }
    ]
  },
  {
    "postal": "M4E7V5",
    "result": []
  },
  {
    "postal": "M4E2T2",
    "result": [
      {
        "electoralDistricts": [
          {
            "election": null,
            "id": 7,
            "name": "Beaches—East York"
          }
        ],
        "pollDivisionIds": [
          10137057
        ],
        "postalCode": "M4E2T2",
        "streetName": "WINEVA",
        "streetDirectionId": null,
        "streetTypeId": "AVE",
        "placeName": "TORONTO",
        "streetNameDisplayText": "WINEVA AVE, TORONTO"
      }
    ]
  },
  {
    "postal": "M4E6L3",
    "result": []
  },
  {
    "postal": "M4E0L2",
    "result": []
  },
  {
    "postal": "M4E5Y8",
    "result": []
  },
  {
    "postal": "M4E0B8",
    "result": []
  },
  {
    "postal": "M4E6R5",
    "result": []
  },
  {
    "postal": "M4E8W6",
    "result": []
  },
  {
    "postal": "M4E8G6",
    "result": []
  },
  {
    "postal": "M4E6X3",
    "result": []
  },
  {
    "postal": "M4E7R7",
    "result": []
  },
  {
    "postal": "M4E4B6",
    "result": []
  },
  {
    "postal": "M4E3P9",
    "result": [
      {
        "electoralDistricts": [
          {
            "election": null,
            "id": 7,
            "name": "Beaches—East York"
          }
        ],
        "pollDivisionIds": [
          10137059
        ],
        "postalCode": "M4E3P9",
        "streetName": "BINGHAM",
        "streetDirectionId": null,
        "streetTypeId": "AVE",
        "placeName": "TORONTO",
        "streetNameDisplayText": "BINGHAM AVE, TORONTO"
      }
    ]
  },
  {
    "postal": "M4E2T3",
    "result": [
      {
        "electoralDistricts": [
          {
            "election": null,
            "id": 7,
            "name": "Beaches—East York"
          }
        ],
        "pollDivisionIds": [
          10137058
        ],
        "postalCode": "M4E2T3",
        "streetName": "WINEVA",
        "streetDirectionId": null,
        "streetTypeId": "AVE",
        "placeName": "TORONTO",
        "streetNameDisplayText": "WINEVA AVE, TORONTO"
      }
    ]
  },
  {
    "postal": "M4E1M4",
    "result": [
      {
        "electoralDistricts": [
          {
            "election": null,
            "id": 7,
            "name": "Beaches—East York"
          }
        ],
        "pollDivisionIds": [
          10137058
        ],
        "postalCode": "M4E1M4",
        "streetName": "GLEN AMES",
        "streetDirectionId": null,
        "streetTypeId": null,
        "placeName": "TORONTO",
        "streetNameDisplayText": "GLEN AMES, TORONTO"
      }
    ]
  },
  {
    "postal": "M4E0H1",
    "result": []
  },
  {
    "postal": "M4E9W3",
    "result": []
  },
  {
    "postal": "M4E6P1",
    "result": []
  },
  {
    "postal": "M4E7G2",
    "result": []
  },
  {
    "postal": "M4E4J9",
    "result": []
  },
  {
    "postal": "M4E9E4",
    "result": []
  },
  {
    "postal": "M4E8H0",
    "result": []
  },
  {
    "postal": "M4E4M7",
    "result": []
  },
  {
    "postal": "M4E2G9",
    "result": [
      {
        "electoralDistricts": [
          {
            "election": null,
            "id": 7,
            "name": "Beaches—East York"
          }
        ],
        "pollDivisionIds": [
          10137050
        ],
        "postalCode": "M4E2G9",
        "streetName": "NORWOOD",
        "streetDirectionId": null,
        "streetTypeId": "TERR",
        "placeName": "TORONTO",
        "streetNameDisplayText": "NORWOOD TERR, TORONTO"
      }
    ]
  },
  {
    "postal": "M4E8T2",
    "result": []
  },
  {
    "postal": "M4E7G7",
    "result": []
  },
  {
    "postal": "M4E4Z3",
    "result": []
  },
  {
    "postal": "M4E5B3",
    "result": []
  },
  {
    "postal": "M4E1S7",
    "result": [
      {
        "electoralDistricts": [
          {
            "election": null,
            "id": 7,
            "name": "Beaches—East York"
          }
        ],
        "pollDivisionIds": [
          10137051
        ],
        "postalCode": "M4E1S7",
        "streetName": "KINGSTON",
        "streetDirectionId": null,
        "streetTypeId": "RD",
        "placeName": "TORONTO",
        "streetNameDisplayText": "KINGSTON RD, TORONTO"
      }
    ]
  },
  {
    "postal": "M4E2N7",
    "result": [
      {
        "electoralDistricts": [
          {
            "election": null,
            "id": 7,
            "name": "Beaches—East York"
          }
        ],
        "pollDivisionIds": [
          10137050
        ],
        "postalCode": "M4E2N7",
        "streetName": "KILDONAN",
        "streetDirectionId": null,
        "streetTypeId": "RD",
        "placeName": "TORONTO",
        "streetNameDisplayText": "KILDONAN RD, TORONTO"
      }
    ]
  },
  {
    "postal": "M4E0H8",
    "result": []
  },
  {
    "postal": "M4E7Z4",
    "result": []
  },
  {
    "postal": "M4E7B1",
    "result": []
  },
  {
    "postal": "M4E7P8",
    "result": []
  },
  {
    "postal": "M4E7N0",
    "result": []
  },
  {
    "postal": "M4E3Y5",
    "result": []
  },
  {
    "postal": "M4E6K1",
    "result": []
  },
  {
    "postal": "M4E9X5",
    "result": []
  },
  {
    "postal": "M4E7S5",
    "result": []
  },
  {
    "postal": "M4E0A4",
    "result": [
      {
        "electoralDistricts": [
          {
            "election": null,
            "id": 7,
            "name": "Beaches—East York"
          }
        ],
        "pollDivisionIds": [
          10137051
        ],
        "postalCode": "M4E0A4",
        "streetName": "BELLEVILLE",
        "streetDirectionId": null,
        "streetTypeId": "ST",
        "placeName": "TORONTO",
        "streetNameDisplayText": "BELLEVILLE ST, TORONTO"
      }
    ]
  },
  {
    "postal": "M4E4T5",
    "result": []
  },
  {
    "postal": "M4E5K1",
    "result": []
  },
  {
    "postal": "M4E0Z9",
    "result": []
  },
  {
    "postal": "M4E7T2",
    "result": []
  },
  {
    "postal": "M4E1L5",
    "result": [
      {
        "electoralDistricts": [
          {
            "election": null,
            "id": 7,
            "name": "Beaches—East York"
          }
        ],
        "pollDivisionIds": [
          10137059
        ],
        "postalCode": "M4E1L5",
        "streetName": "PINE",
        "streetDirectionId": null,
        "streetTypeId": "AVE",
        "placeName": "TORONTO",
        "streetNameDisplayText": "PINE AVE, TORONTO"
      }
    ]
  },
  {
    "postal": "M4E3N5",
    "result": [
      {
        "electoralDistricts": [
          {
            "election": null,
            "id": 7,
            "name": "Beaches—East York"
          }
        ],
        "pollDivisionIds": [
          10137060
        ],
        "postalCode": "M4E3N5",
        "streetName": "KINGSWOOD",
        "streetDirectionId": null,
        "streetTypeId": "RD",
        "placeName": "TORONTO",
        "streetNameDisplayText": "KINGSWOOD RD, TORONTO"
      }
    ]
  },
  {
    "postal": "M4E6H4",
    "result": []
  },
  {
    "postal": "M4E5A5",
    "result": []
  },
  {
    "postal": "M4E3R9",
    "result": [
      {
        "electoralDistricts": [
          {
            "election": null,
            "id": 7,
            "name": "Beaches—East York"
          }
        ],
        "pollDivisionIds": [
          10137060
        ],
        "postalCode": "M4E3R9",
        "streetName": "VICTORIA PARK",
        "streetDirectionId": null,
        "streetTypeId": "AVE",
        "placeName": "SCARBOROUGH",
        "streetNameDisplayText": "VICTORIA PARK AVE, SCARBOROUGH"
      }
    ]
  },
  {
    "postal": "M4E7L8",
    "result": []
  },
  {
    "postal": "M4E6T6",
    "result": []
  },
  {
    "postal": "M4E7Y7",
    "result": []
  },
  {
    "postal": "M4E3M8",
    "result": [
      {
        "electoralDistricts": [
          {
            "election": null,
            "id": 7,
            "name": "Beaches—East York"
          }
        ],
        "pollDivisionIds": [
          10137051
        ],
        "postalCode": "M4E3M8",
        "streetName": "SCARBOROUGH",
        "streetDirectionId": null,
        "streetTypeId": "RD",
        "placeName": "TORONTO",
        "streetNameDisplayText": "SCARBOROUGH RD, TORONTO"
      }
    ]
  },
  {
    "postal": "M4E2E0",
    "result": []
  },
  {
    "postal": "M4E4B5",
    "result": []
  },
  {
    "postal": "M4E1J3",
    "result": [
      {
        "electoralDistricts": [
          {
            "election": null,
            "id": 7,
            "name": "Beaches—East York"
          }
        ],
        "pollDivisionIds": [
          10137058
        ],
        "postalCode": "M4E1J3",
        "streetName": "DUART PARK",
        "streetDirectionId": null,
        "streetTypeId": "RD",
        "placeName": "TORONTO",
        "streetNameDisplayText": "DUART PARK RD, TORONTO"
      }
    ]
  },
  {
    "postal": "M4E5S6",
    "result": []
  },
  {
    "postal": "M4E8P7",
    "result": []
  },
  {
    "postal": "M4E7S7",
    "result": []
  },
  {
    "postal": "M4E4C2",
    "result": []
  },
  {
    "postal": "M4E5Y0",
    "result": []
  },
  {
    "postal": "M4E2V7",
    "result": [
      {
        "electoralDistricts": [
          {
            "election": null,
            "id": 7,
            "name": "Beaches—East York"
          }
        ],
        "pollDivisionIds": [
          10137055,
          10137054
        ],
        "postalCode": "M4E2V7",
        "streetName": "MAIN",
        "streetDirectionId": null,
        "streetTypeId": "ST",
        "placeName": "TORONTO",
        "streetNameDisplayText": "MAIN ST, TORONTO"
      }
    ]
  },
  {
    "postal": "M4E8P5",
    "result": []
  },
  {
    "postal": "M4E5P5",
    "result": []
  },
  {
    "postal": "M4E5Z0",
    "result": []
  },
  {
    "postal": "M4E9B0",
    "result": []
  },
  {
    "postal": "M4E1L0",
    "result": []
  },
  {
    "postal": "M4E0B5",
    "result": []
  },
  {
    "postal": "M4E3L2",
    "result": [
      {
        "electoralDistricts": [
          {
            "election": null,
            "id": 7,
            "name": "Beaches—East York"
          }
        ],
        "pollDivisionIds": [
          10137060
        ],
        "postalCode": "M4E3L2",
        "streetName": "SILVER BIRCH",
        "streetDirectionId": null,
        "streetTypeId": "AVE",
        "placeName": "TORONTO",
        "streetNameDisplayText": "SILVER BIRCH AVE, TORONTO"
      }
    ]
  },
  {
    "postal": "M4E3B7",
    "result": [
      {
        "electoralDistricts": [
          {
            "election": null,
            "id": 7,
            "name": "Beaches—East York"
          }
        ],
        "pollDivisionIds": [
          10137058
        ],
        "postalCode": "M4E3B7",
        "streetName": "BALSAM",
        "streetDirectionId": null,
        "streetTypeId": "AVE",
        "placeName": "TORONTO",
        "streetNameDisplayText": "BALSAM AVE, TORONTO"
      }
    ]
  },
  {
    "postal": "M4E8L1",
    "result": []
  },
  {
    "postal": "M4E5M4",
    "result": []
  },
  {
    "postal": "M4E4G9",
    "result": []
  },
  {
    "postal": "M4E0P0",
    "result": []
  },
  {
    "postal": "M4E8G2",
    "result": []
  },
  {
    "postal": "M4E1V9",
    "result": [
      {
        "electoralDistricts": [
          {
            "election": null,
            "id": 7,
            "name": "Beaches—East York"
          }
        ],
        "pollDivisionIds": [
          10137055
        ],
        "postalCode": "M4E1V9",
        "streetName": "LYALL",
        "streetDirectionId": null,
        "streetTypeId": "AVE",
        "placeName": "TORONTO",
        "streetNameDisplayText": "LYALL AVE, TORONTO"
      }
    ]
  },
  {
    "postal": "M4E8N8",
    "result": []
  },
  {
    "postal": "M4E6S8",
    "result": []
  },
  {
    "postal": "M4E8H2",
    "result": []
  },
  {
    "postal": "M4E5R8",
    "result": []
  },
  {
    "postal": "M4E5L4",
    "result": []
  },
  {
    "postal": "M4E9E1",
    "result": []
  },
  {
    "postal": "M4E1C4",
    "result": [
      {
        "electoralDistricts": [
          {
            "election": null,
            "id": 7,
            "name": "Beaches—East York"
          }
        ],
        "pollDivisionIds": [
          10137060
        ],
        "postalCode": "M4E1C4",
        "streetName": "HAZEL",
        "streetDirectionId": null,
        "streetTypeId": "AVE",
        "placeName": "TORONTO",
        "streetNameDisplayText": "HAZEL AVE, TORONTO"
      }
    ]
  },
  {
    "postal": "M4E8W5",
    "result": []
  },
  {
    "postal": "M4E1Y4",
    "result": [
      {
        "electoralDistricts": [
          {
            "election": null,
            "id": 7,
            "name": "Beaches—East York"
          }
        ],
        "pollDivisionIds": [
          10137054
        ],
        "postalCode": "M4E1Y4",
        "streetName": "GLEN OAK",
        "streetDirectionId": null,
        "streetTypeId": "DR",
        "placeName": "TORONTO",
        "streetNameDisplayText": "GLEN OAK DR, TORONTO"
      }
    ]
  },
  {
    "postal": "M4E1C0",
    "result": []
  },
  {
    "postal": "M4E2J2",
    "result": [
      {
        "electoralDistricts": [
          {
            "election": null,
            "id": 7,
            "name": "Beaches—East York"
          }
        ],
        "pollDivisionIds": [
          10137050
        ],
        "postalCode": "M4E2J2",
        "streetName": "WOODBINE",
        "streetDirectionId": null,
        "streetTypeId": "AVE",
        "placeName": "TORONTO",
        "streetNameDisplayText": "WOODBINE AVE, TORONTO"
      }
    ]
  },
  {
    "postal": "M4E2J0",
    "result": []
  },
  {
    "postal": "M4E7A3",
    "result": []
  },
  {
    "postal": "M4E8M1",
    "result": []
  },
  {
    "postal": "M4E7T9",
    "result": []
  },
  {
    "postal": "M4E6C0",
    "result": []
  },
  {
    "postal": "M4E7X1",
    "result": []
  },
  {
    "postal": "M4E0G1",
    "result": []
  },
  {
    "postal": "M4E4X2",
    "result": []
  },
  {
    "postal": "M4E0N6",
    "result": []
  },
  {
    "postal": "M4E8E3",
    "result": []
  },
  {
    "postal": "M4E5S8",
    "result": []
  },
  {
    "postal": "M4E0R0",
    "result": []
  },
  {
    "postal": "M4E6J6",
    "result": []
  },
  {
    "postal": "M4E4B4",
    "result": []
  },
  {
    "postal": "M4E7E3",
    "result": []
  },
  {
    "postal": "M4E3N6",
    "result": [
      {
        "electoralDistricts": [
          {
            "election": null,
            "id": 7,
            "name": "Beaches—East York"
          }
        ],
        "pollDivisionIds": [
          10137059
        ],
        "postalCode": "M4E3N6",
        "streetName": "KINGSWOOD",
        "streetDirectionId": null,
        "streetTypeId": "RD",
        "placeName": "TORONTO",
        "streetNameDisplayText": "KINGSWOOD RD, TORONTO"
      }
    ]
  },
  {
    "postal": "M4E3X6",
    "result": [
      {
        "electoralDistricts": [
          {
            "election": null,
            "id": 7,
            "name": "Beaches—East York"
          }
        ],
        "pollDivisionIds": [
          10137051
        ],
        "postalCode": "M4E3X6",
        "streetName": "FLAGMAN",
        "streetDirectionId": null,
        "streetTypeId": "ST",
        "placeName": "TORONTO",
        "streetNameDisplayText": "FLAGMAN ST, TORONTO"
      }
    ]
  },
  {
    "postal": "M4E8L0",
    "result": []
  },
  {
    "postal": "M4E8N1",
    "result": []
  },
  {
    "postal": "M4E4J0",
    "result": []
  },
  {
    "postal": "M4E0X7",
    "result": []
  },
  {
    "postal": "M4E6S4",
    "result": []
  },
  {
    "postal": "M4E0Z0",
    "result": []
  },
  {
    "postal": "M4E9X8",
    "result": []
  },
  {
    "postal": "M4E3H3",
    "result": [
      {
        "electoralDistricts": [
          {
            "election": null,
            "id": 7,
            "name": "Beaches—East York"
          }
        ],
        "pollDivisionIds": [
          10137060
        ],
        "postalCode": "M4E3H3",
        "streetName": "BEECH",
        "streetDirectionId": null,
        "streetTypeId": "AVE",
        "placeName": "TORONTO",
        "streetNameDisplayText": "BEECH AVE, TORONTO"
      }
    ]
  },
  {
    "postal": "M4E7S2",
    "result": []
  },
  {
    "postal": "M4E3T3",
    "result": [
      {
        "electoralDistricts": [
          {
            "election": null,
            "id": 98,
            "name": "Scarborough Southwest"
          }
        ],
        "pollDivisionIds": [
          10141811
        ],
        "postalCode": "M4E3T3",
        "streetName": "VICTORIA PARK",
        "streetDirectionId": null,
        "streetTypeId": "AVE",
        "placeName": "SCARBOROUGH",
        "streetNameDisplayText": "VICTORIA PARK AVE, SCARBOROUGH"
      }
    ]
  },
  {
    "postal": "M4E9P3",
    "result": []
  },
  {
    "postal": "M4E4H8",
    "result": []
  },
  {
    "postal": "M4E6R1",
    "result": []
  },
  {
    "postal": "M4E1S0",
    "result": []
  },
  {
    "postal": "M4E3W8",
    "result": [
      {
        "electoralDistricts": [
          {
            "election": null,
            "id": 7,
            "name": "Beaches—East York"
          }
        ],
        "pollDivisionIds": [
          10137051
        ],
        "postalCode": "M4E3W8",
        "streetName": "WHISTLE POST",
        "streetDirectionId": null,
        "streetTypeId": "ST",
        "placeName": "TORONTO",
        "streetNameDisplayText": "WHISTLE POST ST, TORONTO"
      }
    ]
  },
  {
    "postal": "M4E4S3",
    "result": []
  },
  {
    "postal": "M4E1B6",
    "result": [
      {
        "electoralDistricts": [
          {
            "election": null,
            "id": 7,
            "name": "Beaches—East York"
          }
        ],
        "pollDivisionIds": [
          10137060
        ],
        "postalCode": "M4E1B6",
        "streetName": "PARK",
        "streetDirectionId": null,
        "streetTypeId": "AVE",
        "placeName": "TORONTO",
        "streetNameDisplayText": "PARK AVE, TORONTO"
      }
    ]
  },
  {
    "postal": "M4E8R3",
    "result": []
  },
  {
    "postal": "M4E4V9",
    "result": []
  },
  {
    "postal": "M4E9W4",
    "result": []
  },
  {
    "postal": "M4E3T4",
    "result": [
      {
        "electoralDistricts": [
          {
            "election": null,
            "id": 7,
            "name": "Beaches—East York"
          }
        ],
        "pollDivisionIds": [
          10137051
        ],
        "postalCode": "M4E3T4",
        "streetName": "VICTORIA PARK",
        "streetDirectionId": null,
        "streetTypeId": "AVE",
        "placeName": "TORONTO",
        "streetNameDisplayText": "VICTORIA PARK AVE, TORONTO"
      }
    ]
  },
  {
    "postal": "M4E5C7",
    "result": []
  },
  {
    "postal": "M4E3Y1",
    "result": [
      {
        "electoralDistricts": [
          {
            "election": null,
            "id": 7,
            "name": "Beaches—East York"
          }
        ],
        "pollDivisionIds": [
          10137058
        ],
        "postalCode": "M4E3Y1",
        "streetName": "GLEN MANOR",
        "streetDirectionId": null,
        "streetTypeId": "DR",
        "placeName": "TORONTO",
        "streetNameDisplayText": "GLEN MANOR DR, TORONTO"
      }
    ]
  },
  {
    "postal": "M4E5V0",
    "result": []
  },
  {
    "postal": "M4E8G8",
    "result": []
  },
  {
    "postal": "M4E8B1",
    "result": []
  },
  {
    "postal": "M4E4P5",
    "result": []
  },
  {
    "postal": "M4E7B2",
    "result": []
  },
  {
    "postal": "M4E0R2",
    "result": []
  },
  {
    "postal": "M4E4M4",
    "result": []
  },
  {
    "postal": "M4E7M4",
    "result": []
  },
  {
    "postal": "M4E9S7",
    "result": []
  },
  {
    "postal": "M4E5Z7",
    "result": []
  },
  {
    "postal": "M4E7J7",
    "result": []
  },
  {
    "postal": "M4E8R8",
    "result": []
  },
  {
    "postal": "M4E9X1",
    "result": []
  },
  {
    "postal": "M4E5M9",
    "result": []
  },
  {
    "postal": "M4E9B4",
    "result": []
  },
  {
    "postal": "M4E0L9",
    "result": []
  },
  {
    "postal": "M4E9G4",
    "result": []
  },
  {
    "postal": "M4E1J4",
    "result": [
      {
        "electoralDistricts": [
          {
            "election": null,
            "id": 7,
            "name": "Beaches—East York"
          }
        ],
        "pollDivisionIds": [
          10137058
        ],
        "postalCode": "M4E1J4",
        "streetName": "ISLEWORTH",
        "streetDirectionId": null,
        "streetTypeId": "AVE",
        "placeName": "TORONTO",
        "streetNameDisplayText": "ISLEWORTH AVE, TORONTO"
      }
    ]
  },
  {
    "postal": "M4E0W6",
    "result": []
  }
]
