[
  {
    "postal": "L1S9J6",
    "result": []
  },
  {
    "postal": "L1S9Z5",
    "result": []
  },
  {
    "postal": "L1S7H8",
    "result": [
      {
        "electoralDistricts": [
          {
            "election": null,
            "id": 1,
            "name": "Ajax"
          }
        ],
        "pollDivisionIds": [
          10136709
        ],
        "postalCode": "L1S7H8",
        "streetName": "LAKE DRIVEWAY",
        "streetDirectionId": "W",
        "streetTypeId": null,
        "placeName": "AJAX",
        "streetNameDisplayText": "LAKE DRIVEWAY W, AJAX"
      }
    ]
  },
  {
    "postal": "L1S0P6",
    "result": []
  },
  {
    "postal": "L1S0S7",
    "result": []
  },
  {
    "postal": "L1S8B9",
    "result": []
  },
  {
    "postal": "L1S2A6",
    "result": [
      {
        "electoralDistricts": [
          {
            "election": null,
            "id": 1,
            "name": "Ajax"
          }
        ],
        "pollDivisionIds": [
          10136698
        ],
        "postalCode": "L1S2A6",
        "streetName": "TUDOR",
        "streetDirectionId": null,
        "streetTypeId": "AVE",
        "placeName": "AJAX",
        "streetNameDisplayText": "TUDOR AVE, AJAX"
      }
    ]
  },
  {
    "postal": "L1S7V2",
    "result": []
  },
  {
    "postal": "L1S9P4",
    "result": []
  },
  {
    "postal": "L1S6G0",
    "result": []
  },
  {
    "postal": "L1S2K0",
    "result": []
  },
  {
    "postal": "L1S7N6",
    "result": [
      {
        "electoralDistricts": [
          {
            "election": null,
            "id": 1,
            "name": "Ajax"
          }
        ],
        "pollDivisionIds": [
          10136703
        ],
        "postalCode": "L1S7N6",
        "streetName": "GREENHALF",
        "streetDirectionId": null,
        "streetTypeId": "DR",
        "placeName": "AJAX",
        "streetNameDisplayText": "GREENHALF DR, AJAX"
      },
      {
        "electoralDistricts": [
          {
            "election": null,
            "id": 1,
            "name": "Ajax"
          }
        ],
        "pollDivisionIds": [
          10136703
        ],
        "postalCode": "L1S7N6",
        "streetName": "HIRONS",
        "streetDirectionId": null,
        "streetTypeId": "DR",
        "placeName": "AJAX",
        "streetNameDisplayText": "HIRONS DR, AJAX"
      },
      {
        "electoralDistricts": [
          {
            "election": null,
            "id": 1,
            "name": "Ajax"
          }
        ],
        "pollDivisionIds": [
          10136703
        ],
        "postalCode": "L1S7N6",
        "streetName": "WOOLF",
        "streetDirectionId": null,
        "streetTypeId": "CRES",
        "placeName": "AJAX",
        "streetNameDisplayText": "WOOLF CRES, AJAX"
      }
    ]
  },
  {
    "postal": "L1S5R3",
    "result": []
  },
  {
    "postal": "L1S7K0",
    "result": []
  },
  {
    "postal": "L1S3R2",
    "result": [
      {
        "electoralDistricts": [
          {
            "election": null,
            "id": 1,
            "name": "Ajax"
          }
        ],
        "pollDivisionIds": [
          10136701
        ],
        "postalCode": "L1S3R2",
        "streetName": "FULLER",
        "streetDirectionId": null,
        "streetTypeId": "RD",
        "placeName": "AJAX",
        "streetNameDisplayText": "FULLER RD, AJAX"
      }
    ]
  },
  {
    "postal": "L1S0J1",
    "result": []
  },
  {
    "postal": "L1S0B0",
    "result": []
  },
  {
    "postal": "L1S5Z2",
    "result": [
      {
        "electoralDistricts": [
          {
            "election": null,
            "id": 1,
            "name": "Ajax"
          }
        ],
        "pollDivisionIds": [
          10136698
        ],
        "postalCode": "L1S5Z2",
        "streetName": "BLACKBURN",
        "streetDirectionId": null,
        "streetTypeId": "CRES",
        "placeName": "AJAX",
        "streetNameDisplayText": "BLACKBURN CRES, AJAX"
      }
    ]
  },
  {
    "postal": "L1S7P3",
    "result": [
      {
        "electoralDistricts": [
          {
            "election": null,
            "id": 1,
            "name": "Ajax"
          }
        ],
        "pollDivisionIds": [
          10136703,
          10136705
        ],
        "postalCode": "L1S7P3",
        "streetName": "MARJORAM",
        "streetDirectionId": null,
        "streetTypeId": "DR",
        "placeName": "AJAX",
        "streetNameDisplayText": "MARJORAM DR, AJAX"
      },
      {
        "electoralDistricts": [
          {
            "election": null,
            "id": 1,
            "name": "Ajax"
          }
        ],
        "pollDivisionIds": [
          10136705
        ],
        "postalCode": "L1S7P3",
        "streetName": "SALT",
        "streetDirectionId": null,
        "streetTypeId": "DR",
        "placeName": "AJAX",
        "streetNameDisplayText": "SALT DR, AJAX"
      }
    ]
  },
  {
    "postal": "L1S2K3",
    "result": [
      {
        "electoralDistricts": [
          {
            "election": null,
            "id": 1,
            "name": "Ajax"
          }
        ],
        "pollDivisionIds": [
          10136702
        ],
        "postalCode": "L1S2K3",
        "streetName": "EXETER",
        "streetDirectionId": null,
        "streetTypeId": "RD",
        "placeName": "AJAX",
        "streetNameDisplayText": "EXETER RD, AJAX"
      }
    ]
  },
  {
    "postal": "L1S7Y6",
    "result": []
  },
  {
    "postal": "L1S1L9",
    "result": [
      {
        "electoralDistricts": [
          {
            "election": null,
            "id": 1,
            "name": "Ajax"
          }
        ],
        "pollDivisionIds": [
          10136706
        ],
        "postalCode": "L1S1L9",
        "streetName": "CLEMENTS",
        "streetDirectionId": "E",
        "streetTypeId": "RD",
        "placeName": "AJAX",
        "streetNameDisplayText": "CLEMENTS RD E, AJAX"
      }
    ]
  },
  {
    "postal": "L1S8T0",
    "result": []
  },
  {
    "postal": "L1S3K8",
    "result": [
      {
        "electoralDistricts": [
          {
            "election": null,
            "id": 1,
            "name": "Ajax"
          }
        ],
        "pollDivisionIds": [
          10136701
        ],
        "postalCode": "L1S3K8",
        "streetName": "PICKERING BEACH",
        "streetDirectionId": "S",
        "streetTypeId": "RD",
        "placeName": "AJAX",
        "streetNameDisplayText": "PICKERING BEACH RD S, AJAX"
      },
      {
        "electoralDistricts": [
          {
            "election": null,
            "id": 1,
            "name": "Ajax"
          }
        ],
        "pollDivisionIds": [
          10136706
        ],
        "postalCode": "L1S3K8",
        "streetName": "PICKERING BEACH",
        "streetDirectionId": null,
        "streetTypeId": "RD",
        "placeName": "AJAX",
        "streetNameDisplayText": "PICKERING BEACH RD, AJAX"
      }
    ]
  },
  {
    "postal": "L1S5W9",
    "result": [
      {
        "electoralDistricts": [
          {
            "election": null,
            "id": 1,
            "name": "Ajax"
          }
        ],
        "pollDivisionIds": [
          10136685,
          10136698
        ],
        "postalCode": "L1S5W9",
        "streetName": "PALMER",
        "streetDirectionId": null,
        "streetTypeId": "DR",
        "placeName": "AJAX",
        "streetNameDisplayText": "PALMER DR, AJAX"
      }
    ]
  },
  {
    "postal": "L1S6T9",
    "result": [
      {
        "electoralDistricts": [
          {
            "election": null,
            "id": 1,
            "name": "Ajax"
          }
        ],
        "pollDivisionIds": [
          10136699
        ],
        "postalCode": "L1S6T9",
        "streetName": "REDMOND",
        "streetDirectionId": null,
        "streetTypeId": "DR",
        "placeName": "AJAX",
        "streetNameDisplayText": "REDMOND DR, AJAX"
      },
      {
        "electoralDistricts": [
          {
            "election": null,
            "id": 1,
            "name": "Ajax"
          }
        ],
        "pollDivisionIds": [
          10136699
        ],
        "postalCode": "L1S6T9",
        "streetName": "WRIGHT",
        "streetDirectionId": null,
        "streetTypeId": "CRES",
        "placeName": "AJAX",
        "streetNameDisplayText": "WRIGHT CRES, AJAX"
      }
    ]
  },
  {
    "postal": "L1S4H1",
    "result": []
  },
  {
    "postal": "L1S7A2",
    "result": [
      {
        "electoralDistricts": [
          {
            "election": null,
            "id": 1,
            "name": "Ajax"
          }
        ],
        "pollDivisionIds": [
          10136703
        ],
        "postalCode": "L1S7A2",
        "streetName": "HEWITT",
        "streetDirectionId": null,
        "streetTypeId": "CRES",
        "placeName": "AJAX",
        "streetNameDisplayText": "HEWITT CRES, AJAX"
      }
    ]
  },
  {
    "postal": "L1S5G0",
    "result": []
  },
  {
    "postal": "L1S8V5",
    "result": []
  },
  {
    "postal": "L1S2Y8",
    "result": [
      {
        "electoralDistricts": [
          {
            "election": null,
            "id": 1,
            "name": "Ajax"
          }
        ],
        "pollDivisionIds": [
          10136706
        ],
        "postalCode": "L1S2Y8",
        "streetName": "BRYANT",
        "streetDirectionId": null,
        "streetTypeId": "RD",
        "placeName": "AJAX",
        "streetNameDisplayText": "BRYANT RD, AJAX"
      }
    ]
  },
  {
    "postal": "L1S2B6",
    "result": [
      {
        "electoralDistricts": [
          {
            "election": null,
            "id": 1,
            "name": "Ajax"
          }
        ],
        "pollDivisionIds": [
          10136698
        ],
        "postalCode": "L1S2B6",
        "streetName": "HARWOOD",
        "streetDirectionId": "S",
        "streetTypeId": "AVE",
        "placeName": "AJAX",
        "streetNameDisplayText": "HARWOOD AVE S, AJAX"
      }
    ]
  },
  {
    "postal": "L1S4W8",
    "result": [
      {
        "electoralDistricts": [
          {
            "election": null,
            "id": 1,
            "name": "Ajax"
          }
        ],
        "pollDivisionIds": [
          10136709
        ],
        "postalCode": "L1S4W8",
        "streetName": "FARROW",
        "streetDirectionId": null,
        "streetTypeId": "CRES",
        "placeName": "AJAX",
        "streetNameDisplayText": "FARROW CRES, AJAX"
      }
    ]
  },
  {
    "postal": "L1S8H7",
    "result": []
  },
  {
    "postal": "L1S5P1",
    "result": []
  },
  {
    "postal": "L1S2B8",
    "result": [
      {
        "electoralDistricts": [
          {
            "election": null,
            "id": 1,
            "name": "Ajax"
          }
        ],
        "pollDivisionIds": [
          10136697
        ],
        "postalCode": "L1S2B8",
        "streetName": "HARWOOD",
        "streetDirectionId": "S",
        "streetTypeId": "AVE",
        "placeName": "AJAX",
        "streetNameDisplayText": "HARWOOD AVE S, AJAX"
      }
    ]
  },
  {
    "postal": "L1S0P2",
    "result": []
  },
  {
    "postal": "L1S9M1",
    "result": []
  },
  {
    "postal": "L1S3G0",
    "result": []
  },
  {
    "postal": "L1S9Z2",
    "result": []
  },
  {
    "postal": "L1S2A0",
    "result": []
  },
  {
    "postal": "L1S6Y0",
    "result": []
  },
  {
    "postal": "L1S2Z8",
    "result": [
      {
        "electoralDistricts": [
          {
            "election": null,
            "id": 1,
            "name": "Ajax"
          }
        ],
        "pollDivisionIds": [
          10136707
        ],
        "postalCode": "L1S2Z8",
        "streetName": "LAWRIE",
        "streetDirectionId": null,
        "streetTypeId": "RD",
        "placeName": "AJAX",
        "streetNameDisplayText": "LAWRIE RD, AJAX"
      }
    ]
  },
  {
    "postal": "L1S7Y3",
    "result": []
  },
  {
    "postal": "L1S6Z5",
    "result": [
      {
        "electoralDistricts": [
          {
            "election": null,
            "id": 1,
            "name": "Ajax"
          }
        ],
        "pollDivisionIds": [
          10136703
        ],
        "postalCode": "L1S6Z5",
        "streetName": "CLUETT",
        "streetDirectionId": null,
        "streetTypeId": "DR",
        "placeName": "AJAX",
        "streetNameDisplayText": "CLUETT DR, AJAX"
      }
    ]
  },
  {
    "postal": "L1S6E0",
    "result": []
  },
  {
    "postal": "L1S9B7",
    "result": []
  },
  {
    "postal": "L1S9S5",
    "result": []
  },
  {
    "postal": "L1S3X3",
    "result": [
      {
        "electoralDistricts": [
          {
            "election": null,
            "id": 1,
            "name": "Ajax"
          }
        ],
        "pollDivisionIds": [
          10136709
        ],
        "postalCode": "L1S3X3",
        "streetName": "LAKE DRIVEWAY",
        "streetDirectionId": "W",
        "streetTypeId": null,
        "placeName": "AJAX",
        "streetNameDisplayText": "LAKE DRIVEWAY W, AJAX"
      }
    ]
  },
  {
    "postal": "L1S7R5",
    "result": [
      {
        "electoralDistricts": [
          {
            "election": null,
            "id": 1,
            "name": "Ajax"
          }
        ],
        "pollDivisionIds": [
          10136703
        ],
        "postalCode": "L1S7R5",
        "streetName": "ANGIER",
        "streetDirectionId": null,
        "streetTypeId": "CRES",
        "placeName": "AJAX",
        "streetNameDisplayText": "ANGIER CRES, AJAX"
      },
      {
        "electoralDistricts": [
          {
            "election": null,
            "id": 1,
            "name": "Ajax"
          }
        ],
        "pollDivisionIds": [
          10136703
        ],
        "postalCode": "L1S7R5",
        "streetName": "BLACK",
        "streetDirectionId": null,
        "streetTypeId": "DR",
        "placeName": "AJAX",
        "streetNameDisplayText": "BLACK DR, AJAX"
      },
      {
        "electoralDistricts": [
          {
            "election": null,
            "id": 1,
            "name": "Ajax"
          }
        ],
        "pollDivisionIds": [
          10136703
        ],
        "postalCode": "L1S7R5",
        "streetName": "GREENHALF",
        "streetDirectionId": null,
        "streetTypeId": "DR",
        "placeName": "AJAX",
        "streetNameDisplayText": "GREENHALF DR, AJAX"
      }
    ]
  },
  {
    "postal": "L1S2X3",
    "result": [
      {
        "electoralDistricts": [
          {
            "election": null,
            "id": 1,
            "name": "Ajax"
          }
        ],
        "pollDivisionIds": [
          10136706
        ],
        "postalCode": "L1S2X3",
        "streetName": "TURNBULL",
        "streetDirectionId": null,
        "streetTypeId": "RD",
        "placeName": "AJAX",
        "streetNameDisplayText": "TURNBULL RD, AJAX"
      }
    ]
  },
  {
    "postal": "L1S8Z9",
    "result": []
  },
  {
    "postal": "L1S0N4",
    "result": []
  },
  {
    "postal": "L1S1K1",
    "result": [
      {
        "electoralDistricts": [
          {
            "election": null,
            "id": 1,
            "name": "Ajax"
          }
        ],
        "pollDivisionIds": [
          10136707
        ],
        "postalCode": "L1S1K1",
        "streetName": "HARLAND",
        "streetDirectionId": null,
        "streetTypeId": "CRES",
        "placeName": "AJAX",
        "streetNameDisplayText": "HARLAND CRES, AJAX"
      }
    ]
  },
  {
    "postal": "L1S1S3",
    "result": [
      {
        "electoralDistricts": [
          {
            "election": null,
            "id": 1,
            "name": "Ajax"
          }
        ],
        "pollDivisionIds": [
          10136701
        ],
        "postalCode": "L1S1S3",
        "streetName": "STATION",
        "streetDirectionId": null,
        "streetTypeId": "ST",
        "placeName": "AJAX",
        "streetNameDisplayText": "STATION ST, AJAX"
      }
    ]
  },
  {
    "postal": "L1S6M4",
    "result": [
      {
        "electoralDistricts": [
          {
            "election": null,
            "id": 1,
            "name": "Ajax"
          }
        ],
        "pollDivisionIds": [
          10136701
        ],
        "postalCode": "L1S6M4",
        "streetName": "MONARCH",
        "streetDirectionId": null,
        "streetTypeId": "AVE",
        "placeName": "AJAX",
        "streetNameDisplayText": "MONARCH AVE, AJAX"
      }
    ]
  },
  {
    "postal": "L1S9A9",
    "result": []
  },
  {
    "postal": "L1S9Z9",
    "result": []
  },
  {
    "postal": "L1S6T4",
    "result": [
      {
        "electoralDistricts": [
          {
            "election": null,
            "id": 1,
            "name": "Ajax"
          }
        ],
        "pollDivisionIds": [
          10136699
        ],
        "postalCode": "L1S6T4",
        "streetName": "WRIGHT",
        "streetDirectionId": null,
        "streetTypeId": "CRES",
        "placeName": "AJAX",
        "streetNameDisplayText": "WRIGHT CRES, AJAX"
      }
    ]
  },
  {
    "postal": "L1S0B2",
    "result": [
      {
        "electoralDistricts": [
          {
            "election": null,
            "id": 1,
            "name": "Ajax"
          }
        ],
        "pollDivisionIds": [
          10136701
        ],
        "postalCode": "L1S0B2",
        "streetName": "STONEWOOD",
        "streetDirectionId": null,
        "streetTypeId": "ST",
        "placeName": "AJAX",
        "streetNameDisplayText": "STONEWOOD ST, AJAX"
      }
    ]
  },
  {
    "postal": "L1S2L9",
    "result": [
      {
        "electoralDistricts": [
          {
            "election": null,
            "id": 1,
            "name": "Ajax"
          }
        ],
        "pollDivisionIds": [
          10136702
        ],
        "postalCode": "L1S2L9",
        "streetName": "KINGS",
        "streetDirectionId": null,
        "streetTypeId": "CRES",
        "placeName": "AJAX",
        "streetNameDisplayText": "KINGS CRES, AJAX"
      }
    ]
  },
  {
    "postal": "L1S8K9",
    "result": []
  },
  {
    "postal": "L1S2H9",
    "result": [
      {
        "electoralDistricts": [
          {
            "election": null,
            "id": 1,
            "name": "Ajax"
          }
        ],
        "pollDivisionIds": [
          10136702
        ],
        "postalCode": "L1S2H9",
        "streetName": "HARWOOD",
        "streetDirectionId": "S",
        "streetTypeId": "AVE",
        "placeName": "AJAX",
        "streetNameDisplayText": "HARWOOD AVE S, AJAX"
      }
    ]
  },
  {
    "postal": "L1S3Z6",
    "result": [
      {
        "electoralDistricts": [
          {
            "election": null,
            "id": 1,
            "name": "Ajax"
          }
        ],
        "pollDivisionIds": [
          10136709
        ],
        "postalCode": "L1S3Z6",
        "streetName": "RANDS",
        "streetDirectionId": null,
        "streetTypeId": "RD",
        "placeName": "AJAX",
        "streetNameDisplayText": "RANDS RD, AJAX"
      }
    ]
  },
  {
    "postal": "L1S3B0",
    "result": []
  },
  {
    "postal": "L1S2H8",
    "result": [
      {
        "electoralDistricts": [
          {
            "election": null,
            "id": 1,
            "name": "Ajax"
          }
        ],
        "pollDivisionIds": [
          10136702
        ],
        "postalCode": "L1S2H8",
        "streetName": "HARWOOD",
        "streetDirectionId": "S",
        "streetTypeId": "AVE",
        "placeName": "AJAX",
        "streetNameDisplayText": "HARWOOD AVE S, AJAX"
      }
    ]
  },
  {
    "postal": "L1S3X2",
    "result": [
      {
        "electoralDistricts": [
          {
            "election": null,
            "id": 1,
            "name": "Ajax"
          }
        ],
        "pollDivisionIds": [
          10136709
        ],
        "postalCode": "L1S3X2",
        "streetName": "LAKE DRIVEWAY",
        "streetDirectionId": "W",
        "streetTypeId": null,
        "placeName": "AJAX",
        "streetNameDisplayText": "LAKE DRIVEWAY W, AJAX"
      }
    ]
  },
  {
    "postal": "L1S2E9",
    "result": [
      {
        "electoralDistricts": [
          {
            "election": null,
            "id": 1,
            "name": "Ajax"
          }
        ],
        "pollDivisionIds": [
          10136701
        ],
        "postalCode": "L1S2E9",
        "streetName": "MACKENZIE",
        "streetDirectionId": null,
        "streetTypeId": "AVE",
        "placeName": "AJAX",
        "streetNameDisplayText": "MACKENZIE AVE, AJAX"
      }
    ]
  },
  {
    "postal": "L1S9P6",
    "result": []
  },
  {
    "postal": "L1S9E2",
    "result": []
  },
  {
    "postal": "L1S9H2",
    "result": []
  },
  {
    "postal": "L1S1S8",
    "result": [
      {
        "electoralDistricts": [
          {
            "election": null,
            "id": 1,
            "name": "Ajax"
          }
        ],
        "pollDivisionIds": [
          10136698
        ],
        "postalCode": "L1S1S8",
        "streetName": "YORK",
        "streetDirectionId": null,
        "streetTypeId": "ST",
        "placeName": "AJAX",
        "streetNameDisplayText": "YORK ST, AJAX"
      }
    ]
  },
  {
    "postal": "L1S3M6",
    "result": [
      {
        "electoralDistricts": [
          {
            "election": null,
            "id": 1,
            "name": "Ajax"
          }
        ],
        "pollDivisionIds": [
          10136707
        ],
        "postalCode": "L1S3M6",
        "streetName": "CLOVER RIDGE",
        "streetDirectionId": "W",
        "streetTypeId": "DR",
        "placeName": "AJAX",
        "streetNameDisplayText": "CLOVER RIDGE DR W, AJAX"
      }
    ]
  },
  {
    "postal": "L1S6Z8",
    "result": [
      {
        "electoralDistricts": [
          {
            "election": null,
            "id": 1,
            "name": "Ajax"
          }
        ],
        "pollDivisionIds": [
          10136703
        ],
        "postalCode": "L1S6Z8",
        "streetName": "BARNARD",
        "streetDirectionId": null,
        "streetTypeId": "CRT",
        "placeName": "AJAX",
        "streetNameDisplayText": "BARNARD CRT, AJAX"
      }
    ]
  },
  {
    "postal": "L1S4J2",
    "result": []
  },
  {
    "postal": "L1S9Y1",
    "result": []
  },
  {
    "postal": "L1S8V6",
    "result": []
  },
  {
    "postal": "L1S6B2",
    "result": [
      {
        "electoralDistricts": [
          {
            "election": null,
            "id": 1,
            "name": "Ajax"
          }
        ],
        "pollDivisionIds": [
          10136700
        ],
        "postalCode": "L1S6B2",
        "streetName": "CHURCH",
        "streetDirectionId": "S",
        "streetTypeId": "ST",
        "placeName": "AJAX",
        "streetNameDisplayText": "CHURCH ST S, AJAX"
      }
    ]
  },
  {
    "postal": "L1S1P8",
    "result": [
      {
        "electoralDistricts": [
          {
            "election": null,
            "id": 1,
            "name": "Ajax"
          }
        ],
        "pollDivisionIds": [
          10136702
        ],
        "postalCode": "L1S1P8",
        "streetName": "RIDEOUT",
        "streetDirectionId": null,
        "streetTypeId": "ST",
        "placeName": "AJAX",
        "streetNameDisplayText": "RIDEOUT ST, AJAX"
      }
    ]
  },
  {
    "postal": "L1S0V8",
    "result": []
  },
  {
    "postal": "L1S4Y0",
    "result": []
  },
  {
    "postal": "L1S2T4",
    "result": [
      {
        "electoralDistricts": [
          {
            "election": null,
            "id": 1,
            "name": "Ajax"
          }
        ],
        "pollDivisionIds": [
          10136706
        ],
        "postalCode": "L1S2T4",
        "streetName": "DEACON",
        "streetDirectionId": null,
        "streetTypeId": "LANE",
        "placeName": "AJAX",
        "streetNameDisplayText": "DEACON LANE, AJAX"
      }
    ]
  },
  {
    "postal": "L1S2S3",
    "result": [
      {
        "electoralDistricts": [
          {
            "election": null,
            "id": 1,
            "name": "Ajax"
          }
        ],
        "pollDivisionIds": [
          10136701
        ],
        "postalCode": "L1S2S3",
        "streetName": "TULLOCH",
        "streetDirectionId": null,
        "streetTypeId": "DR",
        "placeName": "AJAX",
        "streetNameDisplayText": "TULLOCH DR, AJAX"
      }
    ]
  },
  {
    "postal": "L1S0K0",
    "result": []
  },
  {
    "postal": "L1S5N1",
    "result": []
  },
  {
    "postal": "L1S7T0",
    "result": []
  },
  {
    "postal": "L1S9N2",
    "result": []
  },
  {
    "postal": "L1S5L1",
    "result": [
      {
        "electoralDistricts": [
          {
            "election": null,
            "id": 1,
            "name": "Ajax"
          }
        ],
        "pollDivisionIds": [
          10136700
        ],
        "postalCode": "L1S5L1",
        "streetName": "BRAMWELL",
        "streetDirectionId": null,
        "streetTypeId": "DR",
        "placeName": "AJAX",
        "streetNameDisplayText": "BRAMWELL DR, AJAX"
      },
      {
        "electoralDistricts": [
          {
            "election": null,
            "id": 1,
            "name": "Ajax"
          }
        ],
        "pollDivisionIds": [
          10136700
        ],
        "postalCode": "L1S5L1",
        "streetName": "KIRKHAM",
        "streetDirectionId": null,
        "streetTypeId": "DR",
        "placeName": "AJAX",
        "streetNameDisplayText": "KIRKHAM DR, AJAX"
      }
    ]
  },
  {
    "postal": "L1S7G5",
    "result": [
      {
        "electoralDistricts": [
          {
            "election": null,
            "id": 1,
            "name": "Ajax"
          }
        ],
        "pollDivisionIds": [
          10136699
        ],
        "postalCode": "L1S7G5",
        "streetName": "RITCHIE",
        "streetDirectionId": null,
        "streetTypeId": "AVE",
        "placeName": "AJAX",
        "streetNameDisplayText": "RITCHIE AVE, AJAX"
      }
    ]
  },
  {
    "postal": "L1S6K2",
    "result": [
      {
        "electoralDistricts": [
          {
            "election": null,
            "id": 1,
            "name": "Ajax"
          }
        ],
        "pollDivisionIds": [
          10136700
        ],
        "postalCode": "L1S6K2",
        "streetName": "MILL",
        "streetDirectionId": null,
        "streetTypeId": "ST",
        "placeName": "AJAX",
        "streetNameDisplayText": "MILL ST, AJAX"
      }
    ]
  },
  {
    "postal": "L1S6P9",
    "result": [
      {
        "electoralDistricts": [
          {
            "election": null,
            "id": 1,
            "name": "Ajax"
          }
        ],
        "pollDivisionIds": [
          10136699
        ],
        "postalCode": "L1S6P9",
        "streetName": "PATTERSON",
        "streetDirectionId": null,
        "streetTypeId": "CRES",
        "placeName": "AJAX",
        "streetNameDisplayText": "PATTERSON CRES, AJAX"
      }
    ]
  },
  {
    "postal": "L1S0E6",
    "result": []
  },
  {
    "postal": "L1S8R9",
    "result": []
  },
  {
    "postal": "L1S3G9",
    "result": [
      {
        "electoralDistricts": [
          {
            "election": null,
            "id": 1,
            "name": "Ajax"
          }
        ],
        "pollDivisionIds": [
          10136708
        ],
        "postalCode": "L1S3G9",
        "streetName": "BOLLAND",
        "streetDirectionId": null,
        "streetTypeId": "CRES",
        "placeName": "AJAX",
        "streetNameDisplayText": "BOLLAND CRES, AJAX"
      }
    ]
  },
  {
    "postal": "L1S0V7",
    "result": []
  },
  {
    "postal": "L1S2Z1",
    "result": [
      {
        "electoralDistricts": [
          {
            "election": null,
            "id": 1,
            "name": "Ajax"
          }
        ],
        "pollDivisionIds": [
          10136706
        ],
        "postalCode": "L1S2Z1",
        "streetName": "BRYANT",
        "streetDirectionId": null,
        "streetTypeId": "RD",
        "placeName": "AJAX",
        "streetNameDisplayText": "BRYANT RD, AJAX"
      }
    ]
  },
  {
    "postal": "L1S7N1",
    "result": [
      {
        "electoralDistricts": [
          {
            "election": null,
            "id": 1,
            "name": "Ajax"
          }
        ],
        "pollDivisionIds": [
          10136697
        ],
        "postalCode": "L1S7N1",
        "streetName": "TORR",
        "streetDirectionId": null,
        "streetTypeId": "LANE",
        "placeName": "AJAX",
        "streetNameDisplayText": "TORR LANE, AJAX"
      }
    ]
  },
  {
    "postal": "L1S3C6",
    "result": [
      {
        "electoralDistricts": [
          {
            "election": null,
            "id": 1,
            "name": "Ajax"
          }
        ],
        "pollDivisionIds": [
          10136701
        ],
        "postalCode": "L1S3C6",
        "streetName": "CLEMENTS",
        "streetDirectionId": "W",
        "streetTypeId": "RD",
        "placeName": "AJAX",
        "streetNameDisplayText": "CLEMENTS RD W, AJAX"
      }
    ]
  },
  {
    "postal": "L1S4M1",
    "result": []
  },
  {
    "postal": "L1S9K2",
    "result": []
  },
  {
    "postal": "L1S9S6",
    "result": []
  },
  {
    "postal": "L1S4X1",
    "result": [
      {
        "electoralDistricts": [
          {
            "election": null,
            "id": 1,
            "name": "Ajax"
          }
        ],
        "pollDivisionIds": [
          10136709
        ],
        "postalCode": "L1S4X1",
        "streetName": "FARROW",
        "streetDirectionId": null,
        "streetTypeId": "CRES",
        "placeName": "AJAX",
        "streetNameDisplayText": "FARROW CRES, AJAX"
      },
      {
        "electoralDistricts": [
          {
            "election": null,
            "id": 1,
            "name": "Ajax"
          }
        ],
        "pollDivisionIds": [
          10136709
        ],
        "postalCode": "L1S4X1",
        "streetName": "PARKES",
        "streetDirectionId": null,
        "streetTypeId": "DR",
        "placeName": "AJAX",
        "streetNameDisplayText": "PARKES DR, AJAX"
      }
    ]
  },
  {
    "postal": "L1S8W2",
    "result": []
  },
  {
    "postal": "L1S7N2",
    "result": [
      {
        "electoralDistricts": [
          {
            "election": null,
            "id": 1,
            "name": "Ajax"
          }
        ],
        "pollDivisionIds": [
          10136697
        ],
        "postalCode": "L1S7N2",
        "streetName": "TORR",
        "streetDirectionId": null,
        "streetTypeId": "LANE",
        "placeName": "AJAX",
        "streetNameDisplayText": "TORR LANE, AJAX"
      },
      {
        "electoralDistricts": [
          {
            "election": null,
            "id": 1,
            "name": "Ajax"
          }
        ],
        "pollDivisionIds": [
          10136697
        ],
        "postalCode": "L1S7N2",
        "streetName": "TROTT",
        "streetDirectionId": null,
        "streetTypeId": "LANE",
        "placeName": "AJAX",
        "streetNameDisplayText": "TROTT LANE, AJAX"
      },
      {
        "electoralDistricts": [
          {
            "election": null,
            "id": 1,
            "name": "Ajax"
          }
        ],
        "pollDivisionIds": [
          10136697
        ],
        "postalCode": "L1S7N2",
        "streetName": "TWILLEY",
        "streetDirectionId": null,
        "streetTypeId": "LANE",
        "placeName": "AJAX",
        "streetNameDisplayText": "TWILLEY LANE, AJAX"
      }
    ]
  },
  {
    "postal": "L1S8S3",
    "result": []
  },
  {
    "postal": "L1S4V0",
    "result": []
  },
  {
    "postal": "L1S6W4",
    "result": [
      {
        "electoralDistricts": [
          {
            "election": null,
            "id": 1,
            "name": "Ajax"
          }
        ],
        "pollDivisionIds": [
          10136709
        ],
        "postalCode": "L1S6W4",
        "streetName": "WESTNEY",
        "streetDirectionId": "S",
        "streetTypeId": "RD",
        "placeName": "AJAX",
        "streetNameDisplayText": "WESTNEY RD S, AJAX"
      }
    ]
  },
  {
    "postal": "L1S5M1",
    "result": []
  },
  {
    "postal": "L1S0S4",
    "result": []
  },
  {
    "postal": "L1S5X6",
    "result": [
      {
        "electoralDistricts": [
          {
            "election": null,
            "id": 1,
            "name": "Ajax"
          }
        ],
        "pollDivisionIds": [
          10136698
        ],
        "postalCode": "L1S5X6",
        "streetName": "HARLEY",
        "streetDirectionId": null,
        "streetTypeId": "DR",
        "placeName": "AJAX",
        "streetNameDisplayText": "HARLEY DR, AJAX"
      },
      {
        "electoralDistricts": [
          {
            "election": null,
            "id": 1,
            "name": "Ajax"
          }
        ],
        "pollDivisionIds": [
          10136698
        ],
        "postalCode": "L1S5X6",
        "streetName": "TRAWLEY",
        "streetDirectionId": null,
        "streetTypeId": "CRES",
        "placeName": "AJAX",
        "streetNameDisplayText": "TRAWLEY CRES, AJAX"
      }
    ]
  },
  {
    "postal": "L1S8L5",
    "result": []
  },
  {
    "postal": "L1S5M8",
    "result": []
  },
  {
    "postal": "L1S2G3",
    "result": [
      {
        "electoralDistricts": [
          {
            "election": null,
            "id": 1,
            "name": "Ajax"
          }
        ],
        "pollDivisionIds": [
          10136701
        ],
        "postalCode": "L1S2G3",
        "streetName": "DOWTY",
        "streetDirectionId": null,
        "streetTypeId": "RD",
        "placeName": "AJAX",
        "streetNameDisplayText": "DOWTY RD, AJAX"
      }
    ]
  },
  {
    "postal": "L1S8E4",
    "result": []
  },
  {
    "postal": "L1S7S9",
    "result": [
      {
        "electoralDistricts": [
          {
            "election": null,
            "id": 1,
            "name": "Ajax"
          }
        ],
        "pollDivisionIds": [
          10136703
        ],
        "postalCode": "L1S7S9",
        "streetName": "BAYLY",
        "streetDirectionId": "E",
        "streetTypeId": "ST",
        "placeName": "AJAX",
        "streetNameDisplayText": "BAYLY ST E, AJAX"
      }
    ]
  },
  {
    "postal": "L1S1K3",
    "result": [
      {
        "electoralDistricts": [
          {
            "election": null,
            "id": 1,
            "name": "Ajax"
          }
        ],
        "pollDivisionIds": [
          10136706
        ],
        "postalCode": "L1S1K3",
        "streetName": "HARLAND",
        "streetDirectionId": null,
        "streetTypeId": "CRES",
        "placeName": "AJAX",
        "streetNameDisplayText": "HARLAND CRES, AJAX"
      }
    ]
  },
  {
    "postal": "L1S4E1",
    "result": [
      {
        "electoralDistricts": [
          {
            "election": null,
            "id": 1,
            "name": "Ajax"
          }
        ],
        "pollDivisionIds": [
          10136707
        ],
        "postalCode": "L1S4E1",
        "streetName": "HARBORD",
        "streetDirectionId": null,
        "streetTypeId": "CRES",
        "placeName": "AJAX",
        "streetNameDisplayText": "HARBORD CRES, AJAX"
      }
    ]
  },
  {
    "postal": "L1S4R2",
    "result": []
  },
  {
    "postal": "L1S6T0",
    "result": []
  },
  {
    "postal": "L1S3K5",
    "result": [
      {
        "electoralDistricts": [
          {
            "election": null,
            "id": 1,
            "name": "Ajax"
          }
        ],
        "pollDivisionIds": [
          10136701
        ],
        "postalCode": "L1S3K5",
        "streetName": "CLEMENTS",
        "streetDirectionId": "W",
        "streetTypeId": "RD",
        "placeName": "AJAX",
        "streetNameDisplayText": "CLEMENTS RD W, AJAX"
      }
    ]
  },
  {
    "postal": "L1S3S3",
    "result": [
      {
        "electoralDistricts": [
          {
            "election": null,
            "id": 1,
            "name": "Ajax"
          }
        ],
        "pollDivisionIds": [
          10136708
        ],
        "postalCode": "L1S3S3",
        "streetName": "FINLEY",
        "streetDirectionId": null,
        "streetTypeId": "AVE",
        "placeName": "AJAX",
        "streetNameDisplayText": "FINLEY AVE, AJAX"
      }
    ]
  },
  {
    "postal": "L1S3L4",
    "result": [
      {
        "electoralDistricts": [
          {
            "election": null,
            "id": 1,
            "name": "Ajax"
          }
        ],
        "pollDivisionIds": [
          10136707
        ],
        "postalCode": "L1S3L4",
        "streetName": "JACQUES",
        "streetDirectionId": null,
        "streetTypeId": "LANE",
        "placeName": "AJAX",
        "streetNameDisplayText": "JACQUES LANE, AJAX"
      }
    ]
  },
  {
    "postal": "L1S9Y2",
    "result": []
  },
  {
    "postal": "L1S1E0",
    "result": []
  },
  {
    "postal": "L1S9A4",
    "result": []
  },
  {
    "postal": "L1S1L3",
    "result": [
      {
        "electoralDistricts": [
          {
            "election": null,
            "id": 1,
            "name": "Ajax"
          }
        ],
        "pollDivisionIds": [
          10136706
        ],
        "postalCode": "L1S1L3",
        "streetName": "CLEMENTS",
        "streetDirectionId": "E",
        "streetTypeId": "RD",
        "placeName": "AJAX",
        "streetNameDisplayText": "CLEMENTS RD E, AJAX"
      }
    ]
  },
  {
    "postal": "L1S6N1",
    "result": [
      {
        "electoralDistricts": [
          {
            "election": null,
            "id": 1,
            "name": "Ajax"
          }
        ],
        "pollDivisionIds": [
          10136709
        ],
        "postalCode": "L1S6N1",
        "streetName": "FINLEY",
        "streetDirectionId": null,
        "streetTypeId": "AVE",
        "placeName": "AJAX",
        "streetNameDisplayText": "FINLEY AVE, AJAX"
      }
    ]
  },
  {
    "postal": "L1S6G7",
    "result": [
      {
        "electoralDistricts": [
          {
            "election": null,
            "id": 1,
            "name": "Ajax"
          }
        ],
        "pollDivisionIds": [
          10136700
        ],
        "postalCode": "L1S6G7",
        "streetName": "CLARELYN",
        "streetDirectionId": null,
        "streetTypeId": "BLVD",
        "placeName": "AJAX",
        "streetNameDisplayText": "CLARELYN BLVD, AJAX"
      }
    ]
  },
  {
    "postal": "L1S7W1",
    "result": []
  },
  {
    "postal": "L1S4M6",
    "result": []
  },
  {
    "postal": "L1S1K0",
    "result": []
  },
  {
    "postal": "L1S3E2",
    "result": [
      {
        "electoralDistricts": [
          {
            "election": null,
            "id": 1,
            "name": "Ajax"
          }
        ],
        "pollDivisionIds": [
          10136707
        ],
        "postalCode": "L1S3E2",
        "streetName": "HARRIDINE",
        "streetDirectionId": null,
        "streetTypeId": "LANE",
        "placeName": "AJAX",
        "streetNameDisplayText": "HARRIDINE LANE, AJAX"
      }
    ]
  },
  {
    "postal": "L1S5H4",
    "result": [
      {
        "electoralDistricts": [
          {
            "election": null,
            "id": 1,
            "name": "Ajax"
          }
        ],
        "pollDivisionIds": [
          10136697
        ],
        "postalCode": "L1S5H4",
        "streetName": "HARMAN",
        "streetDirectionId": null,
        "streetTypeId": "DR",
        "placeName": "AJAX",
        "streetNameDisplayText": "HARMAN DR, AJAX"
      },
      {
        "electoralDistricts": [
          {
            "election": null,
            "id": 1,
            "name": "Ajax"
          }
        ],
        "pollDivisionIds": [
          10136697
        ],
        "postalCode": "L1S5H4",
        "streetName": "MANDRAKE",
        "streetDirectionId": null,
        "streetTypeId": "ST",
        "placeName": "AJAX",
        "streetNameDisplayText": "MANDRAKE ST, AJAX"
      }
    ]
  },
  {
    "postal": "L1S1K7",
    "result": [
      {
        "electoralDistricts": [
          {
            "election": null,
            "id": 1,
            "name": "Ajax"
          }
        ],
        "pollDivisionIds": [
          10136706
        ],
        "postalCode": "L1S1K7",
        "streetName": "FOORD",
        "streetDirectionId": null,
        "streetTypeId": "RD",
        "placeName": "AJAX",
        "streetNameDisplayText": "FOORD RD, AJAX"
      }
    ]
  },
  {
    "postal": "L1S0H0",
    "result": []
  },
  {
    "postal": "L1S0J3",
    "result": []
  },
  {
    "postal": "L1S1X6",
    "result": [
      {
        "electoralDistricts": [
          {
            "election": null,
            "id": 1,
            "name": "Ajax"
          }
        ],
        "pollDivisionIds": [
          10136696,
          10136697
        ],
        "postalCode": "L1S1X6",
        "streetName": "OAK",
        "streetDirectionId": null,
        "streetTypeId": "ST",
        "placeName": "AJAX",
        "streetNameDisplayText": "OAK ST, AJAX"
      }
    ]
  },
  {
    "postal": "L1S2Z6",
    "result": [
      {
        "electoralDistricts": [
          {
            "election": null,
            "id": 1,
            "name": "Ajax"
          }
        ],
        "pollDivisionIds": [
          10136707
        ],
        "postalCode": "L1S2Z6",
        "streetName": "COWLING",
        "streetDirectionId": null,
        "streetTypeId": "CRES",
        "placeName": "AJAX",
        "streetNameDisplayText": "COWLING CRES, AJAX"
      }
    ]
  },
  {
    "postal": "L1S4R9",
    "result": []
  },
  {
    "postal": "L1S0W8",
    "result": []
  },
  {
    "postal": "L1S1L4",
    "result": [
      {
        "electoralDistricts": [
          {
            "election": null,
            "id": 1,
            "name": "Ajax"
          }
        ],
        "pollDivisionIds": [
          10136706
        ],
        "postalCode": "L1S1L4",
        "streetName": "CLEMENTS",
        "streetDirectionId": "E",
        "streetTypeId": "RD",
        "placeName": "AJAX",
        "streetNameDisplayText": "CLEMENTS RD E, AJAX"
      }
    ]
  },
  {
    "postal": "L1S0C8",
    "result": [
      {
        "electoralDistricts": [
          {
            "election": null,
            "id": 1,
            "name": "Ajax"
          }
        ],
        "pollDivisionIds": [
          10136703
        ],
        "postalCode": "L1S0C8",
        "streetName": "HICKMAN",
        "streetDirectionId": null,
        "streetTypeId": "RD",
        "placeName": "AJAX",
        "streetNameDisplayText": "HICKMAN RD, AJAX"
      },
      {
        "electoralDistricts": [
          {
            "election": null,
            "id": 1,
            "name": "Ajax"
          }
        ],
        "pollDivisionIds": [
          10136703
        ],
        "postalCode": "L1S0C8",
        "streetName": "MICHAELMAN",
        "streetDirectionId": null,
        "streetTypeId": "RD",
        "placeName": "AJAX",
        "streetNameDisplayText": "MICHAELMAN RD, AJAX"
      }
    ]
  },
  {
    "postal": "L1S9X7",
    "result": []
  },
  {
    "postal": "L1S4T1",
    "result": [
      {
        "electoralDistricts": [
          {
            "election": null,
            "id": 1,
            "name": "Ajax"
          }
        ],
        "pollDivisionIds": [
          10136709
        ],
        "postalCode": "L1S4T1",
        "streetName": "LOVE",
        "streetDirectionId": null,
        "streetTypeId": "CRES",
        "placeName": "AJAX",
        "streetNameDisplayText": "LOVE CRES, AJAX"
      }
    ]
  },
  {
    "postal": "L1S0M0",
    "result": []
  },
  {
    "postal": "L1S6A2",
    "result": [
      {
        "electoralDistricts": [
          {
            "election": null,
            "id": 1,
            "name": "Ajax"
          }
        ],
        "pollDivisionIds": [
          10136700
        ],
        "postalCode": "L1S6A2",
        "streetName": "BURNINGHAM",
        "streetDirectionId": null,
        "streetTypeId": "CRES",
        "placeName": "AJAX",
        "streetNameDisplayText": "BURNINGHAM CRES, AJAX"
      }
    ]
  },
  {
    "postal": "L1S9S8",
    "result": []
  },
  {
    "postal": "L1S9T4",
    "result": []
  },
  {
    "postal": "L1S9Y4",
    "result": []
  },
  {
    "postal": "L1S6G5",
    "result": [
      {
        "electoralDistricts": [
          {
            "election": null,
            "id": 1,
            "name": "Ajax"
          }
        ],
        "pollDivisionIds": [
          10136700
        ],
        "postalCode": "L1S6G5",
        "streetName": "CARWIN",
        "streetDirectionId": null,
        "streetTypeId": "CRES",
        "placeName": "AJAX",
        "streetNameDisplayText": "CARWIN CRES, AJAX"
      }
    ]
  },
  {
    "postal": "L1S6H9",
    "result": [
      {
        "electoralDistricts": [
          {
            "election": null,
            "id": 1,
            "name": "Ajax"
          }
        ],
        "pollDivisionIds": [
          10136700
        ],
        "postalCode": "L1S6H9",
        "streetName": "JACWIN",
        "streetDirectionId": null,
        "streetTypeId": "DR",
        "placeName": "AJAX",
        "streetNameDisplayText": "JACWIN DR, AJAX"
      }
    ]
  },
  {
    "postal": "L1S2P3",
    "result": [
      {
        "electoralDistricts": [
          {
            "election": null,
            "id": 1,
            "name": "Ajax"
          }
        ],
        "pollDivisionIds": [
          10136702
        ],
        "postalCode": "L1S2P3",
        "streetName": "BURCHER",
        "streetDirectionId": null,
        "streetTypeId": "RD",
        "placeName": "AJAX",
        "streetNameDisplayText": "BURCHER RD, AJAX"
      }
    ]
  },
  {
    "postal": "L1S1T6",
    "result": [
      {
        "electoralDistricts": [
          {
            "election": null,
            "id": 1,
            "name": "Ajax"
          }
        ],
        "pollDivisionIds": [
          10136698
        ],
        "postalCode": "L1S1T6",
        "streetName": "ONTARIO",
        "streetDirectionId": null,
        "streetTypeId": "ST",
        "placeName": "AJAX",
        "streetNameDisplayText": "ONTARIO ST, AJAX"
      }
    ]
  },
  {
    "postal": "L1S4P6",
    "result": []
  },
  {
    "postal": "L1S3K1",
    "result": [
      {
        "electoralDistricts": [
          {
            "election": null,
            "id": 1,
            "name": "Ajax"
          }
        ],
        "pollDivisionIds": [
          10136708
        ],
        "postalCode": "L1S3K1",
        "streetName": "CLOVER RIDGE",
        "streetDirectionId": "W",
        "streetTypeId": "DR",
        "placeName": "AJAX",
        "streetNameDisplayText": "CLOVER RIDGE DR W, AJAX"
      }
    ]
  },
  {
    "postal": "L1S6X4",
    "result": [
      {
        "electoralDistricts": [
          {
            "election": null,
            "id": 1,
            "name": "Ajax"
          }
        ],
        "pollDivisionIds": [
          10136699
        ],
        "postalCode": "L1S6X4",
        "streetName": "WRIGHT",
        "streetDirectionId": null,
        "streetTypeId": "CRES",
        "placeName": "AJAX",
        "streetNameDisplayText": "WRIGHT CRES, AJAX"
      }
    ]
  },
  {
    "postal": "L1S4M8",
    "result": []
  },
  {
    "postal": "L1S2Y1",
    "result": [
      {
        "electoralDistricts": [
          {
            "election": null,
            "id": 1,
            "name": "Ajax"
          }
        ],
        "pollDivisionIds": [
          10136706
        ],
        "postalCode": "L1S2Y1",
        "streetName": "EVERETT",
        "streetDirectionId": null,
        "streetTypeId": "RD",
        "placeName": "AJAX",
        "streetNameDisplayText": "EVERETT RD, AJAX"
      }
    ]
  },
  {
    "postal": "L1S6M1",
    "result": [
      {
        "electoralDistricts": [
          {
            "election": null,
            "id": 1,
            "name": "Ajax"
          }
        ],
        "pollDivisionIds": [
          10136700
        ],
        "postalCode": "L1S6M1",
        "streetName": "KINGSTON",
        "streetDirectionId": "W",
        "streetTypeId": "RD",
        "placeName": "AJAX",
        "streetNameDisplayText": "KINGSTON RD W, AJAX"
      }
    ]
  },
  {
    "postal": "L1S5L8",
    "result": [
      {
        "electoralDistricts": [
          {
            "election": null,
            "id": 1,
            "name": "Ajax"
          }
        ],
        "pollDivisionIds": [
          10136700
        ],
        "postalCode": "L1S5L8",
        "streetName": "CRANLEY",
        "streetDirectionId": null,
        "streetTypeId": "CRT",
        "placeName": "AJAX",
        "streetNameDisplayText": "CRANLEY CRT, AJAX"
      }
    ]
  },
  {
    "postal": "L1S3P6",
    "result": [
      {
        "electoralDistricts": [
          {
            "election": null,
            "id": 1,
            "name": "Ajax"
          }
        ],
        "pollDivisionIds": [
          10136709
        ],
        "postalCode": "L1S3P6",
        "streetName": "MEDLEY",
        "streetDirectionId": null,
        "streetTypeId": "LANE",
        "placeName": "AJAX",
        "streetNameDisplayText": "MEDLEY LANE, AJAX"
      }
    ]
  },
  {
    "postal": "L1S9A5",
    "result": []
  },
  {
    "postal": "L1S7K1",
    "result": [
      {
        "electoralDistricts": [
          {
            "election": null,
            "id": 1,
            "name": "Ajax"
          }
        ],
        "pollDivisionIds": [
          10136707
        ],
        "postalCode": "L1S7K1",
        "streetName": "CUMBERLAND",
        "streetDirectionId": null,
        "streetTypeId": "LANE",
        "placeName": "AJAX",
        "streetNameDisplayText": "CUMBERLAND LANE, AJAX"
      }
    ]
  },
  {
    "postal": "L1S3J4",
    "result": [
      {
        "electoralDistricts": [
          {
            "election": null,
            "id": 1,
            "name": "Ajax"
          }
        ],
        "pollDivisionIds": [
          10136708
        ],
        "postalCode": "L1S3J4",
        "streetName": "SLATER",
        "streetDirectionId": null,
        "streetTypeId": "CRES",
        "placeName": "AJAX",
        "streetNameDisplayText": "SLATER CRES, AJAX"
      }
    ]
  },
  {
    "postal": "L1S5E7",
    "result": [
      {
        "electoralDistricts": [
          {
            "election": null,
            "id": 1,
            "name": "Ajax"
          }
        ],
        "pollDivisionIds": [
          10136697
        ],
        "postalCode": "L1S5E7",
        "streetName": "BARNES",
        "streetDirectionId": null,
        "streetTypeId": "DR",
        "placeName": "AJAX",
        "streetNameDisplayText": "BARNES DR, AJAX"
      }
    ]
  },
  {
    "postal": "L1S3A7",
    "result": [
      {
        "electoralDistricts": [
          {
            "election": null,
            "id": 1,
            "name": "Ajax"
          }
        ],
        "pollDivisionIds": [
          10136706
        ],
        "postalCode": "L1S3A7",
        "streetName": "CRAWFORD",
        "streetDirectionId": null,
        "streetTypeId": "DR",
        "placeName": "AJAX",
        "streetNameDisplayText": "CRAWFORD DR, AJAX"
      }
    ]
  },
  {
    "postal": "L1S1B9",
    "result": [
      {
        "electoralDistricts": [
          {
            "election": null,
            "id": 1,
            "name": "Ajax"
          }
        ],
        "pollDivisionIds": [
          10136703
        ],
        "postalCode": "L1S1B9",
        "streetName": "EBONY",
        "streetDirectionId": null,
        "streetTypeId": "ST",
        "placeName": "AJAX",
        "streetNameDisplayText": "EBONY ST, AJAX"
      }
    ]
  },
  {
    "postal": "L1S9E8",
    "result": []
  },
  {
    "postal": "L1S1C9",
    "result": [
      {
        "electoralDistricts": [
          {
            "election": null,
            "id": 1,
            "name": "Ajax"
          }
        ],
        "pollDivisionIds": [
          10136703
        ],
        "postalCode": "L1S1C9",
        "streetName": "BEACHVIEW",
        "streetDirectionId": null,
        "streetTypeId": "ST",
        "placeName": "AJAX",
        "streetNameDisplayText": "BEACHVIEW ST, AJAX"
      }
    ]
  },
  {
    "postal": "L1S3B5",
    "result": [
      {
        "electoralDistricts": [
          {
            "election": null,
            "id": 1,
            "name": "Ajax"
          }
        ],
        "pollDivisionIds": [
          10136706
        ],
        "postalCode": "L1S3B5",
        "streetName": "GREGORY",
        "streetDirectionId": null,
        "streetTypeId": "RD",
        "placeName": "AJAX",
        "streetNameDisplayText": "GREGORY RD, AJAX"
      }
    ]
  },
  {
    "postal": "L1S8R0",
    "result": []
  },
  {
    "postal": "L1S3P2",
    "result": [
      {
        "electoralDistricts": [
          {
            "election": null,
            "id": 1,
            "name": "Ajax"
          }
        ],
        "pollDivisionIds": [
          10136707
        ],
        "postalCode": "L1S3P2",
        "streetName": "GORTON",
        "streetDirectionId": null,
        "streetTypeId": "RD",
        "placeName": "AJAX",
        "streetNameDisplayText": "GORTON RD, AJAX"
      }
    ]
  },
  {
    "postal": "L1S5V4",
    "result": [
      {
        "electoralDistricts": [
          {
            "election": null,
            "id": 1,
            "name": "Ajax"
          }
        ],
        "pollDivisionIds": [
          10136698
        ],
        "postalCode": "L1S5V4",
        "streetName": "CHADWICK",
        "streetDirectionId": null,
        "streetTypeId": "DR",
        "placeName": "AJAX",
        "streetNameDisplayText": "CHADWICK DR, AJAX"
      }
    ]
  },
  {
    "postal": "L1S4H0",
    "result": []
  },
  {
    "postal": "L1S4S7",
    "result": []
  },
  {
    "postal": "L1S6C2",
    "result": [
      {
        "electoralDistricts": [
          {
            "election": null,
            "id": 1,
            "name": "Ajax"
          }
        ],
        "pollDivisionIds": [
          10136700
        ],
        "postalCode": "L1S6C2",
        "streetName": "GEORGINA",
        "streetDirectionId": null,
        "streetTypeId": "DR",
        "placeName": "AJAX",
        "streetNameDisplayText": "GEORGINA DR, AJAX"
      }
    ]
  },
  {
    "postal": "L1S8W3",
    "result": []
  },
  {
    "postal": "L1S4M5",
    "result": []
  },
  {
    "postal": "L1S5T1",
    "result": []
  },
  {
    "postal": "L1S3B3",
    "result": [
      {
        "electoralDistricts": [
          {
            "election": null,
            "id": 1,
            "name": "Ajax"
          }
        ],
        "pollDivisionIds": [
          10136706
        ],
        "postalCode": "L1S3B3",
        "streetName": "GREGORY",
        "streetDirectionId": null,
        "streetTypeId": "RD",
        "placeName": "AJAX",
        "streetNameDisplayText": "GREGORY RD, AJAX"
      }
    ]
  },
  {
    "postal": "L1S6C6",
    "result": [
      {
        "electoralDistricts": [
          {
            "election": null,
            "id": 1,
            "name": "Ajax"
          }
        ],
        "pollDivisionIds": [
          10136700
        ],
        "postalCode": "L1S6C6",
        "streetName": "LINCOLN",
        "streetDirectionId": null,
        "streetTypeId": "ST",
        "placeName": "AJAX",
        "streetNameDisplayText": "LINCOLN ST, AJAX"
      }
    ]
  },
  {
    "postal": "L1S7N8",
    "result": [
      {
        "electoralDistricts": [
          {
            "election": null,
            "id": 1,
            "name": "Ajax"
          }
        ],
        "pollDivisionIds": [
          10136703
        ],
        "postalCode": "L1S7N8",
        "streetName": "HOWLING",
        "streetDirectionId": null,
        "streetTypeId": "CRES",
        "placeName": "AJAX",
        "streetNameDisplayText": "HOWLING CRES, AJAX"
      }
    ]
  },
  {
    "postal": "L1S2Y3",
    "result": [
      {
        "electoralDistricts": [
          {
            "election": null,
            "id": 1,
            "name": "Ajax"
          }
        ],
        "pollDivisionIds": [
          10136706
        ],
        "postalCode": "L1S2Y3",
        "streetName": "ALBERY",
        "streetDirectionId": null,
        "streetTypeId": "CRES",
        "placeName": "AJAX",
        "streetNameDisplayText": "ALBERY CRES, AJAX"
      }
    ]
  },
  {
    "postal": "L1S2R6",
    "result": [
      {
        "electoralDistricts": [
          {
            "election": null,
            "id": 1,
            "name": "Ajax"
          }
        ],
        "pollDivisionIds": [
          10136706
        ],
        "postalCode": "L1S2R6",
        "streetName": "BURCHER",
        "streetDirectionId": null,
        "streetTypeId": "RD",
        "placeName": "AJAX",
        "streetNameDisplayText": "BURCHER RD, AJAX"
      }
    ]
  },
  {
    "postal": "L1S7N3",
    "result": [
      {
        "electoralDistricts": [
          {
            "election": null,
            "id": 1,
            "name": "Ajax"
          }
        ],
        "pollDivisionIds": [
          10136703
        ],
        "postalCode": "L1S7N3",
        "streetName": "HULLEY",
        "streetDirectionId": null,
        "streetTypeId": "CRES",
        "placeName": "AJAX",
        "streetNameDisplayText": "HULLEY CRES, AJAX"
      }
    ]
  },
  {
    "postal": "L1S8J2",
    "result": []
  },
  {
    "postal": "L1S6A9",
    "result": [
      {
        "electoralDistricts": [
          {
            "election": null,
            "id": 1,
            "name": "Ajax"
          }
        ],
        "pollDivisionIds": [
          10136700
        ],
        "postalCode": "L1S6A9",
        "streetName": "CHURCH",
        "streetDirectionId": "S",
        "streetTypeId": "ST",
        "placeName": "AJAX",
        "streetNameDisplayText": "CHURCH ST S, AJAX"
      }
    ]
  },
  {
    "postal": "L1S3V2",
    "result": [
      {
        "electoralDistricts": [
          {
            "election": null,
            "id": 1,
            "name": "Ajax"
          }
        ],
        "pollDivisionIds": [
          10136709
        ],
        "postalCode": "L1S3V2",
        "streetName": "FINLEY",
        "streetDirectionId": null,
        "streetTypeId": "AVE",
        "placeName": "AJAX",
        "streetNameDisplayText": "FINLEY AVE, AJAX"
      }
    ]
  },
  {
    "postal": "L1S2N3",
    "result": [
      {
        "electoralDistricts": [
          {
            "election": null,
            "id": 1,
            "name": "Ajax"
          }
        ],
        "pollDivisionIds": [
          10136702
        ],
        "postalCode": "L1S2N3",
        "streetName": "FOREST",
        "streetDirectionId": null,
        "streetTypeId": "RD",
        "placeName": "AJAX",
        "streetNameDisplayText": "FOREST RD, AJAX"
      }
    ]
  },
  {
    "postal": "L1S1S5",
    "result": [
      {
        "electoralDistricts": [
          {
            "election": null,
            "id": 1,
            "name": "Ajax"
          }
        ],
        "pollDivisionIds": [
          10136698
        ],
        "postalCode": "L1S1S5",
        "streetName": "GEORGE",
        "streetDirectionId": null,
        "streetTypeId": "ST",
        "placeName": "AJAX",
        "streetNameDisplayText": "GEORGE ST, AJAX"
      }
    ]
  },
  {
    "postal": "L1S4T7",
    "result": [
      {
        "electoralDistricts": [
          {
            "election": null,
            "id": 1,
            "name": "Ajax"
          }
        ],
        "pollDivisionIds": [
          10136709
        ],
        "postalCode": "L1S4T7",
        "streetName": "FITZGERALD",
        "streetDirectionId": null,
        "streetTypeId": "DR",
        "placeName": "AJAX",
        "streetNameDisplayText": "FITZGERALD DR, AJAX"
      }
    ]
  },
  {
    "postal": "L1S6Y7",
    "result": [
      {
        "electoralDistricts": [
          {
            "election": null,
            "id": 1,
            "name": "Ajax"
          }
        ],
        "pollDivisionIds": [
          10136704
        ],
        "postalCode": "L1S6Y7",
        "streetName": "SPIERS",
        "streetDirectionId": null,
        "streetTypeId": "CRES",
        "placeName": "AJAX",
        "streetNameDisplayText": "SPIERS CRES, AJAX"
      }
    ]
  },
  {
    "postal": "L1S0W7",
    "result": []
  },
  {
    "postal": "L1S2W9",
    "result": [
      {
        "electoralDistricts": [
          {
            "election": null,
            "id": 1,
            "name": "Ajax"
          }
        ],
        "pollDivisionIds": [
          10136706
        ],
        "postalCode": "L1S2W9",
        "streetName": "TURNBULL",
        "streetDirectionId": null,
        "streetTypeId": "RD",
        "placeName": "AJAX",
        "streetNameDisplayText": "TURNBULL RD, AJAX"
      }
    ]
  },
  {
    "postal": "L1S8V0",
    "result": []
  },
  {
    "postal": "L1S0H4",
    "result": []
  },
  {
    "postal": "L1S2T1",
    "result": [
      {
        "electoralDistricts": [
          {
            "election": null,
            "id": 1,
            "name": "Ajax"
          }
        ],
        "pollDivisionIds": [
          10136706
        ],
        "postalCode": "L1S2T1",
        "streetName": "DEACON",
        "streetDirectionId": null,
        "streetTypeId": "LANE",
        "placeName": "AJAX",
        "streetNameDisplayText": "DEACON LANE, AJAX"
      }
    ]
  },
  {
    "postal": "L1S1B1",
    "result": [
      {
        "electoralDistricts": [
          {
            "election": null,
            "id": 1,
            "name": "Ajax"
          }
        ],
        "pollDivisionIds": [
          10136707
        ],
        "postalCode": "L1S1B1",
        "streetName": "LAKE DRIVEWAY",
        "streetDirectionId": "E",
        "streetTypeId": null,
        "placeName": "AJAX",
        "streetNameDisplayText": "LAKE DRIVEWAY E, AJAX"
      }
    ]
  },
  {
    "postal": "L1S8B6",
    "result": []
  },
  {
    "postal": "L1S6H1",
    "result": [
      {
        "electoralDistricts": [
          {
            "election": null,
            "id": 1,
            "name": "Ajax"
          }
        ],
        "pollDivisionIds": [
          10136700
        ],
        "postalCode": "L1S6H1",
        "streetName": "ETHLYN",
        "streetDirectionId": null,
        "streetTypeId": "CRT",
        "placeName": "AJAX",
        "streetNameDisplayText": "ETHLYN CRT, AJAX"
      }
    ]
  },
  {
    "postal": "L1S8T8",
    "result": []
  },
  {
    "postal": "L1S0T4",
    "result": []
  },
  {
    "postal": "L1S2C4",
    "result": [
      {
        "electoralDistricts": [
          {
            "election": null,
            "id": 1,
            "name": "Ajax"
          }
        ],
        "pollDivisionIds": [
          10136697
        ],
        "postalCode": "L1S2C4",
        "streetName": "GLYNN",
        "streetDirectionId": null,
        "streetTypeId": "RD",
        "placeName": "AJAX",
        "streetNameDisplayText": "GLYNN RD, AJAX"
      }
    ]
  },
  {
    "postal": "L1S8N3",
    "result": []
  },
  {
    "postal": "L1S4L8",
    "result": []
  },
  {
    "postal": "L1S2B5",
    "result": [
      {
        "electoralDistricts": [
          {
            "election": null,
            "id": 1,
            "name": "Ajax"
          }
        ],
        "pollDivisionIds": [
          10136698
        ],
        "postalCode": "L1S2B5",
        "streetName": "WINDSOR",
        "streetDirectionId": null,
        "streetTypeId": "AVE",
        "placeName": "AJAX",
        "streetNameDisplayText": "WINDSOR AVE, AJAX"
      }
    ]
  },
  {
    "postal": "L1S3H1",
    "result": [
      {
        "electoralDistricts": [
          {
            "election": null,
            "id": 1,
            "name": "Ajax"
          }
        ],
        "pollDivisionIds": [
          10136708
        ],
        "postalCode": "L1S3H1",
        "streetName": "BOLLAND",
        "streetDirectionId": null,
        "streetTypeId": "CRES",
        "placeName": "AJAX",
        "streetNameDisplayText": "BOLLAND CRES, AJAX"
      }
    ]
  },
  {
    "postal": "L1S4Y1",
    "result": [
      {
        "electoralDistricts": [
          {
            "election": null,
            "id": 1,
            "name": "Ajax"
          }
        ],
        "pollDivisionIds": [
          10136709
        ],
        "postalCode": "L1S4Y1",
        "streetName": "HAWKINS",
        "streetDirectionId": null,
        "streetTypeId": "CRES",
        "placeName": "AJAX",
        "streetNameDisplayText": "HAWKINS CRES, AJAX"
      }
    ]
  },
  {
    "postal": "L1S7E2",
    "result": [
      {
        "electoralDistricts": [
          {
            "election": null,
            "id": 1,
            "name": "Ajax"
          }
        ],
        "pollDivisionIds": [
          10136703
        ],
        "postalCode": "L1S7E2",
        "streetName": "BARBOUR",
        "streetDirectionId": null,
        "streetTypeId": "CRES",
        "placeName": "AJAX",
        "streetNameDisplayText": "BARBOUR CRES, AJAX"
      },
      {
        "electoralDistricts": [
          {
            "election": null,
            "id": 1,
            "name": "Ajax"
          }
        ],
        "pollDivisionIds": [
          10136703
        ],
        "postalCode": "L1S7E2",
        "streetName": "ROLLO",
        "streetDirectionId": null,
        "streetTypeId": "DR",
        "placeName": "AJAX",
        "streetNameDisplayText": "ROLLO DR, AJAX"
      }
    ]
  },
  {
    "postal": "L1S2P5",
    "result": [
      {
        "electoralDistricts": [
          {
            "election": null,
            "id": 1,
            "name": "Ajax"
          }
        ],
        "pollDivisionIds": [
          10136702
        ],
        "postalCode": "L1S2P5",
        "streetName": "BURCHER",
        "streetDirectionId": null,
        "streetTypeId": "RD",
        "placeName": "AJAX",
        "streetNameDisplayText": "BURCHER RD, AJAX"
      }
    ]
  },
  {
    "postal": "L1S8R7",
    "result": []
  },
  {
    "postal": "L1S9P1",
    "result": []
  },
  {
    "postal": "L1S3B8",
    "result": [
      {
        "electoralDistricts": [
          {
            "election": null,
            "id": 1,
            "name": "Ajax"
          }
        ],
        "pollDivisionIds": [
          10136706
        ],
        "postalCode": "L1S3B8",
        "streetName": "CLARK",
        "streetDirectionId": null,
        "streetTypeId": "RD",
        "placeName": "AJAX",
        "streetNameDisplayText": "CLARK RD, AJAX"
      }
    ]
  },
  {
    "postal": "L1S3P7",
    "result": [
      {
        "electoralDistricts": [
          {
            "election": null,
            "id": 1,
            "name": "Ajax"
          }
        ],
        "pollDivisionIds": [
          10136709
        ],
        "postalCode": "L1S3P7",
        "streetName": "LUCAS",
        "streetDirectionId": null,
        "streetTypeId": "LANE",
        "placeName": "AJAX",
        "streetNameDisplayText": "LUCAS LANE, AJAX"
      }
    ]
  },
  {
    "postal": "L1S9B2",
    "result": []
  },
  {
    "postal": "L1S6Z3",
    "result": [
      {
        "electoralDistricts": [
          {
            "election": null,
            "id": 1,
            "name": "Ajax"
          }
        ],
        "pollDivisionIds": [
          10136703
        ],
        "postalCode": "L1S6Z3",
        "streetName": "GATES",
        "streetDirectionId": null,
        "streetTypeId": "CRES",
        "placeName": "AJAX",
        "streetNameDisplayText": "GATES CRES, AJAX"
      }
    ]
  },
  {
    "postal": "L1S4N5",
    "result": []
  },
  {
    "postal": "L1S8T3",
    "result": []
  },
  {
    "postal": "L1S1V2",
    "result": [
      {
        "electoralDistricts": [
          {
            "election": null,
            "id": 1,
            "name": "Ajax"
          }
        ],
        "pollDivisionIds": [
          10136698
        ],
        "postalCode": "L1S1V2",
        "streetName": "CEDAR",
        "streetDirectionId": null,
        "streetTypeId": "ST",
        "placeName": "AJAX",
        "streetNameDisplayText": "CEDAR ST, AJAX"
      }
    ]
  },
  {
    "postal": "L1S1Y0",
    "result": []
  },
  {
    "postal": "L1S3G6",
    "result": [
      {
        "electoralDistricts": [
          {
            "election": null,
            "id": 1,
            "name": "Ajax"
          }
        ],
        "pollDivisionIds": [
          10136708
        ],
        "postalCode": "L1S3G6",
        "streetName": "PITTMANN",
        "streetDirectionId": null,
        "streetTypeId": "CRES",
        "placeName": "AJAX",
        "streetNameDisplayText": "PITTMANN CRES, AJAX"
      }
    ]
  },
  {
    "postal": "L1S3H7",
    "result": [
      {
        "electoralDistricts": [
          {
            "election": null,
            "id": 1,
            "name": "Ajax"
          }
        ],
        "pollDivisionIds": [
          10136708
        ],
        "postalCode": "L1S3H7",
        "streetName": "RANDS",
        "streetDirectionId": null,
        "streetTypeId": "RD",
        "placeName": "AJAX",
        "streetNameDisplayText": "RANDS RD, AJAX"
      }
    ]
  },
  {
    "postal": "L1S7X8",
    "result": []
  },
  {
    "postal": "L1S0C7",
    "result": []
  },
  {
    "postal": "L1S0W9",
    "result": []
  },
  {
    "postal": "L1S8E6",
    "result": []
  },
  {
    "postal": "L1S9Z8",
    "result": []
  },
  {
    "postal": "L1S3P4",
    "result": [
      {
        "electoralDistricts": [
          {
            "election": null,
            "id": 1,
            "name": "Ajax"
          }
        ],
        "pollDivisionIds": [
          10136709
        ],
        "postalCode": "L1S3P4",
        "streetName": "RANDS",
        "streetDirectionId": null,
        "streetTypeId": "RD",
        "placeName": "AJAX",
        "streetNameDisplayText": "RANDS RD, AJAX"
      }
    ]
  },
  {
    "postal": "L1S6L8",
    "result": [
      {
        "electoralDistricts": [
          {
            "election": null,
            "id": 1,
            "name": "Ajax"
          }
        ],
        "pollDivisionIds": [
          10136700
        ],
        "postalCode": "L1S6L8",
        "streetName": "KINGSTON",
        "streetDirectionId": "W",
        "streetTypeId": "RD",
        "placeName": "AJAX",
        "streetNameDisplayText": "KINGSTON RD W, AJAX"
      }
    ]
  },
  {
    "postal": "L1S2R4",
    "result": [
      {
        "electoralDistricts": [
          {
            "election": null,
            "id": 1,
            "name": "Ajax"
          }
        ],
        "pollDivisionIds": [
          10136701
        ],
        "postalCode": "L1S2R4",
        "streetName": "BURCHER",
        "streetDirectionId": null,
        "streetTypeId": "RD",
        "placeName": "AJAX",
        "streetNameDisplayText": "BURCHER RD, AJAX"
      }
    ]
  },
  {
    "postal": "L1S2W1",
    "result": [
      {
        "electoralDistricts": [
          {
            "election": null,
            "id": 1,
            "name": "Ajax"
          }
        ],
        "pollDivisionIds": [
          10136706
        ],
        "postalCode": "L1S2W1",
        "streetName": "FOLLETT",
        "streetDirectionId": null,
        "streetTypeId": "CRT",
        "placeName": "AJAX",
        "streetNameDisplayText": "FOLLETT CRT, AJAX"
      }
    ]
  },
  {
    "postal": "L1S9H8",
    "result": []
  },
  {
    "postal": "L1S8X9",
    "result": []
  },
  {
    "postal": "L1S7H4",
    "result": [
      {
        "electoralDistricts": [
          {
            "election": null,
            "id": 1,
            "name": "Ajax"
          }
        ],
        "pollDivisionIds": [
          10136709
        ],
        "postalCode": "L1S7H4",
        "streetName": "CLEMENTS",
        "streetDirectionId": "W",
        "streetTypeId": "RD",
        "placeName": "AJAX",
        "streetNameDisplayText": "CLEMENTS RD W, AJAX"
      }
    ]
  },
  {
    "postal": "L1S3J1",
    "result": [
      {
        "electoralDistricts": [
          {
            "election": null,
            "id": 1,
            "name": "Ajax"
          }
        ],
        "pollDivisionIds": [
          10136708
        ],
        "postalCode": "L1S3J1",
        "streetName": "EASTON",
        "streetDirectionId": null,
        "streetTypeId": "CRT",
        "placeName": "AJAX",
        "streetNameDisplayText": "EASTON CRT, AJAX"
      }
    ]
  },
  {
    "postal": "L1S1P4",
    "result": []
  },
  {
    "postal": "L1S2A3",
    "result": [
      {
        "electoralDistricts": [
          {
            "election": null,
            "id": 1,
            "name": "Ajax"
          }
        ],
        "pollDivisionIds": [
          10136698
        ],
        "postalCode": "L1S2A3",
        "streetName": "TUDOR",
        "streetDirectionId": null,
        "streetTypeId": "AVE",
        "placeName": "AJAX",
        "streetNameDisplayText": "TUDOR AVE, AJAX"
      }
    ]
  },
  {
    "postal": "L1S0Z1",
    "result": []
  },
  {
    "postal": "L1S1C1",
    "result": [
      {
        "electoralDistricts": [
          {
            "election": null,
            "id": 1,
            "name": "Ajax"
          }
        ],
        "pollDivisionIds": [
          10136703
        ],
        "postalCode": "L1S1C1",
        "streetName": "RANGE LINE",
        "streetDirectionId": null,
        "streetTypeId": "RD",
        "placeName": "AJAX",
        "streetNameDisplayText": "RANGE LINE RD, AJAX"
      }
    ]
  },
  {
    "postal": "L1S0H3",
    "result": []
  },
  {
    "postal": "L1S7B0",
    "result": []
  },
  {
    "postal": "L1S5K2",
    "result": [
      {
        "electoralDistricts": [
          {
            "election": null,
            "id": 1,
            "name": "Ajax"
          }
        ],
        "pollDivisionIds": [
          10136700
        ],
        "postalCode": "L1S5K2",
        "streetName": "ROTHERGLEN",
        "streetDirectionId": "S",
        "streetTypeId": "RD",
        "placeName": "AJAX",
        "streetNameDisplayText": "ROTHERGLEN RD S, AJAX"
      }
    ]
  },
  {
    "postal": "L1S1E9",
    "result": [
      {
        "electoralDistricts": [
          {
            "election": null,
            "id": 1,
            "name": "Ajax"
          }
        ],
        "pollDivisionIds": [
          10136703
        ],
        "postalCode": "L1S1E9",
        "streetName": "POPLAR",
        "streetDirectionId": null,
        "streetTypeId": "AVE",
        "placeName": "AJAX",
        "streetNameDisplayText": "POPLAR AVE, AJAX"
      }
    ]
  },
  {
    "postal": "L1S9W7",
    "result": []
  },
  {
    "postal": "L1S5W6",
    "result": [
      {
        "electoralDistricts": [
          {
            "election": null,
            "id": 1,
            "name": "Ajax"
          }
        ],
        "pollDivisionIds": [
          10136698
        ],
        "postalCode": "L1S5W6",
        "streetName": "ADAMS",
        "streetDirectionId": null,
        "streetTypeId": "DR",
        "placeName": "AJAX",
        "streetNameDisplayText": "ADAMS DR, AJAX"
      },
      {
        "electoralDistricts": [
          {
            "election": null,
            "id": 1,
            "name": "Ajax"
          }
        ],
        "pollDivisionIds": [
          10136698
        ],
        "postalCode": "L1S5W6",
        "streetName": "CHADWICK",
        "streetDirectionId": null,
        "streetTypeId": "DR",
        "placeName": "AJAX",
        "streetNameDisplayText": "CHADWICK DR, AJAX"
      }
    ]
  },
  {
    "postal": "L1S6S6",
    "result": [
      {
        "electoralDistricts": [
          {
            "election": null,
            "id": 1,
            "name": "Ajax"
          }
        ],
        "pollDivisionIds": [
          10136699
        ],
        "postalCode": "L1S6S6",
        "streetName": "RITCHIE",
        "streetDirectionId": null,
        "streetTypeId": "AVE",
        "placeName": "AJAX",
        "streetNameDisplayText": "RITCHIE AVE, AJAX"
      },
      {
        "electoralDistricts": [
          {
            "election": null,
            "id": 1,
            "name": "Ajax"
          }
        ],
        "pollDivisionIds": [
          10136699
        ],
        "postalCode": "L1S6S6",
        "streetName": "WRIGHT",
        "streetDirectionId": null,
        "streetTypeId": "CRES",
        "placeName": "AJAX",
        "streetNameDisplayText": "WRIGHT CRES, AJAX"
      }
    ]
  },
  {
    "postal": "L1S2P8",
    "result": [
      {
        "electoralDistricts": [
          {
            "election": null,
            "id": 1,
            "name": "Ajax"
          }
        ],
        "pollDivisionIds": [
          10136702
        ],
        "postalCode": "L1S2P8",
        "streetName": "BURCHER",
        "streetDirectionId": null,
        "streetTypeId": "RD",
        "placeName": "AJAX",
        "streetNameDisplayText": "BURCHER RD, AJAX"
      }
    ]
  },
  {
    "postal": "L1S4P8",
    "result": []
  },
  {
    "postal": "L1S0V9",
    "result": []
  },
  {
    "postal": "L1S5Y2",
    "result": []
  },
  {
    "postal": "L1S7Z7",
    "result": []
  },
  {
    "postal": "L1S6Y8",
    "result": [
      {
        "electoralDistricts": [
          {
            "election": null,
            "id": 1,
            "name": "Ajax"
          }
        ],
        "pollDivisionIds": [
          10136704
        ],
        "postalCode": "L1S6Y8",
        "streetName": "SALLIS",
        "streetDirectionId": null,
        "streetTypeId": "DR",
        "placeName": "AJAX",
        "streetNameDisplayText": "SALLIS DR, AJAX"
      }
    ]
  },
  {
    "postal": "L1S2G7",
    "result": [
      {
        "electoralDistricts": [
          {
            "election": null,
            "id": 1,
            "name": "Ajax"
          }
        ],
        "pollDivisionIds": [
          10136701
        ],
        "postalCode": "L1S2G7",
        "streetName": "MONARCH",
        "streetDirectionId": null,
        "streetTypeId": "AVE",
        "placeName": "AJAX",
        "streetNameDisplayText": "MONARCH AVE, AJAX"
      }
    ]
  },
  {
    "postal": "L1S8C1",
    "result": []
  },
  {
    "postal": "L1S5C5",
    "result": [
      {
        "electoralDistricts": [
          {
            "election": null,
            "id": 1,
            "name": "Ajax"
          }
        ],
        "pollDivisionIds": [
          10136697
        ],
        "postalCode": "L1S5C5",
        "streetName": "ANGUS",
        "streetDirectionId": null,
        "streetTypeId": "DR",
        "placeName": "AJAX",
        "streetNameDisplayText": "ANGUS DR, AJAX"
      },
      {
        "electoralDistricts": [
          {
            "election": null,
            "id": 1,
            "name": "Ajax"
          }
        ],
        "pollDivisionIds": [
          10136697
        ],
        "postalCode": "L1S5C5",
        "streetName": "BARNES",
        "streetDirectionId": null,
        "streetTypeId": "DR",
        "placeName": "AJAX",
        "streetNameDisplayText": "BARNES DR, AJAX"
      }
    ]
  },
  {
    "postal": "L1S2X8",
    "result": [
      {
        "electoralDistricts": [
          {
            "election": null,
            "id": 1,
            "name": "Ajax"
          }
        ],
        "pollDivisionIds": [
          10136706
        ],
        "postalCode": "L1S2X8",
        "streetName": "FARLEY",
        "streetDirectionId": null,
        "streetTypeId": "CRT",
        "placeName": "AJAX",
        "streetNameDisplayText": "FARLEY CRT, AJAX"
      }
    ]
  },
  {
    "postal": "L1S1W5",
    "result": [
      {
        "electoralDistricts": [
          {
            "election": null,
            "id": 1,
            "name": "Ajax"
          }
        ],
        "pollDivisionIds": [
          10136698
        ],
        "postalCode": "L1S1W5",
        "streetName": "ELM",
        "streetDirectionId": null,
        "streetTypeId": "ST",
        "placeName": "AJAX",
        "streetNameDisplayText": "ELM ST, AJAX"
      }
    ]
  },
  {
    "postal": "L1S7G0",
    "result": []
  },
  {
    "postal": "L1S8J8",
    "result": []
  },
  {
    "postal": "L1S3Y0",
    "result": []
  },
  {
    "postal": "L1S9T7",
    "result": []
  },
  {
    "postal": "L1S5P4",
    "result": []
  },
  {
    "postal": "L1S4B0",
    "result": []
  },
  {
    "postal": "L1S9N8",
    "result": []
  },
  {
    "postal": "L1S4A7",
    "result": [
      {
        "electoralDistricts": [
          {
            "election": null,
            "id": 1,
            "name": "Ajax"
          }
        ],
        "pollDivisionIds": [
          10136707
        ],
        "postalCode": "L1S4A7",
        "streetName": "TANNER",
        "streetDirectionId": null,
        "streetTypeId": "LANE",
        "placeName": "AJAX",
        "streetNameDisplayText": "TANNER LANE, AJAX"
      }
    ]
  },
  {
    "postal": "L1S4H9",
    "result": []
  },
  {
    "postal": "L1S6X1",
    "result": [
      {
        "electoralDistricts": [
          {
            "election": null,
            "id": 1,
            "name": "Ajax"
          }
        ],
        "pollDivisionIds": [
          10136699
        ],
        "postalCode": "L1S6X1",
        "streetName": "READING",
        "streetDirectionId": null,
        "streetTypeId": "ST",
        "placeName": "AJAX",
        "streetNameDisplayText": "READING ST, AJAX"
      },
      {
        "electoralDistricts": [
          {
            "election": null,
            "id": 1,
            "name": "Ajax"
          }
        ],
        "pollDivisionIds": [
          10136699
        ],
        "postalCode": "L1S6X1",
        "streetName": "WRIGHT",
        "streetDirectionId": null,
        "streetTypeId": "CRES",
        "placeName": "AJAX",
        "streetNameDisplayText": "WRIGHT CRES, AJAX"
      }
    ]
  },
  {
    "postal": "L1S9Y7",
    "result": []
  },
  {
    "postal": "L1S2Y5",
    "result": [
      {
        "electoralDistricts": [
          {
            "election": null,
            "id": 1,
            "name": "Ajax"
          }
        ],
        "pollDivisionIds": [
          10136706
        ],
        "postalCode": "L1S2Y5",
        "streetName": "BRYANT",
        "streetDirectionId": null,
        "streetTypeId": "RD",
        "placeName": "AJAX",
        "streetNameDisplayText": "BRYANT RD, AJAX"
      }
    ]
  },
  {
    "postal": "L1S8L7",
    "result": []
  },
  {
    "postal": "L1S2A8",
    "result": [
      {
        "electoralDistricts": [
          {
            "election": null,
            "id": 1,
            "name": "Ajax"
          }
        ],
        "pollDivisionIds": [
          10136698
        ],
        "postalCode": "L1S2A8",
        "streetName": "WINDSOR",
        "streetDirectionId": null,
        "streetTypeId": "AVE",
        "placeName": "AJAX",
        "streetNameDisplayText": "WINDSOR AVE, AJAX"
      }
    ]
  },
  {
    "postal": "L1S2K9",
    "result": [
      {
        "electoralDistricts": [
          {
            "election": null,
            "id": 1,
            "name": "Ajax"
          }
        ],
        "pollDivisionIds": [
          10136702
        ],
        "postalCode": "L1S2K9",
        "streetName": "CHURCHILL",
        "streetDirectionId": null,
        "streetTypeId": "RD",
        "placeName": "AJAX",
        "streetNameDisplayText": "CHURCHILL RD, AJAX"
      }
    ]
  },
  {
    "postal": "L1S3E5",
    "result": [
      {
        "electoralDistricts": [
          {
            "election": null,
            "id": 1,
            "name": "Ajax"
          }
        ],
        "pollDivisionIds": [
          10136708,
          10136707
        ],
        "postalCode": "L1S3E5",
        "streetName": "CLOVER RIDGE",
        "streetDirectionId": "W",
        "streetTypeId": "DR",
        "placeName": "AJAX",
        "streetNameDisplayText": "CLOVER RIDGE DR W, AJAX"
      }
    ]
  },
  {
    "postal": "L1S8N6",
    "result": []
  },
  {
    "postal": "L1S8J4",
    "result": []
  },
  {
    "postal": "L1S4R7",
    "result": []
  },
  {
    "postal": "L1S9K1",
    "result": []
  },
  {
    "postal": "L1S8E1",
    "result": []
  },
  {
    "postal": "L1S0R1",
    "result": []
  },
  {
    "postal": "L1S4J3",
    "result": []
  },
  {
    "postal": "L1S7E7",
    "result": [
      {
        "electoralDistricts": [
          {
            "election": null,
            "id": 1,
            "name": "Ajax"
          }
        ],
        "pollDivisionIds": [
          10136703
        ],
        "postalCode": "L1S7E7",
        "streetName": "ROLLO",
        "streetDirectionId": null,
        "streetTypeId": "DR",
        "placeName": "AJAX",
        "streetNameDisplayText": "ROLLO DR, AJAX"
      }
    ]
  },
  {
    "postal": "L1S0J0",
    "result": []
  },
  {
    "postal": "L1S7R8",
    "result": [
      {
        "electoralDistricts": [
          {
            "election": null,
            "id": 1,
            "name": "Ajax"
          }
        ],
        "pollDivisionIds": [
          10136703
        ],
        "postalCode": "L1S7R8",
        "streetName": "ANGIER",
        "streetDirectionId": null,
        "streetTypeId": "CRES",
        "placeName": "AJAX",
        "streetNameDisplayText": "ANGIER CRES, AJAX"
      }
    ]
  },
  {
    "postal": "L1S9X0",
    "result": []
  },
  {
    "postal": "L1S7P6",
    "result": [
      {
        "electoralDistricts": [
          {
            "election": null,
            "id": 1,
            "name": "Ajax"
          }
        ],
        "pollDivisionIds": [
          10136705
        ],
        "postalCode": "L1S7P6",
        "streetName": "SALT",
        "streetDirectionId": null,
        "streetTypeId": "DR",
        "placeName": "AJAX",
        "streetNameDisplayText": "SALT DR, AJAX"
      },
      {
        "electoralDistricts": [
          {
            "election": null,
            "id": 1,
            "name": "Ajax"
          }
        ],
        "pollDivisionIds": [
          10136705
        ],
        "postalCode": "L1S7P6",
        "streetName": "SHOAL POINT",
        "streetDirectionId": null,
        "streetTypeId": "RD",
        "placeName": "AJAX",
        "streetNameDisplayText": "SHOAL POINT RD, AJAX"
      }
    ]
  },
  {
    "postal": "L1S0R7",
    "result": []
  },
  {
    "postal": "L1S5W1",
    "result": [
      {
        "electoralDistricts": [
          {
            "election": null,
            "id": 1,
            "name": "Ajax"
          }
        ],
        "pollDivisionIds": [
          10136699
        ],
        "postalCode": "L1S5W1",
        "streetName": "KNAPTON",
        "streetDirectionId": null,
        "streetTypeId": "AVE",
        "placeName": "AJAX",
        "streetNameDisplayText": "KNAPTON AVE, AJAX"
      }
    ]
  },
  {
    "postal": "L1S0K4",
    "result": []
  },
  {
    "postal": "L1S7N9",
    "result": [
      {
        "electoralDistricts": [
          {
            "election": null,
            "id": 1,
            "name": "Ajax"
          }
        ],
        "pollDivisionIds": [
          10136703
        ],
        "postalCode": "L1S7N9",
        "streetName": "BEADLE",
        "streetDirectionId": null,
        "streetTypeId": "DR",
        "placeName": "AJAX",
        "streetNameDisplayText": "BEADLE DR, AJAX"
      },
      {
        "electoralDistricts": [
          {
            "election": null,
            "id": 1,
            "name": "Ajax"
          }
        ],
        "pollDivisionIds": [
          10136703
        ],
        "postalCode": "L1S7N9",
        "streetName": "GREENHALF",
        "streetDirectionId": null,
        "streetTypeId": "DR",
        "placeName": "AJAX",
        "streetNameDisplayText": "GREENHALF DR, AJAX"
      }
    ]
  },
  {
    "postal": "L1S1N0",
    "result": []
  },
  {
    "postal": "L1S6P3",
    "result": [
      {
        "electoralDistricts": [
          {
            "election": null,
            "id": 1,
            "name": "Ajax"
          }
        ],
        "pollDivisionIds": [
          10136699
        ],
        "postalCode": "L1S6P3",
        "streetName": "PATTERSON",
        "streetDirectionId": null,
        "streetTypeId": "CRES",
        "placeName": "AJAX",
        "streetNameDisplayText": "PATTERSON CRES, AJAX"
      }
    ]
  },
  {
    "postal": "L1S5A1",
    "result": [
      {
        "electoralDistricts": [
          {
            "election": null,
            "id": 1,
            "name": "Ajax"
          }
        ],
        "pollDivisionIds": [
          10136709
        ],
        "postalCode": "L1S5A1",
        "streetName": "LAKE DRIVEWAY",
        "streetDirectionId": "W",
        "streetTypeId": null,
        "placeName": "AJAX",
        "streetNameDisplayText": "LAKE DRIVEWAY W, AJAX"
      }
    ]
  },
  {
    "postal": "L1S9M9",
    "result": []
  },
  {
    "postal": "L1S7T6",
    "result": [
      {
        "electoralDistricts": [
          {
            "election": null,
            "id": 1,
            "name": "Ajax"
          }
        ],
        "pollDivisionIds": [
          10136703
        ],
        "postalCode": "L1S7T6",
        "streetName": "BAYLY",
        "streetDirectionId": "E",
        "streetTypeId": "ST",
        "placeName": "AJAX",
        "streetNameDisplayText": "BAYLY ST E, AJAX"
      }
    ]
  },
  {
    "postal": "L1S3X0",
    "result": []
  },
  {
    "postal": "L1S2T0",
    "result": []
  },
  {
    "postal": "L1S5X9",
    "result": [
      {
        "electoralDistricts": [
          {
            "election": null,
            "id": 1,
            "name": "Ajax"
          }
        ],
        "pollDivisionIds": [
          10136698
        ],
        "postalCode": "L1S5X9",
        "streetName": "TRAWLEY",
        "streetDirectionId": null,
        "streetTypeId": "CRES",
        "placeName": "AJAX",
        "streetNameDisplayText": "TRAWLEY CRES, AJAX"
      }
    ]
  },
  {
    "postal": "L1S2R3",
    "result": [
      {
        "electoralDistricts": [
          {
            "election": null,
            "id": 1,
            "name": "Ajax"
          }
        ],
        "pollDivisionIds": [
          10136706,
          10136701
        ],
        "postalCode": "L1S2R3",
        "streetName": "BURCHER",
        "streetDirectionId": null,
        "streetTypeId": "RD",
        "placeName": "AJAX",
        "streetNameDisplayText": "BURCHER RD, AJAX"
      }
    ]
  },
  {
    "postal": "L1S5N2",
    "result": []
  },
  {
    "postal": "L1S4Y7",
    "result": [
      {
        "electoralDistricts": [
          {
            "election": null,
            "id": 1,
            "name": "Ajax"
          }
        ],
        "pollDivisionIds": [
          10136709
        ],
        "postalCode": "L1S4Y7",
        "streetName": "HAWKINS",
        "streetDirectionId": null,
        "streetTypeId": "CRES",
        "placeName": "AJAX",
        "streetNameDisplayText": "HAWKINS CRES, AJAX"
      },
      {
        "electoralDistricts": [
          {
            "election": null,
            "id": 1,
            "name": "Ajax"
          }
        ],
        "pollDivisionIds": [
          10136709
        ],
        "postalCode": "L1S4Y7",
        "streetName": "HUMPHREY",
        "streetDirectionId": null,
        "streetTypeId": "DR",
        "placeName": "AJAX",
        "streetNameDisplayText": "HUMPHREY DR, AJAX"
      }
    ]
  },
  {
    "postal": "L1S7M0",
    "result": []
  },
  {
    "postal": "L1S8P3",
    "result": []
  },
  {
    "postal": "L1S3N3",
    "result": [
      {
        "electoralDistricts": [
          {
            "election": null,
            "id": 1,
            "name": "Ajax"
          }
        ],
        "pollDivisionIds": [
          10136707
        ],
        "postalCode": "L1S3N3",
        "streetName": "ROBBIE",
        "streetDirectionId": null,
        "streetTypeId": "CRES",
        "placeName": "AJAX",
        "streetNameDisplayText": "ROBBIE CRES, AJAX"
      }
    ]
  },
  {
    "postal": "L1S7S3",
    "result": [
      {
        "electoralDistricts": [
          {
            "election": null,
            "id": 1,
            "name": "Ajax"
          }
        ],
        "pollDivisionIds": [
          10136705
        ],
        "postalCode": "L1S7S3",
        "streetName": "BOONE",
        "streetDirectionId": null,
        "streetTypeId": "LANE",
        "placeName": "AJAX",
        "streetNameDisplayText": "BOONE LANE, AJAX"
      },
      {
        "electoralDistricts": [
          {
            "election": null,
            "id": 1,
            "name": "Ajax"
          }
        ],
        "pollDivisionIds": [
          10136705
        ],
        "postalCode": "L1S7S3",
        "streetName": "COLLIS",
        "streetDirectionId": null,
        "streetTypeId": "LANE",
        "placeName": "AJAX",
        "streetNameDisplayText": "COLLIS LANE, AJAX"
      }
    ]
  },
  {
    "postal": "L1S3V9",
    "result": [
      {
        "electoralDistricts": [
          {
            "election": null,
            "id": 1,
            "name": "Ajax"
          }
        ],
        "pollDivisionIds": [
          10136707
        ],
        "postalCode": "L1S3V9",
        "streetName": "ANDREA",
        "streetDirectionId": null,
        "streetTypeId": "RD",
        "placeName": "AJAX",
        "streetNameDisplayText": "ANDREA RD, AJAX"
      }
    ]
  },
  {
    "postal": "L1S9N7",
    "result": []
  },
  {
    "postal": "L1S0G4",
    "result": [
      {
        "electoralDistricts": [
          {
            "election": null,
            "id": 1,
            "name": "Ajax"
          }
        ],
        "pollDivisionIds": [
          10136702
        ],
        "postalCode": "L1S0G4",
        "streetName": "GRAF SPEE",
        "streetDirectionId": null,
        "streetTypeId": "LANE",
        "placeName": "AJAX",
        "streetNameDisplayText": "GRAF SPEE LANE, AJAX"
      }
    ]
  },
  {
    "postal": "L1S2E2",
    "result": [
      {
        "electoralDistricts": [
          {
            "election": null,
            "id": 1,
            "name": "Ajax"
          }
        ],
        "pollDivisionIds": [
          10136701
        ],
        "postalCode": "L1S2E2",
        "streetName": "FINLEY",
        "streetDirectionId": null,
        "streetTypeId": "AVE",
        "placeName": "AJAX",
        "streetNameDisplayText": "FINLEY AVE, AJAX"
      },
      {
        "electoralDistricts": [
          {
            "election": null,
            "id": 1,
            "name": "Ajax"
          }
        ],
        "pollDivisionIds": [
          10136701
        ],
        "postalCode": "L1S2E2",
        "streetName": "WHITEFOOT",
        "streetDirectionId": null,
        "streetTypeId": "CRES",
        "placeName": "AJAX,ON",
        "streetNameDisplayText": "WHITEFOOT CRES, AJAX,ON"
      }
    ]
  },
  {
    "postal": "L1S7W8",
    "result": []
  },
  {
    "postal": "L1S7M5",
    "result": [
      {
        "electoralDistricts": [
          {
            "election": null,
            "id": 1,
            "name": "Ajax"
          }
        ],
        "pollDivisionIds": [
          10136704
        ],
        "postalCode": "L1S7M5",
        "streetName": "CALLANDER",
        "streetDirectionId": null,
        "streetTypeId": "CRT",
        "placeName": "AJAX",
        "streetNameDisplayText": "CALLANDER CRT, AJAX"
      }
    ]
  },
  {
    "postal": "L1S5W8",
    "result": [
      {
        "electoralDistricts": [
          {
            "election": null,
            "id": 1,
            "name": "Ajax"
          }
        ],
        "pollDivisionIds": [
          10136698
        ],
        "postalCode": "L1S5W8",
        "streetName": "ADAMS",
        "streetDirectionId": null,
        "streetTypeId": "DR",
        "placeName": "AJAX",
        "streetNameDisplayText": "ADAMS DR, AJAX"
      },
      {
        "electoralDistricts": [
          {
            "election": null,
            "id": 1,
            "name": "Ajax"
          }
        ],
        "pollDivisionIds": [
          10136698
        ],
        "postalCode": "L1S5W8",
        "streetName": "PALMER",
        "streetDirectionId": null,
        "streetTypeId": "DR",
        "placeName": "AJAX",
        "streetNameDisplayText": "PALMER DR, AJAX"
      }
    ]
  },
  {
    "postal": "L1S5E5",
    "result": [
      {
        "electoralDistricts": [
          {
            "election": null,
            "id": 1,
            "name": "Ajax"
          }
        ],
        "pollDivisionIds": [
          10136697
        ],
        "postalCode": "L1S5E5",
        "streetName": "BARNES",
        "streetDirectionId": null,
        "streetTypeId": "DR",
        "placeName": "AJAX",
        "streetNameDisplayText": "BARNES DR, AJAX"
      }
    ]
  },
  {
    "postal": "L1S1P9",
    "result": [
      {
        "electoralDistricts": [
          {
            "election": null,
            "id": 1,
            "name": "Ajax"
          }
        ],
        "pollDivisionIds": [
          10136702
        ],
        "postalCode": "L1S1P9",
        "streetName": "RIDEOUT",
        "streetDirectionId": null,
        "streetTypeId": "ST",
        "placeName": "AJAX",
        "streetNameDisplayText": "RIDEOUT ST, AJAX"
      }
    ]
  },
  {
    "postal": "L1S8V8",
    "result": []
  },
  {
    "postal": "L1S9G8",
    "result": []
  },
  {
    "postal": "L1S8H9",
    "result": []
  },
  {
    "postal": "L1S1Z1",
    "result": [
      {
        "electoralDistricts": [
          {
            "election": null,
            "id": 1,
            "name": "Ajax"
          }
        ],
        "pollDivisionIds": [
          10136698
        ],
        "postalCode": "L1S1Z1",
        "streetName": "BEATTY",
        "streetDirectionId": null,
        "streetTypeId": "RD",
        "placeName": "AJAX",
        "streetNameDisplayText": "BEATTY RD, AJAX"
      }
    ]
  },
  {
    "postal": "L1S8M3",
    "result": []
  },
  {
    "postal": "L1S5H6",
    "result": [
      {
        "electoralDistricts": [
          {
            "election": null,
            "id": 1,
            "name": "Ajax"
          }
        ],
        "pollDivisionIds": [
          10136697
        ],
        "postalCode": "L1S5H6",
        "streetName": "HARMAN",
        "streetDirectionId": null,
        "streetTypeId": "DR",
        "placeName": "AJAX",
        "streetNameDisplayText": "HARMAN DR, AJAX"
      }
    ]
  },
  {
    "postal": "L1S7W7",
    "result": []
  },
  {
    "postal": "L1S4L0",
    "result": []
  },
  {
    "postal": "L1S2N1",
    "result": [
      {
        "electoralDistricts": [
          {
            "election": null,
            "id": 1,
            "name": "Ajax"
          }
        ],
        "pollDivisionIds": [
          10136702
        ],
        "postalCode": "L1S2N1",
        "streetName": "KINGS",
        "streetDirectionId": null,
        "streetTypeId": "CRES",
        "placeName": "AJAX",
        "streetNameDisplayText": "KINGS CRES, AJAX"
      }
    ]
  },
  {
    "postal": "L1S2H4",
    "result": []
  },
  {
    "postal": "L1S5C8",
    "result": [
      {
        "electoralDistricts": [
          {
            "election": null,
            "id": 1,
            "name": "Ajax"
          }
        ],
        "pollDivisionIds": [
          10136697
        ],
        "postalCode": "L1S5C8",
        "streetName": "BARNES",
        "streetDirectionId": null,
        "streetTypeId": "DR",
        "placeName": "AJAX",
        "streetNameDisplayText": "BARNES DR, AJAX"
      }
    ]
  },
  {
    "postal": "L1S8B0",
    "result": []
  },
  {
    "postal": "L1S1T4",
    "result": [
      {
        "electoralDistricts": [
          {
            "election": null,
            "id": 1,
            "name": "Ajax"
          }
        ],
        "pollDivisionIds": [
          10136698
        ],
        "postalCode": "L1S1T4",
        "streetName": "ONTARIO",
        "streetDirectionId": null,
        "streetTypeId": "ST",
        "placeName": "AJAX",
        "streetNameDisplayText": "ONTARIO ST, AJAX"
      }
    ]
  },
  {
    "postal": "L1S7N7",
    "result": [
      {
        "electoralDistricts": [
          {
            "election": null,
            "id": 1,
            "name": "Ajax"
          }
        ],
        "pollDivisionIds": [
          10136703
        ],
        "postalCode": "L1S7N7",
        "streetName": "GREENHALF",
        "streetDirectionId": null,
        "streetTypeId": "DR",
        "placeName": "AJAX",
        "streetNameDisplayText": "GREENHALF DR, AJAX"
      },
      {
        "electoralDistricts": [
          {
            "election": null,
            "id": 1,
            "name": "Ajax"
          }
        ],
        "pollDivisionIds": [
          10136703
        ],
        "postalCode": "L1S7N7",
        "streetName": "GRRENHALF",
        "streetDirectionId": null,
        "streetTypeId": "DR",
        "placeName": "AJAX,ON",
        "streetNameDisplayText": "GRRENHALF DR, AJAX,ON"
      },
      {
        "electoralDistricts": [
          {
            "election": null,
            "id": 1,
            "name": "Ajax"
          }
        ],
        "pollDivisionIds": [
          10136703
        ],
        "postalCode": "L1S7N7",
        "streetName": "HOWLING",
        "streetDirectionId": null,
        "streetTypeId": "CRES",
        "placeName": "AJAX",
        "streetNameDisplayText": "HOWLING CRES, AJAX"
      }
    ]
  },
  {
    "postal": "L1S4L3",
    "result": []
  },
  {
    "postal": "L1S2N2",
    "result": [
      {
        "electoralDistricts": [
          {
            "election": null,
            "id": 1,
            "name": "Ajax"
          }
        ],
        "pollDivisionIds": [
          10136702
        ],
        "postalCode": "L1S2N2",
        "streetName": "FOREST",
        "streetDirectionId": null,
        "streetTypeId": "RD",
        "placeName": "AJAX",
        "streetNameDisplayText": "FOREST RD, AJAX"
      }
    ]
  },
  {
    "postal": "L1S4N8",
    "result": [
      {
        "electoralDistricts": [
          {
            "election": null,
            "id": 1,
            "name": "Ajax"
          }
        ],
        "pollDivisionIds": [
          10136709
        ],
        "postalCode": "L1S4N8",
        "streetName": "CHISHOLM",
        "streetDirectionId": null,
        "streetTypeId": "CRT",
        "placeName": "AJAX",
        "streetNameDisplayText": "CHISHOLM CRT, AJAX"
      }
    ]
  },
  {
    "postal": "L1S3M5",
    "result": [
      {
        "electoralDistricts": [
          {
            "election": null,
            "id": 1,
            "name": "Ajax"
          }
        ],
        "pollDivisionIds": [
          10136707
        ],
        "postalCode": "L1S3M5",
        "streetName": "CLOVER RIDGE",
        "streetDirectionId": "W",
        "streetTypeId": "DR",
        "placeName": "AJAX",
        "streetNameDisplayText": "CLOVER RIDGE DR W, AJAX"
      }
    ]
  },
  {
    "postal": "L1S6H7",
    "result": [
      {
        "electoralDistricts": [
          {
            "election": null,
            "id": 1,
            "name": "Ajax"
          }
        ],
        "pollDivisionIds": [
          10136700
        ],
        "postalCode": "L1S6H7",
        "streetName": "JACWIN",
        "streetDirectionId": null,
        "streetTypeId": "DR",
        "placeName": "AJAX",
        "streetNameDisplayText": "JACWIN DR, AJAX"
      }
    ]
  },
  {
    "postal": "L1S8Y8",
    "result": []
  },
  {
    "postal": "L1S5R9",
    "result": [
      {
        "electoralDistricts": [
          {
            "election": null,
            "id": 1,
            "name": "Ajax"
          }
        ],
        "pollDivisionIds": [
          10136699
        ],
        "postalCode": "L1S5R9",
        "streetName": "REED",
        "streetDirectionId": null,
        "streetTypeId": "DR",
        "placeName": "AJAX",
        "streetNameDisplayText": "REED DR, AJAX"
      }
    ]
  },
  {
    "postal": "L1S8G3",
    "result": []
  },
  {
    "postal": "L1S4N7",
    "result": [
      {
        "electoralDistricts": [
          {
            "election": null,
            "id": 1,
            "name": "Ajax"
          }
        ],
        "pollDivisionIds": [
          10136709
        ],
        "postalCode": "L1S4N7",
        "streetName": "WESTNEY",
        "streetDirectionId": "S",
        "streetTypeId": "RD",
        "placeName": "AJAX",
        "streetNameDisplayText": "WESTNEY RD S, AJAX"
      }
    ]
  },
  {
    "postal": "L1S0B9",
    "result": [
      {
        "electoralDistricts": [
          {
            "election": null,
            "id": 1,
            "name": "Ajax"
          }
        ],
        "pollDivisionIds": [
          10136703
        ],
        "postalCode": "L1S0B9",
        "streetName": "BEER",
        "streetDirectionId": null,
        "streetTypeId": "CRES",
        "placeName": "AJAX",
        "streetNameDisplayText": "BEER CRES, AJAX"
      },
      {
        "electoralDistricts": [
          {
            "election": null,
            "id": 1,
            "name": "Ajax"
          }
        ],
        "pollDivisionIds": [
          10136703
        ],
        "postalCode": "L1S0B9",
        "streetName": "LURCOOK",
        "streetDirectionId": null,
        "streetTypeId": "ST",
        "placeName": "AJAX",
        "streetNameDisplayText": "LURCOOK ST, AJAX"
      }
    ]
  },
  {
    "postal": "L1S9K7",
    "result": []
  },
  {
    "postal": "L1S9K9",
    "result": []
  },
  {
    "postal": "L1S3Z2",
    "result": [
      {
        "electoralDistricts": [
          {
            "election": null,
            "id": 1,
            "name": "Ajax"
          }
        ],
        "pollDivisionIds": [
          10136709
        ],
        "postalCode": "L1S3Z2",
        "streetName": "FINLEY",
        "streetDirectionId": null,
        "streetTypeId": "AVE",
        "placeName": "AJAX",
        "streetNameDisplayText": "FINLEY AVE, AJAX"
      }
    ]
  },
  {
    "postal": "L1S6W7",
    "result": []
  },
  {
    "postal": "L1S0P1",
    "result": [
      {
        "electoralDistricts": [
          {
            "election": null,
            "id": 1,
            "name": "Ajax"
          }
        ],
        "pollDivisionIds": [
          10136701
        ],
        "postalCode": "L1S0P1",
        "streetName": "AUDLEY",
        "streetDirectionId": "S",
        "streetTypeId": "RD",
        "placeName": "AJAX,ON",
        "streetNameDisplayText": "AUDLEY RD S, AJAX,ON"
      }
    ]
  },
  {
    "postal": "L1S3A0",
    "result": []
  },
  {
    "postal": "L1S8L9",
    "result": []
  },
  {
    "postal": "L1S6X0",
    "result": []
  },
  {
    "postal": "L1S3E9",
    "result": [
      {
        "electoralDistricts": [
          {
            "election": null,
            "id": 1,
            "name": "Ajax"
          }
        ],
        "pollDivisionIds": [
          10136708
        ],
        "postalCode": "L1S3E9",
        "streetName": "CLOVER RIDGE",
        "streetDirectionId": "W",
        "streetTypeId": "DR",
        "placeName": "AJAX",
        "streetNameDisplayText": "CLOVER RIDGE DR W, AJAX"
      }
    ]
  },
  {
    "postal": "L1S0S5",
    "result": []
  },
  {
    "postal": "L1S1A2",
    "result": []
  },
  {
    "postal": "L1S5V8",
    "result": [
      {
        "electoralDistricts": [
          {
            "election": null,
            "id": 1,
            "name": "Ajax"
          }
        ],
        "pollDivisionIds": [
          10136699
        ],
        "postalCode": "L1S5V8",
        "streetName": "KNAPTON",
        "streetDirectionId": null,
        "streetTypeId": "AVE",
        "placeName": "AJAX",
        "streetNameDisplayText": "KNAPTON AVE, AJAX"
      }
    ]
  },
  {
    "postal": "L1S8C5",
    "result": []
  },
  {
    "postal": "L1S6N0",
    "result": []
  },
  {
    "postal": "L1S9E6",
    "result": []
  },
  {
    "postal": "L1S5J7",
    "result": [
      {
        "electoralDistricts": [
          {
            "election": null,
            "id": 1,
            "name": "Ajax"
          }
        ],
        "pollDivisionIds": [
          10136697
        ],
        "postalCode": "L1S5J7",
        "streetName": "LONGSTAFF",
        "streetDirectionId": null,
        "streetTypeId": "DR",
        "placeName": "AJAX",
        "streetNameDisplayText": "LONGSTAFF DR, AJAX"
      }
    ]
  },
  {
    "postal": "L1S2R2",
    "result": [
      {
        "electoralDistricts": [
          {
            "election": null,
            "id": 1,
            "name": "Ajax"
          }
        ],
        "pollDivisionIds": [
          10136701
        ],
        "postalCode": "L1S2R2",
        "streetName": "BURCHER",
        "streetDirectionId": null,
        "streetTypeId": "RD",
        "placeName": "AJAX",
        "streetNameDisplayText": "BURCHER RD, AJAX"
      }
    ]
  },
  {
    "postal": "L1S0P5",
    "result": []
  },
  {
    "postal": "L1S5A7",
    "result": [
      {
        "electoralDistricts": [
          {
            "election": null,
            "id": 1,
            "name": "Ajax"
          }
        ],
        "pollDivisionIds": [
          10136709
        ],
        "postalCode": "L1S5A7",
        "streetName": "KIPLING",
        "streetDirectionId": null,
        "streetTypeId": "CRES",
        "placeName": "AJAX",
        "streetNameDisplayText": "KIPLING CRES, AJAX"
      }
    ]
  },
  {
    "postal": "L1S1G1",
    "result": [
      {
        "electoralDistricts": [
          {
            "election": null,
            "id": 1,
            "name": "Ajax"
          }
        ],
        "pollDivisionIds": [
          10136703
        ],
        "postalCode": "L1S1G1",
        "streetName": "POPLAR",
        "streetDirectionId": null,
        "streetTypeId": "AVE",
        "placeName": "AJAX",
        "streetNameDisplayText": "POPLAR AVE, AJAX"
      }
    ]
  },
  {
    "postal": "L1S9R6",
    "result": []
  },
  {
    "postal": "L1S4Z9",
    "result": [
      {
        "electoralDistricts": [
          {
            "election": null,
            "id": 1,
            "name": "Ajax"
          }
        ],
        "pollDivisionIds": [
          10136709
        ],
        "postalCode": "L1S4Z9",
        "streetName": "HILLING",
        "streetDirectionId": null,
        "streetTypeId": "DR",
        "placeName": "AJAX",
        "streetNameDisplayText": "HILLING DR, AJAX"
      }
    ]
  },
  {
    "postal": "L1S1V5",
    "result": [
      {
        "electoralDistricts": [
          {
            "election": null,
            "id": 1,
            "name": "Ajax"
          }
        ],
        "pollDivisionIds": [
          10136698
        ],
        "postalCode": "L1S1V5",
        "streetName": "MAPLE",
        "streetDirectionId": null,
        "streetTypeId": "ST",
        "placeName": "AJAX",
        "streetNameDisplayText": "MAPLE ST, AJAX"
      }
    ]
  },
  {
    "postal": "L1S9Y5",
    "result": []
  },
  {
    "postal": "L1S1P2",
    "result": [
      {
        "electoralDistricts": [
          {
            "election": null,
            "id": 1,
            "name": "Ajax"
          }
        ],
        "pollDivisionIds": [
          10136701
        ],
        "postalCode": "L1S1P2",
        "streetName": "BAYLY",
        "streetDirectionId": "E",
        "streetTypeId": "ST",
        "placeName": "AJAX",
        "streetNameDisplayText": "BAYLY ST E, AJAX"
      }
    ]
  },
  {
    "postal": "L1S5X0",
    "result": []
  },
  {
    "postal": "L1S7B8",
    "result": [
      {
        "electoralDistricts": [
          {
            "election": null,
            "id": 1,
            "name": "Ajax"
          }
        ],
        "pollDivisionIds": [
          10136703
        ],
        "postalCode": "L1S7B8",
        "streetName": "ROLLO",
        "streetDirectionId": null,
        "streetTypeId": "DR",
        "placeName": "AJAX",
        "streetNameDisplayText": "ROLLO DR, AJAX"
      }
    ]
  },
  {
    "postal": "L1S0C6",
    "result": []
  },
  {
    "postal": "L1S6G1",
    "result": [
      {
        "electoralDistricts": [
          {
            "election": null,
            "id": 1,
            "name": "Ajax"
          }
        ],
        "pollDivisionIds": [
          10136700
        ],
        "postalCode": "L1S6G1",
        "streetName": "BALSDON",
        "streetDirectionId": null,
        "streetTypeId": "CRT",
        "placeName": "AJAX",
        "streetNameDisplayText": "BALSDON CRT, AJAX"
      }
    ]
  },
  {
    "postal": "L1S3K3",
    "result": [
      {
        "electoralDistricts": [
          {
            "election": null,
            "id": 1,
            "name": "Ajax"
          }
        ],
        "pollDivisionIds": [
          10136701
        ],
        "postalCode": "L1S3K3",
        "streetName": "BAYLY",
        "streetDirectionId": "W",
        "streetTypeId": "ST",
        "placeName": "AJAX",
        "streetNameDisplayText": "BAYLY ST W, AJAX"
      }
    ]
  },
  {
    "postal": "L1S9R0",
    "result": []
  },
  {
    "postal": "L1S4R8",
    "result": []
  },
  {
    "postal": "L1S5P9",
    "result": []
  },
  {
    "postal": "L1S8N4",
    "result": []
  },
  {
    "postal": "L1S8H4",
    "result": []
  },
  {
    "postal": "L1S4V1",
    "result": [
      {
        "electoralDistricts": [
          {
            "election": null,
            "id": 1,
            "name": "Ajax"
          }
        ],
        "pollDivisionIds": [
          10136709
        ],
        "postalCode": "L1S4V1",
        "streetName": "BARTLETT",
        "streetDirectionId": null,
        "streetTypeId": "DR",
        "placeName": "AJAX",
        "streetNameDisplayText": "BARTLETT DR, AJAX"
      }
    ]
  },
  {
    "postal": "L1S1K5",
    "result": [
      {
        "electoralDistricts": [
          {
            "election": null,
            "id": 1,
            "name": "Ajax"
          }
        ],
        "pollDivisionIds": [
          10136706
        ],
        "postalCode": "L1S1K5",
        "streetName": "KINNISON",
        "streetDirectionId": null,
        "streetTypeId": "CRT",
        "placeName": "AJAX",
        "streetNameDisplayText": "KINNISON CRT, AJAX"
      }
    ]
  },
  {
    "postal": "L1S1Z5",
    "result": [
      {
        "electoralDistricts": [
          {
            "election": null,
            "id": 1,
            "name": "Ajax"
          }
        ],
        "pollDivisionIds": [
          10136698
        ],
        "postalCode": "L1S1Z5",
        "streetName": "NELSON",
        "streetDirectionId": null,
        "streetTypeId": "AVE",
        "placeName": "AJAX",
        "streetNameDisplayText": "NELSON AVE, AJAX"
      }
    ]
  },
  {
    "postal": "L1S9L9",
    "result": []
  },
  {
    "postal": "L1S5L2",
    "result": [
      {
        "electoralDistricts": [
          {
            "election": null,
            "id": 1,
            "name": "Ajax"
          }
        ],
        "pollDivisionIds": [
          10136700
        ],
        "postalCode": "L1S5L2",
        "streetName": "FEARN",
        "streetDirectionId": null,
        "streetTypeId": "CRES",
        "placeName": "AJAX",
        "streetNameDisplayText": "FEARN CRES, AJAX"
      }
    ]
  },
  {
    "postal": "L1S0M2",
    "result": []
  },
  {
    "postal": "L1S1K8",
    "result": [
      {
        "electoralDistricts": [
          {
            "election": null,
            "id": 1,
            "name": "Ajax"
          }
        ],
        "pollDivisionIds": [
          10136706
        ],
        "postalCode": "L1S1K8",
        "streetName": "CLEMENTS",
        "streetDirectionId": "E",
        "streetTypeId": "RD",
        "placeName": "AJAX",
        "streetNameDisplayText": "CLEMENTS RD E, AJAX"
      }
    ]
  },
  {
    "postal": "L1S3M7",
    "result": [
      {
        "electoralDistricts": [
          {
            "election": null,
            "id": 1,
            "name": "Ajax"
          }
        ],
        "pollDivisionIds": [
          10136707
        ],
        "postalCode": "L1S3M7",
        "streetName": "CHAMBERLAIN",
        "streetDirectionId": null,
        "streetTypeId": "CRT",
        "placeName": "AJAX",
        "streetNameDisplayText": "CHAMBERLAIN CRT, AJAX"
      }
    ]
  },
  {
    "postal": "L1S1B2",
    "result": [
      {
        "electoralDistricts": [
          {
            "election": null,
            "id": 1,
            "name": "Ajax"
          }
        ],
        "pollDivisionIds": [
          10136706
        ],
        "postalCode": "L1S1B2",
        "streetName": "LAKE DRIVEWAY",
        "streetDirectionId": "E",
        "streetTypeId": null,
        "placeName": "AJAX",
        "streetNameDisplayText": "LAKE DRIVEWAY E, AJAX"
      }
    ]
  },
  {
    "postal": "L1S0H9",
    "result": []
  },
  {
    "postal": "L1S8M4",
    "result": []
  },
  {
    "postal": "L1S2M5",
    "result": [
      {
        "electoralDistricts": [
          {
            "election": null,
            "id": 1,
            "name": "Ajax"
          }
        ],
        "pollDivisionIds": [
          10136702
        ],
        "postalCode": "L1S2M5",
        "streetName": "KINGS",
        "streetDirectionId": null,
        "streetTypeId": "CRES",
        "placeName": "AJAX",
        "streetNameDisplayText": "KINGS CRES, AJAX"
      }
    ]
  },
  {
    "postal": "L1S0T9",
    "result": []
  },
  {
    "postal": "L1S3P1",
    "result": [
      {
        "electoralDistricts": [
          {
            "election": null,
            "id": 1,
            "name": "Ajax"
          }
        ],
        "pollDivisionIds": [
          10136707
        ],
        "postalCode": "L1S3P1",
        "streetName": "CRABTREE",
        "streetDirectionId": null,
        "streetTypeId": "LANE",
        "placeName": "AJAX",
        "streetNameDisplayText": "CRABTREE LANE, AJAX"
      }
    ]
  },
  {
    "postal": "L1S1R6",
    "result": [
      {
        "electoralDistricts": [
          {
            "election": null,
            "id": 1,
            "name": "Ajax"
          }
        ],
        "pollDivisionIds": [
          10136701
        ],
        "postalCode": "L1S1R6",
        "streetName": "FAIRALL",
        "streetDirectionId": null,
        "streetTypeId": "ST",
        "placeName": "AJAX",
        "streetNameDisplayText": "FAIRALL ST, AJAX"
      }
    ]
  },
  {
    "postal": "L1S9V5",
    "result": []
  },
  {
    "postal": "L1S9T0",
    "result": []
  },
  {
    "postal": "L1S0A9",
    "result": [
      {
        "electoralDistricts": [
          {
            "election": null,
            "id": 1,
            "name": "Ajax"
          }
        ],
        "pollDivisionIds": [
          10136701
        ],
        "postalCode": "L1S0A9",
        "streetName": "CULLCASTLE",
        "streetDirectionId": null,
        "streetTypeId": "ST",
        "placeName": "AJAX",
        "streetNameDisplayText": "CULLCASTLE ST, AJAX"
      }
    ]
  },
  {
    "postal": "L1S1M3",
    "result": [
      {
        "electoralDistricts": [
          {
            "election": null,
            "id": 1,
            "name": "Ajax"
          }
        ],
        "pollDivisionIds": [
          10136706
        ],
        "postalCode": "L1S1M3",
        "streetName": "PARSONS",
        "streetDirectionId": null,
        "streetTypeId": "RD",
        "placeName": "AJAX",
        "streetNameDisplayText": "PARSONS RD, AJAX"
      }
    ]
  },
  {
    "postal": "L1S1W8",
    "result": [
      {
        "electoralDistricts": [
          {
            "election": null,
            "id": 1,
            "name": "Ajax"
          }
        ],
        "pollDivisionIds": [
          10136698
        ],
        "postalCode": "L1S1W8",
        "streetName": "DURHAM",
        "streetDirectionId": null,
        "streetTypeId": "ST",
        "placeName": "AJAX",
        "streetNameDisplayText": "DURHAM ST, AJAX"
      }
    ]
  },
  {
    "postal": "L1S9J1",
    "result": []
  },
  {
    "postal": "L1S8N5",
    "result": []
  },
  {
    "postal": "L1S5X1",
    "result": [
      {
        "electoralDistricts": [
          {
            "election": null,
            "id": 1,
            "name": "Ajax"
          }
        ],
        "pollDivisionIds": [
          10136698
        ],
        "postalCode": "L1S5X1",
        "streetName": "ADAMS",
        "streetDirectionId": null,
        "streetTypeId": "DR",
        "placeName": "AJAX",
        "streetNameDisplayText": "ADAMS DR, AJAX"
      }
    ]
  },
  {
    "postal": "L1S6S2",
    "result": [
      {
        "electoralDistricts": [
          {
            "election": null,
            "id": 1,
            "name": "Ajax"
          }
        ],
        "pollDivisionIds": [
          10136699
        ],
        "postalCode": "L1S6S2",
        "streetName": "PLOWMAN",
        "streetDirectionId": null,
        "streetTypeId": "DR",
        "placeName": "AJAX",
        "streetNameDisplayText": "PLOWMAN DR, AJAX"
      },
      {
        "electoralDistricts": [
          {
            "election": null,
            "id": 1,
            "name": "Ajax"
          }
        ],
        "pollDivisionIds": [
          10136699
        ],
        "postalCode": "L1S6S2",
        "streetName": "RITCHIE",
        "streetDirectionId": null,
        "streetTypeId": "AVE",
        "placeName": "AJAX",
        "streetNameDisplayText": "RITCHIE AVE, AJAX"
      }
    ]
  },
  {
    "postal": "L1S2A2",
    "result": [
      {
        "electoralDistricts": [
          {
            "election": null,
            "id": 1,
            "name": "Ajax"
          }
        ],
        "pollDivisionIds": [
          10136698
        ],
        "postalCode": "L1S2A2",
        "streetName": "TUDOR",
        "streetDirectionId": null,
        "streetTypeId": "AVE",
        "placeName": "AJAX",
        "streetNameDisplayText": "TUDOR AVE, AJAX"
      }
    ]
  },
  {
    "postal": "L1S6A6",
    "result": [
      {
        "electoralDistricts": [
          {
            "election": null,
            "id": 1,
            "name": "Ajax"
          }
        ],
        "pollDivisionIds": [
          10136700
        ],
        "postalCode": "L1S6A6",
        "streetName": "CHURCH",
        "streetDirectionId": "S",
        "streetTypeId": "ST",
        "placeName": "AJAX",
        "streetNameDisplayText": "CHURCH ST S, AJAX"
      }
    ]
  },
  {
    "postal": "L1S0S3",
    "result": []
  },
  {
    "postal": "L1S3E7",
    "result": [
      {
        "electoralDistricts": [
          {
            "election": null,
            "id": 1,
            "name": "Ajax"
          }
        ],
        "pollDivisionIds": [
          10136708
        ],
        "postalCode": "L1S3E7",
        "streetName": "CLOVER RIDGE",
        "streetDirectionId": "W",
        "streetTypeId": "DR",
        "placeName": "AJAX",
        "streetNameDisplayText": "CLOVER RIDGE DR W, AJAX"
      }
    ]
  },
  {
    "postal": "L1S5R7",
    "result": [
      {
        "electoralDistricts": [
          {
            "election": null,
            "id": 1,
            "name": "Ajax"
          }
        ],
        "pollDivisionIds": [
          10136699
        ],
        "postalCode": "L1S5R7",
        "streetName": "REDMOND",
        "streetDirectionId": null,
        "streetTypeId": "DR",
        "placeName": "AJAX",
        "streetNameDisplayText": "REDMOND DR, AJAX"
      }
    ]
  },
  {
    "postal": "L1S3R6",
    "result": [
      {
        "electoralDistricts": [
          {
            "election": null,
            "id": 1,
            "name": "Ajax"
          }
        ],
        "pollDivisionIds": [
          10136708
        ],
        "postalCode": "L1S3R6",
        "streetName": "BROOKSBANK",
        "streetDirectionId": null,
        "streetTypeId": "CRES",
        "placeName": "AJAX",
        "streetNameDisplayText": "BROOKSBANK CRES, AJAX"
      }
    ]
  },
  {
    "postal": "L1S6K4",
    "result": [
      {
        "electoralDistricts": [
          {
            "election": null,
            "id": 1,
            "name": "Ajax"
          }
        ],
        "pollDivisionIds": [
          10136700
        ],
        "postalCode": "L1S6K4",
        "streetName": "MILL",
        "streetDirectionId": null,
        "streetTypeId": "ST",
        "placeName": "AJAX",
        "streetNameDisplayText": "MILL ST, AJAX"
      }
    ]
  },
  {
    "postal": "L1S2W5",
    "result": [
      {
        "electoralDistricts": [
          {
            "election": null,
            "id": 1,
            "name": "Ajax"
          }
        ],
        "pollDivisionIds": [
          10136706
        ],
        "postalCode": "L1S2W5",
        "streetName": "HILLS",
        "streetDirectionId": null,
        "streetTypeId": "RD",
        "placeName": "AJAX",
        "streetNameDisplayText": "HILLS RD, AJAX"
      }
    ]
  },
  {
    "postal": "L1S8W4",
    "result": []
  },
  {
    "postal": "L1S9C2",
    "result": []
  },
  {
    "postal": "L1S2C0",
    "result": []
  },
  {
    "postal": "L1S0E1",
    "result": []
  },
  {
    "postal": "L1S1K9",
    "result": [
      {
        "electoralDistricts": [
          {
            "election": null,
            "id": 1,
            "name": "Ajax"
          }
        ],
        "pollDivisionIds": [
          10136706
        ],
        "postalCode": "L1S1K9",
        "streetName": "CLEMENTS",
        "streetDirectionId": "E",
        "streetTypeId": "RD",
        "placeName": "AJAX",
        "streetNameDisplayText": "CLEMENTS RD E, AJAX"
      }
    ]
  },
  {
    "postal": "L1S1G7",
    "result": [
      {
        "electoralDistricts": [
          {
            "election": null,
            "id": 1,
            "name": "Ajax"
          }
        ],
        "pollDivisionIds": [
          10136706
        ],
        "postalCode": "L1S1G7",
        "streetName": "CLOVER RIDGE",
        "streetDirectionId": "E",
        "streetTypeId": "DR",
        "placeName": "AJAX",
        "streetNameDisplayText": "CLOVER RIDGE DR E, AJAX"
      }
    ]
  },
  {
    "postal": "L1S4E9",
    "result": [
      {
        "electoralDistricts": [
          {
            "election": null,
            "id": 1,
            "name": "Ajax"
          }
        ],
        "pollDivisionIds": [
          10136701
        ],
        "postalCode": "L1S4E9",
        "streetName": "TRAGUNNA",
        "streetDirectionId": null,
        "streetTypeId": "LANE",
        "placeName": "AJAX",
        "streetNameDisplayText": "TRAGUNNA LANE, AJAX"
      }
    ]
  },
  {
    "postal": "L1S9P0",
    "result": []
  },
  {
    "postal": "L1S5H3",
    "result": [
      {
        "electoralDistricts": [
          {
            "election": null,
            "id": 1,
            "name": "Ajax"
          }
        ],
        "pollDivisionIds": [
          10136697
        ],
        "postalCode": "L1S5H3",
        "streetName": "HARMAN",
        "streetDirectionId": null,
        "streetTypeId": "DR",
        "placeName": "AJAX",
        "streetNameDisplayText": "HARMAN DR, AJAX"
      }
    ]
  },
  {
    "postal": "L1S9X6",
    "result": []
  },
  {
    "postal": "L1S5N7",
    "result": []
  },
  {
    "postal": "L1S5A6",
    "result": [
      {
        "electoralDistricts": [
          {
            "election": null,
            "id": 1,
            "name": "Ajax"
          }
        ],
        "pollDivisionIds": [
          10136709
        ],
        "postalCode": "L1S5A6",
        "streetName": "KIPLING",
        "streetDirectionId": null,
        "streetTypeId": "CRES",
        "placeName": "AJAX",
        "streetNameDisplayText": "KIPLING CRES, AJAX"
      }
    ]
  },
  {
    "postal": "L1S4M0",
    "result": []
  },
  {
    "postal": "L1S3V6",
    "result": [
      {
        "electoralDistricts": [
          {
            "election": null,
            "id": 1,
            "name": "Ajax"
          }
        ],
        "pollDivisionIds": [
          10136707
        ],
        "postalCode": "L1S3V6",
        "streetName": "LAKE DRIVEWAY",
        "streetDirectionId": "E",
        "streetTypeId": null,
        "placeName": "AJAX",
        "streetNameDisplayText": "LAKE DRIVEWAY E, AJAX"
      }
    ]
  },
  {
    "postal": "L1S1L7",
    "result": [
      {
        "electoralDistricts": [
          {
            "election": null,
            "id": 1,
            "name": "Ajax"
          }
        ],
        "pollDivisionIds": [
          10136706
        ],
        "postalCode": "L1S1L7",
        "streetName": "CLEMENTS",
        "streetDirectionId": "E",
        "streetTypeId": "RD",
        "placeName": "AJAX",
        "streetNameDisplayText": "CLEMENTS RD E, AJAX"
      }
    ]
  },
  {
    "postal": "L1S2P9",
    "result": [
      {
        "electoralDistricts": [
          {
            "election": null,
            "id": 1,
            "name": "Ajax"
          }
        ],
        "pollDivisionIds": [
          10136701
        ],
        "postalCode": "L1S2P9",
        "streetName": "BURCHER",
        "streetDirectionId": null,
        "streetTypeId": "RD",
        "placeName": "AJAX",
        "streetNameDisplayText": "BURCHER RD, AJAX"
      }
    ]
  },
  {
    "postal": "L1S5T4",
    "result": [
      {
        "electoralDistricts": [
          {
            "election": null,
            "id": 1,
            "name": "Ajax"
          }
        ],
        "pollDivisionIds": [
          10136698
        ],
        "postalCode": "L1S5T4",
        "streetName": "WOODWARD",
        "streetDirectionId": null,
        "streetTypeId": "CRES",
        "placeName": "AJAX",
        "streetNameDisplayText": "WOODWARD CRES, AJAX"
      }
    ]
  },
  {
    "postal": "L1S5Z1",
    "result": [
      {
        "electoralDistricts": [
          {
            "election": null,
            "id": 1,
            "name": "Ajax"
          }
        ],
        "pollDivisionIds": [
          10136698
        ],
        "postalCode": "L1S5Z1",
        "streetName": "BLACKBURN",
        "streetDirectionId": null,
        "streetTypeId": "CRES",
        "placeName": "AJAX",
        "streetNameDisplayText": "BLACKBURN CRES, AJAX"
      },
      {
        "electoralDistricts": [
          {
            "election": null,
            "id": 1,
            "name": "Ajax"
          }
        ],
        "pollDivisionIds": [
          10136698
        ],
        "postalCode": "L1S5Z1",
        "streetName": "GARDINER",
        "streetDirectionId": null,
        "streetTypeId": "DR",
        "placeName": "AJAX",
        "streetNameDisplayText": "GARDINER DR, AJAX"
      }
    ]
  },
  {
    "postal": "L1S2X0",
    "result": []
  },
  {
    "postal": "L1S6Z2",
    "result": [
      {
        "electoralDistricts": [
          {
            "election": null,
            "id": 1,
            "name": "Ajax"
          }
        ],
        "pollDivisionIds": [
          10136703
        ],
        "postalCode": "L1S6Z2",
        "streetName": "GATES",
        "streetDirectionId": null,
        "streetTypeId": "CRES",
        "placeName": "AJAX",
        "streetNameDisplayText": "GATES CRES, AJAX"
      }
    ]
  },
  {
    "postal": "L1S0E0",
    "result": []
  },
  {
    "postal": "L1S3Z5",
    "result": [
      {
        "electoralDistricts": [
          {
            "election": null,
            "id": 1,
            "name": "Ajax"
          }
        ],
        "pollDivisionIds": [
          10136709
        ],
        "postalCode": "L1S3Z5",
        "streetName": "PRIDHAM",
        "streetDirectionId": null,
        "streetTypeId": "CRT",
        "placeName": "AJAX",
        "streetNameDisplayText": "PRIDHAM CRT, AJAX"
      }
    ]
  },
  {
    "postal": "L1S8H3",
    "result": []
  },
  {
    "postal": "L1S7S6",
    "result": [
      {
        "electoralDistricts": [
          {
            "election": null,
            "id": 1,
            "name": "Ajax"
          }
        ],
        "pollDivisionIds": [
          10136705,
          10136684
        ],
        "postalCode": "L1S7S6",
        "streetName": "ANNABLE",
        "streetDirectionId": null,
        "streetTypeId": "LANE",
        "placeName": "AJAX",
        "streetNameDisplayText": "ANNABLE LANE, AJAX"
      },
      {
        "electoralDistricts": [
          {
            "election": null,
            "id": 1,
            "name": "Ajax"
          }
        ],
        "pollDivisionIds": [
          10136705
        ],
        "postalCode": "L1S7S6",
        "streetName": "WILKIE",
        "streetDirectionId": null,
        "streetTypeId": "LANE",
        "placeName": "AJAX",
        "streetNameDisplayText": "WILKIE LANE, AJAX"
      }
    ]
  },
  {
    "postal": "L1S4C1",
    "result": [
      {
        "electoralDistricts": [
          {
            "election": null,
            "id": 1,
            "name": "Ajax"
          }
        ],
        "pollDivisionIds": [
          10136707
        ],
        "postalCode": "L1S4C1",
        "streetName": "FLOWERS",
        "streetDirectionId": null,
        "streetTypeId": "CRES",
        "placeName": "AJAX",
        "streetNameDisplayText": "FLOWERS CRES, AJAX"
      }
    ]
  },
  {
    "postal": "L1S3K2",
    "result": [
      {
        "electoralDistricts": [
          {
            "election": null,
            "id": 1,
            "name": "Ajax"
          }
        ],
        "pollDivisionIds": [
          10136708
        ],
        "postalCode": "L1S3K2",
        "streetName": "RANDS",
        "streetDirectionId": null,
        "streetTypeId": "RD",
        "placeName": "AJAX",
        "streetNameDisplayText": "RANDS RD, AJAX"
      }
    ]
  },
  {
    "postal": "L1S1Y5",
    "result": [
      {
        "electoralDistricts": [
          {
            "election": null,
            "id": 1,
            "name": "Ajax"
          }
        ],
        "pollDivisionIds": [
          10136698
        ],
        "postalCode": "L1S1Y5",
        "streetName": "BEATTY",
        "streetDirectionId": null,
        "streetTypeId": "RD",
        "placeName": "AJAX",
        "streetNameDisplayText": "BEATTY RD, AJAX"
      }
    ]
  },
  {
    "postal": "L1S6P6",
    "result": [
      {
        "electoralDistricts": [
          {
            "election": null,
            "id": 1,
            "name": "Ajax"
          }
        ],
        "pollDivisionIds": [
          10136699
        ],
        "postalCode": "L1S6P6",
        "streetName": "REDMOND",
        "streetDirectionId": null,
        "streetTypeId": "DR",
        "placeName": "AJAX",
        "streetNameDisplayText": "REDMOND DR, AJAX"
      },
      {
        "electoralDistricts": [
          {
            "election": null,
            "id": 1,
            "name": "Ajax"
          }
        ],
        "pollDivisionIds": [
          10136699
        ],
        "postalCode": "L1S6P6",
        "streetName": "REED",
        "streetDirectionId": null,
        "streetTypeId": "DR",
        "placeName": "AJAX",
        "streetNameDisplayText": "REED DR, AJAX"
      }
    ]
  },
  {
    "postal": "L1S3N9",
    "result": [
      {
        "electoralDistricts": [
          {
            "election": null,
            "id": 1,
            "name": "Ajax"
          }
        ],
        "pollDivisionIds": [
          10136707
        ],
        "postalCode": "L1S3N9",
        "streetName": "CRABTREE",
        "streetDirectionId": null,
        "streetTypeId": "LANE",
        "placeName": "AJAX",
        "streetNameDisplayText": "CRABTREE LANE, AJAX"
      }
    ]
  },
  {
    "postal": "L1S3W2",
    "result": [
      {
        "electoralDistricts": [
          {
            "election": null,
            "id": 1,
            "name": "Ajax"
          }
        ],
        "pollDivisionIds": [
          10136707
        ],
        "postalCode": "L1S3W2",
        "streetName": "MCRAE",
        "streetDirectionId": null,
        "streetTypeId": "RD",
        "placeName": "AJAX",
        "streetNameDisplayText": "MCRAE RD, AJAX"
      }
    ]
  },
  {
    "postal": "L1S6H8",
    "result": [
      {
        "electoralDistricts": [
          {
            "election": null,
            "id": 1,
            "name": "Ajax"
          }
        ],
        "pollDivisionIds": [
          10136700
        ],
        "postalCode": "L1S6H8",
        "streetName": "JACWIN",
        "streetDirectionId": null,
        "streetTypeId": "DR",
        "placeName": "AJAX",
        "streetNameDisplayText": "JACWIN DR, AJAX"
      }
    ]
  },
  {
    "postal": "L1S9T3",
    "result": []
  },
  {
    "postal": "L1S5L9",
    "result": [
      {
        "electoralDistricts": [
          {
            "election": null,
            "id": 1,
            "name": "Ajax"
          }
        ],
        "pollDivisionIds": [
          10136700
        ],
        "postalCode": "L1S5L9",
        "streetName": "CRANLEY",
        "streetDirectionId": null,
        "streetTypeId": "CRT",
        "placeName": "AJAX",
        "streetNameDisplayText": "CRANLEY CRT, AJAX"
      },
      {
        "electoralDistricts": [
          {
            "election": null,
            "id": 1,
            "name": "Ajax"
          }
        ],
        "pollDivisionIds": [
          10136700
        ],
        "postalCode": "L1S5L9",
        "streetName": "FEARN",
        "streetDirectionId": null,
        "streetTypeId": "CRES",
        "placeName": "AJAX",
        "streetNameDisplayText": "FEARN CRES, AJAX"
      }
    ]
  },
  {
    "postal": "L1S7X7",
    "result": []
  },
  {
    "postal": "L1S3J5",
    "result": [
      {
        "electoralDistricts": [
          {
            "election": null,
            "id": 1,
            "name": "Ajax"
          }
        ],
        "pollDivisionIds": [
          10136708
        ],
        "postalCode": "L1S3J5",
        "streetName": "SWANSTON",
        "streetDirectionId": null,
        "streetTypeId": "CRES",
        "placeName": "AJAX",
        "streetNameDisplayText": "SWANSTON CRES, AJAX"
      }
    ]
  },
  {
    "postal": "L1S4J5",
    "result": []
  },
  {
    "postal": "L1S6J2",
    "result": [
      {
        "electoralDistricts": [
          {
            "election": null,
            "id": 1,
            "name": "Ajax"
          }
        ],
        "pollDivisionIds": [
          10136700
        ],
        "postalCode": "L1S6J2",
        "streetName": "JALLAN",
        "streetDirectionId": null,
        "streetTypeId": "DR",
        "placeName": "AJAX",
        "streetNameDisplayText": "JALLAN DR, AJAX"
      }
    ]
  },
  {
    "postal": "L1S5V6",
    "result": [
      {
        "electoralDistricts": [
          {
            "election": null,
            "id": 1,
            "name": "Ajax"
          }
        ],
        "pollDivisionIds": [
          10136699,
          10136698
        ],
        "postalCode": "L1S5V6",
        "streetName": "KNAPTON",
        "streetDirectionId": null,
        "streetTypeId": "AVE",
        "placeName": "AJAX",
        "streetNameDisplayText": "KNAPTON AVE, AJAX"
      }
    ]
  },
  {
    "postal": "L1S3N2",
    "result": [
      {
        "electoralDistricts": [
          {
            "election": null,
            "id": 1,
            "name": "Ajax"
          }
        ],
        "pollDivisionIds": [
          10136707
        ],
        "postalCode": "L1S3N2",
        "streetName": "ROBBIE",
        "streetDirectionId": null,
        "streetTypeId": "CRES",
        "placeName": "AJAX",
        "streetNameDisplayText": "ROBBIE CRES, AJAX"
      }
    ]
  },
  {
    "postal": "L1S3B1",
    "result": [
      {
        "electoralDistricts": [
          {
            "election": null,
            "id": 1,
            "name": "Ajax"
          }
        ],
        "pollDivisionIds": [
          10136706
        ],
        "postalCode": "L1S3B1",
        "streetName": "CALLEN",
        "streetDirectionId": null,
        "streetTypeId": "CRT",
        "placeName": "AJAX",
        "streetNameDisplayText": "CALLEN CRT, AJAX"
      }
    ]
  },
  {
    "postal": "L1S8B5",
    "result": []
  },
  {
    "postal": "L1S0K1",
    "result": []
  },
  {
    "postal": "L1S7M7",
    "result": [
      {
        "electoralDistricts": [
          {
            "election": null,
            "id": 1,
            "name": "Ajax"
          }
        ],
        "pollDivisionIds": [
          10136703
        ],
        "postalCode": "L1S7M7",
        "streetName": "RUTHEL",
        "streetDirectionId": null,
        "streetTypeId": "RD",
        "placeName": "AJAX",
        "streetNameDisplayText": "RUTHEL RD, AJAX"
      }
    ]
  },
  {
    "postal": "L1S2M2",
    "result": [
      {
        "electoralDistricts": [
          {
            "election": null,
            "id": 1,
            "name": "Ajax"
          }
        ],
        "pollDivisionIds": [
          10136702
        ],
        "postalCode": "L1S2M2",
        "streetName": "KINGS",
        "streetDirectionId": null,
        "streetTypeId": "CRES",
        "placeName": "AJAX",
        "streetNameDisplayText": "KINGS CRES, AJAX"
      }
    ]
  },
  {
    "postal": "L1S9N3",
    "result": []
  },
  {
    "postal": "L1S4Y8",
    "result": [
      {
        "electoralDistricts": [
          {
            "election": null,
            "id": 1,
            "name": "Ajax"
          }
        ],
        "pollDivisionIds": [
          10136709
        ],
        "postalCode": "L1S4Y8",
        "streetName": "HUMPHREY",
        "streetDirectionId": null,
        "streetTypeId": "DR",
        "placeName": "AJAX",
        "streetNameDisplayText": "HUMPHREY DR, AJAX"
      },
      {
        "electoralDistricts": [
          {
            "election": null,
            "id": 1,
            "name": "Ajax"
          }
        ],
        "pollDivisionIds": [
          10136709
        ],
        "postalCode": "L1S4Y8",
        "streetName": "LAKE DRIVEWAY",
        "streetDirectionId": "W",
        "streetTypeId": null,
        "placeName": "AJAX",
        "streetNameDisplayText": "LAKE DRIVEWAY W, AJAX"
      },
      {
        "electoralDistricts": [
          {
            "election": null,
            "id": 1,
            "name": "Ajax"
          }
        ],
        "pollDivisionIds": [
          10136709
        ],
        "postalCode": "L1S4Y8",
        "streetName": "VALE",
        "streetDirectionId": null,
        "streetTypeId": "CRES",
        "placeName": "AJAX",
        "streetNameDisplayText": "VALE CRES, AJAX"
      }
    ]
  },
  {
    "postal": "L1S3V7",
    "result": [
      {
        "electoralDistricts": [
          {
            "election": null,
            "id": 1,
            "name": "Ajax"
          }
        ],
        "pollDivisionIds": [
          10136707
        ],
        "postalCode": "L1S3V7",
        "streetName": "ANDREA",
        "streetDirectionId": null,
        "streetTypeId": "RD",
        "placeName": "AJAX",
        "streetNameDisplayText": "ANDREA RD, AJAX"
      }
    ]
  },
  {
    "postal": "L1S8Z1",
    "result": []
  },
  {
    "postal": "L1S7B3",
    "result": [
      {
        "electoralDistricts": [
          {
            "election": null,
            "id": 1,
            "name": "Ajax"
          }
        ],
        "pollDivisionIds": [
          10136703
        ],
        "postalCode": "L1S7B3",
        "streetName": "HEWITT",
        "streetDirectionId": null,
        "streetTypeId": "CRES",
        "placeName": "AJAX",
        "streetNameDisplayText": "HEWITT CRES, AJAX"
      }
    ]
  },
  {
    "postal": "L1S3A8",
    "result": [
      {
        "electoralDistricts": [
          {
            "election": null,
            "id": 1,
            "name": "Ajax"
          }
        ],
        "pollDivisionIds": [
          10136706
        ],
        "postalCode": "L1S3A8",
        "streetName": "CRAWFORD",
        "streetDirectionId": null,
        "streetTypeId": "DR",
        "placeName": "AJAX",
        "streetNameDisplayText": "CRAWFORD DR, AJAX"
      }
    ]
  },
  {
    "postal": "L1S7V5",
    "result": []
  },
  {
    "postal": "L1S2T2",
    "result": [
      {
        "electoralDistricts": [
          {
            "election": null,
            "id": 1,
            "name": "Ajax"
          }
        ],
        "pollDivisionIds": [
          10136706
        ],
        "postalCode": "L1S2T2",
        "streetName": "DEACON",
        "streetDirectionId": null,
        "streetTypeId": "LANE",
        "placeName": "AJAX",
        "streetNameDisplayText": "DEACON LANE, AJAX"
      }
    ]
  },
  {
    "postal": "L1S6L3",
    "result": [
      {
        "electoralDistricts": [
          {
            "election": null,
            "id": 1,
            "name": "Ajax"
          }
        ],
        "pollDivisionIds": [
          10136700
        ],
        "postalCode": "L1S6L3",
        "streetName": "RANDALL",
        "streetDirectionId": null,
        "streetTypeId": "DR",
        "placeName": "AJAX",
        "streetNameDisplayText": "RANDALL DR, AJAX"
      }
    ]
  },
  {
    "postal": "L1S0L2",
    "result": []
  },
  {
    "postal": "L1S5Y8",
    "result": [
      {
        "electoralDistricts": [
          {
            "election": null,
            "id": 1,
            "name": "Ajax"
          }
        ],
        "pollDivisionIds": [
          10136698
        ],
        "postalCode": "L1S5Y8",
        "streetName": "BLACKBURN",
        "streetDirectionId": null,
        "streetTypeId": "CRES",
        "placeName": "AJAX",
        "streetNameDisplayText": "BLACKBURN CRES, AJAX"
      }
    ]
  },
  {
    "postal": "L1S0B8",
    "result": [
      {
        "electoralDistricts": [
          {
            "election": null,
            "id": 1,
            "name": "Ajax"
          }
        ],
        "pollDivisionIds": [
          10136701
        ],
        "postalCode": "L1S0B8",
        "streetName": "LAWRENCETOWN",
        "streetDirectionId": null,
        "streetTypeId": "ST",
        "placeName": "AJAX",
        "streetNameDisplayText": "LAWRENCETOWN ST, AJAX"
      }
    ]
  },
  {
    "postal": "L1S6R5",
    "result": [
      {
        "electoralDistricts": [
          {
            "election": null,
            "id": 1,
            "name": "Ajax"
          }
        ],
        "pollDivisionIds": [
          10136699
        ],
        "postalCode": "L1S6R5",
        "streetName": "PEMBRY",
        "streetDirectionId": null,
        "streetTypeId": "DR",
        "placeName": "AJAX",
        "streetNameDisplayText": "PEMBRY DR, AJAX"
      },
      {
        "electoralDistricts": [
          {
            "election": null,
            "id": 1,
            "name": "Ajax"
          }
        ],
        "pollDivisionIds": [
          10136699
        ],
        "postalCode": "L1S6R5",
        "streetName": "PLOWMAN",
        "streetDirectionId": null,
        "streetTypeId": "DR",
        "placeName": "AJAX",
        "streetNameDisplayText": "PLOWMAN DR, AJAX"
      }
    ]
  },
  {
    "postal": "L1S8W6",
    "result": []
  },
  {
    "postal": "L1S8G6",
    "result": []
  },
  {
    "postal": "L1S6X3",
    "result": [
      {
        "electoralDistricts": [
          {
            "election": null,
            "id": 1,
            "name": "Ajax"
          }
        ],
        "pollDivisionIds": [
          10136699
        ],
        "postalCode": "L1S6X3",
        "streetName": "WRIGHT",
        "streetDirectionId": null,
        "streetTypeId": "CRES",
        "placeName": "AJAX",
        "streetNameDisplayText": "WRIGHT CRES, AJAX"
      }
    ]
  },
  {
    "postal": "L1S7R7",
    "result": [
      {
        "electoralDistricts": [
          {
            "election": null,
            "id": 1,
            "name": "Ajax"
          }
        ],
        "pollDivisionIds": [
          10136703
        ],
        "postalCode": "L1S7R7",
        "streetName": "ANGIER",
        "streetDirectionId": null,
        "streetTypeId": "CRES",
        "placeName": "AJAX",
        "streetNameDisplayText": "ANGIER CRES, AJAX"
      },
      {
        "electoralDistricts": [
          {
            "election": null,
            "id": 1,
            "name": "Ajax"
          }
        ],
        "pollDivisionIds": [
          10136701
        ],
        "postalCode": "L1S7R7",
        "streetName": "ANGIER",
        "streetDirectionId": null,
        "streetTypeId": "CRES",
        "placeName": "AJAX,ON",
        "streetNameDisplayText": "ANGIER CRES, AJAX,ON"
      }
    ]
  },
  {
    "postal": "L1S4B6",
    "result": [
      {
        "electoralDistricts": [
          {
            "election": null,
            "id": 1,
            "name": "Ajax"
          }
        ],
        "pollDivisionIds": [
          10136707
        ],
        "postalCode": "L1S4B6",
        "streetName": "MONARCH",
        "streetDirectionId": null,
        "streetTypeId": "AVE",
        "placeName": "AJAX",
        "streetNameDisplayText": "MONARCH AVE, AJAX"
      }
    ]
  },
  {
    "postal": "L1S3P9",
    "result": [
      {
        "electoralDistricts": [
          {
            "election": null,
            "id": 1,
            "name": "Ajax"
          }
        ],
        "pollDivisionIds": [
          10136709
        ],
        "postalCode": "L1S3P9",
        "streetName": "FINLEY",
        "streetDirectionId": null,
        "streetTypeId": "AVE",
        "placeName": "AJAX",
        "streetNameDisplayText": "FINLEY AVE, AJAX"
      }
    ]
  },
  {
    "postal": "L1S2T3",
    "result": [
      {
        "electoralDistricts": [
          {
            "election": null,
            "id": 1,
            "name": "Ajax"
          }
        ],
        "pollDivisionIds": [
          10136706
        ],
        "postalCode": "L1S2T3",
        "streetName": "DEACON",
        "streetDirectionId": null,
        "streetTypeId": "LANE",
        "placeName": "AJAX",
        "streetNameDisplayText": "DEACON LANE, AJAX"
      },
      {
        "electoralDistricts": [
          {
            "election": null,
            "id": 1,
            "name": "Ajax"
          }
        ],
        "pollDivisionIds": [
          10136706
        ],
        "postalCode": "L1S2T3",
        "streetName": "DEACON",
        "streetDirectionId": null,
        "streetTypeId": "ST",
        "placeName": "AJAX",
        "streetNameDisplayText": "DEACON ST, AJAX"
      }
    ]
  },
  {
    "postal": "L1S1M4",
    "result": [
      {
        "electoralDistricts": [
          {
            "election": null,
            "id": 1,
            "name": "Ajax"
          }
        ],
        "pollDivisionIds": [
          10136706
        ],
        "postalCode": "L1S1M4",
        "streetName": "PARSONS",
        "streetDirectionId": null,
        "streetTypeId": "RD",
        "placeName": "AJAX",
        "streetNameDisplayText": "PARSONS RD, AJAX"
      }
    ]
  },
  {
    "postal": "L1S0H1",
    "result": []
  },
  {
    "postal": "L1S9W3",
    "result": []
  },
  {
    "postal": "L1S6P1",
    "result": [
      {
        "electoralDistricts": [
          {
            "election": null,
            "id": 1,
            "name": "Ajax"
          }
        ],
        "pollDivisionIds": [
          10136699
        ],
        "postalCode": "L1S6P1",
        "streetName": "PEMBRY",
        "streetDirectionId": null,
        "streetTypeId": "DR",
        "placeName": "AJAX",
        "streetNameDisplayText": "PEMBRY DR, AJAX"
      }
    ]
  },
  {
    "postal": "L1S7G2",
    "result": [
      {
        "electoralDistricts": [
          {
            "election": null,
            "id": 1,
            "name": "Ajax"
          }
        ],
        "pollDivisionIds": [
          10136703
        ],
        "postalCode": "L1S7G2",
        "streetName": "CLUETT",
        "streetDirectionId": null,
        "streetTypeId": "DR",
        "placeName": "AJAX",
        "streetNameDisplayText": "CLUETT DR, AJAX"
      }
    ]
  },
  {
    "postal": "L1S4J9",
    "result": []
  },
  {
    "postal": "L1S9E4",
    "result": []
  },
  {
    "postal": "L1S8H0",
    "result": []
  },
  {
    "postal": "L1S4M7",
    "result": []
  },
  {
    "postal": "L1S2G9",
    "result": [
      {
        "electoralDistricts": [
          {
            "election": null,
            "id": 1,
            "name": "Ajax"
          }
        ],
        "pollDivisionIds": [
          10136701
        ],
        "postalCode": "L1S2G9",
        "streetName": "MONARCH",
        "streetDirectionId": null,
        "streetTypeId": "AVE",
        "placeName": "AJAX",
        "streetNameDisplayText": "MONARCH AVE, AJAX"
      }
    ]
  },
  {
    "postal": "L1S8T2",
    "result": []
  },
  {
    "postal": "L1S7G7",
    "result": [
      {
        "electoralDistricts": [
          {
            "election": null,
            "id": 1,
            "name": "Ajax"
          }
        ],
        "pollDivisionIds": [
          10136701
        ],
        "postalCode": "L1S7G7",
        "streetName": "BAYLY",
        "streetDirectionId": "W",
        "streetTypeId": "ST",
        "placeName": "AJAX",
        "streetNameDisplayText": "BAYLY ST W, AJAX"
      }
    ]
  },
  {
    "postal": "L1S4Z3",
    "result": [
      {
        "electoralDistricts": [
          {
            "election": null,
            "id": 1,
            "name": "Ajax"
          }
        ],
        "pollDivisionIds": [
          10136709
        ],
        "postalCode": "L1S4Z3",
        "streetName": "HUMPHREY",
        "streetDirectionId": null,
        "streetTypeId": "DR",
        "placeName": "AJAX",
        "streetNameDisplayText": "HUMPHREY DR, AJAX"
      }
    ]
  },
  {
    "postal": "L1S5B3",
    "result": [
      {
        "electoralDistricts": [
          {
            "election": null,
            "id": 1,
            "name": "Ajax"
          }
        ],
        "pollDivisionIds": [
          10136709
        ],
        "postalCode": "L1S5B3",
        "streetName": "WALKER",
        "streetDirectionId": null,
        "streetTypeId": "CRES",
        "placeName": "AJAX",
        "streetNameDisplayText": "WALKER CRES, AJAX"
      }
    ]
  },
  {
    "postal": "L1S1S7",
    "result": [
      {
        "electoralDistricts": [
          {
            "election": null,
            "id": 1,
            "name": "Ajax"
          }
        ],
        "pollDivisionIds": [
          10136698
        ],
        "postalCode": "L1S1S7",
        "streetName": "YORK",
        "streetDirectionId": null,
        "streetTypeId": "ST",
        "placeName": "AJAX",
        "streetNameDisplayText": "YORK ST, AJAX"
      }
    ]
  },
  {
    "postal": "L1S2N7",
    "result": [
      {
        "electoralDistricts": [
          {
            "election": null,
            "id": 1,
            "name": "Ajax"
          }
        ],
        "pollDivisionIds": [
          10136702
        ],
        "postalCode": "L1S2N7",
        "streetName": "WISHBONE",
        "streetDirectionId": null,
        "streetTypeId": "CRES",
        "placeName": "AJAX",
        "streetNameDisplayText": "WISHBONE CRES, AJAX"
      }
    ]
  },
  {
    "postal": "L1S0H8",
    "result": []
  },
  {
    "postal": "L1S7Z4",
    "result": []
  },
  {
    "postal": "L1S7B1",
    "result": [
      {
        "electoralDistricts": [
          {
            "election": null,
            "id": 1,
            "name": "Ajax"
          }
        ],
        "pollDivisionIds": [
          10136703
        ],
        "postalCode": "L1S7B1",
        "streetName": "DOYLE",
        "streetDirectionId": null,
        "streetTypeId": "CRT",
        "placeName": "AJAX",
        "streetNameDisplayText": "DOYLE CRT, AJAX"
      }
    ]
  },
  {
    "postal": "L1S7P8",
    "result": [
      {
        "electoralDistricts": [
          {
            "election": null,
            "id": 1,
            "name": "Ajax"
          }
        ],
        "pollDivisionIds": [
          10136703
        ],
        "postalCode": "L1S7P8",
        "streetName": "CHERRY",
        "streetDirectionId": null,
        "streetTypeId": "RD",
        "placeName": "AJAX",
        "streetNameDisplayText": "CHERRY RD, AJAX"
      }
    ]
  },
  {
    "postal": "L1S7N0",
    "result": []
  },
  {
    "postal": "L1S3Y5",
    "result": [
      {
        "electoralDistricts": [
          {
            "election": null,
            "id": 1,
            "name": "Ajax"
          }
        ],
        "pollDivisionIds": [
          10136709
        ],
        "postalCode": "L1S3Y5",
        "streetName": "RANDS",
        "streetDirectionId": null,
        "streetTypeId": "RD",
        "placeName": "AJAX",
        "streetNameDisplayText": "RANDS RD, AJAX"
      }
    ]
  },
  {
    "postal": "L1S6K1",
    "result": [
      {
        "electoralDistricts": [
          {
            "election": null,
            "id": 1,
            "name": "Ajax"
          }
        ],
        "pollDivisionIds": [
          10136700
        ],
        "postalCode": "L1S6K1",
        "streetName": "MILL",
        "streetDirectionId": null,
        "streetTypeId": "ST",
        "placeName": "AJAX",
        "streetNameDisplayText": "MILL ST, AJAX"
      }
    ]
  },
  {
    "postal": "L1S9X5",
    "result": []
  },
  {
    "postal": "L1S7S5",
    "result": [
      {
        "electoralDistricts": [
          {
            "election": null,
            "id": 1,
            "name": "Ajax"
          }
        ],
        "pollDivisionIds": [
          10136705
        ],
        "postalCode": "L1S7S5",
        "streetName": "CLEGG",
        "streetDirectionId": null,
        "streetTypeId": "LANE",
        "placeName": "AJAX",
        "streetNameDisplayText": "CLEGG LANE, AJAX"
      },
      {
        "electoralDistricts": [
          {
            "election": null,
            "id": 1,
            "name": "Ajax"
          }
        ],
        "pollDivisionIds": [
          10136705
        ],
        "postalCode": "L1S7S5",
        "streetName": "WILKIE",
        "streetDirectionId": null,
        "streetTypeId": "LANE",
        "placeName": "AJAX",
        "streetNameDisplayText": "WILKIE LANE, AJAX"
      }
    ]
  },
  {
    "postal": "L1S0A4",
    "result": [
      {
        "electoralDistricts": [
          {
            "election": null,
            "id": 1,
            "name": "Ajax"
          }
        ],
        "pollDivisionIds": [
          10136703
        ],
        "postalCode": "L1S0A4",
        "streetName": "BEER",
        "streetDirectionId": null,
        "streetTypeId": "CRES",
        "placeName": "AJAX",
        "streetNameDisplayText": "BEER CRES, AJAX"
      },
      {
        "electoralDistricts": [
          {
            "election": null,
            "id": 1,
            "name": "Ajax"
          }
        ],
        "pollDivisionIds": [
          10136703
        ],
        "postalCode": "L1S0A4",
        "streetName": "PORTE",
        "streetDirectionId": null,
        "streetTypeId": "RD",
        "placeName": "AJAX",
        "streetNameDisplayText": "PORTE RD, AJAX"
      }
    ]
  },
  {
    "postal": "L1S4T5",
    "result": [
      {
        "electoralDistricts": [
          {
            "election": null,
            "id": 1,
            "name": "Ajax"
          }
        ],
        "pollDivisionIds": [
          10136709
        ],
        "postalCode": "L1S4T5",
        "streetName": "LAKE DRIVEWAY",
        "streetDirectionId": "W",
        "streetTypeId": null,
        "placeName": "AJAX",
        "streetNameDisplayText": "LAKE DRIVEWAY W, AJAX"
      }
    ]
  },
  {
    "postal": "L1S5K1",
    "result": [
      {
        "electoralDistricts": [
          {
            "election": null,
            "id": 1,
            "name": "Ajax"
          }
        ],
        "pollDivisionIds": [
          10136700
        ],
        "postalCode": "L1S5K1",
        "streetName": "KIRKHAM",
        "streetDirectionId": null,
        "streetTypeId": "DR",
        "placeName": "AJAX",
        "streetNameDisplayText": "KIRKHAM DR, AJAX"
      },
      {
        "electoralDistricts": [
          {
            "election": null,
            "id": 1,
            "name": "Ajax"
          }
        ],
        "pollDivisionIds": [
          10136700
        ],
        "postalCode": "L1S5K1",
        "streetName": "ROTHERGLEN",
        "streetDirectionId": "S",
        "streetTypeId": "RD",
        "placeName": "AJAX",
        "streetNameDisplayText": "ROTHERGLEN RD S, AJAX"
      }
    ]
  },
  {
    "postal": "L1S0Z9",
    "result": []
  },
  {
    "postal": "L1S7T2",
    "result": [
      {
        "electoralDistricts": [
          {
            "election": null,
            "id": 1,
            "name": "Ajax"
          }
        ],
        "pollDivisionIds": [
          10136703
        ],
        "postalCode": "L1S7T2",
        "streetName": "EBONY",
        "streetDirectionId": null,
        "streetTypeId": "ST",
        "placeName": "AJAX",
        "streetNameDisplayText": "EBONY ST, AJAX"
      }
    ]
  },
  {
    "postal": "L1S1L5",
    "result": [
      {
        "electoralDistricts": [
          {
            "election": null,
            "id": 1,
            "name": "Ajax"
          }
        ],
        "pollDivisionIds": [
          10136706
        ],
        "postalCode": "L1S1L5",
        "streetName": "CLEMENTS",
        "streetDirectionId": "E",
        "streetTypeId": "RD",
        "placeName": "AJAX",
        "streetNameDisplayText": "CLEMENTS RD E, AJAX"
      }
    ]
  },
  {
    "postal": "L1S3N5",
    "result": [
      {
        "electoralDistricts": [
          {
            "election": null,
            "id": 1,
            "name": "Ajax"
          }
        ],
        "pollDivisionIds": [
          10136707
        ],
        "postalCode": "L1S3N5",
        "streetName": "TOMPKINS",
        "streetDirectionId": null,
        "streetTypeId": "LANE",
        "placeName": "AJAX",
        "streetNameDisplayText": "TOMPKINS LANE, AJAX"
      }
    ]
  },
  {
    "postal": "L1S6H4",
    "result": [
      {
        "electoralDistricts": [
          {
            "election": null,
            "id": 1,
            "name": "Ajax"
          }
        ],
        "pollDivisionIds": [
          10136700
        ],
        "postalCode": "L1S6H4",
        "streetName": "HILEY",
        "streetDirectionId": null,
        "streetTypeId": "AVE",
        "placeName": "AJAX",
        "streetNameDisplayText": "HILEY AVE, AJAX"
      }
    ]
  },
  {
    "postal": "L1S5A5",
    "result": [
      {
        "electoralDistricts": [
          {
            "election": null,
            "id": 1,
            "name": "Ajax"
          }
        ],
        "pollDivisionIds": [
          10136709
        ],
        "postalCode": "L1S5A5",
        "streetName": "KIPLING",
        "streetDirectionId": null,
        "streetTypeId": "CRES",
        "placeName": "AJAX",
        "streetNameDisplayText": "KIPLING CRES, AJAX"
      }
    ]
  },
  {
    "postal": "L1S3R9",
    "result": [
      {
        "electoralDistricts": [
          {
            "election": null,
            "id": 1,
            "name": "Ajax"
          }
        ],
        "pollDivisionIds": [
          10136709
        ],
        "postalCode": "L1S3R9",
        "streetName": "FINLEY",
        "streetDirectionId": null,
        "streetTypeId": "AVE",
        "placeName": "AJAX",
        "streetNameDisplayText": "FINLEY AVE, AJAX"
      }
    ]
  },
  {
    "postal": "L1S7L8",
    "result": [
      {
        "electoralDistricts": [
          {
            "election": null,
            "id": 1,
            "name": "Ajax"
          }
        ],
        "pollDivisionIds": [
          10136698
        ],
        "postalCode": "L1S7L8",
        "streetName": "HARWOOD",
        "streetDirectionId": "S",
        "streetTypeId": "AVE",
        "placeName": "AJAX",
        "streetNameDisplayText": "HARWOOD AVE S, AJAX"
      }
    ]
  },
  {
    "postal": "L1S6T6",
    "result": [
      {
        "electoralDistricts": [
          {
            "election": null,
            "id": 1,
            "name": "Ajax"
          }
        ],
        "pollDivisionIds": [
          10136699
        ],
        "postalCode": "L1S6T6",
        "streetName": "REED",
        "streetDirectionId": null,
        "streetTypeId": "DR",
        "placeName": "AJAX",
        "streetNameDisplayText": "REED DR, AJAX"
      }
    ]
  },
  {
    "postal": "L1S7Y7",
    "result": []
  },
  {
    "postal": "L1S3M8",
    "result": [
      {
        "electoralDistricts": [
          {
            "election": null,
            "id": 1,
            "name": "Ajax"
          }
        ],
        "pollDivisionIds": [
          10136707
        ],
        "postalCode": "L1S3M8",
        "streetName": "ROBBIE",
        "streetDirectionId": null,
        "streetTypeId": "CRES",
        "placeName": "AJAX",
        "streetNameDisplayText": "ROBBIE CRES, AJAX"
      }
    ]
  },
  {
    "postal": "L1S2E0",
    "result": []
  },
  {
    "postal": "L1S4B5",
    "result": [
      {
        "electoralDistricts": [
          {
            "election": null,
            "id": 1,
            "name": "Ajax"
          }
        ],
        "pollDivisionIds": [
          10136707
        ],
        "postalCode": "L1S4B5",
        "streetName": "LATHAM",
        "streetDirectionId": null,
        "streetTypeId": "CRT",
        "placeName": "AJAX",
        "streetNameDisplayText": "LATHAM CRT, AJAX"
      }
    ]
  },
  {
    "postal": "L1S1J3",
    "result": [
      {
        "electoralDistricts": [
          {
            "election": null,
            "id": 1,
            "name": "Ajax"
          }
        ],
        "pollDivisionIds": [
          10136703,
          10136706
        ],
        "postalCode": "L1S1J3",
        "streetName": "DREYER",
        "streetDirectionId": "E",
        "streetTypeId": "DR",
        "placeName": "AJAX",
        "streetNameDisplayText": "DREYER DR E, AJAX"
      }
    ]
  },
  {
    "postal": "L1S5S6",
    "result": []
  },
  {
    "postal": "L1S8P7",
    "result": []
  },
  {
    "postal": "L1S7S7",
    "result": [
      {
        "electoralDistricts": [
          {
            "election": null,
            "id": 1,
            "name": "Ajax"
          }
        ],
        "pollDivisionIds": [
          10136705
        ],
        "postalCode": "L1S7S7",
        "streetName": "NAYLOR",
        "streetDirectionId": null,
        "streetTypeId": "LANE",
        "placeName": "AJAX",
        "streetNameDisplayText": "NAYLOR LANE, AJAX"
      },
      {
        "electoralDistricts": [
          {
            "election": null,
            "id": 1,
            "name": "Ajax"
          }
        ],
        "pollDivisionIds": [
          10136705
        ],
        "postalCode": "L1S7S7",
        "streetName": "ROLFE",
        "streetDirectionId": null,
        "streetTypeId": "LANE",
        "placeName": "AJAX",
        "streetNameDisplayText": "ROLFE LANE, AJAX"
      },
      {
        "electoralDistricts": [
          {
            "election": null,
            "id": 1,
            "name": "Ajax"
          }
        ],
        "pollDivisionIds": [
          10136705
        ],
        "postalCode": "L1S7S7",
        "streetName": "WILKIE",
        "streetDirectionId": null,
        "streetTypeId": "LANE",
        "placeName": "AJAX",
        "streetNameDisplayText": "WILKIE LANE, AJAX"
      }
    ]
  },
  {
    "postal": "L1S4C2",
    "result": [
      {
        "electoralDistricts": [
          {
            "election": null,
            "id": 1,
            "name": "Ajax"
          }
        ],
        "pollDivisionIds": [
          10136707
        ],
        "postalCode": "L1S4C2",
        "streetName": "WINDEBANKS",
        "streetDirectionId": null,
        "streetTypeId": "DR",
        "placeName": "AJAX",
        "streetNameDisplayText": "WINDEBANKS DR, AJAX"
      }
    ]
  },
  {
    "postal": "L1S5Y0",
    "result": []
  },
  {
    "postal": "L1S2V7",
    "result": [
      {
        "electoralDistricts": [
          {
            "election": null,
            "id": 1,
            "name": "Ajax"
          }
        ],
        "pollDivisionIds": [
          10136706
        ],
        "postalCode": "L1S2V7",
        "streetName": "SIMPSON",
        "streetDirectionId": null,
        "streetTypeId": "RD",
        "placeName": "AJAX",
        "streetNameDisplayText": "SIMPSON RD, AJAX"
      }
    ]
  },
  {
    "postal": "L1S8P5",
    "result": []
  },
  {
    "postal": "L1S5P5",
    "result": []
  },
  {
    "postal": "L1S5Z0",
    "result": []
  },
  {
    "postal": "L1S9B0",
    "result": []
  },
  {
    "postal": "L1S1L0",
    "result": []
  },
  {
    "postal": "L1S0B5",
    "result": [
      {
        "electoralDistricts": [
          {
            "election": null,
            "id": 1,
            "name": "Ajax"
          }
        ],
        "pollDivisionIds": [
          10136701
        ],
        "postalCode": "L1S0B5",
        "streetName": "THORNHARROLD",
        "streetDirectionId": null,
        "streetTypeId": "ST",
        "placeName": "AJAX",
        "streetNameDisplayText": "THORNHARROLD ST, AJAX"
      }
    ]
  },
  {
    "postal": "L1S3L2",
    "result": [
      {
        "electoralDistricts": [
          {
            "election": null,
            "id": 1,
            "name": "Ajax"
          }
        ],
        "pollDivisionIds": [
          10136710
        ],
        "postalCode": "L1S3L2",
        "streetName": "FALBY",
        "streetDirectionId": null,
        "streetTypeId": "CRT",
        "placeName": "AJAX",
        "streetNameDisplayText": "FALBY CRT, AJAX"
      }
    ]
  },
  {
    "postal": "L1S3B7",
    "result": [
      {
        "electoralDistricts": [
          {
            "election": null,
            "id": 1,
            "name": "Ajax"
          }
        ],
        "pollDivisionIds": [
          10136706
        ],
        "postalCode": "L1S3B7",
        "streetName": "CLARK",
        "streetDirectionId": null,
        "streetTypeId": "RD",
        "placeName": "AJAX",
        "streetNameDisplayText": "CLARK RD, AJAX"
      }
    ]
  },
  {
    "postal": "L1S8L1",
    "result": []
  },
  {
    "postal": "L1S5M4",
    "result": []
  },
  {
    "postal": "L1S4G9",
    "result": []
  },
  {
    "postal": "L1S0P0",
    "result": []
  },
  {
    "postal": "L1S8G2",
    "result": []
  },
  {
    "postal": "L1S1V9",
    "result": [
      {
        "electoralDistricts": [
          {
            "election": null,
            "id": 1,
            "name": "Ajax"
          }
        ],
        "pollDivisionIds": [
          10136698
        ],
        "postalCode": "L1S1V9",
        "streetName": "BEECH",
        "streetDirectionId": null,
        "streetTypeId": "ST",
        "placeName": "AJAX",
        "streetNameDisplayText": "BEECH ST, AJAX"
      }
    ]
  },
  {
    "postal": "L1S8N8",
    "result": []
  },
  {
    "postal": "L1S6S8",
    "result": [
      {
        "electoralDistricts": [
          {
            "election": null,
            "id": 1,
            "name": "Ajax"
          }
        ],
        "pollDivisionIds": [
          10136699
        ],
        "postalCode": "L1S6S8",
        "streetName": "WRIGHT",
        "streetDirectionId": null,
        "streetTypeId": "CRES",
        "placeName": "AJAX",
        "streetNameDisplayText": "WRIGHT CRES, AJAX"
      }
    ]
  },
  {
    "postal": "L1S8H2",
    "result": []
  },
  {
    "postal": "L1S5R8",
    "result": [
      {
        "electoralDistricts": [
          {
            "election": null,
            "id": 1,
            "name": "Ajax"
          }
        ],
        "pollDivisionIds": [
          10136699
        ],
        "postalCode": "L1S5R8",
        "streetName": "REDMOND",
        "streetDirectionId": null,
        "streetTypeId": "DR",
        "placeName": "AJAX",
        "streetNameDisplayText": "REDMOND DR, AJAX"
      }
    ]
  },
  {
    "postal": "L1S5L4",
    "result": [
      {
        "electoralDistricts": [
          {
            "election": null,
            "id": 1,
            "name": "Ajax"
          }
        ],
        "pollDivisionIds": [
          10136700
        ],
        "postalCode": "L1S5L4",
        "streetName": "FEARN",
        "streetDirectionId": null,
        "streetTypeId": "CRES",
        "placeName": "AJAX",
        "streetNameDisplayText": "FEARN CRES, AJAX"
      }
    ]
  },
  {
    "postal": "L1S9E1",
    "result": []
  },
  {
    "postal": "L1S1C4",
    "result": [
      {
        "electoralDistricts": [
          {
            "election": null,
            "id": 1,
            "name": "Ajax"
          }
        ],
        "pollDivisionIds": [
          10136703
        ],
        "postalCode": "L1S1C4",
        "streetName": "SEABREEZE",
        "streetDirectionId": null,
        "streetTypeId": "RD",
        "placeName": "AJAX",
        "streetNameDisplayText": "SEABREEZE RD, AJAX"
      }
    ]
  },
  {
    "postal": "L1S8W5",
    "result": []
  },
  {
    "postal": "L1S1Y4",
    "result": [
      {
        "electoralDistricts": [
          {
            "election": null,
            "id": 1,
            "name": "Ajax"
          }
        ],
        "pollDivisionIds": [
          10136698
        ],
        "postalCode": "L1S1Y4",
        "streetName": "BEATTY",
        "streetDirectionId": null,
        "streetTypeId": "RD",
        "placeName": "AJAX",
        "streetNameDisplayText": "BEATTY RD, AJAX"
      }
    ]
  },
  {
    "postal": "L1S1C0",
    "result": []
  },
  {
    "postal": "L1S2J2",
    "result": [
      {
        "electoralDistricts": [
          {
            "election": null,
            "id": 1,
            "name": "Ajax"
          }
        ],
        "pollDivisionIds": [
          10136688,
          10136702,
          10136698
        ],
        "postalCode": "L1S2J2",
        "streetName": "HARWOOD",
        "streetDirectionId": "S",
        "streetTypeId": "AVE",
        "placeName": "AJAX",
        "streetNameDisplayText": "HARWOOD AVE S, AJAX"
      }
    ]
  },
  {
    "postal": "L1S2J0",
    "result": []
  },
  {
    "postal": "L1S7A3",
    "result": [
      {
        "electoralDistricts": [
          {
            "election": null,
            "id": 1,
            "name": "Ajax"
          }
        ],
        "pollDivisionIds": [
          10136703
        ],
        "postalCode": "L1S7A3",
        "streetName": "HEWITT",
        "streetDirectionId": null,
        "streetTypeId": "CRES",
        "placeName": "AJAX",
        "streetNameDisplayText": "HEWITT CRES, AJAX"
      },
      {
        "electoralDistricts": [
          {
            "election": null,
            "id": 1,
            "name": "Ajax"
          }
        ],
        "pollDivisionIds": [
          10136703
        ],
        "postalCode": "L1S7A3",
        "streetName": "ROLLO",
        "streetDirectionId": null,
        "streetTypeId": "DR",
        "placeName": "AJAX",
        "streetNameDisplayText": "ROLLO DR, AJAX"
      }
    ]
  },
  {
    "postal": "L1S8M1",
    "result": []
  },
  {
    "postal": "L1S7T9",
    "result": [
      {
        "electoralDistricts": [
          {
            "election": null,
            "id": 1,
            "name": "Ajax"
          }
        ],
        "pollDivisionIds": [
          10136703
        ],
        "postalCode": "L1S7T9",
        "streetName": "POWERS VALLEY",
        "streetDirectionId": null,
        "streetTypeId": "CRT",
        "placeName": "AJAX",
        "streetNameDisplayText": "POWERS VALLEY CRT, AJAX"
      }
    ]
  },
  {
    "postal": "L1S6C0",
    "result": []
  },
  {
    "postal": "L1S7X1",
    "result": []
  },
  {
    "postal": "L1S0G1",
    "result": []
  },
  {
    "postal": "L1S4X2",
    "result": [
      {
        "electoralDistricts": [
          {
            "election": null,
            "id": 1,
            "name": "Ajax"
          }
        ],
        "pollDivisionIds": [
          10136709
        ],
        "postalCode": "L1S4X2",
        "streetName": "SIMONDS",
        "streetDirectionId": null,
        "streetTypeId": "DR",
        "placeName": "AJAX",
        "streetNameDisplayText": "SIMONDS DR, AJAX"
      }
    ]
  },
  {
    "postal": "L1S0N6",
    "result": []
  },
  {
    "postal": "L1S8E3",
    "result": []
  },
  {
    "postal": "L1S5S8",
    "result": []
  },
  {
    "postal": "L1S0R0",
    "result": []
  },
  {
    "postal": "L1S6J6",
    "result": [
      {
        "electoralDistricts": [
          {
            "election": null,
            "id": 1,
            "name": "Ajax"
          }
        ],
        "pollDivisionIds": [
          10136700
        ],
        "postalCode": "L1S6J6",
        "streetName": "MARWIN",
        "streetDirectionId": null,
        "streetTypeId": "RD",
        "placeName": "AJAX",
        "streetNameDisplayText": "MARWIN RD, AJAX"
      }
    ]
  },
  {
    "postal": "L1S4B4",
    "result": [
      {
        "electoralDistricts": [
          {
            "election": null,
            "id": 1,
            "name": "Ajax"
          }
        ],
        "pollDivisionIds": [
          10136707
        ],
        "postalCode": "L1S4B4",
        "streetName": "FRAZER",
        "streetDirectionId": null,
        "streetTypeId": "RD",
        "placeName": "AJAX",
        "streetNameDisplayText": "FRAZER RD, AJAX"
      }
    ]
  },
  {
    "postal": "L1S7E3",
    "result": [
      {
        "electoralDistricts": [
          {
            "election": null,
            "id": 1,
            "name": "Ajax"
          }
        ],
        "pollDivisionIds": [
          10136703
        ],
        "postalCode": "L1S7E3",
        "streetName": "ROLLO",
        "streetDirectionId": null,
        "streetTypeId": "DR",
        "placeName": "AJAX",
        "streetNameDisplayText": "ROLLO DR, AJAX"
      }
    ]
  },
  {
    "postal": "L1S3N6",
    "result": [
      {
        "electoralDistricts": [
          {
            "election": null,
            "id": 1,
            "name": "Ajax"
          }
        ],
        "pollDivisionIds": [
          10136707
        ],
        "postalCode": "L1S3N6",
        "streetName": "COOK",
        "streetDirectionId": null,
        "streetTypeId": "LANE",
        "placeName": "AJAX",
        "streetNameDisplayText": "COOK LANE, AJAX"
      }
    ]
  },
  {
    "postal": "L1S3X6",
    "result": [
      {
        "electoralDistricts": [
          {
            "election": null,
            "id": 1,
            "name": "Ajax"
          }
        ],
        "pollDivisionIds": [
          10136708
        ],
        "postalCode": "L1S3X6",
        "streetName": "CADBY",
        "streetDirectionId": null,
        "streetTypeId": "RD",
        "placeName": "AJAX",
        "streetNameDisplayText": "CADBY RD, AJAX"
      }
    ]
  },
  {
    "postal": "L1S8L0",
    "result": []
  },
  {
    "postal": "L1S8N1",
    "result": []
  },
  {
    "postal": "L1S4J0",
    "result": []
  },
  {
    "postal": "L1S0X7",
    "result": []
  },
  {
    "postal": "L1S6S4",
    "result": [
      {
        "electoralDistricts": [
          {
            "election": null,
            "id": 1,
            "name": "Ajax"
          }
        ],
        "pollDivisionIds": [
          10136699
        ],
        "postalCode": "L1S6S4",
        "streetName": "RITCHIE",
        "streetDirectionId": null,
        "streetTypeId": "AVE",
        "placeName": "AJAX",
        "streetNameDisplayText": "RITCHIE AVE, AJAX"
      }
    ]
  },
  {
    "postal": "L1S0Z0",
    "result": []
  },
  {
    "postal": "L1S9X8",
    "result": []
  },
  {
    "postal": "L1S3H3",
    "result": [
      {
        "electoralDistricts": [
          {
            "election": null,
            "id": 1,
            "name": "Ajax"
          }
        ],
        "pollDivisionIds": [
          10136707
        ],
        "postalCode": "L1S3H3",
        "streetName": "RANDS",
        "streetDirectionId": null,
        "streetTypeId": "RD",
        "placeName": "AJAX",
        "streetNameDisplayText": "RANDS RD, AJAX"
      }
    ]
  },
  {
    "postal": "L1S7S2",
    "result": [
      {
        "electoralDistricts": [
          {
            "election": null,
            "id": 1,
            "name": "Ajax"
          }
        ],
        "pollDivisionIds": [
          10136709
        ],
        "postalCode": "L1S7S2",
        "streetName": "KIDD",
        "streetDirectionId": null,
        "streetTypeId": "CRT",
        "placeName": "AJAX",
        "streetNameDisplayText": "KIDD CRT, AJAX"
      }
    ]
  },
  {
    "postal": "L1S3T3",
    "result": [
      {
        "electoralDistricts": [
          {
            "election": null,
            "id": 1,
            "name": "Ajax"
          }
        ],
        "pollDivisionIds": [
          10136709
        ],
        "postalCode": "L1S3T3",
        "streetName": "FINLEY",
        "streetDirectionId": null,
        "streetTypeId": "AVE",
        "placeName": "AJAX",
        "streetNameDisplayText": "FINLEY AVE, AJAX"
      }
    ]
  },
  {
    "postal": "L1S9P3",
    "result": []
  },
  {
    "postal": "L1S4H8",
    "result": []
  },
  {
    "postal": "L1S6R1",
    "result": [
      {
        "electoralDistricts": [
          {
            "election": null,
            "id": 1,
            "name": "Ajax"
          }
        ],
        "pollDivisionIds": [
          10136699,
          10136684
        ],
        "postalCode": "L1S6R1",
        "streetName": "PATTERSON",
        "streetDirectionId": null,
        "streetTypeId": "CRES",
        "placeName": "AJAX",
        "streetNameDisplayText": "PATTERSON CRES, AJAX"
      }
    ]
  },
  {
    "postal": "L1S1S0",
    "result": []
  },
  {
    "postal": "L1S3W8",
    "result": [
      {
        "electoralDistricts": [
          {
            "election": null,
            "id": 1,
            "name": "Ajax"
          }
        ],
        "pollDivisionIds": [
          10136708
        ],
        "postalCode": "L1S3W8",
        "streetName": "LAKE DRIVEWAY",
        "streetDirectionId": "W",
        "streetTypeId": null,
        "placeName": "AJAX",
        "streetNameDisplayText": "LAKE DRIVEWAY W, AJAX"
      }
    ]
  },
  {
    "postal": "L1S4S3",
    "result": []
  },
  {
    "postal": "L1S1B6",
    "result": [
      {
        "electoralDistricts": [
          {
            "election": null,
            "id": 1,
            "name": "Ajax"
          }
        ],
        "pollDivisionIds": [
          10136703
        ],
        "postalCode": "L1S1B6",
        "streetName": "EBONY",
        "streetDirectionId": null,
        "streetTypeId": "ST",
        "placeName": "AJAX",
        "streetNameDisplayText": "EBONY ST, AJAX"
      }
    ]
  },
  {
    "postal": "L1S8R3",
    "result": []
  },
  {
    "postal": "L1S4V9",
    "result": [
      {
        "electoralDistricts": [
          {
            "election": null,
            "id": 1,
            "name": "Ajax"
          }
        ],
        "pollDivisionIds": [
          10136709
        ],
        "postalCode": "L1S4V9",
        "streetName": "FITZGERALD",
        "streetDirectionId": null,
        "streetTypeId": "DR",
        "placeName": "AJAX",
        "streetNameDisplayText": "FITZGERALD DR, AJAX"
      },
      {
        "electoralDistricts": [
          {
            "election": null,
            "id": 1,
            "name": "Ajax"
          }
        ],
        "pollDivisionIds": [
          10136709
        ],
        "postalCode": "L1S4V9",
        "streetName": "MILNER",
        "streetDirectionId": null,
        "streetTypeId": "CRES",
        "placeName": "AJAX",
        "streetNameDisplayText": "MILNER CRES, AJAX"
      }
    ]
  },
  {
    "postal": "L1S9W4",
    "result": []
  },
  {
    "postal": "L1S3T4",
    "result": [
      {
        "electoralDistricts": [
          {
            "election": null,
            "id": 1,
            "name": "Ajax"
          }
        ],
        "pollDivisionIds": [
          10136708
        ],
        "postalCode": "L1S3T4",
        "streetName": "PANTER",
        "streetDirectionId": null,
        "streetTypeId": "CRES",
        "placeName": "AJAX",
        "streetNameDisplayText": "PANTER CRES, AJAX"
      },
      {
        "electoralDistricts": [
          {
            "election": null,
            "id": 1,
            "name": "Ajax"
          }
        ],
        "pollDivisionIds": [
          10136708
        ],
        "postalCode": "L1S3T4",
        "streetName": "PLANTER",
        "streetDirectionId": null,
        "streetTypeId": "CRES",
        "placeName": "AJAX",
        "streetNameDisplayText": "PLANTER CRES, AJAX"
      }
    ]
  },
  {
    "postal": "L1S5C7",
    "result": [
      {
        "electoralDistricts": [
          {
            "election": null,
            "id": 1,
            "name": "Ajax"
          }
        ],
        "pollDivisionIds": [
          10136697
        ],
        "postalCode": "L1S5C7",
        "streetName": "BARNES",
        "streetDirectionId": null,
        "streetTypeId": "DR",
        "placeName": "AJAX",
        "streetNameDisplayText": "BARNES DR, AJAX"
      }
    ]
  },
  {
    "postal": "L1S3Y1",
    "result": [
      {
        "electoralDistricts": [
          {
            "election": null,
            "id": 1,
            "name": "Ajax"
          }
        ],
        "pollDivisionIds": [
          10136701
        ],
        "postalCode": "L1S3Y1",
        "streetName": "BARR",
        "streetDirectionId": null,
        "streetTypeId": "RD",
        "placeName": "AJAX",
        "streetNameDisplayText": "BARR RD, AJAX"
      }
    ]
  },
  {
    "postal": "L1S5V0",
    "result": []
  },
  {
    "postal": "L1S8G8",
    "result": []
  },
  {
    "postal": "L1S8B1",
    "result": []
  },
  {
    "postal": "L1S4P5",
    "result": []
  },
  {
    "postal": "L1S7B2",
    "result": [
      {
        "electoralDistricts": [
          {
            "election": null,
            "id": 1,
            "name": "Ajax"
          }
        ],
        "pollDivisionIds": [
          10136703
        ],
        "postalCode": "L1S7B2",
        "streetName": "DOYLE",
        "streetDirectionId": null,
        "streetTypeId": "CRT",
        "placeName": "AJAX",
        "streetNameDisplayText": "DOYLE CRT, AJAX"
      },
      {
        "electoralDistricts": [
          {
            "election": null,
            "id": 1,
            "name": "Ajax"
          }
        ],
        "pollDivisionIds": [
          10136703
        ],
        "postalCode": "L1S7B2",
        "streetName": "LEACH",
        "streetDirectionId": null,
        "streetTypeId": "DR",
        "placeName": "AJAX",
        "streetNameDisplayText": "LEACH DR, AJAX"
      },
      {
        "electoralDistricts": [
          {
            "election": null,
            "id": 1,
            "name": "Ajax"
          }
        ],
        "pollDivisionIds": [
          10136703
        ],
        "postalCode": "L1S7B2",
        "streetName": "ROLLO",
        "streetDirectionId": null,
        "streetTypeId": "DR",
        "placeName": "AJAX",
        "streetNameDisplayText": "ROLLO DR, AJAX"
      }
    ]
  },
  {
    "postal": "L1S0R2",
    "result": []
  },
  {
    "postal": "L1S4M4",
    "result": []
  },
  {
    "postal": "L1S7M4",
    "result": [
      {
        "electoralDistricts": [
          {
            "election": null,
            "id": 1,
            "name": "Ajax"
          }
        ],
        "pollDivisionIds": [
          10136703
        ],
        "postalCode": "L1S7M4",
        "streetName": "RANGE LINE",
        "streetDirectionId": null,
        "streetTypeId": "RD",
        "placeName": "AJAX",
        "streetNameDisplayText": "RANGE LINE RD, AJAX"
      }
    ]
  },
  {
    "postal": "L1S9S7",
    "result": []
  },
  {
    "postal": "L1S5Z7",
    "result": [
      {
        "electoralDistricts": [
          {
            "election": null,
            "id": 1,
            "name": "Ajax"
          }
        ],
        "pollDivisionIds": [
          10136698
        ],
        "postalCode": "L1S5Z7",
        "streetName": "CHALMERS",
        "streetDirectionId": null,
        "streetTypeId": "CRES",
        "placeName": "AJAX",
        "streetNameDisplayText": "CHALMERS CRES, AJAX"
      }
    ]
  },
  {
    "postal": "L1S7J7",
    "result": [
      {
        "electoralDistricts": [
          {
            "election": null,
            "id": 1,
            "name": "Ajax"
          }
        ],
        "pollDivisionIds": [
          10136709
        ],
        "postalCode": "L1S7J7",
        "streetName": "WESTNEY",
        "streetDirectionId": "S",
        "streetTypeId": "RD",
        "placeName": "AJAX",
        "streetNameDisplayText": "WESTNEY RD S, AJAX"
      }
    ]
  },
  {
    "postal": "L1S8R8",
    "result": []
  },
  {
    "postal": "L1S9X1",
    "result": []
  },
  {
    "postal": "L1S5M9",
    "result": []
  },
  {
    "postal": "L1S9B4",
    "result": []
  },
  {
    "postal": "L1S0L9",
    "result": []
  },
  {
    "postal": "L1S9G4",
    "result": []
  },
  {
    "postal": "L1S1J4",
    "result": [
      {
        "electoralDistricts": [
          {
            "election": null,
            "id": 1,
            "name": "Ajax"
          }
        ],
        "pollDivisionIds": [
          10136706
        ],
        "postalCode": "L1S1J4",
        "streetName": "DREYER",
        "streetDirectionId": "E",
        "streetTypeId": "DR",
        "placeName": "AJAX",
        "streetNameDisplayText": "DREYER DR E, AJAX"
      }
    ]
  },
  {
    "postal": "L1S0W6",
    "result": []
  }
]
