[
  {
    "postal": "N2G9J6",
    "result": []
  },
  {
    "postal": "N2G9Z5",
    "result": []
  },
  {
    "postal": "N2G7H8",
    "result": []
  },
  {
    "postal": "N2G0P6",
    "result": []
  },
  {
    "postal": "N2G0S7",
    "result": []
  },
  {
    "postal": "N2G8B9",
    "result": []
  },
  {
    "postal": "N2G2A6",
    "result": [
      {
        "electoralDistricts": [
          {
            "election": null,
            "id": 47,
            "name": "Kitchener Centre"
          }
        ],
        "pollDivisionIds": [
          10139197
        ],
        "postalCode": "N2G2A6",
        "streetName": "DEVON",
        "streetDirectionId": null,
        "streetTypeId": "ST",
        "placeName": "KITCHENER",
        "streetNameDisplayText": "DEVON ST, KITCHENER"
      }
    ]
  },
  {
    "postal": "N2G7V2",
    "result": []
  },
  {
    "postal": "N2G9P4",
    "result": []
  },
  {
    "postal": "N2G6G0",
    "result": []
  },
  {
    "postal": "N2G2K0",
    "result": []
  },
  {
    "postal": "N2G7N6",
    "result": []
  },
  {
    "postal": "N2G5R3",
    "result": []
  },
  {
    "postal": "N2G7K0",
    "result": []
  },
  {
    "postal": "N2G3R2",
    "result": [
      {
        "electoralDistricts": [
          {
            "election": null,
            "id": 47,
            "name": "Kitchener Centre"
          }
        ],
        "pollDivisionIds": [
          10139206,
          10139208
        ],
        "postalCode": "N2G3R2",
        "streetName": "KENT",
        "streetDirectionId": null,
        "streetTypeId": "AVE",
        "placeName": "KITCHENER",
        "streetNameDisplayText": "KENT AVE, KITCHENER"
      }
    ]
  },
  {
    "postal": "N2G0J1",
    "result": []
  },
  {
    "postal": "N2G0B0",
    "result": []
  },
  {
    "postal": "N2G5Z2",
    "result": []
  },
  {
    "postal": "N2G7P3",
    "result": []
  },
  {
    "postal": "N2G2K3",
    "result": [
      {
        "electoralDistricts": [
          {
            "election": null,
            "id": 47,
            "name": "Kitchener Centre"
          }
        ],
        "pollDivisionIds": [
          10139193
        ],
        "postalCode": "N2G2K3",
        "streetName": "UNION",
        "streetDirectionId": null,
        "streetTypeId": "BLVD",
        "placeName": "KITCHENER",
        "streetNameDisplayText": "UNION BLVD, KITCHENER"
      }
    ]
  },
  {
    "postal": "N2G7Y6",
    "result": []
  },
  {
    "postal": "N2G1L9",
    "result": [
      {
        "electoralDistricts": [
          {
            "election": null,
            "id": 47,
            "name": "Kitchener Centre"
          }
        ],
        "pollDivisionIds": [
          10139197
        ],
        "postalCode": "N2G1L9",
        "streetName": "BRAMM",
        "streetDirectionId": null,
        "streetTypeId": "ST",
        "placeName": "KITCHENER",
        "streetNameDisplayText": "BRAMM ST, KITCHENER"
      }
    ]
  },
  {
    "postal": "N2G8T0",
    "result": []
  },
  {
    "postal": "N2G3K8",
    "result": [
      {
        "electoralDistricts": [
          {
            "election": null,
            "id": 47,
            "name": "Kitchener Centre"
          }
        ],
        "pollDivisionIds": [
          10139204
        ],
        "postalCode": "N2G3K8",
        "streetName": "EBY",
        "streetDirectionId": "S",
        "streetTypeId": "ST",
        "placeName": "KITCHENER",
        "streetNameDisplayText": "EBY ST S, KITCHENER"
      }
    ]
  },
  {
    "postal": "N2G5W9",
    "result": []
  },
  {
    "postal": "N2G6T9",
    "result": []
  },
  {
    "postal": "N2G4H1",
    "result": []
  },
  {
    "postal": "N2G7A2",
    "result": []
  },
  {
    "postal": "N2G5G0",
    "result": []
  },
  {
    "postal": "N2G8V5",
    "result": []
  },
  {
    "postal": "N2G2Y8",
    "result": [
      {
        "electoralDistricts": [
          {
            "election": null,
            "id": 47,
            "name": "Kitchener Centre"
          }
        ],
        "pollDivisionIds": [
          10139208
        ],
        "postalCode": "N2G2Y8",
        "streetName": "MAURICE",
        "streetDirectionId": null,
        "streetTypeId": "ST",
        "placeName": "KITCHENER",
        "streetNameDisplayText": "MAURICE ST, KITCHENER"
      }
    ]
  },
  {
    "postal": "N2G2B6",
    "result": [
      {
        "electoralDistricts": [
          {
            "election": null,
            "id": 47,
            "name": "Kitchener Centre"
          }
        ],
        "pollDivisionIds": [
          10139197
        ],
        "postalCode": "N2G2B6",
        "streetName": "VICTORIA",
        "streetDirectionId": "S",
        "streetTypeId": "ST",
        "placeName": "KITCHENER",
        "streetNameDisplayText": "VICTORIA ST S, KITCHENER"
      }
    ]
  },
  {
    "postal": "N2G4W8",
    "result": []
  },
  {
    "postal": "N2G8H7",
    "result": []
  },
  {
    "postal": "N2G5P1",
    "result": []
  },
  {
    "postal": "N2G2B8",
    "result": [
      {
        "electoralDistricts": [
          {
            "election": null,
            "id": 47,
            "name": "Kitchener Centre"
          }
        ],
        "pollDivisionIds": [
          10139197
        ],
        "postalCode": "N2G2B8",
        "streetName": "VICTORIA",
        "streetDirectionId": "S",
        "streetTypeId": "ST",
        "placeName": "KITCHENER",
        "streetNameDisplayText": "VICTORIA ST S, KITCHENER"
      }
    ]
  },
  {
    "postal": "N2G0P2",
    "result": []
  },
  {
    "postal": "N2G9M1",
    "result": []
  },
  {
    "postal": "N2G3G0",
    "result": []
  },
  {
    "postal": "N2G9Z2",
    "result": []
  },
  {
    "postal": "N2G2A0",
    "result": []
  },
  {
    "postal": "N2G6Y0",
    "result": []
  },
  {
    "postal": "N2G2Z8",
    "result": [
      {
        "electoralDistricts": [
          {
            "election": null,
            "id": 47,
            "name": "Kitchener Centre"
          }
        ],
        "pollDivisionIds": [
          10139206
        ],
        "postalCode": "N2G2Z8",
        "streetName": "KENNEDY",
        "streetDirectionId": null,
        "streetTypeId": "AVE",
        "placeName": "KITCHENER",
        "streetNameDisplayText": "KENNEDY AVE, KITCHENER"
      }
    ]
  },
  {
    "postal": "N2G7Y3",
    "result": []
  },
  {
    "postal": "N2G6Z5",
    "result": []
  },
  {
    "postal": "N2G6E0",
    "result": []
  },
  {
    "postal": "N2G9B7",
    "result": []
  },
  {
    "postal": "N2G9S5",
    "result": []
  },
  {
    "postal": "N2G3X3",
    "result": []
  },
  {
    "postal": "N2G7R5",
    "result": []
  },
  {
    "postal": "N2G2X3",
    "result": [
      {
        "electoralDistricts": [
          {
            "election": null,
            "id": 47,
            "name": "Kitchener Centre"
          }
        ],
        "pollDivisionIds": [
          10139197
        ],
        "postalCode": "N2G2X3",
        "streetName": "MITCHELL",
        "streetDirectionId": null,
        "streetTypeId": "ST",
        "placeName": "KITCHENER",
        "streetNameDisplayText": "MITCHELL ST, KITCHENER"
      }
    ]
  },
  {
    "postal": "N2G8Z9",
    "result": []
  },
  {
    "postal": "N2G0N4",
    "result": []
  },
  {
    "postal": "N2G1K1",
    "result": [
      {
        "electoralDistricts": [
          {
            "election": null,
            "id": 47,
            "name": "Kitchener Centre"
          }
        ],
        "pollDivisionIds": [
          10139197
        ],
        "postalCode": "N2G1K1",
        "streetName": "COURTLAND",
        "streetDirectionId": "W",
        "streetTypeId": "AVE",
        "placeName": "KITCHENER",
        "streetNameDisplayText": "COURTLAND AVE W, KITCHENER"
      }
    ]
  },
  {
    "postal": "N2G1S3",
    "result": [
      {
        "electoralDistricts": [
          {
            "election": null,
            "id": 47,
            "name": "Kitchener Centre"
          }
        ],
        "pollDivisionIds": [
          10139193
        ],
        "postalCode": "N2G1S3",
        "streetName": "WALTER",
        "streetDirectionId": null,
        "streetTypeId": "ST",
        "placeName": "KITCHENER",
        "streetNameDisplayText": "WALTER ST, KITCHENER"
      }
    ]
  },
  {
    "postal": "N2G6M4",
    "result": []
  },
  {
    "postal": "N2G9A9",
    "result": []
  },
  {
    "postal": "N2G9Z9",
    "result": []
  },
  {
    "postal": "N2G6T4",
    "result": []
  },
  {
    "postal": "N2G0B2",
    "result": []
  },
  {
    "postal": "N2G2L9",
    "result": [
      {
        "electoralDistricts": [
          {
            "election": null,
            "id": 47,
            "name": "Kitchener Centre"
          }
        ],
        "pollDivisionIds": [
          10139206
        ],
        "postalCode": "N2G2L9",
        "streetName": "KING",
        "streetDirectionId": "E",
        "streetTypeId": "ST",
        "placeName": "KITCHENER",
        "streetNameDisplayText": "KING ST E, KITCHENER"
      }
    ]
  },
  {
    "postal": "N2G8K9",
    "result": []
  },
  {
    "postal": "N2G2H9",
    "result": [
      {
        "electoralDistricts": [
          {
            "election": null,
            "id": 47,
            "name": "Kitchener Centre"
          }
        ],
        "pollDivisionIds": [
          10139193
        ],
        "postalCode": "N2G2H9",
        "streetName": "WOOD",
        "streetDirectionId": null,
        "streetTypeId": "ST",
        "placeName": "KITCHENER",
        "streetNameDisplayText": "WOOD ST, KITCHENER"
      }
    ]
  },
  {
    "postal": "N2G3Z6",
    "result": []
  },
  {
    "postal": "N2G3B0",
    "result": []
  },
  {
    "postal": "N2G2H8",
    "result": [
      {
        "electoralDistricts": [
          {
            "election": null,
            "id": 47,
            "name": "Kitchener Centre"
          }
        ],
        "pollDivisionIds": [
          10139193
        ],
        "postalCode": "N2G2H8",
        "streetName": "WOOD",
        "streetDirectionId": null,
        "streetTypeId": "ST",
        "placeName": "KITCHENER",
        "streetNameDisplayText": "WOOD ST, KITCHENER"
      }
    ]
  },
  {
    "postal": "N2G3X2",
    "result": []
  },
  {
    "postal": "N2G2E9",
    "result": [
      {
        "electoralDistricts": [
          {
            "election": null,
            "id": 47,
            "name": "Kitchener Centre"
          }
        ],
        "pollDivisionIds": [
          10139193
        ],
        "postalCode": "N2G2E9",
        "streetName": "AGNES",
        "streetDirectionId": null,
        "streetTypeId": "ST",
        "placeName": "KITCHENER",
        "streetNameDisplayText": "AGNES ST, KITCHENER"
      }
    ]
  },
  {
    "postal": "N2G9P6",
    "result": []
  },
  {
    "postal": "N2G9E2",
    "result": []
  },
  {
    "postal": "N2G9H2",
    "result": []
  },
  {
    "postal": "N2G1S8",
    "result": []
  },
  {
    "postal": "N2G3M6",
    "result": [
      {
        "electoralDistricts": [
          {
            "election": null,
            "id": 47,
            "name": "Kitchener Centre"
          }
        ],
        "pollDivisionIds": [
          10139204
        ],
        "postalCode": "N2G3M6",
        "streetName": "MADISON",
        "streetDirectionId": "S",
        "streetTypeId": "AVE",
        "placeName": "KITCHENER",
        "streetNameDisplayText": "MADISON AVE S, KITCHENER"
      }
    ]
  },
  {
    "postal": "N2G6Z8",
    "result": []
  },
  {
    "postal": "N2G4J2",
    "result": []
  },
  {
    "postal": "N2G9Y1",
    "result": []
  },
  {
    "postal": "N2G8V6",
    "result": []
  },
  {
    "postal": "N2G6B2",
    "result": []
  },
  {
    "postal": "N2G1P8",
    "result": [
      {
        "electoralDistricts": [
          {
            "election": null,
            "id": 47,
            "name": "Kitchener Centre"
          }
        ],
        "pollDivisionIds": [
          10139194
        ],
        "postalCode": "N2G1P8",
        "streetName": "STRANGE",
        "streetDirectionId": null,
        "streetTypeId": "ST",
        "placeName": "KITCHENER",
        "streetNameDisplayText": "STRANGE ST, KITCHENER"
      }
    ]
  },
  {
    "postal": "N2G0V8",
    "result": []
  },
  {
    "postal": "N2G4Y0",
    "result": []
  },
  {
    "postal": "N2G2T4",
    "result": [
      {
        "electoralDistricts": [
          {
            "election": null,
            "id": 47,
            "name": "Kitchener Centre"
          }
        ],
        "pollDivisionIds": [
          10139197
        ],
        "postalCode": "N2G2T4",
        "streetName": "COURTLAND",
        "streetDirectionId": "E",
        "streetTypeId": "AVE",
        "placeName": "KITCHENER",
        "streetNameDisplayText": "COURTLAND AVE E, KITCHENER"
      }
    ]
  },
  {
    "postal": "N2G2S3",
    "result": [
      {
        "electoralDistricts": [
          {
            "election": null,
            "id": 47,
            "name": "Kitchener Centre"
          }
        ],
        "pollDivisionIds": [
          10139204
        ],
        "postalCode": "N2G2S3",
        "streetName": "CHURCH",
        "streetDirectionId": null,
        "streetTypeId": "ST",
        "placeName": "KITCHENER",
        "streetNameDisplayText": "CHURCH ST, KITCHENER"
      }
    ]
  },
  {
    "postal": "N2G0K0",
    "result": []
  },
  {
    "postal": "N2G5N1",
    "result": []
  },
  {
    "postal": "N2G7T0",
    "result": []
  },
  {
    "postal": "N2G9N2",
    "result": []
  },
  {
    "postal": "N2G5L1",
    "result": []
  },
  {
    "postal": "N2G7G5",
    "result": []
  },
  {
    "postal": "N2G6K2",
    "result": []
  },
  {
    "postal": "N2G6P9",
    "result": []
  },
  {
    "postal": "N2G0E6",
    "result": []
  },
  {
    "postal": "N2G8R9",
    "result": []
  },
  {
    "postal": "N2G3G9",
    "result": [
      {
        "electoralDistricts": [
          {
            "election": null,
            "id": 47,
            "name": "Kitchener Centre"
          }
        ],
        "pollDivisionIds": [
          10139204
        ],
        "postalCode": "N2G3G9",
        "streetName": "BENTON",
        "streetDirectionId": null,
        "streetTypeId": "ST",
        "placeName": "KITCHENER",
        "streetNameDisplayText": "BENTON ST, KITCHENER"
      }
    ]
  },
  {
    "postal": "N2G0V7",
    "result": []
  },
  {
    "postal": "N2G2Z1",
    "result": [
      {
        "electoralDistricts": [
          {
            "election": null,
            "id": 47,
            "name": "Kitchener Centre"
          }
        ],
        "pollDivisionIds": [
          10139208
        ],
        "postalCode": "N2G2Z1",
        "streetName": "NYBERG",
        "streetDirectionId": null,
        "streetTypeId": "ST",
        "placeName": "KITCHENER",
        "streetNameDisplayText": "NYBERG ST, KITCHENER"
      }
    ]
  },
  {
    "postal": "N2G7N1",
    "result": []
  },
  {
    "postal": "N2G3C6",
    "result": [
      {
        "electoralDistricts": [
          {
            "election": null,
            "id": 47,
            "name": "Kitchener Centre"
          }
        ],
        "pollDivisionIds": [
          10139208
        ],
        "postalCode": "N2G3C6",
        "streetName": "CARWOOD",
        "streetDirectionId": null,
        "streetTypeId": "CRES",
        "placeName": "KITCHENER",
        "streetNameDisplayText": "CARWOOD CRES, KITCHENER"
      }
    ]
  },
  {
    "postal": "N2G4M1",
    "result": [
      {
        "electoralDistricts": [
          {
            "election": null,
            "id": 47,
            "name": "Kitchener Centre"
          }
        ],
        "pollDivisionIds": [
          10139202
        ],
        "postalCode": "N2G4M1",
        "streetName": "CHURCH",
        "streetDirectionId": null,
        "streetTypeId": "ST",
        "placeName": "KITCHENER",
        "streetNameDisplayText": "CHURCH ST, KITCHENER"
      }
    ]
  },
  {
    "postal": "N2G9K2",
    "result": []
  },
  {
    "postal": "N2G9S6",
    "result": []
  },
  {
    "postal": "N2G4X1",
    "result": []
  },
  {
    "postal": "N2G8W2",
    "result": []
  },
  {
    "postal": "N2G7N2",
    "result": []
  },
  {
    "postal": "N2G8S3",
    "result": []
  },
  {
    "postal": "N2G4V0",
    "result": []
  },
  {
    "postal": "N2G6W4",
    "result": []
  },
  {
    "postal": "N2G5M1",
    "result": []
  },
  {
    "postal": "N2G0S4",
    "result": []
  },
  {
    "postal": "N2G5X6",
    "result": []
  },
  {
    "postal": "N2G8L5",
    "result": []
  },
  {
    "postal": "N2G5M8",
    "result": []
  },
  {
    "postal": "N2G2G3",
    "result": [
      {
        "electoralDistricts": [
          {
            "election": null,
            "id": 47,
            "name": "Kitchener Centre"
          }
        ],
        "pollDivisionIds": [
          10139193
        ],
        "postalCode": "N2G2G3",
        "streetName": "DOMINION",
        "streetDirectionId": null,
        "streetTypeId": "ST",
        "placeName": "KITCHENER",
        "streetNameDisplayText": "DOMINION ST, KITCHENER"
      }
    ]
  },
  {
    "postal": "N2G8E4",
    "result": []
  },
  {
    "postal": "N2G7S9",
    "result": []
  },
  {
    "postal": "N2G1K3",
    "result": [
      {
        "electoralDistricts": [
          {
            "election": null,
            "id": 47,
            "name": "Kitchener Centre"
          }
        ],
        "pollDivisionIds": [
          10139197
        ],
        "postalCode": "N2G1K3",
        "streetName": "HILDA",
        "streetDirectionId": null,
        "streetTypeId": "PL",
        "placeName": "KITCHENER",
        "streetNameDisplayText": "HILDA PL, KITCHENER"
      }
    ]
  },
  {
    "postal": "N2G4E1",
    "result": []
  },
  {
    "postal": "N2G4R2",
    "result": []
  },
  {
    "postal": "N2G6T0",
    "result": []
  },
  {
    "postal": "N2G3K5",
    "result": [
      {
        "electoralDistricts": [
          {
            "election": null,
            "id": 47,
            "name": "Kitchener Centre"
          }
        ],
        "pollDivisionIds": [
          10139197
        ],
        "postalCode": "N2G3K5",
        "streetName": "PETER",
        "streetDirectionId": null,
        "streetTypeId": "ST",
        "placeName": "KITCHENER",
        "streetNameDisplayText": "PETER ST, KITCHENER"
      }
    ]
  },
  {
    "postal": "N2G3S3",
    "result": [
      {
        "electoralDistricts": [
          {
            "election": null,
            "id": 47,
            "name": "Kitchener Centre"
          }
        ],
        "pollDivisionIds": [
          10139208
        ],
        "postalCode": "N2G3S3",
        "streetName": "GRENVILLE",
        "streetDirectionId": null,
        "streetTypeId": "AVE",
        "placeName": "KITCHENER",
        "streetNameDisplayText": "GRENVILLE AVE, KITCHENER"
      }
    ]
  },
  {
    "postal": "N2G3L4",
    "result": [
      {
        "electoralDistricts": [
          {
            "election": null,
            "id": 47,
            "name": "Kitchener Centre"
          }
        ],
        "pollDivisionIds": [
          10139204
        ],
        "postalCode": "N2G3L4",
        "streetName": "CEDAR",
        "streetDirectionId": "S",
        "streetTypeId": "ST",
        "placeName": "KITCHENER",
        "streetNameDisplayText": "CEDAR ST S, KITCHENER"
      }
    ]
  },
  {
    "postal": "N2G9Y2",
    "result": []
  },
  {
    "postal": "N2G1E0",
    "result": []
  },
  {
    "postal": "N2G9A4",
    "result": []
  },
  {
    "postal": "N2G1L3",
    "result": [
      {
        "electoralDistricts": [
          {
            "election": null,
            "id": 47,
            "name": "Kitchener Centre"
          }
        ],
        "pollDivisionIds": [
          10139197
        ],
        "postalCode": "N2G1L3",
        "streetName": "OAK",
        "streetDirectionId": null,
        "streetTypeId": "ST",
        "placeName": "KITCHENER",
        "streetNameDisplayText": "OAK ST, KITCHENER"
      }
    ]
  },
  {
    "postal": "N2G6N1",
    "result": []
  },
  {
    "postal": "N2G6G7",
    "result": []
  },
  {
    "postal": "N2G7W1",
    "result": []
  },
  {
    "postal": "N2G4M6",
    "result": [
      {
        "electoralDistricts": [
          {
            "election": null,
            "id": 47,
            "name": "Kitchener Centre"
          }
        ],
        "pollDivisionIds": [
          10139222
        ],
        "postalCode": "N2G4M6",
        "streetName": "MT HOPE",
        "streetDirectionId": null,
        "streetTypeId": "ST",
        "placeName": "KITCHENER",
        "streetNameDisplayText": "MT HOPE ST, KITCHENER"
      }
    ]
  },
  {
    "postal": "N2G1K0",
    "result": []
  },
  {
    "postal": "N2G3E2",
    "result": [
      {
        "electoralDistricts": [
          {
            "election": null,
            "id": 47,
            "name": "Kitchener Centre"
          }
        ],
        "pollDivisionIds": [
          10139208
        ],
        "postalCode": "N2G3E2",
        "streetName": "DOON",
        "streetDirectionId": null,
        "streetTypeId": "RD",
        "placeName": "KITCHENER",
        "streetNameDisplayText": "DOON RD, KITCHENER"
      }
    ]
  },
  {
    "postal": "N2G5H4",
    "result": []
  },
  {
    "postal": "N2G1K7",
    "result": [
      {
        "electoralDistricts": [
          {
            "election": null,
            "id": 47,
            "name": "Kitchener Centre"
          }
        ],
        "pollDivisionIds": [
          10139197
        ],
        "postalCode": "N2G1K7",
        "streetName": "SCHNEIDER",
        "streetDirectionId": null,
        "streetTypeId": "AVE",
        "placeName": "KITCHENER",
        "streetNameDisplayText": "SCHNEIDER AVE, KITCHENER"
      }
    ]
  },
  {
    "postal": "N2G0H0",
    "result": []
  },
  {
    "postal": "N2G0J3",
    "result": []
  },
  {
    "postal": "N2G1X6",
    "result": []
  },
  {
    "postal": "N2G2Z6",
    "result": [
      {
        "electoralDistricts": [
          {
            "election": null,
            "id": 47,
            "name": "Kitchener Centre"
          }
        ],
        "pollDivisionIds": [
          10139206
        ],
        "postalCode": "N2G2Z6",
        "streetName": "HURST",
        "streetDirectionId": null,
        "streetTypeId": "AVE",
        "placeName": "KITCHENER",
        "streetNameDisplayText": "HURST AVE, KITCHENER"
      }
    ]
  },
  {
    "postal": "N2G4R9",
    "result": []
  },
  {
    "postal": "N2G0W8",
    "result": []
  },
  {
    "postal": "N2G1L4",
    "result": [
      {
        "electoralDistricts": [
          {
            "election": null,
            "id": 47,
            "name": "Kitchener Centre"
          }
        ],
        "pollDivisionIds": [
          10139197
        ],
        "postalCode": "N2G1L4",
        "streetName": "OAK",
        "streetDirectionId": null,
        "streetTypeId": "ST",
        "placeName": "KITCHENER",
        "streetNameDisplayText": "OAK ST, KITCHENER"
      }
    ]
  },
  {
    "postal": "N2G0C8",
    "result": []
  },
  {
    "postal": "N2G9X7",
    "result": []
  },
  {
    "postal": "N2G4T1",
    "result": []
  },
  {
    "postal": "N2G0M0",
    "result": []
  },
  {
    "postal": "N2G6A2",
    "result": []
  },
  {
    "postal": "N2G9S8",
    "result": []
  },
  {
    "postal": "N2G9T4",
    "result": []
  },
  {
    "postal": "N2G9Y4",
    "result": []
  },
  {
    "postal": "N2G6G5",
    "result": []
  },
  {
    "postal": "N2G6H9",
    "result": []
  },
  {
    "postal": "N2G2P3",
    "result": [
      {
        "electoralDistricts": [
          {
            "election": null,
            "id": 47,
            "name": "Kitchener Centre"
          }
        ],
        "pollDivisionIds": [
          10139204
        ],
        "postalCode": "N2G2P3",
        "streetName": "CHARLES",
        "streetDirectionId": "E",
        "streetTypeId": "ST",
        "placeName": "KITCHENER",
        "streetNameDisplayText": "CHARLES ST E, KITCHENER"
      }
    ]
  },
  {
    "postal": "N2G1T6",
    "result": [
      {
        "electoralDistricts": [
          {
            "election": null,
            "id": 47,
            "name": "Kitchener Centre"
          }
        ],
        "pollDivisionIds": [
          10139222
        ],
        "postalCode": "N2G1T6",
        "streetName": "YORK",
        "streetDirectionId": null,
        "streetTypeId": "ST",
        "placeName": "KITCHENER",
        "streetNameDisplayText": "YORK ST, KITCHENER"
      }
    ]
  },
  {
    "postal": "N2G4P6",
    "result": []
  },
  {
    "postal": "N2G3K1",
    "result": [
      {
        "electoralDistricts": [
          {
            "election": null,
            "id": 47,
            "name": "Kitchener Centre"
          }
        ],
        "pollDivisionIds": [
          10139206
        ],
        "postalCode": "N2G3K1",
        "streetName": "PETER",
        "streetDirectionId": null,
        "streetTypeId": "ST",
        "placeName": "KITCHENER",
        "streetNameDisplayText": "PETER ST, KITCHENER"
      }
    ]
  },
  {
    "postal": "N2G6X4",
    "result": []
  },
  {
    "postal": "N2G4M8",
    "result": []
  },
  {
    "postal": "N2G2Y1",
    "result": [
      {
        "electoralDistricts": [
          {
            "election": null,
            "id": 47,
            "name": "Kitchener Centre"
          }
        ],
        "pollDivisionIds": [
          10139197
        ],
        "postalCode": "N2G2Y1",
        "streetName": "BRUDER",
        "streetDirectionId": null,
        "streetTypeId": "AVE",
        "placeName": "KITCHENER",
        "streetNameDisplayText": "BRUDER AVE, KITCHENER"
      }
    ]
  },
  {
    "postal": "N2G6M1",
    "result": []
  },
  {
    "postal": "N2G5L8",
    "result": []
  },
  {
    "postal": "N2G3P6",
    "result": [
      {
        "electoralDistricts": [
          {
            "election": null,
            "id": 47,
            "name": "Kitchener Centre"
          }
        ],
        "pollDivisionIds": [
          10139206
        ],
        "postalCode": "N2G3P6",
        "streetName": "PALMER",
        "streetDirectionId": null,
        "streetTypeId": "AVE",
        "placeName": "KITCHENER",
        "streetNameDisplayText": "PALMER AVE, KITCHENER"
      }
    ]
  },
  {
    "postal": "N2G9A5",
    "result": []
  },
  {
    "postal": "N2G7K1",
    "result": []
  },
  {
    "postal": "N2G3J4",
    "result": [
      {
        "electoralDistricts": [
          {
            "election": null,
            "id": 47,
            "name": "Kitchener Centre"
          }
        ],
        "pollDivisionIds": [
          10139202
        ],
        "postalCode": "N2G3J4",
        "streetName": "HEBEL",
        "streetDirectionId": null,
        "streetTypeId": "PL",
        "placeName": "KITCHENER",
        "streetNameDisplayText": "HEBEL PL, KITCHENER"
      }
    ]
  },
  {
    "postal": "N2G5E7",
    "result": []
  },
  {
    "postal": "N2G3A7",
    "result": [
      {
        "electoralDistricts": [
          {
            "election": null,
            "id": 47,
            "name": "Kitchener Centre"
          }
        ],
        "pollDivisionIds": [
          10139208
        ],
        "postalCode": "N2G3A7",
        "streetName": "BEDFORD",
        "streetDirectionId": null,
        "streetTypeId": "RD",
        "placeName": "KITCHENER",
        "streetNameDisplayText": "BEDFORD RD, KITCHENER"
      }
    ]
  },
  {
    "postal": "N2G1B9",
    "result": [
      {
        "electoralDistricts": [
          {
            "election": null,
            "id": 47,
            "name": "Kitchener Centre"
          }
        ],
        "pollDivisionIds": [
          10139197
        ],
        "postalCode": "N2G1B9",
        "streetName": "KING",
        "streetDirectionId": "W",
        "streetTypeId": "ST",
        "placeName": "KITCHENER",
        "streetNameDisplayText": "KING ST W, KITCHENER"
      }
    ]
  },
  {
    "postal": "N2G9E8",
    "result": []
  },
  {
    "postal": "N2G1C9",
    "result": [
      {
        "electoralDistricts": [
          {
            "election": null,
            "id": 47,
            "name": "Kitchener Centre"
          }
        ],
        "pollDivisionIds": [
          10139193
        ],
        "postalCode": "N2G1C9",
        "streetName": "KING",
        "streetDirectionId": "W",
        "streetTypeId": "ST",
        "placeName": "KITCHENER",
        "streetNameDisplayText": "KING ST W, KITCHENER"
      }
    ]
  },
  {
    "postal": "N2G3B5",
    "result": [
      {
        "electoralDistricts": [
          {
            "election": null,
            "id": 47,
            "name": "Kitchener Centre"
          }
        ],
        "pollDivisionIds": [
          10139208
        ],
        "postalCode": "N2G3B5",
        "streetName": "ROCKWAY",
        "streetDirectionId": null,
        "streetTypeId": "DR",
        "placeName": "KITCHENER",
        "streetNameDisplayText": "ROCKWAY DR, KITCHENER"
      }
    ]
  },
  {
    "postal": "N2G8R0",
    "result": []
  },
  {
    "postal": "N2G3P2",
    "result": []
  },
  {
    "postal": "N2G5V4",
    "result": []
  },
  {
    "postal": "N2G4H0",
    "result": []
  },
  {
    "postal": "N2G4S7",
    "result": []
  },
  {
    "postal": "N2G6C2",
    "result": []
  },
  {
    "postal": "N2G8W3",
    "result": []
  },
  {
    "postal": "N2G4M5",
    "result": []
  },
  {
    "postal": "N2G5T1",
    "result": []
  },
  {
    "postal": "N2G3B3",
    "result": [
      {
        "electoralDistricts": [
          {
            "election": null,
            "id": 47,
            "name": "Kitchener Centre"
          }
        ],
        "pollDivisionIds": [
          10139208
        ],
        "postalCode": "N2G3B3",
        "streetName": "FLORAL",
        "streetDirectionId": null,
        "streetTypeId": "CRES",
        "placeName": "KITCHENER",
        "streetNameDisplayText": "FLORAL CRES, KITCHENER"
      }
    ]
  },
  {
    "postal": "N2G6C6",
    "result": []
  },
  {
    "postal": "N2G7N8",
    "result": []
  },
  {
    "postal": "N2G2Y3",
    "result": [
      {
        "electoralDistricts": [
          {
            "election": null,
            "id": 47,
            "name": "Kitchener Centre"
          }
        ],
        "pollDivisionIds": [
          10139197
        ],
        "postalCode": "N2G2Y3",
        "streetName": "MILL",
        "streetDirectionId": null,
        "streetTypeId": "ST",
        "placeName": "KITCHENER",
        "streetNameDisplayText": "MILL ST, KITCHENER"
      }
    ]
  },
  {
    "postal": "N2G2R6",
    "result": [
      {
        "electoralDistricts": [
          {
            "election": null,
            "id": 47,
            "name": "Kitchener Centre"
          }
        ],
        "pollDivisionIds": [
          10139208
        ],
        "postalCode": "N2G2R6",
        "streetName": "CHARLES",
        "streetDirectionId": "E",
        "streetTypeId": "ST",
        "placeName": "KITCHENER",
        "streetNameDisplayText": "CHARLES ST E, KITCHENER"
      }
    ]
  },
  {
    "postal": "N2G7N3",
    "result": []
  },
  {
    "postal": "N2G8J2",
    "result": []
  },
  {
    "postal": "N2G6A9",
    "result": []
  },
  {
    "postal": "N2G3V2",
    "result": [
      {
        "electoralDistricts": [
          {
            "election": null,
            "id": 47,
            "name": "Kitchener Centre"
          }
        ],
        "pollDivisionIds": [
          10139208
        ],
        "postalCode": "N2G3V2",
        "streetName": "SYDNEY",
        "streetDirectionId": "S",
        "streetTypeId": "ST",
        "placeName": "KITCHENER",
        "streetNameDisplayText": "SYDNEY ST S, KITCHENER"
      }
    ]
  },
  {
    "postal": "N2G2N3",
    "result": [
      {
        "electoralDistricts": [
          {
            "election": null,
            "id": 47,
            "name": "Kitchener Centre"
          }
        ],
        "pollDivisionIds": [
          10139208
        ],
        "postalCode": "N2G2N3",
        "streetName": "KING",
        "streetDirectionId": "E",
        "streetTypeId": "ST",
        "placeName": "KITCHENER",
        "streetNameDisplayText": "KING ST E, KITCHENER"
      }
    ]
  },
  {
    "postal": "N2G1S5",
    "result": [
      {
        "electoralDistricts": [
          {
            "election": null,
            "id": 47,
            "name": "Kitchener Centre"
          }
        ],
        "pollDivisionIds": [
          10139193
        ],
        "postalCode": "N2G1S5",
        "streetName": "GRUHN",
        "streetDirectionId": null,
        "streetTypeId": "ST",
        "placeName": "KITCHENER",
        "streetNameDisplayText": "GRUHN ST, KITCHENER"
      }
    ]
  },
  {
    "postal": "N2G4T7",
    "result": [
      {
        "electoralDistricts": [
          {
            "election": null,
            "id": 47,
            "name": "Kitchener Centre"
          }
        ],
        "pollDivisionIds": [
          10139201
        ],
        "postalCode": "N2G4T7",
        "streetName": "QUEEN",
        "streetDirectionId": "S",
        "streetTypeId": "ST",
        "placeName": "KITCHENER",
        "streetNameDisplayText": "QUEEN ST S, KITCHENER"
      }
    ]
  },
  {
    "postal": "N2G6Y7",
    "result": []
  },
  {
    "postal": "N2G0W7",
    "result": []
  },
  {
    "postal": "N2G2W9",
    "result": [
      {
        "electoralDistricts": [
          {
            "election": null,
            "id": 47,
            "name": "Kitchener Centre"
          }
        ],
        "pollDivisionIds": [
          10139208
        ],
        "postalCode": "N2G2W9",
        "streetName": "COURTLAND",
        "streetDirectionId": "E",
        "streetTypeId": "AVE",
        "placeName": "KITCHENER",
        "streetNameDisplayText": "COURTLAND AVE E, KITCHENER"
      }
    ]
  },
  {
    "postal": "N2G8V0",
    "result": []
  },
  {
    "postal": "N2G0H4",
    "result": []
  },
  {
    "postal": "N2G2T1",
    "result": [
      {
        "electoralDistricts": [
          {
            "election": null,
            "id": 47,
            "name": "Kitchener Centre"
          }
        ],
        "pollDivisionIds": [
          10139202
        ],
        "postalCode": "N2G2T1",
        "streetName": "ST GEORGE",
        "streetDirectionId": null,
        "streetTypeId": "ST",
        "placeName": "KITCHENER",
        "streetNameDisplayText": "ST GEORGE ST, KITCHENER"
      },
      {
        "electoralDistricts": [
          {
            "election": null,
            "id": 47,
            "name": "Kitchener Centre"
          }
        ],
        "pollDivisionIds": [
          10139202
        ],
        "postalCode": "N2G2T1",
        "streetName": "ST. GEORGE",
        "streetDirectionId": null,
        "streetTypeId": "ST",
        "placeName": "KITCHENER",
        "streetNameDisplayText": "ST. GEORGE ST, KITCHENER"
      }
    ]
  },
  {
    "postal": "N2G1B1",
    "result": [
      {
        "electoralDistricts": [
          {
            "election": null,
            "id": 47,
            "name": "Kitchener Centre"
          }
        ],
        "pollDivisionIds": [
          10139197
        ],
        "postalCode": "N2G1B1",
        "streetName": "KING",
        "streetDirectionId": "W",
        "streetTypeId": "ST",
        "placeName": "KITCHENER",
        "streetNameDisplayText": "KING ST W, KITCHENER"
      }
    ]
  },
  {
    "postal": "N2G8B6",
    "result": []
  },
  {
    "postal": "N2G6H1",
    "result": []
  },
  {
    "postal": "N2G8T8",
    "result": []
  },
  {
    "postal": "N2G0T4",
    "result": []
  },
  {
    "postal": "N2G2C4",
    "result": [
      {
        "electoralDistricts": [
          {
            "election": null,
            "id": 47,
            "name": "Kitchener Centre"
          }
        ],
        "pollDivisionIds": [
          10139194
        ],
        "postalCode": "N2G2C4",
        "streetName": "HERLAN",
        "streetDirectionId": null,
        "streetTypeId": "AVE",
        "placeName": "KITCHENER",
        "streetNameDisplayText": "HERLAN AVE, KITCHENER"
      }
    ]
  },
  {
    "postal": "N2G8N3",
    "result": []
  },
  {
    "postal": "N2G4L8",
    "result": []
  },
  {
    "postal": "N2G2B5",
    "result": [
      {
        "electoralDistricts": [
          {
            "election": null,
            "id": 114,
            "name": "Waterloo"
          },
          {
            "election": null,
            "id": 47,
            "name": "Kitchener Centre"
          }
        ],
        "pollDivisionIds": [
          10126557,
          10139197
        ],
        "postalCode": "N2G2B5",
        "streetName": "VICTORIA",
        "streetDirectionId": "S",
        "streetTypeId": "ST",
        "placeName": "KITCHENER",
        "streetNameDisplayText": "VICTORIA ST S, KITCHENER"
      }
    ]
  },
  {
    "postal": "N2G3H1",
    "result": [
      {
        "electoralDistricts": [
          {
            "election": null,
            "id": 47,
            "name": "Kitchener Centre"
          }
        ],
        "pollDivisionIds": [
          10139204
        ],
        "postalCode": "N2G3H1",
        "streetName": "BENTON",
        "streetDirectionId": null,
        "streetTypeId": "ST",
        "placeName": "KITCHENER",
        "streetNameDisplayText": "BENTON ST, KITCHENER"
      }
    ]
  },
  {
    "postal": "N2G4Y1",
    "result": []
  },
  {
    "postal": "N2G7E2",
    "result": []
  },
  {
    "postal": "N2G2P5",
    "result": [
      {
        "electoralDistricts": [
          {
            "election": null,
            "id": 47,
            "name": "Kitchener Centre"
          }
        ],
        "pollDivisionIds": [
          10139204
        ],
        "postalCode": "N2G2P5",
        "streetName": "CHARLES",
        "streetDirectionId": "E",
        "streetTypeId": "ST",
        "placeName": "KITCHENER",
        "streetNameDisplayText": "CHARLES ST E, KITCHENER"
      }
    ]
  },
  {
    "postal": "N2G8R7",
    "result": []
  },
  {
    "postal": "N2G9P1",
    "result": []
  },
  {
    "postal": "N2G3B8",
    "result": [
      {
        "electoralDistricts": [
          {
            "election": null,
            "id": 47,
            "name": "Kitchener Centre"
          }
        ],
        "pollDivisionIds": [
          10139208
        ],
        "postalCode": "N2G3B8",
        "streetName": "CARWOOD",
        "streetDirectionId": null,
        "streetTypeId": "AVE",
        "placeName": "KITCHENER",
        "streetNameDisplayText": "CARWOOD AVE, KITCHENER"
      }
    ]
  },
  {
    "postal": "N2G3P7",
    "result": [
      {
        "electoralDistricts": [
          {
            "election": null,
            "id": 47,
            "name": "Kitchener Centre"
          }
        ],
        "pollDivisionIds": [
          10139206
        ],
        "postalCode": "N2G3P7",
        "streetName": "PALMER",
        "streetDirectionId": null,
        "streetTypeId": "AVE",
        "placeName": "KITCHENER",
        "streetNameDisplayText": "PALMER AVE, KITCHENER"
      }
    ]
  },
  {
    "postal": "N2G9B2",
    "result": []
  },
  {
    "postal": "N2G6Z3",
    "result": []
  },
  {
    "postal": "N2G4N5",
    "result": [
      {
        "electoralDistricts": [
          {
            "election": null,
            "id": 47,
            "name": "Kitchener Centre"
          }
        ],
        "pollDivisionIds": [
          10139204
        ],
        "postalCode": "N2G4N5",
        "streetName": "KING",
        "streetDirectionId": "E",
        "streetTypeId": "ST",
        "placeName": "KITCHENER",
        "streetNameDisplayText": "KING ST E, KITCHENER"
      }
    ]
  },
  {
    "postal": "N2G8T3",
    "result": []
  },
  {
    "postal": "N2G1V2",
    "result": []
  },
  {
    "postal": "N2G1Y0",
    "result": []
  },
  {
    "postal": "N2G3G6",
    "result": [
      {
        "electoralDistricts": [
          {
            "election": null,
            "id": 47,
            "name": "Kitchener Centre"
          }
        ],
        "pollDivisionIds": [
          10139208
        ],
        "postalCode": "N2G3G6",
        "streetName": "PLYMOUTH",
        "streetDirectionId": null,
        "streetTypeId": "RD",
        "placeName": "KITCHENER",
        "streetNameDisplayText": "PLYMOUTH RD, KITCHENER"
      }
    ]
  },
  {
    "postal": "N2G3H7",
    "result": [
      {
        "electoralDistricts": [
          {
            "election": null,
            "id": 47,
            "name": "Kitchener Centre"
          }
        ],
        "pollDivisionIds": [
          10139206
        ],
        "postalCode": "N2G3H7",
        "streetName": "BENTON",
        "streetDirectionId": null,
        "streetTypeId": "ST",
        "placeName": "KITCHENER",
        "streetNameDisplayText": "BENTON ST, KITCHENER"
      }
    ]
  },
  {
    "postal": "N2G7X8",
    "result": []
  },
  {
    "postal": "N2G0C7",
    "result": []
  },
  {
    "postal": "N2G0W9",
    "result": []
  },
  {
    "postal": "N2G8E6",
    "result": []
  },
  {
    "postal": "N2G9Z8",
    "result": []
  },
  {
    "postal": "N2G3P4",
    "result": []
  },
  {
    "postal": "N2G6L8",
    "result": []
  },
  {
    "postal": "N2G2R4",
    "result": [
      {
        "electoralDistricts": [
          {
            "election": null,
            "id": 47,
            "name": "Kitchener Centre"
          }
        ],
        "pollDivisionIds": [
          10139208
        ],
        "postalCode": "N2G2R4",
        "streetName": "CHARLES",
        "streetDirectionId": "E",
        "streetTypeId": "ST",
        "placeName": "KITCHENER",
        "streetNameDisplayText": "CHARLES ST E, KITCHENER"
      }
    ]
  },
  {
    "postal": "N2G2W1",
    "result": [
      {
        "electoralDistricts": [
          {
            "election": null,
            "id": 47,
            "name": "Kitchener Centre"
          }
        ],
        "pollDivisionIds": [
          10139206
        ],
        "postalCode": "N2G2W1",
        "streetName": "COURTLAND",
        "streetDirectionId": "E",
        "streetTypeId": "AVE",
        "placeName": "KITCHENER",
        "streetNameDisplayText": "COURTLAND AVE E, KITCHENER"
      }
    ]
  },
  {
    "postal": "N2G9H8",
    "result": []
  },
  {
    "postal": "N2G8X9",
    "result": []
  },
  {
    "postal": "N2G7H4",
    "result": []
  },
  {
    "postal": "N2G3J1",
    "result": [
      {
        "electoralDistricts": [
          {
            "election": null,
            "id": 47,
            "name": "Kitchener Centre"
          }
        ],
        "pollDivisionIds": [
          10139197
        ],
        "postalCode": "N2G3J1",
        "streetName": "BENTON",
        "streetDirectionId": null,
        "streetTypeId": "ST",
        "placeName": "KITCHENER",
        "streetNameDisplayText": "BENTON ST, KITCHENER"
      }
    ]
  },
  {
    "postal": "N2G1P4",
    "result": [
      {
        "electoralDistricts": [
          {
            "election": null,
            "id": 47,
            "name": "Kitchener Centre"
          }
        ],
        "pollDivisionIds": [
          10139197
        ],
        "postalCode": "N2G1P4",
        "streetName": "HENRY",
        "streetDirectionId": null,
        "streetTypeId": "ST",
        "placeName": "KITCHENER",
        "streetNameDisplayText": "HENRY ST, KITCHENER"
      }
    ]
  },
  {
    "postal": "N2G2A3",
    "result": [
      {
        "electoralDistricts": [
          {
            "election": null,
            "id": 47,
            "name": "Kitchener Centre"
          }
        ],
        "pollDivisionIds": [
          10139197
        ],
        "postalCode": "N2G2A3",
        "streetName": "FRANCIS",
        "streetDirectionId": "S",
        "streetTypeId": "ST",
        "placeName": "KITCHENER",
        "streetNameDisplayText": "FRANCIS ST S, KITCHENER"
      }
    ]
  },
  {
    "postal": "N2G0Z1",
    "result": []
  },
  {
    "postal": "N2G1C1",
    "result": []
  },
  {
    "postal": "N2G0H3",
    "result": []
  },
  {
    "postal": "N2G7B0",
    "result": []
  },
  {
    "postal": "N2G5K2",
    "result": []
  },
  {
    "postal": "N2G1E9",
    "result": [
      {
        "electoralDistricts": [
          {
            "election": null,
            "id": 47,
            "name": "Kitchener Centre"
          }
        ],
        "pollDivisionIds": [
          10139225
        ],
        "postalCode": "N2G1E9",
        "streetName": "KING",
        "streetDirectionId": "W",
        "streetTypeId": "ST",
        "placeName": "KITCHENER",
        "streetNameDisplayText": "KING ST W, KITCHENER"
      }
    ]
  },
  {
    "postal": "N2G9W7",
    "result": []
  },
  {
    "postal": "N2G5W6",
    "result": []
  },
  {
    "postal": "N2G6S6",
    "result": []
  },
  {
    "postal": "N2G2P8",
    "result": [
      {
        "electoralDistricts": [
          {
            "election": null,
            "id": 47,
            "name": "Kitchener Centre"
          }
        ],
        "pollDivisionIds": [
          10139206,
          10139201
        ],
        "postalCode": "N2G2P8",
        "streetName": "CHARLES",
        "streetDirectionId": "E",
        "streetTypeId": "ST",
        "placeName": "KITCHENER",
        "streetNameDisplayText": "CHARLES ST E, KITCHENER"
      }
    ]
  },
  {
    "postal": "N2G4P8",
    "result": []
  },
  {
    "postal": "N2G0V9",
    "result": []
  },
  {
    "postal": "N2G5Y2",
    "result": []
  },
  {
    "postal": "N2G7Z7",
    "result": []
  },
  {
    "postal": "N2G6Y8",
    "result": []
  },
  {
    "postal": "N2G2G7",
    "result": [
      {
        "electoralDistricts": [
          {
            "election": null,
            "id": 47,
            "name": "Kitchener Centre"
          }
        ],
        "pollDivisionIds": [
          10139193
        ],
        "postalCode": "N2G2G7",
        "streetName": "GLASGOW",
        "streetDirectionId": null,
        "streetTypeId": "ST",
        "placeName": "KITCHENER",
        "streetNameDisplayText": "GLASGOW ST, KITCHENER"
      }
    ]
  },
  {
    "postal": "N2G8C1",
    "result": []
  },
  {
    "postal": "N2G5C5",
    "result": []
  },
  {
    "postal": "N2G2X8",
    "result": [
      {
        "electoralDistricts": [
          {
            "election": null,
            "id": 47,
            "name": "Kitchener Centre"
          }
        ],
        "pollDivisionIds": [
          10139206
        ],
        "postalCode": "N2G2X8",
        "streetName": "WHITNEY",
        "streetDirectionId": null,
        "streetTypeId": "PL",
        "placeName": "KITCHENER",
        "streetNameDisplayText": "WHITNEY PL, KITCHENER"
      }
    ]
  },
  {
    "postal": "N2G1W5",
    "result": [
      {
        "electoralDistricts": [
          {
            "election": null,
            "id": 47,
            "name": "Kitchener Centre"
          }
        ],
        "pollDivisionIds": [
          10139201
        ],
        "postalCode": "N2G1W5",
        "streetName": "QUEEN",
        "streetDirectionId": "S",
        "streetTypeId": "ST",
        "placeName": "KITCHENER",
        "streetNameDisplayText": "QUEEN ST S, KITCHENER"
      }
    ]
  },
  {
    "postal": "N2G7G0",
    "result": []
  },
  {
    "postal": "N2G8J8",
    "result": []
  },
  {
    "postal": "N2G3Y0",
    "result": []
  },
  {
    "postal": "N2G9T7",
    "result": []
  },
  {
    "postal": "N2G5P4",
    "result": []
  },
  {
    "postal": "N2G4B0",
    "result": []
  },
  {
    "postal": "N2G9N8",
    "result": []
  },
  {
    "postal": "N2G4A7",
    "result": []
  },
  {
    "postal": "N2G4H9",
    "result": []
  },
  {
    "postal": "N2G6X1",
    "result": []
  },
  {
    "postal": "N2G9Y7",
    "result": []
  },
  {
    "postal": "N2G2Y5",
    "result": [
      {
        "electoralDistricts": [
          {
            "election": null,
            "id": 47,
            "name": "Kitchener Centre"
          }
        ],
        "pollDivisionIds": [
          10139208
        ],
        "postalCode": "N2G2Y5",
        "streetName": "MILL",
        "streetDirectionId": null,
        "streetTypeId": "ST",
        "placeName": "KITCHENER",
        "streetNameDisplayText": "MILL ST, KITCHENER"
      }
    ]
  },
  {
    "postal": "N2G8L7",
    "result": []
  },
  {
    "postal": "N2G2A8",
    "result": []
  },
  {
    "postal": "N2G2K9",
    "result": []
  },
  {
    "postal": "N2G3E5",
    "result": [
      {
        "electoralDistricts": [
          {
            "election": null,
            "id": 47,
            "name": "Kitchener Centre"
          }
        ],
        "pollDivisionIds": [
          10139186,
          10139208
        ],
        "postalCode": "N2G3E5",
        "streetName": "CORNELL",
        "streetDirectionId": null,
        "streetTypeId": "AVE",
        "placeName": "KITCHENER",
        "streetNameDisplayText": "CORNELL AVE, KITCHENER"
      }
    ]
  },
  {
    "postal": "N2G8N6",
    "result": []
  },
  {
    "postal": "N2G8J4",
    "result": []
  },
  {
    "postal": "N2G4R7",
    "result": []
  },
  {
    "postal": "N2G9K1",
    "result": []
  },
  {
    "postal": "N2G8E1",
    "result": []
  },
  {
    "postal": "N2G0R1",
    "result": []
  },
  {
    "postal": "N2G4J3",
    "result": []
  },
  {
    "postal": "N2G7E7",
    "result": []
  },
  {
    "postal": "N2G0J0",
    "result": []
  },
  {
    "postal": "N2G7R8",
    "result": []
  },
  {
    "postal": "N2G9X0",
    "result": []
  },
  {
    "postal": "N2G7P6",
    "result": []
  },
  {
    "postal": "N2G0R7",
    "result": []
  },
  {
    "postal": "N2G5W1",
    "result": []
  },
  {
    "postal": "N2G0K4",
    "result": []
  },
  {
    "postal": "N2G7N9",
    "result": []
  },
  {
    "postal": "N2G1N0",
    "result": []
  },
  {
    "postal": "N2G6P3",
    "result": []
  },
  {
    "postal": "N2G5A1",
    "result": [
      {
        "electoralDistricts": [
          {
            "election": null,
            "id": 47,
            "name": "Kitchener Centre"
          }
        ],
        "pollDivisionIds": [
          10139197
        ],
        "postalCode": "N2G5A1",
        "streetName": "CHERRY",
        "streetDirectionId": null,
        "streetTypeId": "ST",
        "placeName": "KITCHENER",
        "streetNameDisplayText": "CHERRY ST, KITCHENER"
      }
    ]
  },
  {
    "postal": "N2G9M9",
    "result": []
  },
  {
    "postal": "N2G7T6",
    "result": []
  },
  {
    "postal": "N2G3X0",
    "result": []
  },
  {
    "postal": "N2G2T0",
    "result": []
  },
  {
    "postal": "N2G5X9",
    "result": []
  },
  {
    "postal": "N2G2R3",
    "result": []
  },
  {
    "postal": "N2G5N2",
    "result": []
  },
  {
    "postal": "N2G4Y7",
    "result": []
  },
  {
    "postal": "N2G7M0",
    "result": []
  },
  {
    "postal": "N2G8P3",
    "result": []
  },
  {
    "postal": "N2G3N3",
    "result": []
  },
  {
    "postal": "N2G7S3",
    "result": []
  },
  {
    "postal": "N2G3V9",
    "result": [
      {
        "electoralDistricts": [
          {
            "election": null,
            "id": 47,
            "name": "Kitchener Centre"
          }
        ],
        "pollDivisionIds": [
          10139208
        ],
        "postalCode": "N2G3V9",
        "streetName": "SYDNEY",
        "streetDirectionId": "S",
        "streetTypeId": "ST",
        "placeName": "KITCHENER",
        "streetNameDisplayText": "SYDNEY ST S, KITCHENER"
      }
    ]
  },
  {
    "postal": "N2G9N7",
    "result": []
  },
  {
    "postal": "N2G0G4",
    "result": []
  },
  {
    "postal": "N2G2E2",
    "result": [
      {
        "electoralDistricts": [
          {
            "election": null,
            "id": 47,
            "name": "Kitchener Centre"
          }
        ],
        "pollDivisionIds": [
          10139197
        ],
        "postalCode": "N2G2E2",
        "streetName": "GAGE",
        "streetDirectionId": null,
        "streetTypeId": "AVE",
        "placeName": "KITCHENER",
        "streetNameDisplayText": "GAGE AVE, KITCHENER"
      }
    ]
  },
  {
    "postal": "N2G7W8",
    "result": []
  },
  {
    "postal": "N2G7M5",
    "result": []
  },
  {
    "postal": "N2G5W8",
    "result": []
  },
  {
    "postal": "N2G5E5",
    "result": []
  },
  {
    "postal": "N2G1P9",
    "result": [
      {
        "electoralDistricts": [
          {
            "election": null,
            "id": 47,
            "name": "Kitchener Centre"
          }
        ],
        "pollDivisionIds": [
          10139194
        ],
        "postalCode": "N2G1P9",
        "streetName": "STRANGE",
        "streetDirectionId": null,
        "streetTypeId": "ST",
        "placeName": "KITCHENER",
        "streetNameDisplayText": "STRANGE ST, KITCHENER"
      }
    ]
  },
  {
    "postal": "N2G8V8",
    "result": []
  },
  {
    "postal": "N2G9G8",
    "result": []
  },
  {
    "postal": "N2G8H9",
    "result": []
  },
  {
    "postal": "N2G1Z1",
    "result": [
      {
        "electoralDistricts": [
          {
            "election": null,
            "id": 47,
            "name": "Kitchener Centre"
          }
        ],
        "pollDivisionIds": [
          10139197
        ],
        "postalCode": "N2G1Z1",
        "streetName": "RICHMOND",
        "streetDirectionId": null,
        "streetTypeId": "AVE",
        "placeName": "KITCHENER",
        "streetNameDisplayText": "RICHMOND AVE, KITCHENER"
      }
    ]
  },
  {
    "postal": "N2G8M3",
    "result": []
  },
  {
    "postal": "N2G5H6",
    "result": []
  },
  {
    "postal": "N2G7W7",
    "result": []
  },
  {
    "postal": "N2G4L0",
    "result": []
  },
  {
    "postal": "N2G2N1",
    "result": [
      {
        "electoralDistricts": [
          {
            "election": null,
            "id": 47,
            "name": "Kitchener Centre"
          }
        ],
        "pollDivisionIds": [
          10139208
        ],
        "postalCode": "N2G2N1",
        "streetName": "KING",
        "streetDirectionId": "E",
        "streetTypeId": "ST",
        "placeName": "KITCHENER",
        "streetNameDisplayText": "KING ST E, KITCHENER"
      },
      {
        "electoralDistricts": [
          {
            "election": null,
            "id": 47,
            "name": "Kitchener Centre"
          }
        ],
        "pollDivisionIds": [
          10139193
        ],
        "postalCode": "N2G2N1",
        "streetName": "KING",
        "streetDirectionId": "W",
        "streetTypeId": "ST",
        "placeName": "KITCHENER",
        "streetNameDisplayText": "KING ST W, KITCHENER"
      }
    ]
  },
  {
    "postal": "N2G2H4",
    "result": [
      {
        "electoralDistricts": [
          {
            "election": null,
            "id": 47,
            "name": "Kitchener Centre"
          }
        ],
        "pollDivisionIds": [
          10139193
        ],
        "postalCode": "N2G2H4",
        "streetName": "GILDNER",
        "streetDirectionId": null,
        "streetTypeId": "ST",
        "placeName": "KITCHENER",
        "streetNameDisplayText": "GILDNER ST, KITCHENER"
      }
    ]
  },
  {
    "postal": "N2G5C8",
    "result": []
  },
  {
    "postal": "N2G8B0",
    "result": []
  },
  {
    "postal": "N2G1T4",
    "result": []
  },
  {
    "postal": "N2G7N7",
    "result": []
  },
  {
    "postal": "N2G4L3",
    "result": []
  },
  {
    "postal": "N2G2N2",
    "result": [
      {
        "electoralDistricts": [
          {
            "election": null,
            "id": 47,
            "name": "Kitchener Centre"
          }
        ],
        "pollDivisionIds": [
          10139209
        ],
        "postalCode": "N2G2N2",
        "streetName": "KING",
        "streetDirectionId": "E",
        "streetTypeId": "ST",
        "placeName": "KITCHENER",
        "streetNameDisplayText": "KING ST E, KITCHENER"
      }
    ]
  },
  {
    "postal": "N2G4N8",
    "result": [
      {
        "electoralDistricts": [
          {
            "election": null,
            "id": 47,
            "name": "Kitchener Centre"
          }
        ],
        "pollDivisionIds": [
          10139208
        ],
        "postalCode": "N2G4N8",
        "streetName": "CAYLEY",
        "streetDirectionId": null,
        "streetTypeId": "CRT",
        "placeName": "KITCHENER",
        "streetNameDisplayText": "CAYLEY CRT, KITCHENER"
      }
    ]
  },
  {
    "postal": "N2G3M5",
    "result": [
      {
        "electoralDistricts": [
          {
            "election": null,
            "id": 47,
            "name": "Kitchener Centre"
          }
        ],
        "pollDivisionIds": [
          10139204
        ],
        "postalCode": "N2G3M5",
        "streetName": "MADISON",
        "streetDirectionId": "S",
        "streetTypeId": "AVE",
        "placeName": "KITCHENER",
        "streetNameDisplayText": "MADISON AVE S, KITCHENER"
      }
    ]
  },
  {
    "postal": "N2G6H7",
    "result": []
  },
  {
    "postal": "N2G8Y8",
    "result": []
  },
  {
    "postal": "N2G5R9",
    "result": []
  },
  {
    "postal": "N2G8G3",
    "result": []
  },
  {
    "postal": "N2G4N7",
    "result": []
  },
  {
    "postal": "N2G0B9",
    "result": [
      {
        "electoralDistricts": [
          {
            "election": null,
            "id": 47,
            "name": "Kitchener Centre"
          }
        ],
        "pollDivisionIds": [
          10139193
        ],
        "postalCode": "N2G0B9",
        "streetName": "KING",
        "streetDirectionId": "W",
        "streetTypeId": "ST",
        "placeName": "KITCHENER",
        "streetNameDisplayText": "KING ST W, KITCHENER"
      }
    ]
  },
  {
    "postal": "N2G9K7",
    "result": []
  },
  {
    "postal": "N2G9K9",
    "result": []
  },
  {
    "postal": "N2G3Z2",
    "result": []
  },
  {
    "postal": "N2G6W7",
    "result": []
  },
  {
    "postal": "N2G0P1",
    "result": []
  },
  {
    "postal": "N2G3A0",
    "result": []
  },
  {
    "postal": "N2G8L9",
    "result": []
  },
  {
    "postal": "N2G6X0",
    "result": []
  },
  {
    "postal": "N2G3E9",
    "result": [
      {
        "electoralDistricts": [
          {
            "election": null,
            "id": 47,
            "name": "Kitchener Centre"
          }
        ],
        "pollDivisionIds": [
          10139208
        ],
        "postalCode": "N2G3E9",
        "streetName": "DIXON",
        "streetDirectionId": null,
        "streetTypeId": "ST",
        "placeName": "KITCHENER",
        "streetNameDisplayText": "DIXON ST, KITCHENER"
      }
    ]
  },
  {
    "postal": "N2G0S5",
    "result": []
  },
  {
    "postal": "N2G1A2",
    "result": []
  },
  {
    "postal": "N2G5V8",
    "result": []
  },
  {
    "postal": "N2G8C5",
    "result": []
  },
  {
    "postal": "N2G6N0",
    "result": []
  },
  {
    "postal": "N2G9E6",
    "result": []
  },
  {
    "postal": "N2G5J7",
    "result": []
  },
  {
    "postal": "N2G2R2",
    "result": [
      {
        "electoralDistricts": [
          {
            "election": null,
            "id": 47,
            "name": "Kitchener Centre"
          }
        ],
        "pollDivisionIds": [
          10139208
        ],
        "postalCode": "N2G2R2",
        "streetName": "CHARLES",
        "streetDirectionId": "E",
        "streetTypeId": "ST",
        "placeName": "KITCHENER",
        "streetNameDisplayText": "CHARLES ST E, KITCHENER"
      }
    ]
  },
  {
    "postal": "N2G0P5",
    "result": []
  },
  {
    "postal": "N2G5A7",
    "result": []
  },
  {
    "postal": "N2G1G1",
    "result": [
      {
        "electoralDistricts": [
          {
            "election": null,
            "id": 47,
            "name": "Kitchener Centre"
          }
        ],
        "pollDivisionIds": [
          10139193
        ],
        "postalCode": "N2G1G1",
        "streetName": "KING",
        "streetDirectionId": "W",
        "streetTypeId": "ST",
        "placeName": "KITCHENER",
        "streetNameDisplayText": "KING ST W, KITCHENER"
      },
      {
        "electoralDistricts": [
          {
            "election": null,
            "id": 47,
            "name": "Kitchener Centre"
          }
        ],
        "pollDivisionIds": [
          10139193
        ],
        "postalCode": "N2G1G1",
        "streetName": "KING",
        "streetDirectionId": "W",
        "streetTypeId": "ST",
        "placeName": "WATERLOO",
        "streetNameDisplayText": "KING ST W, WATERLOO"
      }
    ]
  },
  {
    "postal": "N2G9R6",
    "result": []
  },
  {
    "postal": "N2G4Z9",
    "result": [
      {
        "electoralDistricts": [
          {
            "election": null,
            "id": 79,
            "name": "Ottawa South"
          },
          {
            "election": null,
            "id": 47,
            "name": "Kitchener Centre"
          }
        ],
        "pollDivisionIds": [
          10140662,
          10139203,
          10139197
        ],
        "postalCode": "N2G4Z9",
        "streetName": "KING",
        "streetDirectionId": "W",
        "streetTypeId": "ST",
        "placeName": "KITCHENER",
        "streetNameDisplayText": "KING ST W, KITCHENER"
      }
    ]
  },
  {
    "postal": "N2G1V5",
    "result": []
  },
  {
    "postal": "N2G9Y5",
    "result": []
  },
  {
    "postal": "N2G1P2",
    "result": [
      {
        "electoralDistricts": [
          {
            "election": null,
            "id": 47,
            "name": "Kitchener Centre"
          }
        ],
        "pollDivisionIds": [
          10139193
        ],
        "postalCode": "N2G1P2",
        "streetName": "PARK",
        "streetDirectionId": null,
        "streetTypeId": "ST",
        "placeName": "KITCHENER",
        "streetNameDisplayText": "PARK ST, KITCHENER"
      },
      {
        "electoralDistricts": [
          {
            "election": null,
            "id": 47,
            "name": "Kitchener Centre"
          }
        ],
        "pollDivisionIds": [
          10139193
        ],
        "postalCode": "N2G1P2",
        "streetName": "PARK",
        "streetDirectionId": null,
        "streetTypeId": "ST",
        "placeName": "WATERLOO",
        "streetNameDisplayText": "PARK ST, WATERLOO"
      }
    ]
  },
  {
    "postal": "N2G5X0",
    "result": []
  },
  {
    "postal": "N2G7B8",
    "result": []
  },
  {
    "postal": "N2G0C6",
    "result": []
  },
  {
    "postal": "N2G6G1",
    "result": []
  },
  {
    "postal": "N2G3K3",
    "result": [
      {
        "electoralDistricts": [
          {
            "election": null,
            "id": 47,
            "name": "Kitchener Centre"
          }
        ],
        "pollDivisionIds": [
          10139206
        ],
        "postalCode": "N2G3K3",
        "streetName": "PETER",
        "streetDirectionId": null,
        "streetTypeId": "ST",
        "placeName": "KITCHENER",
        "streetNameDisplayText": "PETER ST, KITCHENER"
      }
    ]
  },
  {
    "postal": "N2G9R0",
    "result": []
  },
  {
    "postal": "N2G4R8",
    "result": []
  },
  {
    "postal": "N2G5P9",
    "result": []
  },
  {
    "postal": "N2G8N4",
    "result": []
  },
  {
    "postal": "N2G8H4",
    "result": []
  },
  {
    "postal": "N2G4V1",
    "result": [
      {
        "electoralDistricts": [
          {
            "election": null,
            "id": 47,
            "name": "Kitchener Centre"
          }
        ],
        "pollDivisionIds": [
          10139194
        ],
        "postalCode": "N2G4V1",
        "streetName": "CHERRY",
        "streetDirectionId": null,
        "streetTypeId": "ST",
        "placeName": "KITCHENER",
        "streetNameDisplayText": "CHERRY ST, KITCHENER"
      }
    ]
  },
  {
    "postal": "N2G1K5",
    "result": [
      {
        "electoralDistricts": [
          {
            "election": null,
            "id": 47,
            "name": "Kitchener Centre"
          }
        ],
        "pollDivisionIds": [
          10139197
        ],
        "postalCode": "N2G1K5",
        "streetName": "ROLAND",
        "streetDirectionId": null,
        "streetTypeId": "ST",
        "placeName": "KITCHENER",
        "streetNameDisplayText": "ROLAND ST, KITCHENER"
      }
    ]
  },
  {
    "postal": "N2G1Z5",
    "result": [
      {
        "electoralDistricts": [
          {
            "election": null,
            "id": 47,
            "name": "Kitchener Centre"
          }
        ],
        "pollDivisionIds": [
          10139197
        ],
        "postalCode": "N2G1Z5",
        "streetName": "WATER",
        "streetDirectionId": "S",
        "streetTypeId": "ST",
        "placeName": "KITCHENER",
        "streetNameDisplayText": "WATER ST S, KITCHENER"
      }
    ]
  },
  {
    "postal": "N2G9L9",
    "result": []
  },
  {
    "postal": "N2G5L2",
    "result": []
  },
  {
    "postal": "N2G0M2",
    "result": []
  },
  {
    "postal": "N2G1K8",
    "result": [
      {
        "electoralDistricts": [
          {
            "election": null,
            "id": 47,
            "name": "Kitchener Centre"
          }
        ],
        "pollDivisionIds": [
          10139197
        ],
        "postalCode": "N2G1K8",
        "streetName": "SCHNEIDER",
        "streetDirectionId": null,
        "streetTypeId": "AVE",
        "placeName": "KITCHENER",
        "streetNameDisplayText": "SCHNEIDER AVE, KITCHENER"
      }
    ]
  },
  {
    "postal": "N2G3M7",
    "result": [
      {
        "electoralDistricts": [
          {
            "election": null,
            "id": 47,
            "name": "Kitchener Centre"
          }
        ],
        "pollDivisionIds": [
          10139206
        ],
        "postalCode": "N2G3M7",
        "streetName": "MADISON",
        "streetDirectionId": "S",
        "streetTypeId": "AVE",
        "placeName": "KITCHENER",
        "streetNameDisplayText": "MADISON AVE S, KITCHENER"
      }
    ]
  },
  {
    "postal": "N2G1B2",
    "result": []
  },
  {
    "postal": "N2G0H9",
    "result": []
  },
  {
    "postal": "N2G8M4",
    "result": []
  },
  {
    "postal": "N2G2M5",
    "result": [
      {
        "electoralDistricts": [
          {
            "election": null,
            "id": 47,
            "name": "Kitchener Centre"
          }
        ],
        "pollDivisionIds": [
          10139209
        ],
        "postalCode": "N2G2M5",
        "streetName": "KING",
        "streetDirectionId": "E",
        "streetTypeId": "ST",
        "placeName": "KITCHENER",
        "streetNameDisplayText": "KING ST E, KITCHENER"
      }
    ]
  },
  {
    "postal": "N2G0T9",
    "result": []
  },
  {
    "postal": "N2G3P1",
    "result": []
  },
  {
    "postal": "N2G1R6",
    "result": [
      {
        "electoralDistricts": [
          {
            "election": null,
            "id": 47,
            "name": "Kitchener Centre"
          }
        ],
        "pollDivisionIds": [
          10139193
        ],
        "postalCode": "N2G1R6",
        "streetName": "STRANGE",
        "streetDirectionId": null,
        "streetTypeId": "ST",
        "placeName": "KITCHENER",
        "streetNameDisplayText": "STRANGE ST, KITCHENER"
      }
    ]
  },
  {
    "postal": "N2G9V5",
    "result": []
  },
  {
    "postal": "N2G9T0",
    "result": []
  },
  {
    "postal": "N2G0A9",
    "result": []
  },
  {
    "postal": "N2G1M3",
    "result": [
      {
        "electoralDistricts": [
          {
            "election": null,
            "id": 47,
            "name": "Kitchener Centre"
          }
        ],
        "pollDivisionIds": [
          10139197
        ],
        "postalCode": "N2G1M3",
        "streetName": "PARK",
        "streetDirectionId": null,
        "streetTypeId": "ST",
        "placeName": "KITCHENER",
        "streetNameDisplayText": "PARK ST, KITCHENER"
      }
    ]
  },
  {
    "postal": "N2G1W8",
    "result": []
  },
  {
    "postal": "N2G9J1",
    "result": []
  },
  {
    "postal": "N2G8N5",
    "result": []
  },
  {
    "postal": "N2G5X1",
    "result": []
  },
  {
    "postal": "N2G6S2",
    "result": []
  },
  {
    "postal": "N2G2A2",
    "result": [
      {
        "electoralDistricts": [
          {
            "election": null,
            "id": 47,
            "name": "Kitchener Centre"
          }
        ],
        "pollDivisionIds": [
          10139197
        ],
        "postalCode": "N2G2A2",
        "streetName": "FRANCIS",
        "streetDirectionId": "S",
        "streetTypeId": "ST",
        "placeName": "KITCHENER",
        "streetNameDisplayText": "FRANCIS ST S, KITCHENER"
      }
    ]
  },
  {
    "postal": "N2G6A6",
    "result": []
  },
  {
    "postal": "N2G0S3",
    "result": []
  },
  {
    "postal": "N2G3E7",
    "result": [
      {
        "electoralDistricts": [
          {
            "election": null,
            "id": 47,
            "name": "Kitchener Centre"
          }
        ],
        "pollDivisionIds": [
          10139208
        ],
        "postalCode": "N2G3E7",
        "streetName": "DIXON",
        "streetDirectionId": null,
        "streetTypeId": "ST",
        "placeName": "KITCHENER",
        "streetNameDisplayText": "DIXON ST, KITCHENER"
      }
    ]
  },
  {
    "postal": "N2G5R7",
    "result": []
  },
  {
    "postal": "N2G3R6",
    "result": [
      {
        "electoralDistricts": [
          {
            "election": null,
            "id": 47,
            "name": "Kitchener Centre"
          }
        ],
        "pollDivisionIds": [
          10139208
        ],
        "postalCode": "N2G3R6",
        "streetName": "BORDEN",
        "streetDirectionId": "S",
        "streetTypeId": "AVE",
        "placeName": "KITCHENER",
        "streetNameDisplayText": "BORDEN AVE S, KITCHENER"
      }
    ]
  },
  {
    "postal": "N2G6K4",
    "result": []
  },
  {
    "postal": "N2G2W5",
    "result": [
      {
        "electoralDistricts": [
          {
            "election": null,
            "id": 49,
            "name": "Kitchener SouthHespeler"
          },
          {
            "election": null,
            "id": 47,
            "name": "Kitchener Centre"
          }
        ],
        "pollDivisionIds": [
          10139287,
          10139208
        ],
        "postalCode": "N2G2W5",
        "streetName": "COURTLAND",
        "streetDirectionId": "E",
        "streetTypeId": "AVE",
        "placeName": "KITCHENER",
        "streetNameDisplayText": "COURTLAND AVE E, KITCHENER"
      }
    ]
  },
  {
    "postal": "N2G8W4",
    "result": []
  },
  {
    "postal": "N2G9C2",
    "result": []
  },
  {
    "postal": "N2G2C0",
    "result": []
  },
  {
    "postal": "N2G0E1",
    "result": []
  },
  {
    "postal": "N2G1K9",
    "result": [
      {
        "electoralDistricts": [
          {
            "election": null,
            "id": 47,
            "name": "Kitchener Centre"
          }
        ],
        "pollDivisionIds": [
          10139197
        ],
        "postalCode": "N2G1K9",
        "streetName": "SCHNEIDER",
        "streetDirectionId": null,
        "streetTypeId": "AVE",
        "placeName": "KITCHENER",
        "streetNameDisplayText": "SCHNEIDER AVE, KITCHENER"
      }
    ]
  },
  {
    "postal": "N2G1G7",
    "result": []
  },
  {
    "postal": "N2G4E9",
    "result": []
  },
  {
    "postal": "N2G9P0",
    "result": []
  },
  {
    "postal": "N2G5H3",
    "result": []
  },
  {
    "postal": "N2G9X6",
    "result": []
  },
  {
    "postal": "N2G5N7",
    "result": []
  },
  {
    "postal": "N2G5A6",
    "result": []
  },
  {
    "postal": "N2G4M0",
    "result": []
  },
  {
    "postal": "N2G3V6",
    "result": [
      {
        "electoralDistricts": [
          {
            "election": null,
            "id": 47,
            "name": "Kitchener Centre"
          }
        ],
        "pollDivisionIds": [
          10139208
        ],
        "postalCode": "N2G3V6",
        "streetName": "SYDNEY",
        "streetDirectionId": "S",
        "streetTypeId": "ST",
        "placeName": "KITCHENER",
        "streetNameDisplayText": "SYDNEY ST S, KITCHENER"
      }
    ]
  },
  {
    "postal": "N2G1L7",
    "result": [
      {
        "electoralDistricts": [
          {
            "election": null,
            "id": 47,
            "name": "Kitchener Centre"
          }
        ],
        "pollDivisionIds": [
          10139197
        ],
        "postalCode": "N2G1L7",
        "streetName": "MICHAEL",
        "streetDirectionId": null,
        "streetTypeId": "ST",
        "placeName": "KITCHENER",
        "streetNameDisplayText": "MICHAEL ST, KITCHENER"
      }
    ]
  },
  {
    "postal": "N2G2P9",
    "result": [
      {
        "electoralDistricts": [
          {
            "election": null,
            "id": 47,
            "name": "Kitchener Centre"
          }
        ],
        "pollDivisionIds": [
          10139206
        ],
        "postalCode": "N2G2P9",
        "streetName": "CHARLES",
        "streetDirectionId": "E",
        "streetTypeId": "ST",
        "placeName": "KITCHENER",
        "streetNameDisplayText": "CHARLES ST E, KITCHENER"
      }
    ]
  },
  {
    "postal": "N2G5T4",
    "result": []
  },
  {
    "postal": "N2G5Z1",
    "result": []
  },
  {
    "postal": "N2G2X0",
    "result": []
  },
  {
    "postal": "N2G6Z2",
    "result": []
  },
  {
    "postal": "N2G0E0",
    "result": []
  },
  {
    "postal": "N2G3Z5",
    "result": []
  },
  {
    "postal": "N2G8H3",
    "result": []
  },
  {
    "postal": "N2G7S6",
    "result": []
  },
  {
    "postal": "N2G4C1",
    "result": []
  },
  {
    "postal": "N2G3K2",
    "result": [
      {
        "electoralDistricts": [
          {
            "election": null,
            "id": 47,
            "name": "Kitchener Centre"
          }
        ],
        "pollDivisionIds": [
          10139206
        ],
        "postalCode": "N2G3K2",
        "streetName": "PETER",
        "streetDirectionId": null,
        "streetTypeId": "ST",
        "placeName": "KITCHENER",
        "streetNameDisplayText": "PETER ST, KITCHENER"
      }
    ]
  },
  {
    "postal": "N2G1Y5",
    "result": [
      {
        "electoralDistricts": [
          {
            "election": null,
            "id": 47,
            "name": "Kitchener Centre"
          }
        ],
        "pollDivisionIds": [
          10139197
        ],
        "postalCode": "N2G1Y5",
        "streetName": "DAVID",
        "streetDirectionId": null,
        "streetTypeId": "ST",
        "placeName": "KITCHENER",
        "streetNameDisplayText": "DAVID ST, KITCHENER"
      }
    ]
  },
  {
    "postal": "N2G6P6",
    "result": []
  },
  {
    "postal": "N2G3N9",
    "result": [
      {
        "electoralDistricts": [
          {
            "election": null,
            "id": 47,
            "name": "Kitchener Centre"
          }
        ],
        "pollDivisionIds": [
          10139206
        ],
        "postalCode": "N2G3N9",
        "streetName": "STIRLING",
        "streetDirectionId": "S",
        "streetTypeId": "AVE",
        "placeName": "KITCHENER",
        "streetNameDisplayText": "STIRLING AVE S, KITCHENER"
      }
    ]
  },
  {
    "postal": "N2G3W2",
    "result": [
      {
        "electoralDistricts": [
          {
            "election": null,
            "id": 47,
            "name": "Kitchener Centre"
          }
        ],
        "pollDivisionIds": [
          10139208
        ],
        "postalCode": "N2G3W2",
        "streetName": "SHELDON",
        "streetDirectionId": "S",
        "streetTypeId": "AVE",
        "placeName": "KITCHENER",
        "streetNameDisplayText": "SHELDON AVE S, KITCHENER"
      }
    ]
  },
  {
    "postal": "N2G6H8",
    "result": []
  },
  {
    "postal": "N2G9T3",
    "result": []
  },
  {
    "postal": "N2G5L9",
    "result": []
  },
  {
    "postal": "N2G7X7",
    "result": []
  },
  {
    "postal": "N2G3J5",
    "result": [
      {
        "electoralDistricts": [
          {
            "election": null,
            "id": 47,
            "name": "Kitchener Centre"
          }
        ],
        "pollDivisionIds": [
          10139204
        ],
        "postalCode": "N2G3J5",
        "streetName": "PETER",
        "streetDirectionId": null,
        "streetTypeId": "ST",
        "placeName": "KITCHENER",
        "streetNameDisplayText": "PETER ST, KITCHENER"
      }
    ]
  },
  {
    "postal": "N2G4J5",
    "result": []
  },
  {
    "postal": "N2G6J2",
    "result": []
  },
  {
    "postal": "N2G5V6",
    "result": []
  },
  {
    "postal": "N2G3N2",
    "result": []
  },
  {
    "postal": "N2G3B1",
    "result": [
      {
        "electoralDistricts": [
          {
            "election": null,
            "id": 47,
            "name": "Kitchener Centre"
          }
        ],
        "pollDivisionIds": [
          10139208
        ],
        "postalCode": "N2G3B1",
        "streetName": "ACACIA",
        "streetDirectionId": null,
        "streetTypeId": "ST",
        "placeName": "KITCHENER",
        "streetNameDisplayText": "ACACIA ST, KITCHENER"
      }
    ]
  },
  {
    "postal": "N2G8B5",
    "result": []
  },
  {
    "postal": "N2G0K1",
    "result": []
  },
  {
    "postal": "N2G7M7",
    "result": []
  },
  {
    "postal": "N2G2M2",
    "result": [
      {
        "electoralDistricts": [
          {
            "election": null,
            "id": 47,
            "name": "Kitchener Centre"
          }
        ],
        "pollDivisionIds": [
          10139206
        ],
        "postalCode": "N2G2M2",
        "streetName": "KING",
        "streetDirectionId": "E",
        "streetTypeId": "ST",
        "placeName": "KITCHENER",
        "streetNameDisplayText": "KING ST E, KITCHENER"
      }
    ]
  },
  {
    "postal": "N2G9N3",
    "result": []
  },
  {
    "postal": "N2G4Y8",
    "result": []
  },
  {
    "postal": "N2G3V7",
    "result": [
      {
        "electoralDistricts": [
          {
            "election": null,
            "id": 47,
            "name": "Kitchener Centre"
          }
        ],
        "pollDivisionIds": [
          10139208
        ],
        "postalCode": "N2G3V7",
        "streetName": "SYDNEY",
        "streetDirectionId": "S",
        "streetTypeId": "ST",
        "placeName": "KITCHENER",
        "streetNameDisplayText": "SYDNEY ST S, KITCHENER"
      }
    ]
  },
  {
    "postal": "N2G8Z1",
    "result": []
  },
  {
    "postal": "N2G7B3",
    "result": []
  },
  {
    "postal": "N2G3A8",
    "result": [
      {
        "electoralDistricts": [
          {
            "election": null,
            "id": 47,
            "name": "Kitchener Centre"
          }
        ],
        "pollDivisionIds": [
          10139208
        ],
        "postalCode": "N2G3A8",
        "streetName": "LILAC",
        "streetDirectionId": null,
        "streetTypeId": "ST",
        "placeName": "KITCHENER",
        "streetNameDisplayText": "LILAC ST, KITCHENER"
      }
    ]
  },
  {
    "postal": "N2G7V5",
    "result": []
  },
  {
    "postal": "N2G2T2",
    "result": [
      {
        "electoralDistricts": [
          {
            "election": null,
            "id": 47,
            "name": "Kitchener Centre"
          }
        ],
        "pollDivisionIds": [
          10139204
        ],
        "postalCode": "N2G2T2",
        "streetName": "ST GEORGE",
        "streetDirectionId": null,
        "streetTypeId": "ST",
        "placeName": "KITCHENER",
        "streetNameDisplayText": "ST GEORGE ST, KITCHENER"
      }
    ]
  },
  {
    "postal": "N2G6L3",
    "result": []
  },
  {
    "postal": "N2G0L2",
    "result": []
  },
  {
    "postal": "N2G5Y8",
    "result": []
  },
  {
    "postal": "N2G0B8",
    "result": [
      {
        "electoralDistricts": [
          {
            "election": null,
            "id": 47,
            "name": "Kitchener Centre"
          }
        ],
        "pollDivisionIds": [
          10139206
        ],
        "postalCode": "N2G0B8",
        "streetName": "COURTLAND",
        "streetDirectionId": "E",
        "streetTypeId": "AVE",
        "placeName": "KITCHENER",
        "streetNameDisplayText": "COURTLAND AVE E, KITCHENER"
      }
    ]
  },
  {
    "postal": "N2G6R5",
    "result": []
  },
  {
    "postal": "N2G8W6",
    "result": []
  },
  {
    "postal": "N2G8G6",
    "result": []
  },
  {
    "postal": "N2G6X3",
    "result": []
  },
  {
    "postal": "N2G7R7",
    "result": []
  },
  {
    "postal": "N2G4B6",
    "result": []
  },
  {
    "postal": "N2G3P9",
    "result": []
  },
  {
    "postal": "N2G2T3",
    "result": [
      {
        "electoralDistricts": [
          {
            "election": null,
            "id": 47,
            "name": "Kitchener Centre"
          }
        ],
        "pollDivisionIds": [
          10139204
        ],
        "postalCode": "N2G2T3",
        "streetName": "ST GEORGE",
        "streetDirectionId": null,
        "streetTypeId": "ST",
        "placeName": "KITCHENER",
        "streetNameDisplayText": "ST GEORGE ST, KITCHENER"
      }
    ]
  },
  {
    "postal": "N2G1M4",
    "result": [
      {
        "electoralDistricts": [
          {
            "election": null,
            "id": 47,
            "name": "Kitchener Centre"
          }
        ],
        "pollDivisionIds": [
          10139197,
          10139193
        ],
        "postalCode": "N2G1M4",
        "streetName": "PARK",
        "streetDirectionId": null,
        "streetTypeId": "ST",
        "placeName": "KITCHENER",
        "streetNameDisplayText": "PARK ST, KITCHENER"
      }
    ]
  },
  {
    "postal": "N2G0H1",
    "result": []
  },
  {
    "postal": "N2G9W3",
    "result": []
  },
  {
    "postal": "N2G6P1",
    "result": []
  },
  {
    "postal": "N2G7G2",
    "result": []
  },
  {
    "postal": "N2G4J9",
    "result": []
  },
  {
    "postal": "N2G9E4",
    "result": []
  },
  {
    "postal": "N2G8H0",
    "result": []
  },
  {
    "postal": "N2G4M7",
    "result": [
      {
        "electoralDistricts": [
          {
            "election": null,
            "id": 47,
            "name": "Kitchener Centre"
          }
        ],
        "pollDivisionIds": [
          10139201
        ],
        "postalCode": "N2G4M7",
        "streetName": "QUEEN",
        "streetDirectionId": "S",
        "streetTypeId": "ST",
        "placeName": "KITCHENER",
        "streetNameDisplayText": "QUEEN ST S, KITCHENER"
      }
    ]
  },
  {
    "postal": "N2G2G9",
    "result": [
      {
        "electoralDistricts": [
          {
            "election": null,
            "id": 47,
            "name": "Kitchener Centre"
          }
        ],
        "pollDivisionIds": [
          10139193
        ],
        "postalCode": "N2G2G9",
        "streetName": "GLASGOW",
        "streetDirectionId": null,
        "streetTypeId": "ST",
        "placeName": "KITCHENER",
        "streetNameDisplayText": "GLASGOW ST, KITCHENER"
      }
    ]
  },
  {
    "postal": "N2G8T2",
    "result": []
  },
  {
    "postal": "N2G7G7",
    "result": []
  },
  {
    "postal": "N2G4Z3",
    "result": []
  },
  {
    "postal": "N2G5B3",
    "result": []
  },
  {
    "postal": "N2G1S7",
    "result": []
  },
  {
    "postal": "N2G2N7",
    "result": [
      {
        "electoralDistricts": [
          {
            "election": null,
            "id": 47,
            "name": "Kitchener Centre"
          }
        ],
        "pollDivisionIds": [
          10139209
        ],
        "postalCode": "N2G2N7",
        "streetName": "KING",
        "streetDirectionId": "E",
        "streetTypeId": "ST",
        "placeName": "KITCHENER",
        "streetNameDisplayText": "KING ST E, KITCHENER"
      }
    ]
  },
  {
    "postal": "N2G0H8",
    "result": []
  },
  {
    "postal": "N2G7Z4",
    "result": []
  },
  {
    "postal": "N2G7B1",
    "result": []
  },
  {
    "postal": "N2G7P8",
    "result": []
  },
  {
    "postal": "N2G7N0",
    "result": []
  },
  {
    "postal": "N2G3Y5",
    "result": []
  },
  {
    "postal": "N2G6K1",
    "result": []
  },
  {
    "postal": "N2G9X5",
    "result": []
  },
  {
    "postal": "N2G7S5",
    "result": []
  },
  {
    "postal": "N2G0A4",
    "result": []
  },
  {
    "postal": "N2G4T5",
    "result": []
  },
  {
    "postal": "N2G5K1",
    "result": []
  },
  {
    "postal": "N2G0Z9",
    "result": []
  },
  {
    "postal": "N2G7T2",
    "result": []
  },
  {
    "postal": "N2G1L5",
    "result": [
      {
        "electoralDistricts": [
          {
            "election": null,
            "id": 47,
            "name": "Kitchener Centre"
          }
        ],
        "pollDivisionIds": [
          10139197
        ],
        "postalCode": "N2G1L5",
        "streetName": "ARTHUR",
        "streetDirectionId": null,
        "streetTypeId": "PL",
        "placeName": "KITCHENER",
        "streetNameDisplayText": "ARTHUR PL, KITCHENER"
      }
    ]
  },
  {
    "postal": "N2G3N5",
    "result": [
      {
        "electoralDistricts": [
          {
            "election": null,
            "id": 47,
            "name": "Kitchener Centre"
          }
        ],
        "pollDivisionIds": [
          10139206
        ],
        "postalCode": "N2G3N5",
        "streetName": "PANDORA",
        "streetDirectionId": "S",
        "streetTypeId": "AVE",
        "placeName": "KITCHENER",
        "streetNameDisplayText": "PANDORA AVE S, KITCHENER"
      }
    ]
  },
  {
    "postal": "N2G6H4",
    "result": []
  },
  {
    "postal": "N2G5A5",
    "result": []
  },
  {
    "postal": "N2G3R9",
    "result": []
  },
  {
    "postal": "N2G7L8",
    "result": []
  },
  {
    "postal": "N2G6T6",
    "result": []
  },
  {
    "postal": "N2G7Y7",
    "result": []
  },
  {
    "postal": "N2G3M8",
    "result": [
      {
        "electoralDistricts": [
          {
            "election": null,
            "id": 47,
            "name": "Kitchener Centre"
          }
        ],
        "pollDivisionIds": [
          10139206
        ],
        "postalCode": "N2G3M8",
        "streetName": "MADISON",
        "streetDirectionId": "S",
        "streetTypeId": "AVE",
        "placeName": "KITCHENER",
        "streetNameDisplayText": "MADISON AVE S, KITCHENER"
      }
    ]
  },
  {
    "postal": "N2G2E0",
    "result": []
  },
  {
    "postal": "N2G4B5",
    "result": []
  },
  {
    "postal": "N2G1J3",
    "result": [
      {
        "electoralDistricts": [
          {
            "election": null,
            "id": 47,
            "name": "Kitchener Centre"
          }
        ],
        "pollDivisionIds": [
          10139197
        ],
        "postalCode": "N2G1J3",
        "streetName": "JOSEPH",
        "streetDirectionId": null,
        "streetTypeId": "ST",
        "placeName": "KITCHENER",
        "streetNameDisplayText": "JOSEPH ST, KITCHENER"
      }
    ]
  },
  {
    "postal": "N2G5S6",
    "result": []
  },
  {
    "postal": "N2G8P7",
    "result": []
  },
  {
    "postal": "N2G7S7",
    "result": []
  },
  {
    "postal": "N2G4C2",
    "result": []
  },
  {
    "postal": "N2G5Y0",
    "result": []
  },
  {
    "postal": "N2G2V7",
    "result": [
      {
        "electoralDistricts": [
          {
            "election": null,
            "id": 47,
            "name": "Kitchener Centre"
          }
        ],
        "pollDivisionIds": [
          10139206
        ],
        "postalCode": "N2G2V7",
        "streetName": "COURTLAND",
        "streetDirectionId": "E",
        "streetTypeId": "AVE",
        "placeName": "KITCHENER",
        "streetNameDisplayText": "COURTLAND AVE E, KITCHENER"
      }
    ]
  },
  {
    "postal": "N2G8P5",
    "result": []
  },
  {
    "postal": "N2G5P5",
    "result": []
  },
  {
    "postal": "N2G5Z0",
    "result": []
  },
  {
    "postal": "N2G9B0",
    "result": []
  },
  {
    "postal": "N2G1L0",
    "result": []
  },
  {
    "postal": "N2G0B5",
    "result": [
      {
        "electoralDistricts": [
          {
            "election": null,
            "id": 48,
            "name": "KitchenerConestoga"
          }
        ],
        "pollDivisionIds": [
          10139254
        ],
        "postalCode": "N2G0B5",
        "streetName": "VCTORIA",
        "streetDirectionId": "S",
        "streetTypeId": "ST",
        "placeName": "KITCHENER",
        "streetNameDisplayText": "VCTORIA ST S, KITCHENER"
      },
      {
        "electoralDistricts": [
          {
            "election": null,
            "id": 47,
            "name": "Kitchener Centre"
          }
        ],
        "pollDivisionIds": [
          10139227
        ],
        "postalCode": "N2G0B5",
        "streetName": "VICTORIA",
        "streetDirectionId": "NW",
        "streetTypeId": "ST",
        "placeName": "KITCHENER",
        "streetNameDisplayText": "VICTORIA ST NW, KITCHENER"
      },
      {
        "electoralDistricts": [
          {
            "election": null,
            "id": 47,
            "name": "Kitchener Centre"
          }
        ],
        "pollDivisionIds": [
          10139227,
          10139185
        ],
        "postalCode": "N2G0B5",
        "streetName": "VICTORIA",
        "streetDirectionId": "S",
        "streetTypeId": "ST",
        "placeName": "KITCHENER",
        "streetNameDisplayText": "VICTORIA ST S, KITCHENER"
      }
    ]
  },
  {
    "postal": "N2G3L2",
    "result": [
      {
        "electoralDistricts": [
          {
            "election": null,
            "id": 47,
            "name": "Kitchener Centre"
          }
        ],
        "pollDivisionIds": [
          10139204
        ],
        "postalCode": "N2G3L2",
        "streetName": "CEDAR",
        "streetDirectionId": "S",
        "streetTypeId": "ST",
        "placeName": "KITCHENER",
        "streetNameDisplayText": "CEDAR ST S, KITCHENER"
      }
    ]
  },
  {
    "postal": "N2G3B7",
    "result": [
      {
        "electoralDistricts": [
          {
            "election": null,
            "id": 47,
            "name": "Kitchener Centre"
          }
        ],
        "pollDivisionIds": [
          10139208
        ],
        "postalCode": "N2G3B7",
        "streetName": "ROCKWAY",
        "streetDirectionId": null,
        "streetTypeId": "DR",
        "placeName": "KITCHENER",
        "streetNameDisplayText": "ROCKWAY DR, KITCHENER"
      }
    ]
  },
  {
    "postal": "N2G8L1",
    "result": []
  },
  {
    "postal": "N2G5M4",
    "result": []
  },
  {
    "postal": "N2G4G9",
    "result": []
  },
  {
    "postal": "N2G0P0",
    "result": []
  },
  {
    "postal": "N2G8G2",
    "result": []
  },
  {
    "postal": "N2G1V9",
    "result": [
      {
        "electoralDistricts": [
          {
            "election": null,
            "id": 47,
            "name": "Kitchener Centre"
          }
        ],
        "pollDivisionIds": [
          10139197,
          10139201
        ],
        "postalCode": "N2G1V9",
        "streetName": "QUEEN",
        "streetDirectionId": "S",
        "streetTypeId": "ST",
        "placeName": "KITCHENER",
        "streetNameDisplayText": "QUEEN ST S, KITCHENER"
      }
    ]
  },
  {
    "postal": "N2G8N8",
    "result": []
  },
  {
    "postal": "N2G6S8",
    "result": []
  },
  {
    "postal": "N2G8H2",
    "result": []
  },
  {
    "postal": "N2G5R8",
    "result": []
  },
  {
    "postal": "N2G5L4",
    "result": []
  },
  {
    "postal": "N2G9E1",
    "result": []
  },
  {
    "postal": "N2G1C4",
    "result": [
      {
        "electoralDistricts": [
          {
            "election": null,
            "id": 47,
            "name": "Kitchener Centre"
          }
        ],
        "pollDivisionIds": [
          10139203
        ],
        "postalCode": "N2G1C4",
        "streetName": "KING",
        "streetDirectionId": "W",
        "streetTypeId": "ST",
        "placeName": "KITCHENER",
        "streetNameDisplayText": "KING ST W, KITCHENER"
      }
    ]
  },
  {
    "postal": "N2G8W5",
    "result": []
  },
  {
    "postal": "N2G1Y4",
    "result": [
      {
        "electoralDistricts": [
          {
            "election": null,
            "id": 47,
            "name": "Kitchener Centre"
          }
        ],
        "pollDivisionIds": [
          10139197
        ],
        "postalCode": "N2G1Y4",
        "streetName": "DAVID",
        "streetDirectionId": null,
        "streetTypeId": "ST",
        "placeName": "KITCHENER",
        "streetNameDisplayText": "DAVID ST, KITCHENER"
      }
    ]
  },
  {
    "postal": "N2G1C0",
    "result": []
  },
  {
    "postal": "N2G2J2",
    "result": []
  },
  {
    "postal": "N2G2J0",
    "result": []
  },
  {
    "postal": "N2G7A3",
    "result": []
  },
  {
    "postal": "N2G8M1",
    "result": []
  },
  {
    "postal": "N2G7T9",
    "result": []
  },
  {
    "postal": "N2G6C0",
    "result": []
  },
  {
    "postal": "N2G7X1",
    "result": []
  },
  {
    "postal": "N2G0G1",
    "result": []
  },
  {
    "postal": "N2G4X2",
    "result": []
  },
  {
    "postal": "N2G0N6",
    "result": []
  },
  {
    "postal": "N2G8E3",
    "result": []
  },
  {
    "postal": "N2G5S8",
    "result": []
  },
  {
    "postal": "N2G0R0",
    "result": []
  },
  {
    "postal": "N2G6J6",
    "result": []
  },
  {
    "postal": "N2G4B4",
    "result": []
  },
  {
    "postal": "N2G7E3",
    "result": []
  },
  {
    "postal": "N2G3N6",
    "result": [
      {
        "electoralDistricts": [
          {
            "election": null,
            "id": 47,
            "name": "Kitchener Centre"
          }
        ],
        "pollDivisionIds": [
          10139209
        ],
        "postalCode": "N2G3N6",
        "streetName": "STIRLING",
        "streetDirectionId": "N",
        "streetTypeId": "AVE",
        "placeName": "KITCHENER",
        "streetNameDisplayText": "STIRLING AVE N, KITCHENER"
      },
      {
        "electoralDistricts": [
          {
            "election": null,
            "id": 47,
            "name": "Kitchener Centre"
          }
        ],
        "pollDivisionIds": [
          10139208
        ],
        "postalCode": "N2G3N6",
        "streetName": "STIRLING",
        "streetDirectionId": "S",
        "streetTypeId": "AVE",
        "placeName": "KITCHENER",
        "streetNameDisplayText": "STIRLING AVE S, KITCHENER"
      },
      {
        "electoralDistricts": [
          {
            "election": null,
            "id": 47,
            "name": "Kitchener Centre"
          }
        ],
        "pollDivisionIds": [
          10139208
        ],
        "postalCode": "N2G3N6",
        "streetName": "STIRLING AVENUE S",
        "streetDirectionId": "S",
        "streetTypeId": "AVE",
        "placeName": "KITCHENER",
        "streetNameDisplayText": "STIRLING AVENUE S AVE S, KITCHENER"
      }
    ]
  },
  {
    "postal": "N2G3X6",
    "result": []
  },
  {
    "postal": "N2G8L0",
    "result": []
  },
  {
    "postal": "N2G8N1",
    "result": []
  },
  {
    "postal": "N2G4J0",
    "result": []
  },
  {
    "postal": "N2G0X7",
    "result": []
  },
  {
    "postal": "N2G6S4",
    "result": []
  },
  {
    "postal": "N2G0Z0",
    "result": []
  },
  {
    "postal": "N2G9X8",
    "result": []
  },
  {
    "postal": "N2G3H3",
    "result": [
      {
        "electoralDistricts": [
          {
            "election": null,
            "id": 47,
            "name": "Kitchener Centre"
          }
        ],
        "pollDivisionIds": [
          10139202
        ],
        "postalCode": "N2G3H3",
        "streetName": "BENTON",
        "streetDirectionId": null,
        "streetTypeId": "ST",
        "placeName": "KITCHENER",
        "streetNameDisplayText": "BENTON ST, KITCHENER"
      }
    ]
  },
  {
    "postal": "N2G7S2",
    "result": []
  },
  {
    "postal": "N2G3T3",
    "result": [
      {
        "electoralDistricts": [
          {
            "election": null,
            "id": 47,
            "name": "Kitchener Centre"
          }
        ],
        "pollDivisionIds": [
          10139208
        ],
        "postalCode": "N2G3T3",
        "streetName": "OTTAWA",
        "streetDirectionId": "S",
        "streetTypeId": "ST",
        "placeName": "KITCHENER",
        "streetNameDisplayText": "OTTAWA ST S, KITCHENER"
      }
    ]
  },
  {
    "postal": "N2G9P3",
    "result": []
  },
  {
    "postal": "N2G4H8",
    "result": []
  },
  {
    "postal": "N2G6R1",
    "result": []
  },
  {
    "postal": "N2G1S0",
    "result": []
  },
  {
    "postal": "N2G3W8",
    "result": []
  },
  {
    "postal": "N2G4S3",
    "result": []
  },
  {
    "postal": "N2G1B6",
    "result": [
      {
        "electoralDistricts": [
          {
            "election": null,
            "id": 47,
            "name": "Kitchener Centre"
          }
        ],
        "pollDivisionIds": [
          10139204
        ],
        "postalCode": "N2G1B6",
        "streetName": "KING",
        "streetDirectionId": "E",
        "streetTypeId": "ST",
        "placeName": "KITCHENER",
        "streetNameDisplayText": "KING ST E, KITCHENER"
      },
      {
        "electoralDistricts": [
          {
            "election": null,
            "id": 47,
            "name": "Kitchener Centre"
          }
        ],
        "pollDivisionIds": [
          10139203
        ],
        "postalCode": "N2G1B6",
        "streetName": "KING",
        "streetDirectionId": "W",
        "streetTypeId": "ST",
        "placeName": "KITCHENER",
        "streetNameDisplayText": "KING ST W, KITCHENER"
      }
    ]
  },
  {
    "postal": "N2G8R3",
    "result": []
  },
  {
    "postal": "N2G4V9",
    "result": [
      {
        "electoralDistricts": [
          {
            "election": null,
            "id": 47,
            "name": "Kitchener Centre"
          }
        ],
        "pollDivisionIds": [
          10139191,
          10139194
        ],
        "postalCode": "N2G4V9",
        "streetName": "VICTORIA",
        "streetDirectionId": "S",
        "streetTypeId": "ST",
        "placeName": "KITCHENER",
        "streetNameDisplayText": "VICTORIA ST S, KITCHENER"
      }
    ]
  },
  {
    "postal": "N2G9W4",
    "result": []
  },
  {
    "postal": "N2G3T4",
    "result": [
      {
        "electoralDistricts": [
          {
            "election": null,
            "id": 47,
            "name": "Kitchener Centre"
          }
        ],
        "pollDivisionIds": [
          10139208
        ],
        "postalCode": "N2G3T4",
        "streetName": "OTTAWA",
        "streetDirectionId": "S",
        "streetTypeId": "ST",
        "placeName": "KITCHENER",
        "streetNameDisplayText": "OTTAWA ST S, KITCHENER"
      }
    ]
  },
  {
    "postal": "N2G5C7",
    "result": []
  },
  {
    "postal": "N2G3Y1",
    "result": []
  },
  {
    "postal": "N2G5V0",
    "result": []
  },
  {
    "postal": "N2G8G8",
    "result": []
  },
  {
    "postal": "N2G8B1",
    "result": []
  },
  {
    "postal": "N2G4P5",
    "result": []
  },
  {
    "postal": "N2G7B2",
    "result": []
  },
  {
    "postal": "N2G0R2",
    "result": []
  },
  {
    "postal": "N2G4M4",
    "result": []
  },
  {
    "postal": "N2G7M4",
    "result": []
  },
  {
    "postal": "N2G9S7",
    "result": []
  },
  {
    "postal": "N2G5Z7",
    "result": []
  },
  {
    "postal": "N2G7J7",
    "result": []
  },
  {
    "postal": "N2G8R8",
    "result": []
  },
  {
    "postal": "N2G9X1",
    "result": []
  },
  {
    "postal": "N2G5M9",
    "result": []
  },
  {
    "postal": "N2G9B4",
    "result": []
  },
  {
    "postal": "N2G0L9",
    "result": []
  },
  {
    "postal": "N2G9G4",
    "result": []
  },
  {
    "postal": "N2G1J4",
    "result": [
      {
        "electoralDistricts": [
          {
            "election": null,
            "id": 47,
            "name": "Kitchener Centre"
          }
        ],
        "pollDivisionIds": [
          10139197
        ],
        "postalCode": "N2G1J4",
        "streetName": "JOSEPH",
        "streetDirectionId": null,
        "streetTypeId": "ST",
        "placeName": "KITCHENER",
        "streetNameDisplayText": "JOSEPH ST, KITCHENER"
      }
    ]
  },
  {
    "postal": "N2G0W6",
    "result": []
  }
]
