[
  {
    "postal": "P3B9J6",
    "result": []
  },
  {
    "postal": "P3B9Z5",
    "result": []
  },
  {
    "postal": "P3B7H8",
    "result": []
  },
  {
    "postal": "P3B0P6",
    "result": []
  },
  {
    "postal": "P3B0S7",
    "result": []
  },
  {
    "postal": "P3B8B9",
    "result": []
  },
  {
    "postal": "P3B2A6",
    "result": [
      {
        "electoralDistricts": [
          {
            "election": null,
            "id": 103,
            "name": "Sudbury"
          }
        ],
        "pollDivisionIds": [
          10142163
        ],
        "postalCode": "P3B2A6",
        "streetName": "ELDERWOOD",
        "streetDirectionId": null,
        "streetTypeId": "DR",
        "placeName": "SUDBURY",
        "streetNameDisplayText": "ELDERWOOD DR, SUDBURY"
      }
    ]
  },
  {
    "postal": "P3B7V2",
    "result": []
  },
  {
    "postal": "P3B9P4",
    "result": []
  },
  {
    "postal": "P3B6G0",
    "result": []
  },
  {
    "postal": "P3B2K0",
    "result": []
  },
  {
    "postal": "P3B7N6",
    "result": []
  },
  {
    "postal": "P3B5R3",
    "result": []
  },
  {
    "postal": "P3B7K0",
    "result": []
  },
  {
    "postal": "P3B3R2",
    "result": [
      {
        "electoralDistricts": [
          {
            "election": null,
            "id": 103,
            "name": "Sudbury"
          }
        ],
        "pollDivisionIds": [
          10142163
        ],
        "postalCode": "P3B3R2",
        "streetName": "VICTOR",
        "streetDirectionId": null,
        "streetTypeId": "ST",
        "placeName": "SUDBURY",
        "streetNameDisplayText": "VICTOR ST, SUDBURY"
      }
    ]
  },
  {
    "postal": "P3B0J1",
    "result": []
  },
  {
    "postal": "P3B0B0",
    "result": []
  },
  {
    "postal": "P3B5Z2",
    "result": []
  },
  {
    "postal": "P3B7P3",
    "result": []
  },
  {
    "postal": "P3B2K3",
    "result": [
      {
        "electoralDistricts": [
          {
            "election": null,
            "id": 103,
            "name": "Sudbury"
          }
        ],
        "pollDivisionIds": [
          10142135
        ],
        "postalCode": "P3B2K3",
        "streetName": "QUEEN",
        "streetDirectionId": null,
        "streetTypeId": "ST",
        "placeName": "SUDBURY",
        "streetNameDisplayText": "QUEEN ST, SUDBURY"
      }
    ]
  },
  {
    "postal": "P3B7Y6",
    "result": []
  },
  {
    "postal": "P3B1L9",
    "result": [
      {
        "electoralDistricts": [
          {
            "election": null,
            "id": 103,
            "name": "Sudbury"
          }
        ],
        "pollDivisionIds": [
          10142163
        ],
        "postalCode": "P3B1L9",
        "streetName": "RITA",
        "streetDirectionId": null,
        "streetTypeId": "ST",
        "placeName": "SUDBURY",
        "streetNameDisplayText": "RITA ST, SUDBURY"
      }
    ]
  },
  {
    "postal": "P3B8T0",
    "result": []
  },
  {
    "postal": "P3B3K8",
    "result": [
      {
        "electoralDistricts": [
          {
            "election": null,
            "id": 103,
            "name": "Sudbury"
          }
        ],
        "pollDivisionIds": [
          10142163
        ],
        "postalCode": "P3B3K8",
        "streetName": "MANOR",
        "streetDirectionId": null,
        "streetTypeId": "RD",
        "placeName": "SUDBURY",
        "streetNameDisplayText": "MANOR RD, SUDBURY"
      }
    ]
  },
  {
    "postal": "P3B5W9",
    "result": []
  },
  {
    "postal": "P3B6T9",
    "result": []
  },
  {
    "postal": "P3B4H1",
    "result": [
      {
        "electoralDistricts": [
          {
            "election": null,
            "id": 103,
            "name": "Sudbury"
          }
        ],
        "pollDivisionIds": [
          10142164
        ],
        "postalCode": "P3B4H1",
        "streetName": "BAYCREST",
        "streetDirectionId": null,
        "streetTypeId": "RD",
        "placeName": "SUDBURY",
        "streetNameDisplayText": "BAYCREST RD, SUDBURY"
      }
    ]
  },
  {
    "postal": "P3B7A2",
    "result": []
  },
  {
    "postal": "P3B5G0",
    "result": []
  },
  {
    "postal": "P3B8V5",
    "result": []
  },
  {
    "postal": "P3B2Y8",
    "result": [
      {
        "electoralDistricts": [
          {
            "election": null,
            "id": 103,
            "name": "Sudbury"
          }
        ],
        "pollDivisionIds": [
          10142150
        ],
        "postalCode": "P3B2Y8",
        "streetName": "KITCHENER",
        "streetDirectionId": null,
        "streetTypeId": "AVE",
        "placeName": "SUDBURY",
        "streetNameDisplayText": "KITCHENER AVE, SUDBURY"
      }
    ]
  },
  {
    "postal": "P3B2B6",
    "result": [
      {
        "electoralDistricts": [
          {
            "election": null,
            "id": 103,
            "name": "Sudbury"
          }
        ],
        "pollDivisionIds": [
          10142167
        ],
        "postalCode": "P3B2B6",
        "streetName": "PARKDALE",
        "streetDirectionId": null,
        "streetTypeId": "AVE",
        "placeName": "SUDBURY",
        "streetNameDisplayText": "PARKDALE AVE, SUDBURY"
      }
    ]
  },
  {
    "postal": "P3B4W8",
    "result": []
  },
  {
    "postal": "P3B8H7",
    "result": []
  },
  {
    "postal": "P3B5P1",
    "result": []
  },
  {
    "postal": "P3B2B8",
    "result": [
      {
        "electoralDistricts": [
          {
            "election": null,
            "id": 103,
            "name": "Sudbury"
          }
        ],
        "pollDivisionIds": [
          10142167
        ],
        "postalCode": "P3B2B8",
        "streetName": "PARKDALE",
        "streetDirectionId": null,
        "streetTypeId": "AVE",
        "placeName": "SUDBURY",
        "streetNameDisplayText": "PARKDALE AVE, SUDBURY"
      }
    ]
  },
  {
    "postal": "P3B0P2",
    "result": []
  },
  {
    "postal": "P3B9M1",
    "result": []
  },
  {
    "postal": "P3B3G0",
    "result": []
  },
  {
    "postal": "P3B9Z2",
    "result": []
  },
  {
    "postal": "P3B2A0",
    "result": []
  },
  {
    "postal": "P3B6Y0",
    "result": []
  },
  {
    "postal": "P3B2Z8",
    "result": [
      {
        "electoralDistricts": [
          {
            "election": null,
            "id": 103,
            "name": "Sudbury"
          }
        ],
        "pollDivisionIds": [
          10142168
        ],
        "postalCode": "P3B2Z8",
        "streetName": "JEANNE D'ARC",
        "streetDirectionId": null,
        "streetTypeId": "AVE",
        "placeName": "SUDBURY",
        "streetNameDisplayText": "JEANNE D'ARC AVE, SUDBURY"
      }
    ]
  },
  {
    "postal": "P3B7Y3",
    "result": []
  },
  {
    "postal": "P3B6Z5",
    "result": []
  },
  {
    "postal": "P3B6E0",
    "result": []
  },
  {
    "postal": "P3B9B7",
    "result": []
  },
  {
    "postal": "P3B9S5",
    "result": []
  },
  {
    "postal": "P3B3X3",
    "result": [
      {
        "electoralDistricts": [
          {
            "election": null,
            "id": 103,
            "name": "Sudbury"
          }
        ],
        "pollDivisionIds": [
          10142170
        ],
        "postalCode": "P3B3X3",
        "streetName": "LLOYD",
        "streetDirectionId": null,
        "streetTypeId": "ST",
        "placeName": "SUDBURY",
        "streetNameDisplayText": "LLOYD ST, SUDBURY"
      }
    ]
  },
  {
    "postal": "P3B7R5",
    "result": []
  },
  {
    "postal": "P3B2X3",
    "result": []
  },
  {
    "postal": "P3B8Z9",
    "result": []
  },
  {
    "postal": "P3B0N4",
    "result": []
  },
  {
    "postal": "P3B1K1",
    "result": [
      {
        "electoralDistricts": [
          {
            "election": null,
            "id": 103,
            "name": "Sudbury"
          }
        ],
        "pollDivisionIds": [
          10142166
        ],
        "postalCode": "P3B1K1",
        "streetName": "LONSDALE",
        "streetDirectionId": null,
        "streetTypeId": "AVE",
        "placeName": "SUDBURY",
        "streetNameDisplayText": "LONSDALE AVE, SUDBURY"
      }
    ]
  },
  {
    "postal": "P3B1S3",
    "result": [
      {
        "electoralDistricts": [
          {
            "election": null,
            "id": 103,
            "name": "Sudbury"
          }
        ],
        "pollDivisionIds": [
          10142163
        ],
        "postalCode": "P3B1S3",
        "streetName": "BANCROFT",
        "streetDirectionId": null,
        "streetTypeId": "DR",
        "placeName": "SUDBURY",
        "streetNameDisplayText": "BANCROFT DR, SUDBURY"
      }
    ]
  },
  {
    "postal": "P3B6M4",
    "result": []
  },
  {
    "postal": "P3B9A9",
    "result": []
  },
  {
    "postal": "P3B9Z9",
    "result": []
  },
  {
    "postal": "P3B6T4",
    "result": []
  },
  {
    "postal": "P3B0B2",
    "result": [
      {
        "electoralDistricts": [
          {
            "election": null,
            "id": 103,
            "name": "Sudbury"
          }
        ],
        "pollDivisionIds": [
          10142164
        ],
        "postalCode": "P3B0B2",
        "streetName": "BAYRIDGE",
        "streetDirectionId": null,
        "streetTypeId": "CRT",
        "placeName": "SUDBURY",
        "streetNameDisplayText": "BAYRIDGE CRT, SUDBURY"
      }
    ]
  },
  {
    "postal": "P3B2L9",
    "result": [
      {
        "electoralDistricts": [
          {
            "election": null,
            "id": 103,
            "name": "Sudbury"
          }
        ],
        "pollDivisionIds": [
          10142135
        ],
        "postalCode": "P3B2L9",
        "streetName": "ST GEORGE",
        "streetDirectionId": null,
        "streetTypeId": "ST",
        "placeName": "SUDBURY",
        "streetNameDisplayText": "ST GEORGE ST, SUDBURY"
      }
    ]
  },
  {
    "postal": "P3B8K9",
    "result": []
  },
  {
    "postal": "P3B2H9",
    "result": [
      {
        "electoralDistricts": [
          {
            "election": null,
            "id": 103,
            "name": "Sudbury"
          }
        ],
        "pollDivisionIds": [
          10142135
        ],
        "postalCode": "P3B2H9",
        "streetName": "HARVEY",
        "streetDirectionId": null,
        "streetTypeId": "ST",
        "placeName": "SUDBURY",
        "streetNameDisplayText": "HARVEY ST, SUDBURY"
      }
    ]
  },
  {
    "postal": "P3B3Z6",
    "result": []
  },
  {
    "postal": "P3B3B0",
    "result": []
  },
  {
    "postal": "P3B2H8",
    "result": [
      {
        "electoralDistricts": [
          {
            "election": null,
            "id": 103,
            "name": "Sudbury"
          }
        ],
        "pollDivisionIds": [
          10142135
        ],
        "postalCode": "P3B2H8",
        "streetName": "MONT ADAM",
        "streetDirectionId": null,
        "streetTypeId": "ST",
        "placeName": "SUDBURY",
        "streetNameDisplayText": "MONT ADAM ST, SUDBURY"
      }
    ]
  },
  {
    "postal": "P3B3X2",
    "result": []
  },
  {
    "postal": "P3B2E9",
    "result": [
      {
        "electoralDistricts": [
          {
            "election": null,
            "id": 103,
            "name": "Sudbury"
          }
        ],
        "pollDivisionIds": [
          10142167
        ],
        "postalCode": "P3B2E9",
        "streetName": "KINGSWAY",
        "streetDirectionId": null,
        "streetTypeId": null,
        "placeName": "SUDBURY",
        "streetNameDisplayText": "KINGSWAY, SUDBURY"
      }
    ]
  },
  {
    "postal": "P3B9P6",
    "result": []
  },
  {
    "postal": "P3B9E2",
    "result": []
  },
  {
    "postal": "P3B9H2",
    "result": []
  },
  {
    "postal": "P3B1S8",
    "result": []
  },
  {
    "postal": "P3B3M6",
    "result": [
      {
        "electoralDistricts": [
          {
            "election": null,
            "id": 103,
            "name": "Sudbury"
          }
        ],
        "pollDivisionIds": [
          10142163
        ],
        "postalCode": "P3B3M6",
        "streetName": "CAMELOT",
        "streetDirectionId": null,
        "streetTypeId": "DR",
        "placeName": "SUDBURY",
        "streetNameDisplayText": "CAMELOT DR, SUDBURY"
      }
    ]
  },
  {
    "postal": "P3B6Z8",
    "result": []
  },
  {
    "postal": "P3B4J2",
    "result": [
      {
        "electoralDistricts": [
          {
            "election": null,
            "id": 103,
            "name": "Sudbury"
          }
        ],
        "pollDivisionIds": [
          10142166
        ],
        "postalCode": "P3B4J2",
        "streetName": "LENOX",
        "streetDirectionId": null,
        "streetTypeId": "AVE",
        "placeName": "SUDBURY ONTARIO",
        "streetNameDisplayText": "LENOX AVE, SUDBURY ONTARIO"
      },
      {
        "electoralDistricts": [
          {
            "election": null,
            "id": 103,
            "name": "Sudbury"
          }
        ],
        "pollDivisionIds": [
          10142163
        ],
        "postalCode": "P3B4J2",
        "streetName": "SECOND",
        "streetDirectionId": "S",
        "streetTypeId": "AVE",
        "placeName": "SUDBURY",
        "streetNameDisplayText": "SECOND AVE S, SUDBURY"
      }
    ]
  },
  {
    "postal": "P3B9Y1",
    "result": []
  },
  {
    "postal": "P3B8V6",
    "result": []
  },
  {
    "postal": "P3B6B2",
    "result": []
  },
  {
    "postal": "P3B1P8",
    "result": [
      {
        "electoralDistricts": [
          {
            "election": null,
            "id": 103,
            "name": "Sudbury"
          }
        ],
        "pollDivisionIds": [
          10142167
        ],
        "postalCode": "P3B1P8",
        "streetName": "BANCROFT",
        "streetDirectionId": null,
        "streetTypeId": "DR",
        "placeName": "SUDBURY",
        "streetNameDisplayText": "BANCROFT DR, SUDBURY"
      }
    ]
  },
  {
    "postal": "P3B0V8",
    "result": []
  },
  {
    "postal": "P3B4Y0",
    "result": []
  },
  {
    "postal": "P3B2T4",
    "result": [
      {
        "electoralDistricts": [
          {
            "election": null,
            "id": 103,
            "name": "Sudbury"
          }
        ],
        "pollDivisionIds": [
          10142135
        ],
        "postalCode": "P3B2T4",
        "streetName": "LESLIE",
        "streetDirectionId": null,
        "streetTypeId": "ST",
        "placeName": "SUDBURY",
        "streetNameDisplayText": "LESLIE ST, SUDBURY"
      }
    ]
  },
  {
    "postal": "P3B2S3",
    "result": [
      {
        "electoralDistricts": [
          {
            "election": null,
            "id": 103,
            "name": "Sudbury"
          }
        ],
        "pollDivisionIds": [
          10142135
        ],
        "postalCode": "P3B2S3",
        "streetName": "CLINTON",
        "streetDirectionId": null,
        "streetTypeId": "AVE",
        "placeName": "SUDBURY",
        "streetNameDisplayText": "CLINTON AVE, SUDBURY"
      }
    ]
  },
  {
    "postal": "P3B0K0",
    "result": []
  },
  {
    "postal": "P3B5N1",
    "result": []
  },
  {
    "postal": "P3B7T0",
    "result": []
  },
  {
    "postal": "P3B9N2",
    "result": []
  },
  {
    "postal": "P3B5L1",
    "result": []
  },
  {
    "postal": "P3B7G5",
    "result": []
  },
  {
    "postal": "P3B6K2",
    "result": []
  },
  {
    "postal": "P3B6P9",
    "result": []
  },
  {
    "postal": "P3B0E6",
    "result": [
      {
        "electoralDistricts": [
          {
            "election": null,
            "id": 103,
            "name": "Sudbury"
          }
        ],
        "pollDivisionIds": [
          10142161
        ],
        "postalCode": "P3B0E6",
        "streetName": "ECLIPSE",
        "streetDirectionId": null,
        "streetTypeId": "CRES",
        "placeName": "SUDBURY",
        "streetNameDisplayText": "ECLIPSE CRES, SUDBURY"
      },
      {
        "electoralDistricts": [
          {
            "election": null,
            "id": 103,
            "name": "Sudbury"
          }
        ],
        "pollDivisionIds": [
          10142161
        ],
        "postalCode": "P3B0E6",
        "streetName": "SOLSTICE",
        "streetDirectionId": null,
        "streetTypeId": "ST",
        "placeName": "SUDBURY",
        "streetNameDisplayText": "SOLSTICE ST, SUDBURY"
      }
    ]
  },
  {
    "postal": "P3B8R9",
    "result": []
  },
  {
    "postal": "P3B3G9",
    "result": [
      {
        "electoralDistricts": [
          {
            "election": null,
            "id": 103,
            "name": "Sudbury"
          }
        ],
        "pollDivisionIds": [
          10142166
        ],
        "postalCode": "P3B3G9",
        "streetName": "RALPH",
        "streetDirectionId": null,
        "streetTypeId": "ST",
        "placeName": "SUDBURY",
        "streetNameDisplayText": "RALPH ST, SUDBURY"
      }
    ]
  },
  {
    "postal": "P3B0V7",
    "result": []
  },
  {
    "postal": "P3B2Z1",
    "result": [
      {
        "electoralDistricts": [
          {
            "election": null,
            "id": 103,
            "name": "Sudbury"
          }
        ],
        "pollDivisionIds": [
          10142150
        ],
        "postalCode": "P3B2Z1",
        "streetName": "KITCHENER",
        "streetDirectionId": null,
        "streetTypeId": "AVE",
        "placeName": "SUDBURY",
        "streetNameDisplayText": "KITCHENER AVE, SUDBURY"
      }
    ]
  },
  {
    "postal": "P3B7N1",
    "result": []
  },
  {
    "postal": "P3B3C6",
    "result": [
      {
        "electoralDistricts": [
          {
            "election": null,
            "id": 103,
            "name": "Sudbury"
          }
        ],
        "pollDivisionIds": [
          10142167
        ],
        "postalCode": "P3B3C6",
        "streetName": "HARGREAVES",
        "streetDirectionId": null,
        "streetTypeId": "AVE",
        "placeName": "SUDBURY",
        "streetNameDisplayText": "HARGREAVES AVE, SUDBURY"
      }
    ]
  },
  {
    "postal": "P3B4M1",
    "result": []
  },
  {
    "postal": "P3B9K2",
    "result": []
  },
  {
    "postal": "P3B9S6",
    "result": []
  },
  {
    "postal": "P3B4X1",
    "result": []
  },
  {
    "postal": "P3B8W2",
    "result": []
  },
  {
    "postal": "P3B7N2",
    "result": []
  },
  {
    "postal": "P3B8S3",
    "result": []
  },
  {
    "postal": "P3B4V0",
    "result": []
  },
  {
    "postal": "P3B6W4",
    "result": []
  },
  {
    "postal": "P3B5M1",
    "result": []
  },
  {
    "postal": "P3B0S4",
    "result": []
  },
  {
    "postal": "P3B5X6",
    "result": []
  },
  {
    "postal": "P3B8L5",
    "result": []
  },
  {
    "postal": "P3B5M8",
    "result": []
  },
  {
    "postal": "P3B2G3",
    "result": [
      {
        "electoralDistricts": [
          {
            "election": null,
            "id": 103,
            "name": "Sudbury"
          }
        ],
        "pollDivisionIds": [
          10142161
        ],
        "postalCode": "P3B2G3",
        "streetName": "KINGSWAY",
        "streetDirectionId": null,
        "streetTypeId": null,
        "placeName": "SUDBURY",
        "streetNameDisplayText": "KINGSWAY, SUDBURY"
      }
    ]
  },
  {
    "postal": "P3B8E4",
    "result": []
  },
  {
    "postal": "P3B7S9",
    "result": []
  },
  {
    "postal": "P3B1K3",
    "result": [
      {
        "electoralDistricts": [
          {
            "election": null,
            "id": 103,
            "name": "Sudbury"
          }
        ],
        "pollDivisionIds": [
          10142167
        ],
        "postalCode": "P3B1K3",
        "streetName": "LONSDALE",
        "streetDirectionId": null,
        "streetTypeId": "AVE",
        "placeName": "SUDBURY",
        "streetNameDisplayText": "LONSDALE AVE, SUDBURY"
      }
    ]
  },
  {
    "postal": "P3B4E1",
    "result": [
      {
        "electoralDistricts": [
          {
            "election": null,
            "id": 103,
            "name": "Sudbury"
          }
        ],
        "pollDivisionIds": [
          10142167
        ],
        "postalCode": "P3B4E1",
        "streetName": "BANCROFT",
        "streetDirectionId": null,
        "streetTypeId": "DR",
        "placeName": "SUDBURY",
        "streetNameDisplayText": "BANCROFT DR, SUDBURY"
      }
    ]
  },
  {
    "postal": "P3B4R2",
    "result": []
  },
  {
    "postal": "P3B6T0",
    "result": []
  },
  {
    "postal": "P3B3K5",
    "result": [
      {
        "electoralDistricts": [
          {
            "election": null,
            "id": 103,
            "name": "Sudbury"
          }
        ],
        "pollDivisionIds": [
          10142166
        ],
        "postalCode": "P3B3K5",
        "streetName": "SEGUIN",
        "streetDirectionId": null,
        "streetTypeId": "ST",
        "placeName": "SUDBURY",
        "streetNameDisplayText": "SEGUIN ST, SUDBURY"
      }
    ]
  },
  {
    "postal": "P3B3S3",
    "result": [
      {
        "electoralDistricts": [
          {
            "election": null,
            "id": 103,
            "name": "Sudbury"
          }
        ],
        "pollDivisionIds": [
          10142161
        ],
        "postalCode": "P3B3S3",
        "streetName": "LABERGE",
        "streetDirectionId": null,
        "streetTypeId": "LANE",
        "placeName": "SUDBURY",
        "streetNameDisplayText": "LABERGE LANE, SUDBURY"
      }
    ]
  },
  {
    "postal": "P3B3L4",
    "result": [
      {
        "electoralDistricts": [
          {
            "election": null,
            "id": 71,
            "name": "Nickel Belt"
          },
          {
            "election": null,
            "id": 103,
            "name": "Sudbury"
          }
        ],
        "pollDivisionIds": [
          10143203,
          10142163
        ],
        "postalCode": "P3B3L4",
        "streetName": "SECOND",
        "streetDirectionId": "S",
        "streetTypeId": "AVE",
        "placeName": "SUDBURY",
        "streetNameDisplayText": "SECOND AVE S, SUDBURY"
      },
      {
        "electoralDistricts": [
          {
            "election": null,
            "id": 71,
            "name": "Nickel Belt"
          }
        ],
        "pollDivisionIds": [
          10143203
        ],
        "postalCode": "P3B3L4",
        "streetName": "SECOND",
        "streetDirectionId": "S",
        "streetTypeId": "ST",
        "placeName": "SUDBURY",
        "streetNameDisplayText": "SECOND ST S, SUDBURY"
      }
    ]
  },
  {
    "postal": "P3B9Y2",
    "result": []
  },
  {
    "postal": "P3B1E0",
    "result": []
  },
  {
    "postal": "P3B9A4",
    "result": []
  },
  {
    "postal": "P3B1L3",
    "result": [
      {
        "electoralDistricts": [
          {
            "election": null,
            "id": 103,
            "name": "Sudbury"
          }
        ],
        "pollDivisionIds": [
          10142166
        ],
        "postalCode": "P3B1L3",
        "streetName": "WELLER",
        "streetDirectionId": null,
        "streetTypeId": "ST",
        "placeName": "SUDBURY",
        "streetNameDisplayText": "WELLER ST, SUDBURY"
      }
    ]
  },
  {
    "postal": "P3B6N1",
    "result": []
  },
  {
    "postal": "P3B6G7",
    "result": []
  },
  {
    "postal": "P3B7W1",
    "result": []
  },
  {
    "postal": "P3B4M6",
    "result": []
  },
  {
    "postal": "P3B1K0",
    "result": []
  },
  {
    "postal": "P3B3E2",
    "result": [
      {
        "electoralDistricts": [
          {
            "election": null,
            "id": 103,
            "name": "Sudbury"
          }
        ],
        "pollDivisionIds": [
          10142166
        ],
        "postalCode": "P3B3E2",
        "streetName": "HARRY",
        "streetDirectionId": null,
        "streetTypeId": "CRES",
        "placeName": "SUDBURY",
        "streetNameDisplayText": "HARRY CRES, SUDBURY"
      }
    ]
  },
  {
    "postal": "P3B5H4",
    "result": []
  },
  {
    "postal": "P3B1K7",
    "result": [
      {
        "electoralDistricts": [
          {
            "election": null,
            "id": 103,
            "name": "Sudbury"
          }
        ],
        "pollDivisionIds": [
          10142166
        ],
        "postalCode": "P3B1K7",
        "streetName": "PICARD",
        "streetDirectionId": null,
        "streetTypeId": "ST",
        "placeName": "SUDBURY",
        "streetNameDisplayText": "PICARD ST, SUDBURY"
      }
    ]
  },
  {
    "postal": "P3B0H0",
    "result": []
  },
  {
    "postal": "P3B0J3",
    "result": []
  },
  {
    "postal": "P3B1X6",
    "result": [
      {
        "electoralDistricts": [
          {
            "election": null,
            "id": 103,
            "name": "Sudbury"
          }
        ],
        "pollDivisionIds": [
          10142163
        ],
        "postalCode": "P3B1X6",
        "streetName": "RANDOLPH",
        "streetDirectionId": null,
        "streetTypeId": "ST",
        "placeName": "SUDBURY",
        "streetNameDisplayText": "RANDOLPH ST, SUDBURY"
      }
    ]
  },
  {
    "postal": "P3B2Z6",
    "result": [
      {
        "electoralDistricts": [
          {
            "election": null,
            "id": 103,
            "name": "Sudbury"
          }
        ],
        "pollDivisionIds": [
          10142168
        ],
        "postalCode": "P3B2Z6",
        "streetName": "JANET",
        "streetDirectionId": null,
        "streetTypeId": "ST",
        "placeName": "SUDBURY",
        "streetNameDisplayText": "JANET ST, SUDBURY"
      }
    ]
  },
  {
    "postal": "P3B4R9",
    "result": []
  },
  {
    "postal": "P3B0W8",
    "result": []
  },
  {
    "postal": "P3B1L4",
    "result": [
      {
        "electoralDistricts": [
          {
            "election": null,
            "id": 103,
            "name": "Sudbury"
          }
        ],
        "pollDivisionIds": [
          10142166
        ],
        "postalCode": "P3B1L4",
        "streetName": "WELLER",
        "streetDirectionId": null,
        "streetTypeId": "ST",
        "placeName": "SUDBURY",
        "streetNameDisplayText": "WELLER ST, SUDBURY"
      }
    ]
  },
  {
    "postal": "P3B0C8",
    "result": [
      {
        "electoralDistricts": [
          {
            "election": null,
            "id": 103,
            "name": "Sudbury"
          }
        ],
        "pollDivisionIds": [
          10142150
        ],
        "postalCode": "P3B0C8",
        "streetName": "KINGSVIEW",
        "streetDirectionId": null,
        "streetTypeId": "DR",
        "placeName": "SUDBURY",
        "streetNameDisplayText": "KINGSVIEW DR, SUDBURY"
      }
    ]
  },
  {
    "postal": "P3B9X7",
    "result": []
  },
  {
    "postal": "P3B4T1",
    "result": []
  },
  {
    "postal": "P3B0M0",
    "result": []
  },
  {
    "postal": "P3B6A2",
    "result": []
  },
  {
    "postal": "P3B9S8",
    "result": []
  },
  {
    "postal": "P3B9T4",
    "result": []
  },
  {
    "postal": "P3B9Y4",
    "result": []
  },
  {
    "postal": "P3B6G5",
    "result": []
  },
  {
    "postal": "P3B6H9",
    "result": []
  },
  {
    "postal": "P3B2P3",
    "result": [
      {
        "electoralDistricts": [
          {
            "election": null,
            "id": 103,
            "name": "Sudbury"
          }
        ],
        "pollDivisionIds": [
          10142168
        ],
        "postalCode": "P3B2P3",
        "streetName": "ELIZABETH",
        "streetDirectionId": null,
        "streetTypeId": "ST",
        "placeName": "SUDBURY",
        "streetNameDisplayText": "ELIZABETH ST, SUDBURY"
      }
    ]
  },
  {
    "postal": "P3B1T6",
    "result": [
      {
        "electoralDistricts": [
          {
            "election": null,
            "id": 103,
            "name": "Sudbury"
          }
        ],
        "pollDivisionIds": [
          10142163
        ],
        "postalCode": "P3B1T6",
        "streetName": "BANCROFT",
        "streetDirectionId": null,
        "streetTypeId": "DR",
        "placeName": "SUDBURY",
        "streetNameDisplayText": "BANCROFT DR, SUDBURY"
      }
    ]
  },
  {
    "postal": "P3B4P6",
    "result": []
  },
  {
    "postal": "P3B3K1",
    "result": [
      {
        "electoralDistricts": [
          {
            "election": null,
            "id": 103,
            "name": "Sudbury"
          }
        ],
        "pollDivisionIds": [
          10142166
        ],
        "postalCode": "P3B3K1",
        "streetName": "NEELON",
        "streetDirectionId": null,
        "streetTypeId": "AVE",
        "placeName": "SUDBURY",
        "streetNameDisplayText": "NEELON AVE, SUDBURY"
      }
    ]
  },
  {
    "postal": "P3B6X4",
    "result": []
  },
  {
    "postal": "P3B4M8",
    "result": []
  },
  {
    "postal": "P3B2Y1",
    "result": [
      {
        "electoralDistricts": [
          {
            "election": null,
            "id": 103,
            "name": "Sudbury"
          }
        ],
        "pollDivisionIds": [
          10142135
        ],
        "postalCode": "P3B2Y1",
        "streetName": "PERCY",
        "streetDirectionId": null,
        "streetTypeId": "AVE",
        "placeName": "SUDBURY",
        "streetNameDisplayText": "PERCY AVE, SUDBURY"
      }
    ]
  },
  {
    "postal": "P3B6M1",
    "result": []
  },
  {
    "postal": "P3B5L8",
    "result": []
  },
  {
    "postal": "P3B3P6",
    "result": [
      {
        "electoralDistricts": [
          {
            "election": null,
            "id": 103,
            "name": "Sudbury"
          }
        ],
        "pollDivisionIds": [
          10142163
        ],
        "postalCode": "P3B3P6",
        "streetName": "WILFRED",
        "streetDirectionId": null,
        "streetTypeId": "ST",
        "placeName": "SUDBURY",
        "streetNameDisplayText": "WILFRED ST, SUDBURY"
      }
    ]
  },
  {
    "postal": "P3B9A5",
    "result": []
  },
  {
    "postal": "P3B7K1",
    "result": []
  },
  {
    "postal": "P3B3J4",
    "result": [
      {
        "electoralDistricts": [
          {
            "election": null,
            "id": 103,
            "name": "Sudbury"
          }
        ],
        "pollDivisionIds": [
          10142166
        ],
        "postalCode": "P3B3J4",
        "streetName": "MCKINNON",
        "streetDirectionId": null,
        "streetTypeId": "ST",
        "placeName": "SUDBURY",
        "streetNameDisplayText": "MCKINNON ST, SUDBURY"
      }
    ]
  },
  {
    "postal": "P3B5E7",
    "result": []
  },
  {
    "postal": "P3B3A7",
    "result": [
      {
        "electoralDistricts": [
          {
            "election": null,
            "id": 103,
            "name": "Sudbury"
          }
        ],
        "pollDivisionIds": [
          10142168
        ],
        "postalCode": "P3B3A7",
        "streetName": "WESSEX",
        "streetDirectionId": null,
        "streetTypeId": "ST",
        "placeName": "SUDBURY",
        "streetNameDisplayText": "WESSEX ST, SUDBURY"
      }
    ]
  },
  {
    "postal": "P3B1B9",
    "result": [
      {
        "electoralDistricts": [
          {
            "election": null,
            "id": 103,
            "name": "Sudbury"
          }
        ],
        "pollDivisionIds": [
          10142168
        ],
        "postalCode": "P3B1B9",
        "streetName": "MORRIS",
        "streetDirectionId": null,
        "streetTypeId": "ST",
        "placeName": "SUDBURY",
        "streetNameDisplayText": "MORRIS ST, SUDBURY"
      }
    ]
  },
  {
    "postal": "P3B9E8",
    "result": []
  },
  {
    "postal": "P3B1C9",
    "result": [
      {
        "electoralDistricts": [
          {
            "election": null,
            "id": 103,
            "name": "Sudbury"
          }
        ],
        "pollDivisionIds": [
          10142168
        ],
        "postalCode": "P3B1C9",
        "streetName": "CARTIER",
        "streetDirectionId": null,
        "streetTypeId": "AVE",
        "placeName": "SUDBURY",
        "streetNameDisplayText": "CARTIER AVE, SUDBURY"
      }
    ]
  },
  {
    "postal": "P3B3B5",
    "result": [
      {
        "electoralDistricts": [
          {
            "election": null,
            "id": 103,
            "name": "Sudbury"
          }
        ],
        "pollDivisionIds": [
          10142167
        ],
        "postalCode": "P3B3B5",
        "streetName": "HILLSBORO",
        "streetDirectionId": null,
        "streetTypeId": "AVE",
        "placeName": "SUDBURY",
        "streetNameDisplayText": "HILLSBORO AVE, SUDBURY"
      }
    ]
  },
  {
    "postal": "P3B8R0",
    "result": []
  },
  {
    "postal": "P3B3P2",
    "result": [
      {
        "electoralDistricts": [
          {
            "election": null,
            "id": 103,
            "name": "Sudbury"
          }
        ],
        "pollDivisionIds": [
          10142163
        ],
        "postalCode": "P3B3P2",
        "streetName": "GARLAND",
        "streetDirectionId": null,
        "streetTypeId": "CRES",
        "placeName": "SUDBURY",
        "streetNameDisplayText": "GARLAND CRES, SUDBURY"
      }
    ]
  },
  {
    "postal": "P3B5V4",
    "result": []
  },
  {
    "postal": "P3B4H0",
    "result": []
  },
  {
    "postal": "P3B4S7",
    "result": []
  },
  {
    "postal": "P3B6C2",
    "result": []
  },
  {
    "postal": "P3B8W3",
    "result": []
  },
  {
    "postal": "P3B4M5",
    "result": []
  },
  {
    "postal": "P3B5T1",
    "result": []
  },
  {
    "postal": "P3B3B3",
    "result": [
      {
        "electoralDistricts": [
          {
            "election": null,
            "id": 103,
            "name": "Sudbury"
          }
        ],
        "pollDivisionIds": [
          10142166
        ],
        "postalCode": "P3B3B3",
        "streetName": "DEVON",
        "streetDirectionId": null,
        "streetTypeId": "RD",
        "placeName": "SUDBURY",
        "streetNameDisplayText": "DEVON RD, SUDBURY"
      }
    ]
  },
  {
    "postal": "P3B6C6",
    "result": []
  },
  {
    "postal": "P3B7N8",
    "result": []
  },
  {
    "postal": "P3B2Y3",
    "result": [
      {
        "electoralDistricts": [
          {
            "election": null,
            "id": 103,
            "name": "Sudbury"
          }
        ],
        "pollDivisionIds": [
          10142135
        ],
        "postalCode": "P3B2Y3",
        "streetName": "PERCY",
        "streetDirectionId": null,
        "streetTypeId": "AVE",
        "placeName": "SUDBURY",
        "streetNameDisplayText": "PERCY AVE, SUDBURY"
      }
    ]
  },
  {
    "postal": "P3B2R6",
    "result": [
      {
        "electoralDistricts": [
          {
            "election": null,
            "id": 103,
            "name": "Sudbury"
          }
        ],
        "pollDivisionIds": [
          10142135
        ],
        "postalCode": "P3B2R6",
        "streetName": "MURRAY",
        "streetDirectionId": null,
        "streetTypeId": "ST",
        "placeName": "SUDBURY",
        "streetNameDisplayText": "MURRAY ST, SUDBURY"
      }
    ]
  },
  {
    "postal": "P3B7N3",
    "result": []
  },
  {
    "postal": "P3B8J2",
    "result": []
  },
  {
    "postal": "P3B6A9",
    "result": []
  },
  {
    "postal": "P3B3V2",
    "result": [
      {
        "electoralDistricts": [
          {
            "election": null,
            "id": 103,
            "name": "Sudbury"
          }
        ],
        "pollDivisionIds": [
          10142161
        ],
        "postalCode": "P3B3V2",
        "streetName": "ESTELLE",
        "streetDirectionId": null,
        "streetTypeId": "ST",
        "placeName": "SUDBURY",
        "streetNameDisplayText": "ESTELLE ST, SUDBURY"
      }
    ]
  },
  {
    "postal": "P3B2N3",
    "result": [
      {
        "electoralDistricts": [
          {
            "election": null,
            "id": 103,
            "name": "Sudbury"
          }
        ],
        "pollDivisionIds": [
          10142170
        ],
        "postalCode": "P3B2N3",
        "streetName": "RED CROSS",
        "streetDirectionId": null,
        "streetTypeId": "BLVD",
        "placeName": "SUDBURY",
        "streetNameDisplayText": "RED CROSS BLVD, SUDBURY"
      }
    ]
  },
  {
    "postal": "P3B1S5",
    "result": [
      {
        "electoralDistricts": [
          {
            "election": null,
            "id": 103,
            "name": "Sudbury"
          }
        ],
        "pollDivisionIds": [
          10142166
        ],
        "postalCode": "P3B1S5",
        "streetName": "BANCROFT",
        "streetDirectionId": null,
        "streetTypeId": "DR",
        "placeName": "SUDBURY",
        "streetNameDisplayText": "BANCROFT DR, SUDBURY"
      }
    ]
  },
  {
    "postal": "P3B4T7",
    "result": []
  },
  {
    "postal": "P3B6Y7",
    "result": []
  },
  {
    "postal": "P3B0W7",
    "result": []
  },
  {
    "postal": "P3B2W9",
    "result": [
      {
        "electoralDistricts": [
          {
            "election": null,
            "id": 103,
            "name": "Sudbury"
          }
        ],
        "pollDivisionIds": [
          10142168
        ],
        "postalCode": "P3B2W9",
        "streetName": "TARNEAUD",
        "streetDirectionId": null,
        "streetTypeId": "ST",
        "placeName": "SUDBURY",
        "streetNameDisplayText": "TARNEAUD ST, SUDBURY"
      }
    ]
  },
  {
    "postal": "P3B8V0",
    "result": []
  },
  {
    "postal": "P3B0H4",
    "result": []
  },
  {
    "postal": "P3B2T1",
    "result": [
      {
        "electoralDistricts": [
          {
            "election": null,
            "id": 103,
            "name": "Sudbury"
          }
        ],
        "pollDivisionIds": [
          10142135
        ],
        "postalCode": "P3B2T1",
        "streetName": "CLINTON",
        "streetDirectionId": null,
        "streetTypeId": "AVE",
        "placeName": "SUDBURY",
        "streetNameDisplayText": "CLINTON AVE, SUDBURY"
      }
    ]
  },
  {
    "postal": "P3B1B1",
    "result": [
      {
        "electoralDistricts": [
          {
            "election": null,
            "id": 103,
            "name": "Sudbury"
          }
        ],
        "pollDivisionIds": [
          10142168
        ],
        "postalCode": "P3B1B1",
        "streetName": "ELGIN",
        "streetDirectionId": null,
        "streetTypeId": "ST",
        "placeName": "SUDBURY",
        "streetNameDisplayText": "ELGIN ST, SUDBURY"
      }
    ]
  },
  {
    "postal": "P3B8B6",
    "result": []
  },
  {
    "postal": "P3B6H1",
    "result": []
  },
  {
    "postal": "P3B8T8",
    "result": []
  },
  {
    "postal": "P3B0T4",
    "result": []
  },
  {
    "postal": "P3B2C4",
    "result": []
  },
  {
    "postal": "P3B8N3",
    "result": []
  },
  {
    "postal": "P3B4L8",
    "result": []
  },
  {
    "postal": "P3B2B5",
    "result": [
      {
        "electoralDistricts": [
          {
            "election": null,
            "id": 103,
            "name": "Sudbury"
          }
        ],
        "pollDivisionIds": [
          10142167
        ],
        "postalCode": "P3B2B5",
        "streetName": "DUNDAS",
        "streetDirectionId": null,
        "streetTypeId": "ST",
        "placeName": "SUDBURY",
        "streetNameDisplayText": "DUNDAS ST, SUDBURY"
      }
    ]
  },
  {
    "postal": "P3B3H1",
    "result": [
      {
        "electoralDistricts": [
          {
            "election": null,
            "id": 103,
            "name": "Sudbury"
          }
        ],
        "pollDivisionIds": [
          10142166
        ],
        "postalCode": "P3B3H1",
        "streetName": "PORTAGE",
        "streetDirectionId": null,
        "streetTypeId": "AVE",
        "placeName": "SUDBURY",
        "streetNameDisplayText": "PORTAGE AVE, SUDBURY"
      }
    ]
  },
  {
    "postal": "P3B4Y1",
    "result": []
  },
  {
    "postal": "P3B7E2",
    "result": []
  },
  {
    "postal": "P3B2P5",
    "result": [
      {
        "electoralDistricts": [
          {
            "election": null,
            "id": 103,
            "name": "Sudbury"
          }
        ],
        "pollDivisionIds": [
          10142170
        ],
        "postalCode": "P3B2P5",
        "streetName": "BRADY",
        "streetDirectionId": null,
        "streetTypeId": "ST",
        "placeName": "SUDBURY",
        "streetNameDisplayText": "BRADY ST, SUDBURY"
      }
    ]
  },
  {
    "postal": "P3B8R7",
    "result": []
  },
  {
    "postal": "P3B9P1",
    "result": []
  },
  {
    "postal": "P3B3B8",
    "result": [
      {
        "electoralDistricts": [
          {
            "election": null,
            "id": 103,
            "name": "Sudbury"
          }
        ],
        "pollDivisionIds": [
          10142167
        ],
        "postalCode": "P3B3B8",
        "streetName": "GLENDALE",
        "streetDirectionId": null,
        "streetTypeId": "AVE",
        "placeName": "SUDBURY",
        "streetNameDisplayText": "GLENDALE AVE, SUDBURY"
      }
    ]
  },
  {
    "postal": "P3B3P7",
    "result": [
      {
        "electoralDistricts": [
          {
            "election": null,
            "id": 103,
            "name": "Sudbury"
          }
        ],
        "pollDivisionIds": [
          10142162
        ],
        "postalCode": "P3B3P7",
        "streetName": "THIRD",
        "streetDirectionId": null,
        "streetTypeId": "AVE",
        "placeName": "SUDBURY",
        "streetNameDisplayText": "THIRD AVE, SUDBURY"
      },
      {
        "electoralDistricts": [
          {
            "election": null,
            "id": 103,
            "name": "Sudbury"
          }
        ],
        "pollDivisionIds": [
          10142162
        ],
        "postalCode": "P3B3P7",
        "streetName": "THIRD AVE.",
        "streetDirectionId": null,
        "streetTypeId": "AVE",
        "placeName": "SUDBURY",
        "streetNameDisplayText": "THIRD AVE. AVE, SUDBURY"
      }
    ]
  },
  {
    "postal": "P3B9B2",
    "result": []
  },
  {
    "postal": "P3B6Z3",
    "result": []
  },
  {
    "postal": "P3B4N5",
    "result": []
  },
  {
    "postal": "P3B8T3",
    "result": []
  },
  {
    "postal": "P3B1V2",
    "result": [
      {
        "electoralDistricts": [
          {
            "election": null,
            "id": 103,
            "name": "Sudbury"
          }
        ],
        "pollDivisionIds": [
          10142161
        ],
        "postalCode": "P3B1V2",
        "streetName": "BANCROFT",
        "streetDirectionId": null,
        "streetTypeId": "DR",
        "placeName": "SUDBURY",
        "streetNameDisplayText": "BANCROFT DR, SUDBURY"
      }
    ]
  },
  {
    "postal": "P3B1Y0",
    "result": []
  },
  {
    "postal": "P3B3G6",
    "result": [
      {
        "electoralDistricts": [
          {
            "election": null,
            "id": 103,
            "name": "Sudbury"
          }
        ],
        "pollDivisionIds": [
          10142166
        ],
        "postalCode": "P3B3G6",
        "streetName": "DALE",
        "streetDirectionId": null,
        "streetTypeId": "ST",
        "placeName": "SUDBURY",
        "streetNameDisplayText": "DALE ST, SUDBURY"
      }
    ]
  },
  {
    "postal": "P3B3H7",
    "result": [
      {
        "electoralDistricts": [
          {
            "election": null,
            "id": 103,
            "name": "Sudbury"
          }
        ],
        "pollDivisionIds": [
          10142166
        ],
        "postalCode": "P3B3H7",
        "streetName": "BARRY",
        "streetDirectionId": null,
        "streetTypeId": "ST",
        "placeName": "SUDBURY",
        "streetNameDisplayText": "BARRY ST, SUDBURY"
      }
    ]
  },
  {
    "postal": "P3B7X8",
    "result": []
  },
  {
    "postal": "P3B0C7",
    "result": [
      {
        "electoralDistricts": [
          {
            "election": null,
            "id": 103,
            "name": "Sudbury"
          }
        ],
        "pollDivisionIds": [
          10142150
        ],
        "postalCode": "P3B0C7",
        "streetName": "KINGSVIEW",
        "streetDirectionId": null,
        "streetTypeId": "DR",
        "placeName": "SUDBURY",
        "streetNameDisplayText": "KINGSVIEW DR, SUDBURY"
      }
    ]
  },
  {
    "postal": "P3B0W9",
    "result": []
  },
  {
    "postal": "P3B8E6",
    "result": []
  },
  {
    "postal": "P3B9Z8",
    "result": []
  },
  {
    "postal": "P3B3P4",
    "result": [
      {
        "electoralDistricts": [
          {
            "election": null,
            "id": 103,
            "name": "Sudbury"
          }
        ],
        "pollDivisionIds": [
          10142163
        ],
        "postalCode": "P3B3P4",
        "streetName": "WILFRED",
        "streetDirectionId": null,
        "streetTypeId": "ST",
        "placeName": "SUDBURY",
        "streetNameDisplayText": "WILFRED ST, SUDBURY"
      }
    ]
  },
  {
    "postal": "P3B6L8",
    "result": []
  },
  {
    "postal": "P3B2R4",
    "result": [
      {
        "electoralDistricts": [
          {
            "election": null,
            "id": 103,
            "name": "Sudbury"
          }
        ],
        "pollDivisionIds": [
          10142149,
          10142135
        ],
        "postalCode": "P3B2R4",
        "streetName": "MOUNTAIN",
        "streetDirectionId": null,
        "streetTypeId": "ST",
        "placeName": "SUDBURY",
        "streetNameDisplayText": "MOUNTAIN ST, SUDBURY"
      }
    ]
  },
  {
    "postal": "P3B2W1",
    "result": [
      {
        "electoralDistricts": [
          {
            "election": null,
            "id": 103,
            "name": "Sudbury"
          }
        ],
        "pollDivisionIds": [
          10142150
        ],
        "postalCode": "P3B2W1",
        "streetName": "MATHEW",
        "streetDirectionId": null,
        "streetTypeId": "ST",
        "placeName": "SUDBURY",
        "streetNameDisplayText": "MATHEW ST, SUDBURY"
      }
    ]
  },
  {
    "postal": "P3B9H8",
    "result": []
  },
  {
    "postal": "P3B8X9",
    "result": []
  },
  {
    "postal": "P3B7H4",
    "result": []
  },
  {
    "postal": "P3B3J1",
    "result": [
      {
        "electoralDistricts": [
          {
            "election": null,
            "id": 103,
            "name": "Sudbury"
          }
        ],
        "pollDivisionIds": [
          10142166
        ],
        "postalCode": "P3B3J1",
        "streetName": "SHAPPERT",
        "streetDirectionId": null,
        "streetTypeId": "AVE",
        "placeName": "SUDBURY",
        "streetNameDisplayText": "SHAPPERT AVE, SUDBURY"
      }
    ]
  },
  {
    "postal": "P3B1P4",
    "result": [
      {
        "electoralDistricts": [
          {
            "election": null,
            "id": 103,
            "name": "Sudbury"
          }
        ],
        "pollDivisionIds": [
          10142150
        ],
        "postalCode": "P3B1P4",
        "streetName": "LLOYD",
        "streetDirectionId": null,
        "streetTypeId": "ST",
        "placeName": "SUDBURY",
        "streetNameDisplayText": "LLOYD ST, SUDBURY"
      }
    ]
  },
  {
    "postal": "P3B2A3",
    "result": [
      {
        "electoralDistricts": [
          {
            "election": null,
            "id": 103,
            "name": "Sudbury"
          }
        ],
        "pollDivisionIds": [
          10142163
        ],
        "postalCode": "P3B2A3",
        "streetName": "SCARLETT",
        "streetDirectionId": null,
        "streetTypeId": "RD",
        "placeName": "SUDBURY",
        "streetNameDisplayText": "SCARLETT RD, SUDBURY"
      }
    ]
  },
  {
    "postal": "P3B0Z1",
    "result": []
  },
  {
    "postal": "P3B1C1",
    "result": [
      {
        "electoralDistricts": [
          {
            "election": null,
            "id": 103,
            "name": "Sudbury"
          }
        ],
        "pollDivisionIds": [
          10142168
        ],
        "postalCode": "P3B1C1",
        "streetName": "MORRIS",
        "streetDirectionId": null,
        "streetTypeId": "ST",
        "placeName": "SUDBURY",
        "streetNameDisplayText": "MORRIS ST, SUDBURY"
      }
    ]
  },
  {
    "postal": "P3B0H3",
    "result": []
  },
  {
    "postal": "P3B7B0",
    "result": []
  },
  {
    "postal": "P3B5K2",
    "result": []
  },
  {
    "postal": "P3B1E9",
    "result": [
      {
        "electoralDistricts": [
          {
            "election": null,
            "id": 103,
            "name": "Sudbury"
          }
        ],
        "pollDivisionIds": [
          10142168
        ],
        "postalCode": "P3B1E9",
        "streetName": "HOWEY",
        "streetDirectionId": null,
        "streetTypeId": "DR",
        "placeName": "SUDBURY",
        "streetNameDisplayText": "HOWEY DR, SUDBURY"
      }
    ]
  },
  {
    "postal": "P3B9W7",
    "result": []
  },
  {
    "postal": "P3B5W6",
    "result": []
  },
  {
    "postal": "P3B6S6",
    "result": []
  },
  {
    "postal": "P3B2P8",
    "result": [
      {
        "electoralDistricts": [
          {
            "election": null,
            "id": 103,
            "name": "Sudbury"
          }
        ],
        "pollDivisionIds": [
          10142168
        ],
        "postalCode": "P3B2P8",
        "streetName": "BRADY",
        "streetDirectionId": null,
        "streetTypeId": "ST",
        "placeName": "SUDBURY",
        "streetNameDisplayText": "BRADY ST, SUDBURY"
      }
    ]
  },
  {
    "postal": "P3B4P8",
    "result": []
  },
  {
    "postal": "P3B0V9",
    "result": []
  },
  {
    "postal": "P3B5Y2",
    "result": []
  },
  {
    "postal": "P3B7Z7",
    "result": []
  },
  {
    "postal": "P3B6Y8",
    "result": []
  },
  {
    "postal": "P3B2G7",
    "result": [
      {
        "electoralDistricts": [
          {
            "election": null,
            "id": 103,
            "name": "Sudbury"
          }
        ],
        "pollDivisionIds": [
          10142150
        ],
        "postalCode": "P3B2G7",
        "streetName": "BROCK",
        "streetDirectionId": null,
        "streetTypeId": "ST",
        "placeName": "SUDBURY",
        "streetNameDisplayText": "BROCK ST, SUDBURY"
      }
    ]
  },
  {
    "postal": "P3B8C1",
    "result": []
  },
  {
    "postal": "P3B5C5",
    "result": []
  },
  {
    "postal": "P3B2X8",
    "result": [
      {
        "electoralDistricts": [
          {
            "election": null,
            "id": 103,
            "name": "Sudbury"
          }
        ],
        "pollDivisionIds": [
          10142135
        ],
        "postalCode": "P3B2X8",
        "streetName": "PERCY",
        "streetDirectionId": null,
        "streetTypeId": "AVE",
        "placeName": "SUDBURY",
        "streetNameDisplayText": "PERCY AVE, SUDBURY"
      }
    ]
  },
  {
    "postal": "P3B1W5",
    "result": [
      {
        "electoralDistricts": [
          {
            "election": null,
            "id": 103,
            "name": "Sudbury"
          }
        ],
        "pollDivisionIds": [
          10142161
        ],
        "postalCode": "P3B1W5",
        "streetName": "HINES",
        "streetDirectionId": null,
        "streetTypeId": "ST",
        "placeName": "SUDBURY",
        "streetNameDisplayText": "HINES ST, SUDBURY"
      }
    ]
  },
  {
    "postal": "P3B7G0",
    "result": []
  },
  {
    "postal": "P3B8J8",
    "result": []
  },
  {
    "postal": "P3B3Y0",
    "result": []
  },
  {
    "postal": "P3B9T7",
    "result": []
  },
  {
    "postal": "P3B5P4",
    "result": []
  },
  {
    "postal": "P3B4B0",
    "result": []
  },
  {
    "postal": "P3B9N8",
    "result": []
  },
  {
    "postal": "P3B4A7",
    "result": [
      {
        "electoralDistricts": [
          {
            "election": null,
            "id": 103,
            "name": "Sudbury"
          }
        ],
        "pollDivisionIds": [
          10142163
        ],
        "postalCode": "P3B4A7",
        "streetName": "SECOND",
        "streetDirectionId": "N",
        "streetTypeId": "AVE",
        "placeName": "SUDBURY",
        "streetNameDisplayText": "SECOND AVE N, SUDBURY"
      }
    ]
  },
  {
    "postal": "P3B4H9",
    "result": [
      {
        "electoralDistricts": [
          {
            "election": null,
            "id": 103,
            "name": "Sudbury"
          }
        ],
        "pollDivisionIds": [
          10142165
        ],
        "postalCode": "P3B4H9",
        "streetName": "SECOND",
        "streetDirectionId": "S",
        "streetTypeId": "AVE",
        "placeName": "SUDBURY",
        "streetNameDisplayText": "SECOND AVE S, SUDBURY"
      }
    ]
  },
  {
    "postal": "P3B6X1",
    "result": []
  },
  {
    "postal": "P3B9Y7",
    "result": []
  },
  {
    "postal": "P3B2Y5",
    "result": []
  },
  {
    "postal": "P3B8L7",
    "result": []
  },
  {
    "postal": "P3B2A8",
    "result": [
      {
        "electoralDistricts": [
          {
            "election": null,
            "id": 103,
            "name": "Sudbury"
          }
        ],
        "pollDivisionIds": [
          10142167
        ],
        "postalCode": "P3B2A8",
        "streetName": "CLEARVIEW",
        "streetDirectionId": null,
        "streetTypeId": "AVE",
        "placeName": "SUDBURY",
        "streetNameDisplayText": "CLEARVIEW AVE, SUDBURY"
      }
    ]
  },
  {
    "postal": "P3B2K9",
    "result": [
      {
        "electoralDistricts": [
          {
            "election": null,
            "id": 103,
            "name": "Sudbury"
          }
        ],
        "pollDivisionIds": [
          10142135
        ],
        "postalCode": "P3B2K9",
        "streetName": "KING",
        "streetDirectionId": null,
        "streetTypeId": "ST",
        "placeName": "SUDBURY",
        "streetNameDisplayText": "KING ST, SUDBURY"
      }
    ]
  },
  {
    "postal": "P3B3E5",
    "result": [
      {
        "electoralDistricts": [
          {
            "election": null,
            "id": 103,
            "name": "Sudbury"
          }
        ],
        "pollDivisionIds": [
          10142167
        ],
        "postalCode": "P3B3E5",
        "streetName": "SILPAA",
        "streetDirectionId": null,
        "streetTypeId": "ST",
        "placeName": "SUDBURY",
        "streetNameDisplayText": "SILPAA ST, SUDBURY"
      }
    ]
  },
  {
    "postal": "P3B8N6",
    "result": []
  },
  {
    "postal": "P3B8J4",
    "result": []
  },
  {
    "postal": "P3B4R7",
    "result": []
  },
  {
    "postal": "P3B9K1",
    "result": []
  },
  {
    "postal": "P3B8E1",
    "result": []
  },
  {
    "postal": "P3B0R1",
    "result": []
  },
  {
    "postal": "P3B4J3",
    "result": [
      {
        "electoralDistricts": [
          {
            "election": null,
            "id": 103,
            "name": "Sudbury"
          }
        ],
        "pollDivisionIds": [
          10142163
        ],
        "postalCode": "P3B4J3",
        "streetName": "SECOND",
        "streetDirectionId": "S",
        "streetTypeId": "AVE",
        "placeName": "SUDBURY",
        "streetNameDisplayText": "SECOND AVE S, SUDBURY"
      }
    ]
  },
  {
    "postal": "P3B7E7",
    "result": []
  },
  {
    "postal": "P3B0J0",
    "result": []
  },
  {
    "postal": "P3B7R8",
    "result": []
  },
  {
    "postal": "P3B9X0",
    "result": []
  },
  {
    "postal": "P3B7P6",
    "result": []
  },
  {
    "postal": "P3B0R7",
    "result": []
  },
  {
    "postal": "P3B5W1",
    "result": []
  },
  {
    "postal": "P3B0K4",
    "result": []
  },
  {
    "postal": "P3B7N9",
    "result": []
  },
  {
    "postal": "P3B1N0",
    "result": []
  },
  {
    "postal": "P3B6P3",
    "result": []
  },
  {
    "postal": "P3B5A1",
    "result": []
  },
  {
    "postal": "P3B9M9",
    "result": []
  },
  {
    "postal": "P3B7T6",
    "result": []
  },
  {
    "postal": "P3B3X0",
    "result": []
  },
  {
    "postal": "P3B2T0",
    "result": []
  },
  {
    "postal": "P3B5X9",
    "result": []
  },
  {
    "postal": "P3B2R3",
    "result": []
  },
  {
    "postal": "P3B5N2",
    "result": []
  },
  {
    "postal": "P3B4Y7",
    "result": []
  },
  {
    "postal": "P3B7M0",
    "result": []
  },
  {
    "postal": "P3B8P3",
    "result": []
  },
  {
    "postal": "P3B3N3",
    "result": [
      {
        "electoralDistricts": [
          {
            "election": null,
            "id": 103,
            "name": "Sudbury"
          }
        ],
        "pollDivisionIds": [
          10142163
        ],
        "postalCode": "P3B3N3",
        "streetName": "BETHUNE",
        "streetDirectionId": null,
        "streetTypeId": "AVE",
        "placeName": "SUDBURY",
        "streetNameDisplayText": "BETHUNE AVE, SUDBURY"
      }
    ]
  },
  {
    "postal": "P3B7S3",
    "result": []
  },
  {
    "postal": "P3B3V9",
    "result": [
      {
        "electoralDistricts": [
          {
            "election": null,
            "id": 103,
            "name": "Sudbury"
          }
        ],
        "pollDivisionIds": [
          10142161
        ],
        "postalCode": "P3B3V9",
        "streetName": "MOONLIGHT",
        "streetDirectionId": null,
        "streetTypeId": "AVE",
        "placeName": "SUDBURY",
        "streetNameDisplayText": "MOONLIGHT AVE, SUDBURY"
      }
    ]
  },
  {
    "postal": "P3B9N7",
    "result": []
  },
  {
    "postal": "P3B0G4",
    "result": [
      {
        "electoralDistricts": [
          {
            "election": null,
            "id": 103,
            "name": "Sudbury"
          }
        ],
        "pollDivisionIds": [
          10142162
        ],
        "postalCode": "P3B0G4",
        "streetName": "BIRMINGHAM",
        "streetDirectionId": null,
        "streetTypeId": "DR",
        "placeName": "SUDBURY",
        "streetNameDisplayText": "BIRMINGHAM DR, SUDBURY"
      }
    ]
  },
  {
    "postal": "P3B2E2",
    "result": [
      {
        "electoralDistricts": [
          {
            "election": null,
            "id": 103,
            "name": "Sudbury"
          }
        ],
        "pollDivisionIds": [
          10142150
        ],
        "postalCode": "P3B2E2",
        "streetName": "KINGSWAY",
        "streetDirectionId": null,
        "streetTypeId": null,
        "placeName": "SUDBURY",
        "streetNameDisplayText": "KINGSWAY, SUDBURY"
      }
    ]
  },
  {
    "postal": "P3B7W8",
    "result": []
  },
  {
    "postal": "P3B7M5",
    "result": []
  },
  {
    "postal": "P3B5W8",
    "result": []
  },
  {
    "postal": "P3B5E5",
    "result": []
  },
  {
    "postal": "P3B1P9",
    "result": [
      {
        "electoralDistricts": [
          {
            "election": null,
            "id": 103,
            "name": "Sudbury"
          }
        ],
        "pollDivisionIds": [
          10142167
        ],
        "postalCode": "P3B1P9",
        "streetName": "BANCROFT",
        "streetDirectionId": null,
        "streetTypeId": "DR",
        "placeName": "SUDBURY",
        "streetNameDisplayText": "BANCROFT DR, SUDBURY"
      }
    ]
  },
  {
    "postal": "P3B8V8",
    "result": []
  },
  {
    "postal": "P3B9G8",
    "result": []
  },
  {
    "postal": "P3B8H9",
    "result": []
  },
  {
    "postal": "P3B1Z1",
    "result": [
      {
        "electoralDistricts": [
          {
            "election": null,
            "id": 103,
            "name": "Sudbury"
          }
        ],
        "pollDivisionIds": [
          10142163
        ],
        "postalCode": "P3B1Z1",
        "streetName": "HEBERT",
        "streetDirectionId": null,
        "streetTypeId": "ST",
        "placeName": "SUDBURY",
        "streetNameDisplayText": "HEBERT ST, SUDBURY"
      }
    ]
  },
  {
    "postal": "P3B8M3",
    "result": []
  },
  {
    "postal": "P3B5H6",
    "result": []
  },
  {
    "postal": "P3B7W7",
    "result": []
  },
  {
    "postal": "P3B4L0",
    "result": []
  },
  {
    "postal": "P3B2N1",
    "result": [
      {
        "electoralDistricts": [
          {
            "election": null,
            "id": 103,
            "name": "Sudbury"
          }
        ],
        "pollDivisionIds": [
          10142151
        ],
        "postalCode": "P3B2N1",
        "streetName": "FAIRVIEW",
        "streetDirectionId": null,
        "streetTypeId": "AVE",
        "placeName": "SUDBURY",
        "streetNameDisplayText": "FAIRVIEW AVE, SUDBURY"
      }
    ]
  },
  {
    "postal": "P3B2H4",
    "result": [
      {
        "electoralDistricts": [
          {
            "election": null,
            "id": 103,
            "name": "Sudbury"
          }
        ],
        "pollDivisionIds": [
          10142133
        ],
        "postalCode": "P3B2H4",
        "streetName": "KATHLEEN",
        "streetDirectionId": null,
        "streetTypeId": "ST",
        "placeName": "SUDBURY",
        "streetNameDisplayText": "KATHLEEN ST, SUDBURY"
      },
      {
        "electoralDistricts": [
          {
            "election": null,
            "id": 103,
            "name": "Sudbury"
          }
        ],
        "pollDivisionIds": [
          10142151
        ],
        "postalCode": "P3B2H4",
        "streetName": "LOUIS",
        "streetDirectionId": null,
        "streetTypeId": "ST",
        "placeName": "SUDBURY",
        "streetNameDisplayText": "LOUIS ST, SUDBURY"
      },
      {
        "electoralDistricts": [
          {
            "election": null,
            "id": 103,
            "name": "Sudbury"
          }
        ],
        "pollDivisionIds": [
          10142151
        ],
        "postalCode": "P3B2H4",
        "streetName": "LOUIS",
        "streetDirectionId": null,
        "streetTypeId": null,
        "placeName": "SUDBURY",
        "streetNameDisplayText": "LOUIS, SUDBURY"
      }
    ]
  },
  {
    "postal": "P3B5C8",
    "result": []
  },
  {
    "postal": "P3B8B0",
    "result": []
  },
  {
    "postal": "P3B1T4",
    "result": [
      {
        "electoralDistricts": [
          {
            "election": null,
            "id": 103,
            "name": "Sudbury"
          }
        ],
        "pollDivisionIds": [
          10142163
        ],
        "postalCode": "P3B1T4",
        "streetName": "BANCROFT",
        "streetDirectionId": null,
        "streetTypeId": "DR",
        "placeName": "SUDBURY",
        "streetNameDisplayText": "BANCROFT DR, SUDBURY"
      }
    ]
  },
  {
    "postal": "P3B7N7",
    "result": []
  },
  {
    "postal": "P3B4L3",
    "result": []
  },
  {
    "postal": "P3B2N2",
    "result": []
  },
  {
    "postal": "P3B4N8",
    "result": []
  },
  {
    "postal": "P3B3M5",
    "result": [
      {
        "electoralDistricts": [
          {
            "election": null,
            "id": 103,
            "name": "Sudbury"
          }
        ],
        "pollDivisionIds": [
          10142163
        ],
        "postalCode": "P3B3M5",
        "streetName": "SECOND",
        "streetDirectionId": "N",
        "streetTypeId": "AVE",
        "placeName": "SUDBURY",
        "streetNameDisplayText": "SECOND AVE N, SUDBURY"
      }
    ]
  },
  {
    "postal": "P3B6H7",
    "result": []
  },
  {
    "postal": "P3B8Y8",
    "result": []
  },
  {
    "postal": "P3B5R9",
    "result": []
  },
  {
    "postal": "P3B8G3",
    "result": []
  },
  {
    "postal": "P3B4N7",
    "result": []
  },
  {
    "postal": "P3B0B9",
    "result": [
      {
        "electoralDistricts": [
          {
            "election": null,
            "id": 103,
            "name": "Sudbury"
          }
        ],
        "pollDivisionIds": [
          10142165
        ],
        "postalCode": "P3B0B9",
        "streetName": "BAYSIDE",
        "streetDirectionId": null,
        "streetTypeId": "CRES",
        "placeName": "SUDBURY",
        "streetNameDisplayText": "BAYSIDE CRES, SUDBURY"
      }
    ]
  },
  {
    "postal": "P3B9K7",
    "result": []
  },
  {
    "postal": "P3B9K9",
    "result": []
  },
  {
    "postal": "P3B3Z2",
    "result": []
  },
  {
    "postal": "P3B6W7",
    "result": []
  },
  {
    "postal": "P3B0P1",
    "result": []
  },
  {
    "postal": "P3B3A0",
    "result": []
  },
  {
    "postal": "P3B8L9",
    "result": []
  },
  {
    "postal": "P3B6X0",
    "result": []
  },
  {
    "postal": "P3B3E9",
    "result": [
      {
        "electoralDistricts": [
          {
            "election": null,
            "id": 103,
            "name": "Sudbury"
          }
        ],
        "pollDivisionIds": [
          10142166
        ],
        "postalCode": "P3B3E9",
        "streetName": "DOWNING",
        "streetDirectionId": null,
        "streetTypeId": "ST",
        "placeName": "SUDBURY",
        "streetNameDisplayText": "DOWNING ST, SUDBURY"
      }
    ]
  },
  {
    "postal": "P3B0S5",
    "result": []
  },
  {
    "postal": "P3B1A2",
    "result": [
      {
        "electoralDistricts": [
          {
            "election": null,
            "id": 103,
            "name": "Sudbury"
          }
        ],
        "pollDivisionIds": [
          10142164
        ],
        "postalCode": "P3B1A2",
        "streetName": "GREENWOOD",
        "streetDirectionId": null,
        "streetTypeId": "DR",
        "placeName": "SUDBURY",
        "streetNameDisplayText": "GREENWOOD DR, SUDBURY"
      }
    ]
  },
  {
    "postal": "P3B5V8",
    "result": []
  },
  {
    "postal": "P3B8C5",
    "result": []
  },
  {
    "postal": "P3B6N0",
    "result": []
  },
  {
    "postal": "P3B9E6",
    "result": []
  },
  {
    "postal": "P3B5J7",
    "result": []
  },
  {
    "postal": "P3B2R2",
    "result": [
      {
        "electoralDistricts": [
          {
            "election": null,
            "id": 103,
            "name": "Sudbury"
          }
        ],
        "pollDivisionIds": [
          10142149
        ],
        "postalCode": "P3B2R2",
        "streetName": "MOUNTAIN",
        "streetDirectionId": null,
        "streetTypeId": "ST",
        "placeName": "SUDBURY",
        "streetNameDisplayText": "MOUNTAIN ST, SUDBURY"
      }
    ]
  },
  {
    "postal": "P3B0P5",
    "result": []
  },
  {
    "postal": "P3B5A7",
    "result": []
  },
  {
    "postal": "P3B1G1",
    "result": [
      {
        "electoralDistricts": [
          {
            "election": null,
            "id": 103,
            "name": "Sudbury"
          }
        ],
        "pollDivisionIds": [
          10142168
        ],
        "postalCode": "P3B1G1",
        "streetName": "HOWEY",
        "streetDirectionId": null,
        "streetTypeId": "DR",
        "placeName": "SUDBURY",
        "streetNameDisplayText": "HOWEY DR, SUDBURY"
      }
    ]
  },
  {
    "postal": "P3B9R6",
    "result": []
  },
  {
    "postal": "P3B4Z9",
    "result": []
  },
  {
    "postal": "P3B1V5",
    "result": [
      {
        "electoralDistricts": [
          {
            "election": null,
            "id": 103,
            "name": "Sudbury"
          }
        ],
        "pollDivisionIds": [
          10142161
        ],
        "postalCode": "P3B1V5",
        "streetName": "GAGNE",
        "streetDirectionId": null,
        "streetTypeId": "ST",
        "placeName": "SUDBURY",
        "streetNameDisplayText": "GAGNE ST, SUDBURY"
      }
    ]
  },
  {
    "postal": "P3B9Y5",
    "result": []
  },
  {
    "postal": "P3B1P2",
    "result": []
  },
  {
    "postal": "P3B5X0",
    "result": []
  },
  {
    "postal": "P3B7B8",
    "result": []
  },
  {
    "postal": "P3B0C6",
    "result": [
      {
        "electoralDistricts": [
          {
            "election": null,
            "id": 103,
            "name": "Sudbury"
          }
        ],
        "pollDivisionIds": [
          10142150
        ],
        "postalCode": "P3B0C6",
        "streetName": "KINGSVIEW",
        "streetDirectionId": null,
        "streetTypeId": "DR",
        "placeName": "SUDBURY",
        "streetNameDisplayText": "KINGSVIEW DR, SUDBURY"
      }
    ]
  },
  {
    "postal": "P3B6G1",
    "result": []
  },
  {
    "postal": "P3B3K3",
    "result": [
      {
        "electoralDistricts": [
          {
            "election": null,
            "id": 103,
            "name": "Sudbury"
          }
        ],
        "pollDivisionIds": [
          10142166
        ],
        "postalCode": "P3B3K3",
        "streetName": "ST. DENIS",
        "streetDirectionId": null,
        "streetTypeId": "ST",
        "placeName": "SUDBURY",
        "streetNameDisplayText": "ST. DENIS ST, SUDBURY"
      }
    ]
  },
  {
    "postal": "P3B9R0",
    "result": []
  },
  {
    "postal": "P3B4R8",
    "result": []
  },
  {
    "postal": "P3B5P9",
    "result": []
  },
  {
    "postal": "P3B8N4",
    "result": []
  },
  {
    "postal": "P3B8H4",
    "result": []
  },
  {
    "postal": "P3B4V1",
    "result": []
  },
  {
    "postal": "P3B1K5",
    "result": [
      {
        "electoralDistricts": [
          {
            "election": null,
            "id": 103,
            "name": "Sudbury"
          }
        ],
        "pollDivisionIds": [
          10142166
        ],
        "postalCode": "P3B1K5",
        "streetName": "BLANCHARD",
        "streetDirectionId": null,
        "streetTypeId": "AVE",
        "placeName": "SUDBURY",
        "streetNameDisplayText": "BLANCHARD AVE, SUDBURY"
      }
    ]
  },
  {
    "postal": "P3B1Z5",
    "result": [
      {
        "electoralDistricts": [
          {
            "election": null,
            "id": 103,
            "name": "Sudbury"
          }
        ],
        "pollDivisionIds": [
          10142163
        ],
        "postalCode": "P3B1Z5",
        "streetName": "MARGARET",
        "streetDirectionId": null,
        "streetTypeId": "ST",
        "placeName": "SUDBURY",
        "streetNameDisplayText": "MARGARET ST, SUDBURY"
      }
    ]
  },
  {
    "postal": "P3B9L9",
    "result": []
  },
  {
    "postal": "P3B5L2",
    "result": []
  },
  {
    "postal": "P3B0M2",
    "result": []
  },
  {
    "postal": "P3B1K8",
    "result": [
      {
        "electoralDistricts": [
          {
            "election": null,
            "id": 103,
            "name": "Sudbury"
          }
        ],
        "pollDivisionIds": [
          10142166
        ],
        "postalCode": "P3B1K8",
        "streetName": "PICARD",
        "streetDirectionId": null,
        "streetTypeId": "ST",
        "placeName": "SUDBURY",
        "streetNameDisplayText": "PICARD ST, SUDBURY"
      }
    ]
  },
  {
    "postal": "P3B3M7",
    "result": [
      {
        "electoralDistricts": [
          {
            "election": null,
            "id": 103,
            "name": "Sudbury"
          }
        ],
        "pollDivisionIds": [
          10142163
        ],
        "postalCode": "P3B3M7",
        "streetName": "CAMELOT",
        "streetDirectionId": null,
        "streetTypeId": "DR",
        "placeName": "SUDBURY",
        "streetNameDisplayText": "CAMELOT DR, SUDBURY"
      }
    ]
  },
  {
    "postal": "P3B1B2",
    "result": [
      {
        "electoralDistricts": [
          {
            "election": null,
            "id": 103,
            "name": "Sudbury"
          }
        ],
        "pollDivisionIds": [
          10142168
        ],
        "postalCode": "P3B1B2",
        "streetName": "ELGIN",
        "streetDirectionId": null,
        "streetTypeId": "ST",
        "placeName": "SUDBURY",
        "streetNameDisplayText": "ELGIN ST, SUDBURY"
      }
    ]
  },
  {
    "postal": "P3B0H9",
    "result": []
  },
  {
    "postal": "P3B8M4",
    "result": []
  },
  {
    "postal": "P3B2M5",
    "result": [
      {
        "electoralDistricts": [
          {
            "election": null,
            "id": 103,
            "name": "Sudbury"
          }
        ],
        "pollDivisionIds": [
          10142135
        ],
        "postalCode": "P3B2M5",
        "streetName": "PERREAULT",
        "streetDirectionId": null,
        "streetTypeId": "ST",
        "placeName": "SUDBURY",
        "streetNameDisplayText": "PERREAULT ST, SUDBURY"
      }
    ]
  },
  {
    "postal": "P3B0T9",
    "result": []
  },
  {
    "postal": "P3B3P1",
    "result": [
      {
        "electoralDistricts": [
          {
            "election": null,
            "id": 103,
            "name": "Sudbury"
          }
        ],
        "pollDivisionIds": [
          10142163
        ],
        "postalCode": "P3B3P1",
        "streetName": "GARLAND",
        "streetDirectionId": null,
        "streetTypeId": "CRES",
        "placeName": "SUDBURY",
        "streetNameDisplayText": "GARLAND CRES, SUDBURY"
      }
    ]
  },
  {
    "postal": "P3B1R6",
    "result": [
      {
        "electoralDistricts": [
          {
            "election": null,
            "id": 103,
            "name": "Sudbury"
          }
        ],
        "pollDivisionIds": [
          10142167,
          10142166
        ],
        "postalCode": "P3B1R6",
        "streetName": "BANCROFT",
        "streetDirectionId": null,
        "streetTypeId": "DR",
        "placeName": "SUDBURY",
        "streetNameDisplayText": "BANCROFT DR, SUDBURY"
      }
    ]
  },
  {
    "postal": "P3B9V5",
    "result": []
  },
  {
    "postal": "P3B9T0",
    "result": []
  },
  {
    "postal": "P3B0A9",
    "result": [
      {
        "electoralDistricts": [
          {
            "election": null,
            "id": 103,
            "name": "Sudbury"
          }
        ],
        "pollDivisionIds": [
          10142149
        ],
        "postalCode": "P3B0A9",
        "streetName": "SUNRISE RIDGE",
        "streetDirectionId": null,
        "streetTypeId": "DR",
        "placeName": "SUDBURY",
        "streetNameDisplayText": "SUNRISE RIDGE DR, SUDBURY"
      }
    ]
  },
  {
    "postal": "P3B1M3",
    "result": [
      {
        "electoralDistricts": [
          {
            "election": null,
            "id": 103,
            "name": "Sudbury"
          }
        ],
        "pollDivisionIds": [
          10142168
        ],
        "postalCode": "P3B1M3",
        "streetName": "ST RAPHAEL",
        "streetDirectionId": null,
        "streetTypeId": "ST",
        "placeName": "SUDBURY",
        "streetNameDisplayText": "ST RAPHAEL ST, SUDBURY"
      },
      {
        "electoralDistricts": [
          {
            "election": null,
            "id": 103,
            "name": "Sudbury"
          }
        ],
        "pollDivisionIds": [
          10142168
        ],
        "postalCode": "P3B1M3",
        "streetName": "ST.RAPHAEL ST",
        "streetDirectionId": null,
        "streetTypeId": null,
        "placeName": "SUDBURY ONTARIO",
        "streetNameDisplayText": "ST.RAPHAEL ST, SUDBURY ONTARIO"
      }
    ]
  },
  {
    "postal": "P3B1W8",
    "result": [
      {
        "electoralDistricts": [
          {
            "election": null,
            "id": 103,
            "name": "Sudbury"
          }
        ],
        "pollDivisionIds": [
          10142161
        ],
        "postalCode": "P3B1W8",
        "streetName": "RAYMOND",
        "streetDirectionId": null,
        "streetTypeId": "ST",
        "placeName": "SUDBURY",
        "streetNameDisplayText": "RAYMOND ST, SUDBURY"
      }
    ]
  },
  {
    "postal": "P3B9J1",
    "result": []
  },
  {
    "postal": "P3B8N5",
    "result": []
  },
  {
    "postal": "P3B5X1",
    "result": []
  },
  {
    "postal": "P3B6S2",
    "result": []
  },
  {
    "postal": "P3B2A2",
    "result": [
      {
        "electoralDistricts": [
          {
            "election": null,
            "id": 103,
            "name": "Sudbury"
          }
        ],
        "pollDivisionIds": [
          10142163
        ],
        "postalCode": "P3B2A2",
        "streetName": "SCARLETT",
        "streetDirectionId": null,
        "streetTypeId": "RD",
        "placeName": "SUDBURY",
        "streetNameDisplayText": "SCARLETT RD, SUDBURY"
      }
    ]
  },
  {
    "postal": "P3B6A6",
    "result": []
  },
  {
    "postal": "P3B0S3",
    "result": []
  },
  {
    "postal": "P3B3E7",
    "result": [
      {
        "electoralDistricts": [
          {
            "election": null,
            "id": 103,
            "name": "Sudbury"
          }
        ],
        "pollDivisionIds": [
          10142166
        ],
        "postalCode": "P3B3E7",
        "streetName": "DOWNING",
        "streetDirectionId": null,
        "streetTypeId": "ST",
        "placeName": "SUDBURY",
        "streetNameDisplayText": "DOWNING ST, SUDBURY"
      }
    ]
  },
  {
    "postal": "P3B5R7",
    "result": []
  },
  {
    "postal": "P3B3R6",
    "result": [
      {
        "electoralDistricts": [
          {
            "election": null,
            "id": 103,
            "name": "Sudbury"
          }
        ],
        "pollDivisionIds": [
          10142163
        ],
        "postalCode": "P3B3R6",
        "streetName": "ROGER",
        "streetDirectionId": null,
        "streetTypeId": "ST",
        "placeName": "SUDBURY",
        "streetNameDisplayText": "ROGER ST, SUDBURY"
      }
    ]
  },
  {
    "postal": "P3B6K4",
    "result": []
  },
  {
    "postal": "P3B2W5",
    "result": [
      {
        "electoralDistricts": [
          {
            "election": null,
            "id": 103,
            "name": "Sudbury"
          }
        ],
        "pollDivisionIds": [
          10142168,
          10142167
        ],
        "postalCode": "P3B2W5",
        "streetName": "ANNIE",
        "streetDirectionId": null,
        "streetTypeId": "ST",
        "placeName": "SUDBURY",
        "streetNameDisplayText": "ANNIE ST, SUDBURY"
      }
    ]
  },
  {
    "postal": "P3B8W4",
    "result": []
  },
  {
    "postal": "P3B9C2",
    "result": []
  },
  {
    "postal": "P3B2C0",
    "result": []
  },
  {
    "postal": "P3B0E1",
    "result": [
      {
        "electoralDistricts": [
          {
            "election": null,
            "id": 103,
            "name": "Sudbury"
          }
        ],
        "pollDivisionIds": [
          10142149
        ],
        "postalCode": "P3B0E1",
        "streetName": "MONT ADAM",
        "streetDirectionId": null,
        "streetTypeId": "ST",
        "placeName": "SUDBURY",
        "streetNameDisplayText": "MONT ADAM ST, SUDBURY"
      }
    ]
  },
  {
    "postal": "P3B1K9",
    "result": [
      {
        "electoralDistricts": [
          {
            "election": null,
            "id": 103,
            "name": "Sudbury"
          }
        ],
        "pollDivisionIds": [
          10142166
        ],
        "postalCode": "P3B1K9",
        "streetName": "WELLER",
        "streetDirectionId": null,
        "streetTypeId": "ST",
        "placeName": "SUDBURY",
        "streetNameDisplayText": "WELLER ST, SUDBURY"
      }
    ]
  },
  {
    "postal": "P3B1G7",
    "result": [
      {
        "electoralDistricts": [
          {
            "election": null,
            "id": 103,
            "name": "Sudbury"
          }
        ],
        "pollDivisionIds": [
          10142168
        ],
        "postalCode": "P3B1G7",
        "streetName": "HOWEY",
        "streetDirectionId": null,
        "streetTypeId": "DR",
        "placeName": "SUDBURY",
        "streetNameDisplayText": "HOWEY DR, SUDBURY"
      }
    ]
  },
  {
    "postal": "P3B4E9",
    "result": []
  },
  {
    "postal": "P3B9P0",
    "result": []
  },
  {
    "postal": "P3B5H3",
    "result": []
  },
  {
    "postal": "P3B9X6",
    "result": []
  },
  {
    "postal": "P3B5N7",
    "result": []
  },
  {
    "postal": "P3B5A6",
    "result": []
  },
  {
    "postal": "P3B4M0",
    "result": []
  },
  {
    "postal": "P3B3V6",
    "result": [
      {
        "electoralDistricts": [
          {
            "election": null,
            "id": 103,
            "name": "Sudbury"
          }
        ],
        "pollDivisionIds": [
          10142130,
          10142161
        ],
        "postalCode": "P3B3V6",
        "streetName": "MOONLIGHT BEACH",
        "streetDirectionId": null,
        "streetTypeId": "RD",
        "placeName": "SUDBURY",
        "streetNameDisplayText": "MOONLIGHT BEACH RD, SUDBURY"
      }
    ]
  },
  {
    "postal": "P3B1L7",
    "result": [
      {
        "electoralDistricts": [
          {
            "election": null,
            "id": 103,
            "name": "Sudbury"
          }
        ],
        "pollDivisionIds": [
          10142163
        ],
        "postalCode": "P3B1L7",
        "streetName": "MILDRED",
        "streetDirectionId": null,
        "streetTypeId": "ST",
        "placeName": "SUDBURY",
        "streetNameDisplayText": "MILDRED ST, SUDBURY"
      }
    ]
  },
  {
    "postal": "P3B2P9",
    "result": []
  },
  {
    "postal": "P3B5T4",
    "result": []
  },
  {
    "postal": "P3B5Z1",
    "result": []
  },
  {
    "postal": "P3B2X0",
    "result": []
  },
  {
    "postal": "P3B6Z2",
    "result": []
  },
  {
    "postal": "P3B0E0",
    "result": []
  },
  {
    "postal": "P3B3Z5",
    "result": [
      {
        "electoralDistricts": [
          {
            "election": null,
            "id": 103,
            "name": "Sudbury"
          }
        ],
        "pollDivisionIds": [
          10142162
        ],
        "postalCode": "P3B3Z5",
        "streetName": "AUTUMNWOOD",
        "streetDirectionId": null,
        "streetTypeId": "CRES",
        "placeName": "SUDBURY",
        "streetNameDisplayText": "AUTUMNWOOD CRES, SUDBURY"
      }
    ]
  },
  {
    "postal": "P3B8H3",
    "result": []
  },
  {
    "postal": "P3B7S6",
    "result": []
  },
  {
    "postal": "P3B4C1",
    "result": [
      {
        "electoralDistricts": [
          {
            "election": null,
            "id": 103,
            "name": "Sudbury"
          }
        ],
        "pollDivisionIds": [
          10142163
        ],
        "postalCode": "P3B4C1",
        "streetName": "BETHUNE",
        "streetDirectionId": null,
        "streetTypeId": "AVE",
        "placeName": "SUDBURY",
        "streetNameDisplayText": "BETHUNE AVE, SUDBURY"
      }
    ]
  },
  {
    "postal": "P3B3K2",
    "result": [
      {
        "electoralDistricts": [
          {
            "election": null,
            "id": 103,
            "name": "Sudbury"
          }
        ],
        "pollDivisionIds": [
          10142166
        ],
        "postalCode": "P3B3K2",
        "streetName": "ST. DENIS",
        "streetDirectionId": null,
        "streetTypeId": "ST",
        "placeName": "SUDBURY",
        "streetNameDisplayText": "ST. DENIS ST, SUDBURY"
      }
    ]
  },
  {
    "postal": "P3B1Y5",
    "result": [
      {
        "electoralDistricts": [
          {
            "election": null,
            "id": 103,
            "name": "Sudbury"
          }
        ],
        "pollDivisionIds": [
          10142163
        ],
        "postalCode": "P3B1Y5",
        "streetName": "WILTSHIRE",
        "streetDirectionId": null,
        "streetTypeId": "ST",
        "placeName": "SUDBURY",
        "streetNameDisplayText": "WILTSHIRE ST, SUDBURY"
      }
    ]
  },
  {
    "postal": "P3B6P6",
    "result": []
  },
  {
    "postal": "P3B3N9",
    "result": [
      {
        "electoralDistricts": [
          {
            "election": null,
            "id": 103,
            "name": "Sudbury"
          }
        ],
        "pollDivisionIds": [
          10142163
        ],
        "postalCode": "P3B3N9",
        "streetName": "GREENBRIAR",
        "streetDirectionId": null,
        "streetTypeId": "DR",
        "placeName": "SUDBURY",
        "streetNameDisplayText": "GREENBRIAR DR, SUDBURY"
      }
    ]
  },
  {
    "postal": "P3B3W2",
    "result": [
      {
        "electoralDistricts": [
          {
            "election": null,
            "id": 103,
            "name": "Sudbury"
          }
        ],
        "pollDivisionIds": [
          10142161,
          10142130
        ],
        "postalCode": "P3B3W2",
        "streetName": "MOONLIGHT",
        "streetDirectionId": null,
        "streetTypeId": "AVE",
        "placeName": "SUDBURY",
        "streetNameDisplayText": "MOONLIGHT AVE, SUDBURY"
      }
    ]
  },
  {
    "postal": "P3B6H8",
    "result": []
  },
  {
    "postal": "P3B9T3",
    "result": []
  },
  {
    "postal": "P3B5L9",
    "result": []
  },
  {
    "postal": "P3B7X7",
    "result": []
  },
  {
    "postal": "P3B3J5",
    "result": [
      {
        "electoralDistricts": [
          {
            "election": null,
            "id": 103,
            "name": "Sudbury"
          }
        ],
        "pollDivisionIds": [
          10142166
        ],
        "postalCode": "P3B3J5",
        "streetName": "LENOX",
        "streetDirectionId": null,
        "streetTypeId": "AVE",
        "placeName": "SUDBURY",
        "streetNameDisplayText": "LENOX AVE, SUDBURY"
      }
    ]
  },
  {
    "postal": "P3B4J5",
    "result": [
      {
        "electoralDistricts": [
          {
            "election": null,
            "id": 103,
            "name": "Sudbury"
          }
        ],
        "pollDivisionIds": [
          10142168
        ],
        "postalCode": "P3B4J5",
        "streetName": "MORRIS",
        "streetDirectionId": null,
        "streetTypeId": "ST",
        "placeName": "SUDBURY",
        "streetNameDisplayText": "MORRIS ST, SUDBURY"
      }
    ]
  },
  {
    "postal": "P3B6J2",
    "result": []
  },
  {
    "postal": "P3B5V6",
    "result": []
  },
  {
    "postal": "P3B3N2",
    "result": [
      {
        "electoralDistricts": [
          {
            "election": null,
            "id": 103,
            "name": "Sudbury"
          }
        ],
        "pollDivisionIds": [
          10142163
        ],
        "postalCode": "P3B3N2",
        "streetName": "CAMELOT",
        "streetDirectionId": null,
        "streetTypeId": "DR",
        "placeName": "SUDBURY",
        "streetNameDisplayText": "CAMELOT DR, SUDBURY"
      }
    ]
  },
  {
    "postal": "P3B3B1",
    "result": [
      {
        "electoralDistricts": [
          {
            "election": null,
            "id": 103,
            "name": "Sudbury"
          }
        ],
        "pollDivisionIds": [
          10142166
        ],
        "postalCode": "P3B3B1",
        "streetName": "SOMERSET",
        "streetDirectionId": null,
        "streetTypeId": "ST",
        "placeName": "SUDBURY",
        "streetNameDisplayText": "SOMERSET ST, SUDBURY"
      }
    ]
  },
  {
    "postal": "P3B8B5",
    "result": []
  },
  {
    "postal": "P3B0K1",
    "result": []
  },
  {
    "postal": "P3B7M7",
    "result": []
  },
  {
    "postal": "P3B2M2",
    "result": [
      {
        "electoralDistricts": [
          {
            "election": null,
            "id": 103,
            "name": "Sudbury"
          }
        ],
        "pollDivisionIds": [
          10142135
        ],
        "postalCode": "P3B2M2",
        "streetName": "DELL",
        "streetDirectionId": null,
        "streetTypeId": "ST",
        "placeName": "SUDBURY",
        "streetNameDisplayText": "DELL ST, SUDBURY"
      }
    ]
  },
  {
    "postal": "P3B9N3",
    "result": []
  },
  {
    "postal": "P3B4Y8",
    "result": []
  },
  {
    "postal": "P3B3V7",
    "result": [
      {
        "electoralDistricts": [
          {
            "election": null,
            "id": 103,
            "name": "Sudbury"
          }
        ],
        "pollDivisionIds": [
          10142161
        ],
        "postalCode": "P3B3V7",
        "streetName": "MOONLIGHT BEACH",
        "streetDirectionId": null,
        "streetTypeId": "RD",
        "placeName": "SUDBURY",
        "streetNameDisplayText": "MOONLIGHT BEACH RD, SUDBURY"
      }
    ]
  },
  {
    "postal": "P3B8Z1",
    "result": []
  },
  {
    "postal": "P3B7B3",
    "result": []
  },
  {
    "postal": "P3B3A8",
    "result": [
      {
        "electoralDistricts": [
          {
            "election": null,
            "id": 103,
            "name": "Sudbury"
          }
        ],
        "pollDivisionIds": [
          10142166
        ],
        "postalCode": "P3B3A8",
        "streetName": "SOMERSET",
        "streetDirectionId": null,
        "streetTypeId": "ST",
        "placeName": "SUDBURY",
        "streetNameDisplayText": "SOMERSET ST, SUDBURY"
      }
    ]
  },
  {
    "postal": "P3B7V5",
    "result": []
  },
  {
    "postal": "P3B2T2",
    "result": [
      {
        "electoralDistricts": [
          {
            "election": null,
            "id": 103,
            "name": "Sudbury"
          }
        ],
        "pollDivisionIds": [
          10142135
        ],
        "postalCode": "P3B2T2",
        "streetName": "CLINTON",
        "streetDirectionId": null,
        "streetTypeId": "AVE",
        "placeName": "SUDBURY",
        "streetNameDisplayText": "CLINTON AVE, SUDBURY"
      }
    ]
  },
  {
    "postal": "P3B6L3",
    "result": []
  },
  {
    "postal": "P3B0L2",
    "result": []
  },
  {
    "postal": "P3B5Y8",
    "result": []
  },
  {
    "postal": "P3B0B8",
    "result": []
  },
  {
    "postal": "P3B6R5",
    "result": []
  },
  {
    "postal": "P3B8W6",
    "result": []
  },
  {
    "postal": "P3B8G6",
    "result": []
  },
  {
    "postal": "P3B6X3",
    "result": []
  },
  {
    "postal": "P3B7R7",
    "result": []
  },
  {
    "postal": "P3B4B6",
    "result": [
      {
        "electoralDistricts": [
          {
            "election": null,
            "id": 103,
            "name": "Sudbury"
          }
        ],
        "pollDivisionIds": [
          10142162
        ],
        "postalCode": "P3B4B6",
        "streetName": "CHERRYWOOD",
        "streetDirectionId": null,
        "streetTypeId": "CRES",
        "placeName": "SUDBURY",
        "streetNameDisplayText": "CHERRYWOOD CRES, SUDBURY"
      },
      {
        "electoralDistricts": [
          {
            "election": null,
            "id": 103,
            "name": "Sudbury"
          }
        ],
        "pollDivisionIds": [
          10142131
        ],
        "postalCode": "P3B4B6",
        "streetName": "EYRE",
        "streetDirectionId": null,
        "streetTypeId": "ST",
        "placeName": "SUDBURY ONTARIO",
        "streetNameDisplayText": "EYRE ST, SUDBURY ONTARIO"
      }
    ]
  },
  {
    "postal": "P3B3P9",
    "result": [
      {
        "electoralDistricts": [
          {
            "election": null,
            "id": 103,
            "name": "Sudbury"
          }
        ],
        "pollDivisionIds": [
          10142162
        ],
        "postalCode": "P3B3P9",
        "streetName": "THIRD",
        "streetDirectionId": null,
        "streetTypeId": "AVE",
        "placeName": "SUDBURY",
        "streetNameDisplayText": "THIRD AVE, SUDBURY"
      }
    ]
  },
  {
    "postal": "P3B2T3",
    "result": [
      {
        "electoralDistricts": [
          {
            "election": null,
            "id": 103,
            "name": "Sudbury"
          }
        ],
        "pollDivisionIds": [
          10142135
        ],
        "postalCode": "P3B2T3",
        "streetName": "LESLIE",
        "streetDirectionId": null,
        "streetTypeId": "ST",
        "placeName": "SUDBURY",
        "streetNameDisplayText": "LESLIE ST, SUDBURY"
      }
    ]
  },
  {
    "postal": "P3B1M4",
    "result": [
      {
        "electoralDistricts": [
          {
            "election": null,
            "id": 103,
            "name": "Sudbury"
          }
        ],
        "pollDivisionIds": [
          10142168
        ],
        "postalCode": "P3B1M4",
        "streetName": "ST RAPHAEL",
        "streetDirectionId": null,
        "streetTypeId": "ST",
        "placeName": "SUDBURY",
        "streetNameDisplayText": "ST RAPHAEL ST, SUDBURY"
      },
      {
        "electoralDistricts": [
          {
            "election": null,
            "id": 103,
            "name": "Sudbury"
          }
        ],
        "pollDivisionIds": [
          10142168
        ],
        "postalCode": "P3B1M4",
        "streetName": "ST. RAPHAEL ST.",
        "streetDirectionId": null,
        "streetTypeId": "ST",
        "placeName": "SUDBURY",
        "streetNameDisplayText": "ST. RAPHAEL ST. ST, SUDBURY"
      }
    ]
  },
  {
    "postal": "P3B0H1",
    "result": []
  },
  {
    "postal": "P3B9W3",
    "result": []
  },
  {
    "postal": "P3B6P1",
    "result": []
  },
  {
    "postal": "P3B7G2",
    "result": []
  },
  {
    "postal": "P3B4J9",
    "result": [
      {
        "electoralDistricts": [
          {
            "election": null,
            "id": 103,
            "name": "Sudbury"
          }
        ],
        "pollDivisionIds": [
          10142149
        ],
        "postalCode": "P3B4J9",
        "streetName": "MONT ADAM",
        "streetDirectionId": null,
        "streetTypeId": "ST",
        "placeName": "SUDBURY",
        "streetNameDisplayText": "MONT ADAM ST, SUDBURY"
      },
      {
        "electoralDistricts": [
          {
            "election": null,
            "id": 103,
            "name": "Sudbury"
          }
        ],
        "pollDivisionIds": [
          10142149
        ],
        "postalCode": "P3B4J9",
        "streetName": "MOUNTAIN",
        "streetDirectionId": null,
        "streetTypeId": "ST",
        "placeName": "SUDBURY",
        "streetNameDisplayText": "MOUNTAIN ST, SUDBURY"
      }
    ]
  },
  {
    "postal": "P3B9E4",
    "result": []
  },
  {
    "postal": "P3B8H0",
    "result": []
  },
  {
    "postal": "P3B4M7",
    "result": []
  },
  {
    "postal": "P3B2G9",
    "result": []
  },
  {
    "postal": "P3B8T2",
    "result": []
  },
  {
    "postal": "P3B7G7",
    "result": []
  },
  {
    "postal": "P3B4Z3",
    "result": []
  },
  {
    "postal": "P3B5B3",
    "result": []
  },
  {
    "postal": "P3B1S7",
    "result": [
      {
        "electoralDistricts": [
          {
            "election": null,
            "id": 103,
            "name": "Sudbury"
          }
        ],
        "pollDivisionIds": [
          10142163
        ],
        "postalCode": "P3B1S7",
        "streetName": "BANCROFT",
        "streetDirectionId": null,
        "streetTypeId": "DR",
        "placeName": "SUDBURY",
        "streetNameDisplayText": "BANCROFT DR, SUDBURY"
      }
    ]
  },
  {
    "postal": "P3B2N7",
    "result": [
      {
        "electoralDistricts": [
          {
            "election": null,
            "id": 103,
            "name": "Sudbury"
          }
        ],
        "pollDivisionIds": [
          10142168
        ],
        "postalCode": "P3B2N7",
        "streetName": "NELSON",
        "streetDirectionId": null,
        "streetTypeId": "ST",
        "placeName": "SUDBURY",
        "streetNameDisplayText": "NELSON ST, SUDBURY"
      }
    ]
  },
  {
    "postal": "P3B0H8",
    "result": []
  },
  {
    "postal": "P3B7Z4",
    "result": []
  },
  {
    "postal": "P3B7B1",
    "result": []
  },
  {
    "postal": "P3B7P8",
    "result": []
  },
  {
    "postal": "P3B7N0",
    "result": []
  },
  {
    "postal": "P3B3Y5",
    "result": [
      {
        "electoralDistricts": [
          {
            "election": null,
            "id": 103,
            "name": "Sudbury"
          }
        ],
        "pollDivisionIds": [
          10142162
        ],
        "postalCode": "P3B3Y5",
        "streetName": "DORSETT",
        "streetDirectionId": null,
        "streetTypeId": "DR",
        "placeName": "SUDBURY",
        "streetNameDisplayText": "DORSETT DR, SUDBURY"
      }
    ]
  },
  {
    "postal": "P3B6K1",
    "result": []
  },
  {
    "postal": "P3B9X5",
    "result": []
  },
  {
    "postal": "P3B7S5",
    "result": []
  },
  {
    "postal": "P3B0A4",
    "result": [
      {
        "electoralDistricts": [
          {
            "election": null,
            "id": 103,
            "name": "Sudbury"
          }
        ],
        "pollDivisionIds": [
          10142163
        ],
        "postalCode": "P3B0A4",
        "streetName": "KINGSWAY",
        "streetDirectionId": null,
        "streetTypeId": null,
        "placeName": "SUDBURY",
        "streetNameDisplayText": "KINGSWAY, SUDBURY"
      }
    ]
  },
  {
    "postal": "P3B4T5",
    "result": []
  },
  {
    "postal": "P3B5K1",
    "result": []
  },
  {
    "postal": "P3B0Z9",
    "result": []
  },
  {
    "postal": "P3B7T2",
    "result": []
  },
  {
    "postal": "P3B1L5",
    "result": [
      {
        "electoralDistricts": [
          {
            "election": null,
            "id": 103,
            "name": "Sudbury"
          }
        ],
        "pollDivisionIds": [
          10142163
        ],
        "postalCode": "P3B1L5",
        "streetName": "MILDRED",
        "streetDirectionId": null,
        "streetTypeId": "ST",
        "placeName": "SUDBURY",
        "streetNameDisplayText": "MILDRED ST, SUDBURY"
      }
    ]
  },
  {
    "postal": "P3B3N5",
    "result": [
      {
        "electoralDistricts": [
          {
            "election": null,
            "id": 103,
            "name": "Sudbury"
          }
        ],
        "pollDivisionIds": [
          10142163
        ],
        "postalCode": "P3B3N5",
        "streetName": "ADAMS",
        "streetDirectionId": null,
        "streetTypeId": "ST",
        "placeName": "SUDBURY",
        "streetNameDisplayText": "ADAMS ST, SUDBURY"
      }
    ]
  },
  {
    "postal": "P3B6H4",
    "result": []
  },
  {
    "postal": "P3B5A5",
    "result": []
  },
  {
    "postal": "P3B3R9",
    "result": [
      {
        "electoralDistricts": [
          {
            "election": null,
            "id": 103,
            "name": "Sudbury"
          }
        ],
        "pollDivisionIds": [
          10142165,
          10142163,
          10142130
        ],
        "postalCode": "P3B3R9",
        "streetName": "FOURTH",
        "streetDirectionId": null,
        "streetTypeId": "AVE",
        "placeName": "SUDBURY",
        "streetNameDisplayText": "FOURTH AVE, SUDBURY"
      }
    ]
  },
  {
    "postal": "P3B7L8",
    "result": []
  },
  {
    "postal": "P3B6T6",
    "result": []
  },
  {
    "postal": "P3B7Y7",
    "result": []
  },
  {
    "postal": "P3B3M8",
    "result": [
      {
        "electoralDistricts": [
          {
            "election": null,
            "id": 103,
            "name": "Sudbury"
          }
        ],
        "pollDivisionIds": [
          10142163
        ],
        "postalCode": "P3B3M8",
        "streetName": "CAMELOT",
        "streetDirectionId": null,
        "streetTypeId": "DR",
        "placeName": "SUDBURY",
        "streetNameDisplayText": "CAMELOT DR, SUDBURY"
      }
    ]
  },
  {
    "postal": "P3B2E0",
    "result": []
  },
  {
    "postal": "P3B4B5",
    "result": [
      {
        "electoralDistricts": [
          {
            "election": null,
            "id": 103,
            "name": "Sudbury"
          }
        ],
        "pollDivisionIds": [
          10142162
        ],
        "postalCode": "P3B4B5",
        "streetName": "HEATHERGLEN",
        "streetDirectionId": null,
        "streetTypeId": "PL",
        "placeName": "SUDBURY",
        "streetNameDisplayText": "HEATHERGLEN PL, SUDBURY"
      }
    ]
  },
  {
    "postal": "P3B1J3",
    "result": [
      {
        "electoralDistricts": [
          {
            "election": null,
            "id": 103,
            "name": "Sudbury"
          }
        ],
        "pollDivisionIds": [
          10142168
        ],
        "postalCode": "P3B1J3",
        "streetName": "VAN HORNE",
        "streetDirectionId": null,
        "streetTypeId": "ST",
        "placeName": "SUDBURY",
        "streetNameDisplayText": "VAN HORNE ST, SUDBURY"
      }
    ]
  },
  {
    "postal": "P3B5S6",
    "result": []
  },
  {
    "postal": "P3B8P7",
    "result": []
  },
  {
    "postal": "P3B7S7",
    "result": []
  },
  {
    "postal": "P3B4C2",
    "result": [
      {
        "electoralDistricts": [
          {
            "election": null,
            "id": 103,
            "name": "Sudbury"
          }
        ],
        "pollDivisionIds": [
          10142163
        ],
        "postalCode": "P3B4C2",
        "streetName": "THIRD",
        "streetDirectionId": null,
        "streetTypeId": "AVE",
        "placeName": "SUDBURY",
        "streetNameDisplayText": "THIRD AVE, SUDBURY"
      }
    ]
  },
  {
    "postal": "P3B5Y0",
    "result": []
  },
  {
    "postal": "P3B2V7",
    "result": [
      {
        "electoralDistricts": [
          {
            "election": null,
            "id": 103,
            "name": "Sudbury"
          }
        ],
        "pollDivisionIds": [
          10142168
        ],
        "postalCode": "P3B2V7",
        "streetName": "LOURDES",
        "streetDirectionId": null,
        "streetTypeId": "ST",
        "placeName": "SUDBURY",
        "streetNameDisplayText": "LOURDES ST, SUDBURY"
      }
    ]
  },
  {
    "postal": "P3B8P5",
    "result": []
  },
  {
    "postal": "P3B5P5",
    "result": []
  },
  {
    "postal": "P3B5Z0",
    "result": []
  },
  {
    "postal": "P3B9B0",
    "result": []
  },
  {
    "postal": "P3B1L0",
    "result": []
  },
  {
    "postal": "P3B0B5",
    "result": [
      {
        "electoralDistricts": [
          {
            "election": null,
            "id": 103,
            "name": "Sudbury"
          }
        ],
        "pollDivisionIds": [
          10142161
        ],
        "postalCode": "P3B0B5",
        "streetName": "RHEAL",
        "streetDirectionId": null,
        "streetTypeId": "ST",
        "placeName": "SUDBURY",
        "streetNameDisplayText": "RHEAL ST, SUDBURY"
      }
    ]
  },
  {
    "postal": "P3B3L2",
    "result": [
      {
        "electoralDistricts": [
          {
            "election": null,
            "id": 103,
            "name": "Sudbury"
          }
        ],
        "pollDivisionIds": [
          10142163
        ],
        "postalCode": "P3B3L2",
        "streetName": "FIRST",
        "streetDirectionId": null,
        "streetTypeId": "AVE",
        "placeName": "SUDBURY",
        "streetNameDisplayText": "FIRST AVE, SUDBURY"
      }
    ]
  },
  {
    "postal": "P3B3B7",
    "result": [
      {
        "electoralDistricts": [
          {
            "election": null,
            "id": 103,
            "name": "Sudbury"
          }
        ],
        "pollDivisionIds": [
          10142167
        ],
        "postalCode": "P3B3B7",
        "streetName": "GLENDALE",
        "streetDirectionId": null,
        "streetTypeId": "AVE",
        "placeName": "SUDBURY",
        "streetNameDisplayText": "GLENDALE AVE, SUDBURY"
      }
    ]
  },
  {
    "postal": "P3B8L1",
    "result": []
  },
  {
    "postal": "P3B5M4",
    "result": []
  },
  {
    "postal": "P3B4G9",
    "result": [
      {
        "electoralDistricts": [
          {
            "election": null,
            "id": 103,
            "name": "Sudbury"
          }
        ],
        "pollDivisionIds": [
          10142167
        ],
        "postalCode": "P3B4G9",
        "streetName": "BANCROFT",
        "streetDirectionId": null,
        "streetTypeId": "DR",
        "placeName": "SUDBURY",
        "streetNameDisplayText": "BANCROFT DR, SUDBURY"
      }
    ]
  },
  {
    "postal": "P3B0P0",
    "result": []
  },
  {
    "postal": "P3B8G2",
    "result": []
  },
  {
    "postal": "P3B1V9",
    "result": [
      {
        "electoralDistricts": [
          {
            "election": null,
            "id": 103,
            "name": "Sudbury"
          }
        ],
        "pollDivisionIds": [
          10142161
        ],
        "postalCode": "P3B1V9",
        "streetName": "RHEAL",
        "streetDirectionId": null,
        "streetTypeId": "ST",
        "placeName": "SUDBURY",
        "streetNameDisplayText": "RHEAL ST, SUDBURY"
      }
    ]
  },
  {
    "postal": "P3B8N8",
    "result": []
  },
  {
    "postal": "P3B6S8",
    "result": []
  },
  {
    "postal": "P3B8H2",
    "result": []
  },
  {
    "postal": "P3B5R8",
    "result": []
  },
  {
    "postal": "P3B5L4",
    "result": []
  },
  {
    "postal": "P3B9E1",
    "result": []
  },
  {
    "postal": "P3B1C4",
    "result": [
      {
        "electoralDistricts": [
          {
            "election": null,
            "id": 103,
            "name": "Sudbury"
          }
        ],
        "pollDivisionIds": [
          10142168
        ],
        "postalCode": "P3B1C4",
        "streetName": "MORRIS",
        "streetDirectionId": null,
        "streetTypeId": "ST",
        "placeName": "SUDBURY",
        "streetNameDisplayText": "MORRIS ST, SUDBURY"
      }
    ]
  },
  {
    "postal": "P3B8W5",
    "result": []
  },
  {
    "postal": "P3B1Y4",
    "result": [
      {
        "electoralDistricts": [
          {
            "election": null,
            "id": 103,
            "name": "Sudbury"
          }
        ],
        "pollDivisionIds": [
          10142163
        ],
        "postalCode": "P3B1Y4",
        "streetName": "WILTSHIRE",
        "streetDirectionId": null,
        "streetTypeId": "ST",
        "placeName": "SUDBURY",
        "streetNameDisplayText": "WILTSHIRE ST, SUDBURY"
      }
    ]
  },
  {
    "postal": "P3B1C0",
    "result": []
  },
  {
    "postal": "P3B2J2",
    "result": [
      {
        "electoralDistricts": [
          {
            "election": null,
            "id": 103,
            "name": "Sudbury"
          }
        ],
        "pollDivisionIds": [
          10142135
        ],
        "postalCode": "P3B2J2",
        "streetName": "AGNES",
        "streetDirectionId": null,
        "streetTypeId": "ST",
        "placeName": "SUDBURY",
        "streetNameDisplayText": "AGNES ST, SUDBURY"
      }
    ]
  },
  {
    "postal": "P3B2J0",
    "result": []
  },
  {
    "postal": "P3B7A3",
    "result": []
  },
  {
    "postal": "P3B8M1",
    "result": []
  },
  {
    "postal": "P3B7T9",
    "result": []
  },
  {
    "postal": "P3B6C0",
    "result": []
  },
  {
    "postal": "P3B7X1",
    "result": []
  },
  {
    "postal": "P3B0G1",
    "result": [
      {
        "electoralDistricts": [
          {
            "election": null,
            "id": 103,
            "name": "Sudbury"
          }
        ],
        "pollDivisionIds": [
          10142163
        ],
        "postalCode": "P3B0G1",
        "streetName": "BANCROFT",
        "streetDirectionId": null,
        "streetTypeId": "DR",
        "placeName": "SUDBURY",
        "streetNameDisplayText": "BANCROFT DR, SUDBURY"
      },
      {
        "electoralDistricts": [
          {
            "election": null,
            "id": 103,
            "name": "Sudbury"
          }
        ],
        "pollDivisionIds": [
          10142162
        ],
        "postalCode": "P3B0G1",
        "streetName": "BANCROFT DR.",
        "streetDirectionId": null,
        "streetTypeId": "DR",
        "placeName": "SUDBURY",
        "streetNameDisplayText": "BANCROFT DR. DR, SUDBURY"
      }
    ]
  },
  {
    "postal": "P3B4X2",
    "result": []
  },
  {
    "postal": "P3B0N6",
    "result": []
  },
  {
    "postal": "P3B8E3",
    "result": []
  },
  {
    "postal": "P3B5S8",
    "result": []
  },
  {
    "postal": "P3B0R0",
    "result": []
  },
  {
    "postal": "P3B6J6",
    "result": []
  },
  {
    "postal": "P3B4B4",
    "result": [
      {
        "electoralDistricts": [
          {
            "election": null,
            "id": 103,
            "name": "Sudbury"
          }
        ],
        "pollDivisionIds": [
          10142162
        ],
        "postalCode": "P3B4B4",
        "streetName": "LAURELCREST",
        "streetDirectionId": null,
        "streetTypeId": "AVE",
        "placeName": "SUDBURY",
        "streetNameDisplayText": "LAURELCREST AVE, SUDBURY"
      }
    ]
  },
  {
    "postal": "P3B7E3",
    "result": []
  },
  {
    "postal": "P3B3N6",
    "result": [
      {
        "electoralDistricts": [
          {
            "election": null,
            "id": 103,
            "name": "Sudbury"
          }
        ],
        "pollDivisionIds": [
          10142163
        ],
        "postalCode": "P3B3N6",
        "streetName": "ADAMS",
        "streetDirectionId": null,
        "streetTypeId": "ST",
        "placeName": "SUDBURY",
        "streetNameDisplayText": "ADAMS ST, SUDBURY"
      }
    ]
  },
  {
    "postal": "P3B3X6",
    "result": [
      {
        "electoralDistricts": [
          {
            "election": null,
            "id": 103,
            "name": "Sudbury"
          }
        ],
        "pollDivisionIds": [
          10142163
        ],
        "postalCode": "P3B3X6",
        "streetName": "ADAMS",
        "streetDirectionId": null,
        "streetTypeId": "ST",
        "placeName": "SUDBURY",
        "streetNameDisplayText": "ADAMS ST, SUDBURY"
      }
    ]
  },
  {
    "postal": "P3B8L0",
    "result": []
  },
  {
    "postal": "P3B8N1",
    "result": []
  },
  {
    "postal": "P3B4J0",
    "result": []
  },
  {
    "postal": "P3B0X7",
    "result": []
  },
  {
    "postal": "P3B6S4",
    "result": []
  },
  {
    "postal": "P3B0Z0",
    "result": []
  },
  {
    "postal": "P3B9X8",
    "result": []
  },
  {
    "postal": "P3B3H3",
    "result": [
      {
        "electoralDistricts": [
          {
            "election": null,
            "id": 103,
            "name": "Sudbury"
          }
        ],
        "pollDivisionIds": [
          10142166
        ],
        "postalCode": "P3B3H3",
        "streetName": "MOONEY",
        "streetDirectionId": null,
        "streetTypeId": "ST",
        "placeName": "SUDBURY",
        "streetNameDisplayText": "MOONEY ST, SUDBURY"
      }
    ]
  },
  {
    "postal": "P3B7S2",
    "result": []
  },
  {
    "postal": "P3B3T3",
    "result": [
      {
        "electoralDistricts": [
          {
            "election": null,
            "id": 103,
            "name": "Sudbury"
          }
        ],
        "pollDivisionIds": [
          10142161
        ],
        "postalCode": "P3B3T3",
        "streetName": "LEVESQUE",
        "streetDirectionId": null,
        "streetTypeId": "ST",
        "placeName": "SUDBURY",
        "streetNameDisplayText": "LEVESQUE ST, SUDBURY"
      }
    ]
  },
  {
    "postal": "P3B9P3",
    "result": []
  },
  {
    "postal": "P3B4H8",
    "result": [
      {
        "electoralDistricts": [
          {
            "election": null,
            "id": 103,
            "name": "Sudbury"
          }
        ],
        "pollDivisionIds": [
          10142165
        ],
        "postalCode": "P3B4H8",
        "streetName": "SECOND",
        "streetDirectionId": "S",
        "streetTypeId": "AVE",
        "placeName": "SUDBURY",
        "streetNameDisplayText": "SECOND AVE S, SUDBURY"
      },
      {
        "electoralDistricts": [
          {
            "election": null,
            "id": 2,
            "name": "AlgomaManitoulin"
          }
        ],
        "pollDivisionIds": [
          10136774
        ],
        "postalCode": "P3B4H8",
        "streetName": "SECOND",
        "streetDirectionId": null,
        "streetTypeId": "AVE",
        "placeName": "ESPANOLA",
        "streetNameDisplayText": "SECOND AVE, ESPANOLA"
      }
    ]
  },
  {
    "postal": "P3B6R1",
    "result": []
  },
  {
    "postal": "P3B1S0",
    "result": []
  },
  {
    "postal": "P3B3W8",
    "result": [
      {
        "electoralDistricts": [
          {
            "election": null,
            "id": 103,
            "name": "Sudbury"
          }
        ],
        "pollDivisionIds": [
          10142163
        ],
        "postalCode": "P3B3W8",
        "streetName": "WILFRED",
        "streetDirectionId": null,
        "streetTypeId": "ST",
        "placeName": "SUDBURY",
        "streetNameDisplayText": "WILFRED ST, SUDBURY"
      }
    ]
  },
  {
    "postal": "P3B4S3",
    "result": []
  },
  {
    "postal": "P3B1B6",
    "result": [
      {
        "electoralDistricts": [
          {
            "election": null,
            "id": 103,
            "name": "Sudbury"
          }
        ],
        "pollDivisionIds": [
          10142168
        ],
        "postalCode": "P3B1B6",
        "streetName": "MORRIS",
        "streetDirectionId": null,
        "streetTypeId": "ST",
        "placeName": "SUDBURY",
        "streetNameDisplayText": "MORRIS ST, SUDBURY"
      }
    ]
  },
  {
    "postal": "P3B8R3",
    "result": []
  },
  {
    "postal": "P3B4V9",
    "result": []
  },
  {
    "postal": "P3B9W4",
    "result": []
  },
  {
    "postal": "P3B3T4",
    "result": [
      {
        "electoralDistricts": [
          {
            "election": null,
            "id": 103,
            "name": "Sudbury"
          }
        ],
        "pollDivisionIds": [
          10142161
        ],
        "postalCode": "P3B3T4",
        "streetName": "LEVESQUE",
        "streetDirectionId": null,
        "streetTypeId": "ST",
        "placeName": "SUDBURY",
        "streetNameDisplayText": "LEVESQUE ST, SUDBURY"
      }
    ]
  },
  {
    "postal": "P3B5C7",
    "result": []
  },
  {
    "postal": "P3B3Y1",
    "result": [
      {
        "electoralDistricts": [
          {
            "election": null,
            "id": 103,
            "name": "Sudbury"
          }
        ],
        "pollDivisionIds": [
          10142163
        ],
        "postalCode": "P3B3Y1",
        "streetName": "CAMANOR",
        "streetDirectionId": null,
        "streetTypeId": "CRT",
        "placeName": "SUDBURY",
        "streetNameDisplayText": "CAMANOR CRT, SUDBURY"
      }
    ]
  },
  {
    "postal": "P3B5V0",
    "result": []
  },
  {
    "postal": "P3B8G8",
    "result": []
  },
  {
    "postal": "P3B8B1",
    "result": []
  },
  {
    "postal": "P3B4P5",
    "result": []
  },
  {
    "postal": "P3B7B2",
    "result": []
  },
  {
    "postal": "P3B0R2",
    "result": []
  },
  {
    "postal": "P3B4M4",
    "result": []
  },
  {
    "postal": "P3B7M4",
    "result": []
  },
  {
    "postal": "P3B9S7",
    "result": []
  },
  {
    "postal": "P3B5Z7",
    "result": []
  },
  {
    "postal": "P3B7J7",
    "result": []
  },
  {
    "postal": "P3B8R8",
    "result": []
  },
  {
    "postal": "P3B9X1",
    "result": []
  },
  {
    "postal": "P3B5M9",
    "result": []
  },
  {
    "postal": "P3B9B4",
    "result": []
  },
  {
    "postal": "P3B0L9",
    "result": []
  },
  {
    "postal": "P3B9G4",
    "result": []
  },
  {
    "postal": "P3B1J4",
    "result": [
      {
        "electoralDistricts": [
          {
            "election": null,
            "id": 103,
            "name": "Sudbury"
          }
        ],
        "pollDivisionIds": [
          10142168
        ],
        "postalCode": "P3B1J4",
        "streetName": "VAN HORNE",
        "streetDirectionId": null,
        "streetTypeId": "ST",
        "placeName": "SUDBURY",
        "streetNameDisplayText": "VAN HORNE ST, SUDBURY"
      }
    ]
  },
  {
    "postal": "P3B0W6",
    "result": []
  }
]
