[
  {
    "postal": "M4J9J6",
    "result": []
  },
  {
    "postal": "M4J9Z5",
    "result": []
  },
  {
    "postal": "M4J7H8",
    "result": []
  },
  {
    "postal": "M4J0P6",
    "result": []
  },
  {
    "postal": "M4J0S7",
    "result": []
  },
  {
    "postal": "M4J8B9",
    "result": []
  },
  {
    "postal": "M4J2A6",
    "result": [
      {
        "electoralDistricts": [
          {
            "election": null,
            "id": 110,
            "name": "Toronto—Danforth"
          }
        ],
        "pollDivisionIds": [
          10142507
        ],
        "postalCode": "M4J2A6",
        "streetName": "SAMMON",
        "streetDirectionId": null,
        "streetTypeId": "AVE",
        "placeName": "EAST YORK",
        "streetNameDisplayText": "SAMMON AVE, EAST YORK"
      }
    ]
  },
  {
    "postal": "M4J7V2",
    "result": []
  },
  {
    "postal": "M4J9P4",
    "result": []
  },
  {
    "postal": "M4J6G0",
    "result": []
  },
  {
    "postal": "M4J2K0",
    "result": []
  },
  {
    "postal": "M4J7N6",
    "result": []
  },
  {
    "postal": "M4J5R3",
    "result": []
  },
  {
    "postal": "M4J7K0",
    "result": []
  },
  {
    "postal": "M4J3R2",
    "result": [
      {
        "electoralDistricts": [
          {
            "election": null,
            "id": 110,
            "name": "Toronto—Danforth"
          }
        ],
        "pollDivisionIds": [
          10142504
        ],
        "postalCode": "M4J3R2",
        "streetName": "DONLANDS",
        "streetDirectionId": null,
        "streetTypeId": "AVE",
        "placeName": "EAST YORK",
        "streetNameDisplayText": "DONLANDS AVE, EAST YORK"
      }
    ]
  },
  {
    "postal": "M4J0J1",
    "result": []
  },
  {
    "postal": "M4J0B0",
    "result": []
  },
  {
    "postal": "M4J5Z2",
    "result": []
  },
  {
    "postal": "M4J7P3",
    "result": []
  },
  {
    "postal": "M4J2K3",
    "result": [
      {
        "electoralDistricts": [
          {
            "election": null,
            "id": 110,
            "name": "Toronto—Danforth"
          }
        ],
        "pollDivisionIds": [
          10142503
        ],
        "postalCode": "M4J2K3",
        "streetName": "MEMORIAL PARK",
        "streetDirectionId": null,
        "streetTypeId": "AVE",
        "placeName": "EAST YORK",
        "streetNameDisplayText": "MEMORIAL PARK AVE, EAST YORK"
      }
    ]
  },
  {
    "postal": "M4J7Y6",
    "result": []
  },
  {
    "postal": "M4J1L9",
    "result": [
      {
        "electoralDistricts": [
          {
            "election": null,
            "id": 110,
            "name": "Toronto—Danforth"
          }
        ],
        "pollDivisionIds": [
          10142508
        ],
        "postalCode": "M4J1L9",
        "streetName": "DANFORTH",
        "streetDirectionId": null,
        "streetTypeId": "AVE",
        "placeName": "TORONTO",
        "streetNameDisplayText": "DANFORTH AVE, TORONTO"
      }
    ]
  },
  {
    "postal": "M4J8T0",
    "result": []
  },
  {
    "postal": "M4J3K8",
    "result": [
      {
        "electoralDistricts": [
          {
            "election": null,
            "id": 110,
            "name": "Toronto—Danforth"
          }
        ],
        "pollDivisionIds": [
          10142505
        ],
        "postalCode": "M4J3K8",
        "streetName": "DEWHURST",
        "streetDirectionId": "N",
        "streetTypeId": "BLVD",
        "placeName": "EAST YORK",
        "streetNameDisplayText": "DEWHURST BLVD N, EAST YORK"
      }
    ]
  },
  {
    "postal": "M4J5W9",
    "result": []
  },
  {
    "postal": "M4J6T9",
    "result": []
  },
  {
    "postal": "M4J4H1",
    "result": [
      {
        "electoralDistricts": [
          {
            "election": null,
            "id": 110,
            "name": "Toronto—Danforth"
          }
        ],
        "pollDivisionIds": [
          10142500
        ],
        "postalCode": "M4J4H1",
        "streetName": "ATHLONE",
        "streetDirectionId": null,
        "streetTypeId": "RD",
        "placeName": "EAST YORK",
        "streetNameDisplayText": "ATHLONE RD, EAST YORK"
      }
    ]
  },
  {
    "postal": "M4J7A2",
    "result": []
  },
  {
    "postal": "M4J5G0",
    "result": []
  },
  {
    "postal": "M4J8V5",
    "result": []
  },
  {
    "postal": "M4J2Y8",
    "result": [
      {
        "electoralDistricts": [
          {
            "election": null,
            "id": 110,
            "name": "Toronto—Danforth"
          }
        ],
        "pollDivisionIds": [
          10142501
        ],
        "postalCode": "M4J2Y8",
        "streetName": "PEPLER",
        "streetDirectionId": null,
        "streetTypeId": "AVE",
        "placeName": "EAST YORK",
        "streetNameDisplayText": "PEPLER AVE, EAST YORK"
      }
    ]
  },
  {
    "postal": "M4J2B6",
    "result": [
      {
        "electoralDistricts": [
          {
            "election": null,
            "id": 110,
            "name": "Toronto—Danforth"
          }
        ],
        "pollDivisionIds": [
          10142503
        ],
        "postalCode": "M4J2B6",
        "streetName": "SAMMON",
        "streetDirectionId": null,
        "streetTypeId": "AVE",
        "placeName": "EAST YORK",
        "streetNameDisplayText": "SAMMON AVE, EAST YORK"
      }
    ]
  },
  {
    "postal": "M4J4W8",
    "result": [
      {
        "electoralDistricts": [
          {
            "election": null,
            "id": 110,
            "name": "Toronto—Danforth"
          }
        ],
        "pollDivisionIds": [
          10142503
        ],
        "postalCode": "M4J4W8",
        "streetName": "LANKIN",
        "streetDirectionId": null,
        "streetTypeId": "BLVD",
        "placeName": "EAST YORK",
        "streetNameDisplayText": "LANKIN BLVD, EAST YORK"
      }
    ]
  },
  {
    "postal": "M4J8H7",
    "result": []
  },
  {
    "postal": "M4J5P1",
    "result": []
  },
  {
    "postal": "M4J2B8",
    "result": [
      {
        "electoralDistricts": [
          {
            "election": null,
            "id": 110,
            "name": "Toronto—Danforth"
          }
        ],
        "pollDivisionIds": [
          10142505
        ],
        "postalCode": "M4J2B8",
        "streetName": "KINGS PARK",
        "streetDirectionId": null,
        "streetTypeId": "BLVD",
        "placeName": "EAST YORK",
        "streetNameDisplayText": "KINGS PARK BLVD, EAST YORK"
      }
    ]
  },
  {
    "postal": "M4J0P2",
    "result": []
  },
  {
    "postal": "M4J9M1",
    "result": []
  },
  {
    "postal": "M4J3G0",
    "result": []
  },
  {
    "postal": "M4J9Z2",
    "result": []
  },
  {
    "postal": "M4J2A0",
    "result": []
  },
  {
    "postal": "M4J6Y0",
    "result": []
  },
  {
    "postal": "M4J2Z8",
    "result": [
      {
        "electoralDistricts": [
          {
            "election": null,
            "id": 110,
            "name": "Toronto—Danforth"
          }
        ],
        "pollDivisionIds": [
          10142509
        ],
        "postalCode": "M4J2Z8",
        "streetName": "EATON",
        "streetDirectionId": null,
        "streetTypeId": "AVE",
        "placeName": "EAST YORK",
        "streetNameDisplayText": "EATON AVE, EAST YORK"
      }
    ]
  },
  {
    "postal": "M4J7Y3",
    "result": []
  },
  {
    "postal": "M4J6Z5",
    "result": []
  },
  {
    "postal": "M4J6E0",
    "result": []
  },
  {
    "postal": "M4J9B7",
    "result": []
  },
  {
    "postal": "M4J9S5",
    "result": []
  },
  {
    "postal": "M4J3X3",
    "result": [
      {
        "electoralDistricts": [
          {
            "election": null,
            "id": 110,
            "name": "Toronto—Danforth"
          }
        ],
        "pollDivisionIds": [
          10142502
        ],
        "postalCode": "M4J3X3",
        "streetName": "CADORNA",
        "streetDirectionId": null,
        "streetTypeId": "AVE",
        "placeName": "EAST YORK",
        "streetNameDisplayText": "CADORNA AVE, EAST YORK"
      }
    ]
  },
  {
    "postal": "M4J7R5",
    "result": []
  },
  {
    "postal": "M4J2X3",
    "result": [
      {
        "electoralDistricts": [
          {
            "election": null,
            "id": 110,
            "name": "Toronto—Danforth"
          }
        ],
        "pollDivisionIds": [
          10142500
        ],
        "postalCode": "M4J2X3",
        "streetName": "FOUR OAKS",
        "streetDirectionId": null,
        "streetTypeId": "GATE",
        "placeName": "EAST YORK",
        "streetNameDisplayText": "FOUR OAKS GATE, EAST YORK"
      }
    ]
  },
  {
    "postal": "M4J8Z9",
    "result": []
  },
  {
    "postal": "M4J0N4",
    "result": []
  },
  {
    "postal": "M4J1K1",
    "result": [
      {
        "electoralDistricts": [
          {
            "election": null,
            "id": 110,
            "name": "Toronto—Danforth"
          }
        ],
        "pollDivisionIds": [
          10142507
        ],
        "postalCode": "M4J1K1",
        "streetName": "MOUNTJOY",
        "streetDirectionId": null,
        "streetTypeId": "AVE",
        "placeName": "TORONTO",
        "streetNameDisplayText": "MOUNTJOY AVE, TORONTO"
      }
    ]
  },
  {
    "postal": "M4J1S3",
    "result": [
      {
        "electoralDistricts": [
          {
            "election": null,
            "id": 110,
            "name": "Toronto—Danforth"
          }
        ],
        "pollDivisionIds": [
          10142508
        ],
        "postalCode": "M4J1S3",
        "streetName": "GLEBEHOLME",
        "streetDirectionId": null,
        "streetTypeId": "BLVD",
        "placeName": "TORONTO",
        "streetNameDisplayText": "GLEBEHOLME BLVD, TORONTO"
      }
    ]
  },
  {
    "postal": "M4J6M4",
    "result": []
  },
  {
    "postal": "M4J9A9",
    "result": []
  },
  {
    "postal": "M4J9Z9",
    "result": []
  },
  {
    "postal": "M4J6T4",
    "result": []
  },
  {
    "postal": "M4J0B2",
    "result": []
  },
  {
    "postal": "M4J2L9",
    "result": [
      {
        "electoralDistricts": [
          {
            "election": null,
            "id": 110,
            "name": "Toronto—Danforth"
          }
        ],
        "pollDivisionIds": [
          10142504
        ],
        "postalCode": "M4J2L9",
        "streetName": "COSBURN",
        "streetDirectionId": null,
        "streetTypeId": "AVE",
        "placeName": "EAST YORK",
        "streetNameDisplayText": "COSBURN AVE, EAST YORK"
      }
    ]
  },
  {
    "postal": "M4J8K9",
    "result": []
  },
  {
    "postal": "M4J2H9",
    "result": [
      {
        "electoralDistricts": [
          {
            "election": null,
            "id": 110,
            "name": "Toronto—Danforth"
          }
        ],
        "pollDivisionIds": [
          10142505
        ],
        "postalCode": "M4J2H9",
        "streetName": "FLOYD",
        "streetDirectionId": null,
        "streetTypeId": "AVE",
        "placeName": "EAST YORK",
        "streetNameDisplayText": "FLOYD AVE, EAST YORK"
      }
    ]
  },
  {
    "postal": "M4J3Z6",
    "result": [
      {
        "electoralDistricts": [
          {
            "election": null,
            "id": 110,
            "name": "Toronto—Danforth"
          }
        ],
        "pollDivisionIds": [
          10142502
        ],
        "postalCode": "M4J3Z6",
        "streetName": "DON MILLS",
        "streetDirectionId": null,
        "streetTypeId": "RD",
        "placeName": "EAST YORK",
        "streetNameDisplayText": "DON MILLS RD, EAST YORK"
      }
    ]
  },
  {
    "postal": "M4J3B0",
    "result": []
  },
  {
    "postal": "M4J2H8",
    "result": [
      {
        "electoralDistricts": [
          {
            "election": null,
            "id": 110,
            "name": "Toronto—Danforth"
          }
        ],
        "pollDivisionIds": [
          10142504
        ],
        "postalCode": "M4J2H8",
        "streetName": "WESTWOOD",
        "streetDirectionId": null,
        "streetTypeId": "AVE",
        "placeName": "EAST YORK",
        "streetNameDisplayText": "WESTWOOD AVE, EAST YORK"
      }
    ]
  },
  {
    "postal": "M4J3X2",
    "result": [
      {
        "electoralDistricts": [
          {
            "election": null,
            "id": 110,
            "name": "Toronto—Danforth"
          }
        ],
        "pollDivisionIds": [
          10142502
        ],
        "postalCode": "M4J3X2",
        "streetName": "CADORNA",
        "streetDirectionId": null,
        "streetTypeId": "AVE",
        "placeName": "EAST YORK",
        "streetNameDisplayText": "CADORNA AVE, EAST YORK"
      }
    ]
  },
  {
    "postal": "M4J2E9",
    "result": [
      {
        "electoralDistricts": [
          {
            "election": null,
            "id": 110,
            "name": "Toronto—Danforth"
          }
        ],
        "pollDivisionIds": [
          10142502
        ],
        "postalCode": "M4J2E9",
        "streetName": "MORTIMER",
        "streetDirectionId": null,
        "streetTypeId": "AVE",
        "placeName": "EAST YORK",
        "streetNameDisplayText": "MORTIMER AVE, EAST YORK"
      }
    ]
  },
  {
    "postal": "M4J9P6",
    "result": []
  },
  {
    "postal": "M4J9E2",
    "result": []
  },
  {
    "postal": "M4J9H2",
    "result": []
  },
  {
    "postal": "M4J1S8",
    "result": [
      {
        "electoralDistricts": [
          {
            "election": null,
            "id": 110,
            "name": "Toronto—Danforth"
          }
        ],
        "pollDivisionIds": [
          10142507
        ],
        "postalCode": "M4J1S8",
        "streetName": "GLEBEHOLME",
        "streetDirectionId": null,
        "streetTypeId": "BLVD",
        "placeName": "TORONTO",
        "streetNameDisplayText": "GLEBEHOLME BLVD, TORONTO"
      }
    ]
  },
  {
    "postal": "M4J3M6",
    "result": [
      {
        "electoralDistricts": [
          {
            "election": null,
            "id": 110,
            "name": "Toronto—Danforth"
          }
        ],
        "pollDivisionIds": [
          10142513
        ],
        "postalCode": "M4J3M6",
        "streetName": "CONDOR",
        "streetDirectionId": null,
        "streetTypeId": "AVE",
        "placeName": "TORONTO",
        "streetNameDisplayText": "CONDOR AVE, TORONTO"
      }
    ]
  },
  {
    "postal": "M4J6Z8",
    "result": []
  },
  {
    "postal": "M4J4J2",
    "result": [
      {
        "electoralDistricts": [
          {
            "election": null,
            "id": 110,
            "name": "Toronto—Danforth"
          }
        ],
        "pollDivisionIds": [
          10142502
        ],
        "postalCode": "M4J4J2",
        "streetName": "KIMBOURNE",
        "streetDirectionId": null,
        "streetTypeId": "AVE",
        "placeName": "EAST YORK",
        "streetNameDisplayText": "KIMBOURNE AVE, EAST YORK"
      }
    ]
  },
  {
    "postal": "M4J9Y1",
    "result": []
  },
  {
    "postal": "M4J8V6",
    "result": []
  },
  {
    "postal": "M4J6B2",
    "result": []
  },
  {
    "postal": "M4J1P8",
    "result": [
      {
        "electoralDistricts": [
          {
            "election": null,
            "id": 110,
            "name": "Toronto—Danforth"
          }
        ],
        "pollDivisionIds": [
          10142507
        ],
        "postalCode": "M4J1P8",
        "streetName": "STRATHMORE",
        "streetDirectionId": null,
        "streetTypeId": "BLVD",
        "placeName": "TORONTO",
        "streetNameDisplayText": "STRATHMORE BLVD, TORONTO"
      }
    ]
  },
  {
    "postal": "M4J0V8",
    "result": []
  },
  {
    "postal": "M4J4Y0",
    "result": []
  },
  {
    "postal": "M4J2T4",
    "result": [
      {
        "electoralDistricts": [
          {
            "election": null,
            "id": 110,
            "name": "Toronto—Danforth"
          }
        ],
        "pollDivisionIds": [
          10142501
        ],
        "postalCode": "M4J2T4",
        "streetName": "O'CONNOR",
        "streetDirectionId": null,
        "streetTypeId": "DR",
        "placeName": "EAST YORK",
        "streetNameDisplayText": "O'CONNOR DR, EAST YORK"
      }
    ]
  },
  {
    "postal": "M4J2S3",
    "result": [
      {
        "electoralDistricts": [
          {
            "election": null,
            "id": 110,
            "name": "Toronto—Danforth"
          }
        ],
        "pollDivisionIds": [
          10142500
        ],
        "postalCode": "M4J2S3",
        "streetName": "JUDITH",
        "streetDirectionId": null,
        "streetTypeId": "DR",
        "placeName": "EAST YORK",
        "streetNameDisplayText": "JUDITH DR, EAST YORK"
      }
    ]
  },
  {
    "postal": "M4J0K0",
    "result": []
  },
  {
    "postal": "M4J5N1",
    "result": []
  },
  {
    "postal": "M4J7T0",
    "result": []
  },
  {
    "postal": "M4J9N2",
    "result": []
  },
  {
    "postal": "M4J5L1",
    "result": []
  },
  {
    "postal": "M4J7G5",
    "result": []
  },
  {
    "postal": "M4J6K2",
    "result": []
  },
  {
    "postal": "M4J6P9",
    "result": []
  },
  {
    "postal": "M4J0E6",
    "result": []
  },
  {
    "postal": "M4J8R9",
    "result": []
  },
  {
    "postal": "M4J3G9",
    "result": [
      {
        "electoralDistricts": [
          {
            "election": null,
            "id": 110,
            "name": "Toronto—Danforth"
          }
        ],
        "pollDivisionIds": [
          10142512
        ],
        "postalCode": "M4J3G9",
        "streetName": "JONES",
        "streetDirectionId": null,
        "streetTypeId": "AVE",
        "placeName": "TORONTO",
        "streetNameDisplayText": "JONES AVE, TORONTO"
      }
    ]
  },
  {
    "postal": "M4J0V7",
    "result": []
  },
  {
    "postal": "M4J2Z1",
    "result": [
      {
        "electoralDistricts": [
          {
            "election": null,
            "id": 110,
            "name": "Toronto—Danforth"
          }
        ],
        "pollDivisionIds": [
          10142519
        ],
        "postalCode": "M4J2Z1",
        "streetName": "POUCHER",
        "streetDirectionId": null,
        "streetTypeId": "ST",
        "placeName": "TORONTO",
        "streetNameDisplayText": "POUCHER ST, TORONTO"
      }
    ]
  },
  {
    "postal": "M4J7N1",
    "result": []
  },
  {
    "postal": "M4J3C6",
    "result": [
      {
        "electoralDistricts": [
          {
            "election": null,
            "id": 110,
            "name": "Toronto—Danforth"
          }
        ],
        "pollDivisionIds": [
          10142501
        ],
        "postalCode": "M4J3C6",
        "streetName": "CHILTON",
        "streetDirectionId": null,
        "streetTypeId": "RD",
        "placeName": "EAST YORK",
        "streetNameDisplayText": "CHILTON RD, EAST YORK"
      }
    ]
  },
  {
    "postal": "M4J4M1",
    "result": [
      {
        "electoralDistricts": [
          {
            "election": null,
            "id": 110,
            "name": "Toronto—Danforth"
          }
        ],
        "pollDivisionIds": [
          10142500
        ],
        "postalCode": "M4J4M1",
        "streetName": "LINSMORE",
        "streetDirectionId": null,
        "streetTypeId": "CRES",
        "placeName": "EAST YORK",
        "streetNameDisplayText": "LINSMORE CRES, EAST YORK"
      }
    ]
  },
  {
    "postal": "M4J9K2",
    "result": []
  },
  {
    "postal": "M4J9S6",
    "result": []
  },
  {
    "postal": "M4J4X1",
    "result": [
      {
        "electoralDistricts": [
          {
            "election": null,
            "id": 110,
            "name": "Toronto—Danforth"
          }
        ],
        "pollDivisionIds": [
          10142500
        ],
        "postalCode": "M4J4X1",
        "streetName": "LANKIN",
        "streetDirectionId": null,
        "streetTypeId": "BLVD",
        "placeName": "EAST YORK",
        "streetNameDisplayText": "LANKIN BLVD, EAST YORK"
      }
    ]
  },
  {
    "postal": "M4J8W2",
    "result": []
  },
  {
    "postal": "M4J7N2",
    "result": []
  },
  {
    "postal": "M4J8S3",
    "result": []
  },
  {
    "postal": "M4J4V0",
    "result": []
  },
  {
    "postal": "M4J6W4",
    "result": []
  },
  {
    "postal": "M4J5M1",
    "result": []
  },
  {
    "postal": "M4J0S4",
    "result": []
  },
  {
    "postal": "M4J5X6",
    "result": []
  },
  {
    "postal": "M4J8L5",
    "result": []
  },
  {
    "postal": "M4J5M8",
    "result": []
  },
  {
    "postal": "M4J2G3",
    "result": [
      {
        "electoralDistricts": [
          {
            "election": null,
            "id": 110,
            "name": "Toronto—Danforth"
          }
        ],
        "pollDivisionIds": [
          10142503
        ],
        "postalCode": "M4J2G3",
        "streetName": "MORTIMER",
        "streetDirectionId": null,
        "streetTypeId": "AVE",
        "placeName": "EAST YORK",
        "streetNameDisplayText": "MORTIMER AVE, EAST YORK"
      }
    ]
  },
  {
    "postal": "M4J8E4",
    "result": []
  },
  {
    "postal": "M4J7S9",
    "result": []
  },
  {
    "postal": "M4J1K3",
    "result": [
      {
        "electoralDistricts": [
          {
            "election": null,
            "id": 110,
            "name": "Toronto—Danforth"
          }
        ],
        "pollDivisionIds": [
          10142507
        ],
        "postalCode": "M4J1K3",
        "streetName": "MOUNTJOY",
        "streetDirectionId": null,
        "streetTypeId": "AVE",
        "placeName": "TORONTO",
        "streetNameDisplayText": "MOUNTJOY AVE, TORONTO"
      }
    ]
  },
  {
    "postal": "M4J4E1",
    "result": [
      {
        "electoralDistricts": [
          {
            "election": null,
            "id": 110,
            "name": "Toronto—Danforth"
          }
        ],
        "pollDivisionIds": [
          10142502
        ],
        "postalCode": "M4J4E1",
        "streetName": "GREENWOOD",
        "streetDirectionId": null,
        "streetTypeId": "AVE",
        "placeName": "EAST YORK",
        "streetNameDisplayText": "GREENWOOD AVE, EAST YORK"
      }
    ]
  },
  {
    "postal": "M4J4R2",
    "result": [
      {
        "electoralDistricts": [
          {
            "election": null,
            "id": 110,
            "name": "Toronto—Danforth"
          }
        ],
        "pollDivisionIds": [
          10142507
        ],
        "postalCode": "M4J4R2",
        "streetName": "MONARCH PARK",
        "streetDirectionId": null,
        "streetTypeId": "AVE",
        "placeName": "TORONTO",
        "streetNameDisplayText": "MONARCH PARK AVE, TORONTO"
      }
    ]
  },
  {
    "postal": "M4J6T0",
    "result": []
  },
  {
    "postal": "M4J3K5",
    "result": [
      {
        "electoralDistricts": [
          {
            "election": null,
            "id": 110,
            "name": "Toronto—Danforth"
          }
        ],
        "pollDivisionIds": [
          10142505
        ],
        "postalCode": "M4J3K5",
        "streetName": "DEWHURST",
        "streetDirectionId": "N",
        "streetTypeId": "BLVD",
        "placeName": "EAST YORK",
        "streetNameDisplayText": "DEWHURST BLVD N, EAST YORK"
      }
    ]
  },
  {
    "postal": "M4J3S3",
    "result": [
      {
        "electoralDistricts": [
          {
            "election": null,
            "id": 110,
            "name": "Toronto—Danforth"
          }
        ],
        "pollDivisionIds": [
          10142501
        ],
        "postalCode": "M4J3S3",
        "streetName": "DONLANDS",
        "streetDirectionId": null,
        "streetTypeId": "AVE",
        "placeName": "EAST YORK",
        "streetNameDisplayText": "DONLANDS AVE, EAST YORK"
      }
    ]
  },
  {
    "postal": "M4J3L4",
    "result": [
      {
        "electoralDistricts": [
          {
            "election": null,
            "id": 110,
            "name": "Toronto—Danforth"
          }
        ],
        "pollDivisionIds": [
          10142513
        ],
        "postalCode": "M4J3L4",
        "streetName": "EARL GREY",
        "streetDirectionId": null,
        "streetTypeId": "RD",
        "placeName": "TORONTO",
        "streetNameDisplayText": "EARL GREY RD, TORONTO"
      }
    ]
  },
  {
    "postal": "M4J9Y2",
    "result": []
  },
  {
    "postal": "M4J1E0",
    "result": []
  },
  {
    "postal": "M4J9A4",
    "result": []
  },
  {
    "postal": "M4J1L3",
    "result": [
      {
        "electoralDistricts": [
          {
            "election": null,
            "id": 110,
            "name": "Toronto—Danforth"
          }
        ],
        "pollDivisionIds": [
          10142512
        ],
        "postalCode": "M4J1L3",
        "streetName": "DANFORTH",
        "streetDirectionId": null,
        "streetTypeId": "AVE",
        "placeName": "TORONTO",
        "streetNameDisplayText": "DANFORTH AVE, TORONTO"
      }
    ]
  },
  {
    "postal": "M4J6N1",
    "result": []
  },
  {
    "postal": "M4J6G7",
    "result": []
  },
  {
    "postal": "M4J7W1",
    "result": []
  },
  {
    "postal": "M4J4M6",
    "result": [
      {
        "electoralDistricts": [
          {
            "election": null,
            "id": 110,
            "name": "Toronto—Danforth"
          }
        ],
        "pollDivisionIds": [
          10142507
        ],
        "postalCode": "M4J4M6",
        "streetName": "LAMB",
        "streetDirectionId": null,
        "streetTypeId": "AVE",
        "placeName": "TORONTO",
        "streetNameDisplayText": "LAMB AVE, TORONTO"
      }
    ]
  },
  {
    "postal": "M4J1K0",
    "result": []
  },
  {
    "postal": "M4J3E2",
    "result": [
      {
        "electoralDistricts": [
          {
            "election": null,
            "id": 110,
            "name": "Toronto—Danforth"
          }
        ],
        "pollDivisionIds": [
          10142513
        ],
        "postalCode": "M4J3E2",
        "streetName": "BLAKE",
        "streetDirectionId": null,
        "streetTypeId": "ST",
        "placeName": "TORONTO",
        "streetNameDisplayText": "BLAKE ST, TORONTO"
      }
    ]
  },
  {
    "postal": "M4J5H4",
    "result": []
  },
  {
    "postal": "M4J1K7",
    "result": [
      {
        "electoralDistricts": [
          {
            "election": null,
            "id": 110,
            "name": "Toronto—Danforth"
          }
        ],
        "pollDivisionIds": [
          10142513,
          10142512
        ],
        "postalCode": "M4J1K7",
        "streetName": "CHATHAM",
        "streetDirectionId": null,
        "streetTypeId": "AVE",
        "placeName": "TORONTO",
        "streetNameDisplayText": "CHATHAM AVE, TORONTO"
      }
    ]
  },
  {
    "postal": "M4J0H0",
    "result": []
  },
  {
    "postal": "M4J0J3",
    "result": []
  },
  {
    "postal": "M4J1X6",
    "result": [
      {
        "electoralDistricts": [
          {
            "election": null,
            "id": 110,
            "name": "Toronto—Danforth"
          }
        ],
        "pollDivisionIds": [
          10142505,
          10142508
        ],
        "postalCode": "M4J1X6",
        "streetName": "ALDWYCH",
        "streetDirectionId": null,
        "streetTypeId": "AVE",
        "placeName": "EAST YORK",
        "streetNameDisplayText": "ALDWYCH AVE, EAST YORK"
      }
    ]
  },
  {
    "postal": "M4J2Z6",
    "result": [
      {
        "electoralDistricts": [
          {
            "election": null,
            "id": 110,
            "name": "Toronto—Danforth"
          }
        ],
        "pollDivisionIds": [
          10142508
        ],
        "postalCode": "M4J2Z6",
        "streetName": "EATON",
        "streetDirectionId": null,
        "streetTypeId": "AVE",
        "placeName": "TORONTO",
        "streetNameDisplayText": "EATON AVE, TORONTO"
      }
    ]
  },
  {
    "postal": "M4J4R9",
    "result": [
      {
        "electoralDistricts": [
          {
            "election": null,
            "id": 110,
            "name": "Toronto—Danforth"
          }
        ],
        "pollDivisionIds": [
          10142507
        ],
        "postalCode": "M4J4R9",
        "streetName": "MONARCH PARK",
        "streetDirectionId": null,
        "streetTypeId": "AVE",
        "placeName": "TORONTO",
        "streetNameDisplayText": "MONARCH PARK AVE, TORONTO"
      }
    ]
  },
  {
    "postal": "M4J0W8",
    "result": []
  },
  {
    "postal": "M4J1L4",
    "result": [
      {
        "electoralDistricts": [
          {
            "election": null,
            "id": 110,
            "name": "Toronto—Danforth"
          }
        ],
        "pollDivisionIds": [
          10142512
        ],
        "postalCode": "M4J1L4",
        "streetName": "DANFORTH",
        "streetDirectionId": null,
        "streetTypeId": "AVE",
        "placeName": "TORONTO",
        "streetNameDisplayText": "DANFORTH AVE, TORONTO"
      }
    ]
  },
  {
    "postal": "M4J0C8",
    "result": []
  },
  {
    "postal": "M4J9X7",
    "result": []
  },
  {
    "postal": "M4J4T1",
    "result": [
      {
        "electoralDistricts": [
          {
            "election": null,
            "id": 110,
            "name": "Toronto—Danforth"
          }
        ],
        "pollDivisionIds": [
          10142503
        ],
        "postalCode": "M4J4T1",
        "streetName": "MONARCH PARK",
        "streetDirectionId": null,
        "streetTypeId": "AVE",
        "placeName": "EAST YORK",
        "streetNameDisplayText": "MONARCH PARK AVE, EAST YORK"
      }
    ]
  },
  {
    "postal": "M4J0M0",
    "result": []
  },
  {
    "postal": "M4J6A2",
    "result": []
  },
  {
    "postal": "M4J9S8",
    "result": []
  },
  {
    "postal": "M4J9T4",
    "result": []
  },
  {
    "postal": "M4J9Y4",
    "result": []
  },
  {
    "postal": "M4J6G5",
    "result": []
  },
  {
    "postal": "M4J6H9",
    "result": []
  },
  {
    "postal": "M4J2P3",
    "result": [
      {
        "electoralDistricts": [
          {
            "election": null,
            "id": 110,
            "name": "Toronto—Danforth"
          }
        ],
        "pollDivisionIds": [
          10142501
        ],
        "postalCode": "M4J2P3",
        "streetName": "GAMBLE",
        "streetDirectionId": null,
        "streetTypeId": "AVE",
        "placeName": "EAST YORK",
        "streetNameDisplayText": "GAMBLE AVE, EAST YORK"
      }
    ]
  },
  {
    "postal": "M4J1T6",
    "result": [
      {
        "electoralDistricts": [
          {
            "election": null,
            "id": 110,
            "name": "Toronto—Danforth"
          }
        ],
        "pollDivisionIds": [
          10142508
        ],
        "postalCode": "M4J1T6",
        "streetName": "MILVERTON",
        "streetDirectionId": null,
        "streetTypeId": "BLVD",
        "placeName": "TORONTO",
        "streetNameDisplayText": "MILVERTON BLVD, TORONTO"
      }
    ]
  },
  {
    "postal": "M4J4P6",
    "result": [
      {
        "electoralDistricts": [
          {
            "election": null,
            "id": 110,
            "name": "Toronto—Danforth"
          }
        ],
        "pollDivisionIds": [
          10142503
        ],
        "postalCode": "M4J4P6",
        "streetName": "MCKAYFIELD",
        "streetDirectionId": null,
        "streetTypeId": "RD",
        "placeName": "EAST YORK",
        "streetNameDisplayText": "MCKAYFIELD RD, EAST YORK"
      }
    ]
  },
  {
    "postal": "M4J3K1",
    "result": [
      {
        "electoralDistricts": [
          {
            "election": null,
            "id": 110,
            "name": "Toronto—Danforth"
          }
        ],
        "pollDivisionIds": [
          10142508
        ],
        "postalCode": "M4J3K1",
        "streetName": "DEWHURST",
        "streetDirectionId": null,
        "streetTypeId": "BLVD",
        "placeName": "EAST YORK",
        "streetNameDisplayText": "DEWHURST BLVD, EAST YORK"
      }
    ]
  },
  {
    "postal": "M4J6X4",
    "result": []
  },
  {
    "postal": "M4J4M8",
    "result": [
      {
        "electoralDistricts": [
          {
            "election": null,
            "id": 110,
            "name": "Toronto—Danforth"
          }
        ],
        "pollDivisionIds": [
          10142500
        ],
        "postalCode": "M4J4M8",
        "streetName": "DERWYN",
        "streetDirectionId": null,
        "streetTypeId": "RD",
        "placeName": "EAST YORK",
        "streetNameDisplayText": "DERWYN RD, EAST YORK"
      }
    ]
  },
  {
    "postal": "M4J2Y1",
    "result": [
      {
        "electoralDistricts": [
          {
            "election": null,
            "id": 110,
            "name": "Toronto—Danforth"
          }
        ],
        "pollDivisionIds": [
          10142509
        ],
        "postalCode": "M4J2Y1",
        "streetName": "MURIEL",
        "streetDirectionId": null,
        "streetTypeId": "AVE",
        "placeName": "TORONTO",
        "streetNameDisplayText": "MURIEL AVE, TORONTO"
      }
    ]
  },
  {
    "postal": "M4J6M1",
    "result": []
  },
  {
    "postal": "M4J5L8",
    "result": []
  },
  {
    "postal": "M4J3P6",
    "result": [
      {
        "electoralDistricts": [
          {
            "election": null,
            "id": 110,
            "name": "Toronto—Danforth"
          }
        ],
        "pollDivisionIds": [
          10142508
        ],
        "postalCode": "M4J3P6",
        "streetName": "DONLANDS",
        "streetDirectionId": null,
        "streetTypeId": "AVE",
        "placeName": "EAST YORK",
        "streetNameDisplayText": "DONLANDS AVE, EAST YORK"
      }
    ]
  },
  {
    "postal": "M4J9A5",
    "result": []
  },
  {
    "postal": "M4J7K1",
    "result": []
  },
  {
    "postal": "M4J3J4",
    "result": [
      {
        "electoralDistricts": [
          {
            "election": null,
            "id": 110,
            "name": "Toronto—Danforth"
          }
        ],
        "pollDivisionIds": [
          10142508
        ],
        "postalCode": "M4J3J4",
        "streetName": "DEWHURST",
        "streetDirectionId": null,
        "streetTypeId": "BLVD",
        "placeName": "TORONTO",
        "streetNameDisplayText": "DEWHURST BLVD, TORONTO"
      }
    ]
  },
  {
    "postal": "M4J5E7",
    "result": []
  },
  {
    "postal": "M4J3A7",
    "result": [
      {
        "electoralDistricts": [
          {
            "election": null,
            "id": 110,
            "name": "Toronto—Danforth"
          }
        ],
        "pollDivisionIds": [
          10142508
        ],
        "postalCode": "M4J3A7",
        "streetName": "WOODYCREST",
        "streetDirectionId": null,
        "streetTypeId": "AVE",
        "placeName": "TORONTO",
        "streetNameDisplayText": "WOODYCREST AVE, TORONTO"
      }
    ]
  },
  {
    "postal": "M4J1B9",
    "result": [
      {
        "electoralDistricts": [
          {
            "election": null,
            "id": 110,
            "name": "Toronto—Danforth"
          }
        ],
        "pollDivisionIds": [
          10142513
        ],
        "postalCode": "M4J1B9",
        "streetName": "BAIN",
        "streetDirectionId": null,
        "streetTypeId": "AVE",
        "placeName": "TORONTO",
        "streetNameDisplayText": "BAIN AVE, TORONTO"
      }
    ]
  },
  {
    "postal": "M4J9E8",
    "result": []
  },
  {
    "postal": "M4J1C9",
    "result": [
      {
        "electoralDistricts": [
          {
            "election": null,
            "id": 110,
            "name": "Toronto—Danforth"
          }
        ],
        "pollDivisionIds": [
          10142513
        ],
        "postalCode": "M4J1C9",
        "streetName": "SHUDELL",
        "streetDirectionId": null,
        "streetTypeId": "AVE",
        "placeName": "TORONTO",
        "streetNameDisplayText": "SHUDELL AVE, TORONTO"
      }
    ]
  },
  {
    "postal": "M4J3B5",
    "result": [
      {
        "electoralDistricts": [
          {
            "election": null,
            "id": 110,
            "name": "Toronto—Danforth"
          }
        ],
        "pollDivisionIds": [
          10142505
        ],
        "postalCode": "M4J3B5",
        "streetName": "WOODYCREST",
        "streetDirectionId": null,
        "streetTypeId": "AVE",
        "placeName": "EAST YORK",
        "streetNameDisplayText": "WOODYCREST AVE, EAST YORK"
      }
    ]
  },
  {
    "postal": "M4J8R0",
    "result": []
  },
  {
    "postal": "M4J3P2",
    "result": [
      {
        "electoralDistricts": [
          {
            "election": null,
            "id": 110,
            "name": "Toronto—Danforth"
          }
        ],
        "pollDivisionIds": [
          10142508
        ],
        "postalCode": "M4J3P2",
        "streetName": "DONLANDS",
        "streetDirectionId": null,
        "streetTypeId": "AVE",
        "placeName": "TORONTO",
        "streetNameDisplayText": "DONLANDS AVE, TORONTO"
      }
    ]
  },
  {
    "postal": "M4J5V4",
    "result": []
  },
  {
    "postal": "M4J4H0",
    "result": []
  },
  {
    "postal": "M4J4S7",
    "result": [
      {
        "electoralDistricts": [
          {
            "election": null,
            "id": 110,
            "name": "Toronto—Danforth"
          }
        ],
        "pollDivisionIds": [
          10142507
        ],
        "postalCode": "M4J4S7",
        "streetName": "MONARCH PARK",
        "streetDirectionId": null,
        "streetTypeId": "AVE",
        "placeName": "EAST YORK",
        "streetNameDisplayText": "MONARCH PARK AVE, EAST YORK"
      }
    ]
  },
  {
    "postal": "M4J6C2",
    "result": []
  },
  {
    "postal": "M4J8W3",
    "result": []
  },
  {
    "postal": "M4J4M5",
    "result": [
      {
        "electoralDistricts": [
          {
            "election": null,
            "id": 110,
            "name": "Toronto—Danforth"
          }
        ],
        "pollDivisionIds": [
          10142507,
          10142503
        ],
        "postalCode": "M4J4M5",
        "streetName": "LAMB",
        "streetDirectionId": null,
        "streetTypeId": "AVE",
        "placeName": "TORONTO",
        "streetNameDisplayText": "LAMB AVE, TORONTO"
      }
    ]
  },
  {
    "postal": "M4J5T1",
    "result": []
  },
  {
    "postal": "M4J3B3",
    "result": [
      {
        "electoralDistricts": [
          {
            "election": null,
            "id": 110,
            "name": "Toronto—Danforth"
          }
        ],
        "pollDivisionIds": [
          10142508
        ],
        "postalCode": "M4J3B3",
        "streetName": "WOODYCREST",
        "streetDirectionId": null,
        "streetTypeId": "AVE",
        "placeName": "EAST YORK",
        "streetNameDisplayText": "WOODYCREST AVE, EAST YORK"
      }
    ]
  },
  {
    "postal": "M4J6C6",
    "result": []
  },
  {
    "postal": "M4J7N8",
    "result": []
  },
  {
    "postal": "M4J2Y3",
    "result": [
      {
        "electoralDistricts": [
          {
            "election": null,
            "id": 110,
            "name": "Toronto—Danforth"
          }
        ],
        "pollDivisionIds": [
          10142509
        ],
        "postalCode": "M4J2Y3",
        "streetName": "MURIEL",
        "streetDirectionId": null,
        "streetTypeId": "AVE",
        "placeName": "EAST YORK",
        "streetNameDisplayText": "MURIEL AVE, EAST YORK"
      }
    ]
  },
  {
    "postal": "M4J2R6",
    "result": [
      {
        "electoralDistricts": [
          {
            "election": null,
            "id": 110,
            "name": "Toronto—Danforth"
          }
        ],
        "pollDivisionIds": [
          10142501
        ],
        "postalCode": "M4J2R6",
        "streetName": "WOODVILLE",
        "streetDirectionId": null,
        "streetTypeId": "AVE",
        "placeName": "EAST YORK",
        "streetNameDisplayText": "WOODVILLE AVE, EAST YORK"
      }
    ]
  },
  {
    "postal": "M4J7N3",
    "result": []
  },
  {
    "postal": "M4J8J2",
    "result": []
  },
  {
    "postal": "M4J6A9",
    "result": []
  },
  {
    "postal": "M4J3V2",
    "result": [
      {
        "electoralDistricts": [
          {
            "election": null,
            "id": 110,
            "name": "Toronto—Danforth"
          }
        ],
        "pollDivisionIds": [
          10142502
        ],
        "postalCode": "M4J3V2",
        "streetName": "MARLOW",
        "streetDirectionId": null,
        "streetTypeId": "AVE",
        "placeName": "EAST YORK",
        "streetNameDisplayText": "MARLOW AVE, EAST YORK"
      }
    ]
  },
  {
    "postal": "M4J2N3",
    "result": [
      {
        "electoralDistricts": [
          {
            "election": null,
            "id": 110,
            "name": "Toronto—Danforth"
          }
        ],
        "pollDivisionIds": [
          10142500
        ],
        "postalCode": "M4J2N3",
        "streetName": "COSBURN",
        "streetDirectionId": null,
        "streetTypeId": "AVE",
        "placeName": "EAST YORK",
        "streetNameDisplayText": "COSBURN AVE, EAST YORK"
      }
    ]
  },
  {
    "postal": "M4J1S5",
    "result": [
      {
        "electoralDistricts": [
          {
            "election": null,
            "id": 110,
            "name": "Toronto—Danforth"
          }
        ],
        "pollDivisionIds": [
          10142508
        ],
        "postalCode": "M4J1S5",
        "streetName": "GLEBEHOLME",
        "streetDirectionId": null,
        "streetTypeId": "BLVD",
        "placeName": "TORONTO",
        "streetNameDisplayText": "GLEBEHOLME BLVD, TORONTO"
      }
    ]
  },
  {
    "postal": "M4J4T7",
    "result": [
      {
        "electoralDistricts": [
          {
            "election": null,
            "id": 110,
            "name": "Toronto—Danforth"
          }
        ],
        "pollDivisionIds": [
          10142503
        ],
        "postalCode": "M4J4T7",
        "streetName": "ROOSEVELT",
        "streetDirectionId": null,
        "streetTypeId": "RD",
        "placeName": "EAST YORK",
        "streetNameDisplayText": "ROOSEVELT RD, EAST YORK"
      }
    ]
  },
  {
    "postal": "M4J6Y7",
    "result": []
  },
  {
    "postal": "M4J0W7",
    "result": []
  },
  {
    "postal": "M4J2W9",
    "result": [
      {
        "electoralDistricts": [
          {
            "election": null,
            "id": 110,
            "name": "Toronto—Danforth"
          }
        ],
        "pollDivisionIds": [
          10142500
        ],
        "postalCode": "M4J2W9",
        "streetName": "O'CONNOR",
        "streetDirectionId": null,
        "streetTypeId": "DR",
        "placeName": "EAST YORK",
        "streetNameDisplayText": "O'CONNOR DR, EAST YORK"
      }
    ]
  },
  {
    "postal": "M4J8V0",
    "result": []
  },
  {
    "postal": "M4J0H4",
    "result": []
  },
  {
    "postal": "M4J2T1",
    "result": [
      {
        "electoralDistricts": [
          {
            "election": null,
            "id": 110,
            "name": "Toronto—Danforth"
          },
          {
            "election": null,
            "id": 20,
            "name": "Don Valley East"
          }
        ],
        "pollDivisionIds": [
          10142501,
          10137654,
          10137655
        ],
        "postalCode": "M4J2T1",
        "streetName": "O'CONNOR",
        "streetDirectionId": null,
        "streetTypeId": "DR",
        "placeName": "EAST YORK",
        "streetNameDisplayText": "O'CONNOR DR, EAST YORK"
      }
    ]
  },
  {
    "postal": "M4J1B1",
    "result": [
      {
        "electoralDistricts": [
          {
            "election": null,
            "id": 110,
            "name": "Toronto—Danforth"
          }
        ],
        "pollDivisionIds": [
          10142513
        ],
        "postalCode": "M4J1B1",
        "streetName": "BOULTBEE",
        "streetDirectionId": null,
        "streetTypeId": "AVE",
        "placeName": "TORONTO",
        "streetNameDisplayText": "BOULTBEE AVE, TORONTO"
      }
    ]
  },
  {
    "postal": "M4J8B6",
    "result": []
  },
  {
    "postal": "M4J6H1",
    "result": []
  },
  {
    "postal": "M4J8T8",
    "result": []
  },
  {
    "postal": "M4J0T4",
    "result": []
  },
  {
    "postal": "M4J2C4",
    "result": [
      {
        "electoralDistricts": [
          {
            "election": null,
            "id": 110,
            "name": "Toronto—Danforth"
          }
        ],
        "pollDivisionIds": [
          10142505
        ],
        "postalCode": "M4J2C4",
        "streetName": "MORTIMER",
        "streetDirectionId": null,
        "streetTypeId": "AVE",
        "placeName": "EAST YORK",
        "streetNameDisplayText": "MORTIMER AVE, EAST YORK"
      }
    ]
  },
  {
    "postal": "M4J8N3",
    "result": []
  },
  {
    "postal": "M4J4L8",
    "result": [
      {
        "electoralDistricts": [
          {
            "election": null,
            "id": 110,
            "name": "Toronto—Danforth"
          }
        ],
        "pollDivisionIds": [
          10142500
        ],
        "postalCode": "M4J4L8",
        "streetName": "LINSMORE",
        "streetDirectionId": null,
        "streetTypeId": "CRES",
        "placeName": "EAST YORK",
        "streetNameDisplayText": "LINSMORE CRES, EAST YORK"
      }
    ]
  },
  {
    "postal": "M4J2B5",
    "result": [
      {
        "electoralDistricts": [
          {
            "election": null,
            "id": 110,
            "name": "Toronto—Danforth"
          }
        ],
        "pollDivisionIds": [
          10142503
        ],
        "postalCode": "M4J2B5",
        "streetName": "SAMMON",
        "streetDirectionId": null,
        "streetTypeId": "AVE",
        "placeName": "EAST YORK",
        "streetNameDisplayText": "SAMMON AVE, EAST YORK"
      }
    ]
  },
  {
    "postal": "M4J3H1",
    "result": [
      {
        "electoralDistricts": [
          {
            "election": null,
            "id": 110,
            "name": "Toronto—Danforth"
          }
        ],
        "pollDivisionIds": [
          10142512
        ],
        "postalCode": "M4J3H1",
        "streetName": "JONES",
        "streetDirectionId": null,
        "streetTypeId": "AVE",
        "placeName": "TORONTO",
        "streetNameDisplayText": "JONES AVE, TORONTO"
      }
    ]
  },
  {
    "postal": "M4J4Y1",
    "result": []
  },
  {
    "postal": "M4J7E2",
    "result": []
  },
  {
    "postal": "M4J2P5",
    "result": [
      {
        "electoralDistricts": [
          {
            "election": null,
            "id": 7,
            "name": "Beaches—East York"
          },
          {
            "election": null,
            "id": 110,
            "name": "Toronto—Danforth"
          }
        ],
        "pollDivisionIds": [
          10137045,
          10142501
        ],
        "postalCode": "M4J2P5",
        "streetName": "TORRENS",
        "streetDirectionId": null,
        "streetTypeId": "AVE",
        "placeName": "EAST YORK",
        "streetNameDisplayText": "TORRENS AVE, EAST YORK"
      }
    ]
  },
  {
    "postal": "M4J8R7",
    "result": []
  },
  {
    "postal": "M4J9P1",
    "result": []
  },
  {
    "postal": "M4J3B8",
    "result": [
      {
        "electoralDistricts": [
          {
            "election": null,
            "id": 110,
            "name": "Toronto—Danforth"
          }
        ],
        "pollDivisionIds": [
          10142505
        ],
        "postalCode": "M4J3B8",
        "streetName": "WOODYCREST",
        "streetDirectionId": null,
        "streetTypeId": "AVE",
        "placeName": "EAST YORK",
        "streetNameDisplayText": "WOODYCREST AVE, EAST YORK"
      }
    ]
  },
  {
    "postal": "M4J3P7",
    "result": [
      {
        "electoralDistricts": [
          {
            "election": null,
            "id": 110,
            "name": "Toronto—Danforth"
          }
        ],
        "pollDivisionIds": [
          10142508
        ],
        "postalCode": "M4J3P7",
        "streetName": "DONLANDS",
        "streetDirectionId": null,
        "streetTypeId": "AVE",
        "placeName": "EAST YORK",
        "streetNameDisplayText": "DONLANDS AVE, EAST YORK"
      }
    ]
  },
  {
    "postal": "M4J9B2",
    "result": []
  },
  {
    "postal": "M4J6Z3",
    "result": []
  },
  {
    "postal": "M4J4N5",
    "result": [
      {
        "electoralDistricts": [
          {
            "election": null,
            "id": 110,
            "name": "Toronto—Danforth"
          }
        ],
        "pollDivisionIds": [
          10142500
        ],
        "postalCode": "M4J4N5",
        "streetName": "BARFIELD",
        "streetDirectionId": null,
        "streetTypeId": "AVE",
        "placeName": "EAST YORK",
        "streetNameDisplayText": "BARFIELD AVE, EAST YORK"
      }
    ]
  },
  {
    "postal": "M4J8T3",
    "result": []
  },
  {
    "postal": "M4J1V2",
    "result": [
      {
        "electoralDistricts": [
          {
            "election": null,
            "id": 110,
            "name": "Toronto—Danforth"
          }
        ],
        "pollDivisionIds": [
          10142508
        ],
        "postalCode": "M4J1V2",
        "streetName": "MILVERTON",
        "streetDirectionId": null,
        "streetTypeId": "BLVD",
        "placeName": "TORONTO",
        "streetNameDisplayText": "MILVERTON BLVD, TORONTO"
      }
    ]
  },
  {
    "postal": "M4J1Y0",
    "result": []
  },
  {
    "postal": "M4J3G6",
    "result": [
      {
        "electoralDistricts": [
          {
            "election": null,
            "id": 110,
            "name": "Toronto—Danforth"
          }
        ],
        "pollDivisionIds": [
          10142513
        ],
        "postalCode": "M4J3G6",
        "streetName": "JONES",
        "streetDirectionId": null,
        "streetTypeId": "AVE",
        "placeName": "TORONTO",
        "streetNameDisplayText": "JONES AVE, TORONTO"
      }
    ]
  },
  {
    "postal": "M4J3H7",
    "result": [
      {
        "electoralDistricts": [
          {
            "election": null,
            "id": 110,
            "name": "Toronto—Danforth"
          }
        ],
        "pollDivisionIds": [
          10142501
        ],
        "postalCode": "M4J3H7",
        "streetName": "WOLVERTON",
        "streetDirectionId": null,
        "streetTypeId": "AVE",
        "placeName": "EAST YORK",
        "streetNameDisplayText": "WOLVERTON AVE, EAST YORK"
      }
    ]
  },
  {
    "postal": "M4J7X8",
    "result": []
  },
  {
    "postal": "M4J0C7",
    "result": []
  },
  {
    "postal": "M4J0W9",
    "result": []
  },
  {
    "postal": "M4J8E6",
    "result": []
  },
  {
    "postal": "M4J9Z8",
    "result": []
  },
  {
    "postal": "M4J3P4",
    "result": [
      {
        "electoralDistricts": [
          {
            "election": null,
            "id": 110,
            "name": "Toronto—Danforth"
          }
        ],
        "pollDivisionIds": [
          10142508
        ],
        "postalCode": "M4J3P4",
        "streetName": "DONLANDS",
        "streetDirectionId": null,
        "streetTypeId": "AVE",
        "placeName": "EAST YORK",
        "streetNameDisplayText": "DONLANDS AVE, EAST YORK"
      },
      {
        "electoralDistricts": [
          {
            "election": null,
            "id": 110,
            "name": "Toronto—Danforth"
          }
        ],
        "pollDivisionIds": [
          10142508
        ],
        "postalCode": "M4J3P4",
        "streetName": "DONLANDS",
        "streetDirectionId": null,
        "streetTypeId": "AVE",
        "placeName": "TORONTO",
        "streetNameDisplayText": "DONLANDS AVE, TORONTO"
      }
    ]
  },
  {
    "postal": "M4J6L8",
    "result": []
  },
  {
    "postal": "M4J2R4",
    "result": [
      {
        "electoralDistricts": [
          {
            "election": null,
            "id": 110,
            "name": "Toronto—Danforth"
          }
        ],
        "pollDivisionIds": [
          10142501
        ],
        "postalCode": "M4J2R4",
        "streetName": "WOODVILLE",
        "streetDirectionId": null,
        "streetTypeId": "AVE",
        "placeName": "EAST YORK",
        "streetNameDisplayText": "WOODVILLE AVE, EAST YORK"
      }
    ]
  },
  {
    "postal": "M4J2W1",
    "result": [
      {
        "electoralDistricts": [
          {
            "election": null,
            "id": 110,
            "name": "Toronto—Danforth"
          }
        ],
        "pollDivisionIds": [
          10142500
        ],
        "postalCode": "M4J2W1",
        "streetName": "O'CONNOR",
        "streetDirectionId": null,
        "streetTypeId": "DR",
        "placeName": "EAST YORK",
        "streetNameDisplayText": "O'CONNOR DR, EAST YORK"
      }
    ]
  },
  {
    "postal": "M4J9H8",
    "result": []
  },
  {
    "postal": "M4J8X9",
    "result": []
  },
  {
    "postal": "M4J7H4",
    "result": []
  },
  {
    "postal": "M4J3J1",
    "result": [
      {
        "electoralDistricts": [
          {
            "election": null,
            "id": 110,
            "name": "Toronto—Danforth"
          }
        ],
        "pollDivisionIds": [
          10142508
        ],
        "postalCode": "M4J3J1",
        "streetName": "DEWHURST",
        "streetDirectionId": null,
        "streetTypeId": "BLVD",
        "placeName": "TORONTO",
        "streetNameDisplayText": "DEWHURST BLVD, TORONTO"
      }
    ]
  },
  {
    "postal": "M4J1P4",
    "result": [
      {
        "electoralDistricts": [
          {
            "election": null,
            "id": 110,
            "name": "Toronto—Danforth"
          }
        ],
        "pollDivisionIds": [
          10142507
        ],
        "postalCode": "M4J1P4",
        "streetName": "STRATHMORE",
        "streetDirectionId": null,
        "streetTypeId": "BLVD",
        "placeName": "TORONTO",
        "streetNameDisplayText": "STRATHMORE BLVD, TORONTO"
      }
    ]
  },
  {
    "postal": "M4J2A3",
    "result": [
      {
        "electoralDistricts": [
          {
            "election": null,
            "id": 110,
            "name": "Toronto—Danforth"
          }
        ],
        "pollDivisionIds": [
          10142502
        ],
        "postalCode": "M4J2A3",
        "streetName": "SAMMON",
        "streetDirectionId": null,
        "streetTypeId": "AVE",
        "placeName": "EAST YORK",
        "streetNameDisplayText": "SAMMON AVE, EAST YORK"
      }
    ]
  },
  {
    "postal": "M4J0Z1",
    "result": []
  },
  {
    "postal": "M4J1C1",
    "result": [
      {
        "electoralDistricts": [
          {
            "election": null,
            "id": 110,
            "name": "Toronto—Danforth"
          }
        ],
        "pollDivisionIds": [
          10142513
        ],
        "postalCode": "M4J1C1",
        "streetName": "HUNTER",
        "streetDirectionId": null,
        "streetTypeId": "ST",
        "placeName": "TORONTO",
        "streetNameDisplayText": "HUNTER ST, TORONTO"
      }
    ]
  },
  {
    "postal": "M4J0H3",
    "result": []
  },
  {
    "postal": "M4J7B0",
    "result": []
  },
  {
    "postal": "M4J5K2",
    "result": []
  },
  {
    "postal": "M4J1E9",
    "result": [
      {
        "electoralDistricts": [
          {
            "election": null,
            "id": 110,
            "name": "Toronto—Danforth"
          }
        ],
        "pollDivisionIds": [
          10142513
        ],
        "postalCode": "M4J1E9",
        "streetName": "QUEEN VICTORIA",
        "streetDirectionId": null,
        "streetTypeId": "ST",
        "placeName": "TORONTO",
        "streetNameDisplayText": "QUEEN VICTORIA ST, TORONTO"
      }
    ]
  },
  {
    "postal": "M4J9W7",
    "result": []
  },
  {
    "postal": "M4J5W6",
    "result": []
  },
  {
    "postal": "M4J6S6",
    "result": []
  },
  {
    "postal": "M4J2P8",
    "result": [
      {
        "electoralDistricts": [
          {
            "election": null,
            "id": 110,
            "name": "Toronto—Danforth"
          }
        ],
        "pollDivisionIds": [
          10142502
        ],
        "postalCode": "M4J2P8",
        "streetName": "PLAINS",
        "streetDirectionId": null,
        "streetTypeId": "RD",
        "placeName": "EAST YORK",
        "streetNameDisplayText": "PLAINS RD, EAST YORK"
      }
    ]
  },
  {
    "postal": "M4J4P8",
    "result": [
      {
        "electoralDistricts": [
          {
            "election": null,
            "id": 110,
            "name": "Toronto—Danforth"
          }
        ],
        "pollDivisionIds": [
          10142507
        ],
        "postalCode": "M4J4P8",
        "streetName": "MONARCH PARK",
        "streetDirectionId": null,
        "streetTypeId": "AVE",
        "placeName": "TORONTO",
        "streetNameDisplayText": "MONARCH PARK AVE, TORONTO"
      }
    ]
  },
  {
    "postal": "M4J0V9",
    "result": []
  },
  {
    "postal": "M4J5Y2",
    "result": []
  },
  {
    "postal": "M4J7Z7",
    "result": []
  },
  {
    "postal": "M4J6Y8",
    "result": []
  },
  {
    "postal": "M4J2G7",
    "result": [
      {
        "electoralDistricts": [
          {
            "election": null,
            "id": 110,
            "name": "Toronto—Danforth"
          }
        ],
        "pollDivisionIds": [
          10142503
        ],
        "postalCode": "M4J2G7",
        "streetName": "MORTIMER",
        "streetDirectionId": null,
        "streetTypeId": "AVE",
        "placeName": "EAST YORK",
        "streetNameDisplayText": "MORTIMER AVE, EAST YORK"
      }
    ]
  },
  {
    "postal": "M4J8C1",
    "result": []
  },
  {
    "postal": "M4J5C5",
    "result": []
  },
  {
    "postal": "M4J2X8",
    "result": [
      {
        "electoralDistricts": [
          {
            "election": null,
            "id": 110,
            "name": "Toronto—Danforth"
          }
        ],
        "pollDivisionIds": [
          10142509
        ],
        "postalCode": "M4J2X8",
        "streetName": "MURIEL",
        "streetDirectionId": null,
        "streetTypeId": "AVE",
        "placeName": "TORONTO",
        "streetNameDisplayText": "MURIEL AVE, TORONTO"
      }
    ]
  },
  {
    "postal": "M4J1W5",
    "result": [
      {
        "electoralDistricts": [
          {
            "election": null,
            "id": 110,
            "name": "Toronto—Danforth"
          }
        ],
        "pollDivisionIds": [
          10142507
        ],
        "postalCode": "M4J1W5",
        "streetName": "SPRINGDALE",
        "streetDirectionId": null,
        "streetTypeId": "BLVD",
        "placeName": "EAST YORK",
        "streetNameDisplayText": "SPRINGDALE BLVD, EAST YORK"
      }
    ]
  },
  {
    "postal": "M4J7G0",
    "result": []
  },
  {
    "postal": "M4J8J8",
    "result": []
  },
  {
    "postal": "M4J3Y0",
    "result": []
  },
  {
    "postal": "M4J9T7",
    "result": []
  },
  {
    "postal": "M4J5P4",
    "result": []
  },
  {
    "postal": "M4J4B0",
    "result": []
  },
  {
    "postal": "M4J9N8",
    "result": []
  },
  {
    "postal": "M4J4A7",
    "result": [
      {
        "electoralDistricts": [
          {
            "election": null,
            "id": 110,
            "name": "Toronto—Danforth"
          }
        ],
        "pollDivisionIds": [
          10142511
        ],
        "postalCode": "M4J4A7",
        "streetName": "GREENWOOD",
        "streetDirectionId": null,
        "streetTypeId": "AVE",
        "placeName": "TORONTO",
        "streetNameDisplayText": "GREENWOOD AVE, TORONTO"
      }
    ]
  },
  {
    "postal": "M4J4H9",
    "result": [
      {
        "electoralDistricts": [
          {
            "election": null,
            "id": 110,
            "name": "Toronto—Danforth"
          }
        ],
        "pollDivisionIds": [
          10142507
        ],
        "postalCode": "M4J4H9",
        "streetName": "OAKDENE",
        "streetDirectionId": null,
        "streetTypeId": "CRES",
        "placeName": "TORONTO",
        "streetNameDisplayText": "OAKDENE CRES, TORONTO"
      }
    ]
  },
  {
    "postal": "M4J6X1",
    "result": []
  },
  {
    "postal": "M4J9Y7",
    "result": []
  },
  {
    "postal": "M4J2Y5",
    "result": [
      {
        "electoralDistricts": [
          {
            "election": null,
            "id": 110,
            "name": "Toronto—Danforth"
          }
        ],
        "pollDivisionIds": [
          10142501
        ],
        "postalCode": "M4J2Y5",
        "streetName": "PEPLER",
        "streetDirectionId": null,
        "streetTypeId": "AVE",
        "placeName": "EAST YORK",
        "streetNameDisplayText": "PEPLER AVE, EAST YORK"
      }
    ]
  },
  {
    "postal": "M4J8L7",
    "result": []
  },
  {
    "postal": "M4J2A8",
    "result": [
      {
        "electoralDistricts": [
          {
            "election": null,
            "id": 110,
            "name": "Toronto—Danforth"
          }
        ],
        "pollDivisionIds": [
          10142503
        ],
        "postalCode": "M4J2A8",
        "streetName": "SAMMON",
        "streetDirectionId": null,
        "streetTypeId": "AVE",
        "placeName": "EAST YORK",
        "streetNameDisplayText": "SAMMON AVE, EAST YORK"
      }
    ]
  },
  {
    "postal": "M4J2K9",
    "result": [
      {
        "electoralDistricts": [
          {
            "election": null,
            "id": 110,
            "name": "Toronto—Danforth"
          }
        ],
        "pollDivisionIds": [
          10142502
        ],
        "postalCode": "M4J2K9",
        "streetName": "DIEPPE",
        "streetDirectionId": null,
        "streetTypeId": "RD",
        "placeName": "EAST YORK",
        "streetNameDisplayText": "DIEPPE RD, EAST YORK"
      }
    ]
  },
  {
    "postal": "M4J3E5",
    "result": [
      {
        "electoralDistricts": [
          {
            "election": null,
            "id": 110,
            "name": "Toronto—Danforth"
          }
        ],
        "pollDivisionIds": [
          10142508
        ],
        "postalCode": "M4J3E5",
        "streetName": "LANGFORD",
        "streetDirectionId": null,
        "streetTypeId": "AVE",
        "placeName": "EAST YORK",
        "streetNameDisplayText": "LANGFORD AVE, EAST YORK"
      },
      {
        "electoralDistricts": [
          {
            "election": null,
            "id": 110,
            "name": "Toronto—Danforth"
          }
        ],
        "pollDivisionIds": [
          10142508
        ],
        "postalCode": "M4J3E5",
        "streetName": "LANGFORD",
        "streetDirectionId": null,
        "streetTypeId": "AVE",
        "placeName": "TORONTO",
        "streetNameDisplayText": "LANGFORD AVE, TORONTO"
      }
    ]
  },
  {
    "postal": "M4J8N6",
    "result": []
  },
  {
    "postal": "M4J8J4",
    "result": []
  },
  {
    "postal": "M4J4R7",
    "result": [
      {
        "electoralDistricts": [
          {
            "election": null,
            "id": 110,
            "name": "Toronto—Danforth"
          }
        ],
        "pollDivisionIds": [
          10142507
        ],
        "postalCode": "M4J4R7",
        "streetName": "MONARCH PARK",
        "streetDirectionId": null,
        "streetTypeId": "AVE",
        "placeName": "TORONTO",
        "streetNameDisplayText": "MONARCH PARK AVE, TORONTO"
      }
    ]
  },
  {
    "postal": "M4J9K1",
    "result": []
  },
  {
    "postal": "M4J8E1",
    "result": []
  },
  {
    "postal": "M4J0R1",
    "result": []
  },
  {
    "postal": "M4J4J3",
    "result": [
      {
        "electoralDistricts": [
          {
            "election": null,
            "id": 110,
            "name": "Toronto—Danforth"
          }
        ],
        "pollDivisionIds": [
          10142503
        ],
        "postalCode": "M4J4J3",
        "streetName": "KIMBOURNE",
        "streetDirectionId": null,
        "streetTypeId": "AVE",
        "placeName": "EAST YORK",
        "streetNameDisplayText": "KIMBOURNE AVE, EAST YORK"
      }
    ]
  },
  {
    "postal": "M4J7E7",
    "result": []
  },
  {
    "postal": "M4J0J0",
    "result": []
  },
  {
    "postal": "M4J7R8",
    "result": []
  },
  {
    "postal": "M4J9X0",
    "result": []
  },
  {
    "postal": "M4J7P6",
    "result": []
  },
  {
    "postal": "M4J0R7",
    "result": []
  },
  {
    "postal": "M4J5W1",
    "result": []
  },
  {
    "postal": "M4J0K4",
    "result": []
  },
  {
    "postal": "M4J7N9",
    "result": []
  },
  {
    "postal": "M4J1N0",
    "result": []
  },
  {
    "postal": "M4J6P3",
    "result": []
  },
  {
    "postal": "M4J5A1",
    "result": [
      {
        "electoralDistricts": [
          {
            "election": null,
            "id": 110,
            "name": "Toronto—Danforth"
          }
        ],
        "pollDivisionIds": [
          10142511
        ],
        "postalCode": "M4J5A1",
        "streetName": "LOUNT",
        "streetDirectionId": null,
        "streetTypeId": "ST",
        "placeName": "TORONTO",
        "streetNameDisplayText": "LOUNT ST, TORONTO"
      }
    ]
  },
  {
    "postal": "M4J9M9",
    "result": []
  },
  {
    "postal": "M4J7T6",
    "result": []
  },
  {
    "postal": "M4J3X0",
    "result": []
  },
  {
    "postal": "M4J2T0",
    "result": []
  },
  {
    "postal": "M4J5X9",
    "result": []
  },
  {
    "postal": "M4J2R3",
    "result": [
      {
        "electoralDistricts": [
          {
            "election": null,
            "id": 110,
            "name": "Toronto—Danforth"
          }
        ],
        "pollDivisionIds": [
          10142500
        ],
        "postalCode": "M4J2R3",
        "streetName": "PLAINS",
        "streetDirectionId": null,
        "streetTypeId": "RD",
        "placeName": "EAST YORK",
        "streetNameDisplayText": "PLAINS RD, EAST YORK"
      }
    ]
  },
  {
    "postal": "M4J5N2",
    "result": []
  },
  {
    "postal": "M4J4Y7",
    "result": []
  },
  {
    "postal": "M4J7M0",
    "result": []
  },
  {
    "postal": "M4J8P3",
    "result": []
  },
  {
    "postal": "M4J3N3",
    "result": [
      {
        "electoralDistricts": [
          {
            "election": null,
            "id": 110,
            "name": "Toronto—Danforth"
          }
        ],
        "pollDivisionIds": [
          10142512
        ],
        "postalCode": "M4J3N3",
        "streetName": "EUSTON",
        "streetDirectionId": null,
        "streetTypeId": "AVE",
        "placeName": "TORONTO",
        "streetNameDisplayText": "EUSTON AVE, TORONTO"
      }
    ]
  },
  {
    "postal": "M4J7S3",
    "result": []
  },
  {
    "postal": "M4J3V9",
    "result": [
      {
        "electoralDistricts": [
          {
            "election": null,
            "id": 110,
            "name": "Toronto—Danforth"
          }
        ],
        "pollDivisionIds": [
          10142502
        ],
        "postalCode": "M4J3V9",
        "streetName": "LESMOUNT",
        "streetDirectionId": null,
        "streetTypeId": "AVE",
        "placeName": "EAST YORK",
        "streetNameDisplayText": "LESMOUNT AVE, EAST YORK"
      }
    ]
  },
  {
    "postal": "M4J9N7",
    "result": []
  },
  {
    "postal": "M4J0G4",
    "result": []
  },
  {
    "postal": "M4J2E2",
    "result": [
      {
        "electoralDistricts": [
          {
            "election": null,
            "id": 110,
            "name": "Toronto—Danforth"
          }
        ],
        "pollDivisionIds": [
          10142502
        ],
        "postalCode": "M4J2E2",
        "streetName": "MORTIMER",
        "streetDirectionId": null,
        "streetTypeId": "AVE",
        "placeName": "EAST YORK",
        "streetNameDisplayText": "MORTIMER AVE, EAST YORK"
      }
    ]
  },
  {
    "postal": "M4J7W8",
    "result": []
  },
  {
    "postal": "M4J7M5",
    "result": []
  },
  {
    "postal": "M4J5W8",
    "result": []
  },
  {
    "postal": "M4J5E5",
    "result": []
  },
  {
    "postal": "M4J1P9",
    "result": [
      {
        "electoralDistricts": [
          {
            "election": null,
            "id": 110,
            "name": "Toronto—Danforth"
          }
        ],
        "pollDivisionIds": [
          10142507
        ],
        "postalCode": "M4J1P9",
        "streetName": "STRATHMORE",
        "streetDirectionId": null,
        "streetTypeId": "BLVD",
        "placeName": "TORONTO",
        "streetNameDisplayText": "STRATHMORE BLVD, TORONTO"
      }
    ]
  },
  {
    "postal": "M4J8V8",
    "result": []
  },
  {
    "postal": "M4J9G8",
    "result": []
  },
  {
    "postal": "M4J8H9",
    "result": []
  },
  {
    "postal": "M4J1Z1",
    "result": [
      {
        "electoralDistricts": [
          {
            "election": null,
            "id": 110,
            "name": "Toronto—Danforth"
          }
        ],
        "pollDivisionIds": [
          10142508
        ],
        "postalCode": "M4J1Z1",
        "streetName": "SAMMON",
        "streetDirectionId": null,
        "streetTypeId": "AVE",
        "placeName": "EAST YORK",
        "streetNameDisplayText": "SAMMON AVE, EAST YORK"
      }
    ]
  },
  {
    "postal": "M4J8M3",
    "result": []
  },
  {
    "postal": "M4J5H6",
    "result": []
  },
  {
    "postal": "M4J7W7",
    "result": []
  },
  {
    "postal": "M4J4L0",
    "result": []
  },
  {
    "postal": "M4J2N1",
    "result": [
      {
        "electoralDistricts": [
          {
            "election": null,
            "id": 110,
            "name": "Toronto—Danforth"
          }
        ],
        "pollDivisionIds": [
          10142502
        ],
        "postalCode": "M4J2N1",
        "streetName": "COSBURN",
        "streetDirectionId": null,
        "streetTypeId": "AVE",
        "placeName": "EAST YORK",
        "streetNameDisplayText": "COSBURN AVE, EAST YORK"
      }
    ]
  },
  {
    "postal": "M4J2H4",
    "result": [
      {
        "electoralDistricts": [
          {
            "election": null,
            "id": 110,
            "name": "Toronto—Danforth"
          }
        ],
        "pollDivisionIds": [
          10142505
        ],
        "postalCode": "M4J2H4",
        "streetName": "WESTWOOD",
        "streetDirectionId": null,
        "streetTypeId": "AVE",
        "placeName": "EAST YORK",
        "streetNameDisplayText": "WESTWOOD AVE, EAST YORK"
      }
    ]
  },
  {
    "postal": "M4J5C8",
    "result": []
  },
  {
    "postal": "M4J8B0",
    "result": []
  },
  {
    "postal": "M4J1T4",
    "result": [
      {
        "electoralDistricts": [
          {
            "election": null,
            "id": 110,
            "name": "Toronto—Danforth"
          }
        ],
        "pollDivisionIds": [
          10142508
        ],
        "postalCode": "M4J1T4",
        "streetName": "SELKIRK",
        "streetDirectionId": null,
        "streetTypeId": "ST",
        "placeName": "TORONTO",
        "streetNameDisplayText": "SELKIRK ST, TORONTO"
      }
    ]
  },
  {
    "postal": "M4J7N7",
    "result": []
  },
  {
    "postal": "M4J4L3",
    "result": [
      {
        "electoralDistricts": [
          {
            "election": null,
            "id": 110,
            "name": "Toronto—Danforth"
          }
        ],
        "pollDivisionIds": [
          10142503
        ],
        "postalCode": "M4J4L3",
        "streetName": "LINSMORE",
        "streetDirectionId": null,
        "streetTypeId": "CRES",
        "placeName": "EAST YORK",
        "streetNameDisplayText": "LINSMORE CRES, EAST YORK"
      }
    ]
  },
  {
    "postal": "M4J2N2",
    "result": [
      {
        "electoralDistricts": [
          {
            "election": null,
            "id": 110,
            "name": "Toronto—Danforth"
          }
        ],
        "pollDivisionIds": [
          10142500
        ],
        "postalCode": "M4J2N2",
        "streetName": "COSBURN",
        "streetDirectionId": null,
        "streetTypeId": "AVE",
        "placeName": "EAST YORK",
        "streetNameDisplayText": "COSBURN AVE, EAST YORK"
      }
    ]
  },
  {
    "postal": "M4J4N8",
    "result": [
      {
        "electoralDistricts": [
          {
            "election": null,
            "id": 110,
            "name": "Toronto—Danforth"
          }
        ],
        "pollDivisionIds": [
          10142507
        ],
        "postalCode": "M4J4N8",
        "streetName": "GILLARD",
        "streetDirectionId": null,
        "streetTypeId": "AVE",
        "placeName": "TORONTO",
        "streetNameDisplayText": "GILLARD AVE, TORONTO"
      }
    ]
  },
  {
    "postal": "M4J3M5",
    "result": [
      {
        "electoralDistricts": [
          {
            "election": null,
            "id": 110,
            "name": "Toronto—Danforth"
          }
        ],
        "pollDivisionIds": [
          10142513
        ],
        "postalCode": "M4J3M5",
        "streetName": "CONDOR",
        "streetDirectionId": null,
        "streetTypeId": "AVE",
        "placeName": "TORONTO",
        "streetNameDisplayText": "CONDOR AVE, TORONTO"
      }
    ]
  },
  {
    "postal": "M4J6H7",
    "result": []
  },
  {
    "postal": "M4J8Y8",
    "result": []
  },
  {
    "postal": "M4J5R9",
    "result": []
  },
  {
    "postal": "M4J8G3",
    "result": []
  },
  {
    "postal": "M4J4N7",
    "result": [
      {
        "electoralDistricts": [
          {
            "election": null,
            "id": 110,
            "name": "Toronto—Danforth"
          }
        ],
        "pollDivisionIds": [
          10142507
        ],
        "postalCode": "M4J4N7",
        "streetName": "GILLARD",
        "streetDirectionId": null,
        "streetTypeId": "AVE",
        "placeName": "TORONTO",
        "streetNameDisplayText": "GILLARD AVE, TORONTO"
      }
    ]
  },
  {
    "postal": "M4J0B9",
    "result": []
  },
  {
    "postal": "M4J9K7",
    "result": []
  },
  {
    "postal": "M4J9K9",
    "result": []
  },
  {
    "postal": "M4J3Z2",
    "result": [
      {
        "electoralDistricts": [
          {
            "election": null,
            "id": 110,
            "name": "Toronto—Danforth"
          }
        ],
        "pollDivisionIds": [
          10142502
        ],
        "postalCode": "M4J3Z2",
        "streetName": "ST HUBERT",
        "streetDirectionId": null,
        "streetTypeId": "AVE",
        "placeName": "EAST YORK",
        "streetNameDisplayText": "ST HUBERT AVE, EAST YORK"
      }
    ]
  },
  {
    "postal": "M4J6W7",
    "result": []
  },
  {
    "postal": "M4J0P1",
    "result": []
  },
  {
    "postal": "M4J3A0",
    "result": []
  },
  {
    "postal": "M4J8L9",
    "result": []
  },
  {
    "postal": "M4J6X0",
    "result": []
  },
  {
    "postal": "M4J3E9",
    "result": [
      {
        "electoralDistricts": [
          {
            "election": null,
            "id": 110,
            "name": "Toronto—Danforth"
          }
        ],
        "pollDivisionIds": [
          10142501
        ],
        "postalCode": "M4J3E9",
        "streetName": "WARLAND",
        "streetDirectionId": null,
        "streetTypeId": "AVE",
        "placeName": "EAST YORK",
        "streetNameDisplayText": "WARLAND AVE, EAST YORK"
      }
    ]
  },
  {
    "postal": "M4J0S5",
    "result": []
  },
  {
    "postal": "M4J1A2",
    "result": [
      {
        "electoralDistricts": [
          {
            "election": null,
            "id": 110,
            "name": "Toronto—Danforth"
          }
        ],
        "pollDivisionIds": [
          10142519
        ],
        "postalCode": "M4J1A2",
        "streetName": "RIVERDALE",
        "streetDirectionId": null,
        "streetTypeId": "AVE",
        "placeName": "TORONTO",
        "streetNameDisplayText": "RIVERDALE AVE, TORONTO"
      }
    ]
  },
  {
    "postal": "M4J5V8",
    "result": []
  },
  {
    "postal": "M4J8C5",
    "result": []
  },
  {
    "postal": "M4J6N0",
    "result": []
  },
  {
    "postal": "M4J9E6",
    "result": []
  },
  {
    "postal": "M4J5J7",
    "result": []
  },
  {
    "postal": "M4J2R2",
    "result": []
  },
  {
    "postal": "M4J0P5",
    "result": []
  },
  {
    "postal": "M4J5A7",
    "result": [
      {
        "electoralDistricts": [
          {
            "election": null,
            "id": 110,
            "name": "Toronto—Danforth"
          }
        ],
        "pollDivisionIds": [
          10142511
        ],
        "postalCode": "M4J5A7",
        "streetName": "QUARRY",
        "streetDirectionId": null,
        "streetTypeId": "CRT",
        "placeName": "TORONTO",
        "streetNameDisplayText": "QUARRY CRT, TORONTO"
      }
    ]
  },
  {
    "postal": "M4J1G1",
    "result": [
      {
        "electoralDistricts": [
          {
            "election": null,
            "id": 110,
            "name": "Toronto—Danforth"
          }
        ],
        "pollDivisionIds": [
          10142513
        ],
        "postalCode": "M4J1G1",
        "streetName": "QUEEN VICTORIA",
        "streetDirectionId": null,
        "streetTypeId": "ST",
        "placeName": "TORONTO",
        "streetNameDisplayText": "QUEEN VICTORIA ST, TORONTO"
      }
    ]
  },
  {
    "postal": "M4J9R6",
    "result": []
  },
  {
    "postal": "M4J4Z9",
    "result": [
      {
        "electoralDistricts": [
          {
            "election": null,
            "id": 110,
            "name": "Toronto—Danforth"
          }
        ],
        "pollDivisionIds": [
          10142511
        ],
        "postalCode": "M4J4Z9",
        "streetName": "SANDSTONE",
        "streetDirectionId": null,
        "streetTypeId": "LANE",
        "placeName": "TORONTO",
        "streetNameDisplayText": "SANDSTONE LANE, TORONTO"
      }
    ]
  },
  {
    "postal": "M4J1V5",
    "result": [
      {
        "electoralDistricts": [
          {
            "election": null,
            "id": 110,
            "name": "Toronto—Danforth"
          }
        ],
        "pollDivisionIds": [
          10142507
        ],
        "postalCode": "M4J1V5",
        "streetName": "MILVERTON",
        "streetDirectionId": null,
        "streetTypeId": "BLVD",
        "placeName": "TORONTO",
        "streetNameDisplayText": "MILVERTON BLVD, TORONTO"
      }
    ]
  },
  {
    "postal": "M4J9Y5",
    "result": []
  },
  {
    "postal": "M4J1P2",
    "result": [
      {
        "electoralDistricts": [
          {
            "election": null,
            "id": 110,
            "name": "Toronto—Danforth"
          }
        ],
        "pollDivisionIds": [
          10142508
        ],
        "postalCode": "M4J1P2",
        "streetName": "STRATHMORE",
        "streetDirectionId": null,
        "streetTypeId": "BLVD",
        "placeName": "TORONTO",
        "streetNameDisplayText": "STRATHMORE BLVD, TORONTO"
      }
    ]
  },
  {
    "postal": "M4J5X0",
    "result": []
  },
  {
    "postal": "M4J7B8",
    "result": []
  },
  {
    "postal": "M4J0C6",
    "result": []
  },
  {
    "postal": "M4J6G1",
    "result": []
  },
  {
    "postal": "M4J3K3",
    "result": [
      {
        "electoralDistricts": [
          {
            "election": null,
            "id": 110,
            "name": "Toronto—Danforth"
          }
        ],
        "pollDivisionIds": [
          10142505
        ],
        "postalCode": "M4J3K3",
        "streetName": "DEWHURST",
        "streetDirectionId": "N",
        "streetTypeId": "BLVD",
        "placeName": "EAST YORK",
        "streetNameDisplayText": "DEWHURST BLVD N, EAST YORK"
      }
    ]
  },
  {
    "postal": "M4J9R0",
    "result": []
  },
  {
    "postal": "M4J4R8",
    "result": [
      {
        "electoralDistricts": [
          {
            "election": null,
            "id": 110,
            "name": "Toronto—Danforth"
          }
        ],
        "pollDivisionIds": [
          10142507
        ],
        "postalCode": "M4J4R8",
        "streetName": "MONARCH PARK",
        "streetDirectionId": null,
        "streetTypeId": "AVE",
        "placeName": "TORONTO",
        "streetNameDisplayText": "MONARCH PARK AVE, TORONTO"
      }
    ]
  },
  {
    "postal": "M4J5P9",
    "result": []
  },
  {
    "postal": "M4J8N4",
    "result": []
  },
  {
    "postal": "M4J8H4",
    "result": []
  },
  {
    "postal": "M4J4V1",
    "result": [
      {
        "electoralDistricts": [
          {
            "election": null,
            "id": 110,
            "name": "Toronto—Danforth"
          }
        ],
        "pollDivisionIds": [
          10142500
        ],
        "postalCode": "M4J4V1",
        "streetName": "MILTON",
        "streetDirectionId": null,
        "streetTypeId": "RD",
        "placeName": "EAST YORK",
        "streetNameDisplayText": "MILTON RD, EAST YORK"
      }
    ]
  },
  {
    "postal": "M4J1K5",
    "result": [
      {
        "electoralDistricts": [
          {
            "election": null,
            "id": 110,
            "name": "Toronto—Danforth"
          }
        ],
        "pollDivisionIds": [
          10142512
        ],
        "postalCode": "M4J1K5",
        "streetName": "HAZELWOOD",
        "streetDirectionId": null,
        "streetTypeId": "AVE",
        "placeName": "TORONTO",
        "streetNameDisplayText": "HAZELWOOD AVE, TORONTO"
      }
    ]
  },
  {
    "postal": "M4J1Z5",
    "result": [
      {
        "electoralDistricts": [
          {
            "election": null,
            "id": 110,
            "name": "Toronto—Danforth"
          }
        ],
        "pollDivisionIds": [
          10142502
        ],
        "postalCode": "M4J1Z5",
        "streetName": "SAMMON",
        "streetDirectionId": null,
        "streetTypeId": "AVE",
        "placeName": "EAST YORK",
        "streetNameDisplayText": "SAMMON AVE, EAST YORK"
      }
    ]
  },
  {
    "postal": "M4J9L9",
    "result": []
  },
  {
    "postal": "M4J5L2",
    "result": []
  },
  {
    "postal": "M4J0M2",
    "result": []
  },
  {
    "postal": "M4J1K8",
    "result": [
      {
        "electoralDistricts": [
          {
            "election": null,
            "id": 110,
            "name": "Toronto—Danforth"
          }
        ],
        "pollDivisionIds": [
          10142513
        ],
        "postalCode": "M4J1K8",
        "streetName": "CHATHAM",
        "streetDirectionId": null,
        "streetTypeId": "AVE",
        "placeName": "TORONTO",
        "streetNameDisplayText": "CHATHAM AVE, TORONTO"
      }
    ]
  },
  {
    "postal": "M4J3M7",
    "result": [
      {
        "electoralDistricts": [
          {
            "election": null,
            "id": 110,
            "name": "Toronto—Danforth"
          }
        ],
        "pollDivisionIds": [
          10142513
        ],
        "postalCode": "M4J3M7",
        "streetName": "CONDOR",
        "streetDirectionId": null,
        "streetTypeId": "AVE",
        "placeName": "TORONTO",
        "streetNameDisplayText": "CONDOR AVE, TORONTO"
      }
    ]
  },
  {
    "postal": "M4J1B2",
    "result": [
      {
        "electoralDistricts": [
          {
            "election": null,
            "id": 110,
            "name": "Toronto—Danforth"
          }
        ],
        "pollDivisionIds": [
          10142513
        ],
        "postalCode": "M4J1B2",
        "streetName": "BOULTBEE",
        "streetDirectionId": null,
        "streetTypeId": "AVE",
        "placeName": "TORONTO",
        "streetNameDisplayText": "BOULTBEE AVE, TORONTO"
      }
    ]
  },
  {
    "postal": "M4J0H9",
    "result": []
  },
  {
    "postal": "M4J8M4",
    "result": []
  },
  {
    "postal": "M4J2M5",
    "result": [
      {
        "electoralDistricts": [
          {
            "election": null,
            "id": 110,
            "name": "Toronto—Danforth"
          }
        ],
        "pollDivisionIds": [
          10142502
        ],
        "postalCode": "M4J2M5",
        "streetName": "COSBURN",
        "streetDirectionId": null,
        "streetTypeId": "AVE",
        "placeName": "EAST YORK",
        "streetNameDisplayText": "COSBURN AVE, EAST YORK"
      }
    ]
  },
  {
    "postal": "M4J0T9",
    "result": []
  },
  {
    "postal": "M4J3P1",
    "result": [
      {
        "electoralDistricts": [
          {
            "election": null,
            "id": 110,
            "name": "Toronto—Danforth"
          }
        ],
        "pollDivisionIds": [
          10142508
        ],
        "postalCode": "M4J3P1",
        "streetName": "DONLANDS",
        "streetDirectionId": null,
        "streetTypeId": "AVE",
        "placeName": "TORONTO",
        "streetNameDisplayText": "DONLANDS AVE, TORONTO"
      }
    ]
  },
  {
    "postal": "M4J1R6",
    "result": [
      {
        "electoralDistricts": [
          {
            "election": null,
            "id": 110,
            "name": "Toronto—Danforth"
          }
        ],
        "pollDivisionIds": [
          10142507
        ],
        "postalCode": "M4J1R6",
        "streetName": "WOLVERLEIGH",
        "streetDirectionId": null,
        "streetTypeId": "BLVD",
        "placeName": "TORONTO",
        "streetNameDisplayText": "WOLVERLEIGH BLVD, TORONTO"
      }
    ]
  },
  {
    "postal": "M4J9V5",
    "result": []
  },
  {
    "postal": "M4J9T0",
    "result": []
  },
  {
    "postal": "M4J0A9",
    "result": []
  },
  {
    "postal": "M4J1M3",
    "result": [
      {
        "electoralDistricts": [
          {
            "election": null,
            "id": 110,
            "name": "Toronto—Danforth"
          }
        ],
        "pollDivisionIds": [
          10142508
        ],
        "postalCode": "M4J1M3",
        "streetName": "- 1168 DANFORTH",
        "streetDirectionId": null,
        "streetTypeId": "AVE",
        "placeName": "TORONTO",
        "streetNameDisplayText": "- 1168 DANFORTH AVE, TORONTO"
      },
      {
        "electoralDistricts": [
          {
            "election": null,
            "id": 110,
            "name": "Toronto—Danforth"
          }
        ],
        "pollDivisionIds": [
          10142508
        ],
        "postalCode": "M4J1M3",
        "streetName": "DANFORTH",
        "streetDirectionId": null,
        "streetTypeId": "AVE",
        "placeName": "TORONTO",
        "streetNameDisplayText": "DANFORTH AVE, TORONTO"
      }
    ]
  },
  {
    "postal": "M4J1W8",
    "result": [
      {
        "electoralDistricts": [
          {
            "election": null,
            "id": 110,
            "name": "Toronto—Danforth"
          }
        ],
        "pollDivisionIds": [
          10142507
        ],
        "postalCode": "M4J1W8",
        "streetName": "SPRINGDALE",
        "streetDirectionId": null,
        "streetTypeId": "BLVD",
        "placeName": "EAST YORK",
        "streetNameDisplayText": "SPRINGDALE BLVD, EAST YORK"
      }
    ]
  },
  {
    "postal": "M4J9J1",
    "result": []
  },
  {
    "postal": "M4J8N5",
    "result": []
  },
  {
    "postal": "M4J5X1",
    "result": []
  },
  {
    "postal": "M4J6S2",
    "result": []
  },
  {
    "postal": "M4J2A2",
    "result": [
      {
        "electoralDistricts": [
          {
            "election": null,
            "id": 110,
            "name": "Toronto—Danforth"
          }
        ],
        "pollDivisionIds": [
          10142502
        ],
        "postalCode": "M4J2A2",
        "streetName": "SAMMON",
        "streetDirectionId": null,
        "streetTypeId": "AVE",
        "placeName": "EAST YORK",
        "streetNameDisplayText": "SAMMON AVE, EAST YORK"
      }
    ]
  },
  {
    "postal": "M4J6A6",
    "result": []
  },
  {
    "postal": "M4J0S3",
    "result": []
  },
  {
    "postal": "M4J3E7",
    "result": [
      {
        "electoralDistricts": [
          {
            "election": null,
            "id": 110,
            "name": "Toronto—Danforth"
          }
        ],
        "pollDivisionIds": [
          10142508
        ],
        "postalCode": "M4J3E7",
        "streetName": "LANGFORD",
        "streetDirectionId": null,
        "streetTypeId": "AVE",
        "placeName": "EAST YORK",
        "streetNameDisplayText": "LANGFORD AVE, EAST YORK"
      }
    ]
  },
  {
    "postal": "M4J5R7",
    "result": []
  },
  {
    "postal": "M4J3R6",
    "result": [
      {
        "electoralDistricts": [
          {
            "election": null,
            "id": 110,
            "name": "Toronto—Danforth"
          }
        ],
        "pollDivisionIds": [
          10142504
        ],
        "postalCode": "M4J3R6",
        "streetName": "DONLANDS",
        "streetDirectionId": null,
        "streetTypeId": "AVE",
        "placeName": "EAST YORK",
        "streetNameDisplayText": "DONLANDS AVE, EAST YORK"
      }
    ]
  },
  {
    "postal": "M4J6K4",
    "result": []
  },
  {
    "postal": "M4J2W5",
    "result": [
      {
        "electoralDistricts": [
          {
            "election": null,
            "id": 110,
            "name": "Toronto—Danforth"
          }
        ],
        "pollDivisionIds": [
          10142500
        ],
        "postalCode": "M4J2W5",
        "streetName": "O'CONNOR",
        "streetDirectionId": null,
        "streetTypeId": "DR",
        "placeName": "EAST YORK",
        "streetNameDisplayText": "O'CONNOR DR, EAST YORK"
      }
    ]
  },
  {
    "postal": "M4J8W4",
    "result": []
  },
  {
    "postal": "M4J9C2",
    "result": []
  },
  {
    "postal": "M4J2C0",
    "result": []
  },
  {
    "postal": "M4J0E1",
    "result": []
  },
  {
    "postal": "M4J1K9",
    "result": [
      {
        "electoralDistricts": [
          {
            "election": null,
            "id": 110,
            "name": "Toronto—Danforth"
          }
        ],
        "pollDivisionIds": [
          10142513
        ],
        "postalCode": "M4J1K9",
        "streetName": "CHATHAM",
        "streetDirectionId": null,
        "streetTypeId": "AVE",
        "placeName": "TORONTO",
        "streetNameDisplayText": "CHATHAM AVE, TORONTO"
      }
    ]
  },
  {
    "postal": "M4J1G7",
    "result": [
      {
        "electoralDistricts": [
          {
            "election": null,
            "id": 110,
            "name": "Toronto—Danforth"
          }
        ],
        "pollDivisionIds": [
          10142507
        ],
        "postalCode": "M4J1G7",
        "streetName": "HANSON",
        "streetDirectionId": null,
        "streetTypeId": "ST",
        "placeName": "TORONTO",
        "streetNameDisplayText": "HANSON ST, TORONTO"
      }
    ]
  },
  {
    "postal": "M4J4E9",
    "result": [
      {
        "electoralDistricts": [
          {
            "election": null,
            "id": 110,
            "name": "Toronto—Danforth"
          }
        ],
        "pollDivisionIds": [
          10142500
        ],
        "postalCode": "M4J4E9",
        "streetName": "NORTHBROOK",
        "streetDirectionId": null,
        "streetTypeId": "RD",
        "placeName": "EAST YORK",
        "streetNameDisplayText": "NORTHBROOK RD, EAST YORK"
      }
    ]
  },
  {
    "postal": "M4J9P0",
    "result": []
  },
  {
    "postal": "M4J5H3",
    "result": []
  },
  {
    "postal": "M4J9X6",
    "result": []
  },
  {
    "postal": "M4J5N7",
    "result": []
  },
  {
    "postal": "M4J5A6",
    "result": [
      {
        "electoralDistricts": [
          {
            "election": null,
            "id": 110,
            "name": "Toronto—Danforth"
          }
        ],
        "pollDivisionIds": [
          10142511
        ],
        "postalCode": "M4J5A6",
        "streetName": "QUARRY",
        "streetDirectionId": null,
        "streetTypeId": "CRT",
        "placeName": "TORONTO",
        "streetNameDisplayText": "QUARRY CRT, TORONTO"
      }
    ]
  },
  {
    "postal": "M4J4M0",
    "result": []
  },
  {
    "postal": "M4J3V6",
    "result": [
      {
        "electoralDistricts": [
          {
            "election": null,
            "id": 110,
            "name": "Toronto—Danforth"
          }
        ],
        "pollDivisionIds": [
          10142502
        ],
        "postalCode": "M4J3V6",
        "streetName": "LESMOUNT",
        "streetDirectionId": null,
        "streetTypeId": "AVE",
        "placeName": "EAST YORK",
        "streetNameDisplayText": "LESMOUNT AVE, EAST YORK"
      }
    ]
  },
  {
    "postal": "M4J1L7",
    "result": [
      {
        "electoralDistricts": [
          {
            "election": null,
            "id": 110,
            "name": "Toronto—Danforth"
          }
        ],
        "pollDivisionIds": [
          10142508
        ],
        "postalCode": "M4J1L7",
        "streetName": "DANFORTH",
        "streetDirectionId": null,
        "streetTypeId": "AVE",
        "placeName": "TORONTO",
        "streetNameDisplayText": "DANFORTH AVE, TORONTO"
      }
    ]
  },
  {
    "postal": "M4J2P9",
    "result": [
      {
        "electoralDistricts": [
          {
            "election": null,
            "id": 110,
            "name": "Toronto—Danforth"
          }
        ],
        "pollDivisionIds": [
          10142502
        ],
        "postalCode": "M4J2P9",
        "streetName": "PLAINS",
        "streetDirectionId": null,
        "streetTypeId": "RD",
        "placeName": "EAST YORK",
        "streetNameDisplayText": "PLAINS RD, EAST YORK"
      }
    ]
  },
  {
    "postal": "M4J5T4",
    "result": []
  },
  {
    "postal": "M4J5Z1",
    "result": []
  },
  {
    "postal": "M4J2X0",
    "result": []
  },
  {
    "postal": "M4J6Z2",
    "result": []
  },
  {
    "postal": "M4J0E0",
    "result": []
  },
  {
    "postal": "M4J3Z5",
    "result": [
      {
        "electoralDistricts": [
          {
            "election": null,
            "id": 110,
            "name": "Toronto—Danforth"
          }
        ],
        "pollDivisionIds": [
          10142502
        ],
        "postalCode": "M4J3Z5",
        "streetName": "ST HUBERT",
        "streetDirectionId": null,
        "streetTypeId": "AVE",
        "placeName": "EAST YORK",
        "streetNameDisplayText": "ST HUBERT AVE, EAST YORK"
      }
    ]
  },
  {
    "postal": "M4J8H3",
    "result": []
  },
  {
    "postal": "M4J7S6",
    "result": []
  },
  {
    "postal": "M4J4C1",
    "result": [
      {
        "electoralDistricts": [
          {
            "election": null,
            "id": 110,
            "name": "Toronto—Danforth"
          }
        ],
        "pollDivisionIds": [
          10142508
        ],
        "postalCode": "M4J4C1",
        "streetName": "GREENWOOD",
        "streetDirectionId": null,
        "streetTypeId": "AVE",
        "placeName": "TORONTO",
        "streetNameDisplayText": "GREENWOOD AVE, TORONTO"
      }
    ]
  },
  {
    "postal": "M4J3K2",
    "result": [
      {
        "electoralDistricts": [
          {
            "election": null,
            "id": 110,
            "name": "Toronto—Danforth"
          }
        ],
        "pollDivisionIds": [
          10142504
        ],
        "postalCode": "M4J3K2",
        "streetName": "DEWHURST",
        "streetDirectionId": "N",
        "streetTypeId": "BLVD",
        "placeName": "EAST YORK",
        "streetNameDisplayText": "DEWHURST BLVD N, EAST YORK"
      }
    ]
  },
  {
    "postal": "M4J1Y5",
    "result": [
      {
        "electoralDistricts": [
          {
            "election": null,
            "id": 110,
            "name": "Toronto—Danforth"
          }
        ],
        "pollDivisionIds": [
          10142507
        ],
        "postalCode": "M4J1Y5",
        "streetName": "QUEENSDALE",
        "streetDirectionId": null,
        "streetTypeId": "AVE",
        "placeName": "EAST YORK",
        "streetNameDisplayText": "QUEENSDALE AVE, EAST YORK"
      }
    ]
  },
  {
    "postal": "M4J6P6",
    "result": []
  },
  {
    "postal": "M4J3N9",
    "result": [
      {
        "electoralDistricts": [
          {
            "election": null,
            "id": 110,
            "name": "Toronto—Danforth"
          }
        ],
        "pollDivisionIds": [
          10142508
        ],
        "postalCode": "M4J3N9",
        "streetName": "DONLANDS",
        "streetDirectionId": null,
        "streetTypeId": "AVE",
        "placeName": "TORONTO",
        "streetNameDisplayText": "DONLANDS AVE, TORONTO"
      }
    ]
  },
  {
    "postal": "M4J3W2",
    "result": [
      {
        "electoralDistricts": [
          {
            "election": null,
            "id": 110,
            "name": "Toronto—Danforth"
          }
        ],
        "pollDivisionIds": [
          10142502
        ],
        "postalCode": "M4J3W2",
        "streetName": "LESMOUNT",
        "streetDirectionId": null,
        "streetTypeId": "AVE",
        "placeName": "EAST YORK",
        "streetNameDisplayText": "LESMOUNT AVE, EAST YORK"
      }
    ]
  },
  {
    "postal": "M4J6H8",
    "result": []
  },
  {
    "postal": "M4J9T3",
    "result": []
  },
  {
    "postal": "M4J5L9",
    "result": []
  },
  {
    "postal": "M4J7X7",
    "result": []
  },
  {
    "postal": "M4J3J5",
    "result": [
      {
        "electoralDistricts": [
          {
            "election": null,
            "id": 110,
            "name": "Toronto—Danforth"
          }
        ],
        "pollDivisionIds": [
          10142508
        ],
        "postalCode": "M4J3J5",
        "streetName": "DEWHURST",
        "streetDirectionId": null,
        "streetTypeId": "BLVD",
        "placeName": "TORONTO",
        "streetNameDisplayText": "DEWHURST BLVD, TORONTO"
      }
    ]
  },
  {
    "postal": "M4J4J5",
    "result": [
      {
        "electoralDistricts": [
          {
            "election": null,
            "id": 110,
            "name": "Toronto—Danforth"
          }
        ],
        "pollDivisionIds": [
          10142507
        ],
        "postalCode": "M4J4J5",
        "streetName": "LINNSMORE",
        "streetDirectionId": null,
        "streetTypeId": "CRES",
        "placeName": "TORONTO",
        "streetNameDisplayText": "LINNSMORE CRES, TORONTO"
      },
      {
        "electoralDistricts": [
          {
            "election": null,
            "id": 110,
            "name": "Toronto—Danforth"
          }
        ],
        "pollDivisionIds": [
          10142507
        ],
        "postalCode": "M4J4J5",
        "streetName": "LINSMORE",
        "streetDirectionId": null,
        "streetTypeId": "CRES",
        "placeName": "TORONTO",
        "streetNameDisplayText": "LINSMORE CRES, TORONTO"
      }
    ]
  },
  {
    "postal": "M4J6J2",
    "result": []
  },
  {
    "postal": "M4J5V6",
    "result": []
  },
  {
    "postal": "M4J3N2",
    "result": [
      {
        "electoralDistricts": [
          {
            "election": null,
            "id": 110,
            "name": "Toronto—Danforth"
          }
        ],
        "pollDivisionIds": [
          10142513
        ],
        "postalCode": "M4J3N2",
        "streetName": "CONDOR",
        "streetDirectionId": null,
        "streetTypeId": "AVE",
        "placeName": "TORONTO",
        "streetNameDisplayText": "CONDOR AVE, TORONTO"
      }
    ]
  },
  {
    "postal": "M4J3B1",
    "result": [
      {
        "electoralDistricts": [
          {
            "election": null,
            "id": 110,
            "name": "Toronto—Danforth"
          }
        ],
        "pollDivisionIds": [
          10142508
        ],
        "postalCode": "M4J3B1",
        "streetName": "WOODYCREST",
        "streetDirectionId": null,
        "streetTypeId": "AVE",
        "placeName": "TORONTO",
        "streetNameDisplayText": "WOODYCREST AVE, TORONTO"
      }
    ]
  },
  {
    "postal": "M4J8B5",
    "result": []
  },
  {
    "postal": "M4J0K1",
    "result": []
  },
  {
    "postal": "M4J7M7",
    "result": []
  },
  {
    "postal": "M4J2M2",
    "result": [
      {
        "electoralDistricts": [
          {
            "election": null,
            "id": 110,
            "name": "Toronto—Danforth"
          }
        ],
        "pollDivisionIds": [
          10142504
        ],
        "postalCode": "M4J2M2",
        "streetName": "COSBURN",
        "streetDirectionId": null,
        "streetTypeId": "AVE",
        "placeName": "EAST YORK",
        "streetNameDisplayText": "COSBURN AVE, EAST YORK"
      }
    ]
  },
  {
    "postal": "M4J9N3",
    "result": []
  },
  {
    "postal": "M4J4Y8",
    "result": []
  },
  {
    "postal": "M4J3V7",
    "result": [
      {
        "electoralDistricts": [
          {
            "election": null,
            "id": 110,
            "name": "Toronto—Danforth"
          }
        ],
        "pollDivisionIds": [
          10142502
        ],
        "postalCode": "M4J3V7",
        "streetName": "LESMOUNT",
        "streetDirectionId": null,
        "streetTypeId": "AVE",
        "placeName": "EAST YORK",
        "streetNameDisplayText": "LESMOUNT AVE, EAST YORK"
      }
    ]
  },
  {
    "postal": "M4J8Z1",
    "result": []
  },
  {
    "postal": "M4J7B3",
    "result": []
  },
  {
    "postal": "M4J3A8",
    "result": [
      {
        "electoralDistricts": [
          {
            "election": null,
            "id": 110,
            "name": "Toronto—Danforth"
          }
        ],
        "pollDivisionIds": [
          10142508
        ],
        "postalCode": "M4J3A8",
        "streetName": "WOODYCREST",
        "streetDirectionId": null,
        "streetTypeId": "AVE",
        "placeName": "TORONTO",
        "streetNameDisplayText": "WOODYCREST AVE, TORONTO"
      }
    ]
  },
  {
    "postal": "M4J7V5",
    "result": []
  },
  {
    "postal": "M4J2T2",
    "result": [
      {
        "electoralDistricts": [
          {
            "election": null,
            "id": 110,
            "name": "Toronto—Danforth"
          }
        ],
        "pollDivisionIds": [
          10142501
        ],
        "postalCode": "M4J2T2",
        "streetName": "O'CONNOR",
        "streetDirectionId": null,
        "streetTypeId": "DR",
        "placeName": "EAST YORK",
        "streetNameDisplayText": "O'CONNOR DR, EAST YORK"
      }
    ]
  },
  {
    "postal": "M4J6L3",
    "result": []
  },
  {
    "postal": "M4J0L2",
    "result": []
  },
  {
    "postal": "M4J5Y8",
    "result": []
  },
  {
    "postal": "M4J0B8",
    "result": []
  },
  {
    "postal": "M4J6R5",
    "result": []
  },
  {
    "postal": "M4J8W6",
    "result": []
  },
  {
    "postal": "M4J8G6",
    "result": []
  },
  {
    "postal": "M4J6X3",
    "result": []
  },
  {
    "postal": "M4J7R7",
    "result": []
  },
  {
    "postal": "M4J4B6",
    "result": [
      {
        "electoralDistricts": [
          {
            "election": null,
            "id": 110,
            "name": "Toronto—Danforth"
          }
        ],
        "pollDivisionIds": [
          10142507
        ],
        "postalCode": "M4J4B6",
        "streetName": "GREENWOOD",
        "streetDirectionId": null,
        "streetTypeId": "AVE",
        "placeName": "TORONTO",
        "streetNameDisplayText": "GREENWOOD AVE, TORONTO"
      }
    ]
  },
  {
    "postal": "M4J3P9",
    "result": [
      {
        "electoralDistricts": [
          {
            "election": null,
            "id": 110,
            "name": "Toronto—Danforth"
          }
        ],
        "pollDivisionIds": [
          10142502
        ],
        "postalCode": "M4J3P9",
        "streetName": "DONLANDS",
        "streetDirectionId": null,
        "streetTypeId": "AVE",
        "placeName": "EAST YORK",
        "streetNameDisplayText": "DONLANDS AVE, EAST YORK"
      }
    ]
  },
  {
    "postal": "M4J2T3",
    "result": [
      {
        "electoralDistricts": [
          {
            "election": null,
            "id": 110,
            "name": "Toronto—Danforth"
          }
        ],
        "pollDivisionIds": [
          10142501
        ],
        "postalCode": "M4J2T3",
        "streetName": "O'CONNOR",
        "streetDirectionId": null,
        "streetTypeId": "DR",
        "placeName": "EAST YORK",
        "streetNameDisplayText": "O'CONNOR DR, EAST YORK"
      }
    ]
  },
  {
    "postal": "M4J1M4",
    "result": []
  },
  {
    "postal": "M4J0H1",
    "result": []
  },
  {
    "postal": "M4J9W3",
    "result": []
  },
  {
    "postal": "M4J6P1",
    "result": []
  },
  {
    "postal": "M4J7G2",
    "result": []
  },
  {
    "postal": "M4J4J9",
    "result": [
      {
        "electoralDistricts": [
          {
            "election": null,
            "id": 110,
            "name": "Toronto—Danforth"
          }
        ],
        "pollDivisionIds": [
          10142507
        ],
        "postalCode": "M4J4J9",
        "streetName": "LINNSMORE",
        "streetDirectionId": null,
        "streetTypeId": "CRES",
        "placeName": "TORONTO",
        "streetNameDisplayText": "LINNSMORE CRES, TORONTO"
      }
    ]
  },
  {
    "postal": "M4J9E4",
    "result": []
  },
  {
    "postal": "M4J8H0",
    "result": []
  },
  {
    "postal": "M4J4M7",
    "result": [
      {
        "electoralDistricts": [
          {
            "election": null,
            "id": 110,
            "name": "Toronto—Danforth"
          }
        ],
        "pollDivisionIds": [
          10142500
        ],
        "postalCode": "M4J4M7",
        "streetName": "DERWYN",
        "streetDirectionId": null,
        "streetTypeId": "RD",
        "placeName": "EAST YORK",
        "streetNameDisplayText": "DERWYN RD, EAST YORK"
      }
    ]
  },
  {
    "postal": "M4J2G9",
    "result": [
      {
        "electoralDistricts": [
          {
            "election": null,
            "id": 110,
            "name": "Toronto—Danforth"
          }
        ],
        "pollDivisionIds": [
          10142503
        ],
        "postalCode": "M4J2G9",
        "streetName": "MORTIMER",
        "streetDirectionId": null,
        "streetTypeId": "AVE",
        "placeName": "EAST YORK",
        "streetNameDisplayText": "MORTIMER AVE, EAST YORK"
      }
    ]
  },
  {
    "postal": "M4J8T2",
    "result": []
  },
  {
    "postal": "M4J7G7",
    "result": []
  },
  {
    "postal": "M4J4Z3",
    "result": []
  },
  {
    "postal": "M4J5B3",
    "result": [
      {
        "electoralDistricts": [
          {
            "election": null,
            "id": 110,
            "name": "Toronto—Danforth"
          }
        ],
        "pollDivisionIds": [
          10142508
        ],
        "postalCode": "M4J5B3",
        "streetName": "DONLANDS",
        "streetDirectionId": null,
        "streetTypeId": "AVE",
        "placeName": "TORONTO",
        "streetNameDisplayText": "DONLANDS AVE, TORONTO"
      }
    ]
  },
  {
    "postal": "M4J1S7",
    "result": [
      {
        "electoralDistricts": [
          {
            "election": null,
            "id": 110,
            "name": "Toronto—Danforth"
          }
        ],
        "pollDivisionIds": [
          10142507
        ],
        "postalCode": "M4J1S7",
        "streetName": "GLEBEHOLME",
        "streetDirectionId": null,
        "streetTypeId": "BLVD",
        "placeName": "TORONTO",
        "streetNameDisplayText": "GLEBEHOLME BLVD, TORONTO"
      }
    ]
  },
  {
    "postal": "M4J2N7",
    "result": [
      {
        "electoralDistricts": [
          {
            "election": null,
            "id": 110,
            "name": "Toronto—Danforth"
          }
        ],
        "pollDivisionIds": [
          10142503
        ],
        "postalCode": "M4J2N7",
        "streetName": "COSBURN",
        "streetDirectionId": null,
        "streetTypeId": "AVE",
        "placeName": "EAST YORK",
        "streetNameDisplayText": "COSBURN AVE, EAST YORK"
      }
    ]
  },
  {
    "postal": "M4J0H8",
    "result": []
  },
  {
    "postal": "M4J7Z4",
    "result": []
  },
  {
    "postal": "M4J7B1",
    "result": []
  },
  {
    "postal": "M4J7P8",
    "result": []
  },
  {
    "postal": "M4J7N0",
    "result": []
  },
  {
    "postal": "M4J3Y5",
    "result": [
      {
        "electoralDistricts": [
          {
            "election": null,
            "id": 110,
            "name": "Toronto—Danforth"
          }
        ],
        "pollDivisionIds": [
          10142502
        ],
        "postalCode": "M4J3Y5",
        "streetName": "INWOOD",
        "streetDirectionId": null,
        "streetTypeId": "AVE",
        "placeName": "EAST YORK",
        "streetNameDisplayText": "INWOOD AVE, EAST YORK"
      }
    ]
  },
  {
    "postal": "M4J6K1",
    "result": []
  },
  {
    "postal": "M4J9X5",
    "result": []
  },
  {
    "postal": "M4J7S5",
    "result": []
  },
  {
    "postal": "M4J0A4",
    "result": []
  },
  {
    "postal": "M4J4T5",
    "result": [
      {
        "electoralDistricts": [
          {
            "election": null,
            "id": 110,
            "name": "Toronto—Danforth"
          }
        ],
        "pollDivisionIds": [
          10142503
        ],
        "postalCode": "M4J4T5",
        "streetName": "ROOSEVELT",
        "streetDirectionId": null,
        "streetTypeId": "RD",
        "placeName": "EAST YORK",
        "streetNameDisplayText": "ROOSEVELT RD, EAST YORK"
      }
    ]
  },
  {
    "postal": "M4J5K1",
    "result": []
  },
  {
    "postal": "M4J0Z9",
    "result": []
  },
  {
    "postal": "M4J7T2",
    "result": []
  },
  {
    "postal": "M4J1L5",
    "result": [
      {
        "electoralDistricts": [
          {
            "election": null,
            "id": 110,
            "name": "Toronto—Danforth"
          }
        ],
        "pollDivisionIds": [
          10142508
        ],
        "postalCode": "M4J1L5",
        "streetName": "DANFORTH",
        "streetDirectionId": null,
        "streetTypeId": "AVE",
        "placeName": "TORONTO",
        "streetNameDisplayText": "DANFORTH AVE, TORONTO"
      }
    ]
  },
  {
    "postal": "M4J3N5",
    "result": [
      {
        "electoralDistricts": [
          {
            "election": null,
            "id": 110,
            "name": "Toronto—Danforth"
          }
        ],
        "pollDivisionIds": [
          10142508
        ],
        "postalCode": "M4J3N5",
        "streetName": "DONLANDS",
        "streetDirectionId": null,
        "streetTypeId": "AVE",
        "placeName": "TORONTO",
        "streetNameDisplayText": "DONLANDS AVE, TORONTO"
      }
    ]
  },
  {
    "postal": "M4J6H4",
    "result": []
  },
  {
    "postal": "M4J5A5",
    "result": [
      {
        "electoralDistricts": [
          {
            "election": null,
            "id": 110,
            "name": "Toronto—Danforth"
          }
        ],
        "pollDivisionIds": [
          10142511
        ],
        "postalCode": "M4J5A5",
        "streetName": "TORBRICK",
        "streetDirectionId": null,
        "streetTypeId": "RD",
        "placeName": "TORONTO",
        "streetNameDisplayText": "TORBRICK RD, TORONTO"
      }
    ]
  },
  {
    "postal": "M4J3R9",
    "result": [
      {
        "electoralDistricts": [
          {
            "election": null,
            "id": 110,
            "name": "Toronto—Danforth"
          }
        ],
        "pollDivisionIds": [
          10142501
        ],
        "postalCode": "M4J3R9",
        "streetName": "DONLANDS",
        "streetDirectionId": null,
        "streetTypeId": "AVE",
        "placeName": "EAST YORK",
        "streetNameDisplayText": "DONLANDS AVE, EAST YORK"
      }
    ]
  },
  {
    "postal": "M4J7L8",
    "result": []
  },
  {
    "postal": "M4J6T6",
    "result": []
  },
  {
    "postal": "M4J7Y7",
    "result": []
  },
  {
    "postal": "M4J3M8",
    "result": [
      {
        "electoralDistricts": [
          {
            "election": null,
            "id": 110,
            "name": "Toronto—Danforth"
          }
        ],
        "pollDivisionIds": [
          10142513
        ],
        "postalCode": "M4J3M8",
        "streetName": "CONDOR",
        "streetDirectionId": null,
        "streetTypeId": "AVE",
        "placeName": "TORONTO",
        "streetNameDisplayText": "CONDOR AVE, TORONTO"
      }
    ]
  },
  {
    "postal": "M4J2E0",
    "result": []
  },
  {
    "postal": "M4J4B5",
    "result": [
      {
        "electoralDistricts": [
          {
            "election": null,
            "id": 110,
            "name": "Toronto—Danforth"
          }
        ],
        "pollDivisionIds": [
          10142508
        ],
        "postalCode": "M4J4B5",
        "streetName": "GREENWOOD",
        "streetDirectionId": null,
        "streetTypeId": "AVE",
        "placeName": "TORONTO",
        "streetNameDisplayText": "GREENWOOD AVE, TORONTO"
      }
    ]
  },
  {
    "postal": "M4J1J3",
    "result": [
      {
        "electoralDistricts": [
          {
            "election": null,
            "id": 110,
            "name": "Toronto—Danforth"
          }
        ],
        "pollDivisionIds": [
          10142512
        ],
        "postalCode": "M4J1J3",
        "streetName": "HARCOURT",
        "streetDirectionId": null,
        "streetTypeId": "AVE",
        "placeName": "TORONTO",
        "streetNameDisplayText": "HARCOURT AVE, TORONTO"
      }
    ]
  },
  {
    "postal": "M4J5S6",
    "result": []
  },
  {
    "postal": "M4J8P7",
    "result": []
  },
  {
    "postal": "M4J7S7",
    "result": []
  },
  {
    "postal": "M4J4C2",
    "result": [
      {
        "electoralDistricts": [
          {
            "election": null,
            "id": 110,
            "name": "Toronto—Danforth"
          }
        ],
        "pollDivisionIds": [
          10142507
        ],
        "postalCode": "M4J4C2",
        "streetName": "GREENWOOD",
        "streetDirectionId": null,
        "streetTypeId": "AVE",
        "placeName": "TORONTO",
        "streetNameDisplayText": "GREENWOOD AVE, TORONTO"
      }
    ]
  },
  {
    "postal": "M4J5Y0",
    "result": []
  },
  {
    "postal": "M4J2V7",
    "result": [
      {
        "electoralDistricts": [
          {
            "election": null,
            "id": 110,
            "name": "Toronto—Danforth"
          }
        ],
        "pollDivisionIds": [
          10142502
        ],
        "postalCode": "M4J2V7",
        "streetName": "O'CONNOR",
        "streetDirectionId": null,
        "streetTypeId": "DR",
        "placeName": "EAST YORK",
        "streetNameDisplayText": "O'CONNOR DR, EAST YORK"
      }
    ]
  },
  {
    "postal": "M4J8P5",
    "result": []
  },
  {
    "postal": "M4J5P5",
    "result": []
  },
  {
    "postal": "M4J5Z0",
    "result": []
  },
  {
    "postal": "M4J9B0",
    "result": []
  },
  {
    "postal": "M4J1L0",
    "result": []
  },
  {
    "postal": "M4J0B5",
    "result": []
  },
  {
    "postal": "M4J3L2",
    "result": [
      {
        "electoralDistricts": [
          {
            "election": null,
            "id": 110,
            "name": "Toronto—Danforth"
          }
        ],
        "pollDivisionIds": [
          10142513
        ],
        "postalCode": "M4J3L2",
        "streetName": "EARL GREY",
        "streetDirectionId": null,
        "streetTypeId": "RD",
        "placeName": "TORONTO",
        "streetNameDisplayText": "EARL GREY RD, TORONTO"
      }
    ]
  },
  {
    "postal": "M4J3B7",
    "result": [
      {
        "electoralDistricts": [
          {
            "election": null,
            "id": 110,
            "name": "Toronto—Danforth"
          }
        ],
        "pollDivisionIds": [
          10142505
        ],
        "postalCode": "M4J3B7",
        "streetName": "WOODYCREST",
        "streetDirectionId": null,
        "streetTypeId": "AVE",
        "placeName": "EAST YORK",
        "streetNameDisplayText": "WOODYCREST AVE, EAST YORK"
      }
    ]
  },
  {
    "postal": "M4J8L1",
    "result": []
  },
  {
    "postal": "M4J5M4",
    "result": []
  },
  {
    "postal": "M4J4G9",
    "result": [
      {
        "electoralDistricts": [
          {
            "election": null,
            "id": 110,
            "name": "Toronto—Danforth"
          }
        ],
        "pollDivisionIds": [
          10142502
        ],
        "postalCode": "M4J4G9",
        "streetName": "LEROY",
        "streetDirectionId": null,
        "streetTypeId": "AVE",
        "placeName": "EAST YORK",
        "streetNameDisplayText": "LEROY AVE, EAST YORK"
      }
    ]
  },
  {
    "postal": "M4J0P0",
    "result": []
  },
  {
    "postal": "M4J8G2",
    "result": []
  },
  {
    "postal": "M4J1V9",
    "result": [
      {
        "electoralDistricts": [
          {
            "election": null,
            "id": 110,
            "name": "Toronto—Danforth"
          }
        ],
        "pollDivisionIds": [
          10142507
        ],
        "postalCode": "M4J1V9",
        "streetName": "MILVERTON",
        "streetDirectionId": null,
        "streetTypeId": "BLVD",
        "placeName": "TORONTO",
        "streetNameDisplayText": "MILVERTON BLVD, TORONTO"
      }
    ]
  },
  {
    "postal": "M4J8N8",
    "result": []
  },
  {
    "postal": "M4J6S8",
    "result": []
  },
  {
    "postal": "M4J8H2",
    "result": []
  },
  {
    "postal": "M4J5R8",
    "result": []
  },
  {
    "postal": "M4J5L4",
    "result": []
  },
  {
    "postal": "M4J9E1",
    "result": []
  },
  {
    "postal": "M4J1C4",
    "result": [
      {
        "electoralDistricts": [
          {
            "election": null,
            "id": 110,
            "name": "Toronto—Danforth"
          }
        ],
        "pollDivisionIds": [
          10142513
        ],
        "postalCode": "M4J1C4",
        "streetName": "DINGWALL",
        "streetDirectionId": null,
        "streetTypeId": "AVE",
        "placeName": "TORONTO",
        "streetNameDisplayText": "DINGWALL AVE, TORONTO"
      }
    ]
  },
  {
    "postal": "M4J8W5",
    "result": []
  },
  {
    "postal": "M4J1Y4",
    "result": [
      {
        "electoralDistricts": [
          {
            "election": null,
            "id": 110,
            "name": "Toronto—Danforth"
          }
        ],
        "pollDivisionIds": [
          10142503
        ],
        "postalCode": "M4J1Y4",
        "streetName": "QUEENSDALE",
        "streetDirectionId": null,
        "streetTypeId": "AVE",
        "placeName": "EAST YORK",
        "streetNameDisplayText": "QUEENSDALE AVE, EAST YORK"
      }
    ]
  },
  {
    "postal": "M4J1C0",
    "result": []
  },
  {
    "postal": "M4J2J2",
    "result": [
      {
        "electoralDistricts": [
          {
            "election": null,
            "id": 110,
            "name": "Toronto—Danforth"
          }
        ],
        "pollDivisionIds": [
          10142505
        ],
        "postalCode": "M4J2J2",
        "streetName": "FLOYD",
        "streetDirectionId": null,
        "streetTypeId": "AVE",
        "placeName": "EAST YORK",
        "streetNameDisplayText": "FLOYD AVE, EAST YORK"
      }
    ]
  },
  {
    "postal": "M4J2J0",
    "result": []
  },
  {
    "postal": "M4J7A3",
    "result": []
  },
  {
    "postal": "M4J8M1",
    "result": []
  },
  {
    "postal": "M4J7T9",
    "result": []
  },
  {
    "postal": "M4J6C0",
    "result": []
  },
  {
    "postal": "M4J7X1",
    "result": []
  },
  {
    "postal": "M4J0G1",
    "result": []
  },
  {
    "postal": "M4J4X2",
    "result": [
      {
        "electoralDistricts": [
          {
            "election": null,
            "id": 110,
            "name": "Toronto—Danforth"
          }
        ],
        "pollDivisionIds": [
          10142500
        ],
        "postalCode": "M4J4X2",
        "streetName": "LANKIN",
        "streetDirectionId": null,
        "streetTypeId": "BLVD",
        "placeName": "EAST YORK",
        "streetNameDisplayText": "LANKIN BLVD, EAST YORK"
      }
    ]
  },
  {
    "postal": "M4J0N6",
    "result": []
  },
  {
    "postal": "M4J8E3",
    "result": []
  },
  {
    "postal": "M4J5S8",
    "result": []
  },
  {
    "postal": "M4J0R0",
    "result": []
  },
  {
    "postal": "M4J6J6",
    "result": []
  },
  {
    "postal": "M4J4B4",
    "result": []
  },
  {
    "postal": "M4J7E3",
    "result": []
  },
  {
    "postal": "M4J3N6",
    "result": [
      {
        "electoralDistricts": [
          {
            "election": null,
            "id": 110,
            "name": "Toronto—Danforth"
          }
        ],
        "pollDivisionIds": [
          10142508
        ],
        "postalCode": "M4J3N6",
        "streetName": "DONLANDS",
        "streetDirectionId": null,
        "streetTypeId": "AVE",
        "placeName": "TORONTO",
        "streetNameDisplayText": "DONLANDS AVE, TORONTO"
      }
    ]
  },
  {
    "postal": "M4J3X6",
    "result": [
      {
        "electoralDistricts": [
          {
            "election": null,
            "id": 110,
            "name": "Toronto—Danforth"
          }
        ],
        "pollDivisionIds": [
          10142508
        ],
        "postalCode": "M4J3X6",
        "streetName": "CAITHNESS",
        "streetDirectionId": null,
        "streetTypeId": "AVE",
        "placeName": "TORONTO",
        "streetNameDisplayText": "CAITHNESS AVE, TORONTO"
      }
    ]
  },
  {
    "postal": "M4J8L0",
    "result": []
  },
  {
    "postal": "M4J8N1",
    "result": []
  },
  {
    "postal": "M4J4J0",
    "result": []
  },
  {
    "postal": "M4J0X7",
    "result": []
  },
  {
    "postal": "M4J6S4",
    "result": []
  },
  {
    "postal": "M4J0Z0",
    "result": []
  },
  {
    "postal": "M4J9X8",
    "result": []
  },
  {
    "postal": "M4J3H3",
    "result": [
      {
        "electoralDistricts": [
          {
            "election": null,
            "id": 110,
            "name": "Toronto—Danforth"
          }
        ],
        "pollDivisionIds": [
          10142512
        ],
        "postalCode": "M4J3H3",
        "streetName": "JONES",
        "streetDirectionId": null,
        "streetTypeId": "AVE",
        "placeName": "TORONTO",
        "streetNameDisplayText": "JONES AVE, TORONTO"
      }
    ]
  },
  {
    "postal": "M4J7S2",
    "result": []
  },
  {
    "postal": "M4J3T3",
    "result": [
      {
        "electoralDistricts": [
          {
            "election": null,
            "id": 110,
            "name": "Toronto—Danforth"
          }
        ],
        "pollDivisionIds": [
          10142513
        ],
        "postalCode": "M4J3T3",
        "streetName": "SEYMOUR",
        "streetDirectionId": null,
        "streetTypeId": "AVE",
        "placeName": "TORONTO",
        "streetNameDisplayText": "SEYMOUR AVE, TORONTO"
      }
    ]
  },
  {
    "postal": "M4J9P3",
    "result": []
  },
  {
    "postal": "M4J4H8",
    "result": [
      {
        "electoralDistricts": [
          {
            "election": null,
            "id": 110,
            "name": "Toronto—Danforth"
          }
        ],
        "pollDivisionIds": [
          10142507
        ],
        "postalCode": "M4J4H8",
        "streetName": "OAKDENE",
        "streetDirectionId": null,
        "streetTypeId": "CRES",
        "placeName": "TORONTO",
        "streetNameDisplayText": "OAKDENE CRES, TORONTO"
      }
    ]
  },
  {
    "postal": "M4J6R1",
    "result": []
  },
  {
    "postal": "M4J1S0",
    "result": []
  },
  {
    "postal": "M4J3W8",
    "result": [
      {
        "electoralDistricts": [
          {
            "election": null,
            "id": 110,
            "name": "Toronto—Danforth"
          }
        ],
        "pollDivisionIds": [
          10142502
        ],
        "postalCode": "M4J3W8",
        "streetName": "CADORNA",
        "streetDirectionId": null,
        "streetTypeId": "AVE",
        "placeName": "EAST YORK",
        "streetNameDisplayText": "CADORNA AVE, EAST YORK"
      }
    ]
  },
  {
    "postal": "M4J4S3",
    "result": [
      {
        "electoralDistricts": [
          {
            "election": null,
            "id": 110,
            "name": "Toronto—Danforth"
          }
        ],
        "pollDivisionIds": [
          10142507
        ],
        "postalCode": "M4J4S3",
        "streetName": "MONARCH PARK",
        "streetDirectionId": null,
        "streetTypeId": "AVE",
        "placeName": "TORONTO",
        "streetNameDisplayText": "MONARCH PARK AVE, TORONTO"
      }
    ]
  },
  {
    "postal": "M4J1B6",
    "result": [
      {
        "electoralDistricts": [
          {
            "election": null,
            "id": 110,
            "name": "Toronto—Danforth"
          }
        ],
        "pollDivisionIds": [
          10142519
        ],
        "postalCode": "M4J1B6",
        "streetName": "WITHROW",
        "streetDirectionId": null,
        "streetTypeId": "AVE",
        "placeName": "TORONTO",
        "streetNameDisplayText": "WITHROW AVE, TORONTO"
      }
    ]
  },
  {
    "postal": "M4J8R3",
    "result": []
  },
  {
    "postal": "M4J4V9",
    "result": [
      {
        "electoralDistricts": [
          {
            "election": null,
            "id": 110,
            "name": "Toronto—Danforth"
          }
        ],
        "pollDivisionIds": [
          10142503
        ],
        "postalCode": "M4J4V9",
        "streetName": "DURANT",
        "streetDirectionId": null,
        "streetTypeId": "AVE",
        "placeName": "EAST YORK",
        "streetNameDisplayText": "DURANT AVE, EAST YORK"
      }
    ]
  },
  {
    "postal": "M4J9W4",
    "result": []
  },
  {
    "postal": "M4J3T4",
    "result": [
      {
        "electoralDistricts": [
          {
            "election": null,
            "id": 110,
            "name": "Toronto—Danforth"
          }
        ],
        "pollDivisionIds": [
          10142513
        ],
        "postalCode": "M4J3T4",
        "streetName": "SEYMOUR",
        "streetDirectionId": null,
        "streetTypeId": "AVE",
        "placeName": "TORONTO",
        "streetNameDisplayText": "SEYMOUR AVE, TORONTO"
      }
    ]
  },
  {
    "postal": "M4J5C7",
    "result": [
      {
        "electoralDistricts": [
          {
            "election": null,
            "id": 110,
            "name": "Toronto—Danforth"
          }
        ],
        "pollDivisionIds": [
          10142501
        ],
        "postalCode": "M4J5C7",
        "streetName": "ELMSDALE",
        "streetDirectionId": null,
        "streetTypeId": "RD",
        "placeName": "EAST YORK",
        "streetNameDisplayText": "ELMSDALE RD, EAST YORK"
      }
    ]
  },
  {
    "postal": "M4J3Y1",
    "result": [
      {
        "electoralDistricts": [
          {
            "election": null,
            "id": 110,
            "name": "Toronto—Danforth"
          }
        ],
        "pollDivisionIds": [
          10142508
        ],
        "postalCode": "M4J3Y1",
        "streetName": "CAITHNESS",
        "streetDirectionId": null,
        "streetTypeId": "AVE",
        "placeName": "TORONTO",
        "streetNameDisplayText": "CAITHNESS AVE, TORONTO"
      }
    ]
  },
  {
    "postal": "M4J5V0",
    "result": []
  },
  {
    "postal": "M4J8G8",
    "result": []
  },
  {
    "postal": "M4J8B1",
    "result": []
  },
  {
    "postal": "M4J4P5",
    "result": [
      {
        "electoralDistricts": [
          {
            "election": null,
            "id": 110,
            "name": "Toronto—Danforth"
          }
        ],
        "pollDivisionIds": [
          10142500
        ],
        "postalCode": "M4J4P5",
        "streetName": "NORTHRIDGE",
        "streetDirectionId": null,
        "streetTypeId": "AVE",
        "placeName": "EAST YORK",
        "streetNameDisplayText": "NORTHRIDGE AVE, EAST YORK"
      }
    ]
  },
  {
    "postal": "M4J7B2",
    "result": []
  },
  {
    "postal": "M4J0R2",
    "result": []
  },
  {
    "postal": "M4J4M4",
    "result": [
      {
        "electoralDistricts": [
          {
            "election": null,
            "id": 110,
            "name": "Toronto—Danforth"
          }
        ],
        "pollDivisionIds": [
          10142511
        ],
        "postalCode": "M4J4M4",
        "streetName": "LAMB",
        "streetDirectionId": null,
        "streetTypeId": "AVE",
        "placeName": "TORONTO",
        "streetNameDisplayText": "LAMB AVE, TORONTO"
      }
    ]
  },
  {
    "postal": "M4J7M4",
    "result": []
  },
  {
    "postal": "M4J9S7",
    "result": []
  },
  {
    "postal": "M4J5Z7",
    "result": []
  },
  {
    "postal": "M4J7J7",
    "result": []
  },
  {
    "postal": "M4J8R8",
    "result": []
  },
  {
    "postal": "M4J9X1",
    "result": []
  },
  {
    "postal": "M4J5M9",
    "result": []
  },
  {
    "postal": "M4J9B4",
    "result": []
  },
  {
    "postal": "M4J0L9",
    "result": []
  },
  {
    "postal": "M4J9G4",
    "result": []
  },
  {
    "postal": "M4J1J4",
    "result": [
      {
        "electoralDistricts": [
          {
            "election": null,
            "id": 110,
            "name": "Toronto—Danforth"
          }
        ],
        "pollDivisionIds": [
          10142511
        ],
        "postalCode": "M4J1J4",
        "streetName": "MOUNTJOY",
        "streetDirectionId": null,
        "streetTypeId": "AVE",
        "placeName": "TORONTO",
        "streetNameDisplayText": "MOUNTJOY AVE, TORONTO"
      }
    ]
  },
  {
    "postal": "M4J0W6",
    "result": []
  }
]
