[
  {
    "postal": "N6J9J6",
    "result": []
  },
  {
    "postal": "N6J9Z5",
    "result": []
  },
  {
    "postal": "N6J7H8",
    "result": []
  },
  {
    "postal": "N6J0P6",
    "result": []
  },
  {
    "postal": "N6J0S7",
    "result": []
  },
  {
    "postal": "N6J8B9",
    "result": []
  },
  {
    "postal": "N6J2A6",
    "result": [
      {
        "electoralDistricts": [
          {
            "election": null,
            "id": 55,
            "name": "London West"
          }
        ],
        "pollDivisionIds": [
          10139645
        ],
        "postalCode": "N6J2A6",
        "streetName": "NOVELLO",
        "streetDirectionId": null,
        "streetTypeId": "AVE",
        "placeName": "LONDON",
        "streetNameDisplayText": "NOVELLO AVE, LONDON"
      }
    ]
  },
  {
    "postal": "N6J7V2",
    "result": []
  },
  {
    "postal": "N6J9P4",
    "result": []
  },
  {
    "postal": "N6J6G0",
    "result": []
  },
  {
    "postal": "N6J2K0",
    "result": []
  },
  {
    "postal": "N6J7N6",
    "result": []
  },
  {
    "postal": "N6J5R3",
    "result": []
  },
  {
    "postal": "N6J7K0",
    "result": []
  },
  {
    "postal": "N6J3R2",
    "result": [
      {
        "electoralDistricts": [
          {
            "election": null,
            "id": 55,
            "name": "London West"
          }
        ],
        "pollDivisionIds": [
          10139629
        ],
        "postalCode": "N6J3R2",
        "streetName": "APPLEWOOD",
        "streetDirectionId": null,
        "streetTypeId": "CRES",
        "placeName": "LONDON",
        "streetNameDisplayText": "APPLEWOOD CRES, LONDON"
      }
    ]
  },
  {
    "postal": "N6J0J1",
    "result": []
  },
  {
    "postal": "N6J0B0",
    "result": []
  },
  {
    "postal": "N6J5Z2",
    "result": []
  },
  {
    "postal": "N6J7P3",
    "result": []
  },
  {
    "postal": "N6J2K3",
    "result": [
      {
        "electoralDistricts": [
          {
            "election": null,
            "id": 55,
            "name": "London West"
          }
        ],
        "pollDivisionIds": [
          10139623
        ],
        "postalCode": "N6J2K3",
        "streetName": "WHARNCLIFFE",
        "streetDirectionId": "S",
        "streetTypeId": "RD",
        "placeName": "LONDON",
        "streetNameDisplayText": "WHARNCLIFFE RD S, LONDON"
      }
    ]
  },
  {
    "postal": "N6J7Y6",
    "result": []
  },
  {
    "postal": "N6J1L9",
    "result": [
      {
        "electoralDistricts": [
          {
            "election": null,
            "id": 55,
            "name": "London West"
          }
        ],
        "pollDivisionIds": [
          10139631
        ],
        "postalCode": "N6J1L9",
        "streetName": "BRISCOE",
        "streetDirectionId": "W",
        "streetTypeId": "ST",
        "placeName": "LONDON",
        "streetNameDisplayText": "BRISCOE ST W, LONDON"
      }
    ]
  },
  {
    "postal": "N6J8T0",
    "result": []
  },
  {
    "postal": "N6J3K8",
    "result": [
      {
        "electoralDistricts": [
          {
            "election": null,
            "id": 55,
            "name": "London West"
          }
        ],
        "pollDivisionIds": [
          10139622
        ],
        "postalCode": "N6J3K8",
        "streetName": "AUBURN",
        "streetDirectionId": null,
        "streetTypeId": "AVE",
        "placeName": "LONDON",
        "streetNameDisplayText": "AUBURN AVE, LONDON"
      }
    ]
  },
  {
    "postal": "N6J5W9",
    "result": []
  },
  {
    "postal": "N6J6T9",
    "result": []
  },
  {
    "postal": "N6J4H1",
    "result": [
      {
        "electoralDistricts": [
          {
            "election": null,
            "id": 55,
            "name": "London West"
          }
        ],
        "pollDivisionIds": [
          10139645
        ],
        "postalCode": "N6J4H1",
        "streetName": "ELMGROVE",
        "streetDirectionId": null,
        "streetTypeId": "CRES",
        "placeName": "LONDON",
        "streetNameDisplayText": "ELMGROVE CRES, LONDON"
      }
    ]
  },
  {
    "postal": "N6J7A2",
    "result": []
  },
  {
    "postal": "N6J5G0",
    "result": []
  },
  {
    "postal": "N6J8V5",
    "result": []
  },
  {
    "postal": "N6J2Y8",
    "result": [
      {
        "electoralDistricts": [
          {
            "election": null,
            "id": 55,
            "name": "London West"
          }
        ],
        "pollDivisionIds": [
          10139647
        ],
        "postalCode": "N6J2Y8",
        "streetName": "NORTON",
        "streetDirectionId": null,
        "streetTypeId": "CRES",
        "placeName": "LONDON",
        "streetNameDisplayText": "NORTON CRES, LONDON"
      }
    ]
  },
  {
    "postal": "N6J2B6",
    "result": [
      {
        "electoralDistricts": [
          {
            "election": null,
            "id": 55,
            "name": "London West"
          }
        ],
        "pollDivisionIds": [
          10139644
        ],
        "postalCode": "N6J2B6",
        "streetName": "FOX MILL",
        "streetDirectionId": null,
        "streetTypeId": "CRES",
        "placeName": "LONDON",
        "streetNameDisplayText": "FOX MILL CRES, LONDON"
      }
    ]
  },
  {
    "postal": "N6J4W8",
    "result": [
      {
        "electoralDistricts": [
          {
            "election": null,
            "id": 55,
            "name": "London West"
          }
        ],
        "pollDivisionIds": [
          10139646
        ],
        "postalCode": "N6J4W8",
        "streetName": "COMMISSIONERS",
        "streetDirectionId": "W",
        "streetTypeId": "RD",
        "placeName": "LONDON",
        "streetNameDisplayText": "COMMISSIONERS RD W, LONDON"
      }
    ]
  },
  {
    "postal": "N6J8H7",
    "result": []
  },
  {
    "postal": "N6J5P1",
    "result": []
  },
  {
    "postal": "N6J2B8",
    "result": [
      {
        "electoralDistricts": [
          {
            "election": null,
            "id": 55,
            "name": "London West"
          }
        ],
        "pollDivisionIds": [
          10139644
        ],
        "postalCode": "N6J2B8",
        "streetName": "FOX MILL",
        "streetDirectionId": null,
        "streetTypeId": "GROVE",
        "placeName": "LONDON",
        "streetNameDisplayText": "FOX MILL GROVE, LONDON"
      }
    ]
  },
  {
    "postal": "N6J0P2",
    "result": []
  },
  {
    "postal": "N6J9M1",
    "result": []
  },
  {
    "postal": "N6J3G0",
    "result": []
  },
  {
    "postal": "N6J9Z2",
    "result": []
  },
  {
    "postal": "N6J2A0",
    "result": []
  },
  {
    "postal": "N6J6Y0",
    "result": []
  },
  {
    "postal": "N6J2Z8",
    "result": [
      {
        "electoralDistricts": [
          {
            "election": null,
            "id": 55,
            "name": "London West"
          }
        ],
        "pollDivisionIds": [
          10139645
        ],
        "postalCode": "N6J2Z8",
        "streetName": "ODESSA",
        "streetDirectionId": null,
        "streetTypeId": "AVE",
        "placeName": "LONDON",
        "streetNameDisplayText": "ODESSA AVE, LONDON"
      }
    ]
  },
  {
    "postal": "N6J7Y3",
    "result": []
  },
  {
    "postal": "N6J6Z5",
    "result": []
  },
  {
    "postal": "N6J6E0",
    "result": []
  },
  {
    "postal": "N6J9B7",
    "result": []
  },
  {
    "postal": "N6J9S5",
    "result": []
  },
  {
    "postal": "N6J3X3",
    "result": [
      {
        "electoralDistricts": [
          {
            "election": null,
            "id": 55,
            "name": "London West"
          }
        ],
        "pollDivisionIds": [
          10139644
        ],
        "postalCode": "N6J3X3",
        "streetName": "BUGLE",
        "streetDirectionId": null,
        "streetTypeId": "PL",
        "placeName": "LONDON",
        "streetNameDisplayText": "BUGLE PL, LONDON"
      }
    ]
  },
  {
    "postal": "N6J7R5",
    "result": []
  },
  {
    "postal": "N6J2X3",
    "result": [
      {
        "electoralDistricts": [
          {
            "election": null,
            "id": 55,
            "name": "London West"
          }
        ],
        "pollDivisionIds": [
          10139622
        ],
        "postalCode": "N6J2X3",
        "streetName": "DUKE",
        "streetDirectionId": null,
        "streetTypeId": "ST",
        "placeName": "LONDON",
        "streetNameDisplayText": "DUKE ST, LONDON"
      }
    ]
  },
  {
    "postal": "N6J8Z9",
    "result": []
  },
  {
    "postal": "N6J0N4",
    "result": []
  },
  {
    "postal": "N6J1K1",
    "result": [
      {
        "electoralDistricts": [
          {
            "election": null,
            "id": 55,
            "name": "London West"
          }
        ],
        "pollDivisionIds": [
          10139622
        ],
        "postalCode": "N6J1K1",
        "streetName": "COLLEY",
        "streetDirectionId": null,
        "streetTypeId": "AVE",
        "placeName": "LONDON",
        "streetNameDisplayText": "COLLEY AVE, LONDON"
      }
    ]
  },
  {
    "postal": "N6J1S3",
    "result": [
      {
        "electoralDistricts": [
          {
            "election": null,
            "id": 55,
            "name": "London West"
          }
        ],
        "pollDivisionIds": [
          10139631
        ],
        "postalCode": "N6J1S3",
        "streetName": "EUSTON",
        "streetDirectionId": null,
        "streetTypeId": "RD",
        "placeName": "LONDON",
        "streetNameDisplayText": "EUSTON RD, LONDON"
      }
    ]
  },
  {
    "postal": "N6J6M4",
    "result": []
  },
  {
    "postal": "N6J9A9",
    "result": []
  },
  {
    "postal": "N6J9Z9",
    "result": []
  },
  {
    "postal": "N6J6T4",
    "result": []
  },
  {
    "postal": "N6J0B2",
    "result": []
  },
  {
    "postal": "N6J2L9",
    "result": [
      {
        "electoralDistricts": [
          {
            "election": null,
            "id": 55,
            "name": "London West"
          }
        ],
        "pollDivisionIds": [
          10139631
        ],
        "postalCode": "N6J2L9",
        "streetName": "WHARNCLIFFE",
        "streetDirectionId": "S",
        "streetTypeId": "RD",
        "placeName": "LONDON",
        "streetNameDisplayText": "WHARNCLIFFE RD S, LONDON"
      }
    ]
  },
  {
    "postal": "N6J8K9",
    "result": []
  },
  {
    "postal": "N6J2H9",
    "result": [
      {
        "electoralDistricts": [
          {
            "election": null,
            "id": 55,
            "name": "London West"
          }
        ],
        "pollDivisionIds": [
          10139648
        ],
        "postalCode": "N6J2H9",
        "streetName": "GLENDALE",
        "streetDirectionId": null,
        "streetTypeId": "AVE",
        "placeName": "LONDON",
        "streetNameDisplayText": "GLENDALE AVE, LONDON"
      }
    ]
  },
  {
    "postal": "N6J3Z6",
    "result": [
      {
        "electoralDistricts": [
          {
            "election": null,
            "id": 55,
            "name": "London West"
          }
        ],
        "pollDivisionIds": [
          10139645
        ],
        "postalCode": "N6J3Z6",
        "streetName": "VILLAGE GREEN",
        "streetDirectionId": null,
        "streetTypeId": "AVE",
        "placeName": "LONDON",
        "streetNameDisplayText": "VILLAGE GREEN AVE, LONDON"
      }
    ]
  },
  {
    "postal": "N6J3B0",
    "result": []
  },
  {
    "postal": "N6J2H8",
    "result": [
      {
        "electoralDistricts": [
          {
            "election": null,
            "id": 55,
            "name": "London West"
          }
        ],
        "pollDivisionIds": [
          10139648
        ],
        "postalCode": "N6J2H8",
        "streetName": "GLENDALE",
        "streetDirectionId": null,
        "streetTypeId": "AVE",
        "placeName": "LONDON",
        "streetNameDisplayText": "GLENDALE AVE, LONDON"
      }
    ]
  },
  {
    "postal": "N6J3X2",
    "result": [
      {
        "electoralDistricts": [
          {
            "election": null,
            "id": 55,
            "name": "London West"
          }
        ],
        "pollDivisionIds": [
          10139644
        ],
        "postalCode": "N6J3X2",
        "streetName": "ANDOVER",
        "streetDirectionId": null,
        "streetTypeId": "DR",
        "placeName": "LONDON",
        "streetNameDisplayText": "ANDOVER DR, LONDON"
      }
    ]
  },
  {
    "postal": "N6J2E9",
    "result": [
      {
        "electoralDistricts": [
          {
            "election": null,
            "id": 55,
            "name": "London West"
          }
        ],
        "pollDivisionIds": [
          10139647
        ],
        "postalCode": "N6J2E9",
        "streetName": "NOTRE DAME",
        "streetDirectionId": null,
        "streetTypeId": "CRES",
        "placeName": "LONDON",
        "streetNameDisplayText": "NOTRE DAME CRES, LONDON"
      }
    ]
  },
  {
    "postal": "N6J9P6",
    "result": []
  },
  {
    "postal": "N6J9E2",
    "result": []
  },
  {
    "postal": "N6J9H2",
    "result": []
  },
  {
    "postal": "N6J1S8",
    "result": [
      {
        "electoralDistricts": [
          {
            "election": null,
            "id": 55,
            "name": "London West"
          }
        ],
        "pollDivisionIds": [
          10139631
        ],
        "postalCode": "N6J1S8",
        "streetName": "SOUTHWOOD",
        "streetDirectionId": null,
        "streetTypeId": "CRES",
        "placeName": "LONDON",
        "streetNameDisplayText": "SOUTHWOOD CRES, LONDON"
      }
    ]
  },
  {
    "postal": "N6J3M6",
    "result": [
      {
        "electoralDistricts": [
          {
            "election": null,
            "id": 55,
            "name": "London West"
          }
        ],
        "pollDivisionIds": [
          10139621
        ],
        "postalCode": "N6J3M6",
        "streetName": "GARDENWOOD",
        "streetDirectionId": null,
        "streetTypeId": "DR",
        "placeName": "LONDON",
        "streetNameDisplayText": "GARDENWOOD DR, LONDON"
      }
    ]
  },
  {
    "postal": "N6J6Z8",
    "result": []
  },
  {
    "postal": "N6J4J2",
    "result": []
  },
  {
    "postal": "N6J9Y1",
    "result": []
  },
  {
    "postal": "N6J8V6",
    "result": []
  },
  {
    "postal": "N6J6B2",
    "result": []
  },
  {
    "postal": "N6J1P8",
    "result": [
      {
        "electoralDistricts": [
          {
            "election": null,
            "id": 55,
            "name": "London West"
          }
        ],
        "pollDivisionIds": [
          10139631
        ],
        "postalCode": "N6J1P8",
        "streetName": "LANGARTH",
        "streetDirectionId": "W",
        "streetTypeId": "ST",
        "placeName": "LONDON",
        "streetNameDisplayText": "LANGARTH ST W, LONDON"
      }
    ]
  },
  {
    "postal": "N6J0V8",
    "result": []
  },
  {
    "postal": "N6J4Y0",
    "result": []
  },
  {
    "postal": "N6J2T4",
    "result": [
      {
        "electoralDistricts": [
          {
            "election": null,
            "id": 55,
            "name": "London West"
          }
        ],
        "pollDivisionIds": [
          10139623
        ],
        "postalCode": "N6J2T4",
        "streetName": "MCALPINE",
        "streetDirectionId": null,
        "streetTypeId": "AVE",
        "placeName": "LONDON",
        "streetNameDisplayText": "MCALPINE AVE, LONDON"
      }
    ]
  },
  {
    "postal": "N6J2S3",
    "result": [
      {
        "electoralDistricts": [
          {
            "election": null,
            "id": 55,
            "name": "London West"
          }
        ],
        "pollDivisionIds": [
          10139631
        ],
        "postalCode": "N6J2S3",
        "streetName": "PADDINGTON",
        "streetDirectionId": null,
        "streetTypeId": "AVE",
        "placeName": "LONDON",
        "streetNameDisplayText": "PADDINGTON AVE, LONDON"
      }
    ]
  },
  {
    "postal": "N6J0K0",
    "result": []
  },
  {
    "postal": "N6J5N1",
    "result": []
  },
  {
    "postal": "N6J7T0",
    "result": []
  },
  {
    "postal": "N6J9N2",
    "result": []
  },
  {
    "postal": "N6J5L1",
    "result": []
  },
  {
    "postal": "N6J7G5",
    "result": []
  },
  {
    "postal": "N6J6K2",
    "result": []
  },
  {
    "postal": "N6J6P9",
    "result": []
  },
  {
    "postal": "N6J0E6",
    "result": []
  },
  {
    "postal": "N6J8R9",
    "result": []
  },
  {
    "postal": "N6J3G9",
    "result": [
      {
        "electoralDistricts": [
          {
            "election": null,
            "id": 55,
            "name": "London West"
          }
        ],
        "pollDivisionIds": [
          10139622
        ],
        "postalCode": "N6J3G9",
        "streetName": "RIDGEWOOD",
        "streetDirectionId": null,
        "streetTypeId": "CRES",
        "placeName": "LONDON",
        "streetNameDisplayText": "RIDGEWOOD CRES, LONDON"
      }
    ]
  },
  {
    "postal": "N6J0V7",
    "result": []
  },
  {
    "postal": "N6J2Z1",
    "result": [
      {
        "electoralDistricts": [
          {
            "election": null,
            "id": 55,
            "name": "London West"
          }
        ],
        "pollDivisionIds": [
          10139631
        ],
        "postalCode": "N6J2Z1",
        "streetName": "COTSWOLD",
        "streetDirectionId": null,
        "streetTypeId": "GATE",
        "placeName": "LONDON",
        "streetNameDisplayText": "COTSWOLD GATE, LONDON"
      }
    ]
  },
  {
    "postal": "N6J7N1",
    "result": []
  },
  {
    "postal": "N6J3C6",
    "result": [
      {
        "electoralDistricts": [
          {
            "election": null,
            "id": 55,
            "name": "London West"
          }
        ],
        "pollDivisionIds": [
          10139639
        ],
        "postalCode": "N6J3C6",
        "streetName": "WESTBURY",
        "streetDirectionId": null,
        "streetTypeId": "CRES",
        "placeName": "LONDON",
        "streetNameDisplayText": "WESTBURY CRES, LONDON"
      }
    ]
  },
  {
    "postal": "N6J4M1",
    "result": [
      {
        "electoralDistricts": [
          {
            "election": null,
            "id": 55,
            "name": "London West"
          }
        ],
        "pollDivisionIds": [
          10139640
        ],
        "postalCode": "N6J4M1",
        "streetName": "PINE VALLEY",
        "streetDirectionId": null,
        "streetTypeId": "DR",
        "placeName": "LONDON",
        "streetNameDisplayText": "PINE VALLEY DR, LONDON"
      }
    ]
  },
  {
    "postal": "N6J9K2",
    "result": []
  },
  {
    "postal": "N6J9S6",
    "result": []
  },
  {
    "postal": "N6J4X1",
    "result": [
      {
        "electoralDistricts": [
          {
            "election": null,
            "id": 55,
            "name": "London West"
          }
        ],
        "pollDivisionIds": [
          10139639
        ],
        "postalCode": "N6J4X1",
        "streetName": "PIEDMONT",
        "streetDirectionId": null,
        "streetTypeId": "CRES",
        "placeName": "LONDON",
        "streetNameDisplayText": "PIEDMONT CRES, LONDON"
      }
    ]
  },
  {
    "postal": "N6J8W2",
    "result": []
  },
  {
    "postal": "N6J7N2",
    "result": []
  },
  {
    "postal": "N6J8S3",
    "result": []
  },
  {
    "postal": "N6J4V0",
    "result": []
  },
  {
    "postal": "N6J6W4",
    "result": []
  },
  {
    "postal": "N6J5M1",
    "result": []
  },
  {
    "postal": "N6J0S4",
    "result": []
  },
  {
    "postal": "N6J5X6",
    "result": []
  },
  {
    "postal": "N6J8L5",
    "result": []
  },
  {
    "postal": "N6J5M8",
    "result": []
  },
  {
    "postal": "N6J2G3",
    "result": [
      {
        "electoralDistricts": [
          {
            "election": null,
            "id": 55,
            "name": "London West"
          }
        ],
        "pollDivisionIds": [
          10139647
        ],
        "postalCode": "N6J2G3",
        "streetName": "NOTRE DAME",
        "streetDirectionId": null,
        "streetTypeId": "CRT",
        "placeName": "LONDON",
        "streetNameDisplayText": "NOTRE DAME CRT, LONDON"
      }
    ]
  },
  {
    "postal": "N6J8E4",
    "result": []
  },
  {
    "postal": "N6J7S9",
    "result": []
  },
  {
    "postal": "N6J1K3",
    "result": [
      {
        "electoralDistricts": [
          {
            "election": null,
            "id": 55,
            "name": "London West"
          }
        ],
        "pollDivisionIds": [
          10139622
        ],
        "postalCode": "N6J1K3",
        "streetName": "THORNCREST",
        "streetDirectionId": null,
        "streetTypeId": "CRES",
        "placeName": "LONDON",
        "streetNameDisplayText": "THORNCREST CRES, LONDON"
      }
    ]
  },
  {
    "postal": "N6J4E1",
    "result": [
      {
        "electoralDistricts": [
          {
            "election": null,
            "id": 55,
            "name": "London West"
          }
        ],
        "pollDivisionIds": [
          10139646
        ],
        "postalCode": "N6J4E1",
        "streetName": "HIGHVIEW",
        "streetDirectionId": null,
        "streetTypeId": "CRES",
        "placeName": "LONDON",
        "streetNameDisplayText": "HIGHVIEW CRES, LONDON"
      }
    ]
  },
  {
    "postal": "N6J4R2",
    "result": [
      {
        "electoralDistricts": [
          {
            "election": null,
            "id": 55,
            "name": "London West"
          }
        ],
        "pollDivisionIds": [
          10139640
        ],
        "postalCode": "N6J4R2",
        "streetName": "PINE VALLEY",
        "streetDirectionId": null,
        "streetTypeId": "DR",
        "placeName": "LONDON",
        "streetNameDisplayText": "PINE VALLEY DR, LONDON"
      }
    ]
  },
  {
    "postal": "N6J6T0",
    "result": []
  },
  {
    "postal": "N6J3K5",
    "result": [
      {
        "electoralDistricts": [
          {
            "election": null,
            "id": 55,
            "name": "London West"
          }
        ],
        "pollDivisionIds": [
          10139622
        ],
        "postalCode": "N6J3K5",
        "streetName": "BLOXAM",
        "streetDirectionId": null,
        "streetTypeId": "AVE",
        "placeName": "LONDON",
        "streetNameDisplayText": "BLOXAM AVE, LONDON"
      }
    ]
  },
  {
    "postal": "N6J3S3",
    "result": [
      {
        "electoralDistricts": [
          {
            "election": null,
            "id": 55,
            "name": "London West"
          }
        ],
        "pollDivisionIds": [
          10139629,
          66812,
          10139621
        ],
        "postalCode": "N6J3S3",
        "streetName": "BERKSHIRE",
        "streetDirectionId": null,
        "streetTypeId": "DR",
        "placeName": "LONDON",
        "streetNameDisplayText": "BERKSHIRE DR, LONDON"
      }
    ]
  },
  {
    "postal": "N6J3L4",
    "result": [
      {
        "electoralDistricts": [
          {
            "election": null,
            "id": 55,
            "name": "London West"
          }
        ],
        "pollDivisionIds": [
          10139620
        ],
        "postalCode": "N6J3L4",
        "streetName": "PINEWOOD",
        "streetDirectionId": null,
        "streetTypeId": "DR",
        "placeName": "LONDON",
        "streetNameDisplayText": "PINEWOOD DR, LONDON"
      }
    ]
  },
  {
    "postal": "N6J9Y2",
    "result": []
  },
  {
    "postal": "N6J1E0",
    "result": []
  },
  {
    "postal": "N6J9A4",
    "result": []
  },
  {
    "postal": "N6J1L3",
    "result": [
      {
        "electoralDistricts": [
          {
            "election": null,
            "id": 55,
            "name": "London West"
          }
        ],
        "pollDivisionIds": [
          10139623
        ],
        "postalCode": "N6J1L3",
        "streetName": "FORBES",
        "streetDirectionId": null,
        "streetTypeId": "ST",
        "placeName": "LONDON",
        "streetNameDisplayText": "FORBES ST, LONDON"
      }
    ]
  },
  {
    "postal": "N6J6N1",
    "result": []
  },
  {
    "postal": "N6J6G7",
    "result": []
  },
  {
    "postal": "N6J7W1",
    "result": []
  },
  {
    "postal": "N6J4M6",
    "result": [
      {
        "electoralDistricts": [
          {
            "election": null,
            "id": 55,
            "name": "London West"
          }
        ],
        "pollDivisionIds": [
          10139639
        ],
        "postalCode": "N6J4M6",
        "streetName": "MOUNTAINVIEW",
        "streetDirectionId": null,
        "streetTypeId": "CRES",
        "placeName": "LONDON",
        "streetNameDisplayText": "MOUNTAINVIEW CRES, LONDON"
      }
    ]
  },
  {
    "postal": "N6J1K0",
    "result": []
  },
  {
    "postal": "N6J3E2",
    "result": [
      {
        "electoralDistricts": [
          {
            "election": null,
            "id": 55,
            "name": "London West"
          }
        ],
        "pollDivisionIds": [
          10139647
        ],
        "postalCode": "N6J3E2",
        "streetName": "ST CLAIR",
        "streetDirectionId": null,
        "streetTypeId": "CRES",
        "placeName": "LONDON",
        "streetNameDisplayText": "ST CLAIR CRES, LONDON"
      }
    ]
  },
  {
    "postal": "N6J5H4",
    "result": []
  },
  {
    "postal": "N6J1K7",
    "result": [
      {
        "electoralDistricts": [
          {
            "election": null,
            "id": 55,
            "name": "London West"
          }
        ],
        "pollDivisionIds": [
          10139631
        ],
        "postalCode": "N6J1K7",
        "streetName": "TECUMSEH",
        "streetDirectionId": "W",
        "streetTypeId": "AVE",
        "placeName": "LONDON",
        "streetNameDisplayText": "TECUMSEH AVE W, LONDON"
      }
    ]
  },
  {
    "postal": "N6J0H0",
    "result": []
  },
  {
    "postal": "N6J0J3",
    "result": []
  },
  {
    "postal": "N6J1X6",
    "result": [
      {
        "electoralDistricts": [
          {
            "election": null,
            "id": 55,
            "name": "London West"
          }
        ],
        "pollDivisionIds": [
          10139631
        ],
        "postalCode": "N6J1X6",
        "streetName": "GLADMAN",
        "streetDirectionId": null,
        "streetTypeId": "AVE",
        "placeName": "LONDON",
        "streetNameDisplayText": "GLADMAN AVE, LONDON"
      }
    ]
  },
  {
    "postal": "N6J2Z6",
    "result": [
      {
        "electoralDistricts": [
          {
            "election": null,
            "id": 55,
            "name": "London West"
          }
        ],
        "pollDivisionIds": [
          10139631
        ],
        "postalCode": "N6J2Z6",
        "streetName": "CENTRE",
        "streetDirectionId": null,
        "streetTypeId": "CRES",
        "placeName": "LONDON",
        "streetNameDisplayText": "CENTRE CRES, LONDON"
      }
    ]
  },
  {
    "postal": "N6J4R9",
    "result": [
      {
        "electoralDistricts": [
          {
            "election": null,
            "id": 55,
            "name": "London West"
          }
        ],
        "pollDivisionIds": [
          10139639
        ],
        "postalCode": "N6J4R9",
        "streetName": "KANATA",
        "streetDirectionId": null,
        "streetTypeId": "CRES",
        "placeName": "LONDON",
        "streetNameDisplayText": "KANATA CRES, LONDON"
      },
      {
        "electoralDistricts": [
          {
            "election": null,
            "id": 55,
            "name": "London West"
          }
        ],
        "pollDivisionIds": [
          10139639
        ],
        "postalCode": "N6J4R9",
        "streetName": "PINE VALLEY",
        "streetDirectionId": null,
        "streetTypeId": "DR",
        "placeName": "LONDON",
        "streetNameDisplayText": "PINE VALLEY DR, LONDON"
      }
    ]
  },
  {
    "postal": "N6J0W8",
    "result": []
  },
  {
    "postal": "N6J1L4",
    "result": [
      {
        "electoralDistricts": [
          {
            "election": null,
            "id": 55,
            "name": "London West"
          }
        ],
        "pollDivisionIds": [
          10139623
        ],
        "postalCode": "N6J1L4",
        "streetName": "FORBES",
        "streetDirectionId": null,
        "streetTypeId": "ST",
        "placeName": "LONDON",
        "streetNameDisplayText": "FORBES ST, LONDON"
      }
    ]
  },
  {
    "postal": "N6J0C8",
    "result": []
  },
  {
    "postal": "N6J9X7",
    "result": []
  },
  {
    "postal": "N6J4T1",
    "result": [
      {
        "electoralDistricts": [
          {
            "election": null,
            "id": 55,
            "name": "London West"
          }
        ],
        "pollDivisionIds": [
          10139639
        ],
        "postalCode": "N6J4T1",
        "streetName": "MOCKINGBIRD",
        "streetDirectionId": null,
        "streetTypeId": "CRES",
        "placeName": "LONDON",
        "streetNameDisplayText": "MOCKINGBIRD CRES, LONDON"
      },
      {
        "electoralDistricts": [
          {
            "election": null,
            "id": 55,
            "name": "London West"
          }
        ],
        "pollDivisionIds": [
          10139639,
          10139640
        ],
        "postalCode": "N6J4T1",
        "streetName": "PINE VALLEY",
        "streetDirectionId": null,
        "streetTypeId": "DR",
        "placeName": "LONDON",
        "streetNameDisplayText": "PINE VALLEY DR, LONDON"
      }
    ]
  },
  {
    "postal": "N6J0M0",
    "result": []
  },
  {
    "postal": "N6J6A2",
    "result": []
  },
  {
    "postal": "N6J9S8",
    "result": []
  },
  {
    "postal": "N6J9T4",
    "result": []
  },
  {
    "postal": "N6J9Y4",
    "result": []
  },
  {
    "postal": "N6J6G5",
    "result": []
  },
  {
    "postal": "N6J6H9",
    "result": []
  },
  {
    "postal": "N6J2P3",
    "result": [
      {
        "electoralDistricts": [
          {
            "election": null,
            "id": 55,
            "name": "London West"
          }
        ],
        "pollDivisionIds": [
          10139631
        ],
        "postalCode": "N6J2P3",
        "streetName": "HOLBORN",
        "streetDirectionId": null,
        "streetTypeId": "AVE",
        "placeName": "LONDON",
        "streetNameDisplayText": "HOLBORN AVE, LONDON"
      }
    ]
  },
  {
    "postal": "N6J1T6",
    "result": [
      {
        "electoralDistricts": [
          {
            "election": null,
            "id": 55,
            "name": "London West"
          }
        ],
        "pollDivisionIds": [
          10139631
        ],
        "postalCode": "N6J1T6",
        "streetName": "CENTRE",
        "streetDirectionId": null,
        "streetTypeId": "ST",
        "placeName": "LONDON",
        "streetNameDisplayText": "CENTRE ST, LONDON"
      }
    ]
  },
  {
    "postal": "N6J4P6",
    "result": [
      {
        "electoralDistricts": [
          {
            "election": null,
            "id": 55,
            "name": "London West"
          }
        ],
        "pollDivisionIds": [
          10139639
        ],
        "postalCode": "N6J4P6",
        "streetName": "THUNDERBIRD",
        "streetDirectionId": null,
        "streetTypeId": "CRES",
        "placeName": "LONDON",
        "streetNameDisplayText": "THUNDERBIRD CRES, LONDON"
      }
    ]
  },
  {
    "postal": "N6J3K1",
    "result": [
      {
        "electoralDistricts": [
          {
            "election": null,
            "id": 55,
            "name": "London West"
          }
        ],
        "pollDivisionIds": [
          10139631
        ],
        "postalCode": "N6J3K1",
        "streetName": "BEACHWOOD",
        "streetDirectionId": null,
        "streetTypeId": "AVE",
        "placeName": "LONDON",
        "streetNameDisplayText": "BEACHWOOD AVE, LONDON"
      }
    ]
  },
  {
    "postal": "N6J6X4",
    "result": []
  },
  {
    "postal": "N6J4M8",
    "result": [
      {
        "electoralDistricts": [
          {
            "election": null,
            "id": 55,
            "name": "London West"
          }
        ],
        "pollDivisionIds": [
          10139639
        ],
        "postalCode": "N6J4M8",
        "streetName": "MOUNTAINVIEW",
        "streetDirectionId": null,
        "streetTypeId": "CRES",
        "placeName": "LONDON",
        "streetNameDisplayText": "MOUNTAINVIEW CRES, LONDON"
      }
    ]
  },
  {
    "postal": "N6J2Y1",
    "result": [
      {
        "electoralDistricts": [
          {
            "election": null,
            "id": 55,
            "name": "London West"
          }
        ],
        "pollDivisionIds": [
          10139646,
          10139645
        ],
        "postalCode": "N6J2Y1",
        "streetName": "VISCOUNT",
        "streetDirectionId": null,
        "streetTypeId": "RD",
        "placeName": "LONDON",
        "streetNameDisplayText": "VISCOUNT RD, LONDON"
      }
    ]
  },
  {
    "postal": "N6J6M1",
    "result": []
  },
  {
    "postal": "N6J5L8",
    "result": []
  },
  {
    "postal": "N6J3P6",
    "result": [
      {
        "electoralDistricts": [
          {
            "election": null,
            "id": 55,
            "name": "London West"
          }
        ],
        "pollDivisionIds": [
          10139644
        ],
        "postalCode": "N6J3P6",
        "streetName": "PADDOCK GREEN",
        "streetDirectionId": null,
        "streetTypeId": "CRES",
        "placeName": "LONDON",
        "streetNameDisplayText": "PADDOCK GREEN CRES, LONDON"
      }
    ]
  },
  {
    "postal": "N6J9A5",
    "result": []
  },
  {
    "postal": "N6J7K1",
    "result": []
  },
  {
    "postal": "N6J3J4",
    "result": [
      {
        "electoralDistricts": [
          {
            "election": null,
            "id": 55,
            "name": "London West"
          }
        ],
        "pollDivisionIds": [
          10139620
        ],
        "postalCode": "N6J3J4",
        "streetName": "CHELSEA",
        "streetDirectionId": null,
        "streetTypeId": "AVE",
        "placeName": "LONDON",
        "streetNameDisplayText": "CHELSEA AVE, LONDON"
      }
    ]
  },
  {
    "postal": "N6J5E7",
    "result": []
  },
  {
    "postal": "N6J3A7",
    "result": [
      {
        "electoralDistricts": [
          {
            "election": null,
            "id": 55,
            "name": "London West"
          }
        ],
        "pollDivisionIds": [
          10139645
        ],
        "postalCode": "N6J3A7",
        "streetName": "WIDMORE",
        "streetDirectionId": null,
        "streetTypeId": "DR",
        "placeName": "LONDON",
        "streetNameDisplayText": "WIDMORE DR, LONDON"
      }
    ]
  },
  {
    "postal": "N6J1B9",
    "result": [
      {
        "electoralDistricts": [
          {
            "election": null,
            "id": 55,
            "name": "London West"
          }
        ],
        "pollDivisionIds": [
          10139620
        ],
        "postalCode": "N6J1B9",
        "streetName": "SEAWOOD",
        "streetDirectionId": null,
        "streetTypeId": "AVE",
        "placeName": "LONDON",
        "streetNameDisplayText": "SEAWOOD AVE, LONDON"
      }
    ]
  },
  {
    "postal": "N6J9E8",
    "result": []
  },
  {
    "postal": "N6J1C9",
    "result": [
      {
        "electoralDistricts": [
          {
            "election": null,
            "id": 55,
            "name": "London West"
          }
        ],
        "pollDivisionIds": [
          10139620
        ],
        "postalCode": "N6J1C9",
        "streetName": "CAROL",
        "streetDirectionId": null,
        "streetTypeId": "ST",
        "placeName": "LONDON",
        "streetNameDisplayText": "CAROL ST, LONDON"
      }
    ]
  },
  {
    "postal": "N6J3B5",
    "result": [
      {
        "electoralDistricts": [
          {
            "election": null,
            "id": 55,
            "name": "London West"
          }
        ],
        "pollDivisionIds": [
          10139645
        ],
        "postalCode": "N6J3B5",
        "streetName": "ALANBROOK",
        "streetDirectionId": null,
        "streetTypeId": "ST",
        "placeName": "LONDON",
        "streetNameDisplayText": "ALANBROOK ST, LONDON"
      }
    ]
  },
  {
    "postal": "N6J8R0",
    "result": []
  },
  {
    "postal": "N6J3P2",
    "result": [
      {
        "electoralDistricts": [
          {
            "election": null,
            "id": 55,
            "name": "London West"
          }
        ],
        "pollDivisionIds": [
          10139644
        ],
        "postalCode": "N6J3P2",
        "streetName": "STEEPLECHASE",
        "streetDirectionId": null,
        "streetTypeId": "DR",
        "placeName": "LONDON",
        "streetNameDisplayText": "STEEPLECHASE DR, LONDON"
      }
    ]
  },
  {
    "postal": "N6J5V4",
    "result": []
  },
  {
    "postal": "N6J4H0",
    "result": []
  },
  {
    "postal": "N6J4S7",
    "result": [
      {
        "electoralDistricts": [
          {
            "election": null,
            "id": 55,
            "name": "London West"
          }
        ],
        "pollDivisionIds": [
          10139647
        ],
        "postalCode": "N6J4S7",
        "streetName": "ANDOVER",
        "streetDirectionId": null,
        "streetTypeId": "DR",
        "placeName": "LONDON",
        "streetNameDisplayText": "ANDOVER DR, LONDON"
      }
    ]
  },
  {
    "postal": "N6J6C2",
    "result": []
  },
  {
    "postal": "N6J8W3",
    "result": []
  },
  {
    "postal": "N6J4M5",
    "result": [
      {
        "electoralDistricts": [
          {
            "election": null,
            "id": 55,
            "name": "London West"
          }
        ],
        "pollDivisionIds": [
          10139639
        ],
        "postalCode": "N6J4M5",
        "streetName": "MOUNTAINVIEW",
        "streetDirectionId": null,
        "streetTypeId": "CRES",
        "placeName": "LONDON",
        "streetNameDisplayText": "MOUNTAINVIEW CRES, LONDON"
      }
    ]
  },
  {
    "postal": "N6J5T1",
    "result": []
  },
  {
    "postal": "N6J3B3",
    "result": [
      {
        "electoralDistricts": [
          {
            "election": null,
            "id": 55,
            "name": "London West"
          }
        ],
        "pollDivisionIds": [
          10139645
        ],
        "postalCode": "N6J3B3",
        "streetName": "ALANBROOK",
        "streetDirectionId": null,
        "streetTypeId": "ST",
        "placeName": "LONDON",
        "streetNameDisplayText": "ALANBROOK ST, LONDON"
      }
    ]
  },
  {
    "postal": "N6J6C6",
    "result": []
  },
  {
    "postal": "N6J7N8",
    "result": []
  },
  {
    "postal": "N6J2Y3",
    "result": [
      {
        "electoralDistricts": [
          {
            "election": null,
            "id": 55,
            "name": "London West"
          }
        ],
        "pollDivisionIds": [
          10139646
        ],
        "postalCode": "N6J2Y3",
        "streetName": "VISCOUNT",
        "streetDirectionId": null,
        "streetTypeId": "RD",
        "placeName": "LONDON",
        "streetNameDisplayText": "VISCOUNT RD, LONDON"
      }
    ]
  },
  {
    "postal": "N6J2R6",
    "result": [
      {
        "electoralDistricts": [
          {
            "election": null,
            "id": 55,
            "name": "London West"
          }
        ],
        "pollDivisionIds": [
          10139623
        ],
        "postalCode": "N6J2R6",
        "streetName": "JOHNSTON",
        "streetDirectionId": null,
        "streetTypeId": "ST",
        "placeName": "LONDON",
        "streetNameDisplayText": "JOHNSTON ST, LONDON"
      }
    ]
  },
  {
    "postal": "N6J7N3",
    "result": []
  },
  {
    "postal": "N6J8J2",
    "result": []
  },
  {
    "postal": "N6J6A9",
    "result": []
  },
  {
    "postal": "N6J3V2",
    "result": [
      {
        "electoralDistricts": [
          {
            "election": null,
            "id": 55,
            "name": "London West"
          }
        ],
        "pollDivisionIds": [
          10139647
        ],
        "postalCode": "N6J3V2",
        "streetName": "ST CLAIR",
        "streetDirectionId": null,
        "streetTypeId": "CRES",
        "placeName": "LONDON",
        "streetNameDisplayText": "ST CLAIR CRES, LONDON"
      }
    ]
  },
  {
    "postal": "N6J2N3",
    "result": []
  },
  {
    "postal": "N6J1S5",
    "result": [
      {
        "electoralDistricts": [
          {
            "election": null,
            "id": 55,
            "name": "London West"
          }
        ],
        "pollDivisionIds": [
          10139629,
          10139631
        ],
        "postalCode": "N6J1S5",
        "streetName": "ROBIN",
        "streetDirectionId": null,
        "streetTypeId": "RD",
        "placeName": "LONDON",
        "streetNameDisplayText": "ROBIN RD, LONDON"
      }
    ]
  },
  {
    "postal": "N6J4T7",
    "result": [
      {
        "electoralDistricts": [
          {
            "election": null,
            "id": 55,
            "name": "London West"
          }
        ],
        "pollDivisionIds": [
          10139639
        ],
        "postalCode": "N6J4T7",
        "streetName": "ANDOVER",
        "streetDirectionId": null,
        "streetTypeId": "DR",
        "placeName": "LONDON",
        "streetNameDisplayText": "ANDOVER DR, LONDON"
      },
      {
        "electoralDistricts": [
          {
            "election": null,
            "id": 55,
            "name": "London West"
          }
        ],
        "pollDivisionIds": [
          10139639
        ],
        "postalCode": "N6J4T7",
        "streetName": "MOCKINGBIRD",
        "streetDirectionId": null,
        "streetTypeId": "CRES",
        "placeName": "LONDON",
        "streetNameDisplayText": "MOCKINGBIRD CRES, LONDON"
      }
    ]
  },
  {
    "postal": "N6J6Y7",
    "result": []
  },
  {
    "postal": "N6J0W7",
    "result": []
  },
  {
    "postal": "N6J2W9",
    "result": [
      {
        "electoralDistricts": [
          {
            "election": null,
            "id": 55,
            "name": "London West"
          }
        ],
        "pollDivisionIds": [
          10139647
        ],
        "postalCode": "N6J2W9",
        "streetName": "ST LAWRENCE",
        "streetDirectionId": null,
        "streetTypeId": "BLVD",
        "placeName": "LONDON",
        "streetNameDisplayText": "ST LAWRENCE BLVD, LONDON"
      }
    ]
  },
  {
    "postal": "N6J8V0",
    "result": []
  },
  {
    "postal": "N6J0H4",
    "result": []
  },
  {
    "postal": "N6J2T1",
    "result": [
      {
        "electoralDistricts": [
          {
            "election": null,
            "id": 55,
            "name": "London West"
          }
        ],
        "pollDivisionIds": [
          10139623
        ],
        "postalCode": "N6J2T1",
        "streetName": "CAWRSE",
        "streetDirectionId": null,
        "streetTypeId": "ST",
        "placeName": "LONDON",
        "streetNameDisplayText": "CAWRSE ST, LONDON"
      }
    ]
  },
  {
    "postal": "N6J1B1",
    "result": [
      {
        "electoralDistricts": [
          {
            "election": null,
            "id": 55,
            "name": "London West"
          }
        ],
        "pollDivisionIds": [
          10139620
        ],
        "postalCode": "N6J1B1",
        "streetName": "WILDWOOD",
        "streetDirectionId": null,
        "streetTypeId": "AVE",
        "placeName": "LONDON",
        "streetNameDisplayText": "WILDWOOD AVE, LONDON"
      }
    ]
  },
  {
    "postal": "N6J8B6",
    "result": []
  },
  {
    "postal": "N6J6H1",
    "result": []
  },
  {
    "postal": "N6J8T8",
    "result": []
  },
  {
    "postal": "N6J0T4",
    "result": []
  },
  {
    "postal": "N6J2C4",
    "result": [
      {
        "electoralDistricts": [
          {
            "election": null,
            "id": 55,
            "name": "London West"
          }
        ],
        "pollDivisionIds": [
          10139645
        ],
        "postalCode": "N6J2C4",
        "streetName": "LADYBROOK",
        "streetDirectionId": null,
        "streetTypeId": "CRES",
        "placeName": "LONDON",
        "streetNameDisplayText": "LADYBROOK CRES, LONDON"
      }
    ]
  },
  {
    "postal": "N6J8N3",
    "result": []
  },
  {
    "postal": "N6J4L8",
    "result": [
      {
        "electoralDistricts": [
          {
            "election": null,
            "id": 55,
            "name": "London West"
          }
        ],
        "pollDivisionIds": [
          10139639,
          10139640
        ],
        "postalCode": "N6J4L8",
        "streetName": "PINE VALLEY",
        "streetDirectionId": null,
        "streetTypeId": "DR",
        "placeName": "LONDON",
        "streetNameDisplayText": "PINE VALLEY DR, LONDON"
      }
    ]
  },
  {
    "postal": "N6J2B5",
    "result": [
      {
        "electoralDistricts": [
          {
            "election": null,
            "id": 55,
            "name": "London West"
          }
        ],
        "pollDivisionIds": [
          10139644
        ],
        "postalCode": "N6J2B5",
        "streetName": "FOX MILL",
        "streetDirectionId": null,
        "streetTypeId": "CRES",
        "placeName": "LONDON",
        "streetNameDisplayText": "FOX MILL CRES, LONDON"
      }
    ]
  },
  {
    "postal": "N6J3H1",
    "result": [
      {
        "electoralDistricts": [
          {
            "election": null,
            "id": 55,
            "name": "London West"
          }
        ],
        "pollDivisionIds": [
          10139622
        ],
        "postalCode": "N6J3H1",
        "streetName": "RIDGEWOOD",
        "streetDirectionId": null,
        "streetTypeId": "CRES",
        "placeName": "LONDON",
        "streetNameDisplayText": "RIDGEWOOD CRES, LONDON"
      }
    ]
  },
  {
    "postal": "N6J4Y1",
    "result": [
      {
        "electoralDistricts": [
          {
            "election": null,
            "id": 55,
            "name": "London West"
          }
        ],
        "pollDivisionIds": [
          10139648
        ],
        "postalCode": "N6J4Y1",
        "streetName": "BELMONT",
        "streetDirectionId": null,
        "streetTypeId": "DR",
        "placeName": "LONDON",
        "streetNameDisplayText": "BELMONT DR, LONDON"
      }
    ]
  },
  {
    "postal": "N6J7E2",
    "result": []
  },
  {
    "postal": "N6J2P5",
    "result": [
      {
        "electoralDistricts": [
          {
            "election": null,
            "id": 55,
            "name": "London West"
          }
        ],
        "pollDivisionIds": [
          10139631
        ],
        "postalCode": "N6J2P5",
        "streetName": "HOLBORN",
        "streetDirectionId": null,
        "streetTypeId": "AVE",
        "placeName": "LONDON",
        "streetNameDisplayText": "HOLBORN AVE, LONDON"
      }
    ]
  },
  {
    "postal": "N6J8R7",
    "result": []
  },
  {
    "postal": "N6J9P1",
    "result": []
  },
  {
    "postal": "N6J3B8",
    "result": [
      {
        "electoralDistricts": [
          {
            "election": null,
            "id": 55,
            "name": "London West"
          }
        ],
        "pollDivisionIds": [
          10139646
        ],
        "postalCode": "N6J3B8",
        "streetName": "NOTRE DAME",
        "streetDirectionId": null,
        "streetTypeId": "DR",
        "placeName": "LONDON",
        "streetNameDisplayText": "NOTRE DAME DR, LONDON"
      }
    ]
  },
  {
    "postal": "N6J3P7",
    "result": [
      {
        "electoralDistricts": [
          {
            "election": null,
            "id": 55,
            "name": "London West"
          }
        ],
        "pollDivisionIds": [
          10139629
        ],
        "postalCode": "N6J3P7",
        "streetName": "PADDOCK GREEN",
        "streetDirectionId": null,
        "streetTypeId": "CRES",
        "placeName": "LONDON",
        "streetNameDisplayText": "PADDOCK GREEN CRES, LONDON"
      }
    ]
  },
  {
    "postal": "N6J9B2",
    "result": []
  },
  {
    "postal": "N6J6Z3",
    "result": []
  },
  {
    "postal": "N6J4N5",
    "result": [
      {
        "electoralDistricts": [
          {
            "election": null,
            "id": 55,
            "name": "London West"
          }
        ],
        "pollDivisionIds": [
          10139640
        ],
        "postalCode": "N6J4N5",
        "streetName": "PINE VALLEY",
        "streetDirectionId": null,
        "streetTypeId": "DR",
        "placeName": "LONDON",
        "streetNameDisplayText": "PINE VALLEY DR, LONDON"
      }
    ]
  },
  {
    "postal": "N6J8T3",
    "result": []
  },
  {
    "postal": "N6J1V2",
    "result": [
      {
        "electoralDistricts": [
          {
            "election": null,
            "id": 55,
            "name": "London West"
          }
        ],
        "pollDivisionIds": [
          10139632,
          10139631
        ],
        "postalCode": "N6J1V2",
        "streetName": "BASE LINE",
        "streetDirectionId": "W",
        "streetTypeId": "RD",
        "placeName": "LONDON",
        "streetNameDisplayText": "BASE LINE RD W, LONDON"
      },
      {
        "electoralDistricts": [
          {
            "election": null,
            "id": 55,
            "name": "London West"
          }
        ],
        "pollDivisionIds": [
          10139631
        ],
        "postalCode": "N6J1V2",
        "streetName": "BASE LINE ROAD WEST",
        "streetDirectionId": "W",
        "streetTypeId": "RD",
        "placeName": "LONDON",
        "streetNameDisplayText": "BASE LINE ROAD WEST RD W, LONDON"
      }
    ]
  },
  {
    "postal": "N6J1Y0",
    "result": []
  },
  {
    "postal": "N6J3G6",
    "result": [
      {
        "electoralDistricts": [
          {
            "election": null,
            "id": 55,
            "name": "London West"
          }
        ],
        "pollDivisionIds": [
          10139622
        ],
        "postalCode": "N6J3G6",
        "streetName": "RIDGEWOOD",
        "streetDirectionId": null,
        "streetTypeId": "CRES",
        "placeName": "LONDON",
        "streetNameDisplayText": "RIDGEWOOD CRES, LONDON"
      }
    ]
  },
  {
    "postal": "N6J3H7",
    "result": [
      {
        "electoralDistricts": [
          {
            "election": null,
            "id": 55,
            "name": "London West"
          }
        ],
        "pollDivisionIds": [
          10139622
        ],
        "postalCode": "N6J3H7",
        "streetName": "RIDGEWOOD",
        "streetDirectionId": null,
        "streetTypeId": "CRES",
        "placeName": "LONDON",
        "streetNameDisplayText": "RIDGEWOOD CRES, LONDON"
      }
    ]
  },
  {
    "postal": "N6J7X8",
    "result": []
  },
  {
    "postal": "N6J0C7",
    "result": []
  },
  {
    "postal": "N6J0W9",
    "result": []
  },
  {
    "postal": "N6J8E6",
    "result": []
  },
  {
    "postal": "N6J9Z8",
    "result": []
  },
  {
    "postal": "N6J3P4",
    "result": [
      {
        "electoralDistricts": [
          {
            "election": null,
            "id": 55,
            "name": "London West"
          }
        ],
        "pollDivisionIds": [
          10139644
        ],
        "postalCode": "N6J3P4",
        "streetName": "STEEPLECHASE",
        "streetDirectionId": null,
        "streetTypeId": "DR",
        "placeName": "LONDON",
        "streetNameDisplayText": "STEEPLECHASE DR, LONDON"
      }
    ]
  },
  {
    "postal": "N6J6L8",
    "result": []
  },
  {
    "postal": "N6J2R4",
    "result": [
      {
        "electoralDistricts": [
          {
            "election": null,
            "id": 55,
            "name": "London West"
          }
        ],
        "pollDivisionIds": [
          10139623
        ],
        "postalCode": "N6J2R4",
        "streetName": "ORCHARD",
        "streetDirectionId": null,
        "streetTypeId": "ST",
        "placeName": "LONDON",
        "streetNameDisplayText": "ORCHARD ST, LONDON"
      }
    ]
  },
  {
    "postal": "N6J2W1",
    "result": [
      {
        "electoralDistricts": [
          {
            "election": null,
            "id": 55,
            "name": "London West"
          }
        ],
        "pollDivisionIds": [
          10139648
        ],
        "postalCode": "N6J2W1",
        "streetName": "GORDON",
        "streetDirectionId": null,
        "streetTypeId": "AVE",
        "placeName": "LONDON",
        "streetNameDisplayText": "GORDON AVE, LONDON"
      }
    ]
  },
  {
    "postal": "N6J9H8",
    "result": []
  },
  {
    "postal": "N6J8X9",
    "result": []
  },
  {
    "postal": "N6J7H4",
    "result": []
  },
  {
    "postal": "N6J3J1",
    "result": [
      {
        "electoralDistricts": [
          {
            "election": null,
            "id": 55,
            "name": "London West"
          }
        ],
        "pollDivisionIds": [
          10139622
        ],
        "postalCode": "N6J3J1",
        "streetName": "RIDGEWOOD",
        "streetDirectionId": null,
        "streetTypeId": "CRES",
        "placeName": "LONDON",
        "streetNameDisplayText": "RIDGEWOOD CRES, LONDON"
      }
    ]
  },
  {
    "postal": "N6J1P4",
    "result": [
      {
        "electoralDistricts": [
          {
            "election": null,
            "id": 55,
            "name": "London West"
          }
        ],
        "pollDivisionIds": [
          10139631
        ],
        "postalCode": "N6J1P4",
        "streetName": "LANGARTH",
        "streetDirectionId": "W",
        "streetTypeId": "ST",
        "placeName": "LONDON",
        "streetNameDisplayText": "LANGARTH ST W, LONDON"
      }
    ]
  },
  {
    "postal": "N6J2A3",
    "result": [
      {
        "electoralDistricts": [
          {
            "election": null,
            "id": 55,
            "name": "London West"
          }
        ],
        "pollDivisionIds": [
          10139648
        ],
        "postalCode": "N6J2A3",
        "streetName": "HIGHVIEW",
        "streetDirectionId": "W",
        "streetTypeId": "AVE",
        "placeName": "LONDON",
        "streetNameDisplayText": "HIGHVIEW AVE W, LONDON"
      }
    ]
  },
  {
    "postal": "N6J0Z1",
    "result": []
  },
  {
    "postal": "N6J1C1",
    "result": [
      {
        "electoralDistricts": [
          {
            "election": null,
            "id": 55,
            "name": "London West"
          }
        ],
        "pollDivisionIds": [
          10139620
        ],
        "postalCode": "N6J1C1",
        "streetName": "MALCOLM",
        "streetDirectionId": null,
        "streetTypeId": "ST",
        "placeName": "LONDON",
        "streetNameDisplayText": "MALCOLM ST, LONDON"
      }
    ]
  },
  {
    "postal": "N6J0H3",
    "result": []
  },
  {
    "postal": "N6J7B0",
    "result": []
  },
  {
    "postal": "N6J5K2",
    "result": []
  },
  {
    "postal": "N6J1E9",
    "result": [
      {
        "electoralDistricts": [
          {
            "election": null,
            "id": 55,
            "name": "London West"
          }
        ],
        "pollDivisionIds": [
          10139622
        ],
        "postalCode": "N6J1E9",
        "streetName": "SPRINGBANK",
        "streetDirectionId": null,
        "streetTypeId": "DR",
        "placeName": "LONDON",
        "streetNameDisplayText": "SPRINGBANK DR, LONDON"
      }
    ]
  },
  {
    "postal": "N6J9W7",
    "result": []
  },
  {
    "postal": "N6J5W6",
    "result": []
  },
  {
    "postal": "N6J6S6",
    "result": []
  },
  {
    "postal": "N6J2P8",
    "result": [
      {
        "electoralDistricts": [
          {
            "election": null,
            "id": 55,
            "name": "London West"
          }
        ],
        "pollDivisionIds": [
          10139631
        ],
        "postalCode": "N6J2P8",
        "streetName": "HOLBORN",
        "streetDirectionId": null,
        "streetTypeId": "AVE",
        "placeName": "LONDON",
        "streetNameDisplayText": "HOLBORN AVE, LONDON"
      }
    ]
  },
  {
    "postal": "N6J4P8",
    "result": [
      {
        "electoralDistricts": [
          {
            "election": null,
            "id": 55,
            "name": "London West"
          }
        ],
        "pollDivisionIds": [
          10139640
        ],
        "postalCode": "N6J4P8",
        "streetName": "PINE VALLEY",
        "streetDirectionId": null,
        "streetTypeId": "GATE",
        "placeName": "LONDON",
        "streetNameDisplayText": "PINE VALLEY GATE, LONDON"
      }
    ]
  },
  {
    "postal": "N6J0V9",
    "result": []
  },
  {
    "postal": "N6J5Y2",
    "result": []
  },
  {
    "postal": "N6J7Z7",
    "result": []
  },
  {
    "postal": "N6J6Y8",
    "result": []
  },
  {
    "postal": "N6J2G7",
    "result": [
      {
        "electoralDistricts": [
          {
            "election": null,
            "id": 55,
            "name": "London West"
          }
        ],
        "pollDivisionIds": [
          10139647
        ],
        "postalCode": "N6J2G7",
        "streetName": "ESTELLA",
        "streetDirectionId": null,
        "streetTypeId": "RD",
        "placeName": "LONDON",
        "streetNameDisplayText": "ESTELLA RD, LONDON"
      }
    ]
  },
  {
    "postal": "N6J8C1",
    "result": []
  },
  {
    "postal": "N6J5C5",
    "result": []
  },
  {
    "postal": "N6J2X8",
    "result": [
      {
        "electoralDistricts": [
          {
            "election": null,
            "id": 55,
            "name": "London West"
          }
        ],
        "pollDivisionIds": [
          10139632
        ],
        "postalCode": "N6J2X8",
        "streetName": "HUXLEY",
        "streetDirectionId": null,
        "streetTypeId": "ST",
        "placeName": "LONDON",
        "streetNameDisplayText": "HUXLEY ST, LONDON"
      }
    ]
  },
  {
    "postal": "N6J1W5",
    "result": [
      {
        "electoralDistricts": [
          {
            "election": null,
            "id": 55,
            "name": "London West"
          }
        ],
        "pollDivisionIds": [
          10139631
        ],
        "postalCode": "N6J1W5",
        "streetName": "BASE LINE",
        "streetDirectionId": "W",
        "streetTypeId": "RD",
        "placeName": "LONDON",
        "streetNameDisplayText": "BASE LINE RD W, LONDON"
      }
    ]
  },
  {
    "postal": "N6J7G0",
    "result": []
  },
  {
    "postal": "N6J8J8",
    "result": []
  },
  {
    "postal": "N6J3Y0",
    "result": []
  },
  {
    "postal": "N6J9T7",
    "result": []
  },
  {
    "postal": "N6J5P4",
    "result": []
  },
  {
    "postal": "N6J4B0",
    "result": []
  },
  {
    "postal": "N6J9N8",
    "result": []
  },
  {
    "postal": "N6J4A7",
    "result": [
      {
        "electoralDistricts": [
          {
            "election": null,
            "id": 55,
            "name": "London West"
          }
        ],
        "pollDivisionIds": [
          10139648
        ],
        "postalCode": "N6J4A7",
        "streetName": "LENORE",
        "streetDirectionId": null,
        "streetTypeId": "ST",
        "placeName": "LONDON",
        "streetNameDisplayText": "LENORE ST, LONDON"
      }
    ]
  },
  {
    "postal": "N6J4H9",
    "result": [
      {
        "electoralDistricts": [
          {
            "election": null,
            "id": 55,
            "name": "London West"
          }
        ],
        "pollDivisionIds": [
          10139632
        ],
        "postalCode": "N6J4H9",
        "streetName": "COMMISSIONERS",
        "streetDirectionId": "W",
        "streetTypeId": "RD",
        "placeName": "LONDON",
        "streetNameDisplayText": "COMMISSIONERS RD W, LONDON"
      }
    ]
  },
  {
    "postal": "N6J6X1",
    "result": []
  },
  {
    "postal": "N6J9Y7",
    "result": []
  },
  {
    "postal": "N6J2Y5",
    "result": [
      {
        "electoralDistricts": [
          {
            "election": null,
            "id": 55,
            "name": "London West"
          }
        ],
        "pollDivisionIds": [
          10139646
        ],
        "postalCode": "N6J2Y5",
        "streetName": "VISCOUNT",
        "streetDirectionId": null,
        "streetTypeId": "RD",
        "placeName": "LONDON",
        "streetNameDisplayText": "VISCOUNT RD, LONDON"
      }
    ]
  },
  {
    "postal": "N6J8L7",
    "result": []
  },
  {
    "postal": "N6J2A8",
    "result": [
      {
        "electoralDistricts": [
          {
            "election": null,
            "id": 55,
            "name": "London West"
          }
        ],
        "pollDivisionIds": [
          10139645
        ],
        "postalCode": "N6J2A8",
        "streetName": "NOVELLO",
        "streetDirectionId": null,
        "streetTypeId": "AVE",
        "placeName": "LONDON",
        "streetNameDisplayText": "NOVELLO AVE, LONDON"
      }
    ]
  },
  {
    "postal": "N6J2K9",
    "result": []
  },
  {
    "postal": "N6J3E5",
    "result": [
      {
        "electoralDistricts": [
          {
            "election": null,
            "id": 55,
            "name": "London West"
          }
        ],
        "pollDivisionIds": [
          10139645
        ],
        "postalCode": "N6J3E5",
        "streetName": "JASON",
        "streetDirectionId": null,
        "streetTypeId": "CRES",
        "placeName": "LONDON",
        "streetNameDisplayText": "JASON CRES, LONDON"
      }
    ]
  },
  {
    "postal": "N6J8N6",
    "result": []
  },
  {
    "postal": "N6J8J4",
    "result": []
  },
  {
    "postal": "N6J4R7",
    "result": [
      {
        "electoralDistricts": [
          {
            "election": null,
            "id": 55,
            "name": "London West"
          }
        ],
        "pollDivisionIds": [
          10139639
        ],
        "postalCode": "N6J4R7",
        "streetName": "ENSIGN",
        "streetDirectionId": null,
        "streetTypeId": "DR",
        "placeName": "LONDON",
        "streetNameDisplayText": "ENSIGN DR, LONDON"
      }
    ]
  },
  {
    "postal": "N6J9K1",
    "result": []
  },
  {
    "postal": "N6J8E1",
    "result": []
  },
  {
    "postal": "N6J0R1",
    "result": []
  },
  {
    "postal": "N6J4J3",
    "result": [
      {
        "electoralDistricts": [
          {
            "election": null,
            "id": 55,
            "name": "London West"
          }
        ],
        "pollDivisionIds": [
          10139648
        ],
        "postalCode": "N6J4J3",
        "streetName": "BELMONT",
        "streetDirectionId": null,
        "streetTypeId": "DR",
        "placeName": "LONDON",
        "streetNameDisplayText": "BELMONT DR, LONDON"
      }
    ]
  },
  {
    "postal": "N6J7E7",
    "result": []
  },
  {
    "postal": "N6J0J0",
    "result": []
  },
  {
    "postal": "N6J7R8",
    "result": []
  },
  {
    "postal": "N6J9X0",
    "result": []
  },
  {
    "postal": "N6J7P6",
    "result": []
  },
  {
    "postal": "N6J0R7",
    "result": []
  },
  {
    "postal": "N6J5W1",
    "result": []
  },
  {
    "postal": "N6J0K4",
    "result": []
  },
  {
    "postal": "N6J7N9",
    "result": []
  },
  {
    "postal": "N6J1N0",
    "result": []
  },
  {
    "postal": "N6J6P3",
    "result": []
  },
  {
    "postal": "N6J5A1",
    "result": []
  },
  {
    "postal": "N6J9M9",
    "result": []
  },
  {
    "postal": "N6J7T6",
    "result": []
  },
  {
    "postal": "N6J3X0",
    "result": []
  },
  {
    "postal": "N6J2T0",
    "result": []
  },
  {
    "postal": "N6J5X9",
    "result": []
  },
  {
    "postal": "N6J2R3",
    "result": [
      {
        "electoralDistricts": [
          {
            "election": null,
            "id": 55,
            "name": "London West"
          }
        ],
        "pollDivisionIds": [
          10139623
        ],
        "postalCode": "N6J2R3",
        "streetName": "ORCHARD",
        "streetDirectionId": null,
        "streetTypeId": "ST",
        "placeName": "LONDON",
        "streetNameDisplayText": "ORCHARD ST, LONDON"
      }
    ]
  },
  {
    "postal": "N6J5N2",
    "result": []
  },
  {
    "postal": "N6J4Y7",
    "result": [
      {
        "electoralDistricts": [
          {
            "election": null,
            "id": 26,
            "name": "ElginMiddlesexLondon"
          }
        ],
        "pollDivisionIds": [
          10143309
        ],
        "postalCode": "N6J4Y7",
        "streetName": "SOUTHDALE",
        "streetDirectionId": "W",
        "streetTypeId": "RD",
        "placeName": "LONDON",
        "streetNameDisplayText": "SOUTHDALE RD W, LONDON"
      }
    ]
  },
  {
    "postal": "N6J7M0",
    "result": []
  },
  {
    "postal": "N6J8P3",
    "result": []
  },
  {
    "postal": "N6J3N3",
    "result": [
      {
        "electoralDistricts": [
          {
            "election": null,
            "id": 55,
            "name": "London West"
          }
        ],
        "pollDivisionIds": [
          10139629
        ],
        "postalCode": "N6J3N3",
        "streetName": "WESTMORLAND",
        "streetDirectionId": null,
        "streetTypeId": "RD",
        "placeName": "LONDON",
        "streetNameDisplayText": "WESTMORLAND RD, LONDON"
      }
    ]
  },
  {
    "postal": "N6J7S3",
    "result": []
  },
  {
    "postal": "N6J3V9",
    "result": [
      {
        "electoralDistricts": [
          {
            "election": null,
            "id": 55,
            "name": "London West"
          }
        ],
        "pollDivisionIds": [
          10139647
        ],
        "postalCode": "N6J3V9",
        "streetName": "ST CLAIR",
        "streetDirectionId": null,
        "streetTypeId": "CRES",
        "placeName": "LONDON",
        "streetNameDisplayText": "ST CLAIR CRES, LONDON"
      }
    ]
  },
  {
    "postal": "N6J9N7",
    "result": []
  },
  {
    "postal": "N6J0G4",
    "result": []
  },
  {
    "postal": "N6J2E2",
    "result": [
      {
        "electoralDistricts": [
          {
            "election": null,
            "id": 55,
            "name": "London West"
          }
        ],
        "pollDivisionIds": [
          10139639
        ],
        "postalCode": "N6J2E2",
        "streetName": "ENSIGN",
        "streetDirectionId": null,
        "streetTypeId": "DR",
        "placeName": "LONDON",
        "streetNameDisplayText": "ENSIGN DR, LONDON"
      }
    ]
  },
  {
    "postal": "N6J7W8",
    "result": []
  },
  {
    "postal": "N6J7M5",
    "result": []
  },
  {
    "postal": "N6J5W8",
    "result": []
  },
  {
    "postal": "N6J5E5",
    "result": []
  },
  {
    "postal": "N6J1P9",
    "result": [
      {
        "electoralDistricts": [
          {
            "election": null,
            "id": 55,
            "name": "London West"
          }
        ],
        "pollDivisionIds": [
          10139631
        ],
        "postalCode": "N6J1P9",
        "streetName": "EMERY",
        "streetDirectionId": "W",
        "streetTypeId": "ST",
        "placeName": "LONDON",
        "streetNameDisplayText": "EMERY ST W, LONDON"
      }
    ]
  },
  {
    "postal": "N6J8V8",
    "result": []
  },
  {
    "postal": "N6J9G8",
    "result": []
  },
  {
    "postal": "N6J8H9",
    "result": []
  },
  {
    "postal": "N6J1Z1",
    "result": [
      {
        "electoralDistricts": [
          {
            "election": null,
            "id": 55,
            "name": "London West"
          }
        ],
        "pollDivisionIds": [
          10139644
        ],
        "postalCode": "N6J1Z1",
        "streetName": "VILLAGE GREEN",
        "streetDirectionId": null,
        "streetTypeId": "AVE",
        "placeName": "LONDON",
        "streetNameDisplayText": "VILLAGE GREEN AVE, LONDON"
      }
    ]
  },
  {
    "postal": "N6J8M3",
    "result": []
  },
  {
    "postal": "N6J5H6",
    "result": []
  },
  {
    "postal": "N6J7W7",
    "result": []
  },
  {
    "postal": "N6J4L0",
    "result": []
  },
  {
    "postal": "N6J2N1",
    "result": [
      {
        "electoralDistricts": [
          {
            "election": null,
            "id": 55,
            "name": "London West"
          }
        ],
        "pollDivisionIds": [
          10139632
        ],
        "postalCode": "N6J2N1",
        "streetName": "WHARNCLIFFE",
        "streetDirectionId": "S",
        "streetTypeId": "RD",
        "placeName": "LONDON",
        "streetNameDisplayText": "WHARNCLIFFE RD S, LONDON"
      }
    ]
  },
  {
    "postal": "N6J2H4",
    "result": [
      {
        "electoralDistricts": [
          {
            "election": null,
            "id": 55,
            "name": "London West"
          }
        ],
        "pollDivisionIds": [
          10139647
        ],
        "postalCode": "N6J2H4",
        "streetName": "NORTON",
        "streetDirectionId": null,
        "streetTypeId": "AVE",
        "placeName": "LONDON",
        "streetNameDisplayText": "NORTON AVE, LONDON"
      }
    ]
  },
  {
    "postal": "N6J5C8",
    "result": []
  },
  {
    "postal": "N6J8B0",
    "result": []
  },
  {
    "postal": "N6J1T4",
    "result": [
      {
        "electoralDistricts": [
          {
            "election": null,
            "id": 55,
            "name": "London West"
          }
        ],
        "pollDivisionIds": [
          10139632,
          10139631
        ],
        "postalCode": "N6J1T4",
        "streetName": "CENTRE",
        "streetDirectionId": null,
        "streetTypeId": "ST",
        "placeName": "LONDON",
        "streetNameDisplayText": "CENTRE ST, LONDON"
      }
    ]
  },
  {
    "postal": "N6J7N7",
    "result": []
  },
  {
    "postal": "N6J4L3",
    "result": [
      {
        "electoralDistricts": [
          {
            "election": null,
            "id": 55,
            "name": "London West"
          }
        ],
        "pollDivisionIds": [
          10139640
        ],
        "postalCode": "N6J4L3",
        "streetName": "PINE VALLEY",
        "streetDirectionId": null,
        "streetTypeId": "GATE",
        "placeName": "LONDON",
        "streetNameDisplayText": "PINE VALLEY GATE, LONDON"
      }
    ]
  },
  {
    "postal": "N6J2N2",
    "result": []
  },
  {
    "postal": "N6J4N8",
    "result": [
      {
        "electoralDistricts": [
          {
            "election": null,
            "id": 55,
            "name": "London West"
          }
        ],
        "pollDivisionIds": [
          10139639
        ],
        "postalCode": "N6J4N8",
        "streetName": "MONTE VISTA",
        "streetDirectionId": null,
        "streetTypeId": "CRES",
        "placeName": "LONDON",
        "streetNameDisplayText": "MONTE VISTA CRES, LONDON"
      }
    ]
  },
  {
    "postal": "N6J3M5",
    "result": [
      {
        "electoralDistricts": [
          {
            "election": null,
            "id": 55,
            "name": "London West"
          }
        ],
        "pollDivisionIds": [
          10139621
        ],
        "postalCode": "N6J3M5",
        "streetName": "GARDENWOOD",
        "streetDirectionId": null,
        "streetTypeId": "DR",
        "placeName": "LONDON",
        "streetNameDisplayText": "GARDENWOOD DR, LONDON"
      }
    ]
  },
  {
    "postal": "N6J6H7",
    "result": []
  },
  {
    "postal": "N6J8Y8",
    "result": []
  },
  {
    "postal": "N6J5R9",
    "result": []
  },
  {
    "postal": "N6J8G3",
    "result": []
  },
  {
    "postal": "N6J4N7",
    "result": [
      {
        "electoralDistricts": [
          {
            "election": null,
            "id": 55,
            "name": "London West"
          }
        ],
        "pollDivisionIds": [
          10139639
        ],
        "postalCode": "N6J4N7",
        "streetName": "PINE VALLEY",
        "streetDirectionId": null,
        "streetTypeId": "DR",
        "placeName": "LONDON",
        "streetNameDisplayText": "PINE VALLEY DR, LONDON"
      },
      {
        "electoralDistricts": [
          {
            "election": null,
            "id": 55,
            "name": "London West"
          }
        ],
        "pollDivisionIds": [
          10139639
        ],
        "postalCode": "N6J4N7",
        "streetName": "THUNDERBIRD",
        "streetDirectionId": null,
        "streetTypeId": "CRES",
        "placeName": "LONDON",
        "streetNameDisplayText": "THUNDERBIRD CRES, LONDON"
      }
    ]
  },
  {
    "postal": "N6J0B9",
    "result": []
  },
  {
    "postal": "N6J9K7",
    "result": []
  },
  {
    "postal": "N6J9K9",
    "result": []
  },
  {
    "postal": "N6J3Z2",
    "result": [
      {
        "electoralDistricts": [
          {
            "election": null,
            "id": 55,
            "name": "London West"
          }
        ],
        "pollDivisionIds": [
          10139645
        ],
        "postalCode": "N6J3Z2",
        "streetName": "VILLAGE GREEN",
        "streetDirectionId": null,
        "streetTypeId": "AVE",
        "placeName": "LONDON",
        "streetNameDisplayText": "VILLAGE GREEN AVE, LONDON"
      }
    ]
  },
  {
    "postal": "N6J6W7",
    "result": []
  },
  {
    "postal": "N6J0P1",
    "result": []
  },
  {
    "postal": "N6J3A0",
    "result": []
  },
  {
    "postal": "N6J8L9",
    "result": []
  },
  {
    "postal": "N6J6X0",
    "result": []
  },
  {
    "postal": "N6J3E9",
    "result": [
      {
        "electoralDistricts": [
          {
            "election": null,
            "id": 55,
            "name": "London West"
          }
        ],
        "pollDivisionIds": [
          10139639
        ],
        "postalCode": "N6J3E9",
        "streetName": "WESTBURY",
        "streetDirectionId": null,
        "streetTypeId": "AVE",
        "placeName": "LONDON",
        "streetNameDisplayText": "WESTBURY AVE, LONDON"
      }
    ]
  },
  {
    "postal": "N6J0S5",
    "result": []
  },
  {
    "postal": "N6J1A2",
    "result": [
      {
        "electoralDistricts": [
          {
            "election": null,
            "id": 54,
            "name": "London North Centre"
          }
        ],
        "pollDivisionIds": [
          10135384
        ],
        "postalCode": "N6J1A2",
        "streetName": "RIVERVIEW",
        "streetDirectionId": null,
        "streetTypeId": "AVE",
        "placeName": "LONDON",
        "streetNameDisplayText": "RIVERVIEW AVE, LONDON"
      }
    ]
  },
  {
    "postal": "N6J5V8",
    "result": []
  },
  {
    "postal": "N6J8C5",
    "result": []
  },
  {
    "postal": "N6J6N0",
    "result": []
  },
  {
    "postal": "N6J9E6",
    "result": []
  },
  {
    "postal": "N6J5J7",
    "result": []
  },
  {
    "postal": "N6J2R2",
    "result": [
      {
        "electoralDistricts": [
          {
            "election": null,
            "id": 55,
            "name": "London West"
          }
        ],
        "pollDivisionIds": [
          10139631
        ],
        "postalCode": "N6J2R2",
        "streetName": "HOLBORN",
        "streetDirectionId": null,
        "streetTypeId": "AVE",
        "placeName": "LONDON",
        "streetNameDisplayText": "HOLBORN AVE, LONDON"
      }
    ]
  },
  {
    "postal": "N6J0P5",
    "result": []
  },
  {
    "postal": "N6J5A7",
    "result": []
  },
  {
    "postal": "N6J1G1",
    "result": [
      {
        "electoralDistricts": [
          {
            "election": null,
            "id": 55,
            "name": "London West"
          }
        ],
        "pollDivisionIds": [
          10139622
        ],
        "postalCode": "N6J1G1",
        "streetName": "SPRINGBANK",
        "streetDirectionId": null,
        "streetTypeId": "DR",
        "placeName": "LONDON",
        "streetNameDisplayText": "SPRINGBANK DR, LONDON"
      }
    ]
  },
  {
    "postal": "N6J9R6",
    "result": []
  },
  {
    "postal": "N6J4Z9",
    "result": []
  },
  {
    "postal": "N6J1V5",
    "result": [
      {
        "electoralDistricts": [
          {
            "election": null,
            "id": 55,
            "name": "London West"
          }
        ],
        "pollDivisionIds": [
          10139632
        ],
        "postalCode": "N6J1V5",
        "streetName": "BASE LINE",
        "streetDirectionId": "W",
        "streetTypeId": "RD",
        "placeName": "LONDON",
        "streetNameDisplayText": "BASE LINE RD W, LONDON"
      }
    ]
  },
  {
    "postal": "N6J9Y5",
    "result": []
  },
  {
    "postal": "N6J1P2",
    "result": [
      {
        "electoralDistricts": [
          {
            "election": null,
            "id": 55,
            "name": "London West"
          }
        ],
        "pollDivisionIds": [
          10139631
        ],
        "postalCode": "N6J1P2",
        "streetName": "LANGARTH",
        "streetDirectionId": "W",
        "streetTypeId": "ST",
        "placeName": "LONDON",
        "streetNameDisplayText": "LANGARTH ST W, LONDON"
      }
    ]
  },
  {
    "postal": "N6J5X0",
    "result": []
  },
  {
    "postal": "N6J7B8",
    "result": []
  },
  {
    "postal": "N6J0C6",
    "result": []
  },
  {
    "postal": "N6J6G1",
    "result": []
  },
  {
    "postal": "N6J3K3",
    "result": [
      {
        "electoralDistricts": [
          {
            "election": null,
            "id": 55,
            "name": "London West"
          }
        ],
        "pollDivisionIds": [
          10139620
        ],
        "postalCode": "N6J3K3",
        "streetName": "DONNA",
        "streetDirectionId": null,
        "streetTypeId": "ST",
        "placeName": "LONDON",
        "streetNameDisplayText": "DONNA ST, LONDON"
      }
    ]
  },
  {
    "postal": "N6J9R0",
    "result": []
  },
  {
    "postal": "N6J4R8",
    "result": [
      {
        "electoralDistricts": [
          {
            "election": null,
            "id": 55,
            "name": "London West"
          }
        ],
        "pollDivisionIds": [
          10139639
        ],
        "postalCode": "N6J4R8",
        "streetName": "KANATA",
        "streetDirectionId": null,
        "streetTypeId": "CRES",
        "placeName": "LONDON",
        "streetNameDisplayText": "KANATA CRES, LONDON"
      },
      {
        "electoralDistricts": [
          {
            "election": null,
            "id": 55,
            "name": "London West"
          }
        ],
        "pollDivisionIds": [
          10139639
        ],
        "postalCode": "N6J4R8",
        "streetName": "PINE VALLEY",
        "streetDirectionId": null,
        "streetTypeId": "DR",
        "placeName": "LONDON",
        "streetNameDisplayText": "PINE VALLEY DR, LONDON"
      }
    ]
  },
  {
    "postal": "N6J5P9",
    "result": []
  },
  {
    "postal": "N6J8N4",
    "result": []
  },
  {
    "postal": "N6J8H4",
    "result": []
  },
  {
    "postal": "N6J4V1",
    "result": [
      {
        "electoralDistricts": [
          {
            "election": null,
            "id": 55,
            "name": "London West"
          }
        ],
        "pollDivisionIds": [
          10139639
        ],
        "postalCode": "N6J4V1",
        "streetName": "ENSIGN",
        "streetDirectionId": null,
        "streetTypeId": "CRES",
        "placeName": "LONDON",
        "streetNameDisplayText": "ENSIGN CRES, LONDON"
      }
    ]
  },
  {
    "postal": "N6J1K5",
    "result": [
      {
        "electoralDistricts": [
          {
            "election": null,
            "id": 55,
            "name": "London West"
          }
        ],
        "pollDivisionIds": [
          10139623
        ],
        "postalCode": "N6J1K5",
        "streetName": "TECUMSEH",
        "streetDirectionId": "W",
        "streetTypeId": "AVE",
        "placeName": "LONDON",
        "streetNameDisplayText": "TECUMSEH AVE W, LONDON"
      }
    ]
  },
  {
    "postal": "N6J1Z5",
    "result": [
      {
        "electoralDistricts": [
          {
            "election": null,
            "id": 55,
            "name": "London West"
          }
        ],
        "pollDivisionIds": [
          10139645
        ],
        "postalCode": "N6J1Z5",
        "streetName": "TAVISTOCK",
        "streetDirectionId": null,
        "streetTypeId": "RD",
        "placeName": "LONDON",
        "streetNameDisplayText": "TAVISTOCK RD, LONDON"
      }
    ]
  },
  {
    "postal": "N6J9L9",
    "result": []
  },
  {
    "postal": "N6J5L2",
    "result": []
  },
  {
    "postal": "N6J0M2",
    "result": []
  },
  {
    "postal": "N6J1K8",
    "result": [
      {
        "electoralDistricts": [
          {
            "election": null,
            "id": 55,
            "name": "London West"
          }
        ],
        "pollDivisionIds": [
          10139623,
          10139622
        ],
        "postalCode": "N6J1K8",
        "streetName": "TECUMSEH",
        "streetDirectionId": "W",
        "streetTypeId": "AVE",
        "placeName": "LONDON",
        "streetNameDisplayText": "TECUMSEH AVE W, LONDON"
      }
    ]
  },
  {
    "postal": "N6J3M7",
    "result": [
      {
        "electoralDistricts": [
          {
            "election": null,
            "id": 55,
            "name": "London West"
          }
        ],
        "pollDivisionIds": [
          10139629
        ],
        "postalCode": "N6J3M7",
        "streetName": "TOPPING",
        "streetDirectionId": null,
        "streetTypeId": "LANE",
        "placeName": "LONDON",
        "streetNameDisplayText": "TOPPING LANE, LONDON"
      }
    ]
  },
  {
    "postal": "N6J1B2",
    "result": [
      {
        "electoralDistricts": [
          {
            "election": null,
            "id": 55,
            "name": "London West"
          }
        ],
        "pollDivisionIds": [
          10139620
        ],
        "postalCode": "N6J1B2",
        "streetName": "DARLENE",
        "streetDirectionId": null,
        "streetTypeId": "CRES",
        "placeName": "LONDON",
        "streetNameDisplayText": "DARLENE CRES, LONDON"
      }
    ]
  },
  {
    "postal": "N6J0H9",
    "result": []
  },
  {
    "postal": "N6J8M4",
    "result": []
  },
  {
    "postal": "N6J2M5",
    "result": [
      {
        "electoralDistricts": [
          {
            "election": null,
            "id": 55,
            "name": "London West"
          }
        ],
        "pollDivisionIds": [
          10139633
        ],
        "postalCode": "N6J2M5",
        "streetName": "WHARNCLIFFE",
        "streetDirectionId": "S",
        "streetTypeId": "RD",
        "placeName": "LONDON",
        "streetNameDisplayText": "WHARNCLIFFE RD S, LONDON"
      }
    ]
  },
  {
    "postal": "N6J0T9",
    "result": []
  },
  {
    "postal": "N6J3P1",
    "result": [
      {
        "electoralDistricts": [
          {
            "election": null,
            "id": 55,
            "name": "London West"
          }
        ],
        "pollDivisionIds": [
          10139644
        ],
        "postalCode": "N6J3P1",
        "streetName": "STEEPLECHASE",
        "streetDirectionId": null,
        "streetTypeId": "DR",
        "placeName": "LONDON",
        "streetNameDisplayText": "STEEPLECHASE DR, LONDON"
      }
    ]
  },
  {
    "postal": "N6J1R6",
    "result": [
      {
        "electoralDistricts": [
          {
            "election": null,
            "id": 55,
            "name": "London West"
          }
        ],
        "pollDivisionIds": [
          10139631
        ],
        "postalCode": "N6J1R6",
        "streetName": "EMERY",
        "streetDirectionId": "W",
        "streetTypeId": "ST",
        "placeName": "LONDON",
        "streetNameDisplayText": "EMERY ST W, LONDON"
      }
    ]
  },
  {
    "postal": "N6J9V5",
    "result": []
  },
  {
    "postal": "N6J9T0",
    "result": []
  },
  {
    "postal": "N6J0A9",
    "result": [
      {
        "electoralDistricts": [
          {
            "election": null,
            "id": 55,
            "name": "London West"
          }
        ],
        "pollDivisionIds": [
          10139623
        ],
        "postalCode": "N6J0A9",
        "streetName": "FORBES",
        "streetDirectionId": null,
        "streetTypeId": "ST",
        "placeName": "LONDON",
        "streetNameDisplayText": "FORBES ST, LONDON"
      }
    ]
  },
  {
    "postal": "N6J1M3",
    "result": [
      {
        "electoralDistricts": [
          {
            "election": null,
            "id": 55,
            "name": "London West"
          }
        ],
        "pollDivisionIds": [
          10139631
        ],
        "postalCode": "N6J1M3",
        "streetName": "BRISCOE",
        "streetDirectionId": "W",
        "streetTypeId": "ST",
        "placeName": "LONDON",
        "streetNameDisplayText": "BRISCOE ST W, LONDON"
      }
    ]
  },
  {
    "postal": "N6J1W8",
    "result": [
      {
        "electoralDistricts": [
          {
            "election": null,
            "id": 55,
            "name": "London West"
          }
        ],
        "pollDivisionIds": [
          10139631
        ],
        "postalCode": "N6J1W8",
        "streetName": "BASE LINE",
        "streetDirectionId": "W",
        "streetTypeId": "RD",
        "placeName": "LONDON",
        "streetNameDisplayText": "BASE LINE RD W, LONDON"
      }
    ]
  },
  {
    "postal": "N6J9J1",
    "result": []
  },
  {
    "postal": "N6J8N5",
    "result": []
  },
  {
    "postal": "N6J5X1",
    "result": []
  },
  {
    "postal": "N6J6S2",
    "result": []
  },
  {
    "postal": "N6J2A2",
    "result": [
      {
        "electoralDistricts": [
          {
            "election": null,
            "id": 55,
            "name": "London West"
          }
        ],
        "pollDivisionIds": [
          10139648
        ],
        "postalCode": "N6J2A2",
        "streetName": "HIGHVIEW",
        "streetDirectionId": "W",
        "streetTypeId": "AVE",
        "placeName": "LONDON",
        "streetNameDisplayText": "HIGHVIEW AVE W, LONDON"
      }
    ]
  },
  {
    "postal": "N6J6A6",
    "result": []
  },
  {
    "postal": "N6J0S3",
    "result": []
  },
  {
    "postal": "N6J3E7",
    "result": [
      {
        "electoralDistricts": [
          {
            "election": null,
            "id": 55,
            "name": "London West"
          }
        ],
        "pollDivisionIds": [
          10139645
        ],
        "postalCode": "N6J3E7",
        "streetName": "JASON",
        "streetDirectionId": null,
        "streetTypeId": "CRES",
        "placeName": "LONDON",
        "streetNameDisplayText": "JASON CRES, LONDON"
      }
    ]
  },
  {
    "postal": "N6J5R7",
    "result": []
  },
  {
    "postal": "N6J3R6",
    "result": [
      {
        "electoralDistricts": [
          {
            "election": null,
            "id": 55,
            "name": "London West"
          }
        ],
        "pollDivisionIds": [
          10139620
        ],
        "postalCode": "N6J3R6",
        "streetName": "BERKSHIRE",
        "streetDirectionId": null,
        "streetTypeId": "DR",
        "placeName": "LONDON",
        "streetNameDisplayText": "BERKSHIRE DR, LONDON"
      }
    ]
  },
  {
    "postal": "N6J6K4",
    "result": []
  },
  {
    "postal": "N6J2W5",
    "result": [
      {
        "electoralDistricts": [
          {
            "election": null,
            "id": 55,
            "name": "London West"
          }
        ],
        "pollDivisionIds": [
          10139623
        ],
        "postalCode": "N6J2W5",
        "streetName": "BROOKDALE",
        "streetDirectionId": null,
        "streetTypeId": "AVE",
        "placeName": "LONDON",
        "streetNameDisplayText": "BROOKDALE AVE, LONDON"
      }
    ]
  },
  {
    "postal": "N6J8W4",
    "result": []
  },
  {
    "postal": "N6J9C2",
    "result": []
  },
  {
    "postal": "N6J2C0",
    "result": []
  },
  {
    "postal": "N6J0E1",
    "result": []
  },
  {
    "postal": "N6J1K9",
    "result": [
      {
        "electoralDistricts": [
          {
            "election": null,
            "id": 55,
            "name": "London West"
          }
        ],
        "pollDivisionIds": [
          10139623
        ],
        "postalCode": "N6J1K9",
        "streetName": "TECUMSEH",
        "streetDirectionId": "W",
        "streetTypeId": "AVE",
        "placeName": "LONDON",
        "streetNameDisplayText": "TECUMSEH AVE W, LONDON"
      }
    ]
  },
  {
    "postal": "N6J1G7",
    "result": [
      {
        "electoralDistricts": [
          {
            "election": null,
            "id": 55,
            "name": "London West"
          }
        ],
        "pollDivisionIds": [
          10139620
        ],
        "postalCode": "N6J1G7",
        "streetName": "SPRINGBANK",
        "streetDirectionId": null,
        "streetTypeId": "DR",
        "placeName": "LONDON",
        "streetNameDisplayText": "SPRINGBANK DR, LONDON"
      }
    ]
  },
  {
    "postal": "N6J4E9",
    "result": [
      {
        "electoralDistricts": [
          {
            "election": null,
            "id": 55,
            "name": "London West"
          }
        ],
        "pollDivisionIds": [
          10139631
        ],
        "postalCode": "N6J4E9",
        "streetName": "EMERY",
        "streetDirectionId": "W",
        "streetTypeId": "ST",
        "placeName": "LONDON",
        "streetNameDisplayText": "EMERY ST W, LONDON"
      }
    ]
  },
  {
    "postal": "N6J9P0",
    "result": []
  },
  {
    "postal": "N6J5H3",
    "result": []
  },
  {
    "postal": "N6J9X6",
    "result": []
  },
  {
    "postal": "N6J5N7",
    "result": []
  },
  {
    "postal": "N6J5A6",
    "result": []
  },
  {
    "postal": "N6J4M0",
    "result": []
  },
  {
    "postal": "N6J3V6",
    "result": [
      {
        "electoralDistricts": [
          {
            "election": null,
            "id": 55,
            "name": "London West"
          }
        ],
        "pollDivisionIds": [
          10139629,
          66812
        ],
        "postalCode": "N6J3V6",
        "streetName": "BERKSHIRE",
        "streetDirectionId": null,
        "streetTypeId": "DR",
        "placeName": "LONDON",
        "streetNameDisplayText": "BERKSHIRE DR, LONDON"
      }
    ]
  },
  {
    "postal": "N6J1L7",
    "result": [
      {
        "electoralDistricts": [
          {
            "election": null,
            "id": 55,
            "name": "London West"
          }
        ],
        "pollDivisionIds": [
          10139631
        ],
        "postalCode": "N6J1L7",
        "streetName": "BRISCOE",
        "streetDirectionId": "W",
        "streetTypeId": "ST",
        "placeName": "LONDON",
        "streetNameDisplayText": "BRISCOE ST W, LONDON"
      }
    ]
  },
  {
    "postal": "N6J2P9",
    "result": [
      {
        "electoralDistricts": [
          {
            "election": null,
            "id": 55,
            "name": "London West"
          }
        ],
        "pollDivisionIds": [
          10139631
        ],
        "postalCode": "N6J2P9",
        "streetName": "HOLBORN",
        "streetDirectionId": null,
        "streetTypeId": "AVE",
        "placeName": "LONDON",
        "streetNameDisplayText": "HOLBORN AVE, LONDON"
      }
    ]
  },
  {
    "postal": "N6J5T4",
    "result": []
  },
  {
    "postal": "N6J5Z1",
    "result": []
  },
  {
    "postal": "N6J2X0",
    "result": []
  },
  {
    "postal": "N6J6Z2",
    "result": []
  },
  {
    "postal": "N6J0E0",
    "result": []
  },
  {
    "postal": "N6J3Z5",
    "result": [
      {
        "electoralDistricts": [
          {
            "election": null,
            "id": 55,
            "name": "London West"
          }
        ],
        "pollDivisionIds": [
          10139644
        ],
        "postalCode": "N6J3Z5",
        "streetName": "VILLAGE GREEN",
        "streetDirectionId": null,
        "streetTypeId": "AVE",
        "placeName": "LONDON",
        "streetNameDisplayText": "VILLAGE GREEN AVE, LONDON"
      }
    ]
  },
  {
    "postal": "N6J8H3",
    "result": []
  },
  {
    "postal": "N6J7S6",
    "result": []
  },
  {
    "postal": "N6J4C1",
    "result": [
      {
        "electoralDistricts": [
          {
            "election": null,
            "id": 55,
            "name": "London West"
          }
        ],
        "pollDivisionIds": [
          10139645
        ],
        "postalCode": "N6J4C1",
        "streetName": "WIDMORE",
        "streetDirectionId": null,
        "streetTypeId": "DR",
        "placeName": "LONDON",
        "streetNameDisplayText": "WIDMORE DR, LONDON"
      }
    ]
  },
  {
    "postal": "N6J3K2",
    "result": [
      {
        "electoralDistricts": [
          {
            "election": null,
            "id": 55,
            "name": "London West"
          }
        ],
        "pollDivisionIds": [
          10139630
        ],
        "postalCode": "N6J3K2",
        "streetName": "BEACHWOOD",
        "streetDirectionId": null,
        "streetTypeId": "AVE",
        "placeName": "LONDON",
        "streetNameDisplayText": "BEACHWOOD AVE, LONDON"
      }
    ]
  },
  {
    "postal": "N6J1Y5",
    "result": [
      {
        "electoralDistricts": [
          {
            "election": null,
            "id": 55,
            "name": "London West"
          }
        ],
        "pollDivisionIds": [
          10139629
        ],
        "postalCode": "N6J1Y5",
        "streetName": "COMMISSIONERS",
        "streetDirectionId": "W",
        "streetTypeId": "RD",
        "placeName": "LONDON",
        "streetNameDisplayText": "COMMISSIONERS RD W, LONDON"
      }
    ]
  },
  {
    "postal": "N6J6P6",
    "result": []
  },
  {
    "postal": "N6J3N9",
    "result": [
      {
        "electoralDistricts": [
          {
            "election": null,
            "id": 55,
            "name": "London West"
          }
        ],
        "pollDivisionIds": [
          10139644
        ],
        "postalCode": "N6J3N9",
        "streetName": "STEEPLECHASE",
        "streetDirectionId": null,
        "streetTypeId": "DR",
        "placeName": "LONDON",
        "streetNameDisplayText": "STEEPLECHASE DR, LONDON"
      }
    ]
  },
  {
    "postal": "N6J3W2",
    "result": [
      {
        "electoralDistricts": [
          {
            "election": null,
            "id": 55,
            "name": "London West"
          }
        ],
        "pollDivisionIds": [
          10139621
        ],
        "postalCode": "N6J3W2",
        "streetName": "BERKSHIRE",
        "streetDirectionId": null,
        "streetTypeId": "DR",
        "placeName": "LONDON",
        "streetNameDisplayText": "BERKSHIRE DR, LONDON"
      }
    ]
  },
  {
    "postal": "N6J6H8",
    "result": []
  },
  {
    "postal": "N6J9T3",
    "result": []
  },
  {
    "postal": "N6J5L9",
    "result": []
  },
  {
    "postal": "N6J7X7",
    "result": []
  },
  {
    "postal": "N6J3J5",
    "result": [
      {
        "electoralDistricts": [
          {
            "election": null,
            "id": 55,
            "name": "London West"
          }
        ],
        "pollDivisionIds": [
          10139620
        ],
        "postalCode": "N6J3J5",
        "streetName": "CHELSEA",
        "streetDirectionId": null,
        "streetTypeId": "AVE",
        "placeName": "LONDON",
        "streetNameDisplayText": "CHELSEA AVE, LONDON"
      }
    ]
  },
  {
    "postal": "N6J4J5",
    "result": []
  },
  {
    "postal": "N6J6J2",
    "result": []
  },
  {
    "postal": "N6J5V6",
    "result": []
  },
  {
    "postal": "N6J3N2",
    "result": [
      {
        "electoralDistricts": [
          {
            "election": null,
            "id": 55,
            "name": "London West"
          }
        ],
        "pollDivisionIds": [
          10139629
        ],
        "postalCode": "N6J3N2",
        "streetName": "WESTMORLAND",
        "streetDirectionId": null,
        "streetTypeId": "RD",
        "placeName": "LONDON",
        "streetNameDisplayText": "WESTMORLAND RD, LONDON"
      }
    ]
  },
  {
    "postal": "N6J3B1",
    "result": [
      {
        "electoralDistricts": [
          {
            "election": null,
            "id": 55,
            "name": "London West"
          }
        ],
        "pollDivisionIds": [
          10139645
        ],
        "postalCode": "N6J3B1",
        "streetName": "NOVELLO",
        "streetDirectionId": null,
        "streetTypeId": "CRT",
        "placeName": "LONDON",
        "streetNameDisplayText": "NOVELLO CRT, LONDON"
      }
    ]
  },
  {
    "postal": "N6J8B5",
    "result": []
  },
  {
    "postal": "N6J0K1",
    "result": []
  },
  {
    "postal": "N6J7M7",
    "result": []
  },
  {
    "postal": "N6J2M2",
    "result": [
      {
        "electoralDistricts": [
          {
            "election": null,
            "id": 55,
            "name": "London West"
          }
        ],
        "pollDivisionIds": [
          10139631
        ],
        "postalCode": "N6J2M2",
        "streetName": "WHARNCLIFFE",
        "streetDirectionId": "S",
        "streetTypeId": "RD",
        "placeName": "LONDON",
        "streetNameDisplayText": "WHARNCLIFFE RD S, LONDON"
      }
    ]
  },
  {
    "postal": "N6J9N3",
    "result": []
  },
  {
    "postal": "N6J4Y8",
    "result": [
      {
        "electoralDistricts": [
          {
            "election": null,
            "id": 53,
            "name": "LondonFanshawe"
          }
        ],
        "pollDivisionIds": [
          10139587
        ],
        "postalCode": "N6J4Y8",
        "streetName": "SOUTHDALE",
        "streetDirectionId": "E",
        "streetTypeId": "RD",
        "placeName": "LONDON",
        "streetNameDisplayText": "SOUTHDALE RD E, LONDON"
      },
      {
        "electoralDistricts": [
          {
            "election": null,
            "id": 26,
            "name": "ElginMiddlesexLondon"
          }
        ],
        "pollDivisionIds": [
          10137957,
          10143309
        ],
        "postalCode": "N6J4Y8",
        "streetName": "SOUTHDALE",
        "streetDirectionId": "W",
        "streetTypeId": "RD",
        "placeName": "LONDON",
        "streetNameDisplayText": "SOUTHDALE RD W, LONDON"
      },
      {
        "electoralDistricts": [
          {
            "election": null,
            "id": 26,
            "name": "ElginMiddlesexLondon"
          }
        ],
        "pollDivisionIds": [
          10143309
        ],
        "postalCode": "N6J4Y8",
        "streetName": "SOUTHDALE ROAD WEST",
        "streetDirectionId": "W",
        "streetTypeId": "RD",
        "placeName": "LONDON",
        "streetNameDisplayText": "SOUTHDALE ROAD WEST RD W, LONDON"
      }
    ]
  },
  {
    "postal": "N6J3V7",
    "result": [
      {
        "electoralDistricts": [
          {
            "election": null,
            "id": 55,
            "name": "London West"
          }
        ],
        "pollDivisionIds": [
          10139647
        ],
        "postalCode": "N6J3V7",
        "streetName": "ST CLAIR",
        "streetDirectionId": null,
        "streetTypeId": "CRES",
        "placeName": "LONDON",
        "streetNameDisplayText": "ST CLAIR CRES, LONDON"
      }
    ]
  },
  {
    "postal": "N6J8Z1",
    "result": []
  },
  {
    "postal": "N6J7B3",
    "result": []
  },
  {
    "postal": "N6J3A8",
    "result": [
      {
        "electoralDistricts": [
          {
            "election": null,
            "id": 55,
            "name": "London West"
          }
        ],
        "pollDivisionIds": [
          10139645
        ],
        "postalCode": "N6J3A8",
        "streetName": "WIDMORE",
        "streetDirectionId": null,
        "streetTypeId": "DR",
        "placeName": "LONDON",
        "streetNameDisplayText": "WIDMORE DR, LONDON"
      }
    ]
  },
  {
    "postal": "N6J7V5",
    "result": []
  },
  {
    "postal": "N6J2T2",
    "result": [
      {
        "electoralDistricts": [
          {
            "election": null,
            "id": 55,
            "name": "London West"
          }
        ],
        "pollDivisionIds": [
          10139623
        ],
        "postalCode": "N6J2T2",
        "streetName": "CAWRSE",
        "streetDirectionId": null,
        "streetTypeId": "ST",
        "placeName": "LONDON",
        "streetNameDisplayText": "CAWRSE ST, LONDON"
      }
    ]
  },
  {
    "postal": "N6J6L3",
    "result": []
  },
  {
    "postal": "N6J0L2",
    "result": []
  },
  {
    "postal": "N6J5Y8",
    "result": []
  },
  {
    "postal": "N6J0B8",
    "result": []
  },
  {
    "postal": "N6J6R5",
    "result": []
  },
  {
    "postal": "N6J8W6",
    "result": []
  },
  {
    "postal": "N6J8G6",
    "result": []
  },
  {
    "postal": "N6J6X3",
    "result": []
  },
  {
    "postal": "N6J7R7",
    "result": []
  },
  {
    "postal": "N6J4B6",
    "result": [
      {
        "electoralDistricts": [
          {
            "election": null,
            "id": 55,
            "name": "London West"
          }
        ],
        "pollDivisionIds": [
          10139644
        ],
        "postalCode": "N6J4B6",
        "streetName": "FOUR OAKS",
        "streetDirectionId": null,
        "streetTypeId": "CRES",
        "placeName": "LONDON",
        "streetNameDisplayText": "FOUR OAKS CRES, LONDON"
      }
    ]
  },
  {
    "postal": "N6J3P9",
    "result": [
      {
        "electoralDistricts": [
          {
            "election": null,
            "id": 55,
            "name": "London West"
          }
        ],
        "pollDivisionIds": [
          10139620
        ],
        "postalCode": "N6J3P9",
        "streetName": "APPLEWOOD",
        "streetDirectionId": null,
        "streetTypeId": "LANE",
        "placeName": "LONDON",
        "streetNameDisplayText": "APPLEWOOD LANE, LONDON"
      }
    ]
  },
  {
    "postal": "N6J2T3",
    "result": [
      {
        "electoralDistricts": [
          {
            "election": null,
            "id": 55,
            "name": "London West"
          }
        ],
        "pollDivisionIds": [
          10139623
        ],
        "postalCode": "N6J2T3",
        "streetName": "MCALPINE",
        "streetDirectionId": null,
        "streetTypeId": "AVE",
        "placeName": "LONDON",
        "streetNameDisplayText": "MCALPINE AVE, LONDON"
      }
    ]
  },
  {
    "postal": "N6J1M4",
    "result": [
      {
        "electoralDistricts": [
          {
            "election": null,
            "id": 55,
            "name": "London West"
          }
        ],
        "pollDivisionIds": [
          10139631
        ],
        "postalCode": "N6J1M4",
        "streetName": "BRISCOE",
        "streetDirectionId": "W",
        "streetTypeId": "ST",
        "placeName": "LONDON",
        "streetNameDisplayText": "BRISCOE ST W, LONDON"
      }
    ]
  },
  {
    "postal": "N6J0H1",
    "result": []
  },
  {
    "postal": "N6J9W3",
    "result": []
  },
  {
    "postal": "N6J6P1",
    "result": []
  },
  {
    "postal": "N6J7G2",
    "result": []
  },
  {
    "postal": "N6J4J9",
    "result": [
      {
        "electoralDistricts": [
          {
            "election": null,
            "id": 55,
            "name": "London West"
          }
        ],
        "pollDivisionIds": [
          10139629
        ],
        "postalCode": "N6J4J9",
        "streetName": "EATON PARK",
        "streetDirectionId": null,
        "streetTypeId": "DR",
        "placeName": "LONDON",
        "streetNameDisplayText": "EATON PARK DR, LONDON"
      }
    ]
  },
  {
    "postal": "N6J9E4",
    "result": []
  },
  {
    "postal": "N6J8H0",
    "result": []
  },
  {
    "postal": "N6J4M7",
    "result": [
      {
        "electoralDistricts": [
          {
            "election": null,
            "id": 55,
            "name": "London West"
          }
        ],
        "pollDivisionIds": [
          10139639
        ],
        "postalCode": "N6J4M7",
        "streetName": "MOUNTAINVIEW",
        "streetDirectionId": null,
        "streetTypeId": "CRES",
        "placeName": "LONDON",
        "streetNameDisplayText": "MOUNTAINVIEW CRES, LONDON"
      }
    ]
  },
  {
    "postal": "N6J2G9",
    "result": [
      {
        "electoralDistricts": [
          {
            "election": null,
            "id": 55,
            "name": "London West"
          }
        ],
        "pollDivisionIds": [
          10139647
        ],
        "postalCode": "N6J2G9",
        "streetName": "ESTELLA",
        "streetDirectionId": null,
        "streetTypeId": "RD",
        "placeName": "LONDON",
        "streetNameDisplayText": "ESTELLA RD, LONDON"
      }
    ]
  },
  {
    "postal": "N6J8T2",
    "result": []
  },
  {
    "postal": "N6J7G7",
    "result": []
  },
  {
    "postal": "N6J4Z3",
    "result": []
  },
  {
    "postal": "N6J5B3",
    "result": []
  },
  {
    "postal": "N6J1S7",
    "result": [
      {
        "electoralDistricts": [
          {
            "election": null,
            "id": 55,
            "name": "London West"
          }
        ],
        "pollDivisionIds": [
          10139631,
          10139629
        ],
        "postalCode": "N6J1S7",
        "streetName": "ROBIN",
        "streetDirectionId": null,
        "streetTypeId": "RD",
        "placeName": "LONDON",
        "streetNameDisplayText": "ROBIN RD, LONDON"
      }
    ]
  },
  {
    "postal": "N6J2N7",
    "result": [
      {
        "electoralDistricts": [
          {
            "election": null,
            "id": 55,
            "name": "London West"
          }
        ],
        "pollDivisionIds": [
          10139648
        ],
        "postalCode": "N6J2N7",
        "streetName": "WHARNCLIFFE",
        "streetDirectionId": "S",
        "streetTypeId": "RD",
        "placeName": "LONDON",
        "streetNameDisplayText": "WHARNCLIFFE RD S, LONDON"
      }
    ]
  },
  {
    "postal": "N6J0H8",
    "result": []
  },
  {
    "postal": "N6J7Z4",
    "result": []
  },
  {
    "postal": "N6J7B1",
    "result": []
  },
  {
    "postal": "N6J7P8",
    "result": []
  },
  {
    "postal": "N6J7N0",
    "result": []
  },
  {
    "postal": "N6J3Y5",
    "result": [
      {
        "electoralDistricts": [
          {
            "election": null,
            "id": 55,
            "name": "London West"
          }
        ],
        "pollDivisionIds": [
          10139644
        ],
        "postalCode": "N6J3Y5",
        "streetName": "GUILDFORD",
        "streetDirectionId": null,
        "streetTypeId": "CRES",
        "placeName": "LONDON",
        "streetNameDisplayText": "GUILDFORD CRES, LONDON"
      }
    ]
  },
  {
    "postal": "N6J6K1",
    "result": []
  },
  {
    "postal": "N6J9X5",
    "result": []
  },
  {
    "postal": "N6J7S5",
    "result": []
  },
  {
    "postal": "N6J0A4",
    "result": [
      {
        "electoralDistricts": [
          {
            "election": null,
            "id": 55,
            "name": "London West"
          }
        ],
        "pollDivisionIds": [
          10139651
        ],
        "postalCode": "N6J0A4",
        "streetName": "WHARNCLIFFE",
        "streetDirectionId": "S",
        "streetTypeId": "RD",
        "placeName": "LONDON",
        "streetNameDisplayText": "WHARNCLIFFE RD S, LONDON"
      }
    ]
  },
  {
    "postal": "N6J4T5",
    "result": [
      {
        "electoralDistricts": [
          {
            "election": null,
            "id": 55,
            "name": "London West"
          }
        ],
        "pollDivisionIds": [
          10139639
        ],
        "postalCode": "N6J4T5",
        "streetName": "MOCKINGBIRD",
        "streetDirectionId": null,
        "streetTypeId": "CRES",
        "placeName": "LONDON",
        "streetNameDisplayText": "MOCKINGBIRD CRES, LONDON"
      }
    ]
  },
  {
    "postal": "N6J5K1",
    "result": []
  },
  {
    "postal": "N6J0Z9",
    "result": []
  },
  {
    "postal": "N6J7T2",
    "result": []
  },
  {
    "postal": "N6J1L5",
    "result": [
      {
        "electoralDistricts": [
          {
            "election": null,
            "id": 55,
            "name": "London West"
          }
        ],
        "pollDivisionIds": [
          10139623
        ],
        "postalCode": "N6J1L5",
        "streetName": "FORBES",
        "streetDirectionId": null,
        "streetTypeId": "ST",
        "placeName": "LONDON",
        "streetNameDisplayText": "FORBES ST, LONDON"
      }
    ]
  },
  {
    "postal": "N6J3N5",
    "result": [
      {
        "electoralDistricts": [
          {
            "election": null,
            "id": 55,
            "name": "London West"
          }
        ],
        "pollDivisionIds": [
          10139629
        ],
        "postalCode": "N6J3N5",
        "streetName": "WESTMORLAND",
        "streetDirectionId": null,
        "streetTypeId": "RD",
        "placeName": "LONDON",
        "streetNameDisplayText": "WESTMORLAND RD, LONDON"
      }
    ]
  },
  {
    "postal": "N6J6H4",
    "result": []
  },
  {
    "postal": "N6J5A5",
    "result": []
  },
  {
    "postal": "N6J3R9",
    "result": [
      {
        "electoralDistricts": [
          {
            "election": null,
            "id": 55,
            "name": "London West"
          }
        ],
        "pollDivisionIds": [
          10139620
        ],
        "postalCode": "N6J3R9",
        "streetName": "BERKSHIRE",
        "streetDirectionId": null,
        "streetTypeId": "DR",
        "placeName": "LONDON",
        "streetNameDisplayText": "BERKSHIRE DR, LONDON"
      }
    ]
  },
  {
    "postal": "N6J7L8",
    "result": []
  },
  {
    "postal": "N6J6T6",
    "result": []
  },
  {
    "postal": "N6J7Y7",
    "result": []
  },
  {
    "postal": "N6J3M8",
    "result": [
      {
        "electoralDistricts": [
          {
            "election": null,
            "id": 55,
            "name": "London West"
          }
        ],
        "pollDivisionIds": [
          10139629
        ],
        "postalCode": "N6J3M8",
        "streetName": "TOPPING",
        "streetDirectionId": null,
        "streetTypeId": "LANE",
        "placeName": "LONDON",
        "streetNameDisplayText": "TOPPING LANE, LONDON"
      }
    ]
  },
  {
    "postal": "N6J2E0",
    "result": []
  },
  {
    "postal": "N6J4B5",
    "result": [
      {
        "electoralDistricts": [
          {
            "election": null,
            "id": 55,
            "name": "London West"
          }
        ],
        "pollDivisionIds": [
          10139645
        ],
        "postalCode": "N6J4B5",
        "streetName": "BLACKTHORNE",
        "streetDirectionId": null,
        "streetTypeId": "CRES",
        "placeName": "LONDON",
        "streetNameDisplayText": "BLACKTHORNE CRES, LONDON"
      }
    ]
  },
  {
    "postal": "N6J1J3",
    "result": [
      {
        "electoralDistricts": [
          {
            "election": null,
            "id": 55,
            "name": "London West"
          }
        ],
        "pollDivisionIds": [
          10139623
        ],
        "postalCode": "N6J1J3",
        "streetName": "ELMWOOD",
        "streetDirectionId": null,
        "streetTypeId": "PL",
        "placeName": "LONDON",
        "streetNameDisplayText": "ELMWOOD PL, LONDON"
      }
    ]
  },
  {
    "postal": "N6J5S6",
    "result": []
  },
  {
    "postal": "N6J8P7",
    "result": []
  },
  {
    "postal": "N6J7S7",
    "result": []
  },
  {
    "postal": "N6J4C2",
    "result": [
      {
        "electoralDistricts": [
          {
            "election": null,
            "id": 55,
            "name": "London West"
          }
        ],
        "pollDivisionIds": [
          10139645
        ],
        "postalCode": "N6J4C2",
        "streetName": "ANDOVER",
        "streetDirectionId": null,
        "streetTypeId": "DR",
        "placeName": "LONDON",
        "streetNameDisplayText": "ANDOVER DR, LONDON"
      }
    ]
  },
  {
    "postal": "N6J5Y0",
    "result": []
  },
  {
    "postal": "N6J2V7",
    "result": [
      {
        "electoralDistricts": [
          {
            "election": null,
            "id": 55,
            "name": "London West"
          }
        ],
        "pollDivisionIds": [
          10139648
        ],
        "postalCode": "N6J2V7",
        "streetName": "GORDON",
        "streetDirectionId": null,
        "streetTypeId": "AVE",
        "placeName": "LONDON",
        "streetNameDisplayText": "GORDON AVE, LONDON"
      }
    ]
  },
  {
    "postal": "N6J8P5",
    "result": []
  },
  {
    "postal": "N6J5P5",
    "result": []
  },
  {
    "postal": "N6J5Z0",
    "result": []
  },
  {
    "postal": "N6J9B0",
    "result": []
  },
  {
    "postal": "N6J1L0",
    "result": []
  },
  {
    "postal": "N6J0B5",
    "result": []
  },
  {
    "postal": "N6J3L2",
    "result": [
      {
        "electoralDistricts": [
          {
            "election": null,
            "id": 55,
            "name": "London West"
          }
        ],
        "pollDivisionIds": [
          10139620
        ],
        "postalCode": "N6J3L2",
        "streetName": "PINEWOOD",
        "streetDirectionId": null,
        "streetTypeId": "DR",
        "placeName": "LONDON",
        "streetNameDisplayText": "PINEWOOD DR, LONDON"
      }
    ]
  },
  {
    "postal": "N6J3B7",
    "result": [
      {
        "electoralDistricts": [
          {
            "election": null,
            "id": 55,
            "name": "London West"
          }
        ],
        "pollDivisionIds": [
          10139639
        ],
        "postalCode": "N6J3B7",
        "streetName": "NOTRE DAME",
        "streetDirectionId": null,
        "streetTypeId": "DR",
        "placeName": "LONDON",
        "streetNameDisplayText": "NOTRE DAME DR, LONDON"
      }
    ]
  },
  {
    "postal": "N6J8L1",
    "result": []
  },
  {
    "postal": "N6J5M4",
    "result": []
  },
  {
    "postal": "N6J4G9",
    "result": [
      {
        "electoralDistricts": [
          {
            "election": null,
            "id": 55,
            "name": "London West"
          }
        ],
        "pollDivisionIds": [
          10139639
        ],
        "postalCode": "N6J4G9",
        "streetName": "VISCOUNT",
        "streetDirectionId": null,
        "streetTypeId": "RD",
        "placeName": "LONDON",
        "streetNameDisplayText": "VISCOUNT RD, LONDON"
      }
    ]
  },
  {
    "postal": "N6J0P0",
    "result": []
  },
  {
    "postal": "N6J8G2",
    "result": []
  },
  {
    "postal": "N6J1V9",
    "result": [
      {
        "electoralDistricts": [
          {
            "election": null,
            "id": 55,
            "name": "London West"
          }
        ],
        "pollDivisionIds": [
          10139631
        ],
        "postalCode": "N6J1V9",
        "streetName": "BASE LINE",
        "streetDirectionId": "W",
        "streetTypeId": "RD",
        "placeName": "LONDON",
        "streetNameDisplayText": "BASE LINE RD W, LONDON"
      }
    ]
  },
  {
    "postal": "N6J8N8",
    "result": []
  },
  {
    "postal": "N6J6S8",
    "result": []
  },
  {
    "postal": "N6J8H2",
    "result": []
  },
  {
    "postal": "N6J5R8",
    "result": []
  },
  {
    "postal": "N6J5L4",
    "result": []
  },
  {
    "postal": "N6J9E1",
    "result": []
  },
  {
    "postal": "N6J1C4",
    "result": [
      {
        "electoralDistricts": [
          {
            "election": null,
            "id": 55,
            "name": "London West"
          }
        ],
        "pollDivisionIds": [
          10139620
        ],
        "postalCode": "N6J1C4",
        "streetName": "MALCOLM",
        "streetDirectionId": null,
        "streetTypeId": "ST",
        "placeName": "LONDON",
        "streetNameDisplayText": "MALCOLM ST, LONDON"
      }
    ]
  },
  {
    "postal": "N6J8W5",
    "result": []
  },
  {
    "postal": "N6J1Y4",
    "result": [
      {
        "electoralDistricts": [
          {
            "election": null,
            "id": 55,
            "name": "London West"
          }
        ],
        "pollDivisionIds": [
          10139630
        ],
        "postalCode": "N6J1Y4",
        "streetName": "COMMISSIONERS",
        "streetDirectionId": "W",
        "streetTypeId": "RD",
        "placeName": "LONDON",
        "streetNameDisplayText": "COMMISSIONERS RD W, LONDON"
      }
    ]
  },
  {
    "postal": "N6J1C0",
    "result": []
  },
  {
    "postal": "N6J2J2",
    "result": [
      {
        "electoralDistricts": [
          {
            "election": null,
            "id": 26,
            "name": "ElginMiddlesexLondon"
          }
        ],
        "pollDivisionIds": [
          10143310
        ],
        "postalCode": "N6J2J2",
        "streetName": "SOUTHDALE",
        "streetDirectionId": "W",
        "streetTypeId": "RD",
        "placeName": "LONDON",
        "streetNameDisplayText": "SOUTHDALE RD W, LONDON"
      }
    ]
  },
  {
    "postal": "N6J2J0",
    "result": []
  },
  {
    "postal": "N6J7A3",
    "result": []
  },
  {
    "postal": "N6J8M1",
    "result": []
  },
  {
    "postal": "N6J7T9",
    "result": []
  },
  {
    "postal": "N6J6C0",
    "result": []
  },
  {
    "postal": "N6J7X1",
    "result": []
  },
  {
    "postal": "N6J0G1",
    "result": []
  },
  {
    "postal": "N6J4X2",
    "result": [
      {
        "electoralDistricts": [
          {
            "election": null,
            "id": 55,
            "name": "London West"
          }
        ],
        "pollDivisionIds": [
          10139646
        ],
        "postalCode": "N6J4X2",
        "streetName": "BASE LINE",
        "streetDirectionId": "W",
        "streetTypeId": "RD",
        "placeName": "LONDON",
        "streetNameDisplayText": "BASE LINE RD W, LONDON"
      },
      {
        "electoralDistricts": [
          {
            "election": null,
            "id": 55,
            "name": "London West"
          }
        ],
        "pollDivisionIds": [
          10139632,
          10139646
        ],
        "postalCode": "N6J4X2",
        "streetName": "BASELINE",
        "streetDirectionId": "W",
        "streetTypeId": "RD",
        "placeName": "LONDON",
        "streetNameDisplayText": "BASELINE RD W, LONDON"
      }
    ]
  },
  {
    "postal": "N6J0N6",
    "result": []
  },
  {
    "postal": "N6J8E3",
    "result": []
  },
  {
    "postal": "N6J5S8",
    "result": []
  },
  {
    "postal": "N6J0R0",
    "result": []
  },
  {
    "postal": "N6J6J6",
    "result": []
  },
  {
    "postal": "N6J4B4",
    "result": [
      {
        "electoralDistricts": [
          {
            "election": null,
            "id": 55,
            "name": "London West"
          }
        ],
        "pollDivisionIds": [
          10139645
        ],
        "postalCode": "N6J4B4",
        "streetName": "BLACKTHORNE",
        "streetDirectionId": null,
        "streetTypeId": "CRES",
        "placeName": "LONDON",
        "streetNameDisplayText": "BLACKTHORNE CRES, LONDON"
      }
    ]
  },
  {
    "postal": "N6J7E3",
    "result": []
  },
  {
    "postal": "N6J3N6",
    "result": [
      {
        "electoralDistricts": [
          {
            "election": null,
            "id": 55,
            "name": "London West"
          }
        ],
        "pollDivisionIds": [
          10139621,
          10139620
        ],
        "postalCode": "N6J3N6",
        "streetName": "BERKSHIRE",
        "streetDirectionId": null,
        "streetTypeId": "PL",
        "placeName": "LONDON",
        "streetNameDisplayText": "BERKSHIRE PL, LONDON"
      }
    ]
  },
  {
    "postal": "N6J3X6",
    "result": [
      {
        "electoralDistricts": [
          {
            "election": null,
            "id": 55,
            "name": "London West"
          }
        ],
        "pollDivisionIds": [
          10139644
        ],
        "postalCode": "N6J3X6",
        "streetName": "GREENBRIER",
        "streetDirectionId": null,
        "streetTypeId": "CRES",
        "placeName": "LONDON",
        "streetNameDisplayText": "GREENBRIER CRES, LONDON"
      }
    ]
  },
  {
    "postal": "N6J8L0",
    "result": []
  },
  {
    "postal": "N6J8N1",
    "result": []
  },
  {
    "postal": "N6J4J0",
    "result": []
  },
  {
    "postal": "N6J0X7",
    "result": []
  },
  {
    "postal": "N6J6S4",
    "result": []
  },
  {
    "postal": "N6J0Z0",
    "result": []
  },
  {
    "postal": "N6J9X8",
    "result": []
  },
  {
    "postal": "N6J3H3",
    "result": [
      {
        "electoralDistricts": [
          {
            "election": null,
            "id": 55,
            "name": "London West"
          }
        ],
        "pollDivisionIds": [
          10139622
        ],
        "postalCode": "N6J3H3",
        "streetName": "RIDGEWOOD",
        "streetDirectionId": null,
        "streetTypeId": "CRES",
        "placeName": "LONDON",
        "streetNameDisplayText": "RIDGEWOOD CRES, LONDON"
      }
    ]
  },
  {
    "postal": "N6J7S2",
    "result": []
  },
  {
    "postal": "N6J3T3",
    "result": [
      {
        "electoralDistricts": [
          {
            "election": null,
            "id": 55,
            "name": "London West"
          }
        ],
        "pollDivisionIds": [
          10139645
        ],
        "postalCode": "N6J3T3",
        "streetName": "VISCOUNT",
        "streetDirectionId": null,
        "streetTypeId": "RD",
        "placeName": "LONDON",
        "streetNameDisplayText": "VISCOUNT RD, LONDON"
      }
    ]
  },
  {
    "postal": "N6J9P3",
    "result": []
  },
  {
    "postal": "N6J4H8",
    "result": []
  },
  {
    "postal": "N6J6R1",
    "result": []
  },
  {
    "postal": "N6J1S0",
    "result": []
  },
  {
    "postal": "N6J3W8",
    "result": [
      {
        "electoralDistricts": [
          {
            "election": null,
            "id": 55,
            "name": "London West"
          }
        ],
        "pollDivisionIds": [
          10139645
        ],
        "postalCode": "N6J3W8",
        "streetName": "ANDOVER",
        "streetDirectionId": null,
        "streetTypeId": "DR",
        "placeName": "LONDON",
        "streetNameDisplayText": "ANDOVER DR, LONDON"
      }
    ]
  },
  {
    "postal": "N6J4S3",
    "result": [
      {
        "electoralDistricts": [
          {
            "election": null,
            "id": 55,
            "name": "London West"
          }
        ],
        "pollDivisionIds": [
          10139639
        ],
        "postalCode": "N6J4S3",
        "streetName": "KANATA",
        "streetDirectionId": null,
        "streetTypeId": "CRES",
        "placeName": "LONDON",
        "streetNameDisplayText": "KANATA CRES, LONDON"
      }
    ]
  },
  {
    "postal": "N6J1B6",
    "result": [
      {
        "electoralDistricts": [
          {
            "election": null,
            "id": 55,
            "name": "London West"
          }
        ],
        "pollDivisionIds": [
          10139620
        ],
        "postalCode": "N6J1B6",
        "streetName": "SEAWOOD",
        "streetDirectionId": null,
        "streetTypeId": "AVE",
        "placeName": "LONDON",
        "streetNameDisplayText": "SEAWOOD AVE, LONDON"
      }
    ]
  },
  {
    "postal": "N6J8R3",
    "result": []
  },
  {
    "postal": "N6J4V9",
    "result": []
  },
  {
    "postal": "N6J9W4",
    "result": []
  },
  {
    "postal": "N6J3T4",
    "result": [
      {
        "electoralDistricts": [
          {
            "election": null,
            "id": 55,
            "name": "London West"
          }
        ],
        "pollDivisionIds": [
          10139648,
          10139646
        ],
        "postalCode": "N6J3T4",
        "streetName": "BELMONT",
        "streetDirectionId": null,
        "streetTypeId": "DR",
        "placeName": "LONDON",
        "streetNameDisplayText": "BELMONT DR, LONDON"
      }
    ]
  },
  {
    "postal": "N6J5C7",
    "result": []
  },
  {
    "postal": "N6J3Y1",
    "result": [
      {
        "electoralDistricts": [
          {
            "election": null,
            "id": 55,
            "name": "London West"
          }
        ],
        "pollDivisionIds": [
          10139644
        ],
        "postalCode": "N6J3Y1",
        "streetName": "GUILDFORD",
        "streetDirectionId": null,
        "streetTypeId": "CRT",
        "placeName": "LONDON",
        "streetNameDisplayText": "GUILDFORD CRT, LONDON"
      }
    ]
  },
  {
    "postal": "N6J5V0",
    "result": []
  },
  {
    "postal": "N6J8G8",
    "result": []
  },
  {
    "postal": "N6J8B1",
    "result": []
  },
  {
    "postal": "N6J4P5",
    "result": [
      {
        "electoralDistricts": [
          {
            "election": null,
            "id": 55,
            "name": "London West"
          }
        ],
        "pollDivisionIds": [
          10139639
        ],
        "postalCode": "N6J4P5",
        "streetName": "HUMMINGBIRD",
        "streetDirectionId": null,
        "streetTypeId": "CRES",
        "placeName": "LONDON",
        "streetNameDisplayText": "HUMMINGBIRD CRES, LONDON"
      },
      {
        "electoralDistricts": [
          {
            "election": null,
            "id": 55,
            "name": "London West"
          }
        ],
        "pollDivisionIds": [
          10139639
        ],
        "postalCode": "N6J4P5",
        "streetName": "THUNDERBIRD",
        "streetDirectionId": null,
        "streetTypeId": "CRES",
        "placeName": "LONDON",
        "streetNameDisplayText": "THUNDERBIRD CRES, LONDON"
      }
    ]
  },
  {
    "postal": "N6J7B2",
    "result": []
  },
  {
    "postal": "N6J0R2",
    "result": [
      {
        "electoralDistricts": [
          {
            "election": null,
            "id": 54,
            "name": "London North Centre"
          }
        ],
        "pollDivisionIds": [
          10135371
        ],
        "postalCode": "N6J0R2",
        "streetName": "FREEPORT",
        "streetDirectionId": null,
        "streetTypeId": "ST",
        "placeName": "LONDON,ON",
        "streetNameDisplayText": "FREEPORT ST, LONDON,ON"
      }
    ]
  },
  {
    "postal": "N6J4M4",
    "result": [
      {
        "electoralDistricts": [
          {
            "election": null,
            "id": 55,
            "name": "London West"
          }
        ],
        "pollDivisionIds": [
          10139639
        ],
        "postalCode": "N6J4M4",
        "streetName": "HUMMINGBIRD",
        "streetDirectionId": null,
        "streetTypeId": "CRES",
        "placeName": "LONDON",
        "streetNameDisplayText": "HUMMINGBIRD CRES, LONDON"
      }
    ]
  },
  {
    "postal": "N6J7M4",
    "result": []
  },
  {
    "postal": "N6J9S7",
    "result": []
  },
  {
    "postal": "N6J5Z7",
    "result": []
  },
  {
    "postal": "N6J7J7",
    "result": []
  },
  {
    "postal": "N6J8R8",
    "result": []
  },
  {
    "postal": "N6J9X1",
    "result": []
  },
  {
    "postal": "N6J5M9",
    "result": []
  },
  {
    "postal": "N6J9B4",
    "result": []
  },
  {
    "postal": "N6J0L9",
    "result": []
  },
  {
    "postal": "N6J9G4",
    "result": []
  },
  {
    "postal": "N6J1J4",
    "result": [
      {
        "electoralDistricts": [
          {
            "election": null,
            "id": 55,
            "name": "London West"
          }
        ],
        "pollDivisionIds": [
          10139623,
          10139655
        ],
        "postalCode": "N6J1J4",
        "streetName": "ELMWOOD",
        "streetDirectionId": null,
        "streetTypeId": "PL",
        "placeName": "LONDON",
        "streetNameDisplayText": "ELMWOOD PL, LONDON"
      }
    ]
  },
  {
    "postal": "N6J0W6",
    "result": []
  }
]
