[
  {
    "postal": "P3P9J6",
    "result": []
  },
  {
    "postal": "P3P9Z5",
    "result": []
  },
  {
    "postal": "P3P7H8",
    "result": []
  },
  {
    "postal": "P3P0P6",
    "result": []
  },
  {
    "postal": "P3P0S7",
    "result": []
  },
  {
    "postal": "P3P8B9",
    "result": []
  },
  {
    "postal": "P3P2A6",
    "result": []
  },
  {
    "postal": "P3P7V2",
    "result": []
  },
  {
    "postal": "P3P9P4",
    "result": []
  },
  {
    "postal": "P3P6G0",
    "result": []
  },
  {
    "postal": "P3P2K0",
    "result": []
  },
  {
    "postal": "P3P7N6",
    "result": []
  },
  {
    "postal": "P3P5R3",
    "result": []
  },
  {
    "postal": "P3P7K0",
    "result": []
  },
  {
    "postal": "P3P3R2",
    "result": []
  },
  {
    "postal": "P3P0J1",
    "result": []
  },
  {
    "postal": "P3P0B0",
    "result": []
  },
  {
    "postal": "P3P5Z2",
    "result": []
  },
  {
    "postal": "P3P7P3",
    "result": []
  },
  {
    "postal": "P3P2K3",
    "result": []
  },
  {
    "postal": "P3P7Y6",
    "result": []
  },
  {
    "postal": "P3P1L9",
    "result": [
      {
        "electoralDistricts": [
          {
            "election": null,
            "id": 71,
            "name": "Nickel Belt"
          }
        ],
        "pollDivisionIds": [
          10140124
        ],
        "postalCode": "P3P1L9",
        "streetName": "CHENIER",
        "streetDirectionId": null,
        "streetTypeId": "ST",
        "placeName": "HANMER",
        "streetNameDisplayText": "CHENIER ST, HANMER"
      },
      {
        "electoralDistricts": [
          {
            "election": null,
            "id": 71,
            "name": "Nickel Belt"
          }
        ],
        "pollDivisionIds": [
          10140124
        ],
        "postalCode": "P3P1L9",
        "streetName": "COTE",
        "streetDirectionId": null,
        "streetTypeId": "AVE",
        "placeName": "HANMER",
        "streetNameDisplayText": "COTE AVE, HANMER"
      },
      {
        "electoralDistricts": [
          {
            "election": null,
            "id": 71,
            "name": "Nickel Belt"
          }
        ],
        "pollDivisionIds": [
          10140124
        ],
        "postalCode": "P3P1L9",
        "streetName": "COTE",
        "streetDirectionId": null,
        "streetTypeId": "BLVD",
        "placeName": "HANMER",
        "streetNameDisplayText": "COTE BLVD, HANMER"
      },
      {
        "electoralDistricts": [
          {
            "election": null,
            "id": 71,
            "name": "Nickel Belt"
          }
        ],
        "pollDivisionIds": [
          10140124
        ],
        "postalCode": "P3P1L9",
        "streetName": "ODILE",
        "streetDirectionId": null,
        "streetTypeId": "ST",
        "placeName": "HANMER",
        "streetNameDisplayText": "ODILE ST, HANMER"
      },
      {
        "electoralDistricts": [
          {
            "election": null,
            "id": 71,
            "name": "Nickel Belt"
          }
        ],
        "pollDivisionIds": [
          10140124
        ],
        "postalCode": "P3P1L9",
        "streetName": "ST. JACQUES",
        "streetDirectionId": null,
        "streetTypeId": "ST",
        "placeName": "HANMER",
        "streetNameDisplayText": "ST. JACQUES ST, HANMER"
      }
    ]
  },
  {
    "postal": "P3P8T0",
    "result": []
  },
  {
    "postal": "P3P3K8",
    "result": []
  },
  {
    "postal": "P3P5W9",
    "result": []
  },
  {
    "postal": "P3P6T9",
    "result": []
  },
  {
    "postal": "P3P4H1",
    "result": []
  },
  {
    "postal": "P3P7A2",
    "result": []
  },
  {
    "postal": "P3P5G0",
    "result": []
  },
  {
    "postal": "P3P8V5",
    "result": []
  },
  {
    "postal": "P3P2Y8",
    "result": []
  },
  {
    "postal": "P3P2B6",
    "result": []
  },
  {
    "postal": "P3P4W8",
    "result": []
  },
  {
    "postal": "P3P8H7",
    "result": []
  },
  {
    "postal": "P3P5P1",
    "result": []
  },
  {
    "postal": "P3P2B8",
    "result": []
  },
  {
    "postal": "P3P0P2",
    "result": []
  },
  {
    "postal": "P3P9M1",
    "result": []
  },
  {
    "postal": "P3P3G0",
    "result": []
  },
  {
    "postal": "P3P9Z2",
    "result": []
  },
  {
    "postal": "P3P2A0",
    "result": []
  },
  {
    "postal": "P3P6Y0",
    "result": []
  },
  {
    "postal": "P3P2Z8",
    "result": []
  },
  {
    "postal": "P3P7Y3",
    "result": []
  },
  {
    "postal": "P3P6Z5",
    "result": []
  },
  {
    "postal": "P3P6E0",
    "result": []
  },
  {
    "postal": "P3P9B7",
    "result": []
  },
  {
    "postal": "P3P9S5",
    "result": []
  },
  {
    "postal": "P3P3X3",
    "result": []
  },
  {
    "postal": "P3P7R5",
    "result": []
  },
  {
    "postal": "P3P2X3",
    "result": []
  },
  {
    "postal": "P3P8Z9",
    "result": []
  },
  {
    "postal": "P3P0N4",
    "result": []
  },
  {
    "postal": "P3P1K1",
    "result": [
      {
        "electoralDistricts": [
          {
            "election": null,
            "id": 71,
            "name": "Nickel Belt"
          }
        ],
        "pollDivisionIds": [
          10140123
        ],
        "postalCode": "P3P1K1",
        "streetName": "COLETTE",
        "streetDirectionId": null,
        "streetTypeId": "ST",
        "placeName": "HANMER",
        "streetNameDisplayText": "COLETTE ST, HANMER"
      },
      {
        "electoralDistricts": [
          {
            "election": null,
            "id": 71,
            "name": "Nickel Belt"
          }
        ],
        "pollDivisionIds": [
          10140123
        ],
        "postalCode": "P3P1K1",
        "streetName": "LAFONTAINE",
        "streetDirectionId": null,
        "streetTypeId": "ST",
        "placeName": "HANMER",
        "streetNameDisplayText": "LAFONTAINE ST, HANMER"
      },
      {
        "electoralDistricts": [
          {
            "election": null,
            "id": 71,
            "name": "Nickel Belt"
          }
        ],
        "pollDivisionIds": [
          10140123
        ],
        "postalCode": "P3P1K1",
        "streetName": "NOTRE DAME",
        "streetDirectionId": null,
        "streetTypeId": "AVE",
        "placeName": "HANMER",
        "streetNameDisplayText": "NOTRE DAME AVE, HANMER"
      }
    ]
  },
  {
    "postal": "P3P1S3",
    "result": [
      {
        "electoralDistricts": [
          {
            "election": null,
            "id": 71,
            "name": "Nickel Belt"
          }
        ],
        "pollDivisionIds": [
          10140123
        ],
        "postalCode": "P3P1S3",
        "streetName": "AUGUST",
        "streetDirectionId": null,
        "streetTypeId": "ST",
        "placeName": "VAL THERESE",
        "streetNameDisplayText": "AUGUST ST, VAL THERESE"
      },
      {
        "electoralDistricts": [
          {
            "election": null,
            "id": 71,
            "name": "Nickel Belt"
          }
        ],
        "pollDivisionIds": [
          10140122
        ],
        "postalCode": "P3P1S3",
        "streetName": "BEAUDELAIRE",
        "streetDirectionId": null,
        "streetTypeId": "CRT",
        "placeName": "HANMER",
        "streetNameDisplayText": "BEAUDELAIRE CRT, HANMER"
      },
      {
        "electoralDistricts": [
          {
            "election": null,
            "id": 71,
            "name": "Nickel Belt"
          }
        ],
        "pollDivisionIds": [
          10140123,
          10140121,
          10140113
        ],
        "postalCode": "P3P1S3",
        "streetName": "BEAUDELAIRE",
        "streetDirectionId": null,
        "streetTypeId": "CRT",
        "placeName": "VAL THERESE",
        "streetNameDisplayText": "BEAUDELAIRE CRT, VAL THERESE"
      },
      {
        "electoralDistricts": [
          {
            "election": null,
            "id": 71,
            "name": "Nickel Belt"
          }
        ],
        "pollDivisionIds": [
          10140121,
          10140123
        ],
        "postalCode": "P3P1S3",
        "streetName": "DESMARAIS",
        "streetDirectionId": null,
        "streetTypeId": "RD",
        "placeName": "HANMER",
        "streetNameDisplayText": "DESMARAIS RD, HANMER"
      },
      {
        "electoralDistricts": [
          {
            "election": null,
            "id": 71,
            "name": "Nickel Belt"
          }
        ],
        "pollDivisionIds": [
          10140123,
          10140121
        ],
        "postalCode": "P3P1S3",
        "streetName": "DESMARAIS",
        "streetDirectionId": null,
        "streetTypeId": "RD",
        "placeName": "VAL THERESE",
        "streetNameDisplayText": "DESMARAIS RD, VAL THERESE"
      },
      {
        "electoralDistricts": [
          {
            "election": null,
            "id": 71,
            "name": "Nickel Belt"
          }
        ],
        "pollDivisionIds": [
          10140123
        ],
        "postalCode": "P3P1S3",
        "streetName": "FERGUS",
        "streetDirectionId": null,
        "streetTypeId": "AVE",
        "placeName": "HANMER",
        "streetNameDisplayText": "FERGUS AVE, HANMER"
      },
      {
        "electoralDistricts": [
          {
            "election": null,
            "id": 71,
            "name": "Nickel Belt"
          }
        ],
        "pollDivisionIds": [
          10140122,
          10140123
        ],
        "postalCode": "P3P1S3",
        "streetName": "FERGUS",
        "streetDirectionId": null,
        "streetTypeId": "AVE",
        "placeName": "VAL THERESE",
        "streetNameDisplayText": "FERGUS AVE, VAL THERESE"
      },
      {
        "electoralDistricts": [
          {
            "election": null,
            "id": 71,
            "name": "Nickel Belt"
          }
        ],
        "pollDivisionIds": [
          10140123
        ],
        "postalCode": "P3P1S3",
        "streetName": "FRONTENAC",
        "streetDirectionId": null,
        "streetTypeId": "CRES",
        "placeName": "VAL THERESE",
        "streetNameDisplayText": "FRONTENAC CRES, VAL THERESE"
      },
      {
        "electoralDistricts": [
          {
            "election": null,
            "id": 71,
            "name": "Nickel Belt"
          }
        ],
        "pollDivisionIds": [
          10140121
        ],
        "postalCode": "P3P1S3",
        "streetName": "MUNICIPAL 80",
        "streetDirectionId": null,
        "streetTypeId": "RD",
        "placeName": "HANMER",
        "streetNameDisplayText": "MUNICIPAL 80 RD, HANMER"
      },
      {
        "electoralDistricts": [
          {
            "election": null,
            "id": 71,
            "name": "Nickel Belt"
          }
        ],
        "pollDivisionIds": [
          10140121
        ],
        "postalCode": "P3P1S3",
        "streetName": "REGIONAL 80",
        "streetDirectionId": null,
        "streetTypeId": "RD",
        "placeName": "HANMER",
        "streetNameDisplayText": "REGIONAL 80 RD, HANMER"
      }
    ]
  },
  {
    "postal": "P3P6M4",
    "result": []
  },
  {
    "postal": "P3P9A9",
    "result": []
  },
  {
    "postal": "P3P9Z9",
    "result": []
  },
  {
    "postal": "P3P6T4",
    "result": []
  },
  {
    "postal": "P3P0B2",
    "result": [
      {
        "electoralDistricts": [
          {
            "election": null,
            "id": 71,
            "name": "Nickel Belt"
          }
        ],
        "pollDivisionIds": [
          10140124
        ],
        "postalCode": "P3P0B2",
        "streetName": "COTE",
        "streetDirectionId": null,
        "streetTypeId": "BLVD",
        "placeName": "HANMER",
        "streetNameDisplayText": "COTE BLVD, HANMER"
      }
    ]
  },
  {
    "postal": "P3P2L9",
    "result": []
  },
  {
    "postal": "P3P8K9",
    "result": []
  },
  {
    "postal": "P3P2H9",
    "result": []
  },
  {
    "postal": "P3P3Z6",
    "result": []
  },
  {
    "postal": "P3P3B0",
    "result": []
  },
  {
    "postal": "P3P2H8",
    "result": []
  },
  {
    "postal": "P3P3X2",
    "result": []
  },
  {
    "postal": "P3P2E9",
    "result": []
  },
  {
    "postal": "P3P9P6",
    "result": []
  },
  {
    "postal": "P3P9E2",
    "result": []
  },
  {
    "postal": "P3P9H2",
    "result": []
  },
  {
    "postal": "P3P1S8",
    "result": [
      {
        "electoralDistricts": [
          {
            "election": null,
            "id": 71,
            "name": "Nickel Belt"
          }
        ],
        "pollDivisionIds": [
          10140122
        ],
        "postalCode": "P3P1S8",
        "streetName": "ELIZABETH",
        "streetDirectionId": null,
        "streetTypeId": "CRES",
        "placeName": "VAL THERESE",
        "streetNameDisplayText": "ELIZABETH CRES, VAL THERESE"
      },
      {
        "electoralDistricts": [
          {
            "election": null,
            "id": 71,
            "name": "Nickel Belt"
          }
        ],
        "pollDivisionIds": [
          10140122
        ],
        "postalCode": "P3P1S8",
        "streetName": "LABELLE",
        "streetDirectionId": null,
        "streetTypeId": "ST",
        "placeName": "VAL THERESE",
        "streetNameDisplayText": "LABELLE ST, VAL THERESE"
      },
      {
        "electoralDistricts": [
          {
            "election": null,
            "id": 71,
            "name": "Nickel Belt"
          }
        ],
        "pollDivisionIds": [
          10140122
        ],
        "postalCode": "P3P1S8",
        "streetName": "NOEL",
        "streetDirectionId": null,
        "streetTypeId": "CRES",
        "placeName": "VAL THERESE",
        "streetNameDisplayText": "NOEL CRES, VAL THERESE"
      },
      {
        "electoralDistricts": [
          {
            "election": null,
            "id": 71,
            "name": "Nickel Belt"
          }
        ],
        "pollDivisionIds": [
          10140122
        ],
        "postalCode": "P3P1S8",
        "streetName": "NOEL",
        "streetDirectionId": null,
        "streetTypeId": "ST",
        "placeName": "HANMER",
        "streetNameDisplayText": "NOEL ST, HANMER"
      },
      {
        "electoralDistricts": [
          {
            "election": null,
            "id": 71,
            "name": "Nickel Belt"
          }
        ],
        "pollDivisionIds": [
          10140122
        ],
        "postalCode": "P3P1S8",
        "streetName": "NOEL",
        "streetDirectionId": null,
        "streetTypeId": "ST",
        "placeName": "VAL THERESE",
        "streetNameDisplayText": "NOEL ST, VAL THERESE"
      },
      {
        "electoralDistricts": [
          {
            "election": null,
            "id": 71,
            "name": "Nickel Belt"
          }
        ],
        "pollDivisionIds": [
          10140122
        ],
        "postalCode": "P3P1S8",
        "streetName": "ROSS",
        "streetDirectionId": null,
        "streetTypeId": "ST",
        "placeName": "VAL THERESE",
        "streetNameDisplayText": "ROSS ST, VAL THERESE"
      },
      {
        "electoralDistricts": [
          {
            "election": null,
            "id": 71,
            "name": "Nickel Belt"
          }
        ],
        "pollDivisionIds": [
          10140122
        ],
        "postalCode": "P3P1S8",
        "streetName": "SHIRLEY",
        "streetDirectionId": null,
        "streetTypeId": "AVE",
        "placeName": "VAL THERESE",
        "streetNameDisplayText": "SHIRLEY AVE, VAL THERESE"
      },
      {
        "electoralDistricts": [
          {
            "election": null,
            "id": 71,
            "name": "Nickel Belt"
          }
        ],
        "pollDivisionIds": [
          10140122
        ],
        "postalCode": "P3P1S8",
        "streetName": "TATE",
        "streetDirectionId": null,
        "streetTypeId": "BLVD",
        "placeName": "HANMER",
        "streetNameDisplayText": "TATE BLVD, HANMER"
      },
      {
        "electoralDistricts": [
          {
            "election": null,
            "id": 71,
            "name": "Nickel Belt"
          }
        ],
        "pollDivisionIds": [
          10140122
        ],
        "postalCode": "P3P1S8",
        "streetName": "TATE",
        "streetDirectionId": null,
        "streetTypeId": "BLVD",
        "placeName": "VAL THERESE",
        "streetNameDisplayText": "TATE BLVD, VAL THERESE"
      }
    ]
  },
  {
    "postal": "P3P3M6",
    "result": []
  },
  {
    "postal": "P3P6Z8",
    "result": []
  },
  {
    "postal": "P3P4J2",
    "result": []
  },
  {
    "postal": "P3P9Y1",
    "result": []
  },
  {
    "postal": "P3P8V6",
    "result": []
  },
  {
    "postal": "P3P6B2",
    "result": []
  },
  {
    "postal": "P3P1P8",
    "result": []
  },
  {
    "postal": "P3P0V8",
    "result": []
  },
  {
    "postal": "P3P4Y0",
    "result": []
  },
  {
    "postal": "P3P2T4",
    "result": []
  },
  {
    "postal": "P3P2S3",
    "result": []
  },
  {
    "postal": "P3P0K0",
    "result": []
  },
  {
    "postal": "P3P5N1",
    "result": []
  },
  {
    "postal": "P3P7T0",
    "result": []
  },
  {
    "postal": "P3P9N2",
    "result": []
  },
  {
    "postal": "P3P5L1",
    "result": []
  },
  {
    "postal": "P3P7G5",
    "result": []
  },
  {
    "postal": "P3P6K2",
    "result": []
  },
  {
    "postal": "P3P6P9",
    "result": []
  },
  {
    "postal": "P3P0E6",
    "result": []
  },
  {
    "postal": "P3P8R9",
    "result": []
  },
  {
    "postal": "P3P3G9",
    "result": []
  },
  {
    "postal": "P3P0V7",
    "result": []
  },
  {
    "postal": "P3P2Z1",
    "result": []
  },
  {
    "postal": "P3P7N1",
    "result": []
  },
  {
    "postal": "P3P3C6",
    "result": []
  },
  {
    "postal": "P3P4M1",
    "result": []
  },
  {
    "postal": "P3P9K2",
    "result": []
  },
  {
    "postal": "P3P9S6",
    "result": []
  },
  {
    "postal": "P3P4X1",
    "result": []
  },
  {
    "postal": "P3P8W2",
    "result": []
  },
  {
    "postal": "P3P7N2",
    "result": []
  },
  {
    "postal": "P3P8S3",
    "result": []
  },
  {
    "postal": "P3P4V0",
    "result": []
  },
  {
    "postal": "P3P6W4",
    "result": []
  },
  {
    "postal": "P3P5M1",
    "result": []
  },
  {
    "postal": "P3P0S4",
    "result": []
  },
  {
    "postal": "P3P5X6",
    "result": []
  },
  {
    "postal": "P3P8L5",
    "result": []
  },
  {
    "postal": "P3P5M8",
    "result": []
  },
  {
    "postal": "P3P2G3",
    "result": []
  },
  {
    "postal": "P3P8E4",
    "result": []
  },
  {
    "postal": "P3P7S9",
    "result": []
  },
  {
    "postal": "P3P1K3",
    "result": [
      {
        "electoralDistricts": [
          {
            "election": null,
            "id": 71,
            "name": "Nickel Belt"
          }
        ],
        "pollDivisionIds": [
          10140123
        ],
        "postalCode": "P3P1K3",
        "streetName": "GABRIELLE",
        "streetDirectionId": null,
        "streetTypeId": "ST",
        "placeName": "HANMER",
        "streetNameDisplayText": "GABRIELLE ST, HANMER"
      },
      {
        "electoralDistricts": [
          {
            "election": null,
            "id": 71,
            "name": "Nickel Belt"
          }
        ],
        "pollDivisionIds": [
          10140123,
          10140124
        ],
        "postalCode": "P3P1K3",
        "streetName": "MARGUERITE",
        "streetDirectionId": null,
        "streetTypeId": "ST",
        "placeName": "HANMER",
        "streetNameDisplayText": "MARGUERITE ST, HANMER"
      }
    ]
  },
  {
    "postal": "P3P4E1",
    "result": []
  },
  {
    "postal": "P3P4R2",
    "result": []
  },
  {
    "postal": "P3P6T0",
    "result": []
  },
  {
    "postal": "P3P3K5",
    "result": []
  },
  {
    "postal": "P3P3S3",
    "result": []
  },
  {
    "postal": "P3P3L4",
    "result": []
  },
  {
    "postal": "P3P9Y2",
    "result": []
  },
  {
    "postal": "P3P1E0",
    "result": []
  },
  {
    "postal": "P3P9A4",
    "result": []
  },
  {
    "postal": "P3P1L3",
    "result": [
      {
        "electoralDistricts": [
          {
            "election": null,
            "id": 71,
            "name": "Nickel Belt"
          }
        ],
        "pollDivisionIds": [
          10140123
        ],
        "postalCode": "P3P1L3",
        "streetName": "DENNIE",
        "streetDirectionId": null,
        "streetTypeId": "ST",
        "placeName": "HANMER",
        "streetNameDisplayText": "DENNIE ST, HANMER"
      },
      {
        "electoralDistricts": [
          {
            "election": null,
            "id": 71,
            "name": "Nickel Belt"
          }
        ],
        "pollDivisionIds": [
          10140123
        ],
        "postalCode": "P3P1L3",
        "streetName": "NOTRE DAME",
        "streetDirectionId": null,
        "streetTypeId": "AVE",
        "placeName": "HANMER",
        "streetNameDisplayText": "NOTRE DAME AVE, HANMER"
      }
    ]
  },
  {
    "postal": "P3P6N1",
    "result": []
  },
  {
    "postal": "P3P6G7",
    "result": []
  },
  {
    "postal": "P3P7W1",
    "result": []
  },
  {
    "postal": "P3P4M6",
    "result": []
  },
  {
    "postal": "P3P1K0",
    "result": []
  },
  {
    "postal": "P3P3E2",
    "result": []
  },
  {
    "postal": "P3P5H4",
    "result": []
  },
  {
    "postal": "P3P1K7",
    "result": [
      {
        "electoralDistricts": [
          {
            "election": null,
            "id": 71,
            "name": "Nickel Belt"
          }
        ],
        "pollDivisionIds": [
          10140123
        ],
        "postalCode": "P3P1K7",
        "streetName": "GLENN",
        "streetDirectionId": null,
        "streetTypeId": "ST",
        "placeName": "HANMER",
        "streetNameDisplayText": "GLENN ST, HANMER"
      },
      {
        "electoralDistricts": [
          {
            "election": null,
            "id": 71,
            "name": "Nickel Belt"
          }
        ],
        "pollDivisionIds": [
          10140123
        ],
        "postalCode": "P3P1K7",
        "streetName": "HWY 69",
        "streetDirectionId": "N",
        "streetTypeId": null,
        "placeName": "HANMER",
        "streetNameDisplayText": "HWY 69 N, HANMER"
      },
      {
        "electoralDistricts": [
          {
            "election": null,
            "id": 71,
            "name": "Nickel Belt"
          }
        ],
        "pollDivisionIds": [
          10140123
        ],
        "postalCode": "P3P1K7",
        "streetName": "LAPOINTE",
        "streetDirectionId": null,
        "streetTypeId": "ST",
        "placeName": "HANMER",
        "streetNameDisplayText": "LAPOINTE ST, HANMER"
      },
      {
        "electoralDistricts": [
          {
            "election": null,
            "id": 71,
            "name": "Nickel Belt"
          }
        ],
        "pollDivisionIds": [
          10140123
        ],
        "postalCode": "P3P1K7",
        "streetName": "MAURICE",
        "streetDirectionId": null,
        "streetTypeId": "ST",
        "placeName": "HANMER",
        "streetNameDisplayText": "MAURICE ST, HANMER"
      }
    ]
  },
  {
    "postal": "P3P0H0",
    "result": []
  },
  {
    "postal": "P3P0J3",
    "result": []
  },
  {
    "postal": "P3P1X6",
    "result": [
      {
        "electoralDistricts": [
          {
            "election": null,
            "id": 71,
            "name": "Nickel Belt"
          }
        ],
        "pollDivisionIds": [
          10140124,
          10140123
        ],
        "postalCode": "P3P1X6",
        "streetName": "NOTRE DAME",
        "streetDirectionId": null,
        "streetTypeId": "AVE",
        "placeName": "HANMER",
        "streetNameDisplayText": "NOTRE DAME AVE, HANMER"
      },
      {
        "electoralDistricts": [
          {
            "election": null,
            "id": 71,
            "name": "Nickel Belt"
          }
        ],
        "pollDivisionIds": [
          10140124
        ],
        "postalCode": "P3P1X6",
        "streetName": "OSCAR",
        "streetDirectionId": null,
        "streetTypeId": "ST",
        "placeName": "HANMER",
        "streetNameDisplayText": "OSCAR ST, HANMER"
      },
      {
        "electoralDistricts": [
          {
            "election": null,
            "id": 71,
            "name": "Nickel Belt"
          }
        ],
        "pollDivisionIds": [
          10140124,
          10140123
        ],
        "postalCode": "P3P1X6",
        "streetName": "RITA",
        "streetDirectionId": null,
        "streetTypeId": "ST",
        "placeName": "HANMER",
        "streetNameDisplayText": "RITA ST, HANMER"
      }
    ]
  },
  {
    "postal": "P3P2Z6",
    "result": []
  },
  {
    "postal": "P3P4R9",
    "result": []
  },
  {
    "postal": "P3P0W8",
    "result": []
  },
  {
    "postal": "P3P1L4",
    "result": [
      {
        "electoralDistricts": [
          {
            "election": null,
            "id": 71,
            "name": "Nickel Belt"
          }
        ],
        "pollDivisionIds": [
          10140124
        ],
        "postalCode": "P3P1L4",
        "streetName": "ARMAND",
        "streetDirectionId": null,
        "streetTypeId": "ST",
        "placeName": "HANMER",
        "streetNameDisplayText": "ARMAND ST, HANMER"
      },
      {
        "electoralDistricts": [
          {
            "election": null,
            "id": 71,
            "name": "Nickel Belt"
          }
        ],
        "pollDivisionIds": [
          10140124
        ],
        "postalCode": "P3P1L4",
        "streetName": "CARINA",
        "streetDirectionId": null,
        "streetTypeId": "DR",
        "placeName": "HANMER",
        "streetNameDisplayText": "CARINA DR, HANMER"
      }
    ]
  },
  {
    "postal": "P3P0C8",
    "result": []
  },
  {
    "postal": "P3P9X7",
    "result": []
  },
  {
    "postal": "P3P4T1",
    "result": []
  },
  {
    "postal": "P3P0M0",
    "result": []
  },
  {
    "postal": "P3P6A2",
    "result": []
  },
  {
    "postal": "P3P9S8",
    "result": []
  },
  {
    "postal": "P3P9T4",
    "result": []
  },
  {
    "postal": "P3P9Y4",
    "result": []
  },
  {
    "postal": "P3P6G5",
    "result": []
  },
  {
    "postal": "P3P6H9",
    "result": []
  },
  {
    "postal": "P3P2P3",
    "result": []
  },
  {
    "postal": "P3P1T6",
    "result": []
  },
  {
    "postal": "P3P4P6",
    "result": []
  },
  {
    "postal": "P3P3K1",
    "result": []
  },
  {
    "postal": "P3P6X4",
    "result": []
  },
  {
    "postal": "P3P4M8",
    "result": []
  },
  {
    "postal": "P3P2Y1",
    "result": []
  },
  {
    "postal": "P3P6M1",
    "result": []
  },
  {
    "postal": "P3P5L8",
    "result": []
  },
  {
    "postal": "P3P3P6",
    "result": []
  },
  {
    "postal": "P3P9A5",
    "result": []
  },
  {
    "postal": "P3P7K1",
    "result": []
  },
  {
    "postal": "P3P3J4",
    "result": []
  },
  {
    "postal": "P3P5E7",
    "result": []
  },
  {
    "postal": "P3P3A7",
    "result": []
  },
  {
    "postal": "P3P1B9",
    "result": [
      {
        "electoralDistricts": [
          {
            "election": null,
            "id": 71,
            "name": "Nickel Belt"
          }
        ],
        "pollDivisionIds": [
          10140123
        ],
        "postalCode": "P3P1B9",
        "streetName": "HIGHWAY 69",
        "streetDirectionId": "N",
        "streetTypeId": null,
        "placeName": "HANMER",
        "streetNameDisplayText": "HIGHWAY 69 N, HANMER"
      },
      {
        "electoralDistricts": [
          {
            "election": null,
            "id": 71,
            "name": "Nickel Belt"
          }
        ],
        "pollDivisionIds": [
          10140122,
          10140123
        ],
        "postalCode": "P3P1B9",
        "streetName": "HWY 69",
        "streetDirectionId": "N",
        "streetTypeId": null,
        "placeName": "HANMER",
        "streetNameDisplayText": "HWY 69 N, HANMER"
      },
      {
        "electoralDistricts": [
          {
            "election": null,
            "id": 71,
            "name": "Nickel Belt"
          }
        ],
        "pollDivisionIds": [
          10140123
        ],
        "postalCode": "P3P1B9",
        "streetName": "MUNICIPAL RD 80",
        "streetDirectionId": null,
        "streetTypeId": null,
        "placeName": "HANMER",
        "streetNameDisplayText": "MUNICIPAL RD 80, HANMER"
      },
      {
        "electoralDistricts": [
          {
            "election": null,
            "id": 71,
            "name": "Nickel Belt"
          }
        ],
        "pollDivisionIds": [
          10140123
        ],
        "postalCode": "P3P1B9",
        "streetName": "OLD HWY 69",
        "streetDirectionId": "N",
        "streetTypeId": null,
        "placeName": "HANMER",
        "streetNameDisplayText": "OLD HWY 69 N, HANMER"
      },
      {
        "electoralDistricts": [
          {
            "election": null,
            "id": 71,
            "name": "Nickel Belt"
          }
        ],
        "pollDivisionIds": [
          10140123
        ],
        "postalCode": "P3P1B9",
        "streetName": "PHILIPPE",
        "streetDirectionId": null,
        "streetTypeId": "ST",
        "placeName": "HANMER",
        "streetNameDisplayText": "PHILIPPE ST, HANMER"
      }
    ]
  },
  {
    "postal": "P3P9E8",
    "result": []
  },
  {
    "postal": "P3P1C9",
    "result": [
      {
        "electoralDistricts": [
          {
            "election": null,
            "id": 71,
            "name": "Nickel Belt"
          }
        ],
        "pollDivisionIds": [
          10140122
        ],
        "postalCode": "P3P1C9",
        "streetName": "MARLENE",
        "streetDirectionId": null,
        "streetTypeId": "CRT",
        "placeName": "HANMER",
        "streetNameDisplayText": "MARLENE CRT, HANMER"
      }
    ]
  },
  {
    "postal": "P3P3B5",
    "result": []
  },
  {
    "postal": "P3P8R0",
    "result": []
  },
  {
    "postal": "P3P3P2",
    "result": []
  },
  {
    "postal": "P3P5V4",
    "result": []
  },
  {
    "postal": "P3P4H0",
    "result": []
  },
  {
    "postal": "P3P4S7",
    "result": []
  },
  {
    "postal": "P3P6C2",
    "result": []
  },
  {
    "postal": "P3P8W3",
    "result": []
  },
  {
    "postal": "P3P4M5",
    "result": []
  },
  {
    "postal": "P3P5T1",
    "result": []
  },
  {
    "postal": "P3P3B3",
    "result": []
  },
  {
    "postal": "P3P6C6",
    "result": []
  },
  {
    "postal": "P3P7N8",
    "result": []
  },
  {
    "postal": "P3P2Y3",
    "result": []
  },
  {
    "postal": "P3P2R6",
    "result": []
  },
  {
    "postal": "P3P7N3",
    "result": []
  },
  {
    "postal": "P3P8J2",
    "result": []
  },
  {
    "postal": "P3P6A9",
    "result": []
  },
  {
    "postal": "P3P3V2",
    "result": []
  },
  {
    "postal": "P3P2N3",
    "result": []
  },
  {
    "postal": "P3P1S5",
    "result": [
      {
        "electoralDistricts": [
          {
            "election": null,
            "id": 71,
            "name": "Nickel Belt"
          }
        ],
        "pollDivisionIds": [
          10140121
        ],
        "postalCode": "P3P1S5",
        "streetName": "KENNETH",
        "streetDirectionId": null,
        "streetTypeId": "DR",
        "placeName": "HANMER",
        "streetNameDisplayText": "KENNETH DR, HANMER"
      },
      {
        "electoralDistricts": [
          {
            "election": null,
            "id": 71,
            "name": "Nickel Belt"
          }
        ],
        "pollDivisionIds": [
          10140123
        ],
        "postalCode": "P3P1S5",
        "streetName": "MARTHA",
        "streetDirectionId": null,
        "streetTypeId": "ST",
        "placeName": "HANMER",
        "streetNameDisplayText": "MARTHA ST, HANMER"
      },
      {
        "electoralDistricts": [
          {
            "election": null,
            "id": 71,
            "name": "Nickel Belt"
          }
        ],
        "pollDivisionIds": [
          10140123
        ],
        "postalCode": "P3P1S5",
        "streetName": "ROBERT",
        "streetDirectionId": null,
        "streetTypeId": "DR",
        "placeName": "VAL THERESE",
        "streetNameDisplayText": "ROBERT DR, VAL THERESE"
      },
      {
        "electoralDistricts": [
          {
            "election": null,
            "id": 71,
            "name": "Nickel Belt"
          }
        ],
        "pollDivisionIds": [
          10140123
        ],
        "postalCode": "P3P1S5",
        "streetName": "ST. THERESE",
        "streetDirectionId": null,
        "streetTypeId": "ST",
        "placeName": "HANMER",
        "streetNameDisplayText": "ST. THERESE ST, HANMER"
      },
      {
        "electoralDistricts": [
          {
            "election": null,
            "id": 71,
            "name": "Nickel Belt"
          }
        ],
        "pollDivisionIds": [
          10140123
        ],
        "postalCode": "P3P1S5",
        "streetName": "ST. THERESE",
        "streetDirectionId": null,
        "streetTypeId": "ST",
        "placeName": "VAL THERESE",
        "streetNameDisplayText": "ST. THERESE ST, VAL THERESE"
      },
      {
        "electoralDistricts": [
          {
            "election": null,
            "id": 71,
            "name": "Nickel Belt"
          }
        ],
        "pollDivisionIds": [
          10140121,
          10140123
        ],
        "postalCode": "P3P1S5",
        "streetName": "TALON",
        "streetDirectionId": null,
        "streetTypeId": "ST",
        "placeName": "VAL THERESE",
        "streetNameDisplayText": "TALON ST, VAL THERESE"
      },
      {
        "electoralDistricts": [
          {
            "election": null,
            "id": 71,
            "name": "Nickel Belt"
          }
        ],
        "pollDivisionIds": [
          10140121
        ],
        "postalCode": "P3P1S5",
        "streetName": "TREMBLAY",
        "streetDirectionId": null,
        "streetTypeId": "ST",
        "placeName": "HANMER",
        "streetNameDisplayText": "TREMBLAY ST, HANMER"
      },
      {
        "electoralDistricts": [
          {
            "election": null,
            "id": 71,
            "name": "Nickel Belt"
          }
        ],
        "pollDivisionIds": [
          10140121
        ],
        "postalCode": "P3P1S5",
        "streetName": "TREMBLAY",
        "streetDirectionId": null,
        "streetTypeId": "ST",
        "placeName": "VAL THERESE",
        "streetNameDisplayText": "TREMBLAY ST, VAL THERESE"
      }
    ]
  },
  {
    "postal": "P3P4T7",
    "result": []
  },
  {
    "postal": "P3P6Y7",
    "result": []
  },
  {
    "postal": "P3P0W7",
    "result": []
  },
  {
    "postal": "P3P2W9",
    "result": []
  },
  {
    "postal": "P3P8V0",
    "result": []
  },
  {
    "postal": "P3P0H4",
    "result": []
  },
  {
    "postal": "P3P2T1",
    "result": []
  },
  {
    "postal": "P3P1B1",
    "result": [
      {
        "electoralDistricts": [
          {
            "election": null,
            "id": 71,
            "name": "Nickel Belt"
          }
        ],
        "pollDivisionIds": [
          10140122
        ],
        "postalCode": "P3P1B1",
        "streetName": "ELYSEE",
        "streetDirectionId": null,
        "streetTypeId": "CRES",
        "placeName": "HANMER",
        "streetNameDisplayText": "ELYSEE CRES, HANMER"
      },
      {
        "electoralDistricts": [
          {
            "election": null,
            "id": 71,
            "name": "Nickel Belt"
          }
        ],
        "pollDivisionIds": [
          10140122
        ],
        "postalCode": "P3P1B1",
        "streetName": "VELVET",
        "streetDirectionId": null,
        "streetTypeId": "CRT",
        "placeName": "HANMER",
        "streetNameDisplayText": "VELVET CRT, HANMER"
      }
    ]
  },
  {
    "postal": "P3P8B6",
    "result": []
  },
  {
    "postal": "P3P6H1",
    "result": []
  },
  {
    "postal": "P3P8T8",
    "result": []
  },
  {
    "postal": "P3P0T4",
    "result": []
  },
  {
    "postal": "P3P2C4",
    "result": []
  },
  {
    "postal": "P3P8N3",
    "result": []
  },
  {
    "postal": "P3P4L8",
    "result": []
  },
  {
    "postal": "P3P2B5",
    "result": []
  },
  {
    "postal": "P3P3H1",
    "result": []
  },
  {
    "postal": "P3P4Y1",
    "result": []
  },
  {
    "postal": "P3P7E2",
    "result": []
  },
  {
    "postal": "P3P2P5",
    "result": []
  },
  {
    "postal": "P3P8R7",
    "result": []
  },
  {
    "postal": "P3P9P1",
    "result": []
  },
  {
    "postal": "P3P3B8",
    "result": []
  },
  {
    "postal": "P3P3P7",
    "result": []
  },
  {
    "postal": "P3P9B2",
    "result": []
  },
  {
    "postal": "P3P6Z3",
    "result": []
  },
  {
    "postal": "P3P4N5",
    "result": []
  },
  {
    "postal": "P3P8T3",
    "result": []
  },
  {
    "postal": "P3P1V2",
    "result": []
  },
  {
    "postal": "P3P1Y0",
    "result": []
  },
  {
    "postal": "P3P3G6",
    "result": []
  },
  {
    "postal": "P3P3H7",
    "result": []
  },
  {
    "postal": "P3P7X8",
    "result": []
  },
  {
    "postal": "P3P0C7",
    "result": []
  },
  {
    "postal": "P3P0W9",
    "result": []
  },
  {
    "postal": "P3P8E6",
    "result": []
  },
  {
    "postal": "P3P9Z8",
    "result": []
  },
  {
    "postal": "P3P3P4",
    "result": []
  },
  {
    "postal": "P3P6L8",
    "result": []
  },
  {
    "postal": "P3P2R4",
    "result": []
  },
  {
    "postal": "P3P2W1",
    "result": []
  },
  {
    "postal": "P3P9H8",
    "result": []
  },
  {
    "postal": "P3P8X9",
    "result": []
  },
  {
    "postal": "P3P7H4",
    "result": []
  },
  {
    "postal": "P3P3J1",
    "result": []
  },
  {
    "postal": "P3P1P4",
    "result": [
      {
        "electoralDistricts": [
          {
            "election": null,
            "id": 71,
            "name": "Nickel Belt"
          }
        ],
        "pollDivisionIds": [
          10140123
        ],
        "postalCode": "P3P1P4",
        "streetName": "LAPOINTE",
        "streetDirectionId": null,
        "streetTypeId": "ST",
        "placeName": "HANMER",
        "streetNameDisplayText": "LAPOINTE ST, HANMER"
      }
    ]
  },
  {
    "postal": "P3P2A3",
    "result": []
  },
  {
    "postal": "P3P0Z1",
    "result": []
  },
  {
    "postal": "P3P1C1",
    "result": [
      {
        "electoralDistricts": [
          {
            "election": null,
            "id": 71,
            "name": "Nickel Belt"
          }
        ],
        "pollDivisionIds": [
          10140122
        ],
        "postalCode": "P3P1C1",
        "streetName": "BEAVER",
        "streetDirectionId": null,
        "streetTypeId": "AVE",
        "placeName": "HANMER",
        "streetNameDisplayText": "BEAVER AVE, HANMER"
      },
      {
        "electoralDistricts": [
          {
            "election": null,
            "id": 71,
            "name": "Nickel Belt"
          }
        ],
        "pollDivisionIds": [
          10140123,
          10140122
        ],
        "postalCode": "P3P1C1",
        "streetName": "GRETA",
        "streetDirectionId": null,
        "streetTypeId": "ST",
        "placeName": "HANMER",
        "streetNameDisplayText": "GRETA ST, HANMER"
      },
      {
        "electoralDistricts": [
          {
            "election": null,
            "id": 71,
            "name": "Nickel Belt"
          }
        ],
        "pollDivisionIds": [
          10140122,
          10140123
        ],
        "postalCode": "P3P1C1",
        "streetName": "HWY 69",
        "streetDirectionId": "N",
        "streetTypeId": null,
        "placeName": "HANMER",
        "streetNameDisplayText": "HWY 69 N, HANMER"
      },
      {
        "electoralDistricts": [
          {
            "election": null,
            "id": 71,
            "name": "Nickel Belt"
          }
        ],
        "pollDivisionIds": [
          10140122
        ],
        "postalCode": "P3P1C1",
        "streetName": "SERVICE",
        "streetDirectionId": null,
        "streetTypeId": "RD",
        "placeName": "HANMER",
        "streetNameDisplayText": "SERVICE RD, HANMER"
      },
      {
        "electoralDistricts": [
          {
            "election": null,
            "id": 71,
            "name": "Nickel Belt"
          }
        ],
        "pollDivisionIds": [
          10140122
        ],
        "postalCode": "P3P1C1",
        "streetName": "ST. ANTHONY",
        "streetDirectionId": null,
        "streetTypeId": "ST",
        "placeName": "HANMER",
        "streetNameDisplayText": "ST. ANTHONY ST, HANMER"
      }
    ]
  },
  {
    "postal": "P3P0H3",
    "result": []
  },
  {
    "postal": "P3P7B0",
    "result": []
  },
  {
    "postal": "P3P5K2",
    "result": []
  },
  {
    "postal": "P3P1E9",
    "result": [
      {
        "electoralDistricts": [
          {
            "election": null,
            "id": 71,
            "name": "Nickel Belt"
          }
        ],
        "pollDivisionIds": [
          10140123
        ],
        "postalCode": "P3P1E9",
        "streetName": "GATIEN",
        "streetDirectionId": null,
        "streetTypeId": "AVE",
        "placeName": "HANMER",
        "streetNameDisplayText": "GATIEN AVE, HANMER"
      },
      {
        "electoralDistricts": [
          {
            "election": null,
            "id": 71,
            "name": "Nickel Belt"
          }
        ],
        "pollDivisionIds": [
          10140113
        ],
        "postalCode": "P3P1E9",
        "streetName": "HIGHWAY 69",
        "streetDirectionId": "N",
        "streetTypeId": null,
        "placeName": "HANMER",
        "streetNameDisplayText": "HIGHWAY 69 N, HANMER"
      },
      {
        "electoralDistricts": [
          {
            "election": null,
            "id": 71,
            "name": "Nickel Belt"
          }
        ],
        "pollDivisionIds": [
          10140122,
          10140123
        ],
        "postalCode": "P3P1E9",
        "streetName": "HWY 69",
        "streetDirectionId": "N",
        "streetTypeId": null,
        "placeName": "HANMER",
        "streetNameDisplayText": "HWY 69 N, HANMER"
      },
      {
        "electoralDistricts": [
          {
            "election": null,
            "id": 71,
            "name": "Nickel Belt"
          }
        ],
        "pollDivisionIds": [
          10140123
        ],
        "postalCode": "P3P1E9",
        "streetName": "OLD HIGHWAY 69",
        "streetDirectionId": "N",
        "streetTypeId": null,
        "placeName": "HANMER",
        "streetNameDisplayText": "OLD HIGHWAY 69 N, HANMER"
      },
      {
        "electoralDistricts": [
          {
            "election": null,
            "id": 71,
            "name": "Nickel Belt"
          }
        ],
        "pollDivisionIds": [
          10140123
        ],
        "postalCode": "P3P1E9",
        "streetName": "OLD HWY 69",
        "streetDirectionId": "N",
        "streetTypeId": null,
        "placeName": "HANMER",
        "streetNameDisplayText": "OLD HWY 69 N, HANMER"
      }
    ]
  },
  {
    "postal": "P3P9W7",
    "result": []
  },
  {
    "postal": "P3P5W6",
    "result": []
  },
  {
    "postal": "P3P6S6",
    "result": []
  },
  {
    "postal": "P3P2P8",
    "result": []
  },
  {
    "postal": "P3P4P8",
    "result": []
  },
  {
    "postal": "P3P0V9",
    "result": []
  },
  {
    "postal": "P3P5Y2",
    "result": []
  },
  {
    "postal": "P3P7Z7",
    "result": []
  },
  {
    "postal": "P3P6Y8",
    "result": []
  },
  {
    "postal": "P3P2G7",
    "result": []
  },
  {
    "postal": "P3P8C1",
    "result": []
  },
  {
    "postal": "P3P5C5",
    "result": []
  },
  {
    "postal": "P3P2X8",
    "result": []
  },
  {
    "postal": "P3P1W5",
    "result": []
  },
  {
    "postal": "P3P7G0",
    "result": []
  },
  {
    "postal": "P3P8J8",
    "result": []
  },
  {
    "postal": "P3P3Y0",
    "result": []
  },
  {
    "postal": "P3P9T7",
    "result": []
  },
  {
    "postal": "P3P5P4",
    "result": []
  },
  {
    "postal": "P3P4B0",
    "result": []
  },
  {
    "postal": "P3P9N8",
    "result": []
  },
  {
    "postal": "P3P4A7",
    "result": []
  },
  {
    "postal": "P3P4H9",
    "result": []
  },
  {
    "postal": "P3P6X1",
    "result": []
  },
  {
    "postal": "P3P9Y7",
    "result": []
  },
  {
    "postal": "P3P2Y5",
    "result": []
  },
  {
    "postal": "P3P8L7",
    "result": []
  },
  {
    "postal": "P3P2A8",
    "result": []
  },
  {
    "postal": "P3P2K9",
    "result": []
  },
  {
    "postal": "P3P3E5",
    "result": []
  },
  {
    "postal": "P3P8N6",
    "result": []
  },
  {
    "postal": "P3P8J4",
    "result": []
  },
  {
    "postal": "P3P4R7",
    "result": []
  },
  {
    "postal": "P3P9K1",
    "result": []
  },
  {
    "postal": "P3P8E1",
    "result": []
  },
  {
    "postal": "P3P0R1",
    "result": []
  },
  {
    "postal": "P3P4J3",
    "result": []
  },
  {
    "postal": "P3P7E7",
    "result": []
  },
  {
    "postal": "P3P0J0",
    "result": []
  },
  {
    "postal": "P3P7R8",
    "result": []
  },
  {
    "postal": "P3P9X0",
    "result": []
  },
  {
    "postal": "P3P7P6",
    "result": []
  },
  {
    "postal": "P3P0R7",
    "result": []
  },
  {
    "postal": "P3P5W1",
    "result": []
  },
  {
    "postal": "P3P0K4",
    "result": []
  },
  {
    "postal": "P3P7N9",
    "result": []
  },
  {
    "postal": "P3P1N0",
    "result": []
  },
  {
    "postal": "P3P6P3",
    "result": []
  },
  {
    "postal": "P3P5A1",
    "result": []
  },
  {
    "postal": "P3P9M9",
    "result": []
  },
  {
    "postal": "P3P7T6",
    "result": []
  },
  {
    "postal": "P3P3X0",
    "result": []
  },
  {
    "postal": "P3P2T0",
    "result": []
  },
  {
    "postal": "P3P5X9",
    "result": []
  },
  {
    "postal": "P3P2R3",
    "result": []
  },
  {
    "postal": "P3P5N2",
    "result": []
  },
  {
    "postal": "P3P4Y7",
    "result": []
  },
  {
    "postal": "P3P7M0",
    "result": []
  },
  {
    "postal": "P3P8P3",
    "result": []
  },
  {
    "postal": "P3P3N3",
    "result": []
  },
  {
    "postal": "P3P7S3",
    "result": []
  },
  {
    "postal": "P3P3V9",
    "result": []
  },
  {
    "postal": "P3P9N7",
    "result": []
  },
  {
    "postal": "P3P0G4",
    "result": []
  },
  {
    "postal": "P3P2E2",
    "result": []
  },
  {
    "postal": "P3P7W8",
    "result": []
  },
  {
    "postal": "P3P7M5",
    "result": []
  },
  {
    "postal": "P3P5W8",
    "result": []
  },
  {
    "postal": "P3P5E5",
    "result": []
  },
  {
    "postal": "P3P1P9",
    "result": [
      {
        "electoralDistricts": [
          {
            "election": null,
            "id": 71,
            "name": "Nickel Belt"
          }
        ],
        "pollDivisionIds": [
          10140122
        ],
        "postalCode": "P3P1P9",
        "streetName": "HWY 69",
        "streetDirectionId": "N",
        "streetTypeId": null,
        "placeName": "HANMER",
        "streetNameDisplayText": "HWY 69 N, HANMER"
      }
    ]
  },
  {
    "postal": "P3P8V8",
    "result": []
  },
  {
    "postal": "P3P9G8",
    "result": []
  },
  {
    "postal": "P3P8H9",
    "result": []
  },
  {
    "postal": "P3P1Z1",
    "result": []
  },
  {
    "postal": "P3P8M3",
    "result": []
  },
  {
    "postal": "P3P5H6",
    "result": []
  },
  {
    "postal": "P3P7W7",
    "result": []
  },
  {
    "postal": "P3P4L0",
    "result": []
  },
  {
    "postal": "P3P2N1",
    "result": []
  },
  {
    "postal": "P3P2H4",
    "result": []
  },
  {
    "postal": "P3P5C8",
    "result": []
  },
  {
    "postal": "P3P8B0",
    "result": []
  },
  {
    "postal": "P3P1T4",
    "result": []
  },
  {
    "postal": "P3P7N7",
    "result": []
  },
  {
    "postal": "P3P4L3",
    "result": []
  },
  {
    "postal": "P3P2N2",
    "result": []
  },
  {
    "postal": "P3P4N8",
    "result": []
  },
  {
    "postal": "P3P3M5",
    "result": []
  },
  {
    "postal": "P3P6H7",
    "result": []
  },
  {
    "postal": "P3P8Y8",
    "result": []
  },
  {
    "postal": "P3P5R9",
    "result": []
  },
  {
    "postal": "P3P8G3",
    "result": []
  },
  {
    "postal": "P3P4N7",
    "result": []
  },
  {
    "postal": "P3P0B9",
    "result": [
      {
        "electoralDistricts": [
          {
            "election": null,
            "id": 71,
            "name": "Nickel Belt"
          }
        ],
        "pollDivisionIds": [
          10140122,
          10140123
        ],
        "postalCode": "P3P0B9",
        "streetName": "DUGAS",
        "streetDirectionId": null,
        "streetTypeId": "ST",
        "placeName": "HANMER",
        "streetNameDisplayText": "DUGAS ST, HANMER"
      },
      {
        "electoralDistricts": [
          {
            "election": null,
            "id": 71,
            "name": "Nickel Belt"
          }
        ],
        "pollDivisionIds": [
          10140122
        ],
        "postalCode": "P3P0B9",
        "streetName": "JEANNE D'ARC",
        "streetDirectionId": null,
        "streetTypeId": "ST",
        "placeName": "HANMER",
        "streetNameDisplayText": "JEANNE D'ARC ST, HANMER"
      }
    ]
  },
  {
    "postal": "P3P9K7",
    "result": []
  },
  {
    "postal": "P3P9K9",
    "result": []
  },
  {
    "postal": "P3P3Z2",
    "result": []
  },
  {
    "postal": "P3P6W7",
    "result": []
  },
  {
    "postal": "P3P0P1",
    "result": []
  },
  {
    "postal": "P3P3A0",
    "result": []
  },
  {
    "postal": "P3P8L9",
    "result": []
  },
  {
    "postal": "P3P6X0",
    "result": []
  },
  {
    "postal": "P3P3E9",
    "result": []
  },
  {
    "postal": "P3P0S5",
    "result": []
  },
  {
    "postal": "P3P1A2",
    "result": [
      {
        "electoralDistricts": [
          {
            "election": null,
            "id": 71,
            "name": "Nickel Belt"
          }
        ],
        "pollDivisionIds": [
          10140121
        ],
        "postalCode": "P3P1A2",
        "streetName": "GUIMOND",
        "streetDirectionId": null,
        "streetTypeId": "AVE",
        "placeName": "HANMER",
        "streetNameDisplayText": "GUIMOND AVE, HANMER"
      },
      {
        "electoralDistricts": [
          {
            "election": null,
            "id": 71,
            "name": "Nickel Belt"
          }
        ],
        "pollDivisionIds": [
          10140121,
          10140123
        ],
        "postalCode": "P3P1A2",
        "streetName": "LILLIAN",
        "streetDirectionId": null,
        "streetTypeId": "ST",
        "placeName": "HANMER",
        "streetNameDisplayText": "LILLIAN ST, HANMER"
      }
    ]
  },
  {
    "postal": "P3P5V8",
    "result": []
  },
  {
    "postal": "P3P8C5",
    "result": []
  },
  {
    "postal": "P3P6N0",
    "result": []
  },
  {
    "postal": "P3P9E6",
    "result": []
  },
  {
    "postal": "P3P5J7",
    "result": []
  },
  {
    "postal": "P3P2R2",
    "result": []
  },
  {
    "postal": "P3P0P5",
    "result": []
  },
  {
    "postal": "P3P5A7",
    "result": []
  },
  {
    "postal": "P3P1G1",
    "result": [
      {
        "electoralDistricts": [
          {
            "election": null,
            "id": 71,
            "name": "Nickel Belt"
          }
        ],
        "pollDivisionIds": [
          10140123
        ],
        "postalCode": "P3P1G1",
        "streetName": "FRANCIS",
        "streetDirectionId": null,
        "streetTypeId": "ST",
        "placeName": "HANMER",
        "streetNameDisplayText": "FRANCIS ST, HANMER"
      },
      {
        "electoralDistricts": [
          {
            "election": null,
            "id": 71,
            "name": "Nickel Belt"
          }
        ],
        "pollDivisionIds": [
          10140123
        ],
        "postalCode": "P3P1G1",
        "streetName": "GATIEN",
        "streetDirectionId": null,
        "streetTypeId": "AVE",
        "placeName": "HANMER",
        "streetNameDisplayText": "GATIEN AVE, HANMER"
      },
      {
        "electoralDistricts": [
          {
            "election": null,
            "id": 71,
            "name": "Nickel Belt"
          }
        ],
        "pollDivisionIds": [
          10140123
        ],
        "postalCode": "P3P1G1",
        "streetName": "GUY",
        "streetDirectionId": null,
        "streetTypeId": "AVE",
        "placeName": "HANMER",
        "streetNameDisplayText": "GUY AVE, HANMER"
      }
    ]
  },
  {
    "postal": "P3P9R6",
    "result": []
  },
  {
    "postal": "P3P4Z9",
    "result": []
  },
  {
    "postal": "P3P1V5",
    "result": []
  },
  {
    "postal": "P3P9Y5",
    "result": []
  },
  {
    "postal": "P3P1P2",
    "result": [
      {
        "electoralDistricts": [
          {
            "election": null,
            "id": 71,
            "name": "Nickel Belt"
          }
        ],
        "pollDivisionIds": [
          10140124
        ],
        "postalCode": "P3P1P2",
        "streetName": "CARINA",
        "streetDirectionId": null,
        "streetTypeId": "DR",
        "placeName": "HANMER",
        "streetNameDisplayText": "CARINA DR, HANMER"
      }
    ]
  },
  {
    "postal": "P3P5X0",
    "result": []
  },
  {
    "postal": "P3P7B8",
    "result": []
  },
  {
    "postal": "P3P0C6",
    "result": []
  },
  {
    "postal": "P3P6G1",
    "result": []
  },
  {
    "postal": "P3P3K3",
    "result": []
  },
  {
    "postal": "P3P9R0",
    "result": []
  },
  {
    "postal": "P3P4R8",
    "result": []
  },
  {
    "postal": "P3P5P9",
    "result": []
  },
  {
    "postal": "P3P8N4",
    "result": []
  },
  {
    "postal": "P3P8H4",
    "result": []
  },
  {
    "postal": "P3P4V1",
    "result": []
  },
  {
    "postal": "P3P1K5",
    "result": [
      {
        "electoralDistricts": [
          {
            "election": null,
            "id": 71,
            "name": "Nickel Belt"
          }
        ],
        "pollDivisionIds": [
          10140123
        ],
        "postalCode": "P3P1K5",
        "streetName": "HWY 69",
        "streetDirectionId": "N",
        "streetTypeId": null,
        "placeName": "HANMER",
        "streetNameDisplayText": "HWY 69 N, HANMER"
      },
      {
        "electoralDistricts": [
          {
            "election": null,
            "id": 71,
            "name": "Nickel Belt"
          }
        ],
        "pollDivisionIds": [
          10140123
        ],
        "postalCode": "P3P1K5",
        "streetName": "ST. ISIDORE",
        "streetDirectionId": null,
        "streetTypeId": "ST",
        "placeName": "HANMER",
        "streetNameDisplayText": "ST. ISIDORE ST, HANMER"
      },
      {
        "electoralDistricts": [
          {
            "election": null,
            "id": 71,
            "name": "Nickel Belt"
          }
        ],
        "pollDivisionIds": [
          10140123
        ],
        "postalCode": "P3P1K5",
        "streetName": "ST. JOSEPH",
        "streetDirectionId": null,
        "streetTypeId": "ST",
        "placeName": "HANMER",
        "streetNameDisplayText": "ST. JOSEPH ST, HANMER"
      }
    ]
  },
  {
    "postal": "P3P1Z5",
    "result": [
      {
        "electoralDistricts": [
          {
            "election": null,
            "id": 71,
            "name": "Nickel Belt"
          }
        ],
        "pollDivisionIds": [
          10140123
        ],
        "postalCode": "P3P1Z5",
        "streetName": "GILBERT",
        "streetDirectionId": null,
        "streetTypeId": "ST",
        "placeName": "HANMER",
        "streetNameDisplayText": "GILBERT ST, HANMER"
      }
    ]
  },
  {
    "postal": "P3P9L9",
    "result": []
  },
  {
    "postal": "P3P5L2",
    "result": []
  },
  {
    "postal": "P3P0M2",
    "result": []
  },
  {
    "postal": "P3P1K8",
    "result": [
      {
        "electoralDistricts": [
          {
            "election": null,
            "id": 71,
            "name": "Nickel Belt"
          }
        ],
        "pollDivisionIds": [
          10140123
        ],
        "postalCode": "P3P1K8",
        "streetName": "CAROLINE",
        "streetDirectionId": null,
        "streetTypeId": "AVE",
        "placeName": "HANMER",
        "streetNameDisplayText": "CAROLINE AVE, HANMER"
      },
      {
        "electoralDistricts": [
          {
            "election": null,
            "id": 71,
            "name": "Nickel Belt"
          }
        ],
        "pollDivisionIds": [
          10140123
        ],
        "postalCode": "P3P1K8",
        "streetName": "MADELEINE",
        "streetDirectionId": null,
        "streetTypeId": "CRES",
        "placeName": "HANMER",
        "streetNameDisplayText": "MADELEINE CRES, HANMER"
      }
    ]
  },
  {
    "postal": "P3P3M7",
    "result": []
  },
  {
    "postal": "P3P1B2",
    "result": [
      {
        "electoralDistricts": [
          {
            "election": null,
            "id": 71,
            "name": "Nickel Belt"
          }
        ],
        "pollDivisionIds": [
          10140122
        ],
        "postalCode": "P3P1B2",
        "streetName": "ELYSEE",
        "streetDirectionId": null,
        "streetTypeId": "CRES",
        "placeName": "HANMER",
        "streetNameDisplayText": "ELYSEE CRES, HANMER"
      },
      {
        "electoralDistricts": [
          {
            "election": null,
            "id": 71,
            "name": "Nickel Belt"
          }
        ],
        "pollDivisionIds": [
          10140122
        ],
        "postalCode": "P3P1B2",
        "streetName": "VELVET",
        "streetDirectionId": null,
        "streetTypeId": "CRT",
        "placeName": "HANMER",
        "streetNameDisplayText": "VELVET CRT, HANMER"
      }
    ]
  },
  {
    "postal": "P3P0H9",
    "result": []
  },
  {
    "postal": "P3P8M4",
    "result": []
  },
  {
    "postal": "P3P2M5",
    "result": []
  },
  {
    "postal": "P3P0T9",
    "result": []
  },
  {
    "postal": "P3P3P1",
    "result": []
  },
  {
    "postal": "P3P1R6",
    "result": []
  },
  {
    "postal": "P3P9V5",
    "result": []
  },
  {
    "postal": "P3P9T0",
    "result": []
  },
  {
    "postal": "P3P0A9",
    "result": [
      {
        "electoralDistricts": [
          {
            "election": null,
            "id": 71,
            "name": "Nickel Belt"
          }
        ],
        "pollDivisionIds": [
          10140123,
          10140122
        ],
        "postalCode": "P3P0A9",
        "streetName": "DOMINION",
        "streetDirectionId": null,
        "streetTypeId": "DR",
        "placeName": "HANMER",
        "streetNameDisplayText": "DOMINION DR, HANMER"
      }
    ]
  },
  {
    "postal": "P3P1M3",
    "result": [
      {
        "electoralDistricts": [
          {
            "election": null,
            "id": 71,
            "name": "Nickel Belt"
          }
        ],
        "pollDivisionIds": [
          10140124
        ],
        "postalCode": "P3P1M3",
        "streetName": "EVA",
        "streetDirectionId": null,
        "streetTypeId": "ST",
        "placeName": "HANMER",
        "streetNameDisplayText": "EVA ST, HANMER"
      },
      {
        "electoralDistricts": [
          {
            "election": null,
            "id": 71,
            "name": "Nickel Belt"
          }
        ],
        "pollDivisionIds": [
          10140124
        ],
        "postalCode": "P3P1M3",
        "streetName": "PHARAND",
        "streetDirectionId": null,
        "streetTypeId": "ST",
        "placeName": "HANMER",
        "streetNameDisplayText": "PHARAND ST, HANMER"
      },
      {
        "electoralDistricts": [
          {
            "election": null,
            "id": 71,
            "name": "Nickel Belt"
          }
        ],
        "pollDivisionIds": [
          10140124
        ],
        "postalCode": "P3P1M3",
        "streetName": "THERESA",
        "streetDirectionId": null,
        "streetTypeId": "AVE",
        "placeName": "HANMER",
        "streetNameDisplayText": "THERESA AVE, HANMER"
      }
    ]
  },
  {
    "postal": "P3P1W8",
    "result": []
  },
  {
    "postal": "P3P9J1",
    "result": []
  },
  {
    "postal": "P3P8N5",
    "result": []
  },
  {
    "postal": "P3P5X1",
    "result": []
  },
  {
    "postal": "P3P6S2",
    "result": []
  },
  {
    "postal": "P3P2A2",
    "result": []
  },
  {
    "postal": "P3P6A6",
    "result": []
  },
  {
    "postal": "P3P0S3",
    "result": []
  },
  {
    "postal": "P3P3E7",
    "result": []
  },
  {
    "postal": "P3P5R7",
    "result": []
  },
  {
    "postal": "P3P3R6",
    "result": []
  },
  {
    "postal": "P3P6K4",
    "result": []
  },
  {
    "postal": "P3P2W5",
    "result": []
  },
  {
    "postal": "P3P8W4",
    "result": []
  },
  {
    "postal": "P3P9C2",
    "result": []
  },
  {
    "postal": "P3P2C0",
    "result": []
  },
  {
    "postal": "P3P0E1",
    "result": [
      {
        "electoralDistricts": [
          {
            "election": null,
            "id": 71,
            "name": "Nickel Belt"
          }
        ],
        "pollDivisionIds": [
          10140113,
          10140122
        ],
        "postalCode": "P3P0E1",
        "streetName": "HWY 69",
        "streetDirectionId": "N",
        "streetTypeId": null,
        "placeName": "HANMER",
        "streetNameDisplayText": "HWY 69 N, HANMER"
      }
    ]
  },
  {
    "postal": "P3P1K9",
    "result": [
      {
        "electoralDistricts": [
          {
            "election": null,
            "id": 71,
            "name": "Nickel Belt"
          }
        ],
        "pollDivisionIds": [
          10140123
        ],
        "postalCode": "P3P1K9",
        "streetName": "CAROLINE",
        "streetDirectionId": null,
        "streetTypeId": "AVE",
        "placeName": "HANMER",
        "streetNameDisplayText": "CAROLINE AVE, HANMER"
      },
      {
        "electoralDistricts": [
          {
            "election": null,
            "id": 71,
            "name": "Nickel Belt"
          }
        ],
        "pollDivisionIds": [
          10140123
        ],
        "postalCode": "P3P1K9",
        "streetName": "MADELEINE",
        "streetDirectionId": null,
        "streetTypeId": "CRES",
        "placeName": "HANMER",
        "streetNameDisplayText": "MADELEINE CRES, HANMER"
      }
    ]
  },
  {
    "postal": "P3P1G7",
    "result": [
      {
        "electoralDistricts": [
          {
            "election": null,
            "id": 71,
            "name": "Nickel Belt"
          }
        ],
        "pollDivisionIds": [
          10140123
        ],
        "postalCode": "P3P1G7",
        "streetName": "LAPOINTE",
        "streetDirectionId": null,
        "streetTypeId": "ST",
        "placeName": "HANMER",
        "streetNameDisplayText": "LAPOINTE ST, HANMER"
      },
      {
        "electoralDistricts": [
          {
            "election": null,
            "id": 71,
            "name": "Nickel Belt"
          }
        ],
        "pollDivisionIds": [
          10140123
        ],
        "postalCode": "P3P1G7",
        "streetName": "LAURIER",
        "streetDirectionId": null,
        "streetTypeId": "CRES",
        "placeName": "HANMER",
        "streetNameDisplayText": "LAURIER CRES, HANMER"
      },
      {
        "electoralDistricts": [
          {
            "election": null,
            "id": 71,
            "name": "Nickel Belt"
          }
        ],
        "pollDivisionIds": [
          10140123
        ],
        "postalCode": "P3P1G7",
        "streetName": "TUPPER",
        "streetDirectionId": null,
        "streetTypeId": "ST",
        "placeName": "HANMER",
        "streetNameDisplayText": "TUPPER ST, HANMER"
      }
    ]
  },
  {
    "postal": "P3P4E9",
    "result": []
  },
  {
    "postal": "P3P9P0",
    "result": []
  },
  {
    "postal": "P3P5H3",
    "result": []
  },
  {
    "postal": "P3P9X6",
    "result": []
  },
  {
    "postal": "P3P5N7",
    "result": []
  },
  {
    "postal": "P3P5A6",
    "result": []
  },
  {
    "postal": "P3P4M0",
    "result": []
  },
  {
    "postal": "P3P3V6",
    "result": []
  },
  {
    "postal": "P3P1L7",
    "result": [
      {
        "electoralDistricts": [
          {
            "election": null,
            "id": 71,
            "name": "Nickel Belt"
          }
        ],
        "pollDivisionIds": [
          10140124
        ],
        "postalCode": "P3P1L7",
        "streetName": "CARMEN",
        "streetDirectionId": null,
        "streetTypeId": "ST",
        "placeName": "HANMER",
        "streetNameDisplayText": "CARMEN ST, HANMER"
      },
      {
        "electoralDistricts": [
          {
            "election": null,
            "id": 71,
            "name": "Nickel Belt"
          }
        ],
        "pollDivisionIds": [
          10140124
        ],
        "postalCode": "P3P1L7",
        "streetName": "CHENIER",
        "streetDirectionId": null,
        "streetTypeId": "ST",
        "placeName": "HANMER",
        "streetNameDisplayText": "CHENIER ST, HANMER"
      },
      {
        "electoralDistricts": [
          {
            "election": null,
            "id": 71,
            "name": "Nickel Belt"
          }
        ],
        "pollDivisionIds": [
          10140124
        ],
        "postalCode": "P3P1L7",
        "streetName": "ODILE",
        "streetDirectionId": null,
        "streetTypeId": "ST",
        "placeName": "HANMER",
        "streetNameDisplayText": "ODILE ST, HANMER"
      }
    ]
  },
  {
    "postal": "P3P2P9",
    "result": []
  },
  {
    "postal": "P3P5T4",
    "result": []
  },
  {
    "postal": "P3P5Z1",
    "result": []
  },
  {
    "postal": "P3P2X0",
    "result": []
  },
  {
    "postal": "P3P6Z2",
    "result": []
  },
  {
    "postal": "P3P0E0",
    "result": []
  },
  {
    "postal": "P3P3Z5",
    "result": []
  },
  {
    "postal": "P3P8H3",
    "result": []
  },
  {
    "postal": "P3P7S6",
    "result": []
  },
  {
    "postal": "P3P4C1",
    "result": []
  },
  {
    "postal": "P3P3K2",
    "result": []
  },
  {
    "postal": "P3P1Y5",
    "result": [
      {
        "electoralDistricts": [
          {
            "election": null,
            "id": 71,
            "name": "Nickel Belt"
          }
        ],
        "pollDivisionIds": [
          10140122
        ],
        "postalCode": "P3P1Y5",
        "streetName": "JEANNE D'ARC",
        "streetDirectionId": null,
        "streetTypeId": "ST",
        "placeName": "HANMER",
        "streetNameDisplayText": "JEANNE D'ARC ST, HANMER"
      },
      {
        "electoralDistricts": [
          {
            "election": null,
            "id": 71,
            "name": "Nickel Belt"
          }
        ],
        "pollDivisionIds": [
          10140122
        ],
        "postalCode": "P3P1Y5",
        "streetName": "JEANNE-D'ARC",
        "streetDirectionId": null,
        "streetTypeId": "ST",
        "placeName": "HANMER",
        "streetNameDisplayText": "JEANNE-D'ARC ST, HANMER"
      },
      {
        "electoralDistricts": [
          {
            "election": null,
            "id": 71,
            "name": "Nickel Belt"
          }
        ],
        "pollDivisionIds": [
          10140122
        ],
        "postalCode": "P3P1Y5",
        "streetName": "LEGER",
        "streetDirectionId": null,
        "streetTypeId": "CRES",
        "placeName": "HANMER",
        "streetNameDisplayText": "LEGER CRES, HANMER"
      },
      {
        "electoralDistricts": [
          {
            "election": null,
            "id": 71,
            "name": "Nickel Belt"
          }
        ],
        "pollDivisionIds": [
          10140122
        ],
        "postalCode": "P3P1Y5",
        "streetName": "ST. MARY",
        "streetDirectionId": null,
        "streetTypeId": "BLVD",
        "placeName": "HANMER",
        "streetNameDisplayText": "ST. MARY BLVD, HANMER"
      }
    ]
  },
  {
    "postal": "P3P6P6",
    "result": []
  },
  {
    "postal": "P3P3N9",
    "result": []
  },
  {
    "postal": "P3P3W2",
    "result": []
  },
  {
    "postal": "P3P6H8",
    "result": []
  },
  {
    "postal": "P3P9T3",
    "result": []
  },
  {
    "postal": "P3P5L9",
    "result": []
  },
  {
    "postal": "P3P7X7",
    "result": []
  },
  {
    "postal": "P3P3J5",
    "result": []
  },
  {
    "postal": "P3P4J5",
    "result": []
  },
  {
    "postal": "P3P6J2",
    "result": []
  },
  {
    "postal": "P3P5V6",
    "result": []
  },
  {
    "postal": "P3P3N2",
    "result": []
  },
  {
    "postal": "P3P3B1",
    "result": []
  },
  {
    "postal": "P3P8B5",
    "result": []
  },
  {
    "postal": "P3P0K1",
    "result": []
  },
  {
    "postal": "P3P7M7",
    "result": []
  },
  {
    "postal": "P3P2M2",
    "result": []
  },
  {
    "postal": "P3P9N3",
    "result": []
  },
  {
    "postal": "P3P4Y8",
    "result": []
  },
  {
    "postal": "P3P3V7",
    "result": []
  },
  {
    "postal": "P3P8Z1",
    "result": []
  },
  {
    "postal": "P3P7B3",
    "result": []
  },
  {
    "postal": "P3P3A8",
    "result": []
  },
  {
    "postal": "P3P7V5",
    "result": []
  },
  {
    "postal": "P3P2T2",
    "result": []
  },
  {
    "postal": "P3P6L3",
    "result": []
  },
  {
    "postal": "P3P0L2",
    "result": []
  },
  {
    "postal": "P3P5Y8",
    "result": []
  },
  {
    "postal": "P3P0B8",
    "result": [
      {
        "electoralDistricts": [
          {
            "election": null,
            "id": 71,
            "name": "Nickel Belt"
          }
        ],
        "pollDivisionIds": [
          10140122
        ],
        "postalCode": "P3P0B8",
        "streetName": "HERITAGE",
        "streetDirectionId": null,
        "streetTypeId": "DR",
        "placeName": "HANMER",
        "streetNameDisplayText": "HERITAGE DR, HANMER"
      }
    ]
  },
  {
    "postal": "P3P6R5",
    "result": []
  },
  {
    "postal": "P3P8W6",
    "result": []
  },
  {
    "postal": "P3P8G6",
    "result": []
  },
  {
    "postal": "P3P6X3",
    "result": []
  },
  {
    "postal": "P3P7R7",
    "result": []
  },
  {
    "postal": "P3P4B6",
    "result": []
  },
  {
    "postal": "P3P3P9",
    "result": []
  },
  {
    "postal": "P3P2T3",
    "result": []
  },
  {
    "postal": "P3P1M4",
    "result": [
      {
        "electoralDistricts": [
          {
            "election": null,
            "id": 71,
            "name": "Nickel Belt"
          }
        ],
        "pollDivisionIds": [
          10140124
        ],
        "postalCode": "P3P1M4",
        "streetName": "EVA",
        "streetDirectionId": null,
        "streetTypeId": "ST",
        "placeName": "HANMER",
        "streetNameDisplayText": "EVA ST, HANMER"
      },
      {
        "electoralDistricts": [
          {
            "election": null,
            "id": 71,
            "name": "Nickel Belt"
          }
        ],
        "pollDivisionIds": [
          10140124
        ],
        "postalCode": "P3P1M4",
        "streetName": "ROY",
        "streetDirectionId": null,
        "streetTypeId": "AVE",
        "placeName": "HANMER",
        "streetNameDisplayText": "ROY AVE, HANMER"
      },
      {
        "electoralDistricts": [
          {
            "election": null,
            "id": 71,
            "name": "Nickel Belt"
          }
        ],
        "pollDivisionIds": [
          10140124
        ],
        "postalCode": "P3P1M4",
        "streetName": "THERESA",
        "streetDirectionId": null,
        "streetTypeId": "AVE",
        "placeName": "HANMER",
        "streetNameDisplayText": "THERESA AVE, HANMER"
      }
    ]
  },
  {
    "postal": "P3P0H1",
    "result": []
  },
  {
    "postal": "P3P9W3",
    "result": []
  },
  {
    "postal": "P3P6P1",
    "result": []
  },
  {
    "postal": "P3P7G2",
    "result": []
  },
  {
    "postal": "P3P4J9",
    "result": []
  },
  {
    "postal": "P3P9E4",
    "result": []
  },
  {
    "postal": "P3P8H0",
    "result": []
  },
  {
    "postal": "P3P4M7",
    "result": []
  },
  {
    "postal": "P3P2G9",
    "result": []
  },
  {
    "postal": "P3P8T2",
    "result": []
  },
  {
    "postal": "P3P7G7",
    "result": []
  },
  {
    "postal": "P3P4Z3",
    "result": []
  },
  {
    "postal": "P3P5B3",
    "result": []
  },
  {
    "postal": "P3P1S7",
    "result": [
      {
        "electoralDistricts": [
          {
            "election": null,
            "id": 71,
            "name": "Nickel Belt"
          }
        ],
        "pollDivisionIds": [
          10140122
        ],
        "postalCode": "P3P1S7",
        "streetName": "ELIZABETH",
        "streetDirectionId": null,
        "streetTypeId": "CRES",
        "placeName": "VAL THERESE",
        "streetNameDisplayText": "ELIZABETH CRES, VAL THERESE"
      },
      {
        "electoralDistricts": [
          {
            "election": null,
            "id": 71,
            "name": "Nickel Belt"
          }
        ],
        "pollDivisionIds": [
          10140122
        ],
        "postalCode": "P3P1S7",
        "streetName": "GAUTHIER",
        "streetDirectionId": null,
        "streetTypeId": "ST",
        "placeName": "VAL THERESE",
        "streetNameDisplayText": "GAUTHIER ST, VAL THERESE"
      },
      {
        "electoralDistricts": [
          {
            "election": null,
            "id": 71,
            "name": "Nickel Belt"
          }
        ],
        "pollDivisionIds": [
          10140122
        ],
        "postalCode": "P3P1S7",
        "streetName": "HIGHWAY 69",
        "streetDirectionId": "N",
        "streetTypeId": null,
        "placeName": "VAL THERESE",
        "streetNameDisplayText": "HIGHWAY 69 N, VAL THERESE"
      },
      {
        "electoralDistricts": [
          {
            "election": null,
            "id": 71,
            "name": "Nickel Belt"
          }
        ],
        "pollDivisionIds": [
          10140122
        ],
        "postalCode": "P3P1S7",
        "streetName": "HWY 69",
        "streetDirectionId": "N",
        "streetTypeId": null,
        "placeName": "VAL THERESE",
        "streetNameDisplayText": "HWY 69 N, VAL THERESE"
      },
      {
        "electoralDistricts": [
          {
            "election": null,
            "id": 71,
            "name": "Nickel Belt"
          }
        ],
        "pollDivisionIds": [
          10140121
        ],
        "postalCode": "P3P1S7",
        "streetName": "KENNETH",
        "streetDirectionId": null,
        "streetTypeId": "DR",
        "placeName": "HANMER",
        "streetNameDisplayText": "KENNETH DR, HANMER"
      },
      {
        "electoralDistricts": [
          {
            "election": null,
            "id": 71,
            "name": "Nickel Belt"
          }
        ],
        "pollDivisionIds": [
          10140121
        ],
        "postalCode": "P3P1S7",
        "streetName": "KENNETH",
        "streetDirectionId": null,
        "streetTypeId": "DR",
        "placeName": "VAL THERESE",
        "streetNameDisplayText": "KENNETH DR, VAL THERESE"
      },
      {
        "electoralDistricts": [
          {
            "election": null,
            "id": 71,
            "name": "Nickel Belt"
          }
        ],
        "pollDivisionIds": [
          10140122
        ],
        "postalCode": "P3P1S7",
        "streetName": "LABELLE",
        "streetDirectionId": null,
        "streetTypeId": "ST",
        "placeName": "VAL THERESE",
        "streetNameDisplayText": "LABELLE ST, VAL THERESE"
      },
      {
        "electoralDistricts": [
          {
            "election": null,
            "id": 71,
            "name": "Nickel Belt"
          }
        ],
        "pollDivisionIds": [
          10140113
        ],
        "postalCode": "P3P1S7",
        "streetName": "MUNICIPAL 80",
        "streetDirectionId": null,
        "streetTypeId": "RD",
        "placeName": "VAL THERESE",
        "streetNameDisplayText": "MUNICIPAL 80 RD, VAL THERESE"
      },
      {
        "electoralDistricts": [
          {
            "election": null,
            "id": 71,
            "name": "Nickel Belt"
          }
        ],
        "pollDivisionIds": [
          10140122
        ],
        "postalCode": "P3P1S7",
        "streetName": "REGIONAL 80",
        "streetDirectionId": null,
        "streetTypeId": "RD",
        "placeName": "HANMER",
        "streetNameDisplayText": "REGIONAL 80 RD, HANMER"
      },
      {
        "electoralDistricts": [
          {
            "election": null,
            "id": 71,
            "name": "Nickel Belt"
          }
        ],
        "pollDivisionIds": [
          10140121
        ],
        "postalCode": "P3P1S7",
        "streetName": "REGIONAL 80",
        "streetDirectionId": null,
        "streetTypeId": "RD",
        "placeName": "VAL CARON",
        "streetNameDisplayText": "REGIONAL 80 RD, VAL CARON"
      }
    ]
  },
  {
    "postal": "P3P2N7",
    "result": []
  },
  {
    "postal": "P3P0H8",
    "result": []
  },
  {
    "postal": "P3P7Z4",
    "result": []
  },
  {
    "postal": "P3P7B1",
    "result": []
  },
  {
    "postal": "P3P7P8",
    "result": []
  },
  {
    "postal": "P3P7N0",
    "result": []
  },
  {
    "postal": "P3P3Y5",
    "result": []
  },
  {
    "postal": "P3P6K1",
    "result": []
  },
  {
    "postal": "P3P9X5",
    "result": []
  },
  {
    "postal": "P3P7S5",
    "result": []
  },
  {
    "postal": "P3P0A4",
    "result": [
      {
        "electoralDistricts": [
          {
            "election": null,
            "id": 71,
            "name": "Nickel Belt"
          }
        ],
        "pollDivisionIds": [
          10140123,
          10140122
        ],
        "postalCode": "P3P0A4",
        "streetName": "SADDLE CREEK",
        "streetDirectionId": null,
        "streetTypeId": "DR",
        "placeName": "HANMER",
        "streetNameDisplayText": "SADDLE CREEK DR, HANMER"
      },
      {
        "electoralDistricts": [
          {
            "election": null,
            "id": 71,
            "name": "Nickel Belt"
          }
        ],
        "pollDivisionIds": [
          10140122
        ],
        "postalCode": "P3P0A4",
        "streetName": "SADDLECREEK",
        "streetDirectionId": null,
        "streetTypeId": "DR",
        "placeName": "HANMER",
        "streetNameDisplayText": "SADDLECREEK DR, HANMER"
      }
    ]
  },
  {
    "postal": "P3P4T5",
    "result": []
  },
  {
    "postal": "P3P5K1",
    "result": []
  },
  {
    "postal": "P3P0Z9",
    "result": []
  },
  {
    "postal": "P3P7T2",
    "result": []
  },
  {
    "postal": "P3P1L5",
    "result": [
      {
        "electoralDistricts": [
          {
            "election": null,
            "id": 71,
            "name": "Nickel Belt"
          }
        ],
        "pollDivisionIds": [
          10140124
        ],
        "postalCode": "P3P1L5",
        "streetName": "ARMAND",
        "streetDirectionId": null,
        "streetTypeId": "ST",
        "placeName": "HANMER",
        "streetNameDisplayText": "ARMAND ST, HANMER"
      },
      {
        "electoralDistricts": [
          {
            "election": null,
            "id": 71,
            "name": "Nickel Belt"
          }
        ],
        "pollDivisionIds": [
          10140124
        ],
        "postalCode": "P3P1L5",
        "streetName": "CARINA",
        "streetDirectionId": null,
        "streetTypeId": "DR",
        "placeName": "HANMER",
        "streetNameDisplayText": "CARINA DR, HANMER"
      }
    ]
  },
  {
    "postal": "P3P3N5",
    "result": []
  },
  {
    "postal": "P3P6H4",
    "result": []
  },
  {
    "postal": "P3P5A5",
    "result": []
  },
  {
    "postal": "P3P3R9",
    "result": []
  },
  {
    "postal": "P3P7L8",
    "result": []
  },
  {
    "postal": "P3P6T6",
    "result": []
  },
  {
    "postal": "P3P7Y7",
    "result": []
  },
  {
    "postal": "P3P3M8",
    "result": []
  },
  {
    "postal": "P3P2E0",
    "result": []
  },
  {
    "postal": "P3P4B5",
    "result": []
  },
  {
    "postal": "P3P1J3",
    "result": [
      {
        "electoralDistricts": [
          {
            "election": null,
            "id": 71,
            "name": "Nickel Belt"
          }
        ],
        "pollDivisionIds": [
          10140124,
          10140123
        ],
        "postalCode": "P3P1J3",
        "streetName": "GRAVEL",
        "streetDirectionId": null,
        "streetTypeId": "DR",
        "placeName": "HANMER",
        "streetNameDisplayText": "GRAVEL DR, HANMER"
      },
      {
        "electoralDistricts": [
          {
            "election": null,
            "id": 71,
            "name": "Nickel Belt"
          }
        ],
        "pollDivisionIds": [
          10140123
        ],
        "postalCode": "P3P1J3",
        "streetName": "OUTREMONT",
        "streetDirectionId": null,
        "streetTypeId": "BLVD",
        "placeName": "HANMER",
        "streetNameDisplayText": "OUTREMONT BLVD, HANMER"
      }
    ]
  },
  {
    "postal": "P3P5S6",
    "result": []
  },
  {
    "postal": "P3P8P7",
    "result": []
  },
  {
    "postal": "P3P7S7",
    "result": []
  },
  {
    "postal": "P3P4C2",
    "result": []
  },
  {
    "postal": "P3P5Y0",
    "result": []
  },
  {
    "postal": "P3P2V7",
    "result": []
  },
  {
    "postal": "P3P8P5",
    "result": []
  },
  {
    "postal": "P3P5P5",
    "result": []
  },
  {
    "postal": "P3P5Z0",
    "result": []
  },
  {
    "postal": "P3P9B0",
    "result": []
  },
  {
    "postal": "P3P1L0",
    "result": []
  },
  {
    "postal": "P3P0B5",
    "result": [
      {
        "electoralDistricts": [
          {
            "election": null,
            "id": 71,
            "name": "Nickel Belt"
          }
        ],
        "pollDivisionIds": [
          10140123
        ],
        "postalCode": "P3P0B5",
        "streetName": "FRANCIS",
        "streetDirectionId": null,
        "streetTypeId": "ST",
        "placeName": "HANMER",
        "streetNameDisplayText": "FRANCIS ST, HANMER"
      },
      {
        "electoralDistricts": [
          {
            "election": null,
            "id": 71,
            "name": "Nickel Belt"
          }
        ],
        "pollDivisionIds": [
          10140123
        ],
        "postalCode": "P3P0B5",
        "streetName": "SERENNA",
        "streetDirectionId": null,
        "streetTypeId": "DR",
        "placeName": "HANMER",
        "streetNameDisplayText": "SERENNA DR, HANMER"
      }
    ]
  },
  {
    "postal": "P3P3L2",
    "result": []
  },
  {
    "postal": "P3P3B7",
    "result": []
  },
  {
    "postal": "P3P8L1",
    "result": []
  },
  {
    "postal": "P3P5M4",
    "result": []
  },
  {
    "postal": "P3P4G9",
    "result": []
  },
  {
    "postal": "P3P0P0",
    "result": []
  },
  {
    "postal": "P3P8G2",
    "result": []
  },
  {
    "postal": "P3P1V9",
    "result": []
  },
  {
    "postal": "P3P8N8",
    "result": []
  },
  {
    "postal": "P3P6S8",
    "result": []
  },
  {
    "postal": "P3P8H2",
    "result": []
  },
  {
    "postal": "P3P5R8",
    "result": []
  },
  {
    "postal": "P3P5L4",
    "result": []
  },
  {
    "postal": "P3P9E1",
    "result": []
  },
  {
    "postal": "P3P1C4",
    "result": [
      {
        "electoralDistricts": [
          {
            "election": null,
            "id": 71,
            "name": "Nickel Belt"
          }
        ],
        "pollDivisionIds": [
          10140122
        ],
        "postalCode": "P3P1C4",
        "streetName": "BEAVER",
        "streetDirectionId": null,
        "streetTypeId": "AVE",
        "placeName": "HANMER",
        "streetNameDisplayText": "BEAVER AVE, HANMER"
      },
      {
        "electoralDistricts": [
          {
            "election": null,
            "id": 71,
            "name": "Nickel Belt"
          }
        ],
        "pollDivisionIds": [
          10140122
        ],
        "postalCode": "P3P1C4",
        "streetName": "GRETA",
        "streetDirectionId": null,
        "streetTypeId": "ST",
        "placeName": "HANMER",
        "streetNameDisplayText": "GRETA ST, HANMER"
      },
      {
        "electoralDistricts": [
          {
            "election": null,
            "id": 71,
            "name": "Nickel Belt"
          }
        ],
        "pollDivisionIds": [
          10140123
        ],
        "postalCode": "P3P1C4",
        "streetName": "HWY 69",
        "streetDirectionId": "N",
        "streetTypeId": null,
        "placeName": "HANMER",
        "streetNameDisplayText": "HWY 69 N, HANMER"
      },
      {
        "electoralDistricts": [
          {
            "election": null,
            "id": 71,
            "name": "Nickel Belt"
          }
        ],
        "pollDivisionIds": [
          10140122
        ],
        "postalCode": "P3P1C4",
        "streetName": "PARK",
        "streetDirectionId": null,
        "streetTypeId": "AVE",
        "placeName": "HANMER",
        "streetNameDisplayText": "PARK AVE, HANMER"
      },
      {
        "electoralDistricts": [
          {
            "election": null,
            "id": 71,
            "name": "Nickel Belt"
          }
        ],
        "pollDivisionIds": [
          10140122
        ],
        "postalCode": "P3P1C4",
        "streetName": "SERVICE",
        "streetDirectionId": null,
        "streetTypeId": "RD",
        "placeName": "HANMER",
        "streetNameDisplayText": "SERVICE RD, HANMER"
      },
      {
        "electoralDistricts": [
          {
            "election": null,
            "id": 71,
            "name": "Nickel Belt"
          }
        ],
        "pollDivisionIds": [
          10140122
        ],
        "postalCode": "P3P1C4",
        "streetName": "TILLY",
        "streetDirectionId": null,
        "streetTypeId": "ST",
        "placeName": "HANMER",
        "streetNameDisplayText": "TILLY ST, HANMER"
      }
    ]
  },
  {
    "postal": "P3P8W5",
    "result": []
  },
  {
    "postal": "P3P1Y4",
    "result": [
      {
        "electoralDistricts": [
          {
            "election": null,
            "id": 71,
            "name": "Nickel Belt"
          }
        ],
        "pollDivisionIds": [
          10140112,
          10140122
        ],
        "postalCode": "P3P1Y4",
        "streetName": "CLASSIC",
        "streetDirectionId": null,
        "streetTypeId": "PKY",
        "placeName": "HANMER",
        "streetNameDisplayText": "CLASSIC PKY, HANMER"
      }
    ]
  },
  {
    "postal": "P3P1C0",
    "result": []
  },
  {
    "postal": "P3P2J2",
    "result": []
  },
  {
    "postal": "P3P2J0",
    "result": []
  },
  {
    "postal": "P3P7A3",
    "result": []
  },
  {
    "postal": "P3P8M1",
    "result": []
  },
  {
    "postal": "P3P7T9",
    "result": []
  },
  {
    "postal": "P3P6C0",
    "result": []
  },
  {
    "postal": "P3P7X1",
    "result": []
  },
  {
    "postal": "P3P0G1",
    "result": []
  },
  {
    "postal": "P3P4X2",
    "result": []
  },
  {
    "postal": "P3P0N6",
    "result": []
  },
  {
    "postal": "P3P8E3",
    "result": []
  },
  {
    "postal": "P3P5S8",
    "result": []
  },
  {
    "postal": "P3P0R0",
    "result": []
  },
  {
    "postal": "P3P6J6",
    "result": []
  },
  {
    "postal": "P3P4B4",
    "result": []
  },
  {
    "postal": "P3P7E3",
    "result": []
  },
  {
    "postal": "P3P3N6",
    "result": []
  },
  {
    "postal": "P3P3X6",
    "result": []
  },
  {
    "postal": "P3P8L0",
    "result": []
  },
  {
    "postal": "P3P8N1",
    "result": []
  },
  {
    "postal": "P3P4J0",
    "result": []
  },
  {
    "postal": "P3P0X7",
    "result": []
  },
  {
    "postal": "P3P6S4",
    "result": []
  },
  {
    "postal": "P3P0Z0",
    "result": []
  },
  {
    "postal": "P3P9X8",
    "result": []
  },
  {
    "postal": "P3P3H3",
    "result": []
  },
  {
    "postal": "P3P7S2",
    "result": []
  },
  {
    "postal": "P3P3T3",
    "result": []
  },
  {
    "postal": "P3P9P3",
    "result": []
  },
  {
    "postal": "P3P4H8",
    "result": []
  },
  {
    "postal": "P3P6R1",
    "result": []
  },
  {
    "postal": "P3P1S0",
    "result": []
  },
  {
    "postal": "P3P3W8",
    "result": []
  },
  {
    "postal": "P3P4S3",
    "result": []
  },
  {
    "postal": "P3P1B6",
    "result": [
      {
        "electoralDistricts": [
          {
            "election": null,
            "id": 71,
            "name": "Nickel Belt"
          }
        ],
        "pollDivisionIds": [
          10140122
        ],
        "postalCode": "P3P1B6",
        "streetName": "EDMOND",
        "streetDirectionId": null,
        "streetTypeId": "ST",
        "placeName": "HANMER",
        "streetNameDisplayText": "EDMOND ST, HANMER"
      },
      {
        "electoralDistricts": [
          {
            "election": null,
            "id": 71,
            "name": "Nickel Belt"
          }
        ],
        "pollDivisionIds": [
          10140122
        ],
        "postalCode": "P3P1B6",
        "streetName": "HAMILTON",
        "streetDirectionId": null,
        "streetTypeId": "CRES",
        "placeName": "HANMER",
        "streetNameDisplayText": "HAMILTON CRES, HANMER"
      },
      {
        "electoralDistricts": [
          {
            "election": null,
            "id": 71,
            "name": "Nickel Belt"
          }
        ],
        "pollDivisionIds": [
          10140122
        ],
        "postalCode": "P3P1B6",
        "streetName": "HECTOR",
        "streetDirectionId": null,
        "streetTypeId": "CRES",
        "placeName": "HANMER",
        "streetNameDisplayText": "HECTOR CRES, HANMER"
      }
    ]
  },
  {
    "postal": "P3P8R3",
    "result": []
  },
  {
    "postal": "P3P4V9",
    "result": []
  },
  {
    "postal": "P3P9W4",
    "result": []
  },
  {
    "postal": "P3P3T4",
    "result": []
  },
  {
    "postal": "P3P5C7",
    "result": []
  },
  {
    "postal": "P3P3Y1",
    "result": []
  },
  {
    "postal": "P3P5V0",
    "result": []
  },
  {
    "postal": "P3P8G8",
    "result": []
  },
  {
    "postal": "P3P8B1",
    "result": []
  },
  {
    "postal": "P3P4P5",
    "result": []
  },
  {
    "postal": "P3P7B2",
    "result": []
  },
  {
    "postal": "P3P0R2",
    "result": []
  },
  {
    "postal": "P3P4M4",
    "result": []
  },
  {
    "postal": "P3P7M4",
    "result": []
  },
  {
    "postal": "P3P9S7",
    "result": []
  },
  {
    "postal": "P3P5Z7",
    "result": []
  },
  {
    "postal": "P3P7J7",
    "result": []
  },
  {
    "postal": "P3P8R8",
    "result": []
  },
  {
    "postal": "P3P9X1",
    "result": []
  },
  {
    "postal": "P3P5M9",
    "result": []
  },
  {
    "postal": "P3P9B4",
    "result": []
  },
  {
    "postal": "P3P0L9",
    "result": []
  },
  {
    "postal": "P3P9G4",
    "result": []
  },
  {
    "postal": "P3P1J4",
    "result": [
      {
        "electoralDistricts": [
          {
            "election": null,
            "id": 71,
            "name": "Nickel Belt"
          }
        ],
        "pollDivisionIds": [
          10140124
        ],
        "postalCode": "P3P1J4",
        "streetName": "ONWATIN LAKE",
        "streetDirectionId": "E",
        "streetTypeId": "RD",
        "placeName": "HANMER",
        "streetNameDisplayText": "ONWATIN LAKE RD E, HANMER"
      },
      {
        "electoralDistricts": [
          {
            "election": null,
            "id": 71,
            "name": "Nickel Belt"
          }
        ],
        "pollDivisionIds": [
          10140123,
          10140124
        ],
        "postalCode": "P3P1J4",
        "streetName": "ONWATIN LAKE",
        "streetDirectionId": null,
        "streetTypeId": "RD",
        "placeName": "HANMER",
        "streetNameDisplayText": "ONWATIN LAKE RD, HANMER"
      }
    ]
  },
  {
    "postal": "P3P0W6",
    "result": []
  }
]
