[
  {
    "postal": "L5V9J6",
    "result": []
  },
  {
    "postal": "L5V9Z5",
    "result": []
  },
  {
    "postal": "L5V7H8",
    "result": []
  },
  {
    "postal": "L5V0P6",
    "result": []
  },
  {
    "postal": "L5V0S7",
    "result": []
  },
  {
    "postal": "L5V8B9",
    "result": []
  },
  {
    "postal": "L5V2A6",
    "result": [
      {
        "electoralDistricts": [
          {
            "election": null,
            "id": 60,
            "name": "Mississauga Centre"
          }
        ],
        "pollDivisionIds": [
          10135093
        ],
        "postalCode": "L5V2A6",
        "streetName": "APPLECROFT",
        "streetDirectionId": null,
        "streetTypeId": "CIR",
        "placeName": "MISSISSAUGA",
        "streetNameDisplayText": "APPLECROFT CIR, MISSISSAUGA"
      }
    ]
  },
  {
    "postal": "L5V7V2",
    "result": []
  },
  {
    "postal": "L5V9P4",
    "result": []
  },
  {
    "postal": "L5V6G0",
    "result": []
  },
  {
    "postal": "L5V2K0",
    "result": []
  },
  {
    "postal": "L5V7N6",
    "result": []
  },
  {
    "postal": "L5V5R3",
    "result": []
  },
  {
    "postal": "L5V7K0",
    "result": []
  },
  {
    "postal": "L5V3R2",
    "result": []
  },
  {
    "postal": "L5V0J1",
    "result": []
  },
  {
    "postal": "L5V0B0",
    "result": []
  },
  {
    "postal": "L5V5Z2",
    "result": []
  },
  {
    "postal": "L5V7P3",
    "result": []
  },
  {
    "postal": "L5V2K3",
    "result": [
      {
        "electoralDistricts": [
          {
            "election": null,
            "id": 64,
            "name": "Mississauga—Malton"
          }
        ],
        "pollDivisionIds": [
          10139823
        ],
        "postalCode": "L5V2K3",
        "streetName": "SIDMOUTH",
        "streetDirectionId": null,
        "streetTypeId": "ST",
        "placeName": "MISSISSAUGA",
        "streetNameDisplayText": "SIDMOUTH ST, MISSISSAUGA"
      }
    ]
  },
  {
    "postal": "L5V7Y6",
    "result": []
  },
  {
    "postal": "L5V1L9",
    "result": [
      {
        "electoralDistricts": [
          {
            "election": null,
            "id": 64,
            "name": "Mississauga—Malton"
          }
        ],
        "pollDivisionIds": [
          10139822
        ],
        "postalCode": "L5V1L9",
        "streetName": "BANCROFT",
        "streetDirectionId": null,
        "streetTypeId": "DR",
        "placeName": "MISSISSAUGA",
        "streetNameDisplayText": "BANCROFT DR, MISSISSAUGA"
      },
      {
        "electoralDistricts": [
          {
            "election": null,
            "id": 64,
            "name": "Mississauga—Malton"
          }
        ],
        "pollDivisionIds": [
          10139822
        ],
        "postalCode": "L5V1L9",
        "streetName": "BANKHEAD",
        "streetDirectionId": null,
        "streetTypeId": "CRT",
        "placeName": "MISSISSAUGA",
        "streetNameDisplayText": "BANKHEAD CRT, MISSISSAUGA"
      }
    ]
  },
  {
    "postal": "L5V8T0",
    "result": []
  },
  {
    "postal": "L5V3K8",
    "result": []
  },
  {
    "postal": "L5V5W9",
    "result": []
  },
  {
    "postal": "L5V6T9",
    "result": []
  },
  {
    "postal": "L5V4H1",
    "result": []
  },
  {
    "postal": "L5V7A2",
    "result": []
  },
  {
    "postal": "L5V5G0",
    "result": []
  },
  {
    "postal": "L5V8V5",
    "result": []
  },
  {
    "postal": "L5V2Y8",
    "result": [
      {
        "electoralDistricts": [
          {
            "election": null,
            "id": 64,
            "name": "Mississauga—Malton"
          }
        ],
        "pollDivisionIds": [
          10139822
        ],
        "postalCode": "L5V2Y8",
        "streetName": "PATE",
        "streetDirectionId": null,
        "streetTypeId": "CRT",
        "placeName": "MISSISSAUGA",
        "streetNameDisplayText": "PATE CRT, MISSISSAUGA"
      },
      {
        "electoralDistricts": [
          {
            "election": null,
            "id": 64,
            "name": "Mississauga—Malton"
          }
        ],
        "pollDivisionIds": [
          10139822
        ],
        "postalCode": "L5V2Y8",
        "streetName": "WHITEHORN",
        "streetDirectionId": null,
        "streetTypeId": "AVE",
        "placeName": "MISSISSAUGA",
        "streetNameDisplayText": "WHITEHORN AVE, MISSISSAUGA"
      }
    ]
  },
  {
    "postal": "L5V2B6",
    "result": [
      {
        "electoralDistricts": [
          {
            "election": null,
            "id": 60,
            "name": "Mississauga Centre"
          }
        ],
        "pollDivisionIds": [
          10135099
        ],
        "postalCode": "L5V2B6",
        "streetName": "SILVERWATER MILL",
        "streetDirectionId": null,
        "streetTypeId": "CRES",
        "placeName": "MISSISSAUGA",
        "streetNameDisplayText": "SILVERWATER MILL CRES, MISSISSAUGA"
      }
    ]
  },
  {
    "postal": "L5V4W8",
    "result": []
  },
  {
    "postal": "L5V8H7",
    "result": []
  },
  {
    "postal": "L5V5P1",
    "result": []
  },
  {
    "postal": "L5V2B8",
    "result": [
      {
        "electoralDistricts": [
          {
            "election": null,
            "id": 60,
            "name": "Mississauga Centre"
          }
        ],
        "pollDivisionIds": [
          10135099
        ],
        "postalCode": "L5V2B8",
        "streetName": "SHERWOOD MILLS",
        "streetDirectionId": null,
        "streetTypeId": "BLVD",
        "placeName": "MISSISSAUGA",
        "streetNameDisplayText": "SHERWOOD MILLS BLVD, MISSISSAUGA"
      },
      {
        "electoralDistricts": [
          {
            "election": null,
            "id": 60,
            "name": "Mississauga Centre"
          }
        ],
        "pollDivisionIds": [
          10135099
        ],
        "postalCode": "L5V2B8",
        "streetName": "TIMBER MILL",
        "streetDirectionId": null,
        "streetTypeId": "CRT",
        "placeName": "MISSISSAUGA",
        "streetNameDisplayText": "TIMBER MILL CRT, MISSISSAUGA"
      }
    ]
  },
  {
    "postal": "L5V0P2",
    "result": []
  },
  {
    "postal": "L5V9M1",
    "result": []
  },
  {
    "postal": "L5V3G0",
    "result": []
  },
  {
    "postal": "L5V9Z2",
    "result": []
  },
  {
    "postal": "L5V2A0",
    "result": []
  },
  {
    "postal": "L5V6Y0",
    "result": []
  },
  {
    "postal": "L5V2Z8",
    "result": [
      {
        "electoralDistricts": [
          {
            "election": null,
            "id": 64,
            "name": "Mississauga—Malton"
          }
        ],
        "pollDivisionIds": [
          10139822
        ],
        "postalCode": "L5V2Z8",
        "streetName": "COXSWAIN",
        "streetDirectionId": null,
        "streetTypeId": "CRES",
        "placeName": "MISSISSAUGA",
        "streetNameDisplayText": "COXSWAIN CRES, MISSISSAUGA"
      }
    ]
  },
  {
    "postal": "L5V7Y3",
    "result": []
  },
  {
    "postal": "L5V6Z5",
    "result": []
  },
  {
    "postal": "L5V6E0",
    "result": []
  },
  {
    "postal": "L5V9B7",
    "result": []
  },
  {
    "postal": "L5V9S5",
    "result": []
  },
  {
    "postal": "L5V3X3",
    "result": []
  },
  {
    "postal": "L5V7R5",
    "result": []
  },
  {
    "postal": "L5V2X3",
    "result": [
      {
        "electoralDistricts": [
          {
            "election": null,
            "id": 64,
            "name": "Mississauga—Malton"
          }
        ],
        "pollDivisionIds": [
          10139823
        ],
        "postalCode": "L5V2X3",
        "streetName": "COUPLES",
        "streetDirectionId": null,
        "streetTypeId": "ST",
        "placeName": "MISSISSAUGA",
        "streetNameDisplayText": "COUPLES ST, MISSISSAUGA"
      },
      {
        "electoralDistricts": [
          {
            "election": null,
            "id": 64,
            "name": "Mississauga—Malton"
          }
        ],
        "pollDivisionIds": [
          10139823
        ],
        "postalCode": "L5V2X3",
        "streetName": "OMEARA",
        "streetDirectionId": null,
        "streetTypeId": "ST",
        "placeName": "MISSISSAUGA",
        "streetNameDisplayText": "OMEARA ST, MISSISSAUGA"
      },
      {
        "electoralDistricts": [
          {
            "election": null,
            "id": 64,
            "name": "Mississauga—Malton"
          }
        ],
        "pollDivisionIds": [
          10139823
        ],
        "postalCode": "L5V2X3",
        "streetName": "O'MEARA",
        "streetDirectionId": null,
        "streetTypeId": "ST",
        "placeName": "MISSISSAUGA",
        "streetNameDisplayText": "O'MEARA ST, MISSISSAUGA"
      }
    ]
  },
  {
    "postal": "L5V8Z9",
    "result": []
  },
  {
    "postal": "L5V0N4",
    "result": []
  },
  {
    "postal": "L5V1K1",
    "result": [
      {
        "electoralDistricts": [
          {
            "election": null,
            "id": 60,
            "name": "Mississauga Centre"
          }
        ],
        "pollDivisionIds": [
          10135100
        ],
        "postalCode": "L5V1K1",
        "streetName": "VIOLET",
        "streetDirectionId": null,
        "streetTypeId": "RD",
        "placeName": "MISSISSAUGA",
        "streetNameDisplayText": "VIOLET RD, MISSISSAUGA"
      }
    ]
  },
  {
    "postal": "L5V1S3",
    "result": [
      {
        "electoralDistricts": [
          {
            "election": null,
            "id": 60,
            "name": "Mississauga Centre"
          }
        ],
        "pollDivisionIds": [
          10135099
        ],
        "postalCode": "L5V1S3",
        "streetName": "AVONLEA",
        "streetDirectionId": null,
        "streetTypeId": "CRT",
        "placeName": "MISSISSAUGA",
        "streetNameDisplayText": "AVONLEA CRT, MISSISSAUGA"
      },
      {
        "electoralDistricts": [
          {
            "election": null,
            "id": 60,
            "name": "Mississauga Centre"
          }
        ],
        "pollDivisionIds": [
          10135099
        ],
        "postalCode": "L5V1S3",
        "streetName": "BROCKWORTH",
        "streetDirectionId": null,
        "streetTypeId": "DR",
        "placeName": "MISSISSAUGA",
        "streetNameDisplayText": "BROCKWORTH DR, MISSISSAUGA"
      },
      {
        "electoralDistricts": [
          {
            "election": null,
            "id": 60,
            "name": "Mississauga Centre"
          }
        ],
        "pollDivisionIds": [
          10135099
        ],
        "postalCode": "L5V1S3",
        "streetName": "NORTH MILL",
        "streetDirectionId": null,
        "streetTypeId": "CRT",
        "placeName": "MISSISSAUGA",
        "streetNameDisplayText": "NORTH MILL CRT, MISSISSAUGA"
      }
    ]
  },
  {
    "postal": "L5V6M4",
    "result": []
  },
  {
    "postal": "L5V9A9",
    "result": []
  },
  {
    "postal": "L5V9Z9",
    "result": []
  },
  {
    "postal": "L5V6T4",
    "result": []
  },
  {
    "postal": "L5V0B2",
    "result": [
      {
        "electoralDistricts": [
          {
            "election": null,
            "id": 60,
            "name": "Mississauga Centre"
          }
        ],
        "pollDivisionIds": [
          10135098
        ],
        "postalCode": "L5V0B2",
        "streetName": "FELICITY",
        "streetDirectionId": null,
        "streetTypeId": "CRES",
        "placeName": "MISSISSAUGA",
        "streetNameDisplayText": "FELICITY CRES, MISSISSAUGA"
      }
    ]
  },
  {
    "postal": "L5V2L9",
    "result": [
      {
        "electoralDistricts": [
          {
            "election": null,
            "id": 64,
            "name": "Mississauga—Malton"
          }
        ],
        "pollDivisionIds": [
          10139824
        ],
        "postalCode": "L5V2L9",
        "streetName": "MARBLEWOOD",
        "streetDirectionId": null,
        "streetTypeId": "DR",
        "placeName": "MISSISSAUGA",
        "streetNameDisplayText": "MARBLEWOOD DR, MISSISSAUGA"
      },
      {
        "electoralDistricts": [
          {
            "election": null,
            "id": 64,
            "name": "Mississauga—Malton"
          }
        ],
        "pollDivisionIds": [
          10139824
        ],
        "postalCode": "L5V2L9",
        "streetName": "STONEBRIDGE",
        "streetDirectionId": null,
        "streetTypeId": "AVE",
        "placeName": "MISSISSAUGA",
        "streetNameDisplayText": "STONEBRIDGE AVE, MISSISSAUGA"
      }
    ]
  },
  {
    "postal": "L5V8K9",
    "result": []
  },
  {
    "postal": "L5V2H9",
    "result": [
      {
        "electoralDistricts": [
          {
            "election": null,
            "id": 64,
            "name": "Mississauga—Malton"
          }
        ],
        "pollDivisionIds": [
          10139815
        ],
        "postalCode": "L5V2H9",
        "streetName": "NEWCOMBE",
        "streetDirectionId": null,
        "streetTypeId": "DR",
        "placeName": "MISSISSAUGA",
        "streetNameDisplayText": "NEWCOMBE DR, MISSISSAUGA"
      },
      {
        "electoralDistricts": [
          {
            "election": null,
            "id": 64,
            "name": "Mississauga—Malton"
          }
        ],
        "pollDivisionIds": [
          10139815
        ],
        "postalCode": "L5V2H9",
        "streetName": "SEAVER",
        "streetDirectionId": null,
        "streetTypeId": "RD",
        "placeName": "MISSISSAUGA",
        "streetNameDisplayText": "SEAVER RD, MISSISSAUGA"
      }
    ]
  },
  {
    "postal": "L5V3Z6",
    "result": []
  },
  {
    "postal": "L5V3B0",
    "result": []
  },
  {
    "postal": "L5V2H8",
    "result": []
  },
  {
    "postal": "L5V3X2",
    "result": []
  },
  {
    "postal": "L5V2E9",
    "result": [
      {
        "electoralDistricts": [
          {
            "election": null,
            "id": 60,
            "name": "Mississauga Centre"
          }
        ],
        "pollDivisionIds": [
          10135100
        ],
        "postalCode": "L5V2E9",
        "streetName": "RATHKEALE",
        "streetDirectionId": null,
        "streetTypeId": "RD",
        "placeName": "MISSISSAUGA",
        "streetNameDisplayText": "RATHKEALE RD, MISSISSAUGA"
      },
      {
        "electoralDistricts": [
          {
            "election": null,
            "id": 60,
            "name": "Mississauga Centre"
          }
        ],
        "pollDivisionIds": [
          10135094
        ],
        "postalCode": "L5V2E9",
        "streetName": "RATHKEALE",
        "streetDirectionId": null,
        "streetTypeId": "RD",
        "placeName": "MISSISSAUGA, ON",
        "streetNameDisplayText": "RATHKEALE RD, MISSISSAUGA, ON"
      }
    ]
  },
  {
    "postal": "L5V9P6",
    "result": []
  },
  {
    "postal": "L5V9E2",
    "result": []
  },
  {
    "postal": "L5V9H2",
    "result": []
  },
  {
    "postal": "L5V1S8",
    "result": [
      {
        "electoralDistricts": [
          {
            "election": null,
            "id": 60,
            "name": "Mississauga Centre"
          }
        ],
        "pollDivisionIds": [
          10135098
        ],
        "postalCode": "L5V1S8",
        "streetName": "SHERWOOD MILLS",
        "streetDirectionId": null,
        "streetTypeId": "BLVD",
        "placeName": "MISSISSAUGA",
        "streetNameDisplayText": "SHERWOOD MILLS BLVD, MISSISSAUGA"
      }
    ]
  },
  {
    "postal": "L5V3M6",
    "result": []
  },
  {
    "postal": "L5V6Z8",
    "result": []
  },
  {
    "postal": "L5V4J2",
    "result": []
  },
  {
    "postal": "L5V9Y1",
    "result": []
  },
  {
    "postal": "L5V8V6",
    "result": []
  },
  {
    "postal": "L5V6B2",
    "result": []
  },
  {
    "postal": "L5V1P8",
    "result": [
      {
        "electoralDistricts": [
          {
            "election": null,
            "id": 60,
            "name": "Mississauga Centre"
          }
        ],
        "pollDivisionIds": [
          10135098
        ],
        "postalCode": "L5V1P8",
        "streetName": "CHARMINSTER",
        "streetDirectionId": null,
        "streetTypeId": "CRES",
        "placeName": "MISSISSAUGA",
        "streetNameDisplayText": "CHARMINSTER CRES, MISSISSAUGA"
      },
      {
        "electoralDistricts": [
          {
            "election": null,
            "id": 60,
            "name": "Mississauga Centre"
          }
        ],
        "pollDivisionIds": [
          10135098
        ],
        "postalCode": "L5V1P8",
        "streetName": "WARWICKSHIRE",
        "streetDirectionId": null,
        "streetTypeId": "WAY",
        "placeName": "MISSISSAUGA",
        "streetNameDisplayText": "WARWICKSHIRE WAY, MISSISSAUGA"
      }
    ]
  },
  {
    "postal": "L5V0V8",
    "result": []
  },
  {
    "postal": "L5V4Y0",
    "result": []
  },
  {
    "postal": "L5V2T4",
    "result": [
      {
        "electoralDistricts": [
          {
            "election": null,
            "id": 64,
            "name": "Mississauga—Malton"
          }
        ],
        "pollDivisionIds": [
          10139823
        ],
        "postalCode": "L5V2T4",
        "streetName": "GALESWAY",
        "streetDirectionId": null,
        "streetTypeId": "BLVD",
        "placeName": "MISSISSAUGA",
        "streetNameDisplayText": "GALESWAY BLVD, MISSISSAUGA"
      },
      {
        "electoralDistricts": [
          {
            "election": null,
            "id": 64,
            "name": "Mississauga—Malton"
          }
        ],
        "pollDivisionIds": [
          10139823
        ],
        "postalCode": "L5V2T4",
        "streetName": "GANT",
        "streetDirectionId": null,
        "streetTypeId": "CRES",
        "placeName": "MISSISSAUGA",
        "streetNameDisplayText": "GANT CRES, MISSISSAUGA"
      },
      {
        "electoralDistricts": [
          {
            "election": null,
            "id": 64,
            "name": "Mississauga—Malton"
          }
        ],
        "pollDivisionIds": [
          10139823
        ],
        "postalCode": "L5V2T4",
        "streetName": "RIDGECREST",
        "streetDirectionId": null,
        "streetTypeId": "TRAIL",
        "placeName": "MISSISSAUGA",
        "streetNameDisplayText": "RIDGECREST TRAIL, MISSISSAUGA"
      }
    ]
  },
  {
    "postal": "L5V2S3",
    "result": [
      {
        "electoralDistricts": [
          {
            "election": null,
            "id": 64,
            "name": "Mississauga—Malton"
          }
        ],
        "pollDivisionIds": [
          10139815
        ],
        "postalCode": "L5V2S3",
        "streetName": "CRUZ",
        "streetDirectionId": null,
        "streetTypeId": "AVE",
        "placeName": "MISSISSAUGA",
        "streetNameDisplayText": "CRUZ AVE, MISSISSAUGA"
      },
      {
        "electoralDistricts": [
          {
            "election": null,
            "id": 64,
            "name": "Mississauga—Malton"
          }
        ],
        "pollDivisionIds": [
          10139815
        ],
        "postalCode": "L5V2S3",
        "streetName": "DELGADO",
        "streetDirectionId": null,
        "streetTypeId": "DR",
        "placeName": "MISSISSAUGA",
        "streetNameDisplayText": "DELGADO DR, MISSISSAUGA"
      },
      {
        "electoralDistricts": [
          {
            "election": null,
            "id": 64,
            "name": "Mississauga—Malton"
          }
        ],
        "pollDivisionIds": [
          10139815
        ],
        "postalCode": "L5V2S3",
        "streetName": "SOUSA",
        "streetDirectionId": null,
        "streetTypeId": "DR",
        "placeName": "MISSISSAUGA",
        "streetNameDisplayText": "SOUSA DR, MISSISSAUGA"
      }
    ]
  },
  {
    "postal": "L5V0K0",
    "result": []
  },
  {
    "postal": "L5V5N1",
    "result": []
  },
  {
    "postal": "L5V7T0",
    "result": []
  },
  {
    "postal": "L5V9N2",
    "result": []
  },
  {
    "postal": "L5V5L1",
    "result": []
  },
  {
    "postal": "L5V7G5",
    "result": []
  },
  {
    "postal": "L5V6K2",
    "result": []
  },
  {
    "postal": "L5V6P9",
    "result": []
  },
  {
    "postal": "L5V0E6",
    "result": []
  },
  {
    "postal": "L5V8R9",
    "result": []
  },
  {
    "postal": "L5V3G9",
    "result": []
  },
  {
    "postal": "L5V0V7",
    "result": []
  },
  {
    "postal": "L5V2Z1",
    "result": [
      {
        "electoralDistricts": [
          {
            "election": null,
            "id": 64,
            "name": "Mississauga—Malton"
          }
        ],
        "pollDivisionIds": [
          10139823
        ],
        "postalCode": "L5V2Z1",
        "streetName": "PRESTONWOOD",
        "streetDirectionId": null,
        "streetTypeId": "CRES",
        "placeName": "MISSISSAUGA",
        "streetNameDisplayText": "PRESTONWOOD CRES, MISSISSAUGA"
      },
      {
        "electoralDistricts": [
          {
            "election": null,
            "id": 64,
            "name": "Mississauga—Malton"
          }
        ],
        "pollDivisionIds": [
          10139823
        ],
        "postalCode": "L5V2Z1",
        "streetName": "WHITEHORN",
        "streetDirectionId": null,
        "streetTypeId": "AVE",
        "placeName": "MISSISSAUGA",
        "streetNameDisplayText": "WHITEHORN AVE, MISSISSAUGA"
      }
    ]
  },
  {
    "postal": "L5V7N1",
    "result": []
  },
  {
    "postal": "L5V3C6",
    "result": [
      {
        "electoralDistricts": [
          {
            "election": null,
            "id": 60,
            "name": "Mississauga Centre"
          }
        ],
        "pollDivisionIds": [
          10135094
        ],
        "postalCode": "L5V3C6",
        "streetName": "APPLE BLOSSOM",
        "streetDirectionId": null,
        "streetTypeId": "CIR",
        "placeName": "MISSISSAUGA",
        "streetNameDisplayText": "APPLE BLOSSOM CIR, MISSISSAUGA"
      }
    ]
  },
  {
    "postal": "L5V4M1",
    "result": []
  },
  {
    "postal": "L5V9K2",
    "result": []
  },
  {
    "postal": "L5V9S6",
    "result": []
  },
  {
    "postal": "L5V4X1",
    "result": []
  },
  {
    "postal": "L5V8W2",
    "result": []
  },
  {
    "postal": "L5V7N2",
    "result": []
  },
  {
    "postal": "L5V8S3",
    "result": []
  },
  {
    "postal": "L5V4V0",
    "result": []
  },
  {
    "postal": "L5V6W4",
    "result": []
  },
  {
    "postal": "L5V5M1",
    "result": []
  },
  {
    "postal": "L5V0S4",
    "result": []
  },
  {
    "postal": "L5V5X6",
    "result": []
  },
  {
    "postal": "L5V8L5",
    "result": []
  },
  {
    "postal": "L5V5M8",
    "result": []
  },
  {
    "postal": "L5V2G3",
    "result": [
      {
        "electoralDistricts": [
          {
            "election": null,
            "id": 64,
            "name": "Mississauga—Malton"
          }
        ],
        "pollDivisionIds": [
          10139815
        ],
        "postalCode": "L5V2G3",
        "streetName": "MANTLE",
        "streetDirectionId": null,
        "streetTypeId": "CRES",
        "placeName": "MISSISSAUGA",
        "streetNameDisplayText": "MANTLE CRES, MISSISSAUGA"
      },
      {
        "electoralDistricts": [
          {
            "election": null,
            "id": 64,
            "name": "Mississauga—Malton"
          }
        ],
        "pollDivisionIds": [
          10139815
        ],
        "postalCode": "L5V2G3",
        "streetName": "MCCOVEY",
        "streetDirectionId": null,
        "streetTypeId": "DR",
        "placeName": "MISSISSAUGA",
        "streetNameDisplayText": "MCCOVEY DR, MISSISSAUGA"
      }
    ]
  },
  {
    "postal": "L5V8E4",
    "result": []
  },
  {
    "postal": "L5V7S9",
    "result": []
  },
  {
    "postal": "L5V1K3",
    "result": [
      {
        "electoralDistricts": [
          {
            "election": null,
            "id": 60,
            "name": "Mississauga Centre"
          }
        ],
        "pollDivisionIds": [
          10135100
        ],
        "postalCode": "L5V1K3",
        "streetName": "BEAUTY BUSH",
        "streetDirectionId": null,
        "streetTypeId": "CRT",
        "placeName": "MISSISSAUGA",
        "streetNameDisplayText": "BEAUTY BUSH CRT, MISSISSAUGA"
      },
      {
        "electoralDistricts": [
          {
            "election": null,
            "id": 60,
            "name": "Mississauga Centre"
          }
        ],
        "pollDivisionIds": [
          10135100
        ],
        "postalCode": "L5V1K3",
        "streetName": "RATHKEALE",
        "streetDirectionId": null,
        "streetTypeId": "RD",
        "placeName": "MISSISSAUGA",
        "streetNameDisplayText": "RATHKEALE RD, MISSISSAUGA"
      },
      {
        "electoralDistricts": [
          {
            "election": null,
            "id": 60,
            "name": "Mississauga Centre"
          }
        ],
        "pollDivisionIds": [
          10135100
        ],
        "postalCode": "L5V1K3",
        "streetName": "WEEPING WILLOW",
        "streetDirectionId": null,
        "streetTypeId": "DR",
        "placeName": "MISSISSAUGA",
        "streetNameDisplayText": "WEEPING WILLOW DR, MISSISSAUGA"
      }
    ]
  },
  {
    "postal": "L5V4E1",
    "result": []
  },
  {
    "postal": "L5V4R2",
    "result": []
  },
  {
    "postal": "L5V6T0",
    "result": []
  },
  {
    "postal": "L5V3K5",
    "result": []
  },
  {
    "postal": "L5V3S3",
    "result": []
  },
  {
    "postal": "L5V3L4",
    "result": []
  },
  {
    "postal": "L5V9Y2",
    "result": []
  },
  {
    "postal": "L5V1E0",
    "result": []
  },
  {
    "postal": "L5V9A4",
    "result": []
  },
  {
    "postal": "L5V1L3",
    "result": [
      {
        "electoralDistricts": [
          {
            "election": null,
            "id": 60,
            "name": "Mississauga Centre"
          }
        ],
        "pollDivisionIds": [
          10135100
        ],
        "postalCode": "L5V1L3",
        "streetName": "BELLAROSA",
        "streetDirectionId": null,
        "streetTypeId": "LANE",
        "placeName": "MISSISSAUGA",
        "streetNameDisplayText": "BELLAROSA LANE, MISSISSAUGA"
      },
      {
        "electoralDistricts": [
          {
            "election": null,
            "id": 60,
            "name": "Mississauga Centre"
          }
        ],
        "pollDivisionIds": [
          10135100
        ],
        "postalCode": "L5V1L3",
        "streetName": "VANROSE",
        "streetDirectionId": null,
        "streetTypeId": "ST",
        "placeName": "MISSISSAUGA",
        "streetNameDisplayText": "VANROSE ST, MISSISSAUGA"
      }
    ]
  },
  {
    "postal": "L5V6N1",
    "result": []
  },
  {
    "postal": "L5V6G7",
    "result": []
  },
  {
    "postal": "L5V7W1",
    "result": []
  },
  {
    "postal": "L5V4M6",
    "result": []
  },
  {
    "postal": "L5V1K0",
    "result": []
  },
  {
    "postal": "L5V3E2",
    "result": []
  },
  {
    "postal": "L5V5H4",
    "result": []
  },
  {
    "postal": "L5V1K7",
    "result": [
      {
        "electoralDistricts": [
          {
            "election": null,
            "id": 60,
            "name": "Mississauga Centre"
          }
        ],
        "pollDivisionIds": [
          10135100
        ],
        "postalCode": "L5V1K7",
        "streetName": "VANROSE",
        "streetDirectionId": null,
        "streetTypeId": "ST",
        "placeName": "MISSISSAUGA",
        "streetNameDisplayText": "VANROSE ST, MISSISSAUGA"
      },
      {
        "electoralDistricts": [
          {
            "election": null,
            "id": 60,
            "name": "Mississauga Centre"
          }
        ],
        "pollDivisionIds": [
          10135100
        ],
        "postalCode": "L5V1K7",
        "streetName": "WHITE CLOVER",
        "streetDirectionId": null,
        "streetTypeId": "WAY",
        "placeName": "MISSISSAUGA",
        "streetNameDisplayText": "WHITE CLOVER WAY, MISSISSAUGA"
      }
    ]
  },
  {
    "postal": "L5V0H0",
    "result": []
  },
  {
    "postal": "L5V0J3",
    "result": []
  },
  {
    "postal": "L5V1X6",
    "result": [
      {
        "electoralDistricts": [
          {
            "election": null,
            "id": 64,
            "name": "Mississauga—Malton"
          }
        ],
        "pollDivisionIds": [
          10139815
        ],
        "postalCode": "L5V1X6",
        "streetName": "BOYER",
        "streetDirectionId": null,
        "streetTypeId": "BLVD",
        "placeName": "MISSISSAUGA",
        "streetNameDisplayText": "BOYER BLVD, MISSISSAUGA"
      },
      {
        "electoralDistricts": [
          {
            "election": null,
            "id": 64,
            "name": "Mississauga—Malton"
          }
        ],
        "pollDivisionIds": [
          10139815
        ],
        "postalCode": "L5V1X6",
        "streetName": "DRYSDALE",
        "streetDirectionId": null,
        "streetTypeId": "DR",
        "placeName": "MISSISSAUGA",
        "streetNameDisplayText": "DRYSDALE DR, MISSISSAUGA"
      }
    ]
  },
  {
    "postal": "L5V2Z6",
    "result": [
      {
        "electoralDistricts": [
          {
            "election": null,
            "id": 64,
            "name": "Mississauga—Malton"
          }
        ],
        "pollDivisionIds": [
          10139822
        ],
        "postalCode": "L5V2Z6",
        "streetName": "WINDFLEET",
        "streetDirectionId": null,
        "streetTypeId": "CRES",
        "placeName": "MISSISSAUGA",
        "streetNameDisplayText": "WINDFLEET CRES, MISSISSAUGA"
      }
    ]
  },
  {
    "postal": "L5V4R9",
    "result": []
  },
  {
    "postal": "L5V0W8",
    "result": []
  },
  {
    "postal": "L5V1L4",
    "result": [
      {
        "electoralDistricts": [
          {
            "election": null,
            "id": 60,
            "name": "Mississauga Centre"
          }
        ],
        "pollDivisionIds": [
          10135100
        ],
        "postalCode": "L5V1L4",
        "streetName": "NATKARNI",
        "streetDirectionId": null,
        "streetTypeId": "CRES",
        "placeName": "MISSISSAUGA",
        "streetNameDisplayText": "NATKARNI CRES, MISSISSAUGA"
      },
      {
        "electoralDistricts": [
          {
            "election": null,
            "id": 60,
            "name": "Mississauga Centre"
          }
        ],
        "pollDivisionIds": [
          10135100
        ],
        "postalCode": "L5V1L4",
        "streetName": "VANROSE",
        "streetDirectionId": null,
        "streetTypeId": "ST",
        "placeName": "MISSISSAUGA",
        "streetNameDisplayText": "VANROSE ST, MISSISSAUGA"
      }
    ]
  },
  {
    "postal": "L5V0C8",
    "result": [
      {
        "electoralDistricts": [
          {
            "election": null,
            "id": 60,
            "name": "Mississauga Centre"
          }
        ],
        "pollDivisionIds": [
          10135093
        ],
        "postalCode": "L5V0C8",
        "streetName": "BELLAGGIO",
        "streetDirectionId": null,
        "streetTypeId": "CRES",
        "placeName": "MISSISSAUGA",
        "streetNameDisplayText": "BELLAGGIO CRES, MISSISSAUGA"
      }
    ]
  },
  {
    "postal": "L5V9X7",
    "result": []
  },
  {
    "postal": "L5V4T1",
    "result": []
  },
  {
    "postal": "L5V0M0",
    "result": []
  },
  {
    "postal": "L5V6A2",
    "result": []
  },
  {
    "postal": "L5V9S8",
    "result": []
  },
  {
    "postal": "L5V9T4",
    "result": []
  },
  {
    "postal": "L5V9Y4",
    "result": []
  },
  {
    "postal": "L5V6G5",
    "result": []
  },
  {
    "postal": "L5V6H9",
    "result": []
  },
  {
    "postal": "L5V2P3",
    "result": []
  },
  {
    "postal": "L5V1T6",
    "result": [
      {
        "electoralDistricts": [
          {
            "election": null,
            "id": 60,
            "name": "Mississauga Centre"
          }
        ],
        "pollDivisionIds": [
          10135099
        ],
        "postalCode": "L5V1T6",
        "streetName": "CREDITVIEW",
        "streetDirectionId": null,
        "streetTypeId": "RD",
        "placeName": "MISSISSAUGA",
        "streetNameDisplayText": "CREDITVIEW RD, MISSISSAUGA"
      },
      {
        "electoralDistricts": [
          {
            "election": null,
            "id": 60,
            "name": "Mississauga Centre"
          }
        ],
        "pollDivisionIds": [
          10135099
        ],
        "postalCode": "L5V1T6",
        "streetName": "WILLOWVALE",
        "streetDirectionId": null,
        "streetTypeId": "GDNS",
        "placeName": "MISSISSAUGA",
        "streetNameDisplayText": "WILLOWVALE GDNS, MISSISSAUGA"
      }
    ]
  },
  {
    "postal": "L5V4P6",
    "result": []
  },
  {
    "postal": "L5V3K1",
    "result": []
  },
  {
    "postal": "L5V6X4",
    "result": []
  },
  {
    "postal": "L5V4M8",
    "result": []
  },
  {
    "postal": "L5V2Y1",
    "result": []
  },
  {
    "postal": "L5V6M1",
    "result": []
  },
  {
    "postal": "L5V5L8",
    "result": []
  },
  {
    "postal": "L5V3P6",
    "result": []
  },
  {
    "postal": "L5V9A5",
    "result": []
  },
  {
    "postal": "L5V7K1",
    "result": []
  },
  {
    "postal": "L5V3J4",
    "result": []
  },
  {
    "postal": "L5V5E7",
    "result": []
  },
  {
    "postal": "L5V3A7",
    "result": [
      {
        "electoralDistricts": [
          {
            "election": null,
            "id": 64,
            "name": "Mississauga—Malton"
          }
        ],
        "pollDivisionIds": [
          10139824
        ],
        "postalCode": "L5V3A7",
        "streetName": "ARMANDO",
        "streetDirectionId": null,
        "streetTypeId": "AVE",
        "placeName": "MISSISSAUGA",
        "streetNameDisplayText": "ARMANDO AVE, MISSISSAUGA"
      },
      {
        "electoralDistricts": [
          {
            "election": null,
            "id": 64,
            "name": "Mississauga—Malton"
          }
        ],
        "pollDivisionIds": [
          10139824
        ],
        "postalCode": "L5V3A7",
        "streetName": "GENOVESE",
        "streetDirectionId": null,
        "streetTypeId": "PL",
        "placeName": "MISSISSAUGA",
        "streetNameDisplayText": "GENOVESE PL, MISSISSAUGA"
      }
    ]
  },
  {
    "postal": "L5V1B9",
    "result": [
      {
        "electoralDistricts": [
          {
            "election": null,
            "id": 64,
            "name": "Mississauga—Malton"
          }
        ],
        "pollDivisionIds": [
          10139822,
          10139815
        ],
        "postalCode": "L5V1B9",
        "streetName": "BANCROFT",
        "streetDirectionId": null,
        "streetTypeId": "DR",
        "placeName": "MISSISSAUGA",
        "streetNameDisplayText": "BANCROFT DR, MISSISSAUGA"
      },
      {
        "electoralDistricts": [
          {
            "election": null,
            "id": 64,
            "name": "Mississauga—Malton"
          }
        ],
        "pollDivisionIds": [
          10139822
        ],
        "postalCode": "L5V1B9",
        "streetName": "EWING",
        "streetDirectionId": null,
        "streetTypeId": "CRES",
        "placeName": "MISSISSAUGA",
        "streetNameDisplayText": "EWING CRES, MISSISSAUGA"
      },
      {
        "electoralDistricts": [
          {
            "election": null,
            "id": 64,
            "name": "Mississauga—Malton"
          }
        ],
        "pollDivisionIds": [
          10139815,
          10139822
        ],
        "postalCode": "L5V1B9",
        "streetName": "SWINBOURNE",
        "streetDirectionId": null,
        "streetTypeId": "DR",
        "placeName": "MISSISSAUGA",
        "streetNameDisplayText": "SWINBOURNE DR, MISSISSAUGA"
      }
    ]
  },
  {
    "postal": "L5V9E8",
    "result": []
  },
  {
    "postal": "L5V1C9",
    "result": [
      {
        "electoralDistricts": [
          {
            "election": null,
            "id": 60,
            "name": "Mississauga Centre"
          }
        ],
        "pollDivisionIds": [
          10135094
        ],
        "postalCode": "L5V1C9",
        "streetName": "ANDIRON",
        "streetDirectionId": null,
        "streetTypeId": "CRT",
        "placeName": "MISSISSAUGA",
        "streetNameDisplayText": "ANDIRON CRT, MISSISSAUGA"
      },
      {
        "electoralDistricts": [
          {
            "election": null,
            "id": 60,
            "name": "Mississauga Centre"
          }
        ],
        "pollDivisionIds": [
          10135094
        ],
        "postalCode": "L5V1C9",
        "streetName": "SUMMERBREEZE",
        "streetDirectionId": null,
        "streetTypeId": "CRT",
        "placeName": "MISSISSAUGA",
        "streetNameDisplayText": "SUMMERBREEZE CRT, MISSISSAUGA"
      },
      {
        "electoralDistricts": [
          {
            "election": null,
            "id": 60,
            "name": "Mississauga Centre"
          }
        ],
        "pollDivisionIds": [
          10135094
        ],
        "postalCode": "L5V1C9",
        "streetName": "TRAILMASTER",
        "streetDirectionId": null,
        "streetTypeId": "DR",
        "placeName": "MISSISSAUGA",
        "streetNameDisplayText": "TRAILMASTER DR, MISSISSAUGA"
      }
    ]
  },
  {
    "postal": "L5V3B5",
    "result": [
      {
        "electoralDistricts": [
          {
            "election": null,
            "id": 64,
            "name": "Mississauga—Malton"
          }
        ],
        "pollDivisionIds": [
          10139823
        ],
        "postalCode": "L5V3B5",
        "streetName": "CABRERA",
        "streetDirectionId": null,
        "streetTypeId": "CRES",
        "placeName": "MISSISSAUGA",
        "streetNameDisplayText": "CABRERA CRES, MISSISSAUGA"
      },
      {
        "electoralDistricts": [
          {
            "election": null,
            "id": 64,
            "name": "Mississauga—Malton"
          }
        ],
        "pollDivisionIds": [
          10139823
        ],
        "postalCode": "L5V3B5",
        "streetName": "GALESWAY",
        "streetDirectionId": null,
        "streetTypeId": "BLVD",
        "placeName": "MISSISSAUGA",
        "streetNameDisplayText": "GALESWAY BLVD, MISSISSAUGA"
      },
      {
        "electoralDistricts": [
          {
            "election": null,
            "id": 64,
            "name": "Mississauga—Malton"
          }
        ],
        "pollDivisionIds": [
          10139823
        ],
        "postalCode": "L5V3B5",
        "streetName": "WHITEHORN",
        "streetDirectionId": null,
        "streetTypeId": "AVE",
        "placeName": "MISSISSAUGA",
        "streetNameDisplayText": "WHITEHORN AVE, MISSISSAUGA"
      }
    ]
  },
  {
    "postal": "L5V8R0",
    "result": []
  },
  {
    "postal": "L5V3P2",
    "result": []
  },
  {
    "postal": "L5V5V4",
    "result": []
  },
  {
    "postal": "L5V4H0",
    "result": []
  },
  {
    "postal": "L5V4S7",
    "result": []
  },
  {
    "postal": "L5V6C2",
    "result": []
  },
  {
    "postal": "L5V8W3",
    "result": []
  },
  {
    "postal": "L5V4M5",
    "result": []
  },
  {
    "postal": "L5V5T1",
    "result": []
  },
  {
    "postal": "L5V3B3",
    "result": [
      {
        "electoralDistricts": [
          {
            "election": null,
            "id": 64,
            "name": "Mississauga—Malton"
          }
        ],
        "pollDivisionIds": [
          10139823
        ],
        "postalCode": "L5V3B3",
        "streetName": "GALESWAY",
        "streetDirectionId": null,
        "streetTypeId": "BLVD",
        "placeName": "MISSISSAUGA",
        "streetNameDisplayText": "GALESWAY BLVD, MISSISSAUGA"
      }
    ]
  },
  {
    "postal": "L5V6C6",
    "result": []
  },
  {
    "postal": "L5V7N8",
    "result": []
  },
  {
    "postal": "L5V2Y3",
    "result": [
      {
        "electoralDistricts": [
          {
            "election": null,
            "id": 64,
            "name": "Mississauga—Malton"
          }
        ],
        "pollDivisionIds": [
          10139822
        ],
        "postalCode": "L5V2Y3",
        "streetName": "WHITEHORN",
        "streetDirectionId": null,
        "streetTypeId": "AVE",
        "placeName": "MISSISSAUGA",
        "streetNameDisplayText": "WHITEHORN AVE, MISSISSAUGA"
      }
    ]
  },
  {
    "postal": "L5V2R6",
    "result": [
      {
        "electoralDistricts": [
          {
            "election": null,
            "id": 60,
            "name": "Mississauga Centre"
          },
          {
            "election": null,
            "id": 64,
            "name": "Mississauga—Malton"
          }
        ],
        "pollDivisionIds": [
          10135093,
          10135098,
          10139824
        ],
        "postalCode": "L5V2R6",
        "streetName": "HEATHERLEIGH",
        "streetDirectionId": null,
        "streetTypeId": "AVE",
        "placeName": "MISSISSAUGA",
        "streetNameDisplayText": "HEATHERLEIGH AVE, MISSISSAUGA"
      }
    ]
  },
  {
    "postal": "L5V7N3",
    "result": []
  },
  {
    "postal": "L5V8J2",
    "result": []
  },
  {
    "postal": "L5V6A9",
    "result": []
  },
  {
    "postal": "L5V3V2",
    "result": []
  },
  {
    "postal": "L5V2N3",
    "result": [
      {
        "electoralDistricts": [
          {
            "election": null,
            "id": 64,
            "name": "Mississauga—Malton"
          }
        ],
        "pollDivisionIds": [
          10139824
        ],
        "postalCode": "L5V2N3",
        "streetName": "FOXGLOVE",
        "streetDirectionId": null,
        "streetTypeId": "PL",
        "placeName": "MISSISSAUGA",
        "streetNameDisplayText": "FOXGLOVE PL, MISSISSAUGA"
      }
    ]
  },
  {
    "postal": "L5V1S5",
    "result": [
      {
        "electoralDistricts": [
          {
            "election": null,
            "id": 60,
            "name": "Mississauga Centre"
          }
        ],
        "pollDivisionIds": [
          10135099
        ],
        "postalCode": "L5V1S5",
        "streetName": "EAST MILL",
        "streetDirectionId": null,
        "streetTypeId": "RD",
        "placeName": "MISSISSAUGA",
        "streetNameDisplayText": "EAST MILL RD, MISSISSAUGA"
      },
      {
        "electoralDistricts": [
          {
            "election": null,
            "id": 60,
            "name": "Mississauga Centre"
          }
        ],
        "pollDivisionIds": [
          10135099,
          10135100
        ],
        "postalCode": "L5V1S5",
        "streetName": "GRIST MILL",
        "streetDirectionId": null,
        "streetTypeId": "CRT",
        "placeName": "MISSISSAUGA",
        "streetNameDisplayText": "GRIST MILL CRT, MISSISSAUGA"
      },
      {
        "electoralDistricts": [
          {
            "election": null,
            "id": 60,
            "name": "Mississauga Centre"
          }
        ],
        "pollDivisionIds": [
          10135099
        ],
        "postalCode": "L5V1S5",
        "streetName": "SHERWOOD MILLS",
        "streetDirectionId": null,
        "streetTypeId": "BLVD",
        "placeName": "MISSISSAUGA",
        "streetNameDisplayText": "SHERWOOD MILLS BLVD, MISSISSAUGA"
      }
    ]
  },
  {
    "postal": "L5V4T7",
    "result": []
  },
  {
    "postal": "L5V6Y7",
    "result": []
  },
  {
    "postal": "L5V0W7",
    "result": []
  },
  {
    "postal": "L5V2W9",
    "result": [
      {
        "electoralDistricts": [
          {
            "election": null,
            "id": 64,
            "name": "Mississauga—Malton"
          }
        ],
        "pollDivisionIds": [
          10139822
        ],
        "postalCode": "L5V2W9",
        "streetName": "GARCIA",
        "streetDirectionId": null,
        "streetTypeId": "ST",
        "placeName": "MISSISSAUGA",
        "streetNameDisplayText": "GARCIA ST, MISSISSAUGA"
      },
      {
        "electoralDistricts": [
          {
            "election": null,
            "id": 64,
            "name": "Mississauga—Malton"
          }
        ],
        "pollDivisionIds": [
          10139822
        ],
        "postalCode": "L5V2W9",
        "streetName": "WEIR",
        "streetDirectionId": null,
        "streetTypeId": "CHASE",
        "placeName": "MISSISSAUGA",
        "streetNameDisplayText": "WEIR CHASE, MISSISSAUGA"
      }
    ]
  },
  {
    "postal": "L5V8V0",
    "result": []
  },
  {
    "postal": "L5V0H4",
    "result": []
  },
  {
    "postal": "L5V2T1",
    "result": [
      {
        "electoralDistricts": [
          {
            "election": null,
            "id": 64,
            "name": "Mississauga—Malton"
          }
        ],
        "pollDivisionIds": [
          10139823
        ],
        "postalCode": "L5V2T1",
        "streetName": "WINDBROOK",
        "streetDirectionId": null,
        "streetTypeId": "GROVE",
        "placeName": "MISSISSAUGA",
        "streetNameDisplayText": "WINDBROOK GROVE, MISSISSAUGA"
      }
    ]
  },
  {
    "postal": "L5V1B1",
    "result": [
      {
        "electoralDistricts": [
          {
            "election": null,
            "id": 64,
            "name": "Mississauga—Malton"
          }
        ],
        "pollDivisionIds": [
          10139822
        ],
        "postalCode": "L5V1B1",
        "streetName": "CAYESWOOD",
        "streetDirectionId": null,
        "streetTypeId": "CRT",
        "placeName": "MISSISSAUGA",
        "streetNameDisplayText": "CAYESWOOD CRT, MISSISSAUGA"
      },
      {
        "electoralDistricts": [
          {
            "election": null,
            "id": 64,
            "name": "Mississauga—Malton"
          }
        ],
        "pollDivisionIds": [
          10139822
        ],
        "postalCode": "L5V1B1",
        "streetName": "KILLABY",
        "streetDirectionId": null,
        "streetTypeId": "DR",
        "placeName": "MISSISSAUGA",
        "streetNameDisplayText": "KILLABY DR, MISSISSAUGA"
      }
    ]
  },
  {
    "postal": "L5V8B6",
    "result": []
  },
  {
    "postal": "L5V6H1",
    "result": []
  },
  {
    "postal": "L5V8T8",
    "result": []
  },
  {
    "postal": "L5V0T4",
    "result": []
  },
  {
    "postal": "L5V2C4",
    "result": [
      {
        "electoralDistricts": [
          {
            "election": null,
            "id": 60,
            "name": "Mississauga Centre"
          }
        ],
        "pollDivisionIds": [
          10135098
        ],
        "postalCode": "L5V2C4",
        "streetName": "BANTHAM",
        "streetDirectionId": null,
        "streetTypeId": "ST",
        "placeName": "MISSISSAUGA",
        "streetNameDisplayText": "BANTHAM ST, MISSISSAUGA"
      },
      {
        "electoralDistricts": [
          {
            "election": null,
            "id": 60,
            "name": "Mississauga Centre"
          }
        ],
        "pollDivisionIds": [
          10135098
        ],
        "postalCode": "L5V2C4",
        "streetName": "CRANE",
        "streetDirectionId": null,
        "streetTypeId": "CRT",
        "placeName": "MISSISSAUGA",
        "streetNameDisplayText": "CRANE CRT, MISSISSAUGA"
      }
    ]
  },
  {
    "postal": "L5V8N3",
    "result": []
  },
  {
    "postal": "L5V4L8",
    "result": []
  },
  {
    "postal": "L5V2B5",
    "result": [
      {
        "electoralDistricts": [
          {
            "election": null,
            "id": 60,
            "name": "Mississauga Centre"
          }
        ],
        "pollDivisionIds": [
          10135099
        ],
        "postalCode": "L5V2B5",
        "streetName": "BROCKWORTH",
        "streetDirectionId": null,
        "streetTypeId": "DR",
        "placeName": "MISSISSAUGA",
        "streetNameDisplayText": "BROCKWORTH DR, MISSISSAUGA"
      },
      {
        "electoralDistricts": [
          {
            "election": null,
            "id": 60,
            "name": "Mississauga Centre"
          }
        ],
        "pollDivisionIds": [
          10135099
        ],
        "postalCode": "L5V2B5",
        "streetName": "EVANSTOWN",
        "streetDirectionId": null,
        "streetTypeId": "CRT",
        "placeName": "MISSISSAUGA",
        "streetNameDisplayText": "EVANSTOWN CRT, MISSISSAUGA"
      }
    ]
  },
  {
    "postal": "L5V3H1",
    "result": []
  },
  {
    "postal": "L5V4Y1",
    "result": []
  },
  {
    "postal": "L5V7E2",
    "result": []
  },
  {
    "postal": "L5V2P5",
    "result": [
      {
        "electoralDistricts": [
          {
            "election": null,
            "id": 64,
            "name": "Mississauga—Malton"
          }
        ],
        "pollDivisionIds": [
          10139824
        ],
        "postalCode": "L5V2P5",
        "streetName": "MAVIS",
        "streetDirectionId": null,
        "streetTypeId": "RD",
        "placeName": "MISSISSAUGA",
        "streetNameDisplayText": "MAVIS RD, MISSISSAUGA"
      }
    ]
  },
  {
    "postal": "L5V8R7",
    "result": []
  },
  {
    "postal": "L5V9P1",
    "result": []
  },
  {
    "postal": "L5V3B8",
    "result": [
      {
        "electoralDistricts": [
          {
            "election": null,
            "id": 60,
            "name": "Mississauga Centre"
          }
        ],
        "pollDivisionIds": [
          10135094
        ],
        "postalCode": "L5V3B8",
        "streetName": "BETHANY",
        "streetDirectionId": null,
        "streetTypeId": "CRES",
        "placeName": "MISSISSAUGA",
        "streetNameDisplayText": "BETHANY CRES, MISSISSAUGA"
      },
      {
        "electoralDistricts": [
          {
            "election": null,
            "id": 60,
            "name": "Mississauga Centre"
          }
        ],
        "pollDivisionIds": [
          10135094
        ],
        "postalCode": "L5V3B8",
        "streetName": "TRAILMASTER",
        "streetDirectionId": null,
        "streetTypeId": "DR",
        "placeName": "MISSISSAUGA",
        "streetNameDisplayText": "TRAILMASTER DR, MISSISSAUGA"
      },
      {
        "electoralDistricts": [
          {
            "election": null,
            "id": 60,
            "name": "Mississauga Centre"
          }
        ],
        "pollDivisionIds": [
          10135094
        ],
        "postalCode": "L5V3B8",
        "streetName": "WHITE CLOVER",
        "streetDirectionId": null,
        "streetTypeId": "WAY",
        "placeName": "MISSISSAUGA",
        "streetNameDisplayText": "WHITE CLOVER WAY, MISSISSAUGA"
      }
    ]
  },
  {
    "postal": "L5V3P7",
    "result": []
  },
  {
    "postal": "L5V9B2",
    "result": []
  },
  {
    "postal": "L5V6Z3",
    "result": []
  },
  {
    "postal": "L5V4N5",
    "result": []
  },
  {
    "postal": "L5V8T3",
    "result": []
  },
  {
    "postal": "L5V1V2",
    "result": [
      {
        "electoralDistricts": [
          {
            "election": null,
            "id": 60,
            "name": "Mississauga Centre"
          }
        ],
        "pollDivisionIds": [
          10135099
        ],
        "postalCode": "L5V1V2",
        "streetName": "FLORAL HILL",
        "streetDirectionId": null,
        "streetTypeId": "CRES",
        "placeName": "MISSISSAUGA",
        "streetNameDisplayText": "FLORAL HILL CRES, MISSISSAUGA"
      }
    ]
  },
  {
    "postal": "L5V1Y0",
    "result": []
  },
  {
    "postal": "L5V3G6",
    "result": []
  },
  {
    "postal": "L5V3H7",
    "result": []
  },
  {
    "postal": "L5V7X8",
    "result": []
  },
  {
    "postal": "L5V0C7",
    "result": [
      {
        "electoralDistricts": [
          {
            "election": null,
            "id": 60,
            "name": "Mississauga Centre"
          }
        ],
        "pollDivisionIds": [
          10135093
        ],
        "postalCode": "L5V0C7",
        "streetName": "BELLAGGIO",
        "streetDirectionId": null,
        "streetTypeId": "CRES",
        "placeName": "MISSISSAUGA",
        "streetNameDisplayText": "BELLAGGIO CRES, MISSISSAUGA"
      },
      {
        "electoralDistricts": [
          {
            "election": null,
            "id": 60,
            "name": "Mississauga Centre"
          }
        ],
        "pollDivisionIds": [
          10135093
        ],
        "postalCode": "L5V0C7",
        "streetName": "OASIS",
        "streetDirectionId": null,
        "streetTypeId": "DR",
        "placeName": "MISSISSAUGA",
        "streetNameDisplayText": "OASIS DR, MISSISSAUGA"
      }
    ]
  },
  {
    "postal": "L5V0W9",
    "result": []
  },
  {
    "postal": "L5V8E6",
    "result": []
  },
  {
    "postal": "L5V9Z8",
    "result": []
  },
  {
    "postal": "L5V3P4",
    "result": []
  },
  {
    "postal": "L5V6L8",
    "result": []
  },
  {
    "postal": "L5V2R4",
    "result": [
      {
        "electoralDistricts": [
          {
            "election": null,
            "id": 64,
            "name": "Mississauga—Malton"
          }
        ],
        "pollDivisionIds": [
          10139824
        ],
        "postalCode": "L5V2R4",
        "streetName": "KHAN",
        "streetDirectionId": null,
        "streetTypeId": "CRES",
        "placeName": "MISSISSAUGA",
        "streetNameDisplayText": "KHAN CRES, MISSISSAUGA"
      }
    ]
  },
  {
    "postal": "L5V2W1",
    "result": [
      {
        "electoralDistricts": [
          {
            "election": null,
            "id": 64,
            "name": "Mississauga—Malton"
          }
        ],
        "pollDivisionIds": [
          10139824
        ],
        "postalCode": "L5V2W1",
        "streetName": "BRITANNIA",
        "streetDirectionId": "W",
        "streetTypeId": "RD",
        "placeName": "MISSISSAUGA",
        "streetNameDisplayText": "BRITANNIA RD W, MISSISSAUGA"
      }
    ]
  },
  {
    "postal": "L5V9H8",
    "result": []
  },
  {
    "postal": "L5V8X9",
    "result": []
  },
  {
    "postal": "L5V7H4",
    "result": []
  },
  {
    "postal": "L5V3J1",
    "result": []
  },
  {
    "postal": "L5V1P4",
    "result": [
      {
        "electoralDistricts": [
          {
            "election": null,
            "id": 60,
            "name": "Mississauga Centre"
          }
        ],
        "pollDivisionIds": [
          10135098
        ],
        "postalCode": "L5V1P4",
        "streetName": "WINDSOR HILL",
        "streetDirectionId": null,
        "streetTypeId": "BLVD",
        "placeName": "MISSISSAUGA",
        "streetNameDisplayText": "WINDSOR HILL BLVD, MISSISSAUGA"
      }
    ]
  },
  {
    "postal": "L5V2A3",
    "result": []
  },
  {
    "postal": "L5V0Z1",
    "result": []
  },
  {
    "postal": "L5V1C1",
    "result": [
      {
        "electoralDistricts": [
          {
            "election": null,
            "id": 64,
            "name": "Mississauga—Malton"
          }
        ],
        "pollDivisionIds": [
          10139822
        ],
        "postalCode": "L5V1C1",
        "streetName": "EWING",
        "streetDirectionId": null,
        "streetTypeId": "CRES",
        "placeName": "MISSISSAUGA",
        "streetNameDisplayText": "EWING CRES, MISSISSAUGA"
      },
      {
        "electoralDistricts": [
          {
            "election": null,
            "id": 64,
            "name": "Mississauga—Malton"
          }
        ],
        "pollDivisionIds": [
          10139822
        ],
        "postalCode": "L5V1C1",
        "streetName": "SWINBOURNE",
        "streetDirectionId": null,
        "streetTypeId": "DR",
        "placeName": "MISSISSAUGA",
        "streetNameDisplayText": "SWINBOURNE DR, MISSISSAUGA"
      }
    ]
  },
  {
    "postal": "L5V0H3",
    "result": []
  },
  {
    "postal": "L5V7B0",
    "result": []
  },
  {
    "postal": "L5V5K2",
    "result": []
  },
  {
    "postal": "L5V1E9",
    "result": [
      {
        "electoralDistricts": [
          {
            "election": null,
            "id": 60,
            "name": "Mississauga Centre"
          }
        ],
        "pollDivisionIds": [
          10135094
        ],
        "postalCode": "L5V1E9",
        "streetName": "SILVERSMITH",
        "streetDirectionId": null,
        "streetTypeId": "DR",
        "placeName": "MISSISSAUGA",
        "streetNameDisplayText": "SILVERSMITH DR, MISSISSAUGA"
      },
      {
        "electoralDistricts": [
          {
            "election": null,
            "id": 60,
            "name": "Mississauga Centre"
          }
        ],
        "pollDivisionIds": [
          10135094
        ],
        "postalCode": "L5V1E9",
        "streetName": "STARGAZER",
        "streetDirectionId": null,
        "streetTypeId": "DR",
        "placeName": "MISSISSAUGA",
        "streetNameDisplayText": "STARGAZER DR, MISSISSAUGA"
      },
      {
        "electoralDistricts": [
          {
            "election": null,
            "id": 60,
            "name": "Mississauga Centre"
          }
        ],
        "pollDivisionIds": [
          10135094
        ],
        "postalCode": "L5V1E9",
        "streetName": "WAINSCOT",
        "streetDirectionId": null,
        "streetTypeId": "DR",
        "placeName": "MISSISSAUGA",
        "streetNameDisplayText": "WAINSCOT DR, MISSISSAUGA"
      }
    ]
  },
  {
    "postal": "L5V9W7",
    "result": []
  },
  {
    "postal": "L5V5W6",
    "result": []
  },
  {
    "postal": "L5V6S6",
    "result": []
  },
  {
    "postal": "L5V2P8",
    "result": [
      {
        "electoralDistricts": [
          {
            "election": null,
            "id": 64,
            "name": "Mississauga—Malton"
          }
        ],
        "pollDivisionIds": [
          10139824
        ],
        "postalCode": "L5V2P8",
        "streetName": "LEDBURY",
        "streetDirectionId": null,
        "streetTypeId": "CRES",
        "placeName": "MISSISSAUGA",
        "streetNameDisplayText": "LEDBURY CRES, MISSISSAUGA"
      }
    ]
  },
  {
    "postal": "L5V4P8",
    "result": []
  },
  {
    "postal": "L5V0V9",
    "result": []
  },
  {
    "postal": "L5V5Y2",
    "result": []
  },
  {
    "postal": "L5V7Z7",
    "result": []
  },
  {
    "postal": "L5V6Y8",
    "result": []
  },
  {
    "postal": "L5V2G7",
    "result": [
      {
        "electoralDistricts": [
          {
            "election": null,
            "id": 60,
            "name": "Mississauga Centre"
          }
        ],
        "pollDivisionIds": [
          10135098,
          10135093
        ],
        "postalCode": "L5V2G7",
        "streetName": "HEATHERLEIGH",
        "streetDirectionId": null,
        "streetTypeId": "AVE",
        "placeName": "MISSISSAUGA",
        "streetNameDisplayText": "HEATHERLEIGH AVE, MISSISSAUGA"
      }
    ]
  },
  {
    "postal": "L5V8C1",
    "result": []
  },
  {
    "postal": "L5V5C5",
    "result": []
  },
  {
    "postal": "L5V2X8",
    "result": []
  },
  {
    "postal": "L5V1W5",
    "result": [
      {
        "electoralDistricts": [
          {
            "election": null,
            "id": 64,
            "name": "Mississauga—Malton"
          }
        ],
        "pollDivisionIds": [
          10139823
        ],
        "postalCode": "L5V1W5",
        "streetName": "BRISTOL",
        "streetDirectionId": "W",
        "streetTypeId": "RD",
        "placeName": "MISSISSAUGA",
        "streetNameDisplayText": "BRISTOL RD W, MISSISSAUGA"
      }
    ]
  },
  {
    "postal": "L5V7G0",
    "result": []
  },
  {
    "postal": "L5V8J8",
    "result": []
  },
  {
    "postal": "L5V3Y0",
    "result": []
  },
  {
    "postal": "L5V9T7",
    "result": []
  },
  {
    "postal": "L5V5P4",
    "result": []
  },
  {
    "postal": "L5V4B0",
    "result": []
  },
  {
    "postal": "L5V9N8",
    "result": []
  },
  {
    "postal": "L5V4A7",
    "result": []
  },
  {
    "postal": "L5V4H9",
    "result": []
  },
  {
    "postal": "L5V6X1",
    "result": []
  },
  {
    "postal": "L5V9Y7",
    "result": []
  },
  {
    "postal": "L5V2Y5",
    "result": [
      {
        "electoralDistricts": [
          {
            "election": null,
            "id": 64,
            "name": "Mississauga—Malton"
          }
        ],
        "pollDivisionIds": [
          10139822
        ],
        "postalCode": "L5V2Y5",
        "streetName": "WHITEHORN",
        "streetDirectionId": null,
        "streetTypeId": "AVE",
        "placeName": "MISSISSAUGA",
        "streetNameDisplayText": "WHITEHORN AVE, MISSISSAUGA"
      }
    ]
  },
  {
    "postal": "L5V8L7",
    "result": []
  },
  {
    "postal": "L5V2A8",
    "result": [
      {
        "electoralDistricts": [
          {
            "election": null,
            "id": 64,
            "name": "Mississauga—Malton"
          }
        ],
        "pollDivisionIds": [
          10139822
        ],
        "postalCode": "L5V2A8",
        "streetName": "CREDITVIEW",
        "streetDirectionId": null,
        "streetTypeId": "RD",
        "placeName": "MISSISSAUGA",
        "streetNameDisplayText": "CREDITVIEW RD, MISSISSAUGA"
      }
    ]
  },
  {
    "postal": "L5V2K9",
    "result": [
      {
        "electoralDistricts": [
          {
            "election": null,
            "id": 64,
            "name": "Mississauga—Malton"
          }
        ],
        "pollDivisionIds": [
          10139824
        ],
        "postalCode": "L5V2K9",
        "streetName": "STONEBRIDGE",
        "streetDirectionId": null,
        "streetTypeId": "AVE",
        "placeName": "MISSISSAUGA",
        "streetNameDisplayText": "STONEBRIDGE AVE, MISSISSAUGA"
      }
    ]
  },
  {
    "postal": "L5V3E5",
    "result": [
      {
        "electoralDistricts": [
          {
            "election": null,
            "id": 60,
            "name": "Mississauga Centre"
          }
        ],
        "pollDivisionIds": [
          10135099
        ],
        "postalCode": "L5V3E5",
        "streetName": "CREDITVIEW",
        "streetDirectionId": null,
        "streetTypeId": "RD",
        "placeName": "MISSISSAUGA",
        "streetNameDisplayText": "CREDITVIEW RD, MISSISSAUGA"
      }
    ]
  },
  {
    "postal": "L5V8N6",
    "result": []
  },
  {
    "postal": "L5V8J4",
    "result": []
  },
  {
    "postal": "L5V4R7",
    "result": []
  },
  {
    "postal": "L5V9K1",
    "result": []
  },
  {
    "postal": "L5V8E1",
    "result": []
  },
  {
    "postal": "L5V0R1",
    "result": []
  },
  {
    "postal": "L5V4J3",
    "result": []
  },
  {
    "postal": "L5V7E7",
    "result": []
  },
  {
    "postal": "L5V0J0",
    "result": []
  },
  {
    "postal": "L5V7R8",
    "result": []
  },
  {
    "postal": "L5V9X0",
    "result": []
  },
  {
    "postal": "L5V7P6",
    "result": []
  },
  {
    "postal": "L5V0R7",
    "result": []
  },
  {
    "postal": "L5V5W1",
    "result": []
  },
  {
    "postal": "L5V0K4",
    "result": []
  },
  {
    "postal": "L5V7N9",
    "result": []
  },
  {
    "postal": "L5V1N0",
    "result": []
  },
  {
    "postal": "L5V6P3",
    "result": []
  },
  {
    "postal": "L5V5A1",
    "result": []
  },
  {
    "postal": "L5V9M9",
    "result": []
  },
  {
    "postal": "L5V7T6",
    "result": []
  },
  {
    "postal": "L5V3X0",
    "result": []
  },
  {
    "postal": "L5V2T0",
    "result": []
  },
  {
    "postal": "L5V5X9",
    "result": []
  },
  {
    "postal": "L5V2R3",
    "result": [
      {
        "electoralDistricts": [
          {
            "election": null,
            "id": 64,
            "name": "Mississauga—Malton"
          }
        ],
        "pollDivisionIds": [
          10139824
        ],
        "postalCode": "L5V2R3",
        "streetName": "LEDBURY",
        "streetDirectionId": null,
        "streetTypeId": "CRES",
        "placeName": "MISSISSAUGA",
        "streetNameDisplayText": "LEDBURY CRES, MISSISSAUGA"
      }
    ]
  },
  {
    "postal": "L5V5N2",
    "result": []
  },
  {
    "postal": "L5V4Y7",
    "result": []
  },
  {
    "postal": "L5V7M0",
    "result": []
  },
  {
    "postal": "L5V8P3",
    "result": []
  },
  {
    "postal": "L5V3N3",
    "result": []
  },
  {
    "postal": "L5V7S3",
    "result": []
  },
  {
    "postal": "L5V3V9",
    "result": []
  },
  {
    "postal": "L5V9N7",
    "result": []
  },
  {
    "postal": "L5V0G4",
    "result": []
  },
  {
    "postal": "L5V2E2",
    "result": [
      {
        "electoralDistricts": [
          {
            "election": null,
            "id": 64,
            "name": "Mississauga—Malton"
          }
        ],
        "pollDivisionIds": [
          10139823
        ],
        "postalCode": "L5V2E2",
        "streetName": "LOONLAKE",
        "streetDirectionId": null,
        "streetTypeId": "AVE",
        "placeName": "MISSISSAUGA",
        "streetNameDisplayText": "LOONLAKE AVE, MISSISSAUGA"
      },
      {
        "electoralDistricts": [
          {
            "election": null,
            "id": 64,
            "name": "Mississauga—Malton"
          }
        ],
        "pollDivisionIds": [
          10139823
        ],
        "postalCode": "L5V2E2",
        "streetName": "WHITEHORN",
        "streetDirectionId": null,
        "streetTypeId": "AVE",
        "placeName": "MISSISSAUGA",
        "streetNameDisplayText": "WHITEHORN AVE, MISSISSAUGA"
      }
    ]
  },
  {
    "postal": "L5V7W8",
    "result": []
  },
  {
    "postal": "L5V7M5",
    "result": []
  },
  {
    "postal": "L5V5W8",
    "result": []
  },
  {
    "postal": "L5V5E5",
    "result": []
  },
  {
    "postal": "L5V1P9",
    "result": [
      {
        "electoralDistricts": [
          {
            "election": null,
            "id": 60,
            "name": "Mississauga Centre"
          }
        ],
        "pollDivisionIds": [
          10135098
        ],
        "postalCode": "L5V1P9",
        "streetName": "CHARMINSTER",
        "streetDirectionId": null,
        "streetTypeId": "CRES",
        "placeName": "MISSISSAUGA",
        "streetNameDisplayText": "CHARMINSTER CRES, MISSISSAUGA"
      }
    ]
  },
  {
    "postal": "L5V8V8",
    "result": []
  },
  {
    "postal": "L5V9G8",
    "result": []
  },
  {
    "postal": "L5V8H9",
    "result": []
  },
  {
    "postal": "L5V1Z1",
    "result": [
      {
        "electoralDistricts": [
          {
            "election": null,
            "id": 64,
            "name": "Mississauga—Malton"
          },
          {
            "election": null,
            "id": 60,
            "name": "Mississauga Centre"
          }
        ],
        "pollDivisionIds": [
          10139823,
          10135098
        ],
        "postalCode": "L5V1Z1",
        "streetName": "BULLRUSH",
        "streetDirectionId": null,
        "streetTypeId": "DR",
        "placeName": "MISSISSAUGA",
        "streetNameDisplayText": "BULLRUSH DR, MISSISSAUGA"
      }
    ]
  },
  {
    "postal": "L5V8M3",
    "result": []
  },
  {
    "postal": "L5V5H6",
    "result": []
  },
  {
    "postal": "L5V7W7",
    "result": []
  },
  {
    "postal": "L5V4L0",
    "result": []
  },
  {
    "postal": "L5V2N1",
    "result": [
      {
        "electoralDistricts": [
          {
            "election": null,
            "id": 64,
            "name": "Mississauga—Malton"
          }
        ],
        "pollDivisionIds": [
          10139824
        ],
        "postalCode": "L5V2N1",
        "streetName": "FOXGLOVE",
        "streetDirectionId": null,
        "streetTypeId": "PL",
        "placeName": "MISSISSAUGA",
        "streetNameDisplayText": "FOXGLOVE PL, MISSISSAUGA"
      },
      {
        "electoralDistricts": [
          {
            "election": null,
            "id": 64,
            "name": "Mississauga—Malton"
          }
        ],
        "pollDivisionIds": [
          10139824
        ],
        "postalCode": "L5V2N1",
        "streetName": "SWEETGRASS",
        "streetDirectionId": null,
        "streetTypeId": "GATE",
        "placeName": "MISSISSAUGA",
        "streetNameDisplayText": "SWEETGRASS GATE, MISSISSAUGA"
      }
    ]
  },
  {
    "postal": "L5V2H4",
    "result": [
      {
        "electoralDistricts": [
          {
            "election": null,
            "id": 64,
            "name": "Mississauga—Malton"
          }
        ],
        "pollDivisionIds": [
          10139823
        ],
        "postalCode": "L5V2H4",
        "streetName": "BOLLINGTON",
        "streetDirectionId": null,
        "streetTypeId": "DR",
        "placeName": "MISSISSAUGA",
        "streetNameDisplayText": "BOLLINGTON DR, MISSISSAUGA"
      },
      {
        "electoralDistricts": [
          {
            "election": null,
            "id": 64,
            "name": "Mississauga—Malton"
          }
        ],
        "pollDivisionIds": [
          10139823
        ],
        "postalCode": "L5V2H4",
        "streetName": "PICKWICK",
        "streetDirectionId": null,
        "streetTypeId": "DR",
        "placeName": "MISSISSAUGA",
        "streetNameDisplayText": "PICKWICK DR, MISSISSAUGA"
      },
      {
        "electoralDistricts": [
          {
            "election": null,
            "id": 64,
            "name": "Mississauga—Malton"
          }
        ],
        "pollDivisionIds": [
          10139823
        ],
        "postalCode": "L5V2H4",
        "streetName": "SIDMOUTH",
        "streetDirectionId": null,
        "streetTypeId": "ST",
        "placeName": "MISSISSAUGA",
        "streetNameDisplayText": "SIDMOUTH ST, MISSISSAUGA"
      }
    ]
  },
  {
    "postal": "L5V5C8",
    "result": []
  },
  {
    "postal": "L5V8B0",
    "result": []
  },
  {
    "postal": "L5V1T4",
    "result": [
      {
        "electoralDistricts": [
          {
            "election": null,
            "id": 60,
            "name": "Mississauga Centre"
          }
        ],
        "pollDivisionIds": [
          10135099
        ],
        "postalCode": "L5V1T4",
        "streetName": "CASTLEFIELD",
        "streetDirectionId": null,
        "streetTypeId": "DR",
        "placeName": "MISSISSAUGA",
        "streetNameDisplayText": "CASTLEFIELD DR, MISSISSAUGA"
      }
    ]
  },
  {
    "postal": "L5V7N7",
    "result": []
  },
  {
    "postal": "L5V4L3",
    "result": []
  },
  {
    "postal": "L5V2N2",
    "result": [
      {
        "electoralDistricts": [
          {
            "election": null,
            "id": 64,
            "name": "Mississauga—Malton"
          }
        ],
        "pollDivisionIds": [
          10139824
        ],
        "postalCode": "L5V2N2",
        "streetName": "SWEETGRASS",
        "streetDirectionId": null,
        "streetTypeId": "GATE",
        "placeName": "MISSISSAUGA",
        "streetNameDisplayText": "SWEETGRASS GATE, MISSISSAUGA"
      }
    ]
  },
  {
    "postal": "L5V4N8",
    "result": []
  },
  {
    "postal": "L5V3M5",
    "result": []
  },
  {
    "postal": "L5V6H7",
    "result": []
  },
  {
    "postal": "L5V8Y8",
    "result": []
  },
  {
    "postal": "L5V5R9",
    "result": []
  },
  {
    "postal": "L5V8G3",
    "result": []
  },
  {
    "postal": "L5V4N7",
    "result": []
  },
  {
    "postal": "L5V0B9",
    "result": [
      {
        "electoralDistricts": [
          {
            "election": null,
            "id": 60,
            "name": "Mississauga Centre"
          }
        ],
        "pollDivisionIds": [
          10135094
        ],
        "postalCode": "L5V0B9",
        "streetName": "MILLWORKS",
        "streetDirectionId": null,
        "streetTypeId": "CRES",
        "placeName": "MISSISSAUGA",
        "streetNameDisplayText": "MILLWORKS CRES, MISSISSAUGA"
      },
      {
        "electoralDistricts": [
          {
            "election": null,
            "id": 60,
            "name": "Mississauga Centre"
          }
        ],
        "pollDivisionIds": [
          10135094
        ],
        "postalCode": "L5V0B9",
        "streetName": "STARGAZER",
        "streetDirectionId": null,
        "streetTypeId": "DR",
        "placeName": "MISSISSAUGA",
        "streetNameDisplayText": "STARGAZER DR, MISSISSAUGA"
      }
    ]
  },
  {
    "postal": "L5V9K7",
    "result": []
  },
  {
    "postal": "L5V9K9",
    "result": []
  },
  {
    "postal": "L5V3Z2",
    "result": []
  },
  {
    "postal": "L5V6W7",
    "result": []
  },
  {
    "postal": "L5V0P1",
    "result": []
  },
  {
    "postal": "L5V3A0",
    "result": []
  },
  {
    "postal": "L5V8L9",
    "result": []
  },
  {
    "postal": "L5V6X0",
    "result": []
  },
  {
    "postal": "L5V3E9",
    "result": []
  },
  {
    "postal": "L5V0S5",
    "result": []
  },
  {
    "postal": "L5V1A2",
    "result": [
      {
        "electoralDistricts": [
          {
            "election": null,
            "id": 64,
            "name": "Mississauga—Malton"
          }
        ],
        "pollDivisionIds": [
          10139822,
          10139815
        ],
        "postalCode": "L5V1A2",
        "streetName": "SILKEN LAUMANN",
        "streetDirectionId": null,
        "streetTypeId": "WAY",
        "placeName": "MISSISSAUGA",
        "streetNameDisplayText": "SILKEN LAUMANN WAY, MISSISSAUGA"
      }
    ]
  },
  {
    "postal": "L5V5V8",
    "result": []
  },
  {
    "postal": "L5V8C5",
    "result": []
  },
  {
    "postal": "L5V6N0",
    "result": []
  },
  {
    "postal": "L5V9E6",
    "result": []
  },
  {
    "postal": "L5V5J7",
    "result": []
  },
  {
    "postal": "L5V2R2",
    "result": [
      {
        "electoralDistricts": [
          {
            "election": null,
            "id": 64,
            "name": "Mississauga—Malton"
          }
        ],
        "pollDivisionIds": [
          10139824
        ],
        "postalCode": "L5V2R2",
        "streetName": "KHAN",
        "streetDirectionId": null,
        "streetTypeId": "CRES",
        "placeName": "MISSISSAUGA",
        "streetNameDisplayText": "KHAN CRES, MISSISSAUGA"
      }
    ]
  },
  {
    "postal": "L5V0P5",
    "result": []
  },
  {
    "postal": "L5V5A7",
    "result": []
  },
  {
    "postal": "L5V1G1",
    "result": [
      {
        "electoralDistricts": [
          {
            "election": null,
            "id": 60,
            "name": "Mississauga Centre"
          }
        ],
        "pollDivisionIds": [
          10135094
        ],
        "postalCode": "L5V1G1",
        "streetName": "WAYSIDE",
        "streetDirectionId": null,
        "streetTypeId": "CRT",
        "placeName": "MISSISSAUGA",
        "streetNameDisplayText": "WAYSIDE CRT, MISSISSAUGA"
      }
    ]
  },
  {
    "postal": "L5V9R6",
    "result": []
  },
  {
    "postal": "L5V4Z9",
    "result": []
  },
  {
    "postal": "L5V1V5",
    "result": [
      {
        "electoralDistricts": [
          {
            "election": null,
            "id": 64,
            "name": "Mississauga—Malton"
          }
        ],
        "pollDivisionIds": [
          10139823
        ],
        "postalCode": "L5V1V5",
        "streetName": "MIDGREEN",
        "streetDirectionId": null,
        "streetTypeId": "LANE",
        "placeName": "MISSISSAUGA",
        "streetNameDisplayText": "MIDGREEN LANE, MISSISSAUGA"
      },
      {
        "electoralDistricts": [
          {
            "election": null,
            "id": 64,
            "name": "Mississauga—Malton"
          }
        ],
        "pollDivisionIds": [
          10139824,
          10139823
        ],
        "postalCode": "L5V1V5",
        "streetName": "WHITEHORN",
        "streetDirectionId": null,
        "streetTypeId": "AVE",
        "placeName": "MISSISSAUGA",
        "streetNameDisplayText": "WHITEHORN AVE, MISSISSAUGA"
      }
    ]
  },
  {
    "postal": "L5V9Y5",
    "result": []
  },
  {
    "postal": "L5V1P2",
    "result": [
      {
        "electoralDistricts": [
          {
            "election": null,
            "id": 60,
            "name": "Mississauga Centre"
          }
        ],
        "pollDivisionIds": [
          10135098
        ],
        "postalCode": "L5V1P2",
        "streetName": "BARLEYMOW",
        "streetDirectionId": null,
        "streetTypeId": "ST",
        "placeName": "MISSISSAUGA",
        "streetNameDisplayText": "BARLEYMOW ST, MISSISSAUGA"
      },
      {
        "electoralDistricts": [
          {
            "election": null,
            "id": 60,
            "name": "Mississauga Centre"
          }
        ],
        "pollDivisionIds": [
          10135098
        ],
        "postalCode": "L5V1P2",
        "streetName": "LISMIC",
        "streetDirectionId": null,
        "streetTypeId": "BLVD",
        "placeName": "MISSISSAUGA",
        "streetNameDisplayText": "LISMIC BLVD, MISSISSAUGA"
      }
    ]
  },
  {
    "postal": "L5V5X0",
    "result": []
  },
  {
    "postal": "L5V7B8",
    "result": []
  },
  {
    "postal": "L5V0C6",
    "result": [
      {
        "electoralDistricts": [
          {
            "election": null,
            "id": 60,
            "name": "Mississauga Centre"
          }
        ],
        "pollDivisionIds": [
          10135093
        ],
        "postalCode": "L5V0C6",
        "streetName": "BELLAGGIO",
        "streetDirectionId": null,
        "streetTypeId": "CRES",
        "placeName": "MISSISSAUGA",
        "streetNameDisplayText": "BELLAGGIO CRES, MISSISSAUGA"
      },
      {
        "electoralDistricts": [
          {
            "election": null,
            "id": 60,
            "name": "Mississauga Centre"
          }
        ],
        "pollDivisionIds": [
          10135093
        ],
        "postalCode": "L5V0C6",
        "streetName": "OASIS",
        "streetDirectionId": null,
        "streetTypeId": "DR",
        "placeName": "MISSISSAUGA",
        "streetNameDisplayText": "OASIS DR, MISSISSAUGA"
      }
    ]
  },
  {
    "postal": "L5V6G1",
    "result": []
  },
  {
    "postal": "L5V3K3",
    "result": []
  },
  {
    "postal": "L5V9R0",
    "result": []
  },
  {
    "postal": "L5V4R8",
    "result": []
  },
  {
    "postal": "L5V5P9",
    "result": []
  },
  {
    "postal": "L5V8N4",
    "result": []
  },
  {
    "postal": "L5V8H4",
    "result": []
  },
  {
    "postal": "L5V4V1",
    "result": []
  },
  {
    "postal": "L5V1K5",
    "result": [
      {
        "electoralDistricts": [
          {
            "election": null,
            "id": 60,
            "name": "Mississauga Centre"
          }
        ],
        "pollDivisionIds": [
          10135100
        ],
        "postalCode": "L5V1K5",
        "streetName": "RATHKEALE",
        "streetDirectionId": null,
        "streetTypeId": "RD",
        "placeName": "MISSISSAUGA",
        "streetNameDisplayText": "RATHKEALE RD, MISSISSAUGA"
      },
      {
        "electoralDistricts": [
          {
            "election": null,
            "id": 60,
            "name": "Mississauga Centre"
          }
        ],
        "pollDivisionIds": [
          10135100
        ],
        "postalCode": "L5V1K5",
        "streetName": "ROSEWATER",
        "streetDirectionId": null,
        "streetTypeId": "CRT",
        "placeName": "MISSISSAUGA",
        "streetNameDisplayText": "ROSEWATER CRT, MISSISSAUGA"
      }
    ]
  },
  {
    "postal": "L5V1Z5",
    "result": [
      {
        "electoralDistricts": [
          {
            "election": null,
            "id": 60,
            "name": "Mississauga Centre"
          }
        ],
        "pollDivisionIds": [
          10135093
        ],
        "postalCode": "L5V1Z5",
        "streetName": "WINTERTON",
        "streetDirectionId": null,
        "streetTypeId": "WAY",
        "placeName": "MISSISSAUGA",
        "streetNameDisplayText": "WINTERTON WAY, MISSISSAUGA"
      }
    ]
  },
  {
    "postal": "L5V9L9",
    "result": []
  },
  {
    "postal": "L5V5L2",
    "result": []
  },
  {
    "postal": "L5V0M2",
    "result": []
  },
  {
    "postal": "L5V1K8",
    "result": [
      {
        "electoralDistricts": [
          {
            "election": null,
            "id": 60,
            "name": "Mississauga Centre"
          }
        ],
        "pollDivisionIds": [
          10135100
        ],
        "postalCode": "L5V1K8",
        "streetName": "ROSEGLEN",
        "streetDirectionId": null,
        "streetTypeId": "CRT",
        "placeName": "MISSISSAUGA",
        "streetNameDisplayText": "ROSEGLEN CRT, MISSISSAUGA"
      },
      {
        "electoralDistricts": [
          {
            "election": null,
            "id": 60,
            "name": "Mississauga Centre"
          }
        ],
        "pollDivisionIds": [
          10135100
        ],
        "postalCode": "L5V1K8",
        "streetName": "WHITE CLOVER",
        "streetDirectionId": null,
        "streetTypeId": "WAY",
        "placeName": "MISSISSAUGA",
        "streetNameDisplayText": "WHITE CLOVER WAY, MISSISSAUGA"
      }
    ]
  },
  {
    "postal": "L5V3M7",
    "result": []
  },
  {
    "postal": "L5V1B2",
    "result": [
      {
        "electoralDistricts": [
          {
            "election": null,
            "id": 64,
            "name": "Mississauga—Malton"
          }
        ],
        "pollDivisionIds": [
          10139822
        ],
        "postalCode": "L5V1B2",
        "streetName": "DOUGUY",
        "streetDirectionId": null,
        "streetTypeId": "BLVD",
        "placeName": "MISSISSAUGA",
        "streetNameDisplayText": "DOUGUY BLVD, MISSISSAUGA"
      },
      {
        "electoralDistricts": [
          {
            "election": null,
            "id": 64,
            "name": "Mississauga—Malton"
          }
        ],
        "pollDivisionIds": [
          10139822
        ],
        "postalCode": "L5V1B2",
        "streetName": "IVANDALE",
        "streetDirectionId": null,
        "streetTypeId": "DR",
        "placeName": "MISSISSAUGA",
        "streetNameDisplayText": "IVANDALE DR, MISSISSAUGA"
      }
    ]
  },
  {
    "postal": "L5V0H9",
    "result": []
  },
  {
    "postal": "L5V8M4",
    "result": []
  },
  {
    "postal": "L5V2M5",
    "result": [
      {
        "electoralDistricts": [
          {
            "election": null,
            "id": 60,
            "name": "Mississauga Centre"
          }
        ],
        "pollDivisionIds": [
          10135099
        ],
        "postalCode": "L5V2M5",
        "streetName": "EAST MILL",
        "streetDirectionId": null,
        "streetTypeId": "RD",
        "placeName": "MISSISSAUGA",
        "streetNameDisplayText": "EAST MILL RD, MISSISSAUGA"
      }
    ]
  },
  {
    "postal": "L5V0T9",
    "result": []
  },
  {
    "postal": "L5V3P1",
    "result": []
  },
  {
    "postal": "L5V1R6",
    "result": [
      {
        "electoralDistricts": [
          {
            "election": null,
            "id": 60,
            "name": "Mississauga Centre"
          }
        ],
        "pollDivisionIds": [
          10135098
        ],
        "postalCode": "L5V1R6",
        "streetName": "MOULIN ROUGE",
        "streetDirectionId": null,
        "streetTypeId": "CRES",
        "placeName": "MISSISSAUGA",
        "streetNameDisplayText": "MOULIN ROUGE CRES, MISSISSAUGA"
      },
      {
        "electoralDistricts": [
          {
            "election": null,
            "id": 60,
            "name": "Mississauga Centre"
          }
        ],
        "pollDivisionIds": [
          10135098
        ],
        "postalCode": "L5V1R6",
        "streetName": "WARWICKSHIRE",
        "streetDirectionId": null,
        "streetTypeId": "WAY",
        "placeName": "MISSISSAUGA",
        "streetNameDisplayText": "WARWICKSHIRE WAY, MISSISSAUGA"
      }
    ]
  },
  {
    "postal": "L5V9V5",
    "result": []
  },
  {
    "postal": "L5V9T0",
    "result": []
  },
  {
    "postal": "L5V0A9",
    "result": [
      {
        "electoralDistricts": [
          {
            "election": null,
            "id": 64,
            "name": "Mississauga—Malton"
          }
        ],
        "pollDivisionIds": [
          10139823
        ],
        "postalCode": "L5V0A9",
        "streetName": "GALESWAY",
        "streetDirectionId": null,
        "streetTypeId": "BLVD",
        "placeName": "MISSISSAUGA",
        "streetNameDisplayText": "GALESWAY BLVD, MISSISSAUGA"
      }
    ]
  },
  {
    "postal": "L5V1M3",
    "result": [
      {
        "electoralDistricts": [
          {
            "election": null,
            "id": 64,
            "name": "Mississauga—Malton"
          }
        ],
        "pollDivisionIds": [
          10139822
        ],
        "postalCode": "L5V1M3",
        "streetName": "BANCROFT",
        "streetDirectionId": null,
        "streetTypeId": "DR",
        "placeName": "MISSISSAUGA",
        "streetNameDisplayText": "BANCROFT DR, MISSISSAUGA"
      },
      {
        "electoralDistricts": [
          {
            "election": null,
            "id": 64,
            "name": "Mississauga—Malton"
          }
        ],
        "pollDivisionIds": [
          10139822
        ],
        "postalCode": "L5V1M3",
        "streetName": "ESTES",
        "streetDirectionId": null,
        "streetTypeId": "CRES",
        "placeName": "MISSISSAUGA",
        "streetNameDisplayText": "ESTES CRES, MISSISSAUGA"
      },
      {
        "electoralDistricts": [
          {
            "election": null,
            "id": 64,
            "name": "Mississauga—Malton"
          }
        ],
        "pollDivisionIds": [
          10139822
        ],
        "postalCode": "L5V1M3",
        "streetName": "KISBY",
        "streetDirectionId": null,
        "streetTypeId": "DR",
        "placeName": "MISSISSAUGA",
        "streetNameDisplayText": "KISBY DR, MISSISSAUGA"
      }
    ]
  },
  {
    "postal": "L5V1W8",
    "result": [
      {
        "electoralDistricts": [
          {
            "election": null,
            "id": 60,
            "name": "Mississauga Centre"
          }
        ],
        "pollDivisionIds": [
          10135094,
          10135171
        ],
        "postalCode": "L5V1W8",
        "streetName": "VANROSE",
        "streetDirectionId": null,
        "streetTypeId": "ST",
        "placeName": "MISSISSAUGA",
        "streetNameDisplayText": "VANROSE ST, MISSISSAUGA"
      }
    ]
  },
  {
    "postal": "L5V9J1",
    "result": []
  },
  {
    "postal": "L5V8N5",
    "result": []
  },
  {
    "postal": "L5V5X1",
    "result": []
  },
  {
    "postal": "L5V6S2",
    "result": []
  },
  {
    "postal": "L5V2A2",
    "result": []
  },
  {
    "postal": "L5V6A6",
    "result": []
  },
  {
    "postal": "L5V0S3",
    "result": []
  },
  {
    "postal": "L5V3E7",
    "result": []
  },
  {
    "postal": "L5V5R7",
    "result": []
  },
  {
    "postal": "L5V3R6",
    "result": []
  },
  {
    "postal": "L5V6K4",
    "result": []
  },
  {
    "postal": "L5V2W5",
    "result": [
      {
        "electoralDistricts": [
          {
            "election": null,
            "id": 64,
            "name": "Mississauga—Malton"
          }
        ],
        "pollDivisionIds": [
          10139822
        ],
        "postalCode": "L5V2W5",
        "streetName": "DUVAL",
        "streetDirectionId": null,
        "streetTypeId": "DR",
        "placeName": "MISSISSAUGA",
        "streetNameDisplayText": "DUVAL DR, MISSISSAUGA"
      },
      {
        "electoralDistricts": [
          {
            "election": null,
            "id": 64,
            "name": "Mississauga—Malton"
          }
        ],
        "pollDivisionIds": [
          10139822
        ],
        "postalCode": "L5V2W5",
        "streetName": "WEIR",
        "streetDirectionId": null,
        "streetTypeId": "CHASE",
        "placeName": "MISSISSAUGA",
        "streetNameDisplayText": "WEIR CHASE, MISSISSAUGA"
      },
      {
        "electoralDistricts": [
          {
            "election": null,
            "id": 64,
            "name": "Mississauga—Malton"
          }
        ],
        "pollDivisionIds": [
          10139823,
          10139822
        ],
        "postalCode": "L5V2W5",
        "streetName": "WHITEHORN",
        "streetDirectionId": null,
        "streetTypeId": "AVE",
        "placeName": "MISSISSAUGA",
        "streetNameDisplayText": "WHITEHORN AVE, MISSISSAUGA"
      }
    ]
  },
  {
    "postal": "L5V8W4",
    "result": []
  },
  {
    "postal": "L5V9C2",
    "result": []
  },
  {
    "postal": "L5V2C0",
    "result": []
  },
  {
    "postal": "L5V0E1",
    "result": [
      {
        "electoralDistricts": [
          {
            "election": null,
            "id": 64,
            "name": "Mississauga—Malton"
          }
        ],
        "pollDivisionIds": [
          10139822
        ],
        "postalCode": "L5V0E1",
        "streetName": "GRANROCK",
        "streetDirectionId": null,
        "streetTypeId": "CRES",
        "placeName": "MISSISSAUGA",
        "streetNameDisplayText": "GRANROCK CRES, MISSISSAUGA"
      }
    ]
  },
  {
    "postal": "L5V1K9",
    "result": [
      {
        "electoralDistricts": [
          {
            "election": null,
            "id": 60,
            "name": "Mississauga Centre"
          }
        ],
        "pollDivisionIds": [
          10135100
        ],
        "postalCode": "L5V1K9",
        "streetName": "EDENROSE",
        "streetDirectionId": null,
        "streetTypeId": "ST",
        "placeName": "MISSISSAUGA",
        "streetNameDisplayText": "EDENROSE ST, MISSISSAUGA"
      },
      {
        "electoralDistricts": [
          {
            "election": null,
            "id": 60,
            "name": "Mississauga Centre"
          }
        ],
        "pollDivisionIds": [
          10135100
        ],
        "postalCode": "L5V1K9",
        "streetName": "WHITE CLOVER",
        "streetDirectionId": null,
        "streetTypeId": "WAY",
        "placeName": "MISSISSAUGA",
        "streetNameDisplayText": "WHITE CLOVER WAY, MISSISSAUGA"
      }
    ]
  },
  {
    "postal": "L5V1G7",
    "result": [
      {
        "electoralDistricts": [
          {
            "election": null,
            "id": 60,
            "name": "Mississauga Centre"
          }
        ],
        "pollDivisionIds": [
          10135100,
          10135094
        ],
        "postalCode": "L5V1G7",
        "streetName": "WHITE CLOVER",
        "streetDirectionId": null,
        "streetTypeId": "WAY",
        "placeName": "MISSISSAUGA",
        "streetNameDisplayText": "WHITE CLOVER WAY, MISSISSAUGA"
      },
      {
        "electoralDistricts": [
          {
            "election": null,
            "id": 60,
            "name": "Mississauga Centre"
          }
        ],
        "pollDivisionIds": [
          10135094,
          10135100
        ],
        "postalCode": "L5V1G7",
        "streetName": "WILLOW CREEK",
        "streetDirectionId": null,
        "streetTypeId": "DR",
        "placeName": "MISSISSAUGA",
        "streetNameDisplayText": "WILLOW CREEK DR, MISSISSAUGA"
      }
    ]
  },
  {
    "postal": "L5V4E9",
    "result": []
  },
  {
    "postal": "L5V9P0",
    "result": []
  },
  {
    "postal": "L5V5H3",
    "result": []
  },
  {
    "postal": "L5V9X6",
    "result": []
  },
  {
    "postal": "L5V5N7",
    "result": []
  },
  {
    "postal": "L5V5A6",
    "result": []
  },
  {
    "postal": "L5V4M0",
    "result": []
  },
  {
    "postal": "L5V3V6",
    "result": []
  },
  {
    "postal": "L5V1L7",
    "result": [
      {
        "electoralDistricts": [
          {
            "election": null,
            "id": 64,
            "name": "Mississauga—Malton"
          }
        ],
        "pollDivisionIds": [
          10139822
        ],
        "postalCode": "L5V1L7",
        "streetName": "BIDWELL",
        "streetDirectionId": null,
        "streetTypeId": "TRAIL",
        "placeName": "MISSISSAUGA",
        "streetNameDisplayText": "BIDWELL TRAIL, MISSISSAUGA"
      },
      {
        "electoralDistricts": [
          {
            "election": null,
            "id": 64,
            "name": "Mississauga—Malton"
          }
        ],
        "pollDivisionIds": [
          10139822
        ],
        "postalCode": "L5V1L7",
        "streetName": "EMERSON",
        "streetDirectionId": null,
        "streetTypeId": "LANE",
        "placeName": "MISSISSAUGA",
        "streetNameDisplayText": "EMERSON LANE, MISSISSAUGA"
      },
      {
        "electoralDistricts": [
          {
            "election": null,
            "id": 64,
            "name": "Mississauga—Malton"
          }
        ],
        "pollDivisionIds": [
          10139822
        ],
        "postalCode": "L5V1L7",
        "streetName": "WHITEWATER",
        "streetDirectionId": null,
        "streetTypeId": "LANE",
        "placeName": "MISSISSAUGA",
        "streetNameDisplayText": "WHITEWATER LANE, MISSISSAUGA"
      }
    ]
  },
  {
    "postal": "L5V2P9",
    "result": [
      {
        "electoralDistricts": [
          {
            "election": null,
            "id": 64,
            "name": "Mississauga—Malton"
          }
        ],
        "pollDivisionIds": [
          10139824
        ],
        "postalCode": "L5V2P9",
        "streetName": "LEDBURY",
        "streetDirectionId": null,
        "streetTypeId": "CRES",
        "placeName": "MISSISSAUGA",
        "streetNameDisplayText": "LEDBURY CRES, MISSISSAUGA"
      }
    ]
  },
  {
    "postal": "L5V5T4",
    "result": []
  },
  {
    "postal": "L5V5Z1",
    "result": []
  },
  {
    "postal": "L5V2X0",
    "result": []
  },
  {
    "postal": "L5V6Z2",
    "result": []
  },
  {
    "postal": "L5V0E0",
    "result": []
  },
  {
    "postal": "L5V3Z5",
    "result": []
  },
  {
    "postal": "L5V8H3",
    "result": []
  },
  {
    "postal": "L5V7S6",
    "result": []
  },
  {
    "postal": "L5V4C1",
    "result": []
  },
  {
    "postal": "L5V3K2",
    "result": []
  },
  {
    "postal": "L5V1Y5",
    "result": [
      {
        "electoralDistricts": [
          {
            "election": null,
            "id": 60,
            "name": "Mississauga Centre"
          }
        ],
        "pollDivisionIds": [
          10135098
        ],
        "postalCode": "L5V1Y5",
        "streetName": "FLATFORD",
        "streetDirectionId": null,
        "streetTypeId": "RD",
        "placeName": "MISSISSAUGA",
        "streetNameDisplayText": "FLATFORD RD, MISSISSAUGA"
      },
      {
        "electoralDistricts": [
          {
            "election": null,
            "id": 60,
            "name": "Mississauga Centre"
          }
        ],
        "pollDivisionIds": [
          10135098
        ],
        "postalCode": "L5V1Y5",
        "streetName": "LISMIC",
        "streetDirectionId": null,
        "streetTypeId": "BLVD",
        "placeName": "MISSISSAUGA",
        "streetNameDisplayText": "LISMIC BLVD, MISSISSAUGA"
      }
    ]
  },
  {
    "postal": "L5V6P6",
    "result": []
  },
  {
    "postal": "L5V3N9",
    "result": []
  },
  {
    "postal": "L5V3W2",
    "result": []
  },
  {
    "postal": "L5V6H8",
    "result": []
  },
  {
    "postal": "L5V9T3",
    "result": []
  },
  {
    "postal": "L5V5L9",
    "result": []
  },
  {
    "postal": "L5V7X7",
    "result": []
  },
  {
    "postal": "L5V3J5",
    "result": []
  },
  {
    "postal": "L5V4J5",
    "result": []
  },
  {
    "postal": "L5V6J2",
    "result": []
  },
  {
    "postal": "L5V5V6",
    "result": []
  },
  {
    "postal": "L5V3N2",
    "result": []
  },
  {
    "postal": "L5V3B1",
    "result": [
      {
        "electoralDistricts": [
          {
            "election": null,
            "id": 64,
            "name": "Mississauga—Malton"
          }
        ],
        "pollDivisionIds": [
          10139824
        ],
        "postalCode": "L5V3B1",
        "streetName": "ANNABELLE",
        "streetDirectionId": null,
        "streetTypeId": "AVE",
        "placeName": "MISSISSAUGA",
        "streetNameDisplayText": "ANNABELLE AVE, MISSISSAUGA"
      },
      {
        "electoralDistricts": [
          {
            "election": null,
            "id": 64,
            "name": "Mississauga—Malton"
          }
        ],
        "pollDivisionIds": [
          10139824
        ],
        "postalCode": "L5V3B1",
        "streetName": "GENOVESE",
        "streetDirectionId": null,
        "streetTypeId": "PL",
        "placeName": "MISSISSAUGA",
        "streetNameDisplayText": "GENOVESE PL, MISSISSAUGA"
      }
    ]
  },
  {
    "postal": "L5V8B5",
    "result": []
  },
  {
    "postal": "L5V0K1",
    "result": []
  },
  {
    "postal": "L5V7M7",
    "result": []
  },
  {
    "postal": "L5V2M2",
    "result": [
      {
        "electoralDistricts": [
          {
            "election": null,
            "id": 60,
            "name": "Mississauga Centre"
          }
        ],
        "pollDivisionIds": [
          10135093
        ],
        "postalCode": "L5V2M2",
        "streetName": "PARKPLACE",
        "streetDirectionId": null,
        "streetTypeId": "CIR",
        "placeName": "MISSISSAUGA",
        "streetNameDisplayText": "PARKPLACE CIR, MISSISSAUGA"
      },
      {
        "electoralDistricts": [
          {
            "election": null,
            "id": 60,
            "name": "Mississauga Centre"
          }
        ],
        "pollDivisionIds": [
          10135093
        ],
        "postalCode": "L5V2M2",
        "streetName": "WINTERTON",
        "streetDirectionId": null,
        "streetTypeId": "WAY",
        "placeName": "MISSISSAUGA",
        "streetNameDisplayText": "WINTERTON WAY, MISSISSAUGA"
      }
    ]
  },
  {
    "postal": "L5V9N3",
    "result": []
  },
  {
    "postal": "L5V4Y8",
    "result": []
  },
  {
    "postal": "L5V3V7",
    "result": []
  },
  {
    "postal": "L5V8Z1",
    "result": []
  },
  {
    "postal": "L5V7B3",
    "result": []
  },
  {
    "postal": "L5V3A8",
    "result": [
      {
        "electoralDistricts": [
          {
            "election": null,
            "id": 64,
            "name": "Mississauga—Malton"
          }
        ],
        "pollDivisionIds": [
          10139824
        ],
        "postalCode": "L5V3A8",
        "streetName": "ARMANDO",
        "streetDirectionId": null,
        "streetTypeId": "AVE",
        "placeName": "MISSISSAUGA",
        "streetNameDisplayText": "ARMANDO AVE, MISSISSAUGA"
      },
      {
        "electoralDistricts": [
          {
            "election": null,
            "id": 64,
            "name": "Mississauga—Malton"
          }
        ],
        "pollDivisionIds": [
          10139824
        ],
        "postalCode": "L5V3A8",
        "streetName": "ROGERSON",
        "streetDirectionId": null,
        "streetTypeId": "RD",
        "placeName": "MISSISSAUGA",
        "streetNameDisplayText": "ROGERSON RD, MISSISSAUGA"
      }
    ]
  },
  {
    "postal": "L5V7V5",
    "result": []
  },
  {
    "postal": "L5V2T2",
    "result": [
      {
        "electoralDistricts": [
          {
            "election": null,
            "id": 64,
            "name": "Mississauga—Malton"
          }
        ],
        "pollDivisionIds": [
          10139823
        ],
        "postalCode": "L5V2T2",
        "streetName": "GALESWAY",
        "streetDirectionId": null,
        "streetTypeId": "BLVD",
        "placeName": "MISSISSAUGA",
        "streetNameDisplayText": "GALESWAY BLVD, MISSISSAUGA"
      },
      {
        "electoralDistricts": [
          {
            "election": null,
            "id": 64,
            "name": "Mississauga—Malton"
          }
        ],
        "pollDivisionIds": [
          10139823
        ],
        "postalCode": "L5V2T2",
        "streetName": "WINDBROOK",
        "streetDirectionId": null,
        "streetTypeId": "GROVE",
        "placeName": "MISSISSAUGA",
        "streetNameDisplayText": "WINDBROOK GROVE, MISSISSAUGA"
      }
    ]
  },
  {
    "postal": "L5V6L3",
    "result": []
  },
  {
    "postal": "L5V0L2",
    "result": []
  },
  {
    "postal": "L5V5Y8",
    "result": []
  },
  {
    "postal": "L5V0B8",
    "result": []
  },
  {
    "postal": "L5V6R5",
    "result": []
  },
  {
    "postal": "L5V8W6",
    "result": []
  },
  {
    "postal": "L5V8G6",
    "result": []
  },
  {
    "postal": "L5V6X3",
    "result": []
  },
  {
    "postal": "L5V7R7",
    "result": []
  },
  {
    "postal": "L5V4B6",
    "result": []
  },
  {
    "postal": "L5V3P9",
    "result": []
  },
  {
    "postal": "L5V2T3",
    "result": [
      {
        "electoralDistricts": [
          {
            "election": null,
            "id": 64,
            "name": "Mississauga—Malton"
          }
        ],
        "pollDivisionIds": [
          10139823
        ],
        "postalCode": "L5V2T3",
        "streetName": "GALESWAY",
        "streetDirectionId": null,
        "streetTypeId": "BLVD",
        "placeName": "MISSISSAUGA",
        "streetNameDisplayText": "GALESWAY BLVD, MISSISSAUGA"
      },
      {
        "electoralDistricts": [
          {
            "election": null,
            "id": 64,
            "name": "Mississauga—Malton"
          }
        ],
        "pollDivisionIds": [
          10139823
        ],
        "postalCode": "L5V2T3",
        "streetName": "GANT",
        "streetDirectionId": null,
        "streetTypeId": "CRES",
        "placeName": "MISSISSAUGA",
        "streetNameDisplayText": "GANT CRES, MISSISSAUGA"
      }
    ]
  },
  {
    "postal": "L5V1M4",
    "result": [
      {
        "electoralDistricts": [
          {
            "election": null,
            "id": 64,
            "name": "Mississauga—Malton"
          }
        ],
        "pollDivisionIds": [
          10139822
        ],
        "postalCode": "L5V1M4",
        "streetName": "ESTES",
        "streetDirectionId": null,
        "streetTypeId": "CRES",
        "placeName": "MISSISSAUGA",
        "streetNameDisplayText": "ESTES CRES, MISSISSAUGA"
      },
      {
        "electoralDistricts": [
          {
            "election": null,
            "id": 64,
            "name": "Mississauga—Malton"
          }
        ],
        "pollDivisionIds": [
          10139822
        ],
        "postalCode": "L5V1M4",
        "streetName": "KISBY",
        "streetDirectionId": null,
        "streetTypeId": "DR",
        "placeName": "MISSISSAUGA",
        "streetNameDisplayText": "KISBY DR, MISSISSAUGA"
      }
    ]
  },
  {
    "postal": "L5V0H1",
    "result": []
  },
  {
    "postal": "L5V9W3",
    "result": []
  },
  {
    "postal": "L5V6P1",
    "result": []
  },
  {
    "postal": "L5V7G2",
    "result": []
  },
  {
    "postal": "L5V4J9",
    "result": []
  },
  {
    "postal": "L5V9E4",
    "result": []
  },
  {
    "postal": "L5V8H0",
    "result": []
  },
  {
    "postal": "L5V4M7",
    "result": []
  },
  {
    "postal": "L5V2G9",
    "result": [
      {
        "electoralDistricts": [
          {
            "election": null,
            "id": 60,
            "name": "Mississauga Centre"
          }
        ],
        "pollDivisionIds": [
          10135103
        ],
        "postalCode": "L5V2G9",
        "streetName": "RATHKEALE",
        "streetDirectionId": null,
        "streetTypeId": "RD",
        "placeName": "MISSISSAUGA",
        "streetNameDisplayText": "RATHKEALE RD, MISSISSAUGA"
      }
    ]
  },
  {
    "postal": "L5V8T2",
    "result": []
  },
  {
    "postal": "L5V7G7",
    "result": []
  },
  {
    "postal": "L5V4Z3",
    "result": []
  },
  {
    "postal": "L5V5B3",
    "result": []
  },
  {
    "postal": "L5V1S7",
    "result": [
      {
        "electoralDistricts": [
          {
            "election": null,
            "id": 60,
            "name": "Mississauga Centre"
          }
        ],
        "pollDivisionIds": [
          10135099
        ],
        "postalCode": "L5V1S7",
        "streetName": "FALLINGBROOK",
        "streetDirectionId": null,
        "streetTypeId": "DR",
        "placeName": "MISSISSAUGA",
        "streetNameDisplayText": "FALLINGBROOK DR, MISSISSAUGA"
      },
      {
        "electoralDistricts": [
          {
            "election": null,
            "id": 60,
            "name": "Mississauga Centre"
          }
        ],
        "pollDivisionIds": [
          10135098,
          10135099
        ],
        "postalCode": "L5V1S7",
        "streetName": "SHERWOOD MILLS",
        "streetDirectionId": null,
        "streetTypeId": "BLVD",
        "placeName": "MISSISSAUGA",
        "streetNameDisplayText": "SHERWOOD MILLS BLVD, MISSISSAUGA"
      }
    ]
  },
  {
    "postal": "L5V2N7",
    "result": [
      {
        "electoralDistricts": [
          {
            "election": null,
            "id": 64,
            "name": "Mississauga—Malton"
          }
        ],
        "pollDivisionIds": [
          10139823
        ],
        "postalCode": "L5V2N7",
        "streetName": "GALESWAY",
        "streetDirectionId": null,
        "streetTypeId": "BLVD",
        "placeName": "MISSISSAUGA",
        "streetNameDisplayText": "GALESWAY BLVD, MISSISSAUGA"
      },
      {
        "electoralDistricts": [
          {
            "election": null,
            "id": 64,
            "name": "Mississauga—Malton"
          }
        ],
        "pollDivisionIds": [
          10139823
        ],
        "postalCode": "L5V2N7",
        "streetName": "WINDBROOK",
        "streetDirectionId": null,
        "streetTypeId": "GROVE",
        "placeName": "MISSISSAUGA",
        "streetNameDisplayText": "WINDBROOK GROVE, MISSISSAUGA"
      }
    ]
  },
  {
    "postal": "L5V0H8",
    "result": []
  },
  {
    "postal": "L5V7Z4",
    "result": []
  },
  {
    "postal": "L5V7B1",
    "result": []
  },
  {
    "postal": "L5V7P8",
    "result": []
  },
  {
    "postal": "L5V7N0",
    "result": []
  },
  {
    "postal": "L5V3Y5",
    "result": []
  },
  {
    "postal": "L5V6K1",
    "result": []
  },
  {
    "postal": "L5V9X5",
    "result": []
  },
  {
    "postal": "L5V7S5",
    "result": []
  },
  {
    "postal": "L5V0A4",
    "result": [
      {
        "electoralDistricts": [
          {
            "election": null,
            "id": 60,
            "name": "Mississauga Centre"
          }
        ],
        "pollDivisionIds": [
          68715
        ],
        "postalCode": "L5V0A4",
        "streetName": "SCOLLARD",
        "streetDirectionId": null,
        "streetTypeId": "CRT",
        "placeName": "MISSISSAUGA",
        "streetNameDisplayText": "SCOLLARD CRT, MISSISSAUGA"
      }
    ]
  },
  {
    "postal": "L5V4T5",
    "result": []
  },
  {
    "postal": "L5V5K1",
    "result": []
  },
  {
    "postal": "L5V0Z9",
    "result": []
  },
  {
    "postal": "L5V7T2",
    "result": []
  },
  {
    "postal": "L5V1L5",
    "result": [
      {
        "electoralDistricts": [
          {
            "election": null,
            "id": 60,
            "name": "Mississauga Centre"
          }
        ],
        "pollDivisionIds": [
          10135100
        ],
        "postalCode": "L5V1L5",
        "streetName": "NATKARNI",
        "streetDirectionId": null,
        "streetTypeId": "CRES",
        "placeName": "MISSISSAUGA",
        "streetNameDisplayText": "NATKARNI CRES, MISSISSAUGA"
      }
    ]
  },
  {
    "postal": "L5V3N5",
    "result": []
  },
  {
    "postal": "L5V6H4",
    "result": []
  },
  {
    "postal": "L5V5A5",
    "result": []
  },
  {
    "postal": "L5V3R9",
    "result": []
  },
  {
    "postal": "L5V7L8",
    "result": []
  },
  {
    "postal": "L5V6T6",
    "result": []
  },
  {
    "postal": "L5V7Y7",
    "result": []
  },
  {
    "postal": "L5V3M8",
    "result": []
  },
  {
    "postal": "L5V2E0",
    "result": []
  },
  {
    "postal": "L5V4B5",
    "result": []
  },
  {
    "postal": "L5V1J3",
    "result": [
      {
        "electoralDistricts": [
          {
            "election": null,
            "id": 64,
            "name": "Mississauga—Malton"
          }
        ],
        "pollDivisionIds": [
          10139815
        ],
        "postalCode": "L5V1J3",
        "streetName": "DONWAY",
        "streetDirectionId": null,
        "streetTypeId": "DR",
        "placeName": "MISSISSAUGA",
        "streetNameDisplayText": "DONWAY DR, MISSISSAUGA"
      },
      {
        "electoralDistricts": [
          {
            "election": null,
            "id": 64,
            "name": "Mississauga—Malton"
          }
        ],
        "pollDivisionIds": [
          10139815
        ],
        "postalCode": "L5V1J3",
        "streetName": "OKEEFE CRT",
        "streetDirectionId": null,
        "streetTypeId": null,
        "placeName": "MISSISSAUGA",
        "streetNameDisplayText": "OKEEFE CRT, MISSISSAUGA"
      },
      {
        "electoralDistricts": [
          {
            "election": null,
            "id": 64,
            "name": "Mississauga—Malton"
          }
        ],
        "pollDivisionIds": [
          10139815
        ],
        "postalCode": "L5V1J3",
        "streetName": "O'KEEFE",
        "streetDirectionId": null,
        "streetTypeId": "CRT",
        "placeName": "MISSISSAUGA",
        "streetNameDisplayText": "O'KEEFE CRT, MISSISSAUGA"
      },
      {
        "electoralDistricts": [
          {
            "election": null,
            "id": 64,
            "name": "Mississauga—Malton"
          }
        ],
        "pollDivisionIds": [
          10139815
        ],
        "postalCode": "L5V1J3",
        "streetName": "ORMINDALE",
        "streetDirectionId": null,
        "streetTypeId": "WAY",
        "placeName": "MISSISSAUGA",
        "streetNameDisplayText": "ORMINDALE WAY, MISSISSAUGA"
      }
    ]
  },
  {
    "postal": "L5V5S6",
    "result": []
  },
  {
    "postal": "L5V8P7",
    "result": []
  },
  {
    "postal": "L5V7S7",
    "result": []
  },
  {
    "postal": "L5V4C2",
    "result": []
  },
  {
    "postal": "L5V5Y0",
    "result": []
  },
  {
    "postal": "L5V2V7",
    "result": [
      {
        "electoralDistricts": [
          {
            "election": null,
            "id": 64,
            "name": "Mississauga—Malton"
          }
        ],
        "pollDivisionIds": [
          10139824
        ],
        "postalCode": "L5V2V7",
        "streetName": "GENOVESE",
        "streetDirectionId": null,
        "streetTypeId": "PL",
        "placeName": "MISSISSAUGA",
        "streetNameDisplayText": "GENOVESE PL, MISSISSAUGA"
      },
      {
        "electoralDistricts": [
          {
            "election": null,
            "id": 64,
            "name": "Mississauga—Malton"
          }
        ],
        "pollDivisionIds": [
          10139824
        ],
        "postalCode": "L5V2V7",
        "streetName": "HEATHERLEIGH",
        "streetDirectionId": null,
        "streetTypeId": "AVE",
        "placeName": "MISSISSAUGA",
        "streetNameDisplayText": "HEATHERLEIGH AVE, MISSISSAUGA"
      },
      {
        "electoralDistricts": [
          {
            "election": null,
            "id": 64,
            "name": "Mississauga—Malton"
          }
        ],
        "pollDivisionIds": [
          10139824
        ],
        "postalCode": "L5V2V7",
        "streetName": "MARYGRACE",
        "streetDirectionId": null,
        "streetTypeId": "CRT",
        "placeName": "MISSISSAUGA",
        "streetNameDisplayText": "MARYGRACE CRT, MISSISSAUGA"
      }
    ]
  },
  {
    "postal": "L5V8P5",
    "result": []
  },
  {
    "postal": "L5V5P5",
    "result": []
  },
  {
    "postal": "L5V5Z0",
    "result": []
  },
  {
    "postal": "L5V9B0",
    "result": []
  },
  {
    "postal": "L5V1L0",
    "result": []
  },
  {
    "postal": "L5V0B5",
    "result": [
      {
        "electoralDistricts": [
          {
            "election": null,
            "id": 64,
            "name": "Mississauga—Malton"
          }
        ],
        "pollDivisionIds": [
          10139824
        ],
        "postalCode": "L5V0B5",
        "streetName": "PLYMOUTH",
        "streetDirectionId": null,
        "streetTypeId": "DR",
        "placeName": "MISSISSAUGA",
        "streetNameDisplayText": "PLYMOUTH DR, MISSISSAUGA"
      }
    ]
  },
  {
    "postal": "L5V3L2",
    "result": []
  },
  {
    "postal": "L5V3B7",
    "result": [
      {
        "electoralDistricts": [
          {
            "election": null,
            "id": 64,
            "name": "Mississauga—Malton"
          }
        ],
        "pollDivisionIds": [
          10139824
        ],
        "postalCode": "L5V3B7",
        "streetName": "MAVIS",
        "streetDirectionId": null,
        "streetTypeId": "RD",
        "placeName": "MISSISSAUGA",
        "streetNameDisplayText": "MAVIS RD, MISSISSAUGA"
      }
    ]
  },
  {
    "postal": "L5V8L1",
    "result": []
  },
  {
    "postal": "L5V5M4",
    "result": []
  },
  {
    "postal": "L5V4G9",
    "result": []
  },
  {
    "postal": "L5V0P0",
    "result": []
  },
  {
    "postal": "L5V8G2",
    "result": []
  },
  {
    "postal": "L5V1V9",
    "result": [
      {
        "electoralDistricts": [
          {
            "election": null,
            "id": 64,
            "name": "Mississauga—Malton"
          }
        ],
        "pollDivisionIds": [
          10139822
        ],
        "postalCode": "L5V1V9",
        "streetName": "MERSEY",
        "streetDirectionId": null,
        "streetTypeId": "ST",
        "placeName": "MISSISSAUGA",
        "streetNameDisplayText": "MERSEY ST, MISSISSAUGA"
      }
    ]
  },
  {
    "postal": "L5V8N8",
    "result": []
  },
  {
    "postal": "L5V6S8",
    "result": []
  },
  {
    "postal": "L5V8H2",
    "result": []
  },
  {
    "postal": "L5V5R8",
    "result": []
  },
  {
    "postal": "L5V5L4",
    "result": []
  },
  {
    "postal": "L5V9E1",
    "result": []
  },
  {
    "postal": "L5V1C4",
    "result": [
      {
        "electoralDistricts": [
          {
            "election": null,
            "id": 60,
            "name": "Mississauga Centre"
          }
        ],
        "pollDivisionIds": [
          10135094
        ],
        "postalCode": "L5V1C4",
        "streetName": "MILLWORKS",
        "streetDirectionId": null,
        "streetTypeId": "CRES",
        "placeName": "MISSISSAUGA",
        "streetNameDisplayText": "MILLWORKS CRES, MISSISSAUGA"
      }
    ]
  },
  {
    "postal": "L5V8W5",
    "result": []
  },
  {
    "postal": "L5V1Y4",
    "result": [
      {
        "electoralDistricts": [
          {
            "election": null,
            "id": 60,
            "name": "Mississauga Centre"
          }
        ],
        "pollDivisionIds": [
          10135098
        ],
        "postalCode": "L5V1Y4",
        "streetName": "BULLRUSH",
        "streetDirectionId": null,
        "streetTypeId": "DR",
        "placeName": "MISSISSAUGA",
        "streetNameDisplayText": "BULLRUSH DR, MISSISSAUGA"
      },
      {
        "electoralDistricts": [
          {
            "election": null,
            "id": 60,
            "name": "Mississauga Centre"
          }
        ],
        "pollDivisionIds": [
          10135098
        ],
        "postalCode": "L5V1Y4",
        "streetName": "LISMIC",
        "streetDirectionId": null,
        "streetTypeId": "BLVD",
        "placeName": "MISSISSAUGA",
        "streetNameDisplayText": "LISMIC BLVD, MISSISSAUGA"
      }
    ]
  },
  {
    "postal": "L5V1C0",
    "result": []
  },
  {
    "postal": "L5V2J2",
    "result": [
      {
        "electoralDistricts": [
          {
            "election": null,
            "id": 64,
            "name": "Mississauga—Malton"
          }
        ],
        "pollDivisionIds": [
          10139815
        ],
        "postalCode": "L5V2J2",
        "streetName": "BLYLEVEN",
        "streetDirectionId": null,
        "streetTypeId": "BLVD",
        "placeName": "MISSISSAUGA",
        "streetNameDisplayText": "BLYLEVEN BLVD, MISSISSAUGA"
      },
      {
        "electoralDistricts": [
          {
            "election": null,
            "id": 64,
            "name": "Mississauga—Malton"
          }
        ],
        "pollDivisionIds": [
          10139815
        ],
        "postalCode": "L5V2J2",
        "streetName": "SEAVER",
        "streetDirectionId": null,
        "streetTypeId": "RD",
        "placeName": "MISSISSAUGA",
        "streetNameDisplayText": "SEAVER RD, MISSISSAUGA"
      }
    ]
  },
  {
    "postal": "L5V2J0",
    "result": []
  },
  {
    "postal": "L5V7A3",
    "result": []
  },
  {
    "postal": "L5V8M1",
    "result": []
  },
  {
    "postal": "L5V7T9",
    "result": []
  },
  {
    "postal": "L5V6C0",
    "result": []
  },
  {
    "postal": "L5V7X1",
    "result": []
  },
  {
    "postal": "L5V0G1",
    "result": []
  },
  {
    "postal": "L5V4X2",
    "result": []
  },
  {
    "postal": "L5V0N6",
    "result": []
  },
  {
    "postal": "L5V8E3",
    "result": []
  },
  {
    "postal": "L5V5S8",
    "result": []
  },
  {
    "postal": "L5V0R0",
    "result": []
  },
  {
    "postal": "L5V6J6",
    "result": []
  },
  {
    "postal": "L5V4B4",
    "result": []
  },
  {
    "postal": "L5V7E3",
    "result": []
  },
  {
    "postal": "L5V3N6",
    "result": []
  },
  {
    "postal": "L5V3X6",
    "result": []
  },
  {
    "postal": "L5V8L0",
    "result": []
  },
  {
    "postal": "L5V8N1",
    "result": []
  },
  {
    "postal": "L5V4J0",
    "result": []
  },
  {
    "postal": "L5V0X7",
    "result": []
  },
  {
    "postal": "L5V6S4",
    "result": []
  },
  {
    "postal": "L5V0Z0",
    "result": []
  },
  {
    "postal": "L5V9X8",
    "result": []
  },
  {
    "postal": "L5V3H3",
    "result": []
  },
  {
    "postal": "L5V7S2",
    "result": []
  },
  {
    "postal": "L5V3T3",
    "result": []
  },
  {
    "postal": "L5V9P3",
    "result": []
  },
  {
    "postal": "L5V4H8",
    "result": []
  },
  {
    "postal": "L5V6R1",
    "result": []
  },
  {
    "postal": "L5V1S0",
    "result": []
  },
  {
    "postal": "L5V3W8",
    "result": []
  },
  {
    "postal": "L5V4S3",
    "result": []
  },
  {
    "postal": "L5V1B6",
    "result": [
      {
        "electoralDistricts": [
          {
            "election": null,
            "id": 64,
            "name": "Mississauga—Malton"
          }
        ],
        "pollDivisionIds": [
          10139822
        ],
        "postalCode": "L5V1B6",
        "streetName": "BANCROFT",
        "streetDirectionId": null,
        "streetTypeId": "DR",
        "placeName": "MISSISSAUGA",
        "streetNameDisplayText": "BANCROFT DR, MISSISSAUGA"
      },
      {
        "electoralDistricts": [
          {
            "election": null,
            "id": 64,
            "name": "Mississauga—Malton"
          }
        ],
        "pollDivisionIds": [
          10139822
        ],
        "postalCode": "L5V1B6",
        "streetName": "MULBERRY",
        "streetDirectionId": null,
        "streetTypeId": "CRES",
        "placeName": "MISSISSAUGA",
        "streetNameDisplayText": "MULBERRY CRES, MISSISSAUGA"
      }
    ]
  },
  {
    "postal": "L5V8R3",
    "result": []
  },
  {
    "postal": "L5V4V9",
    "result": []
  },
  {
    "postal": "L5V9W4",
    "result": []
  },
  {
    "postal": "L5V3T4",
    "result": []
  },
  {
    "postal": "L5V5C7",
    "result": []
  },
  {
    "postal": "L5V3Y1",
    "result": []
  },
  {
    "postal": "L5V5V0",
    "result": []
  },
  {
    "postal": "L5V8G8",
    "result": []
  },
  {
    "postal": "L5V8B1",
    "result": []
  },
  {
    "postal": "L5V4P5",
    "result": []
  },
  {
    "postal": "L5V7B2",
    "result": []
  },
  {
    "postal": "L5V0R2",
    "result": []
  },
  {
    "postal": "L5V4M4",
    "result": []
  },
  {
    "postal": "L5V7M4",
    "result": []
  },
  {
    "postal": "L5V9S7",
    "result": []
  },
  {
    "postal": "L5V5Z7",
    "result": []
  },
  {
    "postal": "L5V7J7",
    "result": []
  },
  {
    "postal": "L5V8R8",
    "result": []
  },
  {
    "postal": "L5V9X1",
    "result": []
  },
  {
    "postal": "L5V5M9",
    "result": []
  },
  {
    "postal": "L5V9B4",
    "result": []
  },
  {
    "postal": "L5V0L9",
    "result": []
  },
  {
    "postal": "L5V9G4",
    "result": []
  },
  {
    "postal": "L5V1J4",
    "result": [
      {
        "electoralDistricts": [
          {
            "election": null,
            "id": 64,
            "name": "Mississauga—Malton"
          }
        ],
        "pollDivisionIds": [
          10139815
        ],
        "postalCode": "L5V1J4",
        "streetName": "DONWAY",
        "streetDirectionId": null,
        "streetTypeId": "DR",
        "placeName": "MISSISSAUGA",
        "streetNameDisplayText": "DONWAY DR, MISSISSAUGA"
      },
      {
        "electoralDistricts": [
          {
            "election": null,
            "id": 64,
            "name": "Mississauga—Malton"
          }
        ],
        "pollDivisionIds": [
          10139815
        ],
        "postalCode": "L5V1J4",
        "streetName": "HAYDONBRIDGE",
        "streetDirectionId": null,
        "streetTypeId": "CRT",
        "placeName": "MISSISSAUGA",
        "streetNameDisplayText": "HAYDONBRIDGE CRT, MISSISSAUGA"
      }
    ]
  },
  {
    "postal": "L5V0W6",
    "result": []
  }
]
