[
  {
    "postal": "K1J9J6",
    "result": [
      {
        "electoralDistricts": [
          {
            "election": null,
            "id": 80,
            "name": "Ottawa—Vanier"
          }
        ],
        "pollDivisionIds": [
          10140736
        ],
        "postalCode": "K1J9J6",
        "streetName": "OGILVIE",
        "streetDirectionId": null,
        "streetTypeId": "RD",
        "placeName": "GLOUCESTER",
        "streetNameDisplayText": "OGILVIE RD, GLOUCESTER"
      }
    ]
  },
  {
    "postal": "K1J9Z5",
    "result": []
  },
  {
    "postal": "K1J7H8",
    "result": [
      {
        "electoralDistricts": [
          {
            "election": null,
            "id": 80,
            "name": "Ottawa—Vanier"
          }
        ],
        "pollDivisionIds": [
          10140737
        ],
        "postalCode": "K1J7H8",
        "streetName": "WHIPPOORWILL",
        "streetDirectionId": null,
        "streetTypeId": "DR",
        "placeName": "GLOUCESTER",
        "streetNameDisplayText": "WHIPPOORWILL DR, GLOUCESTER"
      }
    ]
  },
  {
    "postal": "K1J0P6",
    "result": []
  },
  {
    "postal": "K1J0S7",
    "result": []
  },
  {
    "postal": "K1J8B9",
    "result": [
      {
        "electoralDistricts": [
          {
            "election": null,
            "id": 80,
            "name": "Ottawa—Vanier"
          }
        ],
        "pollDivisionIds": [
          10140735
        ],
        "postalCode": "K1J8B9",
        "streetName": "ADLEY",
        "streetDirectionId": null,
        "streetTypeId": "RD",
        "placeName": "GLOUCESTER",
        "streetNameDisplayText": "ADLEY RD, GLOUCESTER"
      }
    ]
  },
  {
    "postal": "K1J2A6",
    "result": []
  },
  {
    "postal": "K1J7V2",
    "result": [
      {
        "electoralDistricts": [
          {
            "election": null,
            "id": 80,
            "name": "Ottawa—Vanier"
          }
        ],
        "pollDivisionIds": [
          10140741
        ],
        "postalCode": "K1J7V2",
        "streetName": "BUCHANAN",
        "streetDirectionId": null,
        "streetTypeId": "CRES",
        "placeName": "GLOUCESTER",
        "streetNameDisplayText": "BUCHANAN CRES, GLOUCESTER"
      }
    ]
  },
  {
    "postal": "K1J9P4",
    "result": []
  },
  {
    "postal": "K1J6G0",
    "result": []
  },
  {
    "postal": "K1J2K0",
    "result": []
  },
  {
    "postal": "K1J7N6",
    "result": [
      {
        "electoralDistricts": [
          {
            "election": null,
            "id": 80,
            "name": "Ottawa—Vanier"
          }
        ],
        "pollDivisionIds": [
          10140741
        ],
        "postalCode": "K1J7N6",
        "streetName": "OGILVIE",
        "streetDirectionId": null,
        "streetTypeId": "RD",
        "placeName": "GLOUCESTER",
        "streetNameDisplayText": "OGILVIE RD, GLOUCESTER"
      }
    ]
  },
  {
    "postal": "K1J5R3",
    "result": []
  },
  {
    "postal": "K1J7K0",
    "result": []
  },
  {
    "postal": "K1J3R2",
    "result": []
  },
  {
    "postal": "K1J0J1",
    "result": []
  },
  {
    "postal": "K1J0B0",
    "result": []
  },
  {
    "postal": "K1J5Z2",
    "result": []
  },
  {
    "postal": "K1J7P3",
    "result": [
      {
        "electoralDistricts": [
          {
            "election": null,
            "id": 80,
            "name": "Ottawa—Vanier"
          }
        ],
        "pollDivisionIds": [
          10140735
        ],
        "postalCode": "K1J7P3",
        "streetName": "OGILVIE",
        "streetDirectionId": null,
        "streetTypeId": "RD",
        "placeName": "OTTAWA",
        "streetNameDisplayText": "OGILVIE RD, OTTAWA"
      }
    ]
  },
  {
    "postal": "K1J2K3",
    "result": []
  },
  {
    "postal": "K1J7Y6",
    "result": [
      {
        "electoralDistricts": [
          {
            "election": null,
            "id": 80,
            "name": "Ottawa—Vanier"
          }
        ],
        "pollDivisionIds": [
          10140741
        ],
        "postalCode": "K1J7Y6",
        "streetName": "HOLLYBROOK",
        "streetDirectionId": null,
        "streetTypeId": "CRES",
        "placeName": "GLOUCESTER",
        "streetNameDisplayText": "HOLLYBROOK CRES, GLOUCESTER"
      }
    ]
  },
  {
    "postal": "K1J1L9",
    "result": []
  },
  {
    "postal": "K1J8T0",
    "result": []
  },
  {
    "postal": "K1J3K8",
    "result": []
  },
  {
    "postal": "K1J5W9",
    "result": []
  },
  {
    "postal": "K1J6T9",
    "result": [
      {
        "electoralDistricts": [
          {
            "election": null,
            "id": 80,
            "name": "Ottawa—Vanier"
          }
        ],
        "pollDivisionIds": [
          10140739
        ],
        "postalCode": "K1J6T9",
        "streetName": "APPLEFORD",
        "streetDirectionId": null,
        "streetTypeId": "ST",
        "placeName": "GLOUCESTER",
        "streetNameDisplayText": "APPLEFORD ST, GLOUCESTER"
      }
    ]
  },
  {
    "postal": "K1J4H1",
    "result": []
  },
  {
    "postal": "K1J7A2",
    "result": [
      {
        "electoralDistricts": [
          {
            "election": null,
            "id": 80,
            "name": "Ottawa—Vanier"
          }
        ],
        "pollDivisionIds": [
          10140741
        ],
        "postalCode": "K1J7A2",
        "streetName": "EASTVALE",
        "streetDirectionId": null,
        "streetTypeId": "DR",
        "placeName": "GLOUCESTER",
        "streetNameDisplayText": "EASTVALE DR, GLOUCESTER"
      }
    ]
  },
  {
    "postal": "K1J5G0",
    "result": []
  },
  {
    "postal": "K1J8V5",
    "result": [
      {
        "electoralDistricts": [
          {
            "election": null,
            "id": 80,
            "name": "Ottawa—Vanier"
          }
        ],
        "pollDivisionIds": [
          10140737
        ],
        "postalCode": "K1J8V5",
        "streetName": "DAVIDSON",
        "streetDirectionId": null,
        "streetTypeId": "DR",
        "placeName": "GLOUCESTER",
        "streetNameDisplayText": "DAVIDSON DR, GLOUCESTER"
      }
    ]
  },
  {
    "postal": "K1J2Y8",
    "result": []
  },
  {
    "postal": "K1J2B6",
    "result": []
  },
  {
    "postal": "K1J4W8",
    "result": []
  },
  {
    "postal": "K1J8H7",
    "result": [
      {
        "electoralDistricts": [
          {
            "election": null,
            "id": 80,
            "name": "Ottawa—Vanier"
          }
        ],
        "pollDivisionIds": [
          10140742
        ],
        "postalCode": "K1J8H7",
        "streetName": "EAST ACRES",
        "streetDirectionId": null,
        "streetTypeId": "RD",
        "placeName": "GLOUCESTER",
        "streetNameDisplayText": "EAST ACRES RD, GLOUCESTER"
      }
    ]
  },
  {
    "postal": "K1J5P1",
    "result": []
  },
  {
    "postal": "K1J2B8",
    "result": []
  },
  {
    "postal": "K1J0P2",
    "result": []
  },
  {
    "postal": "K1J9M1",
    "result": [
      {
        "electoralDistricts": [
          {
            "election": null,
            "id": 80,
            "name": "Ottawa—Vanier"
          }
        ],
        "pollDivisionIds": [
          10140741
        ],
        "postalCode": "K1J9M1",
        "streetName": "CANOTEK",
        "streetDirectionId": null,
        "streetTypeId": "RD",
        "placeName": "GLOUCESTER",
        "streetNameDisplayText": "CANOTEK RD, GLOUCESTER"
      }
    ]
  },
  {
    "postal": "K1J3G0",
    "result": []
  },
  {
    "postal": "K1J9Z2",
    "result": []
  },
  {
    "postal": "K1J2A0",
    "result": []
  },
  {
    "postal": "K1J6Y0",
    "result": []
  },
  {
    "postal": "K1J2Z8",
    "result": []
  },
  {
    "postal": "K1J7Y3",
    "result": [
      {
        "electoralDistricts": [
          {
            "election": null,
            "id": 80,
            "name": "Ottawa—Vanier"
          }
        ],
        "pollDivisionIds": [
          10140741
        ],
        "postalCode": "K1J7Y3",
        "streetName": "WOODWAY",
        "streetDirectionId": null,
        "streetTypeId": "AVE",
        "placeName": "GLOUCESTER",
        "streetNameDisplayText": "WOODWAY AVE, GLOUCESTER"
      }
    ]
  },
  {
    "postal": "K1J6Z5",
    "result": [
      {
        "electoralDistricts": [
          {
            "election": null,
            "id": 80,
            "name": "Ottawa—Vanier"
          }
        ],
        "pollDivisionIds": [
          10140741
        ],
        "postalCode": "K1J6Z5",
        "streetName": "EASTVALE",
        "streetDirectionId": null,
        "streetTypeId": "DR",
        "placeName": "GLOUCESTER",
        "streetNameDisplayText": "EASTVALE DR, GLOUCESTER"
      }
    ]
  },
  {
    "postal": "K1J6E0",
    "result": []
  },
  {
    "postal": "K1J9B7",
    "result": [
      {
        "electoralDistricts": [
          {
            "election": null,
            "id": 80,
            "name": "Ottawa—Vanier"
          }
        ],
        "pollDivisionIds": [
          10140737
        ],
        "postalCode": "K1J9B7",
        "streetName": "MONTREAL",
        "streetDirectionId": null,
        "streetTypeId": "RD",
        "placeName": "GLOUCESTER",
        "streetNameDisplayText": "MONTREAL RD, GLOUCESTER"
      }
    ]
  },
  {
    "postal": "K1J9S5",
    "result": []
  },
  {
    "postal": "K1J3X3",
    "result": []
  },
  {
    "postal": "K1J7R5",
    "result": [
      {
        "electoralDistricts": [
          {
            "election": null,
            "id": 80,
            "name": "Ottawa—Vanier"
          }
        ],
        "pollDivisionIds": [
          10140734
        ],
        "postalCode": "K1J7R5",
        "streetName": "SNOW",
        "streetDirectionId": null,
        "streetTypeId": "ST",
        "placeName": "GLOUCESTER",
        "streetNameDisplayText": "SNOW ST, GLOUCESTER"
      }
    ]
  },
  {
    "postal": "K1J2X3",
    "result": []
  },
  {
    "postal": "K1J8Z9",
    "result": [
      {
        "electoralDistricts": [
          {
            "election": null,
            "id": 80,
            "name": "Ottawa—Vanier"
          }
        ],
        "pollDivisionIds": [
          10140739
        ],
        "postalCode": "K1J8Z9",
        "streetName": "CHIMNEY HILL",
        "streetDirectionId": null,
        "streetTypeId": "WAY",
        "placeName": "GLOUCESTER",
        "streetNameDisplayText": "CHIMNEY HILL WAY, GLOUCESTER"
      }
    ]
  },
  {
    "postal": "K1J0N4",
    "result": []
  },
  {
    "postal": "K1J1K1",
    "result": [
      {
        "electoralDistricts": [
          {
            "election": null,
            "id": 80,
            "name": "Ottawa—Vanier"
          }
        ],
        "pollDivisionIds": [
          10140734
        ],
        "postalCode": "K1J1K1",
        "streetName": "BURLEIGH",
        "streetDirectionId": null,
        "streetTypeId": "PVT",
        "placeName": "OTTAWA",
        "streetNameDisplayText": "BURLEIGH PVT, OTTAWA"
      }
    ]
  },
  {
    "postal": "K1J1S3",
    "result": []
  },
  {
    "postal": "K1J6M4",
    "result": []
  },
  {
    "postal": "K1J9A9",
    "result": []
  },
  {
    "postal": "K1J9Z9",
    "result": []
  },
  {
    "postal": "K1J6T4",
    "result": [
      {
        "electoralDistricts": [
          {
            "election": null,
            "id": 80,
            "name": "Ottawa—Vanier"
          }
        ],
        "pollDivisionIds": [
          10140739
        ],
        "postalCode": "K1J6T4",
        "streetName": "APPLEFORD",
        "streetDirectionId": null,
        "streetTypeId": "ST",
        "placeName": "GLOUCESTER",
        "streetNameDisplayText": "APPLEFORD ST, GLOUCESTER"
      }
    ]
  },
  {
    "postal": "K1J0B2",
    "result": []
  },
  {
    "postal": "K1J2L9",
    "result": []
  },
  {
    "postal": "K1J8K9",
    "result": [
      {
        "electoralDistricts": [
          {
            "election": null,
            "id": 80,
            "name": "Ottawa—Vanier"
          }
        ],
        "pollDivisionIds": [
          10140737
        ],
        "postalCode": "K1J8K9",
        "streetName": "LUDGATE",
        "streetDirectionId": null,
        "streetTypeId": "CRT",
        "placeName": "GLOUCESTER",
        "streetNameDisplayText": "LUDGATE CRT, GLOUCESTER"
      }
    ]
  },
  {
    "postal": "K1J2H9",
    "result": []
  },
  {
    "postal": "K1J3Z6",
    "result": []
  },
  {
    "postal": "K1J3B0",
    "result": []
  },
  {
    "postal": "K1J2H8",
    "result": []
  },
  {
    "postal": "K1J3X2",
    "result": []
  },
  {
    "postal": "K1J2E9",
    "result": []
  },
  {
    "postal": "K1J9P6",
    "result": []
  },
  {
    "postal": "K1J9E2",
    "result": [
      {
        "electoralDistricts": [
          {
            "election": null,
            "id": 80,
            "name": "Ottawa—Vanier"
          }
        ],
        "pollDivisionIds": [
          10140741
        ],
        "postalCode": "K1J9E2",
        "streetName": "CANOTEK",
        "streetDirectionId": null,
        "streetTypeId": "RD",
        "placeName": "GLOUCESTER",
        "streetNameDisplayText": "CANOTEK RD, GLOUCESTER"
      }
    ]
  },
  {
    "postal": "K1J9H2",
    "result": [
      {
        "electoralDistricts": [
          {
            "election": null,
            "id": 80,
            "name": "Ottawa—Vanier"
          }
        ],
        "pollDivisionIds": [
          10140741
        ],
        "postalCode": "K1J9H2",
        "streetName": "CANOTEK",
        "streetDirectionId": null,
        "streetTypeId": "RD",
        "placeName": "GLOUCESTER",
        "streetNameDisplayText": "CANOTEK RD, GLOUCESTER"
      },
      {
        "electoralDistricts": [
          {
            "election": null,
            "id": 80,
            "name": "Ottawa—Vanier"
          }
        ],
        "pollDivisionIds": [
          10140741
        ],
        "postalCode": "K1J9H2",
        "streetName": "CANOTEK",
        "streetDirectionId": null,
        "streetTypeId": "RD",
        "placeName": "OTTAWA",
        "streetNameDisplayText": "CANOTEK RD, OTTAWA"
      }
    ]
  },
  {
    "postal": "K1J1S8",
    "result": []
  },
  {
    "postal": "K1J3M6",
    "result": []
  },
  {
    "postal": "K1J6Z8",
    "result": [
      {
        "electoralDistricts": [
          {
            "election": null,
            "id": 80,
            "name": "Ottawa—Vanier"
          }
        ],
        "pollDivisionIds": [
          10140741
        ],
        "postalCode": "K1J6Z8",
        "streetName": "EASTVALE",
        "streetDirectionId": null,
        "streetTypeId": "DR",
        "placeName": "GLOUCESTER",
        "streetNameDisplayText": "EASTVALE DR, GLOUCESTER"
      }
    ]
  },
  {
    "postal": "K1J4J2",
    "result": []
  },
  {
    "postal": "K1J9Y1",
    "result": []
  },
  {
    "postal": "K1J8V6",
    "result": [
      {
        "electoralDistricts": [
          {
            "election": null,
            "id": 80,
            "name": "Ottawa—Vanier"
          }
        ],
        "pollDivisionIds": [
          10140734
        ],
        "postalCode": "K1J8V6",
        "streetName": "DONALD",
        "streetDirectionId": null,
        "streetTypeId": "ST",
        "placeName": "GLOUCESTER",
        "streetNameDisplayText": "DONALD ST, GLOUCESTER"
      }
    ]
  },
  {
    "postal": "K1J6B2",
    "result": [
      {
        "electoralDistricts": [
          {
            "election": null,
            "id": 80,
            "name": "Ottawa—Vanier"
          }
        ],
        "pollDivisionIds": [
          10140741
        ],
        "postalCode": "K1J6B2",
        "streetName": "QUINCY",
        "streetDirectionId": null,
        "streetTypeId": "AVE",
        "placeName": "GLOUCESTER",
        "streetNameDisplayText": "QUINCY AVE, GLOUCESTER"
      }
    ]
  },
  {
    "postal": "K1J1P8",
    "result": []
  },
  {
    "postal": "K1J0V8",
    "result": []
  },
  {
    "postal": "K1J4Y0",
    "result": []
  },
  {
    "postal": "K1J2T4",
    "result": []
  },
  {
    "postal": "K1J2S3",
    "result": []
  },
  {
    "postal": "K1J0K0",
    "result": []
  },
  {
    "postal": "K1J5N1",
    "result": []
  },
  {
    "postal": "K1J7T0",
    "result": []
  },
  {
    "postal": "K1J9N2",
    "result": [
      {
        "electoralDistricts": [
          {
            "election": null,
            "id": 80,
            "name": "Ottawa—Vanier"
          }
        ],
        "pollDivisionIds": [
          10140739
        ],
        "postalCode": "K1J9N2",
        "streetName": "BLAIR",
        "streetDirectionId": null,
        "streetTypeId": "PL",
        "placeName": "GLOUCESTER",
        "streetNameDisplayText": "BLAIR PL, GLOUCESTER"
      },
      {
        "electoralDistricts": [
          {
            "election": null,
            "id": 80,
            "name": "Ottawa—Vanier"
          }
        ],
        "pollDivisionIds": [
          10140739
        ],
        "postalCode": "K1J9N2",
        "streetName": "BLAIR",
        "streetDirectionId": null,
        "streetTypeId": "PL",
        "placeName": "OTTAWA",
        "streetNameDisplayText": "BLAIR PL, OTTAWA"
      }
    ]
  },
  {
    "postal": "K1J5L1",
    "result": []
  },
  {
    "postal": "K1J7G5",
    "result": [
      {
        "electoralDistricts": [
          {
            "election": null,
            "id": 80,
            "name": "Ottawa—Vanier"
          }
        ],
        "pollDivisionIds": [
          10140737
        ],
        "postalCode": "K1J7G5",
        "streetName": "ROTHWELL",
        "streetDirectionId": null,
        "streetTypeId": "DR",
        "placeName": "GLOUCESTER",
        "streetNameDisplayText": "ROTHWELL DR, GLOUCESTER"
      }
    ]
  },
  {
    "postal": "K1J6K2",
    "result": [
      {
        "electoralDistricts": [
          {
            "election": null,
            "id": 80,
            "name": "Ottawa—Vanier"
          }
        ],
        "pollDivisionIds": [
          10140741
        ],
        "postalCode": "K1J6K2",
        "streetName": "KENDER",
        "streetDirectionId": null,
        "streetTypeId": "AVE",
        "placeName": "GLOUCESTER",
        "streetNameDisplayText": "KENDER AVE, GLOUCESTER"
      }
    ]
  },
  {
    "postal": "K1J6P9",
    "result": [
      {
        "electoralDistricts": [
          {
            "election": null,
            "id": 80,
            "name": "Ottawa—Vanier"
          }
        ],
        "pollDivisionIds": [
          10140739
        ],
        "postalCode": "K1J6P9",
        "streetName": "SUMAC",
        "streetDirectionId": null,
        "streetTypeId": "ST",
        "placeName": "GLOUCESTER",
        "streetNameDisplayText": "SUMAC ST, GLOUCESTER"
      }
    ]
  },
  {
    "postal": "K1J0E6",
    "result": []
  },
  {
    "postal": "K1J8R9",
    "result": [
      {
        "electoralDistricts": [
          {
            "election": null,
            "id": 80,
            "name": "Ottawa—Vanier"
          }
        ],
        "pollDivisionIds": [
          10140734
        ],
        "postalCode": "K1J8R9",
        "streetName": "ELAINE",
        "streetDirectionId": null,
        "streetTypeId": "DR",
        "placeName": "GLOUCESTER",
        "streetNameDisplayText": "ELAINE DR, GLOUCESTER"
      }
    ]
  },
  {
    "postal": "K1J3G9",
    "result": []
  },
  {
    "postal": "K1J0V7",
    "result": []
  },
  {
    "postal": "K1J2Z1",
    "result": []
  },
  {
    "postal": "K1J7N1",
    "result": [
      {
        "electoralDistricts": [
          {
            "election": null,
            "id": 80,
            "name": "Ottawa—Vanier"
          }
        ],
        "pollDivisionIds": [
          10140739
        ],
        "postalCode": "K1J7N1",
        "streetName": "BLAIR",
        "streetDirectionId": null,
        "streetTypeId": "RD",
        "placeName": "GLOUCESTER",
        "streetNameDisplayText": "BLAIR RD, GLOUCESTER"
      }
    ]
  },
  {
    "postal": "K1J3C6",
    "result": []
  },
  {
    "postal": "K1J4M1",
    "result": []
  },
  {
    "postal": "K1J9K2",
    "result": [
      {
        "electoralDistricts": [
          {
            "election": null,
            "id": 80,
            "name": "Ottawa—Vanier"
          }
        ],
        "pollDivisionIds": [
          10140734
        ],
        "postalCode": "K1J9K2",
        "streetName": "CUMMINGS",
        "streetDirectionId": null,
        "streetTypeId": "AVE",
        "placeName": "GLOUCESTER",
        "streetNameDisplayText": "CUMMINGS AVE, GLOUCESTER"
      }
    ]
  },
  {
    "postal": "K1J9S6",
    "result": []
  },
  {
    "postal": "K1J4X1",
    "result": []
  },
  {
    "postal": "K1J8W2",
    "result": [
      {
        "electoralDistricts": [
          {
            "election": null,
            "id": 80,
            "name": "Ottawa—Vanier"
          }
        ],
        "pollDivisionIds": [
          10140741
        ],
        "postalCode": "K1J8W2",
        "streetName": "KAMA",
        "streetDirectionId": null,
        "streetTypeId": "PL",
        "placeName": "GLOUCESTER",
        "streetNameDisplayText": "KAMA PL, GLOUCESTER"
      }
    ]
  },
  {
    "postal": "K1J7N2",
    "result": [
      {
        "electoralDistricts": [
          {
            "election": null,
            "id": 80,
            "name": "Ottawa—Vanier"
          }
        ],
        "pollDivisionIds": [
          10140739
        ],
        "postalCode": "K1J7N2",
        "streetName": "BLAIR",
        "streetDirectionId": null,
        "streetTypeId": "RD",
        "placeName": "GLOUCESTER",
        "streetNameDisplayText": "BLAIR RD, GLOUCESTER"
      }
    ]
  },
  {
    "postal": "K1J8S3",
    "result": [
      {
        "electoralDistricts": [
          {
            "election": null,
            "id": 80,
            "name": "Ottawa—Vanier"
          }
        ],
        "pollDivisionIds": [
          10140734
        ],
        "postalCode": "K1J8S3",
        "streetName": "ELAINE",
        "streetDirectionId": null,
        "streetTypeId": "DR",
        "placeName": "GLOUCESTER",
        "streetNameDisplayText": "ELAINE DR, GLOUCESTER"
      }
    ]
  },
  {
    "postal": "K1J4V0",
    "result": []
  },
  {
    "postal": "K1J6W4",
    "result": [
      {
        "electoralDistricts": [
          {
            "election": null,
            "id": 80,
            "name": "Ottawa—Vanier"
          }
        ],
        "pollDivisionIds": [
          10140739
        ],
        "postalCode": "K1J6W4",
        "streetName": "CORLISS",
        "streetDirectionId": null,
        "streetTypeId": "ST",
        "placeName": "GLOUCESTER",
        "streetNameDisplayText": "CORLISS ST, GLOUCESTER"
      }
    ]
  },
  {
    "postal": "K1J5M1",
    "result": []
  },
  {
    "postal": "K1J0S4",
    "result": []
  },
  {
    "postal": "K1J5X6",
    "result": []
  },
  {
    "postal": "K1J8L5",
    "result": [
      {
        "electoralDistricts": [
          {
            "election": null,
            "id": 80,
            "name": "Ottawa—Vanier"
          }
        ],
        "pollDivisionIds": [
          10140737,
          10140741
        ],
        "postalCode": "K1J8L5",
        "streetName": "MARQUIS",
        "streetDirectionId": null,
        "streetTypeId": "AVE",
        "placeName": "GLOUCESTER",
        "streetNameDisplayText": "MARQUIS AVE, GLOUCESTER"
      }
    ]
  },
  {
    "postal": "K1J5M8",
    "result": []
  },
  {
    "postal": "K1J2G3",
    "result": []
  },
  {
    "postal": "K1J8E4",
    "result": [
      {
        "electoralDistricts": [
          {
            "election": null,
            "id": 80,
            "name": "Ottawa—Vanier"
          }
        ],
        "pollDivisionIds": [
          10140735
        ],
        "postalCode": "K1J8E4",
        "streetName": "LEIGH",
        "streetDirectionId": null,
        "streetTypeId": "CRES",
        "placeName": "GLOUCESTER",
        "streetNameDisplayText": "LEIGH CRES, GLOUCESTER"
      }
    ]
  },
  {
    "postal": "K1J7S9",
    "result": [
      {
        "electoralDistricts": [
          {
            "election": null,
            "id": 80,
            "name": "Ottawa—Vanier"
          }
        ],
        "pollDivisionIds": [
          10140734
        ],
        "postalCode": "K1J7S9",
        "streetName": "CYRVILLE",
        "streetDirectionId": null,
        "streetTypeId": "RD",
        "placeName": "GLOUCESTER",
        "streetNameDisplayText": "CYRVILLE RD, GLOUCESTER"
      }
    ]
  },
  {
    "postal": "K1J1K3",
    "result": [
      {
        "electoralDistricts": [
          {
            "election": null,
            "id": 80,
            "name": "Ottawa—Vanier"
          }
        ],
        "pollDivisionIds": [
          10140739
        ],
        "postalCode": "K1J1K3",
        "streetName": "MILLGREEN",
        "streetDirectionId": null,
        "streetTypeId": "CRES",
        "placeName": "GLOUCESTER",
        "streetNameDisplayText": "MILLGREEN CRES, GLOUCESTER"
      }
    ]
  },
  {
    "postal": "K1J4E1",
    "result": []
  },
  {
    "postal": "K1J4R2",
    "result": []
  },
  {
    "postal": "K1J6T0",
    "result": []
  },
  {
    "postal": "K1J3K5",
    "result": []
  },
  {
    "postal": "K1J3S3",
    "result": []
  },
  {
    "postal": "K1J3L4",
    "result": []
  },
  {
    "postal": "K1J9Y2",
    "result": []
  },
  {
    "postal": "K1J1E0",
    "result": []
  },
  {
    "postal": "K1J9A4",
    "result": [
      {
        "electoralDistricts": [
          {
            "election": null,
            "id": 80,
            "name": "Ottawa—Vanier"
          }
        ],
        "pollDivisionIds": [
          10140742
        ],
        "postalCode": "K1J9A4",
        "streetName": "EAST ACRES",
        "streetDirectionId": null,
        "streetTypeId": "RD",
        "placeName": "GLOUCESTER",
        "streetNameDisplayText": "EAST ACRES RD, GLOUCESTER"
      }
    ]
  },
  {
    "postal": "K1J1L3",
    "result": []
  },
  {
    "postal": "K1J6N1",
    "result": [
      {
        "electoralDistricts": [
          {
            "election": null,
            "id": 80,
            "name": "Ottawa—Vanier"
          }
        ],
        "pollDivisionIds": [
          10140737
        ],
        "postalCode": "K1J6N1",
        "streetName": "MONTREAL",
        "streetDirectionId": null,
        "streetTypeId": "RD",
        "placeName": "GLOUCESTER",
        "streetNameDisplayText": "MONTREAL RD, GLOUCESTER"
      }
    ]
  },
  {
    "postal": "K1J6G7",
    "result": [
      {
        "electoralDistricts": [
          {
            "election": null,
            "id": 80,
            "name": "Ottawa—Vanier"
          }
        ],
        "pollDivisionIds": [
          10140741
        ],
        "postalCode": "K1J6G7",
        "streetName": "WOODGLEN",
        "streetDirectionId": null,
        "streetTypeId": "CRES",
        "placeName": "GLOUCESTER",
        "streetNameDisplayText": "WOODGLEN CRES, GLOUCESTER"
      }
    ]
  },
  {
    "postal": "K1J7W1",
    "result": [
      {
        "electoralDistricts": [
          {
            "election": null,
            "id": 80,
            "name": "Ottawa—Vanier"
          }
        ],
        "pollDivisionIds": [
          10140742
        ],
        "postalCode": "K1J7W1",
        "streetName": "JASMINE",
        "streetDirectionId": null,
        "streetTypeId": "CRES",
        "placeName": "GLOUCESTER",
        "streetNameDisplayText": "JASMINE CRES, GLOUCESTER"
      }
    ]
  },
  {
    "postal": "K1J4M6",
    "result": []
  },
  {
    "postal": "K1J1K0",
    "result": []
  },
  {
    "postal": "K1J3E2",
    "result": []
  },
  {
    "postal": "K1J5H4",
    "result": []
  },
  {
    "postal": "K1J1K7",
    "result": [
      {
        "electoralDistricts": [
          {
            "election": null,
            "id": 80,
            "name": "Ottawa—Vanier"
          }
        ],
        "pollDivisionIds": [
          10140734
        ],
        "postalCode": "K1J1K7",
        "streetName": "STRATHAVEN",
        "streetDirectionId": null,
        "streetTypeId": "PVT",
        "placeName": "OTTAWA",
        "streetNameDisplayText": "STRATHAVEN PVT, OTTAWA"
      }
    ]
  },
  {
    "postal": "K1J0H0",
    "result": []
  },
  {
    "postal": "K1J0J3",
    "result": []
  },
  {
    "postal": "K1J1X6",
    "result": []
  },
  {
    "postal": "K1J2Z6",
    "result": []
  },
  {
    "postal": "K1J4R9",
    "result": []
  },
  {
    "postal": "K1J0W8",
    "result": []
  },
  {
    "postal": "K1J1L4",
    "result": []
  },
  {
    "postal": "K1J0C8",
    "result": []
  },
  {
    "postal": "K1J9X7",
    "result": []
  },
  {
    "postal": "K1J4T1",
    "result": []
  },
  {
    "postal": "K1J0M0",
    "result": []
  },
  {
    "postal": "K1J6A2",
    "result": [
      {
        "electoralDistricts": [
          {
            "election": null,
            "id": 80,
            "name": "Ottawa—Vanier"
          }
        ],
        "pollDivisionIds": [
          10140741
        ],
        "postalCode": "K1J6A2",
        "streetName": "FILLMORE",
        "streetDirectionId": null,
        "streetTypeId": "CRES",
        "placeName": "GLOUCESTER",
        "streetNameDisplayText": "FILLMORE CRES, GLOUCESTER"
      }
    ]
  },
  {
    "postal": "K1J9S8",
    "result": []
  },
  {
    "postal": "K1J9T4",
    "result": []
  },
  {
    "postal": "K1J9Y4",
    "result": []
  },
  {
    "postal": "K1J6G5",
    "result": [
      {
        "electoralDistricts": [
          {
            "election": null,
            "id": 80,
            "name": "Ottawa—Vanier"
          }
        ],
        "pollDivisionIds": [
          10140741
        ],
        "postalCode": "K1J6G5",
        "streetName": "WOODGLEN",
        "streetDirectionId": null,
        "streetTypeId": "CRES",
        "placeName": "GLOUCESTER",
        "streetNameDisplayText": "WOODGLEN CRES, GLOUCESTER"
      }
    ]
  },
  {
    "postal": "K1J6H9",
    "result": [
      {
        "electoralDistricts": [
          {
            "election": null,
            "id": 80,
            "name": "Ottawa—Vanier"
          }
        ],
        "pollDivisionIds": [
          10140737
        ],
        "postalCode": "K1J6H9",
        "streetName": "SWANS",
        "streetDirectionId": null,
        "streetTypeId": "WAY",
        "placeName": "GLOUCESTER",
        "streetNameDisplayText": "SWANS WAY, GLOUCESTER"
      }
    ]
  },
  {
    "postal": "K1J2P3",
    "result": []
  },
  {
    "postal": "K1J1T6",
    "result": []
  },
  {
    "postal": "K1J4P6",
    "result": []
  },
  {
    "postal": "K1J3K1",
    "result": []
  },
  {
    "postal": "K1J6X4",
    "result": [
      {
        "electoralDistricts": [
          {
            "election": null,
            "id": 80,
            "name": "Ottawa—Vanier"
          }
        ],
        "pollDivisionIds": [
          10140741
        ],
        "postalCode": "K1J6X4",
        "streetName": "SHEFFORD",
        "streetDirectionId": null,
        "streetTypeId": "RD",
        "placeName": "OTTAWA",
        "streetNameDisplayText": "SHEFFORD RD, OTTAWA"
      }
    ]
  },
  {
    "postal": "K1J4M8",
    "result": []
  },
  {
    "postal": "K1J2Y1",
    "result": []
  },
  {
    "postal": "K1J6M1",
    "result": [
      {
        "electoralDistricts": [
          {
            "election": null,
            "id": 80,
            "name": "Ottawa—Vanier"
          }
        ],
        "pollDivisionIds": [
          10140737
        ],
        "postalCode": "K1J6M1",
        "streetName": "DAVIDSON",
        "streetDirectionId": null,
        "streetTypeId": "DR",
        "placeName": "GLOUCESTER",
        "streetNameDisplayText": "DAVIDSON DR, GLOUCESTER"
      }
    ]
  },
  {
    "postal": "K1J5L8",
    "result": []
  },
  {
    "postal": "K1J3P6",
    "result": []
  },
  {
    "postal": "K1J9A5",
    "result": [
      {
        "electoralDistricts": [
          {
            "election": null,
            "id": 80,
            "name": "Ottawa—Vanier"
          }
        ],
        "pollDivisionIds": [
          10140742
        ],
        "postalCode": "K1J9A5",
        "streetName": "EAST ACRES",
        "streetDirectionId": null,
        "streetTypeId": "RD",
        "placeName": "GLOUCESTER",
        "streetNameDisplayText": "EAST ACRES RD, GLOUCESTER"
      }
    ]
  },
  {
    "postal": "K1J7K1",
    "result": [
      {
        "electoralDistricts": [
          {
            "election": null,
            "id": 80,
            "name": "Ottawa—Vanier"
          }
        ],
        "pollDivisionIds": [
          10140739
        ],
        "postalCode": "K1J7K1",
        "streetName": "CROWNHILL",
        "streetDirectionId": null,
        "streetTypeId": "ST",
        "placeName": "GLOUCESTER",
        "streetNameDisplayText": "CROWNHILL ST, GLOUCESTER"
      }
    ]
  },
  {
    "postal": "K1J3J4",
    "result": []
  },
  {
    "postal": "K1J5E7",
    "result": []
  },
  {
    "postal": "K1J3A7",
    "result": []
  },
  {
    "postal": "K1J1B9",
    "result": [
      {
        "electoralDistricts": [
          {
            "election": null,
            "id": 80,
            "name": "Ottawa—Vanier"
          }
        ],
        "pollDivisionIds": [
          10140735
        ],
        "postalCode": "K1J1B9",
        "streetName": "SUNWOOD",
        "streetDirectionId": null,
        "streetTypeId": "CRES",
        "placeName": "GLOUCESTER",
        "streetNameDisplayText": "SUNWOOD CRES, GLOUCESTER"
      }
    ]
  },
  {
    "postal": "K1J9E8",
    "result": [
      {
        "electoralDistricts": [
          {
            "election": null,
            "id": 80,
            "name": "Ottawa—Vanier"
          }
        ],
        "pollDivisionIds": [
          10140741
        ],
        "postalCode": "K1J9E8",
        "streetName": "CANOTEK",
        "streetDirectionId": null,
        "streetTypeId": "RD",
        "placeName": "GLOUCESTER",
        "streetNameDisplayText": "CANOTEK RD, GLOUCESTER"
      }
    ]
  },
  {
    "postal": "K1J1C9",
    "result": [
      {
        "electoralDistricts": [
          {
            "election": null,
            "id": 80,
            "name": "Ottawa—Vanier"
          }
        ],
        "pollDivisionIds": [
          10140736
        ],
        "postalCode": "K1J1C9",
        "streetName": "HARPER",
        "streetDirectionId": null,
        "streetTypeId": "AVE",
        "placeName": "GLOUCESTER",
        "streetNameDisplayText": "HARPER AVE, GLOUCESTER"
      }
    ]
  },
  {
    "postal": "K1J3B5",
    "result": []
  },
  {
    "postal": "K1J8R0",
    "result": []
  },
  {
    "postal": "K1J3P2",
    "result": []
  },
  {
    "postal": "K1J5V4",
    "result": []
  },
  {
    "postal": "K1J4H0",
    "result": []
  },
  {
    "postal": "K1J4S7",
    "result": []
  },
  {
    "postal": "K1J6C2",
    "result": [
      {
        "electoralDistricts": [
          {
            "election": null,
            "id": 80,
            "name": "Ottawa—Vanier"
          }
        ],
        "pollDivisionIds": [
          10140741
        ],
        "postalCode": "K1J6C2",
        "streetName": "REBECCA",
        "streetDirectionId": null,
        "streetTypeId": "CRES",
        "placeName": "GLOUCESTER",
        "streetNameDisplayText": "REBECCA CRES, GLOUCESTER"
      }
    ]
  },
  {
    "postal": "K1J8W3",
    "result": [
      {
        "electoralDistricts": [
          {
            "election": null,
            "id": 80,
            "name": "Ottawa—Vanier"
          }
        ],
        "pollDivisionIds": [
          10140731
        ],
        "postalCode": "K1J8W3",
        "streetName": "DONALD",
        "streetDirectionId": null,
        "streetTypeId": "ST",
        "placeName": "GLOUCESTER",
        "streetNameDisplayText": "DONALD ST, GLOUCESTER"
      },
      {
        "electoralDistricts": [
          {
            "election": null,
            "id": 80,
            "name": "Ottawa—Vanier"
          }
        ],
        "pollDivisionIds": [
          10140731
        ],
        "postalCode": "K1J8W3",
        "streetName": "DONALD",
        "streetDirectionId": null,
        "streetTypeId": "ST",
        "placeName": "OTTAWA",
        "streetNameDisplayText": "DONALD ST, OTTAWA"
      }
    ]
  },
  {
    "postal": "K1J4M5",
    "result": []
  },
  {
    "postal": "K1J5T1",
    "result": []
  },
  {
    "postal": "K1J3B3",
    "result": []
  },
  {
    "postal": "K1J6C6",
    "result": []
  },
  {
    "postal": "K1J7N8",
    "result": [
      {
        "electoralDistricts": [
          {
            "election": null,
            "id": 80,
            "name": "Ottawa—Vanier"
          }
        ],
        "pollDivisionIds": [
          10140742,
          10140739
        ],
        "postalCode": "K1J7N8",
        "streetName": "OGILVIE",
        "streetDirectionId": null,
        "streetTypeId": "RD",
        "placeName": "GLOUCESTER",
        "streetNameDisplayText": "OGILVIE RD, GLOUCESTER"
      },
      {
        "electoralDistricts": [
          {
            "election": null,
            "id": 80,
            "name": "Ottawa—Vanier"
          }
        ],
        "pollDivisionIds": [
          10140742
        ],
        "postalCode": "K1J7N8",
        "streetName": "OGILVIE",
        "streetDirectionId": null,
        "streetTypeId": "RD",
        "placeName": "OTTAWA",
        "streetNameDisplayText": "OGILVIE RD, OTTAWA"
      }
    ]
  },
  {
    "postal": "K1J2Y3",
    "result": []
  },
  {
    "postal": "K1J2R6",
    "result": []
  },
  {
    "postal": "K1J7N3",
    "result": [
      {
        "electoralDistricts": [
          {
            "election": null,
            "id": 80,
            "name": "Ottawa—Vanier"
          }
        ],
        "pollDivisionIds": [
          10140741
        ],
        "postalCode": "K1J7N3",
        "streetName": "OGILVIE",
        "streetDirectionId": null,
        "streetTypeId": "RD",
        "placeName": "GLOUCESTER",
        "streetNameDisplayText": "OGILVIE RD, GLOUCESTER"
      }
    ]
  },
  {
    "postal": "K1J8J2",
    "result": [
      {
        "electoralDistricts": [
          {
            "election": null,
            "id": 80,
            "name": "Ottawa—Vanier"
          }
        ],
        "pollDivisionIds": [
          10140737
        ],
        "postalCode": "K1J8J2",
        "streetName": "MARQUIS",
        "streetDirectionId": null,
        "streetTypeId": "AVE",
        "placeName": "GLOUCESTER",
        "streetNameDisplayText": "MARQUIS AVE, GLOUCESTER"
      }
    ]
  },
  {
    "postal": "K1J6A9",
    "result": [
      {
        "electoralDistricts": [
          {
            "election": null,
            "id": 80,
            "name": "Ottawa—Vanier"
          }
        ],
        "pollDivisionIds": [
          10140741
        ],
        "postalCode": "K1J6A9",
        "streetName": "BLUE JAY",
        "streetDirectionId": null,
        "streetTypeId": "CRES",
        "placeName": "GLOUCESTER",
        "streetNameDisplayText": "BLUE JAY CRES, GLOUCESTER"
      }
    ]
  },
  {
    "postal": "K1J3V2",
    "result": []
  },
  {
    "postal": "K1J2N3",
    "result": []
  },
  {
    "postal": "K1J1S5",
    "result": []
  },
  {
    "postal": "K1J4T7",
    "result": []
  },
  {
    "postal": "K1J6Y7",
    "result": [
      {
        "electoralDistricts": [
          {
            "election": null,
            "id": 80,
            "name": "Ottawa—Vanier"
          }
        ],
        "pollDivisionIds": [
          10140741
        ],
        "postalCode": "K1J6Y7",
        "streetName": "DE SALABERRY",
        "streetDirectionId": null,
        "streetTypeId": "ST",
        "placeName": "GLOUCESTER",
        "streetNameDisplayText": "DE SALABERRY ST, GLOUCESTER"
      }
    ]
  },
  {
    "postal": "K1J0W7",
    "result": []
  },
  {
    "postal": "K1J2W9",
    "result": []
  },
  {
    "postal": "K1J8V0",
    "result": []
  },
  {
    "postal": "K1J0H4",
    "result": []
  },
  {
    "postal": "K1J2T1",
    "result": []
  },
  {
    "postal": "K1J1B1",
    "result": [
      {
        "electoralDistricts": [
          {
            "election": null,
            "id": 80,
            "name": "Ottawa—Vanier"
          }
        ],
        "pollDivisionIds": [
          10140735
        ],
        "postalCode": "K1J1B1",
        "streetName": "HUNTINGDALE",
        "streetDirectionId": null,
        "streetTypeId": "CRT",
        "placeName": "GLOUCESTER",
        "streetNameDisplayText": "HUNTINGDALE CRT, GLOUCESTER"
      }
    ]
  },
  {
    "postal": "K1J8B6",
    "result": [
      {
        "electoralDistricts": [
          {
            "election": null,
            "id": 80,
            "name": "Ottawa—Vanier"
          }
        ],
        "pollDivisionIds": [
          10140735
        ],
        "postalCode": "K1J8B6",
        "streetName": "MATHESON",
        "streetDirectionId": null,
        "streetTypeId": "RD",
        "placeName": "GLOUCESTER",
        "streetNameDisplayText": "MATHESON RD, GLOUCESTER"
      }
    ]
  },
  {
    "postal": "K1J6H1",
    "result": [
      {
        "electoralDistricts": [
          {
            "election": null,
            "id": 80,
            "name": "Ottawa—Vanier"
          }
        ],
        "pollDivisionIds": [
          10140737
        ],
        "postalCode": "K1J6H1",
        "streetName": "GLENFERN",
        "streetDirectionId": null,
        "streetTypeId": "AVE",
        "placeName": "GLOUCESTER",
        "streetNameDisplayText": "GLENFERN AVE, GLOUCESTER"
      }
    ]
  },
  {
    "postal": "K1J8T8",
    "result": [
      {
        "electoralDistricts": [
          {
            "election": null,
            "id": 80,
            "name": "Ottawa—Vanier"
          }
        ],
        "pollDivisionIds": [
          10140734
        ],
        "postalCode": "K1J8T8",
        "streetName": "STELLA",
        "streetDirectionId": null,
        "streetTypeId": "CRES",
        "placeName": "GLOUCESTER",
        "streetNameDisplayText": "STELLA CRES, GLOUCESTER"
      }
    ]
  },
  {
    "postal": "K1J0T4",
    "result": []
  },
  {
    "postal": "K1J2C4",
    "result": []
  },
  {
    "postal": "K1J8N3",
    "result": [
      {
        "electoralDistricts": [
          {
            "election": null,
            "id": 80,
            "name": "Ottawa—Vanier"
          }
        ],
        "pollDivisionIds": [
          10140737
        ],
        "postalCode": "K1J8N3",
        "streetName": "LASSITER",
        "streetDirectionId": null,
        "streetTypeId": "TERR",
        "placeName": "GLOUCESTER",
        "streetNameDisplayText": "LASSITER TERR, GLOUCESTER"
      }
    ]
  },
  {
    "postal": "K1J4L8",
    "result": []
  },
  {
    "postal": "K1J2B5",
    "result": []
  },
  {
    "postal": "K1J3H1",
    "result": []
  },
  {
    "postal": "K1J4Y1",
    "result": []
  },
  {
    "postal": "K1J7E2",
    "result": [
      {
        "electoralDistricts": [
          {
            "election": null,
            "id": 80,
            "name": "Ottawa—Vanier"
          }
        ],
        "pollDivisionIds": [
          10140741
        ],
        "postalCode": "K1J7E2",
        "streetName": "DELONG",
        "streetDirectionId": null,
        "streetTypeId": "DR",
        "placeName": "GLOUCESTER",
        "streetNameDisplayText": "DELONG DR, GLOUCESTER"
      }
    ]
  },
  {
    "postal": "K1J2P5",
    "result": []
  },
  {
    "postal": "K1J8R7",
    "result": [
      {
        "electoralDistricts": [
          {
            "election": null,
            "id": 80,
            "name": "Ottawa—Vanier"
          }
        ],
        "pollDivisionIds": [
          10140734
        ],
        "postalCode": "K1J8R7",
        "streetName": "DONALD",
        "streetDirectionId": null,
        "streetTypeId": "ST",
        "placeName": "GLOUCESTER",
        "streetNameDisplayText": "DONALD ST, GLOUCESTER"
      }
    ]
  },
  {
    "postal": "K1J9P1",
    "result": []
  },
  {
    "postal": "K1J3B8",
    "result": []
  },
  {
    "postal": "K1J3P7",
    "result": []
  },
  {
    "postal": "K1J9B2",
    "result": [
      {
        "electoralDistricts": [
          {
            "election": null,
            "id": 80,
            "name": "Ottawa—Vanier"
          }
        ],
        "pollDivisionIds": [
          10140742
        ],
        "postalCode": "K1J9B2",
        "streetName": "GREGORY",
        "streetDirectionId": null,
        "streetTypeId": "CRT",
        "placeName": "GLOUCESTER",
        "streetNameDisplayText": "GREGORY CRT, GLOUCESTER"
      }
    ]
  },
  {
    "postal": "K1J6Z3",
    "result": [
      {
        "electoralDistricts": [
          {
            "election": null,
            "id": 80,
            "name": "Ottawa—Vanier"
          }
        ],
        "pollDivisionIds": [
          10140741
        ],
        "postalCode": "K1J6Z3",
        "streetName": "EASTVALE",
        "streetDirectionId": null,
        "streetTypeId": "DR",
        "placeName": "GLOUCESTER",
        "streetNameDisplayText": "EASTVALE DR, GLOUCESTER"
      }
    ]
  },
  {
    "postal": "K1J4N5",
    "result": []
  },
  {
    "postal": "K1J8T3",
    "result": [
      {
        "electoralDistricts": [
          {
            "election": null,
            "id": 80,
            "name": "Ottawa—Vanier"
          }
        ],
        "pollDivisionIds": [
          10140734
        ],
        "postalCode": "K1J8T3",
        "streetName": "BOWMOUNT",
        "streetDirectionId": null,
        "streetTypeId": "ST",
        "placeName": "GLOUCESTER",
        "streetNameDisplayText": "BOWMOUNT ST, GLOUCESTER"
      }
    ]
  },
  {
    "postal": "K1J1V2",
    "result": []
  },
  {
    "postal": "K1J1Y0",
    "result": []
  },
  {
    "postal": "K1J3G6",
    "result": []
  },
  {
    "postal": "K1J3H7",
    "result": []
  },
  {
    "postal": "K1J7X8",
    "result": [
      {
        "electoralDistricts": [
          {
            "election": null,
            "id": 80,
            "name": "Ottawa—Vanier"
          }
        ],
        "pollDivisionIds": [
          10140741,
          10140734
        ],
        "postalCode": "K1J7X8",
        "streetName": "OGILVIE",
        "streetDirectionId": null,
        "streetTypeId": "RD",
        "placeName": "GLOUCESTER",
        "streetNameDisplayText": "OGILVIE RD, GLOUCESTER"
      }
    ]
  },
  {
    "postal": "K1J0C7",
    "result": []
  },
  {
    "postal": "K1J0W9",
    "result": []
  },
  {
    "postal": "K1J8E6",
    "result": [
      {
        "electoralDistricts": [
          {
            "election": null,
            "id": 80,
            "name": "Ottawa—Vanier"
          }
        ],
        "pollDivisionIds": [
          10140735
        ],
        "postalCode": "K1J8E6",
        "streetName": "BATHGATE",
        "streetDirectionId": null,
        "streetTypeId": "DR",
        "placeName": "GLOUCESTER",
        "streetNameDisplayText": "BATHGATE DR, GLOUCESTER"
      }
    ]
  },
  {
    "postal": "K1J9Z8",
    "result": []
  },
  {
    "postal": "K1J3P4",
    "result": []
  },
  {
    "postal": "K1J6L8",
    "result": [
      {
        "electoralDistricts": [
          {
            "election": null,
            "id": 80,
            "name": "Ottawa—Vanier"
          }
        ],
        "pollDivisionIds": [
          10140737
        ],
        "postalCode": "K1J6L8",
        "streetName": "DAVIDSON",
        "streetDirectionId": null,
        "streetTypeId": "DR",
        "placeName": "GLOUCESTER",
        "streetNameDisplayText": "DAVIDSON DR, GLOUCESTER"
      }
    ]
  },
  {
    "postal": "K1J2R4",
    "result": []
  },
  {
    "postal": "K1J2W1",
    "result": []
  },
  {
    "postal": "K1J9H8",
    "result": [
      {
        "electoralDistricts": [
          {
            "election": null,
            "id": 80,
            "name": "Ottawa—Vanier"
          }
        ],
        "pollDivisionIds": [
          10140741
        ],
        "postalCode": "K1J9H8",
        "streetName": "POLYTEK",
        "streetDirectionId": null,
        "streetTypeId": "ST",
        "placeName": "GLOUCESTER",
        "streetNameDisplayText": "POLYTEK ST, GLOUCESTER"
      }
    ]
  },
  {
    "postal": "K1J8X9",
    "result": []
  },
  {
    "postal": "K1J7H4",
    "result": [
      {
        "electoralDistricts": [
          {
            "election": null,
            "id": 80,
            "name": "Ottawa—Vanier"
          }
        ],
        "pollDivisionIds": [
          10140737
        ],
        "postalCode": "K1J7H4",
        "streetName": "WREN",
        "streetDirectionId": null,
        "streetTypeId": "RD",
        "placeName": "GLOUCESTER",
        "streetNameDisplayText": "WREN RD, GLOUCESTER"
      }
    ]
  },
  {
    "postal": "K1J3J1",
    "result": []
  },
  {
    "postal": "K1J1P4",
    "result": []
  },
  {
    "postal": "K1J2A3",
    "result": []
  },
  {
    "postal": "K1J0Z1",
    "result": []
  },
  {
    "postal": "K1J1C1",
    "result": [
      {
        "electoralDistricts": [
          {
            "election": null,
            "id": 80,
            "name": "Ottawa—Vanier"
          }
        ],
        "pollDivisionIds": [
          10140736
        ],
        "postalCode": "K1J1C1",
        "streetName": "MARLEY",
        "streetDirectionId": null,
        "streetTypeId": "CRES",
        "placeName": "GLOUCESTER",
        "streetNameDisplayText": "MARLEY CRES, GLOUCESTER"
      },
      {
        "electoralDistricts": [
          {
            "election": null,
            "id": 80,
            "name": "Ottawa—Vanier"
          }
        ],
        "pollDivisionIds": [
          10140736
        ],
        "postalCode": "K1J1C1",
        "streetName": "TONILEE",
        "streetDirectionId": null,
        "streetTypeId": "DR",
        "placeName": "GLOUCESTER",
        "streetNameDisplayText": "TONILEE DR, GLOUCESTER"
      }
    ]
  },
  {
    "postal": "K1J0H3",
    "result": []
  },
  {
    "postal": "K1J7B0",
    "result": []
  },
  {
    "postal": "K1J5K2",
    "result": []
  },
  {
    "postal": "K1J1E9",
    "result": [
      {
        "electoralDistricts": [
          {
            "election": null,
            "id": 80,
            "name": "Ottawa—Vanier"
          }
        ],
        "pollDivisionIds": [
          10140741
        ],
        "postalCode": "K1J1E9",
        "streetName": "CANOTEK",
        "streetDirectionId": null,
        "streetTypeId": "RD",
        "placeName": "GLOUCESTER",
        "streetNameDisplayText": "CANOTEK RD, GLOUCESTER"
      },
      {
        "electoralDistricts": [
          {
            "election": null,
            "id": 80,
            "name": "Ottawa—Vanier"
          }
        ],
        "pollDivisionIds": [
          10140741
        ],
        "postalCode": "K1J1E9",
        "streetName": "CANOTEK",
        "streetDirectionId": null,
        "streetTypeId": "RD",
        "placeName": "OTTAWA",
        "streetNameDisplayText": "CANOTEK RD, OTTAWA"
      }
    ]
  },
  {
    "postal": "K1J9W7",
    "result": []
  },
  {
    "postal": "K1J5W6",
    "result": []
  },
  {
    "postal": "K1J6S6",
    "result": [
      {
        "electoralDistricts": [
          {
            "election": null,
            "id": 80,
            "name": "Ottawa—Vanier"
          }
        ],
        "pollDivisionIds": [
          10140739
        ],
        "postalCode": "K1J6S6",
        "streetName": "GREENACRE",
        "streetDirectionId": null,
        "streetTypeId": "CRES",
        "placeName": "GLOUCESTER",
        "streetNameDisplayText": "GREENACRE CRES, GLOUCESTER"
      }
    ]
  },
  {
    "postal": "K1J2P8",
    "result": []
  },
  {
    "postal": "K1J4P8",
    "result": []
  },
  {
    "postal": "K1J0V9",
    "result": []
  },
  {
    "postal": "K1J5Y2",
    "result": []
  },
  {
    "postal": "K1J7Z7",
    "result": [
      {
        "electoralDistricts": [
          {
            "election": null,
            "id": 80,
            "name": "Ottawa—Vanier"
          }
        ],
        "pollDivisionIds": [
          10140742
        ],
        "postalCode": "K1J7Z7",
        "streetName": "JASMINE",
        "streetDirectionId": null,
        "streetTypeId": "CRES",
        "placeName": "GLOUCESTER",
        "streetNameDisplayText": "JASMINE CRES, GLOUCESTER"
      }
    ]
  },
  {
    "postal": "K1J6Y8",
    "result": [
      {
        "electoralDistricts": [
          {
            "election": null,
            "id": 80,
            "name": "Ottawa—Vanier"
          }
        ],
        "pollDivisionIds": [
          10140741
        ],
        "postalCode": "K1J6Y8",
        "streetName": "DE SALABERRY",
        "streetDirectionId": null,
        "streetTypeId": "ST",
        "placeName": "GLOUCESTER",
        "streetNameDisplayText": "DE SALABERRY ST, GLOUCESTER"
      }
    ]
  },
  {
    "postal": "K1J2G7",
    "result": []
  },
  {
    "postal": "K1J8C1",
    "result": [
      {
        "electoralDistricts": [
          {
            "election": null,
            "id": 80,
            "name": "Ottawa—Vanier"
          }
        ],
        "pollDivisionIds": [
          10140735
        ],
        "postalCode": "K1J8C1",
        "streetName": "ADLEY",
        "streetDirectionId": null,
        "streetTypeId": "RD",
        "placeName": "GLOUCESTER",
        "streetNameDisplayText": "ADLEY RD, GLOUCESTER"
      }
    ]
  },
  {
    "postal": "K1J5C5",
    "result": []
  },
  {
    "postal": "K1J2X8",
    "result": []
  },
  {
    "postal": "K1J1W5",
    "result": []
  },
  {
    "postal": "K1J7G0",
    "result": []
  },
  {
    "postal": "K1J8J8",
    "result": [
      {
        "electoralDistricts": [
          {
            "election": null,
            "id": 80,
            "name": "Ottawa—Vanier"
          }
        ],
        "pollDivisionIds": [
          10140737
        ],
        "postalCode": "K1J8J8",
        "streetName": "MULBERRY",
        "streetDirectionId": null,
        "streetTypeId": "CRES",
        "placeName": "GLOUCESTER",
        "streetNameDisplayText": "MULBERRY CRES, GLOUCESTER"
      }
    ]
  },
  {
    "postal": "K1J3Y0",
    "result": []
  },
  {
    "postal": "K1J9T7",
    "result": []
  },
  {
    "postal": "K1J5P4",
    "result": []
  },
  {
    "postal": "K1J4B0",
    "result": []
  },
  {
    "postal": "K1J9N8",
    "result": []
  },
  {
    "postal": "K1J4A7",
    "result": []
  },
  {
    "postal": "K1J4H9",
    "result": []
  },
  {
    "postal": "K1J6X1",
    "result": [
      {
        "electoralDistricts": [
          {
            "election": null,
            "id": 80,
            "name": "Ottawa—Vanier"
          }
        ],
        "pollDivisionIds": [
          10140739
        ],
        "postalCode": "K1J6X1",
        "streetName": "CROWNHILL",
        "streetDirectionId": null,
        "streetTypeId": "ST",
        "placeName": "GLOUCESTER",
        "streetNameDisplayText": "CROWNHILL ST, GLOUCESTER"
      }
    ]
  },
  {
    "postal": "K1J9Y7",
    "result": []
  },
  {
    "postal": "K1J2Y5",
    "result": []
  },
  {
    "postal": "K1J8L7",
    "result": [
      {
        "electoralDistricts": [
          {
            "election": null,
            "id": 80,
            "name": "Ottawa—Vanier"
          }
        ],
        "pollDivisionIds": [
          10140737
        ],
        "postalCode": "K1J8L7",
        "streetName": "BEACONWOOD",
        "streetDirectionId": null,
        "streetTypeId": "DR",
        "placeName": "GLOUCESTER",
        "streetNameDisplayText": "BEACONWOOD DR, GLOUCESTER"
      }
    ]
  },
  {
    "postal": "K1J2A8",
    "result": []
  },
  {
    "postal": "K1J2K9",
    "result": []
  },
  {
    "postal": "K1J3E5",
    "result": []
  },
  {
    "postal": "K1J8N6",
    "result": [
      {
        "electoralDistricts": [
          {
            "election": null,
            "id": 80,
            "name": "Ottawa—Vanier"
          }
        ],
        "pollDivisionIds": [
          10140741
        ],
        "postalCode": "K1J8N6",
        "streetName": "BRACKEN",
        "streetDirectionId": null,
        "streetTypeId": "CRT",
        "placeName": "GLOUCESTER",
        "streetNameDisplayText": "BRACKEN CRT, GLOUCESTER"
      }
    ]
  },
  {
    "postal": "K1J8J4",
    "result": [
      {
        "electoralDistricts": [
          {
            "election": null,
            "id": 80,
            "name": "Ottawa—Vanier"
          }
        ],
        "pollDivisionIds": [
          10140737
        ],
        "postalCode": "K1J8J4",
        "streetName": "MARQUIS",
        "streetDirectionId": null,
        "streetTypeId": "AVE",
        "placeName": "GLOUCESTER",
        "streetNameDisplayText": "MARQUIS AVE, GLOUCESTER"
      }
    ]
  },
  {
    "postal": "K1J4R7",
    "result": []
  },
  {
    "postal": "K1J9K1",
    "result": [
      {
        "electoralDistricts": [
          {
            "election": null,
            "id": 80,
            "name": "Ottawa—Vanier"
          }
        ],
        "pollDivisionIds": [
          10140734
        ],
        "postalCode": "K1J9K1",
        "streetName": "CUMMINGS",
        "streetDirectionId": null,
        "streetTypeId": "AVE",
        "placeName": "GLOUCESTER",
        "streetNameDisplayText": "CUMMINGS AVE, GLOUCESTER"
      }
    ]
  },
  {
    "postal": "K1J8E1",
    "result": [
      {
        "electoralDistricts": [
          {
            "election": null,
            "id": 80,
            "name": "Ottawa—Vanier"
          }
        ],
        "pollDivisionIds": [
          10140735
        ],
        "postalCode": "K1J8E1",
        "streetName": "CADBORO",
        "streetDirectionId": null,
        "streetTypeId": "RD",
        "placeName": "GLOUCESTER",
        "streetNameDisplayText": "CADBORO RD, GLOUCESTER"
      }
    ]
  },
  {
    "postal": "K1J0R1",
    "result": []
  },
  {
    "postal": "K1J4J3",
    "result": []
  },
  {
    "postal": "K1J7E7",
    "result": [
      {
        "electoralDistricts": [
          {
            "election": null,
            "id": 80,
            "name": "Ottawa—Vanier"
          }
        ],
        "pollDivisionIds": [
          10140737
        ],
        "postalCode": "K1J7E7",
        "streetName": "DELONG",
        "streetDirectionId": null,
        "streetTypeId": "DR",
        "placeName": "GLOUCESTER",
        "streetNameDisplayText": "DELONG DR, GLOUCESTER"
      }
    ]
  },
  {
    "postal": "K1J0J0",
    "result": []
  },
  {
    "postal": "K1J7R8",
    "result": [
      {
        "electoralDistricts": [
          {
            "election": null,
            "id": 80,
            "name": "Ottawa—Vanier"
          }
        ],
        "pollDivisionIds": [
          10140734
        ],
        "postalCode": "K1J7R8",
        "streetName": "CUMMINGS",
        "streetDirectionId": null,
        "streetTypeId": "AVE",
        "placeName": "GLOUCESTER",
        "streetNameDisplayText": "CUMMINGS AVE, GLOUCESTER"
      }
    ]
  },
  {
    "postal": "K1J9X0",
    "result": []
  },
  {
    "postal": "K1J7P6",
    "result": [
      {
        "electoralDistricts": [
          {
            "election": null,
            "id": 80,
            "name": "Ottawa—Vanier"
          }
        ],
        "pollDivisionIds": [
          10140734
        ],
        "postalCode": "K1J7P6",
        "streetName": "OGILVIE",
        "streetDirectionId": null,
        "streetTypeId": "RD",
        "placeName": "OTTAWA",
        "streetNameDisplayText": "OGILVIE RD, OTTAWA"
      }
    ]
  },
  {
    "postal": "K1J0R7",
    "result": []
  },
  {
    "postal": "K1J5W1",
    "result": []
  },
  {
    "postal": "K1J0K4",
    "result": []
  },
  {
    "postal": "K1J7N9",
    "result": [
      {
        "electoralDistricts": [
          {
            "election": null,
            "id": 80,
            "name": "Ottawa—Vanier"
          }
        ],
        "pollDivisionIds": [
          10140739
        ],
        "postalCode": "K1J7N9",
        "streetName": "OGILVIE",
        "streetDirectionId": null,
        "streetTypeId": "RD",
        "placeName": "OTTAWA",
        "streetNameDisplayText": "OGILVIE RD, OTTAWA"
      }
    ]
  },
  {
    "postal": "K1J1N0",
    "result": []
  },
  {
    "postal": "K1J6P3",
    "result": [
      {
        "electoralDistricts": [
          {
            "election": null,
            "id": 80,
            "name": "Ottawa—Vanier"
          }
        ],
        "pollDivisionIds": [
          10140739
        ],
        "postalCode": "K1J6P3",
        "streetName": "SEGUIN",
        "streetDirectionId": null,
        "streetTypeId": "ST",
        "placeName": "GLOUCESTER",
        "streetNameDisplayText": "SEGUIN ST, GLOUCESTER"
      }
    ]
  },
  {
    "postal": "K1J5A1",
    "result": []
  },
  {
    "postal": "K1J9M9",
    "result": [
      {
        "electoralDistricts": [
          {
            "election": null,
            "id": 80,
            "name": "Ottawa—Vanier"
          }
        ],
        "pollDivisionIds": [
          10140737
        ],
        "postalCode": "K1J9M9",
        "streetName": "CURLEW",
        "streetDirectionId": null,
        "streetTypeId": "PL",
        "placeName": "GLOUCESTER",
        "streetNameDisplayText": "CURLEW PL, GLOUCESTER"
      }
    ]
  },
  {
    "postal": "K1J7T6",
    "result": [
      {
        "electoralDistricts": [
          {
            "election": null,
            "id": 80,
            "name": "Ottawa—Vanier"
          }
        ],
        "pollDivisionIds": [
          10140739
        ],
        "postalCode": "K1J7T6",
        "streetName": "ELMSMERE",
        "streetDirectionId": null,
        "streetTypeId": "RD",
        "placeName": "GLOUCESTER",
        "streetNameDisplayText": "ELMSMERE RD, GLOUCESTER"
      }
    ]
  },
  {
    "postal": "K1J3X0",
    "result": []
  },
  {
    "postal": "K1J2T0",
    "result": []
  },
  {
    "postal": "K1J5X9",
    "result": []
  },
  {
    "postal": "K1J2R3",
    "result": []
  },
  {
    "postal": "K1J5N2",
    "result": []
  },
  {
    "postal": "K1J4Y7",
    "result": []
  },
  {
    "postal": "K1J7M0",
    "result": []
  },
  {
    "postal": "K1J8P3",
    "result": [
      {
        "electoralDistricts": [
          {
            "election": null,
            "id": 80,
            "name": "Ottawa—Vanier"
          }
        ],
        "pollDivisionIds": [
          10140742
        ],
        "postalCode": "K1J8P3",
        "streetName": "BETHAMY",
        "streetDirectionId": null,
        "streetTypeId": "LANE",
        "placeName": "GLOUCESTER",
        "streetNameDisplayText": "BETHAMY LANE, GLOUCESTER"
      }
    ]
  },
  {
    "postal": "K1J3N3",
    "result": []
  },
  {
    "postal": "K1J7S3",
    "result": [
      {
        "electoralDistricts": [
          {
            "election": null,
            "id": 80,
            "name": "Ottawa—Vanier"
          }
        ],
        "pollDivisionIds": [
          10140734
        ],
        "postalCode": "K1J7S3",
        "streetName": "CYRVILLE",
        "streetDirectionId": null,
        "streetTypeId": "RD",
        "placeName": "OTTAWA",
        "streetNameDisplayText": "CYRVILLE RD, OTTAWA"
      }
    ]
  },
  {
    "postal": "K1J3V9",
    "result": []
  },
  {
    "postal": "K1J9N7",
    "result": []
  },
  {
    "postal": "K1J0G4",
    "result": []
  },
  {
    "postal": "K1J2E2",
    "result": []
  },
  {
    "postal": "K1J7W8",
    "result": [
      {
        "electoralDistricts": [
          {
            "election": null,
            "id": 80,
            "name": "Ottawa—Vanier"
          }
        ],
        "pollDivisionIds": [
          10140737
        ],
        "postalCode": "K1J7W8",
        "streetName": "GAINES",
        "streetDirectionId": null,
        "streetTypeId": "DR",
        "placeName": "GLOUCESTER",
        "streetNameDisplayText": "GAINES DR, GLOUCESTER"
      }
    ]
  },
  {
    "postal": "K1J7M5",
    "result": [
      {
        "electoralDistricts": [
          {
            "election": null,
            "id": 80,
            "name": "Ottawa—Vanier"
          }
        ],
        "pollDivisionIds": [
          10140739
        ],
        "postalCode": "K1J7M5",
        "streetName": "BLAIR",
        "streetDirectionId": null,
        "streetTypeId": "RD",
        "placeName": "GLOUCESTER",
        "streetNameDisplayText": "BLAIR RD, GLOUCESTER"
      }
    ]
  },
  {
    "postal": "K1J5W8",
    "result": []
  },
  {
    "postal": "K1J5E5",
    "result": []
  },
  {
    "postal": "K1J1P9",
    "result": []
  },
  {
    "postal": "K1J8V8",
    "result": [
      {
        "electoralDistricts": [
          {
            "election": null,
            "id": 80,
            "name": "Ottawa—Vanier"
          }
        ],
        "pollDivisionIds": [
          10140735,
          10140786
        ],
        "postalCode": "K1J8V8",
        "streetName": "OGILVIE",
        "streetDirectionId": null,
        "streetTypeId": "RD",
        "placeName": "GLOUCESTER",
        "streetNameDisplayText": "OGILVIE RD, GLOUCESTER"
      }
    ]
  },
  {
    "postal": "K1J9G8",
    "result": [
      {
        "electoralDistricts": [
          {
            "election": null,
            "id": 80,
            "name": "Ottawa—Vanier"
          }
        ],
        "pollDivisionIds": [
          10140741
        ],
        "postalCode": "K1J9G8",
        "streetName": "CANOTEK",
        "streetDirectionId": null,
        "streetTypeId": "RD",
        "placeName": "GLOUCESTER",
        "streetNameDisplayText": "CANOTEK RD, GLOUCESTER"
      }
    ]
  },
  {
    "postal": "K1J8H9",
    "result": [
      {
        "electoralDistricts": [
          {
            "election": null,
            "id": 80,
            "name": "Ottawa—Vanier"
          }
        ],
        "pollDivisionIds": [
          10140741
        ],
        "postalCode": "K1J8H9",
        "streetName": "SHEFFORD",
        "streetDirectionId": null,
        "streetTypeId": "RD",
        "placeName": "OTTAWA",
        "streetNameDisplayText": "SHEFFORD RD, OTTAWA"
      }
    ]
  },
  {
    "postal": "K1J1Z1",
    "result": []
  },
  {
    "postal": "K1J8M3",
    "result": [
      {
        "electoralDistricts": [
          {
            "election": null,
            "id": 80,
            "name": "Ottawa—Vanier"
          }
        ],
        "pollDivisionIds": [
          10140737
        ],
        "postalCode": "K1J8M3",
        "streetName": "NASKAPI",
        "streetDirectionId": null,
        "streetTypeId": "DR",
        "placeName": "GLOUCESTER",
        "streetNameDisplayText": "NASKAPI DR, GLOUCESTER"
      }
    ]
  },
  {
    "postal": "K1J5H6",
    "result": []
  },
  {
    "postal": "K1J7W7",
    "result": [
      {
        "electoralDistricts": [
          {
            "election": null,
            "id": 80,
            "name": "Ottawa—Vanier"
          }
        ],
        "pollDivisionIds": [
          10140737
        ],
        "postalCode": "K1J7W7",
        "streetName": "GAINES",
        "streetDirectionId": null,
        "streetTypeId": "DR",
        "placeName": "GLOUCESTER",
        "streetNameDisplayText": "GAINES DR, GLOUCESTER"
      }
    ]
  },
  {
    "postal": "K1J4L0",
    "result": []
  },
  {
    "postal": "K1J2N1",
    "result": []
  },
  {
    "postal": "K1J2H4",
    "result": []
  },
  {
    "postal": "K1J5C8",
    "result": []
  },
  {
    "postal": "K1J8B0",
    "result": []
  },
  {
    "postal": "K1J1T4",
    "result": []
  },
  {
    "postal": "K1J7N7",
    "result": [
      {
        "electoralDistricts": [
          {
            "election": null,
            "id": 80,
            "name": "Ottawa—Vanier"
          }
        ],
        "pollDivisionIds": [
          10140742
        ],
        "postalCode": "K1J7N7",
        "streetName": "OGILVIE",
        "streetDirectionId": null,
        "streetTypeId": "RD",
        "placeName": "GLOUCESTER",
        "streetNameDisplayText": "OGILVIE RD, GLOUCESTER"
      }
    ]
  },
  {
    "postal": "K1J4L3",
    "result": []
  },
  {
    "postal": "K1J2N2",
    "result": []
  },
  {
    "postal": "K1J4N8",
    "result": []
  },
  {
    "postal": "K1J3M5",
    "result": []
  },
  {
    "postal": "K1J6H7",
    "result": [
      {
        "electoralDistricts": [
          {
            "election": null,
            "id": 80,
            "name": "Ottawa—Vanier"
          }
        ],
        "pollDivisionIds": [
          10140737
        ],
        "postalCode": "K1J6H7",
        "streetName": "MELDRUM",
        "streetDirectionId": null,
        "streetTypeId": "AVE",
        "placeName": "GLOUCESTER",
        "streetNameDisplayText": "MELDRUM AVE, GLOUCESTER"
      }
    ]
  },
  {
    "postal": "K1J8Y8",
    "result": []
  },
  {
    "postal": "K1J5R9",
    "result": []
  },
  {
    "postal": "K1J8G3",
    "result": []
  },
  {
    "postal": "K1J4N7",
    "result": []
  },
  {
    "postal": "K1J0B9",
    "result": []
  },
  {
    "postal": "K1J9K7",
    "result": [
      {
        "electoralDistricts": [
          {
            "election": null,
            "id": 80,
            "name": "Ottawa—Vanier"
          }
        ],
        "pollDivisionIds": [
          10140734
        ],
        "postalCode": "K1J9K7",
        "streetName": "CUMMINGS",
        "streetDirectionId": null,
        "streetTypeId": "AVE",
        "placeName": "GLOUCESTER",
        "streetNameDisplayText": "CUMMINGS AVE, GLOUCESTER"
      }
    ]
  },
  {
    "postal": "K1J9K9",
    "result": [
      {
        "electoralDistricts": [
          {
            "election": null,
            "id": 80,
            "name": "Ottawa—Vanier"
          }
        ],
        "pollDivisionIds": [
          10140741
        ],
        "postalCode": "K1J9K9",
        "streetName": "CANOTEK",
        "streetDirectionId": null,
        "streetTypeId": "RD",
        "placeName": "GLOUCESTER",
        "streetNameDisplayText": "CANOTEK RD, GLOUCESTER"
      }
    ]
  },
  {
    "postal": "K1J3Z2",
    "result": []
  },
  {
    "postal": "K1J6W7",
    "result": [
      {
        "electoralDistricts": [
          {
            "election": null,
            "id": 80,
            "name": "Ottawa—Vanier"
          }
        ],
        "pollDivisionIds": [
          10140739
        ],
        "postalCode": "K1J6W7",
        "streetName": "CLAVER",
        "streetDirectionId": null,
        "streetTypeId": "ST",
        "placeName": "GLOUCESTER",
        "streetNameDisplayText": "CLAVER ST, GLOUCESTER"
      }
    ]
  },
  {
    "postal": "K1J0P1",
    "result": []
  },
  {
    "postal": "K1J3A0",
    "result": []
  },
  {
    "postal": "K1J8L9",
    "result": [
      {
        "electoralDistricts": [
          {
            "election": null,
            "id": 80,
            "name": "Ottawa—Vanier"
          }
        ],
        "pollDivisionIds": [
          10140737
        ],
        "postalCode": "K1J8L9",
        "streetName": "ROTHWELL",
        "streetDirectionId": null,
        "streetTypeId": "DR",
        "placeName": "GLOUCESTER",
        "streetNameDisplayText": "ROTHWELL DR, GLOUCESTER"
      }
    ]
  },
  {
    "postal": "K1J6X0",
    "result": []
  },
  {
    "postal": "K1J3E9",
    "result": []
  },
  {
    "postal": "K1J0S5",
    "result": []
  },
  {
    "postal": "K1J1A2",
    "result": []
  },
  {
    "postal": "K1J5V8",
    "result": []
  },
  {
    "postal": "K1J8C5",
    "result": [
      {
        "electoralDistricts": [
          {
            "election": null,
            "id": 80,
            "name": "Ottawa—Vanier"
          }
        ],
        "pollDivisionIds": [
          10140735
        ],
        "postalCode": "K1J8C5",
        "streetName": "OGDEN",
        "streetDirectionId": null,
        "streetTypeId": "ST",
        "placeName": "GLOUCESTER",
        "streetNameDisplayText": "OGDEN ST, GLOUCESTER"
      }
    ]
  },
  {
    "postal": "K1J6N0",
    "result": []
  },
  {
    "postal": "K1J9E6",
    "result": [
      {
        "electoralDistricts": [
          {
            "election": null,
            "id": 80,
            "name": "Ottawa—Vanier"
          }
        ],
        "pollDivisionIds": [
          10140741
        ],
        "postalCode": "K1J9E6",
        "streetName": "CANOTEK",
        "streetDirectionId": null,
        "streetTypeId": "RD",
        "placeName": "GLOUCESTER",
        "streetNameDisplayText": "CANOTEK RD, GLOUCESTER"
      }
    ]
  },
  {
    "postal": "K1J5J7",
    "result": []
  },
  {
    "postal": "K1J2R2",
    "result": []
  },
  {
    "postal": "K1J0P5",
    "result": []
  },
  {
    "postal": "K1J5A7",
    "result": []
  },
  {
    "postal": "K1J1G1",
    "result": [
      {
        "electoralDistricts": [
          {
            "election": null,
            "id": 80,
            "name": "Ottawa—Vanier"
          }
        ],
        "pollDivisionIds": [
          10140736
        ],
        "postalCode": "K1J1G1",
        "streetName": "CITY PARK",
        "streetDirectionId": null,
        "streetTypeId": "DR",
        "placeName": "OTTAWA",
        "streetNameDisplayText": "CITY PARK DR, OTTAWA"
      }
    ]
  },
  {
    "postal": "K1J9R6",
    "result": []
  },
  {
    "postal": "K1J4Z9",
    "result": []
  },
  {
    "postal": "K1J1V5",
    "result": []
  },
  {
    "postal": "K1J9Y5",
    "result": []
  },
  {
    "postal": "K1J1P2",
    "result": []
  },
  {
    "postal": "K1J5X0",
    "result": []
  },
  {
    "postal": "K1J7B8",
    "result": [
      {
        "electoralDistricts": [
          {
            "election": null,
            "id": 80,
            "name": "Ottawa—Vanier"
          }
        ],
        "pollDivisionIds": [
          10140741
        ],
        "postalCode": "K1J7B8",
        "streetName": "LA VERENDRYE",
        "streetDirectionId": null,
        "streetTypeId": "DR",
        "placeName": "GLOUCESTER",
        "streetNameDisplayText": "LA VERENDRYE DR, GLOUCESTER"
      }
    ]
  },
  {
    "postal": "K1J0C6",
    "result": []
  },
  {
    "postal": "K1J6G1",
    "result": [
      {
        "electoralDistricts": [
          {
            "election": null,
            "id": 80,
            "name": "Ottawa—Vanier"
          }
        ],
        "pollDivisionIds": [
          10140741
        ],
        "postalCode": "K1J6G1",
        "streetName": "KINGS GROVE",
        "streetDirectionId": null,
        "streetTypeId": "CRES",
        "placeName": "GLOUCESTER",
        "streetNameDisplayText": "KINGS GROVE CRES, GLOUCESTER"
      }
    ]
  },
  {
    "postal": "K1J3K3",
    "result": []
  },
  {
    "postal": "K1J9R0",
    "result": []
  },
  {
    "postal": "K1J4R8",
    "result": []
  },
  {
    "postal": "K1J5P9",
    "result": []
  },
  {
    "postal": "K1J8N4",
    "result": [
      {
        "electoralDistricts": [
          {
            "election": null,
            "id": 80,
            "name": "Ottawa—Vanier"
          }
        ],
        "pollDivisionIds": [
          10140737
        ],
        "postalCode": "K1J8N4",
        "streetName": "LASSITER",
        "streetDirectionId": null,
        "streetTypeId": "TERR",
        "placeName": "GLOUCESTER",
        "streetNameDisplayText": "LASSITER TERR, GLOUCESTER"
      }
    ]
  },
  {
    "postal": "K1J8H4",
    "result": [
      {
        "electoralDistricts": [
          {
            "election": null,
            "id": 80,
            "name": "Ottawa—Vanier"
          }
        ],
        "pollDivisionIds": [
          10140737
        ],
        "postalCode": "K1J8H4",
        "streetName": "DELONG",
        "streetDirectionId": null,
        "streetTypeId": "DR",
        "placeName": "GLOUCESTER",
        "streetNameDisplayText": "DELONG DR, GLOUCESTER"
      }
    ]
  },
  {
    "postal": "K1J4V1",
    "result": []
  },
  {
    "postal": "K1J1K5",
    "result": [
      {
        "electoralDistricts": [
          {
            "election": null,
            "id": 80,
            "name": "Ottawa—Vanier"
          }
        ],
        "pollDivisionIds": [
          10140742
        ],
        "postalCode": "K1J1K5",
        "streetName": "GATESTONE",
        "streetDirectionId": null,
        "streetTypeId": "PVT",
        "placeName": "GLOUCESTER",
        "streetNameDisplayText": "GATESTONE PVT, GLOUCESTER"
      }
    ]
  },
  {
    "postal": "K1J1Z5",
    "result": []
  },
  {
    "postal": "K1J9L9",
    "result": []
  },
  {
    "postal": "K1J5L2",
    "result": []
  },
  {
    "postal": "K1J0M2",
    "result": []
  },
  {
    "postal": "K1J1K8",
    "result": []
  },
  {
    "postal": "K1J3M7",
    "result": []
  },
  {
    "postal": "K1J1B2",
    "result": [
      {
        "electoralDistricts": [
          {
            "election": null,
            "id": 80,
            "name": "Ottawa—Vanier"
          }
        ],
        "pollDivisionIds": [
          10140733
        ],
        "postalCode": "K1J1B2",
        "streetName": "AMBERCREST",
        "streetDirectionId": null,
        "streetTypeId": "ST",
        "placeName": "GLOUCESTER",
        "streetNameDisplayText": "AMBERCREST ST, GLOUCESTER"
      },
      {
        "electoralDistricts": [
          {
            "election": null,
            "id": 80,
            "name": "Ottawa—Vanier"
          }
        ],
        "pollDivisionIds": [
          10140735
        ],
        "postalCode": "K1J1B2",
        "streetName": "WHITEROCK",
        "streetDirectionId": null,
        "streetTypeId": "ST",
        "placeName": "GLOUCESTER",
        "streetNameDisplayText": "WHITEROCK ST, GLOUCESTER"
      }
    ]
  },
  {
    "postal": "K1J0H9",
    "result": []
  },
  {
    "postal": "K1J8M4",
    "result": [
      {
        "electoralDistricts": [
          {
            "election": null,
            "id": 80,
            "name": "Ottawa—Vanier"
          }
        ],
        "pollDivisionIds": [
          10140737
        ],
        "postalCode": "K1J8M4",
        "streetName": "BEACONWOOD",
        "streetDirectionId": null,
        "streetTypeId": "DR",
        "placeName": "GLOUCESTER",
        "streetNameDisplayText": "BEACONWOOD DR, GLOUCESTER"
      }
    ]
  },
  {
    "postal": "K1J2M5",
    "result": []
  },
  {
    "postal": "K1J0T9",
    "result": []
  },
  {
    "postal": "K1J3P1",
    "result": []
  },
  {
    "postal": "K1J1R6",
    "result": []
  },
  {
    "postal": "K1J9V5",
    "result": []
  },
  {
    "postal": "K1J9T0",
    "result": []
  },
  {
    "postal": "K1J0A9",
    "result": [
      {
        "electoralDistricts": [
          {
            "election": null,
            "id": 80,
            "name": "Ottawa—Vanier"
          }
        ],
        "pollDivisionIds": [
          10140734
        ],
        "postalCode": "K1J0A9",
        "streetName": "REDTAIL",
        "streetDirectionId": null,
        "streetTypeId": "PVT",
        "placeName": "OTTAWA",
        "streetNameDisplayText": "REDTAIL PVT, OTTAWA"
      }
    ]
  },
  {
    "postal": "K1J1M3",
    "result": []
  },
  {
    "postal": "K1J1W8",
    "result": []
  },
  {
    "postal": "K1J9J1",
    "result": [
      {
        "electoralDistricts": [
          {
            "election": null,
            "id": 80,
            "name": "Ottawa—Vanier"
          }
        ],
        "pollDivisionIds": [
          10140741
        ],
        "postalCode": "K1J9J1",
        "streetName": "POLYTEK",
        "streetDirectionId": null,
        "streetTypeId": "ST",
        "placeName": "GLOUCESTER",
        "streetNameDisplayText": "POLYTEK ST, GLOUCESTER"
      },
      {
        "electoralDistricts": [
          {
            "election": null,
            "id": 80,
            "name": "Ottawa—Vanier"
          }
        ],
        "pollDivisionIds": [
          10140741
        ],
        "postalCode": "K1J9J1",
        "streetName": "POLYTEK",
        "streetDirectionId": null,
        "streetTypeId": "ST",
        "placeName": "OTTAWA",
        "streetNameDisplayText": "POLYTEK ST, OTTAWA"
      }
    ]
  },
  {
    "postal": "K1J8N5",
    "result": [
      {
        "electoralDistricts": [
          {
            "election": null,
            "id": 80,
            "name": "Ottawa—Vanier"
          }
        ],
        "pollDivisionIds": [
          10140741
        ],
        "postalCode": "K1J8N5",
        "streetName": "BRACKEN",
        "streetDirectionId": null,
        "streetTypeId": "CRT",
        "placeName": "GLOUCESTER",
        "streetNameDisplayText": "BRACKEN CRT, GLOUCESTER"
      }
    ]
  },
  {
    "postal": "K1J5X1",
    "result": []
  },
  {
    "postal": "K1J6S2",
    "result": [
      {
        "electoralDistricts": [
          {
            "election": null,
            "id": 80,
            "name": "Ottawa—Vanier"
          }
        ],
        "pollDivisionIds": [
          10140739
        ],
        "postalCode": "K1J6S2",
        "streetName": "ELMRIDGE",
        "streetDirectionId": null,
        "streetTypeId": "DR",
        "placeName": "GLOUCESTER",
        "streetNameDisplayText": "ELMRIDGE DR, GLOUCESTER"
      }
    ]
  },
  {
    "postal": "K1J2A2",
    "result": []
  },
  {
    "postal": "K1J6A6",
    "result": [
      {
        "electoralDistricts": [
          {
            "election": null,
            "id": 80,
            "name": "Ottawa—Vanier"
          }
        ],
        "pollDivisionIds": [
          10140741
        ],
        "postalCode": "K1J6A6",
        "streetName": "FILLMORE",
        "streetDirectionId": null,
        "streetTypeId": "CRES",
        "placeName": "GLOUCESTER",
        "streetNameDisplayText": "FILLMORE CRES, GLOUCESTER"
      }
    ]
  },
  {
    "postal": "K1J0S3",
    "result": []
  },
  {
    "postal": "K1J3E7",
    "result": []
  },
  {
    "postal": "K1J5R7",
    "result": []
  },
  {
    "postal": "K1J3R6",
    "result": []
  },
  {
    "postal": "K1J6K4",
    "result": [
      {
        "electoralDistricts": [
          {
            "election": null,
            "id": 80,
            "name": "Ottawa—Vanier"
          }
        ],
        "pollDivisionIds": [
          10140741
        ],
        "postalCode": "K1J6K4",
        "streetName": "DUTTON",
        "streetDirectionId": null,
        "streetTypeId": "CRES",
        "placeName": "GLOUCESTER",
        "streetNameDisplayText": "DUTTON CRES, GLOUCESTER"
      }
    ]
  },
  {
    "postal": "K1J2W5",
    "result": []
  },
  {
    "postal": "K1J8W4",
    "result": [
      {
        "electoralDistricts": [
          {
            "election": null,
            "id": 80,
            "name": "Ottawa—Vanier"
          }
        ],
        "pollDivisionIds": [
          10140736
        ],
        "postalCode": "K1J8W4",
        "streetName": "PALMERSTON",
        "streetDirectionId": null,
        "streetTypeId": "DR",
        "placeName": "GLOUCESTER",
        "streetNameDisplayText": "PALMERSTON DR, GLOUCESTER"
      }
    ]
  },
  {
    "postal": "K1J9C2",
    "result": [
      {
        "electoralDistricts": [
          {
            "election": null,
            "id": 80,
            "name": "Ottawa—Vanier"
          }
        ],
        "pollDivisionIds": [
          10140741
        ],
        "postalCode": "K1J9C2",
        "streetName": "CANOTEK",
        "streetDirectionId": null,
        "streetTypeId": "RD",
        "placeName": "GLOUCESTER",
        "streetNameDisplayText": "CANOTEK RD, GLOUCESTER"
      },
      {
        "electoralDistricts": [
          {
            "election": null,
            "id": 80,
            "name": "Ottawa—Vanier"
          }
        ],
        "pollDivisionIds": [
          10140741
        ],
        "postalCode": "K1J9C2",
        "streetName": "CANOTEK",
        "streetDirectionId": null,
        "streetTypeId": "RD",
        "placeName": "OTTAWA",
        "streetNameDisplayText": "CANOTEK RD, OTTAWA"
      }
    ]
  },
  {
    "postal": "K1J2C0",
    "result": []
  },
  {
    "postal": "K1J0E1",
    "result": []
  },
  {
    "postal": "K1J1K9",
    "result": []
  },
  {
    "postal": "K1J1G7",
    "result": [
      {
        "electoralDistricts": [
          {
            "election": null,
            "id": 80,
            "name": "Ottawa—Vanier"
          }
        ],
        "pollDivisionIds": [
          10140736
        ],
        "postalCode": "K1J1G7",
        "streetName": "OGILVIE WALK",
        "streetDirectionId": null,
        "streetTypeId": "CRES",
        "placeName": "GLOUCESTER",
        "streetNameDisplayText": "OGILVIE WALK CRES, GLOUCESTER"
      }
    ]
  },
  {
    "postal": "K1J4E9",
    "result": []
  },
  {
    "postal": "K1J9P0",
    "result": []
  },
  {
    "postal": "K1J5H3",
    "result": []
  },
  {
    "postal": "K1J9X6",
    "result": []
  },
  {
    "postal": "K1J5N7",
    "result": []
  },
  {
    "postal": "K1J5A6",
    "result": []
  },
  {
    "postal": "K1J4M0",
    "result": []
  },
  {
    "postal": "K1J3V6",
    "result": []
  },
  {
    "postal": "K1J1L7",
    "result": []
  },
  {
    "postal": "K1J2P9",
    "result": []
  },
  {
    "postal": "K1J5T4",
    "result": []
  },
  {
    "postal": "K1J5Z1",
    "result": []
  },
  {
    "postal": "K1J2X0",
    "result": []
  },
  {
    "postal": "K1J6Z2",
    "result": [
      {
        "electoralDistricts": [
          {
            "election": null,
            "id": 80,
            "name": "Ottawa—Vanier"
          }
        ],
        "pollDivisionIds": [
          10140741
        ],
        "postalCode": "K1J6Z2",
        "streetName": "EASTVALE",
        "streetDirectionId": null,
        "streetTypeId": "DR",
        "placeName": "GLOUCESTER",
        "streetNameDisplayText": "EASTVALE DR, GLOUCESTER"
      }
    ]
  },
  {
    "postal": "K1J0E0",
    "result": []
  },
  {
    "postal": "K1J3Z5",
    "result": []
  },
  {
    "postal": "K1J8H3",
    "result": [
      {
        "electoralDistricts": [
          {
            "election": null,
            "id": 80,
            "name": "Ottawa—Vanier"
          }
        ],
        "pollDivisionIds": [
          10140735
        ],
        "postalCode": "K1J8H3",
        "streetName": "MATHESON",
        "streetDirectionId": null,
        "streetTypeId": "RD",
        "placeName": "GLOUCESTER",
        "streetNameDisplayText": "MATHESON RD, GLOUCESTER"
      }
    ]
  },
  {
    "postal": "K1J7S6",
    "result": [
      {
        "electoralDistricts": [
          {
            "election": null,
            "id": 80,
            "name": "Ottawa—Vanier"
          }
        ],
        "pollDivisionIds": [
          10140734
        ],
        "postalCode": "K1J7S6",
        "streetName": "CYRVILLE",
        "streetDirectionId": null,
        "streetTypeId": "RD",
        "placeName": "GLOUCESTER",
        "streetNameDisplayText": "CYRVILLE RD, GLOUCESTER"
      }
    ]
  },
  {
    "postal": "K1J4C1",
    "result": []
  },
  {
    "postal": "K1J3K2",
    "result": []
  },
  {
    "postal": "K1J1Y5",
    "result": []
  },
  {
    "postal": "K1J6P6",
    "result": [
      {
        "electoralDistricts": [
          {
            "election": null,
            "id": 80,
            "name": "Ottawa—Vanier"
          }
        ],
        "pollDivisionIds": [
          10140739
        ],
        "postalCode": "K1J6P6",
        "streetName": "SEGUIN",
        "streetDirectionId": null,
        "streetTypeId": "ST",
        "placeName": "GLOUCESTER",
        "streetNameDisplayText": "SEGUIN ST, GLOUCESTER"
      }
    ]
  },
  {
    "postal": "K1J3N9",
    "result": []
  },
  {
    "postal": "K1J3W2",
    "result": []
  },
  {
    "postal": "K1J6H8",
    "result": [
      {
        "electoralDistricts": [
          {
            "election": null,
            "id": 80,
            "name": "Ottawa—Vanier"
          }
        ],
        "pollDivisionIds": [
          10140737
        ],
        "postalCode": "K1J6H8",
        "streetName": "SWANS",
        "streetDirectionId": null,
        "streetTypeId": "WAY",
        "placeName": "GLOUCESTER",
        "streetNameDisplayText": "SWANS WAY, GLOUCESTER"
      }
    ]
  },
  {
    "postal": "K1J9T3",
    "result": []
  },
  {
    "postal": "K1J5L9",
    "result": []
  },
  {
    "postal": "K1J7X7",
    "result": [
      {
        "electoralDistricts": [
          {
            "election": null,
            "id": 80,
            "name": "Ottawa—Vanier"
          }
        ],
        "pollDivisionIds": [
          10140737
        ],
        "postalCode": "K1J7X7",
        "streetName": "LA VERENDRYE",
        "streetDirectionId": null,
        "streetTypeId": "DR",
        "placeName": "GLOUCESTER",
        "streetNameDisplayText": "LA VERENDRYE DR, GLOUCESTER"
      }
    ]
  },
  {
    "postal": "K1J3J5",
    "result": []
  },
  {
    "postal": "K1J4J5",
    "result": []
  },
  {
    "postal": "K1J6J2",
    "result": [
      {
        "electoralDistricts": [
          {
            "election": null,
            "id": 80,
            "name": "Ottawa—Vanier"
          }
        ],
        "pollDivisionIds": [
          10140737
        ],
        "postalCode": "K1J6J2",
        "streetName": "SWANS",
        "streetDirectionId": "N",
        "streetTypeId": "WAY",
        "placeName": "GLOUCESTER",
        "streetNameDisplayText": "SWANS WAY N, GLOUCESTER"
      }
    ]
  },
  {
    "postal": "K1J5V6",
    "result": []
  },
  {
    "postal": "K1J3N2",
    "result": []
  },
  {
    "postal": "K1J3B1",
    "result": []
  },
  {
    "postal": "K1J8B5",
    "result": [
      {
        "electoralDistricts": [
          {
            "election": null,
            "id": 80,
            "name": "Ottawa—Vanier"
          }
        ],
        "pollDivisionIds": [
          10140735
        ],
        "postalCode": "K1J8B5",
        "streetName": "MATHESON",
        "streetDirectionId": null,
        "streetTypeId": "RD",
        "placeName": "GLOUCESTER",
        "streetNameDisplayText": "MATHESON RD, GLOUCESTER"
      }
    ]
  },
  {
    "postal": "K1J0K1",
    "result": []
  },
  {
    "postal": "K1J7M7",
    "result": [
      {
        "electoralDistricts": [
          {
            "election": null,
            "id": 80,
            "name": "Ottawa—Vanier"
          }
        ],
        "pollDivisionIds": [
          10140739
        ],
        "postalCode": "K1J7M7",
        "streetName": "BLAIR",
        "streetDirectionId": null,
        "streetTypeId": "RD",
        "placeName": "GLOUCESTER",
        "streetNameDisplayText": "BLAIR RD, GLOUCESTER"
      },
      {
        "electoralDistricts": [
          {
            "election": null,
            "id": 80,
            "name": "Ottawa—Vanier"
          }
        ],
        "pollDivisionIds": [
          10140739
        ],
        "postalCode": "K1J7M7",
        "streetName": "BLAIR",
        "streetDirectionId": null,
        "streetTypeId": "RD",
        "placeName": "OTTAWA",
        "streetNameDisplayText": "BLAIR RD, OTTAWA"
      }
    ]
  },
  {
    "postal": "K1J2M2",
    "result": []
  },
  {
    "postal": "K1J9N3",
    "result": []
  },
  {
    "postal": "K1J4Y8",
    "result": []
  },
  {
    "postal": "K1J3V7",
    "result": []
  },
  {
    "postal": "K1J8Z1",
    "result": []
  },
  {
    "postal": "K1J7B3",
    "result": [
      {
        "electoralDistricts": [
          {
            "election": null,
            "id": 80,
            "name": "Ottawa—Vanier"
          }
        ],
        "pollDivisionIds": [
          10140742
        ],
        "postalCode": "K1J7B3",
        "streetName": "LAPORTE",
        "streetDirectionId": null,
        "streetTypeId": "ST",
        "placeName": "GLOUCESTER",
        "streetNameDisplayText": "LAPORTE ST, GLOUCESTER"
      }
    ]
  },
  {
    "postal": "K1J3A8",
    "result": []
  },
  {
    "postal": "K1J7V5",
    "result": [
      {
        "electoralDistricts": [
          {
            "election": null,
            "id": 80,
            "name": "Ottawa—Vanier"
          }
        ],
        "pollDivisionIds": [
          10140737
        ],
        "postalCode": "K1J7V5",
        "streetName": "CLOVELLY",
        "streetDirectionId": null,
        "streetTypeId": "RD",
        "placeName": "GLOUCESTER",
        "streetNameDisplayText": "CLOVELLY RD, GLOUCESTER"
      }
    ]
  },
  {
    "postal": "K1J2T2",
    "result": []
  },
  {
    "postal": "K1J6L3",
    "result": [
      {
        "electoralDistricts": [
          {
            "election": null,
            "id": 80,
            "name": "Ottawa—Vanier"
          }
        ],
        "pollDivisionIds": [
          10140741
        ],
        "postalCode": "K1J6L3",
        "streetName": "HUBBARD",
        "streetDirectionId": null,
        "streetTypeId": "CRES",
        "placeName": "GLOUCESTER",
        "streetNameDisplayText": "HUBBARD CRES, GLOUCESTER"
      }
    ]
  },
  {
    "postal": "K1J0L2",
    "result": []
  },
  {
    "postal": "K1J5Y8",
    "result": []
  },
  {
    "postal": "K1J0B8",
    "result": []
  },
  {
    "postal": "K1J6R5",
    "result": [
      {
        "electoralDistricts": [
          {
            "election": null,
            "id": 80,
            "name": "Ottawa—Vanier"
          }
        ],
        "pollDivisionIds": [
          10140739
        ],
        "postalCode": "K1J6R5",
        "streetName": "STEEL",
        "streetDirectionId": null,
        "streetTypeId": "ST",
        "placeName": "GLOUCESTER",
        "streetNameDisplayText": "STEEL ST, GLOUCESTER"
      }
    ]
  },
  {
    "postal": "K1J8W6",
    "result": [
      {
        "electoralDistricts": [
          {
            "election": null,
            "id": 80,
            "name": "Ottawa—Vanier"
          }
        ],
        "pollDivisionIds": [
          10140736
        ],
        "postalCode": "K1J8W6",
        "streetName": "HALMONT",
        "streetDirectionId": null,
        "streetTypeId": "DR",
        "placeName": "GLOUCESTER",
        "streetNameDisplayText": "HALMONT DR, GLOUCESTER"
      }
    ]
  },
  {
    "postal": "K1J8G6",
    "result": []
  },
  {
    "postal": "K1J6X3",
    "result": [
      {
        "electoralDistricts": [
          {
            "election": null,
            "id": 80,
            "name": "Ottawa—Vanier"
          }
        ],
        "pollDivisionIds": [
          10140741
        ],
        "postalCode": "K1J6X3",
        "streetName": "SHEFFORD",
        "streetDirectionId": null,
        "streetTypeId": "CRT",
        "placeName": "GLOUCESTER",
        "streetNameDisplayText": "SHEFFORD CRT, GLOUCESTER"
      },
      {
        "electoralDistricts": [
          {
            "election": null,
            "id": 80,
            "name": "Ottawa—Vanier"
          }
        ],
        "pollDivisionIds": [
          10140741
        ],
        "postalCode": "K1J6X3",
        "streetName": "SHEFFORD",
        "streetDirectionId": null,
        "streetTypeId": "RD",
        "placeName": "GLOUCESTER",
        "streetNameDisplayText": "SHEFFORD RD, GLOUCESTER"
      }
    ]
  },
  {
    "postal": "K1J7R7",
    "result": []
  },
  {
    "postal": "K1J4B6",
    "result": []
  },
  {
    "postal": "K1J3P9",
    "result": []
  },
  {
    "postal": "K1J2T3",
    "result": []
  },
  {
    "postal": "K1J1M4",
    "result": []
  },
  {
    "postal": "K1J0H1",
    "result": []
  },
  {
    "postal": "K1J9W3",
    "result": []
  },
  {
    "postal": "K1J6P1",
    "result": [
      {
        "electoralDistricts": [
          {
            "election": null,
            "id": 80,
            "name": "Ottawa—Vanier"
          }
        ],
        "pollDivisionIds": [
          10140742
        ],
        "postalCode": "K1J6P1",
        "streetName": "BEAVERHILL",
        "streetDirectionId": null,
        "streetTypeId": "DR",
        "placeName": "GLOUCESTER",
        "streetNameDisplayText": "BEAVERHILL DR, GLOUCESTER"
      }
    ]
  },
  {
    "postal": "K1J7G2",
    "result": [
      {
        "electoralDistricts": [
          {
            "election": null,
            "id": 80,
            "name": "Ottawa—Vanier"
          }
        ],
        "pollDivisionIds": [
          10140737
        ],
        "postalCode": "K1J7G2",
        "streetName": "ROTHWELL",
        "streetDirectionId": null,
        "streetTypeId": "DR",
        "placeName": "GLOUCESTER",
        "streetNameDisplayText": "ROTHWELL DR, GLOUCESTER"
      }
    ]
  },
  {
    "postal": "K1J4J9",
    "result": []
  },
  {
    "postal": "K1J9E4",
    "result": [
      {
        "electoralDistricts": [
          {
            "election": null,
            "id": 80,
            "name": "Ottawa—Vanier"
          }
        ],
        "pollDivisionIds": [
          10140741
        ],
        "postalCode": "K1J9E4",
        "streetName": "CANOTEK",
        "streetDirectionId": null,
        "streetTypeId": "RD",
        "placeName": "GLOUCESTER",
        "streetNameDisplayText": "CANOTEK RD, GLOUCESTER"
      }
    ]
  },
  {
    "postal": "K1J8H0",
    "result": []
  },
  {
    "postal": "K1J4M7",
    "result": []
  },
  {
    "postal": "K1J2G9",
    "result": []
  },
  {
    "postal": "K1J8T2",
    "result": []
  },
  {
    "postal": "K1J7G7",
    "result": [
      {
        "electoralDistricts": [
          {
            "election": null,
            "id": 80,
            "name": "Ottawa—Vanier"
          }
        ],
        "pollDivisionIds": [
          10140737
        ],
        "postalCode": "K1J7G7",
        "streetName": "ROTHWELL",
        "streetDirectionId": null,
        "streetTypeId": "DR",
        "placeName": "GLOUCESTER",
        "streetNameDisplayText": "ROTHWELL DR, GLOUCESTER"
      }
    ]
  },
  {
    "postal": "K1J4Z3",
    "result": []
  },
  {
    "postal": "K1J5B3",
    "result": []
  },
  {
    "postal": "K1J1S7",
    "result": []
  },
  {
    "postal": "K1J2N7",
    "result": []
  },
  {
    "postal": "K1J0H8",
    "result": []
  },
  {
    "postal": "K1J7Z4",
    "result": [
      {
        "electoralDistricts": [
          {
            "election": null,
            "id": 80,
            "name": "Ottawa—Vanier"
          }
        ],
        "pollDivisionIds": [
          10140742
        ],
        "postalCode": "K1J7Z4",
        "streetName": "JASMINE",
        "streetDirectionId": null,
        "streetTypeId": "CRES",
        "placeName": "GLOUCESTER",
        "streetNameDisplayText": "JASMINE CRES, GLOUCESTER"
      }
    ]
  },
  {
    "postal": "K1J7B1",
    "result": [
      {
        "electoralDistricts": [
          {
            "election": null,
            "id": 80,
            "name": "Ottawa—Vanier"
          }
        ],
        "pollDivisionIds": [
          10140742
        ],
        "postalCode": "K1J7B1",
        "streetName": "MISS OTTAWA",
        "streetDirectionId": null,
        "streetTypeId": "ST",
        "placeName": "GLOUCESTER",
        "streetNameDisplayText": "MISS OTTAWA ST, GLOUCESTER"
      }
    ]
  },
  {
    "postal": "K1J7P8",
    "result": [
      {
        "electoralDistricts": [
          {
            "election": null,
            "id": 80,
            "name": "Ottawa—Vanier"
          }
        ],
        "pollDivisionIds": [
          10140734
        ],
        "postalCode": "K1J7P8",
        "streetName": "OGILVIE",
        "streetDirectionId": null,
        "streetTypeId": "RD",
        "placeName": "GLOUCESTER",
        "streetNameDisplayText": "OGILVIE RD, GLOUCESTER"
      }
    ]
  },
  {
    "postal": "K1J7N0",
    "result": []
  },
  {
    "postal": "K1J3Y5",
    "result": []
  },
  {
    "postal": "K1J6K1",
    "result": [
      {
        "electoralDistricts": [
          {
            "election": null,
            "id": 80,
            "name": "Ottawa—Vanier"
          }
        ],
        "pollDivisionIds": [
          10140741
        ],
        "postalCode": "K1J6K1",
        "streetName": "KENDER",
        "streetDirectionId": null,
        "streetTypeId": "AVE",
        "placeName": "GLOUCESTER",
        "streetNameDisplayText": "KENDER AVE, GLOUCESTER"
      }
    ]
  },
  {
    "postal": "K1J9X5",
    "result": []
  },
  {
    "postal": "K1J7S5",
    "result": [
      {
        "electoralDistricts": [
          {
            "election": null,
            "id": 80,
            "name": "Ottawa—Vanier"
          }
        ],
        "pollDivisionIds": [
          10140734
        ],
        "postalCode": "K1J7S5",
        "streetName": "CYRVILLE",
        "streetDirectionId": null,
        "streetTypeId": "RD",
        "placeName": "OTTAWA",
        "streetNameDisplayText": "CYRVILLE RD, OTTAWA"
      }
    ]
  },
  {
    "postal": "K1J0A4",
    "result": [
      {
        "electoralDistricts": [
          {
            "election": null,
            "id": 80,
            "name": "Ottawa—Vanier"
          }
        ],
        "pollDivisionIds": [
          10140739
        ],
        "postalCode": "K1J0A4",
        "streetName": "MARRISSA",
        "streetDirectionId": null,
        "streetTypeId": "AVE",
        "placeName": "GLOUCESTER",
        "streetNameDisplayText": "MARRISSA AVE, GLOUCESTER"
      }
    ]
  },
  {
    "postal": "K1J4T5",
    "result": []
  },
  {
    "postal": "K1J5K1",
    "result": []
  },
  {
    "postal": "K1J0Z9",
    "result": []
  },
  {
    "postal": "K1J7T2",
    "result": [
      {
        "electoralDistricts": [
          {
            "election": null,
            "id": 80,
            "name": "Ottawa—Vanier"
          }
        ],
        "pollDivisionIds": [
          10140734
        ],
        "postalCode": "K1J7T2",
        "streetName": "MICHAEL",
        "streetDirectionId": "N",
        "streetTypeId": "ST",
        "placeName": "GLOUCESTER",
        "streetNameDisplayText": "MICHAEL ST N, GLOUCESTER"
      }
    ]
  },
  {
    "postal": "K1J1L5",
    "result": []
  },
  {
    "postal": "K1J3N5",
    "result": []
  },
  {
    "postal": "K1J6H4",
    "result": [
      {
        "electoralDistricts": [
          {
            "election": null,
            "id": 80,
            "name": "Ottawa—Vanier"
          }
        ],
        "pollDivisionIds": [
          10140741
        ],
        "postalCode": "K1J6H4",
        "streetName": "OAKDEAN",
        "streetDirectionId": null,
        "streetTypeId": "CRES",
        "placeName": "GLOUCESTER",
        "streetNameDisplayText": "OAKDEAN CRES, GLOUCESTER"
      }
    ]
  },
  {
    "postal": "K1J5A5",
    "result": []
  },
  {
    "postal": "K1J3R9",
    "result": []
  },
  {
    "postal": "K1J7L8",
    "result": [
      {
        "electoralDistricts": [
          {
            "election": null,
            "id": 80,
            "name": "Ottawa—Vanier"
          }
        ],
        "pollDivisionIds": [
          10140739
        ],
        "postalCode": "K1J7L8",
        "streetName": "DUNHAM",
        "streetDirectionId": null,
        "streetTypeId": "ST",
        "placeName": "GLOUCESTER",
        "streetNameDisplayText": "DUNHAM ST, GLOUCESTER"
      }
    ]
  },
  {
    "postal": "K1J6T6",
    "result": [
      {
        "electoralDistricts": [
          {
            "election": null,
            "id": 80,
            "name": "Ottawa—Vanier"
          }
        ],
        "pollDivisionIds": [
          10140739
        ],
        "postalCode": "K1J6T6",
        "streetName": "APPLEFORD",
        "streetDirectionId": null,
        "streetTypeId": "ST",
        "placeName": "OTTAWA",
        "streetNameDisplayText": "APPLEFORD ST, OTTAWA"
      }
    ]
  },
  {
    "postal": "K1J7Y7",
    "result": [
      {
        "electoralDistricts": [
          {
            "election": null,
            "id": 80,
            "name": "Ottawa—Vanier"
          }
        ],
        "pollDivisionIds": [
          10140741
        ],
        "postalCode": "K1J7Y7",
        "streetName": "RIVERSHORE",
        "streetDirectionId": null,
        "streetTypeId": "CRES",
        "placeName": "GLOUCESTER",
        "streetNameDisplayText": "RIVERSHORE CRES, GLOUCESTER"
      }
    ]
  },
  {
    "postal": "K1J3M8",
    "result": []
  },
  {
    "postal": "K1J2E0",
    "result": []
  },
  {
    "postal": "K1J4B5",
    "result": []
  },
  {
    "postal": "K1J1J3",
    "result": [
      {
        "electoralDistricts": [
          {
            "election": null,
            "id": 80,
            "name": "Ottawa—Vanier"
          }
        ],
        "pollDivisionIds": [
          10140734
        ],
        "postalCode": "K1J1J3",
        "streetName": "CUMMINGS",
        "streetDirectionId": null,
        "streetTypeId": "AVE",
        "placeName": "GLOUCESTER",
        "streetNameDisplayText": "CUMMINGS AVE, GLOUCESTER"
      }
    ]
  },
  {
    "postal": "K1J5S6",
    "result": []
  },
  {
    "postal": "K1J8P7",
    "result": [
      {
        "electoralDistricts": [
          {
            "election": null,
            "id": 80,
            "name": "Ottawa—Vanier"
          }
        ],
        "pollDivisionIds": [
          10140742
        ],
        "postalCode": "K1J8P7",
        "streetName": "BETHAMY",
        "streetDirectionId": null,
        "streetTypeId": "LANE",
        "placeName": "GLOUCESTER",
        "streetNameDisplayText": "BETHAMY LANE, GLOUCESTER"
      }
    ]
  },
  {
    "postal": "K1J7S7",
    "result": [
      {
        "electoralDistricts": [
          {
            "election": null,
            "id": 80,
            "name": "Ottawa—Vanier"
          }
        ],
        "pollDivisionIds": [
          10140734
        ],
        "postalCode": "K1J7S7",
        "streetName": "CYRVILLE",
        "streetDirectionId": null,
        "streetTypeId": "RD",
        "placeName": "GLOUCESTER",
        "streetNameDisplayText": "CYRVILLE RD, GLOUCESTER"
      }
    ]
  },
  {
    "postal": "K1J4C2",
    "result": []
  },
  {
    "postal": "K1J5Y0",
    "result": []
  },
  {
    "postal": "K1J2V7",
    "result": []
  },
  {
    "postal": "K1J8P5",
    "result": [
      {
        "electoralDistricts": [
          {
            "election": null,
            "id": 80,
            "name": "Ottawa—Vanier"
          }
        ],
        "pollDivisionIds": [
          10140742
        ],
        "postalCode": "K1J8P5",
        "streetName": "BETHAMY",
        "streetDirectionId": null,
        "streetTypeId": "LANE",
        "placeName": "GLOUCESTER",
        "streetNameDisplayText": "BETHAMY LANE, GLOUCESTER"
      }
    ]
  },
  {
    "postal": "K1J5P5",
    "result": []
  },
  {
    "postal": "K1J5Z0",
    "result": []
  },
  {
    "postal": "K1J9B0",
    "result": []
  },
  {
    "postal": "K1J1L0",
    "result": []
  },
  {
    "postal": "K1J0B5",
    "result": [
      {
        "electoralDistricts": [
          {
            "election": null,
            "id": 80,
            "name": "Ottawa—Vanier"
          }
        ],
        "pollDivisionIds": [
          10140734
        ],
        "postalCode": "K1J0B5",
        "streetName": "BEAUPARC",
        "streetDirectionId": null,
        "streetTypeId": "PVT",
        "placeName": "GLOUCESTER",
        "streetNameDisplayText": "BEAUPARC PVT, GLOUCESTER"
      }
    ]
  },
  {
    "postal": "K1J3L2",
    "result": []
  },
  {
    "postal": "K1J3B7",
    "result": []
  },
  {
    "postal": "K1J8L1",
    "result": [
      {
        "electoralDistricts": [
          {
            "election": null,
            "id": 80,
            "name": "Ottawa—Vanier"
          }
        ],
        "pollDivisionIds": [
          10140737
        ],
        "postalCode": "K1J8L1",
        "streetName": "LUDGATE",
        "streetDirectionId": null,
        "streetTypeId": "CRT",
        "placeName": "GLOUCESTER",
        "streetNameDisplayText": "LUDGATE CRT, GLOUCESTER"
      }
    ]
  },
  {
    "postal": "K1J5M4",
    "result": []
  },
  {
    "postal": "K1J4G9",
    "result": []
  },
  {
    "postal": "K1J0P0",
    "result": []
  },
  {
    "postal": "K1J8G2",
    "result": [
      {
        "electoralDistricts": [
          {
            "election": null,
            "id": 80,
            "name": "Ottawa—Vanier"
          }
        ],
        "pollDivisionIds": [
          10140735
        ],
        "postalCode": "K1J8G2",
        "streetName": "BATHGATE",
        "streetDirectionId": null,
        "streetTypeId": "DR",
        "placeName": "GLOUCESTER",
        "streetNameDisplayText": "BATHGATE DR, GLOUCESTER"
      }
    ]
  },
  {
    "postal": "K1J1V9",
    "result": []
  },
  {
    "postal": "K1J8N8",
    "result": [
      {
        "electoralDistricts": [
          {
            "election": null,
            "id": 80,
            "name": "Ottawa—Vanier"
          }
        ],
        "pollDivisionIds": [
          10140737
        ],
        "postalCode": "K1J8N8",
        "streetName": "MEADOWLARK",
        "streetDirectionId": null,
        "streetTypeId": "RD",
        "placeName": "GLOUCESTER",
        "streetNameDisplayText": "MEADOWLARK RD, GLOUCESTER"
      }
    ]
  },
  {
    "postal": "K1J6S8",
    "result": [
      {
        "electoralDistricts": [
          {
            "election": null,
            "id": 80,
            "name": "Ottawa—Vanier"
          }
        ],
        "pollDivisionIds": [
          10140739
        ],
        "postalCode": "K1J6S8",
        "streetName": "GREENACRE",
        "streetDirectionId": null,
        "streetTypeId": "CRES",
        "placeName": "GLOUCESTER",
        "streetNameDisplayText": "GREENACRE CRES, GLOUCESTER"
      }
    ]
  },
  {
    "postal": "K1J8H2",
    "result": [
      {
        "electoralDistricts": [
          {
            "election": null,
            "id": 80,
            "name": "Ottawa—Vanier"
          }
        ],
        "pollDivisionIds": [
          10140737
        ],
        "postalCode": "K1J8H2",
        "streetName": "DEERHURST",
        "streetDirectionId": null,
        "streetTypeId": "CRT",
        "placeName": "GLOUCESTER",
        "streetNameDisplayText": "DEERHURST CRT, GLOUCESTER"
      }
    ]
  },
  {
    "postal": "K1J5R8",
    "result": []
  },
  {
    "postal": "K1J5L4",
    "result": []
  },
  {
    "postal": "K1J9E1",
    "result": [
      {
        "electoralDistricts": [
          {
            "election": null,
            "id": 80,
            "name": "Ottawa—Vanier"
          }
        ],
        "pollDivisionIds": [
          10140741
        ],
        "postalCode": "K1J9E1",
        "streetName": "CANOTEK",
        "streetDirectionId": null,
        "streetTypeId": "RD",
        "placeName": "GLOUCESTER",
        "streetNameDisplayText": "CANOTEK RD, GLOUCESTER"
      }
    ]
  },
  {
    "postal": "K1J1C4",
    "result": [
      {
        "electoralDistricts": [
          {
            "election": null,
            "id": 80,
            "name": "Ottawa—Vanier"
          }
        ],
        "pollDivisionIds": [
          10140736
        ],
        "postalCode": "K1J1C4",
        "streetName": "JOBIN",
        "streetDirectionId": null,
        "streetTypeId": "CRES",
        "placeName": "GLOUCESTER",
        "streetNameDisplayText": "JOBIN CRES, GLOUCESTER"
      },
      {
        "electoralDistricts": [
          {
            "election": null,
            "id": 80,
            "name": "Ottawa—Vanier"
          }
        ],
        "pollDivisionIds": [
          10140736
        ],
        "postalCode": "K1J1C4",
        "streetName": "TONILEE",
        "streetDirectionId": null,
        "streetTypeId": "DR",
        "placeName": "GLOUCESTER",
        "streetNameDisplayText": "TONILEE DR, GLOUCESTER"
      }
    ]
  },
  {
    "postal": "K1J8W5",
    "result": [
      {
        "electoralDistricts": [
          {
            "election": null,
            "id": 80,
            "name": "Ottawa—Vanier"
          }
        ],
        "pollDivisionIds": [
          10140736
        ],
        "postalCode": "K1J8W5",
        "streetName": "PALMERSTON",
        "streetDirectionId": null,
        "streetTypeId": "DR",
        "placeName": "GLOUCESTER",
        "streetNameDisplayText": "PALMERSTON DR, GLOUCESTER"
      }
    ]
  },
  {
    "postal": "K1J1Y4",
    "result": []
  },
  {
    "postal": "K1J1C0",
    "result": []
  },
  {
    "postal": "K1J2J2",
    "result": []
  },
  {
    "postal": "K1J2J0",
    "result": []
  },
  {
    "postal": "K1J7A3",
    "result": [
      {
        "electoralDistricts": [
          {
            "election": null,
            "id": 80,
            "name": "Ottawa—Vanier"
          }
        ],
        "pollDivisionIds": [
          10140741
        ],
        "postalCode": "K1J7A3",
        "streetName": "EASTVALE",
        "streetDirectionId": null,
        "streetTypeId": "DR",
        "placeName": "GLOUCESTER",
        "streetNameDisplayText": "EASTVALE DR, GLOUCESTER"
      }
    ]
  },
  {
    "postal": "K1J8M1",
    "result": [
      {
        "electoralDistricts": [
          {
            "election": null,
            "id": 80,
            "name": "Ottawa—Vanier"
          }
        ],
        "pollDivisionIds": [
          10140737
        ],
        "postalCode": "K1J8M1",
        "streetName": "ROTHWELL",
        "streetDirectionId": null,
        "streetTypeId": "DR",
        "placeName": "GLOUCESTER",
        "streetNameDisplayText": "ROTHWELL DR, GLOUCESTER"
      }
    ]
  },
  {
    "postal": "K1J7T9",
    "result": [
      {
        "electoralDistricts": [
          {
            "election": null,
            "id": 80,
            "name": "Ottawa—Vanier"
          }
        ],
        "pollDivisionIds": [
          10140737
        ],
        "postalCode": "K1J7T9",
        "streetName": "CLANCY",
        "streetDirectionId": null,
        "streetTypeId": "ST",
        "placeName": "GLOUCESTER",
        "streetNameDisplayText": "CLANCY ST, GLOUCESTER"
      }
    ]
  },
  {
    "postal": "K1J6C0",
    "result": []
  },
  {
    "postal": "K1J7X1",
    "result": [
      {
        "electoralDistricts": [
          {
            "election": null,
            "id": 80,
            "name": "Ottawa—Vanier"
          }
        ],
        "pollDivisionIds": [
          10140737
        ],
        "postalCode": "K1J7X1",
        "streetName": "GATINEAU VIEW",
        "streetDirectionId": null,
        "streetTypeId": "CRES",
        "placeName": "GLOUCESTER",
        "streetNameDisplayText": "GATINEAU VIEW CRES, GLOUCESTER"
      }
    ]
  },
  {
    "postal": "K1J0G1",
    "result": []
  },
  {
    "postal": "K1J4X2",
    "result": []
  },
  {
    "postal": "K1J0N6",
    "result": []
  },
  {
    "postal": "K1J8E3",
    "result": [
      {
        "electoralDistricts": [
          {
            "election": null,
            "id": 80,
            "name": "Ottawa—Vanier"
          }
        ],
        "pollDivisionIds": [
          10140735
        ],
        "postalCode": "K1J8E3",
        "streetName": "RAINBOW",
        "streetDirectionId": null,
        "streetTypeId": "CRES",
        "placeName": "GLOUCESTER",
        "streetNameDisplayText": "RAINBOW CRES, GLOUCESTER"
      }
    ]
  },
  {
    "postal": "K1J5S8",
    "result": []
  },
  {
    "postal": "K1J0R0",
    "result": []
  },
  {
    "postal": "K1J6J6",
    "result": [
      {
        "electoralDistricts": [
          {
            "election": null,
            "id": 80,
            "name": "Ottawa—Vanier"
          }
        ],
        "pollDivisionIds": [
          10140737
        ],
        "postalCode": "K1J6J6",
        "streetName": "COXFORD",
        "streetDirectionId": null,
        "streetTypeId": "ST",
        "placeName": "GLOUCESTER",
        "streetNameDisplayText": "COXFORD ST, GLOUCESTER"
      }
    ]
  },
  {
    "postal": "K1J4B4",
    "result": []
  },
  {
    "postal": "K1J7E3",
    "result": [
      {
        "electoralDistricts": [
          {
            "election": null,
            "id": 80,
            "name": "Ottawa—Vanier"
          }
        ],
        "pollDivisionIds": [
          10140741
        ],
        "postalCode": "K1J7E3",
        "streetName": "DELONG",
        "streetDirectionId": null,
        "streetTypeId": "DR",
        "placeName": "GLOUCESTER",
        "streetNameDisplayText": "DELONG DR, GLOUCESTER"
      }
    ]
  },
  {
    "postal": "K1J3N6",
    "result": []
  },
  {
    "postal": "K1J3X6",
    "result": []
  },
  {
    "postal": "K1J8L0",
    "result": []
  },
  {
    "postal": "K1J8N1",
    "result": [
      {
        "electoralDistricts": [
          {
            "election": null,
            "id": 80,
            "name": "Ottawa—Vanier"
          }
        ],
        "pollDivisionIds": [
          10140737
        ],
        "postalCode": "K1J8N1",
        "streetName": "LASSITER",
        "streetDirectionId": null,
        "streetTypeId": "TERR",
        "placeName": "GLOUCESTER",
        "streetNameDisplayText": "LASSITER TERR, GLOUCESTER"
      }
    ]
  },
  {
    "postal": "K1J4J0",
    "result": []
  },
  {
    "postal": "K1J0X7",
    "result": []
  },
  {
    "postal": "K1J6S4",
    "result": [
      {
        "electoralDistricts": [
          {
            "election": null,
            "id": 80,
            "name": "Ottawa—Vanier"
          }
        ],
        "pollDivisionIds": [
          10140739
        ],
        "postalCode": "K1J6S4",
        "streetName": "APPLEGROVE",
        "streetDirectionId": null,
        "streetTypeId": "CRT",
        "placeName": "GLOUCESTER",
        "streetNameDisplayText": "APPLEGROVE CRT, GLOUCESTER"
      }
    ]
  },
  {
    "postal": "K1J0Z0",
    "result": []
  },
  {
    "postal": "K1J9X8",
    "result": []
  },
  {
    "postal": "K1J3H3",
    "result": []
  },
  {
    "postal": "K1J7S2",
    "result": [
      {
        "electoralDistricts": [
          {
            "election": null,
            "id": 80,
            "name": "Ottawa—Vanier"
          }
        ],
        "pollDivisionIds": [
          10140734
        ],
        "postalCode": "K1J7S2",
        "streetName": "CUMMINGS",
        "streetDirectionId": null,
        "streetTypeId": "AVE",
        "placeName": "GLOUCESTER",
        "streetNameDisplayText": "CUMMINGS AVE, GLOUCESTER"
      },
      {
        "electoralDistricts": [
          {
            "election": null,
            "id": 80,
            "name": "Ottawa—Vanier"
          }
        ],
        "pollDivisionIds": [
          10140734
        ],
        "postalCode": "K1J7S2",
        "streetName": "CUMMINGS",
        "streetDirectionId": null,
        "streetTypeId": "AVE",
        "placeName": "OTTAWA",
        "streetNameDisplayText": "CUMMINGS AVE, OTTAWA"
      }
    ]
  },
  {
    "postal": "K1J3T3",
    "result": []
  },
  {
    "postal": "K1J9P3",
    "result": []
  },
  {
    "postal": "K1J4H8",
    "result": []
  },
  {
    "postal": "K1J6R1",
    "result": [
      {
        "electoralDistricts": [
          {
            "election": null,
            "id": 80,
            "name": "Ottawa—Vanier"
          }
        ],
        "pollDivisionIds": [
          10140739
        ],
        "postalCode": "K1J6R1",
        "streetName": "MOWAT",
        "streetDirectionId": null,
        "streetTypeId": "ST",
        "placeName": "GLOUCESTER",
        "streetNameDisplayText": "MOWAT ST, GLOUCESTER"
      }
    ]
  },
  {
    "postal": "K1J1S0",
    "result": []
  },
  {
    "postal": "K1J3W8",
    "result": []
  },
  {
    "postal": "K1J4S3",
    "result": []
  },
  {
    "postal": "K1J1B6",
    "result": [
      {
        "electoralDistricts": [
          {
            "election": null,
            "id": 80,
            "name": "Ottawa—Vanier"
          }
        ],
        "pollDivisionIds": [
          10140737
        ],
        "postalCode": "K1J1B6",
        "streetName": "LOCKSLEY",
        "streetDirectionId": null,
        "streetTypeId": "LANE",
        "placeName": "GLOUCESTER",
        "streetNameDisplayText": "LOCKSLEY LANE, GLOUCESTER"
      }
    ]
  },
  {
    "postal": "K1J8R3",
    "result": [
      {
        "electoralDistricts": [
          {
            "election": null,
            "id": 80,
            "name": "Ottawa—Vanier"
          }
        ],
        "pollDivisionIds": [
          10140734
        ],
        "postalCode": "K1J8R3",
        "streetName": "WELDON",
        "streetDirectionId": null,
        "streetTypeId": "DR",
        "placeName": "GLOUCESTER",
        "streetNameDisplayText": "WELDON DR, GLOUCESTER"
      }
    ]
  },
  {
    "postal": "K1J4V9",
    "result": []
  },
  {
    "postal": "K1J9W4",
    "result": []
  },
  {
    "postal": "K1J3T4",
    "result": []
  },
  {
    "postal": "K1J5C7",
    "result": []
  },
  {
    "postal": "K1J3Y1",
    "result": []
  },
  {
    "postal": "K1J5V0",
    "result": []
  },
  {
    "postal": "K1J8G8",
    "result": [
      {
        "electoralDistricts": [
          {
            "election": null,
            "id": 80,
            "name": "Ottawa—Vanier"
          }
        ],
        "pollDivisionIds": [
          10140741
        ],
        "postalCode": "K1J8G8",
        "streetName": "SHEFFORD",
        "streetDirectionId": null,
        "streetTypeId": "RD",
        "placeName": "OTTAWA",
        "streetNameDisplayText": "SHEFFORD RD, OTTAWA"
      }
    ]
  },
  {
    "postal": "K1J8B1",
    "result": [
      {
        "electoralDistricts": [
          {
            "election": null,
            "id": 80,
            "name": "Ottawa—Vanier"
          }
        ],
        "pollDivisionIds": [
          10140735
        ],
        "postalCode": "K1J8B1",
        "streetName": "LOTUS",
        "streetDirectionId": null,
        "streetTypeId": "ST",
        "placeName": "GLOUCESTER",
        "streetNameDisplayText": "LOTUS ST, GLOUCESTER"
      }
    ]
  },
  {
    "postal": "K1J4P5",
    "result": []
  },
  {
    "postal": "K1J7B2",
    "result": [
      {
        "electoralDistricts": [
          {
            "election": null,
            "id": 80,
            "name": "Ottawa—Vanier"
          }
        ],
        "pollDivisionIds": [
          10140742
        ],
        "postalCode": "K1J7B2",
        "streetName": "LAPORTE",
        "streetDirectionId": null,
        "streetTypeId": "ST",
        "placeName": "GLOUCESTER",
        "streetNameDisplayText": "LAPORTE ST, GLOUCESTER"
      },
      {
        "electoralDistricts": [
          {
            "election": null,
            "id": 80,
            "name": "Ottawa—Vanier"
          }
        ],
        "pollDivisionIds": [
          10140742
        ],
        "postalCode": "K1J7B2",
        "streetName": "LAPORTE",
        "streetDirectionId": null,
        "streetTypeId": "ST",
        "placeName": "OTTAWA",
        "streetNameDisplayText": "LAPORTE ST, OTTAWA"
      }
    ]
  },
  {
    "postal": "K1J0R2",
    "result": []
  },
  {
    "postal": "K1J4M4",
    "result": []
  },
  {
    "postal": "K1J7M4",
    "result": [
      {
        "electoralDistricts": [
          {
            "election": null,
            "id": 80,
            "name": "Ottawa—Vanier"
          }
        ],
        "pollDivisionIds": [
          10140737
        ],
        "postalCode": "K1J7M4",
        "streetName": "BLAIR",
        "streetDirectionId": null,
        "streetTypeId": "RD",
        "placeName": "GLOUCESTER",
        "streetNameDisplayText": "BLAIR RD, GLOUCESTER"
      }
    ]
  },
  {
    "postal": "K1J9S7",
    "result": []
  },
  {
    "postal": "K1J5Z7",
    "result": []
  },
  {
    "postal": "K1J7J7",
    "result": [
      {
        "electoralDistricts": [
          {
            "election": null,
            "id": 80,
            "name": "Ottawa—Vanier"
          }
        ],
        "pollDivisionIds": [
          10140737
        ],
        "postalCode": "K1J7J7",
        "streetName": "TAUNTON",
        "streetDirectionId": null,
        "streetTypeId": "PL",
        "placeName": "GLOUCESTER",
        "streetNameDisplayText": "TAUNTON PL, GLOUCESTER"
      }
    ]
  },
  {
    "postal": "K1J8R8",
    "result": []
  },
  {
    "postal": "K1J9X1",
    "result": []
  },
  {
    "postal": "K1J5M9",
    "result": []
  },
  {
    "postal": "K1J9B4",
    "result": [
      {
        "electoralDistricts": [
          {
            "election": null,
            "id": 80,
            "name": "Ottawa—Vanier"
          }
        ],
        "pollDivisionIds": [
          10140742
        ],
        "postalCode": "K1J9B4",
        "streetName": "GREGORY",
        "streetDirectionId": null,
        "streetTypeId": "CRT",
        "placeName": "GLOUCESTER",
        "streetNameDisplayText": "GREGORY CRT, GLOUCESTER"
      }
    ]
  },
  {
    "postal": "K1J0L9",
    "result": []
  },
  {
    "postal": "K1J9G4",
    "result": [
      {
        "electoralDistricts": [
          {
            "election": null,
            "id": 80,
            "name": "Ottawa—Vanier"
          }
        ],
        "pollDivisionIds": [
          10140741
        ],
        "postalCode": "K1J9G4",
        "streetName": "CANOTEK",
        "streetDirectionId": null,
        "streetTypeId": "RD",
        "placeName": "GLOUCESTER",
        "streetNameDisplayText": "CANOTEK RD, GLOUCESTER"
      }
    ]
  },
  {
    "postal": "K1J1J4",
    "result": [
      {
        "electoralDistricts": [
          {
            "election": null,
            "id": 80,
            "name": "Ottawa—Vanier"
          }
        ],
        "pollDivisionIds": [
          10140739
        ],
        "postalCode": "K1J1J4",
        "streetName": "ELWOOD",
        "streetDirectionId": null,
        "streetTypeId": "ST",
        "placeName": "GLOUCESTER",
        "streetNameDisplayText": "ELWOOD ST, GLOUCESTER"
      }
    ]
  },
  {
    "postal": "K1J0W6",
    "result": []
  }
]
