[
  {
    "postal": "M1B9J6",
    "result": []
  },
  {
    "postal": "M1B9Z5",
    "result": []
  },
  {
    "postal": "M1B7H8",
    "result": []
  },
  {
    "postal": "M1B0P6",
    "result": []
  },
  {
    "postal": "M1B0S7",
    "result": []
  },
  {
    "postal": "M1B8B9",
    "result": []
  },
  {
    "postal": "M1B2A6",
    "result": [
      {
        "electoralDistricts": [
          {
            "election": null,
            "id": 97,
            "name": "Scarborough—Rouge Park"
          }
        ],
        "pollDivisionIds": [
          10141740
        ],
        "postalCode": "M1B2A6",
        "streetName": "PARSELL",
        "streetDirectionId": null,
        "streetTypeId": "SQ",
        "placeName": "SCARBOROUGH",
        "streetNameDisplayText": "PARSELL SQ, SCARBOROUGH"
      }
    ]
  },
  {
    "postal": "M1B7V2",
    "result": []
  },
  {
    "postal": "M1B9P4",
    "result": []
  },
  {
    "postal": "M1B6G0",
    "result": []
  },
  {
    "postal": "M1B2K0",
    "result": []
  },
  {
    "postal": "M1B7N6",
    "result": []
  },
  {
    "postal": "M1B5R3",
    "result": [
      {
        "electoralDistricts": [
          {
            "election": null,
            "id": 97,
            "name": "Scarborough—Rouge Park"
          }
        ],
        "pollDivisionIds": [
          10141739
        ],
        "postalCode": "M1B5R3",
        "streetName": "SHEPPARD",
        "streetDirectionId": "E",
        "streetTypeId": "AVE",
        "placeName": "SCARBOROUGH",
        "streetNameDisplayText": "SHEPPARD AVE E, SCARBOROUGH"
      }
    ]
  },
  {
    "postal": "M1B7K0",
    "result": []
  },
  {
    "postal": "M1B3R2",
    "result": []
  },
  {
    "postal": "M1B0J1",
    "result": []
  },
  {
    "postal": "M1B0B0",
    "result": []
  },
  {
    "postal": "M1B5Z2",
    "result": [
      {
        "electoralDistricts": [
          {
            "election": null,
            "id": 96,
            "name": "Scarborough North"
          }
        ],
        "pollDivisionIds": [
          10141715
        ],
        "postalCode": "M1B5Z2",
        "streetName": "ROSEBANK",
        "streetDirectionId": null,
        "streetTypeId": "DR",
        "placeName": "SCARBOROUGH",
        "streetNameDisplayText": "ROSEBANK DR, SCARBOROUGH"
      }
    ]
  },
  {
    "postal": "M1B7P3",
    "result": []
  },
  {
    "postal": "M1B2K3",
    "result": [
      {
        "electoralDistricts": [
          {
            "election": null,
            "id": 96,
            "name": "Scarborough North"
          }
        ],
        "pollDivisionIds": [
          10141707
        ],
        "postalCode": "M1B2K3",
        "streetName": "WINGARDEN",
        "streetDirectionId": null,
        "streetTypeId": "CRT",
        "placeName": "SCARBOROUGH",
        "streetNameDisplayText": "WINGARDEN CRT, SCARBOROUGH"
      }
    ]
  },
  {
    "postal": "M1B7Y6",
    "result": []
  },
  {
    "postal": "M1B1L9",
    "result": [
      {
        "electoralDistricts": [
          {
            "election": null,
            "id": 97,
            "name": "Scarborough—Rouge Park"
          }
        ],
        "pollDivisionIds": [
          10141738
        ],
        "postalCode": "M1B1L9",
        "streetName": "GREYPOINT",
        "streetDirectionId": null,
        "streetTypeId": "DR",
        "placeName": "SCARBOROUGH",
        "streetNameDisplayText": "GREYPOINT DR, SCARBOROUGH"
      }
    ]
  },
  {
    "postal": "M1B8T0",
    "result": []
  },
  {
    "postal": "M1B3K8",
    "result": []
  },
  {
    "postal": "M1B5W9",
    "result": [
      {
        "electoralDistricts": [
          {
            "election": null,
            "id": 97,
            "name": "Scarborough—Rouge Park"
          }
        ],
        "pollDivisionIds": [
          10141741
        ],
        "postalCode": "M1B5W9",
        "streetName": "GRAND MARSHALL",
        "streetDirectionId": null,
        "streetTypeId": "DR",
        "placeName": "SCARBOROUGH",
        "streetNameDisplayText": "GRAND MARSHALL DR, SCARBOROUGH"
      }
    ]
  },
  {
    "postal": "M1B6T9",
    "result": []
  },
  {
    "postal": "M1B4H1",
    "result": [
      {
        "electoralDistricts": [
          {
            "election": null,
            "id": 97,
            "name": "Scarborough—Rouge Park"
          }
        ],
        "pollDivisionIds": [
          10141735
        ],
        "postalCode": "M1B4H1",
        "streetName": "PROSPERITY",
        "streetDirectionId": null,
        "streetTypeId": "PTWAY",
        "placeName": "SCARBOROUGH",
        "streetNameDisplayText": "PROSPERITY PTWAY, SCARBOROUGH"
      }
    ]
  },
  {
    "postal": "M1B7A2",
    "result": []
  },
  {
    "postal": "M1B5G0",
    "result": []
  },
  {
    "postal": "M1B8V5",
    "result": []
  },
  {
    "postal": "M1B2Y8",
    "result": [
      {
        "electoralDistricts": [
          {
            "election": null,
            "id": 96,
            "name": "Scarborough North"
          }
        ],
        "pollDivisionIds": [
          10141707
        ],
        "postalCode": "M1B2Y8",
        "streetName": "TAPSCOTT",
        "streetDirectionId": null,
        "streetTypeId": "RD",
        "placeName": "SCARBOROUGH",
        "streetNameDisplayText": "TAPSCOTT RD, SCARBOROUGH"
      }
    ]
  },
  {
    "postal": "M1B2B6",
    "result": [
      {
        "electoralDistricts": [
          {
            "election": null,
            "id": 97,
            "name": "Scarborough—Rouge Park"
          }
        ],
        "pollDivisionIds": [
          10141740
        ],
        "postalCode": "M1B2B6",
        "streetName": "MURISON",
        "streetDirectionId": null,
        "streetTypeId": "BLVD",
        "placeName": "SCARBOROUGH",
        "streetNameDisplayText": "MURISON BLVD, SCARBOROUGH"
      }
    ]
  },
  {
    "postal": "M1B4W8",
    "result": [
      {
        "electoralDistricts": [
          {
            "election": null,
            "id": 97,
            "name": "Scarborough—Rouge Park"
          }
        ],
        "pollDivisionIds": [
          10141743
        ],
        "postalCode": "M1B4W8",
        "streetName": "DURNESS",
        "streetDirectionId": null,
        "streetTypeId": "AVE",
        "placeName": "SCARBOROUGH",
        "streetNameDisplayText": "DURNESS AVE, SCARBOROUGH"
      }
    ]
  },
  {
    "postal": "M1B8H7",
    "result": []
  },
  {
    "postal": "M1B5P1",
    "result": [
      {
        "electoralDistricts": [
          {
            "election": null,
            "id": 97,
            "name": "Scarborough—Rouge Park"
          }
        ],
        "pollDivisionIds": [
          10141736
        ],
        "postalCode": "M1B5P1",
        "streetName": "MCLEVIN",
        "streetDirectionId": null,
        "streetTypeId": "AVE",
        "placeName": "SCARBOROUGH",
        "streetNameDisplayText": "MCLEVIN AVE, SCARBOROUGH"
      }
    ]
  },
  {
    "postal": "M1B2B8",
    "result": [
      {
        "electoralDistricts": [
          {
            "election": null,
            "id": 97,
            "name": "Scarborough—Rouge Park"
          }
        ],
        "pollDivisionIds": [
          10141740
        ],
        "postalCode": "M1B2B8",
        "streetName": "CURTIS",
        "streetDirectionId": null,
        "streetTypeId": "CRES",
        "placeName": "SCARBOROUGH",
        "streetNameDisplayText": "CURTIS CRES, SCARBOROUGH"
      }
    ]
  },
  {
    "postal": "M1B0P2",
    "result": []
  },
  {
    "postal": "M1B9M1",
    "result": []
  },
  {
    "postal": "M1B3G0",
    "result": []
  },
  {
    "postal": "M1B9Z2",
    "result": []
  },
  {
    "postal": "M1B2A0",
    "result": []
  },
  {
    "postal": "M1B6Y0",
    "result": []
  },
  {
    "postal": "M1B2Z8",
    "result": [
      {
        "electoralDistricts": [
          {
            "election": null,
            "id": 97,
            "name": "Scarborough—Rouge Park"
          }
        ],
        "pollDivisionIds": [
          10141737
        ],
        "postalCode": "M1B2Z8",
        "streetName": "CARONIA",
        "streetDirectionId": null,
        "streetTypeId": "SQ",
        "placeName": "SCARBOROUGH",
        "streetNameDisplayText": "CARONIA SQ, SCARBOROUGH"
      }
    ]
  },
  {
    "postal": "M1B7Y3",
    "result": []
  },
  {
    "postal": "M1B6Z5",
    "result": []
  },
  {
    "postal": "M1B6E0",
    "result": []
  },
  {
    "postal": "M1B9B7",
    "result": []
  },
  {
    "postal": "M1B9S5",
    "result": []
  },
  {
    "postal": "M1B3X3",
    "result": [
      {
        "electoralDistricts": [
          {
            "election": null,
            "id": 97,
            "name": "Scarborough—Rouge Park"
          }
        ],
        "pollDivisionIds": [
          10141740
        ],
        "postalCode": "M1B3X3",
        "streetName": "USHERWOOD",
        "streetDirectionId": null,
        "streetTypeId": "CRT",
        "placeName": "SCARBOROUGH",
        "streetNameDisplayText": "USHERWOOD CRT, SCARBOROUGH"
      }
    ]
  },
  {
    "postal": "M1B7R5",
    "result": []
  },
  {
    "postal": "M1B2X3",
    "result": [
      {
        "electoralDistricts": [
          {
            "election": null,
            "id": 97,
            "name": "Scarborough—Rouge Park"
          }
        ],
        "pollDivisionIds": [
          10141741
        ],
        "postalCode": "M1B2X3",
        "streetName": "DEAN PARK",
        "streetDirectionId": null,
        "streetTypeId": "RD",
        "placeName": "SCARBOROUGH",
        "streetNameDisplayText": "DEAN PARK RD, SCARBOROUGH"
      }
    ]
  },
  {
    "postal": "M1B8Z9",
    "result": []
  },
  {
    "postal": "M1B0N4",
    "result": []
  },
  {
    "postal": "M1B1K1",
    "result": [
      {
        "electoralDistricts": [
          {
            "election": null,
            "id": 96,
            "name": "Scarborough North"
          }
        ],
        "pollDivisionIds": [
          10141715
        ],
        "postalCode": "M1B1K1",
        "streetName": "LAPSLEY",
        "streetDirectionId": null,
        "streetTypeId": "RD",
        "placeName": "SCARBOROUGH",
        "streetNameDisplayText": "LAPSLEY RD, SCARBOROUGH"
      }
    ]
  },
  {
    "postal": "M1B1S3",
    "result": [
      {
        "electoralDistricts": [
          {
            "election": null,
            "id": 96,
            "name": "Scarborough North"
          }
        ],
        "pollDivisionIds": [
          10141712
        ],
        "postalCode": "M1B1S3",
        "streetName": "O'HENRY",
        "streetDirectionId": null,
        "streetTypeId": "GROVE",
        "placeName": "SCARBOROUGH",
        "streetNameDisplayText": "O'HENRY GROVE, SCARBOROUGH"
      }
    ]
  },
  {
    "postal": "M1B6M4",
    "result": []
  },
  {
    "postal": "M1B9A9",
    "result": []
  },
  {
    "postal": "M1B9Z9",
    "result": []
  },
  {
    "postal": "M1B6T4",
    "result": []
  },
  {
    "postal": "M1B0B2",
    "result": []
  },
  {
    "postal": "M1B2L9",
    "result": [
      {
        "electoralDistricts": [
          {
            "election": null,
            "id": 97,
            "name": "Scarborough—Rouge Park"
          }
        ],
        "pollDivisionIds": [
          10141741
        ],
        "postalCode": "M1B2L9",
        "streetName": "KENSCOTT",
        "streetDirectionId": null,
        "streetTypeId": "RD",
        "placeName": "SCARBOROUGH",
        "streetNameDisplayText": "KENSCOTT RD, SCARBOROUGH"
      }
    ]
  },
  {
    "postal": "M1B8K9",
    "result": []
  },
  {
    "postal": "M1B2H9",
    "result": [
      {
        "electoralDistricts": [
          {
            "election": null,
            "id": 97,
            "name": "Scarborough—Rouge Park"
          }
        ],
        "pollDivisionIds": [
          10141742
        ],
        "postalCode": "M1B2H9",
        "streetName": "GENERATION",
        "streetDirectionId": null,
        "streetTypeId": "BLVD",
        "placeName": "SCARBOROUGH",
        "streetNameDisplayText": "GENERATION BLVD, SCARBOROUGH"
      },
      {
        "electoralDistricts": [
          {
            "election": null,
            "id": 97,
            "name": "Scarborough—Rouge Park"
          }
        ],
        "pollDivisionIds": [
          10141742
        ],
        "postalCode": "M1B2H9",
        "streetName": "RAINBOW RIDGE",
        "streetDirectionId": null,
        "streetTypeId": "AVE",
        "placeName": "SCARBOROUGH",
        "streetNameDisplayText": "RAINBOW RIDGE AVE, SCARBOROUGH"
      }
    ]
  },
  {
    "postal": "M1B3Z6",
    "result": [
      {
        "electoralDistricts": [
          {
            "election": null,
            "id": 97,
            "name": "Scarborough—Rouge Park"
          }
        ],
        "pollDivisionIds": [
          10141737
        ],
        "postalCode": "M1B3Z6",
        "streetName": "EMPRINGHAM",
        "streetDirectionId": null,
        "streetTypeId": "DR",
        "placeName": "SCARBOROUGH",
        "streetNameDisplayText": "EMPRINGHAM DR, SCARBOROUGH"
      }
    ]
  },
  {
    "postal": "M1B3B0",
    "result": []
  },
  {
    "postal": "M1B2H8",
    "result": [
      {
        "electoralDistricts": [
          {
            "election": null,
            "id": 97,
            "name": "Scarborough—Rouge Park"
          }
        ],
        "pollDivisionIds": [
          10141742
        ],
        "postalCode": "M1B2H8",
        "streetName": "RAINBOW RIDGE",
        "streetDirectionId": null,
        "streetTypeId": "AVE",
        "placeName": "SCARBOROUGH",
        "streetNameDisplayText": "RAINBOW RIDGE AVE, SCARBOROUGH"
      }
    ]
  },
  {
    "postal": "M1B3X2",
    "result": [
      {
        "electoralDistricts": [
          {
            "election": null,
            "id": 97,
            "name": "Scarborough—Rouge Park"
          }
        ],
        "pollDivisionIds": [
          10141740
        ],
        "postalCode": "M1B3X2",
        "streetName": "USHERWOOD",
        "streetDirectionId": null,
        "streetTypeId": "CRT",
        "placeName": "SCARBOROUGH",
        "streetNameDisplayText": "USHERWOOD CRT, SCARBOROUGH"
      }
    ]
  },
  {
    "postal": "M1B2E9",
    "result": [
      {
        "electoralDistricts": [
          {
            "election": null,
            "id": 97,
            "name": "Scarborough—Rouge Park"
          }
        ],
        "pollDivisionIds": [
          10141741
        ],
        "postalCode": "M1B2E9",
        "streetName": "FIRESIDE",
        "streetDirectionId": null,
        "streetTypeId": "DR",
        "placeName": "SCARBOROUGH",
        "streetNameDisplayText": "FIRESIDE DR, SCARBOROUGH"
      }
    ]
  },
  {
    "postal": "M1B9P6",
    "result": []
  },
  {
    "postal": "M1B9E2",
    "result": []
  },
  {
    "postal": "M1B9H2",
    "result": []
  },
  {
    "postal": "M1B1S8",
    "result": [
      {
        "electoralDistricts": [
          {
            "election": null,
            "id": 96,
            "name": "Scarborough North"
          }
        ],
        "pollDivisionIds": [
          10141715
        ],
        "postalCode": "M1B1S8",
        "streetName": "MALVERN",
        "streetDirectionId": null,
        "streetTypeId": "ST",
        "placeName": "SCARBOROUGH",
        "streetNameDisplayText": "MALVERN ST, SCARBOROUGH"
      }
    ]
  },
  {
    "postal": "M1B3M6",
    "result": [
      {
        "electoralDistricts": [
          {
            "election": null,
            "id": 96,
            "name": "Scarborough North"
          }
        ],
        "pollDivisionIds": [
          10141715
        ],
        "postalCode": "M1B3M6",
        "streetName": "MILNER BUSINESS",
        "streetDirectionId": null,
        "streetTypeId": "CRT",
        "placeName": "SCARBOROUGH",
        "streetNameDisplayText": "MILNER BUSINESS CRT, SCARBOROUGH"
      }
    ]
  },
  {
    "postal": "M1B6Z8",
    "result": []
  },
  {
    "postal": "M1B4J2",
    "result": [
      {
        "electoralDistricts": [
          {
            "election": null,
            "id": 97,
            "name": "Scarborough—Rouge Park"
          }
        ],
        "pollDivisionIds": [
          10141735
        ],
        "postalCode": "M1B4J2",
        "streetName": "PARSONAGE",
        "streetDirectionId": null,
        "streetTypeId": "DR",
        "placeName": "SCARBOROUGH",
        "streetNameDisplayText": "PARSONAGE DR, SCARBOROUGH"
      }
    ]
  },
  {
    "postal": "M1B9Y1",
    "result": []
  },
  {
    "postal": "M1B8V6",
    "result": []
  },
  {
    "postal": "M1B6B2",
    "result": [
      {
        "electoralDistricts": [
          {
            "election": null,
            "id": 97,
            "name": "Scarborough—Rouge Park"
          }
        ],
        "pollDivisionIds": [
          10141735
        ],
        "postalCode": "M1B6B2",
        "streetName": "BLACKBIRD",
        "streetDirectionId": null,
        "streetTypeId": "GATE",
        "placeName": "SCARBOROUGH",
        "streetNameDisplayText": "BLACKBIRD GATE, SCARBOROUGH"
      },
      {
        "electoralDistricts": [
          {
            "election": null,
            "id": 97,
            "name": "Scarborough—Rouge Park"
          }
        ],
        "pollDivisionIds": [
          10141735
        ],
        "postalCode": "M1B6B2",
        "streetName": "RED HAWK",
        "streetDirectionId": null,
        "streetTypeId": "RD",
        "placeName": "SCARBOROUGH",
        "streetNameDisplayText": "RED HAWK RD, SCARBOROUGH"
      }
    ]
  },
  {
    "postal": "M1B1P8",
    "result": [
      {
        "electoralDistricts": [
          {
            "election": null,
            "id": 96,
            "name": "Scarborough North"
          }
        ],
        "pollDivisionIds": [
          10141712
        ],
        "postalCode": "M1B1P8",
        "streetName": "MAMMOTH HALL",
        "streetDirectionId": null,
        "streetTypeId": "TRAIL",
        "placeName": "SCARBOROUGH",
        "streetNameDisplayText": "MAMMOTH HALL TRAIL, SCARBOROUGH"
      }
    ]
  },
  {
    "postal": "M1B0V8",
    "result": []
  },
  {
    "postal": "M1B4Y0",
    "result": []
  },
  {
    "postal": "M1B2T4",
    "result": [
      {
        "electoralDistricts": [
          {
            "election": null,
            "id": 97,
            "name": "Scarborough—Rouge Park"
          }
        ],
        "pollDivisionIds": [
          10141737
        ],
        "postalCode": "M1B2T4",
        "streetName": "HIGGINS",
        "streetDirectionId": null,
        "streetTypeId": "PL",
        "placeName": "SCARBOROUGH",
        "streetNameDisplayText": "HIGGINS PL, SCARBOROUGH"
      }
    ]
  },
  {
    "postal": "M1B2S3",
    "result": [
      {
        "electoralDistricts": [
          {
            "election": null,
            "id": 97,
            "name": "Scarborough—Rouge Park"
          }
        ],
        "pollDivisionIds": [
          10141737
        ],
        "postalCode": "M1B2S3",
        "streetName": "FOREGATE",
        "streetDirectionId": null,
        "streetTypeId": "AVE",
        "placeName": "SCARBOROUGH",
        "streetNameDisplayText": "FOREGATE AVE, SCARBOROUGH"
      }
    ]
  },
  {
    "postal": "M1B0K0",
    "result": []
  },
  {
    "postal": "M1B5N1",
    "result": [
      {
        "electoralDistricts": [
          {
            "election": null,
            "id": 96,
            "name": "Scarborough North"
          }
        ],
        "pollDivisionIds": [
          10141715
        ],
        "postalCode": "M1B5N1",
        "streetName": "MILNER",
        "streetDirectionId": null,
        "streetTypeId": "AVE",
        "placeName": "SCARBOROUGH",
        "streetNameDisplayText": "MILNER AVE, SCARBOROUGH"
      }
    ]
  },
  {
    "postal": "M1B7T0",
    "result": []
  },
  {
    "postal": "M1B9N2",
    "result": []
  },
  {
    "postal": "M1B5L1",
    "result": []
  },
  {
    "postal": "M1B7G5",
    "result": []
  },
  {
    "postal": "M1B6K2",
    "result": [
      {
        "electoralDistricts": [
          {
            "election": null,
            "id": 96,
            "name": "Scarborough North"
          }
        ],
        "pollDivisionIds": [
          10141707
        ],
        "postalCode": "M1B6K2",
        "streetName": "PINERY",
        "streetDirectionId": null,
        "streetTypeId": "TRAIL",
        "placeName": "SCARBOROUGH",
        "streetNameDisplayText": "PINERY TRAIL, SCARBOROUGH"
      }
    ]
  },
  {
    "postal": "M1B6P9",
    "result": []
  },
  {
    "postal": "M1B0E6",
    "result": []
  },
  {
    "postal": "M1B8R9",
    "result": []
  },
  {
    "postal": "M1B3G9",
    "result": [
      {
        "electoralDistricts": [
          {
            "election": null,
            "id": 97,
            "name": "Scarborough—Rouge Park"
          }
        ],
        "pollDivisionIds": [
          10141760
        ],
        "postalCode": "M1B3G9",
        "streetName": "DEAN PARK",
        "streetDirectionId": null,
        "streetTypeId": "RD",
        "placeName": "SCARBOROUGH",
        "streetNameDisplayText": "DEAN PARK RD, SCARBOROUGH"
      }
    ]
  },
  {
    "postal": "M1B0V7",
    "result": []
  },
  {
    "postal": "M1B2Z1",
    "result": [
      {
        "electoralDistricts": [
          {
            "election": null,
            "id": 97,
            "name": "Scarborough—Rouge Park"
          }
        ],
        "pollDivisionIds": [
          10141737
        ],
        "postalCode": "M1B2Z1",
        "streetName": "NABOB",
        "streetDirectionId": null,
        "streetTypeId": "CRES",
        "placeName": "SCARBOROUGH",
        "streetNameDisplayText": "NABOB CRES, SCARBOROUGH"
      }
    ]
  },
  {
    "postal": "M1B7N1",
    "result": []
  },
  {
    "postal": "M1B3C6",
    "result": [
      {
        "electoralDistricts": [
          {
            "election": null,
            "id": 96,
            "name": "Scarborough North"
          }
        ],
        "pollDivisionIds": [
          10141715
        ],
        "postalCode": "M1B3C6",
        "streetName": "MILNER BUSINESS",
        "streetDirectionId": null,
        "streetTypeId": "CRT",
        "placeName": "SCARBOROUGH",
        "streetNameDisplayText": "MILNER BUSINESS CRT, SCARBOROUGH"
      }
    ]
  },
  {
    "postal": "M1B4M1",
    "result": [
      {
        "electoralDistricts": [
          {
            "election": null,
            "id": 97,
            "name": "Scarborough—Rouge Park"
          }
        ],
        "pollDivisionIds": [
          10141735
        ],
        "postalCode": "M1B4M1",
        "streetName": "CARISBROOKE",
        "streetDirectionId": null,
        "streetTypeId": "SQ",
        "placeName": "SCARBOROUGH",
        "streetNameDisplayText": "CARISBROOKE SQ, SCARBOROUGH"
      }
    ]
  },
  {
    "postal": "M1B9K2",
    "result": []
  },
  {
    "postal": "M1B9S6",
    "result": []
  },
  {
    "postal": "M1B4X1",
    "result": [
      {
        "electoralDistricts": [
          {
            "election": null,
            "id": 97,
            "name": "Scarborough—Rouge Park"
          }
        ],
        "pollDivisionIds": [
          10141743
        ],
        "postalCode": "M1B4X1",
        "streetName": "CARLISLE",
        "streetDirectionId": null,
        "streetTypeId": "CRES",
        "placeName": "SCARBOROUGH",
        "streetNameDisplayText": "CARLISLE CRES, SCARBOROUGH"
      }
    ]
  },
  {
    "postal": "M1B8W2",
    "result": []
  },
  {
    "postal": "M1B7N2",
    "result": []
  },
  {
    "postal": "M1B8S3",
    "result": []
  },
  {
    "postal": "M1B4V0",
    "result": []
  },
  {
    "postal": "M1B6W4",
    "result": []
  },
  {
    "postal": "M1B5M1",
    "result": [
      {
        "electoralDistricts": [
          {
            "election": null,
            "id": 97,
            "name": "Scarborough—Rouge Park"
          }
        ],
        "pollDivisionIds": [
          10141734
        ],
        "postalCode": "M1B5M1",
        "streetName": "MORNINGVIEW",
        "streetDirectionId": null,
        "streetTypeId": "TRAIL",
        "placeName": "SCARBOROUGH",
        "streetNameDisplayText": "MORNINGVIEW TRAIL, SCARBOROUGH"
      },
      {
        "electoralDistricts": [
          {
            "election": null,
            "id": 97,
            "name": "Scarborough—Rouge Park"
          }
        ],
        "pollDivisionIds": [
          10141734
        ],
        "postalCode": "M1B5M1",
        "streetName": "OLD FINCH",
        "streetDirectionId": null,
        "streetTypeId": "AVE",
        "placeName": "SCARBOROUGH",
        "streetNameDisplayText": "OLD FINCH AVE, SCARBOROUGH"
      }
    ]
  },
  {
    "postal": "M1B0S4",
    "result": []
  },
  {
    "postal": "M1B5X6",
    "result": []
  },
  {
    "postal": "M1B8L5",
    "result": []
  },
  {
    "postal": "M1B5M8",
    "result": []
  },
  {
    "postal": "M1B2G3",
    "result": []
  },
  {
    "postal": "M1B8E4",
    "result": []
  },
  {
    "postal": "M1B7S9",
    "result": []
  },
  {
    "postal": "M1B1K3",
    "result": [
      {
        "electoralDistricts": [
          {
            "election": null,
            "id": 96,
            "name": "Scarborough North"
          }
        ],
        "pollDivisionIds": [
          10141712
        ],
        "postalCode": "M1B1K3",
        "streetName": "WIGGENS",
        "streetDirectionId": null,
        "streetTypeId": "CRT",
        "placeName": "SCARBOROUGH",
        "streetNameDisplayText": "WIGGENS CRT, SCARBOROUGH"
      }
    ]
  },
  {
    "postal": "M1B4E1",
    "result": [
      {
        "electoralDistricts": [
          {
            "election": null,
            "id": 97,
            "name": "Scarborough—Rouge Park"
          }
        ],
        "pollDivisionIds": [
          10141737
        ],
        "postalCode": "M1B4E1",
        "streetName": "ALFORD",
        "streetDirectionId": null,
        "streetTypeId": "CRES",
        "placeName": "SCARBOROUGH",
        "streetNameDisplayText": "ALFORD CRES, SCARBOROUGH"
      }
    ]
  },
  {
    "postal": "M1B4R2",
    "result": [
      {
        "electoralDistricts": [
          {
            "election": null,
            "id": 97,
            "name": "Scarborough—Rouge Park"
          }
        ],
        "pollDivisionIds": [
          10141735
        ],
        "postalCode": "M1B4R2",
        "streetName": "LADY BOWER",
        "streetDirectionId": null,
        "streetTypeId": "CRES",
        "placeName": "SCARBOROUGH",
        "streetNameDisplayText": "LADY BOWER CRES, SCARBOROUGH"
      }
    ]
  },
  {
    "postal": "M1B6T0",
    "result": []
  },
  {
    "postal": "M1B3K5",
    "result": []
  },
  {
    "postal": "M1B3S3",
    "result": [
      {
        "electoralDistricts": [
          {
            "election": null,
            "id": 97,
            "name": "Scarborough—Rouge Park"
          }
        ],
        "pollDivisionIds": [
          10141737
        ],
        "postalCode": "M1B3S3",
        "streetName": "PIONEER",
        "streetDirectionId": null,
        "streetTypeId": "PTWAY",
        "placeName": "SCARBOROUGH",
        "streetNameDisplayText": "PIONEER PTWAY, SCARBOROUGH"
      }
    ]
  },
  {
    "postal": "M1B3L4",
    "result": []
  },
  {
    "postal": "M1B9Y2",
    "result": []
  },
  {
    "postal": "M1B1E0",
    "result": []
  },
  {
    "postal": "M1B9A4",
    "result": []
  },
  {
    "postal": "M1B1L3",
    "result": [
      {
        "electoralDistricts": [
          {
            "election": null,
            "id": 97,
            "name": "Scarborough—Rouge Park"
          }
        ],
        "pollDivisionIds": [
          10141740
        ],
        "postalCode": "M1B1L3",
        "streetName": "GEMSHAW",
        "streetDirectionId": null,
        "streetTypeId": "CRES",
        "placeName": "SCARBOROUGH",
        "streetNameDisplayText": "GEMSHAW CRES, SCARBOROUGH"
      }
    ]
  },
  {
    "postal": "M1B6N1",
    "result": []
  },
  {
    "postal": "M1B6G7",
    "result": [
      {
        "electoralDistricts": [
          {
            "election": null,
            "id": 97,
            "name": "Scarborough—Rouge Park"
          }
        ],
        "pollDivisionIds": [
          10141739
        ],
        "postalCode": "M1B6G7",
        "streetName": "MILLCAR",
        "streetDirectionId": null,
        "streetTypeId": "DR",
        "placeName": "SCARBOROUGH",
        "streetNameDisplayText": "MILLCAR DR, SCARBOROUGH"
      },
      {
        "electoralDistricts": [
          {
            "election": null,
            "id": 97,
            "name": "Scarborough—Rouge Park"
          }
        ],
        "pollDivisionIds": [
          10141739
        ],
        "postalCode": "M1B6G7",
        "streetName": "ROUGE RIVER",
        "streetDirectionId": null,
        "streetTypeId": "DR",
        "placeName": "SCARBOROUGH",
        "streetNameDisplayText": "ROUGE RIVER DR, SCARBOROUGH"
      },
      {
        "electoralDistricts": [
          {
            "election": null,
            "id": 97,
            "name": "Scarborough—Rouge Park"
          }
        ],
        "pollDivisionIds": [
          10141739
        ],
        "postalCode": "M1B6G7",
        "streetName": "TRUMPETER",
        "streetDirectionId": null,
        "streetTypeId": "ST",
        "placeName": "SCARBOROUGH",
        "streetNameDisplayText": "TRUMPETER ST, SCARBOROUGH"
      }
    ]
  },
  {
    "postal": "M1B7W1",
    "result": []
  },
  {
    "postal": "M1B4M6",
    "result": [
      {
        "electoralDistricts": [
          {
            "election": null,
            "id": 97,
            "name": "Scarborough—Rouge Park"
          }
        ],
        "pollDivisionIds": [
          10141735
        ],
        "postalCode": "M1B4M6",
        "streetName": "CARISBROOKE",
        "streetDirectionId": null,
        "streetTypeId": "SQ",
        "placeName": "SCARBOROUGH",
        "streetNameDisplayText": "CARISBROOKE SQ, SCARBOROUGH"
      }
    ]
  },
  {
    "postal": "M1B1K0",
    "result": []
  },
  {
    "postal": "M1B3E2",
    "result": [
      {
        "electoralDistricts": [
          {
            "election": null,
            "id": 97,
            "name": "Scarborough—Rouge Park"
          }
        ],
        "pollDivisionIds": [
          10141737
        ],
        "postalCode": "M1B3E2",
        "streetName": "WARWICK CASTLE",
        "streetDirectionId": null,
        "streetTypeId": "CRT",
        "placeName": "SCARBOROUGH",
        "streetNameDisplayText": "WARWICK CASTLE CRT, SCARBOROUGH"
      }
    ]
  },
  {
    "postal": "M1B5H4",
    "result": [
      {
        "electoralDistricts": [
          {
            "election": null,
            "id": 97,
            "name": "Scarborough—Rouge Park"
          }
        ],
        "pollDivisionIds": [
          10141734
        ],
        "postalCode": "M1B5H4",
        "streetName": "DARBY",
        "streetDirectionId": null,
        "streetTypeId": "CRT",
        "placeName": "SCARBOROUGH",
        "streetNameDisplayText": "DARBY CRT, SCARBOROUGH"
      }
    ]
  },
  {
    "postal": "M1B1K7",
    "result": [
      {
        "electoralDistricts": [
          {
            "election": null,
            "id": 97,
            "name": "Scarborough—Rouge Park"
          }
        ],
        "pollDivisionIds": [
          10141740
        ],
        "postalCode": "M1B1K7",
        "streetName": "WICKSON",
        "streetDirectionId": null,
        "streetTypeId": "TRAIL",
        "placeName": "SCARBOROUGH",
        "streetNameDisplayText": "WICKSON TRAIL, SCARBOROUGH"
      }
    ]
  },
  {
    "postal": "M1B0H0",
    "result": []
  },
  {
    "postal": "M1B0J3",
    "result": []
  },
  {
    "postal": "M1B1X6",
    "result": [
      {
        "electoralDistricts": [
          {
            "election": null,
            "id": 96,
            "name": "Scarborough North"
          }
        ],
        "pollDivisionIds": [
          10141707
        ],
        "postalCode": "M1B1X6",
        "streetName": "CROW",
        "streetDirectionId": null,
        "streetTypeId": "TRAIL",
        "placeName": "SCARBOROUGH",
        "streetNameDisplayText": "CROW TRAIL, SCARBOROUGH"
      }
    ]
  },
  {
    "postal": "M1B2Z6",
    "result": [
      {
        "electoralDistricts": [
          {
            "election": null,
            "id": 97,
            "name": "Scarborough—Rouge Park"
          }
        ],
        "pollDivisionIds": [
          10141737
        ],
        "postalCode": "M1B2Z6",
        "streetName": "CHAD",
        "streetDirectionId": null,
        "streetTypeId": "CRES",
        "placeName": "SCARBOROUGH",
        "streetNameDisplayText": "CHAD CRES, SCARBOROUGH"
      }
    ]
  },
  {
    "postal": "M1B4R9",
    "result": [
      {
        "electoralDistricts": [
          {
            "election": null,
            "id": 97,
            "name": "Scarborough—Rouge Park"
          }
        ],
        "pollDivisionIds": [
          10141735
        ],
        "postalCode": "M1B4R9",
        "streetName": "GLANVIL",
        "streetDirectionId": null,
        "streetTypeId": "CRES",
        "placeName": "SCARBOROUGH",
        "streetNameDisplayText": "GLANVIL CRES, SCARBOROUGH"
      }
    ]
  },
  {
    "postal": "M1B0W8",
    "result": []
  },
  {
    "postal": "M1B1L4",
    "result": [
      {
        "electoralDistricts": [
          {
            "election": null,
            "id": 97,
            "name": "Scarborough—Rouge Park"
          }
        ],
        "pollDivisionIds": [
          10141740
        ],
        "postalCode": "M1B1L4",
        "streetName": "GEMSHAW",
        "streetDirectionId": null,
        "streetTypeId": "CRES",
        "placeName": "SCARBOROUGH",
        "streetNameDisplayText": "GEMSHAW CRES, SCARBOROUGH"
      }
    ]
  },
  {
    "postal": "M1B0C8",
    "result": [
      {
        "electoralDistricts": [
          {
            "election": null,
            "id": 96,
            "name": "Scarborough North"
          }
        ],
        "pollDivisionIds": [
          10141715
        ],
        "postalCode": "M1B0C8",
        "streetName": "SHEPPARD",
        "streetDirectionId": "E",
        "streetTypeId": "AVE",
        "placeName": "SCARBOROUGH",
        "streetNameDisplayText": "SHEPPARD AVE E, SCARBOROUGH"
      }
    ]
  },
  {
    "postal": "M1B9X7",
    "result": []
  },
  {
    "postal": "M1B4T1",
    "result": [
      {
        "electoralDistricts": [
          {
            "election": null,
            "id": 97,
            "name": "Scarborough—Rouge Park"
          }
        ],
        "pollDivisionIds": [
          10141743
        ],
        "postalCode": "M1B4T1",
        "streetName": "NATURE",
        "streetDirectionId": null,
        "streetTypeId": "PTWAY",
        "placeName": "SCARBOROUGH",
        "streetNameDisplayText": "NATURE PTWAY, SCARBOROUGH"
      }
    ]
  },
  {
    "postal": "M1B0M0",
    "result": []
  },
  {
    "postal": "M1B6A2",
    "result": [
      {
        "electoralDistricts": [
          {
            "election": null,
            "id": 96,
            "name": "Scarborough North"
          }
        ],
        "pollDivisionIds": [
          10141712
        ],
        "postalCode": "M1B6A2",
        "streetName": "MCLEVIN",
        "streetDirectionId": null,
        "streetTypeId": "AVE",
        "placeName": "SCARBOROUGH",
        "streetNameDisplayText": "MCLEVIN AVE, SCARBOROUGH"
      }
    ]
  },
  {
    "postal": "M1B9S8",
    "result": []
  },
  {
    "postal": "M1B9T4",
    "result": []
  },
  {
    "postal": "M1B9Y4",
    "result": []
  },
  {
    "postal": "M1B6G5",
    "result": [
      {
        "electoralDistricts": [
          {
            "election": null,
            "id": 97,
            "name": "Scarborough—Rouge Park"
          }
        ],
        "pollDivisionIds": [
          10141739
        ],
        "postalCode": "M1B6G5",
        "streetName": "BOBCAT",
        "streetDirectionId": null,
        "streetTypeId": "TERR",
        "placeName": "SCARBOROUGH",
        "streetNameDisplayText": "BOBCAT TERR, SCARBOROUGH"
      },
      {
        "electoralDistricts": [
          {
            "election": null,
            "id": 97,
            "name": "Scarborough—Rouge Park"
          }
        ],
        "pollDivisionIds": [
          10141739
        ],
        "postalCode": "M1B6G5",
        "streetName": "PANDA",
        "streetDirectionId": null,
        "streetTypeId": "SQ",
        "placeName": "SCARBOROUGH",
        "streetNameDisplayText": "PANDA SQ, SCARBOROUGH"
      },
      {
        "electoralDistricts": [
          {
            "election": null,
            "id": 97,
            "name": "Scarborough—Rouge Park"
          }
        ],
        "pollDivisionIds": [
          10141739
        ],
        "postalCode": "M1B6G5",
        "streetName": "TRUMPETER",
        "streetDirectionId": null,
        "streetTypeId": "ST",
        "placeName": "SCARBOROUGH",
        "streetNameDisplayText": "TRUMPETER ST, SCARBOROUGH"
      }
    ]
  },
  {
    "postal": "M1B6H9",
    "result": [
      {
        "electoralDistricts": [
          {
            "election": null,
            "id": 96,
            "name": "Scarborough North"
          }
        ],
        "pollDivisionIds": [
          10141707
        ],
        "postalCode": "M1B6H9",
        "streetName": "PINERY",
        "streetDirectionId": null,
        "streetTypeId": "TRAIL",
        "placeName": "SCARBOROUGH",
        "streetNameDisplayText": "PINERY TRAIL, SCARBOROUGH"
      },
      {
        "electoralDistricts": [
          {
            "election": null,
            "id": 96,
            "name": "Scarborough North"
          }
        ],
        "pollDivisionIds": [
          10141707
        ],
        "postalCode": "M1B6H9",
        "streetName": "PINERY",
        "streetDirectionId": null,
        "streetTypeId": "TRAIL",
        "placeName": "TORONTO",
        "streetNameDisplayText": "PINERY TRAIL, TORONTO"
      }
    ]
  },
  {
    "postal": "M1B2P3",
    "result": []
  },
  {
    "postal": "M1B1T6",
    "result": [
      {
        "electoralDistricts": [
          {
            "election": null,
            "id": 96,
            "name": "Scarborough North"
          }
        ],
        "pollDivisionIds": [
          10141707
        ],
        "postalCode": "M1B1T6",
        "streetName": "DUNSFOLD",
        "streetDirectionId": null,
        "streetTypeId": "DR",
        "placeName": "SCARBOROUGH",
        "streetNameDisplayText": "DUNSFOLD DR, SCARBOROUGH"
      }
    ]
  },
  {
    "postal": "M1B4P6",
    "result": [
      {
        "electoralDistricts": [
          {
            "election": null,
            "id": 97,
            "name": "Scarborough—Rouge Park"
          }
        ],
        "pollDivisionIds": [
          10141735
        ],
        "postalCode": "M1B4P6",
        "streetName": "OVERLORD",
        "streetDirectionId": null,
        "streetTypeId": "CRES",
        "placeName": "SCARBOROUGH",
        "streetNameDisplayText": "OVERLORD CRES, SCARBOROUGH"
      }
    ]
  },
  {
    "postal": "M1B3K1",
    "result": []
  },
  {
    "postal": "M1B6X4",
    "result": []
  },
  {
    "postal": "M1B4M8",
    "result": [
      {
        "electoralDistricts": [
          {
            "election": null,
            "id": 97,
            "name": "Scarborough—Rouge Park"
          }
        ],
        "pollDivisionIds": [
          10141735
        ],
        "postalCode": "M1B4M8",
        "streetName": "COURTLANDS",
        "streetDirectionId": null,
        "streetTypeId": "DR",
        "placeName": "SCARBOROUGH",
        "streetNameDisplayText": "COURTLANDS DR, SCARBOROUGH"
      }
    ]
  },
  {
    "postal": "M1B2Y1",
    "result": [
      {
        "electoralDistricts": [
          {
            "election": null,
            "id": 96,
            "name": "Scarborough North"
          }
        ],
        "pollDivisionIds": [
          10141715
        ],
        "postalCode": "M1B2Y1",
        "streetName": "ORMEROD",
        "streetDirectionId": null,
        "streetTypeId": "ST",
        "placeName": "SCARBOROUGH",
        "streetNameDisplayText": "ORMEROD ST, SCARBOROUGH"
      }
    ]
  },
  {
    "postal": "M1B6M1",
    "result": []
  },
  {
    "postal": "M1B5L8",
    "result": [
      {
        "electoralDistricts": [
          {
            "election": null,
            "id": 97,
            "name": "Scarborough—Rouge Park"
          }
        ],
        "pollDivisionIds": [
          10141734
        ],
        "postalCode": "M1B5L8",
        "streetName": "MORNINGVIEW",
        "streetDirectionId": null,
        "streetTypeId": "TRAIL",
        "placeName": "SCARBOROUGH",
        "streetNameDisplayText": "MORNINGVIEW TRAIL, SCARBOROUGH"
      },
      {
        "electoralDistricts": [
          {
            "election": null,
            "id": 97,
            "name": "Scarborough—Rouge Park"
          }
        ],
        "pollDivisionIds": [
          10141734
        ],
        "postalCode": "M1B5L8",
        "streetName": "SEWELLS",
        "streetDirectionId": null,
        "streetTypeId": "RD",
        "placeName": "SCARBOROUGH",
        "streetNameDisplayText": "SEWELLS RD, SCARBOROUGH"
      },
      {
        "electoralDistricts": [
          {
            "election": null,
            "id": 97,
            "name": "Scarborough—Rouge Park"
          }
        ],
        "pollDivisionIds": [
          10141734
        ],
        "postalCode": "M1B5L8",
        "streetName": "WHITEWAY",
        "streetDirectionId": null,
        "streetTypeId": "CRT",
        "placeName": "SCARBOROUGH",
        "streetNameDisplayText": "WHITEWAY CRT, SCARBOROUGH"
      }
    ]
  },
  {
    "postal": "M1B3P6",
    "result": []
  },
  {
    "postal": "M1B9A5",
    "result": []
  },
  {
    "postal": "M1B7K1",
    "result": []
  },
  {
    "postal": "M1B3J4",
    "result": [
      {
        "electoralDistricts": [
          {
            "election": null,
            "id": 97,
            "name": "Scarborough—Rouge Park"
          }
        ],
        "pollDivisionIds": [
          10141739
        ],
        "postalCode": "M1B3J4",
        "streetName": "THORNMOUNT",
        "streetDirectionId": null,
        "streetTypeId": "DR",
        "placeName": "SCARBOROUGH",
        "streetNameDisplayText": "THORNMOUNT DR, SCARBOROUGH"
      }
    ]
  },
  {
    "postal": "M1B5E7",
    "result": [
      {
        "electoralDistricts": [
          {
            "election": null,
            "id": 97,
            "name": "Scarborough—Rouge Park"
          }
        ],
        "pollDivisionIds": [
          10141734
        ],
        "postalCode": "M1B5E7",
        "streetName": "MCINNES",
        "streetDirectionId": null,
        "streetTypeId": "CRES",
        "placeName": "SCARBOROUGH",
        "streetNameDisplayText": "MCINNES CRES, SCARBOROUGH"
      },
      {
        "electoralDistricts": [
          {
            "election": null,
            "id": 97,
            "name": "Scarborough—Rouge Park"
          }
        ],
        "pollDivisionIds": [
          10141734
        ],
        "postalCode": "M1B5E7",
        "streetName": "SEWELLS",
        "streetDirectionId": null,
        "streetTypeId": "RD",
        "placeName": "SCARBOROUGH",
        "streetNameDisplayText": "SEWELLS RD, SCARBOROUGH"
      }
    ]
  },
  {
    "postal": "M1B3A7",
    "result": []
  },
  {
    "postal": "M1B1B9",
    "result": [
      {
        "electoralDistricts": [
          {
            "election": null,
            "id": 96,
            "name": "Scarborough North"
          }
        ],
        "pollDivisionIds": [
          10141712
        ],
        "postalCode": "M1B1B9",
        "streetName": "NAHANNI",
        "streetDirectionId": null,
        "streetTypeId": "TERR",
        "placeName": "SCARBOROUGH",
        "streetNameDisplayText": "NAHANNI TERR, SCARBOROUGH"
      }
    ]
  },
  {
    "postal": "M1B9E8",
    "result": []
  },
  {
    "postal": "M1B1C9",
    "result": [
      {
        "electoralDistricts": [
          {
            "election": null,
            "id": 96,
            "name": "Scarborough North"
          }
        ],
        "pollDivisionIds": [
          10141712
        ],
        "postalCode": "M1B1C9",
        "streetName": "BLACKWELL",
        "streetDirectionId": null,
        "streetTypeId": "AVE",
        "placeName": "SCARBOROUGH",
        "streetNameDisplayText": "BLACKWELL AVE, SCARBOROUGH"
      }
    ]
  },
  {
    "postal": "M1B3B5",
    "result": [
      {
        "electoralDistricts": [
          {
            "election": null,
            "id": 97,
            "name": "Scarborough—Rouge Park"
          }
        ],
        "pollDivisionIds": [
          10141737
        ],
        "postalCode": "M1B3B5",
        "streetName": "FAWCETT",
        "streetDirectionId": null,
        "streetTypeId": "TRAIL",
        "placeName": "SCARBOROUGH",
        "streetNameDisplayText": "FAWCETT TRAIL, SCARBOROUGH"
      }
    ]
  },
  {
    "postal": "M1B8R0",
    "result": []
  },
  {
    "postal": "M1B3P2",
    "result": []
  },
  {
    "postal": "M1B5V4",
    "result": [
      {
        "electoralDistricts": [
          {
            "election": null,
            "id": 97,
            "name": "Scarborough—Rouge Park"
          }
        ],
        "pollDivisionIds": [
          10141739
        ],
        "postalCode": "M1B5V4",
        "streetName": "THORNMOUNT",
        "streetDirectionId": null,
        "streetTypeId": "DR",
        "placeName": "SCARBOROUGH",
        "streetNameDisplayText": "THORNMOUNT DR, SCARBOROUGH"
      }
    ]
  },
  {
    "postal": "M1B4H0",
    "result": []
  },
  {
    "postal": "M1B4S7",
    "result": [
      {
        "electoralDistricts": [
          {
            "election": null,
            "id": 97,
            "name": "Scarborough—Rouge Park"
          }
        ],
        "pollDivisionIds": [
          10141743
        ],
        "postalCode": "M1B4S7",
        "streetName": "NATURE",
        "streetDirectionId": null,
        "streetTypeId": "PTWAY",
        "placeName": "SCARBOROUGH",
        "streetNameDisplayText": "NATURE PTWAY, SCARBOROUGH"
      }
    ]
  },
  {
    "postal": "M1B6C2",
    "result": [
      {
        "electoralDistricts": [
          {
            "election": null,
            "id": 96,
            "name": "Scarborough North"
          }
        ],
        "pollDivisionIds": [
          10141707
        ],
        "postalCode": "M1B6C2",
        "streetName": "PINERY",
        "streetDirectionId": null,
        "streetTypeId": "TRAIL",
        "placeName": "SCARBOROUGH",
        "streetNameDisplayText": "PINERY TRAIL, SCARBOROUGH"
      },
      {
        "electoralDistricts": [
          {
            "election": null,
            "id": 96,
            "name": "Scarborough North"
          }
        ],
        "pollDivisionIds": [
          10141707
        ],
        "postalCode": "M1B6C2",
        "streetName": "TELFER",
        "streetDirectionId": null,
        "streetTypeId": "GDNS",
        "placeName": "SCARBOROUGH",
        "streetNameDisplayText": "TELFER GDNS, SCARBOROUGH"
      }
    ]
  },
  {
    "postal": "M1B8W3",
    "result": []
  },
  {
    "postal": "M1B4M5",
    "result": [
      {
        "electoralDistricts": [
          {
            "election": null,
            "id": 97,
            "name": "Scarborough—Rouge Park"
          }
        ],
        "pollDivisionIds": [
          10141735
        ],
        "postalCode": "M1B4M5",
        "streetName": "CARISBROOKE",
        "streetDirectionId": null,
        "streetTypeId": "SQ",
        "placeName": "SCARBOROUGH",
        "streetNameDisplayText": "CARISBROOKE SQ, SCARBOROUGH"
      }
    ]
  },
  {
    "postal": "M1B5T1",
    "result": [
      {
        "electoralDistricts": [
          {
            "election": null,
            "id": 97,
            "name": "Scarborough—Rouge Park"
          }
        ],
        "pollDivisionIds": [
          10141743
        ],
        "postalCode": "M1B5T1",
        "streetName": "DURNFORD",
        "streetDirectionId": null,
        "streetTypeId": "RD",
        "placeName": "SCARBOROUGH",
        "streetNameDisplayText": "DURNFORD RD, SCARBOROUGH"
      }
    ]
  },
  {
    "postal": "M1B3B3",
    "result": [
      {
        "electoralDistricts": [
          {
            "election": null,
            "id": 97,
            "name": "Scarborough—Rouge Park"
          }
        ],
        "pollDivisionIds": [
          10141737
        ],
        "postalCode": "M1B3B3",
        "streetName": "FAWCETT",
        "streetDirectionId": null,
        "streetTypeId": "TRAIL",
        "placeName": "SCARBOROUGH",
        "streetNameDisplayText": "FAWCETT TRAIL, SCARBOROUGH"
      }
    ]
  },
  {
    "postal": "M1B6C6",
    "result": [
      {
        "electoralDistricts": [
          {
            "election": null,
            "id": 96,
            "name": "Scarborough North"
          }
        ],
        "pollDivisionIds": [
          10141707
        ],
        "postalCode": "M1B6C6",
        "streetName": "MCLEVIN",
        "streetDirectionId": null,
        "streetTypeId": "AVE",
        "placeName": "SCARBOROUGH",
        "streetNameDisplayText": "MCLEVIN AVE, SCARBOROUGH"
      }
    ]
  },
  {
    "postal": "M1B7N8",
    "result": []
  },
  {
    "postal": "M1B2Y3",
    "result": [
      {
        "electoralDistricts": [
          {
            "election": null,
            "id": 96,
            "name": "Scarborough North"
          }
        ],
        "pollDivisionIds": [
          10141715
        ],
        "postalCode": "M1B2Y3",
        "streetName": "ORMEROD",
        "streetDirectionId": null,
        "streetTypeId": "ST",
        "placeName": "SCARBOROUGH",
        "streetNameDisplayText": "ORMEROD ST, SCARBOROUGH"
      }
    ]
  },
  {
    "postal": "M1B2R6",
    "result": [
      {
        "electoralDistricts": [
          {
            "election": null,
            "id": 97,
            "name": "Scarborough—Rouge Park"
          }
        ],
        "pollDivisionIds": [
          10141737
        ],
        "postalCode": "M1B2R6",
        "streetName": "JOHN TABOR",
        "streetDirectionId": null,
        "streetTypeId": "TRAIL",
        "placeName": "SCARBOROUGH",
        "streetNameDisplayText": "JOHN TABOR TRAIL, SCARBOROUGH"
      }
    ]
  },
  {
    "postal": "M1B7N3",
    "result": []
  },
  {
    "postal": "M1B8J2",
    "result": []
  },
  {
    "postal": "M1B6A9",
    "result": [
      {
        "electoralDistricts": [
          {
            "election": null,
            "id": 97,
            "name": "Scarborough—Rouge Park"
          }
        ],
        "pollDivisionIds": [
          10141735
        ],
        "postalCode": "M1B6A9",
        "streetName": "MOURNING DOVE",
        "streetDirectionId": null,
        "streetTypeId": "CRES",
        "placeName": "SCARBOROUGH",
        "streetNameDisplayText": "MOURNING DOVE CRES, SCARBOROUGH"
      },
      {
        "electoralDistricts": [
          {
            "election": null,
            "id": 97,
            "name": "Scarborough—Rouge Park"
          }
        ],
        "pollDivisionIds": [
          10141735
        ],
        "postalCode": "M1B6A9",
        "streetName": "NEILSON PARK",
        "streetDirectionId": null,
        "streetTypeId": "DR",
        "placeName": "SCARBOROUGH",
        "streetNameDisplayText": "NEILSON PARK DR, SCARBOROUGH"
      }
    ]
  },
  {
    "postal": "M1B3V2",
    "result": [
      {
        "electoralDistricts": [
          {
            "election": null,
            "id": 96,
            "name": "Scarborough North"
          }
        ],
        "pollDivisionIds": [
          10141707
        ],
        "postalCode": "M1B3V2",
        "streetName": "MELFORD",
        "streetDirectionId": null,
        "streetTypeId": "DR",
        "placeName": "SCARBOROUGH",
        "streetNameDisplayText": "MELFORD DR, SCARBOROUGH"
      }
    ]
  },
  {
    "postal": "M1B2N3",
    "result": [
      {
        "electoralDistricts": [
          {
            "election": null,
            "id": 97,
            "name": "Scarborough—Rouge Park"
          }
        ],
        "pollDivisionIds": [
          10141741
        ],
        "postalCode": "M1B2N3",
        "streetName": "BRAYMORE",
        "streetDirectionId": null,
        "streetTypeId": "BLVD",
        "placeName": "SCARBOROUGH",
        "streetNameDisplayText": "BRAYMORE BLVD, SCARBOROUGH"
      }
    ]
  },
  {
    "postal": "M1B1S5",
    "result": [
      {
        "electoralDistricts": [
          {
            "election": null,
            "id": 96,
            "name": "Scarborough North"
          }
        ],
        "pollDivisionIds": [
          10141712
        ],
        "postalCode": "M1B1S5",
        "streetName": "SNOWBALL",
        "streetDirectionId": null,
        "streetTypeId": "CRES",
        "placeName": "SCARBOROUGH",
        "streetNameDisplayText": "SNOWBALL CRES, SCARBOROUGH"
      }
    ]
  },
  {
    "postal": "M1B4T7",
    "result": [
      {
        "electoralDistricts": [
          {
            "election": null,
            "id": 97,
            "name": "Scarborough—Rouge Park"
          }
        ],
        "pollDivisionIds": [
          10141743
        ],
        "postalCode": "M1B4T7",
        "streetName": "CALIBRE",
        "streetDirectionId": null,
        "streetTypeId": "CRT",
        "placeName": "SCARBOROUGH",
        "streetNameDisplayText": "CALIBRE CRT, SCARBOROUGH"
      },
      {
        "electoralDistricts": [
          {
            "election": null,
            "id": 97,
            "name": "Scarborough—Rouge Park"
          }
        ],
        "pollDivisionIds": [
          10141743
        ],
        "postalCode": "M1B4T7",
        "streetName": "POLO",
        "streetDirectionId": null,
        "streetTypeId": "PL",
        "placeName": "SCARBOROUGH",
        "streetNameDisplayText": "POLO PL, SCARBOROUGH"
      }
    ]
  },
  {
    "postal": "M1B6Y7",
    "result": []
  },
  {
    "postal": "M1B0W7",
    "result": []
  },
  {
    "postal": "M1B2W9",
    "result": [
      {
        "electoralDistricts": [
          {
            "election": null,
            "id": 97,
            "name": "Scarborough—Rouge Park"
          }
        ],
        "pollDivisionIds": [
          10141741
        ],
        "postalCode": "M1B2W9",
        "streetName": "DEAN PARK",
        "streetDirectionId": null,
        "streetTypeId": "RD",
        "placeName": "SCARBOROUGH",
        "streetNameDisplayText": "DEAN PARK RD, SCARBOROUGH"
      }
    ]
  },
  {
    "postal": "M1B8V0",
    "result": []
  },
  {
    "postal": "M1B0H4",
    "result": []
  },
  {
    "postal": "M1B2T1",
    "result": [
      {
        "electoralDistricts": [
          {
            "election": null,
            "id": 97,
            "name": "Scarborough—Rouge Park"
          }
        ],
        "pollDivisionIds": [
          10141737
        ],
        "postalCode": "M1B2T1",
        "streetName": "BUSHWOOD",
        "streetDirectionId": null,
        "streetTypeId": "CRT",
        "placeName": "SCARBOROUGH",
        "streetNameDisplayText": "BUSHWOOD CRT, SCARBOROUGH"
      }
    ]
  },
  {
    "postal": "M1B1B1",
    "result": [
      {
        "electoralDistricts": [
          {
            "election": null,
            "id": 96,
            "name": "Scarborough North"
          }
        ],
        "pollDivisionIds": [
          10141712
        ],
        "postalCode": "M1B1B1",
        "streetName": "BERNER",
        "streetDirectionId": null,
        "streetTypeId": "TRAIL",
        "placeName": "SCARBOROUGH",
        "streetNameDisplayText": "BERNER TRAIL, SCARBOROUGH"
      }
    ]
  },
  {
    "postal": "M1B8B6",
    "result": []
  },
  {
    "postal": "M1B6H1",
    "result": [
      {
        "electoralDistricts": [
          {
            "election": null,
            "id": 97,
            "name": "Scarborough—Rouge Park"
          }
        ],
        "pollDivisionIds": [
          10141739
        ],
        "postalCode": "M1B6H1",
        "streetName": "COYOTE",
        "streetDirectionId": null,
        "streetTypeId": "CRES",
        "placeName": "SCARBOROUGH",
        "streetNameDisplayText": "COYOTE CRES, SCARBOROUGH"
      },
      {
        "electoralDistricts": [
          {
            "election": null,
            "id": 97,
            "name": "Scarborough—Rouge Park"
          }
        ],
        "pollDivisionIds": [
          10141739
        ],
        "postalCode": "M1B6H1",
        "streetName": "ROUGE RIVER",
        "streetDirectionId": null,
        "streetTypeId": "DR",
        "placeName": "SCARBOROUGH",
        "streetNameDisplayText": "ROUGE RIVER DR, SCARBOROUGH"
      },
      {
        "electoralDistricts": [
          {
            "election": null,
            "id": 97,
            "name": "Scarborough—Rouge Park"
          }
        ],
        "pollDivisionIds": [
          10141739
        ],
        "postalCode": "M1B6H1",
        "streetName": "TRUMPETER",
        "streetDirectionId": null,
        "streetTypeId": "ST",
        "placeName": "SCARBOROUGH",
        "streetNameDisplayText": "TRUMPETER ST, SCARBOROUGH"
      }
    ]
  },
  {
    "postal": "M1B8T8",
    "result": []
  },
  {
    "postal": "M1B0T4",
    "result": []
  },
  {
    "postal": "M1B2C4",
    "result": [
      {
        "electoralDistricts": [
          {
            "election": null,
            "id": 96,
            "name": "Scarborough North"
          }
        ],
        "pollDivisionIds": [
          10141715
        ],
        "postalCode": "M1B2C4",
        "streetName": "ROBBINSTONE",
        "streetDirectionId": null,
        "streetTypeId": "DR",
        "placeName": "SCARBOROUGH",
        "streetNameDisplayText": "ROBBINSTONE DR, SCARBOROUGH"
      }
    ]
  },
  {
    "postal": "M1B8N3",
    "result": []
  },
  {
    "postal": "M1B4L8",
    "result": [
      {
        "electoralDistricts": [
          {
            "election": null,
            "id": 97,
            "name": "Scarborough—Rouge Park"
          }
        ],
        "pollDivisionIds": [
          10141735
        ],
        "postalCode": "M1B4L8",
        "streetName": "HUPFIELD",
        "streetDirectionId": null,
        "streetTypeId": "TRAIL",
        "placeName": "SCARBOROUGH",
        "streetNameDisplayText": "HUPFIELD TRAIL, SCARBOROUGH"
      }
    ]
  },
  {
    "postal": "M1B2B5",
    "result": [
      {
        "electoralDistricts": [
          {
            "election": null,
            "id": 97,
            "name": "Scarborough—Rouge Park"
          }
        ],
        "pollDivisionIds": [
          10141740
        ],
        "postalCode": "M1B2B5",
        "streetName": "MURISON",
        "streetDirectionId": null,
        "streetTypeId": "BLVD",
        "placeName": "SCARBOROUGH",
        "streetNameDisplayText": "MURISON BLVD, SCARBOROUGH"
      }
    ]
  },
  {
    "postal": "M1B3H1",
    "result": [
      {
        "electoralDistricts": [
          {
            "election": null,
            "id": 97,
            "name": "Scarborough—Rouge Park"
          }
        ],
        "pollDivisionIds": [
          10141741
        ],
        "postalCode": "M1B3H1",
        "streetName": "DEAN PARK",
        "streetDirectionId": null,
        "streetTypeId": "RD",
        "placeName": "SCARBOROUGH",
        "streetNameDisplayText": "DEAN PARK RD, SCARBOROUGH"
      }
    ]
  },
  {
    "postal": "M1B4Y1",
    "result": [
      {
        "electoralDistricts": [
          {
            "election": null,
            "id": 97,
            "name": "Scarborough—Rouge Park"
          }
        ],
        "pollDivisionIds": [
          10141743
        ],
        "postalCode": "M1B4Y1",
        "streetName": "PARSBOROUGH",
        "streetDirectionId": null,
        "streetTypeId": "CRT",
        "placeName": "SCARBOROUGH",
        "streetNameDisplayText": "PARSBOROUGH CRT, SCARBOROUGH"
      }
    ]
  },
  {
    "postal": "M1B7E2",
    "result": []
  },
  {
    "postal": "M1B2P5",
    "result": [
      {
        "electoralDistricts": [
          {
            "election": null,
            "id": 97,
            "name": "Scarborough—Rouge Park"
          }
        ],
        "pollDivisionIds": [
          10141737
        ],
        "postalCode": "M1B2P5",
        "streetName": "JOHN TABOR",
        "streetDirectionId": null,
        "streetTypeId": "TRAIL",
        "placeName": "SCARBOROUGH",
        "streetNameDisplayText": "JOHN TABOR TRAIL, SCARBOROUGH"
      }
    ]
  },
  {
    "postal": "M1B8R7",
    "result": []
  },
  {
    "postal": "M1B9P1",
    "result": []
  },
  {
    "postal": "M1B3B8",
    "result": [
      {
        "electoralDistricts": [
          {
            "election": null,
            "id": 97,
            "name": "Scarborough—Rouge Park"
          }
        ],
        "pollDivisionIds": [
          10141737
        ],
        "postalCode": "M1B3B8",
        "streetName": "FAWCETT",
        "streetDirectionId": null,
        "streetTypeId": "TRAIL",
        "placeName": "SCARBOROUGH",
        "streetNameDisplayText": "FAWCETT TRAIL, SCARBOROUGH"
      }
    ]
  },
  {
    "postal": "M1B3P7",
    "result": []
  },
  {
    "postal": "M1B9B2",
    "result": []
  },
  {
    "postal": "M1B6Z3",
    "result": []
  },
  {
    "postal": "M1B4N5",
    "result": [
      {
        "electoralDistricts": [
          {
            "election": null,
            "id": 97,
            "name": "Scarborough—Rouge Park"
          }
        ],
        "pollDivisionIds": [
          10141735
        ],
        "postalCode": "M1B4N5",
        "streetName": "COURTLANDS",
        "streetDirectionId": null,
        "streetTypeId": "DR",
        "placeName": "SCARBOROUGH",
        "streetNameDisplayText": "COURTLANDS DR, SCARBOROUGH"
      }
    ]
  },
  {
    "postal": "M1B8T3",
    "result": []
  },
  {
    "postal": "M1B1V2",
    "result": [
      {
        "electoralDistricts": [
          {
            "election": null,
            "id": 96,
            "name": "Scarborough North"
          }
        ],
        "pollDivisionIds": [
          10141707
        ],
        "postalCode": "M1B1V2",
        "streetName": "CRITTENDEN",
        "streetDirectionId": null,
        "streetTypeId": "SQ",
        "placeName": "SCARBOROUGH",
        "streetNameDisplayText": "CRITTENDEN SQ, SCARBOROUGH"
      }
    ]
  },
  {
    "postal": "M1B1Y0",
    "result": []
  },
  {
    "postal": "M1B3G6",
    "result": []
  },
  {
    "postal": "M1B3H7",
    "result": []
  },
  {
    "postal": "M1B7X8",
    "result": []
  },
  {
    "postal": "M1B0C7",
    "result": [
      {
        "electoralDistricts": [
          {
            "election": null,
            "id": 96,
            "name": "Scarborough North"
          }
        ],
        "pollDivisionIds": [
          10141707
        ],
        "postalCode": "M1B0C7",
        "streetName": "PINERY",
        "streetDirectionId": null,
        "streetTypeId": "TRAIL",
        "placeName": "SCARBOROUGH",
        "streetNameDisplayText": "PINERY TRAIL, SCARBOROUGH"
      }
    ]
  },
  {
    "postal": "M1B0W9",
    "result": []
  },
  {
    "postal": "M1B8E6",
    "result": []
  },
  {
    "postal": "M1B9Z8",
    "result": []
  },
  {
    "postal": "M1B3P4",
    "result": []
  },
  {
    "postal": "M1B6L8",
    "result": []
  },
  {
    "postal": "M1B2R4",
    "result": [
      {
        "electoralDistricts": [
          {
            "election": null,
            "id": 97,
            "name": "Scarborough—Rouge Park"
          }
        ],
        "pollDivisionIds": [
          10141737
        ],
        "postalCode": "M1B2R4",
        "streetName": "JOHN TABOR",
        "streetDirectionId": null,
        "streetTypeId": "TRAIL",
        "placeName": "SCARBOROUGH",
        "streetNameDisplayText": "JOHN TABOR TRAIL, SCARBOROUGH"
      }
    ]
  },
  {
    "postal": "M1B2W1",
    "result": [
      {
        "electoralDistricts": [
          {
            "election": null,
            "id": 96,
            "name": "Scarborough North"
          }
        ],
        "pollDivisionIds": [
          10141715
        ],
        "postalCode": "M1B2W1",
        "streetName": "MARKHAM",
        "streetDirectionId": null,
        "streetTypeId": "RD",
        "placeName": "SCARBOROUGH",
        "streetNameDisplayText": "MARKHAM RD, SCARBOROUGH"
      }
    ]
  },
  {
    "postal": "M1B9H8",
    "result": []
  },
  {
    "postal": "M1B8X9",
    "result": []
  },
  {
    "postal": "M1B7H4",
    "result": []
  },
  {
    "postal": "M1B3J1",
    "result": [
      {
        "electoralDistricts": [
          {
            "election": null,
            "id": 97,
            "name": "Scarborough—Rouge Park"
          }
        ],
        "pollDivisionIds": [
          10141734
        ],
        "postalCode": "M1B3J1",
        "streetName": "MORNINGSIDE",
        "streetDirectionId": null,
        "streetTypeId": "AVE",
        "placeName": "SCARBOROUGH",
        "streetNameDisplayText": "MORNINGSIDE AVE, SCARBOROUGH"
      }
    ]
  },
  {
    "postal": "M1B1P4",
    "result": [
      {
        "electoralDistricts": [
          {
            "election": null,
            "id": 97,
            "name": "Scarborough—Rouge Park"
          }
        ],
        "pollDivisionIds": [
          10141738
        ],
        "postalCode": "M1B1P4",
        "streetName": "QUANTRELL",
        "streetDirectionId": null,
        "streetTypeId": "TRAIL",
        "placeName": "SCARBOROUGH",
        "streetNameDisplayText": "QUANTRELL TRAIL, SCARBOROUGH"
      }
    ]
  },
  {
    "postal": "M1B2A3",
    "result": [
      {
        "electoralDistricts": [
          {
            "election": null,
            "id": 97,
            "name": "Scarborough—Rouge Park"
          }
        ],
        "pollDivisionIds": [
          10141740
        ],
        "postalCode": "M1B2A3",
        "streetName": "COLTMAN",
        "streetDirectionId": null,
        "streetTypeId": "CRES",
        "placeName": "SCARBOROUGH",
        "streetNameDisplayText": "COLTMAN CRES, SCARBOROUGH"
      }
    ]
  },
  {
    "postal": "M1B0Z1",
    "result": []
  },
  {
    "postal": "M1B1C1",
    "result": [
      {
        "electoralDistricts": [
          {
            "election": null,
            "id": 96,
            "name": "Scarborough North"
          }
        ],
        "pollDivisionIds": [
          10141712
        ],
        "postalCode": "M1B1C1",
        "streetName": "CHEATHAM",
        "streetDirectionId": null,
        "streetTypeId": "PL",
        "placeName": "SCARBOROUGH",
        "streetNameDisplayText": "CHEATHAM PL, SCARBOROUGH"
      }
    ]
  },
  {
    "postal": "M1B0H3",
    "result": []
  },
  {
    "postal": "M1B7B0",
    "result": []
  },
  {
    "postal": "M1B5K2",
    "result": [
      {
        "electoralDistricts": [
          {
            "election": null,
            "id": 97,
            "name": "Scarborough—Rouge Park"
          }
        ],
        "pollDivisionIds": [
          10141739
        ],
        "postalCode": "M1B5K2",
        "streetName": "SHEPPARD",
        "streetDirectionId": "E",
        "streetTypeId": "AVE",
        "placeName": "SCARBOROUGH",
        "streetNameDisplayText": "SHEPPARD AVE E, SCARBOROUGH"
      }
    ]
  },
  {
    "postal": "M1B1E9",
    "result": [
      {
        "electoralDistricts": [
          {
            "election": null,
            "id": 97,
            "name": "Scarborough—Rouge Park"
          }
        ],
        "pollDivisionIds": [
          10141743
        ],
        "postalCode": "M1B1E9",
        "streetName": "SHEPPARD",
        "streetDirectionId": "E",
        "streetTypeId": "AVE",
        "placeName": "SCARBOROUGH",
        "streetNameDisplayText": "SHEPPARD AVE E, SCARBOROUGH"
      }
    ]
  },
  {
    "postal": "M1B9W7",
    "result": []
  },
  {
    "postal": "M1B5W6",
    "result": [
      {
        "electoralDistricts": [
          {
            "election": null,
            "id": 97,
            "name": "Scarborough—Rouge Park"
          }
        ],
        "pollDivisionIds": [
          10141739
        ],
        "postalCode": "M1B5W6",
        "streetName": "OLD FINCH",
        "streetDirectionId": null,
        "streetTypeId": "AVE",
        "placeName": "SCARBOROUGH",
        "streetNameDisplayText": "OLD FINCH AVE, SCARBOROUGH"
      }
    ]
  },
  {
    "postal": "M1B6S6",
    "result": []
  },
  {
    "postal": "M1B2P8",
    "result": [
      {
        "electoralDistricts": [
          {
            "election": null,
            "id": 97,
            "name": "Scarborough—Rouge Park"
          }
        ],
        "pollDivisionIds": [
          10141737
        ],
        "postalCode": "M1B2P8",
        "streetName": "JOHN TABOR",
        "streetDirectionId": null,
        "streetTypeId": "TRAIL",
        "placeName": "SCARBOROUGH",
        "streetNameDisplayText": "JOHN TABOR TRAIL, SCARBOROUGH"
      }
    ]
  },
  {
    "postal": "M1B4P8",
    "result": [
      {
        "electoralDistricts": [
          {
            "election": null,
            "id": 97,
            "name": "Scarborough—Rouge Park"
          }
        ],
        "pollDivisionIds": [
          10141735
        ],
        "postalCode": "M1B4P8",
        "streetName": "HUPFIELD",
        "streetDirectionId": null,
        "streetTypeId": "TRAIL",
        "placeName": "SCARBOROUGH",
        "streetNameDisplayText": "HUPFIELD TRAIL, SCARBOROUGH"
      },
      {
        "electoralDistricts": [
          {
            "election": null,
            "id": 97,
            "name": "Scarborough—Rouge Park"
          }
        ],
        "pollDivisionIds": [
          10141735
        ],
        "postalCode": "M1B4P8",
        "streetName": "LADY BOWER",
        "streetDirectionId": null,
        "streetTypeId": "CRES",
        "placeName": "SCARBOROUGH",
        "streetNameDisplayText": "LADY BOWER CRES, SCARBOROUGH"
      },
      {
        "electoralDistricts": [
          {
            "election": null,
            "id": 97,
            "name": "Scarborough—Rouge Park"
          }
        ],
        "pollDivisionIds": [
          10141735
        ],
        "postalCode": "M1B4P8",
        "streetName": "OVERLORD",
        "streetDirectionId": null,
        "streetTypeId": "CRES",
        "placeName": "SCARBOROUGH",
        "streetNameDisplayText": "OVERLORD CRES, SCARBOROUGH"
      }
    ]
  },
  {
    "postal": "M1B0V9",
    "result": []
  },
  {
    "postal": "M1B5Y2",
    "result": [
      {
        "electoralDistricts": [
          {
            "election": null,
            "id": 97,
            "name": "Scarborough—Rouge Park"
          }
        ],
        "pollDivisionIds": [
          10141741
        ],
        "postalCode": "M1B5Y2",
        "streetName": "DEAN PARK",
        "streetDirectionId": null,
        "streetTypeId": "RD",
        "placeName": "SCARBOROUGH",
        "streetNameDisplayText": "DEAN PARK RD, SCARBOROUGH"
      }
    ]
  },
  {
    "postal": "M1B7Z7",
    "result": []
  },
  {
    "postal": "M1B6Y8",
    "result": []
  },
  {
    "postal": "M1B2G7",
    "result": [
      {
        "electoralDistricts": [
          {
            "election": null,
            "id": 97,
            "name": "Scarborough—Rouge Park"
          }
        ],
        "pollDivisionIds": [
          10141741
        ],
        "postalCode": "M1B2G7",
        "streetName": "BRAYMORE",
        "streetDirectionId": null,
        "streetTypeId": "BLVD",
        "placeName": "SCARBOROUGH",
        "streetNameDisplayText": "BRAYMORE BLVD, SCARBOROUGH"
      }
    ]
  },
  {
    "postal": "M1B8C1",
    "result": []
  },
  {
    "postal": "M1B5C5",
    "result": [
      {
        "electoralDistricts": [
          {
            "election": null,
            "id": 97,
            "name": "Scarborough—Rouge Park"
          }
        ],
        "pollDivisionIds": [
          10141734
        ],
        "postalCode": "M1B5C5",
        "streetName": "BIRRELL",
        "streetDirectionId": null,
        "streetTypeId": "AVE",
        "placeName": "SCARBOROUGH",
        "streetNameDisplayText": "BIRRELL AVE, SCARBOROUGH"
      },
      {
        "electoralDistricts": [
          {
            "election": null,
            "id": 97,
            "name": "Scarborough—Rouge Park"
          }
        ],
        "pollDivisionIds": [
          10141734
        ],
        "postalCode": "M1B5C5",
        "streetName": "LITTLES",
        "streetDirectionId": null,
        "streetTypeId": "RD",
        "placeName": "SCARBOROUGH",
        "streetNameDisplayText": "LITTLES RD, SCARBOROUGH"
      }
    ]
  },
  {
    "postal": "M1B2X8",
    "result": []
  },
  {
    "postal": "M1B1W5",
    "result": [
      {
        "electoralDistricts": [
          {
            "election": null,
            "id": 96,
            "name": "Scarborough North"
          }
        ],
        "pollDivisionIds": [
          10141707
        ],
        "postalCode": "M1B1W5",
        "streetName": "HORSELEY HILL",
        "streetDirectionId": null,
        "streetTypeId": "DR",
        "placeName": "SCARBOROUGH",
        "streetNameDisplayText": "HORSELEY HILL DR, SCARBOROUGH"
      }
    ]
  },
  {
    "postal": "M1B7G0",
    "result": []
  },
  {
    "postal": "M1B8J8",
    "result": []
  },
  {
    "postal": "M1B3Y0",
    "result": []
  },
  {
    "postal": "M1B9T7",
    "result": []
  },
  {
    "postal": "M1B5P4",
    "result": []
  },
  {
    "postal": "M1B4B0",
    "result": []
  },
  {
    "postal": "M1B9N8",
    "result": []
  },
  {
    "postal": "M1B4A7",
    "result": [
      {
        "electoralDistricts": [
          {
            "election": null,
            "id": 97,
            "name": "Scarborough—Rouge Park"
          }
        ],
        "pollDivisionIds": [
          10141737
        ],
        "postalCode": "M1B4A7",
        "streetName": "WHISPERING WILLOW",
        "streetDirectionId": null,
        "streetTypeId": "PTWAY",
        "placeName": "SCARBOROUGH",
        "streetNameDisplayText": "WHISPERING WILLOW PTWAY, SCARBOROUGH"
      }
    ]
  },
  {
    "postal": "M1B4H9",
    "result": [
      {
        "electoralDistricts": [
          {
            "election": null,
            "id": 97,
            "name": "Scarborough—Rouge Park"
          }
        ],
        "pollDivisionIds": [
          10141735
        ],
        "postalCode": "M1B4H9",
        "streetName": "GREENLEAF",
        "streetDirectionId": null,
        "streetTypeId": "TERR",
        "placeName": "SCARBOROUGH",
        "streetNameDisplayText": "GREENLEAF TERR, SCARBOROUGH"
      }
    ]
  },
  {
    "postal": "M1B6X1",
    "result": []
  },
  {
    "postal": "M1B9Y7",
    "result": []
  },
  {
    "postal": "M1B2Y5",
    "result": []
  },
  {
    "postal": "M1B8L7",
    "result": []
  },
  {
    "postal": "M1B2A8",
    "result": [
      {
        "electoralDistricts": [
          {
            "election": null,
            "id": 97,
            "name": "Scarborough—Rouge Park"
          }
        ],
        "pollDivisionIds": [
          10141740
        ],
        "postalCode": "M1B2A8",
        "streetName": "PILKEY",
        "streetDirectionId": null,
        "streetTypeId": "CRES",
        "placeName": "SCARBOROUGH",
        "streetNameDisplayText": "PILKEY CRES, SCARBOROUGH"
      }
    ]
  },
  {
    "postal": "M1B2K9",
    "result": [
      {
        "electoralDistricts": [
          {
            "election": null,
            "id": 96,
            "name": "Scarborough North"
          }
        ],
        "pollDivisionIds": [
          10141715
        ],
        "postalCode": "M1B2K9",
        "streetName": "NOVOPHARM",
        "streetDirectionId": null,
        "streetTypeId": "CRT",
        "placeName": "SCARBOROUGH",
        "streetNameDisplayText": "NOVOPHARM CRT, SCARBOROUGH"
      }
    ]
  },
  {
    "postal": "M1B3E5",
    "result": [
      {
        "electoralDistricts": [
          {
            "election": null,
            "id": 97,
            "name": "Scarborough—Rouge Park"
          }
        ],
        "pollDivisionIds": [
          10141737
        ],
        "postalCode": "M1B3E5",
        "streetName": "WARWICK CASTLE",
        "streetDirectionId": null,
        "streetTypeId": "CRT",
        "placeName": "SCARBOROUGH",
        "streetNameDisplayText": "WARWICK CASTLE CRT, SCARBOROUGH"
      }
    ]
  },
  {
    "postal": "M1B8N6",
    "result": []
  },
  {
    "postal": "M1B8J4",
    "result": []
  },
  {
    "postal": "M1B4R7",
    "result": [
      {
        "electoralDistricts": [
          {
            "election": null,
            "id": 97,
            "name": "Scarborough—Rouge Park"
          }
        ],
        "pollDivisionIds": [
          10141735
        ],
        "postalCode": "M1B4R7",
        "streetName": "GLANVIL",
        "streetDirectionId": null,
        "streetTypeId": "CRES",
        "placeName": "SCARBOROUGH",
        "streetNameDisplayText": "GLANVIL CRES, SCARBOROUGH"
      }
    ]
  },
  {
    "postal": "M1B9K1",
    "result": []
  },
  {
    "postal": "M1B8E1",
    "result": []
  },
  {
    "postal": "M1B0R1",
    "result": []
  },
  {
    "postal": "M1B4J3",
    "result": [
      {
        "electoralDistricts": [
          {
            "election": null,
            "id": 97,
            "name": "Scarborough—Rouge Park"
          }
        ],
        "pollDivisionIds": [
          10141735
        ],
        "postalCode": "M1B4J3",
        "streetName": "GREENLEAF",
        "streetDirectionId": null,
        "streetTypeId": "TERR",
        "placeName": "SCARBOROUGH",
        "streetNameDisplayText": "GREENLEAF TERR, SCARBOROUGH"
      }
    ]
  },
  {
    "postal": "M1B7E7",
    "result": []
  },
  {
    "postal": "M1B0J0",
    "result": []
  },
  {
    "postal": "M1B7R8",
    "result": []
  },
  {
    "postal": "M1B9X0",
    "result": []
  },
  {
    "postal": "M1B7P6",
    "result": []
  },
  {
    "postal": "M1B0R7",
    "result": []
  },
  {
    "postal": "M1B5W1",
    "result": []
  },
  {
    "postal": "M1B0K4",
    "result": []
  },
  {
    "postal": "M1B7N9",
    "result": []
  },
  {
    "postal": "M1B1N0",
    "result": []
  },
  {
    "postal": "M1B6P3",
    "result": []
  },
  {
    "postal": "M1B5A1",
    "result": [
      {
        "electoralDistricts": [
          {
            "election": null,
            "id": 97,
            "name": "Scarborough—Rouge Park"
          }
        ],
        "pollDivisionIds": [
          10141734
        ],
        "postalCode": "M1B5A1",
        "streetName": "GENNELA",
        "streetDirectionId": null,
        "streetTypeId": "SQ",
        "placeName": "SCARBOROUGH",
        "streetNameDisplayText": "GENNELA SQ, SCARBOROUGH"
      }
    ]
  },
  {
    "postal": "M1B9M9",
    "result": []
  },
  {
    "postal": "M1B7T6",
    "result": []
  },
  {
    "postal": "M1B3X0",
    "result": []
  },
  {
    "postal": "M1B2T0",
    "result": []
  },
  {
    "postal": "M1B5X9",
    "result": [
      {
        "electoralDistricts": [
          {
            "election": null,
            "id": 96,
            "name": "Scarborough North"
          }
        ],
        "pollDivisionIds": [
          10141707
        ],
        "postalCode": "M1B5X9",
        "streetName": "MELFORD",
        "streetDirectionId": null,
        "streetTypeId": "DR",
        "placeName": "SCARBOROUGH",
        "streetNameDisplayText": "MELFORD DR, SCARBOROUGH"
      }
    ]
  },
  {
    "postal": "M1B2R3",
    "result": [
      {
        "electoralDistricts": [
          {
            "election": null,
            "id": 97,
            "name": "Scarborough—Rouge Park"
          }
        ],
        "pollDivisionIds": [
          10141737,
          10141738
        ],
        "postalCode": "M1B2R3",
        "streetName": "JOHN TABOR",
        "streetDirectionId": null,
        "streetTypeId": "TRAIL",
        "placeName": "SCARBOROUGH",
        "streetNameDisplayText": "JOHN TABOR TRAIL, SCARBOROUGH"
      }
    ]
  },
  {
    "postal": "M1B5N2",
    "result": [
      {
        "electoralDistricts": [
          {
            "election": null,
            "id": 97,
            "name": "Scarborough—Rouge Park"
          }
        ],
        "pollDivisionIds": [
          10141755
        ],
        "postalCode": "M1B5N2",
        "streetName": "NEILSON",
        "streetDirectionId": null,
        "streetTypeId": "RD",
        "placeName": "SCARBOROUGH",
        "streetNameDisplayText": "NEILSON RD, SCARBOROUGH"
      }
    ]
  },
  {
    "postal": "M1B4Y7",
    "result": [
      {
        "electoralDistricts": [
          {
            "election": null,
            "id": 96,
            "name": "Scarborough North"
          }
        ],
        "pollDivisionIds": [
          10141707
        ],
        "postalCode": "M1B4Y7",
        "streetName": "TAPSCOTT",
        "streetDirectionId": null,
        "streetTypeId": "RD",
        "placeName": "SCARBOROUGH",
        "streetNameDisplayText": "TAPSCOTT RD, SCARBOROUGH"
      }
    ]
  },
  {
    "postal": "M1B7M0",
    "result": []
  },
  {
    "postal": "M1B8P3",
    "result": []
  },
  {
    "postal": "M1B3N3",
    "result": []
  },
  {
    "postal": "M1B7S3",
    "result": []
  },
  {
    "postal": "M1B3V9",
    "result": [
      {
        "electoralDistricts": [
          {
            "election": null,
            "id": 97,
            "name": "Scarborough—Rouge Park"
          }
        ],
        "pollDivisionIds": [
          10141739
        ],
        "postalCode": "M1B3V9",
        "streetName": "MORNINGSIDE",
        "streetDirectionId": null,
        "streetTypeId": "AVE",
        "placeName": "SCARBOROUGH",
        "streetNameDisplayText": "MORNINGSIDE AVE, SCARBOROUGH"
      }
    ]
  },
  {
    "postal": "M1B9N7",
    "result": []
  },
  {
    "postal": "M1B0G4",
    "result": []
  },
  {
    "postal": "M1B2E2",
    "result": [
      {
        "electoralDistricts": [
          {
            "election": null,
            "id": 97,
            "name": "Scarborough—Rouge Park"
          }
        ],
        "pollDivisionIds": [
          10141741
        ],
        "postalCode": "M1B2E2",
        "streetName": "BRAYMORE",
        "streetDirectionId": null,
        "streetTypeId": "BLVD",
        "placeName": "SCARBOROUGH",
        "streetNameDisplayText": "BRAYMORE BLVD, SCARBOROUGH"
      }
    ]
  },
  {
    "postal": "M1B7W8",
    "result": []
  },
  {
    "postal": "M1B7M5",
    "result": []
  },
  {
    "postal": "M1B5W8",
    "result": [
      {
        "electoralDistricts": [
          {
            "election": null,
            "id": 97,
            "name": "Scarborough—Rouge Park"
          }
        ],
        "pollDivisionIds": [
          10141739
        ],
        "postalCode": "M1B5W8",
        "streetName": "MEADOWVALE",
        "streetDirectionId": null,
        "streetTypeId": "RD",
        "placeName": "SCARBOROUGH",
        "streetNameDisplayText": "MEADOWVALE RD, SCARBOROUGH"
      }
    ]
  },
  {
    "postal": "M1B5E5",
    "result": [
      {
        "electoralDistricts": [
          {
            "election": null,
            "id": 97,
            "name": "Scarborough—Rouge Park"
          }
        ],
        "pollDivisionIds": [
          10141734
        ],
        "postalCode": "M1B5E5",
        "streetName": "KENGATE",
        "streetDirectionId": null,
        "streetTypeId": "DR",
        "placeName": "SCARBOROUGH",
        "streetNameDisplayText": "KENGATE DR, SCARBOROUGH"
      },
      {
        "electoralDistricts": [
          {
            "election": null,
            "id": 97,
            "name": "Scarborough—Rouge Park"
          }
        ],
        "pollDivisionIds": [
          10141734
        ],
        "postalCode": "M1B5E5",
        "streetName": "MCINNES",
        "streetDirectionId": null,
        "streetTypeId": "CRES",
        "placeName": "SCARBOROUGH",
        "streetNameDisplayText": "MCINNES CRES, SCARBOROUGH"
      },
      {
        "electoralDistricts": [
          {
            "election": null,
            "id": 97,
            "name": "Scarborough—Rouge Park"
          }
        ],
        "pollDivisionIds": [
          10141734
        ],
        "postalCode": "M1B5E5",
        "streetName": "SEWELLS",
        "streetDirectionId": null,
        "streetTypeId": "RD",
        "placeName": "SCARBOROUGH",
        "streetNameDisplayText": "SEWELLS RD, SCARBOROUGH"
      }
    ]
  },
  {
    "postal": "M1B1P9",
    "result": [
      {
        "electoralDistricts": [
          {
            "election": null,
            "id": 96,
            "name": "Scarborough North"
          }
        ],
        "pollDivisionIds": [
          10141715
        ],
        "postalCode": "M1B1P9",
        "streetName": "MAMMOTH HALL",
        "streetDirectionId": null,
        "streetTypeId": "TRAIL",
        "placeName": "SCARBOROUGH",
        "streetNameDisplayText": "MAMMOTH HALL TRAIL, SCARBOROUGH"
      }
    ]
  },
  {
    "postal": "M1B8V8",
    "result": []
  },
  {
    "postal": "M1B9G8",
    "result": []
  },
  {
    "postal": "M1B8H9",
    "result": []
  },
  {
    "postal": "M1B1Z1",
    "result": [
      {
        "electoralDistricts": [
          {
            "election": null,
            "id": 96,
            "name": "Scarborough North"
          }
        ],
        "pollDivisionIds": [
          10141712,
          10141715
        ],
        "postalCode": "M1B1Z1",
        "streetName": "LITTLELEAF",
        "streetDirectionId": null,
        "streetTypeId": "DR",
        "placeName": "SCARBOROUGH",
        "streetNameDisplayText": "LITTLELEAF DR, SCARBOROUGH"
      }
    ]
  },
  {
    "postal": "M1B8M3",
    "result": []
  },
  {
    "postal": "M1B5H6",
    "result": [
      {
        "electoralDistricts": [
          {
            "election": null,
            "id": 97,
            "name": "Scarborough—Rouge Park"
          }
        ],
        "pollDivisionIds": [
          10141734
        ],
        "postalCode": "M1B5H6",
        "streetName": "DARBY",
        "streetDirectionId": null,
        "streetTypeId": "CRT",
        "placeName": "SCARBOROUGH",
        "streetNameDisplayText": "DARBY CRT, SCARBOROUGH"
      }
    ]
  },
  {
    "postal": "M1B7W7",
    "result": []
  },
  {
    "postal": "M1B4L0",
    "result": []
  },
  {
    "postal": "M1B2N1",
    "result": [
      {
        "electoralDistricts": [
          {
            "election": null,
            "id": 97,
            "name": "Scarborough—Rouge Park"
          }
        ],
        "pollDivisionIds": [
          10141741
        ],
        "postalCode": "M1B2N1",
        "streetName": "BRAYMORE",
        "streetDirectionId": null,
        "streetTypeId": "BLVD",
        "placeName": "SCARBOROUGH",
        "streetNameDisplayText": "BRAYMORE BLVD, SCARBOROUGH"
      }
    ]
  },
  {
    "postal": "M1B2H4",
    "result": [
      {
        "electoralDistricts": [
          {
            "election": null,
            "id": 97,
            "name": "Scarborough—Rouge Park"
          }
        ],
        "pollDivisionIds": [
          10141741
        ],
        "postalCode": "M1B2H4",
        "streetName": "BRAYMORE",
        "streetDirectionId": null,
        "streetTypeId": "BLVD",
        "placeName": "SCARBOROUGH",
        "streetNameDisplayText": "BRAYMORE BLVD, SCARBOROUGH"
      }
    ]
  },
  {
    "postal": "M1B5C8",
    "result": [
      {
        "electoralDistricts": [
          {
            "election": null,
            "id": 97,
            "name": "Scarborough—Rouge Park"
          }
        ],
        "pollDivisionIds": [
          10141734
        ],
        "postalCode": "M1B5C8",
        "streetName": "BIRRELL",
        "streetDirectionId": null,
        "streetTypeId": "AVE",
        "placeName": "SCARBOROUGH",
        "streetNameDisplayText": "BIRRELL AVE, SCARBOROUGH"
      },
      {
        "electoralDistricts": [
          {
            "election": null,
            "id": 97,
            "name": "Scarborough—Rouge Park"
          }
        ],
        "pollDivisionIds": [
          10141734
        ],
        "postalCode": "M1B5C8",
        "streetName": "GOODALL",
        "streetDirectionId": null,
        "streetTypeId": "DR",
        "placeName": "SCARBOROUGH",
        "streetNameDisplayText": "GOODALL DR, SCARBOROUGH"
      }
    ]
  },
  {
    "postal": "M1B8B0",
    "result": []
  },
  {
    "postal": "M1B1T4",
    "result": [
      {
        "electoralDistricts": [
          {
            "election": null,
            "id": 96,
            "name": "Scarborough North"
          }
        ],
        "pollDivisionIds": [
          10141707
        ],
        "postalCode": "M1B1T4",
        "streetName": "MCGINTY",
        "streetDirectionId": null,
        "streetTypeId": "PL",
        "placeName": "SCARBOROUGH",
        "streetNameDisplayText": "MCGINTY PL, SCARBOROUGH"
      }
    ]
  },
  {
    "postal": "M1B7N7",
    "result": []
  },
  {
    "postal": "M1B4L3",
    "result": [
      {
        "electoralDistricts": [
          {
            "election": null,
            "id": 97,
            "name": "Scarborough—Rouge Park"
          }
        ],
        "pollDivisionIds": [
          10141735
        ],
        "postalCode": "M1B4L3",
        "streetName": "ROVINELLI",
        "streetDirectionId": null,
        "streetTypeId": "RD",
        "placeName": "SCARBOROUGH",
        "streetNameDisplayText": "ROVINELLI RD, SCARBOROUGH"
      }
    ]
  },
  {
    "postal": "M1B2N2",
    "result": [
      {
        "electoralDistricts": [
          {
            "election": null,
            "id": 97,
            "name": "Scarborough—Rouge Park"
          }
        ],
        "pollDivisionIds": [
          10141741
        ],
        "postalCode": "M1B2N2",
        "streetName": "BRAYMORE",
        "streetDirectionId": null,
        "streetTypeId": "BLVD",
        "placeName": "SCARBOROUGH",
        "streetNameDisplayText": "BRAYMORE BLVD, SCARBOROUGH"
      }
    ]
  },
  {
    "postal": "M1B4N8",
    "result": [
      {
        "electoralDistricts": [
          {
            "election": null,
            "id": 97,
            "name": "Scarborough—Rouge Park"
          }
        ],
        "pollDivisionIds": [
          10141735
        ],
        "postalCode": "M1B4N8",
        "streetName": "COURTLANDS",
        "streetDirectionId": null,
        "streetTypeId": "DR",
        "placeName": "SCARBOROUGH",
        "streetNameDisplayText": "COURTLANDS DR, SCARBOROUGH"
      },
      {
        "electoralDistricts": [
          {
            "election": null,
            "id": 97,
            "name": "Scarborough—Rouge Park"
          }
        ],
        "pollDivisionIds": [
          10141735
        ],
        "postalCode": "M1B4N8",
        "streetName": "HUPFIELD",
        "streetDirectionId": null,
        "streetTypeId": "TRAIL",
        "placeName": "SCARBOROUGH",
        "streetNameDisplayText": "HUPFIELD TRAIL, SCARBOROUGH"
      }
    ]
  },
  {
    "postal": "M1B3M5",
    "result": [
      {
        "electoralDistricts": [
          {
            "election": null,
            "id": 97,
            "name": "Scarborough—Rouge Park"
          }
        ],
        "pollDivisionIds": [
          10141734
        ],
        "postalCode": "M1B3M5",
        "streetName": "CASEBRIDGE",
        "streetDirectionId": null,
        "streetTypeId": "CRT",
        "placeName": "SCARBOROUGH",
        "streetNameDisplayText": "CASEBRIDGE CRT, SCARBOROUGH"
      }
    ]
  },
  {
    "postal": "M1B6H7",
    "result": [
      {
        "electoralDistricts": [
          {
            "election": null,
            "id": 96,
            "name": "Scarborough North"
          }
        ],
        "pollDivisionIds": [
          10141715
        ],
        "postalCode": "M1B6H7",
        "streetName": "MCLEVIN",
        "streetDirectionId": null,
        "streetTypeId": "AVE",
        "placeName": "SCARBOROUGH",
        "streetNameDisplayText": "MCLEVIN AVE, SCARBOROUGH"
      }
    ]
  },
  {
    "postal": "M1B8Y8",
    "result": []
  },
  {
    "postal": "M1B5R9",
    "result": [
      {
        "electoralDistricts": [
          {
            "election": null,
            "id": 97,
            "name": "Scarborough—Rouge Park"
          }
        ],
        "pollDivisionIds": [
          10141739
        ],
        "postalCode": "M1B5R9",
        "streetName": "TWYN RIVERS",
        "streetDirectionId": null,
        "streetTypeId": "DR",
        "placeName": "SCARBOROUGH",
        "streetNameDisplayText": "TWYN RIVERS DR, SCARBOROUGH"
      }
    ]
  },
  {
    "postal": "M1B8G3",
    "result": []
  },
  {
    "postal": "M1B4N7",
    "result": [
      {
        "electoralDistricts": [
          {
            "election": null,
            "id": 97,
            "name": "Scarborough—Rouge Park"
          }
        ],
        "pollDivisionIds": [
          10141735
        ],
        "postalCode": "M1B4N7",
        "streetName": "COURTLANDS",
        "streetDirectionId": null,
        "streetTypeId": "DR",
        "placeName": "SCARBOROUGH",
        "streetNameDisplayText": "COURTLANDS DR, SCARBOROUGH"
      }
    ]
  },
  {
    "postal": "M1B0B9",
    "result": []
  },
  {
    "postal": "M1B9K7",
    "result": []
  },
  {
    "postal": "M1B9K9",
    "result": []
  },
  {
    "postal": "M1B3Z2",
    "result": [
      {
        "electoralDistricts": [
          {
            "election": null,
            "id": 97,
            "name": "Scarborough—Rouge Park"
          }
        ],
        "pollDivisionIds": [
          10141737
        ],
        "postalCode": "M1B3Z2",
        "streetName": "EMPRINGHAM",
        "streetDirectionId": null,
        "streetTypeId": "DR",
        "placeName": "SCARBOROUGH",
        "streetNameDisplayText": "EMPRINGHAM DR, SCARBOROUGH"
      }
    ]
  },
  {
    "postal": "M1B6W7",
    "result": []
  },
  {
    "postal": "M1B0P1",
    "result": []
  },
  {
    "postal": "M1B3A0",
    "result": []
  },
  {
    "postal": "M1B8L9",
    "result": []
  },
  {
    "postal": "M1B6X0",
    "result": []
  },
  {
    "postal": "M1B3E9",
    "result": [
      {
        "electoralDistricts": [
          {
            "election": null,
            "id": 96,
            "name": "Scarborough North"
          }
        ],
        "pollDivisionIds": [
          10141715
        ],
        "postalCode": "M1B3E9",
        "streetName": "MCLEVIN",
        "streetDirectionId": null,
        "streetTypeId": "AVE",
        "placeName": "SCARBOROUGH",
        "streetNameDisplayText": "MCLEVIN AVE, SCARBOROUGH"
      }
    ]
  },
  {
    "postal": "M1B0S5",
    "result": []
  },
  {
    "postal": "M1B1A2",
    "result": [
      {
        "electoralDistricts": [
          {
            "election": null,
            "id": 96,
            "name": "Scarborough North"
          }
        ],
        "pollDivisionIds": [
          10141712
        ],
        "postalCode": "M1B1A2",
        "streetName": "GRIFFEN",
        "streetDirectionId": null,
        "streetTypeId": "DR",
        "placeName": "SCARBOROUGH",
        "streetNameDisplayText": "GRIFFEN DR, SCARBOROUGH"
      }
    ]
  },
  {
    "postal": "M1B5V8",
    "result": [
      {
        "electoralDistricts": [
          {
            "election": null,
            "id": 97,
            "name": "Scarborough—Rouge Park"
          }
        ],
        "pollDivisionIds": [
          10141741
        ],
        "postalCode": "M1B5V8",
        "streetName": "MILNER",
        "streetDirectionId": null,
        "streetTypeId": "AVE",
        "placeName": "SCARBOROUGH",
        "streetNameDisplayText": "MILNER AVE, SCARBOROUGH"
      }
    ]
  },
  {
    "postal": "M1B8C5",
    "result": []
  },
  {
    "postal": "M1B6N0",
    "result": []
  },
  {
    "postal": "M1B9E6",
    "result": []
  },
  {
    "postal": "M1B5J7",
    "result": [
      {
        "electoralDistricts": [
          {
            "election": null,
            "id": 96,
            "name": "Scarborough North"
          }
        ],
        "pollDivisionIds": [
          10141712
        ],
        "postalCode": "M1B5J7",
        "streetName": "SHEPPARD",
        "streetDirectionId": "E",
        "streetTypeId": "AVE",
        "placeName": "SCARBOROUGH",
        "streetNameDisplayText": "SHEPPARD AVE E, SCARBOROUGH"
      }
    ]
  },
  {
    "postal": "M1B2R2",
    "result": [
      {
        "electoralDistricts": [
          {
            "election": null,
            "id": 97,
            "name": "Scarborough—Rouge Park"
          }
        ],
        "pollDivisionIds": [
          10141737
        ],
        "postalCode": "M1B2R2",
        "streetName": "JOHN TABOR",
        "streetDirectionId": null,
        "streetTypeId": "TRAIL",
        "placeName": "SCARBOROUGH",
        "streetNameDisplayText": "JOHN TABOR TRAIL, SCARBOROUGH"
      }
    ]
  },
  {
    "postal": "M1B0P5",
    "result": []
  },
  {
    "postal": "M1B5A7",
    "result": [
      {
        "electoralDistricts": [
          {
            "election": null,
            "id": 97,
            "name": "Scarborough—Rouge Park"
          }
        ],
        "pollDivisionIds": [
          10141734
        ],
        "postalCode": "M1B5A7",
        "streetName": "GENNELA",
        "streetDirectionId": null,
        "streetTypeId": "SQ",
        "placeName": "SCARBOROUGH",
        "streetNameDisplayText": "GENNELA SQ, SCARBOROUGH"
      },
      {
        "electoralDistricts": [
          {
            "election": null,
            "id": 97,
            "name": "Scarborough—Rouge Park"
          }
        ],
        "pollDivisionIds": [
          10141734
        ],
        "postalCode": "M1B5A7",
        "streetName": "LITTLES",
        "streetDirectionId": null,
        "streetTypeId": "RD",
        "placeName": "SCARBOROUGH",
        "streetNameDisplayText": "LITTLES RD, SCARBOROUGH"
      }
    ]
  },
  {
    "postal": "M1B1G1",
    "result": [
      {
        "electoralDistricts": [
          {
            "election": null,
            "id": 97,
            "name": "Scarborough—Rouge Park"
          }
        ],
        "pollDivisionIds": [
          10141743
        ],
        "postalCode": "M1B1G1",
        "streetName": "SHEPPARD",
        "streetDirectionId": "E",
        "streetTypeId": "AVE",
        "placeName": "SCARBOROUGH",
        "streetNameDisplayText": "SHEPPARD AVE E, SCARBOROUGH"
      }
    ]
  },
  {
    "postal": "M1B9R6",
    "result": []
  },
  {
    "postal": "M1B4Z9",
    "result": [
      {
        "electoralDistricts": [
          {
            "election": null,
            "id": 96,
            "name": "Scarborough North"
          }
        ],
        "pollDivisionIds": [
          10141715
        ],
        "postalCode": "M1B4Z9",
        "streetName": "MARKHAM",
        "streetDirectionId": null,
        "streetTypeId": "RD",
        "placeName": "SCARBOROUGH",
        "streetNameDisplayText": "MARKHAM RD, SCARBOROUGH"
      }
    ]
  },
  {
    "postal": "M1B1V5",
    "result": [
      {
        "electoralDistricts": [
          {
            "election": null,
            "id": 96,
            "name": "Scarborough North"
          }
        ],
        "pollDivisionIds": [
          10141707
        ],
        "postalCode": "M1B1V5",
        "streetName": "CARRYING",
        "streetDirectionId": null,
        "streetTypeId": "PL",
        "placeName": "SCARBOROUGH",
        "streetNameDisplayText": "CARRYING PL, SCARBOROUGH"
      }
    ]
  },
  {
    "postal": "M1B9Y5",
    "result": []
  },
  {
    "postal": "M1B1P2",
    "result": [
      {
        "electoralDistricts": [
          {
            "election": null,
            "id": 97,
            "name": "Scarborough—Rouge Park"
          }
        ],
        "pollDivisionIds": [
          10141738
        ],
        "postalCode": "M1B1P2",
        "streetName": "BRISBOURNE",
        "streetDirectionId": null,
        "streetTypeId": "GROVE",
        "placeName": "SCARBOROUGH",
        "streetNameDisplayText": "BRISBOURNE GROVE, SCARBOROUGH"
      }
    ]
  },
  {
    "postal": "M1B5X0",
    "result": []
  },
  {
    "postal": "M1B7B8",
    "result": []
  },
  {
    "postal": "M1B0C6",
    "result": [
      {
        "electoralDistricts": [
          {
            "election": null,
            "id": 97,
            "name": "Scarborough—Rouge Park"
          }
        ],
        "pollDivisionIds": [
          10141737
        ],
        "postalCode": "M1B0C6",
        "streetName": "NEILSON",
        "streetDirectionId": null,
        "streetTypeId": "RD",
        "placeName": "SCARBOROUGH",
        "streetNameDisplayText": "NEILSON RD, SCARBOROUGH"
      }
    ]
  },
  {
    "postal": "M1B6G1",
    "result": [
      {
        "electoralDistricts": [
          {
            "election": null,
            "id": 97,
            "name": "Scarborough—Rouge Park"
          }
        ],
        "pollDivisionIds": [
          10141739
        ],
        "postalCode": "M1B6G1",
        "streetName": "BALD EAGLE",
        "streetDirectionId": null,
        "streetTypeId": "AVE",
        "placeName": "SCARBOROUGH",
        "streetNameDisplayText": "BALD EAGLE AVE, SCARBOROUGH"
      },
      {
        "electoralDistricts": [
          {
            "election": null,
            "id": 97,
            "name": "Scarborough—Rouge Park"
          }
        ],
        "pollDivisionIds": [
          10141739
        ],
        "postalCode": "M1B6G1",
        "streetName": "ROUGE RIVER",
        "streetDirectionId": null,
        "streetTypeId": "DR",
        "placeName": "SCARBOROUGH",
        "streetNameDisplayText": "ROUGE RIVER DR, SCARBOROUGH"
      },
      {
        "electoralDistricts": [
          {
            "election": null,
            "id": 97,
            "name": "Scarborough—Rouge Park"
          }
        ],
        "pollDivisionIds": [
          10141739
        ],
        "postalCode": "M1B6G1",
        "streetName": "UPPER ROUGE",
        "streetDirectionId": null,
        "streetTypeId": "TRAIL",
        "placeName": "SCARBOROUGH",
        "streetNameDisplayText": "UPPER ROUGE TRAIL, SCARBOROUGH"
      }
    ]
  },
  {
    "postal": "M1B3K3",
    "result": []
  },
  {
    "postal": "M1B9R0",
    "result": []
  },
  {
    "postal": "M1B4R8",
    "result": [
      {
        "electoralDistricts": [
          {
            "election": null,
            "id": 97,
            "name": "Scarborough—Rouge Park"
          }
        ],
        "pollDivisionIds": [
          10141735
        ],
        "postalCode": "M1B4R8",
        "streetName": "GLANVIL",
        "streetDirectionId": null,
        "streetTypeId": "CRES",
        "placeName": "SCARBOROUGH",
        "streetNameDisplayText": "GLANVIL CRES, SCARBOROUGH"
      }
    ]
  },
  {
    "postal": "M1B5P9",
    "result": []
  },
  {
    "postal": "M1B8N4",
    "result": []
  },
  {
    "postal": "M1B8H4",
    "result": []
  },
  {
    "postal": "M1B4V1",
    "result": [
      {
        "electoralDistricts": [
          {
            "election": null,
            "id": 97,
            "name": "Scarborough—Rouge Park"
          }
        ],
        "pollDivisionIds": [
          10141743
        ],
        "postalCode": "M1B4V1",
        "streetName": "CALIBRE",
        "streetDirectionId": null,
        "streetTypeId": "CRT",
        "placeName": "SCARBOROUGH",
        "streetNameDisplayText": "CALIBRE CRT, SCARBOROUGH"
      },
      {
        "electoralDistricts": [
          {
            "election": null,
            "id": 97,
            "name": "Scarborough—Rouge Park"
          }
        ],
        "pollDivisionIds": [
          10141743
        ],
        "postalCode": "M1B4V1",
        "streetName": "OAK KNOLLS",
        "streetDirectionId": null,
        "streetTypeId": "CRES",
        "placeName": "SCARBOROUGH",
        "streetNameDisplayText": "OAK KNOLLS CRES, SCARBOROUGH"
      }
    ]
  },
  {
    "postal": "M1B1K5",
    "result": [
      {
        "electoralDistricts": [
          {
            "election": null,
            "id": 96,
            "name": "Scarborough North"
          }
        ],
        "pollDivisionIds": [
          10141712
        ],
        "postalCode": "M1B1K5",
        "streetName": "BLACKWELL",
        "streetDirectionId": null,
        "streetTypeId": "AVE",
        "placeName": "SCARBOROUGH",
        "streetNameDisplayText": "BLACKWELL AVE, SCARBOROUGH"
      }
    ]
  },
  {
    "postal": "M1B1Z5",
    "result": [
      {
        "electoralDistricts": [
          {
            "election": null,
            "id": 97,
            "name": "Scarborough—Rouge Park"
          }
        ],
        "pollDivisionIds": [
          10141741
        ],
        "postalCode": "M1B1Z5",
        "streetName": "RED RIVER",
        "streetDirectionId": null,
        "streetTypeId": "CRES",
        "placeName": "SCARBOROUGH",
        "streetNameDisplayText": "RED RIVER CRES, SCARBOROUGH"
      }
    ]
  },
  {
    "postal": "M1B9L9",
    "result": []
  },
  {
    "postal": "M1B5L2",
    "result": [
      {
        "electoralDistricts": [
          {
            "election": null,
            "id": 97,
            "name": "Scarborough—Rouge Park"
          }
        ],
        "pollDivisionIds": [
          10141734
        ],
        "postalCode": "M1B5L2",
        "streetName": "MORNINGVIEW",
        "streetDirectionId": null,
        "streetTypeId": "TRAIL",
        "placeName": "SCARBOROUGH",
        "streetNameDisplayText": "MORNINGVIEW TRAIL, SCARBOROUGH"
      }
    ]
  },
  {
    "postal": "M1B0M2",
    "result": []
  },
  {
    "postal": "M1B1K8",
    "result": [
      {
        "electoralDistricts": [
          {
            "election": null,
            "id": 97,
            "name": "Scarborough—Rouge Park"
          }
        ],
        "pollDivisionIds": [
          10141740
        ],
        "postalCode": "M1B1K8",
        "streetName": "WICKSON",
        "streetDirectionId": null,
        "streetTypeId": "TRAIL",
        "placeName": "SCARBOROUGH",
        "streetNameDisplayText": "WICKSON TRAIL, SCARBOROUGH"
      }
    ]
  },
  {
    "postal": "M1B3M7",
    "result": []
  },
  {
    "postal": "M1B1B2",
    "result": [
      {
        "electoralDistricts": [
          {
            "election": null,
            "id": 96,
            "name": "Scarborough North"
          }
        ],
        "pollDivisionIds": [
          10141712
        ],
        "postalCode": "M1B1B2",
        "streetName": "BERNER",
        "streetDirectionId": null,
        "streetTypeId": "TRAIL",
        "placeName": "SCARBOROUGH",
        "streetNameDisplayText": "BERNER TRAIL, SCARBOROUGH"
      }
    ]
  },
  {
    "postal": "M1B0H9",
    "result": []
  },
  {
    "postal": "M1B8M4",
    "result": []
  },
  {
    "postal": "M1B2M5",
    "result": [
      {
        "electoralDistricts": [
          {
            "election": null,
            "id": 97,
            "name": "Scarborough—Rouge Park"
          }
        ],
        "pollDivisionIds": [
          10141741
        ],
        "postalCode": "M1B2M5",
        "streetName": "LOVEL",
        "streetDirectionId": null,
        "streetTypeId": "AVE",
        "placeName": "SCARBOROUGH",
        "streetNameDisplayText": "LOVEL AVE, SCARBOROUGH"
      }
    ]
  },
  {
    "postal": "M1B0T9",
    "result": []
  },
  {
    "postal": "M1B3P1",
    "result": []
  },
  {
    "postal": "M1B1R6",
    "result": [
      {
        "electoralDistricts": [
          {
            "election": null,
            "id": 96,
            "name": "Scarborough North"
          }
        ],
        "pollDivisionIds": [
          10141715
        ],
        "postalCode": "M1B1R6",
        "streetName": "APPLEMORE",
        "streetDirectionId": null,
        "streetTypeId": "RD",
        "placeName": "SCARBOROUGH",
        "streetNameDisplayText": "APPLEMORE RD, SCARBOROUGH"
      }
    ]
  },
  {
    "postal": "M1B9V5",
    "result": []
  },
  {
    "postal": "M1B9T0",
    "result": []
  },
  {
    "postal": "M1B0A9",
    "result": [
      {
        "electoralDistricts": [
          {
            "election": null,
            "id": 97,
            "name": "Scarborough—Rouge Park"
          }
        ],
        "pollDivisionIds": [
          10141739
        ],
        "postalCode": "M1B0A9",
        "streetName": "MOUNTAIN LION",
        "streetDirectionId": null,
        "streetTypeId": "TRAIL",
        "placeName": "SCARBOROUGH",
        "streetNameDisplayText": "MOUNTAIN LION TRAIL, SCARBOROUGH"
      },
      {
        "electoralDistricts": [
          {
            "election": null,
            "id": 97,
            "name": "Scarborough—Rouge Park"
          }
        ],
        "pollDivisionIds": [
          10141739
        ],
        "postalCode": "M1B0A9",
        "streetName": "RED FOX",
        "streetDirectionId": null,
        "streetTypeId": "PL",
        "placeName": "SCARBOROUGH",
        "streetNameDisplayText": "RED FOX PL, SCARBOROUGH"
      },
      {
        "electoralDistricts": [
          {
            "election": null,
            "id": 97,
            "name": "Scarborough—Rouge Park"
          }
        ],
        "pollDivisionIds": [
          10141739
        ],
        "postalCode": "M1B0A9",
        "streetName": "SNOWGOOSE",
        "streetDirectionId": null,
        "streetTypeId": "TERR",
        "placeName": "SCARBOROUGH",
        "streetNameDisplayText": "SNOWGOOSE TERR, SCARBOROUGH"
      }
    ]
  },
  {
    "postal": "M1B1M3",
    "result": [
      {
        "electoralDistricts": [
          {
            "election": null,
            "id": 97,
            "name": "Scarborough—Rouge Park"
          }
        ],
        "pollDivisionIds": [
          10141740
        ],
        "postalCode": "M1B1M3",
        "streetName": "WICKSON",
        "streetDirectionId": null,
        "streetTypeId": "TRAIL",
        "placeName": "SCARBOROUGH",
        "streetNameDisplayText": "WICKSON TRAIL, SCARBOROUGH"
      }
    ]
  },
  {
    "postal": "M1B1W8",
    "result": [
      {
        "electoralDistricts": [
          {
            "election": null,
            "id": 96,
            "name": "Scarborough North"
          }
        ],
        "pollDivisionIds": [
          10141707
        ],
        "postalCode": "M1B1W8",
        "streetName": "WHITELEAS",
        "streetDirectionId": null,
        "streetTypeId": "AVE",
        "placeName": "SCARBOROUGH",
        "streetNameDisplayText": "WHITELEAS AVE, SCARBOROUGH"
      }
    ]
  },
  {
    "postal": "M1B9J1",
    "result": []
  },
  {
    "postal": "M1B8N5",
    "result": []
  },
  {
    "postal": "M1B5X1",
    "result": [
      {
        "electoralDistricts": [
          {
            "election": null,
            "id": 97,
            "name": "Scarborough—Rouge Park"
          }
        ],
        "pollDivisionIds": [
          10141743
        ],
        "postalCode": "M1B5X1",
        "streetName": "BONNYDON",
        "streetDirectionId": null,
        "streetTypeId": "CRES",
        "placeName": "SCARBOROUGH",
        "streetNameDisplayText": "BONNYDON CRES, SCARBOROUGH"
      },
      {
        "electoralDistricts": [
          {
            "election": null,
            "id": 97,
            "name": "Scarborough—Rouge Park"
          }
        ],
        "pollDivisionIds": [
          10141743
        ],
        "postalCode": "M1B5X1",
        "streetName": "GILLINGHAM",
        "streetDirectionId": null,
        "streetTypeId": "ST",
        "placeName": "SCARBOROUGH",
        "streetNameDisplayText": "GILLINGHAM ST, SCARBOROUGH"
      }
    ]
  },
  {
    "postal": "M1B6S2",
    "result": []
  },
  {
    "postal": "M1B2A2",
    "result": [
      {
        "electoralDistricts": [
          {
            "election": null,
            "id": 97,
            "name": "Scarborough—Rouge Park"
          }
        ],
        "pollDivisionIds": [
          10141740
        ],
        "postalCode": "M1B2A2",
        "streetName": "COLTMAN",
        "streetDirectionId": null,
        "streetTypeId": "CRES",
        "placeName": "SCARBOROUGH",
        "streetNameDisplayText": "COLTMAN CRES, SCARBOROUGH"
      }
    ]
  },
  {
    "postal": "M1B6A6",
    "result": [
      {
        "electoralDistricts": [
          {
            "election": null,
            "id": 96,
            "name": "Scarborough North"
          }
        ],
        "pollDivisionIds": [
          10141707
        ],
        "postalCode": "M1B6A6",
        "streetName": "FINCH",
        "streetDirectionId": "E",
        "streetTypeId": "AVE",
        "placeName": "SCARBOROUGH",
        "streetNameDisplayText": "FINCH AVE E, SCARBOROUGH"
      }
    ]
  },
  {
    "postal": "M1B0S3",
    "result": []
  },
  {
    "postal": "M1B3E7",
    "result": [
      {
        "electoralDistricts": [
          {
            "election": null,
            "id": 97,
            "name": "Scarborough—Rouge Park"
          }
        ],
        "pollDivisionIds": [
          10141737
        ],
        "postalCode": "M1B3E7",
        "streetName": "JOHN STONER",
        "streetDirectionId": null,
        "streetTypeId": "DR",
        "placeName": "SCARBOROUGH",
        "streetNameDisplayText": "JOHN STONER DR, SCARBOROUGH"
      }
    ]
  },
  {
    "postal": "M1B5R7",
    "result": [
      {
        "electoralDistricts": [
          {
            "election": null,
            "id": 97,
            "name": "Scarborough—Rouge Park"
          }
        ],
        "pollDivisionIds": [
          10141741
        ],
        "postalCode": "M1B5R7",
        "streetName": "SHEPPARD",
        "streetDirectionId": "E",
        "streetTypeId": "AVE",
        "placeName": "SCARBOROUGH",
        "streetNameDisplayText": "SHEPPARD AVE E, SCARBOROUGH"
      }
    ]
  },
  {
    "postal": "M1B3R6",
    "result": [
      {
        "electoralDistricts": [
          {
            "election": null,
            "id": 96,
            "name": "Scarborough North"
          }
        ],
        "pollDivisionIds": [
          10141715
        ],
        "postalCode": "M1B3R6",
        "streetName": "MCLEVIN",
        "streetDirectionId": null,
        "streetTypeId": "AVE",
        "placeName": "SCARBOROUGH",
        "streetNameDisplayText": "MCLEVIN AVE, SCARBOROUGH"
      }
    ]
  },
  {
    "postal": "M1B6K4",
    "result": [
      {
        "electoralDistricts": [
          {
            "election": null,
            "id": 97,
            "name": "Scarborough—Rouge Park"
          }
        ],
        "pollDivisionIds": [
          10141739
        ],
        "postalCode": "M1B6K4",
        "streetName": "ANTELOPE",
        "streetDirectionId": null,
        "streetTypeId": "DR",
        "placeName": "SCARBOROUGH",
        "streetNameDisplayText": "ANTELOPE DR, SCARBOROUGH"
      },
      {
        "electoralDistricts": [
          {
            "election": null,
            "id": 97,
            "name": "Scarborough—Rouge Park"
          }
        ],
        "pollDivisionIds": [
          10141739
        ],
        "postalCode": "M1B6K4",
        "streetName": "UPPER ROUGE",
        "streetDirectionId": null,
        "streetTypeId": "TRAIL",
        "placeName": "SCARBOROUGH",
        "streetNameDisplayText": "UPPER ROUGE TRAIL, SCARBOROUGH"
      }
    ]
  },
  {
    "postal": "M1B2W5",
    "result": [
      {
        "electoralDistricts": [
          {
            "election": null,
            "id": 97,
            "name": "Scarborough—Rouge Park"
          }
        ],
        "pollDivisionIds": [
          10141758
        ],
        "postalCode": "M1B2W5",
        "streetName": "DEAN PARK",
        "streetDirectionId": null,
        "streetTypeId": "RD",
        "placeName": "SCARBOROUGH",
        "streetNameDisplayText": "DEAN PARK RD, SCARBOROUGH"
      }
    ]
  },
  {
    "postal": "M1B8W4",
    "result": []
  },
  {
    "postal": "M1B9C2",
    "result": []
  },
  {
    "postal": "M1B2C0",
    "result": []
  },
  {
    "postal": "M1B0E1",
    "result": []
  },
  {
    "postal": "M1B1K9",
    "result": [
      {
        "electoralDistricts": [
          {
            "election": null,
            "id": 97,
            "name": "Scarborough—Rouge Park"
          }
        ],
        "pollDivisionIds": [
          10141738
        ],
        "postalCode": "M1B1K9",
        "streetName": "WICKSON",
        "streetDirectionId": null,
        "streetTypeId": "TRAIL",
        "placeName": "SCARBOROUGH",
        "streetNameDisplayText": "WICKSON TRAIL, SCARBOROUGH"
      }
    ]
  },
  {
    "postal": "M1B1G7",
    "result": []
  },
  {
    "postal": "M1B4E9",
    "result": [
      {
        "electoralDistricts": [
          {
            "election": null,
            "id": 97,
            "name": "Scarborough—Rouge Park"
          }
        ],
        "pollDivisionIds": [
          10141737
        ],
        "postalCode": "M1B4E9",
        "streetName": "ALFORD",
        "streetDirectionId": null,
        "streetTypeId": "CRES",
        "placeName": "SCARBOROUGH",
        "streetNameDisplayText": "ALFORD CRES, SCARBOROUGH"
      },
      {
        "electoralDistricts": [
          {
            "election": null,
            "id": 97,
            "name": "Scarborough—Rouge Park"
          }
        ],
        "pollDivisionIds": [
          10141737
        ],
        "postalCode": "M1B4E9",
        "streetName": "SCARFAIR",
        "streetDirectionId": null,
        "streetTypeId": "PTWAY",
        "placeName": "SCARBOROUGH",
        "streetNameDisplayText": "SCARFAIR PTWAY, SCARBOROUGH"
      }
    ]
  },
  {
    "postal": "M1B9P0",
    "result": []
  },
  {
    "postal": "M1B5H3",
    "result": [
      {
        "electoralDistricts": [
          {
            "election": null,
            "id": 97,
            "name": "Scarborough—Rouge Park"
          }
        ],
        "pollDivisionIds": [
          10141734
        ],
        "postalCode": "M1B5H3",
        "streetName": "DARBY",
        "streetDirectionId": null,
        "streetTypeId": "CRT",
        "placeName": "SCARBOROUGH",
        "streetNameDisplayText": "DARBY CRT, SCARBOROUGH"
      },
      {
        "electoralDistricts": [
          {
            "election": null,
            "id": 97,
            "name": "Scarborough—Rouge Park"
          }
        ],
        "pollDivisionIds": [
          10141734
        ],
        "postalCode": "M1B5H3",
        "streetName": "GLENHEATHER",
        "streetDirectionId": null,
        "streetTypeId": "TERR",
        "placeName": "SCARBOROUGH",
        "streetNameDisplayText": "GLENHEATHER TERR, SCARBOROUGH"
      },
      {
        "electoralDistricts": [
          {
            "election": null,
            "id": 97,
            "name": "Scarborough—Rouge Park"
          }
        ],
        "pollDivisionIds": [
          10141734
        ],
        "postalCode": "M1B5H3",
        "streetName": "SEWELLS",
        "streetDirectionId": null,
        "streetTypeId": "RD",
        "placeName": "SCARBOROUGH",
        "streetNameDisplayText": "SEWELLS RD, SCARBOROUGH"
      }
    ]
  },
  {
    "postal": "M1B9X6",
    "result": []
  },
  {
    "postal": "M1B5N7",
    "result": [
      {
        "electoralDistricts": [
          {
            "election": null,
            "id": 97,
            "name": "Scarborough—Rouge Park"
          }
        ],
        "pollDivisionIds": [
          10141741
        ],
        "postalCode": "M1B5N7",
        "streetName": "MILNER",
        "streetDirectionId": null,
        "streetTypeId": "AVE",
        "placeName": "SCARBOROUGH",
        "streetNameDisplayText": "MILNER AVE, SCARBOROUGH"
      }
    ]
  },
  {
    "postal": "M1B5A6",
    "result": [
      {
        "electoralDistricts": [
          {
            "election": null,
            "id": 97,
            "name": "Scarborough—Rouge Park"
          }
        ],
        "pollDivisionIds": [
          10141734
        ],
        "postalCode": "M1B5A6",
        "streetName": "GENNELA",
        "streetDirectionId": null,
        "streetTypeId": "SQ",
        "placeName": "SCARBOROUGH",
        "streetNameDisplayText": "GENNELA SQ, SCARBOROUGH"
      }
    ]
  },
  {
    "postal": "M1B4M0",
    "result": []
  },
  {
    "postal": "M1B3V6",
    "result": [
      {
        "electoralDistricts": [
          {
            "election": null,
            "id": 96,
            "name": "Scarborough North"
          }
        ],
        "pollDivisionIds": [
          10141712
        ],
        "postalCode": "M1B3V6",
        "streetName": "WASHBURN",
        "streetDirectionId": null,
        "streetTypeId": "WAY",
        "placeName": "SCARBOROUGH",
        "streetNameDisplayText": "WASHBURN WAY, SCARBOROUGH"
      }
    ]
  },
  {
    "postal": "M1B1L7",
    "result": [
      {
        "electoralDistricts": [
          {
            "election": null,
            "id": 97,
            "name": "Scarborough—Rouge Park"
          }
        ],
        "pollDivisionIds": [
          10141738
        ],
        "postalCode": "M1B1L7",
        "streetName": "QUANTRELL",
        "streetDirectionId": null,
        "streetTypeId": "TRAIL",
        "placeName": "SCARBOROUGH",
        "streetNameDisplayText": "QUANTRELL TRAIL, SCARBOROUGH"
      }
    ]
  },
  {
    "postal": "M1B2P9",
    "result": [
      {
        "electoralDistricts": [
          {
            "election": null,
            "id": 97,
            "name": "Scarborough—Rouge Park"
          }
        ],
        "pollDivisionIds": [
          10141738
        ],
        "postalCode": "M1B2P9",
        "streetName": "JOHN TABOR",
        "streetDirectionId": null,
        "streetTypeId": "TRAIL",
        "placeName": "SCARBOROUGH",
        "streetNameDisplayText": "JOHN TABOR TRAIL, SCARBOROUGH"
      }
    ]
  },
  {
    "postal": "M1B5T4",
    "result": [
      {
        "electoralDistricts": [
          {
            "election": null,
            "id": 97,
            "name": "Scarborough—Rouge Park"
          }
        ],
        "pollDivisionIds": [
          10141743
        ],
        "postalCode": "M1B5T4",
        "streetName": "DURNFORD",
        "streetDirectionId": null,
        "streetTypeId": "RD",
        "placeName": "SCARBOROUGH",
        "streetNameDisplayText": "DURNFORD RD, SCARBOROUGH"
      }
    ]
  },
  {
    "postal": "M1B5Z1",
    "result": [
      {
        "electoralDistricts": [
          {
            "election": null,
            "id": 96,
            "name": "Scarborough North"
          }
        ],
        "pollDivisionIds": [
          10141715
        ],
        "postalCode": "M1B5Z1",
        "streetName": "ROSEBANK",
        "streetDirectionId": null,
        "streetTypeId": "DR",
        "placeName": "SCARBOROUGH",
        "streetNameDisplayText": "ROSEBANK DR, SCARBOROUGH"
      }
    ]
  },
  {
    "postal": "M1B2X0",
    "result": []
  },
  {
    "postal": "M1B6Z2",
    "result": []
  },
  {
    "postal": "M1B0E0",
    "result": []
  },
  {
    "postal": "M1B3Z5",
    "result": [
      {
        "electoralDistricts": [
          {
            "election": null,
            "id": 97,
            "name": "Scarborough—Rouge Park"
          }
        ],
        "pollDivisionIds": [
          10141737
        ],
        "postalCode": "M1B3Z5",
        "streetName": "EMPRINGHAM",
        "streetDirectionId": null,
        "streetTypeId": "DR",
        "placeName": "SCARBOROUGH",
        "streetNameDisplayText": "EMPRINGHAM DR, SCARBOROUGH"
      }
    ]
  },
  {
    "postal": "M1B8H3",
    "result": []
  },
  {
    "postal": "M1B7S6",
    "result": []
  },
  {
    "postal": "M1B4C1",
    "result": [
      {
        "electoralDistricts": [
          {
            "election": null,
            "id": 97,
            "name": "Scarborough—Rouge Park"
          }
        ],
        "pollDivisionIds": [
          10141737
        ],
        "postalCode": "M1B4C1",
        "streetName": "ALFORD",
        "streetDirectionId": null,
        "streetTypeId": "CRES",
        "placeName": "SCARBOROUGH",
        "streetNameDisplayText": "ALFORD CRES, SCARBOROUGH"
      }
    ]
  },
  {
    "postal": "M1B3K2",
    "result": []
  },
  {
    "postal": "M1B1Y5",
    "result": [
      {
        "electoralDistricts": [
          {
            "election": null,
            "id": 96,
            "name": "Scarborough North"
          }
        ],
        "pollDivisionIds": [
          10141712
        ],
        "postalCode": "M1B1Y5",
        "streetName": "SHADEMASTER",
        "streetDirectionId": null,
        "streetTypeId": "CRT",
        "placeName": "SCARBOROUGH",
        "streetNameDisplayText": "SHADEMASTER CRT, SCARBOROUGH"
      }
    ]
  },
  {
    "postal": "M1B6P6",
    "result": []
  },
  {
    "postal": "M1B3N9",
    "result": []
  },
  {
    "postal": "M1B3W2",
    "result": [
      {
        "electoralDistricts": [
          {
            "election": null,
            "id": 97,
            "name": "Scarborough—Rouge Park"
          }
        ],
        "pollDivisionIds": [
          10141739
        ],
        "postalCode": "M1B3W2",
        "streetName": "MORNINGSIDE",
        "streetDirectionId": null,
        "streetTypeId": "AVE",
        "placeName": "SCARBOROUGH",
        "streetNameDisplayText": "MORNINGSIDE AVE, SCARBOROUGH"
      }
    ]
  },
  {
    "postal": "M1B6H8",
    "result": [
      {
        "electoralDistricts": [
          {
            "election": null,
            "id": 97,
            "name": "Scarborough—Rouge Park"
          }
        ],
        "pollDivisionIds": [
          10141743
        ],
        "postalCode": "M1B6H8",
        "streetName": "BONNYDON",
        "streetDirectionId": null,
        "streetTypeId": "CRES",
        "placeName": "SCARBOROUGH",
        "streetNameDisplayText": "BONNYDON CRES, SCARBOROUGH"
      },
      {
        "electoralDistricts": [
          {
            "election": null,
            "id": 97,
            "name": "Scarborough—Rouge Park"
          }
        ],
        "pollDivisionIds": [
          10141743
        ],
        "postalCode": "M1B6H8",
        "streetName": "GILLINGHAM",
        "streetDirectionId": null,
        "streetTypeId": "ST",
        "placeName": "SCARBOROUGH",
        "streetNameDisplayText": "GILLINGHAM ST, SCARBOROUGH"
      }
    ]
  },
  {
    "postal": "M1B9T3",
    "result": []
  },
  {
    "postal": "M1B5L9",
    "result": [
      {
        "electoralDistricts": [
          {
            "election": null,
            "id": 97,
            "name": "Scarborough—Rouge Park"
          }
        ],
        "pollDivisionIds": [
          10141734
        ],
        "postalCode": "M1B5L9",
        "streetName": "WHITEWAY",
        "streetDirectionId": null,
        "streetTypeId": "CRT",
        "placeName": "SCARBOROUGH",
        "streetNameDisplayText": "WHITEWAY CRT, SCARBOROUGH"
      }
    ]
  },
  {
    "postal": "M1B7X7",
    "result": []
  },
  {
    "postal": "M1B3J5",
    "result": [
      {
        "electoralDistricts": [
          {
            "election": null,
            "id": 97,
            "name": "Scarborough—Rouge Park"
          }
        ],
        "pollDivisionIds": [
          10141739
        ],
        "postalCode": "M1B3J5",
        "streetName": "CASEBRIDGE",
        "streetDirectionId": null,
        "streetTypeId": "CRT",
        "placeName": "SCARBOROUGH",
        "streetNameDisplayText": "CASEBRIDGE CRT, SCARBOROUGH"
      }
    ]
  },
  {
    "postal": "M1B4J5",
    "result": [
      {
        "electoralDistricts": [
          {
            "election": null,
            "id": 97,
            "name": "Scarborough—Rouge Park"
          }
        ],
        "pollDivisionIds": [
          10141735
        ],
        "postalCode": "M1B4J5",
        "streetName": "GREENLEAF",
        "streetDirectionId": null,
        "streetTypeId": "TERR",
        "placeName": "SCARBOROUGH",
        "streetNameDisplayText": "GREENLEAF TERR, SCARBOROUGH"
      }
    ]
  },
  {
    "postal": "M1B6J2",
    "result": [
      {
        "electoralDistricts": [
          {
            "election": null,
            "id": 96,
            "name": "Scarborough North"
          }
        ],
        "pollDivisionIds": [
          10141707
        ],
        "postalCode": "M1B6J2",
        "streetName": "PINERY",
        "streetDirectionId": null,
        "streetTypeId": "TRAIL",
        "placeName": "SCARBOROUGH",
        "streetNameDisplayText": "PINERY TRAIL, SCARBOROUGH"
      }
    ]
  },
  {
    "postal": "M1B5V6",
    "result": [
      {
        "electoralDistricts": [
          {
            "election": null,
            "id": 96,
            "name": "Scarborough North"
          }
        ],
        "pollDivisionIds": [
          10141707
        ],
        "postalCode": "M1B5V6",
        "streetName": "MARKHAM",
        "streetDirectionId": null,
        "streetTypeId": "RD",
        "placeName": "SCARBOROUGH",
        "streetNameDisplayText": "MARKHAM RD, SCARBOROUGH"
      }
    ]
  },
  {
    "postal": "M1B3N2",
    "result": []
  },
  {
    "postal": "M1B3B1",
    "result": [
      {
        "electoralDistricts": [
          {
            "election": null,
            "id": 97,
            "name": "Scarborough—Rouge Park"
          }
        ],
        "pollDivisionIds": [
          10141737
        ],
        "postalCode": "M1B3B1",
        "streetName": "FAWCETT",
        "streetDirectionId": null,
        "streetTypeId": "TRAIL",
        "placeName": "SCARBOROUGH",
        "streetNameDisplayText": "FAWCETT TRAIL, SCARBOROUGH"
      }
    ]
  },
  {
    "postal": "M1B8B5",
    "result": []
  },
  {
    "postal": "M1B0K1",
    "result": []
  },
  {
    "postal": "M1B7M7",
    "result": []
  },
  {
    "postal": "M1B2M2",
    "result": [
      {
        "electoralDistricts": [
          {
            "election": null,
            "id": 97,
            "name": "Scarborough—Rouge Park"
          }
        ],
        "pollDivisionIds": [
          10141741
        ],
        "postalCode": "M1B2M2",
        "streetName": "SADDLEBACK",
        "streetDirectionId": null,
        "streetTypeId": "CRT",
        "placeName": "SCARBOROUGH",
        "streetNameDisplayText": "SADDLEBACK CRT, SCARBOROUGH"
      }
    ]
  },
  {
    "postal": "M1B9N3",
    "result": []
  },
  {
    "postal": "M1B4Y8",
    "result": [
      {
        "electoralDistricts": [
          {
            "election": null,
            "id": 97,
            "name": "Scarborough—Rouge Park"
          }
        ],
        "pollDivisionIds": [
          10141743
        ],
        "postalCode": "M1B4Y8",
        "streetName": "DURNESS",
        "streetDirectionId": null,
        "streetTypeId": "AVE",
        "placeName": "SCARBOROUGH",
        "streetNameDisplayText": "DURNESS AVE, SCARBOROUGH"
      }
    ]
  },
  {
    "postal": "M1B3V7",
    "result": [
      {
        "electoralDistricts": [
          {
            "election": null,
            "id": 97,
            "name": "Scarborough—Rouge Park"
          }
        ],
        "pollDivisionIds": [
          10141737,
          10141738
        ],
        "postalCode": "M1B3V7",
        "streetName": "SEWELLS",
        "streetDirectionId": null,
        "streetTypeId": "RD",
        "placeName": "SCARBOROUGH",
        "streetNameDisplayText": "SEWELLS RD, SCARBOROUGH"
      }
    ]
  },
  {
    "postal": "M1B8Z1",
    "result": []
  },
  {
    "postal": "M1B7B3",
    "result": []
  },
  {
    "postal": "M1B3A8",
    "result": [
      {
        "electoralDistricts": [
          {
            "election": null,
            "id": 97,
            "name": "Scarborough—Rouge Park"
          }
        ],
        "pollDivisionIds": [
          10141737
        ],
        "postalCode": "M1B3A8",
        "streetName": "FAWCETT",
        "streetDirectionId": null,
        "streetTypeId": "TRAIL",
        "placeName": "SCARBOROUGH",
        "streetNameDisplayText": "FAWCETT TRAIL, SCARBOROUGH"
      }
    ]
  },
  {
    "postal": "M1B7V5",
    "result": []
  },
  {
    "postal": "M1B2T2",
    "result": [
      {
        "electoralDistricts": [
          {
            "election": null,
            "id": 97,
            "name": "Scarborough—Rouge Park"
          }
        ],
        "pollDivisionIds": [
          10141737
        ],
        "postalCode": "M1B2T2",
        "streetName": "WISHFORD",
        "streetDirectionId": null,
        "streetTypeId": "DR",
        "placeName": "SCARBOROUGH",
        "streetNameDisplayText": "WISHFORD DR, SCARBOROUGH"
      }
    ]
  },
  {
    "postal": "M1B6L3",
    "result": []
  },
  {
    "postal": "M1B0L2",
    "result": []
  },
  {
    "postal": "M1B5Y8",
    "result": []
  },
  {
    "postal": "M1B0B8",
    "result": []
  },
  {
    "postal": "M1B6R5",
    "result": []
  },
  {
    "postal": "M1B8W6",
    "result": []
  },
  {
    "postal": "M1B8G6",
    "result": []
  },
  {
    "postal": "M1B6X3",
    "result": []
  },
  {
    "postal": "M1B7R7",
    "result": []
  },
  {
    "postal": "M1B4B6",
    "result": [
      {
        "electoralDistricts": [
          {
            "election": null,
            "id": 97,
            "name": "Scarborough—Rouge Park"
          }
        ],
        "pollDivisionIds": [
          10141737
        ],
        "postalCode": "M1B4B6",
        "streetName": "PLUMROSE",
        "streetDirectionId": null,
        "streetTypeId": "PTWAY",
        "placeName": "SCARBOROUGH",
        "streetNameDisplayText": "PLUMROSE PTWAY, SCARBOROUGH"
      }
    ]
  },
  {
    "postal": "M1B3P9",
    "result": []
  },
  {
    "postal": "M1B2T3",
    "result": [
      {
        "electoralDistricts": [
          {
            "election": null,
            "id": 97,
            "name": "Scarborough—Rouge Park"
          }
        ],
        "pollDivisionIds": [
          10141737
        ],
        "postalCode": "M1B2T3",
        "streetName": "WISHFORD",
        "streetDirectionId": null,
        "streetTypeId": "DR",
        "placeName": "SCARBOROUGH",
        "streetNameDisplayText": "WISHFORD DR, SCARBOROUGH"
      }
    ]
  },
  {
    "postal": "M1B1M4",
    "result": [
      {
        "electoralDistricts": [
          {
            "election": null,
            "id": 97,
            "name": "Scarborough—Rouge Park"
          }
        ],
        "pollDivisionIds": [
          10141738
        ],
        "postalCode": "M1B1M4",
        "streetName": "WICKSON",
        "streetDirectionId": null,
        "streetTypeId": "TRAIL",
        "placeName": "SCARBOROUGH",
        "streetNameDisplayText": "WICKSON TRAIL, SCARBOROUGH"
      }
    ]
  },
  {
    "postal": "M1B0H1",
    "result": []
  },
  {
    "postal": "M1B9W3",
    "result": []
  },
  {
    "postal": "M1B6P1",
    "result": []
  },
  {
    "postal": "M1B7G2",
    "result": []
  },
  {
    "postal": "M1B4J9",
    "result": [
      {
        "electoralDistricts": [
          {
            "election": null,
            "id": 97,
            "name": "Scarborough—Rouge Park"
          }
        ],
        "pollDivisionIds": [
          10141735
        ],
        "postalCode": "M1B4J9",
        "streetName": "JACOB FISHER",
        "streetDirectionId": null,
        "streetTypeId": "DR",
        "placeName": "SCARBOROUGH",
        "streetNameDisplayText": "JACOB FISHER DR, SCARBOROUGH"
      },
      {
        "electoralDistricts": [
          {
            "election": null,
            "id": 97,
            "name": "Scarborough—Rouge Park"
          }
        ],
        "pollDivisionIds": [
          10141735
        ],
        "postalCode": "M1B4J9",
        "streetName": "PENNYHILL",
        "streetDirectionId": null,
        "streetTypeId": "DR",
        "placeName": "SCARBOROUGH",
        "streetNameDisplayText": "PENNYHILL DR, SCARBOROUGH"
      }
    ]
  },
  {
    "postal": "M1B9E4",
    "result": []
  },
  {
    "postal": "M1B8H0",
    "result": []
  },
  {
    "postal": "M1B4M7",
    "result": [
      {
        "electoralDistricts": [
          {
            "election": null,
            "id": 97,
            "name": "Scarborough—Rouge Park"
          }
        ],
        "pollDivisionIds": [
          10141735
        ],
        "postalCode": "M1B4M7",
        "streetName": "COURTLANDS",
        "streetDirectionId": null,
        "streetTypeId": "DR",
        "placeName": "SCARBOROUGH",
        "streetNameDisplayText": "COURTLANDS DR, SCARBOROUGH"
      }
    ]
  },
  {
    "postal": "M1B2G9",
    "result": []
  },
  {
    "postal": "M1B8T2",
    "result": []
  },
  {
    "postal": "M1B7G7",
    "result": []
  },
  {
    "postal": "M1B4Z3",
    "result": [
      {
        "electoralDistricts": [
          {
            "election": null,
            "id": 97,
            "name": "Scarborough—Rouge Park"
          }
        ],
        "pollDivisionIds": [
          10141757
        ],
        "postalCode": "M1B4Z3",
        "streetName": "SILVER BELL",
        "streetDirectionId": null,
        "streetTypeId": "GROVE",
        "placeName": "SCARBOROUGH",
        "streetNameDisplayText": "SILVER BELL GROVE, SCARBOROUGH"
      }
    ]
  },
  {
    "postal": "M1B5B3",
    "result": [
      {
        "electoralDistricts": [
          {
            "election": null,
            "id": 97,
            "name": "Scarborough—Rouge Park"
          }
        ],
        "pollDivisionIds": [
          10141734
        ],
        "postalCode": "M1B5B3",
        "streetName": "GRAYSON",
        "streetDirectionId": null,
        "streetTypeId": "CRES",
        "placeName": "SCARBOROUGH",
        "streetNameDisplayText": "GRAYSON CRES, SCARBOROUGH"
      }
    ]
  },
  {
    "postal": "M1B1S7",
    "result": [
      {
        "electoralDistricts": [
          {
            "election": null,
            "id": 96,
            "name": "Scarborough North"
          }
        ],
        "pollDivisionIds": [
          10141715
        ],
        "postalCode": "M1B1S7",
        "streetName": "MALVERN",
        "streetDirectionId": null,
        "streetTypeId": "ST",
        "placeName": "SCARBOROUGH",
        "streetNameDisplayText": "MALVERN ST, SCARBOROUGH"
      }
    ]
  },
  {
    "postal": "M1B2N7",
    "result": [
      {
        "electoralDistricts": [
          {
            "election": null,
            "id": 97,
            "name": "Scarborough—Rouge Park"
          }
        ],
        "pollDivisionIds": [
          10141742
        ],
        "postalCode": "M1B2N7",
        "streetName": "BRIARCREEK",
        "streetDirectionId": null,
        "streetTypeId": "RD",
        "placeName": "SCARBOROUGH",
        "streetNameDisplayText": "BRIARCREEK RD, SCARBOROUGH"
      }
    ]
  },
  {
    "postal": "M1B0H8",
    "result": []
  },
  {
    "postal": "M1B7Z4",
    "result": []
  },
  {
    "postal": "M1B7B1",
    "result": []
  },
  {
    "postal": "M1B7P8",
    "result": []
  },
  {
    "postal": "M1B7N0",
    "result": []
  },
  {
    "postal": "M1B3Y5",
    "result": [
      {
        "electoralDistricts": [
          {
            "election": null,
            "id": 97,
            "name": "Scarborough—Rouge Park"
          }
        ],
        "pollDivisionIds": [
          10141737
        ],
        "postalCode": "M1B3Y5",
        "streetName": "EMPRINGHAM",
        "streetDirectionId": null,
        "streetTypeId": "DR",
        "placeName": "SCARBOROUGH",
        "streetNameDisplayText": "EMPRINGHAM DR, SCARBOROUGH"
      },
      {
        "electoralDistricts": [
          {
            "election": null,
            "id": 96,
            "name": "Scarborough North"
          }
        ],
        "pollDivisionIds": [
          10141712
        ],
        "postalCode": "M1B3Y5",
        "streetName": "EMPRINGHAM DR.",
        "streetDirectionId": null,
        "streetTypeId": "DR",
        "placeName": "SCARBOROUGH",
        "streetNameDisplayText": "EMPRINGHAM DR. DR, SCARBOROUGH"
      }
    ]
  },
  {
    "postal": "M1B6K1",
    "result": [
      {
        "electoralDistricts": [
          {
            "election": null,
            "id": 96,
            "name": "Scarborough North"
          }
        ],
        "pollDivisionIds": [
          10141707
        ],
        "postalCode": "M1B6K1",
        "streetName": "PINERY",
        "streetDirectionId": null,
        "streetTypeId": "TRAIL",
        "placeName": "SCARBOROUGH",
        "streetNameDisplayText": "PINERY TRAIL, SCARBOROUGH"
      }
    ]
  },
  {
    "postal": "M1B9X5",
    "result": []
  },
  {
    "postal": "M1B7S5",
    "result": []
  },
  {
    "postal": "M1B0A4",
    "result": [
      {
        "electoralDistricts": [
          {
            "election": null,
            "id": 97,
            "name": "Scarborough—Rouge Park"
          }
        ],
        "pollDivisionIds": [
          10141743
        ],
        "postalCode": "M1B0A4",
        "streetName": "HUXTABLE",
        "streetDirectionId": null,
        "streetTypeId": "LANE",
        "placeName": "SCARBOROUGH",
        "streetNameDisplayText": "HUXTABLE LANE, SCARBOROUGH"
      }
    ]
  },
  {
    "postal": "M1B4T5",
    "result": [
      {
        "electoralDistricts": [
          {
            "election": null,
            "id": 97,
            "name": "Scarborough—Rouge Park"
          }
        ],
        "pollDivisionIds": [
          10141743
        ],
        "postalCode": "M1B4T5",
        "streetName": "ROYAL ROUGE",
        "streetDirectionId": null,
        "streetTypeId": "TRAIL",
        "placeName": "SCARBOROUGH",
        "streetNameDisplayText": "ROYAL ROUGE TRAIL, SCARBOROUGH"
      }
    ]
  },
  {
    "postal": "M1B5K1",
    "result": [
      {
        "electoralDistricts": [
          {
            "election": null,
            "id": 96,
            "name": "Scarborough North"
          }
        ],
        "pollDivisionIds": [
          10141715
        ],
        "postalCode": "M1B5K1",
        "streetName": "MCLEVIN",
        "streetDirectionId": null,
        "streetTypeId": "AVE",
        "placeName": "SCARBOROUGH",
        "streetNameDisplayText": "MCLEVIN AVE, SCARBOROUGH"
      }
    ]
  },
  {
    "postal": "M1B0Z9",
    "result": []
  },
  {
    "postal": "M1B7T2",
    "result": []
  },
  {
    "postal": "M1B1L5",
    "result": [
      {
        "electoralDistricts": [
          {
            "election": null,
            "id": 97,
            "name": "Scarborough—Rouge Park"
          }
        ],
        "pollDivisionIds": [
          10141740
        ],
        "postalCode": "M1B1L5",
        "streetName": "BLACKWATER",
        "streetDirectionId": null,
        "streetTypeId": "CRES",
        "placeName": "SCARBOROUGH",
        "streetNameDisplayText": "BLACKWATER CRES, SCARBOROUGH"
      }
    ]
  },
  {
    "postal": "M1B3N5",
    "result": []
  },
  {
    "postal": "M1B6H4",
    "result": [
      {
        "electoralDistricts": [
          {
            "election": null,
            "id": 97,
            "name": "Scarborough—Rouge Park"
          }
        ],
        "pollDivisionIds": [
          10141739
        ],
        "postalCode": "M1B6H4",
        "streetName": "REINDEER",
        "streetDirectionId": null,
        "streetTypeId": "DR",
        "placeName": "SCARBOROUGH",
        "streetNameDisplayText": "REINDEER DR, SCARBOROUGH"
      }
    ]
  },
  {
    "postal": "M1B5A5",
    "result": [
      {
        "electoralDistricts": [
          {
            "election": null,
            "id": 97,
            "name": "Scarborough—Rouge Park"
          }
        ],
        "pollDivisionIds": [
          10141734
        ],
        "postalCode": "M1B5A5",
        "streetName": "GENNELA",
        "streetDirectionId": null,
        "streetTypeId": "SQ",
        "placeName": "SCARBOROUGH",
        "streetNameDisplayText": "GENNELA SQ, SCARBOROUGH"
      }
    ]
  },
  {
    "postal": "M1B3R9",
    "result": [
      {
        "electoralDistricts": [
          {
            "election": null,
            "id": 97,
            "name": "Scarborough—Rouge Park"
          }
        ],
        "pollDivisionIds": [
          10141740
        ],
        "postalCode": "M1B3R9",
        "streetName": "MURISON",
        "streetDirectionId": null,
        "streetTypeId": "BLVD",
        "placeName": "SCARBOROUGH",
        "streetNameDisplayText": "MURISON BLVD, SCARBOROUGH"
      }
    ]
  },
  {
    "postal": "M1B7L8",
    "result": []
  },
  {
    "postal": "M1B6T6",
    "result": []
  },
  {
    "postal": "M1B7Y7",
    "result": []
  },
  {
    "postal": "M1B3M8",
    "result": []
  },
  {
    "postal": "M1B2E0",
    "result": []
  },
  {
    "postal": "M1B4B5",
    "result": [
      {
        "electoralDistricts": [
          {
            "election": null,
            "id": 97,
            "name": "Scarborough—Rouge Park"
          }
        ],
        "pollDivisionIds": [
          10141737
        ],
        "postalCode": "M1B4B5",
        "streetName": "EMPRINGHAM",
        "streetDirectionId": null,
        "streetTypeId": "DR",
        "placeName": "SCARBOROUGH",
        "streetNameDisplayText": "EMPRINGHAM DR, SCARBOROUGH"
      },
      {
        "electoralDistricts": [
          {
            "election": null,
            "id": 97,
            "name": "Scarborough—Rouge Park"
          }
        ],
        "pollDivisionIds": [
          10141737
        ],
        "postalCode": "M1B4B5",
        "streetName": "PLUMROSE",
        "streetDirectionId": null,
        "streetTypeId": "PTWAY",
        "placeName": "SCARBOROUGH",
        "streetNameDisplayText": "PLUMROSE PTWAY, SCARBOROUGH"
      }
    ]
  },
  {
    "postal": "M1B1J3",
    "result": [
      {
        "electoralDistricts": [
          {
            "election": null,
            "id": 96,
            "name": "Scarborough North"
          }
        ],
        "pollDivisionIds": [
          10141715
        ],
        "postalCode": "M1B1J3",
        "streetName": "GOSKIN",
        "streetDirectionId": null,
        "streetTypeId": "CRT",
        "placeName": "SCARBOROUGH",
        "streetNameDisplayText": "GOSKIN CRT, SCARBOROUGH"
      }
    ]
  },
  {
    "postal": "M1B5S6",
    "result": []
  },
  {
    "postal": "M1B8P7",
    "result": []
  },
  {
    "postal": "M1B7S7",
    "result": []
  },
  {
    "postal": "M1B4C2",
    "result": [
      {
        "electoralDistricts": [
          {
            "election": null,
            "id": 97,
            "name": "Scarborough—Rouge Park"
          }
        ],
        "pollDivisionIds": [
          10141737
        ],
        "postalCode": "M1B4C2",
        "streetName": "ALFORD",
        "streetDirectionId": null,
        "streetTypeId": "CRES",
        "placeName": "SCARBOROUGH",
        "streetNameDisplayText": "ALFORD CRES, SCARBOROUGH"
      }
    ]
  },
  {
    "postal": "M1B5Y0",
    "result": []
  },
  {
    "postal": "M1B2V7",
    "result": []
  },
  {
    "postal": "M1B8P5",
    "result": []
  },
  {
    "postal": "M1B5P5",
    "result": []
  },
  {
    "postal": "M1B5Z0",
    "result": []
  },
  {
    "postal": "M1B9B0",
    "result": []
  },
  {
    "postal": "M1B1L0",
    "result": []
  },
  {
    "postal": "M1B0B5",
    "result": [
      {
        "electoralDistricts": [
          {
            "election": null,
            "id": 97,
            "name": "Scarborough—Rouge Park"
          }
        ],
        "pollDivisionIds": [
          10141743
        ],
        "postalCode": "M1B0B5",
        "streetName": "TIDESWELL",
        "streetDirectionId": null,
        "streetTypeId": "BLVD",
        "placeName": "SCARBOROUGH",
        "streetNameDisplayText": "TIDESWELL BLVD, SCARBOROUGH"
      }
    ]
  },
  {
    "postal": "M1B3L2",
    "result": []
  },
  {
    "postal": "M1B3B7",
    "result": [
      {
        "electoralDistricts": [
          {
            "election": null,
            "id": 97,
            "name": "Scarborough—Rouge Park"
          }
        ],
        "pollDivisionIds": [
          10141737
        ],
        "postalCode": "M1B3B7",
        "streetName": "JOHN STONER",
        "streetDirectionId": null,
        "streetTypeId": "DR",
        "placeName": "SCARBOROUGH",
        "streetNameDisplayText": "JOHN STONER DR, SCARBOROUGH"
      }
    ]
  },
  {
    "postal": "M1B8L1",
    "result": []
  },
  {
    "postal": "M1B5M4",
    "result": [
      {
        "electoralDistricts": [
          {
            "election": null,
            "id": 97,
            "name": "Scarborough—Rouge Park"
          }
        ],
        "pollDivisionIds": [
          10141739
        ],
        "postalCode": "M1B5M4",
        "streetName": "MORNINGSIDE",
        "streetDirectionId": null,
        "streetTypeId": "AVE",
        "placeName": "SCARBOROUGH",
        "streetNameDisplayText": "MORNINGSIDE AVE, SCARBOROUGH"
      }
    ]
  },
  {
    "postal": "M1B4G9",
    "result": [
      {
        "electoralDistricts": [
          {
            "election": null,
            "id": 97,
            "name": "Scarborough—Rouge Park"
          }
        ],
        "pollDivisionIds": [
          10141735
        ],
        "postalCode": "M1B4G9",
        "streetName": "PROSPERITY",
        "streetDirectionId": null,
        "streetTypeId": "PTWAY",
        "placeName": "SCARBOROUGH",
        "streetNameDisplayText": "PROSPERITY PTWAY, SCARBOROUGH"
      }
    ]
  },
  {
    "postal": "M1B0P0",
    "result": []
  },
  {
    "postal": "M1B8G2",
    "result": []
  },
  {
    "postal": "M1B1V9",
    "result": [
      {
        "electoralDistricts": [
          {
            "election": null,
            "id": 96,
            "name": "Scarborough North"
          }
        ],
        "pollDivisionIds": [
          10141707
        ],
        "postalCode": "M1B1V9",
        "streetName": "TROTT",
        "streetDirectionId": null,
        "streetTypeId": "SQ",
        "placeName": "SCARBOROUGH",
        "streetNameDisplayText": "TROTT SQ, SCARBOROUGH"
      }
    ]
  },
  {
    "postal": "M1B8N8",
    "result": []
  },
  {
    "postal": "M1B6S8",
    "result": []
  },
  {
    "postal": "M1B8H2",
    "result": []
  },
  {
    "postal": "M1B5R8",
    "result": []
  },
  {
    "postal": "M1B5L4",
    "result": [
      {
        "electoralDistricts": [
          {
            "election": null,
            "id": 97,
            "name": "Scarborough—Rouge Park"
          }
        ],
        "pollDivisionIds": [
          10141734
        ],
        "postalCode": "M1B5L4",
        "streetName": "MORNINGVIEW",
        "streetDirectionId": null,
        "streetTypeId": "TRAIL",
        "placeName": "SCARBOROUGH",
        "streetNameDisplayText": "MORNINGVIEW TRAIL, SCARBOROUGH"
      },
      {
        "electoralDistricts": [
          {
            "election": null,
            "id": 97,
            "name": "Scarborough—Rouge Park"
          }
        ],
        "pollDivisionIds": [
          10141734
        ],
        "postalCode": "M1B5L4",
        "streetName": "RANGELEY",
        "streetDirectionId": null,
        "streetTypeId": "DR",
        "placeName": "SCARBOROUGH",
        "streetNameDisplayText": "RANGELEY DR, SCARBOROUGH"
      }
    ]
  },
  {
    "postal": "M1B9E1",
    "result": []
  },
  {
    "postal": "M1B1C4",
    "result": [
      {
        "electoralDistricts": [
          {
            "election": null,
            "id": 96,
            "name": "Scarborough North"
          }
        ],
        "pollDivisionIds": [
          10141712
        ],
        "postalCode": "M1B1C4",
        "streetName": "HOWELL",
        "streetDirectionId": null,
        "streetTypeId": "SQ",
        "placeName": "SCARBOROUGH",
        "streetNameDisplayText": "HOWELL SQ, SCARBOROUGH"
      }
    ]
  },
  {
    "postal": "M1B8W5",
    "result": []
  },
  {
    "postal": "M1B1Y4",
    "result": [
      {
        "electoralDistricts": [
          {
            "election": null,
            "id": 96,
            "name": "Scarborough North"
          }
        ],
        "pollDivisionIds": [
          10141707
        ],
        "postalCode": "M1B1Y4",
        "streetName": "TAPSCOTT",
        "streetDirectionId": null,
        "streetTypeId": "RD",
        "placeName": "SCARBOROUGH",
        "streetNameDisplayText": "TAPSCOTT RD, SCARBOROUGH"
      }
    ]
  },
  {
    "postal": "M1B1C0",
    "result": []
  },
  {
    "postal": "M1B2J2",
    "result": [
      {
        "electoralDistricts": [
          {
            "election": null,
            "id": 97,
            "name": "Scarborough—Rouge Park"
          }
        ],
        "pollDivisionIds": [
          10141742
        ],
        "postalCode": "M1B2J2",
        "streetName": "ROTARY",
        "streetDirectionId": null,
        "streetTypeId": "DR",
        "placeName": "SCARBOROUGH",
        "streetNameDisplayText": "ROTARY DR, SCARBOROUGH"
      }
    ]
  },
  {
    "postal": "M1B2J0",
    "result": []
  },
  {
    "postal": "M1B7A3",
    "result": []
  },
  {
    "postal": "M1B8M1",
    "result": []
  },
  {
    "postal": "M1B7T9",
    "result": []
  },
  {
    "postal": "M1B6C0",
    "result": []
  },
  {
    "postal": "M1B7X1",
    "result": []
  },
  {
    "postal": "M1B0G1",
    "result": []
  },
  {
    "postal": "M1B4X2",
    "result": [
      {
        "electoralDistricts": [
          {
            "election": null,
            "id": 97,
            "name": "Scarborough—Rouge Park"
          }
        ],
        "pollDivisionIds": [
          10141743
        ],
        "postalCode": "M1B4X2",
        "streetName": "CARLISLE",
        "streetDirectionId": null,
        "streetTypeId": "CRES",
        "placeName": "SCARBOROUGH",
        "streetNameDisplayText": "CARLISLE CRES, SCARBOROUGH"
      },
      {
        "electoralDistricts": [
          {
            "election": null,
            "id": 97,
            "name": "Scarborough—Rouge Park"
          }
        ],
        "pollDivisionIds": [
          10141743
        ],
        "postalCode": "M1B4X2",
        "streetName": "RYLANDER",
        "streetDirectionId": null,
        "streetTypeId": "BLVD",
        "placeName": "SCARBOROUGH",
        "streetNameDisplayText": "RYLANDER BLVD, SCARBOROUGH"
      }
    ]
  },
  {
    "postal": "M1B0N6",
    "result": []
  },
  {
    "postal": "M1B8E3",
    "result": []
  },
  {
    "postal": "M1B5S8",
    "result": []
  },
  {
    "postal": "M1B0R0",
    "result": []
  },
  {
    "postal": "M1B6J6",
    "result": [
      {
        "electoralDistricts": [
          {
            "election": null,
            "id": 97,
            "name": "Scarborough—Rouge Park"
          }
        ],
        "pollDivisionIds": [
          10141739
        ],
        "postalCode": "M1B6J6",
        "streetName": "CHIPMUNK",
        "streetDirectionId": null,
        "streetTypeId": "AVE",
        "placeName": "SCARBOROUGH",
        "streetNameDisplayText": "CHIPMUNK AVE, SCARBOROUGH"
      },
      {
        "electoralDistricts": [
          {
            "election": null,
            "id": 97,
            "name": "Scarborough—Rouge Park"
          }
        ],
        "pollDivisionIds": [
          10141739
        ],
        "postalCode": "M1B6J6",
        "streetName": "MILLCAR",
        "streetDirectionId": null,
        "streetTypeId": "DR",
        "placeName": "SCARBOROUGH",
        "streetNameDisplayText": "MILLCAR DR, SCARBOROUGH"
      }
    ]
  },
  {
    "postal": "M1B4B4",
    "result": [
      {
        "electoralDistricts": [
          {
            "election": null,
            "id": 97,
            "name": "Scarborough—Rouge Park"
          }
        ],
        "pollDivisionIds": [
          10141737
        ],
        "postalCode": "M1B4B4",
        "streetName": "PLUMROSE",
        "streetDirectionId": null,
        "streetTypeId": "PTWAY",
        "placeName": "SCARBOROUGH",
        "streetNameDisplayText": "PLUMROSE PTWAY, SCARBOROUGH"
      }
    ]
  },
  {
    "postal": "M1B7E3",
    "result": []
  },
  {
    "postal": "M1B3N6",
    "result": []
  },
  {
    "postal": "M1B3X6",
    "result": [
      {
        "electoralDistricts": [
          {
            "election": null,
            "id": 97,
            "name": "Scarborough—Rouge Park"
          }
        ],
        "pollDivisionIds": [
          10141740
        ],
        "postalCode": "M1B3X6",
        "streetName": "SHADOWOOD",
        "streetDirectionId": null,
        "streetTypeId": "CRT",
        "placeName": "SCARBOROUGH",
        "streetNameDisplayText": "SHADOWOOD CRT, SCARBOROUGH"
      }
    ]
  },
  {
    "postal": "M1B8L0",
    "result": []
  },
  {
    "postal": "M1B8N1",
    "result": []
  },
  {
    "postal": "M1B4J0",
    "result": []
  },
  {
    "postal": "M1B0X7",
    "result": []
  },
  {
    "postal": "M1B6S4",
    "result": []
  },
  {
    "postal": "M1B0Z0",
    "result": []
  },
  {
    "postal": "M1B9X8",
    "result": []
  },
  {
    "postal": "M1B3H3",
    "result": [
      {
        "electoralDistricts": [
          {
            "election": null,
            "id": 96,
            "name": "Scarborough North"
          }
        ],
        "pollDivisionIds": [
          10141712
        ],
        "postalCode": "M1B3H3",
        "streetName": "SHEPMORE",
        "streetDirectionId": null,
        "streetTypeId": "TERR",
        "placeName": "SCARBOROUGH",
        "streetNameDisplayText": "SHEPMORE TERR, SCARBOROUGH"
      }
    ]
  },
  {
    "postal": "M1B7S2",
    "result": []
  },
  {
    "postal": "M1B3T3",
    "result": [
      {
        "electoralDistricts": [
          {
            "election": null,
            "id": 97,
            "name": "Scarborough—Rouge Park"
          }
        ],
        "pollDivisionIds": [
          10141740
        ],
        "postalCode": "M1B3T3",
        "streetName": "MURISON",
        "streetDirectionId": null,
        "streetTypeId": "BLVD",
        "placeName": "SCARBOROUGH",
        "streetNameDisplayText": "MURISON BLVD, SCARBOROUGH"
      }
    ]
  },
  {
    "postal": "M1B9P3",
    "result": []
  },
  {
    "postal": "M1B4H8",
    "result": [
      {
        "electoralDistricts": [
          {
            "election": null,
            "id": 97,
            "name": "Scarborough—Rouge Park"
          }
        ],
        "pollDivisionIds": [
          10141735
        ],
        "postalCode": "M1B4H8",
        "streetName": "PENNYHILL",
        "streetDirectionId": null,
        "streetTypeId": "DR",
        "placeName": "SCARBOROUGH",
        "streetNameDisplayText": "PENNYHILL DR, SCARBOROUGH"
      }
    ]
  },
  {
    "postal": "M1B6R1",
    "result": []
  },
  {
    "postal": "M1B1S0",
    "result": []
  },
  {
    "postal": "M1B3W8",
    "result": [
      {
        "electoralDistricts": [
          {
            "election": null,
            "id": 96,
            "name": "Scarborough North"
          }
        ],
        "pollDivisionIds": [
          10141712
        ],
        "postalCode": "M1B3W8",
        "streetName": "GATEFORTH",
        "streetDirectionId": null,
        "streetTypeId": "DR",
        "placeName": "SCARBOROUGH",
        "streetNameDisplayText": "GATEFORTH DR, SCARBOROUGH"
      }
    ]
  },
  {
    "postal": "M1B4S3",
    "result": [
      {
        "electoralDistricts": [
          {
            "election": null,
            "id": 97,
            "name": "Scarborough—Rouge Park"
          }
        ],
        "pollDivisionIds": [
          10141735
        ],
        "postalCode": "M1B4S3",
        "streetName": "HORSESHOE",
        "streetDirectionId": null,
        "streetTypeId": "CRES",
        "placeName": "SCARBOROUGH",
        "streetNameDisplayText": "HORSESHOE CRES, SCARBOROUGH"
      },
      {
        "electoralDistricts": [
          {
            "election": null,
            "id": 97,
            "name": "Scarborough—Rouge Park"
          }
        ],
        "pollDivisionIds": [
          10141735
        ],
        "postalCode": "M1B4S3",
        "streetName": "HUPFIELD",
        "streetDirectionId": null,
        "streetTypeId": "TRAIL",
        "placeName": "SCARBOROUGH",
        "streetNameDisplayText": "HUPFIELD TRAIL, SCARBOROUGH"
      }
    ]
  },
  {
    "postal": "M1B1B6",
    "result": [
      {
        "electoralDistricts": [
          {
            "election": null,
            "id": 96,
            "name": "Scarborough North"
          }
        ],
        "pollDivisionIds": [
          10141712
        ],
        "postalCode": "M1B1B6",
        "streetName": "BERNER",
        "streetDirectionId": null,
        "streetTypeId": "TRAIL",
        "placeName": "SCARBOROUGH",
        "streetNameDisplayText": "BERNER TRAIL, SCARBOROUGH"
      }
    ]
  },
  {
    "postal": "M1B8R3",
    "result": []
  },
  {
    "postal": "M1B4V9",
    "result": [
      {
        "electoralDistricts": [
          {
            "election": null,
            "id": 97,
            "name": "Scarborough—Rouge Park"
          }
        ],
        "pollDivisionIds": [
          10141743
        ],
        "postalCode": "M1B4V9",
        "streetName": "JOHN GRAHAM",
        "streetDirectionId": null,
        "streetTypeId": "CRT",
        "placeName": "SCARBOROUGH",
        "streetNameDisplayText": "JOHN GRAHAM CRT, SCARBOROUGH"
      }
    ]
  },
  {
    "postal": "M1B9W4",
    "result": []
  },
  {
    "postal": "M1B3T4",
    "result": []
  },
  {
    "postal": "M1B5C7",
    "result": [
      {
        "electoralDistricts": [
          {
            "election": null,
            "id": 97,
            "name": "Scarborough—Rouge Park"
          }
        ],
        "pollDivisionIds": [
          10141734
        ],
        "postalCode": "M1B5C7",
        "streetName": "BIRRELL",
        "streetDirectionId": null,
        "streetTypeId": "AVE",
        "placeName": "SCARBOROUGH",
        "streetNameDisplayText": "BIRRELL AVE, SCARBOROUGH"
      }
    ]
  },
  {
    "postal": "M1B3Y1",
    "result": [
      {
        "electoralDistricts": [
          {
            "election": null,
            "id": 97,
            "name": "Scarborough—Rouge Park"
          }
        ],
        "pollDivisionIds": [
          10141737
        ],
        "postalCode": "M1B3Y1",
        "streetName": "EMPRINGHAM",
        "streetDirectionId": null,
        "streetTypeId": "DR",
        "placeName": "SCARBOROUGH",
        "streetNameDisplayText": "EMPRINGHAM DR, SCARBOROUGH"
      }
    ]
  },
  {
    "postal": "M1B5V0",
    "result": []
  },
  {
    "postal": "M1B8G8",
    "result": []
  },
  {
    "postal": "M1B8B1",
    "result": []
  },
  {
    "postal": "M1B4P5",
    "result": [
      {
        "electoralDistricts": [
          {
            "election": null,
            "id": 97,
            "name": "Scarborough—Rouge Park"
          }
        ],
        "pollDivisionIds": [
          10141735
        ],
        "postalCode": "M1B4P5",
        "streetName": "OVERLORD",
        "streetDirectionId": null,
        "streetTypeId": "CRES",
        "placeName": "SCARBOROUGH",
        "streetNameDisplayText": "OVERLORD CRES, SCARBOROUGH"
      }
    ]
  },
  {
    "postal": "M1B7B2",
    "result": []
  },
  {
    "postal": "M1B0R2",
    "result": []
  },
  {
    "postal": "M1B4M4",
    "result": [
      {
        "electoralDistricts": [
          {
            "election": null,
            "id": 97,
            "name": "Scarborough—Rouge Park"
          }
        ],
        "pollDivisionIds": [
          10141735
        ],
        "postalCode": "M1B4M4",
        "streetName": "CARISBROOKE",
        "streetDirectionId": null,
        "streetTypeId": "SQ",
        "placeName": "SCARBOROUGH",
        "streetNameDisplayText": "CARISBROOKE SQ, SCARBOROUGH"
      }
    ]
  },
  {
    "postal": "M1B7M4",
    "result": []
  },
  {
    "postal": "M1B9S7",
    "result": []
  },
  {
    "postal": "M1B5Z7",
    "result": []
  },
  {
    "postal": "M1B7J7",
    "result": []
  },
  {
    "postal": "M1B8R8",
    "result": []
  },
  {
    "postal": "M1B9X1",
    "result": []
  },
  {
    "postal": "M1B5M9",
    "result": [
      {
        "electoralDistricts": [
          {
            "election": null,
            "id": 97,
            "name": "Scarborough—Rouge Park"
          }
        ],
        "pollDivisionIds": [
          10141739
        ],
        "postalCode": "M1B5M9",
        "streetName": "CASEBRIDGE",
        "streetDirectionId": null,
        "streetTypeId": "CRT",
        "placeName": "SCARBOROUGH",
        "streetNameDisplayText": "CASEBRIDGE CRT, SCARBOROUGH"
      }
    ]
  },
  {
    "postal": "M1B9B4",
    "result": []
  },
  {
    "postal": "M1B0L9",
    "result": []
  },
  {
    "postal": "M1B9G4",
    "result": []
  },
  {
    "postal": "M1B1J4",
    "result": [
      {
        "electoralDistricts": [
          {
            "election": null,
            "id": 96,
            "name": "Scarborough North"
          }
        ],
        "pollDivisionIds": [
          10141715
        ],
        "postalCode": "M1B1J4",
        "streetName": "BURROWS HALL",
        "streetDirectionId": null,
        "streetTypeId": "BLVD",
        "placeName": "SCARBOROUGH",
        "streetNameDisplayText": "BURROWS HALL BLVD, SCARBOROUGH"
      }
    ]
  },
  {
    "postal": "M1B0W6",
    "result": []
  }
]
