[
  {
    "postal": "M1K9J6",
    "result": []
  },
  {
    "postal": "M1K9Z5",
    "result": []
  },
  {
    "postal": "M1K7H8",
    "result": []
  },
  {
    "postal": "M1K0P6",
    "result": []
  },
  {
    "postal": "M1K0S7",
    "result": []
  },
  {
    "postal": "M1K8B9",
    "result": []
  },
  {
    "postal": "M1K2A6",
    "result": [
      {
        "electoralDistricts": [
          {
            "election": null,
            "id": 98,
            "name": "Scarborough Southwest"
          }
        ],
        "pollDivisionIds": [
          10141783
        ],
        "postalCode": "M1K2A6",
        "streetName": "KENNEDY",
        "streetDirectionId": null,
        "streetTypeId": "RD",
        "placeName": "SCARBOROUGH",
        "streetNameDisplayText": "KENNEDY RD, SCARBOROUGH"
      }
    ]
  },
  {
    "postal": "M1K7V2",
    "result": []
  },
  {
    "postal": "M1K9P4",
    "result": []
  },
  {
    "postal": "M1K6G0",
    "result": []
  },
  {
    "postal": "M1K2K0",
    "result": []
  },
  {
    "postal": "M1K7N6",
    "result": []
  },
  {
    "postal": "M1K5R3",
    "result": []
  },
  {
    "postal": "M1K7K0",
    "result": []
  },
  {
    "postal": "M1K3R2",
    "result": [
      {
        "electoralDistricts": [
          {
            "election": null,
            "id": 98,
            "name": "Scarborough Southwest"
          }
        ],
        "pollDivisionIds": [
          10141791
        ],
        "postalCode": "M1K3R2",
        "streetName": "SAFARI",
        "streetDirectionId": null,
        "streetTypeId": "ST",
        "placeName": "SCARBOROUGH",
        "streetNameDisplayText": "SAFARI ST, SCARBOROUGH"
      }
    ]
  },
  {
    "postal": "M1K0J1",
    "result": []
  },
  {
    "postal": "M1K0B0",
    "result": []
  },
  {
    "postal": "M1K5Z2",
    "result": []
  },
  {
    "postal": "M1K7P3",
    "result": []
  },
  {
    "postal": "M1K2K3",
    "result": [
      {
        "electoralDistricts": [
          {
            "election": null,
            "id": 7,
            "name": "Beaches—East York"
          },
          {
            "election": null,
            "id": 98,
            "name": "Scarborough Southwest"
          }
        ],
        "pollDivisionIds": [
          10137043,
          10141786
        ],
        "postalCode": "M1K2K3",
        "streetName": "HOPECREST",
        "streetDirectionId": null,
        "streetTypeId": "CRES",
        "placeName": "SCARBOROUGH",
        "streetNameDisplayText": "HOPECREST CRES, SCARBOROUGH"
      }
    ]
  },
  {
    "postal": "M1K7Y6",
    "result": []
  },
  {
    "postal": "M1K1L9",
    "result": []
  },
  {
    "postal": "M1K8T0",
    "result": []
  },
  {
    "postal": "M1K3K8",
    "result": [
      {
        "electoralDistricts": [
          {
            "election": null,
            "id": 98,
            "name": "Scarborough Southwest"
          }
        ],
        "pollDivisionIds": [
          10141788,
          10141798
        ],
        "postalCode": "M1K3K8",
        "streetName": "MAGNOLIA",
        "streetDirectionId": null,
        "streetTypeId": "AVE",
        "placeName": "SCARBOROUGH",
        "streetNameDisplayText": "MAGNOLIA AVE, SCARBOROUGH"
      }
    ]
  },
  {
    "postal": "M1K5W9",
    "result": []
  },
  {
    "postal": "M1K6T9",
    "result": []
  },
  {
    "postal": "M1K4H1",
    "result": [
      {
        "electoralDistricts": [
          {
            "election": null,
            "id": 94,
            "name": "Scarborough Centre"
          }
        ],
        "pollDivisionIds": [
          10141586
        ],
        "postalCode": "M1K4H1",
        "streetName": "MIDLAND",
        "streetDirectionId": null,
        "streetTypeId": "AVE",
        "placeName": "SCARBOROUGH",
        "streetNameDisplayText": "MIDLAND AVE, SCARBOROUGH"
      }
    ]
  },
  {
    "postal": "M1K7A2",
    "result": []
  },
  {
    "postal": "M1K5G0",
    "result": []
  },
  {
    "postal": "M1K8V5",
    "result": []
  },
  {
    "postal": "M1K2Y8",
    "result": [
      {
        "electoralDistricts": [
          {
            "election": null,
            "id": 94,
            "name": "Scarborough Centre"
          }
        ],
        "pollDivisionIds": [
          10141578
        ],
        "postalCode": "M1K2Y8",
        "streetName": "CORINNE",
        "streetDirectionId": null,
        "streetTypeId": "CRES",
        "placeName": "SCARBOROUGH",
        "streetNameDisplayText": "CORINNE CRES, SCARBOROUGH"
      }
    ]
  },
  {
    "postal": "M1K2B6",
    "result": [
      {
        "electoralDistricts": [
          {
            "election": null,
            "id": 98,
            "name": "Scarborough Southwest"
          }
        ],
        "pollDivisionIds": [
          10141786
        ],
        "postalCode": "M1K2B6",
        "streetName": "KENNEDY",
        "streetDirectionId": null,
        "streetTypeId": "RD",
        "placeName": "SCARBOROUGH",
        "streetNameDisplayText": "KENNEDY RD, SCARBOROUGH"
      }
    ]
  },
  {
    "postal": "M1K4W8",
    "result": [
      {
        "electoralDistricts": [
          {
            "election": null,
            "id": 94,
            "name": "Scarborough Centre"
          }
        ],
        "pollDivisionIds": [
          10141586
        ],
        "postalCode": "M1K4W8",
        "streetName": "DEERFIELD",
        "streetDirectionId": null,
        "streetTypeId": "RD",
        "placeName": "SCARBOROUGH",
        "streetNameDisplayText": "DEERFIELD RD, SCARBOROUGH"
      }
    ]
  },
  {
    "postal": "M1K8H7",
    "result": []
  },
  {
    "postal": "M1K5P1",
    "result": []
  },
  {
    "postal": "M1K2B8",
    "result": [
      {
        "electoralDistricts": [
          {
            "election": null,
            "id": 98,
            "name": "Scarborough Southwest"
          }
        ],
        "pollDivisionIds": [
          10141788,
          10141787
        ],
        "postalCode": "M1K2B8",
        "streetName": "KENNEDY",
        "streetDirectionId": null,
        "streetTypeId": "RD",
        "placeName": "SCARBOROUGH",
        "streetNameDisplayText": "KENNEDY RD, SCARBOROUGH"
      }
    ]
  },
  {
    "postal": "M1K0P2",
    "result": []
  },
  {
    "postal": "M1K9M1",
    "result": []
  },
  {
    "postal": "M1K3G0",
    "result": []
  },
  {
    "postal": "M1K9Z2",
    "result": []
  },
  {
    "postal": "M1K2A0",
    "result": []
  },
  {
    "postal": "M1K6Y0",
    "result": []
  },
  {
    "postal": "M1K2Z8",
    "result": [
      {
        "electoralDistricts": [
          {
            "election": null,
            "id": 94,
            "name": "Scarborough Centre"
          }
        ],
        "pollDivisionIds": [
          10141578
        ],
        "postalCode": "M1K2Z8",
        "streetName": "IONVIEW",
        "streetDirectionId": null,
        "streetTypeId": "RD",
        "placeName": "SCARBOROUGH",
        "streetNameDisplayText": "IONVIEW RD, SCARBOROUGH"
      }
    ]
  },
  {
    "postal": "M1K7Y3",
    "result": []
  },
  {
    "postal": "M1K6Z5",
    "result": []
  },
  {
    "postal": "M1K6E0",
    "result": []
  },
  {
    "postal": "M1K9B7",
    "result": []
  },
  {
    "postal": "M1K9S5",
    "result": []
  },
  {
    "postal": "M1K3X3",
    "result": [
      {
        "electoralDistricts": [
          {
            "election": null,
            "id": 94,
            "name": "Scarborough Centre"
          }
        ],
        "pollDivisionIds": [
          10141586
        ],
        "postalCode": "M1K3X3",
        "streetName": "LORD ROBERTS",
        "streetDirectionId": null,
        "streetTypeId": "DR",
        "placeName": "SCARBOROUGH",
        "streetNameDisplayText": "LORD ROBERTS DR, SCARBOROUGH"
      }
    ]
  },
  {
    "postal": "M1K7R5",
    "result": []
  },
  {
    "postal": "M1K2X3",
    "result": [
      {
        "electoralDistricts": [
          {
            "election": null,
            "id": 94,
            "name": "Scarborough Centre"
          }
        ],
        "pollDivisionIds": [
          10141578
        ],
        "postalCode": "M1K2X3",
        "streetName": "ROSEMOUNT",
        "streetDirectionId": null,
        "streetTypeId": "DR",
        "placeName": "SCARBOROUGH",
        "streetNameDisplayText": "ROSEMOUNT DR, SCARBOROUGH"
      }
    ]
  },
  {
    "postal": "M1K8Z9",
    "result": []
  },
  {
    "postal": "M1K0N4",
    "result": []
  },
  {
    "postal": "M1K1K1",
    "result": [
      {
        "electoralDistricts": [
          {
            "election": null,
            "id": 98,
            "name": "Scarborough Southwest"
          }
        ],
        "pollDivisionIds": [
          10141782
        ],
        "postalCode": "M1K1K1",
        "streetName": "SADLER",
        "streetDirectionId": null,
        "streetTypeId": "DR",
        "placeName": "SCARBOROUGH",
        "streetNameDisplayText": "SADLER DR, SCARBOROUGH"
      }
    ]
  },
  {
    "postal": "M1K1S3",
    "result": []
  },
  {
    "postal": "M1K6M4",
    "result": []
  },
  {
    "postal": "M1K9A9",
    "result": []
  },
  {
    "postal": "M1K9Z9",
    "result": []
  },
  {
    "postal": "M1K6T4",
    "result": []
  },
  {
    "postal": "M1K0B2",
    "result": [
      {
        "electoralDistricts": [
          {
            "election": null,
            "id": 94,
            "name": "Scarborough Centre"
          }
        ],
        "pollDivisionIds": [
          10141577
        ],
        "postalCode": "M1K0B2",
        "streetName": "KENNEDY",
        "streetDirectionId": null,
        "streetTypeId": "RD",
        "placeName": "SCARBOROUGH",
        "streetNameDisplayText": "KENNEDY RD, SCARBOROUGH"
      }
    ]
  },
  {
    "postal": "M1K2L9",
    "result": [
      {
        "electoralDistricts": [
          {
            "election": null,
            "id": 98,
            "name": "Scarborough Southwest"
          }
        ],
        "pollDivisionIds": [
          10141785
        ],
        "postalCode": "M1K2L9",
        "streetName": "BONNIEWOOD",
        "streetDirectionId": null,
        "streetTypeId": "RD",
        "placeName": "SCARBOROUGH",
        "streetNameDisplayText": "BONNIEWOOD RD, SCARBOROUGH"
      }
    ]
  },
  {
    "postal": "M1K8K9",
    "result": []
  },
  {
    "postal": "M1K2H9",
    "result": [
      {
        "electoralDistricts": [
          {
            "election": null,
            "id": 98,
            "name": "Scarborough Southwest"
          }
        ],
        "pollDivisionIds": [
          10141786
        ],
        "postalCode": "M1K2H9",
        "streetName": "ROEBUCK",
        "streetDirectionId": null,
        "streetTypeId": "DR",
        "placeName": "SCARBOROUGH",
        "streetNameDisplayText": "ROEBUCK DR, SCARBOROUGH"
      }
    ]
  },
  {
    "postal": "M1K3Z6",
    "result": [
      {
        "electoralDistricts": [
          {
            "election": null,
            "id": 94,
            "name": "Scarborough Centre"
          }
        ],
        "pollDivisionIds": [
          10141588
        ],
        "postalCode": "M1K3Z6",
        "streetName": "WAINFLEET",
        "streetDirectionId": null,
        "streetTypeId": "RD",
        "placeName": "SCARBOROUGH",
        "streetNameDisplayText": "WAINFLEET RD, SCARBOROUGH"
      }
    ]
  },
  {
    "postal": "M1K3B0",
    "result": []
  },
  {
    "postal": "M1K2H8",
    "result": [
      {
        "electoralDistricts": [
          {
            "election": null,
            "id": 98,
            "name": "Scarborough Southwest"
          }
        ],
        "pollDivisionIds": [
          10141786
        ],
        "postalCode": "M1K2H8",
        "streetName": "ROEBUCK",
        "streetDirectionId": null,
        "streetTypeId": "DR",
        "placeName": "SCARBOROUGH",
        "streetNameDisplayText": "ROEBUCK DR, SCARBOROUGH"
      }
    ]
  },
  {
    "postal": "M1K3X2",
    "result": [
      {
        "electoralDistricts": [
          {
            "election": null,
            "id": 94,
            "name": "Scarborough Centre"
          }
        ],
        "pollDivisionIds": [
          10141586
        ],
        "postalCode": "M1K3X2",
        "streetName": "LORD ROBERTS",
        "streetDirectionId": null,
        "streetTypeId": "DR",
        "placeName": "SCARBOROUGH",
        "streetNameDisplayText": "LORD ROBERTS DR, SCARBOROUGH"
      }
    ]
  },
  {
    "postal": "M1K2E9",
    "result": [
      {
        "electoralDistricts": [
          {
            "election": null,
            "id": 94,
            "name": "Scarborough Centre"
          }
        ],
        "pollDivisionIds": [
          10141577
        ],
        "postalCode": "M1K2E9",
        "streetName": "KENNEDY",
        "streetDirectionId": null,
        "streetTypeId": "RD",
        "placeName": "SCARBOROUGH",
        "streetNameDisplayText": "KENNEDY RD, SCARBOROUGH"
      }
    ]
  },
  {
    "postal": "M1K9P6",
    "result": []
  },
  {
    "postal": "M1K9E2",
    "result": []
  },
  {
    "postal": "M1K9H2",
    "result": []
  },
  {
    "postal": "M1K1S8",
    "result": [
      {
        "electoralDistricts": [
          {
            "election": null,
            "id": 98,
            "name": "Scarborough Southwest"
          }
        ],
        "pollDivisionIds": [
          10141782
        ],
        "postalCode": "M1K1S8",
        "streetName": "JEAVONS",
        "streetDirectionId": null,
        "streetTypeId": "AVE",
        "placeName": "SCARBOROUGH",
        "streetNameDisplayText": "JEAVONS AVE, SCARBOROUGH"
      }
    ]
  },
  {
    "postal": "M1K3M6",
    "result": [
      {
        "electoralDistricts": [
          {
            "election": null,
            "id": 98,
            "name": "Scarborough Southwest"
          }
        ],
        "pollDivisionIds": [
          10141787
        ],
        "postalCode": "M1K3M6",
        "streetName": "MERRIAN",
        "streetDirectionId": null,
        "streetTypeId": "RD",
        "placeName": "SCARBOROUGH",
        "streetNameDisplayText": "MERRIAN RD, SCARBOROUGH"
      }
    ]
  },
  {
    "postal": "M1K6Z8",
    "result": []
  },
  {
    "postal": "M1K4J2",
    "result": [
      {
        "electoralDistricts": [
          {
            "election": null,
            "id": 98,
            "name": "Scarborough Southwest"
          }
        ],
        "pollDivisionIds": [
          10141792
        ],
        "postalCode": "M1K4J2",
        "streetName": "BRUSSELS",
        "streetDirectionId": null,
        "streetTypeId": "RD",
        "placeName": "SCARBOROUGH",
        "streetNameDisplayText": "BRUSSELS RD, SCARBOROUGH"
      }
    ]
  },
  {
    "postal": "M1K9Y1",
    "result": []
  },
  {
    "postal": "M1K8V6",
    "result": []
  },
  {
    "postal": "M1K6B2",
    "result": []
  },
  {
    "postal": "M1K1P8",
    "result": [
      {
        "electoralDistricts": [
          {
            "election": null,
            "id": 98,
            "name": "Scarborough Southwest"
          }
        ],
        "pollDivisionIds": [
          10141781,
          10141782
        ],
        "postalCode": "M1K1P8",
        "streetName": "BIRCHMOUNT",
        "streetDirectionId": null,
        "streetTypeId": "RD",
        "placeName": "SCARBOROUGH",
        "streetNameDisplayText": "BIRCHMOUNT RD, SCARBOROUGH"
      }
    ]
  },
  {
    "postal": "M1K0V8",
    "result": []
  },
  {
    "postal": "M1K4Y0",
    "result": []
  },
  {
    "postal": "M1K2T4",
    "result": [
      {
        "electoralDistricts": [
          {
            "election": null,
            "id": 94,
            "name": "Scarborough Centre"
          }
        ],
        "pollDivisionIds": [
          10141578
        ],
        "postalCode": "M1K2T4",
        "streetName": "RANSTONE",
        "streetDirectionId": null,
        "streetTypeId": "GDNS",
        "placeName": "SCARBOROUGH",
        "streetNameDisplayText": "RANSTONE GDNS, SCARBOROUGH"
      }
    ]
  },
  {
    "postal": "M1K2S3",
    "result": [
      {
        "electoralDistricts": [
          {
            "election": null,
            "id": 94,
            "name": "Scarborough Centre"
          }
        ],
        "pollDivisionIds": [
          10141589
        ],
        "postalCode": "M1K2S3",
        "streetName": "EGLINTON",
        "streetDirectionId": "E",
        "streetTypeId": "AVE",
        "placeName": "SCARBOROUGH",
        "streetNameDisplayText": "EGLINTON AVE E, SCARBOROUGH"
      }
    ]
  },
  {
    "postal": "M1K0K0",
    "result": []
  },
  {
    "postal": "M1K5N1",
    "result": []
  },
  {
    "postal": "M1K7T0",
    "result": []
  },
  {
    "postal": "M1K9N2",
    "result": []
  },
  {
    "postal": "M1K5L1",
    "result": []
  },
  {
    "postal": "M1K7G5",
    "result": []
  },
  {
    "postal": "M1K6K2",
    "result": []
  },
  {
    "postal": "M1K6P9",
    "result": []
  },
  {
    "postal": "M1K0E6",
    "result": []
  },
  {
    "postal": "M1K8R9",
    "result": []
  },
  {
    "postal": "M1K3G9",
    "result": [
      {
        "electoralDistricts": [
          {
            "election": null,
            "id": 98,
            "name": "Scarborough Southwest"
          }
        ],
        "pollDivisionIds": [
          10141788
        ],
        "postalCode": "M1K3G9",
        "streetName": "EPPLEWORTH",
        "streetDirectionId": null,
        "streetTypeId": "RD",
        "placeName": "SCARBOROUGH",
        "streetNameDisplayText": "EPPLEWORTH RD, SCARBOROUGH"
      }
    ]
  },
  {
    "postal": "M1K0V7",
    "result": []
  },
  {
    "postal": "M1K2Z1",
    "result": [
      {
        "electoralDistricts": [
          {
            "election": null,
            "id": 94,
            "name": "Scarborough Centre"
          }
        ],
        "pollDivisionIds": [
          10141578
        ],
        "postalCode": "M1K2Z1",
        "streetName": "IONVIEW",
        "streetDirectionId": null,
        "streetTypeId": "RD",
        "placeName": "SCARBOROUGH",
        "streetNameDisplayText": "IONVIEW RD, SCARBOROUGH"
      }
    ]
  },
  {
    "postal": "M1K7N1",
    "result": []
  },
  {
    "postal": "M1K3C6",
    "result": [
      {
        "electoralDistricts": [
          {
            "election": null,
            "id": 98,
            "name": "Scarborough Southwest"
          }
        ],
        "pollDivisionIds": [
          10141789
        ],
        "postalCode": "M1K3C6",
        "streetName": "BRENDA",
        "streetDirectionId": null,
        "streetTypeId": "CRES",
        "placeName": "SCARBOROUGH",
        "streetNameDisplayText": "BRENDA CRES, SCARBOROUGH"
      }
    ]
  },
  {
    "postal": "M1K4M1",
    "result": [
      {
        "electoralDistricts": [
          {
            "election": null,
            "id": 98,
            "name": "Scarborough Southwest"
          }
        ],
        "pollDivisionIds": [
          10141792
        ],
        "postalCode": "M1K4M1",
        "streetName": "WINTER",
        "streetDirectionId": null,
        "streetTypeId": "AVE",
        "placeName": "SCARBOROUGH",
        "streetNameDisplayText": "WINTER AVE, SCARBOROUGH"
      }
    ]
  },
  {
    "postal": "M1K9K2",
    "result": []
  },
  {
    "postal": "M1K9S6",
    "result": []
  },
  {
    "postal": "M1K4X1",
    "result": [
      {
        "electoralDistricts": [
          {
            "election": null,
            "id": 94,
            "name": "Scarborough Centre"
          }
        ],
        "pollDivisionIds": [
          10141586
        ],
        "postalCode": "M1K4X1",
        "streetName": "DEERFIELD",
        "streetDirectionId": null,
        "streetTypeId": "RD",
        "placeName": "SCARBOROUGH",
        "streetNameDisplayText": "DEERFIELD RD, SCARBOROUGH"
      }
    ]
  },
  {
    "postal": "M1K8W2",
    "result": []
  },
  {
    "postal": "M1K7N2",
    "result": []
  },
  {
    "postal": "M1K8S3",
    "result": []
  },
  {
    "postal": "M1K4V0",
    "result": []
  },
  {
    "postal": "M1K6W4",
    "result": []
  },
  {
    "postal": "M1K5M1",
    "result": []
  },
  {
    "postal": "M1K0S4",
    "result": []
  },
  {
    "postal": "M1K5X6",
    "result": []
  },
  {
    "postal": "M1K8L5",
    "result": []
  },
  {
    "postal": "M1K5M8",
    "result": []
  },
  {
    "postal": "M1K2G3",
    "result": [
      {
        "electoralDistricts": [
          {
            "election": null,
            "id": 94,
            "name": "Scarborough Centre"
          }
        ],
        "pollDivisionIds": [
          10141578
        ],
        "postalCode": "M1K2G3",
        "streetName": "KENNEDY",
        "streetDirectionId": null,
        "streetTypeId": "RD",
        "placeName": "SCARBOROUGH",
        "streetNameDisplayText": "KENNEDY RD, SCARBOROUGH"
      }
    ]
  },
  {
    "postal": "M1K8E4",
    "result": []
  },
  {
    "postal": "M1K7S9",
    "result": []
  },
  {
    "postal": "M1K1K3",
    "result": [
      {
        "electoralDistricts": [
          {
            "election": null,
            "id": 98,
            "name": "Scarborough Southwest"
          }
        ],
        "pollDivisionIds": [
          10141782
        ],
        "postalCode": "M1K1K3",
        "streetName": "ZENITH",
        "streetDirectionId": null,
        "streetTypeId": "DR",
        "placeName": "SCARBOROUGH",
        "streetNameDisplayText": "ZENITH DR, SCARBOROUGH"
      }
    ]
  },
  {
    "postal": "M1K4E1",
    "result": [
      {
        "electoralDistricts": [
          {
            "election": null,
            "id": 98,
            "name": "Scarborough Southwest"
          }
        ],
        "pollDivisionIds": [
          10141791
        ],
        "postalCode": "M1K4E1",
        "streetName": "MIDLAND",
        "streetDirectionId": null,
        "streetTypeId": "AVE",
        "placeName": "SCARBOROUGH",
        "streetNameDisplayText": "MIDLAND AVE, SCARBOROUGH"
      }
    ]
  },
  {
    "postal": "M1K4R2",
    "result": [
      {
        "electoralDistricts": [
          {
            "election": null,
            "id": 94,
            "name": "Scarborough Centre"
          }
        ],
        "pollDivisionIds": [
          10141589
        ],
        "postalCode": "M1K4R2",
        "streetName": "BROADBENT",
        "streetDirectionId": null,
        "streetTypeId": "AVE",
        "placeName": "SCARBOROUGH",
        "streetNameDisplayText": "BROADBENT AVE, SCARBOROUGH"
      }
    ]
  },
  {
    "postal": "M1K6T0",
    "result": []
  },
  {
    "postal": "M1K3K5",
    "result": [
      {
        "electoralDistricts": [
          {
            "election": null,
            "id": 98,
            "name": "Scarborough Southwest"
          }
        ],
        "pollDivisionIds": [
          10141788
        ],
        "postalCode": "M1K3K5",
        "streetName": "MAGNOLIA",
        "streetDirectionId": null,
        "streetTypeId": "AVE",
        "placeName": "SCARBOROUGH",
        "streetNameDisplayText": "MAGNOLIA AVE, SCARBOROUGH"
      }
    ]
  },
  {
    "postal": "M1K3S3",
    "result": [
      {
        "electoralDistricts": [
          {
            "election": null,
            "id": 98,
            "name": "Scarborough Southwest"
          }
        ],
        "pollDivisionIds": [
          10141791
        ],
        "postalCode": "M1K3S3",
        "streetName": "THRUSH",
        "streetDirectionId": null,
        "streetTypeId": "RD",
        "placeName": "SCARBOROUGH",
        "streetNameDisplayText": "THRUSH RD, SCARBOROUGH"
      }
    ]
  },
  {
    "postal": "M1K3L4",
    "result": [
      {
        "electoralDistricts": [
          {
            "election": null,
            "id": 98,
            "name": "Scarborough Southwest"
          }
        ],
        "pollDivisionIds": [
          10141788
        ],
        "postalCode": "M1K3L4",
        "streetName": "GRANGER",
        "streetDirectionId": null,
        "streetTypeId": "AVE",
        "placeName": "SCARBOROUGH",
        "streetNameDisplayText": "GRANGER AVE, SCARBOROUGH"
      }
    ]
  },
  {
    "postal": "M1K9Y2",
    "result": []
  },
  {
    "postal": "M1K1E0",
    "result": []
  },
  {
    "postal": "M1K9A4",
    "result": []
  },
  {
    "postal": "M1K1L3",
    "result": [
      {
        "electoralDistricts": [
          {
            "election": null,
            "id": 98,
            "name": "Scarborough Southwest"
          }
        ],
        "pollDivisionIds": [
          10141782
        ],
        "postalCode": "M1K1L3",
        "streetName": "ST CLAIR",
        "streetDirectionId": "E",
        "streetTypeId": "AVE",
        "placeName": "SCARBOROUGH",
        "streetNameDisplayText": "ST CLAIR AVE E, SCARBOROUGH"
      }
    ]
  },
  {
    "postal": "M1K6N1",
    "result": []
  },
  {
    "postal": "M1K6G7",
    "result": []
  },
  {
    "postal": "M1K7W1",
    "result": []
  },
  {
    "postal": "M1K4M6",
    "result": [
      {
        "electoralDistricts": [
          {
            "election": null,
            "id": 98,
            "name": "Scarborough Southwest"
          }
        ],
        "pollDivisionIds": [
          10141792
        ],
        "postalCode": "M1K4M6",
        "streetName": "FALMOUTH",
        "streetDirectionId": null,
        "streetTypeId": "AVE",
        "placeName": "SCARBOROUGH",
        "streetNameDisplayText": "FALMOUTH AVE, SCARBOROUGH"
      }
    ]
  },
  {
    "postal": "M1K1K0",
    "result": []
  },
  {
    "postal": "M1K3E2",
    "result": [
      {
        "electoralDistricts": [
          {
            "election": null,
            "id": 98,
            "name": "Scarborough Southwest"
          }
        ],
        "pollDivisionIds": [
          10141788
        ],
        "postalCode": "M1K3E2",
        "streetName": "SUMMER",
        "streetDirectionId": null,
        "streetTypeId": "DR",
        "placeName": "SCARBOROUGH",
        "streetNameDisplayText": "SUMMER DR, SCARBOROUGH"
      }
    ]
  },
  {
    "postal": "M1K5H4",
    "result": []
  },
  {
    "postal": "M1K1K7",
    "result": [
      {
        "electoralDistricts": [
          {
            "election": null,
            "id": 98,
            "name": "Scarborough Southwest"
          }
        ],
        "pollDivisionIds": [
          10141782
        ],
        "postalCode": "M1K1K7",
        "streetName": "ZENITH",
        "streetDirectionId": null,
        "streetTypeId": "DR",
        "placeName": "SCARBOROUGH",
        "streetNameDisplayText": "ZENITH DR, SCARBOROUGH"
      }
    ]
  },
  {
    "postal": "M1K0H0",
    "result": []
  },
  {
    "postal": "M1K0J3",
    "result": []
  },
  {
    "postal": "M1K1X6",
    "result": [
      {
        "electoralDistricts": [
          {
            "election": null,
            "id": 98,
            "name": "Scarborough Southwest"
          }
        ],
        "pollDivisionIds": [
          10141783
        ],
        "postalCode": "M1K1X6",
        "streetName": "NORTH BONNINGTON",
        "streetDirectionId": null,
        "streetTypeId": "AVE",
        "placeName": "SCARBOROUGH",
        "streetNameDisplayText": "NORTH BONNINGTON AVE, SCARBOROUGH"
      }
    ]
  },
  {
    "postal": "M1K2Z6",
    "result": [
      {
        "electoralDistricts": [
          {
            "election": null,
            "id": 94,
            "name": "Scarborough Centre"
          }
        ],
        "pollDivisionIds": [
          10141578
        ],
        "postalCode": "M1K2Z6",
        "streetName": "IONVIEW",
        "streetDirectionId": null,
        "streetTypeId": "RD",
        "placeName": "SCARBOROUGH",
        "streetNameDisplayText": "IONVIEW RD, SCARBOROUGH"
      }
    ]
  },
  {
    "postal": "M1K4R9",
    "result": [
      {
        "electoralDistricts": [
          {
            "election": null,
            "id": 94,
            "name": "Scarborough Centre"
          }
        ],
        "pollDivisionIds": [
          10141589
        ],
        "postalCode": "M1K4R9",
        "streetName": "STANSBURY",
        "streetDirectionId": null,
        "streetTypeId": "CRES",
        "placeName": "SCARBOROUGH",
        "streetNameDisplayText": "STANSBURY CRES, SCARBOROUGH"
      }
    ]
  },
  {
    "postal": "M1K0W8",
    "result": []
  },
  {
    "postal": "M1K1L4",
    "result": [
      {
        "electoralDistricts": [
          {
            "election": null,
            "id": 98,
            "name": "Scarborough Southwest"
          }
        ],
        "pollDivisionIds": [
          10141783
        ],
        "postalCode": "M1K1L4",
        "streetName": "ST CLAIR",
        "streetDirectionId": "E",
        "streetTypeId": "AVE",
        "placeName": "SCARBOROUGH",
        "streetNameDisplayText": "ST CLAIR AVE E, SCARBOROUGH"
      }
    ]
  },
  {
    "postal": "M1K0C8",
    "result": []
  },
  {
    "postal": "M1K9X7",
    "result": []
  },
  {
    "postal": "M1K4T1",
    "result": [
      {
        "electoralDistricts": [
          {
            "election": null,
            "id": 94,
            "name": "Scarborough Centre"
          }
        ],
        "pollDivisionIds": [
          10141589
        ],
        "postalCode": "M1K4T1",
        "streetName": "CHILLERY",
        "streetDirectionId": null,
        "streetTypeId": "AVE",
        "placeName": "SCARBOROUGH",
        "streetNameDisplayText": "CHILLERY AVE, SCARBOROUGH"
      }
    ]
  },
  {
    "postal": "M1K0M0",
    "result": []
  },
  {
    "postal": "M1K6A2",
    "result": []
  },
  {
    "postal": "M1K9S8",
    "result": []
  },
  {
    "postal": "M1K9T4",
    "result": []
  },
  {
    "postal": "M1K9Y4",
    "result": []
  },
  {
    "postal": "M1K6G5",
    "result": []
  },
  {
    "postal": "M1K6H9",
    "result": []
  },
  {
    "postal": "M1K2P3",
    "result": [
      {
        "electoralDistricts": [
          {
            "election": null,
            "id": 94,
            "name": "Scarborough Centre"
          }
        ],
        "pollDivisionIds": [
          10141578
        ],
        "postalCode": "M1K2P3",
        "streetName": "EGLINTON",
        "streetDirectionId": "E",
        "streetTypeId": "AVE",
        "placeName": "SCARBOROUGH",
        "streetNameDisplayText": "EGLINTON AVE E, SCARBOROUGH"
      }
    ]
  },
  {
    "postal": "M1K1T6",
    "result": [
      {
        "electoralDistricts": [
          {
            "election": null,
            "id": 98,
            "name": "Scarborough Southwest"
          }
        ],
        "pollDivisionIds": [
          10141782
        ],
        "postalCode": "M1K1T6",
        "streetName": "NORTH EDGELY",
        "streetDirectionId": null,
        "streetTypeId": "AVE",
        "placeName": "SCARBOROUGH",
        "streetNameDisplayText": "NORTH EDGELY AVE, SCARBOROUGH"
      }
    ]
  },
  {
    "postal": "M1K4P6",
    "result": [
      {
        "electoralDistricts": [
          {
            "election": null,
            "id": 94,
            "name": "Scarborough Centre"
          }
        ],
        "pollDivisionIds": [
          10141588
        ],
        "postalCode": "M1K4P6",
        "streetName": "GILDER",
        "streetDirectionId": null,
        "streetTypeId": "DR",
        "placeName": "SCARBOROUGH",
        "streetNameDisplayText": "GILDER DR, SCARBOROUGH"
      }
    ]
  },
  {
    "postal": "M1K3K1",
    "result": [
      {
        "electoralDistricts": [
          {
            "election": null,
            "id": 98,
            "name": "Scarborough Southwest"
          }
        ],
        "pollDivisionIds": [
          10141789
        ],
        "postalCode": "M1K3K1",
        "streetName": "MAGNOLIA",
        "streetDirectionId": null,
        "streetTypeId": "AVE",
        "placeName": "SCARBOROUGH",
        "streetNameDisplayText": "MAGNOLIA AVE, SCARBOROUGH"
      }
    ]
  },
  {
    "postal": "M1K6X4",
    "result": []
  },
  {
    "postal": "M1K4M8",
    "result": [
      {
        "electoralDistricts": [
          {
            "election": null,
            "id": 98,
            "name": "Scarborough Southwest"
          }
        ],
        "pollDivisionIds": [
          10141792
        ],
        "postalCode": "M1K4M8",
        "streetName": "FALMOUTH",
        "streetDirectionId": null,
        "streetTypeId": "AVE",
        "placeName": "SCARBOROUGH",
        "streetNameDisplayText": "FALMOUTH AVE, SCARBOROUGH"
      }
    ]
  },
  {
    "postal": "M1K2Y1",
    "result": [
      {
        "electoralDistricts": [
          {
            "election": null,
            "id": 94,
            "name": "Scarborough Centre"
          }
        ],
        "pollDivisionIds": [
          10141578
        ],
        "postalCode": "M1K2Y1",
        "streetName": "RICHOME",
        "streetDirectionId": null,
        "streetTypeId": "CRT",
        "placeName": "SCARBOROUGH",
        "streetNameDisplayText": "RICHOME CRT, SCARBOROUGH"
      }
    ]
  },
  {
    "postal": "M1K6M1",
    "result": []
  },
  {
    "postal": "M1K5L8",
    "result": []
  },
  {
    "postal": "M1K3P6",
    "result": [
      {
        "electoralDistricts": [
          {
            "election": null,
            "id": 98,
            "name": "Scarborough Southwest"
          }
        ],
        "pollDivisionIds": [
          10141791
        ],
        "postalCode": "M1K3P6",
        "streetName": "BENJAMIN",
        "streetDirectionId": null,
        "streetTypeId": "BLVD",
        "placeName": "SCARBOROUGH",
        "streetNameDisplayText": "BENJAMIN BLVD, SCARBOROUGH"
      }
    ]
  },
  {
    "postal": "M1K9A5",
    "result": []
  },
  {
    "postal": "M1K7K1",
    "result": []
  },
  {
    "postal": "M1K3J4",
    "result": [
      {
        "electoralDistricts": [
          {
            "election": null,
            "id": 98,
            "name": "Scarborough Southwest"
          }
        ],
        "pollDivisionIds": [
          10141789
        ],
        "postalCode": "M1K3J4",
        "streetName": "LAUREL",
        "streetDirectionId": null,
        "streetTypeId": "AVE",
        "placeName": "SCARBOROUGH",
        "streetNameDisplayText": "LAUREL AVE, SCARBOROUGH"
      }
    ]
  },
  {
    "postal": "M1K5E7",
    "result": []
  },
  {
    "postal": "M1K3A7",
    "result": [
      {
        "electoralDistricts": [
          {
            "election": null,
            "id": 94,
            "name": "Scarborough Centre"
          }
        ],
        "pollDivisionIds": [
          10141578
        ],
        "postalCode": "M1K3A7",
        "streetName": "LANDSEER",
        "streetDirectionId": null,
        "streetTypeId": "RD",
        "placeName": "SCARBOROUGH",
        "streetNameDisplayText": "LANDSEER RD, SCARBOROUGH"
      }
    ]
  },
  {
    "postal": "M1K1B9",
    "result": [
      {
        "electoralDistricts": [
          {
            "election": null,
            "id": 98,
            "name": "Scarborough Southwest"
          }
        ],
        "pollDivisionIds": [
          10141783
        ],
        "postalCode": "M1K1B9",
        "streetName": "GLASGOW",
        "streetDirectionId": null,
        "streetTypeId": "AVE",
        "placeName": "SCARBOROUGH",
        "streetNameDisplayText": "GLASGOW AVE, SCARBOROUGH"
      },
      {
        "electoralDistricts": [
          {
            "election": null,
            "id": 112,
            "name": "University—Rosedale"
          }
        ],
        "pollDivisionIds": [
          10143756
        ],
        "postalCode": "M1K1B9",
        "streetName": "GLASGOW",
        "streetDirectionId": null,
        "streetTypeId": "ST",
        "placeName": "SCARBOROUGH",
        "streetNameDisplayText": "GLASGOW ST, SCARBOROUGH"
      }
    ]
  },
  {
    "postal": "M1K9E8",
    "result": []
  },
  {
    "postal": "M1K1C9",
    "result": [
      {
        "electoralDistricts": [
          {
            "election": null,
            "id": 98,
            "name": "Scarborough Southwest"
          }
        ],
        "pollDivisionIds": [
          10141782
        ],
        "postalCode": "M1K1C9",
        "streetName": "DANFORTH",
        "streetDirectionId": null,
        "streetTypeId": "RD",
        "placeName": "SCARBOROUGH",
        "streetNameDisplayText": "DANFORTH RD, SCARBOROUGH"
      }
    ]
  },
  {
    "postal": "M1K3B5",
    "result": [
      {
        "electoralDistricts": [
          {
            "election": null,
            "id": 94,
            "name": "Scarborough Centre"
          }
        ],
        "pollDivisionIds": [
          10141578
        ],
        "postalCode": "M1K3B5",
        "streetName": "YORKSHIRE",
        "streetDirectionId": null,
        "streetTypeId": "RD",
        "placeName": "SCARBOROUGH",
        "streetNameDisplayText": "YORKSHIRE RD, SCARBOROUGH"
      }
    ]
  },
  {
    "postal": "M1K8R0",
    "result": []
  },
  {
    "postal": "M1K3P2",
    "result": [
      {
        "electoralDistricts": [
          {
            "election": null,
            "id": 98,
            "name": "Scarborough Southwest"
          }
        ],
        "pollDivisionIds": [
          10141791
        ],
        "postalCode": "M1K3P2",
        "streetName": "BENJAMIN",
        "streetDirectionId": null,
        "streetTypeId": "BLVD",
        "placeName": "SCARBOROUGH",
        "streetNameDisplayText": "BENJAMIN BLVD, SCARBOROUGH"
      }
    ]
  },
  {
    "postal": "M1K5V4",
    "result": []
  },
  {
    "postal": "M1K4H0",
    "result": []
  },
  {
    "postal": "M1K4S7",
    "result": [
      {
        "electoralDistricts": [
          {
            "election": null,
            "id": 94,
            "name": "Scarborough Centre"
          }
        ],
        "pollDivisionIds": [
          10141589
        ],
        "postalCode": "M1K4S7",
        "streetName": "CITADEL",
        "streetDirectionId": null,
        "streetTypeId": "DR",
        "placeName": "SCARBOROUGH",
        "streetNameDisplayText": "CITADEL DR, SCARBOROUGH"
      }
    ]
  },
  {
    "postal": "M1K6C2",
    "result": []
  },
  {
    "postal": "M1K8W3",
    "result": []
  },
  {
    "postal": "M1K4M5",
    "result": [
      {
        "electoralDistricts": [
          {
            "election": null,
            "id": 98,
            "name": "Scarborough Southwest"
          }
        ],
        "pollDivisionIds": [
          10141792
        ],
        "postalCode": "M1K4M5",
        "streetName": "FALMOUTH",
        "streetDirectionId": null,
        "streetTypeId": "AVE",
        "placeName": "SCARBOROUGH",
        "streetNameDisplayText": "FALMOUTH AVE, SCARBOROUGH"
      }
    ]
  },
  {
    "postal": "M1K5T1",
    "result": []
  },
  {
    "postal": "M1K3B3",
    "result": [
      {
        "electoralDistricts": [
          {
            "election": null,
            "id": 94,
            "name": "Scarborough Centre"
          }
        ],
        "pollDivisionIds": [
          10141578
        ],
        "postalCode": "M1K3B3",
        "streetName": "FLEMPTON",
        "streetDirectionId": null,
        "streetTypeId": "CRES",
        "placeName": "SCARBOROUGH",
        "streetNameDisplayText": "FLEMPTON CRES, SCARBOROUGH"
      }
    ]
  },
  {
    "postal": "M1K6C6",
    "result": []
  },
  {
    "postal": "M1K7N8",
    "result": []
  },
  {
    "postal": "M1K2Y3",
    "result": [
      {
        "electoralDistricts": [
          {
            "election": null,
            "id": 94,
            "name": "Scarborough Centre"
          }
        ],
        "pollDivisionIds": [
          10141578
        ],
        "postalCode": "M1K2Y3",
        "streetName": "HARDCASTLE",
        "streetDirectionId": null,
        "streetTypeId": "ST",
        "placeName": "SCARBOROUGH",
        "streetNameDisplayText": "HARDCASTLE ST, SCARBOROUGH"
      }
    ]
  },
  {
    "postal": "M1K2R6",
    "result": []
  },
  {
    "postal": "M1K7N3",
    "result": []
  },
  {
    "postal": "M1K8J2",
    "result": []
  },
  {
    "postal": "M1K6A9",
    "result": []
  },
  {
    "postal": "M1K3V2",
    "result": [
      {
        "electoralDistricts": [
          {
            "election": null,
            "id": 94,
            "name": "Scarborough Centre"
          }
        ],
        "pollDivisionIds": [
          10141577
        ],
        "postalCode": "M1K3V2",
        "streetName": "STRATTON",
        "streetDirectionId": null,
        "streetTypeId": "AVE",
        "placeName": "SCARBOROUGH",
        "streetNameDisplayText": "STRATTON AVE, SCARBOROUGH"
      }
    ]
  },
  {
    "postal": "M1K2N3",
    "result": [
      {
        "electoralDistricts": [
          {
            "election": null,
            "id": 98,
            "name": "Scarborough Southwest"
          },
          {
            "election": null,
            "id": 94,
            "name": "Scarborough Centre"
          }
        ],
        "pollDivisionIds": [
          10141785,
          10141578
        ],
        "postalCode": "M1K2N3",
        "streetName": "EGLINTON",
        "streetDirectionId": "E",
        "streetTypeId": "AVE",
        "placeName": "SCARBOROUGH",
        "streetNameDisplayText": "EGLINTON AVE E, SCARBOROUGH"
      }
    ]
  },
  {
    "postal": "M1K1S5",
    "result": []
  },
  {
    "postal": "M1K4T7",
    "result": [
      {
        "electoralDistricts": [
          {
            "election": null,
            "id": 94,
            "name": "Scarborough Centre"
          }
        ],
        "pollDivisionIds": [
          10141589
        ],
        "postalCode": "M1K4T7",
        "streetName": "BIMBROK",
        "streetDirectionId": null,
        "streetTypeId": "RD",
        "placeName": "SCARBOROUGH",
        "streetNameDisplayText": "BIMBROK RD, SCARBOROUGH"
      }
    ]
  },
  {
    "postal": "M1K6Y7",
    "result": []
  },
  {
    "postal": "M1K0W7",
    "result": []
  },
  {
    "postal": "M1K2W9",
    "result": [
      {
        "electoralDistricts": [
          {
            "election": null,
            "id": 94,
            "name": "Scarborough Centre"
          }
        ],
        "pollDivisionIds": [
          10141578
        ],
        "postalCode": "M1K2W9",
        "streetName": "ROSEMOUNT",
        "streetDirectionId": null,
        "streetTypeId": "DR",
        "placeName": "SCARBOROUGH",
        "streetNameDisplayText": "ROSEMOUNT DR, SCARBOROUGH"
      }
    ]
  },
  {
    "postal": "M1K8V0",
    "result": []
  },
  {
    "postal": "M1K0H4",
    "result": []
  },
  {
    "postal": "M1K2T1",
    "result": [
      {
        "electoralDistricts": [
          {
            "election": null,
            "id": 94,
            "name": "Scarborough Centre"
          }
        ],
        "pollDivisionIds": [
          10141578
        ],
        "postalCode": "M1K2T1",
        "streetName": "BERTRAND",
        "streetDirectionId": null,
        "streetTypeId": "AVE",
        "placeName": "SCARBOROUGH",
        "streetNameDisplayText": "BERTRAND AVE, SCARBOROUGH"
      }
    ]
  },
  {
    "postal": "M1K1B1",
    "result": [
      {
        "electoralDistricts": [
          {
            "election": null,
            "id": 98,
            "name": "Scarborough Southwest"
          }
        ],
        "pollDivisionIds": [
          10141782
        ],
        "postalCode": "M1K1B1",
        "streetName": "PARNELL",
        "streetDirectionId": null,
        "streetTypeId": "AVE",
        "placeName": "SCARBOROUGH",
        "streetNameDisplayText": "PARNELL AVE, SCARBOROUGH"
      }
    ]
  },
  {
    "postal": "M1K8B6",
    "result": []
  },
  {
    "postal": "M1K6H1",
    "result": []
  },
  {
    "postal": "M1K8T8",
    "result": []
  },
  {
    "postal": "M1K0T4",
    "result": []
  },
  {
    "postal": "M1K2C4",
    "result": []
  },
  {
    "postal": "M1K8N3",
    "result": []
  },
  {
    "postal": "M1K4L8",
    "result": [
      {
        "electoralDistricts": [
          {
            "election": null,
            "id": 98,
            "name": "Scarborough Southwest"
          }
        ],
        "pollDivisionIds": [
          10141792
        ],
        "postalCode": "M1K4L8",
        "streetName": "WINTER",
        "streetDirectionId": null,
        "streetTypeId": "AVE",
        "placeName": "SCARBOROUGH",
        "streetNameDisplayText": "WINTER AVE, SCARBOROUGH"
      }
    ]
  },
  {
    "postal": "M1K2B5",
    "result": [
      {
        "electoralDistricts": [
          {
            "election": null,
            "id": 98,
            "name": "Scarborough Southwest"
          }
        ],
        "pollDivisionIds": [
          10141786
        ],
        "postalCode": "M1K2B5",
        "streetName": "KENNEDY",
        "streetDirectionId": null,
        "streetTypeId": "RD",
        "placeName": "SCARBOROUGH",
        "streetNameDisplayText": "KENNEDY RD, SCARBOROUGH"
      }
    ]
  },
  {
    "postal": "M1K3H1",
    "result": [
      {
        "electoralDistricts": [
          {
            "election": null,
            "id": 98,
            "name": "Scarborough Southwest"
          }
        ],
        "pollDivisionIds": [
          10141789
        ],
        "postalCode": "M1K3H1",
        "streetName": "HART",
        "streetDirectionId": null,
        "streetTypeId": "AVE",
        "placeName": "SCARBOROUGH",
        "streetNameDisplayText": "HART AVE, SCARBOROUGH"
      }
    ]
  },
  {
    "postal": "M1K4Y1",
    "result": [
      {
        "electoralDistricts": [
          {
            "election": null,
            "id": 94,
            "name": "Scarborough Centre"
          }
        ],
        "pollDivisionIds": [
          10141587
        ],
        "postalCode": "M1K4Y1",
        "streetName": "HAILEYBURY",
        "streetDirectionId": null,
        "streetTypeId": "DR",
        "placeName": "SCARBOROUGH",
        "streetNameDisplayText": "HAILEYBURY DR, SCARBOROUGH"
      }
    ]
  },
  {
    "postal": "M1K7E2",
    "result": []
  },
  {
    "postal": "M1K2P5",
    "result": [
      {
        "electoralDistricts": [
          {
            "election": null,
            "id": 94,
            "name": "Scarborough Centre"
          }
        ],
        "pollDivisionIds": [
          10141578
        ],
        "postalCode": "M1K2P5",
        "streetName": "EGLINTON",
        "streetDirectionId": "E",
        "streetTypeId": "AVE",
        "placeName": "SCARBOROUGH",
        "streetNameDisplayText": "EGLINTON AVE E, SCARBOROUGH"
      }
    ]
  },
  {
    "postal": "M1K8R7",
    "result": []
  },
  {
    "postal": "M1K9P1",
    "result": []
  },
  {
    "postal": "M1K3B8",
    "result": [
      {
        "electoralDistricts": [
          {
            "election": null,
            "id": 94,
            "name": "Scarborough Centre"
          }
        ],
        "pollDivisionIds": [
          10141578
        ],
        "postalCode": "M1K3B8",
        "streetName": "KINGSDOWN",
        "streetDirectionId": null,
        "streetTypeId": "DR",
        "placeName": "SCARBOROUGH",
        "streetNameDisplayText": "KINGSDOWN DR, SCARBOROUGH"
      }
    ]
  },
  {
    "postal": "M1K3P7",
    "result": [
      {
        "electoralDistricts": [
          {
            "election": null,
            "id": 98,
            "name": "Scarborough Southwest"
          }
        ],
        "pollDivisionIds": [
          10141791
        ],
        "postalCode": "M1K3P7",
        "streetName": "BENJAMIN",
        "streetDirectionId": null,
        "streetTypeId": "BLVD",
        "placeName": "SCARBOROUGH",
        "streetNameDisplayText": "BENJAMIN BLVD, SCARBOROUGH"
      }
    ]
  },
  {
    "postal": "M1K9B2",
    "result": []
  },
  {
    "postal": "M1K6Z3",
    "result": []
  },
  {
    "postal": "M1K4N5",
    "result": [
      {
        "electoralDistricts": [
          {
            "election": null,
            "id": 98,
            "name": "Scarborough Southwest"
          }
        ],
        "pollDivisionIds": [
          10141790
        ],
        "postalCode": "M1K4N5",
        "streetName": "GLENSHEPHARD",
        "streetDirectionId": null,
        "streetTypeId": "DR",
        "placeName": "SCARBOROUGH",
        "streetNameDisplayText": "GLENSHEPHARD DR, SCARBOROUGH"
      }
    ]
  },
  {
    "postal": "M1K8T3",
    "result": []
  },
  {
    "postal": "M1K1V2",
    "result": [
      {
        "electoralDistricts": [
          {
            "election": null,
            "id": 98,
            "name": "Scarborough Southwest"
          }
        ],
        "pollDivisionIds": [
          10141782
        ],
        "postalCode": "M1K1V2",
        "streetName": "SILVIO",
        "streetDirectionId": null,
        "streetTypeId": "AVE",
        "placeName": "SCARBOROUGH",
        "streetNameDisplayText": "SILVIO AVE, SCARBOROUGH"
      }
    ]
  },
  {
    "postal": "M1K1Y0",
    "result": []
  },
  {
    "postal": "M1K3G6",
    "result": [
      {
        "electoralDistricts": [
          {
            "election": null,
            "id": 98,
            "name": "Scarborough Southwest"
          }
        ],
        "pollDivisionIds": [
          10141789
        ],
        "postalCode": "M1K3G6",
        "streetName": "CLETA",
        "streetDirectionId": null,
        "streetTypeId": "DR",
        "placeName": "SCARBOROUGH",
        "streetNameDisplayText": "CLETA DR, SCARBOROUGH"
      }
    ]
  },
  {
    "postal": "M1K3H7",
    "result": [
      {
        "electoralDistricts": [
          {
            "election": null,
            "id": 98,
            "name": "Scarborough Southwest"
          }
        ],
        "pollDivisionIds": [
          10141789
        ],
        "postalCode": "M1K3H7",
        "streetName": "LINDEN",
        "streetDirectionId": null,
        "streetTypeId": "AVE",
        "placeName": "SCARBOROUGH",
        "streetNameDisplayText": "LINDEN AVE, SCARBOROUGH"
      }
    ]
  },
  {
    "postal": "M1K7X8",
    "result": []
  },
  {
    "postal": "M1K0C7",
    "result": []
  },
  {
    "postal": "M1K0W9",
    "result": []
  },
  {
    "postal": "M1K8E6",
    "result": []
  },
  {
    "postal": "M1K9Z8",
    "result": []
  },
  {
    "postal": "M1K3P4",
    "result": [
      {
        "electoralDistricts": [
          {
            "election": null,
            "id": 98,
            "name": "Scarborough Southwest"
          }
        ],
        "pollDivisionIds": [
          10141791
        ],
        "postalCode": "M1K3P4",
        "streetName": "BENJAMIN",
        "streetDirectionId": null,
        "streetTypeId": "BLVD",
        "placeName": "SCARBOROUGH",
        "streetNameDisplayText": "BENJAMIN BLVD, SCARBOROUGH"
      }
    ]
  },
  {
    "postal": "M1K6L8",
    "result": []
  },
  {
    "postal": "M1K2R4",
    "result": [
      {
        "electoralDistricts": [
          {
            "election": null,
            "id": 94,
            "name": "Scarborough Centre"
          }
        ],
        "pollDivisionIds": [
          10141588
        ],
        "postalCode": "M1K2R4",
        "streetName": "EGLINTON",
        "streetDirectionId": "E",
        "streetTypeId": "AVE",
        "placeName": "SCARBOROUGH",
        "streetNameDisplayText": "EGLINTON AVE E, SCARBOROUGH"
      }
    ]
  },
  {
    "postal": "M1K2W1",
    "result": [
      {
        "electoralDistricts": [
          {
            "election": null,
            "id": 94,
            "name": "Scarborough Centre"
          }
        ],
        "pollDivisionIds": [
          10141578
        ],
        "postalCode": "M1K2W1",
        "streetName": "MOZART",
        "streetDirectionId": null,
        "streetTypeId": "AVE",
        "placeName": "SCARBOROUGH",
        "streetNameDisplayText": "MOZART AVE, SCARBOROUGH"
      }
    ]
  },
  {
    "postal": "M1K9H8",
    "result": []
  },
  {
    "postal": "M1K8X9",
    "result": []
  },
  {
    "postal": "M1K7H4",
    "result": []
  },
  {
    "postal": "M1K3J1",
    "result": [
      {
        "electoralDistricts": [
          {
            "election": null,
            "id": 98,
            "name": "Scarborough Southwest"
          }
        ],
        "pollDivisionIds": [
          10141788
        ],
        "postalCode": "M1K3J1",
        "streetName": "COE",
        "streetDirectionId": null,
        "streetTypeId": "DR",
        "placeName": "SCARBOROUGH",
        "streetNameDisplayText": "COE DR, SCARBOROUGH"
      },
      {
        "electoralDistricts": [
          {
            "election": null,
            "id": 98,
            "name": "Scarborough Southwest"
          }
        ],
        "pollDivisionIds": [
          10141788
        ],
        "postalCode": "M1K3J1",
        "streetName": "LINDEN",
        "streetDirectionId": null,
        "streetTypeId": "AVE",
        "placeName": "SCARBOROUGH",
        "streetNameDisplayText": "LINDEN AVE, SCARBOROUGH"
      }
    ]
  },
  {
    "postal": "M1K1P4",
    "result": [
      {
        "electoralDistricts": [
          {
            "election": null,
            "id": 98,
            "name": "Scarborough Southwest"
          }
        ],
        "pollDivisionIds": [
          10141781
        ],
        "postalCode": "M1K1P4",
        "streetName": "BIRCHMOUNT",
        "streetDirectionId": null,
        "streetTypeId": "RD",
        "placeName": "SCARBOROUGH",
        "streetNameDisplayText": "BIRCHMOUNT RD, SCARBOROUGH"
      }
    ]
  },
  {
    "postal": "M1K2A3",
    "result": []
  },
  {
    "postal": "M1K0Z1",
    "result": []
  },
  {
    "postal": "M1K1C1",
    "result": [
      {
        "electoralDistricts": [
          {
            "election": null,
            "id": 98,
            "name": "Scarborough Southwest"
          }
        ],
        "pollDivisionIds": [
          10141783
        ],
        "postalCode": "M1K1C1",
        "streetName": "GLASGOW",
        "streetDirectionId": null,
        "streetTypeId": "AVE",
        "placeName": "SCARBOROUGH",
        "streetNameDisplayText": "GLASGOW AVE, SCARBOROUGH"
      }
    ]
  },
  {
    "postal": "M1K0H3",
    "result": []
  },
  {
    "postal": "M1K7B0",
    "result": []
  },
  {
    "postal": "M1K5K2",
    "result": []
  },
  {
    "postal": "M1K1E9",
    "result": [
      {
        "electoralDistricts": [
          {
            "election": null,
            "id": 98,
            "name": "Scarborough Southwest"
          }
        ],
        "pollDivisionIds": [
          10141783
        ],
        "postalCode": "M1K1E9",
        "streetName": "DANFORTH",
        "streetDirectionId": null,
        "streetTypeId": "RD",
        "placeName": "SCARBOROUGH",
        "streetNameDisplayText": "DANFORTH RD, SCARBOROUGH"
      }
    ]
  },
  {
    "postal": "M1K9W7",
    "result": []
  },
  {
    "postal": "M1K5W6",
    "result": []
  },
  {
    "postal": "M1K6S6",
    "result": []
  },
  {
    "postal": "M1K2P8",
    "result": [
      {
        "electoralDistricts": [
          {
            "election": null,
            "id": 94,
            "name": "Scarborough Centre"
          }
        ],
        "pollDivisionIds": [
          10141577
        ],
        "postalCode": "M1K2P8",
        "streetName": "EGLINTON",
        "streetDirectionId": "E",
        "streetTypeId": "AVE",
        "placeName": "SCARBOROUGH",
        "streetNameDisplayText": "EGLINTON AVE E, SCARBOROUGH"
      }
    ]
  },
  {
    "postal": "M1K4P8",
    "result": [
      {
        "electoralDistricts": [
          {
            "election": null,
            "id": 94,
            "name": "Scarborough Centre"
          }
        ],
        "pollDivisionIds": [
          10141588
        ],
        "postalCode": "M1K4P8",
        "streetName": "GILDER",
        "streetDirectionId": null,
        "streetTypeId": "DR",
        "placeName": "SCARBOROUGH",
        "streetNameDisplayText": "GILDER DR, SCARBOROUGH"
      },
      {
        "electoralDistricts": [
          {
            "election": null,
            "id": 94,
            "name": "Scarborough Centre"
          }
        ],
        "pollDivisionIds": [
          10141588
        ],
        "postalCode": "M1K4P8",
        "streetName": "GILROY",
        "streetDirectionId": null,
        "streetTypeId": "DR",
        "placeName": "SCARBOROUGH",
        "streetNameDisplayText": "GILROY DR, SCARBOROUGH"
      }
    ]
  },
  {
    "postal": "M1K0V9",
    "result": []
  },
  {
    "postal": "M1K5Y2",
    "result": []
  },
  {
    "postal": "M1K7Z7",
    "result": []
  },
  {
    "postal": "M1K6Y8",
    "result": []
  },
  {
    "postal": "M1K2G7",
    "result": [
      {
        "electoralDistricts": [
          {
            "election": null,
            "id": 98,
            "name": "Scarborough Southwest"
          }
        ],
        "pollDivisionIds": [
          10141786
        ],
        "postalCode": "M1K2G7",
        "streetName": "FOXRIDGE",
        "streetDirectionId": null,
        "streetTypeId": "DR",
        "placeName": "SCARBOROUGH",
        "streetNameDisplayText": "FOXRIDGE DR, SCARBOROUGH"
      }
    ]
  },
  {
    "postal": "M1K8C1",
    "result": []
  },
  {
    "postal": "M1K5C5",
    "result": []
  },
  {
    "postal": "M1K2X8",
    "result": [
      {
        "electoralDistricts": [
          {
            "election": null,
            "id": 94,
            "name": "Scarborough Centre"
          }
        ],
        "pollDivisionIds": [
          10141578
        ],
        "postalCode": "M1K2X8",
        "streetName": "MAIDA",
        "streetDirectionId": null,
        "streetTypeId": "VALE",
        "placeName": "SCARBOROUGH",
        "streetNameDisplayText": "MAIDA VALE, SCARBOROUGH"
      }
    ]
  },
  {
    "postal": "M1K1W5",
    "result": [
      {
        "electoralDistricts": [
          {
            "election": null,
            "id": 98,
            "name": "Scarborough Southwest"
          }
        ],
        "pollDivisionIds": [
          10141783
        ],
        "postalCode": "M1K1W5",
        "streetName": "NORTH WOODROW",
        "streetDirectionId": null,
        "streetTypeId": "BLVD",
        "placeName": "SCARBOROUGH",
        "streetNameDisplayText": "NORTH WOODROW BLVD, SCARBOROUGH"
      }
    ]
  },
  {
    "postal": "M1K7G0",
    "result": []
  },
  {
    "postal": "M1K8J8",
    "result": []
  },
  {
    "postal": "M1K3Y0",
    "result": []
  },
  {
    "postal": "M1K9T7",
    "result": []
  },
  {
    "postal": "M1K5P4",
    "result": []
  },
  {
    "postal": "M1K4B0",
    "result": []
  },
  {
    "postal": "M1K9N8",
    "result": []
  },
  {
    "postal": "M1K4A7",
    "result": [
      {
        "electoralDistricts": [
          {
            "election": null,
            "id": 94,
            "name": "Scarborough Centre"
          }
        ],
        "pollDivisionIds": [
          10141586
        ],
        "postalCode": "M1K4A7",
        "streetName": "FITZGIBBON",
        "streetDirectionId": null,
        "streetTypeId": "AVE",
        "placeName": "SCARBOROUGH",
        "streetNameDisplayText": "FITZGIBBON AVE, SCARBOROUGH"
      }
    ]
  },
  {
    "postal": "M1K4H9",
    "result": [
      {
        "electoralDistricts": [
          {
            "election": null,
            "id": 98,
            "name": "Scarborough Southwest"
          }
        ],
        "pollDivisionIds": [
          10141790
        ],
        "postalCode": "M1K4H9",
        "streetName": "VERDUN",
        "streetDirectionId": null,
        "streetTypeId": "AVE",
        "placeName": "SCARBOROUGH",
        "streetNameDisplayText": "VERDUN AVE, SCARBOROUGH"
      }
    ]
  },
  {
    "postal": "M1K6X1",
    "result": []
  },
  {
    "postal": "M1K9Y7",
    "result": []
  },
  {
    "postal": "M1K2Y5",
    "result": [
      {
        "electoralDistricts": [
          {
            "election": null,
            "id": 94,
            "name": "Scarborough Centre"
          }
        ],
        "pollDivisionIds": [
          10141578
        ],
        "postalCode": "M1K2Y5",
        "streetName": "LOZOWAY",
        "streetDirectionId": null,
        "streetTypeId": "DR",
        "placeName": "SCARBOROUGH",
        "streetNameDisplayText": "LOZOWAY DR, SCARBOROUGH"
      }
    ]
  },
  {
    "postal": "M1K8L7",
    "result": []
  },
  {
    "postal": "M1K2A8",
    "result": [
      {
        "electoralDistricts": [
          {
            "election": null,
            "id": 98,
            "name": "Scarborough Southwest"
          }
        ],
        "pollDivisionIds": [
          10141783
        ],
        "postalCode": "M1K2A8",
        "streetName": "KENNEDY",
        "streetDirectionId": null,
        "streetTypeId": "RD",
        "placeName": "SCARBOROUGH",
        "streetNameDisplayText": "KENNEDY RD, SCARBOROUGH"
      }
    ]
  },
  {
    "postal": "M1K2K9",
    "result": [
      {
        "electoralDistricts": [
          {
            "election": null,
            "id": 98,
            "name": "Scarborough Southwest"
          }
        ],
        "pollDivisionIds": [
          10141785
        ],
        "postalCode": "M1K2K9",
        "streetName": "ASHWICK",
        "streetDirectionId": null,
        "streetTypeId": "DR",
        "placeName": "SCARBOROUGH",
        "streetNameDisplayText": "ASHWICK DR, SCARBOROUGH"
      }
    ]
  },
  {
    "postal": "M1K3E5",
    "result": [
      {
        "electoralDistricts": [
          {
            "election": null,
            "id": 98,
            "name": "Scarborough Southwest"
          }
        ],
        "pollDivisionIds": [
          10141788
        ],
        "postalCode": "M1K3E5",
        "streetName": "SUMMER",
        "streetDirectionId": null,
        "streetTypeId": "DR",
        "placeName": "SCARBOROUGH",
        "streetNameDisplayText": "SUMMER DR, SCARBOROUGH"
      }
    ]
  },
  {
    "postal": "M1K8N6",
    "result": []
  },
  {
    "postal": "M1K8J4",
    "result": []
  },
  {
    "postal": "M1K4R7",
    "result": [
      {
        "electoralDistricts": [
          {
            "election": null,
            "id": 94,
            "name": "Scarborough Centre"
          }
        ],
        "pollDivisionIds": [
          10141589
        ],
        "postalCode": "M1K4R7",
        "streetName": "STANSBURY",
        "streetDirectionId": null,
        "streetTypeId": "CRES",
        "placeName": "SCARBOROUGH",
        "streetNameDisplayText": "STANSBURY CRES, SCARBOROUGH"
      }
    ]
  },
  {
    "postal": "M1K9K1",
    "result": []
  },
  {
    "postal": "M1K8E1",
    "result": []
  },
  {
    "postal": "M1K0R1",
    "result": []
  },
  {
    "postal": "M1K4J3",
    "result": [
      {
        "electoralDistricts": [
          {
            "election": null,
            "id": 98,
            "name": "Scarborough Southwest"
          }
        ],
        "pollDivisionIds": [
          10141792
        ],
        "postalCode": "M1K4J3",
        "streetName": "ORDWAY",
        "streetDirectionId": null,
        "streetTypeId": "RD",
        "placeName": "SCARBOROUGH",
        "streetNameDisplayText": "ORDWAY RD, SCARBOROUGH"
      }
    ]
  },
  {
    "postal": "M1K7E7",
    "result": []
  },
  {
    "postal": "M1K0J0",
    "result": []
  },
  {
    "postal": "M1K7R8",
    "result": []
  },
  {
    "postal": "M1K9X0",
    "result": []
  },
  {
    "postal": "M1K7P6",
    "result": []
  },
  {
    "postal": "M1K0R7",
    "result": []
  },
  {
    "postal": "M1K5W1",
    "result": []
  },
  {
    "postal": "M1K0K4",
    "result": []
  },
  {
    "postal": "M1K7N9",
    "result": []
  },
  {
    "postal": "M1K1N0",
    "result": []
  },
  {
    "postal": "M1K6P3",
    "result": []
  },
  {
    "postal": "M1K5A1",
    "result": [
      {
        "electoralDistricts": [
          {
            "election": null,
            "id": 94,
            "name": "Scarborough Centre"
          }
        ],
        "pollDivisionIds": [
          10141587
        ],
        "postalCode": "M1K5A1",
        "streetName": "CANZONE",
        "streetDirectionId": null,
        "streetTypeId": "DR",
        "placeName": "SCARBOROUGH",
        "streetNameDisplayText": "CANZONE DR, SCARBOROUGH"
      }
    ]
  },
  {
    "postal": "M1K9M9",
    "result": []
  },
  {
    "postal": "M1K7T6",
    "result": []
  },
  {
    "postal": "M1K3X0",
    "result": []
  },
  {
    "postal": "M1K2T0",
    "result": []
  },
  {
    "postal": "M1K5X9",
    "result": []
  },
  {
    "postal": "M1K2R3",
    "result": []
  },
  {
    "postal": "M1K5N2",
    "result": []
  },
  {
    "postal": "M1K4Y7",
    "result": [
      {
        "electoralDistricts": [
          {
            "election": null,
            "id": 94,
            "name": "Scarborough Centre"
          }
        ],
        "pollDivisionIds": [
          10141586
        ],
        "postalCode": "M1K4Y7",
        "streetName": "BONNECHERE",
        "streetDirectionId": null,
        "streetTypeId": "CRES",
        "placeName": "SCARBOROUGH",
        "streetNameDisplayText": "BONNECHERE CRES, SCARBOROUGH"
      }
    ]
  },
  {
    "postal": "M1K7M0",
    "result": []
  },
  {
    "postal": "M1K8P3",
    "result": []
  },
  {
    "postal": "M1K3N3",
    "result": [
      {
        "electoralDistricts": [
          {
            "election": null,
            "id": 98,
            "name": "Scarborough Southwest"
          }
        ],
        "pollDivisionIds": [
          10141787
        ],
        "postalCode": "M1K3N3",
        "streetName": "DUMFREY",
        "streetDirectionId": null,
        "streetTypeId": "RD",
        "placeName": "SCARBOROUGH",
        "streetNameDisplayText": "DUMFREY RD, SCARBOROUGH"
      }
    ]
  },
  {
    "postal": "M1K7S3",
    "result": []
  },
  {
    "postal": "M1K3V9",
    "result": [
      {
        "electoralDistricts": [
          {
            "election": null,
            "id": 94,
            "name": "Scarborough Centre"
          }
        ],
        "pollDivisionIds": [
          10141577
        ],
        "postalCode": "M1K3V9",
        "streetName": "MOOREGATE",
        "streetDirectionId": null,
        "streetTypeId": "AVE",
        "placeName": "SCARBOROUGH",
        "streetNameDisplayText": "MOOREGATE AVE, SCARBOROUGH"
      }
    ]
  },
  {
    "postal": "M1K9N7",
    "result": []
  },
  {
    "postal": "M1K0G4",
    "result": []
  },
  {
    "postal": "M1K2E2",
    "result": [
      {
        "electoralDistricts": [
          {
            "election": null,
            "id": 94,
            "name": "Scarborough Centre"
          }
        ],
        "pollDivisionIds": [
          10141577
        ],
        "postalCode": "M1K2E2",
        "streetName": "KENNEDY",
        "streetDirectionId": null,
        "streetTypeId": "RD",
        "placeName": "SCARBOROUGH",
        "streetNameDisplayText": "KENNEDY RD, SCARBOROUGH"
      }
    ]
  },
  {
    "postal": "M1K7W8",
    "result": []
  },
  {
    "postal": "M1K7M5",
    "result": []
  },
  {
    "postal": "M1K5W8",
    "result": []
  },
  {
    "postal": "M1K5E5",
    "result": []
  },
  {
    "postal": "M1K1P9",
    "result": [
      {
        "electoralDistricts": [
          {
            "election": null,
            "id": 98,
            "name": "Scarborough Southwest"
          }
        ],
        "pollDivisionIds": [
          10141784
        ],
        "postalCode": "M1K1P9",
        "streetName": "BIRCHMOUNT",
        "streetDirectionId": null,
        "streetTypeId": "RD",
        "placeName": "SCARBOROUGH",
        "streetNameDisplayText": "BIRCHMOUNT RD, SCARBOROUGH"
      }
    ]
  },
  {
    "postal": "M1K8V8",
    "result": []
  },
  {
    "postal": "M1K9G8",
    "result": []
  },
  {
    "postal": "M1K8H9",
    "result": []
  },
  {
    "postal": "M1K1Z1",
    "result": [
      {
        "electoralDistricts": [
          {
            "election": null,
            "id": 98,
            "name": "Scarborough Southwest"
          }
        ],
        "pollDivisionIds": [
          10141783
        ],
        "postalCode": "M1K1Z1",
        "streetName": "MARSH",
        "streetDirectionId": null,
        "streetTypeId": "RD",
        "placeName": "SCARBOROUGH",
        "streetNameDisplayText": "MARSH RD, SCARBOROUGH"
      }
    ]
  },
  {
    "postal": "M1K8M3",
    "result": []
  },
  {
    "postal": "M1K5H6",
    "result": [
      {
        "electoralDistricts": [
          {
            "election": null,
            "id": 98,
            "name": "Scarborough Southwest"
          }
        ],
        "pollDivisionIds": [
          10141791
        ],
        "postalCode": "M1K5H6",
        "streetName": "TOWN HAVEN",
        "streetDirectionId": null,
        "streetTypeId": "PL",
        "placeName": "SCARBOROUGH",
        "streetNameDisplayText": "TOWN HAVEN PL, SCARBOROUGH"
      }
    ]
  },
  {
    "postal": "M1K7W7",
    "result": []
  },
  {
    "postal": "M1K4L0",
    "result": []
  },
  {
    "postal": "M1K2N1",
    "result": [
      {
        "electoralDistricts": [
          {
            "election": null,
            "id": 98,
            "name": "Scarborough Southwest"
          }
        ],
        "pollDivisionIds": [
          10141785
        ],
        "postalCode": "M1K2N1",
        "streetName": "EGLINTON",
        "streetDirectionId": "E",
        "streetTypeId": "AVE",
        "placeName": "SCARBOROUGH",
        "streetNameDisplayText": "EGLINTON AVE E, SCARBOROUGH"
      }
    ]
  },
  {
    "postal": "M1K2H4",
    "result": [
      {
        "electoralDistricts": [
          {
            "election": null,
            "id": 98,
            "name": "Scarborough Southwest"
          }
        ],
        "pollDivisionIds": [
          10141786
        ],
        "postalCode": "M1K2H4",
        "streetName": "MAYWOOD",
        "streetDirectionId": null,
        "streetTypeId": "PK",
        "placeName": "SCARBOROUGH",
        "streetNameDisplayText": "MAYWOOD PK, SCARBOROUGH"
      }
    ]
  },
  {
    "postal": "M1K5C8",
    "result": []
  },
  {
    "postal": "M1K8B0",
    "result": []
  },
  {
    "postal": "M1K1T4",
    "result": [
      {
        "electoralDistricts": [
          {
            "election": null,
            "id": 98,
            "name": "Scarborough Southwest"
          }
        ],
        "pollDivisionIds": [
          10141782
        ],
        "postalCode": "M1K1T4",
        "streetName": "RUPERT",
        "streetDirectionId": null,
        "streetTypeId": "ST",
        "placeName": "SCARBOROUGH",
        "streetNameDisplayText": "RUPERT ST, SCARBOROUGH"
      }
    ]
  },
  {
    "postal": "M1K7N7",
    "result": []
  },
  {
    "postal": "M1K4L3",
    "result": [
      {
        "electoralDistricts": [
          {
            "election": null,
            "id": 98,
            "name": "Scarborough Southwest"
          }
        ],
        "pollDivisionIds": [
          10141792
        ],
        "postalCode": "M1K4L3",
        "streetName": "HUNTINGTON",
        "streetDirectionId": null,
        "streetTypeId": "AVE",
        "placeName": "SCARBOROUGH",
        "streetNameDisplayText": "HUNTINGTON AVE, SCARBOROUGH"
      }
    ]
  },
  {
    "postal": "M1K2N2",
    "result": [
      {
        "electoralDistricts": [
          {
            "election": null,
            "id": 98,
            "name": "Scarborough Southwest"
          }
        ],
        "pollDivisionIds": [
          10141785
        ],
        "postalCode": "M1K2N2",
        "streetName": "EGLINTON",
        "streetDirectionId": "E",
        "streetTypeId": "AVE",
        "placeName": "SCARBOROUGH",
        "streetNameDisplayText": "EGLINTON AVE E, SCARBOROUGH"
      }
    ]
  },
  {
    "postal": "M1K4N8",
    "result": [
      {
        "electoralDistricts": [
          {
            "election": null,
            "id": 98,
            "name": "Scarborough Southwest"
          }
        ],
        "pollDivisionIds": [
          10141790
        ],
        "postalCode": "M1K4N8",
        "streetName": "LOMBARDY",
        "streetDirectionId": null,
        "streetTypeId": "CRES",
        "placeName": "SCARBOROUGH",
        "streetNameDisplayText": "LOMBARDY CRES, SCARBOROUGH"
      }
    ]
  },
  {
    "postal": "M1K3M5",
    "result": [
      {
        "electoralDistricts": [
          {
            "election": null,
            "id": 98,
            "name": "Scarborough Southwest"
          }
        ],
        "pollDivisionIds": [
          10141787
        ],
        "postalCode": "M1K3M5",
        "streetName": "MERRIAN",
        "streetDirectionId": null,
        "streetTypeId": "RD",
        "placeName": "SCARBOROUGH",
        "streetNameDisplayText": "MERRIAN RD, SCARBOROUGH"
      }
    ]
  },
  {
    "postal": "M1K6H7",
    "result": []
  },
  {
    "postal": "M1K8Y8",
    "result": []
  },
  {
    "postal": "M1K5R9",
    "result": []
  },
  {
    "postal": "M1K8G3",
    "result": []
  },
  {
    "postal": "M1K4N7",
    "result": [
      {
        "electoralDistricts": [
          {
            "election": null,
            "id": 98,
            "name": "Scarborough Southwest"
          }
        ],
        "pollDivisionIds": [
          10141790
        ],
        "postalCode": "M1K4N7",
        "streetName": "LOMBARDY",
        "streetDirectionId": null,
        "streetTypeId": "CRES",
        "placeName": "SCARBOROUGH",
        "streetNameDisplayText": "LOMBARDY CRES, SCARBOROUGH"
      }
    ]
  },
  {
    "postal": "M1K0B9",
    "result": []
  },
  {
    "postal": "M1K9K7",
    "result": []
  },
  {
    "postal": "M1K9K9",
    "result": []
  },
  {
    "postal": "M1K3Z2",
    "result": [
      {
        "electoralDistricts": [
          {
            "election": null,
            "id": 94,
            "name": "Scarborough Centre"
          }
        ],
        "pollDivisionIds": [
          10141588
        ],
        "postalCode": "M1K3Z2",
        "streetName": "WAINFLEET",
        "streetDirectionId": null,
        "streetTypeId": "RD",
        "placeName": "SCARBOROUGH",
        "streetNameDisplayText": "WAINFLEET RD, SCARBOROUGH"
      }
    ]
  },
  {
    "postal": "M1K6W7",
    "result": []
  },
  {
    "postal": "M1K0P1",
    "result": []
  },
  {
    "postal": "M1K3A0",
    "result": []
  },
  {
    "postal": "M1K8L9",
    "result": []
  },
  {
    "postal": "M1K6X0",
    "result": []
  },
  {
    "postal": "M1K3E9",
    "result": [
      {
        "electoralDistricts": [
          {
            "election": null,
            "id": 98,
            "name": "Scarborough Southwest"
          }
        ],
        "pollDivisionIds": [
          10141788
        ],
        "postalCode": "M1K3E9",
        "streetName": "CORVETTE",
        "streetDirectionId": null,
        "streetTypeId": "AVE",
        "placeName": "SCARBOROUGH",
        "streetNameDisplayText": "CORVETTE AVE, SCARBOROUGH"
      }
    ]
  },
  {
    "postal": "M1K0S5",
    "result": []
  },
  {
    "postal": "M1K1A2",
    "result": []
  },
  {
    "postal": "M1K5V8",
    "result": []
  },
  {
    "postal": "M1K8C5",
    "result": []
  },
  {
    "postal": "M1K6N0",
    "result": []
  },
  {
    "postal": "M1K9E6",
    "result": []
  },
  {
    "postal": "M1K5J7",
    "result": [
      {
        "electoralDistricts": [
          {
            "election": null,
            "id": 98,
            "name": "Scarborough Southwest"
          }
        ],
        "pollDivisionIds": [
          10141786
        ],
        "postalCode": "M1K5J7",
        "streetName": "EGLINTON",
        "streetDirectionId": "E",
        "streetTypeId": "AV",
        "placeName": "SCARBOROUGH",
        "streetNameDisplayText": "EGLINTON AV E, SCARBOROUGH"
      },
      {
        "electoralDistricts": [
          {
            "election": null,
            "id": 94,
            "name": "Scarborough Centre"
          }
        ],
        "pollDivisionIds": [
          10141611
        ],
        "postalCode": "M1K5J7",
        "streetName": "EGLINTON",
        "streetDirectionId": "E",
        "streetTypeId": "AVE",
        "placeName": "SCARBOROUGH",
        "streetNameDisplayText": "EGLINTON AVE E, SCARBOROUGH"
      },
      {
        "electoralDistricts": [
          {
            "election": null,
            "id": 94,
            "name": "Scarborough Centre"
          }
        ],
        "pollDivisionIds": [
          10141611
        ],
        "postalCode": "M1K5J7",
        "streetName": "EGLINTON AVE EAST",
        "streetDirectionId": "E",
        "streetTypeId": "AVE",
        "placeName": "SCARBOROUGH",
        "streetNameDisplayText": "EGLINTON AVE EAST AVE E, SCARBOROUGH"
      }
    ]
  },
  {
    "postal": "M1K2R2",
    "result": []
  },
  {
    "postal": "M1K0P5",
    "result": []
  },
  {
    "postal": "M1K5A7",
    "result": [
      {
        "electoralDistricts": [
          {
            "election": null,
            "id": 94,
            "name": "Scarborough Centre"
          }
        ],
        "pollDivisionIds": [
          10141586
        ],
        "postalCode": "M1K5A7",
        "streetName": "MARCOS",
        "streetDirectionId": null,
        "streetTypeId": "BLVD",
        "placeName": "SCARBOROUGH",
        "streetNameDisplayText": "MARCOS BLVD, SCARBOROUGH"
      }
    ]
  },
  {
    "postal": "M1K1G1",
    "result": [
      {
        "electoralDistricts": [
          {
            "election": null,
            "id": 98,
            "name": "Scarborough Southwest"
          }
        ],
        "pollDivisionIds": [
          10141783
        ],
        "postalCode": "M1K1G1",
        "streetName": "DANFORTH",
        "streetDirectionId": null,
        "streetTypeId": "RD",
        "placeName": "SCARBOROUGH",
        "streetNameDisplayText": "DANFORTH RD, SCARBOROUGH"
      }
    ]
  },
  {
    "postal": "M1K9R6",
    "result": []
  },
  {
    "postal": "M1K4Z9",
    "result": [
      {
        "electoralDistricts": [
          {
            "election": null,
            "id": 94,
            "name": "Scarborough Centre"
          }
        ],
        "pollDivisionIds": [
          10141587
        ],
        "postalCode": "M1K4Z9",
        "streetName": "CANZONE",
        "streetDirectionId": null,
        "streetTypeId": "DR",
        "placeName": "SCARBOROUGH",
        "streetNameDisplayText": "CANZONE DR, SCARBOROUGH"
      }
    ]
  },
  {
    "postal": "M1K1V5",
    "result": [
      {
        "electoralDistricts": [
          {
            "election": null,
            "id": 98,
            "name": "Scarborough Southwest"
          }
        ],
        "pollDivisionIds": [
          10141782
        ],
        "postalCode": "M1K1V5",
        "streetName": "SILVIO",
        "streetDirectionId": null,
        "streetTypeId": "AVE",
        "placeName": "SCARBOROUGH",
        "streetNameDisplayText": "SILVIO AVE, SCARBOROUGH"
      }
    ]
  },
  {
    "postal": "M1K9Y5",
    "result": []
  },
  {
    "postal": "M1K1P2",
    "result": [
      {
        "electoralDistricts": [
          {
            "election": null,
            "id": 98,
            "name": "Scarborough Southwest"
          }
        ],
        "pollDivisionIds": [
          10141781,
          10141782
        ],
        "postalCode": "M1K1P2",
        "streetName": "BIRCHMOUNT",
        "streetDirectionId": null,
        "streetTypeId": "RD",
        "placeName": "SCARBOROUGH",
        "streetNameDisplayText": "BIRCHMOUNT RD, SCARBOROUGH"
      }
    ]
  },
  {
    "postal": "M1K5X0",
    "result": []
  },
  {
    "postal": "M1K7B8",
    "result": []
  },
  {
    "postal": "M1K0C6",
    "result": []
  },
  {
    "postal": "M1K6G1",
    "result": []
  },
  {
    "postal": "M1K3K3",
    "result": [
      {
        "electoralDistricts": [
          {
            "election": null,
            "id": 98,
            "name": "Scarborough Southwest"
          }
        ],
        "pollDivisionIds": [
          10141789
        ],
        "postalCode": "M1K3K3",
        "streetName": "MAGNOLIA",
        "streetDirectionId": null,
        "streetTypeId": "AVE",
        "placeName": "SCARBOROUGH",
        "streetNameDisplayText": "MAGNOLIA AVE, SCARBOROUGH"
      }
    ]
  },
  {
    "postal": "M1K9R0",
    "result": []
  },
  {
    "postal": "M1K4R8",
    "result": [
      {
        "electoralDistricts": [
          {
            "election": null,
            "id": 94,
            "name": "Scarborough Centre"
          }
        ],
        "pollDivisionIds": [
          10141589
        ],
        "postalCode": "M1K4R8",
        "streetName": "STANSBURY",
        "streetDirectionId": null,
        "streetTypeId": "CRES",
        "placeName": "SCARBOROUGH",
        "streetNameDisplayText": "STANSBURY CRES, SCARBOROUGH"
      }
    ]
  },
  {
    "postal": "M1K5P9",
    "result": []
  },
  {
    "postal": "M1K8N4",
    "result": []
  },
  {
    "postal": "M1K8H4",
    "result": []
  },
  {
    "postal": "M1K4V1",
    "result": [
      {
        "electoralDistricts": [
          {
            "election": null,
            "id": 94,
            "name": "Scarborough Centre"
          }
        ],
        "pollDivisionIds": [
          10141589
        ],
        "postalCode": "M1K4V1",
        "streetName": "BIMBROK",
        "streetDirectionId": null,
        "streetTypeId": "RD",
        "placeName": "SCARBOROUGH",
        "streetNameDisplayText": "BIMBROK RD, SCARBOROUGH"
      }
    ]
  },
  {
    "postal": "M1K1K5",
    "result": [
      {
        "electoralDistricts": [
          {
            "election": null,
            "id": 98,
            "name": "Scarborough Southwest"
          }
        ],
        "pollDivisionIds": [
          10141782
        ],
        "postalCode": "M1K1K5",
        "streetName": "ZENITH",
        "streetDirectionId": null,
        "streetTypeId": "DR",
        "placeName": "SCARBOROUGH",
        "streetNameDisplayText": "ZENITH DR, SCARBOROUGH"
      }
    ]
  },
  {
    "postal": "M1K1Z5",
    "result": [
      {
        "electoralDistricts": [
          {
            "election": null,
            "id": 98,
            "name": "Scarborough Southwest"
          }
        ],
        "pollDivisionIds": [
          10141783
        ],
        "postalCode": "M1K1Z5",
        "streetName": "COTTON",
        "streetDirectionId": null,
        "streetTypeId": "AVE",
        "placeName": "SCARBOROUGH",
        "streetNameDisplayText": "COTTON AVE, SCARBOROUGH"
      }
    ]
  },
  {
    "postal": "M1K9L9",
    "result": []
  },
  {
    "postal": "M1K5L2",
    "result": []
  },
  {
    "postal": "M1K0M2",
    "result": []
  },
  {
    "postal": "M1K1K8",
    "result": [
      {
        "electoralDistricts": [
          {
            "election": null,
            "id": 98,
            "name": "Scarborough Southwest"
          }
        ],
        "pollDivisionIds": [
          10141782
        ],
        "postalCode": "M1K1K8",
        "streetName": "DUNLOP",
        "streetDirectionId": null,
        "streetTypeId": "AVE",
        "placeName": "SCARBOROUGH",
        "streetNameDisplayText": "DUNLOP AVE, SCARBOROUGH"
      }
    ]
  },
  {
    "postal": "M1K3M7",
    "result": [
      {
        "electoralDistricts": [
          {
            "election": null,
            "id": 98,
            "name": "Scarborough Southwest"
          }
        ],
        "pollDivisionIds": [
          10141787
        ],
        "postalCode": "M1K3M7",
        "streetName": "MERRIAN",
        "streetDirectionId": null,
        "streetTypeId": "RD",
        "placeName": "SCARBOROUGH",
        "streetNameDisplayText": "MERRIAN RD, SCARBOROUGH"
      }
    ]
  },
  {
    "postal": "M1K1B2",
    "result": []
  },
  {
    "postal": "M1K0H9",
    "result": []
  },
  {
    "postal": "M1K8M4",
    "result": []
  },
  {
    "postal": "M1K2M5",
    "result": [
      {
        "electoralDistricts": [
          {
            "election": null,
            "id": 98,
            "name": "Scarborough Southwest"
          }
        ],
        "pollDivisionIds": [
          10141786
        ],
        "postalCode": "M1K2M5",
        "streetName": "EGLINTON",
        "streetDirectionId": "E",
        "streetTypeId": "AVE",
        "placeName": "SCARBOROUGH",
        "streetNameDisplayText": "EGLINTON AVE E, SCARBOROUGH"
      },
      {
        "electoralDistricts": [
          {
            "election": null,
            "id": 19,
            "name": "Davenport"
          }
        ],
        "pollDivisionIds": [
          10136077
        ],
        "postalCode": "M1K2M5",
        "streetName": "EGLINTON",
        "streetDirectionId": "W",
        "streetTypeId": "AVE",
        "placeName": "SCARBOROUGH",
        "streetNameDisplayText": "EGLINTON AVE W, SCARBOROUGH"
      }
    ]
  },
  {
    "postal": "M1K0T9",
    "result": []
  },
  {
    "postal": "M1K3P1",
    "result": [
      {
        "electoralDistricts": [
          {
            "election": null,
            "id": 98,
            "name": "Scarborough Southwest"
          }
        ],
        "pollDivisionIds": [
          10141791
        ],
        "postalCode": "M1K3P1",
        "streetName": "BENJAMIN",
        "streetDirectionId": null,
        "streetTypeId": "BLVD",
        "placeName": "SCARBOROUGH",
        "streetNameDisplayText": "BENJAMIN BLVD, SCARBOROUGH"
      }
    ]
  },
  {
    "postal": "M1K1R6",
    "result": [
      {
        "electoralDistricts": [
          {
            "election": null,
            "id": 98,
            "name": "Scarborough Southwest"
          }
        ],
        "pollDivisionIds": [
          10141785
        ],
        "postalCode": "M1K1R6",
        "streetName": "BIRCHMOUNT",
        "streetDirectionId": null,
        "streetTypeId": "RD",
        "placeName": "SCARBOROUGH",
        "streetNameDisplayText": "BIRCHMOUNT RD, SCARBOROUGH"
      }
    ]
  },
  {
    "postal": "M1K9V5",
    "result": []
  },
  {
    "postal": "M1K9T0",
    "result": []
  },
  {
    "postal": "M1K0A9",
    "result": [
      {
        "electoralDistricts": [
          {
            "election": null,
            "id": 98,
            "name": "Scarborough Southwest"
          }
        ],
        "pollDivisionIds": [
          10141787,
          10141789,
          10141798
        ],
        "postalCode": "M1K0A9",
        "streetName": "ST CLAIR",
        "streetDirectionId": "E",
        "streetTypeId": "AVE",
        "placeName": "SCARBOROUGH",
        "streetNameDisplayText": "ST CLAIR AVE E, SCARBOROUGH"
      },
      {
        "electoralDistricts": [
          {
            "election": null,
            "id": 98,
            "name": "Scarborough Southwest"
          }
        ],
        "pollDivisionIds": [
          10141772
        ],
        "postalCode": "M1K0A9",
        "streetName": "ST CLAIR",
        "streetDirectionId": "E",
        "streetTypeId": "AVE",
        "placeName": "TORONTO",
        "streetNameDisplayText": "ST CLAIR AVE E, TORONTO"
      }
    ]
  },
  {
    "postal": "M1K1M3",
    "result": []
  },
  {
    "postal": "M1K1W8",
    "result": [
      {
        "electoralDistricts": [
          {
            "election": null,
            "id": 98,
            "name": "Scarborough Southwest"
          }
        ],
        "pollDivisionIds": [
          10141783
        ],
        "postalCode": "M1K1W8",
        "streetName": "NORTH WOODROW",
        "streetDirectionId": null,
        "streetTypeId": "BLVD",
        "placeName": "SCARBOROUGH",
        "streetNameDisplayText": "NORTH WOODROW BLVD, SCARBOROUGH"
      }
    ]
  },
  {
    "postal": "M1K9J1",
    "result": []
  },
  {
    "postal": "M1K8N5",
    "result": []
  },
  {
    "postal": "M1K5X1",
    "result": []
  },
  {
    "postal": "M1K6S2",
    "result": []
  },
  {
    "postal": "M1K2A2",
    "result": [
      {
        "electoralDistricts": [
          {
            "election": null,
            "id": 98,
            "name": "Scarborough Southwest"
          }
        ],
        "pollDivisionIds": [
          10141783
        ],
        "postalCode": "M1K2A2",
        "streetName": "KENNEDY",
        "streetDirectionId": null,
        "streetTypeId": "RD",
        "placeName": "SCARBOROUGH",
        "streetNameDisplayText": "KENNEDY RD, SCARBOROUGH"
      }
    ]
  },
  {
    "postal": "M1K6A6",
    "result": []
  },
  {
    "postal": "M1K0S3",
    "result": []
  },
  {
    "postal": "M1K3E7",
    "result": [
      {
        "electoralDistricts": [
          {
            "election": null,
            "id": 98,
            "name": "Scarborough Southwest"
          }
        ],
        "pollDivisionIds": [
          10141789
        ],
        "postalCode": "M1K3E7",
        "streetName": "SUMMER",
        "streetDirectionId": null,
        "streetTypeId": "DR",
        "placeName": "SCARBOROUGH",
        "streetNameDisplayText": "SUMMER DR, SCARBOROUGH"
      }
    ]
  },
  {
    "postal": "M1K5R7",
    "result": []
  },
  {
    "postal": "M1K3R6",
    "result": [
      {
        "electoralDistricts": [
          {
            "election": null,
            "id": 98,
            "name": "Scarborough Southwest"
          }
        ],
        "pollDivisionIds": [
          10141791
        ],
        "postalCode": "M1K3R6",
        "streetName": "KIM",
        "streetDirectionId": null,
        "streetTypeId": "CRT",
        "placeName": "SCARBOROUGH",
        "streetNameDisplayText": "KIM CRT, SCARBOROUGH"
      }
    ]
  },
  {
    "postal": "M1K6K4",
    "result": []
  },
  {
    "postal": "M1K2W5",
    "result": [
      {
        "electoralDistricts": [
          {
            "election": null,
            "id": 94,
            "name": "Scarborough Centre"
          }
        ],
        "pollDivisionIds": [
          10141578
        ],
        "postalCode": "M1K2W5",
        "streetName": "ROSEMOUNT",
        "streetDirectionId": null,
        "streetTypeId": "DR",
        "placeName": "SCARBOROUGH",
        "streetNameDisplayText": "ROSEMOUNT DR, SCARBOROUGH"
      }
    ]
  },
  {
    "postal": "M1K8W4",
    "result": []
  },
  {
    "postal": "M1K9C2",
    "result": []
  },
  {
    "postal": "M1K2C0",
    "result": []
  },
  {
    "postal": "M1K0E1",
    "result": []
  },
  {
    "postal": "M1K1K9",
    "result": [
      {
        "electoralDistricts": [
          {
            "election": null,
            "id": 98,
            "name": "Scarborough Southwest"
          }
        ],
        "pollDivisionIds": [
          10141782
        ],
        "postalCode": "M1K1K9",
        "streetName": "DUNLOP",
        "streetDirectionId": null,
        "streetTypeId": "AVE",
        "placeName": "SCARBOROUGH",
        "streetNameDisplayText": "DUNLOP AVE, SCARBOROUGH"
      }
    ]
  },
  {
    "postal": "M1K1G7",
    "result": [
      {
        "electoralDistricts": [
          {
            "election": null,
            "id": 98,
            "name": "Scarborough Southwest"
          }
        ],
        "pollDivisionIds": [
          10141788
        ],
        "postalCode": "M1K1G7",
        "streetName": "DANFORTH",
        "streetDirectionId": null,
        "streetTypeId": "RD",
        "placeName": "SCARBOROUGH",
        "streetNameDisplayText": "DANFORTH RD, SCARBOROUGH"
      }
    ]
  },
  {
    "postal": "M1K4E9",
    "result": []
  },
  {
    "postal": "M1K9P0",
    "result": []
  },
  {
    "postal": "M1K5H3",
    "result": [
      {
        "electoralDistricts": [
          {
            "election": null,
            "id": 98,
            "name": "Scarborough Southwest"
          }
        ],
        "pollDivisionIds": [
          10141771
        ],
        "postalCode": "M1K5H3",
        "streetName": "BIRCHMOUNT",
        "streetDirectionId": null,
        "streetTypeId": "RD",
        "placeName": "SCARBOROUGH",
        "streetNameDisplayText": "BIRCHMOUNT RD, SCARBOROUGH"
      }
    ]
  },
  {
    "postal": "M1K9X6",
    "result": []
  },
  {
    "postal": "M1K5N7",
    "result": []
  },
  {
    "postal": "M1K5A6",
    "result": [
      {
        "electoralDistricts": [
          {
            "election": null,
            "id": 94,
            "name": "Scarborough Centre"
          }
        ],
        "pollDivisionIds": [
          10141587
        ],
        "postalCode": "M1K5A6",
        "streetName": "ARNPRIOR",
        "streetDirectionId": null,
        "streetTypeId": "RD",
        "placeName": "SCARBOROUGH",
        "streetNameDisplayText": "ARNPRIOR RD, SCARBOROUGH"
      }
    ]
  },
  {
    "postal": "M1K4M0",
    "result": []
  },
  {
    "postal": "M1K3V6",
    "result": [
      {
        "electoralDistricts": [
          {
            "election": null,
            "id": 94,
            "name": "Scarborough Centre"
          }
        ],
        "pollDivisionIds": [
          10141577
        ],
        "postalCode": "M1K3V6",
        "streetName": "SHENLEY",
        "streetDirectionId": null,
        "streetTypeId": "RD",
        "placeName": "SCARBOROUGH",
        "streetNameDisplayText": "SHENLEY RD, SCARBOROUGH"
      }
    ]
  },
  {
    "postal": "M1K1L7",
    "result": []
  },
  {
    "postal": "M1K2P9",
    "result": []
  },
  {
    "postal": "M1K5T4",
    "result": []
  },
  {
    "postal": "M1K5Z1",
    "result": []
  },
  {
    "postal": "M1K2X0",
    "result": []
  },
  {
    "postal": "M1K6Z2",
    "result": []
  },
  {
    "postal": "M1K0E0",
    "result": []
  },
  {
    "postal": "M1K3Z5",
    "result": [
      {
        "electoralDistricts": [
          {
            "election": null,
            "id": 94,
            "name": "Scarborough Centre"
          }
        ],
        "pollDivisionIds": [
          10141588
        ],
        "postalCode": "M1K3Z5",
        "streetName": "WAINFLEET",
        "streetDirectionId": null,
        "streetTypeId": "RD",
        "placeName": "SCARBOROUGH",
        "streetNameDisplayText": "WAINFLEET RD, SCARBOROUGH"
      }
    ]
  },
  {
    "postal": "M1K8H3",
    "result": []
  },
  {
    "postal": "M1K7S6",
    "result": []
  },
  {
    "postal": "M1K4C1",
    "result": [
      {
        "electoralDistricts": [
          {
            "election": null,
            "id": 94,
            "name": "Scarborough Centre"
          }
        ],
        "pollDivisionIds": [
          10141586
        ],
        "postalCode": "M1K4C1",
        "streetName": "ROMULUS",
        "streetDirectionId": null,
        "streetTypeId": "DR",
        "placeName": "SCARBOROUGH",
        "streetNameDisplayText": "ROMULUS DR, SCARBOROUGH"
      }
    ]
  },
  {
    "postal": "M1K3K2",
    "result": [
      {
        "electoralDistricts": [
          {
            "election": null,
            "id": 98,
            "name": "Scarborough Southwest"
          }
        ],
        "pollDivisionIds": [
          10141789
        ],
        "postalCode": "M1K3K2",
        "streetName": "MAGNOLIA",
        "streetDirectionId": null,
        "streetTypeId": "AVE",
        "placeName": "SCARBOROUGH",
        "streetNameDisplayText": "MAGNOLIA AVE, SCARBOROUGH"
      }
    ]
  },
  {
    "postal": "M1K1Y5",
    "result": [
      {
        "electoralDistricts": [
          {
            "election": null,
            "id": 98,
            "name": "Scarborough Southwest"
          }
        ],
        "pollDivisionIds": [
          10141783
        ],
        "postalCode": "M1K1Y5",
        "streetName": "KILMARNOCK",
        "streetDirectionId": null,
        "streetTypeId": "AVE",
        "placeName": "SCARBOROUGH",
        "streetNameDisplayText": "KILMARNOCK AVE, SCARBOROUGH"
      }
    ]
  },
  {
    "postal": "M1K6P6",
    "result": []
  },
  {
    "postal": "M1K3N9",
    "result": [
      {
        "electoralDistricts": [
          {
            "election": null,
            "id": 98,
            "name": "Scarborough Southwest"
          }
        ],
        "pollDivisionIds": [
          10141787
        ],
        "postalCode": "M1K3N9",
        "streetName": "KENMARK",
        "streetDirectionId": null,
        "streetTypeId": "BLVD",
        "placeName": "SCARBOROUGH",
        "streetNameDisplayText": "KENMARK BLVD, SCARBOROUGH"
      }
    ]
  },
  {
    "postal": "M1K3W2",
    "result": [
      {
        "electoralDistricts": [
          {
            "election": null,
            "id": 94,
            "name": "Scarborough Centre"
          }
        ],
        "pollDivisionIds": [
          10141588
        ],
        "postalCode": "M1K3W2",
        "streetName": "LORD ROBERTS",
        "streetDirectionId": null,
        "streetTypeId": "DR",
        "placeName": "SCARBOROUGH",
        "streetNameDisplayText": "LORD ROBERTS DR, SCARBOROUGH"
      }
    ]
  },
  {
    "postal": "M1K6H8",
    "result": []
  },
  {
    "postal": "M1K9T3",
    "result": []
  },
  {
    "postal": "M1K5L9",
    "result": []
  },
  {
    "postal": "M1K7X7",
    "result": []
  },
  {
    "postal": "M1K3J5",
    "result": [
      {
        "electoralDistricts": [
          {
            "election": null,
            "id": 98,
            "name": "Scarborough Southwest"
          }
        ],
        "pollDivisionIds": [
          10141789
        ],
        "postalCode": "M1K3J5",
        "streetName": "LAUREL",
        "streetDirectionId": null,
        "streetTypeId": "AVE",
        "placeName": "SCARBOROUGH",
        "streetNameDisplayText": "LAUREL AVE, SCARBOROUGH"
      }
    ]
  },
  {
    "postal": "M1K4J5",
    "result": [
      {
        "electoralDistricts": [
          {
            "election": null,
            "id": 98,
            "name": "Scarborough Southwest"
          }
        ],
        "pollDivisionIds": [
          10141792
        ],
        "postalCode": "M1K4J5",
        "streetName": "CENTURY",
        "streetDirectionId": null,
        "streetTypeId": "DR",
        "placeName": "SCARBOROUGH",
        "streetNameDisplayText": "CENTURY DR, SCARBOROUGH"
      }
    ]
  },
  {
    "postal": "M1K6J2",
    "result": []
  },
  {
    "postal": "M1K5V6",
    "result": []
  },
  {
    "postal": "M1K3N2",
    "result": [
      {
        "electoralDistricts": [
          {
            "election": null,
            "id": 98,
            "name": "Scarborough Southwest"
          }
        ],
        "pollDivisionIds": [
          10141787
        ],
        "postalCode": "M1K3N2",
        "streetName": "DUMFREY",
        "streetDirectionId": null,
        "streetTypeId": "RD",
        "placeName": "SCARBOROUGH",
        "streetNameDisplayText": "DUMFREY RD, SCARBOROUGH"
      }
    ]
  },
  {
    "postal": "M1K3B1",
    "result": [
      {
        "electoralDistricts": [
          {
            "election": null,
            "id": 94,
            "name": "Scarborough Centre"
          }
        ],
        "pollDivisionIds": [
          10141578
        ],
        "postalCode": "M1K3B1",
        "streetName": "MIDHOLM",
        "streetDirectionId": null,
        "streetTypeId": "DR",
        "placeName": "SCARBOROUGH",
        "streetNameDisplayText": "MIDHOLM DR, SCARBOROUGH"
      }
    ]
  },
  {
    "postal": "M1K8B5",
    "result": []
  },
  {
    "postal": "M1K0K1",
    "result": []
  },
  {
    "postal": "M1K7M7",
    "result": []
  },
  {
    "postal": "M1K2M2",
    "result": [
      {
        "electoralDistricts": [
          {
            "election": null,
            "id": 94,
            "name": "Scarborough Centre"
          }
        ],
        "pollDivisionIds": [
          10141578
        ],
        "postalCode": "M1K2M2",
        "streetName": "EGLINTON",
        "streetDirectionId": "E",
        "streetTypeId": "AVE",
        "placeName": "SCARBOROUGH",
        "streetNameDisplayText": "EGLINTON AVE E, SCARBOROUGH"
      }
    ]
  },
  {
    "postal": "M1K9N3",
    "result": []
  },
  {
    "postal": "M1K4Y8",
    "result": [
      {
        "electoralDistricts": [
          {
            "election": null,
            "id": 94,
            "name": "Scarborough Centre"
          }
        ],
        "pollDivisionIds": [
          10141586
        ],
        "postalCode": "M1K4Y8",
        "streetName": "BONNECHERE",
        "streetDirectionId": null,
        "streetTypeId": "CRES",
        "placeName": "SCARBOROUGH",
        "streetNameDisplayText": "BONNECHERE CRES, SCARBOROUGH"
      }
    ]
  },
  {
    "postal": "M1K3V7",
    "result": [
      {
        "electoralDistricts": [
          {
            "election": null,
            "id": 94,
            "name": "Scarborough Centre"
          }
        ],
        "pollDivisionIds": [
          10141577
        ],
        "postalCode": "M1K3V7",
        "streetName": "MOOREGATE",
        "streetDirectionId": null,
        "streetTypeId": "AVE",
        "placeName": "SCARBOROUGH",
        "streetNameDisplayText": "MOOREGATE AVE, SCARBOROUGH"
      }
    ]
  },
  {
    "postal": "M1K8Z1",
    "result": []
  },
  {
    "postal": "M1K7B3",
    "result": []
  },
  {
    "postal": "M1K3A8",
    "result": [
      {
        "electoralDistricts": [
          {
            "election": null,
            "id": 94,
            "name": "Scarborough Centre"
          }
        ],
        "pollDivisionIds": [
          10141578
        ],
        "postalCode": "M1K3A8",
        "streetName": "LANDSEER",
        "streetDirectionId": null,
        "streetTypeId": "RD",
        "placeName": "SCARBOROUGH",
        "streetNameDisplayText": "LANDSEER RD, SCARBOROUGH"
      }
    ]
  },
  {
    "postal": "M1K7V5",
    "result": []
  },
  {
    "postal": "M1K2T2",
    "result": [
      {
        "electoralDistricts": [
          {
            "election": null,
            "id": 94,
            "name": "Scarborough Centre"
          }
        ],
        "pollDivisionIds": [
          10141578
        ],
        "postalCode": "M1K2T2",
        "streetName": "BERTRAND",
        "streetDirectionId": null,
        "streetTypeId": "AVE",
        "placeName": "SCARBOROUGH",
        "streetNameDisplayText": "BERTRAND AVE, SCARBOROUGH"
      }
    ]
  },
  {
    "postal": "M1K6L3",
    "result": []
  },
  {
    "postal": "M1K0L2",
    "result": []
  },
  {
    "postal": "M1K5Y8",
    "result": []
  },
  {
    "postal": "M1K0B8",
    "result": []
  },
  {
    "postal": "M1K6R5",
    "result": []
  },
  {
    "postal": "M1K8W6",
    "result": []
  },
  {
    "postal": "M1K8G6",
    "result": []
  },
  {
    "postal": "M1K6X3",
    "result": []
  },
  {
    "postal": "M1K7R7",
    "result": []
  },
  {
    "postal": "M1K4B6",
    "result": [
      {
        "electoralDistricts": [
          {
            "election": null,
            "id": 94,
            "name": "Scarborough Centre"
          }
        ],
        "pollDivisionIds": [
          10141586
        ],
        "postalCode": "M1K4B6",
        "streetName": "ARNOTT",
        "streetDirectionId": null,
        "streetTypeId": "ST",
        "placeName": "SCARBOROUGH",
        "streetNameDisplayText": "ARNOTT ST, SCARBOROUGH"
      }
    ]
  },
  {
    "postal": "M1K3P9",
    "result": [
      {
        "electoralDistricts": [
          {
            "election": null,
            "id": 98,
            "name": "Scarborough Southwest"
          }
        ],
        "pollDivisionIds": [
          10141791
        ],
        "postalCode": "M1K3P9",
        "streetName": "SHEVA",
        "streetDirectionId": null,
        "streetTypeId": "CRT",
        "placeName": "SCARBOROUGH",
        "streetNameDisplayText": "SHEVA CRT, SCARBOROUGH"
      }
    ]
  },
  {
    "postal": "M1K2T3",
    "result": [
      {
        "electoralDistricts": [
          {
            "election": null,
            "id": 94,
            "name": "Scarborough Centre"
          }
        ],
        "pollDivisionIds": [
          10141578
        ],
        "postalCode": "M1K2T3",
        "streetName": "RANSTONE",
        "streetDirectionId": null,
        "streetTypeId": "GDNS",
        "placeName": "SCARBOROUGH",
        "streetNameDisplayText": "RANSTONE GDNS, SCARBOROUGH"
      }
    ]
  },
  {
    "postal": "M1K1M4",
    "result": []
  },
  {
    "postal": "M1K0H1",
    "result": []
  },
  {
    "postal": "M1K9W3",
    "result": []
  },
  {
    "postal": "M1K6P1",
    "result": []
  },
  {
    "postal": "M1K7G2",
    "result": []
  },
  {
    "postal": "M1K4J9",
    "result": [
      {
        "electoralDistricts": [
          {
            "election": null,
            "id": 98,
            "name": "Scarborough Southwest"
          }
        ],
        "pollDivisionIds": [
          10141790
        ],
        "postalCode": "M1K4J9",
        "streetName": "COMMONWEALTH",
        "streetDirectionId": null,
        "streetTypeId": "AVE",
        "placeName": "SCARBOROUGH",
        "streetNameDisplayText": "COMMONWEALTH AVE, SCARBOROUGH"
      }
    ]
  },
  {
    "postal": "M1K9E4",
    "result": []
  },
  {
    "postal": "M1K8H0",
    "result": []
  },
  {
    "postal": "M1K4M7",
    "result": [
      {
        "electoralDistricts": [
          {
            "election": null,
            "id": 98,
            "name": "Scarborough Southwest"
          }
        ],
        "pollDivisionIds": [
          10141792
        ],
        "postalCode": "M1K4M7",
        "streetName": "FALMOUTH",
        "streetDirectionId": null,
        "streetTypeId": "AVE",
        "placeName": "SCARBOROUGH",
        "streetNameDisplayText": "FALMOUTH AVE, SCARBOROUGH"
      }
    ]
  },
  {
    "postal": "M1K2G9",
    "result": [
      {
        "electoralDistricts": [
          {
            "election": null,
            "id": 98,
            "name": "Scarborough Southwest"
          }
        ],
        "pollDivisionIds": [
          10141784
        ],
        "postalCode": "M1K2G9",
        "streetName": "MAYWOOD",
        "streetDirectionId": null,
        "streetTypeId": "PK",
        "placeName": "SCARBOROUGH",
        "streetNameDisplayText": "MAYWOOD PK, SCARBOROUGH"
      }
    ]
  },
  {
    "postal": "M1K8T2",
    "result": []
  },
  {
    "postal": "M1K7G7",
    "result": []
  },
  {
    "postal": "M1K4Z3",
    "result": [
      {
        "electoralDistricts": [
          {
            "election": null,
            "id": 94,
            "name": "Scarborough Centre"
          }
        ],
        "pollDivisionIds": [
          10141586
        ],
        "postalCode": "M1K4Z3",
        "streetName": "BONNECHERE",
        "streetDirectionId": null,
        "streetTypeId": "CRES",
        "placeName": "SCARBOROUGH",
        "streetNameDisplayText": "BONNECHERE CRES, SCARBOROUGH"
      }
    ]
  },
  {
    "postal": "M1K5B3",
    "result": [
      {
        "electoralDistricts": [
          {
            "election": null,
            "id": 94,
            "name": "Scarborough Centre"
          }
        ],
        "pollDivisionIds": [
          10141586
        ],
        "postalCode": "M1K5B3",
        "streetName": "MARCOS",
        "streetDirectionId": null,
        "streetTypeId": "BLVD",
        "placeName": "SCARBOROUGH",
        "streetNameDisplayText": "MARCOS BLVD, SCARBOROUGH"
      }
    ]
  },
  {
    "postal": "M1K1S7",
    "result": []
  },
  {
    "postal": "M1K2N7",
    "result": [
      {
        "electoralDistricts": [
          {
            "election": null,
            "id": 98,
            "name": "Scarborough Southwest"
          }
        ],
        "pollDivisionIds": [
          10141786
        ],
        "postalCode": "M1K2N7",
        "streetName": "EGLINTON",
        "streetDirectionId": "E",
        "streetTypeId": "AVE",
        "placeName": "SCARBOROUGH",
        "streetNameDisplayText": "EGLINTON AVE E, SCARBOROUGH"
      }
    ]
  },
  {
    "postal": "M1K0H8",
    "result": []
  },
  {
    "postal": "M1K7Z4",
    "result": []
  },
  {
    "postal": "M1K7B1",
    "result": []
  },
  {
    "postal": "M1K7P8",
    "result": []
  },
  {
    "postal": "M1K7N0",
    "result": []
  },
  {
    "postal": "M1K3Y5",
    "result": [
      {
        "electoralDistricts": [
          {
            "election": null,
            "id": 94,
            "name": "Scarborough Centre"
          }
        ],
        "pollDivisionIds": [
          10141588
        ],
        "postalCode": "M1K3Y5",
        "streetName": "MARENGO",
        "streetDirectionId": null,
        "streetTypeId": "AVE",
        "placeName": "SCARBOROUGH",
        "streetNameDisplayText": "MARENGO AVE, SCARBOROUGH"
      }
    ]
  },
  {
    "postal": "M1K6K1",
    "result": []
  },
  {
    "postal": "M1K9X5",
    "result": []
  },
  {
    "postal": "M1K7S5",
    "result": []
  },
  {
    "postal": "M1K0A4",
    "result": [
      {
        "electoralDistricts": [
          {
            "election": null,
            "id": 98,
            "name": "Scarborough Southwest"
          }
        ],
        "pollDivisionIds": [
          10141781
        ],
        "postalCode": "M1K0A4",
        "streetName": "BIRCHMOUNT",
        "streetDirectionId": null,
        "streetTypeId": "RD",
        "placeName": "SCARBOROUGH",
        "streetNameDisplayText": "BIRCHMOUNT RD, SCARBOROUGH"
      }
    ]
  },
  {
    "postal": "M1K4T5",
    "result": [
      {
        "electoralDistricts": [
          {
            "election": null,
            "id": 94,
            "name": "Scarborough Centre"
          }
        ],
        "pollDivisionIds": [
          10141589
        ],
        "postalCode": "M1K4T5",
        "streetName": "CHILLERY",
        "streetDirectionId": null,
        "streetTypeId": "AVE",
        "placeName": "SCARBOROUGH",
        "streetNameDisplayText": "CHILLERY AVE, SCARBOROUGH"
      }
    ]
  },
  {
    "postal": "M1K5K1",
    "result": [
      {
        "electoralDistricts": [
          {
            "election": null,
            "id": 98,
            "name": "Scarborough Southwest"
          }
        ],
        "pollDivisionIds": [
          10141785
        ],
        "postalCode": "M1K5K1",
        "streetName": "BIRCHMOUNT",
        "streetDirectionId": "E",
        "streetTypeId": "RD",
        "placeName": "SCARBOROUGH",
        "streetNameDisplayText": "BIRCHMOUNT RD E, SCARBOROUGH"
      },
      {
        "electoralDistricts": [
          {
            "election": null,
            "id": 98,
            "name": "Scarborough Southwest"
          }
        ],
        "pollDivisionIds": [
          10141785
        ],
        "postalCode": "M1K5K1",
        "streetName": "BIRCHMOUNT",
        "streetDirectionId": null,
        "streetTypeId": "RD",
        "placeName": "SCARBOROUGH",
        "streetNameDisplayText": "BIRCHMOUNT RD, SCARBOROUGH"
      }
    ]
  },
  {
    "postal": "M1K0Z9",
    "result": []
  },
  {
    "postal": "M1K7T2",
    "result": []
  },
  {
    "postal": "M1K1L5",
    "result": [
      {
        "electoralDistricts": [
          {
            "election": null,
            "id": 98,
            "name": "Scarborough Southwest"
          }
        ],
        "pollDivisionIds": [
          10141783
        ],
        "postalCode": "M1K1L5",
        "streetName": "ST CLAIR",
        "streetDirectionId": "E",
        "streetTypeId": "AVE",
        "placeName": "SCARBOROUGH",
        "streetNameDisplayText": "ST CLAIR AVE E, SCARBOROUGH"
      }
    ]
  },
  {
    "postal": "M1K3N5",
    "result": [
      {
        "electoralDistricts": [
          {
            "election": null,
            "id": 98,
            "name": "Scarborough Southwest"
          }
        ],
        "pollDivisionIds": [
          10141787
        ],
        "postalCode": "M1K3N5",
        "streetName": "CHEVRON",
        "streetDirectionId": null,
        "streetTypeId": "CRES",
        "placeName": "SCARBOROUGH",
        "streetNameDisplayText": "CHEVRON CRES, SCARBOROUGH"
      }
    ]
  },
  {
    "postal": "M1K6H4",
    "result": []
  },
  {
    "postal": "M1K5A5",
    "result": [
      {
        "electoralDistricts": [
          {
            "election": null,
            "id": 94,
            "name": "Scarborough Centre"
          }
        ],
        "pollDivisionIds": [
          10141587
        ],
        "postalCode": "M1K5A5",
        "streetName": "ARNPRIOR",
        "streetDirectionId": null,
        "streetTypeId": "RD",
        "placeName": "SCARBOROUGH",
        "streetNameDisplayText": "ARNPRIOR RD, SCARBOROUGH"
      }
    ]
  },
  {
    "postal": "M1K3R9",
    "result": [
      {
        "electoralDistricts": [
          {
            "election": null,
            "id": 98,
            "name": "Scarborough Southwest"
          }
        ],
        "pollDivisionIds": [
          10141791
        ],
        "postalCode": "M1K3R9",
        "streetName": "CHARITY",
        "streetDirectionId": null,
        "streetTypeId": "RD",
        "placeName": "SCARBOROUGH",
        "streetNameDisplayText": "CHARITY RD, SCARBOROUGH"
      }
    ]
  },
  {
    "postal": "M1K7L8",
    "result": []
  },
  {
    "postal": "M1K6T6",
    "result": []
  },
  {
    "postal": "M1K7Y7",
    "result": []
  },
  {
    "postal": "M1K3M8",
    "result": [
      {
        "electoralDistricts": [
          {
            "election": null,
            "id": 98,
            "name": "Scarborough Southwest"
          }
        ],
        "pollDivisionIds": [
          10141787
        ],
        "postalCode": "M1K3M8",
        "streetName": "SAUGEEN",
        "streetDirectionId": null,
        "streetTypeId": "CRES",
        "placeName": "SCARBOROUGH",
        "streetNameDisplayText": "SAUGEEN CRES, SCARBOROUGH"
      }
    ]
  },
  {
    "postal": "M1K2E0",
    "result": []
  },
  {
    "postal": "M1K4B5",
    "result": [
      {
        "electoralDistricts": [
          {
            "election": null,
            "id": 94,
            "name": "Scarborough Centre"
          }
        ],
        "pollDivisionIds": [
          10141586
        ],
        "postalCode": "M1K4B5",
        "streetName": "ARNOTT",
        "streetDirectionId": null,
        "streetTypeId": "ST",
        "placeName": "SCARBOROUGH",
        "streetNameDisplayText": "ARNOTT ST, SCARBOROUGH"
      }
    ]
  },
  {
    "postal": "M1K1J3",
    "result": [
      {
        "electoralDistricts": [
          {
            "election": null,
            "id": 98,
            "name": "Scarborough Southwest"
          }
        ],
        "pollDivisionIds": [
          10141790
        ],
        "postalCode": "M1K1J3",
        "streetName": "DANFORTH",
        "streetDirectionId": null,
        "streetTypeId": "RD",
        "placeName": "SCARBOROUGH",
        "streetNameDisplayText": "DANFORTH RD, SCARBOROUGH"
      }
    ]
  },
  {
    "postal": "M1K5S6",
    "result": []
  },
  {
    "postal": "M1K8P7",
    "result": []
  },
  {
    "postal": "M1K7S7",
    "result": []
  },
  {
    "postal": "M1K4C2",
    "result": [
      {
        "electoralDistricts": [
          {
            "election": null,
            "id": 94,
            "name": "Scarborough Centre"
          }
        ],
        "pollDivisionIds": [
          10141586
        ],
        "postalCode": "M1K4C2",
        "streetName": "ROMULUS",
        "streetDirectionId": null,
        "streetTypeId": "DR",
        "placeName": "SCARBOROUGH",
        "streetNameDisplayText": "ROMULUS DR, SCARBOROUGH"
      }
    ]
  },
  {
    "postal": "M1K5Y0",
    "result": []
  },
  {
    "postal": "M1K2V7",
    "result": [
      {
        "electoralDistricts": [
          {
            "election": null,
            "id": 94,
            "name": "Scarborough Centre"
          }
        ],
        "pollDivisionIds": [
          10141578
        ],
        "postalCode": "M1K2V7",
        "streetName": "RENO",
        "streetDirectionId": null,
        "streetTypeId": "DR",
        "placeName": "SCARBOROUGH",
        "streetNameDisplayText": "RENO DR, SCARBOROUGH"
      }
    ]
  },
  {
    "postal": "M1K8P5",
    "result": []
  },
  {
    "postal": "M1K5P5",
    "result": []
  },
  {
    "postal": "M1K5Z0",
    "result": []
  },
  {
    "postal": "M1K9B0",
    "result": []
  },
  {
    "postal": "M1K1L0",
    "result": []
  },
  {
    "postal": "M1K0B5",
    "result": []
  },
  {
    "postal": "M1K3L2",
    "result": [
      {
        "electoralDistricts": [
          {
            "election": null,
            "id": 98,
            "name": "Scarborough Southwest"
          }
        ],
        "pollDivisionIds": [
          10141789
        ],
        "postalCode": "M1K3L2",
        "streetName": "GRANGER",
        "streetDirectionId": null,
        "streetTypeId": "AVE",
        "placeName": "SCARBOROUGH",
        "streetNameDisplayText": "GRANGER AVE, SCARBOROUGH"
      }
    ]
  },
  {
    "postal": "M1K3B7",
    "result": [
      {
        "electoralDistricts": [
          {
            "election": null,
            "id": 94,
            "name": "Scarborough Centre"
          }
        ],
        "pollDivisionIds": [
          10141578
        ],
        "postalCode": "M1K3B7",
        "streetName": "YORKSHIRE",
        "streetDirectionId": null,
        "streetTypeId": "RD",
        "placeName": "SCARBOROUGH",
        "streetNameDisplayText": "YORKSHIRE RD, SCARBOROUGH"
      }
    ]
  },
  {
    "postal": "M1K8L1",
    "result": []
  },
  {
    "postal": "M1K5M4",
    "result": [
      {
        "electoralDistricts": [
          {
            "election": null,
            "id": 98,
            "name": "Scarborough Southwest"
          }
        ],
        "pollDivisionIds": [
          10141789
        ],
        "postalCode": "M1K5M4",
        "streetName": "ASA",
        "streetDirectionId": null,
        "streetTypeId": "MEWS",
        "placeName": "SCARBOROUGH",
        "streetNameDisplayText": "ASA MEWS, SCARBOROUGH"
      }
    ]
  },
  {
    "postal": "M1K4G9",
    "result": [
      {
        "electoralDistricts": [
          {
            "election": null,
            "id": 94,
            "name": "Scarborough Centre"
          }
        ],
        "pollDivisionIds": [
          10141586
        ],
        "postalCode": "M1K4G9",
        "streetName": "MIDLAND",
        "streetDirectionId": null,
        "streetTypeId": "AVE",
        "placeName": "SCARBOROUGH",
        "streetNameDisplayText": "MIDLAND AVE, SCARBOROUGH"
      }
    ]
  },
  {
    "postal": "M1K0P0",
    "result": []
  },
  {
    "postal": "M1K8G2",
    "result": []
  },
  {
    "postal": "M1K1V9",
    "result": [
      {
        "electoralDistricts": [
          {
            "election": null,
            "id": 98,
            "name": "Scarborough Southwest"
          }
        ],
        "pollDivisionIds": [
          10141782
        ],
        "postalCode": "M1K1V9",
        "streetName": "LARMERE",
        "streetDirectionId": null,
        "streetTypeId": "CRT",
        "placeName": "SCARBOROUGH",
        "streetNameDisplayText": "LARMERE CRT, SCARBOROUGH"
      }
    ]
  },
  {
    "postal": "M1K8N8",
    "result": []
  },
  {
    "postal": "M1K6S8",
    "result": []
  },
  {
    "postal": "M1K8H2",
    "result": []
  },
  {
    "postal": "M1K5R8",
    "result": []
  },
  {
    "postal": "M1K5L4",
    "result": []
  },
  {
    "postal": "M1K9E1",
    "result": []
  },
  {
    "postal": "M1K1C4",
    "result": [
      {
        "electoralDistricts": [
          {
            "election": null,
            "id": 98,
            "name": "Scarborough Southwest"
          }
        ],
        "pollDivisionIds": [
          10141783
        ],
        "postalCode": "M1K1C4",
        "streetName": "BLANCHE",
        "streetDirectionId": null,
        "streetTypeId": "AVE",
        "placeName": "SCARBOROUGH",
        "streetNameDisplayText": "BLANCHE AVE, SCARBOROUGH"
      }
    ]
  },
  {
    "postal": "M1K8W5",
    "result": []
  },
  {
    "postal": "M1K1Y4",
    "result": [
      {
        "electoralDistricts": [
          {
            "election": null,
            "id": 98,
            "name": "Scarborough Southwest"
          }
        ],
        "pollDivisionIds": [
          10141783
        ],
        "postalCode": "M1K1Y4",
        "streetName": "KILMARNOCK",
        "streetDirectionId": null,
        "streetTypeId": "AVE",
        "placeName": "SCARBOROUGH",
        "streetNameDisplayText": "KILMARNOCK AVE, SCARBOROUGH"
      }
    ]
  },
  {
    "postal": "M1K1C0",
    "result": []
  },
  {
    "postal": "M1K2J2",
    "result": [
      {
        "electoralDistricts": [
          {
            "election": null,
            "id": 98,
            "name": "Scarborough Southwest"
          }
        ],
        "pollDivisionIds": [
          10141784
        ],
        "postalCode": "M1K2J2",
        "streetName": "MARTORINO",
        "streetDirectionId": null,
        "streetTypeId": "DR",
        "placeName": "SCARBOROUGH",
        "streetNameDisplayText": "MARTORINO DR, SCARBOROUGH"
      }
    ]
  },
  {
    "postal": "M1K2J0",
    "result": []
  },
  {
    "postal": "M1K7A3",
    "result": []
  },
  {
    "postal": "M1K8M1",
    "result": []
  },
  {
    "postal": "M1K7T9",
    "result": []
  },
  {
    "postal": "M1K6C0",
    "result": []
  },
  {
    "postal": "M1K7X1",
    "result": []
  },
  {
    "postal": "M1K0G1",
    "result": []
  },
  {
    "postal": "M1K4X2",
    "result": [
      {
        "electoralDistricts": [
          {
            "election": null,
            "id": 94,
            "name": "Scarborough Centre"
          }
        ],
        "pollDivisionIds": [
          10141586
        ],
        "postalCode": "M1K4X2",
        "streetName": "DEERFIELD",
        "streetDirectionId": null,
        "streetTypeId": "RD",
        "placeName": "SCARBOROUGH",
        "streetNameDisplayText": "DEERFIELD RD, SCARBOROUGH"
      }
    ]
  },
  {
    "postal": "M1K0N6",
    "result": []
  },
  {
    "postal": "M1K8E3",
    "result": []
  },
  {
    "postal": "M1K5S8",
    "result": []
  },
  {
    "postal": "M1K0R0",
    "result": []
  },
  {
    "postal": "M1K6J6",
    "result": []
  },
  {
    "postal": "M1K4B4",
    "result": [
      {
        "electoralDistricts": [
          {
            "election": null,
            "id": 94,
            "name": "Scarborough Centre"
          }
        ],
        "pollDivisionIds": [
          10141586
        ],
        "postalCode": "M1K4B4",
        "streetName": "TARA",
        "streetDirectionId": null,
        "streetTypeId": "AVE",
        "placeName": "SCARBOROUGH",
        "streetNameDisplayText": "TARA AVE, SCARBOROUGH"
      }
    ]
  },
  {
    "postal": "M1K7E3",
    "result": []
  },
  {
    "postal": "M1K3N6",
    "result": [
      {
        "electoralDistricts": [
          {
            "election": null,
            "id": 98,
            "name": "Scarborough Southwest"
          }
        ],
        "pollDivisionIds": [
          10141787
        ],
        "postalCode": "M1K3N6",
        "streetName": "CHEVRON",
        "streetDirectionId": null,
        "streetTypeId": "CRES",
        "placeName": "SCARBOROUGH",
        "streetNameDisplayText": "CHEVRON CRES, SCARBOROUGH"
      }
    ]
  },
  {
    "postal": "M1K3X6",
    "result": [
      {
        "electoralDistricts": [
          {
            "election": null,
            "id": 94,
            "name": "Scarborough Centre"
          }
        ],
        "pollDivisionIds": [
          10141588
        ],
        "postalCode": "M1K3X6",
        "streetName": "RUTLEDGE",
        "streetDirectionId": null,
        "streetTypeId": "AVE",
        "placeName": "SCARBOROUGH",
        "streetNameDisplayText": "RUTLEDGE AVE, SCARBOROUGH"
      }
    ]
  },
  {
    "postal": "M1K8L0",
    "result": []
  },
  {
    "postal": "M1K8N1",
    "result": []
  },
  {
    "postal": "M1K4J0",
    "result": []
  },
  {
    "postal": "M1K0X7",
    "result": []
  },
  {
    "postal": "M1K6S4",
    "result": []
  },
  {
    "postal": "M1K0Z0",
    "result": []
  },
  {
    "postal": "M1K9X8",
    "result": []
  },
  {
    "postal": "M1K3H3",
    "result": [
      {
        "electoralDistricts": [
          {
            "election": null,
            "id": 98,
            "name": "Scarborough Southwest"
          }
        ],
        "pollDivisionIds": [
          10141788
        ],
        "postalCode": "M1K3H3",
        "streetName": "HART",
        "streetDirectionId": null,
        "streetTypeId": "AVE",
        "placeName": "SCARBOROUGH",
        "streetNameDisplayText": "HART AVE, SCARBOROUGH"
      }
    ]
  },
  {
    "postal": "M1K7S2",
    "result": []
  },
  {
    "postal": "M1K3T3",
    "result": [
      {
        "electoralDistricts": [
          {
            "election": null,
            "id": 94,
            "name": "Scarborough Centre"
          }
        ],
        "pollDivisionIds": [
          10141577
        ],
        "postalCode": "M1K3T3",
        "streetName": "TREVERTON",
        "streetDirectionId": null,
        "streetTypeId": "DR",
        "placeName": "SCARBOROUGH",
        "streetNameDisplayText": "TREVERTON DR, SCARBOROUGH"
      }
    ]
  },
  {
    "postal": "M1K9P3",
    "result": []
  },
  {
    "postal": "M1K4H8",
    "result": [
      {
        "electoralDistricts": [
          {
            "election": null,
            "id": 7,
            "name": "Beaches—East York"
          }
        ],
        "pollDivisionIds": [
          10137044
        ],
        "postalCode": "M1K4H8",
        "streetName": "GORDONRIDGE",
        "streetDirectionId": null,
        "streetTypeId": "DR",
        "placeName": "SCARBOROUGH",
        "streetNameDisplayText": "GORDONRIDGE DR, SCARBOROUGH"
      },
      {
        "electoralDistricts": [
          {
            "election": null,
            "id": 98,
            "name": "Scarborough Southwest"
          }
        ],
        "pollDivisionIds": [
          10141790
        ],
        "postalCode": "M1K4H8",
        "streetName": "GORDONRIDGE",
        "streetDirectionId": null,
        "streetTypeId": "PL",
        "placeName": "SCARBOROUGH",
        "streetNameDisplayText": "GORDONRIDGE PL, SCARBOROUGH"
      }
    ]
  },
  {
    "postal": "M1K6R1",
    "result": []
  },
  {
    "postal": "M1K1S0",
    "result": []
  },
  {
    "postal": "M1K3W8",
    "result": [
      {
        "electoralDistricts": [
          {
            "election": null,
            "id": 94,
            "name": "Scarborough Centre"
          }
        ],
        "pollDivisionIds": [
          10141588
        ],
        "postalCode": "M1K3W8",
        "streetName": "LORD ROBERTS",
        "streetDirectionId": null,
        "streetTypeId": "DR",
        "placeName": "SCARBOROUGH",
        "streetNameDisplayText": "LORD ROBERTS DR, SCARBOROUGH"
      }
    ]
  },
  {
    "postal": "M1K4S3",
    "result": [
      {
        "electoralDistricts": [
          {
            "election": null,
            "id": 94,
            "name": "Scarborough Centre"
          }
        ],
        "pollDivisionIds": [
          10141588,
          10141589
        ],
        "postalCode": "M1K4S3",
        "streetName": "CITADEL",
        "streetDirectionId": null,
        "streetTypeId": "DR",
        "placeName": "SCARBOROUGH",
        "streetNameDisplayText": "CITADEL DR, SCARBOROUGH"
      }
    ]
  },
  {
    "postal": "M1K1B6",
    "result": [
      {
        "electoralDistricts": [
          {
            "election": null,
            "id": 98,
            "name": "Scarborough Southwest"
          }
        ],
        "pollDivisionIds": [
          10141782
        ],
        "postalCode": "M1K1B6",
        "streetName": "MOIRA",
        "streetDirectionId": null,
        "streetTypeId": "AVE",
        "placeName": "SCARBOROUGH",
        "streetNameDisplayText": "MOIRA AVE, SCARBOROUGH"
      }
    ]
  },
  {
    "postal": "M1K8R3",
    "result": []
  },
  {
    "postal": "M1K4V9",
    "result": [
      {
        "electoralDistricts": [
          {
            "election": null,
            "id": 94,
            "name": "Scarborough Centre"
          }
        ],
        "pollDivisionIds": [
          10141589
        ],
        "postalCode": "M1K4V9",
        "streetName": "DALLYN",
        "streetDirectionId": null,
        "streetTypeId": "CRES",
        "placeName": "SCARBOROUGH",
        "streetNameDisplayText": "DALLYN CRES, SCARBOROUGH"
      }
    ]
  },
  {
    "postal": "M1K9W4",
    "result": []
  },
  {
    "postal": "M1K3T4",
    "result": [
      {
        "electoralDistricts": [
          {
            "election": null,
            "id": 94,
            "name": "Scarborough Centre"
          }
        ],
        "pollDivisionIds": [
          10141577
        ],
        "postalCode": "M1K3T4",
        "streetName": "TREVERTON",
        "streetDirectionId": null,
        "streetTypeId": "DR",
        "placeName": "SCARBOROUGH",
        "streetNameDisplayText": "TREVERTON DR, SCARBOROUGH"
      }
    ]
  },
  {
    "postal": "M1K5C7",
    "result": []
  },
  {
    "postal": "M1K3Y1",
    "result": [
      {
        "electoralDistricts": [
          {
            "election": null,
            "id": 94,
            "name": "Scarborough Centre"
          }
        ],
        "pollDivisionIds": [
          10141588
        ],
        "postalCode": "M1K3Y1",
        "streetName": "KHARTOUM",
        "streetDirectionId": null,
        "streetTypeId": "AVE",
        "placeName": "SCARBOROUGH",
        "streetNameDisplayText": "KHARTOUM AVE, SCARBOROUGH"
      }
    ]
  },
  {
    "postal": "M1K5V0",
    "result": []
  },
  {
    "postal": "M1K8G8",
    "result": []
  },
  {
    "postal": "M1K8B1",
    "result": []
  },
  {
    "postal": "M1K4P5",
    "result": [
      {
        "electoralDistricts": [
          {
            "election": null,
            "id": 94,
            "name": "Scarborough Centre"
          }
        ],
        "pollDivisionIds": [
          10141589
        ],
        "postalCode": "M1K4P5",
        "streetName": "GILDER",
        "streetDirectionId": null,
        "streetTypeId": "DR",
        "placeName": "SCARBOROUGH",
        "streetNameDisplayText": "GILDER DR, SCARBOROUGH"
      }
    ]
  },
  {
    "postal": "M1K7B2",
    "result": []
  },
  {
    "postal": "M1K0R2",
    "result": []
  },
  {
    "postal": "M1K4M4",
    "result": [
      {
        "electoralDistricts": [
          {
            "election": null,
            "id": 98,
            "name": "Scarborough Southwest"
          }
        ],
        "pollDivisionIds": [
          10141792
        ],
        "postalCode": "M1K4M4",
        "streetName": "FALMOUTH",
        "streetDirectionId": null,
        "streetTypeId": "AVE",
        "placeName": "SCARBOROUGH",
        "streetNameDisplayText": "FALMOUTH AVE, SCARBOROUGH"
      }
    ]
  },
  {
    "postal": "M1K7M4",
    "result": []
  },
  {
    "postal": "M1K9S7",
    "result": []
  },
  {
    "postal": "M1K5Z7",
    "result": []
  },
  {
    "postal": "M1K7J7",
    "result": []
  },
  {
    "postal": "M1K8R8",
    "result": []
  },
  {
    "postal": "M1K9X1",
    "result": []
  },
  {
    "postal": "M1K5M9",
    "result": []
  },
  {
    "postal": "M1K9B4",
    "result": []
  },
  {
    "postal": "M1K0L9",
    "result": []
  },
  {
    "postal": "M1K9G4",
    "result": []
  },
  {
    "postal": "M1K1J4",
    "result": [
      {
        "electoralDistricts": [
          {
            "election": null,
            "id": 98,
            "name": "Scarborough Southwest"
          }
        ],
        "pollDivisionIds": [
          10141792
        ],
        "postalCode": "M1K1J4",
        "streetName": "DANFORTH",
        "streetDirectionId": null,
        "streetTypeId": "RD",
        "placeName": "SCARBOROUGH",
        "streetNameDisplayText": "DANFORTH RD, SCARBOROUGH"
      }
    ]
  },
  {
    "postal": "M1K0W6",
    "result": []
  }
]
