[
  {
    "postal": "N4G9J6",
    "result": []
  },
  {
    "postal": "N4G9Z5",
    "result": []
  },
  {
    "postal": "N4G7H8",
    "result": []
  },
  {
    "postal": "N4G0P6",
    "result": []
  },
  {
    "postal": "N4G0S7",
    "result": []
  },
  {
    "postal": "N4G8B9",
    "result": []
  },
  {
    "postal": "N4G2A6",
    "result": [
      {
        "electoralDistricts": [
          {
            "election": null,
            "id": 82,
            "name": "Oxford"
          }
        ],
        "pollDivisionIds": [
          10140917
        ],
        "postalCode": "N4G2A6",
        "streetName": "BROCK",
        "streetDirectionId": "W",
        "streetTypeId": "ST",
        "placeName": "TILLSONBURG",
        "streetNameDisplayText": "BROCK ST W, TILLSONBURG"
      }
    ]
  },
  {
    "postal": "N4G7V2",
    "result": []
  },
  {
    "postal": "N4G9P4",
    "result": []
  },
  {
    "postal": "N4G6G0",
    "result": []
  },
  {
    "postal": "N4G2K0",
    "result": []
  },
  {
    "postal": "N4G7N6",
    "result": []
  },
  {
    "postal": "N4G5R3",
    "result": [
      {
        "electoralDistricts": [
          {
            "election": null,
            "id": 82,
            "name": "Oxford"
          }
        ],
        "pollDivisionIds": [
          10140917
        ],
        "postalCode": "N4G5R3",
        "streetName": "JACKSON",
        "streetDirectionId": null,
        "streetTypeId": "CRT",
        "placeName": "TILLSONBURG",
        "streetNameDisplayText": "JACKSON CRT, TILLSONBURG"
      }
    ]
  },
  {
    "postal": "N4G7K0",
    "result": []
  },
  {
    "postal": "N4G3R2",
    "result": [
      {
        "electoralDistricts": [
          {
            "election": null,
            "id": 82,
            "name": "Oxford"
          }
        ],
        "pollDivisionIds": [
          10140917
        ],
        "postalCode": "N4G3R2",
        "streetName": "BROADWAY",
        "streetDirectionId": null,
        "streetTypeId": "ST",
        "placeName": "TILLSONBURG",
        "streetNameDisplayText": "BROADWAY ST, TILLSONBURG"
      }
    ]
  },
  {
    "postal": "N4G0J1",
    "result": []
  },
  {
    "postal": "N4G0B0",
    "result": []
  },
  {
    "postal": "N4G5Z2",
    "result": []
  },
  {
    "postal": "N4G7P3",
    "result": []
  },
  {
    "postal": "N4G2K3",
    "result": [
      {
        "electoralDistricts": [
          {
            "election": null,
            "id": 82,
            "name": "Oxford"
          }
        ],
        "pollDivisionIds": [
          10140917
        ],
        "postalCode": "N4G2K3",
        "streetName": "BALDWIN",
        "streetDirectionId": null,
        "streetTypeId": "ST",
        "placeName": "TILLSONBURG",
        "streetNameDisplayText": "BALDWIN ST, TILLSONBURG"
      }
    ]
  },
  {
    "postal": "N4G7Y6",
    "result": []
  },
  {
    "postal": "N4G1L9",
    "result": [
      {
        "electoralDistricts": [
          {
            "election": null,
            "id": 82,
            "name": "Oxford"
          }
        ],
        "pollDivisionIds": [
          10143216
        ],
        "postalCode": "N4G1L9",
        "streetName": "SECOND",
        "streetDirectionId": null,
        "streetTypeId": "ST",
        "placeName": "TILLSONBURG",
        "streetNameDisplayText": "SECOND ST, TILLSONBURG"
      }
    ]
  },
  {
    "postal": "N4G8T0",
    "result": []
  },
  {
    "postal": "N4G3K8",
    "result": [
      {
        "electoralDistricts": [
          {
            "election": null,
            "id": 82,
            "name": "Oxford"
          }
        ],
        "pollDivisionIds": [
          10143216
        ],
        "postalCode": "N4G3K8",
        "streetName": "LISGAR",
        "streetDirectionId": null,
        "streetTypeId": "AVE",
        "placeName": "TILLSONBURG",
        "streetNameDisplayText": "LISGAR AVE, TILLSONBURG"
      }
    ]
  },
  {
    "postal": "N4G5W9",
    "result": [
      {
        "electoralDistricts": [
          {
            "election": null,
            "id": 82,
            "name": "Oxford"
          }
        ],
        "pollDivisionIds": [
          10140917
        ],
        "postalCode": "N4G5W9",
        "streetName": "JEAN FERRIE",
        "streetDirectionId": null,
        "streetTypeId": "CRT",
        "placeName": "TILLSONBURG",
        "streetNameDisplayText": "JEAN FERRIE CRT, TILLSONBURG"
      },
      {
        "electoralDistricts": [
          {
            "election": null,
            "id": 82,
            "name": "Oxford"
          }
        ],
        "pollDivisionIds": [
          10140917
        ],
        "postalCode": "N4G5W9",
        "streetName": "WESTON",
        "streetDirectionId": null,
        "streetTypeId": "DR",
        "placeName": "TILLSONBURG",
        "streetNameDisplayText": "WESTON DR, TILLSONBURG"
      }
    ]
  },
  {
    "postal": "N4G6T9",
    "result": []
  },
  {
    "postal": "N4G4H1",
    "result": [
      {
        "electoralDistricts": [
          {
            "election": null,
            "id": 82,
            "name": "Oxford"
          }
        ],
        "pollDivisionIds": [
          10140920,
          10140901
        ],
        "postalCode": "N4G4H1",
        "streetName": "AIRPORT",
        "streetDirectionId": null,
        "streetTypeId": "RD",
        "placeName": "TILLSONBURG",
        "streetNameDisplayText": "AIRPORT RD, TILLSONBURG"
      },
      {
        "electoralDistricts": [
          {
            "election": null,
            "id": 82,
            "name": "Oxford"
          }
        ],
        "pollDivisionIds": [
          10140918
        ],
        "postalCode": "N4G4H1",
        "streetName": "BROADWAY",
        "streetDirectionId": null,
        "streetTypeId": "ST",
        "placeName": "TILLSONBURG",
        "streetNameDisplayText": "BROADWAY ST, TILLSONBURG"
      },
      {
        "electoralDistricts": [
          {
            "election": null,
            "id": 82,
            "name": "Oxford"
          }
        ],
        "pollDivisionIds": [
          10140920
        ],
        "postalCode": "N4G4H1",
        "streetName": "CRANBERRY",
        "streetDirectionId": null,
        "streetTypeId": "LINE",
        "placeName": "TILLSONBURG",
        "streetNameDisplayText": "CRANBERRY LINE, TILLSONBURG"
      },
      {
        "electoralDistricts": [
          {
            "election": null,
            "id": 82,
            "name": "Oxford"
          }
        ],
        "pollDivisionIds": [
          10140901
        ],
        "postalCode": "N4G4H1",
        "streetName": "DEREHAM",
        "streetDirectionId": null,
        "streetTypeId": "LINE",
        "placeName": "TILLSONBURG",
        "streetNameDisplayText": "DEREHAM LINE, TILLSONBURG"
      },
      {
        "electoralDistricts": [
          {
            "election": null,
            "id": 82,
            "name": "Oxford"
          }
        ],
        "pollDivisionIds": [
          10140920,
          10140918,
          10140901
        ],
        "postalCode": "N4G4H1",
        "streetName": "OSTRANDER",
        "streetDirectionId": null,
        "streetTypeId": "RD",
        "placeName": "TILLSONBURG",
        "streetNameDisplayText": "OSTRANDER RD, TILLSONBURG"
      },
      {
        "electoralDistricts": [
          {
            "election": null,
            "id": 26,
            "name": "Elgin—Middlesex—London"
          },
          {
            "election": null,
            "id": 82,
            "name": "Oxford"
          }
        ],
        "pollDivisionIds": [
          10137965,
          10140901
        ],
        "postalCode": "N4G4H1",
        "streetName": "PIGRAM",
        "streetDirectionId": null,
        "streetTypeId": "LINE",
        "placeName": "TILLSONBURG",
        "streetNameDisplayText": "PIGRAM LINE, TILLSONBURG"
      },
      {
        "electoralDistricts": [
          {
            "election": null,
            "id": 82,
            "name": "Oxford"
          }
        ],
        "pollDivisionIds": [
          10140918,
          10140901,
          10140940,
          10140920
        ],
        "postalCode": "N4G4H1",
        "streetName": "PLANK",
        "streetDirectionId": null,
        "streetTypeId": "LINE",
        "placeName": "TILLSONBURG",
        "streetNameDisplayText": "PLANK LINE, TILLSONBURG"
      },
      {
        "electoralDistricts": [
          {
            "election": null,
            "id": 82,
            "name": "Oxford"
          }
        ],
        "pollDivisionIds": [
          10140918
        ],
        "postalCode": "N4G4H1",
        "streetName": "PLANK RD",
        "streetDirectionId": null,
        "streetTypeId": "LINE",
        "placeName": "TILLSONBURG",
        "streetNameDisplayText": "PLANK RD LINE, TILLSONBURG"
      },
      {
        "electoralDistricts": [
          {
            "election": null,
            "id": 82,
            "name": "Oxford"
          }
        ],
        "pollDivisionIds": [
          10140901
        ],
        "postalCode": "N4G4H1",
        "streetName": "QUARTERLINE",
        "streetDirectionId": null,
        "streetTypeId": "RD",
        "placeName": "TILLSONBURG",
        "streetNameDisplayText": "QUARTERLINE RD, TILLSONBURG"
      },
      {
        "electoralDistricts": [
          {
            "election": null,
            "id": 82,
            "name": "Oxford"
          }
        ],
        "pollDivisionIds": [
          10140920
        ],
        "postalCode": "N4G4H1",
        "streetName": "ZENDA",
        "streetDirectionId": null,
        "streetTypeId": "LINE",
        "placeName": "TILLSONBURG",
        "streetNameDisplayText": "ZENDA LINE, TILLSONBURG"
      }
    ]
  },
  {
    "postal": "N4G7A2",
    "result": []
  },
  {
    "postal": "N4G5G0",
    "result": []
  },
  {
    "postal": "N4G8V5",
    "result": []
  },
  {
    "postal": "N4G2Y8",
    "result": [
      {
        "electoralDistricts": [
          {
            "election": null,
            "id": 82,
            "name": "Oxford"
          }
        ],
        "pollDivisionIds": [
          10143216
        ],
        "postalCode": "N4G2Y8",
        "streetName": "MAPLE",
        "streetDirectionId": null,
        "streetTypeId": "LANE",
        "placeName": "TILLSONBURG",
        "streetNameDisplayText": "MAPLE LANE, TILLSONBURG"
      }
    ]
  },
  {
    "postal": "N4G2B6",
    "result": [
      {
        "electoralDistricts": [
          {
            "election": null,
            "id": 82,
            "name": "Oxford"
          }
        ],
        "pollDivisionIds": [
          10143216
        ],
        "postalCode": "N4G2B6",
        "streetName": "PARKWOOD",
        "streetDirectionId": null,
        "streetTypeId": "DR",
        "placeName": "TILLSONBURG",
        "streetNameDisplayText": "PARKWOOD DR, TILLSONBURG"
      }
    ]
  },
  {
    "postal": "N4G4W8",
    "result": [
      {
        "electoralDistricts": [
          {
            "election": null,
            "id": 82,
            "name": "Oxford"
          }
        ],
        "pollDivisionIds": [
          10140915
        ],
        "postalCode": "N4G4W8",
        "streetName": "POPLAR",
        "streetDirectionId": null,
        "streetTypeId": "ST",
        "placeName": "TILLSONBURG",
        "streetNameDisplayText": "POPLAR ST, TILLSONBURG"
      }
    ]
  },
  {
    "postal": "N4G8H7",
    "result": []
  },
  {
    "postal": "N4G5P1",
    "result": [
      {
        "electoralDistricts": [
          {
            "election": null,
            "id": 82,
            "name": "Oxford"
          }
        ],
        "pollDivisionIds": [
          10140918
        ],
        "postalCode": "N4G5P1",
        "streetName": "OWL",
        "streetDirectionId": null,
        "streetTypeId": "DR",
        "placeName": "TILLSONBURG",
        "streetNameDisplayText": "OWL DR, TILLSONBURG"
      }
    ]
  },
  {
    "postal": "N4G2B8",
    "result": [
      {
        "electoralDistricts": [
          {
            "election": null,
            "id": 82,
            "name": "Oxford"
          }
        ],
        "pollDivisionIds": [
          10143216
        ],
        "postalCode": "N4G2B8",
        "streetName": "PARKWOOD",
        "streetDirectionId": null,
        "streetTypeId": "DR",
        "placeName": "TILLSONBURG",
        "streetNameDisplayText": "PARKWOOD DR, TILLSONBURG"
      }
    ]
  },
  {
    "postal": "N4G0P2",
    "result": []
  },
  {
    "postal": "N4G9M1",
    "result": []
  },
  {
    "postal": "N4G3G0",
    "result": []
  },
  {
    "postal": "N4G9Z2",
    "result": []
  },
  {
    "postal": "N4G2A0",
    "result": []
  },
  {
    "postal": "N4G6Y0",
    "result": []
  },
  {
    "postal": "N4G2Z8",
    "result": [
      {
        "electoralDistricts": [
          {
            "election": null,
            "id": 82,
            "name": "Oxford"
          }
        ],
        "pollDivisionIds": [
          10143216
        ],
        "postalCode": "N4G2Z8",
        "streetName": "TILLSON",
        "streetDirectionId": null,
        "streetTypeId": "AVE",
        "placeName": "TILLSONBURG",
        "streetNameDisplayText": "TILLSON AVE, TILLSONBURG"
      }
    ]
  },
  {
    "postal": "N4G7Y3",
    "result": []
  },
  {
    "postal": "N4G6Z5",
    "result": []
  },
  {
    "postal": "N4G6E0",
    "result": []
  },
  {
    "postal": "N4G9B7",
    "result": []
  },
  {
    "postal": "N4G9S5",
    "result": []
  },
  {
    "postal": "N4G3X3",
    "result": [
      {
        "electoralDistricts": [
          {
            "election": null,
            "id": 82,
            "name": "Oxford"
          }
        ],
        "pollDivisionIds": [
          10140917
        ],
        "postalCode": "N4G3X3",
        "streetName": "VALLEY VIEW",
        "streetDirectionId": null,
        "streetTypeId": "LANE",
        "placeName": "TILLSONBURG",
        "streetNameDisplayText": "VALLEY VIEW LANE, TILLSONBURG"
      }
    ]
  },
  {
    "postal": "N4G7R5",
    "result": []
  },
  {
    "postal": "N4G2X3",
    "result": [
      {
        "electoralDistricts": [
          {
            "election": null,
            "id": 82,
            "name": "Oxford"
          }
        ],
        "pollDivisionIds": [
          10143216
        ],
        "postalCode": "N4G2X3",
        "streetName": "TILLSON",
        "streetDirectionId": null,
        "streetTypeId": "ST",
        "placeName": "TILLSONBURG",
        "streetNameDisplayText": "TILLSON ST, TILLSONBURG"
      }
    ]
  },
  {
    "postal": "N4G8Z9",
    "result": []
  },
  {
    "postal": "N4G0N4",
    "result": []
  },
  {
    "postal": "N4G1K1",
    "result": [
      {
        "electoralDistricts": [
          {
            "election": null,
            "id": 82,
            "name": "Oxford"
          }
        ],
        "pollDivisionIds": [
          10143216
        ],
        "postalCode": "N4G1K1",
        "streetName": "THIRD",
        "streetDirectionId": null,
        "streetTypeId": "ST",
        "placeName": "TILLSONBURG",
        "streetNameDisplayText": "THIRD ST, TILLSONBURG"
      }
    ]
  },
  {
    "postal": "N4G1S3",
    "result": [
      {
        "electoralDistricts": [
          {
            "election": null,
            "id": 82,
            "name": "Oxford"
          }
        ],
        "pollDivisionIds": [
          10140915
        ],
        "postalCode": "N4G1S3",
        "streetName": "WOLF",
        "streetDirectionId": null,
        "streetTypeId": "ST",
        "placeName": "TILLSONBURG",
        "streetNameDisplayText": "WOLF ST, TILLSONBURG"
      }
    ]
  },
  {
    "postal": "N4G6M4",
    "result": []
  },
  {
    "postal": "N4G9A9",
    "result": []
  },
  {
    "postal": "N4G9Z9",
    "result": []
  },
  {
    "postal": "N4G6T4",
    "result": []
  },
  {
    "postal": "N4G0B2",
    "result": [
      {
        "electoralDistricts": [
          {
            "election": null,
            "id": 82,
            "name": "Oxford"
          }
        ],
        "pollDivisionIds": [
          10140917
        ],
        "postalCode": "N4G0B2",
        "streetName": "ARNOLD",
        "streetDirectionId": null,
        "streetTypeId": "ST",
        "placeName": "TILLSONBURG",
        "streetNameDisplayText": "ARNOLD ST, TILLSONBURG"
      }
    ]
  },
  {
    "postal": "N4G2L9",
    "result": [
      {
        "electoralDistricts": [
          {
            "election": null,
            "id": 82,
            "name": "Oxford"
          }
        ],
        "pollDivisionIds": [
          10143216
        ],
        "postalCode": "N4G2L9",
        "streetName": "BLOOMER",
        "streetDirectionId": null,
        "streetTypeId": "ST",
        "placeName": "TILLSONBURG",
        "streetNameDisplayText": "BLOOMER ST, TILLSONBURG"
      }
    ]
  },
  {
    "postal": "N4G8K9",
    "result": []
  },
  {
    "postal": "N4G2H9",
    "result": [
      {
        "electoralDistricts": [
          {
            "election": null,
            "id": 82,
            "name": "Oxford"
          }
        ],
        "pollDivisionIds": [
          10143216
        ],
        "postalCode": "N4G2H9",
        "streetName": "SIMCOE",
        "streetDirectionId": null,
        "streetTypeId": "ST",
        "placeName": "TILLSONBURG",
        "streetNameDisplayText": "SIMCOE ST, TILLSONBURG"
      }
    ]
  },
  {
    "postal": "N4G3Z6",
    "result": [
      {
        "electoralDistricts": [
          {
            "election": null,
            "id": 82,
            "name": "Oxford"
          }
        ],
        "pollDivisionIds": [
          10140915
        ],
        "postalCode": "N4G3Z6",
        "streetName": "VICTORIA",
        "streetDirectionId": null,
        "streetTypeId": "ST",
        "placeName": "TILLSONBURG",
        "streetNameDisplayText": "VICTORIA ST, TILLSONBURG"
      }
    ]
  },
  {
    "postal": "N4G3B0",
    "result": []
  },
  {
    "postal": "N4G2H8",
    "result": [
      {
        "electoralDistricts": [
          {
            "election": null,
            "id": 82,
            "name": "Oxford"
          }
        ],
        "pollDivisionIds": [
          10143216
        ],
        "postalCode": "N4G2H8",
        "streetName": "SIMCOE",
        "streetDirectionId": null,
        "streetTypeId": "ST",
        "placeName": "TILLSONBURG",
        "streetNameDisplayText": "SIMCOE ST, TILLSONBURG"
      }
    ]
  },
  {
    "postal": "N4G3X2",
    "result": [
      {
        "electoralDistricts": [
          {
            "election": null,
            "id": 82,
            "name": "Oxford"
          }
        ],
        "pollDivisionIds": [
          10143216
        ],
        "postalCode": "N4G3X2",
        "streetName": "HARDY",
        "streetDirectionId": null,
        "streetTypeId": "AVE",
        "placeName": "TILLSONBURG",
        "streetNameDisplayText": "HARDY AVE, TILLSONBURG"
      }
    ]
  },
  {
    "postal": "N4G2E9",
    "result": [
      {
        "electoralDistricts": [
          {
            "election": null,
            "id": 82,
            "name": "Oxford"
          }
        ],
        "pollDivisionIds": [
          10143216
        ],
        "postalCode": "N4G2E9",
        "streetName": "HIGHLAND",
        "streetDirectionId": null,
        "streetTypeId": "DR",
        "placeName": "TILLSONBURG",
        "streetNameDisplayText": "HIGHLAND DR, TILLSONBURG"
      }
    ]
  },
  {
    "postal": "N4G9P6",
    "result": []
  },
  {
    "postal": "N4G9E2",
    "result": []
  },
  {
    "postal": "N4G9H2",
    "result": []
  },
  {
    "postal": "N4G1S8",
    "result": [
      {
        "electoralDistricts": [
          {
            "election": null,
            "id": 82,
            "name": "Oxford"
          }
        ],
        "pollDivisionIds": [
          10140915
        ],
        "postalCode": "N4G1S8",
        "streetName": "VENISON",
        "streetDirectionId": "E",
        "streetTypeId": "ST",
        "placeName": "TILLSONBURG",
        "streetNameDisplayText": "VENISON ST E, TILLSONBURG"
      }
    ]
  },
  {
    "postal": "N4G3M6",
    "result": [
      {
        "electoralDistricts": [
          {
            "election": null,
            "id": 82,
            "name": "Oxford"
          }
        ],
        "pollDivisionIds": [
          10143216
        ],
        "postalCode": "N4G3M6",
        "streetName": "DELEVAN",
        "streetDirectionId": null,
        "streetTypeId": "CRES",
        "placeName": "TILLSONBURG",
        "streetNameDisplayText": "DELEVAN CRES, TILLSONBURG"
      }
    ]
  },
  {
    "postal": "N4G6Z8",
    "result": []
  },
  {
    "postal": "N4G4J2",
    "result": []
  },
  {
    "postal": "N4G9Y1",
    "result": []
  },
  {
    "postal": "N4G8V6",
    "result": []
  },
  {
    "postal": "N4G6B2",
    "result": []
  },
  {
    "postal": "N4G1P8",
    "result": [
      {
        "electoralDistricts": [
          {
            "election": null,
            "id": 82,
            "name": "Oxford"
          }
        ],
        "pollDivisionIds": [
          10143216
        ],
        "postalCode": "N4G1P8",
        "streetName": "CONCESSION",
        "streetDirectionId": "E",
        "streetTypeId": "ST",
        "placeName": "TILLSONBURG",
        "streetNameDisplayText": "CONCESSION ST E, TILLSONBURG"
      }
    ]
  },
  {
    "postal": "N4G0V8",
    "result": []
  },
  {
    "postal": "N4G4Y0",
    "result": []
  },
  {
    "postal": "N4G2T4",
    "result": [
      {
        "electoralDistricts": [
          {
            "election": null,
            "id": 34,
            "name": "Haldimand—Norfolk"
          }
        ],
        "pollDivisionIds": [
          10138452
        ],
        "postalCode": "N4G2T4",
        "streetName": "3RD CONCESSION RD NTR",
        "streetDirectionId": null,
        "streetTypeId": "RD",
        "placeName": "TILLSONBURG",
        "streetNameDisplayText": "3RD CONCESSION RD NTR RD, TILLSONBURG"
      },
      {
        "electoralDistricts": [
          {
            "election": null,
            "id": 34,
            "name": "Haldimand—Norfolk"
          }
        ],
        "pollDivisionIds": [
          10138452
        ],
        "postalCode": "N4G2T4",
        "streetName": "3RD CONCESSION ROAD N.T.R.",
        "streetDirectionId": null,
        "streetTypeId": "RD",
        "placeName": "TILLSONBURG",
        "streetNameDisplayText": "3RD CONCESSION ROAD N.T.R. RD, TILLSONBURG"
      },
      {
        "electoralDistricts": [
          {
            "election": null,
            "id": 34,
            "name": "Haldimand—Norfolk"
          }
        ],
        "pollDivisionIds": [
          10138452
        ],
        "postalCode": "N4G2T4",
        "streetName": "THIRD CONC RD. NTR",
        "streetDirectionId": null,
        "streetTypeId": "RD",
        "placeName": "TILLSONBURG",
        "streetNameDisplayText": "THIRD CONC RD. NTR RD, TILLSONBURG"
      }
    ]
  },
  {
    "postal": "N4G2S3",
    "result": [
      {
        "electoralDistricts": [
          {
            "election": null,
            "id": 34,
            "name": "Haldimand—Norfolk"
          }
        ],
        "pollDivisionIds": [
          10138452
        ],
        "postalCode": "N4G2S3",
        "streetName": "MALL",
        "streetDirectionId": null,
        "streetTypeId": "RD",
        "placeName": "TILLSONBURG",
        "streetNameDisplayText": "MALL RD, TILLSONBURG"
      }
    ]
  },
  {
    "postal": "N4G0K0",
    "result": []
  },
  {
    "postal": "N4G5N1",
    "result": [
      {
        "electoralDistricts": [
          {
            "election": null,
            "id": 82,
            "name": "Oxford"
          }
        ],
        "pollDivisionIds": [
          10143216
        ],
        "postalCode": "N4G5N1",
        "streetName": "BECKETT",
        "streetDirectionId": null,
        "streetTypeId": "BLVD",
        "placeName": "TILLSONBURG",
        "streetNameDisplayText": "BECKETT BLVD, TILLSONBURG"
      }
    ]
  },
  {
    "postal": "N4G7T0",
    "result": []
  },
  {
    "postal": "N4G9N2",
    "result": []
  },
  {
    "postal": "N4G5L1",
    "result": [
      {
        "electoralDistricts": [
          {
            "election": null,
            "id": 82,
            "name": "Oxford"
          }
        ],
        "pollDivisionIds": [
          10140917
        ],
        "postalCode": "N4G5L1",
        "streetName": "HOWE",
        "streetDirectionId": null,
        "streetTypeId": "AVE",
        "placeName": "TILLSONBURG",
        "streetNameDisplayText": "HOWE AVE, TILLSONBURG"
      }
    ]
  },
  {
    "postal": "N4G7G5",
    "result": []
  },
  {
    "postal": "N4G6K2",
    "result": []
  },
  {
    "postal": "N4G6P9",
    "result": []
  },
  {
    "postal": "N4G0E6",
    "result": [
      {
        "electoralDistricts": [
          {
            "election": null,
            "id": 82,
            "name": "Oxford"
          }
        ],
        "pollDivisionIds": [
          10143216
        ],
        "postalCode": "N4G0E6",
        "streetName": "TILLSON",
        "streetDirectionId": null,
        "streetTypeId": "AVE",
        "placeName": "TILLSONBURG",
        "streetNameDisplayText": "TILLSON AVE, TILLSONBURG"
      }
    ]
  },
  {
    "postal": "N4G8R9",
    "result": []
  },
  {
    "postal": "N4G3G9",
    "result": [
      {
        "electoralDistricts": [
          {
            "election": null,
            "id": 82,
            "name": "Oxford"
          }
        ],
        "pollDivisionIds": [
          10140915
        ],
        "postalCode": "N4G3G9",
        "streetName": "QUEEN",
        "streetDirectionId": null,
        "streetTypeId": "ST",
        "placeName": "TILLSONBURG",
        "streetNameDisplayText": "QUEEN ST, TILLSONBURG"
      }
    ]
  },
  {
    "postal": "N4G0V7",
    "result": []
  },
  {
    "postal": "N4G2Z1",
    "result": [
      {
        "electoralDistricts": [
          {
            "election": null,
            "id": 82,
            "name": "Oxford"
          }
        ],
        "pollDivisionIds": [
          10143216
        ],
        "postalCode": "N4G2Z1",
        "streetName": "MAPLE",
        "streetDirectionId": null,
        "streetTypeId": "CRT",
        "placeName": "TILLSONBURG",
        "streetNameDisplayText": "MAPLE CRT, TILLSONBURG"
      }
    ]
  },
  {
    "postal": "N4G7N1",
    "result": []
  },
  {
    "postal": "N4G3C6",
    "result": [
      {
        "electoralDistricts": [
          {
            "election": null,
            "id": 82,
            "name": "Oxford"
          }
        ],
        "pollDivisionIds": [
          10143216
        ],
        "postalCode": "N4G3C6",
        "streetName": "OLD VIENNA",
        "streetDirectionId": null,
        "streetTypeId": "RD",
        "placeName": "TILLSONBURG",
        "streetNameDisplayText": "OLD VIENNA RD, TILLSONBURG"
      },
      {
        "electoralDistricts": [
          {
            "election": null,
            "id": 82,
            "name": "Oxford"
          }
        ],
        "pollDivisionIds": [
          10143216
        ],
        "postalCode": "N4G3C6",
        "streetName": "VIENNA",
        "streetDirectionId": null,
        "streetTypeId": "RD",
        "placeName": "TILLSONBURG",
        "streetNameDisplayText": "VIENNA RD, TILLSONBURG"
      }
    ]
  },
  {
    "postal": "N4G4M1",
    "result": []
  },
  {
    "postal": "N4G9K2",
    "result": []
  },
  {
    "postal": "N4G9S6",
    "result": []
  },
  {
    "postal": "N4G4X1",
    "result": [
      {
        "electoralDistricts": [
          {
            "election": null,
            "id": 34,
            "name": "Haldimand—Norfolk"
          }
        ],
        "pollDivisionIds": [
          10138452
        ],
        "postalCode": "N4G4X1",
        "streetName": "SIMCOE",
        "streetDirectionId": null,
        "streetTypeId": "ST",
        "placeName": "TILLSONBURG",
        "streetNameDisplayText": "SIMCOE ST, TILLSONBURG"
      }
    ]
  },
  {
    "postal": "N4G8W2",
    "result": []
  },
  {
    "postal": "N4G7N2",
    "result": []
  },
  {
    "postal": "N4G8S3",
    "result": []
  },
  {
    "postal": "N4G4V0",
    "result": []
  },
  {
    "postal": "N4G6W4",
    "result": []
  },
  {
    "postal": "N4G5M1",
    "result": [
      {
        "electoralDistricts": [
          {
            "election": null,
            "id": 82,
            "name": "Oxford"
          }
        ],
        "pollDivisionIds": [
          10143216
        ],
        "postalCode": "N4G5M1",
        "streetName": "JOSEPH",
        "streetDirectionId": null,
        "streetTypeId": "ST",
        "placeName": "TILLSONBURG",
        "streetNameDisplayText": "JOSEPH ST, TILLSONBURG"
      },
      {
        "electoralDistricts": [
          {
            "election": null,
            "id": 82,
            "name": "Oxford"
          }
        ],
        "pollDivisionIds": [
          10143216
        ],
        "postalCode": "N4G5M1",
        "streetName": "MARY",
        "streetDirectionId": null,
        "streetTypeId": "ST",
        "placeName": "TILLSONBURG",
        "streetNameDisplayText": "MARY ST, TILLSONBURG"
      }
    ]
  },
  {
    "postal": "N4G0S4",
    "result": []
  },
  {
    "postal": "N4G5X6",
    "result": [
      {
        "electoralDistricts": [
          {
            "election": null,
            "id": 82,
            "name": "Oxford"
          }
        ],
        "pollDivisionIds": [
          10140917
        ],
        "postalCode": "N4G5X6",
        "streetName": "JONES",
        "streetDirectionId": null,
        "streetTypeId": "CRES",
        "placeName": "TILLSONBURG",
        "streetNameDisplayText": "JONES CRES, TILLSONBURG"
      }
    ]
  },
  {
    "postal": "N4G8L5",
    "result": []
  },
  {
    "postal": "N4G5M8",
    "result": [
      {
        "electoralDistricts": [
          {
            "election": null,
            "id": 82,
            "name": "Oxford"
          }
        ],
        "pollDivisionIds": [
          10140915
        ],
        "postalCode": "N4G5M8",
        "streetName": "HUNTER",
        "streetDirectionId": null,
        "streetTypeId": "CRES",
        "placeName": "TILLSONBURG",
        "streetNameDisplayText": "HUNTER CRES, TILLSONBURG"
      },
      {
        "electoralDistricts": [
          {
            "election": null,
            "id": 82,
            "name": "Oxford"
          }
        ],
        "pollDivisionIds": [
          10140915
        ],
        "postalCode": "N4G5M8",
        "streetName": "WINDEMERE",
        "streetDirectionId": null,
        "streetTypeId": "AVE",
        "placeName": "TILLSONBURG",
        "streetNameDisplayText": "WINDEMERE AVE, TILLSONBURG"
      },
      {
        "electoralDistricts": [
          {
            "election": null,
            "id": 82,
            "name": "Oxford"
          }
        ],
        "pollDivisionIds": [
          10140915
        ],
        "postalCode": "N4G5M8",
        "streetName": "WINONA",
        "streetDirectionId": null,
        "streetTypeId": "DR",
        "placeName": "TILLSONBURG",
        "streetNameDisplayText": "WINONA DR, TILLSONBURG"
      }
    ]
  },
  {
    "postal": "N4G2G3",
    "result": [
      {
        "electoralDistricts": [
          {
            "election": null,
            "id": 82,
            "name": "Oxford"
          }
        ],
        "pollDivisionIds": [
          10143216
        ],
        "postalCode": "N4G2G3",
        "streetName": "OXFORD",
        "streetDirectionId": null,
        "streetTypeId": "ST",
        "placeName": "TILLSONBURG",
        "streetNameDisplayText": "OXFORD ST, TILLSONBURG"
      }
    ]
  },
  {
    "postal": "N4G8E4",
    "result": []
  },
  {
    "postal": "N4G7S9",
    "result": []
  },
  {
    "postal": "N4G1K3",
    "result": [
      {
        "electoralDistricts": [
          {
            "election": null,
            "id": 82,
            "name": "Oxford"
          }
        ],
        "pollDivisionIds": [
          10143216
        ],
        "postalCode": "N4G1K3",
        "streetName": "THIRD",
        "streetDirectionId": null,
        "streetTypeId": "ST",
        "placeName": "TILLSONBURG",
        "streetNameDisplayText": "THIRD ST, TILLSONBURG"
      }
    ]
  },
  {
    "postal": "N4G4E1",
    "result": [
      {
        "electoralDistricts": [
          {
            "election": null,
            "id": 82,
            "name": "Oxford"
          }
        ],
        "pollDivisionIds": [
          10140917
        ],
        "postalCode": "N4G4E1",
        "streetName": "QUARTER TOWN",
        "streetDirectionId": null,
        "streetTypeId": "LINE",
        "placeName": "TILLSONBURG",
        "streetNameDisplayText": "QUARTER TOWN LINE, TILLSONBURG"
      }
    ]
  },
  {
    "postal": "N4G4R2",
    "result": [
      {
        "electoralDistricts": [
          {
            "election": null,
            "id": 82,
            "name": "Oxford"
          }
        ],
        "pollDivisionIds": [
          10140917
        ],
        "postalCode": "N4G4R2",
        "streetName": "TROTTIER",
        "streetDirectionId": null,
        "streetTypeId": "DR",
        "placeName": "TILLSONBURG",
        "streetNameDisplayText": "TROTTIER DR, TILLSONBURG"
      }
    ]
  },
  {
    "postal": "N4G6T0",
    "result": []
  },
  {
    "postal": "N4G3K5",
    "result": [
      {
        "electoralDistricts": [
          {
            "election": null,
            "id": 82,
            "name": "Oxford"
          }
        ],
        "pollDivisionIds": [
          10140915
        ],
        "postalCode": "N4G3K5",
        "streetName": "LISGAR",
        "streetDirectionId": null,
        "streetTypeId": "AVE",
        "placeName": "TILLSONBURG",
        "streetNameDisplayText": "LISGAR AVE, TILLSONBURG"
      }
    ]
  },
  {
    "postal": "N4G3S3",
    "result": [
      {
        "electoralDistricts": [
          {
            "election": null,
            "id": 82,
            "name": "Oxford"
          }
        ],
        "pollDivisionIds": [
          10143216
        ],
        "postalCode": "N4G3S3",
        "streetName": "BROADWAY",
        "streetDirectionId": null,
        "streetTypeId": "ST",
        "placeName": "TILLSONBURG",
        "streetNameDisplayText": "BROADWAY ST, TILLSONBURG"
      }
    ]
  },
  {
    "postal": "N4G3L4",
    "result": [
      {
        "electoralDistricts": [
          {
            "election": null,
            "id": 82,
            "name": "Oxford"
          }
        ],
        "pollDivisionIds": [
          10143216
        ],
        "postalCode": "N4G3L4",
        "streetName": "LISGAR",
        "streetDirectionId": null,
        "streetTypeId": "AVE",
        "placeName": "TILLSONBURG",
        "streetNameDisplayText": "LISGAR AVE, TILLSONBURG"
      }
    ]
  },
  {
    "postal": "N4G9Y2",
    "result": []
  },
  {
    "postal": "N4G1E0",
    "result": []
  },
  {
    "postal": "N4G9A4",
    "result": []
  },
  {
    "postal": "N4G1L3",
    "result": [
      {
        "electoralDistricts": [
          {
            "election": null,
            "id": 82,
            "name": "Oxford"
          }
        ],
        "pollDivisionIds": [
          10143216
        ],
        "postalCode": "N4G1L3",
        "streetName": "PEARL",
        "streetDirectionId": null,
        "streetTypeId": "ST",
        "placeName": "TILLSONBURG",
        "streetNameDisplayText": "PEARL ST, TILLSONBURG"
      }
    ]
  },
  {
    "postal": "N4G6N1",
    "result": []
  },
  {
    "postal": "N4G6G7",
    "result": []
  },
  {
    "postal": "N4G7W1",
    "result": []
  },
  {
    "postal": "N4G4M6",
    "result": [
      {
        "electoralDistricts": [
          {
            "election": null,
            "id": 82,
            "name": "Oxford"
          }
        ],
        "pollDivisionIds": [
          10140918
        ],
        "postalCode": "N4G4M6",
        "streetName": "OWL",
        "streetDirectionId": null,
        "streetTypeId": "DR",
        "placeName": "TILLSONBURG",
        "streetNameDisplayText": "OWL DR, TILLSONBURG"
      }
    ]
  },
  {
    "postal": "N4G1K0",
    "result": []
  },
  {
    "postal": "N4G3E2",
    "result": [
      {
        "electoralDistricts": [
          {
            "election": null,
            "id": 82,
            "name": "Oxford"
          }
        ],
        "pollDivisionIds": [
          10143216
        ],
        "postalCode": "N4G3E2",
        "streetName": "KING",
        "streetDirectionId": null,
        "streetTypeId": "ST",
        "placeName": "TILLSONBURG",
        "streetNameDisplayText": "KING ST, TILLSONBURG"
      }
    ]
  },
  {
    "postal": "N4G5H4",
    "result": [
      {
        "electoralDistricts": [
          {
            "election": null,
            "id": 82,
            "name": "Oxford"
          }
        ],
        "pollDivisionIds": [
          10140917
        ],
        "postalCode": "N4G5H4",
        "streetName": "EDWIN",
        "streetDirectionId": null,
        "streetTypeId": "CRES",
        "placeName": "TILLSONBURG",
        "streetNameDisplayText": "EDWIN CRES, TILLSONBURG"
      }
    ]
  },
  {
    "postal": "N4G1K7",
    "result": [
      {
        "electoralDistricts": [
          {
            "election": null,
            "id": 82,
            "name": "Oxford"
          }
        ],
        "pollDivisionIds": [
          10140915
        ],
        "postalCode": "N4G1K7",
        "streetName": "HAWTHORNE",
        "streetDirectionId": null,
        "streetTypeId": "CRES",
        "placeName": "TILLSONBURG",
        "streetNameDisplayText": "HAWTHORNE CRES, TILLSONBURG"
      }
    ]
  },
  {
    "postal": "N4G0H0",
    "result": []
  },
  {
    "postal": "N4G0J3",
    "result": []
  },
  {
    "postal": "N4G1X6",
    "result": []
  },
  {
    "postal": "N4G2Z6",
    "result": [
      {
        "electoralDistricts": [
          {
            "election": null,
            "id": 82,
            "name": "Oxford"
          }
        ],
        "pollDivisionIds": [
          10143216
        ],
        "postalCode": "N4G2Z6",
        "streetName": "TILLSON",
        "streetDirectionId": null,
        "streetTypeId": "AVE",
        "placeName": "TILLSONBURG",
        "streetNameDisplayText": "TILLSON AVE, TILLSONBURG"
      }
    ]
  },
  {
    "postal": "N4G4R9",
    "result": [
      {
        "electoralDistricts": [
          {
            "election": null,
            "id": 82,
            "name": "Oxford"
          }
        ],
        "pollDivisionIds": [
          10140918
        ],
        "postalCode": "N4G4R9",
        "streetName": "VAN NORMAN",
        "streetDirectionId": null,
        "streetTypeId": "DR",
        "placeName": "TILLSONBURG",
        "streetNameDisplayText": "VAN NORMAN DR, TILLSONBURG"
      }
    ]
  },
  {
    "postal": "N4G0W8",
    "result": []
  },
  {
    "postal": "N4G1L4",
    "result": [
      {
        "electoralDistricts": [
          {
            "election": null,
            "id": 82,
            "name": "Oxford"
          }
        ],
        "pollDivisionIds": [
          10143216
        ],
        "postalCode": "N4G1L4",
        "streetName": "PINE",
        "streetDirectionId": null,
        "streetTypeId": "ST",
        "placeName": "TILLSONBURG",
        "streetNameDisplayText": "PINE ST, TILLSONBURG"
      }
    ]
  },
  {
    "postal": "N4G0C8",
    "result": []
  },
  {
    "postal": "N4G9X7",
    "result": []
  },
  {
    "postal": "N4G4T1",
    "result": [
      {
        "electoralDistricts": [
          {
            "election": null,
            "id": 82,
            "name": "Oxford"
          }
        ],
        "pollDivisionIds": [
          10140918
        ],
        "postalCode": "N4G4T1",
        "streetName": "VAN NORMAN",
        "streetDirectionId": null,
        "streetTypeId": "DR",
        "placeName": "TILLSONBURG",
        "streetNameDisplayText": "VAN NORMAN DR, TILLSONBURG"
      }
    ]
  },
  {
    "postal": "N4G0M0",
    "result": []
  },
  {
    "postal": "N4G6A2",
    "result": []
  },
  {
    "postal": "N4G9S8",
    "result": []
  },
  {
    "postal": "N4G9T4",
    "result": []
  },
  {
    "postal": "N4G9Y4",
    "result": []
  },
  {
    "postal": "N4G6G5",
    "result": []
  },
  {
    "postal": "N4G6H9",
    "result": []
  },
  {
    "postal": "N4G2P3",
    "result": [
      {
        "electoralDistricts": [
          {
            "election": null,
            "id": 82,
            "name": "Oxford"
          }
        ],
        "pollDivisionIds": [
          10140917
        ],
        "postalCode": "N4G2P3",
        "streetName": "DENIS",
        "streetDirectionId": null,
        "streetTypeId": "CRT",
        "placeName": "TILLSONBURG",
        "streetNameDisplayText": "DENIS CRT, TILLSONBURG"
      }
    ]
  },
  {
    "postal": "N4G1T6",
    "result": [
      {
        "electoralDistricts": [
          {
            "election": null,
            "id": 82,
            "name": "Oxford"
          }
        ],
        "pollDivisionIds": [
          10140915
        ],
        "postalCode": "N4G1T6",
        "streetName": "VENISON",
        "streetDirectionId": "E",
        "streetTypeId": "ST",
        "placeName": "TILLSONBURG",
        "streetNameDisplayText": "VENISON ST E, TILLSONBURG"
      },
      {
        "electoralDistricts": [
          {
            "election": null,
            "id": 82,
            "name": "Oxford"
          }
        ],
        "pollDivisionIds": [
          10140917
        ],
        "postalCode": "N4G1T6",
        "streetName": "VENISON",
        "streetDirectionId": "W",
        "streetTypeId": "ST",
        "placeName": "TILLSONBURG",
        "streetNameDisplayText": "VENISON ST W, TILLSONBURG"
      }
    ]
  },
  {
    "postal": "N4G4P6",
    "result": [
      {
        "electoralDistricts": [
          {
            "election": null,
            "id": 82,
            "name": "Oxford"
          }
        ],
        "pollDivisionIds": [
          10140917
        ],
        "postalCode": "N4G4P6",
        "streetName": "TROTTIER",
        "streetDirectionId": null,
        "streetTypeId": "DR",
        "placeName": "TILLSONBURG",
        "streetNameDisplayText": "TROTTIER DR, TILLSONBURG"
      }
    ]
  },
  {
    "postal": "N4G3K1",
    "result": []
  },
  {
    "postal": "N4G6X4",
    "result": []
  },
  {
    "postal": "N4G4M8",
    "result": [
      {
        "electoralDistricts": [
          {
            "election": null,
            "id": 82,
            "name": "Oxford"
          }
        ],
        "pollDivisionIds": [
          10140918
        ],
        "postalCode": "N4G4M8",
        "streetName": "OWL",
        "streetDirectionId": null,
        "streetTypeId": "DR",
        "placeName": "TILLSONBURG",
        "streetNameDisplayText": "OWL DR, TILLSONBURG"
      }
    ]
  },
  {
    "postal": "N4G2Y1",
    "result": [
      {
        "electoralDistricts": [
          {
            "election": null,
            "id": 82,
            "name": "Oxford"
          }
        ],
        "pollDivisionIds": [
          10143216
        ],
        "postalCode": "N4G2Y1",
        "streetName": "CEDAR",
        "streetDirectionId": null,
        "streetTypeId": "ST",
        "placeName": "TILLSONBURG",
        "streetNameDisplayText": "CEDAR ST, TILLSONBURG"
      }
    ]
  },
  {
    "postal": "N4G6M1",
    "result": []
  },
  {
    "postal": "N4G5L8",
    "result": [
      {
        "electoralDistricts": [
          {
            "election": null,
            "id": 82,
            "name": "Oxford"
          }
        ],
        "pollDivisionIds": [
          10140917
        ],
        "postalCode": "N4G5L8",
        "streetName": "DEREHAM",
        "streetDirectionId": null,
        "streetTypeId": "DR",
        "placeName": "TILLSONBURG",
        "streetNameDisplayText": "DEREHAM DR, TILLSONBURG"
      },
      {
        "electoralDistricts": [
          {
            "election": null,
            "id": 82,
            "name": "Oxford"
          }
        ],
        "pollDivisionIds": [
          10140917
        ],
        "postalCode": "N4G5L8",
        "streetName": "MCDONALD",
        "streetDirectionId": null,
        "streetTypeId": "CRT",
        "placeName": "TILLSONBURG",
        "streetNameDisplayText": "MCDONALD CRT, TILLSONBURG"
      },
      {
        "electoralDistricts": [
          {
            "election": null,
            "id": 82,
            "name": "Oxford"
          }
        ],
        "pollDivisionIds": [
          10140917
        ],
        "postalCode": "N4G5L8",
        "streetName": "SINCLAIR",
        "streetDirectionId": null,
        "streetTypeId": "DR",
        "placeName": "TILLSONBURG",
        "streetNameDisplayText": "SINCLAIR DR, TILLSONBURG"
      },
      {
        "electoralDistricts": [
          {
            "election": null,
            "id": 82,
            "name": "Oxford"
          }
        ],
        "pollDivisionIds": [
          10140917
        ],
        "postalCode": "N4G5L8",
        "streetName": "WILSON",
        "streetDirectionId": null,
        "streetTypeId": "AVE",
        "placeName": "TILLSONBURG",
        "streetNameDisplayText": "WILSON AVE, TILLSONBURG"
      }
    ]
  },
  {
    "postal": "N4G3P6",
    "result": [
      {
        "electoralDistricts": [
          {
            "election": null,
            "id": 82,
            "name": "Oxford"
          }
        ],
        "pollDivisionIds": [
          10143216
        ],
        "postalCode": "N4G3P6",
        "streetName": "BROADWAY",
        "streetDirectionId": null,
        "streetTypeId": "ST",
        "placeName": "TILLSONBURG",
        "streetNameDisplayText": "BROADWAY ST, TILLSONBURG"
      }
    ]
  },
  {
    "postal": "N4G9A5",
    "result": []
  },
  {
    "postal": "N4G7K1",
    "result": []
  },
  {
    "postal": "N4G3J4",
    "result": [
      {
        "electoralDistricts": [
          {
            "election": null,
            "id": 82,
            "name": "Oxford"
          }
        ],
        "pollDivisionIds": [
          10143216
        ],
        "postalCode": "N4G3J4",
        "streetName": "HARVEY",
        "streetDirectionId": null,
        "streetTypeId": "ST",
        "placeName": "TILLSONBURG",
        "streetNameDisplayText": "HARVEY ST, TILLSONBURG"
      }
    ]
  },
  {
    "postal": "N4G5E7",
    "result": [
      {
        "electoralDistricts": [
          {
            "election": null,
            "id": 82,
            "name": "Oxford"
          }
        ],
        "pollDivisionIds": [
          10140917
        ],
        "postalCode": "N4G5E7",
        "streetName": "SERES",
        "streetDirectionId": null,
        "streetTypeId": "DR",
        "placeName": "TILLSONBURG",
        "streetNameDisplayText": "SERES DR, TILLSONBURG"
      }
    ]
  },
  {
    "postal": "N4G3A7",
    "result": []
  },
  {
    "postal": "N4G1B9",
    "result": [
      {
        "electoralDistricts": [
          {
            "election": null,
            "id": 82,
            "name": "Oxford"
          }
        ],
        "pollDivisionIds": [
          10140918
        ],
        "postalCode": "N4G1B9",
        "streetName": "NORTH",
        "streetDirectionId": "W",
        "streetTypeId": "ST",
        "placeName": "TILLSONBURG",
        "streetNameDisplayText": "NORTH ST W, TILLSONBURG"
      }
    ]
  },
  {
    "postal": "N4G9E8",
    "result": []
  },
  {
    "postal": "N4G1C9",
    "result": []
  },
  {
    "postal": "N4G3B5",
    "result": [
      {
        "electoralDistricts": [
          {
            "election": null,
            "id": 82,
            "name": "Oxford"
          }
        ],
        "pollDivisionIds": [
          10143216
        ],
        "postalCode": "N4G3B5",
        "streetName": "TILLSON",
        "streetDirectionId": null,
        "streetTypeId": "AVE",
        "placeName": "TILLSONBURG",
        "streetNameDisplayText": "TILLSON AVE, TILLSONBURG"
      }
    ]
  },
  {
    "postal": "N4G8R0",
    "result": []
  },
  {
    "postal": "N4G3P2",
    "result": [
      {
        "electoralDistricts": [
          {
            "election": null,
            "id": 82,
            "name": "Oxford"
          }
        ],
        "pollDivisionIds": [
          10143216
        ],
        "postalCode": "N4G3P2",
        "streetName": "BROADWAY",
        "streetDirectionId": null,
        "streetTypeId": "ST",
        "placeName": "TILLSONBURG",
        "streetNameDisplayText": "BROADWAY ST, TILLSONBURG"
      }
    ]
  },
  {
    "postal": "N4G5V4",
    "result": [
      {
        "electoralDistricts": [
          {
            "election": null,
            "id": 82,
            "name": "Oxford"
          }
        ],
        "pollDivisionIds": [
          10140917
        ],
        "postalCode": "N4G5V4",
        "streetName": "WHISPERING PINE",
        "streetDirectionId": null,
        "streetTypeId": "LANE",
        "placeName": "TILLSONBURG",
        "streetNameDisplayText": "WHISPERING PINE LANE, TILLSONBURG"
      }
    ]
  },
  {
    "postal": "N4G4H0",
    "result": []
  },
  {
    "postal": "N4G4S7",
    "result": []
  },
  {
    "postal": "N4G6C2",
    "result": []
  },
  {
    "postal": "N4G8W3",
    "result": []
  },
  {
    "postal": "N4G4M5",
    "result": [
      {
        "electoralDistricts": [
          {
            "election": null,
            "id": 82,
            "name": "Oxford"
          }
        ],
        "pollDivisionIds": [
          10140918
        ],
        "postalCode": "N4G4M5",
        "streetName": "OWL",
        "streetDirectionId": null,
        "streetTypeId": "DR",
        "placeName": "TILLSONBURG",
        "streetNameDisplayText": "OWL DR, TILLSONBURG"
      }
    ]
  },
  {
    "postal": "N4G5T1",
    "result": [
      {
        "electoralDistricts": [
          {
            "election": null,
            "id": 82,
            "name": "Oxford"
          }
        ],
        "pollDivisionIds": [
          10143216
        ],
        "postalCode": "N4G5T1",
        "streetName": "TILLSON",
        "streetDirectionId": null,
        "streetTypeId": "AVE",
        "placeName": "TILLSONBURG",
        "streetNameDisplayText": "TILLSON AVE, TILLSONBURG"
      }
    ]
  },
  {
    "postal": "N4G3B3",
    "result": [
      {
        "electoralDistricts": [
          {
            "election": null,
            "id": 82,
            "name": "Oxford"
          }
        ],
        "pollDivisionIds": [
          10143216
        ],
        "postalCode": "N4G3B3",
        "streetName": "TILLSON",
        "streetDirectionId": null,
        "streetTypeId": "AVE",
        "placeName": "TILLSONBURG",
        "streetNameDisplayText": "TILLSON AVE, TILLSONBURG"
      }
    ]
  },
  {
    "postal": "N4G6C6",
    "result": []
  },
  {
    "postal": "N4G7N8",
    "result": []
  },
  {
    "postal": "N4G2Y3",
    "result": []
  },
  {
    "postal": "N4G2R6",
    "result": []
  },
  {
    "postal": "N4G7N3",
    "result": []
  },
  {
    "postal": "N4G8J2",
    "result": []
  },
  {
    "postal": "N4G6A9",
    "result": []
  },
  {
    "postal": "N4G3V2",
    "result": []
  },
  {
    "postal": "N4G2N3",
    "result": [
      {
        "electoralDistricts": [
          {
            "election": null,
            "id": 82,
            "name": "Oxford"
          }
        ],
        "pollDivisionIds": [
          10143216
        ],
        "postalCode": "N4G2N3",
        "streetName": "GEORGE",
        "streetDirectionId": null,
        "streetTypeId": "ST",
        "placeName": "TILLSONBURG",
        "streetNameDisplayText": "GEORGE ST, TILLSONBURG"
      }
    ]
  },
  {
    "postal": "N4G1S5",
    "result": [
      {
        "electoralDistricts": [
          {
            "election": null,
            "id": 82,
            "name": "Oxford"
          }
        ],
        "pollDivisionIds": [
          10140915
        ],
        "postalCode": "N4G1S5",
        "streetName": "WOLF",
        "streetDirectionId": null,
        "streetTypeId": "ST",
        "placeName": "TILLSONBURG",
        "streetNameDisplayText": "WOLF ST, TILLSONBURG"
      }
    ]
  },
  {
    "postal": "N4G4T7",
    "result": [
      {
        "electoralDistricts": [
          {
            "election": null,
            "id": 82,
            "name": "Oxford"
          }
        ],
        "pollDivisionIds": [
          10140918
        ],
        "postalCode": "N4G4T7",
        "streetName": "LISGAR",
        "streetDirectionId": null,
        "streetTypeId": "AVE",
        "placeName": "TILLSONBURG",
        "streetNameDisplayText": "LISGAR AVE, TILLSONBURG"
      }
    ]
  },
  {
    "postal": "N4G6Y7",
    "result": []
  },
  {
    "postal": "N4G0W7",
    "result": []
  },
  {
    "postal": "N4G2W9",
    "result": [
      {
        "electoralDistricts": [
          {
            "election": null,
            "id": 82,
            "name": "Oxford"
          }
        ],
        "pollDivisionIds": [
          10143216
        ],
        "postalCode": "N4G2W9",
        "streetName": "BALL",
        "streetDirectionId": null,
        "streetTypeId": "ST",
        "placeName": "TILLSONBURG",
        "streetNameDisplayText": "BALL ST, TILLSONBURG"
      }
    ]
  },
  {
    "postal": "N4G8V0",
    "result": []
  },
  {
    "postal": "N4G0H4",
    "result": [
      {
        "electoralDistricts": [
          {
            "election": null,
            "id": 82,
            "name": "Oxford"
          }
        ],
        "pollDivisionIds": [
          10140917
        ],
        "postalCode": "N4G0H4",
        "streetName": "WILSON",
        "streetDirectionId": null,
        "streetTypeId": "AVE",
        "placeName": "TILLSONBURG",
        "streetNameDisplayText": "WILSON AVE, TILLSONBURG"
      }
    ]
  },
  {
    "postal": "N4G2T1",
    "result": [
      {
        "electoralDistricts": [
          {
            "election": null,
            "id": 34,
            "name": "Haldimand—Norfolk"
          }
        ],
        "pollDivisionIds": [
          10138452
        ],
        "postalCode": "N4G2T1",
        "streetName": "3RD CONCESSION NTR",
        "streetDirectionId": null,
        "streetTypeId": "RD",
        "placeName": "TILLSONBURG",
        "streetNameDisplayText": "3RD CONCESSION NTR RD, TILLSONBURG"
      },
      {
        "electoralDistricts": [
          {
            "election": null,
            "id": 34,
            "name": "Haldimand—Norfolk"
          }
        ],
        "pollDivisionIds": [
          10138452
        ],
        "postalCode": "N4G2T1",
        "streetName": "3RD CONCESSION ROAD N.T.R.",
        "streetDirectionId": null,
        "streetTypeId": "RD",
        "placeName": "TILLSONBURG",
        "streetNameDisplayText": "3RD CONCESSION ROAD N.T.R. RD, TILLSONBURG"
      }
    ]
  },
  {
    "postal": "N4G1B1",
    "result": [
      {
        "electoralDistricts": [
          {
            "election": null,
            "id": 82,
            "name": "Oxford"
          }
        ],
        "pollDivisionIds": [
          10140918
        ],
        "postalCode": "N4G1B1",
        "streetName": "TANAGER",
        "streetDirectionId": null,
        "streetTypeId": "DR",
        "placeName": "TILLSONBURG",
        "streetNameDisplayText": "TANAGER DR, TILLSONBURG"
      }
    ]
  },
  {
    "postal": "N4G8B6",
    "result": []
  },
  {
    "postal": "N4G6H1",
    "result": []
  },
  {
    "postal": "N4G8T8",
    "result": []
  },
  {
    "postal": "N4G0T4",
    "result": []
  },
  {
    "postal": "N4G2C4",
    "result": [
      {
        "electoralDistricts": [
          {
            "election": null,
            "id": 82,
            "name": "Oxford"
          }
        ],
        "pollDivisionIds": [
          10143216
        ],
        "postalCode": "N4G2C4",
        "streetName": "HYMAN",
        "streetDirectionId": null,
        "streetTypeId": "ST",
        "placeName": "TILLSONBURG",
        "streetNameDisplayText": "HYMAN ST, TILLSONBURG"
      }
    ]
  },
  {
    "postal": "N4G8N3",
    "result": []
  },
  {
    "postal": "N4G4L8",
    "result": [
      {
        "electoralDistricts": [
          {
            "election": null,
            "id": 82,
            "name": "Oxford"
          }
        ],
        "pollDivisionIds": [
          10140918
        ],
        "postalCode": "N4G4L8",
        "streetName": "WOODCOCK",
        "streetDirectionId": null,
        "streetTypeId": "DR",
        "placeName": "TILLSONBURG",
        "streetNameDisplayText": "WOODCOCK DR, TILLSONBURG"
      }
    ]
  },
  {
    "postal": "N4G2B5",
    "result": [
      {
        "electoralDistricts": [
          {
            "election": null,
            "id": 82,
            "name": "Oxford"
          }
        ],
        "pollDivisionIds": [
          10143216
        ],
        "postalCode": "N4G2B5",
        "streetName": "FAIRFIELD",
        "streetDirectionId": null,
        "streetTypeId": "CRES",
        "placeName": "TILLSONBURG",
        "streetNameDisplayText": "FAIRFIELD CRES, TILLSONBURG"
      }
    ]
  },
  {
    "postal": "N4G3H1",
    "result": [
      {
        "electoralDistricts": [
          {
            "election": null,
            "id": 82,
            "name": "Oxford"
          }
        ],
        "pollDivisionIds": [
          10140915
        ],
        "postalCode": "N4G3H1",
        "streetName": "QUEEN",
        "streetDirectionId": null,
        "streetTypeId": "ST",
        "placeName": "TILLSONBURG",
        "streetNameDisplayText": "QUEEN ST, TILLSONBURG"
      }
    ]
  },
  {
    "postal": "N4G4Y1",
    "result": [
      {
        "electoralDistricts": [
          {
            "election": null,
            "id": 82,
            "name": "Oxford"
          }
        ],
        "pollDivisionIds": [
          10140918
        ],
        "postalCode": "N4G4Y1",
        "streetName": "DEVONSHIRE",
        "streetDirectionId": null,
        "streetTypeId": "AVE",
        "placeName": "TILLSONBURG",
        "streetNameDisplayText": "DEVONSHIRE AVE, TILLSONBURG"
      }
    ]
  },
  {
    "postal": "N4G7E2",
    "result": []
  },
  {
    "postal": "N4G2P5",
    "result": [
      {
        "electoralDistricts": [
          {
            "election": null,
            "id": 82,
            "name": "Oxford"
          }
        ],
        "pollDivisionIds": [
          10140917
        ],
        "postalCode": "N4G2P5",
        "streetName": "RICHARDS",
        "streetDirectionId": null,
        "streetTypeId": "CRT",
        "placeName": "TILLSONBURG",
        "streetNameDisplayText": "RICHARDS CRT, TILLSONBURG"
      }
    ]
  },
  {
    "postal": "N4G8R7",
    "result": []
  },
  {
    "postal": "N4G9P1",
    "result": []
  },
  {
    "postal": "N4G3B8",
    "result": [
      {
        "electoralDistricts": [
          {
            "election": null,
            "id": 82,
            "name": "Oxford"
          }
        ],
        "pollDivisionIds": [
          10143216
        ],
        "postalCode": "N4G3B8",
        "streetName": "TILLSON",
        "streetDirectionId": null,
        "streetTypeId": "AVE",
        "placeName": "TILLSONBURG",
        "streetNameDisplayText": "TILLSON AVE, TILLSONBURG"
      }
    ]
  },
  {
    "postal": "N4G3P7",
    "result": [
      {
        "electoralDistricts": [
          {
            "election": null,
            "id": 82,
            "name": "Oxford"
          }
        ],
        "pollDivisionIds": [
          10140917
        ],
        "postalCode": "N4G3P7",
        "streetName": "BROADWAY",
        "streetDirectionId": null,
        "streetTypeId": "ST",
        "placeName": "TILLSONBURG",
        "streetNameDisplayText": "BROADWAY ST, TILLSONBURG"
      }
    ]
  },
  {
    "postal": "N4G9B2",
    "result": []
  },
  {
    "postal": "N4G6Z3",
    "result": []
  },
  {
    "postal": "N4G4N5",
    "result": [
      {
        "electoralDistricts": [
          {
            "election": null,
            "id": 82,
            "name": "Oxford"
          }
        ],
        "pollDivisionIds": [
          10140918
        ],
        "postalCode": "N4G4N5",
        "streetName": "ROBIN",
        "streetDirectionId": null,
        "streetTypeId": "RD",
        "placeName": "TILLSONBURG",
        "streetNameDisplayText": "ROBIN RD, TILLSONBURG"
      }
    ]
  },
  {
    "postal": "N4G8T3",
    "result": []
  },
  {
    "postal": "N4G1V2",
    "result": [
      {
        "electoralDistricts": [
          {
            "election": null,
            "id": 82,
            "name": "Oxford"
          }
        ],
        "pollDivisionIds": [
          10140917
        ],
        "postalCode": "N4G1V2",
        "streetName": "BEAR",
        "streetDirectionId": null,
        "streetTypeId": "ST",
        "placeName": "TILLSONBURG",
        "streetNameDisplayText": "BEAR ST, TILLSONBURG"
      }
    ]
  },
  {
    "postal": "N4G1Y0",
    "result": []
  },
  {
    "postal": "N4G3G6",
    "result": [
      {
        "electoralDistricts": [
          {
            "election": null,
            "id": 82,
            "name": "Oxford"
          }
        ],
        "pollDivisionIds": [
          10143216
        ],
        "postalCode": "N4G3G6",
        "streetName": "QUEEN",
        "streetDirectionId": null,
        "streetTypeId": "ST",
        "placeName": "TILLSONBURG",
        "streetNameDisplayText": "QUEEN ST, TILLSONBURG"
      }
    ]
  },
  {
    "postal": "N4G3H7",
    "result": [
      {
        "electoralDistricts": [
          {
            "election": null,
            "id": 82,
            "name": "Oxford"
          }
        ],
        "pollDivisionIds": [
          10143216
        ],
        "postalCode": "N4G3H7",
        "streetName": "YOUNG",
        "streetDirectionId": null,
        "streetTypeId": "ST",
        "placeName": "TILLSONBURG",
        "streetNameDisplayText": "YOUNG ST, TILLSONBURG"
      }
    ]
  },
  {
    "postal": "N4G7X8",
    "result": []
  },
  {
    "postal": "N4G0C7",
    "result": [
      {
        "electoralDistricts": [
          {
            "election": null,
            "id": 82,
            "name": "Oxford"
          }
        ],
        "pollDivisionIds": [
          10140917
        ],
        "postalCode": "N4G0C7",
        "streetName": "DEREHAM",
        "streetDirectionId": null,
        "streetTypeId": "DR",
        "placeName": "TILLSONBURG",
        "streetNameDisplayText": "DEREHAM DR, TILLSONBURG"
      }
    ]
  },
  {
    "postal": "N4G0W9",
    "result": []
  },
  {
    "postal": "N4G8E6",
    "result": []
  },
  {
    "postal": "N4G9Z8",
    "result": []
  },
  {
    "postal": "N4G3P4",
    "result": [
      {
        "electoralDistricts": [
          {
            "election": null,
            "id": 82,
            "name": "Oxford"
          }
        ],
        "pollDivisionIds": [
          10140917
        ],
        "postalCode": "N4G3P4",
        "streetName": "BROADWAY",
        "streetDirectionId": null,
        "streetTypeId": "ST",
        "placeName": "TILLSONBURG",
        "streetNameDisplayText": "BROADWAY ST, TILLSONBURG"
      },
      {
        "electoralDistricts": [
          {
            "election": null,
            "id": 82,
            "name": "Oxford"
          }
        ],
        "pollDivisionIds": [
          10140917
        ],
        "postalCode": "N4G3P4",
        "streetName": "FOX",
        "streetDirectionId": null,
        "streetTypeId": "ALLEY",
        "placeName": "TILLSONBURG",
        "streetNameDisplayText": "FOX ALLEY, TILLSONBURG"
      },
      {
        "electoralDistricts": [
          {
            "election": null,
            "id": 82,
            "name": "Oxford"
          }
        ],
        "pollDivisionIds": [
          10140917
        ],
        "postalCode": "N4G3P4",
        "streetName": "LONDON",
        "streetDirectionId": "W",
        "streetTypeId": "ST",
        "placeName": "TILLSONBURG",
        "streetNameDisplayText": "LONDON ST W, TILLSONBURG"
      }
    ]
  },
  {
    "postal": "N4G6L8",
    "result": []
  },
  {
    "postal": "N4G2R4",
    "result": [
      {
        "electoralDistricts": [
          {
            "election": null,
            "id": 82,
            "name": "Oxford"
          }
        ],
        "pollDivisionIds": [
          10143216
        ],
        "postalCode": "N4G2R4",
        "streetName": "LINCOLN",
        "streetDirectionId": null,
        "streetTypeId": "ST",
        "placeName": "TILLSONBURG",
        "streetNameDisplayText": "LINCOLN ST, TILLSONBURG"
      }
    ]
  },
  {
    "postal": "N4G2W1",
    "result": [
      {
        "electoralDistricts": [
          {
            "election": null,
            "id": 82,
            "name": "Oxford"
          }
        ],
        "pollDivisionIds": [
          10143216
        ],
        "postalCode": "N4G2W1",
        "streetName": "HILLYNDALE",
        "streetDirectionId": null,
        "streetTypeId": "RD",
        "placeName": "TILLSONBURG",
        "streetNameDisplayText": "HILLYNDALE RD, TILLSONBURG"
      }
    ]
  },
  {
    "postal": "N4G9H8",
    "result": []
  },
  {
    "postal": "N4G8X9",
    "result": []
  },
  {
    "postal": "N4G7H4",
    "result": []
  },
  {
    "postal": "N4G3J1",
    "result": [
      {
        "electoralDistricts": [
          {
            "election": null,
            "id": 82,
            "name": "Oxford"
          }
        ],
        "pollDivisionIds": [
          10143216
        ],
        "postalCode": "N4G3J1",
        "streetName": "JOHN POUND",
        "streetDirectionId": null,
        "streetTypeId": "RD",
        "placeName": "TILLSONBURG",
        "streetNameDisplayText": "JOHN POUND RD, TILLSONBURG"
      }
    ]
  },
  {
    "postal": "N4G1P4",
    "result": [
      {
        "electoralDistricts": [
          {
            "election": null,
            "id": 82,
            "name": "Oxford"
          }
        ],
        "pollDivisionIds": [
          10143216
        ],
        "postalCode": "N4G1P4",
        "streetName": "CONCESSION",
        "streetDirectionId": "E",
        "streetTypeId": "ST",
        "placeName": "TILLSONBURG",
        "streetNameDisplayText": "CONCESSION ST E, TILLSONBURG"
      }
    ]
  },
  {
    "postal": "N4G2A3",
    "result": [
      {
        "electoralDistricts": [
          {
            "election": null,
            "id": 82,
            "name": "Oxford"
          }
        ],
        "pollDivisionIds": [
          10140917,
          10143216
        ],
        "postalCode": "N4G2A3",
        "streetName": "BROCK",
        "streetDirectionId": "W",
        "streetTypeId": "ST",
        "placeName": "TILLSONBURG",
        "streetNameDisplayText": "BROCK ST W, TILLSONBURG"
      }
    ]
  },
  {
    "postal": "N4G0Z1",
    "result": []
  },
  {
    "postal": "N4G1C1",
    "result": [
      {
        "electoralDistricts": [
          {
            "election": null,
            "id": 82,
            "name": "Oxford"
          }
        ],
        "pollDivisionIds": [
          10140918
        ],
        "postalCode": "N4G1C1",
        "streetName": "NORTH",
        "streetDirectionId": "W",
        "streetTypeId": "ST",
        "placeName": "TILLSONBURG",
        "streetNameDisplayText": "NORTH ST W, TILLSONBURG"
      }
    ]
  },
  {
    "postal": "N4G0H3",
    "result": []
  },
  {
    "postal": "N4G7B0",
    "result": []
  },
  {
    "postal": "N4G5K2",
    "result": [
      {
        "electoralDistricts": [
          {
            "election": null,
            "id": 82,
            "name": "Oxford"
          }
        ],
        "pollDivisionIds": [
          10140918
        ],
        "postalCode": "N4G5K2",
        "streetName": "WREN",
        "streetDirectionId": null,
        "streetTypeId": "CRT",
        "placeName": "TILLSONBURG",
        "streetNameDisplayText": "WREN CRT, TILLSONBURG"
      }
    ]
  },
  {
    "postal": "N4G1E9",
    "result": [
      {
        "electoralDistricts": [
          {
            "election": null,
            "id": 82,
            "name": "Oxford"
          }
        ],
        "pollDivisionIds": [
          10143216
        ],
        "postalCode": "N4G1E9",
        "streetName": "FRANCES",
        "streetDirectionId": null,
        "streetTypeId": "ST",
        "placeName": "TILLSONBURG",
        "streetNameDisplayText": "FRANCES ST, TILLSONBURG"
      }
    ]
  },
  {
    "postal": "N4G9W7",
    "result": []
  },
  {
    "postal": "N4G5W6",
    "result": [
      {
        "electoralDistricts": [
          {
            "election": null,
            "id": 82,
            "name": "Oxford"
          }
        ],
        "pollDivisionIds": [
          10140917
        ],
        "postalCode": "N4G5W6",
        "streetName": "BALAZS",
        "streetDirectionId": null,
        "streetTypeId": "CRT",
        "placeName": "TILLSONBURG",
        "streetNameDisplayText": "BALAZS CRT, TILLSONBURG"
      }
    ]
  },
  {
    "postal": "N4G6S6",
    "result": []
  },
  {
    "postal": "N4G2P8",
    "result": [
      {
        "electoralDistricts": [
          {
            "election": null,
            "id": 82,
            "name": "Oxford"
          }
        ],
        "pollDivisionIds": [
          10140917
        ],
        "postalCode": "N4G2P8",
        "streetName": "BURDOCK",
        "streetDirectionId": null,
        "streetTypeId": "CRT",
        "placeName": "TILLSONBURG",
        "streetNameDisplayText": "BURDOCK CRT, TILLSONBURG"
      }
    ]
  },
  {
    "postal": "N4G4P8",
    "result": [
      {
        "electoralDistricts": [
          {
            "election": null,
            "id": 82,
            "name": "Oxford"
          }
        ],
        "pollDivisionIds": [
          10140917
        ],
        "postalCode": "N4G4P8",
        "streetName": "TROTTIER",
        "streetDirectionId": null,
        "streetTypeId": "DR",
        "placeName": "TILLSONBURG",
        "streetNameDisplayText": "TROTTIER DR, TILLSONBURG"
      }
    ]
  },
  {
    "postal": "N4G0V9",
    "result": []
  },
  {
    "postal": "N4G5Y2",
    "result": [
      {
        "electoralDistricts": [
          {
            "election": null,
            "id": 82,
            "name": "Oxford"
          }
        ],
        "pollDivisionIds": [
          10143216
        ],
        "postalCode": "N4G5Y2",
        "streetName": "TOWN",
        "streetDirectionId": null,
        "streetTypeId": "LINE",
        "placeName": "TILLSONBURG",
        "streetNameDisplayText": "TOWN LINE, TILLSONBURG"
      },
      {
        "electoralDistricts": [
          {
            "election": null,
            "id": 82,
            "name": "Oxford"
          }
        ],
        "pollDivisionIds": [
          10143216
        ],
        "postalCode": "N4G5Y2",
        "streetName": "TOWNLINE",
        "streetDirectionId": null,
        "streetTypeId": "RD",
        "placeName": "TILLSONBURG",
        "streetNameDisplayText": "TOWNLINE RD, TILLSONBURG"
      }
    ]
  },
  {
    "postal": "N4G7Z7",
    "result": []
  },
  {
    "postal": "N4G6Y8",
    "result": []
  },
  {
    "postal": "N4G2G7",
    "result": [
      {
        "electoralDistricts": [
          {
            "election": null,
            "id": 82,
            "name": "Oxford"
          }
        ],
        "pollDivisionIds": [
          10143216,
          10140926
        ],
        "postalCode": "N4G2G7",
        "streetName": "POTTERS",
        "streetDirectionId": null,
        "streetTypeId": "RD",
        "placeName": "TILLSONBURG",
        "streetNameDisplayText": "POTTERS RD, TILLSONBURG"
      }
    ]
  },
  {
    "postal": "N4G8C1",
    "result": []
  },
  {
    "postal": "N4G5C5",
    "result": [
      {
        "electoralDistricts": [
          {
            "election": null,
            "id": 82,
            "name": "Oxford"
          }
        ],
        "pollDivisionIds": [
          10140917
        ],
        "postalCode": "N4G5C5",
        "streetName": "SERES",
        "streetDirectionId": null,
        "streetTypeId": "DR",
        "placeName": "TILLSONBURG",
        "streetNameDisplayText": "SERES DR, TILLSONBURG"
      },
      {
        "electoralDistricts": [
          {
            "election": null,
            "id": 82,
            "name": "Oxford"
          }
        ],
        "pollDivisionIds": [
          10140917
        ],
        "postalCode": "N4G5C5",
        "streetName": "WILSON",
        "streetDirectionId": null,
        "streetTypeId": "AVE",
        "placeName": "TILLSONBURG",
        "streetNameDisplayText": "WILSON AVE, TILLSONBURG"
      }
    ]
  },
  {
    "postal": "N4G2X8",
    "result": [
      {
        "electoralDistricts": [
          {
            "election": null,
            "id": 82,
            "name": "Oxford"
          }
        ],
        "pollDivisionIds": [
          10143216
        ],
        "postalCode": "N4G2X8",
        "streetName": "PINE",
        "streetDirectionId": null,
        "streetTypeId": "AVE",
        "placeName": "TILLSONBURG",
        "streetNameDisplayText": "PINE AVE, TILLSONBURG"
      }
    ]
  },
  {
    "postal": "N4G1W5",
    "result": [
      {
        "electoralDistricts": [
          {
            "election": null,
            "id": 82,
            "name": "Oxford"
          }
        ],
        "pollDivisionIds": [
          10143216
        ],
        "postalCode": "N4G1W5",
        "streetName": "ELGIN",
        "streetDirectionId": null,
        "streetTypeId": "ST",
        "placeName": "TILLSONBURG",
        "streetNameDisplayText": "ELGIN ST, TILLSONBURG"
      }
    ]
  },
  {
    "postal": "N4G7G0",
    "result": []
  },
  {
    "postal": "N4G8J8",
    "result": []
  },
  {
    "postal": "N4G3Y0",
    "result": []
  },
  {
    "postal": "N4G9T7",
    "result": []
  },
  {
    "postal": "N4G5P4",
    "result": []
  },
  {
    "postal": "N4G4B0",
    "result": []
  },
  {
    "postal": "N4G9N8",
    "result": []
  },
  {
    "postal": "N4G4A7",
    "result": [
      {
        "electoralDistricts": [
          {
            "election": null,
            "id": 82,
            "name": "Oxford"
          }
        ],
        "pollDivisionIds": [
          10140917
        ],
        "postalCode": "N4G4A7",
        "streetName": "HURLEY",
        "streetDirectionId": null,
        "streetTypeId": "AVE",
        "placeName": "TILLSONBURG",
        "streetNameDisplayText": "HURLEY AVE, TILLSONBURG"
      }
    ]
  },
  {
    "postal": "N4G4H9",
    "result": []
  },
  {
    "postal": "N4G6X1",
    "result": []
  },
  {
    "postal": "N4G9Y7",
    "result": []
  },
  {
    "postal": "N4G2Y5",
    "result": [
      {
        "electoralDistricts": [
          {
            "election": null,
            "id": 82,
            "name": "Oxford"
          }
        ],
        "pollDivisionIds": [
          10143216
        ],
        "postalCode": "N4G2Y5",
        "streetName": "MAPLE",
        "streetDirectionId": null,
        "streetTypeId": "LANE",
        "placeName": "TILLSONBURG",
        "streetNameDisplayText": "MAPLE LANE, TILLSONBURG"
      }
    ]
  },
  {
    "postal": "N4G8L7",
    "result": []
  },
  {
    "postal": "N4G2A8",
    "result": [
      {
        "electoralDistricts": [
          {
            "election": null,
            "id": 82,
            "name": "Oxford"
          }
        ],
        "pollDivisionIds": [
          10140917
        ],
        "postalCode": "N4G2A8",
        "streetName": "DEREHAM",
        "streetDirectionId": null,
        "streetTypeId": "DR",
        "placeName": "TILLSONBURG",
        "streetNameDisplayText": "DEREHAM DR, TILLSONBURG"
      }
    ]
  },
  {
    "postal": "N4G2K9",
    "result": [
      {
        "electoralDistricts": [
          {
            "election": null,
            "id": 82,
            "name": "Oxford"
          }
        ],
        "pollDivisionIds": [
          10143216
        ],
        "postalCode": "N4G2K9",
        "streetName": "LONDON",
        "streetDirectionId": "E",
        "streetTypeId": "ST",
        "placeName": "TILLSONBURG",
        "streetNameDisplayText": "LONDON ST E, TILLSONBURG"
      }
    ]
  },
  {
    "postal": "N4G3E5",
    "result": [
      {
        "electoralDistricts": [
          {
            "election": null,
            "id": 82,
            "name": "Oxford"
          }
        ],
        "pollDivisionIds": [
          10143216
        ],
        "postalCode": "N4G3E5",
        "streetName": "KING",
        "streetDirectionId": null,
        "streetTypeId": "ST",
        "placeName": "TILLSONBURG",
        "streetNameDisplayText": "KING ST, TILLSONBURG"
      }
    ]
  },
  {
    "postal": "N4G8N6",
    "result": []
  },
  {
    "postal": "N4G8J4",
    "result": []
  },
  {
    "postal": "N4G4R7",
    "result": [
      {
        "electoralDistricts": [
          {
            "election": null,
            "id": 82,
            "name": "Oxford"
          }
        ],
        "pollDivisionIds": [
          10140918
        ],
        "postalCode": "N4G4R7",
        "streetName": "STONEY",
        "streetDirectionId": null,
        "streetTypeId": "CRT",
        "placeName": "TILLSONBURG",
        "streetNameDisplayText": "STONEY CRT, TILLSONBURG"
      }
    ]
  },
  {
    "postal": "N4G9K1",
    "result": []
  },
  {
    "postal": "N4G8E1",
    "result": []
  },
  {
    "postal": "N4G0R1",
    "result": []
  },
  {
    "postal": "N4G4J3",
    "result": [
      {
        "electoralDistricts": [
          {
            "election": null,
            "id": 82,
            "name": "Oxford"
          }
        ],
        "pollDivisionIds": [
          10140917
        ],
        "postalCode": "N4G4J3",
        "streetName": "HALE",
        "streetDirectionId": "W",
        "streetTypeId": "ST",
        "placeName": "TILLSONBURG",
        "streetNameDisplayText": "HALE ST W, TILLSONBURG"
      }
    ]
  },
  {
    "postal": "N4G7E7",
    "result": []
  },
  {
    "postal": "N4G0J0",
    "result": []
  },
  {
    "postal": "N4G7R8",
    "result": []
  },
  {
    "postal": "N4G9X0",
    "result": []
  },
  {
    "postal": "N4G7P6",
    "result": []
  },
  {
    "postal": "N4G0R7",
    "result": []
  },
  {
    "postal": "N4G5W1",
    "result": [
      {
        "electoralDistricts": [
          {
            "election": null,
            "id": 82,
            "name": "Oxford"
          }
        ],
        "pollDivisionIds": [
          10140915
        ],
        "postalCode": "N4G5W1",
        "streetName": "ALLEN",
        "streetDirectionId": null,
        "streetTypeId": "ST",
        "placeName": "TILLSONBURG",
        "streetNameDisplayText": "ALLEN ST, TILLSONBURG"
      },
      {
        "electoralDistricts": [
          {
            "election": null,
            "id": 82,
            "name": "Oxford"
          }
        ],
        "pollDivisionIds": [
          10140915
        ],
        "postalCode": "N4G5W1",
        "streetName": "GLENDALE",
        "streetDirectionId": null,
        "streetTypeId": "DR",
        "placeName": "TILLSONBURG",
        "streetNameDisplayText": "GLENDALE DR, TILLSONBURG"
      }
    ]
  },
  {
    "postal": "N4G0K4",
    "result": []
  },
  {
    "postal": "N4G7N9",
    "result": []
  },
  {
    "postal": "N4G1N0",
    "result": []
  },
  {
    "postal": "N4G6P3",
    "result": []
  },
  {
    "postal": "N4G5A1",
    "result": [
      {
        "electoralDistricts": [
          {
            "election": null,
            "id": 82,
            "name": "Oxford"
          }
        ],
        "pollDivisionIds": [
          10140917
        ],
        "postalCode": "N4G5A1",
        "streetName": "SEGAL",
        "streetDirectionId": null,
        "streetTypeId": "DR",
        "placeName": "TILLSONBURG",
        "streetNameDisplayText": "SEGAL DR, TILLSONBURG"
      }
    ]
  },
  {
    "postal": "N4G9M9",
    "result": []
  },
  {
    "postal": "N4G7T6",
    "result": []
  },
  {
    "postal": "N4G3X0",
    "result": []
  },
  {
    "postal": "N4G2T0",
    "result": []
  },
  {
    "postal": "N4G5X9",
    "result": [
      {
        "electoralDistricts": [
          {
            "election": null,
            "id": 82,
            "name": "Oxford"
          }
        ],
        "pollDivisionIds": [
          10143216
        ],
        "postalCode": "N4G5X9",
        "streetName": "NELSON",
        "streetDirectionId": null,
        "streetTypeId": "ST",
        "placeName": "TILLSONBURG",
        "streetNameDisplayText": "NELSON ST, TILLSONBURG"
      }
    ]
  },
  {
    "postal": "N4G2R3",
    "result": [
      {
        "electoralDistricts": [
          {
            "election": null,
            "id": 82,
            "name": "Oxford"
          }
        ],
        "pollDivisionIds": [
          10143216
        ],
        "postalCode": "N4G2R3",
        "streetName": "LINCOLN",
        "streetDirectionId": null,
        "streetTypeId": "ST",
        "placeName": "TILLSONBURG",
        "streetNameDisplayText": "LINCOLN ST, TILLSONBURG"
      }
    ]
  },
  {
    "postal": "N4G5N2",
    "result": [
      {
        "electoralDistricts": [
          {
            "election": null,
            "id": 82,
            "name": "Oxford"
          }
        ],
        "pollDivisionIds": [
          10143216
        ],
        "postalCode": "N4G5N2",
        "streetName": "BECKETT",
        "streetDirectionId": null,
        "streetTypeId": "BLVD",
        "placeName": "TILLSONBURG",
        "streetNameDisplayText": "BECKETT BLVD, TILLSONBURG"
      }
    ]
  },
  {
    "postal": "N4G4Y7",
    "result": [
      {
        "electoralDistricts": [
          {
            "election": null,
            "id": 82,
            "name": "Oxford"
          }
        ],
        "pollDivisionIds": [
          10140917
        ],
        "postalCode": "N4G4Y7",
        "streetName": "CLEAR VALLEY",
        "streetDirectionId": null,
        "streetTypeId": "DR",
        "placeName": "TILLSONBURG",
        "streetNameDisplayText": "CLEAR VALLEY DR, TILLSONBURG"
      }
    ]
  },
  {
    "postal": "N4G7M0",
    "result": []
  },
  {
    "postal": "N4G8P3",
    "result": []
  },
  {
    "postal": "N4G3N3",
    "result": []
  },
  {
    "postal": "N4G7S3",
    "result": []
  },
  {
    "postal": "N4G3V9",
    "result": [
      {
        "electoralDistricts": [
          {
            "election": null,
            "id": 82,
            "name": "Oxford"
          }
        ],
        "pollDivisionIds": [
          10140915
        ],
        "postalCode": "N4G3V9",
        "streetName": "BIDWELL",
        "streetDirectionId": null,
        "streetTypeId": "ST",
        "placeName": "TILLSONBURG",
        "streetNameDisplayText": "BIDWELL ST, TILLSONBURG"
      }
    ]
  },
  {
    "postal": "N4G9N7",
    "result": []
  },
  {
    "postal": "N4G0G4",
    "result": [
      {
        "electoralDistricts": [
          {
            "election": null,
            "id": 82,
            "name": "Oxford"
          }
        ],
        "pollDivisionIds": [
          10140915
        ],
        "postalCode": "N4G0G4",
        "streetName": "GLENDALE",
        "streetDirectionId": null,
        "streetTypeId": "DR",
        "placeName": "TILLSONBURG",
        "streetNameDisplayText": "GLENDALE DR, TILLSONBURG"
      },
      {
        "electoralDistricts": [
          {
            "election": null,
            "id": 82,
            "name": "Oxford"
          }
        ],
        "pollDivisionIds": [
          10140915
        ],
        "postalCode": "N4G0G4",
        "streetName": "MCGUIRE",
        "streetDirectionId": null,
        "streetTypeId": "CRES",
        "placeName": "TILLSONBURG",
        "streetNameDisplayText": "MCGUIRE CRES, TILLSONBURG"
      }
    ]
  },
  {
    "postal": "N4G2E2",
    "result": [
      {
        "electoralDistricts": [
          {
            "election": null,
            "id": 82,
            "name": "Oxford"
          }
        ],
        "pollDivisionIds": [
          10140917
        ],
        "postalCode": "N4G2E2",
        "streetName": "RIDOUT",
        "streetDirectionId": "W",
        "streetTypeId": "ST",
        "placeName": "TILLSONBURG",
        "streetNameDisplayText": "RIDOUT ST W, TILLSONBURG"
      }
    ]
  },
  {
    "postal": "N4G7W8",
    "result": []
  },
  {
    "postal": "N4G7M5",
    "result": []
  },
  {
    "postal": "N4G5W8",
    "result": [
      {
        "electoralDistricts": [
          {
            "election": null,
            "id": 82,
            "name": "Oxford"
          }
        ],
        "pollDivisionIds": [
          10143216
        ],
        "postalCode": "N4G5W8",
        "streetName": "ROUSE",
        "streetDirectionId": null,
        "streetTypeId": "ST",
        "placeName": "TILLSONBURG",
        "streetNameDisplayText": "ROUSE ST, TILLSONBURG"
      }
    ]
  },
  {
    "postal": "N4G5E5",
    "result": [
      {
        "electoralDistricts": [
          {
            "election": null,
            "id": 82,
            "name": "Oxford"
          }
        ],
        "pollDivisionIds": [
          10143216
        ],
        "postalCode": "N4G5E5",
        "streetName": "TILLSON",
        "streetDirectionId": null,
        "streetTypeId": "AVE",
        "placeName": "TILLSONBURG",
        "streetNameDisplayText": "TILLSON AVE, TILLSONBURG"
      }
    ]
  },
  {
    "postal": "N4G1P9",
    "result": [
      {
        "electoralDistricts": [
          {
            "election": null,
            "id": 82,
            "name": "Oxford"
          }
        ],
        "pollDivisionIds": [
          10143216
        ],
        "postalCode": "N4G1P9",
        "streetName": "CONCESSION",
        "streetDirectionId": "E",
        "streetTypeId": "ST",
        "placeName": "TILLSONBURG",
        "streetNameDisplayText": "CONCESSION ST E, TILLSONBURG"
      }
    ]
  },
  {
    "postal": "N4G8V8",
    "result": []
  },
  {
    "postal": "N4G9G8",
    "result": []
  },
  {
    "postal": "N4G8H9",
    "result": []
  },
  {
    "postal": "N4G1Z1",
    "result": [
      {
        "electoralDistricts": [
          {
            "election": null,
            "id": 82,
            "name": "Oxford"
          }
        ],
        "pollDivisionIds": [
          10140917
        ],
        "postalCode": "N4G1Z1",
        "streetName": "WASHINGTON GRAND",
        "streetDirectionId": null,
        "streetTypeId": "AVE",
        "placeName": "TILLSONBURG",
        "streetNameDisplayText": "WASHINGTON GRAND AVE, TILLSONBURG"
      }
    ]
  },
  {
    "postal": "N4G8M3",
    "result": []
  },
  {
    "postal": "N4G5H6",
    "result": [
      {
        "electoralDistricts": [
          {
            "election": null,
            "id": 82,
            "name": "Oxford"
          }
        ],
        "pollDivisionIds": [
          10140917
        ],
        "postalCode": "N4G5H6",
        "streetName": "EDWIN",
        "streetDirectionId": null,
        "streetTypeId": "CRES",
        "placeName": "TILLSONBURG",
        "streetNameDisplayText": "EDWIN CRES, TILLSONBURG"
      }
    ]
  },
  {
    "postal": "N4G7W7",
    "result": []
  },
  {
    "postal": "N4G4L0",
    "result": []
  },
  {
    "postal": "N4G2N1",
    "result": [
      {
        "electoralDistricts": [
          {
            "election": null,
            "id": 82,
            "name": "Oxford"
          }
        ],
        "pollDivisionIds": [
          10143216
        ],
        "postalCode": "N4G2N1",
        "streetName": "VERNA",
        "streetDirectionId": null,
        "streetTypeId": "DR",
        "placeName": "TILLSONBURG",
        "streetNameDisplayText": "VERNA DR, TILLSONBURG"
      }
    ]
  },
  {
    "postal": "N4G2H4",
    "result": [
      {
        "electoralDistricts": [
          {
            "election": null,
            "id": 82,
            "name": "Oxford"
          }
        ],
        "pollDivisionIds": [
          10143216
        ],
        "postalCode": "N4G2H4",
        "streetName": "SIMCOE",
        "streetDirectionId": null,
        "streetTypeId": "ST",
        "placeName": "TILLSONBURG",
        "streetNameDisplayText": "SIMCOE ST, TILLSONBURG"
      }
    ]
  },
  {
    "postal": "N4G5C8",
    "result": [
      {
        "electoralDistricts": [
          {
            "election": null,
            "id": 82,
            "name": "Oxford"
          }
        ],
        "pollDivisionIds": [
          10143216
        ],
        "postalCode": "N4G5C8",
        "streetName": "DEMEYERE",
        "streetDirectionId": null,
        "streetTypeId": "AVE",
        "placeName": "TILLSONBURG",
        "streetNameDisplayText": "DEMEYERE AVE, TILLSONBURG"
      }
    ]
  },
  {
    "postal": "N4G8B0",
    "result": []
  },
  {
    "postal": "N4G1T4",
    "result": [
      {
        "electoralDistricts": [
          {
            "election": null,
            "id": 82,
            "name": "Oxford"
          }
        ],
        "pollDivisionIds": [
          10143216
        ],
        "postalCode": "N4G1T4",
        "streetName": "BRIDGE",
        "streetDirectionId": "E",
        "streetTypeId": "ST",
        "placeName": "TILLSONBURG",
        "streetNameDisplayText": "BRIDGE ST E, TILLSONBURG"
      }
    ]
  },
  {
    "postal": "N4G7N7",
    "result": []
  },
  {
    "postal": "N4G4L3",
    "result": [
      {
        "electoralDistricts": [
          {
            "election": null,
            "id": 82,
            "name": "Oxford"
          }
        ],
        "pollDivisionIds": [
          10143216
        ],
        "postalCode": "N4G4L3",
        "streetName": "LISGAR",
        "streetDirectionId": null,
        "streetTypeId": "AVE",
        "placeName": "TILLSONBURG",
        "streetNameDisplayText": "LISGAR AVE, TILLSONBURG"
      }
    ]
  },
  {
    "postal": "N4G2N2",
    "result": [
      {
        "electoralDistricts": [
          {
            "election": null,
            "id": 82,
            "name": "Oxford"
          }
        ],
        "pollDivisionIds": [
          10143216
        ],
        "postalCode": "N4G2N2",
        "streetName": "GEORGE",
        "streetDirectionId": null,
        "streetTypeId": "ST",
        "placeName": "TILLSONBURG",
        "streetNameDisplayText": "GEORGE ST, TILLSONBURG"
      }
    ]
  },
  {
    "postal": "N4G4N8",
    "result": [
      {
        "electoralDistricts": [
          {
            "election": null,
            "id": 82,
            "name": "Oxford"
          }
        ],
        "pollDivisionIds": [
          10140917
        ],
        "postalCode": "N4G4N8",
        "streetName": "BETH",
        "streetDirectionId": null,
        "streetTypeId": "CRT",
        "placeName": "TILLSONBURG",
        "streetNameDisplayText": "BETH CRT, TILLSONBURG"
      }
    ]
  },
  {
    "postal": "N4G3M5",
    "result": [
      {
        "electoralDistricts": [
          {
            "election": null,
            "id": 82,
            "name": "Oxford"
          }
        ],
        "pollDivisionIds": [
          10143216
        ],
        "postalCode": "N4G3M5",
        "streetName": "FRANK",
        "streetDirectionId": null,
        "streetTypeId": "ST",
        "placeName": "TILLSONBURG",
        "streetNameDisplayText": "FRANK ST, TILLSONBURG"
      }
    ]
  },
  {
    "postal": "N4G6H7",
    "result": []
  },
  {
    "postal": "N4G8Y8",
    "result": []
  },
  {
    "postal": "N4G5R9",
    "result": [
      {
        "electoralDistricts": [
          {
            "election": null,
            "id": 82,
            "name": "Oxford"
          }
        ],
        "pollDivisionIds": [
          10140915
        ],
        "postalCode": "N4G5R9",
        "streetName": "BEECH",
        "streetDirectionId": null,
        "streetTypeId": "BLVD",
        "placeName": "TILLSONBURG",
        "streetNameDisplayText": "BEECH BLVD, TILLSONBURG"
      },
      {
        "electoralDistricts": [
          {
            "election": null,
            "id": 82,
            "name": "Oxford"
          }
        ],
        "pollDivisionIds": [
          10140915
        ],
        "postalCode": "N4G5R9",
        "streetName": "SYCAMORE",
        "streetDirectionId": null,
        "streetTypeId": "DR",
        "placeName": "TILLSONBURG",
        "streetNameDisplayText": "SYCAMORE DR, TILLSONBURG"
      },
      {
        "electoralDistricts": [
          {
            "election": null,
            "id": 82,
            "name": "Oxford"
          }
        ],
        "pollDivisionIds": [
          10140915
        ],
        "postalCode": "N4G5R9",
        "streetName": "WILLIAM",
        "streetDirectionId": null,
        "streetTypeId": "ST",
        "placeName": "TILLSONBURG",
        "streetNameDisplayText": "WILLIAM ST, TILLSONBURG"
      }
    ]
  },
  {
    "postal": "N4G8G3",
    "result": []
  },
  {
    "postal": "N4G4N7",
    "result": [
      {
        "electoralDistricts": [
          {
            "election": null,
            "id": 82,
            "name": "Oxford"
          }
        ],
        "pollDivisionIds": [
          10140917
        ],
        "postalCode": "N4G4N7",
        "streetName": "BETH",
        "streetDirectionId": null,
        "streetTypeId": "CRT",
        "placeName": "TILLSONBURG",
        "streetNameDisplayText": "BETH CRT, TILLSONBURG"
      }
    ]
  },
  {
    "postal": "N4G0B9",
    "result": [
      {
        "electoralDistricts": [
          {
            "election": null,
            "id": 82,
            "name": "Oxford"
          }
        ],
        "pollDivisionIds": [
          10143216
        ],
        "postalCode": "N4G0B9",
        "streetName": "JOHN POUND",
        "streetDirectionId": null,
        "streetTypeId": "RD",
        "placeName": "TILLSONBURG",
        "streetNameDisplayText": "JOHN POUND RD, TILLSONBURG"
      }
    ]
  },
  {
    "postal": "N4G9K7",
    "result": []
  },
  {
    "postal": "N4G9K9",
    "result": []
  },
  {
    "postal": "N4G3Z2",
    "result": []
  },
  {
    "postal": "N4G6W7",
    "result": []
  },
  {
    "postal": "N4G0P1",
    "result": []
  },
  {
    "postal": "N4G3A0",
    "result": []
  },
  {
    "postal": "N4G8L9",
    "result": []
  },
  {
    "postal": "N4G6X0",
    "result": []
  },
  {
    "postal": "N4G3E9",
    "result": []
  },
  {
    "postal": "N4G0S5",
    "result": []
  },
  {
    "postal": "N4G1A2",
    "result": [
      {
        "electoralDistricts": [
          {
            "election": null,
            "id": 82,
            "name": "Oxford"
          }
        ],
        "pollDivisionIds": [
          10140918
        ],
        "postalCode": "N4G1A2",
        "streetName": "FAIRVIEW",
        "streetDirectionId": null,
        "streetTypeId": "ST",
        "placeName": "TILLSONBURG",
        "streetNameDisplayText": "FAIRVIEW ST, TILLSONBURG"
      }
    ]
  },
  {
    "postal": "N4G5V8",
    "result": [
      {
        "electoralDistricts": [
          {
            "election": null,
            "id": 82,
            "name": "Oxford"
          }
        ],
        "pollDivisionIds": [
          10143216
        ],
        "postalCode": "N4G5V8",
        "streetName": "HARVEY",
        "streetDirectionId": null,
        "streetTypeId": "ST",
        "placeName": "TILLSONBURG",
        "streetNameDisplayText": "HARVEY ST, TILLSONBURG"
      }
    ]
  },
  {
    "postal": "N4G8C5",
    "result": []
  },
  {
    "postal": "N4G6N0",
    "result": []
  },
  {
    "postal": "N4G9E6",
    "result": []
  },
  {
    "postal": "N4G5J7",
    "result": [
      {
        "electoralDistricts": [
          {
            "election": null,
            "id": 82,
            "name": "Oxford"
          }
        ],
        "pollDivisionIds": [
          10140918
        ],
        "postalCode": "N4G5J7",
        "streetName": "QUARTER TOWN",
        "streetDirectionId": null,
        "streetTypeId": "LINE",
        "placeName": "TILLSONBURG",
        "streetNameDisplayText": "QUARTER TOWN LINE, TILLSONBURG"
      },
      {
        "electoralDistricts": [
          {
            "election": null,
            "id": 82,
            "name": "Oxford"
          }
        ],
        "pollDivisionIds": [
          10140918
        ],
        "postalCode": "N4G5J7",
        "streetName": "QUARTERLINE",
        "streetDirectionId": null,
        "streetTypeId": "RD",
        "placeName": "TILLSONBURG",
        "streetNameDisplayText": "QUARTERLINE RD, TILLSONBURG"
      }
    ]
  },
  {
    "postal": "N4G2R2",
    "result": [
      {
        "electoralDistricts": [
          {
            "election": null,
            "id": 82,
            "name": "Oxford"
          }
        ],
        "pollDivisionIds": [
          10143216
        ],
        "postalCode": "N4G2R2",
        "streetName": "LINCOLN",
        "streetDirectionId": null,
        "streetTypeId": "ST",
        "placeName": "TILLSONBURG",
        "streetNameDisplayText": "LINCOLN ST, TILLSONBURG"
      }
    ]
  },
  {
    "postal": "N4G0P5",
    "result": []
  },
  {
    "postal": "N4G5A7",
    "result": [
      {
        "electoralDistricts": [
          {
            "election": null,
            "id": 82,
            "name": "Oxford"
          }
        ],
        "pollDivisionIds": [
          10140917
        ],
        "postalCode": "N4G5A7",
        "streetName": "BROADWAY",
        "streetDirectionId": null,
        "streetTypeId": "ST",
        "placeName": "TILLSONBURG",
        "streetNameDisplayText": "BROADWAY ST, TILLSONBURG"
      }
    ]
  },
  {
    "postal": "N4G1G1",
    "result": [
      {
        "electoralDistricts": [
          {
            "election": null,
            "id": 82,
            "name": "Oxford"
          }
        ],
        "pollDivisionIds": [
          10143216
        ],
        "postalCode": "N4G1G1",
        "streetName": "RODGER",
        "streetDirectionId": null,
        "streetTypeId": "ST",
        "placeName": "TILLSONBURG",
        "streetNameDisplayText": "RODGER ST, TILLSONBURG"
      },
      {
        "electoralDistricts": [
          {
            "election": null,
            "id": 82,
            "name": "Oxford"
          }
        ],
        "pollDivisionIds": [
          10143216
        ],
        "postalCode": "N4G1G1",
        "streetName": "RODGERS",
        "streetDirectionId": null,
        "streetTypeId": "ST",
        "placeName": "TILLSONBURG",
        "streetNameDisplayText": "RODGERS ST, TILLSONBURG"
      }
    ]
  },
  {
    "postal": "N4G9R6",
    "result": []
  },
  {
    "postal": "N4G4Z9",
    "result": [
      {
        "electoralDistricts": [
          {
            "election": null,
            "id": 82,
            "name": "Oxford"
          }
        ],
        "pollDivisionIds": [
          10143216
        ],
        "postalCode": "N4G4Z9",
        "streetName": "LORRAINE",
        "streetDirectionId": null,
        "streetTypeId": "AVE",
        "placeName": "TILLSONBURG",
        "streetNameDisplayText": "LORRAINE AVE, TILLSONBURG"
      }
    ]
  },
  {
    "postal": "N4G1V5",
    "result": [
      {
        "electoralDistricts": [
          {
            "election": null,
            "id": 82,
            "name": "Oxford"
          }
        ],
        "pollDivisionIds": [
          10140915
        ],
        "postalCode": "N4G1V5",
        "streetName": "BEAR",
        "streetDirectionId": null,
        "streetTypeId": "ST",
        "placeName": "TILLSONBURG",
        "streetNameDisplayText": "BEAR ST, TILLSONBURG"
      }
    ]
  },
  {
    "postal": "N4G9Y5",
    "result": []
  },
  {
    "postal": "N4G1P2",
    "result": [
      {
        "electoralDistricts": [
          {
            "election": null,
            "id": 82,
            "name": "Oxford"
          }
        ],
        "pollDivisionIds": [
          10140915
        ],
        "postalCode": "N4G1P2",
        "streetName": "CONCESSION",
        "streetDirectionId": "E",
        "streetTypeId": "ST",
        "placeName": "TILLSONBURG",
        "streetNameDisplayText": "CONCESSION ST E, TILLSONBURG"
      }
    ]
  },
  {
    "postal": "N4G5X0",
    "result": []
  },
  {
    "postal": "N4G7B8",
    "result": []
  },
  {
    "postal": "N4G0C6",
    "result": [
      {
        "electoralDistricts": [
          {
            "election": null,
            "id": 82,
            "name": "Oxford"
          }
        ],
        "pollDivisionIds": [
          10140917
        ],
        "postalCode": "N4G0C6",
        "streetName": "TRAILVIEW",
        "streetDirectionId": null,
        "streetTypeId": "DR",
        "placeName": "TILLSONBURG",
        "streetNameDisplayText": "TRAILVIEW DR, TILLSONBURG"
      }
    ]
  },
  {
    "postal": "N4G6G1",
    "result": []
  },
  {
    "postal": "N4G3K3",
    "result": []
  },
  {
    "postal": "N4G9R0",
    "result": []
  },
  {
    "postal": "N4G4R8",
    "result": []
  },
  {
    "postal": "N4G5P9",
    "result": [
      {
        "electoralDistricts": [
          {
            "election": null,
            "id": 82,
            "name": "Oxford"
          }
        ],
        "pollDivisionIds": [
          10140918
        ],
        "postalCode": "N4G5P9",
        "streetName": "WOODSIDE",
        "streetDirectionId": null,
        "streetTypeId": "DR",
        "placeName": "TILLSONBURG",
        "streetNameDisplayText": "WOODSIDE DR, TILLSONBURG"
      }
    ]
  },
  {
    "postal": "N4G8N4",
    "result": []
  },
  {
    "postal": "N4G8H4",
    "result": []
  },
  {
    "postal": "N4G4V1",
    "result": [
      {
        "electoralDistricts": [
          {
            "election": null,
            "id": 82,
            "name": "Oxford"
          }
        ],
        "pollDivisionIds": [
          10143216
        ],
        "postalCode": "N4G4V1",
        "streetName": "HERFORD",
        "streetDirectionId": null,
        "streetTypeId": "ST",
        "placeName": "TILLSONBURG",
        "streetNameDisplayText": "HERFORD ST, TILLSONBURG"
      }
    ]
  },
  {
    "postal": "N4G1K5",
    "result": [
      {
        "electoralDistricts": [
          {
            "election": null,
            "id": 82,
            "name": "Oxford"
          }
        ],
        "pollDivisionIds": [
          10143216
        ],
        "postalCode": "N4G1K5",
        "streetName": "THIRD",
        "streetDirectionId": null,
        "streetTypeId": "ST",
        "placeName": "TILLSONBURG",
        "streetNameDisplayText": "THIRD ST, TILLSONBURG"
      }
    ]
  },
  {
    "postal": "N4G1Z5",
    "result": [
      {
        "electoralDistricts": [
          {
            "election": null,
            "id": 82,
            "name": "Oxford"
          }
        ],
        "pollDivisionIds": [
          10143216
        ],
        "postalCode": "N4G1Z5",
        "streetName": "BROCK",
        "streetDirectionId": "E",
        "streetTypeId": "ST",
        "placeName": "TILLSONBURG",
        "streetNameDisplayText": "BROCK ST E, TILLSONBURG"
      }
    ]
  },
  {
    "postal": "N4G9L9",
    "result": []
  },
  {
    "postal": "N4G5L2",
    "result": [
      {
        "electoralDistricts": [
          {
            "election": null,
            "id": 82,
            "name": "Oxford"
          }
        ],
        "pollDivisionIds": [
          10140915
        ],
        "postalCode": "N4G5L2",
        "streetName": "FERNWOOD",
        "streetDirectionId": null,
        "streetTypeId": "DR",
        "placeName": "TILLSONBURG",
        "streetNameDisplayText": "FERNWOOD DR, TILLSONBURG"
      }
    ]
  },
  {
    "postal": "N4G0M2",
    "result": []
  },
  {
    "postal": "N4G1K8",
    "result": [
      {
        "electoralDistricts": [
          {
            "election": null,
            "id": 82,
            "name": "Oxford"
          }
        ],
        "pollDivisionIds": [
          10143216
        ],
        "postalCode": "N4G1K8",
        "streetName": "JOHN",
        "streetDirectionId": null,
        "streetTypeId": "ST",
        "placeName": "TILLSONBURG",
        "streetNameDisplayText": "JOHN ST, TILLSONBURG"
      }
    ]
  },
  {
    "postal": "N4G3M7",
    "result": [
      {
        "electoralDistricts": [
          {
            "election": null,
            "id": 82,
            "name": "Oxford"
          }
        ],
        "pollDivisionIds": [
          10143216
        ],
        "postalCode": "N4G3M7",
        "streetName": "DELEVAN",
        "streetDirectionId": null,
        "streetTypeId": "CRES",
        "placeName": "TILLSONBURG",
        "streetNameDisplayText": "DELEVAN CRES, TILLSONBURG"
      }
    ]
  },
  {
    "postal": "N4G1B2",
    "result": [
      {
        "electoralDistricts": [
          {
            "election": null,
            "id": 82,
            "name": "Oxford"
          }
        ],
        "pollDivisionIds": [
          10140918
        ],
        "postalCode": "N4G1B2",
        "streetName": "NORTH",
        "streetDirectionId": "E",
        "streetTypeId": "ST",
        "placeName": "TILLSONBURG",
        "streetNameDisplayText": "NORTH ST E, TILLSONBURG"
      }
    ]
  },
  {
    "postal": "N4G0H9",
    "result": []
  },
  {
    "postal": "N4G8M4",
    "result": []
  },
  {
    "postal": "N4G2M5",
    "result": [
      {
        "electoralDistricts": [
          {
            "election": null,
            "id": 82,
            "name": "Oxford"
          }
        ],
        "pollDivisionIds": [
          10143216
        ],
        "postalCode": "N4G2M5",
        "streetName": "EARLE",
        "streetDirectionId": null,
        "streetTypeId": "ST",
        "placeName": "TILLSONBURG",
        "streetNameDisplayText": "EARLE ST, TILLSONBURG"
      }
    ]
  },
  {
    "postal": "N4G0T9",
    "result": []
  },
  {
    "postal": "N4G3P1",
    "result": [
      {
        "electoralDistricts": [
          {
            "election": null,
            "id": 82,
            "name": "Oxford"
          }
        ],
        "pollDivisionIds": [
          10143216
        ],
        "postalCode": "N4G3P1",
        "streetName": "BROADWAY",
        "streetDirectionId": null,
        "streetTypeId": "ST",
        "placeName": "TILLSONBURG",
        "streetNameDisplayText": "BROADWAY ST, TILLSONBURG"
      }
    ]
  },
  {
    "postal": "N4G1R6",
    "result": [
      {
        "electoralDistricts": [
          {
            "election": null,
            "id": 82,
            "name": "Oxford"
          }
        ],
        "pollDivisionIds": [
          10140917
        ],
        "postalCode": "N4G1R6",
        "streetName": "CONCESSION",
        "streetDirectionId": "W",
        "streetTypeId": "ST",
        "placeName": "TILLSONBURG",
        "streetNameDisplayText": "CONCESSION ST W, TILLSONBURG"
      }
    ]
  },
  {
    "postal": "N4G9V5",
    "result": []
  },
  {
    "postal": "N4G9T0",
    "result": []
  },
  {
    "postal": "N4G0A9",
    "result": []
  },
  {
    "postal": "N4G1M3",
    "result": [
      {
        "electoralDistricts": [
          {
            "election": null,
            "id": 82,
            "name": "Oxford"
          }
        ],
        "pollDivisionIds": [
          10140915
        ],
        "postalCode": "N4G1M3",
        "streetName": "NORTHVIEW",
        "streetDirectionId": null,
        "streetTypeId": "DR",
        "placeName": "TILLSONBURG",
        "streetNameDisplayText": "NORTHVIEW DR, TILLSONBURG"
      }
    ]
  },
  {
    "postal": "N4G1W8",
    "result": []
  },
  {
    "postal": "N4G9J1",
    "result": []
  },
  {
    "postal": "N4G8N5",
    "result": []
  },
  {
    "postal": "N4G5X1",
    "result": [
      {
        "electoralDistricts": [
          {
            "election": null,
            "id": 82,
            "name": "Oxford"
          }
        ],
        "pollDivisionIds": [
          10140917
        ],
        "postalCode": "N4G5X1",
        "streetName": "HOGARTH",
        "streetDirectionId": null,
        "streetTypeId": "DR",
        "placeName": "TILLSONBURG",
        "streetNameDisplayText": "HOGARTH DR, TILLSONBURG"
      },
      {
        "electoralDistricts": [
          {
            "election": null,
            "id": 82,
            "name": "Oxford"
          }
        ],
        "pollDivisionIds": [
          10140917
        ],
        "postalCode": "N4G5X1",
        "streetName": "WESTON",
        "streetDirectionId": null,
        "streetTypeId": "DR",
        "placeName": "TILLSONBURG",
        "streetNameDisplayText": "WESTON DR, TILLSONBURG"
      }
    ]
  },
  {
    "postal": "N4G6S2",
    "result": []
  },
  {
    "postal": "N4G2A2",
    "result": [
      {
        "electoralDistricts": [
          {
            "election": null,
            "id": 82,
            "name": "Oxford"
          }
        ],
        "pollDivisionIds": [
          10140917
        ],
        "postalCode": "N4G2A2",
        "streetName": "BROCK",
        "streetDirectionId": "W",
        "streetTypeId": "ST",
        "placeName": "TILLSONBURG",
        "streetNameDisplayText": "BROCK ST W, TILLSONBURG"
      }
    ]
  },
  {
    "postal": "N4G6A6",
    "result": []
  },
  {
    "postal": "N4G0S3",
    "result": []
  },
  {
    "postal": "N4G3E7",
    "result": [
      {
        "electoralDistricts": [
          {
            "election": null,
            "id": 82,
            "name": "Oxford"
          }
        ],
        "pollDivisionIds": [
          10143216
        ],
        "postalCode": "N4G3E7",
        "streetName": "KING",
        "streetDirectionId": null,
        "streetTypeId": "ST",
        "placeName": "TILLSONBURG",
        "streetNameDisplayText": "KING ST, TILLSONBURG"
      }
    ]
  },
  {
    "postal": "N4G5R7",
    "result": [
      {
        "electoralDistricts": [
          {
            "election": null,
            "id": 82,
            "name": "Oxford"
          }
        ],
        "pollDivisionIds": [
          10140915
        ],
        "postalCode": "N4G5R7",
        "streetName": "BEECH",
        "streetDirectionId": null,
        "streetTypeId": "BLVD",
        "placeName": "TILLSONBURG",
        "streetNameDisplayText": "BEECH BLVD, TILLSONBURG"
      },
      {
        "electoralDistricts": [
          {
            "election": null,
            "id": 82,
            "name": "Oxford"
          }
        ],
        "pollDivisionIds": [
          10140915
        ],
        "postalCode": "N4G5R7",
        "streetName": "CATALPA",
        "streetDirectionId": null,
        "streetTypeId": "CRT",
        "placeName": "TILLSONBURG",
        "streetNameDisplayText": "CATALPA CRT, TILLSONBURG"
      }
    ]
  },
  {
    "postal": "N4G3R6",
    "result": [
      {
        "electoralDistricts": [
          {
            "election": null,
            "id": 82,
            "name": "Oxford"
          }
        ],
        "pollDivisionIds": [
          10140917
        ],
        "postalCode": "N4G3R6",
        "streetName": "BROADWAY",
        "streetDirectionId": null,
        "streetTypeId": "ST",
        "placeName": "TILLSONBURG",
        "streetNameDisplayText": "BROADWAY ST, TILLSONBURG"
      }
    ]
  },
  {
    "postal": "N4G6K4",
    "result": []
  },
  {
    "postal": "N4G2W5",
    "result": [
      {
        "electoralDistricts": [
          {
            "election": null,
            "id": 82,
            "name": "Oxford"
          }
        ],
        "pollDivisionIds": [
          10143216
        ],
        "postalCode": "N4G2W5",
        "streetName": "BALL",
        "streetDirectionId": null,
        "streetTypeId": "ST",
        "placeName": "TILLSONBURG",
        "streetNameDisplayText": "BALL ST, TILLSONBURG"
      }
    ]
  },
  {
    "postal": "N4G8W4",
    "result": []
  },
  {
    "postal": "N4G9C2",
    "result": []
  },
  {
    "postal": "N4G2C0",
    "result": []
  },
  {
    "postal": "N4G0E1",
    "result": []
  },
  {
    "postal": "N4G1K9",
    "result": [
      {
        "electoralDistricts": [
          {
            "election": null,
            "id": 82,
            "name": "Oxford"
          }
        ],
        "pollDivisionIds": [
          10143216
        ],
        "postalCode": "N4G1K9",
        "streetName": "JOHN",
        "streetDirectionId": null,
        "streetTypeId": "ST",
        "placeName": "TILLSONBURG",
        "streetNameDisplayText": "JOHN ST, TILLSONBURG"
      }
    ]
  },
  {
    "postal": "N4G1G7",
    "result": [
      {
        "electoralDistricts": [
          {
            "election": null,
            "id": 82,
            "name": "Oxford"
          }
        ],
        "pollDivisionIds": [
          10143216
        ],
        "postalCode": "N4G1G7",
        "streetName": "FOURTH",
        "streetDirectionId": null,
        "streetTypeId": "ST",
        "placeName": "TILLSONBURG",
        "streetNameDisplayText": "FOURTH ST, TILLSONBURG"
      }
    ]
  },
  {
    "postal": "N4G4E9",
    "result": [
      {
        "electoralDistricts": [
          {
            "election": null,
            "id": 82,
            "name": "Oxford"
          }
        ],
        "pollDivisionIds": [
          10140918
        ],
        "postalCode": "N4G4E9",
        "streetName": "QUARTER TOWN",
        "streetDirectionId": null,
        "streetTypeId": "LINE",
        "placeName": "TILLSONBURG",
        "streetNameDisplayText": "QUARTER TOWN LINE, TILLSONBURG"
      }
    ]
  },
  {
    "postal": "N4G9P0",
    "result": []
  },
  {
    "postal": "N4G5H3",
    "result": [
      {
        "electoralDistricts": [
          {
            "election": null,
            "id": 82,
            "name": "Oxford"
          }
        ],
        "pollDivisionIds": [
          10140917
        ],
        "postalCode": "N4G5H3",
        "streetName": "EDWIN",
        "streetDirectionId": null,
        "streetTypeId": "CRES",
        "placeName": "TILLSONBURG",
        "streetNameDisplayText": "EDWIN CRES, TILLSONBURG"
      },
      {
        "electoralDistricts": [
          {
            "election": null,
            "id": 82,
            "name": "Oxford"
          }
        ],
        "pollDivisionIds": [
          10140917
        ],
        "postalCode": "N4G5H3",
        "streetName": "WILSON",
        "streetDirectionId": null,
        "streetTypeId": "AVE",
        "placeName": "TILLSONBURG",
        "streetNameDisplayText": "WILSON AVE, TILLSONBURG"
      }
    ]
  },
  {
    "postal": "N4G9X6",
    "result": []
  },
  {
    "postal": "N4G5N7",
    "result": [
      {
        "electoralDistricts": [
          {
            "election": null,
            "id": 82,
            "name": "Oxford"
          }
        ],
        "pollDivisionIds": [
          10143216
        ],
        "postalCode": "N4G5N7",
        "streetName": "BARKER",
        "streetDirectionId": null,
        "streetTypeId": "ST",
        "placeName": "TILLSONBURG",
        "streetNameDisplayText": "BARKER ST, TILLSONBURG"
      }
    ]
  },
  {
    "postal": "N4G5A6",
    "result": [
      {
        "electoralDistricts": [
          {
            "election": null,
            "id": 82,
            "name": "Oxford"
          }
        ],
        "pollDivisionIds": [
          10143216
        ],
        "postalCode": "N4G5A6",
        "streetName": "PARKWOOD",
        "streetDirectionId": null,
        "streetTypeId": "DR",
        "placeName": "TILLSONBURG",
        "streetNameDisplayText": "PARKWOOD DR, TILLSONBURG"
      }
    ]
  },
  {
    "postal": "N4G4M0",
    "result": []
  },
  {
    "postal": "N4G3V6",
    "result": [
      {
        "electoralDistricts": [
          {
            "election": null,
            "id": 82,
            "name": "Oxford"
          }
        ],
        "pollDivisionIds": [
          10140917
        ],
        "postalCode": "N4G3V6",
        "streetName": "BIDWELL",
        "streetDirectionId": null,
        "streetTypeId": "ST",
        "placeName": "TILLSONBURG",
        "streetNameDisplayText": "BIDWELL ST, TILLSONBURG"
      }
    ]
  },
  {
    "postal": "N4G1L7",
    "result": [
      {
        "electoralDistricts": [
          {
            "election": null,
            "id": 82,
            "name": "Oxford"
          }
        ],
        "pollDivisionIds": [
          10140915
        ],
        "postalCode": "N4G1L7",
        "streetName": "WILLIAM",
        "streetDirectionId": null,
        "streetTypeId": "ST",
        "placeName": "TILLSONBURG",
        "streetNameDisplayText": "WILLIAM ST, TILLSONBURG"
      }
    ]
  },
  {
    "postal": "N4G2P9",
    "result": [
      {
        "electoralDistricts": [
          {
            "election": null,
            "id": 82,
            "name": "Oxford"
          }
        ],
        "pollDivisionIds": [
          10143216
        ],
        "postalCode": "N4G2P9",
        "streetName": "LINCOLN",
        "streetDirectionId": null,
        "streetTypeId": "ST",
        "placeName": "TILLSONBURG",
        "streetNameDisplayText": "LINCOLN ST, TILLSONBURG"
      }
    ]
  },
  {
    "postal": "N4G5T4",
    "result": [
      {
        "electoralDistricts": [
          {
            "election": null,
            "id": 82,
            "name": "Oxford"
          }
        ],
        "pollDivisionIds": [
          10140918
        ],
        "postalCode": "N4G5T4",
        "streetName": "HILLDROP",
        "streetDirectionId": null,
        "streetTypeId": "CRES",
        "placeName": "TILLSONBURG",
        "streetNameDisplayText": "HILLDROP CRES, TILLSONBURG"
      }
    ]
  },
  {
    "postal": "N4G5Z1",
    "result": []
  },
  {
    "postal": "N4G2X0",
    "result": []
  },
  {
    "postal": "N4G6Z2",
    "result": []
  },
  {
    "postal": "N4G0E0",
    "result": []
  },
  {
    "postal": "N4G3Z5",
    "result": [
      {
        "electoralDistricts": [
          {
            "election": null,
            "id": 82,
            "name": "Oxford"
          }
        ],
        "pollDivisionIds": [
          10140915
        ],
        "postalCode": "N4G3Z5",
        "streetName": "VICTORIA",
        "streetDirectionId": null,
        "streetTypeId": "ST",
        "placeName": "TILLSONBURG",
        "streetNameDisplayText": "VICTORIA ST, TILLSONBURG"
      }
    ]
  },
  {
    "postal": "N4G8H3",
    "result": []
  },
  {
    "postal": "N4G7S6",
    "result": []
  },
  {
    "postal": "N4G4C1",
    "result": [
      {
        "electoralDistricts": [
          {
            "election": null,
            "id": 82,
            "name": "Oxford"
          }
        ],
        "pollDivisionIds": [
          10140917
        ],
        "postalCode": "N4G4C1",
        "streetName": "CHARLOTTE",
        "streetDirectionId": null,
        "streetTypeId": "AVE",
        "placeName": "TILLSONBURG",
        "streetNameDisplayText": "CHARLOTTE AVE, TILLSONBURG"
      }
    ]
  },
  {
    "postal": "N4G3K2",
    "result": []
  },
  {
    "postal": "N4G1Y5",
    "result": [
      {
        "electoralDistricts": [
          {
            "election": null,
            "id": 82,
            "name": "Oxford"
          }
        ],
        "pollDivisionIds": [
          10140917
        ],
        "postalCode": "N4G1Y5",
        "streetName": "WASHINGTON GRAND",
        "streetDirectionId": null,
        "streetTypeId": "AVE",
        "placeName": "TILLSONBURG",
        "streetNameDisplayText": "WASHINGTON GRAND AVE, TILLSONBURG"
      }
    ]
  },
  {
    "postal": "N4G6P6",
    "result": []
  },
  {
    "postal": "N4G3N9",
    "result": [
      {
        "electoralDistricts": [
          {
            "election": null,
            "id": 82,
            "name": "Oxford"
          }
        ],
        "pollDivisionIds": [
          10143216
        ],
        "postalCode": "N4G3N9",
        "streetName": "BROADWAY",
        "streetDirectionId": null,
        "streetTypeId": "ST",
        "placeName": "TILLSONBURG",
        "streetNameDisplayText": "BROADWAY ST, TILLSONBURG"
      }
    ]
  },
  {
    "postal": "N4G3W2",
    "result": [
      {
        "electoralDistricts": [
          {
            "election": null,
            "id": 82,
            "name": "Oxford"
          }
        ],
        "pollDivisionIds": [
          10140915
        ],
        "postalCode": "N4G3W2",
        "streetName": "BIDWELL",
        "streetDirectionId": null,
        "streetTypeId": "ST",
        "placeName": "TILLSONBURG",
        "streetNameDisplayText": "BIDWELL ST, TILLSONBURG"
      }
    ]
  },
  {
    "postal": "N4G6H8",
    "result": []
  },
  {
    "postal": "N4G9T3",
    "result": []
  },
  {
    "postal": "N4G5L9",
    "result": [
      {
        "electoralDistricts": [
          {
            "election": null,
            "id": 82,
            "name": "Oxford"
          }
        ],
        "pollDivisionIds": [
          10140917
        ],
        "postalCode": "N4G5L9",
        "streetName": "BRIDLE",
        "streetDirectionId": null,
        "streetTypeId": "PATH",
        "placeName": "TILLSONBURG",
        "streetNameDisplayText": "BRIDLE PATH, TILLSONBURG"
      }
    ]
  },
  {
    "postal": "N4G7X7",
    "result": []
  },
  {
    "postal": "N4G3J5",
    "result": []
  },
  {
    "postal": "N4G4J5",
    "result": [
      {
        "electoralDistricts": [
          {
            "election": null,
            "id": 82,
            "name": "Oxford"
          }
        ],
        "pollDivisionIds": [
          10140915
        ],
        "postalCode": "N4G4J5",
        "streetName": "ANDOVER",
        "streetDirectionId": null,
        "streetTypeId": "AVE",
        "placeName": "TILLSONBURG",
        "streetNameDisplayText": "ANDOVER AVE, TILLSONBURG"
      }
    ]
  },
  {
    "postal": "N4G6J2",
    "result": []
  },
  {
    "postal": "N4G5V6",
    "result": [
      {
        "electoralDistricts": [
          {
            "election": null,
            "id": 82,
            "name": "Oxford"
          }
        ],
        "pollDivisionIds": [
          10140915
        ],
        "postalCode": "N4G5V6",
        "streetName": "BIRDYWAY",
        "streetDirectionId": null,
        "streetTypeId": "DR",
        "placeName": "TILLSONBURG",
        "streetNameDisplayText": "BIRDYWAY DR, TILLSONBURG"
      },
      {
        "electoralDistricts": [
          {
            "election": null,
            "id": 82,
            "name": "Oxford"
          }
        ],
        "pollDivisionIds": [
          10140915
        ],
        "postalCode": "N4G5V6",
        "streetName": "FAIRWAY HILLS",
        "streetDirectionId": null,
        "streetTypeId": "BLVD",
        "placeName": "TILLSONBURG",
        "streetNameDisplayText": "FAIRWAY HILLS BLVD, TILLSONBURG"
      },
      {
        "electoralDistricts": [
          {
            "election": null,
            "id": 82,
            "name": "Oxford"
          }
        ],
        "pollDivisionIds": [
          10140915
        ],
        "postalCode": "N4G5V6",
        "streetName": "GREENEAGLE",
        "streetDirectionId": null,
        "streetTypeId": "DR",
        "placeName": "TILLSONBURG",
        "streetNameDisplayText": "GREENEAGLE DR, TILLSONBURG"
      }
    ]
  },
  {
    "postal": "N4G3N2",
    "result": []
  },
  {
    "postal": "N4G3B1",
    "result": [
      {
        "electoralDistricts": [
          {
            "election": null,
            "id": 82,
            "name": "Oxford"
          }
        ],
        "pollDivisionIds": [
          10143216
        ],
        "postalCode": "N4G3B1",
        "streetName": "TILLSON",
        "streetDirectionId": null,
        "streetTypeId": "AVE",
        "placeName": "TILLSONBURG",
        "streetNameDisplayText": "TILLSON AVE, TILLSONBURG"
      }
    ]
  },
  {
    "postal": "N4G8B5",
    "result": []
  },
  {
    "postal": "N4G0K1",
    "result": []
  },
  {
    "postal": "N4G7M7",
    "result": []
  },
  {
    "postal": "N4G2M2",
    "result": [
      {
        "electoralDistricts": [
          {
            "election": null,
            "id": 82,
            "name": "Oxford"
          }
        ],
        "pollDivisionIds": [
          10143216
        ],
        "postalCode": "N4G2M2",
        "streetName": "EARLE",
        "streetDirectionId": null,
        "streetTypeId": "ST",
        "placeName": "TILLSONBURG",
        "streetNameDisplayText": "EARLE ST, TILLSONBURG"
      }
    ]
  },
  {
    "postal": "N4G9N3",
    "result": []
  },
  {
    "postal": "N4G4Y8",
    "result": [
      {
        "electoralDistricts": [
          {
            "election": null,
            "id": 82,
            "name": "Oxford"
          }
        ],
        "pollDivisionIds": [
          10140915
        ],
        "postalCode": "N4G4Y8",
        "streetName": "FERNWOOD",
        "streetDirectionId": null,
        "streetTypeId": "DR",
        "placeName": "TILLSONBURG",
        "streetNameDisplayText": "FERNWOOD DR, TILLSONBURG"
      }
    ]
  },
  {
    "postal": "N4G3V7",
    "result": [
      {
        "electoralDistricts": [
          {
            "election": null,
            "id": 82,
            "name": "Oxford"
          }
        ],
        "pollDivisionIds": [
          10140917
        ],
        "postalCode": "N4G3V7",
        "streetName": "BIDWELL",
        "streetDirectionId": null,
        "streetTypeId": "ST",
        "placeName": "TILLSONBURG",
        "streetNameDisplayText": "BIDWELL ST, TILLSONBURG"
      }
    ]
  },
  {
    "postal": "N4G8Z1",
    "result": []
  },
  {
    "postal": "N4G7B3",
    "result": []
  },
  {
    "postal": "N4G3A8",
    "result": [
      {
        "electoralDistricts": [
          {
            "election": null,
            "id": 82,
            "name": "Oxford"
          }
        ],
        "pollDivisionIds": [
          10143216
        ],
        "postalCode": "N4G3A8",
        "streetName": "TILLSON",
        "streetDirectionId": null,
        "streetTypeId": "AVE",
        "placeName": "TILLSONBURG",
        "streetNameDisplayText": "TILLSON AVE, TILLSONBURG"
      }
    ]
  },
  {
    "postal": "N4G7V5",
    "result": []
  },
  {
    "postal": "N4G2T2",
    "result": [
      {
        "electoralDistricts": [
          {
            "election": null,
            "id": 34,
            "name": "Haldimand—Norfolk"
          }
        ],
        "pollDivisionIds": [
          10138452
        ],
        "postalCode": "N4G2T2",
        "streetName": "3RD CONCESSION RD NTR",
        "streetDirectionId": null,
        "streetTypeId": "RD",
        "placeName": "TILLSONBURG",
        "streetNameDisplayText": "3RD CONCESSION RD NTR RD, TILLSONBURG"
      },
      {
        "electoralDistricts": [
          {
            "election": null,
            "id": 34,
            "name": "Haldimand—Norfolk"
          }
        ],
        "pollDivisionIds": [
          10138452
        ],
        "postalCode": "N4G2T2",
        "streetName": "3RD CONCESSION ROAD N.T.R.",
        "streetDirectionId": null,
        "streetTypeId": "RD",
        "placeName": "TILLSONBURG",
        "streetNameDisplayText": "3RD CONCESSION ROAD N.T.R. RD, TILLSONBURG"
      }
    ]
  },
  {
    "postal": "N4G6L3",
    "result": []
  },
  {
    "postal": "N4G0L2",
    "result": []
  },
  {
    "postal": "N4G5Y8",
    "result": []
  },
  {
    "postal": "N4G0B8",
    "result": [
      {
        "electoralDistricts": [
          {
            "election": null,
            "id": 82,
            "name": "Oxford"
          }
        ],
        "pollDivisionIds": [
          10140918,
          10140915
        ],
        "postalCode": "N4G0B8",
        "streetName": "PARK",
        "streetDirectionId": null,
        "streetTypeId": "PL",
        "placeName": "TILLSONBURG",
        "streetNameDisplayText": "PARK PL, TILLSONBURG"
      }
    ]
  },
  {
    "postal": "N4G6R5",
    "result": []
  },
  {
    "postal": "N4G8W6",
    "result": []
  },
  {
    "postal": "N4G8G6",
    "result": []
  },
  {
    "postal": "N4G6X3",
    "result": []
  },
  {
    "postal": "N4G7R7",
    "result": []
  },
  {
    "postal": "N4G4B6",
    "result": [
      {
        "electoralDistricts": [
          {
            "election": null,
            "id": 82,
            "name": "Oxford"
          }
        ],
        "pollDivisionIds": [
          10140917
        ],
        "postalCode": "N4G4B6",
        "streetName": "LADY",
        "streetDirectionId": null,
        "streetTypeId": "AVE",
        "placeName": "TILLSONBURG",
        "streetNameDisplayText": "LADY AVE, TILLSONBURG"
      }
    ]
  },
  {
    "postal": "N4G3P9",
    "result": [
      {
        "electoralDistricts": [
          {
            "election": null,
            "id": 82,
            "name": "Oxford"
          }
        ],
        "pollDivisionIds": [
          10140917
        ],
        "postalCode": "N4G3P9",
        "streetName": "BROADWAY",
        "streetDirectionId": null,
        "streetTypeId": "ST",
        "placeName": "TILLSONBURG",
        "streetNameDisplayText": "BROADWAY ST, TILLSONBURG"
      }
    ]
  },
  {
    "postal": "N4G2T3",
    "result": [
      {
        "electoralDistricts": [
          {
            "election": null,
            "id": 34,
            "name": "Haldimand—Norfolk"
          }
        ],
        "pollDivisionIds": [
          10138452
        ],
        "postalCode": "N4G2T3",
        "streetName": "3RD CONCESSION NTR",
        "streetDirectionId": null,
        "streetTypeId": "RD",
        "placeName": "TILLSONBURG",
        "streetNameDisplayText": "3RD CONCESSION NTR RD, TILLSONBURG"
      },
      {
        "electoralDistricts": [
          {
            "election": null,
            "id": 34,
            "name": "Haldimand—Norfolk"
          }
        ],
        "pollDivisionIds": [
          10138452
        ],
        "postalCode": "N4G2T3",
        "streetName": "3RD CONCESSION ROAD N.T.R.",
        "streetDirectionId": null,
        "streetTypeId": "RD",
        "placeName": "TILLSONBURG",
        "streetNameDisplayText": "3RD CONCESSION ROAD N.T.R. RD, TILLSONBURG"
      }
    ]
  },
  {
    "postal": "N4G1M4",
    "result": [
      {
        "electoralDistricts": [
          {
            "election": null,
            "id": 82,
            "name": "Oxford"
          }
        ],
        "pollDivisionIds": [
          10140915
        ],
        "postalCode": "N4G1M4",
        "streetName": "NORTHVIEW",
        "streetDirectionId": null,
        "streetTypeId": "DR",
        "placeName": "TILLSONBURG",
        "streetNameDisplayText": "NORTHVIEW DR, TILLSONBURG"
      }
    ]
  },
  {
    "postal": "N4G0H1",
    "result": [
      {
        "electoralDistricts": [
          {
            "election": null,
            "id": 82,
            "name": "Oxford"
          }
        ],
        "pollDivisionIds": [
          10140917
        ],
        "postalCode": "N4G0H1",
        "streetName": "DENRICH",
        "streetDirectionId": null,
        "streetTypeId": "AVE",
        "placeName": "TILLSONBURG",
        "streetNameDisplayText": "DENRICH AVE, TILLSONBURG"
      },
      {
        "electoralDistricts": [
          {
            "election": null,
            "id": 82,
            "name": "Oxford"
          }
        ],
        "pollDivisionIds": [
          10140917
        ],
        "postalCode": "N4G0H1",
        "streetName": "DEREHAM",
        "streetDirectionId": null,
        "streetTypeId": "DR",
        "placeName": "TILLSONBURG",
        "streetNameDisplayText": "DEREHAM DR, TILLSONBURG"
      }
    ]
  },
  {
    "postal": "N4G9W3",
    "result": []
  },
  {
    "postal": "N4G6P1",
    "result": []
  },
  {
    "postal": "N4G7G2",
    "result": []
  },
  {
    "postal": "N4G4J9",
    "result": [
      {
        "electoralDistricts": [
          {
            "election": null,
            "id": 82,
            "name": "Oxford"
          }
        ],
        "pollDivisionIds": [
          10143216
        ],
        "postalCode": "N4G4J9",
        "streetName": "PARKWOOD",
        "streetDirectionId": null,
        "streetTypeId": "CRT",
        "placeName": "TILLSONBURG",
        "streetNameDisplayText": "PARKWOOD CRT, TILLSONBURG"
      }
    ]
  },
  {
    "postal": "N4G9E4",
    "result": []
  },
  {
    "postal": "N4G8H0",
    "result": []
  },
  {
    "postal": "N4G4M7",
    "result": [
      {
        "electoralDistricts": [
          {
            "election": null,
            "id": 82,
            "name": "Oxford"
          }
        ],
        "pollDivisionIds": [
          10140918
        ],
        "postalCode": "N4G4M7",
        "streetName": "OWL",
        "streetDirectionId": null,
        "streetTypeId": "DR",
        "placeName": "TILLSONBURG",
        "streetNameDisplayText": "OWL DR, TILLSONBURG"
      }
    ]
  },
  {
    "postal": "N4G2G9",
    "result": [
      {
        "electoralDistricts": [
          {
            "election": null,
            "id": 82,
            "name": "Oxford"
          }
        ],
        "pollDivisionIds": [
          10143216
        ],
        "postalCode": "N4G2G9",
        "streetName": "POTTERS",
        "streetDirectionId": null,
        "streetTypeId": "RD",
        "placeName": "TILLSONBURG",
        "streetNameDisplayText": "POTTERS RD, TILLSONBURG"
      }
    ]
  },
  {
    "postal": "N4G8T2",
    "result": []
  },
  {
    "postal": "N4G7G7",
    "result": []
  },
  {
    "postal": "N4G4Z3",
    "result": [
      {
        "electoralDistricts": [
          {
            "election": null,
            "id": 82,
            "name": "Oxford"
          }
        ],
        "pollDivisionIds": [
          10140917
        ],
        "postalCode": "N4G4Z3",
        "streetName": "KAMPS",
        "streetDirectionId": null,
        "streetTypeId": "CRES",
        "placeName": "TILLSONBURG",
        "streetNameDisplayText": "KAMPS CRES, TILLSONBURG"
      }
    ]
  },
  {
    "postal": "N4G5B3",
    "result": [
      {
        "electoralDistricts": [
          {
            "election": null,
            "id": 82,
            "name": "Oxford"
          }
        ],
        "pollDivisionIds": [
          10140915
        ],
        "postalCode": "N4G5B3",
        "streetName": "ADAMS",
        "streetDirectionId": null,
        "streetTypeId": "AVE",
        "placeName": "TILLSONBURG",
        "streetNameDisplayText": "ADAMS AVE, TILLSONBURG"
      }
    ]
  },
  {
    "postal": "N4G1S7",
    "result": [
      {
        "electoralDistricts": [
          {
            "election": null,
            "id": 82,
            "name": "Oxford"
          }
        ],
        "pollDivisionIds": [
          10140915
        ],
        "postalCode": "N4G1S7",
        "streetName": "VENISON",
        "streetDirectionId": "E",
        "streetTypeId": "ST",
        "placeName": "TILLSONBURG",
        "streetNameDisplayText": "VENISON ST E, TILLSONBURG"
      }
    ]
  },
  {
    "postal": "N4G2N7",
    "result": [
      {
        "electoralDistricts": [
          {
            "election": null,
            "id": 82,
            "name": "Oxford"
          }
        ],
        "pollDivisionIds": [
          10143216
        ],
        "postalCode": "N4G2N7",
        "streetName": "DUNCAN",
        "streetDirectionId": null,
        "streetTypeId": "ST",
        "placeName": "TILLSONBURG",
        "streetNameDisplayText": "DUNCAN ST, TILLSONBURG"
      }
    ]
  },
  {
    "postal": "N4G0H8",
    "result": []
  },
  {
    "postal": "N4G7Z4",
    "result": []
  },
  {
    "postal": "N4G7B1",
    "result": []
  },
  {
    "postal": "N4G7P8",
    "result": []
  },
  {
    "postal": "N4G7N0",
    "result": []
  },
  {
    "postal": "N4G3Y5",
    "result": [
      {
        "electoralDistricts": [
          {
            "election": null,
            "id": 82,
            "name": "Oxford"
          }
        ],
        "pollDivisionIds": [
          10140917
        ],
        "postalCode": "N4G3Y5",
        "streetName": "ROLPH",
        "streetDirectionId": null,
        "streetTypeId": "ST",
        "placeName": "TILLSONBURG",
        "streetNameDisplayText": "ROLPH ST, TILLSONBURG"
      }
    ]
  },
  {
    "postal": "N4G6K1",
    "result": []
  },
  {
    "postal": "N4G9X5",
    "result": []
  },
  {
    "postal": "N4G7S5",
    "result": []
  },
  {
    "postal": "N4G0A4",
    "result": [
      {
        "electoralDistricts": [
          {
            "election": null,
            "id": 82,
            "name": "Oxford"
          }
        ],
        "pollDivisionIds": [
          10140917
        ],
        "postalCode": "N4G0A4",
        "streetName": "WOOD HAVEN",
        "streetDirectionId": null,
        "streetTypeId": "DR",
        "placeName": "TILLSONBURG",
        "streetNameDisplayText": "WOOD HAVEN DR, TILLSONBURG"
      }
    ]
  },
  {
    "postal": "N4G4T5",
    "result": [
      {
        "electoralDistricts": [
          {
            "election": null,
            "id": 82,
            "name": "Oxford"
          }
        ],
        "pollDivisionIds": [
          10143216
        ],
        "postalCode": "N4G4T5",
        "streetName": "NELSON",
        "streetDirectionId": null,
        "streetTypeId": "ST",
        "placeName": "TILLSONBURG",
        "streetNameDisplayText": "NELSON ST, TILLSONBURG"
      }
    ]
  },
  {
    "postal": "N4G5K1",
    "result": [
      {
        "electoralDistricts": [
          {
            "election": null,
            "id": 82,
            "name": "Oxford"
          }
        ],
        "pollDivisionIds": [
          10140915
        ],
        "postalCode": "N4G5K1",
        "streetName": "ALLEN",
        "streetDirectionId": null,
        "streetTypeId": "ST",
        "placeName": "TILLSONBURG",
        "streetNameDisplayText": "ALLEN ST, TILLSONBURG"
      }
    ]
  },
  {
    "postal": "N4G0Z9",
    "result": []
  },
  {
    "postal": "N4G7T2",
    "result": []
  },
  {
    "postal": "N4G1L5",
    "result": [
      {
        "electoralDistricts": [
          {
            "election": null,
            "id": 82,
            "name": "Oxford"
          }
        ],
        "pollDivisionIds": [
          10143216
        ],
        "postalCode": "N4G1L5",
        "streetName": "PINE",
        "streetDirectionId": null,
        "streetTypeId": "ST",
        "placeName": "TILLSONBURG",
        "streetNameDisplayText": "PINE ST, TILLSONBURG"
      }
    ]
  },
  {
    "postal": "N4G3N5",
    "result": [
      {
        "electoralDistricts": [
          {
            "election": null,
            "id": 82,
            "name": "Oxford"
          }
        ],
        "pollDivisionIds": [
          10143216
        ],
        "postalCode": "N4G3N5",
        "streetName": "PARK",
        "streetDirectionId": null,
        "streetTypeId": "AVE",
        "placeName": "TILLSONBURG",
        "streetNameDisplayText": "PARK AVE, TILLSONBURG"
      },
      {
        "electoralDistricts": [
          {
            "election": null,
            "id": 82,
            "name": "Oxford"
          }
        ],
        "pollDivisionIds": [
          10143216
        ],
        "postalCode": "N4G3N5",
        "streetName": "PARKDALE",
        "streetDirectionId": null,
        "streetTypeId": "AVE",
        "placeName": "TILLSONBURG",
        "streetNameDisplayText": "PARKDALE AVE, TILLSONBURG"
      }
    ]
  },
  {
    "postal": "N4G6H4",
    "result": []
  },
  {
    "postal": "N4G5A5",
    "result": [
      {
        "electoralDistricts": [
          {
            "election": null,
            "id": 82,
            "name": "Oxford"
          }
        ],
        "pollDivisionIds": [
          10143216
        ],
        "postalCode": "N4G5A5",
        "streetName": "DURHAM",
        "streetDirectionId": null,
        "streetTypeId": "ST",
        "placeName": "TILLSONBURG",
        "streetNameDisplayText": "DURHAM ST, TILLSONBURG"
      },
      {
        "electoralDistricts": [
          {
            "election": null,
            "id": 82,
            "name": "Oxford"
          }
        ],
        "pollDivisionIds": [
          10143216
        ],
        "postalCode": "N4G5A5",
        "streetName": "LISGAR",
        "streetDirectionId": null,
        "streetTypeId": "AVE",
        "placeName": "TILLSONBURG",
        "streetNameDisplayText": "LISGAR AVE, TILLSONBURG"
      }
    ]
  },
  {
    "postal": "N4G3R9",
    "result": [
      {
        "electoralDistricts": [
          {
            "election": null,
            "id": 82,
            "name": "Oxford"
          }
        ],
        "pollDivisionIds": [
          10140915
        ],
        "postalCode": "N4G3R9",
        "streetName": "BROADWAY",
        "streetDirectionId": null,
        "streetTypeId": "ST",
        "placeName": "TILLSONBURG",
        "streetNameDisplayText": "BROADWAY ST, TILLSONBURG"
      }
    ]
  },
  {
    "postal": "N4G7L8",
    "result": []
  },
  {
    "postal": "N4G6T6",
    "result": []
  },
  {
    "postal": "N4G7Y7",
    "result": []
  },
  {
    "postal": "N4G3M8",
    "result": [
      {
        "electoralDistricts": [
          {
            "election": null,
            "id": 82,
            "name": "Oxford"
          }
        ],
        "pollDivisionIds": [
          10143216
        ],
        "postalCode": "N4G3M8",
        "streetName": "DELEVAN",
        "streetDirectionId": null,
        "streetTypeId": "CRES",
        "placeName": "TILLSONBURG",
        "streetNameDisplayText": "DELEVAN CRES, TILLSONBURG"
      }
    ]
  },
  {
    "postal": "N4G2E0",
    "result": []
  },
  {
    "postal": "N4G4B5",
    "result": [
      {
        "electoralDistricts": [
          {
            "election": null,
            "id": 82,
            "name": "Oxford"
          }
        ],
        "pollDivisionIds": [
          10140915
        ],
        "postalCode": "N4G4B5",
        "streetName": "CAMDON",
        "streetDirectionId": null,
        "streetTypeId": "CRT",
        "placeName": "TILLSONBURG",
        "streetNameDisplayText": "CAMDON CRT, TILLSONBURG"
      }
    ]
  },
  {
    "postal": "N4G1J3",
    "result": [
      {
        "electoralDistricts": [
          {
            "election": null,
            "id": 82,
            "name": "Oxford"
          }
        ],
        "pollDivisionIds": [
          10140915
        ],
        "postalCode": "N4G1J3",
        "streetName": "GLENDALE",
        "streetDirectionId": null,
        "streetTypeId": "DR",
        "placeName": "TILLSONBURG",
        "streetNameDisplayText": "GLENDALE DR, TILLSONBURG"
      }
    ]
  },
  {
    "postal": "N4G5S6",
    "result": [
      {
        "electoralDistricts": [
          {
            "election": null,
            "id": 82,
            "name": "Oxford"
          }
        ],
        "pollDivisionIds": [
          10140918
        ],
        "postalCode": "N4G5S6",
        "streetName": "DOGWOOD",
        "streetDirectionId": null,
        "streetTypeId": "DR",
        "placeName": "TILLSONBURG",
        "streetNameDisplayText": "DOGWOOD DR, TILLSONBURG"
      },
      {
        "electoralDistricts": [
          {
            "election": null,
            "id": 82,
            "name": "Oxford"
          }
        ],
        "pollDivisionIds": [
          10140918
        ],
        "postalCode": "N4G5S6",
        "streetName": "TRILLIUM",
        "streetDirectionId": null,
        "streetTypeId": "DR",
        "placeName": "TILLSONBURG",
        "streetNameDisplayText": "TRILLIUM DR, TILLSONBURG"
      },
      {
        "electoralDistricts": [
          {
            "election": null,
            "id": 82,
            "name": "Oxford"
          }
        ],
        "pollDivisionIds": [
          10140918
        ],
        "postalCode": "N4G5S6",
        "streetName": "TULIP",
        "streetDirectionId": null,
        "streetTypeId": "DR",
        "placeName": "TILLSONBURG",
        "streetNameDisplayText": "TULIP DR, TILLSONBURG"
      }
    ]
  },
  {
    "postal": "N4G8P7",
    "result": []
  },
  {
    "postal": "N4G7S7",
    "result": []
  },
  {
    "postal": "N4G4C2",
    "result": [
      {
        "electoralDistricts": [
          {
            "election": null,
            "id": 82,
            "name": "Oxford"
          }
        ],
        "pollDivisionIds": [
          10140917
        ],
        "postalCode": "N4G4C2",
        "streetName": "CHARLOTTE",
        "streetDirectionId": null,
        "streetTypeId": "AVE",
        "placeName": "TILLSONBURG",
        "streetNameDisplayText": "CHARLOTTE AVE, TILLSONBURG"
      }
    ]
  },
  {
    "postal": "N4G5Y0",
    "result": []
  },
  {
    "postal": "N4G2V7",
    "result": [
      {
        "electoralDistricts": [
          {
            "election": null,
            "id": 82,
            "name": "Oxford"
          }
        ],
        "pollDivisionIds": [
          10143216
        ],
        "postalCode": "N4G2V7",
        "streetName": "ONTARIO",
        "streetDirectionId": null,
        "streetTypeId": "ST",
        "placeName": "TILLSONBURG",
        "streetNameDisplayText": "ONTARIO ST, TILLSONBURG"
      }
    ]
  },
  {
    "postal": "N4G8P5",
    "result": []
  },
  {
    "postal": "N4G5P5",
    "result": [
      {
        "electoralDistricts": [
          {
            "election": null,
            "id": 82,
            "name": "Oxford"
          }
        ],
        "pollDivisionIds": [
          10143216
        ],
        "postalCode": "N4G5P5",
        "streetName": "LINCOLN",
        "streetDirectionId": null,
        "streetTypeId": "ST",
        "placeName": "TILLSONBURG",
        "streetNameDisplayText": "LINCOLN ST, TILLSONBURG"
      }
    ]
  },
  {
    "postal": "N4G5Z0",
    "result": []
  },
  {
    "postal": "N4G9B0",
    "result": []
  },
  {
    "postal": "N4G1L0",
    "result": []
  },
  {
    "postal": "N4G0B5",
    "result": []
  },
  {
    "postal": "N4G3L2",
    "result": [
      {
        "electoralDistricts": [
          {
            "election": null,
            "id": 82,
            "name": "Oxford"
          }
        ],
        "pollDivisionIds": [
          10143216
        ],
        "postalCode": "N4G3L2",
        "streetName": "LISGAR",
        "streetDirectionId": null,
        "streetTypeId": "AVE",
        "placeName": "TILLSONBURG",
        "streetNameDisplayText": "LISGAR AVE, TILLSONBURG"
      }
    ]
  },
  {
    "postal": "N4G3B7",
    "result": [
      {
        "electoralDistricts": [
          {
            "election": null,
            "id": 82,
            "name": "Oxford"
          }
        ],
        "pollDivisionIds": [
          10143216
        ],
        "postalCode": "N4G3B7",
        "streetName": "TILLSON",
        "streetDirectionId": null,
        "streetTypeId": "AVE",
        "placeName": "TILLSONBURG",
        "streetNameDisplayText": "TILLSON AVE, TILLSONBURG"
      }
    ]
  },
  {
    "postal": "N4G8L1",
    "result": []
  },
  {
    "postal": "N4G5M4",
    "result": []
  },
  {
    "postal": "N4G4G9",
    "result": [
      {
        "electoralDistricts": [
          {
            "election": null,
            "id": 34,
            "name": "Haldimand—Norfolk"
          }
        ],
        "pollDivisionIds": [
          10138452
        ],
        "postalCode": "N4G4G9",
        "streetName": "19",
        "streetDirectionId": null,
        "streetTypeId": "HWY",
        "placeName": "TILLSONBURG",
        "streetNameDisplayText": "19 HWY, TILLSONBURG"
      },
      {
        "electoralDistricts": [
          {
            "election": null,
            "id": 34,
            "name": "Haldimand—Norfolk"
          }
        ],
        "pollDivisionIds": [
          10138452
        ],
        "postalCode": "N4G4G9",
        "streetName": "2ND CONCESSION ROAD N.T.R.",
        "streetDirectionId": null,
        "streetTypeId": null,
        "placeName": "TILLSONBURG",
        "streetNameDisplayText": "2ND CONCESSION ROAD N.T.R., TILLSONBURG"
      },
      {
        "electoralDistricts": [
          {
            "election": null,
            "id": 82,
            "name": "Oxford"
          }
        ],
        "pollDivisionIds": [
          10140917
        ],
        "postalCode": "N4G4G9",
        "streetName": "3",
        "streetDirectionId": null,
        "streetTypeId": "HWY",
        "placeName": "TILLSONBURG",
        "streetNameDisplayText": "3 HWY, TILLSONBURG"
      },
      {
        "electoralDistricts": [
          {
            "election": null,
            "id": 34,
            "name": "Haldimand—Norfolk"
          }
        ],
        "pollDivisionIds": [
          10138452
        ],
        "postalCode": "N4G4G9",
        "streetName": "3RD CONCESSION NTR",
        "streetDirectionId": null,
        "streetTypeId": "RD",
        "placeName": "TILLSONBURG",
        "streetNameDisplayText": "3RD CONCESSION NTR RD, TILLSONBURG"
      },
      {
        "electoralDistricts": [
          {
            "election": null,
            "id": 34,
            "name": "Haldimand—Norfolk"
          }
        ],
        "pollDivisionIds": [
          10138451
        ],
        "postalCode": "N4G4G9",
        "streetName": "BASELINE",
        "streetDirectionId": null,
        "streetTypeId": "RD",
        "placeName": "TILLSONBURG",
        "streetNameDisplayText": "BASELINE RD, TILLSONBURG"
      },
      {
        "electoralDistricts": [
          {
            "election": null,
            "id": 26,
            "name": "Elgin—Middlesex—London"
          }
        ],
        "pollDivisionIds": [
          10137983
        ],
        "postalCode": "N4G4G9",
        "streetName": "BAYHAM",
        "streetDirectionId": null,
        "streetTypeId": "DR",
        "placeName": "TILLSONBURG",
        "streetNameDisplayText": "BAYHAM DR, TILLSONBURG"
      },
      {
        "electoralDistricts": [
          {
            "election": null,
            "id": 26,
            "name": "Elgin—Middlesex—London"
          }
        ],
        "pollDivisionIds": [
          10143315
        ],
        "postalCode": "N4G4G9",
        "streetName": "BAYHAM NORFOLK BOUNDARY",
        "streetDirectionId": null,
        "streetTypeId": "RD",
        "placeName": "TILLSONBURG",
        "streetNameDisplayText": "BAYHAM NORFOLK BOUNDARY RD, TILLSONBURG"
      },
      {
        "electoralDistricts": [
          {
            "election": null,
            "id": 34,
            "name": "Haldimand—Norfolk"
          },
          {
            "election": null,
            "id": 26,
            "name": "Elgin—Middlesex—London"
          }
        ],
        "pollDivisionIds": [
          10138452,
          10138451,
          10137983
        ],
        "postalCode": "N4G4G9",
        "streetName": "BAYHAM-NORFOLK BOUNDARY",
        "streetDirectionId": null,
        "streetTypeId": "RD",
        "placeName": "TILLSONBURG",
        "streetNameDisplayText": "BAYHAM-NORFOLK BOUNDARY RD, TILLSONBURG"
      },
      {
        "electoralDistricts": [
          {
            "election": null,
            "id": 26,
            "name": "Elgin—Middlesex—London"
          }
        ],
        "pollDivisionIds": [
          10137953,
          10137983
        ],
        "postalCode": "N4G4G9",
        "streetName": "BAYNOR",
        "streetDirectionId": null,
        "streetTypeId": "RD",
        "placeName": "TILLSONBURG",
        "streetNameDisplayText": "BAYNOR RD, TILLSONBURG"
      },
      {
        "electoralDistricts": [
          {
            "election": null,
            "id": 34,
            "name": "Haldimand—Norfolk"
          }
        ],
        "pollDivisionIds": [
          10138452
        ],
        "postalCode": "N4G4G9",
        "streetName": "BELL MILL SIDERD",
        "streetDirectionId": null,
        "streetTypeId": null,
        "placeName": "TILLSONBURG",
        "streetNameDisplayText": "BELL MILL SIDERD, TILLSONBURG"
      },
      {
        "electoralDistricts": [
          {
            "election": null,
            "id": 34,
            "name": "Haldimand—Norfolk"
          }
        ],
        "pollDivisionIds": [
          10138452
        ],
        "postalCode": "N4G4G9",
        "streetName": "BELL MILL",
        "streetDirectionId": null,
        "streetTypeId": "SIDERD",
        "placeName": "TILLSONBURG",
        "streetNameDisplayText": "BELL MILL SIDERD, TILLSONBURG"
      },
      {
        "electoralDistricts": [
          {
            "election": null,
            "id": 82,
            "name": "Oxford"
          }
        ],
        "pollDivisionIds": [
          10143216
        ],
        "postalCode": "N4G4G9",
        "streetName": "BELL MILL SIDEROAD",
        "streetDirectionId": null,
        "streetTypeId": null,
        "placeName": "TILLSONBURG",
        "streetNameDisplayText": "BELL MILL SIDEROAD, TILLSONBURG"
      },
      {
        "electoralDistricts": [
          {
            "election": null,
            "id": 26,
            "name": "Elgin—Middlesex—London"
          }
        ],
        "pollDivisionIds": [
          10137983
        ],
        "postalCode": "N4G4G9",
        "streetName": "CARSON",
        "streetDirectionId": null,
        "streetTypeId": "LINE",
        "placeName": "TILLSONBURG",
        "streetNameDisplayText": "CARSON LINE, TILLSONBURG"
      },
      {
        "electoralDistricts": [
          {
            "election": null,
            "id": 34,
            "name": "Haldimand—Norfolk"
          }
        ],
        "pollDivisionIds": [
          10138452
        ],
        "postalCode": "N4G4G9",
        "streetName": "CARSON SIDE",
        "streetDirectionId": null,
        "streetTypeId": "RD",
        "placeName": "TILLSONBURG",
        "streetNameDisplayText": "CARSON SIDE RD, TILLSONBURG"
      },
      {
        "electoralDistricts": [
          {
            "election": null,
            "id": 34,
            "name": "Haldimand—Norfolk"
          }
        ],
        "pollDivisionIds": [
          10138452
        ],
        "postalCode": "N4G4G9",
        "streetName": "CARSON",
        "streetDirectionId": null,
        "streetTypeId": "SIDERD",
        "placeName": "TILLSONBURG",
        "streetNameDisplayText": "CARSON SIDERD, TILLSONBURG"
      },
      {
        "electoralDistricts": [
          {
            "election": null,
            "id": 34,
            "name": "Haldimand—Norfolk"
          }
        ],
        "pollDivisionIds": [
          10138451,
          10138452
        ],
        "postalCode": "N4G4G9",
        "streetName": "COLONEL TALBOT",
        "streetDirectionId": null,
        "streetTypeId": "RD",
        "placeName": "TILLSONBURG",
        "streetNameDisplayText": "COLONEL TALBOT RD, TILLSONBURG"
      },
      {
        "electoralDistricts": [
          {
            "election": null,
            "id": 34,
            "name": "Haldimand—Norfolk"
          }
        ],
        "pollDivisionIds": [
          10138452
        ],
        "postalCode": "N4G4G9",
        "streetName": "COUNTY RD 30",
        "streetDirectionId": null,
        "streetTypeId": null,
        "placeName": "TILLSONBURG",
        "streetNameDisplayText": "COUNTY RD 30, TILLSONBURG"
      },
      {
        "electoralDistricts": [
          {
            "election": null,
            "id": 26,
            "name": "Elgin—Middlesex—London"
          }
        ],
        "pollDivisionIds": [
          10143315
        ],
        "postalCode": "N4G4G9",
        "streetName": "COYLE",
        "streetDirectionId": null,
        "streetTypeId": "RD",
        "placeName": "EDEN",
        "streetNameDisplayText": "COYLE RD, EDEN"
      },
      {
        "electoralDistricts": [
          {
            "election": null,
            "id": 26,
            "name": "Elgin—Middlesex—London"
          }
        ],
        "pollDivisionIds": [
          10143315
        ],
        "postalCode": "N4G4G9",
        "streetName": "COYLE",
        "streetDirectionId": null,
        "streetTypeId": "RD",
        "placeName": "TILLSONBURG",
        "streetNameDisplayText": "COYLE RD, TILLSONBURG"
      },
      {
        "electoralDistricts": [
          {
            "election": null,
            "id": 26,
            "name": "Elgin—Middlesex—London"
          }
        ],
        "pollDivisionIds": [
          10143315,
          10137983
        ],
        "postalCode": "N4G4G9",
        "streetName": "EDEN",
        "streetDirectionId": null,
        "streetTypeId": "LINE",
        "placeName": "TILLSONBURG",
        "streetNameDisplayText": "EDEN LINE, TILLSONBURG"
      },
      {
        "electoralDistricts": [
          {
            "election": null,
            "id": 34,
            "name": "Haldimand—Norfolk"
          },
          {
            "election": null,
            "id": 26,
            "name": "Elgin—Middlesex—London"
          }
        ],
        "pollDivisionIds": [
          10138451,
          10143315
        ],
        "postalCode": "N4G4G9",
        "streetName": "ELGIN COUNTY ROAD 55",
        "streetDirectionId": null,
        "streetTypeId": null,
        "placeName": "TILLSONBURG",
        "streetNameDisplayText": "ELGIN COUNTY ROAD 55, TILLSONBURG"
      },
      {
        "electoralDistricts": [
          {
            "election": null,
            "id": 26,
            "name": "Elgin—Middlesex—London"
          }
        ],
        "pollDivisionIds": [
          10143315
        ],
        "postalCode": "N4G4G9",
        "streetName": "HERITAGE",
        "streetDirectionId": null,
        "streetTypeId": "LINE",
        "placeName": "TILLSONBURG",
        "streetNameDisplayText": "HERITAGE LINE, TILLSONBURG"
      },
      {
        "electoralDistricts": [
          {
            "election": null,
            "id": 34,
            "name": "Haldimand—Norfolk"
          }
        ],
        "pollDivisionIds": [
          10138452
        ],
        "postalCode": "N4G4G9",
        "streetName": "HIGHWAY 19",
        "streetDirectionId": null,
        "streetTypeId": null,
        "placeName": "TILLSONBURG",
        "streetNameDisplayText": "HIGHWAY 19, TILLSONBURG"
      },
      {
        "electoralDistricts": [
          {
            "election": null,
            "id": 34,
            "name": "Haldimand—Norfolk"
          }
        ],
        "pollDivisionIds": [
          10138452
        ],
        "postalCode": "N4G4G9",
        "streetName": "HOWARDS",
        "streetDirectionId": null,
        "streetTypeId": "RD",
        "placeName": "TILLSONBURG",
        "streetNameDisplayText": "HOWARDS RD, TILLSONBURG"
      },
      {
        "electoralDistricts": [
          {
            "election": null,
            "id": 34,
            "name": "Haldimand—Norfolk"
          }
        ],
        "pollDivisionIds": [
          10138452
        ],
        "postalCode": "N4G4G9",
        "streetName": "HWY 19",
        "streetDirectionId": "S",
        "streetTypeId": null,
        "placeName": "TILLSONBURG",
        "streetNameDisplayText": "HWY 19 S, TILLSONBURG"
      },
      {
        "electoralDistricts": [
          {
            "election": null,
            "id": 34,
            "name": "Haldimand—Norfolk"
          }
        ],
        "pollDivisionIds": [
          10138452
        ],
        "postalCode": "N4G4G9",
        "streetName": "HWY 19",
        "streetDirectionId": null,
        "streetTypeId": null,
        "placeName": "TILLSONBURG",
        "streetNameDisplayText": "HWY 19, TILLSONBURG"
      },
      {
        "electoralDistricts": [
          {
            "election": null,
            "id": 34,
            "name": "Haldimand—Norfolk"
          }
        ],
        "pollDivisionIds": [
          10138452
        ],
        "postalCode": "N4G4G9",
        "streetName": "LAPLANTE",
        "streetDirectionId": null,
        "streetTypeId": "RD",
        "placeName": "TILLSONBURG",
        "streetNameDisplayText": "LAPLANTE RD, TILLSONBURG"
      },
      {
        "electoralDistricts": [
          {
            "election": null,
            "id": 34,
            "name": "Haldimand—Norfolk"
          }
        ],
        "pollDivisionIds": [
          10138452
        ],
        "postalCode": "N4G4G9",
        "streetName": "MABEES",
        "streetDirectionId": null,
        "streetTypeId": "SIDERD",
        "placeName": "TILLSONBURG",
        "streetNameDisplayText": "MABEES SIDERD, TILLSONBURG"
      },
      {
        "electoralDistricts": [
          {
            "election": null,
            "id": 26,
            "name": "Elgin—Middlesex—London"
          }
        ],
        "pollDivisionIds": [
          10137984
        ],
        "postalCode": "N4G4G9",
        "streetName": "MAPLE",
        "streetDirectionId": null,
        "streetTypeId": "RD",
        "placeName": "AYLMER",
        "streetNameDisplayText": "MAPLE RD, AYLMER"
      },
      {
        "electoralDistricts": [
          {
            "election": null,
            "id": 34,
            "name": "Haldimand—Norfolk"
          }
        ],
        "pollDivisionIds": [
          10138452
        ],
        "postalCode": "N4G4G9",
        "streetName": "MICHAEL'S",
        "streetDirectionId": null,
        "streetTypeId": "LANE",
        "placeName": "TILLSONBURG",
        "streetNameDisplayText": "MICHAEL'S LANE, TILLSONBURG"
      },
      {
        "electoralDistricts": [
          {
            "election": null,
            "id": 34,
            "name": "Haldimand—Norfolk"
          }
        ],
        "pollDivisionIds": [
          10138452
        ],
        "postalCode": "N4G4G9",
        "streetName": "NORFOLK COUNTY 23",
        "streetDirectionId": null,
        "streetTypeId": "RD",
        "placeName": "TILLSONBURG",
        "streetNameDisplayText": "NORFOLK COUNTY 23 RD, TILLSONBURG"
      },
      {
        "electoralDistricts": [
          {
            "election": null,
            "id": 34,
            "name": "Haldimand—Norfolk"
          }
        ],
        "pollDivisionIds": [
          10138452
        ],
        "postalCode": "N4G4G9",
        "streetName": "NORFOLK COUNTY 30",
        "streetDirectionId": null,
        "streetTypeId": "RD",
        "placeName": "TILLSONBURG",
        "streetNameDisplayText": "NORFOLK COUNTY 30 RD, TILLSONBURG"
      },
      {
        "electoralDistricts": [
          {
            "election": null,
            "id": 34,
            "name": "Haldimand—Norfolk"
          }
        ],
        "pollDivisionIds": [
          10138452
        ],
        "postalCode": "N4G4G9",
        "streetName": "NORFOLK COUNTY RD 30",
        "streetDirectionId": null,
        "streetTypeId": null,
        "placeName": "TILLSONBURG",
        "streetNameDisplayText": "NORFOLK COUNTY RD 30, TILLSONBURG"
      },
      {
        "electoralDistricts": [
          {
            "election": null,
            "id": 34,
            "name": "Haldimand—Norfolk"
          }
        ],
        "pollDivisionIds": [
          10138451,
          10138452
        ],
        "postalCode": "N4G4G9",
        "streetName": "NORFOLK COUNTY ROAD 23",
        "streetDirectionId": null,
        "streetTypeId": null,
        "placeName": "TILLSONBURG",
        "streetNameDisplayText": "NORFOLK COUNTY ROAD 23, TILLSONBURG"
      },
      {
        "electoralDistricts": [
          {
            "election": null,
            "id": 34,
            "name": "Haldimand—Norfolk"
          }
        ],
        "pollDivisionIds": [
          10138452
        ],
        "postalCode": "N4G4G9",
        "streetName": "NORFOLK COUNTY ROAD 30",
        "streetDirectionId": null,
        "streetTypeId": null,
        "placeName": "TILLSONBURG",
        "streetNameDisplayText": "NORFOLK COUNTY ROAD 30, TILLSONBURG"
      },
      {
        "electoralDistricts": [
          {
            "election": null,
            "id": 34,
            "name": "Haldimand—Norfolk"
          }
        ],
        "pollDivisionIds": [
          10138451
        ],
        "postalCode": "N4G4G9",
        "streetName": "NORTH",
        "streetDirectionId": null,
        "streetTypeId": "RD",
        "placeName": "TILLSONBURG",
        "streetNameDisplayText": "NORTH RD, TILLSONBURG"
      },
      {
        "electoralDistricts": [
          {
            "election": null,
            "id": 34,
            "name": "Haldimand—Norfolk"
          }
        ],
        "pollDivisionIds": [
          10138451
        ],
        "postalCode": "N4G4G9",
        "streetName": "OLD NORTH",
        "streetDirectionId": null,
        "streetTypeId": "RD",
        "placeName": "TILLSONBURG",
        "streetNameDisplayText": "OLD NORTH RD, TILLSONBURG"
      },
      {
        "electoralDistricts": [
          {
            "election": null,
            "id": 34,
            "name": "Haldimand—Norfolk"
          },
          {
            "election": null,
            "id": 26,
            "name": "Elgin—Middlesex—London"
          }
        ],
        "pollDivisionIds": [
          10138452,
          10138451,
          10143315
        ],
        "postalCode": "N4G4G9",
        "streetName": "ORANGE HALL",
        "streetDirectionId": null,
        "streetTypeId": "RD",
        "placeName": "TILLSONBURG",
        "streetNameDisplayText": "ORANGE HALL RD, TILLSONBURG"
      },
      {
        "electoralDistricts": [
          {
            "election": null,
            "id": 34,
            "name": "Haldimand—Norfolk"
          }
        ],
        "pollDivisionIds": [
          10138452
        ],
        "postalCode": "N4G4G9",
        "streetName": "PLANK",
        "streetDirectionId": "S",
        "streetTypeId": "LINE",
        "placeName": "TILLSONBURG",
        "streetNameDisplayText": "PLANK LINE S, TILLSONBURG"
      },
      {
        "electoralDistricts": [
          {
            "election": null,
            "id": 26,
            "name": "Elgin—Middlesex—London"
          },
          {
            "election": null,
            "id": 34,
            "name": "Haldimand—Norfolk"
          },
          {
            "election": null,
            "id": 82,
            "name": "Oxford"
          }
        ],
        "pollDivisionIds": [
          10137983,
          10138452,
          10140901,
          10143315,
          10143216,
          10137986,
          10140918
        ],
        "postalCode": "N4G4G9",
        "streetName": "PLANK",
        "streetDirectionId": null,
        "streetTypeId": "RD",
        "placeName": "TILLSONBURG",
        "streetNameDisplayText": "PLANK RD, TILLSONBURG"
      },
      {
        "electoralDistricts": [
          {
            "election": null,
            "id": 34,
            "name": "Haldimand—Norfolk"
          }
        ],
        "pollDivisionIds": [
          10138452
        ],
        "postalCode": "N4G4G9",
        "streetName": "PLANK RD. S.",
        "streetDirectionId": null,
        "streetTypeId": "RD",
        "placeName": "TILLSONBURG",
        "streetNameDisplayText": "PLANK RD. S. RD, TILLSONBURG"
      },
      {
        "electoralDistricts": [
          {
            "election": null,
            "id": 34,
            "name": "Haldimand—Norfolk"
          }
        ],
        "pollDivisionIds": [
          10138452
        ],
        "postalCode": "N4G4G9",
        "streetName": "PLOWMANS",
        "streetDirectionId": null,
        "streetTypeId": "LINE",
        "placeName": "TILLSONBURG",
        "streetNameDisplayText": "PLOWMANS LINE, TILLSONBURG"
      },
      {
        "electoralDistricts": [
          {
            "election": null,
            "id": 34,
            "name": "Haldimand—Norfolk"
          }
        ],
        "pollDivisionIds": [
          10138452
        ],
        "postalCode": "N4G4G9",
        "streetName": "PLOWMAN'S",
        "streetDirectionId": null,
        "streetTypeId": "LINE",
        "placeName": "TILLSONBURG",
        "streetNameDisplayText": "PLOWMAN'S LINE, TILLSONBURG"
      },
      {
        "electoralDistricts": [
          {
            "election": null,
            "id": 34,
            "name": "Haldimand—Norfolk"
          }
        ],
        "pollDivisionIds": [
          10138452
        ],
        "postalCode": "N4G4G9",
        "streetName": "REGIONAL RD. 38",
        "streetDirectionId": null,
        "streetTypeId": null,
        "placeName": "TILLSONBURG",
        "streetNameDisplayText": "REGIONAL RD. 38, TILLSONBURG"
      },
      {
        "electoralDistricts": [
          {
            "election": null,
            "id": 82,
            "name": "Oxford"
          }
        ],
        "pollDivisionIds": [
          10143216
        ],
        "postalCode": "N4G4G9",
        "streetName": "ROKEBY",
        "streetDirectionId": null,
        "streetTypeId": "RD",
        "placeName": "TILLSONBURG",
        "streetNameDisplayText": "ROKEBY RD, TILLSONBURG"
      },
      {
        "electoralDistricts": [
          {
            "election": null,
            "id": 34,
            "name": "Haldimand—Norfolk"
          },
          {
            "election": null,
            "id": 82,
            "name": "Oxford"
          }
        ],
        "pollDivisionIds": [
          10138452,
          10143216
        ],
        "postalCode": "N4G4G9",
        "streetName": "ROKEBY",
        "streetDirectionId": null,
        "streetTypeId": "SIDERD",
        "placeName": "TILLSONBURG",
        "streetNameDisplayText": "ROKEBY SIDERD, TILLSONBURG"
      },
      {
        "electoralDistricts": [
          {
            "election": null,
            "id": 34,
            "name": "Haldimand—Norfolk"
          }
        ],
        "pollDivisionIds": [
          10138452
        ],
        "postalCode": "N4G4G9",
        "streetName": "RYAN",
        "streetDirectionId": null,
        "streetTypeId": "CRES",
        "placeName": "TILLSONBURG",
        "streetNameDisplayText": "RYAN CRES, TILLSONBURG"
      },
      {
        "electoralDistricts": [
          {
            "election": null,
            "id": 34,
            "name": "Haldimand—Norfolk"
          }
        ],
        "pollDivisionIds": [
          10138452
        ],
        "postalCode": "N4G4G9",
        "streetName": "SHORTIES",
        "streetDirectionId": null,
        "streetTypeId": "SIDERD",
        "placeName": "TILLSONBURG",
        "streetNameDisplayText": "SHORTIES SIDERD, TILLSONBURG"
      },
      {
        "electoralDistricts": [
          {
            "election": null,
            "id": 34,
            "name": "Haldimand—Norfolk"
          }
        ],
        "pollDivisionIds": [
          10138452
        ],
        "postalCode": "N4G4G9",
        "streetName": "VANDERHOVEN",
        "streetDirectionId": null,
        "streetTypeId": "SIDERD",
        "placeName": "TILLSONBURG",
        "streetNameDisplayText": "VANDERHOVEN SIDERD, TILLSONBURG"
      },
      {
        "electoralDistricts": [
          {
            "election": null,
            "id": 82,
            "name": "Oxford"
          }
        ],
        "pollDivisionIds": [
          10143216
        ],
        "postalCode": "N4G4G9",
        "streetName": "VIENNA",
        "streetDirectionId": null,
        "streetTypeId": "RD",
        "placeName": "TILLSONBURG",
        "streetNameDisplayText": "VIENNA RD, TILLSONBURG"
      },
      {
        "electoralDistricts": [
          {
            "election": null,
            "id": 34,
            "name": "Haldimand—Norfolk"
          }
        ],
        "pollDivisionIds": [
          10138452
        ],
        "postalCode": "N4G4G9",
        "streetName": "VIENNA RD.",
        "streetDirectionId": null,
        "streetTypeId": null,
        "placeName": "TILLSONBURG",
        "streetNameDisplayText": "VIENNA RD., TILLSONBURG"
      },
      {
        "electoralDistricts": [
          {
            "election": null,
            "id": 26,
            "name": "Elgin—Middlesex—London"
          }
        ],
        "pollDivisionIds": [
          10143315
        ],
        "postalCode": "N4G4G9",
        "streetName": "VINCENT",
        "streetDirectionId": null,
        "streetTypeId": "LINE",
        "placeName": "TILLSONBURG",
        "streetNameDisplayText": "VINCENT LINE, TILLSONBURG"
      },
      {
        "electoralDistricts": [
          {
            "election": null,
            "id": 34,
            "name": "Haldimand—Norfolk"
          }
        ],
        "pollDivisionIds": [
          10138452
        ],
        "postalCode": "N4G4G9",
        "streetName": "WATSON MILL",
        "streetDirectionId": null,
        "streetTypeId": "RD",
        "placeName": "TILLSONBURG",
        "streetNameDisplayText": "WATSON MILL RD, TILLSONBURG"
      }
    ]
  },
  {
    "postal": "N4G0P0",
    "result": []
  },
  {
    "postal": "N4G8G2",
    "result": []
  },
  {
    "postal": "N4G1V9",
    "result": [
      {
        "electoralDistricts": [
          {
            "election": null,
            "id": 82,
            "name": "Oxford"
          }
        ],
        "pollDivisionIds": [
          10143216
        ],
        "postalCode": "N4G1V9",
        "streetName": "DURHAM",
        "streetDirectionId": null,
        "streetTypeId": "ST",
        "placeName": "TILLSONBURG",
        "streetNameDisplayText": "DURHAM ST, TILLSONBURG"
      }
    ]
  },
  {
    "postal": "N4G8N8",
    "result": []
  },
  {
    "postal": "N4G6S8",
    "result": []
  },
  {
    "postal": "N4G8H2",
    "result": []
  },
  {
    "postal": "N4G5R8",
    "result": [
      {
        "electoralDistricts": [
          {
            "election": null,
            "id": 82,
            "name": "Oxford"
          }
        ],
        "pollDivisionIds": [
          10140915
        ],
        "postalCode": "N4G5R8",
        "streetName": "BEECH",
        "streetDirectionId": null,
        "streetTypeId": "BLVD",
        "placeName": "TILLSONBURG",
        "streetNameDisplayText": "BEECH BLVD, TILLSONBURG"
      },
      {
        "electoralDistricts": [
          {
            "election": null,
            "id": 82,
            "name": "Oxford"
          }
        ],
        "pollDivisionIds": [
          10140915
        ],
        "postalCode": "N4G5R8",
        "streetName": "BEECH",
        "streetDirectionId": null,
        "streetTypeId": "ST",
        "placeName": "TILLSONBURG",
        "streetNameDisplayText": "BEECH ST, TILLSONBURG"
      }
    ]
  },
  {
    "postal": "N4G5L4",
    "result": [
      {
        "electoralDistricts": [
          {
            "election": null,
            "id": 82,
            "name": "Oxford"
          }
        ],
        "pollDivisionIds": [
          10140917
        ],
        "postalCode": "N4G5L4",
        "streetName": "LOWRIE",
        "streetDirectionId": null,
        "streetTypeId": "CRES",
        "placeName": "TILLSONBURG",
        "streetNameDisplayText": "LOWRIE CRES, TILLSONBURG"
      }
    ]
  },
  {
    "postal": "N4G9E1",
    "result": []
  },
  {
    "postal": "N4G1C4",
    "result": [
      {
        "electoralDistricts": [
          {
            "election": null,
            "id": 82,
            "name": "Oxford"
          }
        ],
        "pollDivisionIds": [
          10140918
        ],
        "postalCode": "N4G1C4",
        "streetName": "NORTH",
        "streetDirectionId": "W",
        "streetTypeId": "ST",
        "placeName": "TILLSONBURG",
        "streetNameDisplayText": "NORTH ST W, TILLSONBURG"
      }
    ]
  },
  {
    "postal": "N4G8W5",
    "result": []
  },
  {
    "postal": "N4G1Y4",
    "result": []
  },
  {
    "postal": "N4G1C0",
    "result": []
  },
  {
    "postal": "N4G2J2",
    "result": [
      {
        "electoralDistricts": [
          {
            "election": null,
            "id": 82,
            "name": "Oxford"
          }
        ],
        "pollDivisionIds": [
          10143216
        ],
        "postalCode": "N4G2J2",
        "streetName": "SIMCOE",
        "streetDirectionId": null,
        "streetTypeId": "ST",
        "placeName": "TILLSONBURG",
        "streetNameDisplayText": "SIMCOE ST, TILLSONBURG"
      }
    ]
  },
  {
    "postal": "N4G2J0",
    "result": []
  },
  {
    "postal": "N4G7A3",
    "result": []
  },
  {
    "postal": "N4G8M1",
    "result": []
  },
  {
    "postal": "N4G7T9",
    "result": []
  },
  {
    "postal": "N4G6C0",
    "result": []
  },
  {
    "postal": "N4G7X1",
    "result": []
  },
  {
    "postal": "N4G0G1",
    "result": []
  },
  {
    "postal": "N4G4X2",
    "result": [
      {
        "electoralDistricts": [
          {
            "election": null,
            "id": 82,
            "name": "Oxford"
          }
        ],
        "pollDivisionIds": [
          10140918
        ],
        "postalCode": "N4G4X2",
        "streetName": "TANAGER",
        "streetDirectionId": null,
        "streetTypeId": "DR",
        "placeName": "TILLSONBURG",
        "streetNameDisplayText": "TANAGER DR, TILLSONBURG"
      }
    ]
  },
  {
    "postal": "N4G0N6",
    "result": []
  },
  {
    "postal": "N4G8E3",
    "result": []
  },
  {
    "postal": "N4G5S8",
    "result": [
      {
        "electoralDistricts": [
          {
            "election": null,
            "id": 82,
            "name": "Oxford"
          }
        ],
        "pollDivisionIds": [
          10140918
        ],
        "postalCode": "N4G5S8",
        "streetName": "MORNING GLORY",
        "streetDirectionId": null,
        "streetTypeId": "DR",
        "placeName": "TILLSONBURG",
        "streetNameDisplayText": "MORNING GLORY DR, TILLSONBURG"
      },
      {
        "electoralDistricts": [
          {
            "election": null,
            "id": 82,
            "name": "Oxford"
          }
        ],
        "pollDivisionIds": [
          10140918
        ],
        "postalCode": "N4G5S8",
        "streetName": "PRIMROSE",
        "streetDirectionId": null,
        "streetTypeId": "DR",
        "placeName": "TILLSONBURG",
        "streetNameDisplayText": "PRIMROSE DR, TILLSONBURG"
      },
      {
        "electoralDistricts": [
          {
            "election": null,
            "id": 82,
            "name": "Oxford"
          }
        ],
        "pollDivisionIds": [
          10140918
        ],
        "postalCode": "N4G5S8",
        "streetName": "PRIMROSE",
        "streetDirectionId": null,
        "streetTypeId": "ST",
        "placeName": "TILLSONBURG",
        "streetNameDisplayText": "PRIMROSE ST, TILLSONBURG"
      },
      {
        "electoralDistricts": [
          {
            "election": null,
            "id": 82,
            "name": "Oxford"
          }
        ],
        "pollDivisionIds": [
          10140918
        ],
        "postalCode": "N4G5S8",
        "streetName": "TRILLIUM",
        "streetDirectionId": null,
        "streetTypeId": "DR",
        "placeName": "TILLSONBURG",
        "streetNameDisplayText": "TRILLIUM DR, TILLSONBURG"
      }
    ]
  },
  {
    "postal": "N4G0R0",
    "result": []
  },
  {
    "postal": "N4G6J6",
    "result": []
  },
  {
    "postal": "N4G4B4",
    "result": [
      {
        "electoralDistricts": [
          {
            "election": null,
            "id": 82,
            "name": "Oxford"
          }
        ],
        "pollDivisionIds": [
          10140915
        ],
        "postalCode": "N4G4B4",
        "streetName": "CAMDON",
        "streetDirectionId": null,
        "streetTypeId": "CRT",
        "placeName": "TILLSONBURG",
        "streetNameDisplayText": "CAMDON CRT, TILLSONBURG"
      }
    ]
  },
  {
    "postal": "N4G7E3",
    "result": []
  },
  {
    "postal": "N4G3N6",
    "result": [
      {
        "electoralDistricts": [
          {
            "election": null,
            "id": 82,
            "name": "Oxford"
          }
        ],
        "pollDivisionIds": [
          10143216
        ],
        "postalCode": "N4G3N6",
        "streetName": "PARK",
        "streetDirectionId": null,
        "streetTypeId": "AVE",
        "placeName": "TILLSONBURG",
        "streetNameDisplayText": "PARK AVE, TILLSONBURG"
      }
    ]
  },
  {
    "postal": "N4G3X6",
    "result": [
      {
        "electoralDistricts": [
          {
            "election": null,
            "id": 82,
            "name": "Oxford"
          }
        ],
        "pollDivisionIds": [
          10140915
        ],
        "postalCode": "N4G3X6",
        "streetName": "ANN",
        "streetDirectionId": null,
        "streetTypeId": "ST",
        "placeName": "TILLSONBURG",
        "streetNameDisplayText": "ANN ST, TILLSONBURG"
      }
    ]
  },
  {
    "postal": "N4G8L0",
    "result": []
  },
  {
    "postal": "N4G8N1",
    "result": []
  },
  {
    "postal": "N4G4J0",
    "result": []
  },
  {
    "postal": "N4G0X7",
    "result": []
  },
  {
    "postal": "N4G6S4",
    "result": []
  },
  {
    "postal": "N4G0Z0",
    "result": []
  },
  {
    "postal": "N4G9X8",
    "result": []
  },
  {
    "postal": "N4G3H3",
    "result": [
      {
        "electoralDistricts": [
          {
            "election": null,
            "id": 82,
            "name": "Oxford"
          }
        ],
        "pollDivisionIds": [
          10143216
        ],
        "postalCode": "N4G3H3",
        "streetName": "QUEEN",
        "streetDirectionId": null,
        "streetTypeId": "ST",
        "placeName": "TILLSONBURG",
        "streetNameDisplayText": "QUEEN ST, TILLSONBURG"
      }
    ]
  },
  {
    "postal": "N4G7S2",
    "result": []
  },
  {
    "postal": "N4G3T3",
    "result": [
      {
        "electoralDistricts": [
          {
            "election": null,
            "id": 82,
            "name": "Oxford"
          }
        ],
        "pollDivisionIds": [
          10143216
        ],
        "postalCode": "N4G3T3",
        "streetName": "BIDWELL",
        "streetDirectionId": null,
        "streetTypeId": "ST",
        "placeName": "TILLSONBURG",
        "streetNameDisplayText": "BIDWELL ST, TILLSONBURG"
      }
    ]
  },
  {
    "postal": "N4G9P3",
    "result": []
  },
  {
    "postal": "N4G4H8",
    "result": [
      {
        "electoralDistricts": [
          {
            "election": null,
            "id": 82,
            "name": "Oxford"
          }
        ],
        "pollDivisionIds": [
          10140920
        ],
        "postalCode": "N4G4H8",
        "streetName": "MAIN",
        "streetDirectionId": "E",
        "streetTypeId": "ST",
        "placeName": "SPRINGFORD",
        "streetNameDisplayText": "MAIN ST E, SPRINGFORD"
      }
    ]
  },
  {
    "postal": "N4G6R1",
    "result": []
  },
  {
    "postal": "N4G1S0",
    "result": []
  },
  {
    "postal": "N4G3W8",
    "result": [
      {
        "electoralDistricts": [
          {
            "election": null,
            "id": 82,
            "name": "Oxford"
          }
        ],
        "pollDivisionIds": [
          10143216
        ],
        "postalCode": "N4G3W8",
        "streetName": "HARDY",
        "streetDirectionId": null,
        "streetTypeId": "AVE",
        "placeName": "TILLSONBURG",
        "streetNameDisplayText": "HARDY AVE, TILLSONBURG"
      }
    ]
  },
  {
    "postal": "N4G4S3",
    "result": [
      {
        "electoralDistricts": [
          {
            "election": null,
            "id": 82,
            "name": "Oxford"
          }
        ],
        "pollDivisionIds": [
          10140917
        ],
        "postalCode": "N4G4S3",
        "streetName": "LOWRIE",
        "streetDirectionId": null,
        "streetTypeId": "CRES",
        "placeName": "TILLSONBURG",
        "streetNameDisplayText": "LOWRIE CRES, TILLSONBURG"
      }
    ]
  },
  {
    "postal": "N4G1B6",
    "result": [
      {
        "electoralDistricts": [
          {
            "election": null,
            "id": 82,
            "name": "Oxford"
          }
        ],
        "pollDivisionIds": [
          10143216
        ],
        "postalCode": "N4G1B6",
        "streetName": "NORTH",
        "streetDirectionId": "E",
        "streetTypeId": "ST",
        "placeName": "TILLSONBURG",
        "streetNameDisplayText": "NORTH ST E, TILLSONBURG"
      }
    ]
  },
  {
    "postal": "N4G8R3",
    "result": []
  },
  {
    "postal": "N4G4V9",
    "result": [
      {
        "electoralDistricts": [
          {
            "election": null,
            "id": 82,
            "name": "Oxford"
          }
        ],
        "pollDivisionIds": [
          10140917
        ],
        "postalCode": "N4G4V9",
        "streetName": "DENRICH",
        "streetDirectionId": null,
        "streetTypeId": "AVE",
        "placeName": "TILLSONBURG",
        "streetNameDisplayText": "DENRICH AVE, TILLSONBURG"
      }
    ]
  },
  {
    "postal": "N4G9W4",
    "result": []
  },
  {
    "postal": "N4G3T4",
    "result": [
      {
        "electoralDistricts": [
          {
            "election": null,
            "id": 82,
            "name": "Oxford"
          }
        ],
        "pollDivisionIds": [
          10140917
        ],
        "postalCode": "N4G3T4",
        "streetName": "BIDWELL",
        "streetDirectionId": null,
        "streetTypeId": "ST",
        "placeName": "TILLSONBURG",
        "streetNameDisplayText": "BIDWELL ST, TILLSONBURG"
      }
    ]
  },
  {
    "postal": "N4G5C7",
    "result": [
      {
        "electoralDistricts": [
          {
            "election": null,
            "id": 82,
            "name": "Oxford"
          }
        ],
        "pollDivisionIds": [
          10143216
        ],
        "postalCode": "N4G5C7",
        "streetName": "DEMEYERE",
        "streetDirectionId": null,
        "streetTypeId": "AVE",
        "placeName": "TILLSONBURG",
        "streetNameDisplayText": "DEMEYERE AVE, TILLSONBURG"
      }
    ]
  },
  {
    "postal": "N4G3Y1",
    "result": [
      {
        "electoralDistricts": [
          {
            "election": null,
            "id": 82,
            "name": "Oxford"
          }
        ],
        "pollDivisionIds": [
          10140917
        ],
        "postalCode": "N4G3Y1",
        "streetName": "ROLPH",
        "streetDirectionId": null,
        "streetTypeId": "ST",
        "placeName": "TILLSONBURG",
        "streetNameDisplayText": "ROLPH ST, TILLSONBURG"
      }
    ]
  },
  {
    "postal": "N4G5V0",
    "result": []
  },
  {
    "postal": "N4G8G8",
    "result": []
  },
  {
    "postal": "N4G8B1",
    "result": []
  },
  {
    "postal": "N4G4P5",
    "result": [
      {
        "electoralDistricts": [
          {
            "election": null,
            "id": 82,
            "name": "Oxford"
          }
        ],
        "pollDivisionIds": [
          10143216
        ],
        "postalCode": "N4G4P5",
        "streetName": "STUBBS",
        "streetDirectionId": null,
        "streetTypeId": "CRT",
        "placeName": "TILLSONBURG",
        "streetNameDisplayText": "STUBBS CRT, TILLSONBURG"
      }
    ]
  },
  {
    "postal": "N4G7B2",
    "result": []
  },
  {
    "postal": "N4G0R2",
    "result": []
  },
  {
    "postal": "N4G4M4",
    "result": [
      {
        "electoralDistricts": [
          {
            "election": null,
            "id": 82,
            "name": "Oxford"
          }
        ],
        "pollDivisionIds": [
          10140918
        ],
        "postalCode": "N4G4M4",
        "streetName": "VANCE",
        "streetDirectionId": null,
        "streetTypeId": "DR",
        "placeName": "TILLSONBURG",
        "streetNameDisplayText": "VANCE DR, TILLSONBURG"
      }
    ]
  },
  {
    "postal": "N4G7M4",
    "result": []
  },
  {
    "postal": "N4G9S7",
    "result": []
  },
  {
    "postal": "N4G5Z7",
    "result": []
  },
  {
    "postal": "N4G7J7",
    "result": []
  },
  {
    "postal": "N4G8R8",
    "result": []
  },
  {
    "postal": "N4G9X1",
    "result": []
  },
  {
    "postal": "N4G5M9",
    "result": [
      {
        "electoralDistricts": [
          {
            "election": null,
            "id": 82,
            "name": "Oxford"
          }
        ],
        "pollDivisionIds": [
          10140915
        ],
        "postalCode": "N4G5M9",
        "streetName": "HUNTER",
        "streetDirectionId": null,
        "streetTypeId": "CRES",
        "placeName": "TILLSONBURG",
        "streetNameDisplayText": "HUNTER CRES, TILLSONBURG"
      },
      {
        "electoralDistricts": [
          {
            "election": null,
            "id": 82,
            "name": "Oxford"
          }
        ],
        "pollDivisionIds": [
          10140915
        ],
        "postalCode": "N4G5M9",
        "streetName": "WINDEMERE",
        "streetDirectionId": null,
        "streetTypeId": "AVE",
        "placeName": "TILLSONBURG",
        "streetNameDisplayText": "WINDEMERE AVE, TILLSONBURG"
      }
    ]
  },
  {
    "postal": "N4G9B4",
    "result": []
  },
  {
    "postal": "N4G0L9",
    "result": []
  },
  {
    "postal": "N4G9G4",
    "result": []
  },
  {
    "postal": "N4G1J4",
    "result": [
      {
        "electoralDistricts": [
          {
            "election": null,
            "id": 82,
            "name": "Oxford"
          }
        ],
        "pollDivisionIds": [
          10140915
        ],
        "postalCode": "N4G1J4",
        "streetName": "GLENDALE",
        "streetDirectionId": null,
        "streetTypeId": "DR",
        "placeName": "TILLSONBURG",
        "streetNameDisplayText": "GLENDALE DR, TILLSONBURG"
      }
    ]
  },
  {
    "postal": "N4G0W6",
    "result": []
  }
]
