[
  {
    "postal": "N8A9J6",
    "result": []
  },
  {
    "postal": "N8A9Z5",
    "result": []
  },
  {
    "postal": "N8A7H8",
    "result": []
  },
  {
    "postal": "N8A0P6",
    "result": []
  },
  {
    "postal": "N8A0S7",
    "result": []
  },
  {
    "postal": "N8A8B9",
    "result": []
  },
  {
    "postal": "N8A2A6",
    "result": [
      {
        "electoralDistricts": [
          {
            "election": null,
            "id": 50,
            "name": "Lambton—Kent—Middlesex"
          }
        ],
        "pollDivisionIds": [
          10139366
        ],
        "postalCode": "N8A2A6",
        "streetName": "MARGARET",
        "streetDirectionId": null,
        "streetTypeId": "AVE",
        "placeName": "WALLACEBURG",
        "streetNameDisplayText": "MARGARET AVE, WALLACEBURG"
      }
    ]
  },
  {
    "postal": "N8A7V2",
    "result": []
  },
  {
    "postal": "N8A9P4",
    "result": []
  },
  {
    "postal": "N8A6G0",
    "result": []
  },
  {
    "postal": "N8A2K0",
    "result": []
  },
  {
    "postal": "N8A7N6",
    "result": []
  },
  {
    "postal": "N8A5R3",
    "result": []
  },
  {
    "postal": "N8A7K0",
    "result": []
  },
  {
    "postal": "N8A3R2",
    "result": [
      {
        "electoralDistricts": [
          {
            "election": null,
            "id": 50,
            "name": "Lambton—Kent—Middlesex"
          }
        ],
        "pollDivisionIds": [
          10143164,
          10143351
        ],
        "postalCode": "N8A3R2",
        "streetName": "FIRST",
        "streetDirectionId": null,
        "streetTypeId": "ST",
        "placeName": "WALLACEBURG",
        "streetNameDisplayText": "FIRST ST, WALLACEBURG"
      }
    ]
  },
  {
    "postal": "N8A0J1",
    "result": []
  },
  {
    "postal": "N8A0B0",
    "result": []
  },
  {
    "postal": "N8A5Z2",
    "result": []
  },
  {
    "postal": "N8A7P3",
    "result": []
  },
  {
    "postal": "N8A2K3",
    "result": [
      {
        "electoralDistricts": [
          {
            "election": null,
            "id": 50,
            "name": "Lambton—Kent—Middlesex"
          }
        ],
        "pollDivisionIds": [
          10139366
        ],
        "postalCode": "N8A2K3",
        "streetName": "DORA",
        "streetDirectionId": null,
        "streetTypeId": "DR",
        "placeName": "WALLACEBURG",
        "streetNameDisplayText": "DORA DR, WALLACEBURG"
      }
    ]
  },
  {
    "postal": "N8A7Y6",
    "result": []
  },
  {
    "postal": "N8A1L9",
    "result": [
      {
        "electoralDistricts": [
          {
            "election": null,
            "id": 50,
            "name": "Lambton—Kent—Middlesex"
          }
        ],
        "pollDivisionIds": [
          10143164
        ],
        "postalCode": "N8A1L9",
        "streetName": "WALLACE",
        "streetDirectionId": null,
        "streetTypeId": "ST",
        "placeName": "WALLACEBURG",
        "streetNameDisplayText": "WALLACE ST, WALLACEBURG"
      }
    ]
  },
  {
    "postal": "N8A8T0",
    "result": []
  },
  {
    "postal": "N8A3K8",
    "result": [
      {
        "electoralDistricts": [
          {
            "election": null,
            "id": 50,
            "name": "Lambton—Kent—Middlesex"
          }
        ],
        "pollDivisionIds": [
          10143351
        ],
        "postalCode": "N8A3K8",
        "streetName": "RUNNING CREEK",
        "streetDirectionId": null,
        "streetTypeId": "DR",
        "placeName": "WALLACEBURG",
        "streetNameDisplayText": "RUNNING CREEK DR, WALLACEBURG"
      }
    ]
  },
  {
    "postal": "N8A5W9",
    "result": []
  },
  {
    "postal": "N8A6T9",
    "result": []
  },
  {
    "postal": "N8A4H1",
    "result": [
      {
        "electoralDistricts": [
          {
            "election": null,
            "id": 50,
            "name": "Lambton—Kent—Middlesex"
          }
        ],
        "pollDivisionIds": [
          10143351
        ],
        "postalCode": "N8A4H1",
        "streetName": "NELSON",
        "streetDirectionId": null,
        "streetTypeId": "ST",
        "placeName": "WALLACEBURG",
        "streetNameDisplayText": "NELSON ST, WALLACEBURG"
      }
    ]
  },
  {
    "postal": "N8A7A2",
    "result": []
  },
  {
    "postal": "N8A5G0",
    "result": []
  },
  {
    "postal": "N8A8V5",
    "result": []
  },
  {
    "postal": "N8A2Y8",
    "result": []
  },
  {
    "postal": "N8A2B6",
    "result": [
      {
        "electoralDistricts": [
          {
            "election": null,
            "id": 50,
            "name": "Lambton—Kent—Middlesex"
          }
        ],
        "pollDivisionIds": [
          10139366
        ],
        "postalCode": "N8A2B6",
        "streetName": "PARK",
        "streetDirectionId": null,
        "streetTypeId": "ST",
        "placeName": "WALLACEBURG",
        "streetNameDisplayText": "PARK ST, WALLACEBURG"
      }
    ]
  },
  {
    "postal": "N8A4W8",
    "result": [
      {
        "electoralDistricts": [
          {
            "election": null,
            "id": 50,
            "name": "Lambton—Kent—Middlesex"
          }
        ],
        "pollDivisionIds": [
          10143164
        ],
        "postalCode": "N8A4W8",
        "streetName": "MCDOUGAL",
        "streetDirectionId": null,
        "streetTypeId": "ST",
        "placeName": "WALLACEBURG",
        "streetNameDisplayText": "MCDOUGAL ST, WALLACEBURG"
      },
      {
        "electoralDistricts": [
          {
            "election": null,
            "id": 50,
            "name": "Lambton—Kent—Middlesex"
          }
        ],
        "pollDivisionIds": [
          10143164
        ],
        "postalCode": "N8A4W8",
        "streetName": "WALLACE",
        "streetDirectionId": null,
        "streetTypeId": "ST",
        "placeName": "WALLACEBURG",
        "streetNameDisplayText": "WALLACE ST, WALLACEBURG"
      }
    ]
  },
  {
    "postal": "N8A8H7",
    "result": []
  },
  {
    "postal": "N8A5P1",
    "result": []
  },
  {
    "postal": "N8A2B8",
    "result": [
      {
        "electoralDistricts": [
          {
            "election": null,
            "id": 50,
            "name": "Lambton—Kent—Middlesex"
          }
        ],
        "pollDivisionIds": [
          10139366
        ],
        "postalCode": "N8A2B8",
        "streetName": "THOMAS",
        "streetDirectionId": null,
        "streetTypeId": "AVE",
        "placeName": "WALLACEBURG",
        "streetNameDisplayText": "THOMAS AVE, WALLACEBURG"
      }
    ]
  },
  {
    "postal": "N8A0P2",
    "result": []
  },
  {
    "postal": "N8A9M1",
    "result": []
  },
  {
    "postal": "N8A3G0",
    "result": []
  },
  {
    "postal": "N8A9Z2",
    "result": []
  },
  {
    "postal": "N8A2A0",
    "result": []
  },
  {
    "postal": "N8A6Y0",
    "result": []
  },
  {
    "postal": "N8A2Z8",
    "result": [
      {
        "electoralDistricts": [
          {
            "election": null,
            "id": 50,
            "name": "Lambton—Kent—Middlesex"
          }
        ],
        "pollDivisionIds": [
          10143351
        ],
        "postalCode": "N8A2Z8",
        "streetName": "ELIZABETH",
        "streetDirectionId": null,
        "streetTypeId": "ST",
        "placeName": "WALLACEBURG",
        "streetNameDisplayText": "ELIZABETH ST, WALLACEBURG"
      }
    ]
  },
  {
    "postal": "N8A7Y3",
    "result": []
  },
  {
    "postal": "N8A6Z5",
    "result": []
  },
  {
    "postal": "N8A6E0",
    "result": []
  },
  {
    "postal": "N8A9B7",
    "result": []
  },
  {
    "postal": "N8A9S5",
    "result": []
  },
  {
    "postal": "N8A3X3",
    "result": [
      {
        "electoralDistricts": [
          {
            "election": null,
            "id": 50,
            "name": "Lambton—Kent—Middlesex"
          }
        ],
        "pollDivisionIds": [
          10143351
        ],
        "postalCode": "N8A3X3",
        "streetName": "SELKIRK",
        "streetDirectionId": null,
        "streetTypeId": "ST",
        "placeName": "WALLACEBURG",
        "streetNameDisplayText": "SELKIRK ST, WALLACEBURG"
      }
    ]
  },
  {
    "postal": "N8A7R5",
    "result": []
  },
  {
    "postal": "N8A2X3",
    "result": [
      {
        "electoralDistricts": [
          {
            "election": null,
            "id": 50,
            "name": "Lambton—Kent—Middlesex"
          }
        ],
        "pollDivisionIds": [
          10143162,
          10143164
        ],
        "postalCode": "N8A2X3",
        "streetName": "DUFFERIN",
        "streetDirectionId": null,
        "streetTypeId": "AVE",
        "placeName": "WALLACEBURG",
        "streetNameDisplayText": "DUFFERIN AVE, WALLACEBURG"
      }
    ]
  },
  {
    "postal": "N8A8Z9",
    "result": []
  },
  {
    "postal": "N8A0N4",
    "result": []
  },
  {
    "postal": "N8A1K1",
    "result": [
      {
        "electoralDistricts": [
          {
            "election": null,
            "id": 50,
            "name": "Lambton—Kent—Middlesex"
          }
        ],
        "pollDivisionIds": [
          10143164
        ],
        "postalCode": "N8A1K1",
        "streetName": "BRUCE",
        "streetDirectionId": null,
        "streetTypeId": "ST",
        "placeName": "WALLACEBURG",
        "streetNameDisplayText": "BRUCE ST, WALLACEBURG"
      }
    ]
  },
  {
    "postal": "N8A1S3",
    "result": [
      {
        "electoralDistricts": [
          {
            "election": null,
            "id": 50,
            "name": "Lambton—Kent—Middlesex"
          }
        ],
        "pollDivisionIds": [
          10143164
        ],
        "postalCode": "N8A1S3",
        "streetName": "SANFORD",
        "streetDirectionId": null,
        "streetTypeId": "ST",
        "placeName": "WALLACEBURG",
        "streetNameDisplayText": "SANFORD ST, WALLACEBURG"
      }
    ]
  },
  {
    "postal": "N8A6M4",
    "result": []
  },
  {
    "postal": "N8A9A9",
    "result": []
  },
  {
    "postal": "N8A9Z9",
    "result": []
  },
  {
    "postal": "N8A6T4",
    "result": []
  },
  {
    "postal": "N8A0B2",
    "result": []
  },
  {
    "postal": "N8A2L9",
    "result": [
      {
        "electoralDistricts": [
          {
            "election": null,
            "id": 50,
            "name": "Lambton—Kent—Middlesex"
          }
        ],
        "pollDivisionIds": [
          10143163
        ],
        "postalCode": "N8A2L9",
        "streetName": "GARNET",
        "streetDirectionId": null,
        "streetTypeId": "ST",
        "placeName": "WALLACEBURG",
        "streetNameDisplayText": "GARNET ST, WALLACEBURG"
      }
    ]
  },
  {
    "postal": "N8A8K9",
    "result": []
  },
  {
    "postal": "N8A2H9",
    "result": [
      {
        "electoralDistricts": [
          {
            "election": null,
            "id": 50,
            "name": "Lambton—Kent—Middlesex"
          }
        ],
        "pollDivisionIds": [
          10139366
        ],
        "postalCode": "N8A2H9",
        "streetName": "DUNDAS",
        "streetDirectionId": null,
        "streetTypeId": "ST",
        "placeName": "WALLACEBURG",
        "streetNameDisplayText": "DUNDAS ST, WALLACEBURG"
      }
    ]
  },
  {
    "postal": "N8A3Z6",
    "result": [
      {
        "electoralDistricts": [
          {
            "election": null,
            "id": 50,
            "name": "Lambton—Kent—Middlesex"
          }
        ],
        "pollDivisionIds": [
          10143351
        ],
        "postalCode": "N8A3Z6",
        "streetName": "UNIVERSITY",
        "streetDirectionId": null,
        "streetTypeId": "AVE",
        "placeName": "WALLACEBURG",
        "streetNameDisplayText": "UNIVERSITY AVE, WALLACEBURG"
      }
    ]
  },
  {
    "postal": "N8A3B0",
    "result": []
  },
  {
    "postal": "N8A2H8",
    "result": [
      {
        "electoralDistricts": [
          {
            "election": null,
            "id": 50,
            "name": "Lambton—Kent—Middlesex"
          }
        ],
        "pollDivisionIds": [
          10139366
        ],
        "postalCode": "N8A2H8",
        "streetName": "DUNDAS",
        "streetDirectionId": null,
        "streetTypeId": "ST",
        "placeName": "WALLACEBURG",
        "streetNameDisplayText": "DUNDAS ST, WALLACEBURG"
      }
    ]
  },
  {
    "postal": "N8A3X2",
    "result": [
      {
        "electoralDistricts": [
          {
            "election": null,
            "id": 50,
            "name": "Lambton—Kent—Middlesex"
          }
        ],
        "pollDivisionIds": [
          10143163
        ],
        "postalCode": "N8A3X2",
        "streetName": "SELKIRK",
        "streetDirectionId": null,
        "streetTypeId": "ST",
        "placeName": "WALLACEBURG",
        "streetNameDisplayText": "SELKIRK ST, WALLACEBURG"
      }
    ]
  },
  {
    "postal": "N8A2E9",
    "result": [
      {
        "electoralDistricts": [
          {
            "election": null,
            "id": 50,
            "name": "Lambton—Kent—Middlesex"
          }
        ],
        "pollDivisionIds": [
          10139366
        ],
        "postalCode": "N8A2E9",
        "streetName": "WATER",
        "streetDirectionId": null,
        "streetTypeId": "ST",
        "placeName": "WALLACEBURG",
        "streetNameDisplayText": "WATER ST, WALLACEBURG"
      }
    ]
  },
  {
    "postal": "N8A9P6",
    "result": []
  },
  {
    "postal": "N8A9E2",
    "result": []
  },
  {
    "postal": "N8A9H2",
    "result": []
  },
  {
    "postal": "N8A1S8",
    "result": [
      {
        "electoralDistricts": [
          {
            "election": null,
            "id": 50,
            "name": "Lambton—Kent—Middlesex"
          }
        ],
        "pollDivisionIds": [
          10143164
        ],
        "postalCode": "N8A1S8",
        "streetName": "HOPE",
        "streetDirectionId": null,
        "streetTypeId": "ST",
        "placeName": "WALLACEBURG",
        "streetNameDisplayText": "HOPE ST, WALLACEBURG"
      }
    ]
  },
  {
    "postal": "N8A3M6",
    "result": [
      {
        "electoralDistricts": [
          {
            "election": null,
            "id": 50,
            "name": "Lambton—Kent—Middlesex"
          }
        ],
        "pollDivisionIds": [
          10143162
        ],
        "postalCode": "N8A3M6",
        "streetName": "ELM",
        "streetDirectionId": "S",
        "streetTypeId": "DR",
        "placeName": "WALLACEBURG",
        "streetNameDisplayText": "ELM DR S, WALLACEBURG"
      }
    ]
  },
  {
    "postal": "N8A6Z8",
    "result": []
  },
  {
    "postal": "N8A4J2",
    "result": [
      {
        "electoralDistricts": [
          {
            "election": null,
            "id": 50,
            "name": "Lambton—Kent—Middlesex"
          }
        ],
        "pollDivisionIds": [
          10143351
        ],
        "postalCode": "N8A4J2",
        "streetName": "LAFONTAINE",
        "streetDirectionId": null,
        "streetTypeId": "ST",
        "placeName": "WALLACEBURG",
        "streetNameDisplayText": "LAFONTAINE ST, WALLACEBURG"
      }
    ]
  },
  {
    "postal": "N8A9Y1",
    "result": []
  },
  {
    "postal": "N8A8V6",
    "result": []
  },
  {
    "postal": "N8A6B2",
    "result": []
  },
  {
    "postal": "N8A1P8",
    "result": [
      {
        "electoralDistricts": [
          {
            "election": null,
            "id": 50,
            "name": "Lambton—Kent—Middlesex"
          }
        ],
        "pollDivisionIds": [
          10143164
        ],
        "postalCode": "N8A1P8",
        "streetName": "MILL",
        "streetDirectionId": null,
        "streetTypeId": "ST",
        "placeName": "WALLACEBURG",
        "streetNameDisplayText": "MILL ST, WALLACEBURG"
      }
    ]
  },
  {
    "postal": "N8A0V8",
    "result": []
  },
  {
    "postal": "N8A4Y0",
    "result": []
  },
  {
    "postal": "N8A2T4",
    "result": [
      {
        "electoralDistricts": [
          {
            "election": null,
            "id": 50,
            "name": "Lambton—Kent—Middlesex"
          }
        ],
        "pollDivisionIds": [
          10143163
        ],
        "postalCode": "N8A2T4",
        "streetName": "BOOK",
        "streetDirectionId": null,
        "streetTypeId": "ST",
        "placeName": "WALLACEBURG",
        "streetNameDisplayText": "BOOK ST, WALLACEBURG"
      }
    ]
  },
  {
    "postal": "N8A2S3",
    "result": [
      {
        "electoralDistricts": [
          {
            "election": null,
            "id": 50,
            "name": "Lambton—Kent—Middlesex"
          }
        ],
        "pollDivisionIds": [
          10143163
        ],
        "postalCode": "N8A2S3",
        "streetName": "BLAKE",
        "streetDirectionId": null,
        "streetTypeId": "ST",
        "placeName": "WALLACEBURG",
        "streetNameDisplayText": "BLAKE ST, WALLACEBURG"
      }
    ]
  },
  {
    "postal": "N8A0K0",
    "result": []
  },
  {
    "postal": "N8A5N1",
    "result": []
  },
  {
    "postal": "N8A7T0",
    "result": []
  },
  {
    "postal": "N8A9N2",
    "result": []
  },
  {
    "postal": "N8A5L1",
    "result": []
  },
  {
    "postal": "N8A7G5",
    "result": []
  },
  {
    "postal": "N8A6K2",
    "result": []
  },
  {
    "postal": "N8A6P9",
    "result": []
  },
  {
    "postal": "N8A0E6",
    "result": []
  },
  {
    "postal": "N8A8R9",
    "result": []
  },
  {
    "postal": "N8A3G9",
    "result": [
      {
        "electoralDistricts": [
          {
            "election": null,
            "id": 50,
            "name": "Lambton—Kent—Middlesex"
          }
        ],
        "pollDivisionIds": [
          10143351
        ],
        "postalCode": "N8A3G9",
        "streetName": "WALL",
        "streetDirectionId": null,
        "streetTypeId": "ST",
        "placeName": "WALLACEBURG",
        "streetNameDisplayText": "WALL ST, WALLACEBURG"
      }
    ]
  },
  {
    "postal": "N8A0V7",
    "result": []
  },
  {
    "postal": "N8A2Z1",
    "result": [
      {
        "electoralDistricts": [
          {
            "election": null,
            "id": 50,
            "name": "Lambton—Kent—Middlesex"
          }
        ],
        "pollDivisionIds": [
          10143351
        ],
        "postalCode": "N8A2Z1",
        "streetName": "ELIZABETH",
        "streetDirectionId": null,
        "streetTypeId": "ST",
        "placeName": "WALLACEBURG",
        "streetNameDisplayText": "ELIZABETH ST, WALLACEBURG"
      }
    ]
  },
  {
    "postal": "N8A7N1",
    "result": []
  },
  {
    "postal": "N8A3C6",
    "result": [
      {
        "electoralDistricts": [
          {
            "election": null,
            "id": 50,
            "name": "Lambton—Kent—Middlesex"
          }
        ],
        "pollDivisionIds": [
          10143351
        ],
        "postalCode": "N8A3C6",
        "streetName": "ELGIN",
        "streetDirectionId": null,
        "streetTypeId": "ST",
        "placeName": "WALLACEBURG",
        "streetNameDisplayText": "ELGIN ST, WALLACEBURG"
      }
    ]
  },
  {
    "postal": "N8A4M1",
    "result": [
      {
        "electoralDistricts": [
          {
            "election": null,
            "id": 50,
            "name": "Lambton—Kent—Middlesex"
          }
        ],
        "pollDivisionIds": [
          10143163,
          10143162
        ],
        "postalCode": "N8A4M1",
        "streetName": "MASON",
        "streetDirectionId": null,
        "streetTypeId": "ST",
        "placeName": "WALLACEBURG",
        "streetNameDisplayText": "MASON ST, WALLACEBURG"
      }
    ]
  },
  {
    "postal": "N8A9K2",
    "result": []
  },
  {
    "postal": "N8A9S6",
    "result": []
  },
  {
    "postal": "N8A4X1",
    "result": []
  },
  {
    "postal": "N8A8W2",
    "result": []
  },
  {
    "postal": "N8A7N2",
    "result": []
  },
  {
    "postal": "N8A8S3",
    "result": []
  },
  {
    "postal": "N8A4V0",
    "result": []
  },
  {
    "postal": "N8A6W4",
    "result": []
  },
  {
    "postal": "N8A5M1",
    "result": []
  },
  {
    "postal": "N8A0S4",
    "result": []
  },
  {
    "postal": "N8A5X6",
    "result": []
  },
  {
    "postal": "N8A8L5",
    "result": []
  },
  {
    "postal": "N8A5M8",
    "result": []
  },
  {
    "postal": "N8A2G3",
    "result": [
      {
        "electoralDistricts": [
          {
            "election": null,
            "id": 50,
            "name": "Lambton—Kent—Middlesex"
          }
        ],
        "pollDivisionIds": [
          10139366
        ],
        "postalCode": "N8A2G3",
        "streetName": "WATER",
        "streetDirectionId": null,
        "streetTypeId": "ST",
        "placeName": "WALLACEBURG",
        "streetNameDisplayText": "WATER ST, WALLACEBURG"
      }
    ]
  },
  {
    "postal": "N8A8E4",
    "result": []
  },
  {
    "postal": "N8A7S9",
    "result": []
  },
  {
    "postal": "N8A1K3",
    "result": [
      {
        "electoralDistricts": [
          {
            "election": null,
            "id": 50,
            "name": "Lambton—Kent—Middlesex"
          }
        ],
        "pollDivisionIds": [
          10143164,
          10139366
        ],
        "postalCode": "N8A1K3",
        "streetName": "WALLACE",
        "streetDirectionId": null,
        "streetTypeId": "ST",
        "placeName": "WALLACEBURG",
        "streetNameDisplayText": "WALLACE ST, WALLACEBURG"
      }
    ]
  },
  {
    "postal": "N8A4E1",
    "result": []
  },
  {
    "postal": "N8A4R2",
    "result": [
      {
        "electoralDistricts": [
          {
            "election": null,
            "id": 50,
            "name": "Lambton—Kent—Middlesex"
          }
        ],
        "pollDivisionIds": [
          10143351
        ],
        "postalCode": "N8A4R2",
        "streetName": "NELSON",
        "streetDirectionId": null,
        "streetTypeId": "ST",
        "placeName": "WALLACEBURG",
        "streetNameDisplayText": "NELSON ST, WALLACEBURG"
      }
    ]
  },
  {
    "postal": "N8A6T0",
    "result": []
  },
  {
    "postal": "N8A3K5",
    "result": [
      {
        "electoralDistricts": [
          {
            "election": null,
            "id": 50,
            "name": "Lambton—Kent—Middlesex"
          }
        ],
        "pollDivisionIds": [
          10143351
        ],
        "postalCode": "N8A3K5",
        "streetName": "RUNNING CREEK",
        "streetDirectionId": null,
        "streetTypeId": "DR",
        "placeName": "WALLACEBURG",
        "streetNameDisplayText": "RUNNING CREEK DR, WALLACEBURG"
      }
    ]
  },
  {
    "postal": "N8A3S3",
    "result": [
      {
        "electoralDistricts": [
          {
            "election": null,
            "id": 50,
            "name": "Lambton—Kent—Middlesex"
          }
        ],
        "pollDivisionIds": [
          10143163
        ],
        "postalCode": "N8A3S3",
        "streetName": "FORHAN",
        "streetDirectionId": null,
        "streetTypeId": "ST",
        "placeName": "WALLACEBURG",
        "streetNameDisplayText": "FORHAN ST, WALLACEBURG"
      }
    ]
  },
  {
    "postal": "N8A3L4",
    "result": [
      {
        "electoralDistricts": [
          {
            "election": null,
            "id": 50,
            "name": "Lambton—Kent—Middlesex"
          }
        ],
        "pollDivisionIds": [
          10143162
        ],
        "postalCode": "N8A3L4",
        "streetName": "WALNUT",
        "streetDirectionId": null,
        "streetTypeId": "DR",
        "placeName": "WALLACEBURG",
        "streetNameDisplayText": "WALNUT DR, WALLACEBURG"
      }
    ]
  },
  {
    "postal": "N8A9Y2",
    "result": []
  },
  {
    "postal": "N8A1E0",
    "result": []
  },
  {
    "postal": "N8A9A4",
    "result": []
  },
  {
    "postal": "N8A1L3",
    "result": [
      {
        "electoralDistricts": [
          {
            "election": null,
            "id": 50,
            "name": "Lambton—Kent—Middlesex"
          }
        ],
        "pollDivisionIds": [
          10143164
        ],
        "postalCode": "N8A1L3",
        "streetName": "WALLACE",
        "streetDirectionId": null,
        "streetTypeId": "ST",
        "placeName": "WALLACEBURG",
        "streetNameDisplayText": "WALLACE ST, WALLACEBURG"
      }
    ]
  },
  {
    "postal": "N8A6N1",
    "result": []
  },
  {
    "postal": "N8A6G7",
    "result": []
  },
  {
    "postal": "N8A7W1",
    "result": []
  },
  {
    "postal": "N8A4M6",
    "result": [
      {
        "electoralDistricts": [
          {
            "election": null,
            "id": 50,
            "name": "Lambton—Kent—Middlesex"
          }
        ],
        "pollDivisionIds": [
          10143351
        ],
        "postalCode": "N8A4M6",
        "streetName": "DUFFERIN",
        "streetDirectionId": null,
        "streetTypeId": "AVE",
        "placeName": "WALLACEBURG",
        "streetNameDisplayText": "DUFFERIN AVE, WALLACEBURG"
      }
    ]
  },
  {
    "postal": "N8A1K0",
    "result": []
  },
  {
    "postal": "N8A3E2",
    "result": [
      {
        "electoralDistricts": [
          {
            "election": null,
            "id": 50,
            "name": "Lambton—Kent—Middlesex"
          }
        ],
        "pollDivisionIds": [
          10143351
        ],
        "postalCode": "N8A3E2",
        "streetName": "ELGIN",
        "streetDirectionId": null,
        "streetTypeId": "ST",
        "placeName": "WALLACEBURG",
        "streetNameDisplayText": "ELGIN ST, WALLACEBURG"
      }
    ]
  },
  {
    "postal": "N8A5H4",
    "result": []
  },
  {
    "postal": "N8A1K7",
    "result": [
      {
        "electoralDistricts": [
          {
            "election": null,
            "id": 50,
            "name": "Lambton—Kent—Middlesex"
          }
        ],
        "pollDivisionIds": [
          10143164
        ],
        "postalCode": "N8A1K7",
        "streetName": "WALLACE",
        "streetDirectionId": null,
        "streetTypeId": "ST",
        "placeName": "WALLACEBURG",
        "streetNameDisplayText": "WALLACE ST, WALLACEBURG"
      }
    ]
  },
  {
    "postal": "N8A0H0",
    "result": []
  },
  {
    "postal": "N8A0J3",
    "result": []
  },
  {
    "postal": "N8A1X6",
    "result": [
      {
        "electoralDistricts": [
          {
            "election": null,
            "id": 50,
            "name": "Lambton—Kent—Middlesex"
          }
        ],
        "pollDivisionIds": [
          10143164
        ],
        "postalCode": "N8A1X6",
        "streetName": "ALBERT",
        "streetDirectionId": null,
        "streetTypeId": "ST",
        "placeName": "WALLACEBURG",
        "streetNameDisplayText": "ALBERT ST, WALLACEBURG"
      }
    ]
  },
  {
    "postal": "N8A2Z6",
    "result": []
  },
  {
    "postal": "N8A4R9",
    "result": [
      {
        "electoralDistricts": [
          {
            "election": null,
            "id": 50,
            "name": "Lambton—Kent—Middlesex"
          }
        ],
        "pollDivisionIds": [
          10143351
        ],
        "postalCode": "N8A4R9",
        "streetName": "MAPLE",
        "streetDirectionId": null,
        "streetTypeId": "ST",
        "placeName": "WALLACEBURG",
        "streetNameDisplayText": "MAPLE ST, WALLACEBURG"
      }
    ]
  },
  {
    "postal": "N8A0W8",
    "result": []
  },
  {
    "postal": "N8A1L4",
    "result": [
      {
        "electoralDistricts": [
          {
            "election": null,
            "id": 50,
            "name": "Lambton—Kent—Middlesex"
          }
        ],
        "pollDivisionIds": [
          10143164
        ],
        "postalCode": "N8A1L4",
        "streetName": "WALLACE",
        "streetDirectionId": null,
        "streetTypeId": "ST",
        "placeName": "WALLACEBURG",
        "streetNameDisplayText": "WALLACE ST, WALLACEBURG"
      }
    ]
  },
  {
    "postal": "N8A0C8",
    "result": []
  },
  {
    "postal": "N8A9X7",
    "result": []
  },
  {
    "postal": "N8A4T1",
    "result": [
      {
        "electoralDistricts": [
          {
            "election": null,
            "id": 50,
            "name": "Lambton—Kent—Middlesex"
          }
        ],
        "pollDivisionIds": [
          10139366
        ],
        "postalCode": "N8A4T1",
        "streetName": "HILDA",
        "streetDirectionId": null,
        "streetTypeId": "AVE",
        "placeName": "WALLACEBURG",
        "streetNameDisplayText": "HILDA AVE, WALLACEBURG"
      }
    ]
  },
  {
    "postal": "N8A0M0",
    "result": []
  },
  {
    "postal": "N8A6A2",
    "result": []
  },
  {
    "postal": "N8A9S8",
    "result": []
  },
  {
    "postal": "N8A9T4",
    "result": []
  },
  {
    "postal": "N8A9Y4",
    "result": []
  },
  {
    "postal": "N8A6G5",
    "result": []
  },
  {
    "postal": "N8A6H9",
    "result": []
  },
  {
    "postal": "N8A2P3",
    "result": []
  },
  {
    "postal": "N8A1T6",
    "result": [
      {
        "electoralDistricts": [
          {
            "election": null,
            "id": 50,
            "name": "Lambton—Kent—Middlesex"
          }
        ],
        "pollDivisionIds": [
          10143164
        ],
        "postalCode": "N8A1T6",
        "streetName": "MURRAY",
        "streetDirectionId": null,
        "streetTypeId": "ST",
        "placeName": "WALLACEBURG",
        "streetNameDisplayText": "MURRAY ST, WALLACEBURG"
      }
    ]
  },
  {
    "postal": "N8A4P6",
    "result": []
  },
  {
    "postal": "N8A3K1",
    "result": [
      {
        "electoralDistricts": [
          {
            "election": null,
            "id": 50,
            "name": "Lambton—Kent—Middlesex"
          }
        ],
        "pollDivisionIds": [
          10143351
        ],
        "postalCode": "N8A3K1",
        "streetName": "BRANDER",
        "streetDirectionId": null,
        "streetTypeId": "AVE",
        "placeName": "WALLACEBURG",
        "streetNameDisplayText": "BRANDER AVE, WALLACEBURG"
      }
    ]
  },
  {
    "postal": "N8A6X4",
    "result": []
  },
  {
    "postal": "N8A4M8",
    "result": [
      {
        "electoralDistricts": [
          {
            "election": null,
            "id": 50,
            "name": "Lambton—Kent—Middlesex"
          }
        ],
        "pollDivisionIds": [
          10143351
        ],
        "postalCode": "N8A4M8",
        "streetName": "DUFFERIN",
        "streetDirectionId": null,
        "streetTypeId": "AVE",
        "placeName": "WALLACEBURG",
        "streetNameDisplayText": "DUFFERIN AVE, WALLACEBURG"
      }
    ]
  },
  {
    "postal": "N8A2Y1",
    "result": [
      {
        "electoralDistricts": [
          {
            "election": null,
            "id": 50,
            "name": "Lambton—Kent—Middlesex"
          }
        ],
        "pollDivisionIds": [
          10143351
        ],
        "postalCode": "N8A2Y1",
        "streetName": "DUNCAN",
        "streetDirectionId": null,
        "streetTypeId": "ST",
        "placeName": "WALLACEBURG",
        "streetNameDisplayText": "DUNCAN ST, WALLACEBURG"
      },
      {
        "electoralDistricts": [
          {
            "election": null,
            "id": 50,
            "name": "Lambton—Kent—Middlesex"
          }
        ],
        "pollDivisionIds": [
          10143351
        ],
        "postalCode": "N8A2Y1",
        "streetName": "WELLINGTON",
        "streetDirectionId": null,
        "streetTypeId": "ST",
        "placeName": "WALLACEBURG",
        "streetNameDisplayText": "WELLINGTON ST, WALLACEBURG"
      }
    ]
  },
  {
    "postal": "N8A6M1",
    "result": []
  },
  {
    "postal": "N8A5L8",
    "result": []
  },
  {
    "postal": "N8A3P6",
    "result": [
      {
        "electoralDistricts": [
          {
            "election": null,
            "id": 50,
            "name": "Lambton—Kent—Middlesex"
          }
        ],
        "pollDivisionIds": [
          10143163
        ],
        "postalCode": "N8A3P6",
        "streetName": "THIRD",
        "streetDirectionId": null,
        "streetTypeId": "ST",
        "placeName": "WALLACEBURG",
        "streetNameDisplayText": "THIRD ST, WALLACEBURG"
      }
    ]
  },
  {
    "postal": "N8A9A5",
    "result": []
  },
  {
    "postal": "N8A7K1",
    "result": []
  },
  {
    "postal": "N8A3J4",
    "result": [
      {
        "electoralDistricts": [
          {
            "election": null,
            "id": 50,
            "name": "Lambton—Kent—Middlesex"
          }
        ],
        "pollDivisionIds": [
          10143351
        ],
        "postalCode": "N8A3J4",
        "streetName": "JEANNE",
        "streetDirectionId": null,
        "streetTypeId": "ST",
        "placeName": "WALLACEBURG",
        "streetNameDisplayText": "JEANNE ST, WALLACEBURG"
      }
    ]
  },
  {
    "postal": "N8A5E7",
    "result": [
      {
        "electoralDistricts": [
          {
            "election": null,
            "id": 50,
            "name": "Lambton—Kent—Middlesex"
          }
        ],
        "pollDivisionIds": [
          10143162
        ],
        "postalCode": "N8A5E7",
        "streetName": "ELM",
        "streetDirectionId": "S",
        "streetTypeId": "DR",
        "placeName": "WALLACEBURG",
        "streetNameDisplayText": "ELM DR S, WALLACEBURG"
      }
    ]
  },
  {
    "postal": "N8A3A7",
    "result": [
      {
        "electoralDistricts": [
          {
            "election": null,
            "id": 50,
            "name": "Lambton—Kent—Middlesex"
          }
        ],
        "pollDivisionIds": [
          10143351
        ],
        "postalCode": "N8A3A7",
        "streetName": "ELIZABETH",
        "streetDirectionId": null,
        "streetTypeId": "ST",
        "placeName": "WALLACEBURG",
        "streetNameDisplayText": "ELIZABETH ST, WALLACEBURG"
      }
    ]
  },
  {
    "postal": "N8A1B9",
    "result": [
      {
        "electoralDistricts": [
          {
            "election": null,
            "id": 50,
            "name": "Lambton—Kent—Middlesex"
          }
        ],
        "pollDivisionIds": [
          10143164
        ],
        "postalCode": "N8A1B9",
        "streetName": "ROBERT",
        "streetDirectionId": null,
        "streetTypeId": "ST",
        "placeName": "WALLACEBURG",
        "streetNameDisplayText": "ROBERT ST, WALLACEBURG"
      }
    ]
  },
  {
    "postal": "N8A9E8",
    "result": []
  },
  {
    "postal": "N8A1C9",
    "result": [
      {
        "electoralDistricts": [
          {
            "election": null,
            "id": 50,
            "name": "Lambton—Kent—Middlesex"
          }
        ],
        "pollDivisionIds": [
          10143164
        ],
        "postalCode": "N8A1C9",
        "streetName": "EARL",
        "streetDirectionId": null,
        "streetTypeId": "ST",
        "placeName": "WALLACEBURG",
        "streetNameDisplayText": "EARL ST, WALLACEBURG"
      }
    ]
  },
  {
    "postal": "N8A3B5",
    "result": [
      {
        "electoralDistricts": [
          {
            "election": null,
            "id": 50,
            "name": "Lambton—Kent—Middlesex"
          }
        ],
        "pollDivisionIds": [
          10143351
        ],
        "postalCode": "N8A3B5",
        "streetName": "ELGIN",
        "streetDirectionId": null,
        "streetTypeId": "ST",
        "placeName": "WALLACEBURG",
        "streetNameDisplayText": "ELGIN ST, WALLACEBURG"
      }
    ]
  },
  {
    "postal": "N8A8R0",
    "result": []
  },
  {
    "postal": "N8A3P2",
    "result": [
      {
        "electoralDistricts": [
          {
            "election": null,
            "id": 50,
            "name": "Lambton—Kent—Middlesex"
          }
        ],
        "pollDivisionIds": [
          10143351
        ],
        "postalCode": "N8A3P2",
        "streetName": "FRANCIS",
        "streetDirectionId": null,
        "streetTypeId": "AVE",
        "placeName": "WALLACEBURG",
        "streetNameDisplayText": "FRANCIS AVE, WALLACEBURG"
      }
    ]
  },
  {
    "postal": "N8A5V4",
    "result": []
  },
  {
    "postal": "N8A4H0",
    "result": []
  },
  {
    "postal": "N8A4S7",
    "result": [
      {
        "electoralDistricts": [
          {
            "election": null,
            "id": 50,
            "name": "Lambton—Kent—Middlesex"
          }
        ],
        "pollDivisionIds": [
          10143162
        ],
        "postalCode": "N8A4S7",
        "streetName": "ARGYLE",
        "streetDirectionId": null,
        "streetTypeId": "AVE",
        "placeName": "WALLACEBURG",
        "streetNameDisplayText": "ARGYLE AVE, WALLACEBURG"
      }
    ]
  },
  {
    "postal": "N8A6C2",
    "result": []
  },
  {
    "postal": "N8A8W3",
    "result": []
  },
  {
    "postal": "N8A4M5",
    "result": [
      {
        "electoralDistricts": [
          {
            "election": null,
            "id": 50,
            "name": "Lambton—Kent—Middlesex"
          }
        ],
        "pollDivisionIds": [
          10143351
        ],
        "postalCode": "N8A4M5",
        "streetName": "DUFFERIN",
        "streetDirectionId": null,
        "streetTypeId": "AVE",
        "placeName": "WALLACEBURG",
        "streetNameDisplayText": "DUFFERIN AVE, WALLACEBURG"
      }
    ]
  },
  {
    "postal": "N8A5T1",
    "result": []
  },
  {
    "postal": "N8A3B3",
    "result": [
      {
        "electoralDistricts": [
          {
            "election": null,
            "id": 50,
            "name": "Lambton—Kent—Middlesex"
          }
        ],
        "pollDivisionIds": [
          10143351
        ],
        "postalCode": "N8A3B3",
        "streetName": "BETH",
        "streetDirectionId": null,
        "streetTypeId": "ST",
        "placeName": "WALLACEBURG",
        "streetNameDisplayText": "BETH ST, WALLACEBURG"
      }
    ]
  },
  {
    "postal": "N8A6C6",
    "result": []
  },
  {
    "postal": "N8A7N8",
    "result": []
  },
  {
    "postal": "N8A2Y3",
    "result": []
  },
  {
    "postal": "N8A2R6",
    "result": [
      {
        "electoralDistricts": [
          {
            "election": null,
            "id": 50,
            "name": "Lambton—Kent—Middlesex"
          }
        ],
        "pollDivisionIds": [
          10143351
        ],
        "postalCode": "N8A2R6",
        "streetName": "HIRAM",
        "streetDirectionId": null,
        "streetTypeId": "ST",
        "placeName": "WALLACEBURG",
        "streetNameDisplayText": "HIRAM ST, WALLACEBURG"
      }
    ]
  },
  {
    "postal": "N8A7N3",
    "result": []
  },
  {
    "postal": "N8A8J2",
    "result": []
  },
  {
    "postal": "N8A6A9",
    "result": []
  },
  {
    "postal": "N8A3V2",
    "result": [
      {
        "electoralDistricts": [
          {
            "election": null,
            "id": 50,
            "name": "Lambton—Kent—Middlesex"
          }
        ],
        "pollDivisionIds": [
          10143163
        ],
        "postalCode": "N8A3V2",
        "streetName": "OAK",
        "streetDirectionId": null,
        "streetTypeId": "ST",
        "placeName": "WALLACEBURG",
        "streetNameDisplayText": "OAK ST, WALLACEBURG"
      }
    ]
  },
  {
    "postal": "N8A2N3",
    "result": [
      {
        "electoralDistricts": [
          {
            "election": null,
            "id": 50,
            "name": "Lambton—Kent—Middlesex"
          }
        ],
        "pollDivisionIds": [
          10143351
        ],
        "postalCode": "N8A2N3",
        "streetName": "JAMES",
        "streetDirectionId": null,
        "streetTypeId": "ST",
        "placeName": "WALLACEBURG",
        "streetNameDisplayText": "JAMES ST, WALLACEBURG"
      }
    ]
  },
  {
    "postal": "N8A1S5",
    "result": [
      {
        "electoralDistricts": [
          {
            "election": null,
            "id": 50,
            "name": "Lambton—Kent—Middlesex"
          }
        ],
        "pollDivisionIds": [
          10143164
        ],
        "postalCode": "N8A1S5",
        "streetName": "MINNIE",
        "streetDirectionId": null,
        "streetTypeId": "ST",
        "placeName": "WALLACEBURG",
        "streetNameDisplayText": "MINNIE ST, WALLACEBURG"
      }
    ]
  },
  {
    "postal": "N8A4T7",
    "result": [
      {
        "electoralDistricts": [
          {
            "election": null,
            "id": 50,
            "name": "Lambton—Kent—Middlesex"
          }
        ],
        "pollDivisionIds": [
          10139366
        ],
        "postalCode": "N8A4T7",
        "streetName": "HIGHBURY",
        "streetDirectionId": null,
        "streetTypeId": "CRES",
        "placeName": "WALLACEBURG",
        "streetNameDisplayText": "HIGHBURY CRES, WALLACEBURG"
      }
    ]
  },
  {
    "postal": "N8A6Y7",
    "result": []
  },
  {
    "postal": "N8A0W7",
    "result": []
  },
  {
    "postal": "N8A2W9",
    "result": [
      {
        "electoralDistricts": [
          {
            "election": null,
            "id": 50,
            "name": "Lambton—Kent—Middlesex"
          }
        ],
        "pollDivisionIds": [
          10143351
        ],
        "postalCode": "N8A2W9",
        "streetName": "DUFFERIN",
        "streetDirectionId": null,
        "streetTypeId": "AVE",
        "placeName": "WALLACEBURG",
        "streetNameDisplayText": "DUFFERIN AVE, WALLACEBURG"
      }
    ]
  },
  {
    "postal": "N8A8V0",
    "result": []
  },
  {
    "postal": "N8A0H4",
    "result": []
  },
  {
    "postal": "N8A2T1",
    "result": [
      {
        "electoralDistricts": [
          {
            "election": null,
            "id": 50,
            "name": "Lambton—Kent—Middlesex"
          }
        ],
        "pollDivisionIds": [
          10143163
        ],
        "postalCode": "N8A2T1",
        "streetName": "GEORGE",
        "streetDirectionId": null,
        "streetTypeId": "ST",
        "placeName": "WALLACEBURG",
        "streetNameDisplayText": "GEORGE ST, WALLACEBURG"
      }
    ]
  },
  {
    "postal": "N8A1B1",
    "result": [
      {
        "electoralDistricts": [
          {
            "election": null,
            "id": 50,
            "name": "Lambton—Kent—Middlesex"
          }
        ],
        "pollDivisionIds": [
          10139372
        ],
        "postalCode": "N8A1B1",
        "streetName": "WILLS",
        "streetDirectionId": null,
        "streetTypeId": "ST",
        "placeName": "WALLACEBURG",
        "streetNameDisplayText": "WILLS ST, WALLACEBURG"
      }
    ]
  },
  {
    "postal": "N8A8B6",
    "result": []
  },
  {
    "postal": "N8A6H1",
    "result": []
  },
  {
    "postal": "N8A8T8",
    "result": []
  },
  {
    "postal": "N8A0T4",
    "result": []
  },
  {
    "postal": "N8A2C4",
    "result": [
      {
        "electoralDistricts": [
          {
            "election": null,
            "id": 50,
            "name": "Lambton—Kent—Middlesex"
          }
        ],
        "pollDivisionIds": [
          10139366
        ],
        "postalCode": "N8A2C4",
        "streetName": "SANDRA",
        "streetDirectionId": null,
        "streetTypeId": "CRES",
        "placeName": "WALLACEBURG",
        "streetNameDisplayText": "SANDRA CRES, WALLACEBURG"
      }
    ]
  },
  {
    "postal": "N8A8N3",
    "result": []
  },
  {
    "postal": "N8A4L8",
    "result": [
      {
        "electoralDistricts": [
          {
            "election": null,
            "id": 50,
            "name": "Lambton—Kent—Middlesex"
          }
        ],
        "pollDivisionIds": [
          10143163
        ],
        "postalCode": "N8A4L8",
        "streetName": "GARNET",
        "streetDirectionId": null,
        "streetTypeId": "ST",
        "placeName": "WALLACEBURG",
        "streetNameDisplayText": "GARNET ST, WALLACEBURG"
      }
    ]
  },
  {
    "postal": "N8A2B5",
    "result": [
      {
        "electoralDistricts": [
          {
            "election": null,
            "id": 50,
            "name": "Lambton—Kent—Middlesex"
          }
        ],
        "pollDivisionIds": [
          10139366
        ],
        "postalCode": "N8A2B5",
        "streetName": "PARK",
        "streetDirectionId": null,
        "streetTypeId": "ST",
        "placeName": "WALLACEBURG",
        "streetNameDisplayText": "PARK ST, WALLACEBURG"
      }
    ]
  },
  {
    "postal": "N8A3H1",
    "result": [
      {
        "electoralDistricts": [
          {
            "election": null,
            "id": 50,
            "name": "Lambton—Kent—Middlesex"
          }
        ],
        "pollDivisionIds": [
          10143351
        ],
        "postalCode": "N8A3H1",
        "streetName": "WALL",
        "streetDirectionId": null,
        "streetTypeId": "ST",
        "placeName": "WALLACEBURG",
        "streetNameDisplayText": "WALL ST, WALLACEBURG"
      }
    ]
  },
  {
    "postal": "N8A4Y1",
    "result": [
      {
        "electoralDistricts": [
          {
            "election": null,
            "id": 50,
            "name": "Lambton—Kent—Middlesex"
          }
        ],
        "pollDivisionIds": [
          10143164
        ],
        "postalCode": "N8A4Y1",
        "streetName": "WALLACE",
        "streetDirectionId": null,
        "streetTypeId": "ST",
        "placeName": "WALLACEBURG",
        "streetNameDisplayText": "WALLACE ST, WALLACEBURG"
      }
    ]
  },
  {
    "postal": "N8A7E2",
    "result": []
  },
  {
    "postal": "N8A2P5",
    "result": [
      {
        "electoralDistricts": [
          {
            "election": null,
            "id": 50,
            "name": "Lambton—Kent—Middlesex"
          }
        ],
        "pollDivisionIds": [
          10143351
        ],
        "postalCode": "N8A2P5",
        "streetName": "JAMES",
        "streetDirectionId": null,
        "streetTypeId": "ST",
        "placeName": "WALLACEBURG",
        "streetNameDisplayText": "JAMES ST, WALLACEBURG"
      }
    ]
  },
  {
    "postal": "N8A8R7",
    "result": []
  },
  {
    "postal": "N8A9P1",
    "result": []
  },
  {
    "postal": "N8A3B8",
    "result": []
  },
  {
    "postal": "N8A3P7",
    "result": []
  },
  {
    "postal": "N8A9B2",
    "result": []
  },
  {
    "postal": "N8A6Z3",
    "result": []
  },
  {
    "postal": "N8A4N5",
    "result": [
      {
        "electoralDistricts": [
          {
            "election": null,
            "id": 50,
            "name": "Lambton—Kent—Middlesex"
          }
        ],
        "pollDivisionIds": [
          10143351
        ],
        "postalCode": "N8A4N5",
        "streetName": "LINDEN",
        "streetDirectionId": null,
        "streetTypeId": "DR",
        "placeName": "WALLACEBURG",
        "streetNameDisplayText": "LINDEN DR, WALLACEBURG"
      }
    ]
  },
  {
    "postal": "N8A8T3",
    "result": []
  },
  {
    "postal": "N8A1V2",
    "result": [
      {
        "electoralDistricts": [
          {
            "election": null,
            "id": 50,
            "name": "Lambton—Kent—Middlesex"
          }
        ],
        "pollDivisionIds": [
          10143164
        ],
        "postalCode": "N8A1V2",
        "streetName": "MURRAY",
        "streetDirectionId": null,
        "streetTypeId": "ST",
        "placeName": "WALLACEBURG",
        "streetNameDisplayText": "MURRAY ST, WALLACEBURG"
      }
    ]
  },
  {
    "postal": "N8A1Y0",
    "result": []
  },
  {
    "postal": "N8A3G6",
    "result": [
      {
        "electoralDistricts": [
          {
            "election": null,
            "id": 50,
            "name": "Lambton—Kent—Middlesex"
          }
        ],
        "pollDivisionIds": [
          10143351
        ],
        "postalCode": "N8A3G6",
        "streetName": "COLWELL",
        "streetDirectionId": null,
        "streetTypeId": "ST",
        "placeName": "WALLACEBURG",
        "streetNameDisplayText": "COLWELL ST, WALLACEBURG"
      }
    ]
  },
  {
    "postal": "N8A3H7",
    "result": [
      {
        "electoralDistricts": [
          {
            "election": null,
            "id": 50,
            "name": "Lambton—Kent—Middlesex"
          }
        ],
        "pollDivisionIds": [
          10143351
        ],
        "postalCode": "N8A3H7",
        "streetName": "WALL",
        "streetDirectionId": null,
        "streetTypeId": "ST",
        "placeName": "WALLACEBURG",
        "streetNameDisplayText": "WALL ST, WALLACEBURG"
      }
    ]
  },
  {
    "postal": "N8A7X8",
    "result": []
  },
  {
    "postal": "N8A0C7",
    "result": []
  },
  {
    "postal": "N8A0W9",
    "result": []
  },
  {
    "postal": "N8A8E6",
    "result": []
  },
  {
    "postal": "N8A9Z8",
    "result": []
  },
  {
    "postal": "N8A3P4",
    "result": [
      {
        "electoralDistricts": [
          {
            "election": null,
            "id": 50,
            "name": "Lambton—Kent—Middlesex"
          }
        ],
        "pollDivisionIds": [
          10143163
        ],
        "postalCode": "N8A3P4",
        "streetName": "ARNOLD",
        "streetDirectionId": null,
        "streetTypeId": "ST",
        "placeName": "WALLACEBURG",
        "streetNameDisplayText": "ARNOLD ST, WALLACEBURG"
      }
    ]
  },
  {
    "postal": "N8A6L8",
    "result": []
  },
  {
    "postal": "N8A2R4",
    "result": [
      {
        "electoralDistricts": [
          {
            "election": null,
            "id": 50,
            "name": "Lambton—Kent—Middlesex"
          }
        ],
        "pollDivisionIds": [
          10143163,
          10143351
        ],
        "postalCode": "N8A2R4",
        "streetName": "JAMES",
        "streetDirectionId": null,
        "streetTypeId": "ST",
        "placeName": "WALLACEBURG",
        "streetNameDisplayText": "JAMES ST, WALLACEBURG"
      }
    ]
  },
  {
    "postal": "N8A2W1",
    "result": [
      {
        "electoralDistricts": [
          {
            "election": null,
            "id": 50,
            "name": "Lambton—Kent—Middlesex"
          }
        ],
        "pollDivisionIds": [
          10143351
        ],
        "postalCode": "N8A2W1",
        "streetName": "DUFFERIN",
        "streetDirectionId": null,
        "streetTypeId": "AVE",
        "placeName": "WALLACEBURG",
        "streetNameDisplayText": "DUFFERIN AVE, WALLACEBURG"
      }
    ]
  },
  {
    "postal": "N8A9H8",
    "result": []
  },
  {
    "postal": "N8A8X9",
    "result": []
  },
  {
    "postal": "N8A7H4",
    "result": []
  },
  {
    "postal": "N8A3J1",
    "result": [
      {
        "electoralDistricts": [
          {
            "election": null,
            "id": 50,
            "name": "Lambton—Kent—Middlesex"
          }
        ],
        "pollDivisionIds": [
          10143351
        ],
        "postalCode": "N8A3J1",
        "streetName": "WALL",
        "streetDirectionId": null,
        "streetTypeId": "ST",
        "placeName": "WALLACEBURG",
        "streetNameDisplayText": "WALL ST, WALLACEBURG"
      }
    ]
  },
  {
    "postal": "N8A1P4",
    "result": []
  },
  {
    "postal": "N8A2A3",
    "result": [
      {
        "electoralDistricts": [
          {
            "election": null,
            "id": 50,
            "name": "Lambton—Kent—Middlesex"
          }
        ],
        "pollDivisionIds": [
          10139366
        ],
        "postalCode": "N8A2A3",
        "streetName": "MARGARET",
        "streetDirectionId": null,
        "streetTypeId": "AVE",
        "placeName": "WALLACEBURG",
        "streetNameDisplayText": "MARGARET AVE, WALLACEBURG"
      },
      {
        "electoralDistricts": [
          {
            "election": null,
            "id": 50,
            "name": "Lambton—Kent—Middlesex"
          }
        ],
        "pollDivisionIds": [
          10139329
        ],
        "postalCode": "N8A2A3",
        "streetName": "MARGARET",
        "streetDirectionId": null,
        "streetTypeId": "ST",
        "placeName": "WALLACEBURG",
        "streetNameDisplayText": "MARGARET ST, WALLACEBURG"
      }
    ]
  },
  {
    "postal": "N8A0Z1",
    "result": []
  },
  {
    "postal": "N8A1C1",
    "result": [
      {
        "electoralDistricts": [
          {
            "election": null,
            "id": 50,
            "name": "Lambton—Kent—Middlesex"
          }
        ],
        "pollDivisionIds": [
          10143164
        ],
        "postalCode": "N8A1C1",
        "streetName": "ROBERT",
        "streetDirectionId": null,
        "streetTypeId": "ST",
        "placeName": "WALLACEBURG",
        "streetNameDisplayText": "ROBERT ST, WALLACEBURG"
      }
    ]
  },
  {
    "postal": "N8A0H3",
    "result": []
  },
  {
    "postal": "N8A7B0",
    "result": []
  },
  {
    "postal": "N8A5K2",
    "result": []
  },
  {
    "postal": "N8A1E9",
    "result": [
      {
        "electoralDistricts": [
          {
            "election": null,
            "id": 50,
            "name": "Lambton—Kent—Middlesex"
          }
        ],
        "pollDivisionIds": [
          10143164
        ],
        "postalCode": "N8A1E9",
        "streetName": "DUKE",
        "streetDirectionId": null,
        "streetTypeId": "ST",
        "placeName": "WALLACEBURG",
        "streetNameDisplayText": "DUKE ST, WALLACEBURG"
      }
    ]
  },
  {
    "postal": "N8A9W7",
    "result": []
  },
  {
    "postal": "N8A5W6",
    "result": []
  },
  {
    "postal": "N8A6S6",
    "result": []
  },
  {
    "postal": "N8A2P8",
    "result": [
      {
        "electoralDistricts": [
          {
            "election": null,
            "id": 50,
            "name": "Lambton—Kent—Middlesex"
          }
        ],
        "pollDivisionIds": [
          10143351
        ],
        "postalCode": "N8A2P8",
        "streetName": "JAMES",
        "streetDirectionId": null,
        "streetTypeId": "ST",
        "placeName": "WALLACEBURG",
        "streetNameDisplayText": "JAMES ST, WALLACEBURG"
      }
    ]
  },
  {
    "postal": "N8A4P8",
    "result": [
      {
        "electoralDistricts": [
          {
            "election": null,
            "id": 50,
            "name": "Lambton—Kent—Middlesex"
          }
        ],
        "pollDivisionIds": [
          10143351
        ],
        "postalCode": "N8A4P8",
        "streetName": "WILSON",
        "streetDirectionId": null,
        "streetTypeId": "ST",
        "placeName": "WALLACEBURG",
        "streetNameDisplayText": "WILSON ST, WALLACEBURG"
      }
    ]
  },
  {
    "postal": "N8A0V9",
    "result": []
  },
  {
    "postal": "N8A5Y2",
    "result": []
  },
  {
    "postal": "N8A7Z7",
    "result": []
  },
  {
    "postal": "N8A6Y8",
    "result": []
  },
  {
    "postal": "N8A2G7",
    "result": [
      {
        "electoralDistricts": [
          {
            "election": null,
            "id": 50,
            "name": "Lambton—Kent—Middlesex"
          }
        ],
        "pollDivisionIds": [
          10139366
        ],
        "postalCode": "N8A2G7",
        "streetName": "MAIN",
        "streetDirectionId": null,
        "streetTypeId": "ST",
        "placeName": "WALLACEBURG",
        "streetNameDisplayText": "MAIN ST, WALLACEBURG"
      }
    ]
  },
  {
    "postal": "N8A8C1",
    "result": []
  },
  {
    "postal": "N8A5C5",
    "result": [
      {
        "electoralDistricts": [
          {
            "election": null,
            "id": 50,
            "name": "Lambton—Kent—Middlesex"
          }
        ],
        "pollDivisionIds": [
          10143351
        ],
        "postalCode": "N8A5C5",
        "streetName": "BRUINSMA",
        "streetDirectionId": null,
        "streetTypeId": "AVE",
        "placeName": "WALLACEBURG",
        "streetNameDisplayText": "BRUINSMA AVE, WALLACEBURG"
      }
    ]
  },
  {
    "postal": "N8A2X8",
    "result": [
      {
        "electoralDistricts": [
          {
            "election": null,
            "id": 50,
            "name": "Lambton—Kent—Middlesex"
          }
        ],
        "pollDivisionIds": [
          10143351
        ],
        "postalCode": "N8A2X8",
        "streetName": "WELLINGTON",
        "streetDirectionId": null,
        "streetTypeId": "ST",
        "placeName": "WALLACEBURG",
        "streetNameDisplayText": "WELLINGTON ST, WALLACEBURG"
      }
    ]
  },
  {
    "postal": "N8A1W5",
    "result": [
      {
        "electoralDistricts": [
          {
            "election": null,
            "id": 50,
            "name": "Lambton—Kent—Middlesex"
          }
        ],
        "pollDivisionIds": [
          10139373
        ],
        "postalCode": "N8A1W5",
        "streetName": "MURRAY",
        "streetDirectionId": null,
        "streetTypeId": "ST",
        "placeName": "WALLACEBURG",
        "streetNameDisplayText": "MURRAY ST, WALLACEBURG"
      }
    ]
  },
  {
    "postal": "N8A7G0",
    "result": []
  },
  {
    "postal": "N8A8J8",
    "result": []
  },
  {
    "postal": "N8A3Y0",
    "result": []
  },
  {
    "postal": "N8A9T7",
    "result": []
  },
  {
    "postal": "N8A5P4",
    "result": []
  },
  {
    "postal": "N8A4B0",
    "result": []
  },
  {
    "postal": "N8A9N8",
    "result": []
  },
  {
    "postal": "N8A4A7",
    "result": []
  },
  {
    "postal": "N8A4H9",
    "result": [
      {
        "electoralDistricts": [
          {
            "election": null,
            "id": 50,
            "name": "Lambton—Kent—Middlesex"
          }
        ],
        "pollDivisionIds": [
          10143351
        ],
        "postalCode": "N8A4H9",
        "streetName": "LAFONTAINE",
        "streetDirectionId": null,
        "streetTypeId": "ST",
        "placeName": "WALLACEBURG",
        "streetNameDisplayText": "LAFONTAINE ST, WALLACEBURG"
      }
    ]
  },
  {
    "postal": "N8A6X1",
    "result": []
  },
  {
    "postal": "N8A9Y7",
    "result": []
  },
  {
    "postal": "N8A2Y5",
    "result": [
      {
        "electoralDistricts": [
          {
            "election": null,
            "id": 50,
            "name": "Lambton—Kent—Middlesex"
          }
        ],
        "pollDivisionIds": [
          10143351
        ],
        "postalCode": "N8A2Y5",
        "streetName": "WELLINGTON",
        "streetDirectionId": null,
        "streetTypeId": "ST",
        "placeName": "WALLACEBURG",
        "streetNameDisplayText": "WELLINGTON ST, WALLACEBURG"
      }
    ]
  },
  {
    "postal": "N8A8L7",
    "result": []
  },
  {
    "postal": "N8A2A8",
    "result": [
      {
        "electoralDistricts": [
          {
            "election": null,
            "id": 50,
            "name": "Lambton—Kent—Middlesex"
          }
        ],
        "pollDivisionIds": [
          10139366
        ],
        "postalCode": "N8A2A8",
        "streetName": "MARGARET",
        "streetDirectionId": null,
        "streetTypeId": "AVE",
        "placeName": "WALLACEBURG",
        "streetNameDisplayText": "MARGARET AVE, WALLACEBURG"
      }
    ]
  },
  {
    "postal": "N8A2K9",
    "result": [
      {
        "electoralDistricts": [
          {
            "election": null,
            "id": 50,
            "name": "Lambton—Kent—Middlesex"
          }
        ],
        "pollDivisionIds": [
          10143163
        ],
        "postalCode": "N8A2K9",
        "streetName": "BRABAW",
        "streetDirectionId": null,
        "streetTypeId": "ST",
        "placeName": "WALLACEBURG",
        "streetNameDisplayText": "BRABAW ST, WALLACEBURG"
      }
    ]
  },
  {
    "postal": "N8A3E5",
    "result": [
      {
        "electoralDistricts": [
          {
            "election": null,
            "id": 50,
            "name": "Lambton—Kent—Middlesex"
          }
        ],
        "pollDivisionIds": [
          10143351
        ],
        "postalCode": "N8A3E5",
        "streetName": "ELGIN",
        "streetDirectionId": null,
        "streetTypeId": "ST",
        "placeName": "WALLACEBURG",
        "streetNameDisplayText": "ELGIN ST, WALLACEBURG"
      }
    ]
  },
  {
    "postal": "N8A8N6",
    "result": []
  },
  {
    "postal": "N8A8J4",
    "result": []
  },
  {
    "postal": "N8A4R7",
    "result": [
      {
        "electoralDistricts": [
          {
            "election": null,
            "id": 50,
            "name": "Lambton—Kent—Middlesex"
          }
        ],
        "pollDivisionIds": [
          10143351
        ],
        "postalCode": "N8A4R7",
        "streetName": "POPLAR",
        "streetDirectionId": null,
        "streetTypeId": "ST",
        "placeName": "WALLACEBURG",
        "streetNameDisplayText": "POPLAR ST, WALLACEBURG"
      }
    ]
  },
  {
    "postal": "N8A9K1",
    "result": []
  },
  {
    "postal": "N8A8E1",
    "result": []
  },
  {
    "postal": "N8A0R1",
    "result": []
  },
  {
    "postal": "N8A4J3",
    "result": [
      {
        "electoralDistricts": [
          {
            "election": null,
            "id": 50,
            "name": "Lambton—Kent—Middlesex"
          }
        ],
        "pollDivisionIds": [
          10143351
        ],
        "postalCode": "N8A4J3",
        "streetName": "LAFONTAINE",
        "streetDirectionId": null,
        "streetTypeId": "ST",
        "placeName": "WALLACEBURG",
        "streetNameDisplayText": "LAFONTAINE ST, WALLACEBURG"
      }
    ]
  },
  {
    "postal": "N8A7E7",
    "result": []
  },
  {
    "postal": "N8A0J0",
    "result": []
  },
  {
    "postal": "N8A7R8",
    "result": []
  },
  {
    "postal": "N8A9X0",
    "result": []
  },
  {
    "postal": "N8A7P6",
    "result": []
  },
  {
    "postal": "N8A0R7",
    "result": []
  },
  {
    "postal": "N8A5W1",
    "result": []
  },
  {
    "postal": "N8A0K4",
    "result": []
  },
  {
    "postal": "N8A7N9",
    "result": []
  },
  {
    "postal": "N8A1N0",
    "result": []
  },
  {
    "postal": "N8A6P3",
    "result": []
  },
  {
    "postal": "N8A5A1",
    "result": []
  },
  {
    "postal": "N8A9M9",
    "result": []
  },
  {
    "postal": "N8A7T6",
    "result": []
  },
  {
    "postal": "N8A3X0",
    "result": []
  },
  {
    "postal": "N8A2T0",
    "result": []
  },
  {
    "postal": "N8A5X9",
    "result": []
  },
  {
    "postal": "N8A2R3",
    "result": [
      {
        "electoralDistricts": [
          {
            "election": null,
            "id": 50,
            "name": "Lambton—Kent—Middlesex"
          }
        ],
        "pollDivisionIds": [
          10143163
        ],
        "postalCode": "N8A2R3",
        "streetName": "JAMES",
        "streetDirectionId": null,
        "streetTypeId": "ST",
        "placeName": "WALLACEBURG",
        "streetNameDisplayText": "JAMES ST, WALLACEBURG"
      }
    ]
  },
  {
    "postal": "N8A5N2",
    "result": []
  },
  {
    "postal": "N8A4Y7",
    "result": [
      {
        "electoralDistricts": [
          {
            "election": null,
            "id": 50,
            "name": "Lambton—Kent—Middlesex"
          }
        ],
        "pollDivisionIds": [
          10143351
        ],
        "postalCode": "N8A4Y7",
        "streetName": "ELGIN",
        "streetDirectionId": null,
        "streetTypeId": "ST",
        "placeName": "WALLACEBURG",
        "streetNameDisplayText": "ELGIN ST, WALLACEBURG"
      }
    ]
  },
  {
    "postal": "N8A7M0",
    "result": []
  },
  {
    "postal": "N8A8P3",
    "result": []
  },
  {
    "postal": "N8A3N3",
    "result": [
      {
        "electoralDistricts": [
          {
            "election": null,
            "id": 50,
            "name": "Lambton—Kent—Middlesex"
          }
        ],
        "pollDivisionIds": [
          10143351
        ],
        "postalCode": "N8A3N3",
        "streetName": "DAUW",
        "streetDirectionId": null,
        "streetTypeId": "AVE",
        "placeName": "WALLACEBURG",
        "streetNameDisplayText": "DAUW AVE, WALLACEBURG"
      }
    ]
  },
  {
    "postal": "N8A7S3",
    "result": []
  },
  {
    "postal": "N8A3V9",
    "result": [
      {
        "electoralDistricts": [
          {
            "election": null,
            "id": 50,
            "name": "Lambton—Kent—Middlesex"
          }
        ],
        "pollDivisionIds": [
          10143351
        ],
        "postalCode": "N8A3V9",
        "streetName": "AGNES",
        "streetDirectionId": null,
        "streetTypeId": "ST",
        "placeName": "WALLACEBURG",
        "streetNameDisplayText": "AGNES ST, WALLACEBURG"
      }
    ]
  },
  {
    "postal": "N8A9N7",
    "result": []
  },
  {
    "postal": "N8A0G4",
    "result": []
  },
  {
    "postal": "N8A2E2",
    "result": [
      {
        "electoralDistricts": [
          {
            "election": null,
            "id": 50,
            "name": "Lambton—Kent—Middlesex"
          }
        ],
        "pollDivisionIds": [
          10139366
        ],
        "postalCode": "N8A2E2",
        "streetName": "BALMORAL",
        "streetDirectionId": null,
        "streetTypeId": "CRES",
        "placeName": "WALLACEBURG",
        "streetNameDisplayText": "BALMORAL CRES, WALLACEBURG"
      }
    ]
  },
  {
    "postal": "N8A7W8",
    "result": []
  },
  {
    "postal": "N8A7M5",
    "result": []
  },
  {
    "postal": "N8A5W8",
    "result": []
  },
  {
    "postal": "N8A5E5",
    "result": []
  },
  {
    "postal": "N8A1P9",
    "result": [
      {
        "electoralDistricts": [
          {
            "election": null,
            "id": 50,
            "name": "Lambton—Kent—Middlesex"
          }
        ],
        "pollDivisionIds": [
          10143164
        ],
        "postalCode": "N8A1P9",
        "streetName": "MILL",
        "streetDirectionId": null,
        "streetTypeId": "ST",
        "placeName": "WALLACEBURG",
        "streetNameDisplayText": "MILL ST, WALLACEBURG"
      }
    ]
  },
  {
    "postal": "N8A8V8",
    "result": []
  },
  {
    "postal": "N8A9G8",
    "result": []
  },
  {
    "postal": "N8A8H9",
    "result": []
  },
  {
    "postal": "N8A1Z1",
    "result": [
      {
        "electoralDistricts": [
          {
            "election": null,
            "id": 50,
            "name": "Lambton—Kent—Middlesex"
          }
        ],
        "pollDivisionIds": [
          10139373
        ],
        "postalCode": "N8A1Z1",
        "streetName": "ALBERT",
        "streetDirectionId": null,
        "streetTypeId": "ST",
        "placeName": "WALLACEBURG",
        "streetNameDisplayText": "ALBERT ST, WALLACEBURG"
      }
    ]
  },
  {
    "postal": "N8A8M3",
    "result": []
  },
  {
    "postal": "N8A5H6",
    "result": [
      {
        "electoralDistricts": [
          {
            "election": null,
            "id": 50,
            "name": "Lambton—Kent—Middlesex"
          }
        ],
        "pollDivisionIds": [
          10139366
        ],
        "postalCode": "N8A5H6",
        "streetName": "THOMAS",
        "streetDirectionId": null,
        "streetTypeId": "AVE",
        "placeName": "WALLACEBURG",
        "streetNameDisplayText": "THOMAS AVE, WALLACEBURG"
      }
    ]
  },
  {
    "postal": "N8A7W7",
    "result": []
  },
  {
    "postal": "N8A4L0",
    "result": []
  },
  {
    "postal": "N8A2N1",
    "result": [
      {
        "electoralDistricts": [
          {
            "election": null,
            "id": 50,
            "name": "Lambton—Kent—Middlesex"
          }
        ],
        "pollDivisionIds": [
          10143162
        ],
        "postalCode": "N8A2N1",
        "streetName": "TURNBULL",
        "streetDirectionId": null,
        "streetTypeId": "AVE",
        "placeName": "WALLACEBURG",
        "streetNameDisplayText": "TURNBULL AVE, WALLACEBURG"
      }
    ]
  },
  {
    "postal": "N8A2H4",
    "result": [
      {
        "electoralDistricts": [
          {
            "election": null,
            "id": 50,
            "name": "Lambton—Kent—Middlesex"
          }
        ],
        "pollDivisionIds": [
          10139366
        ],
        "postalCode": "N8A2H4",
        "streetName": "NAPIER",
        "streetDirectionId": null,
        "streetTypeId": "ST",
        "placeName": "WALLACEBURG",
        "streetNameDisplayText": "NAPIER ST, WALLACEBURG"
      }
    ]
  },
  {
    "postal": "N8A5C8",
    "result": [
      {
        "electoralDistricts": [
          {
            "election": null,
            "id": 50,
            "name": "Lambton—Kent—Middlesex"
          }
        ],
        "pollDivisionIds": [
          10139366
        ],
        "postalCode": "N8A5C8",
        "streetName": "THOMAS",
        "streetDirectionId": null,
        "streetTypeId": "AVE",
        "placeName": "WALLACEBURG",
        "streetNameDisplayText": "THOMAS AVE, WALLACEBURG"
      }
    ]
  },
  {
    "postal": "N8A8B0",
    "result": []
  },
  {
    "postal": "N8A1T4",
    "result": []
  },
  {
    "postal": "N8A7N7",
    "result": []
  },
  {
    "postal": "N8A4L3",
    "result": [
      {
        "electoralDistricts": [
          {
            "election": null,
            "id": 50,
            "name": "Lambton—Kent—Middlesex"
          }
        ],
        "pollDivisionIds": [
          10139372,
          10139374
        ],
        "postalCode": "N8A4L3",
        "streetName": "BALDOON",
        "streetDirectionId": null,
        "streetTypeId": "RD",
        "placeName": "WALLACEBURG",
        "streetNameDisplayText": "BALDOON RD, WALLACEBURG"
      },
      {
        "electoralDistricts": [
          {
            "election": null,
            "id": 50,
            "name": "Lambton—Kent—Middlesex"
          }
        ],
        "pollDivisionIds": [
          10139366,
          10139372,
          10139373
        ],
        "postalCode": "N8A4L3",
        "streetName": "BASE",
        "streetDirectionId": null,
        "streetTypeId": "LINE",
        "placeName": "WALLACEBURG",
        "streetNameDisplayText": "BASE LINE, WALLACEBURG"
      },
      {
        "electoralDistricts": [
          {
            "election": null,
            "id": 50,
            "name": "Lambton—Kent—Middlesex"
          }
        ],
        "pollDivisionIds": [
          10139374
        ],
        "postalCode": "N8A4L3",
        "streetName": "BASSETTE",
        "streetDirectionId": null,
        "streetTypeId": "LINE",
        "placeName": "WALLACEBURG",
        "streetNameDisplayText": "BASSETTE LINE, WALLACEBURG"
      },
      {
        "electoralDistricts": [
          {
            "election": null,
            "id": 50,
            "name": "Lambton—Kent—Middlesex"
          }
        ],
        "pollDivisionIds": [
          10139374
        ],
        "postalCode": "N8A4L3",
        "streetName": "BEAR LINE",
        "streetDirectionId": null,
        "streetTypeId": "RD",
        "placeName": "WALLACEBURG",
        "streetNameDisplayText": "BEAR LINE RD, WALLACEBURG"
      },
      {
        "electoralDistricts": [
          {
            "election": null,
            "id": 50,
            "name": "Lambton—Kent—Middlesex"
          }
        ],
        "pollDivisionIds": [
          10139372
        ],
        "postalCode": "N8A4L3",
        "streetName": "BEATTIE",
        "streetDirectionId": null,
        "streetTypeId": "ST",
        "placeName": "WALLACEBURG",
        "streetNameDisplayText": "BEATTIE ST, WALLACEBURG"
      },
      {
        "electoralDistricts": [
          {
            "election": null,
            "id": 50,
            "name": "Lambton—Kent—Middlesex"
          }
        ],
        "pollDivisionIds": [
          10139372
        ],
        "postalCode": "N8A4L3",
        "streetName": "BORDER",
        "streetDirectionId": null,
        "streetTypeId": "RD",
        "placeName": "WALLACEBURG",
        "streetNameDisplayText": "BORDER RD, WALLACEBURG"
      },
      {
        "electoralDistricts": [
          {
            "election": null,
            "id": 50,
            "name": "Lambton—Kent—Middlesex"
          }
        ],
        "pollDivisionIds": [
          10139373
        ],
        "postalCode": "N8A4L3",
        "streetName": "CEMETERY",
        "streetDirectionId": null,
        "streetTypeId": "RD",
        "placeName": "WALLACEBURG",
        "streetNameDisplayText": "CEMETERY RD, WALLACEBURG"
      },
      {
        "electoralDistricts": [
          {
            "election": null,
            "id": 50,
            "name": "Lambton—Kent—Middlesex"
          }
        ],
        "pollDivisionIds": [
          10139374,
          10139366
        ],
        "postalCode": "N8A4L3",
        "streetName": "CORKTOWN",
        "streetDirectionId": null,
        "streetTypeId": "LINE",
        "placeName": "WALLACEBURG",
        "streetNameDisplayText": "CORKTOWN LINE, WALLACEBURG"
      },
      {
        "electoralDistricts": [
          {
            "election": null,
            "id": 50,
            "name": "Lambton—Kent—Middlesex"
          }
        ],
        "pollDivisionIds": [
          10139374,
          10139373
        ],
        "postalCode": "N8A4L3",
        "streetName": "FRASER",
        "streetDirectionId": null,
        "streetTypeId": "RD",
        "placeName": "WALLACEBURG",
        "streetNameDisplayText": "FRASER RD, WALLACEBURG"
      },
      {
        "electoralDistricts": [
          {
            "election": null,
            "id": 50,
            "name": "Lambton—Kent—Middlesex"
          }
        ],
        "pollDivisionIds": [
          10143164
        ],
        "postalCode": "N8A4L3",
        "streetName": "GILLARD",
        "streetDirectionId": null,
        "streetTypeId": "ST",
        "placeName": "WALLACEBURG",
        "streetNameDisplayText": "GILLARD ST, WALLACEBURG"
      },
      {
        "electoralDistricts": [
          {
            "election": null,
            "id": 50,
            "name": "Lambton—Kent—Middlesex"
          }
        ],
        "pollDivisionIds": [
          10139374
        ],
        "postalCode": "N8A4L3",
        "streetName": "HAVEN",
        "streetDirectionId": null,
        "streetTypeId": "LINE",
        "placeName": "WALLACEBURG",
        "streetNameDisplayText": "HAVEN LINE, WALLACEBURG"
      },
      {
        "electoralDistricts": [
          {
            "election": null,
            "id": 50,
            "name": "Lambton—Kent—Middlesex"
          }
        ],
        "pollDivisionIds": [
          10139373,
          10139374,
          10139372
        ],
        "postalCode": "N8A4L3",
        "streetName": "HERITAGE",
        "streetDirectionId": null,
        "streetTypeId": "LINE",
        "placeName": "WALLACEBURG",
        "streetNameDisplayText": "HERITAGE LINE, WALLACEBURG"
      },
      {
        "electoralDistricts": [
          {
            "election": null,
            "id": 50,
            "name": "Lambton—Kent—Middlesex"
          }
        ],
        "pollDivisionIds": [
          10139373,
          10143164,
          10139366
        ],
        "postalCode": "N8A4L3",
        "streetName": "JOHN PARK",
        "streetDirectionId": null,
        "streetTypeId": "LINE",
        "placeName": "WALLACEBURG",
        "streetNameDisplayText": "JOHN PARK LINE, WALLACEBURG"
      },
      {
        "electoralDistricts": [
          {
            "election": null,
            "id": 50,
            "name": "Lambton—Kent—Middlesex"
          }
        ],
        "pollDivisionIds": [
          10139373,
          10143164
        ],
        "postalCode": "N8A4L3",
        "streetName": "MCGREGOR",
        "streetDirectionId": null,
        "streetTypeId": "LINE",
        "placeName": "WALLACEBURG",
        "streetNameDisplayText": "MCGREGOR LINE, WALLACEBURG"
      },
      {
        "electoralDistricts": [
          {
            "election": null,
            "id": 50,
            "name": "Lambton—Kent—Middlesex"
          }
        ],
        "pollDivisionIds": [
          10139374
        ],
        "postalCode": "N8A4L3",
        "streetName": "MCLEOD CREEK",
        "streetDirectionId": null,
        "streetTypeId": "RD",
        "placeName": "WALLACEBURG",
        "streetNameDisplayText": "MCLEOD CREEK RD, WALLACEBURG"
      },
      {
        "electoralDistricts": [
          {
            "election": null,
            "id": 50,
            "name": "Lambton—Kent—Middlesex"
          }
        ],
        "pollDivisionIds": [
          10139374,
          10139366
        ],
        "postalCode": "N8A4L3",
        "streetName": "MEADOWVALE",
        "streetDirectionId": null,
        "streetTypeId": "LINE",
        "placeName": "WALLACEBURG",
        "streetNameDisplayText": "MEADOWVALE LINE, WALLACEBURG"
      },
      {
        "electoralDistricts": [
          {
            "election": null,
            "id": 50,
            "name": "Lambton—Kent—Middlesex"
          }
        ],
        "pollDivisionIds": [
          10139374
        ],
        "postalCode": "N8A4L3",
        "streetName": "MUD CREEK",
        "streetDirectionId": null,
        "streetTypeId": "LINE",
        "placeName": "WALLACEBURG",
        "streetNameDisplayText": "MUD CREEK LINE, WALLACEBURG"
      },
      {
        "electoralDistricts": [
          {
            "election": null,
            "id": 50,
            "name": "Lambton—Kent—Middlesex"
          }
        ],
        "pollDivisionIds": [
          10139374
        ],
        "postalCode": "N8A4L3",
        "streetName": "PRINCE ALBERT",
        "streetDirectionId": null,
        "streetTypeId": "RD",
        "placeName": "WALLACEBURG",
        "streetNameDisplayText": "PRINCE ALBERT RD, WALLACEBURG"
      },
      {
        "electoralDistricts": [
          {
            "election": null,
            "id": 50,
            "name": "Lambton—Kent—Middlesex"
          }
        ],
        "pollDivisionIds": [
          10139374
        ],
        "postalCode": "N8A4L3",
        "streetName": "ROBIN",
        "streetDirectionId": null,
        "streetTypeId": "LINE",
        "placeName": "WALLACEBURG",
        "streetNameDisplayText": "ROBIN LINE, WALLACEBURG"
      },
      {
        "electoralDistricts": [
          {
            "election": null,
            "id": 50,
            "name": "Lambton—Kent—Middlesex"
          }
        ],
        "pollDivisionIds": [
          10139373
        ],
        "postalCode": "N8A4L3",
        "streetName": "SANDHILL",
        "streetDirectionId": null,
        "streetTypeId": "RD",
        "placeName": "WALLACEBURG",
        "streetNameDisplayText": "SANDHILL RD, WALLACEBURG"
      },
      {
        "electoralDistricts": [
          {
            "election": null,
            "id": 50,
            "name": "Lambton—Kent—Middlesex"
          }
        ],
        "pollDivisionIds": [
          10139366
        ],
        "postalCode": "N8A4L3",
        "streetName": "SIMPSON",
        "streetDirectionId": null,
        "streetTypeId": "RD",
        "placeName": "WALLACEBURG",
        "streetNameDisplayText": "SIMPSON RD, WALLACEBURG"
      },
      {
        "electoralDistricts": [
          {
            "election": null,
            "id": 50,
            "name": "Lambton—Kent—Middlesex"
          }
        ],
        "pollDivisionIds": [
          10139373,
          10139372,
          10139374
        ],
        "postalCode": "N8A4L3",
        "streetName": "ST CLAIR",
        "streetDirectionId": null,
        "streetTypeId": "RD",
        "placeName": "WALLACEBURG",
        "streetNameDisplayText": "ST CLAIR RD, WALLACEBURG"
      },
      {
        "electoralDistricts": [
          {
            "election": null,
            "id": 50,
            "name": "Lambton—Kent—Middlesex"
          }
        ],
        "pollDivisionIds": [
          10139372
        ],
        "postalCode": "N8A4L3",
        "streetName": "ST CLAIR",
        "streetDirectionId": null,
        "streetTypeId": "ST",
        "placeName": "WALLACEBURG",
        "streetNameDisplayText": "ST CLAIR ST, WALLACEBURG"
      },
      {
        "electoralDistricts": [
          {
            "election": null,
            "id": 50,
            "name": "Lambton—Kent—Middlesex"
          }
        ],
        "pollDivisionIds": [
          10139374,
          10139373,
          10139372
        ],
        "postalCode": "N8A4L3",
        "streetName": "ST. CLAIR",
        "streetDirectionId": null,
        "streetTypeId": "RD",
        "placeName": "WALLACEBURG",
        "streetNameDisplayText": "ST. CLAIR RD, WALLACEBURG"
      },
      {
        "electoralDistricts": [
          {
            "election": null,
            "id": 50,
            "name": "Lambton—Kent—Middlesex"
          }
        ],
        "pollDivisionIds": [
          10139374
        ],
        "postalCode": "N8A4L3",
        "streetName": "ST.CLAIR",
        "streetDirectionId": null,
        "streetTypeId": "RD",
        "placeName": "WALLACEBURG",
        "streetNameDisplayText": "ST.CLAIR RD, WALLACEBURG"
      },
      {
        "electoralDistricts": [
          {
            "election": null,
            "id": 50,
            "name": "Lambton—Kent—Middlesex"
          }
        ],
        "pollDivisionIds": [
          10139366
        ],
        "postalCode": "N8A4L3",
        "streetName": "STARKWEATHER",
        "streetDirectionId": null,
        "streetTypeId": "LINE",
        "placeName": "WALLACEBURG",
        "streetNameDisplayText": "STARKWEATHER LINE, WALLACEBURG"
      },
      {
        "electoralDistricts": [
          {
            "election": null,
            "id": 50,
            "name": "Lambton—Kent—Middlesex"
          }
        ],
        "pollDivisionIds": [
          10139372
        ],
        "postalCode": "N8A4L3",
        "streetName": "SWAN",
        "streetDirectionId": null,
        "streetTypeId": "LINE",
        "placeName": "WALLACEBURG",
        "streetNameDisplayText": "SWAN LINE, WALLACEBURG"
      },
      {
        "electoralDistricts": [
          {
            "election": null,
            "id": 50,
            "name": "Lambton—Kent—Middlesex"
          }
        ],
        "pollDivisionIds": [
          10139374
        ],
        "postalCode": "N8A4L3",
        "streetName": "TUNDRA",
        "streetDirectionId": null,
        "streetTypeId": "RD",
        "placeName": "WALLACEBURG",
        "streetNameDisplayText": "TUNDRA RD, WALLACEBURG"
      },
      {
        "electoralDistricts": [
          {
            "election": null,
            "id": 50,
            "name": "Lambton—Kent—Middlesex"
          }
        ],
        "pollDivisionIds": [
          10143164,
          10139372
        ],
        "postalCode": "N8A4L3",
        "streetName": "WALLACE",
        "streetDirectionId": null,
        "streetTypeId": "ST",
        "placeName": "WALLACEBURG",
        "streetNameDisplayText": "WALLACE ST, WALLACEBURG"
      },
      {
        "electoralDistricts": [
          {
            "election": null,
            "id": 50,
            "name": "Lambton—Kent—Middlesex"
          }
        ],
        "pollDivisionIds": [
          10139374
        ],
        "postalCode": "N8A4L3",
        "streetName": "WILLIAM LEWIS",
        "streetDirectionId": "W",
        "streetTypeId": "LINE",
        "placeName": "WALLACEBURG",
        "streetNameDisplayText": "WILLIAM LEWIS LINE W, WALLACEBURG"
      },
      {
        "electoralDistricts": [
          {
            "election": null,
            "id": 50,
            "name": "Lambton—Kent—Middlesex"
          }
        ],
        "pollDivisionIds": [
          10139374
        ],
        "postalCode": "N8A4L3",
        "streetName": "WILLIAM LEWIS",
        "streetDirectionId": null,
        "streetTypeId": "LINE",
        "placeName": "DOVER CENTRE",
        "streetNameDisplayText": "WILLIAM LEWIS LINE, DOVER CENTRE"
      },
      {
        "electoralDistricts": [
          {
            "election": null,
            "id": 50,
            "name": "Lambton—Kent—Middlesex"
          }
        ],
        "pollDivisionIds": [
          10139374,
          10143354
        ],
        "postalCode": "N8A4L3",
        "streetName": "WINTER LINE",
        "streetDirectionId": null,
        "streetTypeId": "RD",
        "placeName": "WALLACEBURG",
        "streetNameDisplayText": "WINTER LINE RD, WALLACEBURG"
      },
      {
        "electoralDistricts": [
          {
            "election": null,
            "id": 50,
            "name": "Lambton—Kent—Middlesex"
          }
        ],
        "pollDivisionIds": [
          10143354
        ],
        "postalCode": "N8A4L3",
        "streetName": "WINTERLINE",
        "streetDirectionId": null,
        "streetTypeId": "RD",
        "placeName": "WALLACEBURG",
        "streetNameDisplayText": "WINTERLINE RD, WALLACEBURG"
      },
      {
        "electoralDistricts": [
          {
            "election": null,
            "id": 50,
            "name": "Lambton—Kent—Middlesex"
          }
        ],
        "pollDivisionIds": [
          10139372
        ],
        "postalCode": "N8A4L3",
        "streetName": "WREN",
        "streetDirectionId": null,
        "streetTypeId": "LINE",
        "placeName": "WALLACEBURG",
        "streetNameDisplayText": "WREN LINE, WALLACEBURG"
      }
    ]
  },
  {
    "postal": "N8A2N2",
    "result": [
      {
        "electoralDistricts": [
          {
            "election": null,
            "id": 50,
            "name": "Lambton—Kent—Middlesex"
          }
        ],
        "pollDivisionIds": [
          10143162
        ],
        "postalCode": "N8A2N2",
        "streetName": "TURNBULL",
        "streetDirectionId": null,
        "streetTypeId": "AVE",
        "placeName": "WALLACEBURG",
        "streetNameDisplayText": "TURNBULL AVE, WALLACEBURG"
      }
    ]
  },
  {
    "postal": "N8A4N8",
    "result": [
      {
        "electoralDistricts": [
          {
            "election": null,
            "id": 50,
            "name": "Lambton—Kent—Middlesex"
          }
        ],
        "pollDivisionIds": [
          10143351
        ],
        "postalCode": "N8A4N8",
        "streetName": "ELGIN",
        "streetDirectionId": null,
        "streetTypeId": "ST",
        "placeName": "WALLACEBURG",
        "streetNameDisplayText": "ELGIN ST, WALLACEBURG"
      }
    ]
  },
  {
    "postal": "N8A3M5",
    "result": [
      {
        "electoralDistricts": [
          {
            "election": null,
            "id": 50,
            "name": "Lambton—Kent—Middlesex"
          }
        ],
        "pollDivisionIds": [
          10143162
        ],
        "postalCode": "N8A3M5",
        "streetName": "CHESTNUT",
        "streetDirectionId": null,
        "streetTypeId": "DR",
        "placeName": "WALLACEBURG",
        "streetNameDisplayText": "CHESTNUT DR, WALLACEBURG"
      }
    ]
  },
  {
    "postal": "N8A6H7",
    "result": []
  },
  {
    "postal": "N8A8Y8",
    "result": []
  },
  {
    "postal": "N8A5R9",
    "result": []
  },
  {
    "postal": "N8A8G3",
    "result": []
  },
  {
    "postal": "N8A4N7",
    "result": [
      {
        "electoralDistricts": [
          {
            "election": null,
            "id": 50,
            "name": "Lambton—Kent—Middlesex"
          }
        ],
        "pollDivisionIds": [
          10143351
        ],
        "postalCode": "N8A4N7",
        "streetName": "GORDON",
        "streetDirectionId": null,
        "streetTypeId": "ST",
        "placeName": "WALLACEBURG",
        "streetNameDisplayText": "GORDON ST, WALLACEBURG"
      }
    ]
  },
  {
    "postal": "N8A0B9",
    "result": []
  },
  {
    "postal": "N8A9K7",
    "result": []
  },
  {
    "postal": "N8A9K9",
    "result": []
  },
  {
    "postal": "N8A3Z2",
    "result": [
      {
        "electoralDistricts": [
          {
            "election": null,
            "id": 50,
            "name": "Lambton—Kent—Middlesex"
          }
        ],
        "pollDivisionIds": [
          10143351
        ],
        "postalCode": "N8A3Z2",
        "streetName": "LORNE",
        "streetDirectionId": null,
        "streetTypeId": "AVE",
        "placeName": "WALLACEBURG",
        "streetNameDisplayText": "LORNE AVE, WALLACEBURG"
      }
    ]
  },
  {
    "postal": "N8A6W7",
    "result": []
  },
  {
    "postal": "N8A0P1",
    "result": []
  },
  {
    "postal": "N8A3A0",
    "result": []
  },
  {
    "postal": "N8A8L9",
    "result": []
  },
  {
    "postal": "N8A6X0",
    "result": []
  },
  {
    "postal": "N8A3E9",
    "result": [
      {
        "electoralDistricts": [
          {
            "election": null,
            "id": 50,
            "name": "Lambton—Kent—Middlesex"
          }
        ],
        "pollDivisionIds": [
          10143351
        ],
        "postalCode": "N8A3E9",
        "streetName": "ELGIN",
        "streetDirectionId": null,
        "streetTypeId": "ST",
        "placeName": "WALLACEBURG",
        "streetNameDisplayText": "ELGIN ST, WALLACEBURG"
      }
    ]
  },
  {
    "postal": "N8A0S5",
    "result": []
  },
  {
    "postal": "N8A1A2",
    "result": [
      {
        "electoralDistricts": [
          {
            "election": null,
            "id": 50,
            "name": "Lambton—Kent—Middlesex"
          }
        ],
        "pollDivisionIds": [
          10139373
        ],
        "postalCode": "N8A1A2",
        "streetName": "BASE",
        "streetDirectionId": null,
        "streetTypeId": "LINE",
        "placeName": "WALLACEBURG",
        "streetNameDisplayText": "BASE LINE, WALLACEBURG"
      }
    ]
  },
  {
    "postal": "N8A5V8",
    "result": []
  },
  {
    "postal": "N8A8C5",
    "result": []
  },
  {
    "postal": "N8A6N0",
    "result": []
  },
  {
    "postal": "N8A9E6",
    "result": []
  },
  {
    "postal": "N8A5J7",
    "result": [
      {
        "electoralDistricts": [
          {
            "election": null,
            "id": 50,
            "name": "Lambton—Kent—Middlesex"
          }
        ],
        "pollDivisionIds": [
          10143351
        ],
        "postalCode": "N8A5J7",
        "streetName": "ELIZABETH",
        "streetDirectionId": null,
        "streetTypeId": "ST",
        "placeName": "WALLACEBURG",
        "streetNameDisplayText": "ELIZABETH ST, WALLACEBURG"
      }
    ]
  },
  {
    "postal": "N8A2R2",
    "result": [
      {
        "electoralDistricts": [
          {
            "election": null,
            "id": 50,
            "name": "Lambton—Kent—Middlesex"
          }
        ],
        "pollDivisionIds": [
          10143163
        ],
        "postalCode": "N8A2R2",
        "streetName": "JAMES",
        "streetDirectionId": null,
        "streetTypeId": "ST",
        "placeName": "WALLACEBURG",
        "streetNameDisplayText": "JAMES ST, WALLACEBURG"
      }
    ]
  },
  {
    "postal": "N8A0P5",
    "result": []
  },
  {
    "postal": "N8A5A7",
    "result": [
      {
        "electoralDistricts": [
          {
            "election": null,
            "id": 50,
            "name": "Lambton—Kent—Middlesex"
          }
        ],
        "pollDivisionIds": [
          10143351
        ],
        "postalCode": "N8A5A7",
        "streetName": "MCKEE",
        "streetDirectionId": null,
        "streetTypeId": "RD",
        "placeName": "WALLACEBURG",
        "streetNameDisplayText": "MCKEE RD, WALLACEBURG"
      }
    ]
  },
  {
    "postal": "N8A1G1",
    "result": [
      {
        "electoralDistricts": [
          {
            "election": null,
            "id": 50,
            "name": "Lambton—Kent—Middlesex"
          }
        ],
        "pollDivisionIds": [
          10143164
        ],
        "postalCode": "N8A1G1",
        "streetName": "DUKE",
        "streetDirectionId": null,
        "streetTypeId": "ST",
        "placeName": "WALLACEBURG",
        "streetNameDisplayText": "DUKE ST, WALLACEBURG"
      }
    ]
  },
  {
    "postal": "N8A9R6",
    "result": []
  },
  {
    "postal": "N8A4Z9",
    "result": [
      {
        "electoralDistricts": [
          {
            "election": null,
            "id": 50,
            "name": "Lambton—Kent—Middlesex"
          }
        ],
        "pollDivisionIds": [
          10139372
        ],
        "postalCode": "N8A4Z9",
        "streetName": "LOWE",
        "streetDirectionId": null,
        "streetTypeId": "AVE",
        "placeName": "WALLACEBURG",
        "streetNameDisplayText": "LOWE AVE, WALLACEBURG"
      },
      {
        "electoralDistricts": [
          {
            "election": null,
            "id": 50,
            "name": "Lambton—Kent—Middlesex"
          }
        ],
        "pollDivisionIds": [
          10139372
        ],
        "postalCode": "N8A4Z9",
        "streetName": "LOWE",
        "streetDirectionId": null,
        "streetTypeId": "ST",
        "placeName": "WALLACEBURG",
        "streetNameDisplayText": "LOWE ST, WALLACEBURG"
      }
    ]
  },
  {
    "postal": "N8A1V5",
    "result": [
      {
        "electoralDistricts": [
          {
            "election": null,
            "id": 50,
            "name": "Lambton—Kent—Middlesex"
          }
        ],
        "pollDivisionIds": [
          10143164
        ],
        "postalCode": "N8A1V5",
        "streetName": "MURRAY",
        "streetDirectionId": null,
        "streetTypeId": "ST",
        "placeName": "WALLACEBURG",
        "streetNameDisplayText": "MURRAY ST, WALLACEBURG"
      }
    ]
  },
  {
    "postal": "N8A9Y5",
    "result": []
  },
  {
    "postal": "N8A1P2",
    "result": [
      {
        "electoralDistricts": [
          {
            "election": null,
            "id": 50,
            "name": "Lambton—Kent—Middlesex"
          }
        ],
        "pollDivisionIds": [
          10143164
        ],
        "postalCode": "N8A1P2",
        "streetName": "MONTGOMERY",
        "streetDirectionId": null,
        "streetTypeId": "DR",
        "placeName": "WALLACEBURG",
        "streetNameDisplayText": "MONTGOMERY DR, WALLACEBURG"
      }
    ]
  },
  {
    "postal": "N8A5X0",
    "result": []
  },
  {
    "postal": "N8A7B8",
    "result": []
  },
  {
    "postal": "N8A0C6",
    "result": []
  },
  {
    "postal": "N8A6G1",
    "result": []
  },
  {
    "postal": "N8A3K3",
    "result": [
      {
        "electoralDistricts": [
          {
            "election": null,
            "id": 50,
            "name": "Lambton—Kent—Middlesex"
          }
        ],
        "pollDivisionIds": [
          10143351
        ],
        "postalCode": "N8A3K3",
        "streetName": "GORDON",
        "streetDirectionId": null,
        "streetTypeId": "ST",
        "placeName": "WALLACEBURG",
        "streetNameDisplayText": "GORDON ST, WALLACEBURG"
      }
    ]
  },
  {
    "postal": "N8A9R0",
    "result": []
  },
  {
    "postal": "N8A4R8",
    "result": [
      {
        "electoralDistricts": [
          {
            "election": null,
            "id": 50,
            "name": "Lambton—Kent—Middlesex"
          }
        ],
        "pollDivisionIds": [
          10143351
        ],
        "postalCode": "N8A4R8",
        "streetName": "POPLAR",
        "streetDirectionId": null,
        "streetTypeId": "ST",
        "placeName": "WALLACEBURG",
        "streetNameDisplayText": "POPLAR ST, WALLACEBURG"
      }
    ]
  },
  {
    "postal": "N8A5P9",
    "result": []
  },
  {
    "postal": "N8A8N4",
    "result": []
  },
  {
    "postal": "N8A8H4",
    "result": []
  },
  {
    "postal": "N8A4V1",
    "result": [
      {
        "electoralDistricts": [
          {
            "election": null,
            "id": 50,
            "name": "Lambton—Kent—Middlesex"
          }
        ],
        "pollDivisionIds": [
          10139366
        ],
        "postalCode": "N8A4V1",
        "streetName": "LARKWOOD",
        "streetDirectionId": null,
        "streetTypeId": "ST",
        "placeName": "WALLACEBURG",
        "streetNameDisplayText": "LARKWOOD ST, WALLACEBURG"
      }
    ]
  },
  {
    "postal": "N8A1K5",
    "result": [
      {
        "electoralDistricts": [
          {
            "election": null,
            "id": 50,
            "name": "Lambton—Kent—Middlesex"
          }
        ],
        "pollDivisionIds": [
          10143164
        ],
        "postalCode": "N8A1K5",
        "streetName": "WALLACE",
        "streetDirectionId": null,
        "streetTypeId": "ST",
        "placeName": "WALLACEBURG",
        "streetNameDisplayText": "WALLACE ST, WALLACEBURG"
      }
    ]
  },
  {
    "postal": "N8A1Z5",
    "result": [
      {
        "electoralDistricts": [
          {
            "election": null,
            "id": 50,
            "name": "Lambton—Kent—Middlesex"
          }
        ],
        "pollDivisionIds": [
          10143164
        ],
        "postalCode": "N8A1Z5",
        "streetName": "PRINCE",
        "streetDirectionId": null,
        "streetTypeId": "ST",
        "placeName": "WALLACEBURG",
        "streetNameDisplayText": "PRINCE ST, WALLACEBURG"
      }
    ]
  },
  {
    "postal": "N8A9L9",
    "result": []
  },
  {
    "postal": "N8A5L2",
    "result": []
  },
  {
    "postal": "N8A0M2",
    "result": []
  },
  {
    "postal": "N8A1K8",
    "result": [
      {
        "electoralDistricts": [
          {
            "election": null,
            "id": 50,
            "name": "Lambton—Kent—Middlesex"
          }
        ],
        "pollDivisionIds": [
          10143164
        ],
        "postalCode": "N8A1K8",
        "streetName": "WALLACE",
        "streetDirectionId": null,
        "streetTypeId": "ST",
        "placeName": "WALLACEBURG",
        "streetNameDisplayText": "WALLACE ST, WALLACEBURG"
      }
    ]
  },
  {
    "postal": "N8A3M7",
    "result": [
      {
        "electoralDistricts": [
          {
            "election": null,
            "id": 50,
            "name": "Lambton—Kent—Middlesex"
          }
        ],
        "pollDivisionIds": [
          10143162
        ],
        "postalCode": "N8A3M7",
        "streetName": "ELM",
        "streetDirectionId": "S",
        "streetTypeId": "DR",
        "placeName": "WALLACEBURG",
        "streetNameDisplayText": "ELM DR S, WALLACEBURG"
      }
    ]
  },
  {
    "postal": "N8A1B2",
    "result": [
      {
        "electoralDistricts": [
          {
            "election": null,
            "id": 50,
            "name": "Lambton—Kent—Middlesex"
          }
        ],
        "pollDivisionIds": [
          10139372
        ],
        "postalCode": "N8A1B2",
        "streetName": "WILLS",
        "streetDirectionId": null,
        "streetTypeId": "ST",
        "placeName": "WALLACEBURG",
        "streetNameDisplayText": "WILLS ST, WALLACEBURG"
      }
    ]
  },
  {
    "postal": "N8A0H9",
    "result": []
  },
  {
    "postal": "N8A8M4",
    "result": []
  },
  {
    "postal": "N8A2M5",
    "result": [
      {
        "electoralDistricts": [
          {
            "election": null,
            "id": 50,
            "name": "Lambton—Kent—Middlesex"
          }
        ],
        "pollDivisionIds": [
          10143162,
          10143163
        ],
        "postalCode": "N8A2M5",
        "streetName": "TURNBULL",
        "streetDirectionId": null,
        "streetTypeId": "AVE",
        "placeName": "WALLACEBURG",
        "streetNameDisplayText": "TURNBULL AVE, WALLACEBURG"
      }
    ]
  },
  {
    "postal": "N8A0T9",
    "result": []
  },
  {
    "postal": "N8A3P1",
    "result": [
      {
        "electoralDistricts": [
          {
            "election": null,
            "id": 50,
            "name": "Lambton—Kent—Middlesex"
          }
        ],
        "pollDivisionIds": [
          10139366,
          10143351
        ],
        "postalCode": "N8A3P1",
        "streetName": "FRANCIS",
        "streetDirectionId": null,
        "streetTypeId": "AVE",
        "placeName": "WALLACEBURG",
        "streetNameDisplayText": "FRANCIS AVE, WALLACEBURG"
      }
    ]
  },
  {
    "postal": "N8A1R6",
    "result": [
      {
        "electoralDistricts": [
          {
            "election": null,
            "id": 50,
            "name": "Lambton—Kent—Middlesex"
          }
        ],
        "pollDivisionIds": [
          10143164
        ],
        "postalCode": "N8A1R6",
        "streetName": "CAMERON",
        "streetDirectionId": null,
        "streetTypeId": "ST",
        "placeName": "WALLACEBURG",
        "streetNameDisplayText": "CAMERON ST, WALLACEBURG"
      }
    ]
  },
  {
    "postal": "N8A9V5",
    "result": []
  },
  {
    "postal": "N8A9T0",
    "result": []
  },
  {
    "postal": "N8A0A9",
    "result": []
  },
  {
    "postal": "N8A1M3",
    "result": [
      {
        "electoralDistricts": [
          {
            "election": null,
            "id": 50,
            "name": "Lambton—Kent—Middlesex"
          }
        ],
        "pollDivisionIds": [
          10143164
        ],
        "postalCode": "N8A1M3",
        "streetName": "WALLACE",
        "streetDirectionId": null,
        "streetTypeId": "ST",
        "placeName": "WALLACEBURG",
        "streetNameDisplayText": "WALLACE ST, WALLACEBURG"
      }
    ]
  },
  {
    "postal": "N8A1W8",
    "result": [
      {
        "electoralDistricts": [
          {
            "election": null,
            "id": 50,
            "name": "Lambton—Kent—Middlesex"
          }
        ],
        "pollDivisionIds": [
          10143164
        ],
        "postalCode": "N8A1W8",
        "streetName": "VICTORIA",
        "streetDirectionId": null,
        "streetTypeId": "ST",
        "placeName": "WALLACEBURG",
        "streetNameDisplayText": "VICTORIA ST, WALLACEBURG"
      }
    ]
  },
  {
    "postal": "N8A9J1",
    "result": []
  },
  {
    "postal": "N8A8N5",
    "result": []
  },
  {
    "postal": "N8A5X1",
    "result": []
  },
  {
    "postal": "N8A6S2",
    "result": []
  },
  {
    "postal": "N8A2A2",
    "result": [
      {
        "electoralDistricts": [
          {
            "election": null,
            "id": 50,
            "name": "Lambton—Kent—Middlesex"
          }
        ],
        "pollDivisionIds": [
          10139366
        ],
        "postalCode": "N8A2A2",
        "streetName": "MARGARET",
        "streetDirectionId": null,
        "streetTypeId": "AVE",
        "placeName": "WALLACEBURG",
        "streetNameDisplayText": "MARGARET AVE, WALLACEBURG"
      }
    ]
  },
  {
    "postal": "N8A6A6",
    "result": []
  },
  {
    "postal": "N8A0S3",
    "result": []
  },
  {
    "postal": "N8A3E7",
    "result": [
      {
        "electoralDistricts": [
          {
            "election": null,
            "id": 50,
            "name": "Lambton—Kent—Middlesex"
          }
        ],
        "pollDivisionIds": [
          10143351
        ],
        "postalCode": "N8A3E7",
        "streetName": "ELGIN",
        "streetDirectionId": null,
        "streetTypeId": "ST",
        "placeName": "WALLACEBURG",
        "streetNameDisplayText": "ELGIN ST, WALLACEBURG"
      }
    ]
  },
  {
    "postal": "N8A5R7",
    "result": []
  },
  {
    "postal": "N8A3R6",
    "result": [
      {
        "electoralDistricts": [
          {
            "election": null,
            "id": 50,
            "name": "Lambton—Kent—Middlesex"
          }
        ],
        "pollDivisionIds": [
          10143351
        ],
        "postalCode": "N8A3R6",
        "streetName": "FORHAN",
        "streetDirectionId": null,
        "streetTypeId": "ST",
        "placeName": "WALLACEBURG",
        "streetNameDisplayText": "FORHAN ST, WALLACEBURG"
      }
    ]
  },
  {
    "postal": "N8A6K4",
    "result": []
  },
  {
    "postal": "N8A2W5",
    "result": [
      {
        "electoralDistricts": [
          {
            "election": null,
            "id": 50,
            "name": "Lambton—Kent—Middlesex"
          }
        ],
        "pollDivisionIds": [
          10143351
        ],
        "postalCode": "N8A2W5",
        "streetName": "DUFFERIN",
        "streetDirectionId": null,
        "streetTypeId": "AVE",
        "placeName": "WALLACEBURG",
        "streetNameDisplayText": "DUFFERIN AVE, WALLACEBURG"
      }
    ]
  },
  {
    "postal": "N8A8W4",
    "result": []
  },
  {
    "postal": "N8A9C2",
    "result": []
  },
  {
    "postal": "N8A2C0",
    "result": []
  },
  {
    "postal": "N8A0E1",
    "result": []
  },
  {
    "postal": "N8A1K9",
    "result": [
      {
        "electoralDistricts": [
          {
            "election": null,
            "id": 50,
            "name": "Lambton—Kent—Middlesex"
          }
        ],
        "pollDivisionIds": [
          10143164
        ],
        "postalCode": "N8A1K9",
        "streetName": "WALLACE",
        "streetDirectionId": null,
        "streetTypeId": "ST",
        "placeName": "WALLACEBURG",
        "streetNameDisplayText": "WALLACE ST, WALLACEBURG"
      }
    ]
  },
  {
    "postal": "N8A1G7",
    "result": [
      {
        "electoralDistricts": [
          {
            "election": null,
            "id": 50,
            "name": "Lambton—Kent—Middlesex"
          }
        ],
        "pollDivisionIds": [
          10143164
        ],
        "postalCode": "N8A1G7",
        "streetName": "QUEEN",
        "streetDirectionId": null,
        "streetTypeId": "ST",
        "placeName": "WALLACEBURG",
        "streetNameDisplayText": "QUEEN ST, WALLACEBURG"
      }
    ]
  },
  {
    "postal": "N8A4E9",
    "result": [
      {
        "electoralDistricts": [
          {
            "election": null,
            "id": 50,
            "name": "Lambton—Kent—Middlesex"
          }
        ],
        "pollDivisionIds": [
          10143351
        ],
        "postalCode": "N8A4E9",
        "streetName": "DUNCAN",
        "streetDirectionId": null,
        "streetTypeId": "ST",
        "placeName": "WALLACEBURG",
        "streetNameDisplayText": "DUNCAN ST, WALLACEBURG"
      }
    ]
  },
  {
    "postal": "N8A9P0",
    "result": []
  },
  {
    "postal": "N8A5H3",
    "result": [
      {
        "electoralDistricts": [
          {
            "election": null,
            "id": 50,
            "name": "Lambton—Kent—Middlesex"
          }
        ],
        "pollDivisionIds": [
          10143351
        ],
        "postalCode": "N8A5H3",
        "streetName": "SYDENHAM GARDENS",
        "streetDirectionId": null,
        "streetTypeId": "BLVD",
        "placeName": "WALLACEBURG",
        "streetNameDisplayText": "SYDENHAM GARDENS BLVD, WALLACEBURG"
      }
    ]
  },
  {
    "postal": "N8A9X6",
    "result": []
  },
  {
    "postal": "N8A5N7",
    "result": []
  },
  {
    "postal": "N8A5A6",
    "result": [
      {
        "electoralDistricts": [
          {
            "election": null,
            "id": 50,
            "name": "Lambton—Kent—Middlesex"
          }
        ],
        "pollDivisionIds": [
          10143351
        ],
        "postalCode": "N8A5A6",
        "streetName": "MOUNT PLEASANT",
        "streetDirectionId": null,
        "streetTypeId": "CRES",
        "placeName": "WALLACEBURG",
        "streetNameDisplayText": "MOUNT PLEASANT CRES, WALLACEBURG"
      }
    ]
  },
  {
    "postal": "N8A4M0",
    "result": []
  },
  {
    "postal": "N8A3V6",
    "result": [
      {
        "electoralDistricts": [
          {
            "election": null,
            "id": 50,
            "name": "Lambton—Kent—Middlesex"
          }
        ],
        "pollDivisionIds": [
          10143351
        ],
        "postalCode": "N8A3V6",
        "streetName": "AGNES",
        "streetDirectionId": null,
        "streetTypeId": "ST",
        "placeName": "WALLACEBURG",
        "streetNameDisplayText": "AGNES ST, WALLACEBURG"
      }
    ]
  },
  {
    "postal": "N8A1L7",
    "result": [
      {
        "electoralDistricts": [
          {
            "election": null,
            "id": 50,
            "name": "Lambton—Kent—Middlesex"
          }
        ],
        "pollDivisionIds": [
          10143164
        ],
        "postalCode": "N8A1L7",
        "streetName": "WALLACE",
        "streetDirectionId": null,
        "streetTypeId": "ST",
        "placeName": "WALLACEBURG",
        "streetNameDisplayText": "WALLACE ST, WALLACEBURG"
      }
    ]
  },
  {
    "postal": "N8A2P9",
    "result": [
      {
        "electoralDistricts": [
          {
            "election": null,
            "id": 50,
            "name": "Lambton—Kent—Middlesex"
          }
        ],
        "pollDivisionIds": [
          10143351
        ],
        "postalCode": "N8A2P9",
        "streetName": "JAMES",
        "streetDirectionId": null,
        "streetTypeId": "ST",
        "placeName": "WALLACEBURG",
        "streetNameDisplayText": "JAMES ST, WALLACEBURG"
      },
      {
        "electoralDistricts": [
          {
            "election": null,
            "id": 50,
            "name": "Lambton—Kent—Middlesex"
          }
        ],
        "pollDivisionIds": [
          10143351
        ],
        "postalCode": "N8A2P9",
        "streetName": "JAMESON",
        "streetDirectionId": null,
        "streetTypeId": "ST",
        "placeName": "WALLACEBURG",
        "streetNameDisplayText": "JAMESON ST, WALLACEBURG"
      }
    ]
  },
  {
    "postal": "N8A5T4",
    "result": []
  },
  {
    "postal": "N8A5Z1",
    "result": []
  },
  {
    "postal": "N8A2X0",
    "result": []
  },
  {
    "postal": "N8A6Z2",
    "result": []
  },
  {
    "postal": "N8A0E0",
    "result": []
  },
  {
    "postal": "N8A3Z5",
    "result": [
      {
        "electoralDistricts": [
          {
            "election": null,
            "id": 50,
            "name": "Lambton—Kent—Middlesex"
          }
        ],
        "pollDivisionIds": [
          10143351
        ],
        "postalCode": "N8A3Z5",
        "streetName": "LORNE",
        "streetDirectionId": null,
        "streetTypeId": "AVE",
        "placeName": "WALLACEBURG",
        "streetNameDisplayText": "LORNE AVE, WALLACEBURG"
      }
    ]
  },
  {
    "postal": "N8A8H3",
    "result": []
  },
  {
    "postal": "N8A7S6",
    "result": []
  },
  {
    "postal": "N8A4C1",
    "result": [
      {
        "electoralDistricts": [
          {
            "election": null,
            "id": 50,
            "name": "Lambton—Kent—Middlesex"
          }
        ],
        "pollDivisionIds": [
          10143351
        ],
        "postalCode": "N8A4C1",
        "streetName": "CREEK",
        "streetDirectionId": null,
        "streetTypeId": "ST",
        "placeName": "WALLACEBURG",
        "streetNameDisplayText": "CREEK ST, WALLACEBURG"
      }
    ]
  },
  {
    "postal": "N8A3K2",
    "result": [
      {
        "electoralDistricts": [
          {
            "election": null,
            "id": 50,
            "name": "Lambton—Kent—Middlesex"
          }
        ],
        "pollDivisionIds": [
          10143351
        ],
        "postalCode": "N8A3K2",
        "streetName": "GORDON",
        "streetDirectionId": null,
        "streetTypeId": "ST",
        "placeName": "WALLACEBURG",
        "streetNameDisplayText": "GORDON ST, WALLACEBURG"
      }
    ]
  },
  {
    "postal": "N8A1Y5",
    "result": [
      {
        "electoralDistricts": [
          {
            "election": null,
            "id": 50,
            "name": "Lambton—Kent—Middlesex"
          }
        ],
        "pollDivisionIds": [
          10143164
        ],
        "postalCode": "N8A1Y5",
        "streetName": "ALBERT",
        "streetDirectionId": null,
        "streetTypeId": "ST",
        "placeName": "WALLACEBURG",
        "streetNameDisplayText": "ALBERT ST, WALLACEBURG"
      }
    ]
  },
  {
    "postal": "N8A6P6",
    "result": []
  },
  {
    "postal": "N8A3N9",
    "result": [
      {
        "electoralDistricts": [
          {
            "election": null,
            "id": 50,
            "name": "Lambton—Kent—Middlesex"
          }
        ],
        "pollDivisionIds": [
          10143351
        ],
        "postalCode": "N8A3N9",
        "streetName": "JOHN",
        "streetDirectionId": null,
        "streetTypeId": "AVE",
        "placeName": "WALLACEBURG",
        "streetNameDisplayText": "JOHN AVE, WALLACEBURG"
      }
    ]
  },
  {
    "postal": "N8A3W2",
    "result": [
      {
        "electoralDistricts": [
          {
            "election": null,
            "id": 50,
            "name": "Lambton—Kent—Middlesex"
          }
        ],
        "pollDivisionIds": [
          10143351
        ],
        "postalCode": "N8A3W2",
        "streetName": "AGNES",
        "streetDirectionId": null,
        "streetTypeId": "ST",
        "placeName": "WALLACEBURG",
        "streetNameDisplayText": "AGNES ST, WALLACEBURG"
      }
    ]
  },
  {
    "postal": "N8A6H8",
    "result": []
  },
  {
    "postal": "N8A9T3",
    "result": []
  },
  {
    "postal": "N8A5L9",
    "result": []
  },
  {
    "postal": "N8A7X7",
    "result": []
  },
  {
    "postal": "N8A3J5",
    "result": [
      {
        "electoralDistricts": [
          {
            "election": null,
            "id": 50,
            "name": "Lambton—Kent—Middlesex"
          }
        ],
        "pollDivisionIds": [
          10143351
        ],
        "postalCode": "N8A3J5",
        "streetName": "JEANNE",
        "streetDirectionId": null,
        "streetTypeId": "ST",
        "placeName": "WALLACEBURG",
        "streetNameDisplayText": "JEANNE ST, WALLACEBURG"
      }
    ]
  },
  {
    "postal": "N8A4J5",
    "result": [
      {
        "electoralDistricts": [
          {
            "election": null,
            "id": 50,
            "name": "Lambton—Kent—Middlesex"
          }
        ],
        "pollDivisionIds": [
          10143351
        ],
        "postalCode": "N8A4J5",
        "streetName": "LAFONTAINE",
        "streetDirectionId": null,
        "streetTypeId": "ST",
        "placeName": "WALLACEBURG",
        "streetNameDisplayText": "LAFONTAINE ST, WALLACEBURG"
      }
    ]
  },
  {
    "postal": "N8A6J2",
    "result": []
  },
  {
    "postal": "N8A5V6",
    "result": []
  },
  {
    "postal": "N8A3N2",
    "result": [
      {
        "electoralDistricts": [
          {
            "election": null,
            "id": 50,
            "name": "Lambton—Kent—Middlesex"
          }
        ],
        "pollDivisionIds": [
          10143351
        ],
        "postalCode": "N8A3N2",
        "streetName": "DAUW",
        "streetDirectionId": null,
        "streetTypeId": "AVE",
        "placeName": "WALLACEBURG",
        "streetNameDisplayText": "DAUW AVE, WALLACEBURG"
      }
    ]
  },
  {
    "postal": "N8A3B1",
    "result": [
      {
        "electoralDistricts": [
          {
            "election": null,
            "id": 50,
            "name": "Lambton—Kent—Middlesex"
          }
        ],
        "pollDivisionIds": [
          10143351
        ],
        "postalCode": "N8A3B1",
        "streetName": "BETH",
        "streetDirectionId": null,
        "streetTypeId": "ST",
        "placeName": "WALLACEBURG",
        "streetNameDisplayText": "BETH ST, WALLACEBURG"
      }
    ]
  },
  {
    "postal": "N8A8B5",
    "result": []
  },
  {
    "postal": "N8A0K1",
    "result": []
  },
  {
    "postal": "N8A7M7",
    "result": []
  },
  {
    "postal": "N8A2M2",
    "result": []
  },
  {
    "postal": "N8A9N3",
    "result": []
  },
  {
    "postal": "N8A4Y8",
    "result": [
      {
        "electoralDistricts": [
          {
            "election": null,
            "id": 50,
            "name": "Lambton—Kent—Middlesex"
          }
        ],
        "pollDivisionIds": [
          10143351
        ],
        "postalCode": "N8A4Y8",
        "streetName": "ELGIN",
        "streetDirectionId": null,
        "streetTypeId": "ST",
        "placeName": "WALLACEBURG",
        "streetNameDisplayText": "ELGIN ST, WALLACEBURG"
      }
    ]
  },
  {
    "postal": "N8A3V7",
    "result": [
      {
        "electoralDistricts": [
          {
            "election": null,
            "id": 50,
            "name": "Lambton—Kent—Middlesex"
          }
        ],
        "pollDivisionIds": [
          10143351
        ],
        "postalCode": "N8A3V7",
        "streetName": "AGNES",
        "streetDirectionId": null,
        "streetTypeId": "ST",
        "placeName": "WALLACEBURG",
        "streetNameDisplayText": "AGNES ST, WALLACEBURG"
      }
    ]
  },
  {
    "postal": "N8A8Z1",
    "result": []
  },
  {
    "postal": "N8A7B3",
    "result": []
  },
  {
    "postal": "N8A3A8",
    "result": [
      {
        "electoralDistricts": [
          {
            "election": null,
            "id": 50,
            "name": "Lambton—Kent—Middlesex"
          }
        ],
        "pollDivisionIds": [
          10143351
        ],
        "postalCode": "N8A3A8",
        "streetName": "ELIZABETH",
        "streetDirectionId": null,
        "streetTypeId": "ST",
        "placeName": "WALLACEBURG",
        "streetNameDisplayText": "ELIZABETH ST, WALLACEBURG"
      }
    ]
  },
  {
    "postal": "N8A7V5",
    "result": []
  },
  {
    "postal": "N8A2T2",
    "result": [
      {
        "electoralDistricts": [
          {
            "election": null,
            "id": 50,
            "name": "Lambton—Kent—Middlesex"
          }
        ],
        "pollDivisionIds": [
          10143163
        ],
        "postalCode": "N8A2T2",
        "streetName": "GEORGE",
        "streetDirectionId": null,
        "streetTypeId": "ST",
        "placeName": "WALLACEBURG",
        "streetNameDisplayText": "GEORGE ST, WALLACEBURG"
      }
    ]
  },
  {
    "postal": "N8A6L3",
    "result": []
  },
  {
    "postal": "N8A0L2",
    "result": []
  },
  {
    "postal": "N8A5Y8",
    "result": []
  },
  {
    "postal": "N8A0B8",
    "result": []
  },
  {
    "postal": "N8A6R5",
    "result": []
  },
  {
    "postal": "N8A8W6",
    "result": []
  },
  {
    "postal": "N8A8G6",
    "result": []
  },
  {
    "postal": "N8A6X3",
    "result": []
  },
  {
    "postal": "N8A7R7",
    "result": []
  },
  {
    "postal": "N8A4B6",
    "result": [
      {
        "electoralDistricts": [
          {
            "election": null,
            "id": 50,
            "name": "Lambton—Kent—Middlesex"
          }
        ],
        "pollDivisionIds": [
          10143351
        ],
        "postalCode": "N8A4B6",
        "streetName": "WILLIAM",
        "streetDirectionId": null,
        "streetTypeId": "ST",
        "placeName": "WALLACEBURG",
        "streetNameDisplayText": "WILLIAM ST, WALLACEBURG"
      }
    ]
  },
  {
    "postal": "N8A3P9",
    "result": [
      {
        "electoralDistricts": [
          {
            "election": null,
            "id": 50,
            "name": "Lambton—Kent—Middlesex"
          }
        ],
        "pollDivisionIds": [
          10143351
        ],
        "postalCode": "N8A3P9",
        "streetName": "FIRST",
        "streetDirectionId": null,
        "streetTypeId": "ST",
        "placeName": "WALLACEBURG",
        "streetNameDisplayText": "FIRST ST, WALLACEBURG"
      }
    ]
  },
  {
    "postal": "N8A2T3",
    "result": [
      {
        "electoralDistricts": [
          {
            "election": null,
            "id": 50,
            "name": "Lambton—Kent—Middlesex"
          }
        ],
        "pollDivisionIds": [
          10143163
        ],
        "postalCode": "N8A2T3",
        "streetName": "BOOK",
        "streetDirectionId": null,
        "streetTypeId": "ST",
        "placeName": "WALLACEBURG",
        "streetNameDisplayText": "BOOK ST, WALLACEBURG"
      }
    ]
  },
  {
    "postal": "N8A1M4",
    "result": [
      {
        "electoralDistricts": [
          {
            "election": null,
            "id": 50,
            "name": "Lambton—Kent—Middlesex"
          }
        ],
        "pollDivisionIds": [
          10143164
        ],
        "postalCode": "N8A1M4",
        "streetName": "WALLACE",
        "streetDirectionId": null,
        "streetTypeId": "ST",
        "placeName": "WALLACEBURG",
        "streetNameDisplayText": "WALLACE ST, WALLACEBURG"
      }
    ]
  },
  {
    "postal": "N8A0H1",
    "result": []
  },
  {
    "postal": "N8A9W3",
    "result": []
  },
  {
    "postal": "N8A6P1",
    "result": []
  },
  {
    "postal": "N8A7G2",
    "result": []
  },
  {
    "postal": "N8A4J9",
    "result": [
      {
        "electoralDistricts": [
          {
            "election": null,
            "id": 50,
            "name": "Lambton—Kent—Middlesex"
          }
        ],
        "pollDivisionIds": [
          10143351
        ],
        "postalCode": "N8A4J9",
        "streetName": "GRAND",
        "streetDirectionId": null,
        "streetTypeId": "AVE",
        "placeName": "WALLACEBURG",
        "streetNameDisplayText": "GRAND AVE, WALLACEBURG"
      }
    ]
  },
  {
    "postal": "N8A9E4",
    "result": []
  },
  {
    "postal": "N8A8H0",
    "result": []
  },
  {
    "postal": "N8A4M7",
    "result": [
      {
        "electoralDistricts": [
          {
            "election": null,
            "id": 50,
            "name": "Lambton—Kent—Middlesex"
          }
        ],
        "pollDivisionIds": [
          10143351
        ],
        "postalCode": "N8A4M7",
        "streetName": "DUFFERIN",
        "streetDirectionId": null,
        "streetTypeId": "AVE",
        "placeName": "WALLACEBURG",
        "streetNameDisplayText": "DUFFERIN AVE, WALLACEBURG"
      }
    ]
  },
  {
    "postal": "N8A2G9",
    "result": [
      {
        "electoralDistricts": [
          {
            "election": null,
            "id": 50,
            "name": "Lambton—Kent—Middlesex"
          }
        ],
        "pollDivisionIds": [
          10139366
        ],
        "postalCode": "N8A2G9",
        "streetName": "COLLINS",
        "streetDirectionId": null,
        "streetTypeId": "ST",
        "placeName": "WALLACEBURG",
        "streetNameDisplayText": "COLLINS ST, WALLACEBURG"
      }
    ]
  },
  {
    "postal": "N8A8T2",
    "result": []
  },
  {
    "postal": "N8A7G7",
    "result": []
  },
  {
    "postal": "N8A4Z3",
    "result": [
      {
        "electoralDistricts": [
          {
            "election": null,
            "id": 50,
            "name": "Lambton—Kent—Middlesex"
          }
        ],
        "pollDivisionIds": [
          10143164
        ],
        "postalCode": "N8A4Z3",
        "streetName": "BRIDLE-PATH",
        "streetDirectionId": null,
        "streetTypeId": "RD",
        "placeName": "WALLACEBURG",
        "streetNameDisplayText": "BRIDLE-PATH RD, WALLACEBURG"
      }
    ]
  },
  {
    "postal": "N8A5B3",
    "result": [
      {
        "electoralDistricts": [
          {
            "election": null,
            "id": 50,
            "name": "Lambton—Kent—Middlesex"
          }
        ],
        "pollDivisionIds": [
          10143351
        ],
        "postalCode": "N8A5B3",
        "streetName": "MOUNT PLEASANT",
        "streetDirectionId": null,
        "streetTypeId": "CRES",
        "placeName": "WALLACEBURG",
        "streetNameDisplayText": "MOUNT PLEASANT CRES, WALLACEBURG"
      }
    ]
  },
  {
    "postal": "N8A1S7",
    "result": []
  },
  {
    "postal": "N8A2N7",
    "result": [
      {
        "electoralDistricts": [
          {
            "election": null,
            "id": 50,
            "name": "Lambton—Kent—Middlesex"
          }
        ],
        "pollDivisionIds": [
          10143351
        ],
        "postalCode": "N8A2N7",
        "streetName": "JAMES",
        "streetDirectionId": null,
        "streetTypeId": "ST",
        "placeName": "WALLACEBURG",
        "streetNameDisplayText": "JAMES ST, WALLACEBURG"
      }
    ]
  },
  {
    "postal": "N8A0H8",
    "result": []
  },
  {
    "postal": "N8A7Z4",
    "result": []
  },
  {
    "postal": "N8A7B1",
    "result": []
  },
  {
    "postal": "N8A7P8",
    "result": []
  },
  {
    "postal": "N8A7N0",
    "result": []
  },
  {
    "postal": "N8A3Y5",
    "result": [
      {
        "electoralDistricts": [
          {
            "election": null,
            "id": 50,
            "name": "Lambton—Kent—Middlesex"
          }
        ],
        "pollDivisionIds": [
          10143351
        ],
        "postalCode": "N8A3Y5",
        "streetName": "JOHNSON",
        "streetDirectionId": null,
        "streetTypeId": "ST",
        "placeName": "WALLACEBURG",
        "streetNameDisplayText": "JOHNSON ST, WALLACEBURG"
      }
    ]
  },
  {
    "postal": "N8A6K1",
    "result": []
  },
  {
    "postal": "N8A9X5",
    "result": []
  },
  {
    "postal": "N8A7S5",
    "result": []
  },
  {
    "postal": "N8A0A4",
    "result": []
  },
  {
    "postal": "N8A4T5",
    "result": [
      {
        "electoralDistricts": [
          {
            "election": null,
            "id": 50,
            "name": "Lambton—Kent—Middlesex"
          }
        ],
        "pollDivisionIds": [
          10139366
        ],
        "postalCode": "N8A4T5",
        "streetName": "LARKWOOD",
        "streetDirectionId": null,
        "streetTypeId": "ST",
        "placeName": "WALLACEBURG",
        "streetNameDisplayText": "LARKWOOD ST, WALLACEBURG"
      }
    ]
  },
  {
    "postal": "N8A5K1",
    "result": []
  },
  {
    "postal": "N8A0Z9",
    "result": []
  },
  {
    "postal": "N8A7T2",
    "result": []
  },
  {
    "postal": "N8A1L5",
    "result": [
      {
        "electoralDistricts": [
          {
            "election": null,
            "id": 50,
            "name": "Lambton—Kent—Middlesex"
          }
        ],
        "pollDivisionIds": [
          10143164
        ],
        "postalCode": "N8A1L5",
        "streetName": "WALLACE",
        "streetDirectionId": null,
        "streetTypeId": "ST",
        "placeName": "WALLACEBURG",
        "streetNameDisplayText": "WALLACE ST, WALLACEBURG"
      }
    ]
  },
  {
    "postal": "N8A3N5",
    "result": [
      {
        "electoralDistricts": [
          {
            "election": null,
            "id": 50,
            "name": "Lambton—Kent—Middlesex"
          }
        ],
        "pollDivisionIds": [
          10143163
        ],
        "postalCode": "N8A3N5",
        "streetName": "WARWICK",
        "streetDirectionId": null,
        "streetTypeId": "DR",
        "placeName": "WALLACEBURG",
        "streetNameDisplayText": "WARWICK DR, WALLACEBURG"
      }
    ]
  },
  {
    "postal": "N8A6H4",
    "result": []
  },
  {
    "postal": "N8A5A5",
    "result": [
      {
        "electoralDistricts": [
          {
            "election": null,
            "id": 50,
            "name": "Lambton—Kent—Middlesex"
          }
        ],
        "pollDivisionIds": [
          10143351
        ],
        "postalCode": "N8A5A5",
        "streetName": "WILSON",
        "streetDirectionId": null,
        "streetTypeId": "ST",
        "placeName": "WALLACEBURG",
        "streetNameDisplayText": "WILSON ST, WALLACEBURG"
      }
    ]
  },
  {
    "postal": "N8A3R9",
    "result": [
      {
        "electoralDistricts": [
          {
            "election": null,
            "id": 50,
            "name": "Lambton—Kent—Middlesex"
          }
        ],
        "pollDivisionIds": [
          10143351
        ],
        "postalCode": "N8A3R9",
        "streetName": "FORHAN",
        "streetDirectionId": null,
        "streetTypeId": "ST",
        "placeName": "WALLACEBURG",
        "streetNameDisplayText": "FORHAN ST, WALLACEBURG"
      }
    ]
  },
  {
    "postal": "N8A7L8",
    "result": []
  },
  {
    "postal": "N8A6T6",
    "result": []
  },
  {
    "postal": "N8A7Y7",
    "result": []
  },
  {
    "postal": "N8A3M8",
    "result": [
      {
        "electoralDistricts": [
          {
            "election": null,
            "id": 50,
            "name": "Lambton—Kent—Middlesex"
          }
        ],
        "pollDivisionIds": [
          10143162
        ],
        "postalCode": "N8A3M8",
        "streetName": "ELM",
        "streetDirectionId": "S",
        "streetTypeId": "DR",
        "placeName": "WALLACEBURG",
        "streetNameDisplayText": "ELM DR S, WALLACEBURG"
      }
    ]
  },
  {
    "postal": "N8A2E0",
    "result": []
  },
  {
    "postal": "N8A4B5",
    "result": [
      {
        "electoralDistricts": [
          {
            "election": null,
            "id": 50,
            "name": "Lambton—Kent—Middlesex"
          }
        ],
        "pollDivisionIds": [
          10143351
        ],
        "postalCode": "N8A4B5",
        "streetName": "WILLIAM",
        "streetDirectionId": null,
        "streetTypeId": "ST",
        "placeName": "WALLACEBURG",
        "streetNameDisplayText": "WILLIAM ST, WALLACEBURG"
      }
    ]
  },
  {
    "postal": "N8A1J3",
    "result": [
      {
        "electoralDistricts": [
          {
            "election": null,
            "id": 50,
            "name": "Lambton—Kent—Middlesex"
          }
        ],
        "pollDivisionIds": [
          10143164
        ],
        "postalCode": "N8A1J3",
        "streetName": "BRUCE",
        "streetDirectionId": null,
        "streetTypeId": "ST",
        "placeName": "WALLACEBURG",
        "streetNameDisplayText": "BRUCE ST, WALLACEBURG"
      }
    ]
  },
  {
    "postal": "N8A5S6",
    "result": []
  },
  {
    "postal": "N8A8P7",
    "result": []
  },
  {
    "postal": "N8A7S7",
    "result": []
  },
  {
    "postal": "N8A4C2",
    "result": [
      {
        "electoralDistricts": [
          {
            "election": null,
            "id": 50,
            "name": "Lambton—Kent—Middlesex"
          }
        ],
        "pollDivisionIds": [
          10143351
        ],
        "postalCode": "N8A4C2",
        "streetName": "CREEK",
        "streetDirectionId": null,
        "streetTypeId": "ST",
        "placeName": "WALLACEBURG",
        "streetNameDisplayText": "CREEK ST, WALLACEBURG"
      }
    ]
  },
  {
    "postal": "N8A5Y0",
    "result": []
  },
  {
    "postal": "N8A2V7",
    "result": [
      {
        "electoralDistricts": [
          {
            "election": null,
            "id": 50,
            "name": "Lambton—Kent—Middlesex"
          }
        ],
        "pollDivisionIds": [
          10143163
        ],
        "postalCode": "N8A2V7",
        "streetName": "DUFFERIN",
        "streetDirectionId": null,
        "streetTypeId": "AVE",
        "placeName": "WALLACEBURG",
        "streetNameDisplayText": "DUFFERIN AVE, WALLACEBURG"
      }
    ]
  },
  {
    "postal": "N8A8P5",
    "result": []
  },
  {
    "postal": "N8A5P5",
    "result": []
  },
  {
    "postal": "N8A5Z0",
    "result": []
  },
  {
    "postal": "N8A9B0",
    "result": []
  },
  {
    "postal": "N8A1L0",
    "result": []
  },
  {
    "postal": "N8A0B5",
    "result": []
  },
  {
    "postal": "N8A3L2",
    "result": [
      {
        "electoralDistricts": [
          {
            "election": null,
            "id": 50,
            "name": "Lambton—Kent—Middlesex"
          }
        ],
        "pollDivisionIds": [
          10143162
        ],
        "postalCode": "N8A3L2",
        "streetName": "WALNUT",
        "streetDirectionId": null,
        "streetTypeId": "DR",
        "placeName": "WALLACEBURG",
        "streetNameDisplayText": "WALNUT DR, WALLACEBURG"
      }
    ]
  },
  {
    "postal": "N8A3B7",
    "result": [
      {
        "electoralDistricts": [
          {
            "election": null,
            "id": 50,
            "name": "Lambton—Kent—Middlesex"
          }
        ],
        "pollDivisionIds": [
          10143351
        ],
        "postalCode": "N8A3B7",
        "streetName": "ELGIN",
        "streetDirectionId": null,
        "streetTypeId": "ST",
        "placeName": "WALLACEBURG",
        "streetNameDisplayText": "ELGIN ST, WALLACEBURG"
      }
    ]
  },
  {
    "postal": "N8A8L1",
    "result": []
  },
  {
    "postal": "N8A5M4",
    "result": []
  },
  {
    "postal": "N8A4G9",
    "result": [
      {
        "electoralDistricts": [
          {
            "election": null,
            "id": 50,
            "name": "Lambton—Kent—Middlesex"
          }
        ],
        "pollDivisionIds": [
          10143351
        ],
        "postalCode": "N8A4G9",
        "streetName": "NELSON",
        "streetDirectionId": null,
        "streetTypeId": "ST",
        "placeName": "WALLACEBURG",
        "streetNameDisplayText": "NELSON ST, WALLACEBURG"
      }
    ]
  },
  {
    "postal": "N8A0P0",
    "result": []
  },
  {
    "postal": "N8A8G2",
    "result": []
  },
  {
    "postal": "N8A1V9",
    "result": [
      {
        "electoralDistricts": [
          {
            "election": null,
            "id": 50,
            "name": "Lambton—Kent—Middlesex"
          }
        ],
        "pollDivisionIds": [
          10139372
        ],
        "postalCode": "N8A1V9",
        "streetName": "MURRAY",
        "streetDirectionId": null,
        "streetTypeId": "ST",
        "placeName": "WALLACEBURG",
        "streetNameDisplayText": "MURRAY ST, WALLACEBURG"
      }
    ]
  },
  {
    "postal": "N8A8N8",
    "result": []
  },
  {
    "postal": "N8A6S8",
    "result": []
  },
  {
    "postal": "N8A8H2",
    "result": []
  },
  {
    "postal": "N8A5R8",
    "result": []
  },
  {
    "postal": "N8A5L4",
    "result": [
      {
        "electoralDistricts": [
          {
            "election": null,
            "id": 50,
            "name": "Lambton—Kent—Middlesex"
          }
        ],
        "pollDivisionIds": [
          10143351
        ],
        "postalCode": "N8A5L4",
        "streetName": "WELLINGTON",
        "streetDirectionId": null,
        "streetTypeId": "ST",
        "placeName": "WALLACEBURG",
        "streetNameDisplayText": "WELLINGTON ST, WALLACEBURG"
      }
    ]
  },
  {
    "postal": "N8A9E1",
    "result": []
  },
  {
    "postal": "N8A1C4",
    "result": [
      {
        "electoralDistricts": [
          {
            "election": null,
            "id": 50,
            "name": "Lambton—Kent—Middlesex"
          }
        ],
        "pollDivisionIds": [
          10143164
        ],
        "postalCode": "N8A1C4",
        "streetName": "EDWY",
        "streetDirectionId": null,
        "streetTypeId": "ST",
        "placeName": "WALLACEBURG",
        "streetNameDisplayText": "EDWY ST, WALLACEBURG"
      }
    ]
  },
  {
    "postal": "N8A8W5",
    "result": []
  },
  {
    "postal": "N8A1Y4",
    "result": [
      {
        "electoralDistricts": [
          {
            "election": null,
            "id": 50,
            "name": "Lambton—Kent—Middlesex"
          }
        ],
        "pollDivisionIds": [
          10143164
        ],
        "postalCode": "N8A1Y4",
        "streetName": "ALBERT",
        "streetDirectionId": null,
        "streetTypeId": "ST",
        "placeName": "WALLACEBURG",
        "streetNameDisplayText": "ALBERT ST, WALLACEBURG"
      }
    ]
  },
  {
    "postal": "N8A1C0",
    "result": []
  },
  {
    "postal": "N8A2J2",
    "result": [
      {
        "electoralDistricts": [
          {
            "election": null,
            "id": 50,
            "name": "Lambton—Kent—Middlesex"
          }
        ],
        "pollDivisionIds": [
          10139366
        ],
        "postalCode": "N8A2J2",
        "streetName": "DUNDAS",
        "streetDirectionId": null,
        "streetTypeId": "ST",
        "placeName": "WALLACEBURG",
        "streetNameDisplayText": "DUNDAS ST, WALLACEBURG"
      }
    ]
  },
  {
    "postal": "N8A2J0",
    "result": []
  },
  {
    "postal": "N8A7A3",
    "result": []
  },
  {
    "postal": "N8A8M1",
    "result": []
  },
  {
    "postal": "N8A7T9",
    "result": []
  },
  {
    "postal": "N8A6C0",
    "result": []
  },
  {
    "postal": "N8A7X1",
    "result": []
  },
  {
    "postal": "N8A0G1",
    "result": []
  },
  {
    "postal": "N8A4X2",
    "result": [
      {
        "electoralDistricts": [
          {
            "election": null,
            "id": 50,
            "name": "Lambton—Kent—Middlesex"
          }
        ],
        "pollDivisionIds": [
          10143351
        ],
        "postalCode": "N8A4X2",
        "streetName": "MOUNT PLEASANT",
        "streetDirectionId": null,
        "streetTypeId": "CRES",
        "placeName": "WALLACEBURG",
        "streetNameDisplayText": "MOUNT PLEASANT CRES, WALLACEBURG"
      }
    ]
  },
  {
    "postal": "N8A0N6",
    "result": []
  },
  {
    "postal": "N8A8E3",
    "result": []
  },
  {
    "postal": "N8A5S8",
    "result": []
  },
  {
    "postal": "N8A0R0",
    "result": []
  },
  {
    "postal": "N8A6J6",
    "result": []
  },
  {
    "postal": "N8A4B4",
    "result": [
      {
        "electoralDistricts": [
          {
            "election": null,
            "id": 50,
            "name": "Lambton—Kent—Middlesex"
          }
        ],
        "pollDivisionIds": [
          10143351
        ],
        "postalCode": "N8A4B4",
        "streetName": "WILLIAM",
        "streetDirectionId": null,
        "streetTypeId": "ST",
        "placeName": "WALLACEBURG",
        "streetNameDisplayText": "WILLIAM ST, WALLACEBURG"
      }
    ]
  },
  {
    "postal": "N8A7E3",
    "result": []
  },
  {
    "postal": "N8A3N6",
    "result": [
      {
        "electoralDistricts": [
          {
            "election": null,
            "id": 50,
            "name": "Lambton—Kent—Middlesex"
          }
        ],
        "pollDivisionIds": [
          10143162
        ],
        "postalCode": "N8A3N6",
        "streetName": "WARWICK",
        "streetDirectionId": null,
        "streetTypeId": "DR",
        "placeName": "WALLACEBURG",
        "streetNameDisplayText": "WARWICK DR, WALLACEBURG"
      }
    ]
  },
  {
    "postal": "N8A3X6",
    "result": [
      {
        "electoralDistricts": [
          {
            "election": null,
            "id": 50,
            "name": "Lambton—Kent—Middlesex"
          }
        ],
        "pollDivisionIds": [
          10143163
        ],
        "postalCode": "N8A3X6",
        "streetName": "SELKIRK",
        "streetDirectionId": null,
        "streetTypeId": "ST",
        "placeName": "WALLACEBURG",
        "streetNameDisplayText": "SELKIRK ST, WALLACEBURG"
      }
    ]
  },
  {
    "postal": "N8A8L0",
    "result": []
  },
  {
    "postal": "N8A8N1",
    "result": []
  },
  {
    "postal": "N8A4J0",
    "result": []
  },
  {
    "postal": "N8A0X7",
    "result": []
  },
  {
    "postal": "N8A6S4",
    "result": []
  },
  {
    "postal": "N8A0Z0",
    "result": []
  },
  {
    "postal": "N8A9X8",
    "result": []
  },
  {
    "postal": "N8A3H3",
    "result": [
      {
        "electoralDistricts": [
          {
            "election": null,
            "id": 50,
            "name": "Lambton—Kent—Middlesex"
          }
        ],
        "pollDivisionIds": [
          10143351
        ],
        "postalCode": "N8A3H3",
        "streetName": "WALL",
        "streetDirectionId": null,
        "streetTypeId": "ST",
        "placeName": "WALLACEBURG",
        "streetNameDisplayText": "WALL ST, WALLACEBURG"
      }
    ]
  },
  {
    "postal": "N8A7S2",
    "result": []
  },
  {
    "postal": "N8A3T3",
    "result": [
      {
        "electoralDistricts": [
          {
            "election": null,
            "id": 50,
            "name": "Lambton—Kent—Middlesex"
          }
        ],
        "pollDivisionIds": [
          10143163
        ],
        "postalCode": "N8A3T3",
        "streetName": "OLD GLASS",
        "streetDirectionId": null,
        "streetTypeId": "RD",
        "placeName": "WALLACEBURG",
        "streetNameDisplayText": "OLD GLASS RD, WALLACEBURG"
      }
    ]
  },
  {
    "postal": "N8A9P3",
    "result": []
  },
  {
    "postal": "N8A4H8",
    "result": []
  },
  {
    "postal": "N8A6R1",
    "result": []
  },
  {
    "postal": "N8A1S0",
    "result": []
  },
  {
    "postal": "N8A3W8",
    "result": [
      {
        "electoralDistricts": [
          {
            "election": null,
            "id": 50,
            "name": "Lambton—Kent—Middlesex"
          }
        ],
        "pollDivisionIds": [
          10143163
        ],
        "postalCode": "N8A3W8",
        "streetName": "FRASER",
        "streetDirectionId": null,
        "streetTypeId": "ST",
        "placeName": "WALLACEBURG",
        "streetNameDisplayText": "FRASER ST, WALLACEBURG"
      }
    ]
  },
  {
    "postal": "N8A4S3",
    "result": [
      {
        "electoralDistricts": [
          {
            "election": null,
            "id": 50,
            "name": "Lambton—Kent—Middlesex"
          }
        ],
        "pollDivisionIds": [
          10143351
        ],
        "postalCode": "N8A4S3",
        "streetName": "FORHAN",
        "streetDirectionId": null,
        "streetTypeId": "ST",
        "placeName": "WALLACEBURG",
        "streetNameDisplayText": "FORHAN ST, WALLACEBURG"
      }
    ]
  },
  {
    "postal": "N8A1B6",
    "result": [
      {
        "electoralDistricts": [
          {
            "election": null,
            "id": 50,
            "name": "Lambton—Kent—Middlesex"
          }
        ],
        "pollDivisionIds": [
          10139372,
          10143164
        ],
        "postalCode": "N8A1B6",
        "streetName": "REAUME",
        "streetDirectionId": null,
        "streetTypeId": "AVE",
        "placeName": "WALLACEBURG",
        "streetNameDisplayText": "REAUME AVE, WALLACEBURG"
      }
    ]
  },
  {
    "postal": "N8A8R3",
    "result": []
  },
  {
    "postal": "N8A4V9",
    "result": []
  },
  {
    "postal": "N8A9W4",
    "result": []
  },
  {
    "postal": "N8A3T4",
    "result": [
      {
        "electoralDistricts": [
          {
            "election": null,
            "id": 50,
            "name": "Lambton—Kent—Middlesex"
          }
        ],
        "pollDivisionIds": [
          10143163
        ],
        "postalCode": "N8A3T4",
        "streetName": "BASE",
        "streetDirectionId": null,
        "streetTypeId": "LINE",
        "placeName": "WALLACEBURG",
        "streetNameDisplayText": "BASE LINE, WALLACEBURG"
      },
      {
        "electoralDistricts": [
          {
            "election": null,
            "id": 50,
            "name": "Lambton—Kent—Middlesex"
          }
        ],
        "pollDivisionIds": [
          10143163
        ],
        "postalCode": "N8A3T4",
        "streetName": "OLD GLASS",
        "streetDirectionId": null,
        "streetTypeId": "RD",
        "placeName": "WALLACEBURG",
        "streetNameDisplayText": "OLD GLASS RD, WALLACEBURG"
      }
    ]
  },
  {
    "postal": "N8A5C7",
    "result": []
  },
  {
    "postal": "N8A3Y1",
    "result": [
      {
        "electoralDistricts": [
          {
            "election": null,
            "id": 50,
            "name": "Lambton—Kent—Middlesex"
          }
        ],
        "pollDivisionIds": [
          10143351
        ],
        "postalCode": "N8A3Y1",
        "streetName": "SELKIRK",
        "streetDirectionId": null,
        "streetTypeId": "ST",
        "placeName": "WALLACEBURG",
        "streetNameDisplayText": "SELKIRK ST, WALLACEBURG"
      }
    ]
  },
  {
    "postal": "N8A5V0",
    "result": []
  },
  {
    "postal": "N8A8G8",
    "result": []
  },
  {
    "postal": "N8A8B1",
    "result": []
  },
  {
    "postal": "N8A4P5",
    "result": [
      {
        "electoralDistricts": [
          {
            "election": null,
            "id": 50,
            "name": "Lambton—Kent—Middlesex"
          }
        ],
        "pollDivisionIds": [
          10143351
        ],
        "postalCode": "N8A4P5",
        "streetName": "FORHAN",
        "streetDirectionId": null,
        "streetTypeId": "ST",
        "placeName": "WALLACEBURG",
        "streetNameDisplayText": "FORHAN ST, WALLACEBURG"
      }
    ]
  },
  {
    "postal": "N8A7B2",
    "result": []
  },
  {
    "postal": "N8A0R2",
    "result": []
  },
  {
    "postal": "N8A4M4",
    "result": [
      {
        "electoralDistricts": [
          {
            "election": null,
            "id": 50,
            "name": "Lambton—Kent—Middlesex"
          }
        ],
        "pollDivisionIds": [
          10143351
        ],
        "postalCode": "N8A4M4",
        "streetName": "DUFFERIN",
        "streetDirectionId": null,
        "streetTypeId": "AVE",
        "placeName": "WALLACEBURG",
        "streetNameDisplayText": "DUFFERIN AVE, WALLACEBURG"
      }
    ]
  },
  {
    "postal": "N8A7M4",
    "result": []
  },
  {
    "postal": "N8A9S7",
    "result": []
  },
  {
    "postal": "N8A5Z7",
    "result": []
  },
  {
    "postal": "N8A7J7",
    "result": []
  },
  {
    "postal": "N8A8R8",
    "result": []
  },
  {
    "postal": "N8A9X1",
    "result": []
  },
  {
    "postal": "N8A5M9",
    "result": []
  },
  {
    "postal": "N8A9B4",
    "result": []
  },
  {
    "postal": "N8A0L9",
    "result": []
  },
  {
    "postal": "N8A9G4",
    "result": []
  },
  {
    "postal": "N8A1J4",
    "result": [
      {
        "electoralDistricts": [
          {
            "election": null,
            "id": 50,
            "name": "Lambton—Kent—Middlesex"
          }
        ],
        "pollDivisionIds": [
          10143164
        ],
        "postalCode": "N8A1J4",
        "streetName": "BRUCE",
        "streetDirectionId": null,
        "streetTypeId": "ST",
        "placeName": "WALLACEBURG",
        "streetNameDisplayText": "BRUCE ST, WALLACEBURG"
      }
    ]
  },
  {
    "postal": "N8A0W6",
    "result": []
  }
]
