[
  {
    "postal": "N7G9J6",
    "result": []
  },
  {
    "postal": "N7G9Z5",
    "result": []
  },
  {
    "postal": "N7G7H8",
    "result": []
  },
  {
    "postal": "N7G0P6",
    "result": []
  },
  {
    "postal": "N7G0S7",
    "result": []
  },
  {
    "postal": "N7G8B9",
    "result": []
  },
  {
    "postal": "N7G2A6",
    "result": [
      {
        "electoralDistricts": [
          {
            "election": null,
            "id": 50,
            "name": "Lambton—Kent—Middlesex"
          }
        ],
        "pollDivisionIds": [
          10143954
        ],
        "postalCode": "N7G2A6",
        "streetName": "KITTRIDGE",
        "streetDirectionId": "W",
        "streetTypeId": "AVE",
        "placeName": "STRATHROY",
        "streetNameDisplayText": "KITTRIDGE AVE W, STRATHROY"
      }
    ]
  },
  {
    "postal": "N7G7V2",
    "result": []
  },
  {
    "postal": "N7G9P4",
    "result": []
  },
  {
    "postal": "N7G6G0",
    "result": []
  },
  {
    "postal": "N7G2K0",
    "result": []
  },
  {
    "postal": "N7G7N6",
    "result": []
  },
  {
    "postal": "N7G5R3",
    "result": []
  },
  {
    "postal": "N7G7K0",
    "result": []
  },
  {
    "postal": "N7G3R2",
    "result": []
  },
  {
    "postal": "N7G0J1",
    "result": []
  },
  {
    "postal": "N7G0B0",
    "result": []
  },
  {
    "postal": "N7G5Z2",
    "result": []
  },
  {
    "postal": "N7G7P3",
    "result": []
  },
  {
    "postal": "N7G2K3",
    "result": [
      {
        "electoralDistricts": [
          {
            "election": null,
            "id": 50,
            "name": "Lambton—Kent—Middlesex"
          }
        ],
        "pollDivisionIds": [
          10143153
        ],
        "postalCode": "N7G2K3",
        "streetName": "HEAD",
        "streetDirectionId": "N",
        "streetTypeId": "ST",
        "placeName": "STRATHROY",
        "streetNameDisplayText": "HEAD ST N, STRATHROY"
      }
    ]
  },
  {
    "postal": "N7G7Y6",
    "result": []
  },
  {
    "postal": "N7G1L9",
    "result": [
      {
        "electoralDistricts": [
          {
            "election": null,
            "id": 50,
            "name": "Lambton—Kent—Middlesex"
          }
        ],
        "pollDivisionIds": [
          10143155
        ],
        "postalCode": "N7G1L9",
        "streetName": "DOUNE",
        "streetDirectionId": null,
        "streetTypeId": "ST",
        "placeName": "STRATHROY",
        "streetNameDisplayText": "DOUNE ST, STRATHROY"
      }
    ]
  },
  {
    "postal": "N7G8T0",
    "result": []
  },
  {
    "postal": "N7G3K8",
    "result": [
      {
        "electoralDistricts": [
          {
            "election": null,
            "id": 50,
            "name": "Lambton—Kent—Middlesex"
          }
        ],
        "pollDivisionIds": [
          10143345
        ],
        "postalCode": "N7G3K8",
        "streetName": "STEWART",
        "streetDirectionId": null,
        "streetTypeId": "ST",
        "placeName": "STRATHROY",
        "streetNameDisplayText": "STEWART ST, STRATHROY"
      }
    ]
  },
  {
    "postal": "N7G5W9",
    "result": []
  },
  {
    "postal": "N7G6T9",
    "result": []
  },
  {
    "postal": "N7G4H1",
    "result": [
      {
        "electoralDistricts": [
          {
            "election": null,
            "id": 50,
            "name": "Lambton—Kent—Middlesex"
          }
        ],
        "pollDivisionIds": [
          10143155
        ],
        "postalCode": "N7G4H1",
        "streetName": "JUNIPER",
        "streetDirectionId": null,
        "streetTypeId": "CRES",
        "placeName": "STRATHROY",
        "streetNameDisplayText": "JUNIPER CRES, STRATHROY"
      },
      {
        "electoralDistricts": [
          {
            "election": null,
            "id": 50,
            "name": "Lambton—Kent—Middlesex"
          }
        ],
        "pollDivisionIds": [
          10143155
        ],
        "postalCode": "N7G4H1",
        "streetName": "PARKVIEW",
        "streetDirectionId": null,
        "streetTypeId": "DR",
        "placeName": "STRATHROY",
        "streetNameDisplayText": "PARKVIEW DR, STRATHROY"
      },
      {
        "electoralDistricts": [
          {
            "election": null,
            "id": 50,
            "name": "Lambton—Kent—Middlesex"
          }
        ],
        "pollDivisionIds": [
          10143155
        ],
        "postalCode": "N7G4H1",
        "streetName": "WILLOW",
        "streetDirectionId": null,
        "streetTypeId": "CRES",
        "placeName": "STRATHROY",
        "streetNameDisplayText": "WILLOW CRES, STRATHROY"
      }
    ]
  },
  {
    "postal": "N7G7A2",
    "result": []
  },
  {
    "postal": "N7G5G0",
    "result": []
  },
  {
    "postal": "N7G8V5",
    "result": []
  },
  {
    "postal": "N7G2Y8",
    "result": [
      {
        "electoralDistricts": [
          {
            "election": null,
            "id": 50,
            "name": "Lambton—Kent—Middlesex"
          }
        ],
        "pollDivisionIds": [
          10143954
        ],
        "postalCode": "N7G2Y8",
        "streetName": "RICHMOND",
        "streetDirectionId": null,
        "streetTypeId": "ST",
        "placeName": "STRATHROY",
        "streetNameDisplayText": "RICHMOND ST, STRATHROY"
      }
    ]
  },
  {
    "postal": "N7G2B6",
    "result": [
      {
        "electoralDistricts": [
          {
            "election": null,
            "id": 50,
            "name": "Lambton—Kent—Middlesex"
          }
        ],
        "pollDivisionIds": [
          10143954
        ],
        "postalCode": "N7G2B6",
        "streetName": "SAULSBURY",
        "streetDirectionId": null,
        "streetTypeId": "ST",
        "placeName": "STRATHROY",
        "streetNameDisplayText": "SAULSBURY ST, STRATHROY"
      }
    ]
  },
  {
    "postal": "N7G4W8",
    "result": []
  },
  {
    "postal": "N7G8H7",
    "result": []
  },
  {
    "postal": "N7G5P1",
    "result": []
  },
  {
    "postal": "N7G2B8",
    "result": [
      {
        "electoralDistricts": [
          {
            "election": null,
            "id": 50,
            "name": "Lambton—Kent—Middlesex"
          }
        ],
        "pollDivisionIds": [
          10143153
        ],
        "postalCode": "N7G2B8",
        "streetName": "HULL",
        "streetDirectionId": null,
        "streetTypeId": "RD",
        "placeName": "STRATHROY",
        "streetNameDisplayText": "HULL RD, STRATHROY"
      }
    ]
  },
  {
    "postal": "N7G0P2",
    "result": []
  },
  {
    "postal": "N7G9M1",
    "result": []
  },
  {
    "postal": "N7G3G0",
    "result": []
  },
  {
    "postal": "N7G9Z2",
    "result": []
  },
  {
    "postal": "N7G2A0",
    "result": []
  },
  {
    "postal": "N7G6Y0",
    "result": []
  },
  {
    "postal": "N7G2Z8",
    "result": [
      {
        "electoralDistricts": [
          {
            "election": null,
            "id": 50,
            "name": "Lambton—Kent—Middlesex"
          }
        ],
        "pollDivisionIds": [
          10143954
        ],
        "postalCode": "N7G2Z8",
        "streetName": "EMILY",
        "streetDirectionId": null,
        "streetTypeId": "ST",
        "placeName": "STRATHROY",
        "streetNameDisplayText": "EMILY ST, STRATHROY"
      }
    ]
  },
  {
    "postal": "N7G7Y3",
    "result": []
  },
  {
    "postal": "N7G6Z5",
    "result": []
  },
  {
    "postal": "N7G6E0",
    "result": []
  },
  {
    "postal": "N7G9B7",
    "result": []
  },
  {
    "postal": "N7G9S5",
    "result": []
  },
  {
    "postal": "N7G3X3",
    "result": [
      {
        "electoralDistricts": [
          {
            "election": null,
            "id": 50,
            "name": "Lambton—Kent—Middlesex"
          }
        ],
        "pollDivisionIds": [
          10143954
        ],
        "postalCode": "N7G3X3",
        "streetName": "FRANK",
        "streetDirectionId": null,
        "streetTypeId": "ST",
        "placeName": "STRATHROY",
        "streetNameDisplayText": "FRANK ST, STRATHROY"
      }
    ]
  },
  {
    "postal": "N7G7R5",
    "result": []
  },
  {
    "postal": "N7G2X3",
    "result": [
      {
        "electoralDistricts": [
          {
            "election": null,
            "id": 50,
            "name": "Lambton—Kent—Middlesex"
          }
        ],
        "pollDivisionIds": [
          10143345
        ],
        "postalCode": "N7G2X3",
        "streetName": "BEATTIE",
        "streetDirectionId": null,
        "streetTypeId": "ST",
        "placeName": "STRATHROY",
        "streetNameDisplayText": "BEATTIE ST, STRATHROY"
      }
    ]
  },
  {
    "postal": "N7G8Z9",
    "result": []
  },
  {
    "postal": "N7G0N4",
    "result": []
  },
  {
    "postal": "N7G1K1",
    "result": [
      {
        "electoralDistricts": [
          {
            "election": null,
            "id": 50,
            "name": "Lambton—Kent—Middlesex"
          }
        ],
        "pollDivisionIds": [
          10143155
        ],
        "postalCode": "N7G1K1",
        "streetName": "SCOTT",
        "streetDirectionId": "E",
        "streetTypeId": "ST",
        "placeName": "STRATHROY",
        "streetNameDisplayText": "SCOTT ST E, STRATHROY"
      }
    ]
  },
  {
    "postal": "N7G1S3",
    "result": [
      {
        "electoralDistricts": [
          {
            "election": null,
            "id": 50,
            "name": "Lambton—Kent—Middlesex"
          }
        ],
        "pollDivisionIds": [
          10143954,
          10143155
        ],
        "postalCode": "N7G1S3",
        "streetName": "DUKE",
        "streetDirectionId": null,
        "streetTypeId": "ST",
        "placeName": "STRATHROY",
        "streetNameDisplayText": "DUKE ST, STRATHROY"
      }
    ]
  },
  {
    "postal": "N7G6M4",
    "result": []
  },
  {
    "postal": "N7G9A9",
    "result": []
  },
  {
    "postal": "N7G9Z9",
    "result": []
  },
  {
    "postal": "N7G6T4",
    "result": []
  },
  {
    "postal": "N7G0B2",
    "result": [
      {
        "electoralDistricts": [
          {
            "election": null,
            "id": 50,
            "name": "Lambton—Kent—Middlesex"
          }
        ],
        "pollDivisionIds": [
          10143153
        ],
        "postalCode": "N7G0B2",
        "streetName": "JENNA",
        "streetDirectionId": null,
        "streetTypeId": "DR",
        "placeName": "STRATHROY",
        "streetNameDisplayText": "JENNA DR, STRATHROY"
      },
      {
        "electoralDistricts": [
          {
            "election": null,
            "id": 50,
            "name": "Lambton—Kent—Middlesex"
          }
        ],
        "pollDivisionIds": [
          10143153
        ],
        "postalCode": "N7G0B2",
        "streetName": "MACDONALD",
        "streetDirectionId": null,
        "streetTypeId": "ST",
        "placeName": "STRATHROY",
        "streetNameDisplayText": "MACDONALD ST, STRATHROY"
      }
    ]
  },
  {
    "postal": "N7G2L9",
    "result": [
      {
        "electoralDistricts": [
          {
            "election": null,
            "id": 50,
            "name": "Lambton—Kent—Middlesex"
          }
        ],
        "pollDivisionIds": [
          10143155
        ],
        "postalCode": "N7G2L9",
        "streetName": "COLBORNE",
        "streetDirectionId": null,
        "streetTypeId": "ST",
        "placeName": "STRATHROY",
        "streetNameDisplayText": "COLBORNE ST, STRATHROY"
      }
    ]
  },
  {
    "postal": "N7G8K9",
    "result": []
  },
  {
    "postal": "N7G2H9",
    "result": [
      {
        "electoralDistricts": [
          {
            "election": null,
            "id": 50,
            "name": "Lambton—Kent—Middlesex"
          }
        ],
        "pollDivisionIds": [
          10143155
        ],
        "postalCode": "N7G2H9",
        "streetName": "QUEEN",
        "streetDirectionId": null,
        "streetTypeId": "ST",
        "placeName": "STRATHROY",
        "streetNameDisplayText": "QUEEN ST, STRATHROY"
      }
    ]
  },
  {
    "postal": "N7G3Z6",
    "result": [
      {
        "electoralDistricts": [
          {
            "election": null,
            "id": 50,
            "name": "Lambton—Kent—Middlesex"
          }
        ],
        "pollDivisionIds": [
          10143954
        ],
        "postalCode": "N7G3Z6",
        "streetName": "DRURY",
        "streetDirectionId": null,
        "streetTypeId": "LANE",
        "placeName": "STRATHROY",
        "streetNameDisplayText": "DRURY LANE, STRATHROY"
      }
    ]
  },
  {
    "postal": "N7G3B0",
    "result": []
  },
  {
    "postal": "N7G2H8",
    "result": [
      {
        "electoralDistricts": [
          {
            "election": null,
            "id": 50,
            "name": "Lambton—Kent—Middlesex"
          }
        ],
        "pollDivisionIds": [
          10143155
        ],
        "postalCode": "N7G2H8",
        "streetName": "QUEEN",
        "streetDirectionId": null,
        "streetTypeId": "ST",
        "placeName": "STRATHROY",
        "streetNameDisplayText": "QUEEN ST, STRATHROY"
      }
    ]
  },
  {
    "postal": "N7G3X2",
    "result": [
      {
        "electoralDistricts": [
          {
            "election": null,
            "id": 50,
            "name": "Lambton—Kent—Middlesex"
          }
        ],
        "pollDivisionIds": [
          10143153
        ],
        "postalCode": "N7G3X2",
        "streetName": "CHARLES",
        "streetDirectionId": null,
        "streetTypeId": "BLVD",
        "placeName": "STRATHROY",
        "streetNameDisplayText": "CHARLES BLVD, STRATHROY"
      }
    ]
  },
  {
    "postal": "N7G2E9",
    "result": [
      {
        "electoralDistricts": [
          {
            "election": null,
            "id": 50,
            "name": "Lambton—Kent—Middlesex"
          }
        ],
        "pollDivisionIds": [
          10143155
        ],
        "postalCode": "N7G2E9",
        "streetName": "MACNAB",
        "streetDirectionId": null,
        "streetTypeId": "ST",
        "placeName": "STRATHROY",
        "streetNameDisplayText": "MACNAB ST, STRATHROY"
      }
    ]
  },
  {
    "postal": "N7G9P6",
    "result": []
  },
  {
    "postal": "N7G9E2",
    "result": []
  },
  {
    "postal": "N7G9H2",
    "result": []
  },
  {
    "postal": "N7G1S8",
    "result": []
  },
  {
    "postal": "N7G3M6",
    "result": [
      {
        "electoralDistricts": [
          {
            "election": null,
            "id": 50,
            "name": "Lambton—Kent—Middlesex"
          }
        ],
        "pollDivisionIds": [
          10143954
        ],
        "postalCode": "N7G3M6",
        "streetName": "HELEN",
        "streetDirectionId": null,
        "streetTypeId": "DR",
        "placeName": "STRATHROY",
        "streetNameDisplayText": "HELEN DR, STRATHROY"
      }
    ]
  },
  {
    "postal": "N7G6Z8",
    "result": []
  },
  {
    "postal": "N7G4J2",
    "result": [
      {
        "electoralDistricts": [
          {
            "election": null,
            "id": 50,
            "name": "Lambton—Kent—Middlesex"
          }
        ],
        "pollDivisionIds": [
          10143155
        ],
        "postalCode": "N7G4J2",
        "streetName": "INDUSTRIAL",
        "streetDirectionId": null,
        "streetTypeId": "RD",
        "placeName": "STRATHROY",
        "streetNameDisplayText": "INDUSTRIAL RD, STRATHROY"
      }
    ]
  },
  {
    "postal": "N7G9Y1",
    "result": []
  },
  {
    "postal": "N7G8V6",
    "result": []
  },
  {
    "postal": "N7G6B2",
    "result": []
  },
  {
    "postal": "N7G1P8",
    "result": [
      {
        "electoralDistricts": [
          {
            "election": null,
            "id": 50,
            "name": "Lambton—Kent—Middlesex"
          }
        ],
        "pollDivisionIds": [
          10143155
        ],
        "postalCode": "N7G1P8",
        "streetName": "METCALFE",
        "streetDirectionId": "E",
        "streetTypeId": "ST",
        "placeName": "STRATHROY",
        "streetNameDisplayText": "METCALFE ST E, STRATHROY"
      }
    ]
  },
  {
    "postal": "N7G0V8",
    "result": []
  },
  {
    "postal": "N7G4Y0",
    "result": []
  },
  {
    "postal": "N7G2T4",
    "result": []
  },
  {
    "postal": "N7G2S3",
    "result": [
      {
        "electoralDistricts": [
          {
            "election": null,
            "id": 50,
            "name": "Lambton—Kent—Middlesex"
          }
        ],
        "pollDivisionIds": [
          10143345
        ],
        "postalCode": "N7G2S3",
        "streetName": "PRINCESS",
        "streetDirectionId": null,
        "streetTypeId": "ST",
        "placeName": "STRATHROY",
        "streetNameDisplayText": "PRINCESS ST, STRATHROY"
      }
    ]
  },
  {
    "postal": "N7G0K0",
    "result": []
  },
  {
    "postal": "N7G5N1",
    "result": []
  },
  {
    "postal": "N7G7T0",
    "result": []
  },
  {
    "postal": "N7G9N2",
    "result": []
  },
  {
    "postal": "N7G5L1",
    "result": []
  },
  {
    "postal": "N7G7G5",
    "result": []
  },
  {
    "postal": "N7G6K2",
    "result": []
  },
  {
    "postal": "N7G6P9",
    "result": []
  },
  {
    "postal": "N7G0E6",
    "result": [
      {
        "electoralDistricts": [
          {
            "election": null,
            "id": 50,
            "name": "Lambton—Kent—Middlesex"
          }
        ],
        "pollDivisionIds": [
          10143155
        ],
        "postalCode": "N7G0E6",
        "streetName": "COLLINS",
        "streetDirectionId": null,
        "streetTypeId": "WAY",
        "placeName": "STRATHROY-CARADOC",
        "streetNameDisplayText": "COLLINS WAY, STRATHROY-CARADOC"
      },
      {
        "electoralDistricts": [
          {
            "election": null,
            "id": 50,
            "name": "Lambton—Kent—Middlesex"
          }
        ],
        "pollDivisionIds": [
          10143153,
          10143155
        ],
        "postalCode": "N7G0E6",
        "streetName": "NORMAN",
        "streetDirectionId": null,
        "streetTypeId": "PL",
        "placeName": "STRATHROY",
        "streetNameDisplayText": "NORMAN PL, STRATHROY"
      },
      {
        "electoralDistricts": [
          {
            "election": null,
            "id": 50,
            "name": "Lambton—Kent—Middlesex"
          }
        ],
        "pollDivisionIds": [
          10143155
        ],
        "postalCode": "N7G0E6",
        "streetName": "RUSHBY",
        "streetDirectionId": null,
        "streetTypeId": "ST",
        "placeName": "STRATHROY",
        "streetNameDisplayText": "RUSHBY ST, STRATHROY"
      }
    ]
  },
  {
    "postal": "N7G8R9",
    "result": []
  },
  {
    "postal": "N7G3G9",
    "result": [
      {
        "electoralDistricts": [
          {
            "election": null,
            "id": 50,
            "name": "Lambton—Kent—Middlesex"
          }
        ],
        "pollDivisionIds": [
          10143954
        ],
        "postalCode": "N7G3G9",
        "streetName": "DOMINION",
        "streetDirectionId": null,
        "streetTypeId": "ST",
        "placeName": "STRATHROY",
        "streetNameDisplayText": "DOMINION ST, STRATHROY"
      }
    ]
  },
  {
    "postal": "N7G0V7",
    "result": []
  },
  {
    "postal": "N7G2Z1",
    "result": [
      {
        "electoralDistricts": [
          {
            "election": null,
            "id": 50,
            "name": "Lambton—Kent—Middlesex"
          }
        ],
        "pollDivisionIds": [
          10143954
        ],
        "postalCode": "N7G2Z1",
        "streetName": "METCALFE",
        "streetDirectionId": null,
        "streetTypeId": "ST",
        "placeName": "STRATHROY",
        "streetNameDisplayText": "METCALFE ST, STRATHROY"
      },
      {
        "electoralDistricts": [
          {
            "election": null,
            "id": 50,
            "name": "Lambton—Kent—Middlesex"
          }
        ],
        "pollDivisionIds": [
          10143954
        ],
        "postalCode": "N7G2Z1",
        "streetName": "RICHMOND",
        "streetDirectionId": null,
        "streetTypeId": "ST",
        "placeName": "STRATHROY",
        "streetNameDisplayText": "RICHMOND ST, STRATHROY"
      }
    ]
  },
  {
    "postal": "N7G7N1",
    "result": []
  },
  {
    "postal": "N7G3C6",
    "result": [
      {
        "electoralDistricts": [
          {
            "election": null,
            "id": 50,
            "name": "Lambton—Kent—Middlesex"
          }
        ],
        "pollDivisionIds": [
          10143954
        ],
        "postalCode": "N7G3C6",
        "streetName": "DEWAN",
        "streetDirectionId": null,
        "streetTypeId": "ST",
        "placeName": "STRATHROY",
        "streetNameDisplayText": "DEWAN ST, STRATHROY"
      }
    ]
  },
  {
    "postal": "N7G4M1",
    "result": [
      {
        "electoralDistricts": [
          {
            "election": null,
            "id": 50,
            "name": "Lambton—Kent—Middlesex"
          }
        ],
        "pollDivisionIds": [
          10143345
        ],
        "postalCode": "N7G4M1",
        "streetName": "SAXONVILLE",
        "streetDirectionId": null,
        "streetTypeId": "CRT",
        "placeName": "STRATHROY",
        "streetNameDisplayText": "SAXONVILLE CRT, STRATHROY"
      }
    ]
  },
  {
    "postal": "N7G9K2",
    "result": []
  },
  {
    "postal": "N7G9S6",
    "result": []
  },
  {
    "postal": "N7G4X1",
    "result": []
  },
  {
    "postal": "N7G8W2",
    "result": []
  },
  {
    "postal": "N7G7N2",
    "result": []
  },
  {
    "postal": "N7G8S3",
    "result": []
  },
  {
    "postal": "N7G4V0",
    "result": []
  },
  {
    "postal": "N7G6W4",
    "result": []
  },
  {
    "postal": "N7G5M1",
    "result": []
  },
  {
    "postal": "N7G0S4",
    "result": []
  },
  {
    "postal": "N7G5X6",
    "result": []
  },
  {
    "postal": "N7G8L5",
    "result": []
  },
  {
    "postal": "N7G5M8",
    "result": []
  },
  {
    "postal": "N7G2G3",
    "result": [
      {
        "electoralDistricts": [
          {
            "election": null,
            "id": 50,
            "name": "Lambton—Kent—Middlesex"
          }
        ],
        "pollDivisionIds": [
          10143155,
          10143153
        ],
        "postalCode": "N7G2G3",
        "streetName": "RIVERVIEW",
        "streetDirectionId": null,
        "streetTypeId": "DR",
        "placeName": "STRATHROY",
        "streetNameDisplayText": "RIVERVIEW DR, STRATHROY"
      }
    ]
  },
  {
    "postal": "N7G8E4",
    "result": []
  },
  {
    "postal": "N7G7S9",
    "result": []
  },
  {
    "postal": "N7G1K3",
    "result": [
      {
        "electoralDistricts": [
          {
            "election": null,
            "id": 50,
            "name": "Lambton—Kent—Middlesex"
          }
        ],
        "pollDivisionIds": [
          10143155
        ],
        "postalCode": "N7G1K3",
        "streetName": "SCOTT",
        "streetDirectionId": "E",
        "streetTypeId": "ST",
        "placeName": "STRATHROY",
        "streetNameDisplayText": "SCOTT ST E, STRATHROY"
      },
      {
        "electoralDistricts": [
          {
            "election": null,
            "id": 50,
            "name": "Lambton—Kent—Middlesex"
          }
        ],
        "pollDivisionIds": [
          10143155
        ],
        "postalCode": "N7G1K3",
        "streetName": "SCOTT",
        "streetDirectionId": null,
        "streetTypeId": "ST",
        "placeName": "STRATHROY",
        "streetNameDisplayText": "SCOTT ST, STRATHROY"
      }
    ]
  },
  {
    "postal": "N7G4E1",
    "result": [
      {
        "electoralDistricts": [
          {
            "election": null,
            "id": 50,
            "name": "Lambton—Kent—Middlesex"
          }
        ],
        "pollDivisionIds": [
          10143153
        ],
        "postalCode": "N7G4E1",
        "streetName": "DEBORAH",
        "streetDirectionId": null,
        "streetTypeId": "DR",
        "placeName": "STRATHROY",
        "streetNameDisplayText": "DEBORAH DR, STRATHROY"
      },
      {
        "electoralDistricts": [
          {
            "election": null,
            "id": 50,
            "name": "Lambton—Kent—Middlesex"
          }
        ],
        "pollDivisionIds": [
          10143153
        ],
        "postalCode": "N7G4E1",
        "streetName": "THORNE",
        "streetDirectionId": null,
        "streetTypeId": "DR",
        "placeName": "STRATHROY",
        "streetNameDisplayText": "THORNE DR, STRATHROY"
      }
    ]
  },
  {
    "postal": "N7G4R2",
    "result": []
  },
  {
    "postal": "N7G6T0",
    "result": []
  },
  {
    "postal": "N7G3K5",
    "result": [
      {
        "electoralDistricts": [
          {
            "election": null,
            "id": 50,
            "name": "Lambton—Kent—Middlesex"
          }
        ],
        "pollDivisionIds": [
          10143153
        ],
        "postalCode": "N7G3K5",
        "streetName": "ALBERT",
        "streetDirectionId": null,
        "streetTypeId": "ST",
        "placeName": "STRATHROY",
        "streetNameDisplayText": "ALBERT ST, STRATHROY"
      },
      {
        "electoralDistricts": [
          {
            "election": null,
            "id": 50,
            "name": "Lambton—Kent—Middlesex"
          }
        ],
        "pollDivisionIds": [
          10143153,
          10143345
        ],
        "postalCode": "N7G3K5",
        "streetName": "NAPPERTON",
        "streetDirectionId": null,
        "streetTypeId": "DR",
        "placeName": "STRATHROY",
        "streetNameDisplayText": "NAPPERTON DR, STRATHROY"
      }
    ]
  },
  {
    "postal": "N7G3S3",
    "result": [
      {
        "electoralDistricts": [
          {
            "election": null,
            "id": 50,
            "name": "Lambton—Kent—Middlesex"
          }
        ],
        "pollDivisionIds": [
          10143954
        ],
        "postalCode": "N7G3S3",
        "streetName": "BRENNAN",
        "streetDirectionId": null,
        "streetTypeId": "DR",
        "placeName": "STRATHROY",
        "streetNameDisplayText": "BRENNAN DR, STRATHROY"
      }
    ]
  },
  {
    "postal": "N7G3L4",
    "result": [
      {
        "electoralDistricts": [
          {
            "election": null,
            "id": 50,
            "name": "Lambton—Kent—Middlesex"
          }
        ],
        "pollDivisionIds": [
          10143155
        ],
        "postalCode": "N7G3L4",
        "streetName": "DENNIS",
        "streetDirectionId": null,
        "streetTypeId": "ST",
        "placeName": "STRATHROY",
        "streetNameDisplayText": "DENNIS ST, STRATHROY"
      }
    ]
  },
  {
    "postal": "N7G9Y2",
    "result": []
  },
  {
    "postal": "N7G1E0",
    "result": []
  },
  {
    "postal": "N7G9A4",
    "result": []
  },
  {
    "postal": "N7G1L3",
    "result": [
      {
        "electoralDistricts": [
          {
            "election": null,
            "id": 50,
            "name": "Lambton—Kent—Middlesex"
          }
        ],
        "pollDivisionIds": [
          10143345
        ],
        "postalCode": "N7G1L3",
        "streetName": "MAITLAND",
        "streetDirectionId": null,
        "streetTypeId": "TERR",
        "placeName": "STRATHROY",
        "streetNameDisplayText": "MAITLAND TERR, STRATHROY"
      }
    ]
  },
  {
    "postal": "N7G6N1",
    "result": []
  },
  {
    "postal": "N7G6G7",
    "result": []
  },
  {
    "postal": "N7G7W1",
    "result": []
  },
  {
    "postal": "N7G4M6",
    "result": []
  },
  {
    "postal": "N7G1K0",
    "result": []
  },
  {
    "postal": "N7G3E2",
    "result": [
      {
        "electoralDistricts": [
          {
            "election": null,
            "id": 50,
            "name": "Lambton—Kent—Middlesex"
          }
        ],
        "pollDivisionIds": [
          10143954
        ],
        "postalCode": "N7G3E2",
        "streetName": "CARRIE",
        "streetDirectionId": null,
        "streetTypeId": "ST",
        "placeName": "STRATHROY",
        "streetNameDisplayText": "CARRIE ST, STRATHROY"
      }
    ]
  },
  {
    "postal": "N7G5H4",
    "result": []
  },
  {
    "postal": "N7G1K7",
    "result": [
      {
        "electoralDistricts": [
          {
            "election": null,
            "id": 50,
            "name": "Lambton—Kent—Middlesex"
          }
        ],
        "pollDivisionIds": [
          10143345
        ],
        "postalCode": "N7G1K7",
        "streetName": "BUCHANAN",
        "streetDirectionId": null,
        "streetTypeId": "ST",
        "placeName": "STRATHROY",
        "streetNameDisplayText": "BUCHANAN ST, STRATHROY"
      }
    ]
  },
  {
    "postal": "N7G0H0",
    "result": []
  },
  {
    "postal": "N7G0J3",
    "result": []
  },
  {
    "postal": "N7G1X6",
    "result": [
      {
        "electoralDistricts": [
          {
            "election": null,
            "id": 50,
            "name": "Lambton—Kent—Middlesex"
          }
        ],
        "pollDivisionIds": [
          10143954
        ],
        "postalCode": "N7G1X6",
        "streetName": "FRONT",
        "streetDirectionId": "W",
        "streetTypeId": "ST",
        "placeName": "STRATHROY",
        "streetNameDisplayText": "FRONT ST W, STRATHROY"
      }
    ]
  },
  {
    "postal": "N7G2Z6",
    "result": [
      {
        "electoralDistricts": [
          {
            "election": null,
            "id": 50,
            "name": "Lambton—Kent—Middlesex"
          }
        ],
        "pollDivisionIds": [
          10143954
        ],
        "postalCode": "N7G2Z6",
        "streetName": "EMILY",
        "streetDirectionId": null,
        "streetTypeId": "ST",
        "placeName": "STRATHROY",
        "streetNameDisplayText": "EMILY ST, STRATHROY"
      }
    ]
  },
  {
    "postal": "N7G4R9",
    "result": []
  },
  {
    "postal": "N7G0W8",
    "result": []
  },
  {
    "postal": "N7G1L4",
    "result": [
      {
        "electoralDistricts": [
          {
            "election": null,
            "id": 50,
            "name": "Lambton—Kent—Middlesex"
          }
        ],
        "pollDivisionIds": [
          10143155
        ],
        "postalCode": "N7G1L4",
        "streetName": "ENGLISH",
        "streetDirectionId": null,
        "streetTypeId": "ST",
        "placeName": "STRATHROY",
        "streetNameDisplayText": "ENGLISH ST, STRATHROY"
      }
    ]
  },
  {
    "postal": "N7G0C8",
    "result": [
      {
        "electoralDistricts": [
          {
            "election": null,
            "id": 50,
            "name": "Lambton—Kent—Middlesex"
          }
        ],
        "pollDivisionIds": [
          10143153
        ],
        "postalCode": "N7G0C8",
        "streetName": "ACTON",
        "streetDirectionId": null,
        "streetTypeId": "ST",
        "placeName": "STRATHROY",
        "streetNameDisplayText": "ACTON ST, STRATHROY"
      },
      {
        "electoralDistricts": [
          {
            "election": null,
            "id": 50,
            "name": "Lambton—Kent—Middlesex"
          }
        ],
        "pollDivisionIds": [
          10143153
        ],
        "postalCode": "N7G0C8",
        "streetName": "DARCY",
        "streetDirectionId": null,
        "streetTypeId": "DR",
        "placeName": "STRATHROY",
        "streetNameDisplayText": "DARCY DR, STRATHROY"
      },
      {
        "electoralDistricts": [
          {
            "election": null,
            "id": 50,
            "name": "Lambton—Kent—Middlesex"
          }
        ],
        "pollDivisionIds": [
          10143153
        ],
        "postalCode": "N7G0C8",
        "streetName": "MACDONALD",
        "streetDirectionId": null,
        "streetTypeId": "ST",
        "placeName": "STRATHROY",
        "streetNameDisplayText": "MACDONALD ST, STRATHROY"
      }
    ]
  },
  {
    "postal": "N7G9X7",
    "result": []
  },
  {
    "postal": "N7G4T1",
    "result": []
  },
  {
    "postal": "N7G0M0",
    "result": []
  },
  {
    "postal": "N7G6A2",
    "result": []
  },
  {
    "postal": "N7G9S8",
    "result": []
  },
  {
    "postal": "N7G9T4",
    "result": []
  },
  {
    "postal": "N7G9Y4",
    "result": []
  },
  {
    "postal": "N7G6G5",
    "result": []
  },
  {
    "postal": "N7G6H9",
    "result": []
  },
  {
    "postal": "N7G2P3",
    "result": [
      {
        "electoralDistricts": [
          {
            "election": null,
            "id": 50,
            "name": "Lambton—Kent—Middlesex"
          }
        ],
        "pollDivisionIds": [
          10143155
        ],
        "postalCode": "N7G2P3",
        "streetName": "CARADOC",
        "streetDirectionId": "S",
        "streetTypeId": "ST",
        "placeName": "STRATHROY",
        "streetNameDisplayText": "CARADOC ST S, STRATHROY"
      }
    ]
  },
  {
    "postal": "N7G1T6",
    "result": [
      {
        "electoralDistricts": [
          {
            "election": null,
            "id": 50,
            "name": "Lambton—Kent—Middlesex"
          }
        ],
        "pollDivisionIds": [
          10143954
        ],
        "postalCode": "N7G1T6",
        "streetName": "CENTRE",
        "streetDirectionId": "W",
        "streetTypeId": "ST",
        "placeName": "STRATHROY",
        "streetNameDisplayText": "CENTRE ST W, STRATHROY"
      }
    ]
  },
  {
    "postal": "N7G4P6",
    "result": []
  },
  {
    "postal": "N7G3K1",
    "result": [
      {
        "electoralDistricts": [
          {
            "election": null,
            "id": 50,
            "name": "Lambton—Kent—Middlesex"
          }
        ],
        "pollDivisionIds": [
          10143345
        ],
        "postalCode": "N7G3K1",
        "streetName": "EASTMAN",
        "streetDirectionId": null,
        "streetTypeId": "AVE",
        "placeName": "STRATHROY",
        "streetNameDisplayText": "EASTMAN AVE, STRATHROY"
      }
    ]
  },
  {
    "postal": "N7G6X4",
    "result": []
  },
  {
    "postal": "N7G4M8",
    "result": []
  },
  {
    "postal": "N7G2Y1",
    "result": [
      {
        "electoralDistricts": [
          {
            "election": null,
            "id": 50,
            "name": "Lambton—Kent—Middlesex"
          }
        ],
        "pollDivisionIds": [
          10143345
        ],
        "postalCode": "N7G2Y1",
        "streetName": "MCKELLAR",
        "streetDirectionId": null,
        "streetTypeId": "ST",
        "placeName": "STRATHROY",
        "streetNameDisplayText": "MCKELLAR ST, STRATHROY"
      }
    ]
  },
  {
    "postal": "N7G6M1",
    "result": []
  },
  {
    "postal": "N7G5L8",
    "result": []
  },
  {
    "postal": "N7G3P6",
    "result": [
      {
        "electoralDistricts": [
          {
            "election": null,
            "id": 50,
            "name": "Lambton—Kent—Middlesex"
          }
        ],
        "pollDivisionIds": [
          10143153
        ],
        "postalCode": "N7G3P6",
        "streetName": "PENNY",
        "streetDirectionId": null,
        "streetTypeId": "LANE",
        "placeName": "STRATHROY",
        "streetNameDisplayText": "PENNY LANE, STRATHROY"
      }
    ]
  },
  {
    "postal": "N7G9A5",
    "result": []
  },
  {
    "postal": "N7G7K1",
    "result": []
  },
  {
    "postal": "N7G3J4",
    "result": []
  },
  {
    "postal": "N7G5E7",
    "result": []
  },
  {
    "postal": "N7G3A7",
    "result": [
      {
        "electoralDistricts": [
          {
            "election": null,
            "id": 50,
            "name": "Lambton—Kent—Middlesex"
          }
        ],
        "pollDivisionIds": [
          10143345
        ],
        "postalCode": "N7G3A7",
        "streetName": "OAK",
        "streetDirectionId": null,
        "streetTypeId": "AVE",
        "placeName": "STRATHROY",
        "streetNameDisplayText": "OAK AVE, STRATHROY"
      }
    ]
  },
  {
    "postal": "N7G1B9",
    "result": [
      {
        "electoralDistricts": [
          {
            "election": null,
            "id": 50,
            "name": "Lambton—Kent—Middlesex"
          }
        ],
        "pollDivisionIds": [
          10143345
        ],
        "postalCode": "N7G1B9",
        "streetName": "ERIE",
        "streetDirectionId": null,
        "streetTypeId": "ST",
        "placeName": "STRATHROY",
        "streetNameDisplayText": "ERIE ST, STRATHROY"
      }
    ]
  },
  {
    "postal": "N7G9E8",
    "result": []
  },
  {
    "postal": "N7G1C9",
    "result": [
      {
        "electoralDistricts": [
          {
            "election": null,
            "id": 50,
            "name": "Lambton—Kent—Middlesex"
          }
        ],
        "pollDivisionIds": [
          10143345
        ],
        "postalCode": "N7G1C9",
        "streetName": "KEEFER",
        "streetDirectionId": null,
        "streetTypeId": "ST",
        "placeName": "STRATHROY",
        "streetNameDisplayText": "KEEFER ST, STRATHROY"
      }
    ]
  },
  {
    "postal": "N7G3B5",
    "result": [
      {
        "electoralDistricts": [
          {
            "election": null,
            "id": 50,
            "name": "Lambton—Kent—Middlesex"
          }
        ],
        "pollDivisionIds": [
          10143954
        ],
        "postalCode": "N7G3B5",
        "streetName": "VICTORIA",
        "streetDirectionId": null,
        "streetTypeId": "ST",
        "placeName": "STRATHROY",
        "streetNameDisplayText": "VICTORIA ST, STRATHROY"
      }
    ]
  },
  {
    "postal": "N7G8R0",
    "result": []
  },
  {
    "postal": "N7G3P2",
    "result": [
      {
        "electoralDistricts": [
          {
            "election": null,
            "id": 50,
            "name": "Lambton—Kent—Middlesex"
          }
        ],
        "pollDivisionIds": [
          10143153
        ],
        "postalCode": "N7G3P2",
        "streetName": "HULL",
        "streetDirectionId": null,
        "streetTypeId": "RD",
        "placeName": "STRATHROY",
        "streetNameDisplayText": "HULL RD, STRATHROY"
      }
    ]
  },
  {
    "postal": "N7G5V4",
    "result": []
  },
  {
    "postal": "N7G4H0",
    "result": []
  },
  {
    "postal": "N7G4S7",
    "result": []
  },
  {
    "postal": "N7G6C2",
    "result": []
  },
  {
    "postal": "N7G8W3",
    "result": []
  },
  {
    "postal": "N7G4M5",
    "result": []
  },
  {
    "postal": "N7G5T1",
    "result": []
  },
  {
    "postal": "N7G3B3",
    "result": [
      {
        "electoralDistricts": [
          {
            "election": null,
            "id": 50,
            "name": "Lambton—Kent—Middlesex"
          }
        ],
        "pollDivisionIds": [
          10143954
        ],
        "postalCode": "N7G3B3",
        "streetName": "VICTORIA",
        "streetDirectionId": null,
        "streetTypeId": "ST",
        "placeName": "STRATHROY",
        "streetNameDisplayText": "VICTORIA ST, STRATHROY"
      }
    ]
  },
  {
    "postal": "N7G6C6",
    "result": []
  },
  {
    "postal": "N7G7N8",
    "result": []
  },
  {
    "postal": "N7G2Y3",
    "result": [
      {
        "electoralDistricts": [
          {
            "election": null,
            "id": 50,
            "name": "Lambton—Kent—Middlesex"
          }
        ],
        "pollDivisionIds": [
          10143345
        ],
        "postalCode": "N7G2Y3",
        "streetName": "MCKELLAR",
        "streetDirectionId": null,
        "streetTypeId": "ST",
        "placeName": "STRATHROY",
        "streetNameDisplayText": "MCKELLAR ST, STRATHROY"
      }
    ]
  },
  {
    "postal": "N7G2R6",
    "result": [
      {
        "electoralDistricts": [
          {
            "election": null,
            "id": 50,
            "name": "Lambton—Kent—Middlesex"
          }
        ],
        "pollDivisionIds": [
          10143155,
          10143954
        ],
        "postalCode": "N7G2R6",
        "streetName": "FRANK",
        "streetDirectionId": null,
        "streetTypeId": "ST",
        "placeName": "STRATHROY",
        "streetNameDisplayText": "FRANK ST, STRATHROY"
      }
    ]
  },
  {
    "postal": "N7G7N3",
    "result": []
  },
  {
    "postal": "N7G8J2",
    "result": []
  },
  {
    "postal": "N7G6A9",
    "result": []
  },
  {
    "postal": "N7G3V2",
    "result": [
      {
        "electoralDistricts": [
          {
            "election": null,
            "id": 50,
            "name": "Lambton—Kent—Middlesex"
          }
        ],
        "pollDivisionIds": [
          10143155,
          10143345
        ],
        "postalCode": "N7G3V2",
        "streetName": "VINE",
        "streetDirectionId": null,
        "streetTypeId": "AVE",
        "placeName": "STRATHROY",
        "streetNameDisplayText": "VINE AVE, STRATHROY"
      }
    ]
  },
  {
    "postal": "N7G2N3",
    "result": [
      {
        "electoralDistricts": [
          {
            "election": null,
            "id": 50,
            "name": "Lambton—Kent—Middlesex"
          }
        ],
        "pollDivisionIds": [
          10143155
        ],
        "postalCode": "N7G2N3",
        "streetName": "CARADOC",
        "streetDirectionId": "S",
        "streetTypeId": "ST",
        "placeName": "STRATHROY",
        "streetNameDisplayText": "CARADOC ST S, STRATHROY"
      }
    ]
  },
  {
    "postal": "N7G1S5",
    "result": [
      {
        "electoralDistricts": [
          {
            "election": null,
            "id": 50,
            "name": "Lambton—Kent—Middlesex"
          }
        ],
        "pollDivisionIds": [
          10143954
        ],
        "postalCode": "N7G1S5",
        "streetName": "JAMES",
        "streetDirectionId": null,
        "streetTypeId": "ST",
        "placeName": "STRATHROY",
        "streetNameDisplayText": "JAMES ST, STRATHROY"
      }
    ]
  },
  {
    "postal": "N7G4T7",
    "result": []
  },
  {
    "postal": "N7G6Y7",
    "result": []
  },
  {
    "postal": "N7G0W7",
    "result": []
  },
  {
    "postal": "N7G2W9",
    "result": [
      {
        "electoralDistricts": [
          {
            "election": null,
            "id": 50,
            "name": "Lambton—Kent—Middlesex"
          }
        ],
        "pollDivisionIds": [
          10143954
        ],
        "postalCode": "N7G2W9",
        "streetName": "MARIA",
        "streetDirectionId": null,
        "streetTypeId": "ST",
        "placeName": "STRATHROY",
        "streetNameDisplayText": "MARIA ST, STRATHROY"
      }
    ]
  },
  {
    "postal": "N7G8V0",
    "result": []
  },
  {
    "postal": "N7G0H4",
    "result": []
  },
  {
    "postal": "N7G2T1",
    "result": [
      {
        "electoralDistricts": [
          {
            "election": null,
            "id": 50,
            "name": "Lambton—Kent—Middlesex"
          }
        ],
        "pollDivisionIds": [
          10143954
        ],
        "postalCode": "N7G2T1",
        "streetName": "THOMAS",
        "streetDirectionId": null,
        "streetTypeId": "ST",
        "placeName": "STRATHROY",
        "streetNameDisplayText": "THOMAS ST, STRATHROY"
      }
    ]
  },
  {
    "postal": "N7G1B1",
    "result": [
      {
        "electoralDistricts": [
          {
            "election": null,
            "id": 50,
            "name": "Lambton—Kent—Middlesex"
          }
        ],
        "pollDivisionIds": [
          10143345
        ],
        "postalCode": "N7G1B1",
        "streetName": "CARROLL",
        "streetDirectionId": "W",
        "streetTypeId": "ST",
        "placeName": "STRATHROY",
        "streetNameDisplayText": "CARROLL ST W, STRATHROY"
      }
    ]
  },
  {
    "postal": "N7G8B6",
    "result": []
  },
  {
    "postal": "N7G6H1",
    "result": []
  },
  {
    "postal": "N7G8T8",
    "result": []
  },
  {
    "postal": "N7G0T4",
    "result": []
  },
  {
    "postal": "N7G2C4",
    "result": [
      {
        "electoralDistricts": [
          {
            "election": null,
            "id": 50,
            "name": "Lambton—Kent—Middlesex"
          }
        ],
        "pollDivisionIds": [
          10143153
        ],
        "postalCode": "N7G2C4",
        "streetName": "ARNELLA",
        "streetDirectionId": null,
        "streetTypeId": "CRES",
        "placeName": "STRATHROY",
        "streetNameDisplayText": "ARNELLA CRES, STRATHROY"
      }
    ]
  },
  {
    "postal": "N7G8N3",
    "result": []
  },
  {
    "postal": "N7G4L8",
    "result": [
      {
        "electoralDistricts": [
          {
            "election": null,
            "id": 50,
            "name": "Lambton—Kent—Middlesex"
          }
        ],
        "pollDivisionIds": [
          10143153
        ],
        "postalCode": "N7G4L8",
        "streetName": "MARLA",
        "streetDirectionId": null,
        "streetTypeId": "CRT",
        "placeName": "STRATHROY",
        "streetNameDisplayText": "MARLA CRT, STRATHROY"
      }
    ]
  },
  {
    "postal": "N7G2B5",
    "result": [
      {
        "electoralDistricts": [
          {
            "election": null,
            "id": 50,
            "name": "Lambton—Kent—Middlesex"
          }
        ],
        "pollDivisionIds": [
          10143954
        ],
        "postalCode": "N7G2B5",
        "streetName": "SAULSBURY",
        "streetDirectionId": null,
        "streetTypeId": "ST",
        "placeName": "STRATHROY",
        "streetNameDisplayText": "SAULSBURY ST, STRATHROY"
      }
    ]
  },
  {
    "postal": "N7G3H1",
    "result": [
      {
        "electoralDistricts": [
          {
            "election": null,
            "id": 50,
            "name": "Lambton—Kent—Middlesex"
          }
        ],
        "pollDivisionIds": [
          10143954
        ],
        "postalCode": "N7G3H1",
        "streetName": "JEAN",
        "streetDirectionId": null,
        "streetTypeId": "ST",
        "placeName": "STRATHROY",
        "streetNameDisplayText": "JEAN ST, STRATHROY"
      }
    ]
  },
  {
    "postal": "N7G4Y1",
    "result": []
  },
  {
    "postal": "N7G7E2",
    "result": []
  },
  {
    "postal": "N7G2P5",
    "result": [
      {
        "electoralDistricts": [
          {
            "election": null,
            "id": 50,
            "name": "Lambton—Kent—Middlesex"
          }
        ],
        "pollDivisionIds": [
          10143155
        ],
        "postalCode": "N7G2P5",
        "streetName": "CARADOC",
        "streetDirectionId": "S",
        "streetTypeId": "ST",
        "placeName": "STRATHROY",
        "streetNameDisplayText": "CARADOC ST S, STRATHROY"
      }
    ]
  },
  {
    "postal": "N7G8R7",
    "result": []
  },
  {
    "postal": "N7G9P1",
    "result": []
  },
  {
    "postal": "N7G3B8",
    "result": [
      {
        "electoralDistricts": [
          {
            "election": null,
            "id": 50,
            "name": "Lambton—Kent—Middlesex"
          }
        ],
        "pollDivisionIds": [
          10143954
        ],
        "postalCode": "N7G3B8",
        "streetName": "VICTORIA",
        "streetDirectionId": null,
        "streetTypeId": "ST",
        "placeName": "STRATHROY",
        "streetNameDisplayText": "VICTORIA ST, STRATHROY"
      }
    ]
  },
  {
    "postal": "N7G3P7",
    "result": [
      {
        "electoralDistricts": [
          {
            "election": null,
            "id": 50,
            "name": "Lambton—Kent—Middlesex"
          }
        ],
        "pollDivisionIds": [
          10143153
        ],
        "postalCode": "N7G3P7",
        "streetName": "PENNY",
        "streetDirectionId": null,
        "streetTypeId": "LANE",
        "placeName": "STRATHROY",
        "streetNameDisplayText": "PENNY LANE, STRATHROY"
      }
    ]
  },
  {
    "postal": "N7G9B2",
    "result": []
  },
  {
    "postal": "N7G6Z3",
    "result": []
  },
  {
    "postal": "N7G4N5",
    "result": []
  },
  {
    "postal": "N7G8T3",
    "result": []
  },
  {
    "postal": "N7G1V2",
    "result": [
      {
        "electoralDistricts": [
          {
            "election": null,
            "id": 50,
            "name": "Lambton—Kent—Middlesex"
          }
        ],
        "pollDivisionIds": [
          10143954
        ],
        "postalCode": "N7G1V2",
        "streetName": "CENTRE",
        "streetDirectionId": "W",
        "streetTypeId": "ST",
        "placeName": "STRATHROY",
        "streetNameDisplayText": "CENTRE ST W, STRATHROY"
      }
    ]
  },
  {
    "postal": "N7G1Y0",
    "result": []
  },
  {
    "postal": "N7G3G6",
    "result": [
      {
        "electoralDistricts": [
          {
            "election": null,
            "id": 50,
            "name": "Lambton—Kent—Middlesex"
          }
        ],
        "pollDivisionIds": [
          10143954
        ],
        "postalCode": "N7G3G6",
        "streetName": "STRATHROYAL",
        "streetDirectionId": null,
        "streetTypeId": "AVE",
        "placeName": "STRATHROY",
        "streetNameDisplayText": "STRATHROYAL AVE, STRATHROY"
      }
    ]
  },
  {
    "postal": "N7G3H7",
    "result": [
      {
        "electoralDistricts": [
          {
            "election": null,
            "id": 50,
            "name": "Lambton—Kent—Middlesex"
          }
        ],
        "pollDivisionIds": [
          10143153
        ],
        "postalCode": "N7G3H7",
        "streetName": "BUTTERY",
        "streetDirectionId": null,
        "streetTypeId": "CRT",
        "placeName": "STRATHROY",
        "streetNameDisplayText": "BUTTERY CRT, STRATHROY"
      },
      {
        "electoralDistricts": [
          {
            "election": null,
            "id": 50,
            "name": "Lambton—Kent—Middlesex"
          }
        ],
        "pollDivisionIds": [
          10139337,
          10143153,
          10143152
        ],
        "postalCode": "N7G3H7",
        "streetName": "CENTRE",
        "streetDirectionId": null,
        "streetTypeId": "RD",
        "placeName": "STRATHROY",
        "streetNameDisplayText": "CENTRE RD, STRATHROY"
      },
      {
        "electoralDistricts": [
          {
            "election": null,
            "id": 50,
            "name": "Lambton—Kent—Middlesex"
          }
        ],
        "pollDivisionIds": [
          10143153
        ],
        "postalCode": "N7G3H7",
        "streetName": "DOLPHIN",
        "streetDirectionId": null,
        "streetTypeId": "RD",
        "placeName": "STRATHROY",
        "streetNameDisplayText": "DOLPHIN RD, STRATHROY"
      },
      {
        "electoralDistricts": [
          {
            "election": null,
            "id": 50,
            "name": "Lambton—Kent—Middlesex"
          }
        ],
        "pollDivisionIds": [
          10139337,
          10143152,
          10143153
        ],
        "postalCode": "N7G3H7",
        "streetName": "GLASGOW",
        "streetDirectionId": null,
        "streetTypeId": "ST",
        "placeName": "STRATHROY",
        "streetNameDisplayText": "GLASGOW ST, STRATHROY"
      },
      {
        "electoralDistricts": [
          {
            "election": null,
            "id": 50,
            "name": "Lambton—Kent—Middlesex"
          }
        ],
        "pollDivisionIds": [
          10143153
        ],
        "postalCode": "N7G3H7",
        "streetName": "HANSFORD",
        "streetDirectionId": null,
        "streetTypeId": "RD",
        "placeName": "STRATHROY",
        "streetNameDisplayText": "HANSFORD RD, STRATHROY"
      },
      {
        "electoralDistricts": [
          {
            "election": null,
            "id": 50,
            "name": "Lambton—Kent—Middlesex"
          }
        ],
        "pollDivisionIds": [
          10143153
        ],
        "postalCode": "N7G3H7",
        "streetName": "HEAD",
        "streetDirectionId": "N",
        "streetTypeId": "ST",
        "placeName": "STRATHROY",
        "streetNameDisplayText": "HEAD ST N, STRATHROY"
      },
      {
        "electoralDistricts": [
          {
            "election": null,
            "id": 50,
            "name": "Lambton—Kent—Middlesex"
          }
        ],
        "pollDivisionIds": [
          10143155
        ],
        "postalCode": "N7G3H7",
        "streetName": "HICKORY",
        "streetDirectionId": null,
        "streetTypeId": "DR",
        "placeName": "STRATHROY",
        "streetNameDisplayText": "HICKORY DR, STRATHROY"
      },
      {
        "electoralDistricts": [
          {
            "election": null,
            "id": 50,
            "name": "Lambton—Kent—Middlesex"
          }
        ],
        "pollDivisionIds": [
          10143153
        ],
        "postalCode": "N7G3H7",
        "streetName": "HOEFNAGEL CRES",
        "streetDirectionId": null,
        "streetTypeId": "CRES",
        "placeName": "STRATHROY",
        "streetNameDisplayText": "HOEFNAGEL CRES CRES, STRATHROY"
      },
      {
        "electoralDistricts": [
          {
            "election": null,
            "id": 50,
            "name": "Lambton—Kent—Middlesex"
          }
        ],
        "pollDivisionIds": [
          10143153
        ],
        "postalCode": "N7G3H7",
        "streetName": "HOEFNAGELS",
        "streetDirectionId": null,
        "streetTypeId": "CRES",
        "placeName": "STRATHROY",
        "streetNameDisplayText": "HOEFNAGELS CRES, STRATHROY"
      },
      {
        "electoralDistricts": [
          {
            "election": null,
            "id": 50,
            "name": "Lambton—Kent—Middlesex"
          }
        ],
        "pollDivisionIds": [
          10139337
        ],
        "postalCode": "N7G3H7",
        "streetName": "MCCUBBIN",
        "streetDirectionId": null,
        "streetTypeId": "RD",
        "placeName": "STRATHROY",
        "streetNameDisplayText": "MCCUBBIN RD, STRATHROY"
      },
      {
        "electoralDistricts": [
          {
            "election": null,
            "id": 50,
            "name": "Lambton—Kent—Middlesex"
          }
        ],
        "pollDivisionIds": [
          10139337
        ],
        "postalCode": "N7G3H7",
        "streetName": "MCLEISH",
        "streetDirectionId": null,
        "streetTypeId": "RD",
        "placeName": "STRATHROY",
        "streetNameDisplayText": "MCLEISH RD, STRATHROY"
      },
      {
        "electoralDistricts": [
          {
            "election": null,
            "id": 50,
            "name": "Lambton—Kent—Middlesex"
          }
        ],
        "pollDivisionIds": [
          10139337
        ],
        "postalCode": "N7G3H7",
        "streetName": "PEDDEN",
        "streetDirectionId": null,
        "streetTypeId": "RD",
        "placeName": "STRATHROY",
        "streetNameDisplayText": "PEDDEN RD, STRATHROY"
      },
      {
        "electoralDistricts": [
          {
            "election": null,
            "id": 50,
            "name": "Lambton—Kent—Middlesex"
          }
        ],
        "pollDivisionIds": [
          10143153
        ],
        "postalCode": "N7G3H7",
        "streetName": "PETTY",
        "streetDirectionId": null,
        "streetTypeId": "ST",
        "placeName": "STRATHROY",
        "streetNameDisplayText": "PETTY ST, STRATHROY"
      },
      {
        "electoralDistricts": [
          {
            "election": null,
            "id": 50,
            "name": "Lambton—Kent—Middlesex"
          }
        ],
        "pollDivisionIds": [
          10143153
        ],
        "postalCode": "N7G3H7",
        "streetName": "ROBOTHAM",
        "streetDirectionId": null,
        "streetTypeId": "RD",
        "placeName": "STRATHROY",
        "streetNameDisplayText": "ROBOTHAM RD, STRATHROY"
      },
      {
        "electoralDistricts": [
          {
            "election": null,
            "id": 50,
            "name": "Lambton—Kent—Middlesex"
          }
        ],
        "pollDivisionIds": [
          10143152
        ],
        "postalCode": "N7G3H7",
        "streetName": "TOWNSEND",
        "streetDirectionId": null,
        "streetTypeId": "LINE",
        "placeName": "STRATHROY",
        "streetNameDisplayText": "TOWNSEND LINE, STRATHROY"
      },
      {
        "electoralDistricts": [
          {
            "election": null,
            "id": 50,
            "name": "Lambton—Kent—Middlesex"
          }
        ],
        "pollDivisionIds": [
          10139337,
          10143153
        ],
        "postalCode": "N7G3H7",
        "streetName": "WARDELL",
        "streetDirectionId": null,
        "streetTypeId": "DR",
        "placeName": "STRATHROY",
        "streetNameDisplayText": "WARDELL DR, STRATHROY"
      },
      {
        "electoralDistricts": [
          {
            "election": null,
            "id": 50,
            "name": "Lambton—Kent—Middlesex"
          }
        ],
        "pollDivisionIds": [
          10143153
        ],
        "postalCode": "N7G3H7",
        "streetName": "WOOD",
        "streetDirectionId": null,
        "streetTypeId": "RD",
        "placeName": "STRATHROY",
        "streetNameDisplayText": "WOOD RD, STRATHROY"
      },
      {
        "electoralDistricts": [
          {
            "election": null,
            "id": 50,
            "name": "Lambton—Kent—Middlesex"
          }
        ],
        "pollDivisionIds": [
          10139337
        ],
        "postalCode": "N7G3H7",
        "streetName": "WYATT",
        "streetDirectionId": null,
        "streetTypeId": "RD",
        "placeName": "STRATHROY",
        "streetNameDisplayText": "WYATT RD, STRATHROY"
      }
    ]
  },
  {
    "postal": "N7G7X8",
    "result": []
  },
  {
    "postal": "N7G0C7",
    "result": [
      {
        "electoralDistricts": [
          {
            "election": null,
            "id": 50,
            "name": "Lambton—Kent—Middlesex"
          }
        ],
        "pollDivisionIds": [
          10143153
        ],
        "postalCode": "N7G0C7",
        "streetName": "ACTON",
        "streetDirectionId": null,
        "streetTypeId": "ST",
        "placeName": "STRATHROY",
        "streetNameDisplayText": "ACTON ST, STRATHROY"
      }
    ]
  },
  {
    "postal": "N7G0W9",
    "result": []
  },
  {
    "postal": "N7G8E6",
    "result": []
  },
  {
    "postal": "N7G9Z8",
    "result": []
  },
  {
    "postal": "N7G3P4",
    "result": [
      {
        "electoralDistricts": [
          {
            "election": null,
            "id": 50,
            "name": "Lambton—Kent—Middlesex"
          }
        ],
        "pollDivisionIds": [
          10143345
        ],
        "postalCode": "N7G3P4",
        "streetName": "RICHARD",
        "streetDirectionId": null,
        "streetTypeId": "CRES",
        "placeName": "STRATHROY",
        "streetNameDisplayText": "RICHARD CRES, STRATHROY"
      }
    ]
  },
  {
    "postal": "N7G6L8",
    "result": []
  },
  {
    "postal": "N7G2R4",
    "result": [
      {
        "electoralDistricts": [
          {
            "election": null,
            "id": 50,
            "name": "Lambton—Kent—Middlesex"
          }
        ],
        "pollDivisionIds": [
          10143954
        ],
        "postalCode": "N7G2R4",
        "streetName": "FRANK",
        "streetDirectionId": null,
        "streetTypeId": "ST",
        "placeName": "STRATHROY",
        "streetNameDisplayText": "FRANK ST, STRATHROY"
      }
    ]
  },
  {
    "postal": "N7G2W1",
    "result": [
      {
        "electoralDistricts": [
          {
            "election": null,
            "id": 50,
            "name": "Lambton—Kent—Middlesex"
          }
        ],
        "pollDivisionIds": [
          10143345
        ],
        "postalCode": "N7G2W1",
        "streetName": "ADELAIDE",
        "streetDirectionId": null,
        "streetTypeId": "ST",
        "placeName": "STRATHROY",
        "streetNameDisplayText": "ADELAIDE ST, STRATHROY"
      }
    ]
  },
  {
    "postal": "N7G9H8",
    "result": []
  },
  {
    "postal": "N7G8X9",
    "result": []
  },
  {
    "postal": "N7G7H4",
    "result": []
  },
  {
    "postal": "N7G3J1",
    "result": []
  },
  {
    "postal": "N7G1P4",
    "result": [
      {
        "electoralDistricts": [
          {
            "election": null,
            "id": 50,
            "name": "Lambton—Kent—Middlesex"
          }
        ],
        "pollDivisionIds": [
          10143155
        ],
        "postalCode": "N7G1P4",
        "streetName": "METCALFE",
        "streetDirectionId": "E",
        "streetTypeId": "ST",
        "placeName": "STRATHROY",
        "streetNameDisplayText": "METCALFE ST E, STRATHROY"
      }
    ]
  },
  {
    "postal": "N7G2A3",
    "result": [
      {
        "electoralDistricts": [
          {
            "election": null,
            "id": 50,
            "name": "Lambton—Kent—Middlesex"
          }
        ],
        "pollDivisionIds": [
          10143954
        ],
        "postalCode": "N7G2A3",
        "streetName": "WESTMOUNT",
        "streetDirectionId": null,
        "streetTypeId": "ST",
        "placeName": "STRATHROY",
        "streetNameDisplayText": "WESTMOUNT ST, STRATHROY"
      }
    ]
  },
  {
    "postal": "N7G0Z1",
    "result": []
  },
  {
    "postal": "N7G1C1",
    "result": [
      {
        "electoralDistricts": [
          {
            "election": null,
            "id": 50,
            "name": "Lambton—Kent—Middlesex"
          }
        ],
        "pollDivisionIds": [
          10143345
        ],
        "postalCode": "N7G1C1",
        "streetName": "ERIE",
        "streetDirectionId": null,
        "streetTypeId": "ST",
        "placeName": "STRATHROY",
        "streetNameDisplayText": "ERIE ST, STRATHROY"
      }
    ]
  },
  {
    "postal": "N7G0H3",
    "result": []
  },
  {
    "postal": "N7G7B0",
    "result": []
  },
  {
    "postal": "N7G5K2",
    "result": []
  },
  {
    "postal": "N7G1E9",
    "result": [
      {
        "electoralDistricts": [
          {
            "election": null,
            "id": 50,
            "name": "Lambton—Kent—Middlesex"
          }
        ],
        "pollDivisionIds": [
          10143345
        ],
        "postalCode": "N7G1E9",
        "streetName": "BURNS",
        "streetDirectionId": null,
        "streetTypeId": "ST",
        "placeName": "STRATHROY",
        "streetNameDisplayText": "BURNS ST, STRATHROY"
      }
    ]
  },
  {
    "postal": "N7G9W7",
    "result": []
  },
  {
    "postal": "N7G5W6",
    "result": []
  },
  {
    "postal": "N7G6S6",
    "result": []
  },
  {
    "postal": "N7G2P8",
    "result": [
      {
        "electoralDistricts": [
          {
            "election": null,
            "id": 50,
            "name": "Lambton—Kent—Middlesex"
          }
        ],
        "pollDivisionIds": [
          10143345
        ],
        "postalCode": "N7G2P8",
        "streetName": "ADELAIDE",
        "streetDirectionId": null,
        "streetTypeId": "RD",
        "placeName": "STRATHROY",
        "streetNameDisplayText": "ADELAIDE RD, STRATHROY"
      }
    ]
  },
  {
    "postal": "N7G4P8",
    "result": []
  },
  {
    "postal": "N7G0V9",
    "result": []
  },
  {
    "postal": "N7G5Y2",
    "result": []
  },
  {
    "postal": "N7G7Z7",
    "result": []
  },
  {
    "postal": "N7G6Y8",
    "result": []
  },
  {
    "postal": "N7G2G7",
    "result": [
      {
        "electoralDistricts": [
          {
            "election": null,
            "id": 50,
            "name": "Lambton—Kent—Middlesex"
          }
        ],
        "pollDivisionIds": [
          10143155
        ],
        "postalCode": "N7G2G7",
        "streetName": "ZIMMERMAN",
        "streetDirectionId": null,
        "streetTypeId": "AVE",
        "placeName": "STRATHROY",
        "streetNameDisplayText": "ZIMMERMAN AVE, STRATHROY"
      }
    ]
  },
  {
    "postal": "N7G8C1",
    "result": []
  },
  {
    "postal": "N7G5C5",
    "result": []
  },
  {
    "postal": "N7G2X8",
    "result": [
      {
        "electoralDistricts": [
          {
            "election": null,
            "id": 50,
            "name": "Lambton—Kent—Middlesex"
          }
        ],
        "pollDivisionIds": [
          10143345
        ],
        "postalCode": "N7G2X8",
        "streetName": "MCKELLAR",
        "streetDirectionId": null,
        "streetTypeId": "ST",
        "placeName": "STRATHROY",
        "streetNameDisplayText": "MCKELLAR ST, STRATHROY"
      }
    ]
  },
  {
    "postal": "N7G1W5",
    "result": [
      {
        "electoralDistricts": [
          {
            "election": null,
            "id": 50,
            "name": "Lambton—Kent—Middlesex"
          }
        ],
        "pollDivisionIds": [
          10143954
        ],
        "postalCode": "N7G1W5",
        "streetName": "ALBERT",
        "streetDirectionId": null,
        "streetTypeId": "ST",
        "placeName": "STRATHROY",
        "streetNameDisplayText": "ALBERT ST, STRATHROY"
      }
    ]
  },
  {
    "postal": "N7G7G0",
    "result": []
  },
  {
    "postal": "N7G8J8",
    "result": []
  },
  {
    "postal": "N7G3Y0",
    "result": []
  },
  {
    "postal": "N7G9T7",
    "result": []
  },
  {
    "postal": "N7G5P4",
    "result": []
  },
  {
    "postal": "N7G4B0",
    "result": []
  },
  {
    "postal": "N7G9N8",
    "result": []
  },
  {
    "postal": "N7G4A7",
    "result": [
      {
        "electoralDistricts": [
          {
            "election": null,
            "id": 50,
            "name": "Lambton—Kent—Middlesex"
          }
        ],
        "pollDivisionIds": [
          10143345
        ],
        "postalCode": "N7G4A7",
        "streetName": "MOFFATT",
        "streetDirectionId": null,
        "streetTypeId": "LANE",
        "placeName": "STRATHROY",
        "streetNameDisplayText": "MOFFATT LANE, STRATHROY"
      }
    ]
  },
  {
    "postal": "N7G4H9",
    "result": [
      {
        "electoralDistricts": [
          {
            "election": null,
            "id": 50,
            "name": "Lambton—Kent—Middlesex"
          }
        ],
        "pollDivisionIds": [
          10143155
        ],
        "postalCode": "N7G4H9",
        "streetName": "HIGH",
        "streetDirectionId": "E",
        "streetTypeId": "ST",
        "placeName": "STRATHROY",
        "streetNameDisplayText": "HIGH ST E, STRATHROY"
      }
    ]
  },
  {
    "postal": "N7G6X1",
    "result": []
  },
  {
    "postal": "N7G9Y7",
    "result": []
  },
  {
    "postal": "N7G2Y5",
    "result": [
      {
        "electoralDistricts": [
          {
            "election": null,
            "id": 50,
            "name": "Lambton—Kent—Middlesex"
          }
        ],
        "pollDivisionIds": [
          10143345
        ],
        "postalCode": "N7G2Y5",
        "streetName": "MCKELLAR",
        "streetDirectionId": null,
        "streetTypeId": "ST",
        "placeName": "STRATHROY",
        "streetNameDisplayText": "MCKELLAR ST, STRATHROY"
      }
    ]
  },
  {
    "postal": "N7G8L7",
    "result": []
  },
  {
    "postal": "N7G2A8",
    "result": [
      {
        "electoralDistricts": [
          {
            "election": null,
            "id": 50,
            "name": "Lambton—Kent—Middlesex"
          }
        ],
        "pollDivisionIds": [
          10143155,
          10143358
        ],
        "postalCode": "N7G2A8",
        "streetName": "KITTRIDGE",
        "streetDirectionId": "E",
        "streetTypeId": "AVE",
        "placeName": "STRATHROY",
        "streetNameDisplayText": "KITTRIDGE AVE E, STRATHROY"
      }
    ]
  },
  {
    "postal": "N7G2K9",
    "result": [
      {
        "electoralDistricts": [
          {
            "election": null,
            "id": 50,
            "name": "Lambton—Kent—Middlesex"
          }
        ],
        "pollDivisionIds": [
          10143155
        ],
        "postalCode": "N7G2K9",
        "streetName": "HEAD",
        "streetDirectionId": "S",
        "streetTypeId": "ST",
        "placeName": "STRATHROY",
        "streetNameDisplayText": "HEAD ST S, STRATHROY"
      }
    ]
  },
  {
    "postal": "N7G3E5",
    "result": [
      {
        "electoralDistricts": [
          {
            "election": null,
            "id": 50,
            "name": "Lambton—Kent—Middlesex"
          }
        ],
        "pollDivisionIds": [
          10143954
        ],
        "postalCode": "N7G3E5",
        "streetName": "RAPLEY",
        "streetDirectionId": null,
        "streetTypeId": "ST",
        "placeName": "STRATHROY",
        "streetNameDisplayText": "RAPLEY ST, STRATHROY"
      }
    ]
  },
  {
    "postal": "N7G8N6",
    "result": []
  },
  {
    "postal": "N7G8J4",
    "result": []
  },
  {
    "postal": "N7G4R7",
    "result": []
  },
  {
    "postal": "N7G9K1",
    "result": []
  },
  {
    "postal": "N7G8E1",
    "result": []
  },
  {
    "postal": "N7G0R1",
    "result": []
  },
  {
    "postal": "N7G4J3",
    "result": [
      {
        "electoralDistricts": [
          {
            "election": null,
            "id": 50,
            "name": "Lambton—Kent—Middlesex"
          }
        ],
        "pollDivisionIds": [
          10143155
        ],
        "postalCode": "N7G4J3",
        "streetName": "EGERTON",
        "streetDirectionId": null,
        "streetTypeId": "ST",
        "placeName": "STRATHROY",
        "streetNameDisplayText": "EGERTON ST, STRATHROY"
      }
    ]
  },
  {
    "postal": "N7G7E7",
    "result": []
  },
  {
    "postal": "N7G0J0",
    "result": []
  },
  {
    "postal": "N7G7R8",
    "result": []
  },
  {
    "postal": "N7G9X0",
    "result": []
  },
  {
    "postal": "N7G7P6",
    "result": []
  },
  {
    "postal": "N7G0R7",
    "result": []
  },
  {
    "postal": "N7G5W1",
    "result": []
  },
  {
    "postal": "N7G0K4",
    "result": []
  },
  {
    "postal": "N7G7N9",
    "result": []
  },
  {
    "postal": "N7G1N0",
    "result": []
  },
  {
    "postal": "N7G6P3",
    "result": []
  },
  {
    "postal": "N7G5A1",
    "result": []
  },
  {
    "postal": "N7G9M9",
    "result": []
  },
  {
    "postal": "N7G7T6",
    "result": []
  },
  {
    "postal": "N7G3X0",
    "result": []
  },
  {
    "postal": "N7G2T0",
    "result": []
  },
  {
    "postal": "N7G5X9",
    "result": []
  },
  {
    "postal": "N7G2R3",
    "result": [
      {
        "electoralDistricts": [
          {
            "election": null,
            "id": 50,
            "name": "Lambton—Kent—Middlesex"
          }
        ],
        "pollDivisionIds": [
          10143954
        ],
        "postalCode": "N7G2R3",
        "streetName": "FRANK",
        "streetDirectionId": null,
        "streetTypeId": "ST",
        "placeName": "STRATHROY",
        "streetNameDisplayText": "FRANK ST, STRATHROY"
      }
    ]
  },
  {
    "postal": "N7G5N2",
    "result": []
  },
  {
    "postal": "N7G4Y7",
    "result": []
  },
  {
    "postal": "N7G7M0",
    "result": []
  },
  {
    "postal": "N7G8P3",
    "result": []
  },
  {
    "postal": "N7G3N3",
    "result": [
      {
        "electoralDistricts": [
          {
            "election": null,
            "id": 50,
            "name": "Lambton—Kent—Middlesex"
          }
        ],
        "pollDivisionIds": [
          10143954
        ],
        "postalCode": "N7G3N3",
        "streetName": "WESTERN",
        "streetDirectionId": null,
        "streetTypeId": "ST",
        "placeName": "STRATHROY",
        "streetNameDisplayText": "WESTERN ST, STRATHROY"
      }
    ]
  },
  {
    "postal": "N7G7S3",
    "result": []
  },
  {
    "postal": "N7G3V9",
    "result": [
      {
        "electoralDistricts": [
          {
            "election": null,
            "id": 50,
            "name": "Lambton—Kent—Middlesex"
          }
        ],
        "pollDivisionIds": [
          10143345
        ],
        "postalCode": "N7G3V9",
        "streetName": "PARK",
        "streetDirectionId": null,
        "streetTypeId": "ST",
        "placeName": "STRATHROY",
        "streetNameDisplayText": "PARK ST, STRATHROY"
      }
    ]
  },
  {
    "postal": "N7G9N7",
    "result": []
  },
  {
    "postal": "N7G0G4",
    "result": []
  },
  {
    "postal": "N7G2E2",
    "result": [
      {
        "electoralDistricts": [
          {
            "election": null,
            "id": 50,
            "name": "Lambton—Kent—Middlesex"
          }
        ],
        "pollDivisionIds": [
          10143155
        ],
        "postalCode": "N7G2E2",
        "streetName": "KING",
        "streetDirectionId": null,
        "streetTypeId": "ST",
        "placeName": "STRATHROY",
        "streetNameDisplayText": "KING ST, STRATHROY"
      }
    ]
  },
  {
    "postal": "N7G7W8",
    "result": []
  },
  {
    "postal": "N7G7M5",
    "result": []
  },
  {
    "postal": "N7G5W8",
    "result": []
  },
  {
    "postal": "N7G5E5",
    "result": []
  },
  {
    "postal": "N7G1P9",
    "result": [
      {
        "electoralDistricts": [
          {
            "election": null,
            "id": 50,
            "name": "Lambton—Kent—Middlesex"
          }
        ],
        "pollDivisionIds": [
          10143155
        ],
        "postalCode": "N7G1P9",
        "streetName": "METCALFE",
        "streetDirectionId": "E",
        "streetTypeId": "ST",
        "placeName": "STRATHROY",
        "streetNameDisplayText": "METCALFE ST E, STRATHROY"
      }
    ]
  },
  {
    "postal": "N7G8V8",
    "result": []
  },
  {
    "postal": "N7G9G8",
    "result": []
  },
  {
    "postal": "N7G8H9",
    "result": []
  },
  {
    "postal": "N7G1Z1",
    "result": [
      {
        "electoralDistricts": [
          {
            "election": null,
            "id": 50,
            "name": "Lambton—Kent—Middlesex"
          }
        ],
        "pollDivisionIds": [
          10143155
        ],
        "postalCode": "N7G1Z1",
        "streetName": "FRONT",
        "streetDirectionId": "E",
        "streetTypeId": "ST",
        "placeName": "STRATHROY",
        "streetNameDisplayText": "FRONT ST E, STRATHROY"
      }
    ]
  },
  {
    "postal": "N7G8M3",
    "result": []
  },
  {
    "postal": "N7G5H6",
    "result": []
  },
  {
    "postal": "N7G7W7",
    "result": []
  },
  {
    "postal": "N7G4L0",
    "result": []
  },
  {
    "postal": "N7G2N1",
    "result": [
      {
        "electoralDistricts": [
          {
            "election": null,
            "id": 50,
            "name": "Lambton—Kent—Middlesex"
          }
        ],
        "pollDivisionIds": [
          10143153
        ],
        "postalCode": "N7G2N1",
        "streetName": "CARADOC",
        "streetDirectionId": "N",
        "streetTypeId": "ST",
        "placeName": "STRATHROY",
        "streetNameDisplayText": "CARADOC ST N, STRATHROY"
      }
    ]
  },
  {
    "postal": "N7G2H4",
    "result": [
      {
        "electoralDistricts": [
          {
            "election": null,
            "id": 50,
            "name": "Lambton—Kent—Middlesex"
          }
        ],
        "pollDivisionIds": [
          10143155
        ],
        "postalCode": "N7G2H4",
        "streetName": "ARTHUR",
        "streetDirectionId": null,
        "streetTypeId": "ST",
        "placeName": "STRATHROY",
        "streetNameDisplayText": "ARTHUR ST, STRATHROY"
      }
    ]
  },
  {
    "postal": "N7G5C8",
    "result": []
  },
  {
    "postal": "N7G8B0",
    "result": []
  },
  {
    "postal": "N7G1T4",
    "result": [
      {
        "electoralDistricts": [
          {
            "election": null,
            "id": 50,
            "name": "Lambton—Kent—Middlesex"
          }
        ],
        "pollDivisionIds": [
          10143155
        ],
        "postalCode": "N7G1T4",
        "streetName": "CENTRE",
        "streetDirectionId": "E",
        "streetTypeId": "ST",
        "placeName": "STRATHROY",
        "streetNameDisplayText": "CENTRE ST E, STRATHROY"
      },
      {
        "electoralDistricts": [
          {
            "election": null,
            "id": 50,
            "name": "Lambton—Kent—Middlesex"
          }
        ],
        "pollDivisionIds": [
          10143155
        ],
        "postalCode": "N7G1T4",
        "streetName": "EAST CENTRE",
        "streetDirectionId": "E",
        "streetTypeId": "ST",
        "placeName": "STRATHROY",
        "streetNameDisplayText": "EAST CENTRE ST E, STRATHROY"
      }
    ]
  },
  {
    "postal": "N7G7N7",
    "result": []
  },
  {
    "postal": "N7G4L3",
    "result": [
      {
        "electoralDistricts": [
          {
            "election": null,
            "id": 50,
            "name": "Lambton—Kent—Middlesex"
          }
        ],
        "pollDivisionIds": [
          10143153
        ],
        "postalCode": "N7G4L3",
        "streetName": "WRIGHT",
        "streetDirectionId": null,
        "streetTypeId": "ST",
        "placeName": "STRATHROY",
        "streetNameDisplayText": "WRIGHT ST, STRATHROY"
      }
    ]
  },
  {
    "postal": "N7G2N2",
    "result": [
      {
        "electoralDistricts": [
          {
            "election": null,
            "id": 50,
            "name": "Lambton—Kent—Middlesex"
          }
        ],
        "pollDivisionIds": [
          10143153
        ],
        "postalCode": "N7G2N2",
        "streetName": "CARADOC",
        "streetDirectionId": "N",
        "streetTypeId": "ST",
        "placeName": "STRATHROY",
        "streetNameDisplayText": "CARADOC ST N, STRATHROY"
      }
    ]
  },
  {
    "postal": "N7G4N8",
    "result": []
  },
  {
    "postal": "N7G3M5",
    "result": [
      {
        "electoralDistricts": [
          {
            "election": null,
            "id": 50,
            "name": "Lambton—Kent—Middlesex"
          }
        ],
        "pollDivisionIds": [
          10143954
        ],
        "postalCode": "N7G3M5",
        "streetName": "HELEN",
        "streetDirectionId": null,
        "streetTypeId": "DR",
        "placeName": "STRATHROY",
        "streetNameDisplayText": "HELEN DR, STRATHROY"
      }
    ]
  },
  {
    "postal": "N7G6H7",
    "result": []
  },
  {
    "postal": "N7G8Y8",
    "result": []
  },
  {
    "postal": "N7G5R9",
    "result": []
  },
  {
    "postal": "N7G8G3",
    "result": []
  },
  {
    "postal": "N7G4N7",
    "result": []
  },
  {
    "postal": "N7G0B9",
    "result": []
  },
  {
    "postal": "N7G9K7",
    "result": []
  },
  {
    "postal": "N7G9K9",
    "result": []
  },
  {
    "postal": "N7G3Z2",
    "result": [
      {
        "electoralDistricts": [
          {
            "election": null,
            "id": 50,
            "name": "Lambton—Kent—Middlesex"
          }
        ],
        "pollDivisionIds": [
          10143153
        ],
        "postalCode": "N7G3Z2",
        "streetName": "HEAD",
        "streetDirectionId": "N",
        "streetTypeId": "ST",
        "placeName": "STRATHROY",
        "streetNameDisplayText": "HEAD ST N, STRATHROY"
      }
    ]
  },
  {
    "postal": "N7G6W7",
    "result": []
  },
  {
    "postal": "N7G0P1",
    "result": []
  },
  {
    "postal": "N7G3A0",
    "result": []
  },
  {
    "postal": "N7G8L9",
    "result": []
  },
  {
    "postal": "N7G6X0",
    "result": []
  },
  {
    "postal": "N7G3E9",
    "result": [
      {
        "electoralDistricts": [
          {
            "election": null,
            "id": 50,
            "name": "Lambton—Kent—Middlesex"
          }
        ],
        "pollDivisionIds": [
          10143954
        ],
        "postalCode": "N7G3E9",
        "streetName": "DRURY",
        "streetDirectionId": null,
        "streetTypeId": "LANE",
        "placeName": "STRATHROY",
        "streetNameDisplayText": "DRURY LANE, STRATHROY"
      }
    ]
  },
  {
    "postal": "N7G0S5",
    "result": []
  },
  {
    "postal": "N7G1A2",
    "result": []
  },
  {
    "postal": "N7G5V8",
    "result": []
  },
  {
    "postal": "N7G8C5",
    "result": []
  },
  {
    "postal": "N7G6N0",
    "result": []
  },
  {
    "postal": "N7G9E6",
    "result": []
  },
  {
    "postal": "N7G5J7",
    "result": []
  },
  {
    "postal": "N7G2R2",
    "result": [
      {
        "electoralDistricts": [
          {
            "election": null,
            "id": 50,
            "name": "Lambton—Kent—Middlesex"
          }
        ],
        "pollDivisionIds": [
          10143954
        ],
        "postalCode": "N7G2R2",
        "streetName": "FRANK",
        "streetDirectionId": null,
        "streetTypeId": "ST",
        "placeName": "STRATHROY",
        "streetNameDisplayText": "FRANK ST, STRATHROY"
      }
    ]
  },
  {
    "postal": "N7G0P5",
    "result": []
  },
  {
    "postal": "N7G5A7",
    "result": []
  },
  {
    "postal": "N7G1G1",
    "result": [
      {
        "electoralDistricts": [
          {
            "election": null,
            "id": 50,
            "name": "Lambton—Kent—Middlesex"
          }
        ],
        "pollDivisionIds": [
          10143345
        ],
        "postalCode": "N7G1G1",
        "streetName": "BURNS",
        "streetDirectionId": null,
        "streetTypeId": "ST",
        "placeName": "STRATHROY",
        "streetNameDisplayText": "BURNS ST, STRATHROY"
      }
    ]
  },
  {
    "postal": "N7G9R6",
    "result": []
  },
  {
    "postal": "N7G4Z9",
    "result": []
  },
  {
    "postal": "N7G1V5",
    "result": [
      {
        "electoralDistricts": [
          {
            "election": null,
            "id": 50,
            "name": "Lambton—Kent—Middlesex"
          }
        ],
        "pollDivisionIds": [
          10143954
        ],
        "postalCode": "N7G1V5",
        "streetName": "ALBERT",
        "streetDirectionId": null,
        "streetTypeId": "ST",
        "placeName": "STRATHROY",
        "streetNameDisplayText": "ALBERT ST, STRATHROY"
      }
    ]
  },
  {
    "postal": "N7G9Y5",
    "result": []
  },
  {
    "postal": "N7G1P2",
    "result": [
      {
        "electoralDistricts": [
          {
            "election": null,
            "id": 50,
            "name": "Lambton—Kent—Middlesex"
          }
        ],
        "pollDivisionIds": [
          10143155
        ],
        "postalCode": "N7G1P2",
        "streetName": "METCALFE",
        "streetDirectionId": "E",
        "streetTypeId": "ST",
        "placeName": "STRATHROY",
        "streetNameDisplayText": "METCALFE ST E, STRATHROY"
      }
    ]
  },
  {
    "postal": "N7G5X0",
    "result": []
  },
  {
    "postal": "N7G7B8",
    "result": []
  },
  {
    "postal": "N7G0C6",
    "result": [
      {
        "electoralDistricts": [
          {
            "election": null,
            "id": 50,
            "name": "Lambton—Kent—Middlesex"
          }
        ],
        "pollDivisionIds": [
          10143155
        ],
        "postalCode": "N7G0C6",
        "streetName": "MOGG",
        "streetDirectionId": null,
        "streetTypeId": "ST",
        "placeName": "STRATHROY",
        "streetNameDisplayText": "MOGG ST, STRATHROY"
      }
    ]
  },
  {
    "postal": "N7G6G1",
    "result": []
  },
  {
    "postal": "N7G3K3",
    "result": [
      {
        "electoralDistricts": [
          {
            "election": null,
            "id": 50,
            "name": "Lambton—Kent—Middlesex"
          }
        ],
        "pollDivisionIds": [
          10143345
        ],
        "postalCode": "N7G3K3",
        "streetName": "OAK",
        "streetDirectionId": null,
        "streetTypeId": "AVE",
        "placeName": "STRATHROY",
        "streetNameDisplayText": "OAK AVE, STRATHROY"
      },
      {
        "electoralDistricts": [
          {
            "election": null,
            "id": 50,
            "name": "Lambton—Kent—Middlesex"
          }
        ],
        "pollDivisionIds": [
          10143345
        ],
        "postalCode": "N7G3K3",
        "streetName": "OAK",
        "streetDirectionId": null,
        "streetTypeId": "ST",
        "placeName": "STRATHROY",
        "streetNameDisplayText": "OAK ST, STRATHROY"
      }
    ]
  },
  {
    "postal": "N7G9R0",
    "result": []
  },
  {
    "postal": "N7G4R8",
    "result": []
  },
  {
    "postal": "N7G5P9",
    "result": []
  },
  {
    "postal": "N7G8N4",
    "result": []
  },
  {
    "postal": "N7G8H4",
    "result": []
  },
  {
    "postal": "N7G4V1",
    "result": []
  },
  {
    "postal": "N7G1K5",
    "result": [
      {
        "electoralDistricts": [
          {
            "election": null,
            "id": 50,
            "name": "Lambton—Kent—Middlesex"
          }
        ],
        "pollDivisionIds": [
          10143155
        ],
        "postalCode": "N7G1K5",
        "streetName": "SCOTT",
        "streetDirectionId": "E",
        "streetTypeId": "ST",
        "placeName": "STRATHROY",
        "streetNameDisplayText": "SCOTT ST E, STRATHROY"
      }
    ]
  },
  {
    "postal": "N7G1Z5",
    "result": [
      {
        "electoralDistricts": [
          {
            "election": null,
            "id": 50,
            "name": "Lambton—Kent—Middlesex"
          }
        ],
        "pollDivisionIds": [
          10143954
        ],
        "postalCode": "N7G1Z5",
        "streetName": "NORTH",
        "streetDirectionId": null,
        "streetTypeId": "ST",
        "placeName": "STRATHROY",
        "streetNameDisplayText": "NORTH ST, STRATHROY"
      }
    ]
  },
  {
    "postal": "N7G9L9",
    "result": []
  },
  {
    "postal": "N7G5L2",
    "result": []
  },
  {
    "postal": "N7G0M2",
    "result": []
  },
  {
    "postal": "N7G1K8",
    "result": [
      {
        "electoralDistricts": [
          {
            "election": null,
            "id": 50,
            "name": "Lambton—Kent—Middlesex"
          }
        ],
        "pollDivisionIds": [
          10143345
        ],
        "postalCode": "N7G1K8",
        "streetName": "BEECH",
        "streetDirectionId": null,
        "streetTypeId": "ST",
        "placeName": "STRATHROY",
        "streetNameDisplayText": "BEECH ST, STRATHROY"
      }
    ]
  },
  {
    "postal": "N7G3M7",
    "result": [
      {
        "electoralDistricts": [
          {
            "election": null,
            "id": 50,
            "name": "Lambton—Kent—Middlesex"
          }
        ],
        "pollDivisionIds": [
          10143954
        ],
        "postalCode": "N7G3M7",
        "streetName": "HELEN",
        "streetDirectionId": null,
        "streetTypeId": "DR",
        "placeName": "STRATHROY",
        "streetNameDisplayText": "HELEN DR, STRATHROY"
      }
    ]
  },
  {
    "postal": "N7G1B2",
    "result": [
      {
        "electoralDistricts": [
          {
            "election": null,
            "id": 50,
            "name": "Lambton—Kent—Middlesex"
          }
        ],
        "pollDivisionIds": [
          10143345
        ],
        "postalCode": "N7G1B2",
        "streetName": "CARROLL",
        "streetDirectionId": "W",
        "streetTypeId": "ST",
        "placeName": "STRATHROY",
        "streetNameDisplayText": "CARROLL ST W, STRATHROY"
      }
    ]
  },
  {
    "postal": "N7G0H9",
    "result": []
  },
  {
    "postal": "N7G8M4",
    "result": []
  },
  {
    "postal": "N7G2M5",
    "result": [
      {
        "electoralDistricts": [
          {
            "election": null,
            "id": 50,
            "name": "Lambton—Kent—Middlesex"
          }
        ],
        "pollDivisionIds": [
          10143155
        ],
        "postalCode": "N7G2M5",
        "streetName": "CARADOC",
        "streetDirectionId": "N",
        "streetTypeId": "ST",
        "placeName": "STRATHROY",
        "streetNameDisplayText": "CARADOC ST N, STRATHROY"
      }
    ]
  },
  {
    "postal": "N7G0T9",
    "result": []
  },
  {
    "postal": "N7G3P1",
    "result": [
      {
        "electoralDistricts": [
          {
            "election": null,
            "id": 50,
            "name": "Lambton—Kent—Middlesex"
          }
        ],
        "pollDivisionIds": [
          10143954
        ],
        "postalCode": "N7G3P1",
        "streetName": "STRATHROYAL",
        "streetDirectionId": null,
        "streetTypeId": "AVE",
        "placeName": "STRATHROY",
        "streetNameDisplayText": "STRATHROYAL AVE, STRATHROY"
      }
    ]
  },
  {
    "postal": "N7G1R6",
    "result": [
      {
        "electoralDistricts": [
          {
            "election": null,
            "id": 50,
            "name": "Lambton—Kent—Middlesex"
          }
        ],
        "pollDivisionIds": [
          10143155
        ],
        "postalCode": "N7G1R6",
        "streetName": "METCALFE",
        "streetDirectionId": "E",
        "streetTypeId": "ST",
        "placeName": "STRATHROY",
        "streetNameDisplayText": "METCALFE ST E, STRATHROY"
      }
    ]
  },
  {
    "postal": "N7G9V5",
    "result": []
  },
  {
    "postal": "N7G9T0",
    "result": []
  },
  {
    "postal": "N7G0A9",
    "result": [
      {
        "electoralDistricts": [
          {
            "election": null,
            "id": 50,
            "name": "Lambton—Kent—Middlesex"
          }
        ],
        "pollDivisionIds": [
          10143153
        ],
        "postalCode": "N7G0A9",
        "streetName": "ADAIR",
        "streetDirectionId": null,
        "streetTypeId": "BLVD",
        "placeName": "STRATHROY",
        "streetNameDisplayText": "ADAIR BLVD, STRATHROY"
      }
    ]
  },
  {
    "postal": "N7G1M3",
    "result": [
      {
        "electoralDistricts": [
          {
            "election": null,
            "id": 50,
            "name": "Lambton—Kent—Middlesex"
          }
        ],
        "pollDivisionIds": [
          10143155
        ],
        "postalCode": "N7G1M3",
        "streetName": "DOUNE",
        "streetDirectionId": null,
        "streetTypeId": "ST",
        "placeName": "STRATHROY",
        "streetNameDisplayText": "DOUNE ST, STRATHROY"
      }
    ]
  },
  {
    "postal": "N7G1W8",
    "result": [
      {
        "electoralDistricts": [
          {
            "election": null,
            "id": 50,
            "name": "Lambton—Kent—Middlesex"
          }
        ],
        "pollDivisionIds": [
          10143954
        ],
        "postalCode": "N7G1W8",
        "streetName": "ALBERT",
        "streetDirectionId": null,
        "streetTypeId": "ST",
        "placeName": "STRATHROY",
        "streetNameDisplayText": "ALBERT ST, STRATHROY"
      }
    ]
  },
  {
    "postal": "N7G9J1",
    "result": []
  },
  {
    "postal": "N7G8N5",
    "result": []
  },
  {
    "postal": "N7G5X1",
    "result": []
  },
  {
    "postal": "N7G6S2",
    "result": []
  },
  {
    "postal": "N7G2A2",
    "result": [
      {
        "electoralDistricts": [
          {
            "election": null,
            "id": 50,
            "name": "Lambton—Kent—Middlesex"
          }
        ],
        "pollDivisionIds": [
          10143954
        ],
        "postalCode": "N7G2A2",
        "streetName": "WESTMOUNT",
        "streetDirectionId": null,
        "streetTypeId": "ST",
        "placeName": "STRATHROY",
        "streetNameDisplayText": "WESTMOUNT ST, STRATHROY"
      }
    ]
  },
  {
    "postal": "N7G6A6",
    "result": []
  },
  {
    "postal": "N7G0S3",
    "result": []
  },
  {
    "postal": "N7G3E7",
    "result": [
      {
        "electoralDistricts": [
          {
            "election": null,
            "id": 50,
            "name": "Lambton—Kent—Middlesex"
          }
        ],
        "pollDivisionIds": [
          10143954
        ],
        "postalCode": "N7G3E7",
        "streetName": "DRURY",
        "streetDirectionId": null,
        "streetTypeId": "LANE",
        "placeName": "STRATHROY",
        "streetNameDisplayText": "DRURY LANE, STRATHROY"
      }
    ]
  },
  {
    "postal": "N7G5R7",
    "result": []
  },
  {
    "postal": "N7G3R6",
    "result": []
  },
  {
    "postal": "N7G6K4",
    "result": []
  },
  {
    "postal": "N7G2W5",
    "result": [
      {
        "electoralDistricts": [
          {
            "election": null,
            "id": 50,
            "name": "Lambton—Kent—Middlesex"
          }
        ],
        "pollDivisionIds": [
          10143954
        ],
        "postalCode": "N7G2W5",
        "streetName": "MARIA",
        "streetDirectionId": null,
        "streetTypeId": "ST",
        "placeName": "STRATHROY",
        "streetNameDisplayText": "MARIA ST, STRATHROY"
      }
    ]
  },
  {
    "postal": "N7G8W4",
    "result": []
  },
  {
    "postal": "N7G9C2",
    "result": []
  },
  {
    "postal": "N7G2C0",
    "result": []
  },
  {
    "postal": "N7G0E1",
    "result": [
      {
        "electoralDistricts": [
          {
            "election": null,
            "id": 50,
            "name": "Lambton—Kent—Middlesex"
          }
        ],
        "pollDivisionIds": [
          10143345
        ],
        "postalCode": "N7G0E1",
        "streetName": "ASHBY",
        "streetDirectionId": null,
        "streetTypeId": "CRES",
        "placeName": "STRATHROY",
        "streetNameDisplayText": "ASHBY CRES, STRATHROY"
      },
      {
        "electoralDistricts": [
          {
            "election": null,
            "id": 50,
            "name": "Lambton—Kent—Middlesex"
          }
        ],
        "pollDivisionIds": [
          10143345
        ],
        "postalCode": "N7G0E1",
        "streetName": "DRAKE",
        "streetDirectionId": null,
        "streetTypeId": "CRT",
        "placeName": "STRATHROY",
        "streetNameDisplayText": "DRAKE CRT, STRATHROY"
      },
      {
        "electoralDistricts": [
          {
            "election": null,
            "id": 50,
            "name": "Lambton—Kent—Middlesex"
          }
        ],
        "pollDivisionIds": [
          10143345
        ],
        "postalCode": "N7G0E1",
        "streetName": "VEALE",
        "streetDirectionId": null,
        "streetTypeId": "CRES",
        "placeName": "STRATHROY",
        "streetNameDisplayText": "VEALE CRES, STRATHROY"
      }
    ]
  },
  {
    "postal": "N7G1K9",
    "result": [
      {
        "electoralDistricts": [
          {
            "election": null,
            "id": 50,
            "name": "Lambton—Kent—Middlesex"
          }
        ],
        "pollDivisionIds": [
          10143345
        ],
        "postalCode": "N7G1K9",
        "streetName": "BEECH",
        "streetDirectionId": null,
        "streetTypeId": "ST",
        "placeName": "STRATHROY",
        "streetNameDisplayText": "BEECH ST, STRATHROY"
      }
    ]
  },
  {
    "postal": "N7G1G7",
    "result": [
      {
        "electoralDistricts": [
          {
            "election": null,
            "id": 50,
            "name": "Lambton—Kent—Middlesex"
          }
        ],
        "pollDivisionIds": [
          10143345
        ],
        "postalCode": "N7G1G7",
        "streetName": "HIGH",
        "streetDirectionId": "W",
        "streetTypeId": "ST",
        "placeName": "STRATHROY",
        "streetNameDisplayText": "HIGH ST W, STRATHROY"
      }
    ]
  },
  {
    "postal": "N7G4E9",
    "result": [
      {
        "electoralDistricts": [
          {
            "election": null,
            "id": 50,
            "name": "Lambton—Kent—Middlesex"
          }
        ],
        "pollDivisionIds": [
          10143155
        ],
        "postalCode": "N7G4E9",
        "streetName": "HICKORY",
        "streetDirectionId": "W",
        "streetTypeId": "BLVD",
        "placeName": "STRATHROY",
        "streetNameDisplayText": "HICKORY BLVD W, STRATHROY"
      },
      {
        "electoralDistricts": [
          {
            "election": null,
            "id": 50,
            "name": "Lambton—Kent—Middlesex"
          }
        ],
        "pollDivisionIds": [
          10143155
        ],
        "postalCode": "N7G4E9",
        "streetName": "PARKVIEW",
        "streetDirectionId": null,
        "streetTypeId": "DR",
        "placeName": "STRATHROY",
        "streetNameDisplayText": "PARKVIEW DR, STRATHROY"
      }
    ]
  },
  {
    "postal": "N7G9P0",
    "result": []
  },
  {
    "postal": "N7G5H3",
    "result": []
  },
  {
    "postal": "N7G9X6",
    "result": []
  },
  {
    "postal": "N7G5N7",
    "result": []
  },
  {
    "postal": "N7G5A6",
    "result": []
  },
  {
    "postal": "N7G4M0",
    "result": []
  },
  {
    "postal": "N7G3V6",
    "result": [
      {
        "electoralDistricts": [
          {
            "election": null,
            "id": 50,
            "name": "Lambton—Kent—Middlesex"
          }
        ],
        "pollDivisionIds": [
          10143345
        ],
        "postalCode": "N7G3V6",
        "streetName": "PARK",
        "streetDirectionId": null,
        "streetTypeId": "ST",
        "placeName": "STRATHROY",
        "streetNameDisplayText": "PARK ST, STRATHROY"
      }
    ]
  },
  {
    "postal": "N7G1L7",
    "result": [
      {
        "electoralDistricts": [
          {
            "election": null,
            "id": 50,
            "name": "Lambton—Kent—Middlesex"
          }
        ],
        "pollDivisionIds": [
          10143155
        ],
        "postalCode": "N7G1L7",
        "streetName": "CANAAN",
        "streetDirectionId": null,
        "streetTypeId": "ST",
        "placeName": "STRATHROY",
        "streetNameDisplayText": "CANAAN ST, STRATHROY"
      }
    ]
  },
  {
    "postal": "N7G2P9",
    "result": []
  },
  {
    "postal": "N7G5T4",
    "result": []
  },
  {
    "postal": "N7G5Z1",
    "result": []
  },
  {
    "postal": "N7G2X0",
    "result": []
  },
  {
    "postal": "N7G6Z2",
    "result": []
  },
  {
    "postal": "N7G0E0",
    "result": []
  },
  {
    "postal": "N7G3Z5",
    "result": [
      {
        "electoralDistricts": [
          {
            "election": null,
            "id": 50,
            "name": "Lambton—Kent—Middlesex"
          }
        ],
        "pollDivisionIds": [
          10143345
        ],
        "postalCode": "N7G3Z5",
        "streetName": "LA MANTIA",
        "streetDirectionId": null,
        "streetTypeId": "AVE",
        "placeName": "STRATHROY",
        "streetNameDisplayText": "LA MANTIA AVE, STRATHROY"
      },
      {
        "electoralDistricts": [
          {
            "election": null,
            "id": 50,
            "name": "Lambton—Kent—Middlesex"
          }
        ],
        "pollDivisionIds": [
          10143345
        ],
        "postalCode": "N7G3Z5",
        "streetName": "LAMANTIA",
        "streetDirectionId": null,
        "streetTypeId": "AVE",
        "placeName": "STRATHROY",
        "streetNameDisplayText": "LAMANTIA AVE, STRATHROY"
      }
    ]
  },
  {
    "postal": "N7G8H3",
    "result": []
  },
  {
    "postal": "N7G7S6",
    "result": []
  },
  {
    "postal": "N7G4C1",
    "result": [
      {
        "electoralDistricts": [
          {
            "election": null,
            "id": 50,
            "name": "Lambton—Kent—Middlesex"
          }
        ],
        "pollDivisionIds": [
          10143155
        ],
        "postalCode": "N7G4C1",
        "streetName": "HEMLOCK",
        "streetDirectionId": "E",
        "streetTypeId": "BLVD",
        "placeName": "STRATHROY",
        "streetNameDisplayText": "HEMLOCK BLVD E, STRATHROY"
      },
      {
        "electoralDistricts": [
          {
            "election": null,
            "id": 50,
            "name": "Lambton—Kent—Middlesex"
          }
        ],
        "pollDivisionIds": [
          10143155
        ],
        "postalCode": "N7G4C1",
        "streetName": "HEMLOCK",
        "streetDirectionId": null,
        "streetTypeId": "BLVD",
        "placeName": "STRATHROY",
        "streetNameDisplayText": "HEMLOCK BLVD, STRATHROY"
      },
      {
        "electoralDistricts": [
          {
            "election": null,
            "id": 50,
            "name": "Lambton—Kent—Middlesex"
          }
        ],
        "pollDivisionIds": [
          10143155
        ],
        "postalCode": "N7G4C1",
        "streetName": "HICKORY",
        "streetDirectionId": "W",
        "streetTypeId": "BLVD",
        "placeName": "STRATHROY",
        "streetNameDisplayText": "HICKORY BLVD W, STRATHROY"
      },
      {
        "electoralDistricts": [
          {
            "election": null,
            "id": 50,
            "name": "Lambton—Kent—Middlesex"
          }
        ],
        "pollDivisionIds": [
          10143155,
          10143153
        ],
        "postalCode": "N7G4C1",
        "streetName": "JUNIPER",
        "streetDirectionId": null,
        "streetTypeId": "CRES",
        "placeName": "STRATHROY",
        "streetNameDisplayText": "JUNIPER CRES, STRATHROY"
      },
      {
        "electoralDistricts": [
          {
            "election": null,
            "id": 50,
            "name": "Lambton—Kent—Middlesex"
          }
        ],
        "pollDivisionIds": [
          10143155
        ],
        "postalCode": "N7G4C1",
        "streetName": "PARKVIEW",
        "streetDirectionId": null,
        "streetTypeId": "DR",
        "placeName": "STRATHROY",
        "streetNameDisplayText": "PARKVIEW DR, STRATHROY"
      },
      {
        "electoralDistricts": [
          {
            "election": null,
            "id": 50,
            "name": "Lambton—Kent—Middlesex"
          }
        ],
        "pollDivisionIds": [
          10143155
        ],
        "postalCode": "N7G4C1",
        "streetName": "WILLOW",
        "streetDirectionId": null,
        "streetTypeId": "CRES",
        "placeName": "STRATHROY",
        "streetNameDisplayText": "WILLOW CRES, STRATHROY"
      }
    ]
  },
  {
    "postal": "N7G3K2",
    "result": [
      {
        "electoralDistricts": [
          {
            "election": null,
            "id": 50,
            "name": "Lambton—Kent—Middlesex"
          }
        ],
        "pollDivisionIds": [
          10143954
        ],
        "postalCode": "N7G3K2",
        "streetName": "ROSS",
        "streetDirectionId": null,
        "streetTypeId": "LANE",
        "placeName": "STRATHROY",
        "streetNameDisplayText": "ROSS LANE, STRATHROY"
      }
    ]
  },
  {
    "postal": "N7G1Y5",
    "result": [
      {
        "electoralDistricts": [
          {
            "election": null,
            "id": 50,
            "name": "Lambton—Kent—Middlesex"
          }
        ],
        "pollDivisionIds": [
          10143155
        ],
        "postalCode": "N7G1Y5",
        "streetName": "FRONT",
        "streetDirectionId": "E",
        "streetTypeId": "ST",
        "placeName": "STRATHROY",
        "streetNameDisplayText": "FRONT ST E, STRATHROY"
      }
    ]
  },
  {
    "postal": "N7G6P6",
    "result": []
  },
  {
    "postal": "N7G3N9",
    "result": []
  },
  {
    "postal": "N7G3W2",
    "result": [
      {
        "electoralDistricts": [
          {
            "election": null,
            "id": 50,
            "name": "Lambton—Kent—Middlesex"
          }
        ],
        "pollDivisionIds": [
          10143345
        ],
        "postalCode": "N7G3W2",
        "streetName": "PARK",
        "streetDirectionId": null,
        "streetTypeId": "ST",
        "placeName": "STRATHROY",
        "streetNameDisplayText": "PARK ST, STRATHROY"
      }
    ]
  },
  {
    "postal": "N7G6H8",
    "result": []
  },
  {
    "postal": "N7G9T3",
    "result": []
  },
  {
    "postal": "N7G5L9",
    "result": []
  },
  {
    "postal": "N7G7X7",
    "result": []
  },
  {
    "postal": "N7G3J5",
    "result": []
  },
  {
    "postal": "N7G4J5",
    "result": [
      {
        "electoralDistricts": [
          {
            "election": null,
            "id": 50,
            "name": "Lambton—Kent—Middlesex"
          }
        ],
        "pollDivisionIds": [
          10143155
        ],
        "postalCode": "N7G4J5",
        "streetName": "INDUSTRIAL",
        "streetDirectionId": null,
        "streetTypeId": "RD",
        "placeName": "STRATHROY",
        "streetNameDisplayText": "INDUSTRIAL RD, STRATHROY"
      }
    ]
  },
  {
    "postal": "N7G6J2",
    "result": []
  },
  {
    "postal": "N7G5V6",
    "result": []
  },
  {
    "postal": "N7G3N2",
    "result": [
      {
        "electoralDistricts": [
          {
            "election": null,
            "id": 50,
            "name": "Lambton—Kent—Middlesex"
          }
        ],
        "pollDivisionIds": [
          10143954
        ],
        "postalCode": "N7G3N2",
        "streetName": "WESTERN",
        "streetDirectionId": null,
        "streetTypeId": "ST",
        "placeName": "STRATHROY",
        "streetNameDisplayText": "WESTERN ST, STRATHROY"
      }
    ]
  },
  {
    "postal": "N7G3B1",
    "result": [
      {
        "electoralDistricts": [
          {
            "election": null,
            "id": 50,
            "name": "Lambton—Kent—Middlesex"
          }
        ],
        "pollDivisionIds": [
          10143954
        ],
        "postalCode": "N7G3B1",
        "streetName": "VICTORIA",
        "streetDirectionId": null,
        "streetTypeId": "ST",
        "placeName": "STRATHROY",
        "streetNameDisplayText": "VICTORIA ST, STRATHROY"
      }
    ]
  },
  {
    "postal": "N7G8B5",
    "result": []
  },
  {
    "postal": "N7G0K1",
    "result": []
  },
  {
    "postal": "N7G7M7",
    "result": []
  },
  {
    "postal": "N7G2M2",
    "result": [
      {
        "electoralDistricts": [
          {
            "election": null,
            "id": 50,
            "name": "Lambton—Kent—Middlesex"
          }
        ],
        "pollDivisionIds": [
          10143153
        ],
        "postalCode": "N7G2M2",
        "streetName": "CEDAR",
        "streetDirectionId": null,
        "streetTypeId": "CRES",
        "placeName": "STRATHROY",
        "streetNameDisplayText": "CEDAR CRES, STRATHROY"
      }
    ]
  },
  {
    "postal": "N7G9N3",
    "result": []
  },
  {
    "postal": "N7G4Y8",
    "result": []
  },
  {
    "postal": "N7G3V7",
    "result": [
      {
        "electoralDistricts": [
          {
            "election": null,
            "id": 50,
            "name": "Lambton—Kent—Middlesex"
          }
        ],
        "pollDivisionIds": [
          10143345
        ],
        "postalCode": "N7G3V7",
        "streetName": "PARK",
        "streetDirectionId": null,
        "streetTypeId": "ST",
        "placeName": "STRATHROY",
        "streetNameDisplayText": "PARK ST, STRATHROY"
      }
    ]
  },
  {
    "postal": "N7G8Z1",
    "result": []
  },
  {
    "postal": "N7G7B3",
    "result": []
  },
  {
    "postal": "N7G3A8",
    "result": [
      {
        "electoralDistricts": [
          {
            "election": null,
            "id": 50,
            "name": "Lambton—Kent—Middlesex"
          }
        ],
        "pollDivisionIds": [
          10143345
        ],
        "postalCode": "N7G3A8",
        "streetName": "OAK",
        "streetDirectionId": null,
        "streetTypeId": "AVE",
        "placeName": "STRATHROY",
        "streetNameDisplayText": "OAK AVE, STRATHROY"
      }
    ]
  },
  {
    "postal": "N7G7V5",
    "result": []
  },
  {
    "postal": "N7G2T2",
    "result": [
      {
        "electoralDistricts": [
          {
            "election": null,
            "id": 50,
            "name": "Lambton—Kent—Middlesex"
          }
        ],
        "pollDivisionIds": [
          10143954
        ],
        "postalCode": "N7G2T2",
        "streetName": "THOMAS",
        "streetDirectionId": null,
        "streetTypeId": "ST",
        "placeName": "STRATHROY",
        "streetNameDisplayText": "THOMAS ST, STRATHROY"
      }
    ]
  },
  {
    "postal": "N7G6L3",
    "result": []
  },
  {
    "postal": "N7G0L2",
    "result": []
  },
  {
    "postal": "N7G5Y8",
    "result": []
  },
  {
    "postal": "N7G0B8",
    "result": []
  },
  {
    "postal": "N7G6R5",
    "result": []
  },
  {
    "postal": "N7G8W6",
    "result": []
  },
  {
    "postal": "N7G8G6",
    "result": []
  },
  {
    "postal": "N7G6X3",
    "result": []
  },
  {
    "postal": "N7G7R7",
    "result": []
  },
  {
    "postal": "N7G4B6",
    "result": [
      {
        "electoralDistricts": [
          {
            "election": null,
            "id": 50,
            "name": "Lambton—Kent—Middlesex"
          }
        ],
        "pollDivisionIds": [
          10143345
        ],
        "postalCode": "N7G4B6",
        "streetName": "DELL",
        "streetDirectionId": null,
        "streetTypeId": "DR",
        "placeName": "STRATHROY",
        "streetNameDisplayText": "DELL DR, STRATHROY"
      }
    ]
  },
  {
    "postal": "N7G3P9",
    "result": [
      {
        "electoralDistricts": [
          {
            "election": null,
            "id": 50,
            "name": "Lambton—Kent—Middlesex"
          }
        ],
        "pollDivisionIds": [
          10143155
        ],
        "postalCode": "N7G3P9",
        "streetName": "MILL POND",
        "streetDirectionId": null,
        "streetTypeId": "CRES",
        "placeName": "STRATHROY",
        "streetNameDisplayText": "MILL POND CRES, STRATHROY"
      }
    ]
  },
  {
    "postal": "N7G2T3",
    "result": [
      {
        "electoralDistricts": [
          {
            "election": null,
            "id": 50,
            "name": "Lambton—Kent—Middlesex"
          }
        ],
        "pollDivisionIds": [
          10143954
        ],
        "postalCode": "N7G2T3",
        "streetName": "THOMAS",
        "streetDirectionId": null,
        "streetTypeId": "ST",
        "placeName": "STRATHROY",
        "streetNameDisplayText": "THOMAS ST, STRATHROY"
      }
    ]
  },
  {
    "postal": "N7G1M4",
    "result": [
      {
        "electoralDistricts": [
          {
            "election": null,
            "id": 50,
            "name": "Lambton—Kent—Middlesex"
          }
        ],
        "pollDivisionIds": [
          10143155
        ],
        "postalCode": "N7G1M4",
        "streetName": "CONCORD",
        "streetDirectionId": null,
        "streetTypeId": "ST",
        "placeName": "STRATHROY",
        "streetNameDisplayText": "CONCORD ST, STRATHROY"
      }
    ]
  },
  {
    "postal": "N7G0H1",
    "result": []
  },
  {
    "postal": "N7G9W3",
    "result": []
  },
  {
    "postal": "N7G6P1",
    "result": []
  },
  {
    "postal": "N7G7G2",
    "result": []
  },
  {
    "postal": "N7G4J9",
    "result": [
      {
        "electoralDistricts": [
          {
            "election": null,
            "id": 50,
            "name": "Lambton—Kent—Middlesex"
          }
        ],
        "pollDivisionIds": [
          10143155,
          10143345
        ],
        "postalCode": "N7G4J9",
        "streetName": "RIDGE",
        "streetDirectionId": null,
        "streetTypeId": "ST",
        "placeName": "STRATHROY",
        "streetNameDisplayText": "RIDGE ST, STRATHROY"
      }
    ]
  },
  {
    "postal": "N7G9E4",
    "result": []
  },
  {
    "postal": "N7G8H0",
    "result": []
  },
  {
    "postal": "N7G4M7",
    "result": []
  },
  {
    "postal": "N7G2G9",
    "result": [
      {
        "electoralDistricts": [
          {
            "election": null,
            "id": 50,
            "name": "Lambton—Kent—Middlesex"
          }
        ],
        "pollDivisionIds": [
          10143155
        ],
        "postalCode": "N7G2G9",
        "streetName": "MOGG",
        "streetDirectionId": null,
        "streetTypeId": "ST",
        "placeName": "STRATHROY",
        "streetNameDisplayText": "MOGG ST, STRATHROY"
      }
    ]
  },
  {
    "postal": "N7G8T2",
    "result": []
  },
  {
    "postal": "N7G7G7",
    "result": []
  },
  {
    "postal": "N7G4Z3",
    "result": []
  },
  {
    "postal": "N7G5B3",
    "result": []
  },
  {
    "postal": "N7G1S7",
    "result": [
      {
        "electoralDistricts": [
          {
            "election": null,
            "id": 50,
            "name": "Lambton—Kent—Middlesex"
          }
        ],
        "pollDivisionIds": [
          10143954
        ],
        "postalCode": "N7G1S7",
        "streetName": "MAITLAND",
        "streetDirectionId": null,
        "streetTypeId": "ST",
        "placeName": "STRATHROY",
        "streetNameDisplayText": "MAITLAND ST, STRATHROY"
      }
    ]
  },
  {
    "postal": "N7G2N7",
    "result": [
      {
        "electoralDistricts": [
          {
            "election": null,
            "id": 50,
            "name": "Lambton—Kent—Middlesex"
          }
        ],
        "pollDivisionIds": [
          10143155
        ],
        "postalCode": "N7G2N7",
        "streetName": "CARADOC",
        "streetDirectionId": "S",
        "streetTypeId": "ST",
        "placeName": "STRATHROY",
        "streetNameDisplayText": "CARADOC ST S, STRATHROY"
      }
    ]
  },
  {
    "postal": "N7G0H8",
    "result": []
  },
  {
    "postal": "N7G7Z4",
    "result": []
  },
  {
    "postal": "N7G7B1",
    "result": []
  },
  {
    "postal": "N7G7P8",
    "result": []
  },
  {
    "postal": "N7G7N0",
    "result": []
  },
  {
    "postal": "N7G3Y5",
    "result": [
      {
        "electoralDistricts": [
          {
            "election": null,
            "id": 50,
            "name": "Lambton—Kent—Middlesex"
          }
        ],
        "pollDivisionIds": [
          10143345
        ],
        "postalCode": "N7G3Y5",
        "streetName": "HERITAGE",
        "streetDirectionId": null,
        "streetTypeId": "CRT",
        "placeName": "STRATHROY",
        "streetNameDisplayText": "HERITAGE CRT, STRATHROY"
      }
    ]
  },
  {
    "postal": "N7G6K1",
    "result": []
  },
  {
    "postal": "N7G9X5",
    "result": []
  },
  {
    "postal": "N7G7S5",
    "result": []
  },
  {
    "postal": "N7G0A4",
    "result": [
      {
        "electoralDistricts": [
          {
            "election": null,
            "id": 50,
            "name": "Lambton—Kent—Middlesex"
          }
        ],
        "pollDivisionIds": [
          10143153
        ],
        "postalCode": "N7G0A4",
        "streetName": "DARCY",
        "streetDirectionId": null,
        "streetTypeId": "DR",
        "placeName": "STRATHROY",
        "streetNameDisplayText": "DARCY DR, STRATHROY"
      },
      {
        "electoralDistricts": [
          {
            "election": null,
            "id": 50,
            "name": "Lambton—Kent—Middlesex"
          }
        ],
        "pollDivisionIds": [
          10143153
        ],
        "postalCode": "N7G0A4",
        "streetName": "JENNA",
        "streetDirectionId": null,
        "streetTypeId": "DR",
        "placeName": "STRATHROY",
        "streetNameDisplayText": "JENNA DR, STRATHROY"
      }
    ]
  },
  {
    "postal": "N7G4T5",
    "result": []
  },
  {
    "postal": "N7G5K1",
    "result": []
  },
  {
    "postal": "N7G0Z9",
    "result": []
  },
  {
    "postal": "N7G7T2",
    "result": []
  },
  {
    "postal": "N7G1L5",
    "result": [
      {
        "electoralDistricts": [
          {
            "election": null,
            "id": 50,
            "name": "Lambton—Kent—Middlesex"
          }
        ],
        "pollDivisionIds": [
          10143155
        ],
        "postalCode": "N7G1L5",
        "streetName": "ENGLISH",
        "streetDirectionId": null,
        "streetTypeId": "ST",
        "placeName": "STRATHROY",
        "streetNameDisplayText": "ENGLISH ST, STRATHROY"
      }
    ]
  },
  {
    "postal": "N7G3N5",
    "result": [
      {
        "electoralDistricts": [
          {
            "election": null,
            "id": 50,
            "name": "Lambton—Kent—Middlesex"
          }
        ],
        "pollDivisionIds": [
          10143345
        ],
        "postalCode": "N7G3N5",
        "streetName": "DELL",
        "streetDirectionId": null,
        "streetTypeId": "DR",
        "placeName": "STRATHROY",
        "streetNameDisplayText": "DELL DR, STRATHROY"
      }
    ]
  },
  {
    "postal": "N7G6H4",
    "result": []
  },
  {
    "postal": "N7G5A5",
    "result": []
  },
  {
    "postal": "N7G3R9",
    "result": []
  },
  {
    "postal": "N7G7L8",
    "result": []
  },
  {
    "postal": "N7G6T6",
    "result": []
  },
  {
    "postal": "N7G7Y7",
    "result": []
  },
  {
    "postal": "N7G3M8",
    "result": [
      {
        "electoralDistricts": [
          {
            "election": null,
            "id": 50,
            "name": "Lambton—Kent—Middlesex"
          }
        ],
        "pollDivisionIds": [
          10143954
        ],
        "postalCode": "N7G3M8",
        "streetName": "HELEN",
        "streetDirectionId": null,
        "streetTypeId": "DR",
        "placeName": "STRATHROY",
        "streetNameDisplayText": "HELEN DR, STRATHROY"
      }
    ]
  },
  {
    "postal": "N7G2E0",
    "result": []
  },
  {
    "postal": "N7G4B5",
    "result": [
      {
        "electoralDistricts": [
          {
            "election": null,
            "id": 50,
            "name": "Lambton—Kent—Middlesex"
          }
        ],
        "pollDivisionIds": [
          10143345
        ],
        "postalCode": "N7G4B5",
        "streetName": "DELL",
        "streetDirectionId": null,
        "streetTypeId": "CRT",
        "placeName": "STRATHROY",
        "streetNameDisplayText": "DELL CRT, STRATHROY"
      }
    ]
  },
  {
    "postal": "N7G1J3",
    "result": [
      {
        "electoralDistricts": [
          {
            "election": null,
            "id": 50,
            "name": "Lambton—Kent—Middlesex"
          }
        ],
        "pollDivisionIds": [
          10143345
        ],
        "postalCode": "N7G1J3",
        "streetName": "CAMPBELL",
        "streetDirectionId": null,
        "streetTypeId": "ST",
        "placeName": "STRATHROY",
        "streetNameDisplayText": "CAMPBELL ST, STRATHROY"
      }
    ]
  },
  {
    "postal": "N7G5S6",
    "result": []
  },
  {
    "postal": "N7G8P7",
    "result": []
  },
  {
    "postal": "N7G7S7",
    "result": []
  },
  {
    "postal": "N7G4C2",
    "result": [
      {
        "electoralDistricts": [
          {
            "election": null,
            "id": 50,
            "name": "Lambton—Kent—Middlesex"
          }
        ],
        "pollDivisionIds": [
          10143153
        ],
        "postalCode": "N7G4C2",
        "streetName": "ALLISON",
        "streetDirectionId": null,
        "streetTypeId": "CRT",
        "placeName": "STRATHROY",
        "streetNameDisplayText": "ALLISON CRT, STRATHROY"
      },
      {
        "electoralDistricts": [
          {
            "election": null,
            "id": 50,
            "name": "Lambton—Kent—Middlesex"
          }
        ],
        "pollDivisionIds": [
          10143153
        ],
        "postalCode": "N7G4C2",
        "streetName": "DEBORAH",
        "streetDirectionId": null,
        "streetTypeId": "DR",
        "placeName": "STRATHROY",
        "streetNameDisplayText": "DEBORAH DR, STRATHROY"
      },
      {
        "electoralDistricts": [
          {
            "election": null,
            "id": 50,
            "name": "Lambton—Kent—Middlesex"
          }
        ],
        "pollDivisionIds": [
          10143153
        ],
        "postalCode": "N7G4C2",
        "streetName": "THORNE",
        "streetDirectionId": null,
        "streetTypeId": "DR",
        "placeName": "STRATHROY",
        "streetNameDisplayText": "THORNE DR, STRATHROY"
      }
    ]
  },
  {
    "postal": "N7G5Y0",
    "result": []
  },
  {
    "postal": "N7G2V7",
    "result": [
      {
        "electoralDistricts": [
          {
            "election": null,
            "id": 50,
            "name": "Lambton—Kent—Middlesex"
          }
        ],
        "pollDivisionIds": [
          10143345
        ],
        "postalCode": "N7G2V7",
        "streetName": "ADELAIDE",
        "streetDirectionId": null,
        "streetTypeId": "ST",
        "placeName": "STRATHROY",
        "streetNameDisplayText": "ADELAIDE ST, STRATHROY"
      }
    ]
  },
  {
    "postal": "N7G8P5",
    "result": []
  },
  {
    "postal": "N7G5P5",
    "result": []
  },
  {
    "postal": "N7G5Z0",
    "result": []
  },
  {
    "postal": "N7G9B0",
    "result": []
  },
  {
    "postal": "N7G1L0",
    "result": []
  },
  {
    "postal": "N7G0B5",
    "result": []
  },
  {
    "postal": "N7G3L2",
    "result": [
      {
        "electoralDistricts": [
          {
            "election": null,
            "id": 50,
            "name": "Lambton—Kent—Middlesex"
          }
        ],
        "pollDivisionIds": [
          10143345
        ],
        "postalCode": "N7G3L2",
        "streetName": "VELMA",
        "streetDirectionId": null,
        "streetTypeId": "ST",
        "placeName": "STRATHROY",
        "streetNameDisplayText": "VELMA ST, STRATHROY"
      }
    ]
  },
  {
    "postal": "N7G3B7",
    "result": [
      {
        "electoralDistricts": [
          {
            "election": null,
            "id": 50,
            "name": "Lambton—Kent—Middlesex"
          }
        ],
        "pollDivisionIds": [
          10143954
        ],
        "postalCode": "N7G3B7",
        "streetName": "VICTORIA",
        "streetDirectionId": null,
        "streetTypeId": "ST",
        "placeName": "STRATHROY",
        "streetNameDisplayText": "VICTORIA ST, STRATHROY"
      }
    ]
  },
  {
    "postal": "N7G8L1",
    "result": []
  },
  {
    "postal": "N7G5M4",
    "result": []
  },
  {
    "postal": "N7G4G9",
    "result": [
      {
        "electoralDistricts": [
          {
            "election": null,
            "id": 50,
            "name": "Lambton—Kent—Middlesex"
          }
        ],
        "pollDivisionIds": [
          10143155
        ],
        "postalCode": "N7G4G9",
        "streetName": "FRANCES",
        "streetDirectionId": null,
        "streetTypeId": "ST",
        "placeName": "STRATHROY",
        "streetNameDisplayText": "FRANCES ST, STRATHROY"
      }
    ]
  },
  {
    "postal": "N7G0P0",
    "result": []
  },
  {
    "postal": "N7G8G2",
    "result": []
  },
  {
    "postal": "N7G1V9",
    "result": [
      {
        "electoralDistricts": [
          {
            "election": null,
            "id": 50,
            "name": "Lambton—Kent—Middlesex"
          }
        ],
        "pollDivisionIds": [
          10143954
        ],
        "postalCode": "N7G1V9",
        "streetName": "ALBERT",
        "streetDirectionId": null,
        "streetTypeId": "ST",
        "placeName": "STRATHROY",
        "streetNameDisplayText": "ALBERT ST, STRATHROY"
      }
    ]
  },
  {
    "postal": "N7G8N8",
    "result": []
  },
  {
    "postal": "N7G6S8",
    "result": []
  },
  {
    "postal": "N7G8H2",
    "result": []
  },
  {
    "postal": "N7G5R8",
    "result": []
  },
  {
    "postal": "N7G5L4",
    "result": []
  },
  {
    "postal": "N7G9E1",
    "result": []
  },
  {
    "postal": "N7G1C4",
    "result": [
      {
        "electoralDistricts": [
          {
            "election": null,
            "id": 50,
            "name": "Lambton—Kent—Middlesex"
          }
        ],
        "pollDivisionIds": [
          10143155
        ],
        "postalCode": "N7G1C4",
        "streetName": "BELLA",
        "streetDirectionId": null,
        "streetTypeId": "ST",
        "placeName": "STRATHROY",
        "streetNameDisplayText": "BELLA ST, STRATHROY"
      }
    ]
  },
  {
    "postal": "N7G8W5",
    "result": []
  },
  {
    "postal": "N7G1Y4",
    "result": [
      {
        "electoralDistricts": [
          {
            "election": null,
            "id": 50,
            "name": "Lambton—Kent—Middlesex"
          }
        ],
        "pollDivisionIds": [
          10143155
        ],
        "postalCode": "N7G1Y4",
        "streetName": "FRONT",
        "streetDirectionId": "E",
        "streetTypeId": "ST",
        "placeName": "STRATHROY",
        "streetNameDisplayText": "FRONT ST E, STRATHROY"
      }
    ]
  },
  {
    "postal": "N7G1C0",
    "result": []
  },
  {
    "postal": "N7G2J2",
    "result": [
      {
        "electoralDistricts": [
          {
            "election": null,
            "id": 50,
            "name": "Lambton—Kent—Middlesex"
          }
        ],
        "pollDivisionIds": [
          10143155
        ],
        "postalCode": "N7G2J2",
        "streetName": "QUEEN",
        "streetDirectionId": null,
        "streetTypeId": "ST",
        "placeName": "STRATHROY",
        "streetNameDisplayText": "QUEEN ST, STRATHROY"
      }
    ]
  },
  {
    "postal": "N7G2J0",
    "result": []
  },
  {
    "postal": "N7G7A3",
    "result": []
  },
  {
    "postal": "N7G8M1",
    "result": []
  },
  {
    "postal": "N7G7T9",
    "result": []
  },
  {
    "postal": "N7G6C0",
    "result": []
  },
  {
    "postal": "N7G7X1",
    "result": []
  },
  {
    "postal": "N7G0G1",
    "result": [
      {
        "electoralDistricts": [
          {
            "election": null,
            "id": 50,
            "name": "Lambton—Kent—Middlesex"
          }
        ],
        "pollDivisionIds": [
          10143155,
          10143153
        ],
        "postalCode": "N7G0G1",
        "streetName": "ELLOR",
        "streetDirectionId": null,
        "streetTypeId": "ST",
        "placeName": "STRATHROY",
        "streetNameDisplayText": "ELLOR ST, STRATHROY"
      }
    ]
  },
  {
    "postal": "N7G4X2",
    "result": []
  },
  {
    "postal": "N7G0N6",
    "result": []
  },
  {
    "postal": "N7G8E3",
    "result": []
  },
  {
    "postal": "N7G5S8",
    "result": []
  },
  {
    "postal": "N7G0R0",
    "result": []
  },
  {
    "postal": "N7G6J6",
    "result": []
  },
  {
    "postal": "N7G4B4",
    "result": [
      {
        "electoralDistricts": [
          {
            "election": null,
            "id": 50,
            "name": "Lambton—Kent—Middlesex"
          }
        ],
        "pollDivisionIds": [
          10143153
        ],
        "postalCode": "N7G4B4",
        "streetName": "RIVERVIEW",
        "streetDirectionId": null,
        "streetTypeId": "DR",
        "placeName": "STRATHROY",
        "streetNameDisplayText": "RIVERVIEW DR, STRATHROY"
      }
    ]
  },
  {
    "postal": "N7G7E3",
    "result": []
  },
  {
    "postal": "N7G3N6",
    "result": [
      {
        "electoralDistricts": [
          {
            "election": null,
            "id": 50,
            "name": "Lambton—Kent—Middlesex"
          }
        ],
        "pollDivisionIds": [
          10143954
        ],
        "postalCode": "N7G3N6",
        "streetName": "ROSS",
        "streetDirectionId": null,
        "streetTypeId": "LANE",
        "placeName": "STRATHROY",
        "streetNameDisplayText": "ROSS LANE, STRATHROY"
      },
      {
        "electoralDistricts": [
          {
            "election": null,
            "id": 50,
            "name": "Lambton—Kent—Middlesex"
          }
        ],
        "pollDivisionIds": [
          10143954
        ],
        "postalCode": "N7G3N6",
        "streetName": "ROSS",
        "streetDirectionId": null,
        "streetTypeId": "ST",
        "placeName": "STRATHROY",
        "streetNameDisplayText": "ROSS ST, STRATHROY"
      }
    ]
  },
  {
    "postal": "N7G3X6",
    "result": [
      {
        "electoralDistricts": [
          {
            "election": null,
            "id": 50,
            "name": "Lambton—Kent—Middlesex"
          }
        ],
        "pollDivisionIds": [
          10143954
        ],
        "postalCode": "N7G3X6",
        "streetName": "ELGIN",
        "streetDirectionId": null,
        "streetTypeId": "PL",
        "placeName": "STRATHROY",
        "streetNameDisplayText": "ELGIN PL, STRATHROY"
      },
      {
        "electoralDistricts": [
          {
            "election": null,
            "id": 50,
            "name": "Lambton—Kent—Middlesex"
          }
        ],
        "pollDivisionIds": [
          10143954
        ],
        "postalCode": "N7G3X6",
        "streetName": "ELGIN PLACE",
        "streetDirectionId": null,
        "streetTypeId": "PL",
        "placeName": "STRATHROY",
        "streetNameDisplayText": "ELGIN PLACE PL, STRATHROY"
      }
    ]
  },
  {
    "postal": "N7G8L0",
    "result": []
  },
  {
    "postal": "N7G8N1",
    "result": []
  },
  {
    "postal": "N7G4J0",
    "result": []
  },
  {
    "postal": "N7G0X7",
    "result": []
  },
  {
    "postal": "N7G6S4",
    "result": []
  },
  {
    "postal": "N7G0Z0",
    "result": []
  },
  {
    "postal": "N7G9X8",
    "result": []
  },
  {
    "postal": "N7G3H3",
    "result": [
      {
        "electoralDistricts": [
          {
            "election": null,
            "id": 50,
            "name": "Lambton—Kent—Middlesex"
          }
        ],
        "pollDivisionIds": [
          10143155
        ],
        "postalCode": "N7G3H3",
        "streetName": "ABERDEEN",
        "streetDirectionId": null,
        "streetTypeId": "RD",
        "placeName": "STRATHROY",
        "streetNameDisplayText": "ABERDEEN RD, STRATHROY"
      },
      {
        "electoralDistricts": [
          {
            "election": null,
            "id": 50,
            "name": "Lambton—Kent—Middlesex"
          }
        ],
        "pollDivisionIds": [
          10143155
        ],
        "postalCode": "N7G3H3",
        "streetName": "AMIENS",
        "streetDirectionId": null,
        "streetTypeId": "RD",
        "placeName": "STRATHROY",
        "streetNameDisplayText": "AMIENS RD, STRATHROY"
      },
      {
        "electoralDistricts": [
          {
            "election": null,
            "id": 50,
            "name": "Lambton—Kent—Middlesex"
          }
        ],
        "pollDivisionIds": [
          10143155
        ],
        "postalCode": "N7G3H3",
        "streetName": "CARROLL",
        "streetDirectionId": "E",
        "streetTypeId": "ST",
        "placeName": "STRATHROY",
        "streetNameDisplayText": "CARROLL ST E, STRATHROY"
      },
      {
        "electoralDistricts": [
          {
            "election": null,
            "id": 50,
            "name": "Lambton—Kent—Middlesex"
          }
        ],
        "pollDivisionIds": [
          10143155
        ],
        "postalCode": "N7G3H3",
        "streetName": "EGREMONT",
        "streetDirectionId": null,
        "streetTypeId": "DR",
        "placeName": "STRATHROY",
        "streetNameDisplayText": "EGREMONT DR, STRATHROY"
      },
      {
        "electoralDistricts": [
          {
            "election": null,
            "id": 50,
            "name": "Lambton—Kent—Middlesex"
          }
        ],
        "pollDivisionIds": [
          10143155
        ],
        "postalCode": "N7G3H3",
        "streetName": "GLENGYLE",
        "streetDirectionId": null,
        "streetTypeId": "DR",
        "placeName": "STRATHROY",
        "streetNameDisplayText": "GLENGYLE DR, STRATHROY"
      },
      {
        "electoralDistricts": [
          {
            "election": null,
            "id": 50,
            "name": "Lambton—Kent—Middlesex"
          }
        ],
        "pollDivisionIds": [
          10143155
        ],
        "postalCode": "N7G3H3",
        "streetName": "HEDLEY",
        "streetDirectionId": null,
        "streetTypeId": "DR",
        "placeName": "STRATHROY",
        "streetNameDisplayText": "HEDLEY DR, STRATHROY"
      },
      {
        "electoralDistricts": [
          {
            "election": null,
            "id": 50,
            "name": "Lambton—Kent—Middlesex"
          }
        ],
        "pollDivisionIds": [
          10143155,
          10143153
        ],
        "postalCode": "N7G3H3",
        "streetName": "HICKORY",
        "streetDirectionId": null,
        "streetTypeId": "DR",
        "placeName": "STRATHROY",
        "streetNameDisplayText": "HICKORY DR, STRATHROY"
      },
      {
        "electoralDistricts": [
          {
            "election": null,
            "id": 50,
            "name": "Lambton—Kent—Middlesex"
          }
        ],
        "pollDivisionIds": [
          10143155
        ],
        "postalCode": "N7G3H3",
        "streetName": "MCEVOY",
        "streetDirectionId": null,
        "streetTypeId": "RD",
        "placeName": "STRATHROY",
        "streetNameDisplayText": "MCEVOY RD, STRATHROY"
      },
      {
        "electoralDistricts": [
          {
            "election": null,
            "id": 50,
            "name": "Lambton—Kent—Middlesex"
          }
        ],
        "pollDivisionIds": [
          10143155,
          10143345
        ],
        "postalCode": "N7G3H3",
        "streetName": "SAXTON",
        "streetDirectionId": null,
        "streetTypeId": "RD",
        "placeName": "STRATHROY",
        "streetNameDisplayText": "SAXTON RD, STRATHROY"
      },
      {
        "electoralDistricts": [
          {
            "election": null,
            "id": 50,
            "name": "Lambton—Kent—Middlesex"
          }
        ],
        "pollDivisionIds": [
          10143155,
          10143345
        ],
        "postalCode": "N7G3H3",
        "streetName": "SCOTCHMERE",
        "streetDirectionId": null,
        "streetTypeId": "DR",
        "placeName": "STRATHROY",
        "streetNameDisplayText": "SCOTCHMERE DR, STRATHROY"
      },
      {
        "electoralDistricts": [
          {
            "election": null,
            "id": 50,
            "name": "Lambton—Kent—Middlesex"
          }
        ],
        "pollDivisionIds": [
          10143155
        ],
        "postalCode": "N7G3H3",
        "streetName": "SCOTCHMERE",
        "streetDirectionId": null,
        "streetTypeId": "RD",
        "placeName": "STRATHROY",
        "streetNameDisplayText": "SCOTCHMERE RD, STRATHROY"
      },
      {
        "electoralDistricts": [
          {
            "election": null,
            "id": 50,
            "name": "Lambton—Kent—Middlesex"
          }
        ],
        "pollDivisionIds": [
          10143155
        ],
        "postalCode": "N7G3H3",
        "streetName": "SKINNER",
        "streetDirectionId": null,
        "streetTypeId": "DR",
        "placeName": "STRATHROY",
        "streetNameDisplayText": "SKINNER DR, STRATHROY"
      },
      {
        "electoralDistricts": [
          {
            "election": null,
            "id": 50,
            "name": "Lambton—Kent—Middlesex"
          }
        ],
        "pollDivisionIds": [
          10143155
        ],
        "postalCode": "N7G3H3",
        "streetName": "WALKERS",
        "streetDirectionId": null,
        "streetTypeId": "DR",
        "placeName": "STRATHROY",
        "streetNameDisplayText": "WALKERS DR, STRATHROY"
      }
    ]
  },
  {
    "postal": "N7G7S2",
    "result": []
  },
  {
    "postal": "N7G3T3",
    "result": [
      {
        "electoralDistricts": [
          {
            "election": null,
            "id": 50,
            "name": "Lambton—Kent—Middlesex"
          }
        ],
        "pollDivisionIds": [
          10143954,
          10143155
        ],
        "postalCode": "N7G3T3",
        "streetName": "DOMINION",
        "streetDirectionId": null,
        "streetTypeId": "ST",
        "placeName": "STRATHROY",
        "streetNameDisplayText": "DOMINION ST, STRATHROY"
      }
    ]
  },
  {
    "postal": "N7G9P3",
    "result": []
  },
  {
    "postal": "N7G4H8",
    "result": [
      {
        "electoralDistricts": [
          {
            "election": null,
            "id": 50,
            "name": "Lambton—Kent—Middlesex"
          }
        ],
        "pollDivisionIds": [
          10143153
        ],
        "postalCode": "N7G4H8",
        "streetName": "DERUITER",
        "streetDirectionId": null,
        "streetTypeId": "DR",
        "placeName": "STRATHROY",
        "streetNameDisplayText": "DERUITER DR, STRATHROY"
      },
      {
        "electoralDistricts": [
          {
            "election": null,
            "id": 50,
            "name": "Lambton—Kent—Middlesex"
          }
        ],
        "pollDivisionIds": [
          10143153
        ],
        "postalCode": "N7G4H8",
        "streetName": "ELM",
        "streetDirectionId": null,
        "streetTypeId": "WAY",
        "placeName": "STRATHROY",
        "streetNameDisplayText": "ELM WAY, STRATHROY"
      },
      {
        "electoralDistricts": [
          {
            "election": null,
            "id": 50,
            "name": "Lambton—Kent—Middlesex"
          }
        ],
        "pollDivisionIds": [
          10143153
        ],
        "postalCode": "N7G4H8",
        "streetName": "PINETREE",
        "streetDirectionId": null,
        "streetTypeId": "LANE",
        "placeName": "STRATHROY",
        "streetNameDisplayText": "PINETREE LANE, STRATHROY"
      }
    ]
  },
  {
    "postal": "N7G6R1",
    "result": []
  },
  {
    "postal": "N7G1S0",
    "result": []
  },
  {
    "postal": "N7G3W8",
    "result": [
      {
        "electoralDistricts": [
          {
            "election": null,
            "id": 50,
            "name": "Lambton—Kent—Middlesex"
          }
        ],
        "pollDivisionIds": [
          10143155
        ],
        "postalCode": "N7G3W8",
        "streetName": "ROSEWOOD",
        "streetDirectionId": null,
        "streetTypeId": "CRT",
        "placeName": "STRATHROY",
        "streetNameDisplayText": "ROSEWOOD CRT, STRATHROY"
      }
    ]
  },
  {
    "postal": "N7G4S3",
    "result": []
  },
  {
    "postal": "N7G1B6",
    "result": [
      {
        "electoralDistricts": [
          {
            "election": null,
            "id": 50,
            "name": "Lambton—Kent—Middlesex"
          }
        ],
        "pollDivisionIds": [
          10143345
        ],
        "postalCode": "N7G1B6",
        "streetName": "ONTARIO",
        "streetDirectionId": "W",
        "streetTypeId": "ST",
        "placeName": "STRATHROY",
        "streetNameDisplayText": "ONTARIO ST W, STRATHROY"
      }
    ]
  },
  {
    "postal": "N7G8R3",
    "result": []
  },
  {
    "postal": "N7G4V9",
    "result": []
  },
  {
    "postal": "N7G9W4",
    "result": []
  },
  {
    "postal": "N7G3T4",
    "result": [
      {
        "electoralDistricts": [
          {
            "election": null,
            "id": 50,
            "name": "Lambton—Kent—Middlesex"
          }
        ],
        "pollDivisionIds": [
          10143954
        ],
        "postalCode": "N7G3T4",
        "streetName": "DRURY",
        "streetDirectionId": null,
        "streetTypeId": "LANE",
        "placeName": "STRATHROY",
        "streetNameDisplayText": "DRURY LANE, STRATHROY"
      }
    ]
  },
  {
    "postal": "N7G5C7",
    "result": []
  },
  {
    "postal": "N7G3Y1",
    "result": [
      {
        "electoralDistricts": [
          {
            "election": null,
            "id": 50,
            "name": "Lambton—Kent—Middlesex"
          }
        ],
        "pollDivisionIds": [
          10143345
        ],
        "postalCode": "N7G3Y1",
        "streetName": "PEARSON",
        "streetDirectionId": null,
        "streetTypeId": "AVE",
        "placeName": "STRATHROY",
        "streetNameDisplayText": "PEARSON AVE, STRATHROY"
      }
    ]
  },
  {
    "postal": "N7G5V0",
    "result": []
  },
  {
    "postal": "N7G8G8",
    "result": []
  },
  {
    "postal": "N7G8B1",
    "result": []
  },
  {
    "postal": "N7G4P5",
    "result": []
  },
  {
    "postal": "N7G7B2",
    "result": []
  },
  {
    "postal": "N7G0R2",
    "result": []
  },
  {
    "postal": "N7G4M4",
    "result": []
  },
  {
    "postal": "N7G7M4",
    "result": []
  },
  {
    "postal": "N7G9S7",
    "result": []
  },
  {
    "postal": "N7G5Z7",
    "result": []
  },
  {
    "postal": "N7G7J7",
    "result": []
  },
  {
    "postal": "N7G8R8",
    "result": []
  },
  {
    "postal": "N7G9X1",
    "result": []
  },
  {
    "postal": "N7G5M9",
    "result": []
  },
  {
    "postal": "N7G9B4",
    "result": []
  },
  {
    "postal": "N7G0L9",
    "result": []
  },
  {
    "postal": "N7G9G4",
    "result": []
  },
  {
    "postal": "N7G1J4",
    "result": [
      {
        "electoralDistricts": [
          {
            "election": null,
            "id": 50,
            "name": "Lambton—Kent—Middlesex"
          }
        ],
        "pollDivisionIds": [
          10143345
        ],
        "postalCode": "N7G1J4",
        "streetName": "SCOTT",
        "streetDirectionId": "W",
        "streetTypeId": "ST",
        "placeName": "STRATHROY",
        "streetNameDisplayText": "SCOTT ST W, STRATHROY"
      }
    ]
  },
  {
    "postal": "N7G0W6",
    "result": []
  }
]
