[
  {
    "postal": "L2N9J6",
    "result": []
  },
  {
    "postal": "L2N9Z5",
    "result": []
  },
  {
    "postal": "L2N7H8",
    "result": [
      {
        "electoralDistricts": [
          {
            "election": null,
            "id": 90,
            "name": "St. Catharines"
          }
        ],
        "pollDivisionIds": [
          10141339
        ],
        "postalCode": "L2N7H8",
        "streetName": "ONTARIO",
        "streetDirectionId": null,
        "streetTypeId": "ST",
        "placeName": "ST CATHARINES",
        "streetNameDisplayText": "ONTARIO ST, ST CATHARINES"
      }
    ]
  },
  {
    "postal": "L2N0P6",
    "result": []
  },
  {
    "postal": "L2N0S7",
    "result": []
  },
  {
    "postal": "L2N8B9",
    "result": []
  },
  {
    "postal": "L2N2A6",
    "result": [
      {
        "electoralDistricts": [
          {
            "election": null,
            "id": 90,
            "name": "St. Catharines"
          }
        ],
        "pollDivisionIds": [
          10141340
        ],
        "postalCode": "L2N2A6",
        "streetName": "FORSTER",
        "streetDirectionId": null,
        "streetTypeId": "ST",
        "placeName": "ST CATHARINES",
        "streetNameDisplayText": "FORSTER ST, ST CATHARINES"
      }
    ]
  },
  {
    "postal": "L2N7V2",
    "result": []
  },
  {
    "postal": "L2N9P4",
    "result": []
  },
  {
    "postal": "L2N6G0",
    "result": []
  },
  {
    "postal": "L2N2K0",
    "result": []
  },
  {
    "postal": "L2N7N6",
    "result": [
      {
        "electoralDistricts": [
          {
            "election": null,
            "id": 90,
            "name": "St. Catharines"
          }
        ],
        "pollDivisionIds": [
          10141343
        ],
        "postalCode": "L2N7N6",
        "streetName": "ONTARIO",
        "streetDirectionId": null,
        "streetTypeId": "ST",
        "placeName": "ST CATHARINES",
        "streetNameDisplayText": "ONTARIO ST, ST CATHARINES"
      }
    ]
  },
  {
    "postal": "L2N5R3",
    "result": [
      {
        "electoralDistricts": [
          {
            "election": null,
            "id": 90,
            "name": "St. Catharines"
          }
        ],
        "pollDivisionIds": [
          10141344
        ],
        "postalCode": "L2N5R3",
        "streetName": "SHERMAN",
        "streetDirectionId": null,
        "streetTypeId": "DR",
        "placeName": "ST CATHARINES",
        "streetNameDisplayText": "SHERMAN DR, ST CATHARINES"
      }
    ]
  },
  {
    "postal": "L2N7K0",
    "result": []
  },
  {
    "postal": "L2N3R2",
    "result": [
      {
        "electoralDistricts": [
          {
            "election": null,
            "id": 90,
            "name": "St. Catharines"
          }
        ],
        "pollDivisionIds": [
          10141334
        ],
        "postalCode": "L2N3R2",
        "streetName": "SPRING GARDEN",
        "streetDirectionId": null,
        "streetTypeId": "BLVD",
        "placeName": "ST CATHARINES",
        "streetNameDisplayText": "SPRING GARDEN BLVD, ST CATHARINES"
      }
    ]
  },
  {
    "postal": "L2N0J1",
    "result": []
  },
  {
    "postal": "L2N0B0",
    "result": []
  },
  {
    "postal": "L2N5Z2",
    "result": [
      {
        "electoralDistricts": [
          {
            "election": null,
            "id": 90,
            "name": "St. Catharines"
          }
        ],
        "pollDivisionIds": [
          10141334
        ],
        "postalCode": "L2N5Z2",
        "streetName": "BAYRIDGE",
        "streetDirectionId": null,
        "streetTypeId": "COVE",
        "placeName": "ST CATHARINES",
        "streetNameDisplayText": "BAYRIDGE COVE, ST CATHARINES"
      }
    ]
  },
  {
    "postal": "L2N7P3",
    "result": [
      {
        "electoralDistricts": [
          {
            "election": null,
            "id": 90,
            "name": "St. Catharines"
          }
        ],
        "pollDivisionIds": [
          10141343
        ],
        "postalCode": "L2N7P3",
        "streetName": "ST HELENA",
        "streetDirectionId": null,
        "streetTypeId": "ST",
        "placeName": "ST CATHARINES",
        "streetNameDisplayText": "ST HELENA ST, ST CATHARINES"
      },
      {
        "electoralDistricts": [
          {
            "election": null,
            "id": 90,
            "name": "St. Catharines"
          }
        ],
        "pollDivisionIds": [
          10141343
        ],
        "postalCode": "L2N7P3",
        "streetName": "ST. HELENA",
        "streetDirectionId": null,
        "streetTypeId": "ST",
        "placeName": "ST CATHARINES",
        "streetNameDisplayText": "ST. HELENA ST, ST CATHARINES"
      }
    ]
  },
  {
    "postal": "L2N2K3",
    "result": [
      {
        "electoralDistricts": [
          {
            "election": null,
            "id": 90,
            "name": "St. Catharines"
          }
        ],
        "pollDivisionIds": [
          10141344
        ],
        "postalCode": "L2N2K3",
        "streetName": "RAMSEY",
        "streetDirectionId": null,
        "streetTypeId": "ST",
        "placeName": "ST CATHARINES",
        "streetNameDisplayText": "RAMSEY ST, ST CATHARINES"
      }
    ]
  },
  {
    "postal": "L2N7Y6",
    "result": []
  },
  {
    "postal": "L2N1L9",
    "result": [
      {
        "electoralDistricts": [
          {
            "election": null,
            "id": 90,
            "name": "St. Catharines"
          }
        ],
        "pollDivisionIds": [
          10141344
        ],
        "postalCode": "L2N1L9",
        "streetName": "ARRAN",
        "streetDirectionId": null,
        "streetTypeId": "DR",
        "placeName": "ST CATHARINES",
        "streetNameDisplayText": "ARRAN DR, ST CATHARINES"
      }
    ]
  },
  {
    "postal": "L2N8T0",
    "result": []
  },
  {
    "postal": "L2N3K8",
    "result": [
      {
        "electoralDistricts": [
          {
            "election": null,
            "id": 90,
            "name": "St. Catharines"
          }
        ],
        "pollDivisionIds": [
          10141336
        ],
        "postalCode": "L2N3K8",
        "streetName": "BRISBANE",
        "streetDirectionId": null,
        "streetTypeId": "GLEN",
        "placeName": "ST CATHARINES",
        "streetNameDisplayText": "BRISBANE GLEN, ST CATHARINES"
      }
    ]
  },
  {
    "postal": "L2N5W9",
    "result": [
      {
        "electoralDistricts": [
          {
            "election": null,
            "id": 90,
            "name": "St. Catharines"
          }
        ],
        "pollDivisionIds": [
          10141334
        ],
        "postalCode": "L2N5W9",
        "streetName": "WESTGATE PARK",
        "streetDirectionId": null,
        "streetTypeId": "DR",
        "placeName": "ST CATHARINES",
        "streetNameDisplayText": "WESTGATE PARK DR, ST CATHARINES"
      }
    ]
  },
  {
    "postal": "L2N6T9",
    "result": [
      {
        "electoralDistricts": [
          {
            "election": null,
            "id": 90,
            "name": "St. Catharines"
          }
        ],
        "pollDivisionIds": [
          10141334
        ],
        "postalCode": "L2N6T9",
        "streetName": "WENDOVER",
        "streetDirectionId": null,
        "streetTypeId": "PL",
        "placeName": "ST CATHARINES",
        "streetNameDisplayText": "WENDOVER PL, ST CATHARINES"
      }
    ]
  },
  {
    "postal": "L2N4H1",
    "result": [
      {
        "electoralDistricts": [
          {
            "election": null,
            "id": 90,
            "name": "St. Catharines"
          }
        ],
        "pollDivisionIds": [
          10141344
        ],
        "postalCode": "L2N4H1",
        "streetName": "LAKE",
        "streetDirectionId": null,
        "streetTypeId": "ST",
        "placeName": "ST CATHARINES",
        "streetNameDisplayText": "LAKE ST, ST CATHARINES"
      }
    ]
  },
  {
    "postal": "L2N7A2",
    "result": [
      {
        "electoralDistricts": [
          {
            "election": null,
            "id": 90,
            "name": "St. Catharines"
          }
        ],
        "pollDivisionIds": [
          10141338,
          10141339
        ],
        "postalCode": "L2N7A2",
        "streetName": "PORT MASTER",
        "streetDirectionId": null,
        "streetTypeId": "DR",
        "placeName": "ST CATHARINES",
        "streetNameDisplayText": "PORT MASTER DR, ST CATHARINES"
      }
    ]
  },
  {
    "postal": "L2N5G0",
    "result": []
  },
  {
    "postal": "L2N8V5",
    "result": []
  },
  {
    "postal": "L2N2Y8",
    "result": [
      {
        "electoralDistricts": [
          {
            "election": null,
            "id": 90,
            "name": "St. Catharines"
          }
        ],
        "pollDivisionIds": [
          10141335
        ],
        "postalCode": "L2N2Y8",
        "streetName": "MORNINGSIDE",
        "streetDirectionId": null,
        "streetTypeId": "DR",
        "placeName": "ST CATHARINES",
        "streetNameDisplayText": "MORNINGSIDE DR, ST CATHARINES"
      }
    ]
  },
  {
    "postal": "L2N2B6",
    "result": [
      {
        "electoralDistricts": [
          {
            "election": null,
            "id": 90,
            "name": "St. Catharines"
          }
        ],
        "pollDivisionIds": [
          10141345
        ],
        "postalCode": "L2N2B6",
        "streetName": "LOGAN",
        "streetDirectionId": null,
        "streetTypeId": "ST",
        "placeName": "ST CATHARINES",
        "streetNameDisplayText": "LOGAN ST, ST CATHARINES"
      }
    ]
  },
  {
    "postal": "L2N4W8",
    "result": [
      {
        "electoralDistricts": [
          {
            "election": null,
            "id": 90,
            "name": "St. Catharines"
          }
        ],
        "pollDivisionIds": [
          10141338
        ],
        "postalCode": "L2N4W8",
        "streetName": "DALHOUSIE",
        "streetDirectionId": null,
        "streetTypeId": "AVE",
        "placeName": "ST CATHARINES",
        "streetNameDisplayText": "DALHOUSIE AVE, ST CATHARINES"
      }
    ]
  },
  {
    "postal": "L2N8H7",
    "result": []
  },
  {
    "postal": "L2N5P1",
    "result": [
      {
        "electoralDistricts": [
          {
            "election": null,
            "id": 90,
            "name": "St. Catharines"
          }
        ],
        "pollDivisionIds": [
          10141340
        ],
        "postalCode": "L2N5P1",
        "streetName": "TRACEY",
        "streetDirectionId": null,
        "streetTypeId": "RD",
        "placeName": "ST CATHARINES",
        "streetNameDisplayText": "TRACEY RD, ST CATHARINES"
      }
    ]
  },
  {
    "postal": "L2N2B8",
    "result": [
      {
        "electoralDistricts": [
          {
            "election": null,
            "id": 90,
            "name": "St. Catharines"
          }
        ],
        "pollDivisionIds": [
          10141344
        ],
        "postalCode": "L2N2B8",
        "streetName": "ELSE",
        "streetDirectionId": null,
        "streetTypeId": "ST",
        "placeName": "ST CATHARINES",
        "streetNameDisplayText": "ELSE ST, ST CATHARINES"
      }
    ]
  },
  {
    "postal": "L2N0P2",
    "result": []
  },
  {
    "postal": "L2N9M1",
    "result": []
  },
  {
    "postal": "L2N3G0",
    "result": []
  },
  {
    "postal": "L2N9Z2",
    "result": []
  },
  {
    "postal": "L2N2A0",
    "result": []
  },
  {
    "postal": "L2N6Y0",
    "result": []
  },
  {
    "postal": "L2N2Z8",
    "result": [
      {
        "electoralDistricts": [
          {
            "election": null,
            "id": 90,
            "name": "St. Catharines"
          }
        ],
        "pollDivisionIds": [
          10141336
        ],
        "postalCode": "L2N2Z8",
        "streetName": "GLENVIEW",
        "streetDirectionId": null,
        "streetTypeId": "AVE",
        "placeName": "ST CATHARINES",
        "streetNameDisplayText": "GLENVIEW AVE, ST CATHARINES"
      }
    ]
  },
  {
    "postal": "L2N7Y3",
    "result": []
  },
  {
    "postal": "L2N6Z5",
    "result": []
  },
  {
    "postal": "L2N6E0",
    "result": []
  },
  {
    "postal": "L2N9B7",
    "result": []
  },
  {
    "postal": "L2N9S5",
    "result": []
  },
  {
    "postal": "L2N3X3",
    "result": [
      {
        "electoralDistricts": [
          {
            "election": null,
            "id": 90,
            "name": "St. Catharines"
          }
        ],
        "pollDivisionIds": [
          10141335
        ],
        "postalCode": "L2N3X3",
        "streetName": "HOWARD",
        "streetDirectionId": null,
        "streetTypeId": "AVE",
        "placeName": "ST CATHARINES",
        "streetNameDisplayText": "HOWARD AVE, ST CATHARINES"
      }
    ]
  },
  {
    "postal": "L2N7R5",
    "result": [
      {
        "electoralDistricts": [
          {
            "election": null,
            "id": 90,
            "name": "St. Catharines"
          }
        ],
        "pollDivisionIds": [
          10141343
        ],
        "postalCode": "L2N7R5",
        "streetName": "SCOTT",
        "streetDirectionId": null,
        "streetTypeId": "ST",
        "placeName": "ST CATHARINES",
        "streetNameDisplayText": "SCOTT ST, ST CATHARINES"
      }
    ]
  },
  {
    "postal": "L2N2X3",
    "result": [
      {
        "electoralDistricts": [
          {
            "election": null,
            "id": 90,
            "name": "St. Catharines"
          }
        ],
        "pollDivisionIds": [
          10141336
        ],
        "postalCode": "L2N2X3",
        "streetName": "EDGEWOOD",
        "streetDirectionId": null,
        "streetTypeId": "RD",
        "placeName": "ST CATHARINES",
        "streetNameDisplayText": "EDGEWOOD RD, ST CATHARINES"
      }
    ]
  },
  {
    "postal": "L2N8Z9",
    "result": []
  },
  {
    "postal": "L2N0N4",
    "result": []
  },
  {
    "postal": "L2N1K1",
    "result": [
      {
        "electoralDistricts": [
          {
            "election": null,
            "id": 90,
            "name": "St. Catharines"
          }
        ],
        "pollDivisionIds": [
          10141344
        ],
        "postalCode": "L2N1K1",
        "streetName": "EDWARD",
        "streetDirectionId": null,
        "streetTypeId": "AVE",
        "placeName": "ST CATHARINES",
        "streetNameDisplayText": "EDWARD AVE, ST CATHARINES"
      }
    ]
  },
  {
    "postal": "L2N1S3",
    "result": [
      {
        "electoralDistricts": [
          {
            "election": null,
            "id": 90,
            "name": "St. Catharines"
          }
        ],
        "pollDivisionIds": [
          10141344
        ],
        "postalCode": "L2N1S3",
        "streetName": "LINWELL",
        "streetDirectionId": null,
        "streetTypeId": "RD",
        "placeName": "ST CATHARINES",
        "streetNameDisplayText": "LINWELL RD, ST CATHARINES"
      }
    ]
  },
  {
    "postal": "L2N6M4",
    "result": [
      {
        "electoralDistricts": [
          {
            "election": null,
            "id": 90,
            "name": "St. Catharines"
          }
        ],
        "pollDivisionIds": [
          10141340
        ],
        "postalCode": "L2N6M4",
        "streetName": "JEANETTE",
        "streetDirectionId": null,
        "streetTypeId": "DR",
        "placeName": "ST CATHARINES",
        "streetNameDisplayText": "JEANETTE DR, ST CATHARINES"
      }
    ]
  },
  {
    "postal": "L2N9A9",
    "result": []
  },
  {
    "postal": "L2N9Z9",
    "result": []
  },
  {
    "postal": "L2N6T4",
    "result": [
      {
        "electoralDistricts": [
          {
            "election": null,
            "id": 90,
            "name": "St. Catharines"
          }
        ],
        "pollDivisionIds": [
          10141345
        ],
        "postalCode": "L2N6T4",
        "streetName": "SCOTT",
        "streetDirectionId": null,
        "streetTypeId": "ST",
        "placeName": "ST CATHARINES",
        "streetNameDisplayText": "SCOTT ST, ST CATHARINES"
      }
    ]
  },
  {
    "postal": "L2N0B2",
    "result": []
  },
  {
    "postal": "L2N2L9",
    "result": [
      {
        "electoralDistricts": [
          {
            "election": null,
            "id": 90,
            "name": "St. Catharines"
          }
        ],
        "pollDivisionIds": [
          10141344
        ],
        "postalCode": "L2N2L9",
        "streetName": "SHERMAN",
        "streetDirectionId": null,
        "streetTypeId": "DR",
        "placeName": "ST CATHARINES",
        "streetNameDisplayText": "SHERMAN DR, ST CATHARINES"
      }
    ]
  },
  {
    "postal": "L2N8K9",
    "result": []
  },
  {
    "postal": "L2N2H9",
    "result": [
      {
        "electoralDistricts": [
          {
            "election": null,
            "id": 90,
            "name": "St. Catharines"
          }
        ],
        "pollDivisionIds": [
          10141336
        ],
        "postalCode": "L2N2H9",
        "streetName": "GENEVA",
        "streetDirectionId": null,
        "streetTypeId": "ST",
        "placeName": "ST CATHARINES",
        "streetNameDisplayText": "GENEVA ST, ST CATHARINES"
      }
    ]
  },
  {
    "postal": "L2N3Z6",
    "result": [
      {
        "electoralDistricts": [
          {
            "election": null,
            "id": 90,
            "name": "St. Catharines"
          }
        ],
        "pollDivisionIds": [
          10141343
        ],
        "postalCode": "L2N3Z6",
        "streetName": "MEADOWVALE",
        "streetDirectionId": null,
        "streetTypeId": "DR",
        "placeName": "ST CATHARINES",
        "streetNameDisplayText": "MEADOWVALE DR, ST CATHARINES"
      }
    ]
  },
  {
    "postal": "L2N3B0",
    "result": []
  },
  {
    "postal": "L2N2H8",
    "result": [
      {
        "electoralDistricts": [
          {
            "election": null,
            "id": 90,
            "name": "St. Catharines"
          }
        ],
        "pollDivisionIds": [
          10141335
        ],
        "postalCode": "L2N2H8",
        "streetName": "GENEVA",
        "streetDirectionId": null,
        "streetTypeId": "ST",
        "placeName": "ST CATHARINES",
        "streetNameDisplayText": "GENEVA ST, ST CATHARINES"
      }
    ]
  },
  {
    "postal": "L2N3X2",
    "result": [
      {
        "electoralDistricts": [
          {
            "election": null,
            "id": 90,
            "name": "St. Catharines"
          }
        ],
        "pollDivisionIds": [
          10141335
        ],
        "postalCode": "L2N3X2",
        "streetName": "HOWARD",
        "streetDirectionId": null,
        "streetTypeId": "AVE",
        "placeName": "ST CATHARINES",
        "streetNameDisplayText": "HOWARD AVE, ST CATHARINES"
      }
    ]
  },
  {
    "postal": "L2N2E9",
    "result": [
      {
        "electoralDistricts": [
          {
            "election": null,
            "id": 90,
            "name": "St. Catharines"
          }
        ],
        "pollDivisionIds": [
          10141344
        ],
        "postalCode": "L2N2E9",
        "streetName": "GENEVA",
        "streetDirectionId": null,
        "streetTypeId": "ST",
        "placeName": "ST CATHARINES",
        "streetNameDisplayText": "GENEVA ST, ST CATHARINES"
      }
    ]
  },
  {
    "postal": "L2N9P6",
    "result": []
  },
  {
    "postal": "L2N9E2",
    "result": []
  },
  {
    "postal": "L2N9H2",
    "result": []
  },
  {
    "postal": "L2N1S8",
    "result": [
      {
        "electoralDistricts": [
          {
            "election": null,
            "id": 90,
            "name": "St. Catharines"
          }
        ],
        "pollDivisionIds": [
          10141340
        ],
        "postalCode": "L2N1S8",
        "streetName": "LINWELL",
        "streetDirectionId": null,
        "streetTypeId": "RD",
        "placeName": "ST CATHARINES",
        "streetNameDisplayText": "LINWELL RD, ST CATHARINES"
      }
    ]
  },
  {
    "postal": "L2N3M6",
    "result": [
      {
        "electoralDistricts": [
          {
            "election": null,
            "id": 90,
            "name": "St. Catharines"
          }
        ],
        "pollDivisionIds": [
          10141336
        ],
        "postalCode": "L2N3M6",
        "streetName": "DORSET",
        "streetDirectionId": null,
        "streetTypeId": "ST",
        "placeName": "ST CATHARINES",
        "streetNameDisplayText": "DORSET ST, ST CATHARINES"
      }
    ]
  },
  {
    "postal": "L2N6Z8",
    "result": [
      {
        "electoralDistricts": [
          {
            "election": null,
            "id": 90,
            "name": "St. Catharines"
          }
        ],
        "pollDivisionIds": [
          10141343
        ],
        "postalCode": "L2N6Z8",
        "streetName": "ELMA",
        "streetDirectionId": null,
        "streetTypeId": "ST",
        "placeName": "ST CATHARINES",
        "streetNameDisplayText": "ELMA ST, ST CATHARINES"
      }
    ]
  },
  {
    "postal": "L2N4J2",
    "result": [
      {
        "electoralDistricts": [
          {
            "election": null,
            "id": 90,
            "name": "St. Catharines"
          }
        ],
        "pollDivisionIds": [
          10141339
        ],
        "postalCode": "L2N4J2",
        "streetName": "LAKE",
        "streetDirectionId": null,
        "streetTypeId": "ST",
        "placeName": "ST CATHARINES",
        "streetNameDisplayText": "LAKE ST, ST CATHARINES"
      }
    ]
  },
  {
    "postal": "L2N9Y1",
    "result": []
  },
  {
    "postal": "L2N8V6",
    "result": []
  },
  {
    "postal": "L2N6B2",
    "result": [
      {
        "electoralDistricts": [
          {
            "election": null,
            "id": 90,
            "name": "St. Catharines"
          }
        ],
        "pollDivisionIds": [
          10141343
        ],
        "postalCode": "L2N6B2",
        "streetName": "ALTMAR",
        "streetDirectionId": null,
        "streetTypeId": "CRT",
        "placeName": "ST CATHARINES",
        "streetNameDisplayText": "ALTMAR CRT, ST CATHARINES"
      }
    ]
  },
  {
    "postal": "L2N1P8",
    "result": [
      {
        "electoralDistricts": [
          {
            "election": null,
            "id": 90,
            "name": "St. Catharines"
          }
        ],
        "pollDivisionIds": [
          10141340
        ],
        "postalCode": "L2N1P8",
        "streetName": "TRACEY",
        "streetDirectionId": null,
        "streetTypeId": "RD",
        "placeName": "ST CATHARINES",
        "streetNameDisplayText": "TRACEY RD, ST CATHARINES"
      }
    ]
  },
  {
    "postal": "L2N0V8",
    "result": []
  },
  {
    "postal": "L2N4Y0",
    "result": []
  },
  {
    "postal": "L2N2T4",
    "result": [
      {
        "electoralDistricts": [
          {
            "election": null,
            "id": 90,
            "name": "St. Catharines"
          }
        ],
        "pollDivisionIds": [
          10141339
        ],
        "postalCode": "L2N2T4",
        "streetName": "LAKESHORE",
        "streetDirectionId": null,
        "streetTypeId": "RD",
        "placeName": "ST CATHARINES",
        "streetNameDisplayText": "LAKESHORE RD, ST CATHARINES"
      }
    ]
  },
  {
    "postal": "L2N2S3",
    "result": [
      {
        "electoralDistricts": [
          {
            "election": null,
            "id": 90,
            "name": "St. Catharines"
          }
        ],
        "pollDivisionIds": [
          10141334
        ],
        "postalCode": "L2N2S3",
        "streetName": "KING'S GRANT",
        "streetDirectionId": null,
        "streetTypeId": "CRT",
        "placeName": "ST CATHARINES",
        "streetNameDisplayText": "KING'S GRANT CRT, ST CATHARINES"
      }
    ]
  },
  {
    "postal": "L2N0K0",
    "result": []
  },
  {
    "postal": "L2N5N1",
    "result": [
      {
        "electoralDistricts": [
          {
            "election": null,
            "id": 90,
            "name": "St. Catharines"
          }
        ],
        "pollDivisionIds": [
          10141338
        ],
        "postalCode": "L2N5N1",
        "streetName": "ROBERT",
        "streetDirectionId": null,
        "streetTypeId": "ST",
        "placeName": "ST CATHARINES",
        "streetNameDisplayText": "ROBERT ST, ST CATHARINES"
      }
    ]
  },
  {
    "postal": "L2N7T0",
    "result": []
  },
  {
    "postal": "L2N9N2",
    "result": []
  },
  {
    "postal": "L2N5L1",
    "result": [
      {
        "electoralDistricts": [
          {
            "election": null,
            "id": 90,
            "name": "St. Catharines"
          }
        ],
        "pollDivisionIds": [
          10141338
        ],
        "postalCode": "L2N5L1",
        "streetName": "GRAHAM",
        "streetDirectionId": null,
        "streetTypeId": "AVE",
        "placeName": "ST CATHARINES",
        "streetNameDisplayText": "GRAHAM AVE, ST CATHARINES"
      }
    ]
  },
  {
    "postal": "L2N7G5",
    "result": []
  },
  {
    "postal": "L2N6K2",
    "result": [
      {
        "electoralDistricts": [
          {
            "election": null,
            "id": 90,
            "name": "St. Catharines"
          }
        ],
        "pollDivisionIds": [
          10141334
        ],
        "postalCode": "L2N6K2",
        "streetName": "WESTGATE PARK",
        "streetDirectionId": null,
        "streetTypeId": "DR",
        "placeName": "ST CATHARINES",
        "streetNameDisplayText": "WESTGATE PARK DR, ST CATHARINES"
      }
    ]
  },
  {
    "postal": "L2N6P9",
    "result": [
      {
        "electoralDistricts": [
          {
            "election": null,
            "id": 90,
            "name": "St. Catharines"
          }
        ],
        "pollDivisionIds": [
          10141340
        ],
        "postalCode": "L2N6P9",
        "streetName": "TRACEY",
        "streetDirectionId": null,
        "streetTypeId": "RD",
        "placeName": "ST CATHARINES",
        "streetNameDisplayText": "TRACEY RD, ST CATHARINES"
      }
    ]
  },
  {
    "postal": "L2N0E6",
    "result": []
  },
  {
    "postal": "L2N8R9",
    "result": []
  },
  {
    "postal": "L2N3G9",
    "result": [
      {
        "electoralDistricts": [
          {
            "election": null,
            "id": 90,
            "name": "St. Catharines"
          }
        ],
        "pollDivisionIds": [
          10141339
        ],
        "postalCode": "L2N3G9",
        "streetName": "PRINCE EDWARD",
        "streetDirectionId": null,
        "streetTypeId": "DR",
        "placeName": "ST CATHARINES",
        "streetNameDisplayText": "PRINCE EDWARD DR, ST CATHARINES"
      }
    ]
  },
  {
    "postal": "L2N0V7",
    "result": []
  },
  {
    "postal": "L2N2Z1",
    "result": [
      {
        "electoralDistricts": [
          {
            "election": null,
            "id": 90,
            "name": "St. Catharines"
          }
        ],
        "pollDivisionIds": [
          10141335
        ],
        "postalCode": "L2N2Z1",
        "streetName": "MORNINGSIDE",
        "streetDirectionId": null,
        "streetTypeId": "DR",
        "placeName": "ST CATHARINES",
        "streetNameDisplayText": "MORNINGSIDE DR, ST CATHARINES"
      }
    ]
  },
  {
    "postal": "L2N7N1",
    "result": [
      {
        "electoralDistricts": [
          {
            "election": null,
            "id": 90,
            "name": "St. Catharines"
          }
        ],
        "pollDivisionIds": [
          10141339
        ],
        "postalCode": "L2N7N1",
        "streetName": "LINWELL",
        "streetDirectionId": null,
        "streetTypeId": "RD",
        "placeName": "ST CATHARINES",
        "streetNameDisplayText": "LINWELL RD, ST CATHARINES"
      }
    ]
  },
  {
    "postal": "L2N3C6",
    "result": [
      {
        "electoralDistricts": [
          {
            "election": null,
            "id": 90,
            "name": "St. Catharines"
          }
        ],
        "pollDivisionIds": [
          10141335
        ],
        "postalCode": "L2N3C6",
        "streetName": "MARSTEN",
        "streetDirectionId": null,
        "streetTypeId": "DR",
        "placeName": "ST CATHARINES",
        "streetNameDisplayText": "MARSTEN DR, ST CATHARINES"
      }
    ]
  },
  {
    "postal": "L2N4M1",
    "result": [
      {
        "electoralDistricts": [
          {
            "election": null,
            "id": 90,
            "name": "St. Catharines"
          }
        ],
        "pollDivisionIds": [
          10141343
        ],
        "postalCode": "L2N4M1",
        "streetName": "ERNEST",
        "streetDirectionId": null,
        "streetTypeId": "ST",
        "placeName": "ST CATHARINES",
        "streetNameDisplayText": "ERNEST ST, ST CATHARINES"
      }
    ]
  },
  {
    "postal": "L2N9K2",
    "result": []
  },
  {
    "postal": "L2N9S6",
    "result": []
  },
  {
    "postal": "L2N4X1",
    "result": [
      {
        "electoralDistricts": [
          {
            "election": null,
            "id": 90,
            "name": "St. Catharines"
          }
        ],
        "pollDivisionIds": [
          10141338
        ],
        "postalCode": "L2N4X1",
        "streetName": "DALHOUSIE",
        "streetDirectionId": null,
        "streetTypeId": "AVE",
        "placeName": "ST CATHARINES",
        "streetNameDisplayText": "DALHOUSIE AVE, ST CATHARINES"
      }
    ]
  },
  {
    "postal": "L2N8W2",
    "result": []
  },
  {
    "postal": "L2N7N2",
    "result": [
      {
        "electoralDistricts": [
          {
            "election": null,
            "id": 90,
            "name": "St. Catharines"
          }
        ],
        "pollDivisionIds": [
          10141339
        ],
        "postalCode": "L2N7N2",
        "streetName": "LINWELL",
        "streetDirectionId": null,
        "streetTypeId": "RD",
        "placeName": "ST CATHARINES",
        "streetNameDisplayText": "LINWELL RD, ST CATHARINES"
      }
    ]
  },
  {
    "postal": "L2N8S3",
    "result": []
  },
  {
    "postal": "L2N4V0",
    "result": []
  },
  {
    "postal": "L2N6W4",
    "result": [
      {
        "electoralDistricts": [
          {
            "election": null,
            "id": 90,
            "name": "St. Catharines"
          }
        ],
        "pollDivisionIds": [
          10141338
        ],
        "postalCode": "L2N6W4",
        "streetName": "CAMBRIA",
        "streetDirectionId": null,
        "streetTypeId": "DR",
        "placeName": "ST CATHARINES",
        "streetNameDisplayText": "CAMBRIA DR, ST CATHARINES"
      }
    ]
  },
  {
    "postal": "L2N5M1",
    "result": [
      {
        "electoralDistricts": [
          {
            "election": null,
            "id": 90,
            "name": "St. Catharines"
          }
        ],
        "pollDivisionIds": [
          10141338
        ],
        "postalCode": "L2N5M1",
        "streetName": "PAWLING",
        "streetDirectionId": null,
        "streetTypeId": "ST",
        "placeName": "ST CATHARINES",
        "streetNameDisplayText": "PAWLING ST, ST CATHARINES"
      }
    ]
  },
  {
    "postal": "L2N0S4",
    "result": []
  },
  {
    "postal": "L2N5X6",
    "result": [
      {
        "electoralDistricts": [
          {
            "election": null,
            "id": 90,
            "name": "St. Catharines"
          }
        ],
        "pollDivisionIds": [
          10141334
        ],
        "postalCode": "L2N5X6",
        "streetName": "OAKMEADOW",
        "streetDirectionId": null,
        "streetTypeId": "PL",
        "placeName": "ST CATHARINES",
        "streetNameDisplayText": "OAKMEADOW PL, ST CATHARINES"
      }
    ]
  },
  {
    "postal": "L2N8L5",
    "result": []
  },
  {
    "postal": "L2N5M8",
    "result": [
      {
        "electoralDistricts": [
          {
            "election": null,
            "id": 90,
            "name": "St. Catharines"
          }
        ],
        "pollDivisionIds": [
          10141338
        ],
        "postalCode": "L2N5M8",
        "streetName": "CORBETT",
        "streetDirectionId": null,
        "streetTypeId": "AVE",
        "placeName": "ST CATHARINES",
        "streetNameDisplayText": "CORBETT AVE, ST CATHARINES"
      }
    ]
  },
  {
    "postal": "L2N2G3",
    "result": [
      {
        "electoralDistricts": [
          {
            "election": null,
            "id": 90,
            "name": "St. Catharines"
          }
        ],
        "pollDivisionIds": [
          10141345,
          10141344
        ],
        "postalCode": "L2N2G3",
        "streetName": "GENEVA",
        "streetDirectionId": null,
        "streetTypeId": "ST",
        "placeName": "ST CATHARINES",
        "streetNameDisplayText": "GENEVA ST, ST CATHARINES"
      }
    ]
  },
  {
    "postal": "L2N8E4",
    "result": []
  },
  {
    "postal": "L2N7S9",
    "result": [
      {
        "electoralDistricts": [
          {
            "election": null,
            "id": 90,
            "name": "St. Catharines"
          }
        ],
        "pollDivisionIds": [
          10141338
        ],
        "postalCode": "L2N7S9",
        "streetName": "SCULLER'S",
        "streetDirectionId": null,
        "streetTypeId": "WAY",
        "placeName": "ST CATHARINES",
        "streetNameDisplayText": "SCULLER'S WAY, ST CATHARINES"
      }
    ]
  },
  {
    "postal": "L2N1K3",
    "result": [
      {
        "electoralDistricts": [
          {
            "election": null,
            "id": 90,
            "name": "St. Catharines"
          }
        ],
        "pollDivisionIds": [
          10141344
        ],
        "postalCode": "L2N1K3",
        "streetName": "SULLIVAN",
        "streetDirectionId": null,
        "streetTypeId": "DR",
        "placeName": "ST CATHARINES",
        "streetNameDisplayText": "SULLIVAN DR, ST CATHARINES"
      }
    ]
  },
  {
    "postal": "L2N4E1",
    "result": [
      {
        "electoralDistricts": [
          {
            "election": null,
            "id": 90,
            "name": "St. Catharines"
          }
        ],
        "pollDivisionIds": [
          10141339
        ],
        "postalCode": "L2N4E1",
        "streetName": "SPARKES",
        "streetDirectionId": null,
        "streetTypeId": "ST",
        "placeName": "ST CATHARINES",
        "streetNameDisplayText": "SPARKES ST, ST CATHARINES"
      }
    ]
  },
  {
    "postal": "L2N4R2",
    "result": [
      {
        "electoralDistricts": [
          {
            "election": null,
            "id": 90,
            "name": "St. Catharines"
          }
        ],
        "pollDivisionIds": [
          10141339
        ],
        "postalCode": "L2N4R2",
        "streetName": "LAKEPORT",
        "streetDirectionId": null,
        "streetTypeId": "RD",
        "placeName": "ST CATHARINES",
        "streetNameDisplayText": "LAKEPORT RD, ST CATHARINES"
      }
    ]
  },
  {
    "postal": "L2N6T0",
    "result": []
  },
  {
    "postal": "L2N3K5",
    "result": [
      {
        "electoralDistricts": [
          {
            "election": null,
            "id": 90,
            "name": "St. Catharines"
          }
        ],
        "pollDivisionIds": [
          10141336
        ],
        "postalCode": "L2N3K5",
        "streetName": "CLIFFORD",
        "streetDirectionId": null,
        "streetTypeId": "ST",
        "placeName": "ST CATHARINES",
        "streetNameDisplayText": "CLIFFORD ST, ST CATHARINES"
      }
    ]
  },
  {
    "postal": "L2N3S3",
    "result": [
      {
        "electoralDistricts": [
          {
            "election": null,
            "id": 90,
            "name": "St. Catharines"
          }
        ],
        "pollDivisionIds": [
          10141336
        ],
        "postalCode": "L2N3S3",
        "streetName": "ROSS",
        "streetDirectionId": null,
        "streetTypeId": "ST",
        "placeName": "ST CATHARINES",
        "streetNameDisplayText": "ROSS ST, ST CATHARINES"
      }
    ]
  },
  {
    "postal": "L2N3L4",
    "result": [
      {
        "electoralDistricts": [
          {
            "election": null,
            "id": 90,
            "name": "St. Catharines"
          }
        ],
        "pollDivisionIds": [
          10141336
        ],
        "postalCode": "L2N3L4",
        "streetName": "GRAMMAR",
        "streetDirectionId": null,
        "streetTypeId": "AVE",
        "placeName": "ST CATHARINES",
        "streetNameDisplayText": "GRAMMAR AVE, ST CATHARINES"
      }
    ]
  },
  {
    "postal": "L2N9Y2",
    "result": []
  },
  {
    "postal": "L2N1E0",
    "result": []
  },
  {
    "postal": "L2N9A4",
    "result": []
  },
  {
    "postal": "L2N1L3",
    "result": [
      {
        "electoralDistricts": [
          {
            "election": null,
            "id": 90,
            "name": "St. Catharines"
          }
        ],
        "pollDivisionIds": [
          10141340
        ],
        "postalCode": "L2N1L3",
        "streetName": "WYNN",
        "streetDirectionId": null,
        "streetTypeId": "ST",
        "placeName": "ST CATHARINES",
        "streetNameDisplayText": "WYNN ST, ST CATHARINES"
      }
    ]
  },
  {
    "postal": "L2N6N1",
    "result": []
  },
  {
    "postal": "L2N6G7",
    "result": [
      {
        "electoralDistricts": [
          {
            "election": null,
            "id": 90,
            "name": "St. Catharines"
          }
        ],
        "pollDivisionIds": [
          10141334
        ],
        "postalCode": "L2N6G7",
        "streetName": "FAIRINGTON",
        "streetDirectionId": null,
        "streetTypeId": "CRES",
        "placeName": "ST CATHARINES",
        "streetNameDisplayText": "FAIRINGTON CRES, ST CATHARINES"
      }
    ]
  },
  {
    "postal": "L2N7W1",
    "result": []
  },
  {
    "postal": "L2N4M6",
    "result": [
      {
        "electoralDistricts": [
          {
            "election": null,
            "id": 90,
            "name": "St. Catharines"
          }
        ],
        "pollDivisionIds": [
          10141343
        ],
        "postalCode": "L2N4M6",
        "streetName": "DAWN",
        "streetDirectionId": null,
        "streetTypeId": "RD",
        "placeName": "ST CATHARINES",
        "streetNameDisplayText": "DAWN RD, ST CATHARINES"
      }
    ]
  },
  {
    "postal": "L2N1K0",
    "result": []
  },
  {
    "postal": "L2N3E2",
    "result": [
      {
        "electoralDistricts": [
          {
            "election": null,
            "id": 90,
            "name": "St. Catharines"
          }
        ],
        "pollDivisionIds": [
          10141336
        ],
        "postalCode": "L2N3E2",
        "streetName": "GLEN PARK",
        "streetDirectionId": null,
        "streetTypeId": "RD",
        "placeName": "ST CATHARINES",
        "streetNameDisplayText": "GLEN PARK RD, ST CATHARINES"
      }
    ]
  },
  {
    "postal": "L2N5H4",
    "result": [
      {
        "electoralDistricts": [
          {
            "election": null,
            "id": 90,
            "name": "St. Catharines"
          }
        ],
        "pollDivisionIds": [
          10141338
        ],
        "postalCode": "L2N5H4",
        "streetName": "CHRISTIE",
        "streetDirectionId": null,
        "streetTypeId": "ST",
        "placeName": "ST CATHARINES",
        "streetNameDisplayText": "CHRISTIE ST, ST CATHARINES"
      }
    ]
  },
  {
    "postal": "L2N1K7",
    "result": [
      {
        "electoralDistricts": [
          {
            "election": null,
            "id": 90,
            "name": "St. Catharines"
          }
        ],
        "pollDivisionIds": [
          10141344
        ],
        "postalCode": "L2N1K7",
        "streetName": "OVERHOLT",
        "streetDirectionId": null,
        "streetTypeId": "ST",
        "placeName": "ST CATHARINES",
        "streetNameDisplayText": "OVERHOLT ST, ST CATHARINES"
      }
    ]
  },
  {
    "postal": "L2N0H0",
    "result": []
  },
  {
    "postal": "L2N0J3",
    "result": []
  },
  {
    "postal": "L2N1X6",
    "result": [
      {
        "electoralDistricts": [
          {
            "election": null,
            "id": 90,
            "name": "St. Catharines"
          }
        ],
        "pollDivisionIds": [
          10141340
        ],
        "postalCode": "L2N1X6",
        "streetName": "DEVON",
        "streetDirectionId": null,
        "streetTypeId": "RD",
        "placeName": "ST CATHARINES",
        "streetNameDisplayText": "DEVON RD, ST CATHARINES"
      }
    ]
  },
  {
    "postal": "L2N2Z6",
    "result": [
      {
        "electoralDistricts": [
          {
            "election": null,
            "id": 90,
            "name": "St. Catharines"
          }
        ],
        "pollDivisionIds": [
          10141336
        ],
        "postalCode": "L2N2Z6",
        "streetName": "GLENVIEW",
        "streetDirectionId": null,
        "streetTypeId": "AVE",
        "placeName": "ST CATHARINES",
        "streetNameDisplayText": "GLENVIEW AVE, ST CATHARINES"
      }
    ]
  },
  {
    "postal": "L2N4R9",
    "result": [
      {
        "electoralDistricts": [
          {
            "election": null,
            "id": 90,
            "name": "St. Catharines"
          }
        ],
        "pollDivisionIds": [
          10141339
        ],
        "postalCode": "L2N4R9",
        "streetName": "ROYAL HENLEY",
        "streetDirectionId": null,
        "streetTypeId": "BLVD",
        "placeName": "ST CATHARINES",
        "streetNameDisplayText": "ROYAL HENLEY BLVD, ST CATHARINES"
      }
    ]
  },
  {
    "postal": "L2N0W8",
    "result": []
  },
  {
    "postal": "L2N1L4",
    "result": [
      {
        "electoralDistricts": [
          {
            "election": null,
            "id": 90,
            "name": "St. Catharines"
          }
        ],
        "pollDivisionIds": [
          10141344
        ],
        "postalCode": "L2N1L4",
        "streetName": "LE HAVRE",
        "streetDirectionId": null,
        "streetTypeId": "DR",
        "placeName": "ST CATHARINES",
        "streetNameDisplayText": "LE HAVRE DR, ST CATHARINES"
      }
    ]
  },
  {
    "postal": "L2N0C8",
    "result": []
  },
  {
    "postal": "L2N9X7",
    "result": []
  },
  {
    "postal": "L2N4T1",
    "result": [
      {
        "electoralDistricts": [
          {
            "election": null,
            "id": 90,
            "name": "St. Catharines"
          }
        ],
        "pollDivisionIds": [
          10141338
        ],
        "postalCode": "L2N4T1",
        "streetName": "PINE",
        "streetDirectionId": null,
        "streetTypeId": "ST",
        "placeName": "ST CATHARINES",
        "streetNameDisplayText": "PINE ST, ST CATHARINES"
      }
    ]
  },
  {
    "postal": "L2N0M0",
    "result": []
  },
  {
    "postal": "L2N6A2",
    "result": [
      {
        "electoralDistricts": [
          {
            "election": null,
            "id": 90,
            "name": "St. Catharines"
          }
        ],
        "pollDivisionIds": [
          10141343
        ],
        "postalCode": "L2N6A2",
        "streetName": "ELMA",
        "streetDirectionId": null,
        "streetTypeId": "ST",
        "placeName": "ST CATHARINES",
        "streetNameDisplayText": "ELMA ST, ST CATHARINES"
      }
    ]
  },
  {
    "postal": "L2N9S8",
    "result": []
  },
  {
    "postal": "L2N9T4",
    "result": []
  },
  {
    "postal": "L2N9Y4",
    "result": []
  },
  {
    "postal": "L2N6G5",
    "result": [
      {
        "electoralDistricts": [
          {
            "election": null,
            "id": 90,
            "name": "St. Catharines"
          }
        ],
        "pollDivisionIds": [
          10141334
        ],
        "postalCode": "L2N6G5",
        "streetName": "FAIRINGTON",
        "streetDirectionId": null,
        "streetTypeId": "CRES",
        "placeName": "ST CATHARINES",
        "streetNameDisplayText": "FAIRINGTON CRES, ST CATHARINES"
      }
    ]
  },
  {
    "postal": "L2N6H9",
    "result": [
      {
        "electoralDistricts": [
          {
            "election": null,
            "id": 90,
            "name": "St. Catharines"
          }
        ],
        "pollDivisionIds": [
          10141334
        ],
        "postalCode": "L2N6H9",
        "streetName": "BARBARA",
        "streetDirectionId": null,
        "streetTypeId": "PL",
        "placeName": "ST CATHARINES",
        "streetNameDisplayText": "BARBARA PL, ST CATHARINES"
      }
    ]
  },
  {
    "postal": "L2N2P3",
    "result": [
      {
        "electoralDistricts": [
          {
            "election": null,
            "id": 90,
            "name": "St. Catharines"
          }
        ],
        "pollDivisionIds": [
          10141334
        ],
        "postalCode": "L2N2P3",
        "streetName": "OLD COACH",
        "streetDirectionId": null,
        "streetTypeId": "RD",
        "placeName": "ST CATHARINES",
        "streetNameDisplayText": "OLD COACH RD, ST CATHARINES"
      }
    ]
  },
  {
    "postal": "L2N1T6",
    "result": [
      {
        "electoralDistricts": [
          {
            "election": null,
            "id": 90,
            "name": "St. Catharines"
          }
        ],
        "pollDivisionIds": [
          10141336
        ],
        "postalCode": "L2N1T6",
        "streetName": "LINWELL",
        "streetDirectionId": null,
        "streetTypeId": "RD",
        "placeName": "ST CATHARINES",
        "streetNameDisplayText": "LINWELL RD, ST CATHARINES"
      }
    ]
  },
  {
    "postal": "L2N4P6",
    "result": [
      {
        "electoralDistricts": [
          {
            "election": null,
            "id": 90,
            "name": "St. Catharines"
          }
        ],
        "pollDivisionIds": [
          10141338
        ],
        "postalCode": "L2N4P6",
        "streetName": "LAKEPORT",
        "streetDirectionId": null,
        "streetTypeId": "RD",
        "placeName": "ST CATHARINES",
        "streetNameDisplayText": "LAKEPORT RD, ST CATHARINES"
      }
    ]
  },
  {
    "postal": "L2N3K1",
    "result": [
      {
        "electoralDistricts": [
          {
            "election": null,
            "id": 90,
            "name": "St. Catharines"
          }
        ],
        "pollDivisionIds": [
          10141334
        ],
        "postalCode": "L2N3K1",
        "streetName": "MISSISSAUGA",
        "streetDirectionId": null,
        "streetTypeId": "RD",
        "placeName": "ST CATHARINES",
        "streetNameDisplayText": "MISSISSAUGA RD, ST CATHARINES"
      }
    ]
  },
  {
    "postal": "L2N6X4",
    "result": [
      {
        "electoralDistricts": [
          {
            "election": null,
            "id": 90,
            "name": "St. Catharines"
          }
        ],
        "pollDivisionIds": [
          10141344
        ],
        "postalCode": "L2N6X4",
        "streetName": "ORLANDO",
        "streetDirectionId": null,
        "streetTypeId": "DR",
        "placeName": "ST CATHARINES",
        "streetNameDisplayText": "ORLANDO DR, ST CATHARINES"
      }
    ]
  },
  {
    "postal": "L2N4M8",
    "result": [
      {
        "electoralDistricts": [
          {
            "election": null,
            "id": 90,
            "name": "St. Catharines"
          }
        ],
        "pollDivisionIds": [
          10141343
        ],
        "postalCode": "L2N4M8",
        "streetName": "ONTARIO",
        "streetDirectionId": null,
        "streetTypeId": "ST",
        "placeName": "ST CATHARINES",
        "streetNameDisplayText": "ONTARIO ST, ST CATHARINES"
      }
    ]
  },
  {
    "postal": "L2N2Y1",
    "result": [
      {
        "electoralDistricts": [
          {
            "election": null,
            "id": 90,
            "name": "St. Catharines"
          }
        ],
        "pollDivisionIds": [
          10141335
        ],
        "postalCode": "L2N2Y1",
        "streetName": "KILLARNEY",
        "streetDirectionId": null,
        "streetTypeId": "CIR",
        "placeName": "ST CATHARINES",
        "streetNameDisplayText": "KILLARNEY CIR, ST CATHARINES"
      }
    ]
  },
  {
    "postal": "L2N6M1",
    "result": []
  },
  {
    "postal": "L2N5L8",
    "result": [
      {
        "electoralDistricts": [
          {
            "election": null,
            "id": 90,
            "name": "St. Catharines"
          }
        ],
        "pollDivisionIds": [
          10141338
        ],
        "postalCode": "L2N5L8",
        "streetName": "VERDUN",
        "streetDirectionId": null,
        "streetTypeId": "AVE",
        "placeName": "ST CATHARINES",
        "streetNameDisplayText": "VERDUN AVE, ST CATHARINES"
      }
    ]
  },
  {
    "postal": "L2N3P6",
    "result": [
      {
        "electoralDistricts": [
          {
            "election": null,
            "id": 90,
            "name": "St. Catharines"
          }
        ],
        "pollDivisionIds": [
          10141334
        ],
        "postalCode": "L2N3P6",
        "streetName": "SPRING GARDEN",
        "streetDirectionId": null,
        "streetTypeId": "BLVD",
        "placeName": "ST CATHARINES",
        "streetNameDisplayText": "SPRING GARDEN BLVD, ST CATHARINES"
      }
    ]
  },
  {
    "postal": "L2N9A5",
    "result": []
  },
  {
    "postal": "L2N7K1",
    "result": [
      {
        "electoralDistricts": [
          {
            "election": null,
            "id": 90,
            "name": "St. Catharines"
          }
        ],
        "pollDivisionIds": [
          10141338
        ],
        "postalCode": "L2N7K1",
        "streetName": "CHARTWELL",
        "streetDirectionId": null,
        "streetTypeId": "CRT",
        "placeName": "ST CATHARINES",
        "streetNameDisplayText": "CHARTWELL CRT, ST CATHARINES"
      },
      {
        "electoralDistricts": [
          {
            "election": null,
            "id": 90,
            "name": "St. Catharines"
          }
        ],
        "pollDivisionIds": [
          10141338
        ],
        "postalCode": "L2N7K1",
        "streetName": "PORT ROYAL",
        "streetDirectionId": null,
        "streetTypeId": "CRES",
        "placeName": "ST CATHARINES",
        "streetNameDisplayText": "PORT ROYAL CRES, ST CATHARINES"
      }
    ]
  },
  {
    "postal": "L2N3J4",
    "result": [
      {
        "electoralDistricts": [
          {
            "election": null,
            "id": 90,
            "name": "St. Catharines"
          }
        ],
        "pollDivisionIds": [
          10141336
        ],
        "postalCode": "L2N3J4",
        "streetName": "SHARON",
        "streetDirectionId": null,
        "streetTypeId": "ST",
        "placeName": "ST CATHARINES",
        "streetNameDisplayText": "SHARON ST, ST CATHARINES"
      }
    ]
  },
  {
    "postal": "L2N5E7",
    "result": [
      {
        "electoralDistricts": [
          {
            "election": null,
            "id": 90,
            "name": "St. Catharines"
          }
        ],
        "pollDivisionIds": [
          10141338
        ],
        "postalCode": "L2N5E7",
        "streetName": "ANN",
        "streetDirectionId": null,
        "streetTypeId": "ST",
        "placeName": "ST CATHARINES",
        "streetNameDisplayText": "ANN ST, ST CATHARINES"
      }
    ]
  },
  {
    "postal": "L2N3A7",
    "result": [
      {
        "electoralDistricts": [
          {
            "election": null,
            "id": 90,
            "name": "St. Catharines"
          }
        ],
        "pollDivisionIds": [
          10141336
        ],
        "postalCode": "L2N3A7",
        "streetName": "CANADA",
        "streetDirectionId": null,
        "streetTypeId": "CRT",
        "placeName": "ST CATHARINES",
        "streetNameDisplayText": "CANADA CRT, ST CATHARINES"
      }
    ]
  },
  {
    "postal": "L2N1B9",
    "result": [
      {
        "electoralDistricts": [
          {
            "election": null,
            "id": 90,
            "name": "St. Catharines"
          }
        ],
        "pollDivisionIds": [
          10141346
        ],
        "postalCode": "L2N1B9",
        "streetName": "CARLTON",
        "streetDirectionId": null,
        "streetTypeId": "ST",
        "placeName": "ST CATHARINES",
        "streetNameDisplayText": "CARLTON ST, ST CATHARINES"
      }
    ]
  },
  {
    "postal": "L2N9E8",
    "result": []
  },
  {
    "postal": "L2N1C9",
    "result": []
  },
  {
    "postal": "L2N3B5",
    "result": [
      {
        "electoralDistricts": [
          {
            "election": null,
            "id": 90,
            "name": "St. Catharines"
          }
        ],
        "pollDivisionIds": [
          10141336
        ],
        "postalCode": "L2N3B5",
        "streetName": "MANOR",
        "streetDirectionId": null,
        "streetTypeId": "RD",
        "placeName": "ST CATHARINES",
        "streetNameDisplayText": "MANOR RD, ST CATHARINES"
      }
    ]
  },
  {
    "postal": "L2N8R0",
    "result": []
  },
  {
    "postal": "L2N3P2",
    "result": [
      {
        "electoralDistricts": [
          {
            "election": null,
            "id": 90,
            "name": "St. Catharines"
          }
        ],
        "pollDivisionIds": [
          10141336
        ],
        "postalCode": "L2N3P2",
        "streetName": "DUNCAN",
        "streetDirectionId": null,
        "streetTypeId": "DR",
        "placeName": "ST CATHARINES",
        "streetNameDisplayText": "DUNCAN DR, ST CATHARINES"
      }
    ]
  },
  {
    "postal": "L2N5V4",
    "result": [
      {
        "electoralDistricts": [
          {
            "election": null,
            "id": 90,
            "name": "St. Catharines"
          }
        ],
        "pollDivisionIds": [
          10141334
        ],
        "postalCode": "L2N5V4",
        "streetName": "CARN CASTLE",
        "streetDirectionId": null,
        "streetTypeId": "GATE",
        "placeName": "ST CATHARINES",
        "streetNameDisplayText": "CARN CASTLE GATE, ST CATHARINES"
      }
    ]
  },
  {
    "postal": "L2N4H0",
    "result": []
  },
  {
    "postal": "L2N4S7",
    "result": [
      {
        "electoralDistricts": [
          {
            "election": null,
            "id": 90,
            "name": "St. Catharines"
          }
        ],
        "pollDivisionIds": [
          10141338
        ],
        "postalCode": "L2N4S7",
        "streetName": "CANAL",
        "streetDirectionId": null,
        "streetTypeId": "ST",
        "placeName": "ST CATHARINES",
        "streetNameDisplayText": "CANAL ST, ST CATHARINES"
      }
    ]
  },
  {
    "postal": "L2N6C2",
    "result": [
      {
        "electoralDistricts": [
          {
            "election": null,
            "id": 90,
            "name": "St. Catharines"
          }
        ],
        "pollDivisionIds": [
          10141339
        ],
        "postalCode": "L2N6C2",
        "streetName": "LAFAYETTE",
        "streetDirectionId": null,
        "streetTypeId": "DR",
        "placeName": "ST CATHARINES",
        "streetNameDisplayText": "LAFAYETTE DR, ST CATHARINES"
      }
    ]
  },
  {
    "postal": "L2N8W3",
    "result": []
  },
  {
    "postal": "L2N4M5",
    "result": [
      {
        "electoralDistricts": [
          {
            "election": null,
            "id": 90,
            "name": "St. Catharines"
          }
        ],
        "pollDivisionIds": [
          10141343
        ],
        "postalCode": "L2N4M5",
        "streetName": "WOLFDALE",
        "streetDirectionId": null,
        "streetTypeId": "PL",
        "placeName": "ST CATHARINES",
        "streetNameDisplayText": "WOLFDALE PL, ST CATHARINES"
      }
    ]
  },
  {
    "postal": "L2N5T1",
    "result": [
      {
        "electoralDistricts": [
          {
            "election": null,
            "id": 90,
            "name": "St. Catharines"
          }
        ],
        "pollDivisionIds": [
          10141339
        ],
        "postalCode": "L2N5T1",
        "streetName": "LAKE",
        "streetDirectionId": null,
        "streetTypeId": "ST",
        "placeName": "ST CATHARINES",
        "streetNameDisplayText": "LAKE ST, ST CATHARINES"
      }
    ]
  },
  {
    "postal": "L2N3B3",
    "result": [
      {
        "electoralDistricts": [
          {
            "election": null,
            "id": 90,
            "name": "St. Catharines"
          }
        ],
        "pollDivisionIds": [
          10141335
        ],
        "postalCode": "L2N3B3",
        "streetName": "CHARLOTTE",
        "streetDirectionId": null,
        "streetTypeId": "ST",
        "placeName": "ST CATHARINES",
        "streetNameDisplayText": "CHARLOTTE ST, ST CATHARINES"
      }
    ]
  },
  {
    "postal": "L2N6C6",
    "result": [
      {
        "electoralDistricts": [
          {
            "election": null,
            "id": 90,
            "name": "St. Catharines"
          }
        ],
        "pollDivisionIds": [
          10141339
        ],
        "postalCode": "L2N6C6",
        "streetName": "LAFAYETTE",
        "streetDirectionId": null,
        "streetTypeId": "DR",
        "placeName": "ST CATHARINES",
        "streetNameDisplayText": "LAFAYETTE DR, ST CATHARINES"
      }
    ]
  },
  {
    "postal": "L2N7N8",
    "result": [
      {
        "electoralDistricts": [
          {
            "election": null,
            "id": 90,
            "name": "St. Catharines"
          }
        ],
        "pollDivisionIds": [
          10141338
        ],
        "postalCode": "L2N7N8",
        "streetName": "PEEL",
        "streetDirectionId": null,
        "streetTypeId": "ST",
        "placeName": "ST CATHARINES",
        "streetNameDisplayText": "PEEL ST, ST CATHARINES"
      }
    ]
  },
  {
    "postal": "L2N2Y3",
    "result": [
      {
        "electoralDistricts": [
          {
            "election": null,
            "id": 90,
            "name": "St. Catharines"
          }
        ],
        "pollDivisionIds": [
          10141336
        ],
        "postalCode": "L2N2Y3",
        "streetName": "DRAPER",
        "streetDirectionId": null,
        "streetTypeId": "DR",
        "placeName": "ST CATHARINES",
        "streetNameDisplayText": "DRAPER DR, ST CATHARINES"
      }
    ]
  },
  {
    "postal": "L2N2R6",
    "result": [
      {
        "electoralDistricts": [
          {
            "election": null,
            "id": 90,
            "name": "St. Catharines"
          }
        ],
        "pollDivisionIds": [
          10141334
        ],
        "postalCode": "L2N2R6",
        "streetName": "HARBOUR",
        "streetDirectionId": null,
        "streetTypeId": "RD",
        "placeName": "ST CATHARINES",
        "streetNameDisplayText": "HARBOUR RD, ST CATHARINES"
      }
    ]
  },
  {
    "postal": "L2N7N3",
    "result": [
      {
        "electoralDistricts": [
          {
            "election": null,
            "id": 90,
            "name": "St. Catharines"
          }
        ],
        "pollDivisionIds": [
          10141339
        ],
        "postalCode": "L2N7N3",
        "streetName": "LINWELL",
        "streetDirectionId": null,
        "streetTypeId": "RD",
        "placeName": "ST CATHARINES",
        "streetNameDisplayText": "LINWELL RD, ST CATHARINES"
      }
    ]
  },
  {
    "postal": "L2N8J2",
    "result": []
  },
  {
    "postal": "L2N6A9",
    "result": []
  },
  {
    "postal": "L2N3V2",
    "result": [
      {
        "electoralDistricts": [
          {
            "election": null,
            "id": 90,
            "name": "St. Catharines"
          }
        ],
        "pollDivisionIds": [
          10141335
        ],
        "postalCode": "L2N3V2",
        "streetName": "JEFFERSON",
        "streetDirectionId": null,
        "streetTypeId": "DR",
        "placeName": "ST CATHARINES",
        "streetNameDisplayText": "JEFFERSON DR, ST CATHARINES"
      }
    ]
  },
  {
    "postal": "L2N2N3",
    "result": [
      {
        "electoralDistricts": [
          {
            "election": null,
            "id": 90,
            "name": "St. Catharines"
          }
        ],
        "pollDivisionIds": [
          10141334
        ],
        "postalCode": "L2N2N3",
        "streetName": "VISCOUNT",
        "streetDirectionId": null,
        "streetTypeId": "PL",
        "placeName": "ST CATHARINES",
        "streetNameDisplayText": "VISCOUNT PL, ST CATHARINES"
      }
    ]
  },
  {
    "postal": "L2N1S5",
    "result": [
      {
        "electoralDistricts": [
          {
            "election": null,
            "id": 90,
            "name": "St. Catharines"
          }
        ],
        "pollDivisionIds": [
          10141344
        ],
        "postalCode": "L2N1S5",
        "streetName": "LINWELL",
        "streetDirectionId": null,
        "streetTypeId": "RD",
        "placeName": "ST CATHARINES",
        "streetNameDisplayText": "LINWELL RD, ST CATHARINES"
      }
    ]
  },
  {
    "postal": "L2N4T7",
    "result": [
      {
        "electoralDistricts": [
          {
            "election": null,
            "id": 90,
            "name": "St. Catharines"
          }
        ],
        "pollDivisionIds": [
          10141338
        ],
        "postalCode": "L2N4T7",
        "streetName": "MAIN",
        "streetDirectionId": null,
        "streetTypeId": "ST",
        "placeName": "ST CATHARINES",
        "streetNameDisplayText": "MAIN ST, ST CATHARINES"
      }
    ]
  },
  {
    "postal": "L2N6Y7",
    "result": [
      {
        "electoralDistricts": [
          {
            "election": null,
            "id": 90,
            "name": "St. Catharines"
          }
        ],
        "pollDivisionIds": [
          10141345
        ],
        "postalCode": "L2N6Y7",
        "streetName": "GREENMEADOW",
        "streetDirectionId": null,
        "streetTypeId": "CRT",
        "placeName": "ST CATHARINES",
        "streetNameDisplayText": "GREENMEADOW CRT, ST CATHARINES"
      }
    ]
  },
  {
    "postal": "L2N0W7",
    "result": []
  },
  {
    "postal": "L2N2W9",
    "result": [
      {
        "electoralDistricts": [
          {
            "election": null,
            "id": 90,
            "name": "St. Catharines"
          }
        ],
        "pollDivisionIds": [
          10141336
        ],
        "postalCode": "L2N2W9",
        "streetName": "PARNELL",
        "streetDirectionId": null,
        "streetTypeId": "RD",
        "placeName": "ST CATHARINES",
        "streetNameDisplayText": "PARNELL RD, ST CATHARINES"
      }
    ]
  },
  {
    "postal": "L2N8V0",
    "result": []
  },
  {
    "postal": "L2N0H4",
    "result": []
  },
  {
    "postal": "L2N2T1",
    "result": [
      {
        "electoralDistricts": [
          {
            "election": null,
            "id": 90,
            "name": "St. Catharines"
          }
        ],
        "pollDivisionIds": [
          10141339
        ],
        "postalCode": "L2N2T1",
        "streetName": "LAKESHORE",
        "streetDirectionId": null,
        "streetTypeId": "RD",
        "placeName": "ST CATHARINES",
        "streetNameDisplayText": "LAKESHORE RD, ST CATHARINES"
      }
    ]
  },
  {
    "postal": "L2N1B1",
    "result": [
      {
        "electoralDistricts": [
          {
            "election": null,
            "id": 90,
            "name": "St. Catharines"
          }
        ],
        "pollDivisionIds": [
          10141346
        ],
        "postalCode": "L2N1B1",
        "streetName": "ASCOT",
        "streetDirectionId": null,
        "streetTypeId": "PL",
        "placeName": "ST CATHARINES",
        "streetNameDisplayText": "ASCOT PL, ST CATHARINES"
      }
    ]
  },
  {
    "postal": "L2N8B6",
    "result": []
  },
  {
    "postal": "L2N6H1",
    "result": [
      {
        "electoralDistricts": [
          {
            "election": null,
            "id": 90,
            "name": "St. Catharines"
          }
        ],
        "pollDivisionIds": [
          10141334
        ],
        "postalCode": "L2N6H1",
        "streetName": "WESTGATE PARK",
        "streetDirectionId": null,
        "streetTypeId": "DR",
        "placeName": "ST CATHARINES",
        "streetNameDisplayText": "WESTGATE PARK DR, ST CATHARINES"
      }
    ]
  },
  {
    "postal": "L2N8T8",
    "result": []
  },
  {
    "postal": "L2N0T4",
    "result": []
  },
  {
    "postal": "L2N2C4",
    "result": [
      {
        "electoralDistricts": [
          {
            "election": null,
            "id": 90,
            "name": "St. Catharines"
          }
        ],
        "pollDivisionIds": [
          10141344
        ],
        "postalCode": "L2N2C4",
        "streetName": "ELSE",
        "streetDirectionId": null,
        "streetTypeId": "ST",
        "placeName": "ST CATHARINES",
        "streetNameDisplayText": "ELSE ST, ST CATHARINES"
      }
    ]
  },
  {
    "postal": "L2N8N3",
    "result": []
  },
  {
    "postal": "L2N4L8",
    "result": [
      {
        "electoralDistricts": [
          {
            "election": null,
            "id": 90,
            "name": "St. Catharines"
          }
        ],
        "pollDivisionIds": [
          10141339
        ],
        "postalCode": "L2N4L8",
        "streetName": "CYPRESS",
        "streetDirectionId": null,
        "streetTypeId": "ST",
        "placeName": "ST CATHARINES",
        "streetNameDisplayText": "CYPRESS ST, ST CATHARINES"
      }
    ]
  },
  {
    "postal": "L2N2B5",
    "result": [
      {
        "electoralDistricts": [
          {
            "election": null,
            "id": 90,
            "name": "St. Catharines"
          }
        ],
        "pollDivisionIds": [
          10141345
        ],
        "postalCode": "L2N2B5",
        "streetName": "LOGAN",
        "streetDirectionId": null,
        "streetTypeId": "ST",
        "placeName": "ST CATHARINES",
        "streetNameDisplayText": "LOGAN ST, ST CATHARINES"
      }
    ]
  },
  {
    "postal": "L2N3H1",
    "result": [
      {
        "electoralDistricts": [
          {
            "election": null,
            "id": 90,
            "name": "St. Catharines"
          }
        ],
        "pollDivisionIds": [
          10141339
        ],
        "postalCode": "L2N3H1",
        "streetName": "PRINCE EDWARD",
        "streetDirectionId": null,
        "streetTypeId": "DR",
        "placeName": "ST CATHARINES",
        "streetNameDisplayText": "PRINCE EDWARD DR, ST CATHARINES"
      }
    ]
  },
  {
    "postal": "L2N4Y1",
    "result": [
      {
        "electoralDistricts": [
          {
            "election": null,
            "id": 90,
            "name": "St. Catharines"
          }
        ],
        "pollDivisionIds": [
          10141338
        ],
        "postalCode": "L2N4Y1",
        "streetName": "DALHOUSIE",
        "streetDirectionId": null,
        "streetTypeId": "AVE",
        "placeName": "ST CATHARINES",
        "streetNameDisplayText": "DALHOUSIE AVE, ST CATHARINES"
      }
    ]
  },
  {
    "postal": "L2N7E2",
    "result": [
      {
        "electoralDistricts": [
          {
            "election": null,
            "id": 90,
            "name": "St. Catharines"
          }
        ],
        "pollDivisionIds": [
          10141338
        ],
        "postalCode": "L2N7E2",
        "streetName": "COLE FARM",
        "streetDirectionId": null,
        "streetTypeId": "BLVD",
        "placeName": "ST CATHARINES",
        "streetNameDisplayText": "COLE FARM BLVD, ST CATHARINES"
      }
    ]
  },
  {
    "postal": "L2N2P5",
    "result": [
      {
        "electoralDistricts": [
          {
            "election": null,
            "id": 90,
            "name": "St. Catharines"
          }
        ],
        "pollDivisionIds": [
          10141334
        ],
        "postalCode": "L2N2P5",
        "streetName": "OLD COACH",
        "streetDirectionId": null,
        "streetTypeId": "RD",
        "placeName": "ST CATHARINES",
        "streetNameDisplayText": "OLD COACH RD, ST CATHARINES"
      }
    ]
  },
  {
    "postal": "L2N8R7",
    "result": []
  },
  {
    "postal": "L2N9P1",
    "result": []
  },
  {
    "postal": "L2N3B8",
    "result": [
      {
        "electoralDistricts": [
          {
            "election": null,
            "id": 90,
            "name": "St. Catharines"
          }
        ],
        "pollDivisionIds": [
          10141336
        ],
        "postalCode": "L2N3B8",
        "streetName": "MANOR",
        "streetDirectionId": null,
        "streetTypeId": "RD",
        "placeName": "ST CATHARINES",
        "streetNameDisplayText": "MANOR RD, ST CATHARINES"
      }
    ]
  },
  {
    "postal": "L2N3P7",
    "result": [
      {
        "electoralDistricts": [
          {
            "election": null,
            "id": 90,
            "name": "St. Catharines"
          }
        ],
        "pollDivisionIds": [
          10141334
        ],
        "postalCode": "L2N3P7",
        "streetName": "SPRING GARDEN",
        "streetDirectionId": null,
        "streetTypeId": "BLVD",
        "placeName": "ST CATHARINES",
        "streetNameDisplayText": "SPRING GARDEN BLVD, ST CATHARINES"
      }
    ]
  },
  {
    "postal": "L2N9B2",
    "result": []
  },
  {
    "postal": "L2N6Z3",
    "result": [
      {
        "electoralDistricts": [
          {
            "election": null,
            "id": 90,
            "name": "St. Catharines"
          }
        ],
        "pollDivisionIds": [
          10141343
        ],
        "postalCode": "L2N6Z3",
        "streetName": "ELMA",
        "streetDirectionId": null,
        "streetTypeId": "ST",
        "placeName": "ST CATHARINES",
        "streetNameDisplayText": "ELMA ST, ST CATHARINES"
      }
    ]
  },
  {
    "postal": "L2N4N5",
    "result": [
      {
        "electoralDistricts": [
          {
            "election": null,
            "id": 90,
            "name": "St. Catharines"
          }
        ],
        "pollDivisionIds": [
          10141339
        ],
        "postalCode": "L2N4N5",
        "streetName": "ONTARIO",
        "streetDirectionId": null,
        "streetTypeId": "ST",
        "placeName": "ST CATHARINES",
        "streetNameDisplayText": "ONTARIO ST, ST CATHARINES"
      }
    ]
  },
  {
    "postal": "L2N8T3",
    "result": []
  },
  {
    "postal": "L2N1V2",
    "result": [
      {
        "electoralDistricts": [
          {
            "election": null,
            "id": 90,
            "name": "St. Catharines"
          }
        ],
        "pollDivisionIds": [
          10141340
        ],
        "postalCode": "L2N1V2",
        "streetName": "JOANNA",
        "streetDirectionId": null,
        "streetTypeId": "DR",
        "placeName": "ST CATHARINES",
        "streetNameDisplayText": "JOANNA DR, ST CATHARINES"
      }
    ]
  },
  {
    "postal": "L2N1Y0",
    "result": []
  },
  {
    "postal": "L2N3G6",
    "result": [
      {
        "electoralDistricts": [
          {
            "election": null,
            "id": 90,
            "name": "St. Catharines"
          }
        ],
        "pollDivisionIds": [
          10141335
        ],
        "postalCode": "L2N3G6",
        "streetName": "FLORENCE",
        "streetDirectionId": null,
        "streetTypeId": "ST",
        "placeName": "ST CATHARINES",
        "streetNameDisplayText": "FLORENCE ST, ST CATHARINES"
      }
    ]
  },
  {
    "postal": "L2N3H7",
    "result": [
      {
        "electoralDistricts": [
          {
            "election": null,
            "id": 90,
            "name": "St. Catharines"
          }
        ],
        "pollDivisionIds": [
          10141334
        ],
        "postalCode": "L2N3H7",
        "streetName": "BEECHWOOD",
        "streetDirectionId": null,
        "streetTypeId": "CRT",
        "placeName": "ST CATHARINES",
        "streetNameDisplayText": "BEECHWOOD CRT, ST CATHARINES"
      }
    ]
  },
  {
    "postal": "L2N7X8",
    "result": []
  },
  {
    "postal": "L2N0C7",
    "result": []
  },
  {
    "postal": "L2N0W9",
    "result": []
  },
  {
    "postal": "L2N8E6",
    "result": []
  },
  {
    "postal": "L2N9Z8",
    "result": []
  },
  {
    "postal": "L2N3P4",
    "result": [
      {
        "electoralDistricts": [
          {
            "election": null,
            "id": 90,
            "name": "St. Catharines"
          }
        ],
        "pollDivisionIds": [
          10141336
        ],
        "postalCode": "L2N3P4",
        "streetName": "DUNCAN",
        "streetDirectionId": null,
        "streetTypeId": "DR",
        "placeName": "ST CATHARINES",
        "streetNameDisplayText": "DUNCAN DR, ST CATHARINES"
      }
    ]
  },
  {
    "postal": "L2N6L8",
    "result": [
      {
        "electoralDistricts": [
          {
            "election": null,
            "id": 90,
            "name": "St. Catharines"
          }
        ],
        "pollDivisionIds": [
          10141340
        ],
        "postalCode": "L2N6L8",
        "streetName": "HARCOVE",
        "streetDirectionId": null,
        "streetTypeId": "ST",
        "placeName": "ST CATHARINES",
        "streetNameDisplayText": "HARCOVE ST, ST CATHARINES"
      }
    ]
  },
  {
    "postal": "L2N2R4",
    "result": [
      {
        "electoralDistricts": [
          {
            "election": null,
            "id": 90,
            "name": "St. Catharines"
          }
        ],
        "pollDivisionIds": [
          10141334
        ],
        "postalCode": "L2N2R4",
        "streetName": "HARBOUR",
        "streetDirectionId": null,
        "streetTypeId": "RD",
        "placeName": "ST CATHARINES",
        "streetNameDisplayText": "HARBOUR RD, ST CATHARINES"
      }
    ]
  },
  {
    "postal": "L2N2W1",
    "result": [
      {
        "electoralDistricts": [
          {
            "election": null,
            "id": 90,
            "name": "St. Catharines"
          }
        ],
        "pollDivisionIds": [
          10141336
        ],
        "postalCode": "L2N2W1",
        "streetName": "PARNELL",
        "streetDirectionId": null,
        "streetTypeId": "RD",
        "placeName": "ST CATHARINES",
        "streetNameDisplayText": "PARNELL RD, ST CATHARINES"
      }
    ]
  },
  {
    "postal": "L2N9H8",
    "result": []
  },
  {
    "postal": "L2N8X9",
    "result": []
  },
  {
    "postal": "L2N7H4",
    "result": []
  },
  {
    "postal": "L2N3J1",
    "result": [
      {
        "electoralDistricts": [
          {
            "election": null,
            "id": 90,
            "name": "St. Catharines"
          }
        ],
        "pollDivisionIds": [
          10141336
        ],
        "postalCode": "L2N3J1",
        "streetName": "GOVERNOR SIMCOE",
        "streetDirectionId": null,
        "streetTypeId": "DR",
        "placeName": "ST CATHARINES",
        "streetNameDisplayText": "GOVERNOR SIMCOE DR, ST CATHARINES"
      }
    ]
  },
  {
    "postal": "L2N1P4",
    "result": [
      {
        "electoralDistricts": [
          {
            "election": null,
            "id": 90,
            "name": "St. Catharines"
          }
        ],
        "pollDivisionIds": [
          10141340
        ],
        "postalCode": "L2N1P4",
        "streetName": "MILLWARD",
        "streetDirectionId": null,
        "streetTypeId": "AVE",
        "placeName": "ST CATHARINES",
        "streetNameDisplayText": "MILLWARD AVE, ST CATHARINES"
      }
    ]
  },
  {
    "postal": "L2N2A3",
    "result": [
      {
        "electoralDistricts": [
          {
            "election": null,
            "id": 90,
            "name": "St. Catharines"
          }
        ],
        "pollDivisionIds": [
          10141340
        ],
        "postalCode": "L2N2A3",
        "streetName": "FORSTER",
        "streetDirectionId": null,
        "streetTypeId": "ST",
        "placeName": "ST CATHARINES",
        "streetNameDisplayText": "FORSTER ST, ST CATHARINES"
      }
    ]
  },
  {
    "postal": "L2N0Z1",
    "result": []
  },
  {
    "postal": "L2N1C1",
    "result": [
      {
        "electoralDistricts": [
          {
            "election": null,
            "id": 90,
            "name": "St. Catharines"
          }
        ],
        "pollDivisionIds": [
          10141345
        ],
        "postalCode": "L2N1C1",
        "streetName": "CARLTON",
        "streetDirectionId": null,
        "streetTypeId": "ST",
        "placeName": "ST CATHARINES",
        "streetNameDisplayText": "CARLTON ST, ST CATHARINES"
      }
    ]
  },
  {
    "postal": "L2N0H3",
    "result": []
  },
  {
    "postal": "L2N7B0",
    "result": []
  },
  {
    "postal": "L2N5K2",
    "result": [
      {
        "electoralDistricts": [
          {
            "election": null,
            "id": 90,
            "name": "St. Catharines"
          }
        ],
        "pollDivisionIds": [
          10141338
        ],
        "postalCode": "L2N5K2",
        "streetName": "CONSIDINE",
        "streetDirectionId": null,
        "streetTypeId": "AVE",
        "placeName": "ST CATHARINES",
        "streetNameDisplayText": "CONSIDINE AVE, ST CATHARINES"
      }
    ]
  },
  {
    "postal": "L2N1E9",
    "result": [
      {
        "electoralDistricts": [
          {
            "election": null,
            "id": 90,
            "name": "St. Catharines"
          }
        ],
        "pollDivisionIds": [
          10141345
        ],
        "postalCode": "L2N1E9",
        "streetName": "ALLAN",
        "streetDirectionId": null,
        "streetTypeId": "DR",
        "placeName": "ST CATHARINES",
        "streetNameDisplayText": "ALLAN DR, ST CATHARINES"
      }
    ]
  },
  {
    "postal": "L2N9W7",
    "result": []
  },
  {
    "postal": "L2N5W6",
    "result": [
      {
        "electoralDistricts": [
          {
            "election": null,
            "id": 90,
            "name": "St. Catharines"
          }
        ],
        "pollDivisionIds": [
          10141334
        ],
        "postalCode": "L2N5W6",
        "streetName": "WESTGATE PARK",
        "streetDirectionId": null,
        "streetTypeId": "DR",
        "placeName": "ST CATHARINES",
        "streetNameDisplayText": "WESTGATE PARK DR, ST CATHARINES"
      }
    ]
  },
  {
    "postal": "L2N6S6",
    "result": [
      {
        "electoralDistricts": [
          {
            "election": null,
            "id": 90,
            "name": "St. Catharines"
          }
        ],
        "pollDivisionIds": [
          10141339
        ],
        "postalCode": "L2N6S6",
        "streetName": "ZIRALDO",
        "streetDirectionId": null,
        "streetTypeId": "RD",
        "placeName": "ST CATHARINES",
        "streetNameDisplayText": "ZIRALDO RD, ST CATHARINES"
      }
    ]
  },
  {
    "postal": "L2N2P8",
    "result": [
      {
        "electoralDistricts": [
          {
            "election": null,
            "id": 90,
            "name": "St. Catharines"
          }
        ],
        "pollDivisionIds": [
          10141334
        ],
        "postalCode": "L2N2P8",
        "streetName": "LAKEVIEW",
        "streetDirectionId": null,
        "streetTypeId": "AVE",
        "placeName": "ST CATHARINES",
        "streetNameDisplayText": "LAKEVIEW AVE, ST CATHARINES"
      }
    ]
  },
  {
    "postal": "L2N4P8",
    "result": [
      {
        "electoralDistricts": [
          {
            "election": null,
            "id": 90,
            "name": "St. Catharines"
          }
        ],
        "pollDivisionIds": [
          10141339
        ],
        "postalCode": "L2N4P8",
        "streetName": "LAKEPORT",
        "streetDirectionId": null,
        "streetTypeId": "RD",
        "placeName": "ST CATHARINES",
        "streetNameDisplayText": "LAKEPORT RD, ST CATHARINES"
      }
    ]
  },
  {
    "postal": "L2N0V9",
    "result": []
  },
  {
    "postal": "L2N5Y2",
    "result": [
      {
        "electoralDistricts": [
          {
            "election": null,
            "id": 90,
            "name": "St. Catharines"
          }
        ],
        "pollDivisionIds": [
          10141334
        ],
        "postalCode": "L2N5Y2",
        "streetName": "SANDY BEACH",
        "streetDirectionId": null,
        "streetTypeId": "BAY",
        "placeName": "ST CATHARINES",
        "streetNameDisplayText": "SANDY BEACH BAY, ST CATHARINES"
      }
    ]
  },
  {
    "postal": "L2N7Z7",
    "result": []
  },
  {
    "postal": "L2N6Y8",
    "result": [
      {
        "electoralDistricts": [
          {
            "election": null,
            "id": 90,
            "name": "St. Catharines"
          }
        ],
        "pollDivisionIds": [
          10141345
        ],
        "postalCode": "L2N6Y8",
        "streetName": "GREENMEADOW",
        "streetDirectionId": null,
        "streetTypeId": "CRT",
        "placeName": "ST CATHARINES",
        "streetNameDisplayText": "GREENMEADOW CRT, ST CATHARINES"
      }
    ]
  },
  {
    "postal": "L2N2G7",
    "result": [
      {
        "electoralDistricts": [
          {
            "election": null,
            "id": 90,
            "name": "St. Catharines"
          }
        ],
        "pollDivisionIds": [
          10141345
        ],
        "postalCode": "L2N2G7",
        "streetName": "GENEVA",
        "streetDirectionId": null,
        "streetTypeId": "ST",
        "placeName": "ST CATHARINES",
        "streetNameDisplayText": "GENEVA ST, ST CATHARINES"
      }
    ]
  },
  {
    "postal": "L2N8C1",
    "result": []
  },
  {
    "postal": "L2N5C5",
    "result": [
      {
        "electoralDistricts": [
          {
            "election": null,
            "id": 90,
            "name": "St. Catharines"
          }
        ],
        "pollDivisionIds": [
          10141338
        ],
        "postalCode": "L2N5C5",
        "streetName": "SIMCOE",
        "streetDirectionId": null,
        "streetTypeId": "ST",
        "placeName": "ST CATHARINES",
        "streetNameDisplayText": "SIMCOE ST, ST CATHARINES"
      }
    ]
  },
  {
    "postal": "L2N2X8",
    "result": [
      {
        "electoralDistricts": [
          {
            "election": null,
            "id": 90,
            "name": "St. Catharines"
          }
        ],
        "pollDivisionIds": [
          10141335
        ],
        "postalCode": "L2N2X8",
        "streetName": "PRINCE HENRY",
        "streetDirectionId": null,
        "streetTypeId": "CRT",
        "placeName": "ST CATHARINES",
        "streetNameDisplayText": "PRINCE HENRY CRT, ST CATHARINES"
      }
    ]
  },
  {
    "postal": "L2N1W5",
    "result": [
      {
        "electoralDistricts": [
          {
            "election": null,
            "id": 90,
            "name": "St. Catharines"
          }
        ],
        "pollDivisionIds": [
          10141345
        ],
        "postalCode": "L2N1W5",
        "streetName": "SCHWALM",
        "streetDirectionId": null,
        "streetTypeId": "CIR",
        "placeName": "ST CATHARINES",
        "streetNameDisplayText": "SCHWALM CIR, ST CATHARINES"
      }
    ]
  },
  {
    "postal": "L2N7G0",
    "result": []
  },
  {
    "postal": "L2N8J8",
    "result": []
  },
  {
    "postal": "L2N3Y0",
    "result": []
  },
  {
    "postal": "L2N9T7",
    "result": []
  },
  {
    "postal": "L2N5P4",
    "result": [
      {
        "electoralDistricts": [
          {
            "election": null,
            "id": 90,
            "name": "St. Catharines"
          }
        ],
        "pollDivisionIds": [
          10141339
        ],
        "postalCode": "L2N5P4",
        "streetName": "GREENVIEW",
        "streetDirectionId": null,
        "streetTypeId": "GATE",
        "placeName": "ST CATHARINES",
        "streetNameDisplayText": "GREENVIEW GATE, ST CATHARINES"
      }
    ]
  },
  {
    "postal": "L2N4B0",
    "result": []
  },
  {
    "postal": "L2N9N8",
    "result": []
  },
  {
    "postal": "L2N4A7",
    "result": [
      {
        "electoralDistricts": [
          {
            "election": null,
            "id": 90,
            "name": "St. Catharines"
          }
        ],
        "pollDivisionIds": [
          10141343
        ],
        "postalCode": "L2N4A7",
        "streetName": "DOROTHY",
        "streetDirectionId": null,
        "streetTypeId": "ST",
        "placeName": "ST CATHARINES",
        "streetNameDisplayText": "DOROTHY ST, ST CATHARINES"
      }
    ]
  },
  {
    "postal": "L2N4H9",
    "result": [
      {
        "electoralDistricts": [
          {
            "election": null,
            "id": 90,
            "name": "St. Catharines"
          }
        ],
        "pollDivisionIds": [
          10141339
        ],
        "postalCode": "L2N4H9",
        "streetName": "LAKE",
        "streetDirectionId": null,
        "streetTypeId": "ST",
        "placeName": "ST CATHARINES",
        "streetNameDisplayText": "LAKE ST, ST CATHARINES"
      }
    ]
  },
  {
    "postal": "L2N6X1",
    "result": [
      {
        "electoralDistricts": [
          {
            "election": null,
            "id": 90,
            "name": "St. Catharines"
          }
        ],
        "pollDivisionIds": [
          10141338
        ],
        "postalCode": "L2N6X1",
        "streetName": "OLD MILL",
        "streetDirectionId": null,
        "streetTypeId": "RD",
        "placeName": "ST CATHARINES",
        "streetNameDisplayText": "OLD MILL RD, ST CATHARINES"
      }
    ]
  },
  {
    "postal": "L2N9Y7",
    "result": []
  },
  {
    "postal": "L2N2Y5",
    "result": [
      {
        "electoralDistricts": [
          {
            "election": null,
            "id": 90,
            "name": "St. Catharines"
          }
        ],
        "pollDivisionIds": [
          10141336
        ],
        "postalCode": "L2N2Y5",
        "streetName": "DRAPER",
        "streetDirectionId": null,
        "streetTypeId": "DR",
        "placeName": "ST CATHARINES",
        "streetNameDisplayText": "DRAPER DR, ST CATHARINES"
      }
    ]
  },
  {
    "postal": "L2N8L7",
    "result": []
  },
  {
    "postal": "L2N2A8",
    "result": [
      {
        "electoralDistricts": [
          {
            "election": null,
            "id": 90,
            "name": "St. Catharines"
          }
        ],
        "pollDivisionIds": [
          10141345
        ],
        "postalCode": "L2N2A8",
        "streetName": "DIXIE",
        "streetDirectionId": null,
        "streetTypeId": "RD",
        "placeName": "ST CATHARINES",
        "streetNameDisplayText": "DIXIE RD, ST CATHARINES"
      }
    ]
  },
  {
    "postal": "L2N2K9",
    "result": [
      {
        "electoralDistricts": [
          {
            "election": null,
            "id": 90,
            "name": "St. Catharines"
          }
        ],
        "pollDivisionIds": [
          10141344
        ],
        "postalCode": "L2N2K9",
        "streetName": "SHERMAN",
        "streetDirectionId": null,
        "streetTypeId": "DR",
        "placeName": "ST CATHARINES",
        "streetNameDisplayText": "SHERMAN DR, ST CATHARINES"
      }
    ]
  },
  {
    "postal": "L2N3E5",
    "result": [
      {
        "electoralDistricts": [
          {
            "election": null,
            "id": 90,
            "name": "St. Catharines"
          }
        ],
        "pollDivisionIds": [
          10141336
        ],
        "postalCode": "L2N3E5",
        "streetName": "GLEN PARK",
        "streetDirectionId": null,
        "streetTypeId": "RD",
        "placeName": "ST CATHARINES",
        "streetNameDisplayText": "GLEN PARK RD, ST CATHARINES"
      }
    ]
  },
  {
    "postal": "L2N8N6",
    "result": []
  },
  {
    "postal": "L2N8J4",
    "result": []
  },
  {
    "postal": "L2N4R7",
    "result": [
      {
        "electoralDistricts": [
          {
            "election": null,
            "id": 90,
            "name": "St. Catharines"
          }
        ],
        "pollDivisionIds": [
          10141339
        ],
        "postalCode": "L2N4R7",
        "streetName": "ROYAL HENLEY",
        "streetDirectionId": null,
        "streetTypeId": "BLVD",
        "placeName": "ST CATHARINES",
        "streetNameDisplayText": "ROYAL HENLEY BLVD, ST CATHARINES"
      }
    ]
  },
  {
    "postal": "L2N9K1",
    "result": []
  },
  {
    "postal": "L2N8E1",
    "result": []
  },
  {
    "postal": "L2N0R1",
    "result": []
  },
  {
    "postal": "L2N4J3",
    "result": [
      {
        "electoralDistricts": [
          {
            "election": null,
            "id": 90,
            "name": "St. Catharines"
          }
        ],
        "pollDivisionIds": [
          10141334
        ],
        "postalCode": "L2N4J3",
        "streetName": "LAKE",
        "streetDirectionId": null,
        "streetTypeId": "ST",
        "placeName": "ST CATHARINES",
        "streetNameDisplayText": "LAKE ST, ST CATHARINES"
      }
    ]
  },
  {
    "postal": "L2N7E7",
    "result": [
      {
        "electoralDistricts": [
          {
            "election": null,
            "id": 90,
            "name": "St. Catharines"
          }
        ],
        "pollDivisionIds": [
          10141334
        ],
        "postalCode": "L2N7E7",
        "streetName": "BOESE",
        "streetDirectionId": null,
        "streetTypeId": "CRT",
        "placeName": "ST CATHARINES",
        "streetNameDisplayText": "BOESE CRT, ST CATHARINES"
      }
    ]
  },
  {
    "postal": "L2N0J0",
    "result": []
  },
  {
    "postal": "L2N7R8",
    "result": [
      {
        "electoralDistricts": [
          {
            "election": null,
            "id": 90,
            "name": "St. Catharines"
          }
        ],
        "pollDivisionIds": [
          10141338
        ],
        "postalCode": "L2N7R8",
        "streetName": "MAIN",
        "streetDirectionId": null,
        "streetTypeId": "ST",
        "placeName": "ST CATHARINES",
        "streetNameDisplayText": "MAIN ST, ST CATHARINES"
      }
    ]
  },
  {
    "postal": "L2N9X0",
    "result": []
  },
  {
    "postal": "L2N7P6",
    "result": [
      {
        "electoralDistricts": [
          {
            "election": null,
            "id": 90,
            "name": "St. Catharines"
          }
        ],
        "pollDivisionIds": [
          10141345
        ],
        "postalCode": "L2N7P6",
        "streetName": "CARLTON",
        "streetDirectionId": null,
        "streetTypeId": "ST",
        "placeName": "ST CATHARINES",
        "streetNameDisplayText": "CARLTON ST, ST CATHARINES"
      }
    ]
  },
  {
    "postal": "L2N0R7",
    "result": []
  },
  {
    "postal": "L2N5W1",
    "result": [
      {
        "electoralDistricts": [
          {
            "election": null,
            "id": 90,
            "name": "St. Catharines"
          }
        ],
        "pollDivisionIds": [
          10141334
        ],
        "postalCode": "L2N5W1",
        "streetName": "SUMMERTON",
        "streetDirectionId": null,
        "streetTypeId": "PL",
        "placeName": "ST CATHARINES",
        "streetNameDisplayText": "SUMMERTON PL, ST CATHARINES"
      }
    ]
  },
  {
    "postal": "L2N0K4",
    "result": []
  },
  {
    "postal": "L2N7N9",
    "result": [
      {
        "electoralDistricts": [
          {
            "election": null,
            "id": 90,
            "name": "St. Catharines"
          }
        ],
        "pollDivisionIds": [
          10141334
        ],
        "postalCode": "L2N7N9",
        "streetName": "LIGHTHOUSE",
        "streetDirectionId": null,
        "streetTypeId": "RD",
        "placeName": "ST CATHARINES",
        "streetNameDisplayText": "LIGHTHOUSE RD, ST CATHARINES"
      }
    ]
  },
  {
    "postal": "L2N1N0",
    "result": []
  },
  {
    "postal": "L2N6P3",
    "result": [
      {
        "electoralDistricts": [
          {
            "election": null,
            "id": 90,
            "name": "St. Catharines"
          }
        ],
        "pollDivisionIds": [
          10141339
        ],
        "postalCode": "L2N6P3",
        "streetName": "LINWELL",
        "streetDirectionId": null,
        "streetTypeId": "RD",
        "placeName": "ST CATHARINES",
        "streetNameDisplayText": "LINWELL RD, ST CATHARINES"
      }
    ]
  },
  {
    "postal": "L2N5A1",
    "result": [
      {
        "electoralDistricts": [
          {
            "election": null,
            "id": 90,
            "name": "St. Catharines"
          }
        ],
        "pollDivisionIds": [
          10141338
        ],
        "postalCode": "L2N5A1",
        "streetName": "PEEL",
        "streetDirectionId": null,
        "streetTypeId": "ST",
        "placeName": "ST CATHARINES",
        "streetNameDisplayText": "PEEL ST, ST CATHARINES"
      }
    ]
  },
  {
    "postal": "L2N9M9",
    "result": []
  },
  {
    "postal": "L2N7T6",
    "result": []
  },
  {
    "postal": "L2N3X0",
    "result": []
  },
  {
    "postal": "L2N2T0",
    "result": []
  },
  {
    "postal": "L2N5X9",
    "result": [
      {
        "electoralDistricts": [
          {
            "election": null,
            "id": 90,
            "name": "St. Catharines"
          }
        ],
        "pollDivisionIds": [
          10141334
        ],
        "postalCode": "L2N5X9",
        "streetName": "PEBBLE BEACH",
        "streetDirectionId": null,
        "streetTypeId": "CRT",
        "placeName": "ST CATHARINES",
        "streetNameDisplayText": "PEBBLE BEACH CRT, ST CATHARINES"
      }
    ]
  },
  {
    "postal": "L2N2R3",
    "result": [
      {
        "electoralDistricts": [
          {
            "election": null,
            "id": 90,
            "name": "St. Catharines"
          }
        ],
        "pollDivisionIds": [
          10141334
        ],
        "postalCode": "L2N2R3",
        "streetName": "COLONIAL",
        "streetDirectionId": null,
        "streetTypeId": "CRT",
        "placeName": "ST CATHARINES",
        "streetNameDisplayText": "COLONIAL CRT, ST CATHARINES"
      }
    ]
  },
  {
    "postal": "L2N5N2",
    "result": [
      {
        "electoralDistricts": [
          {
            "election": null,
            "id": 90,
            "name": "St. Catharines"
          }
        ],
        "pollDivisionIds": [
          10141338
        ],
        "postalCode": "L2N5N2",
        "streetName": "ROBERT",
        "streetDirectionId": null,
        "streetTypeId": "ST",
        "placeName": "ST CATHARINES",
        "streetNameDisplayText": "ROBERT ST, ST CATHARINES"
      }
    ]
  },
  {
    "postal": "L2N4Y7",
    "result": [
      {
        "electoralDistricts": [
          {
            "election": null,
            "id": 90,
            "name": "St. Catharines"
          }
        ],
        "pollDivisionIds": [
          10141338
        ],
        "postalCode": "L2N4Y7",
        "streetName": "BAYVIEW",
        "streetDirectionId": null,
        "streetTypeId": "DR",
        "placeName": "ST CATHARINES",
        "streetNameDisplayText": "BAYVIEW DR, ST CATHARINES"
      }
    ]
  },
  {
    "postal": "L2N7M0",
    "result": []
  },
  {
    "postal": "L2N8P3",
    "result": []
  },
  {
    "postal": "L2N3N3",
    "result": [
      {
        "electoralDistricts": [
          {
            "election": null,
            "id": 90,
            "name": "St. Catharines"
          }
        ],
        "pollDivisionIds": [
          10141336
        ],
        "postalCode": "L2N3N3",
        "streetName": "WOODBINE",
        "streetDirectionId": null,
        "streetTypeId": "AVE",
        "placeName": "ST CATHARINES",
        "streetNameDisplayText": "WOODBINE AVE, ST CATHARINES"
      }
    ]
  },
  {
    "postal": "L2N7S3",
    "result": [
      {
        "electoralDistricts": [
          {
            "election": null,
            "id": 90,
            "name": "St. Catharines"
          }
        ],
        "pollDivisionIds": [
          10141336
        ],
        "postalCode": "L2N7S3",
        "streetName": "GUY",
        "streetDirectionId": null,
        "streetTypeId": "RD",
        "placeName": "ST CATHARINES",
        "streetNameDisplayText": "GUY RD, ST CATHARINES"
      }
    ]
  },
  {
    "postal": "L2N3V9",
    "result": [
      {
        "electoralDistricts": [
          {
            "election": null,
            "id": 90,
            "name": "St. Catharines"
          }
        ],
        "pollDivisionIds": [
          10141334
        ],
        "postalCode": "L2N3V9",
        "streetName": "SHORELINE",
        "streetDirectionId": null,
        "streetTypeId": "DR",
        "placeName": "ST CATHARINES",
        "streetNameDisplayText": "SHORELINE DR, ST CATHARINES"
      }
    ]
  },
  {
    "postal": "L2N9N7",
    "result": []
  },
  {
    "postal": "L2N0G4",
    "result": []
  },
  {
    "postal": "L2N2E2",
    "result": [
      {
        "electoralDistricts": [
          {
            "election": null,
            "id": 90,
            "name": "St. Catharines"
          }
        ],
        "pollDivisionIds": [
          10141345
        ],
        "postalCode": "L2N2E2",
        "streetName": "HEWKO",
        "streetDirectionId": null,
        "streetTypeId": "ST",
        "placeName": "ST CATHARINES",
        "streetNameDisplayText": "HEWKO ST, ST CATHARINES"
      }
    ]
  },
  {
    "postal": "L2N7W8",
    "result": []
  },
  {
    "postal": "L2N7M5",
    "result": [
      {
        "electoralDistricts": [
          {
            "election": null,
            "id": 90,
            "name": "St. Catharines"
          }
        ],
        "pollDivisionIds": [
          10141338
        ],
        "postalCode": "L2N7M5",
        "streetName": "MACINTOSH",
        "streetDirectionId": null,
        "streetTypeId": "CRES",
        "placeName": "ST CATHARINES",
        "streetNameDisplayText": "MACINTOSH CRES, ST CATHARINES"
      },
      {
        "electoralDistricts": [
          {
            "election": null,
            "id": 90,
            "name": "St. Catharines"
          }
        ],
        "pollDivisionIds": [
          10141338
        ],
        "postalCode": "L2N7M5",
        "streetName": "SPARTAN",
        "streetDirectionId": null,
        "streetTypeId": "CRT",
        "placeName": "ST CATHARINES",
        "streetNameDisplayText": "SPARTAN CRT, ST CATHARINES"
      }
    ]
  },
  {
    "postal": "L2N5W8",
    "result": [
      {
        "electoralDistricts": [
          {
            "election": null,
            "id": 90,
            "name": "St. Catharines"
          }
        ],
        "pollDivisionIds": [
          10141334
        ],
        "postalCode": "L2N5W8",
        "streetName": "WESTGATE PARK",
        "streetDirectionId": null,
        "streetTypeId": "DR",
        "placeName": "ST CATHARINES",
        "streetNameDisplayText": "WESTGATE PARK DR, ST CATHARINES"
      }
    ]
  },
  {
    "postal": "L2N5E5",
    "result": [
      {
        "electoralDistricts": [
          {
            "election": null,
            "id": 90,
            "name": "St. Catharines"
          }
        ],
        "pollDivisionIds": [
          10141338
        ],
        "postalCode": "L2N5E5",
        "streetName": "ANN",
        "streetDirectionId": null,
        "streetTypeId": "ST",
        "placeName": "ST CATHARINES",
        "streetNameDisplayText": "ANN ST, ST CATHARINES"
      }
    ]
  },
  {
    "postal": "L2N1P9",
    "result": [
      {
        "electoralDistricts": [
          {
            "election": null,
            "id": 90,
            "name": "St. Catharines"
          }
        ],
        "pollDivisionIds": [
          10141340
        ],
        "postalCode": "L2N1P9",
        "streetName": "TRACEY",
        "streetDirectionId": null,
        "streetTypeId": "RD",
        "placeName": "ST CATHARINES",
        "streetNameDisplayText": "TRACEY RD, ST CATHARINES"
      }
    ]
  },
  {
    "postal": "L2N8V8",
    "result": []
  },
  {
    "postal": "L2N9G8",
    "result": []
  },
  {
    "postal": "L2N8H9",
    "result": []
  },
  {
    "postal": "L2N1Z1",
    "result": [
      {
        "electoralDistricts": [
          {
            "election": null,
            "id": 90,
            "name": "St. Catharines"
          }
        ],
        "pollDivisionIds": [
          10141340
        ],
        "postalCode": "L2N1Z1",
        "streetName": "WHITE",
        "streetDirectionId": null,
        "streetTypeId": "ST",
        "placeName": "ST CATHARINES",
        "streetNameDisplayText": "WHITE ST, ST CATHARINES"
      }
    ]
  },
  {
    "postal": "L2N8M3",
    "result": []
  },
  {
    "postal": "L2N5H6",
    "result": [
      {
        "electoralDistricts": [
          {
            "election": null,
            "id": 90,
            "name": "St. Catharines"
          }
        ],
        "pollDivisionIds": [
          10141338
        ],
        "postalCode": "L2N5H6",
        "streetName": "CHRISTIE",
        "streetDirectionId": null,
        "streetTypeId": "ST",
        "placeName": "ST CATHARINES",
        "streetNameDisplayText": "CHRISTIE ST, ST CATHARINES"
      }
    ]
  },
  {
    "postal": "L2N7W7",
    "result": []
  },
  {
    "postal": "L2N4L0",
    "result": []
  },
  {
    "postal": "L2N2N1",
    "result": [
      {
        "electoralDistricts": [
          {
            "election": null,
            "id": 90,
            "name": "St. Catharines"
          }
        ],
        "pollDivisionIds": [
          10141334
        ],
        "postalCode": "L2N2N1",
        "streetName": "BLACK FRIARS",
        "streetDirectionId": null,
        "streetTypeId": "RD",
        "placeName": "ST CATHARINES",
        "streetNameDisplayText": "BLACK FRIARS RD, ST CATHARINES"
      }
    ]
  },
  {
    "postal": "L2N2H4",
    "result": [
      {
        "electoralDistricts": [
          {
            "election": null,
            "id": 90,
            "name": "St. Catharines"
          }
        ],
        "pollDivisionIds": [
          10141344
        ],
        "postalCode": "L2N2H4",
        "streetName": "GENEVA",
        "streetDirectionId": null,
        "streetTypeId": "ST",
        "placeName": "ST CATHARINES",
        "streetNameDisplayText": "GENEVA ST, ST CATHARINES"
      }
    ]
  },
  {
    "postal": "L2N5C8",
    "result": [
      {
        "electoralDistricts": [
          {
            "election": null,
            "id": 90,
            "name": "St. Catharines"
          }
        ],
        "pollDivisionIds": [
          10141338
        ],
        "postalCode": "L2N5C8",
        "streetName": "BROCK",
        "streetDirectionId": null,
        "streetTypeId": "ST",
        "placeName": "ST CATHARINES",
        "streetNameDisplayText": "BROCK ST, ST CATHARINES"
      }
    ]
  },
  {
    "postal": "L2N8B0",
    "result": []
  },
  {
    "postal": "L2N1T4",
    "result": [
      {
        "electoralDistricts": [
          {
            "election": null,
            "id": 90,
            "name": "St. Catharines"
          }
        ],
        "pollDivisionIds": [
          10141340
        ],
        "postalCode": "L2N1T4",
        "streetName": "LINWELL",
        "streetDirectionId": null,
        "streetTypeId": "RD",
        "placeName": "ST CATHARINES",
        "streetNameDisplayText": "LINWELL RD, ST CATHARINES"
      }
    ]
  },
  {
    "postal": "L2N7N7",
    "result": [
      {
        "electoralDistricts": [
          {
            "election": null,
            "id": 90,
            "name": "St. Catharines"
          }
        ],
        "pollDivisionIds": [
          10141334
        ],
        "postalCode": "L2N7N7",
        "streetName": "CRICKET HOLLOW",
        "streetDirectionId": null,
        "streetTypeId": "RD",
        "placeName": "ST CATHARINES",
        "streetNameDisplayText": "CRICKET HOLLOW RD, ST CATHARINES"
      }
    ]
  },
  {
    "postal": "L2N4L3",
    "result": []
  },
  {
    "postal": "L2N2N2",
    "result": [
      {
        "electoralDistricts": [
          {
            "election": null,
            "id": 90,
            "name": "St. Catharines"
          }
        ],
        "pollDivisionIds": [
          10141334
        ],
        "postalCode": "L2N2N2",
        "streetName": "VISCOUNT",
        "streetDirectionId": null,
        "streetTypeId": "PL",
        "placeName": "ST CATHARINES",
        "streetNameDisplayText": "VISCOUNT PL, ST CATHARINES"
      }
    ]
  },
  {
    "postal": "L2N4N8",
    "result": [
      {
        "electoralDistricts": [
          {
            "election": null,
            "id": 90,
            "name": "St. Catharines"
          }
        ],
        "pollDivisionIds": [
          10141339
        ],
        "postalCode": "L2N4N8",
        "streetName": "ONTARIO",
        "streetDirectionId": null,
        "streetTypeId": "ST",
        "placeName": "ST CATHARINES",
        "streetNameDisplayText": "ONTARIO ST, ST CATHARINES"
      }
    ]
  },
  {
    "postal": "L2N3M5",
    "result": [
      {
        "electoralDistricts": [
          {
            "election": null,
            "id": 90,
            "name": "St. Catharines"
          }
        ],
        "pollDivisionIds": [
          10141336
        ],
        "postalCode": "L2N3M5",
        "streetName": "NICKERSON",
        "streetDirectionId": null,
        "streetTypeId": "AVE",
        "placeName": "ST CATHARINES",
        "streetNameDisplayText": "NICKERSON AVE, ST CATHARINES"
      }
    ]
  },
  {
    "postal": "L2N6H7",
    "result": [
      {
        "electoralDistricts": [
          {
            "election": null,
            "id": 90,
            "name": "St. Catharines"
          }
        ],
        "pollDivisionIds": [
          10141334
        ],
        "postalCode": "L2N6H7",
        "streetName": "SHORELINE",
        "streetDirectionId": null,
        "streetTypeId": "DR",
        "placeName": "ST CATHARINES",
        "streetNameDisplayText": "SHORELINE DR, ST CATHARINES"
      }
    ]
  },
  {
    "postal": "L2N8Y8",
    "result": []
  },
  {
    "postal": "L2N5R9",
    "result": [
      {
        "electoralDistricts": [
          {
            "election": null,
            "id": 90,
            "name": "St. Catharines"
          }
        ],
        "pollDivisionIds": [
          10141338
        ],
        "postalCode": "L2N5R9",
        "streetName": "DRAYTON",
        "streetDirectionId": null,
        "streetTypeId": "CRT",
        "placeName": "ST CATHARINES",
        "streetNameDisplayText": "DRAYTON CRT, ST CATHARINES"
      }
    ]
  },
  {
    "postal": "L2N8G3",
    "result": []
  },
  {
    "postal": "L2N4N7",
    "result": [
      {
        "electoralDistricts": [
          {
            "election": null,
            "id": 90,
            "name": "St. Catharines"
          }
        ],
        "pollDivisionIds": [
          10141339
        ],
        "postalCode": "L2N4N7",
        "streetName": "ONTARIO",
        "streetDirectionId": null,
        "streetTypeId": "ST",
        "placeName": "ST CATHARINES",
        "streetNameDisplayText": "ONTARIO ST, ST CATHARINES"
      }
    ]
  },
  {
    "postal": "L2N0B9",
    "result": []
  },
  {
    "postal": "L2N9K7",
    "result": []
  },
  {
    "postal": "L2N9K9",
    "result": []
  },
  {
    "postal": "L2N3Z2",
    "result": [
      {
        "electoralDistricts": [
          {
            "election": null,
            "id": 90,
            "name": "St. Catharines"
          }
        ],
        "pollDivisionIds": [
          10141335
        ],
        "postalCode": "L2N3Z2",
        "streetName": "PRINCE CHARLES",
        "streetDirectionId": null,
        "streetTypeId": "DR",
        "placeName": "ST CATHARINES",
        "streetNameDisplayText": "PRINCE CHARLES DR, ST CATHARINES"
      }
    ]
  },
  {
    "postal": "L2N6W7",
    "result": [
      {
        "electoralDistricts": [
          {
            "election": null,
            "id": 90,
            "name": "St. Catharines"
          }
        ],
        "pollDivisionIds": [
          10141338
        ],
        "postalCode": "L2N6W7",
        "streetName": "MARY",
        "streetDirectionId": null,
        "streetTypeId": "ST",
        "placeName": "ST CATHARINES",
        "streetNameDisplayText": "MARY ST, ST CATHARINES"
      }
    ]
  },
  {
    "postal": "L2N0P1",
    "result": []
  },
  {
    "postal": "L2N3A0",
    "result": []
  },
  {
    "postal": "L2N8L9",
    "result": []
  },
  {
    "postal": "L2N6X0",
    "result": []
  },
  {
    "postal": "L2N3E9",
    "result": [
      {
        "electoralDistricts": [
          {
            "election": null,
            "id": 90,
            "name": "St. Catharines"
          }
        ],
        "pollDivisionIds": [
          10141336
        ],
        "postalCode": "L2N3E9",
        "streetName": "GLEN PARK",
        "streetDirectionId": null,
        "streetTypeId": "RD",
        "placeName": "ST CATHARINES",
        "streetNameDisplayText": "GLEN PARK RD, ST CATHARINES"
      }
    ]
  },
  {
    "postal": "L2N0S5",
    "result": []
  },
  {
    "postal": "L2N1A2",
    "result": [
      {
        "electoralDistricts": [
          {
            "election": null,
            "id": 90,
            "name": "St. Catharines"
          }
        ],
        "pollDivisionIds": [
          10141346
        ],
        "postalCode": "L2N1A2",
        "streetName": "MCCALLA",
        "streetDirectionId": null,
        "streetTypeId": "DR",
        "placeName": "ST CATHARINES",
        "streetNameDisplayText": "MCCALLA DR, ST CATHARINES"
      }
    ]
  },
  {
    "postal": "L2N5V8",
    "result": []
  },
  {
    "postal": "L2N8C5",
    "result": []
  },
  {
    "postal": "L2N6N0",
    "result": []
  },
  {
    "postal": "L2N9E6",
    "result": []
  },
  {
    "postal": "L2N5J7",
    "result": []
  },
  {
    "postal": "L2N2R2",
    "result": [
      {
        "electoralDistricts": [
          {
            "election": null,
            "id": 90,
            "name": "St. Catharines"
          }
        ],
        "pollDivisionIds": [
          10141334
        ],
        "postalCode": "L2N2R2",
        "streetName": "COLONIAL",
        "streetDirectionId": null,
        "streetTypeId": "CRT",
        "placeName": "ST CATHARINES",
        "streetNameDisplayText": "COLONIAL CRT, ST CATHARINES"
      }
    ]
  },
  {
    "postal": "L2N0P5",
    "result": []
  },
  {
    "postal": "L2N5A7",
    "result": [
      {
        "electoralDistricts": [
          {
            "election": null,
            "id": 90,
            "name": "St. Catharines"
          }
        ],
        "pollDivisionIds": [
          10141338
        ],
        "postalCode": "L2N5A7",
        "streetName": "MARY",
        "streetDirectionId": null,
        "streetTypeId": "ST",
        "placeName": "ST CATHARINES",
        "streetNameDisplayText": "MARY ST, ST CATHARINES"
      }
    ]
  },
  {
    "postal": "L2N1G1",
    "result": [
      {
        "electoralDistricts": [
          {
            "election": null,
            "id": 90,
            "name": "St. Catharines"
          }
        ],
        "pollDivisionIds": [
          10141345
        ],
        "postalCode": "L2N1G1",
        "streetName": "ALLAN",
        "streetDirectionId": null,
        "streetTypeId": "DR",
        "placeName": "ST CATHARINES",
        "streetNameDisplayText": "ALLAN DR, ST CATHARINES"
      }
    ]
  },
  {
    "postal": "L2N9R6",
    "result": []
  },
  {
    "postal": "L2N4Z9",
    "result": [
      {
        "electoralDistricts": [
          {
            "election": null,
            "id": 90,
            "name": "St. Catharines"
          }
        ],
        "pollDivisionIds": [
          10141338
        ],
        "postalCode": "L2N4Z9",
        "streetName": "BAYVIEW",
        "streetDirectionId": null,
        "streetTypeId": "DR",
        "placeName": "ST CATHARINES",
        "streetNameDisplayText": "BAYVIEW DR, ST CATHARINES"
      }
    ]
  },
  {
    "postal": "L2N1V5",
    "result": [
      {
        "electoralDistricts": [
          {
            "election": null,
            "id": 90,
            "name": "St. Catharines"
          }
        ],
        "pollDivisionIds": [
          10141340
        ],
        "postalCode": "L2N1V5",
        "streetName": "HALLCREST",
        "streetDirectionId": null,
        "streetTypeId": "AVE",
        "placeName": "ST CATHARINES",
        "streetNameDisplayText": "HALLCREST AVE, ST CATHARINES"
      }
    ]
  },
  {
    "postal": "L2N9Y5",
    "result": []
  },
  {
    "postal": "L2N1P2",
    "result": [
      {
        "electoralDistricts": [
          {
            "election": null,
            "id": 90,
            "name": "St. Catharines"
          }
        ],
        "pollDivisionIds": [
          10141340
        ],
        "postalCode": "L2N1P2",
        "streetName": "MILLWARD",
        "streetDirectionId": null,
        "streetTypeId": "AVE",
        "placeName": "ST CATHARINES",
        "streetNameDisplayText": "MILLWARD AVE, ST CATHARINES"
      }
    ]
  },
  {
    "postal": "L2N5X0",
    "result": []
  },
  {
    "postal": "L2N7B8",
    "result": [
      {
        "electoralDistricts": [
          {
            "election": null,
            "id": 90,
            "name": "St. Catharines"
          }
        ],
        "pollDivisionIds": [
          10141334
        ],
        "postalCode": "L2N7B8",
        "streetName": "LAKE",
        "streetDirectionId": null,
        "streetTypeId": "ST",
        "placeName": "ST CATHARINES",
        "streetNameDisplayText": "LAKE ST, ST CATHARINES"
      }
    ]
  },
  {
    "postal": "L2N0C6",
    "result": []
  },
  {
    "postal": "L2N6G1",
    "result": [
      {
        "electoralDistricts": [
          {
            "election": null,
            "id": 90,
            "name": "St. Catharines"
          }
        ],
        "pollDivisionIds": [
          10141334
        ],
        "postalCode": "L2N6G1",
        "streetName": "PINEMEADOW",
        "streetDirectionId": null,
        "streetTypeId": "PL",
        "placeName": "ST CATHARINES",
        "streetNameDisplayText": "PINEMEADOW PL, ST CATHARINES"
      }
    ]
  },
  {
    "postal": "L2N3K3",
    "result": [
      {
        "electoralDistricts": [
          {
            "election": null,
            "id": 90,
            "name": "St. Catharines"
          }
        ],
        "pollDivisionIds": [
          10141334
        ],
        "postalCode": "L2N3K3",
        "streetName": "MISSISSAUGA",
        "streetDirectionId": null,
        "streetTypeId": "RD",
        "placeName": "ST CATHARINES",
        "streetNameDisplayText": "MISSISSAUGA RD, ST CATHARINES"
      }
    ]
  },
  {
    "postal": "L2N9R0",
    "result": []
  },
  {
    "postal": "L2N4R8",
    "result": [
      {
        "electoralDistricts": [
          {
            "election": null,
            "id": 90,
            "name": "St. Catharines"
          }
        ],
        "pollDivisionIds": [
          10141339
        ],
        "postalCode": "L2N4R8",
        "streetName": "ROYAL HENLEY",
        "streetDirectionId": null,
        "streetTypeId": "BLVD",
        "placeName": "ST CATHARINES",
        "streetNameDisplayText": "ROYAL HENLEY BLVD, ST CATHARINES"
      }
    ]
  },
  {
    "postal": "L2N5P9",
    "result": [
      {
        "electoralDistricts": [
          {
            "election": null,
            "id": 90,
            "name": "St. Catharines"
          }
        ],
        "pollDivisionIds": [
          10141339
        ],
        "postalCode": "L2N5P9",
        "streetName": "REGATTA",
        "streetDirectionId": null,
        "streetTypeId": "DR",
        "placeName": "ST CATHARINES",
        "streetNameDisplayText": "REGATTA DR, ST CATHARINES"
      }
    ]
  },
  {
    "postal": "L2N8N4",
    "result": []
  },
  {
    "postal": "L2N8H4",
    "result": []
  },
  {
    "postal": "L2N4V1",
    "result": [
      {
        "electoralDistricts": [
          {
            "election": null,
            "id": 90,
            "name": "St. Catharines"
          }
        ],
        "pollDivisionIds": [
          10141338
        ],
        "postalCode": "L2N4V1",
        "streetName": "MAIN",
        "streetDirectionId": null,
        "streetTypeId": "ST",
        "placeName": "ST CATHARINES",
        "streetNameDisplayText": "MAIN ST, ST CATHARINES"
      }
    ]
  },
  {
    "postal": "L2N1K5",
    "result": [
      {
        "electoralDistricts": [
          {
            "election": null,
            "id": 90,
            "name": "St. Catharines"
          }
        ],
        "pollDivisionIds": [
          10141344
        ],
        "postalCode": "L2N1K5",
        "streetName": "OVERHOLT",
        "streetDirectionId": null,
        "streetTypeId": "ST",
        "placeName": "ST CATHARINES",
        "streetNameDisplayText": "OVERHOLT ST, ST CATHARINES"
      }
    ]
  },
  {
    "postal": "L2N1Z5",
    "result": [
      {
        "electoralDistricts": [
          {
            "election": null,
            "id": 90,
            "name": "St. Catharines"
          }
        ],
        "pollDivisionIds": [
          10141340
        ],
        "postalCode": "L2N1Z5",
        "streetName": "WHITE",
        "streetDirectionId": null,
        "streetTypeId": "ST",
        "placeName": "ST CATHARINES",
        "streetNameDisplayText": "WHITE ST, ST CATHARINES"
      }
    ]
  },
  {
    "postal": "L2N9L9",
    "result": []
  },
  {
    "postal": "L2N5L2",
    "result": [
      {
        "electoralDistricts": [
          {
            "election": null,
            "id": 90,
            "name": "St. Catharines"
          }
        ],
        "pollDivisionIds": [
          10141338
        ],
        "postalCode": "L2N5L2",
        "streetName": "GRAHAM",
        "streetDirectionId": null,
        "streetTypeId": "AVE",
        "placeName": "ST CATHARINES",
        "streetNameDisplayText": "GRAHAM AVE, ST CATHARINES"
      }
    ]
  },
  {
    "postal": "L2N0M2",
    "result": []
  },
  {
    "postal": "L2N1K8",
    "result": [
      {
        "electoralDistricts": [
          {
            "election": null,
            "id": 90,
            "name": "St. Catharines"
          }
        ],
        "pollDivisionIds": [
          10141344
        ],
        "postalCode": "L2N1K8",
        "streetName": "SECORD",
        "streetDirectionId": null,
        "streetTypeId": "DR",
        "placeName": "ST CATHARINES",
        "streetNameDisplayText": "SECORD DR, ST CATHARINES"
      }
    ]
  },
  {
    "postal": "L2N3M7",
    "result": [
      {
        "electoralDistricts": [
          {
            "election": null,
            "id": 90,
            "name": "St. Catharines"
          }
        ],
        "pollDivisionIds": [
          10141336
        ],
        "postalCode": "L2N3M7",
        "streetName": "DORSET",
        "streetDirectionId": null,
        "streetTypeId": "ST",
        "placeName": "ST CATHARINES",
        "streetNameDisplayText": "DORSET ST, ST CATHARINES"
      }
    ]
  },
  {
    "postal": "L2N1B2",
    "result": [
      {
        "electoralDistricts": [
          {
            "election": null,
            "id": 90,
            "name": "St. Catharines"
          }
        ],
        "pollDivisionIds": [
          10141346
        ],
        "postalCode": "L2N1B2",
        "streetName": "MOOTE",
        "streetDirectionId": null,
        "streetTypeId": "ST",
        "placeName": "ST CATHARINES",
        "streetNameDisplayText": "MOOTE ST, ST CATHARINES"
      }
    ]
  },
  {
    "postal": "L2N0H9",
    "result": []
  },
  {
    "postal": "L2N8M4",
    "result": []
  },
  {
    "postal": "L2N2M5",
    "result": [
      {
        "electoralDistricts": [
          {
            "election": null,
            "id": 90,
            "name": "St. Catharines"
          }
        ],
        "pollDivisionIds": [
          10141344
        ],
        "postalCode": "L2N2M5",
        "streetName": "LINLAKE",
        "streetDirectionId": null,
        "streetTypeId": "DR",
        "placeName": "ST CATHARINES",
        "streetNameDisplayText": "LINLAKE DR, ST CATHARINES"
      }
    ]
  },
  {
    "postal": "L2N0T9",
    "result": []
  },
  {
    "postal": "L2N3P1",
    "result": [
      {
        "electoralDistricts": [
          {
            "election": null,
            "id": 90,
            "name": "St. Catharines"
          }
        ],
        "pollDivisionIds": [
          10141336
        ],
        "postalCode": "L2N3P1",
        "streetName": "DUNCAN",
        "streetDirectionId": null,
        "streetTypeId": "DR",
        "placeName": "ST CATHARINES",
        "streetNameDisplayText": "DUNCAN DR, ST CATHARINES"
      }
    ]
  },
  {
    "postal": "L2N1R6",
    "result": [
      {
        "electoralDistricts": [
          {
            "election": null,
            "id": 90,
            "name": "St. Catharines"
          }
        ],
        "pollDivisionIds": [
          10141339
        ],
        "postalCode": "L2N1R6",
        "streetName": "LINWELL",
        "streetDirectionId": null,
        "streetTypeId": "RD",
        "placeName": "ST CATHARINES",
        "streetNameDisplayText": "LINWELL RD, ST CATHARINES"
      }
    ]
  },
  {
    "postal": "L2N9V5",
    "result": []
  },
  {
    "postal": "L2N9T0",
    "result": []
  },
  {
    "postal": "L2N0A9",
    "result": [
      {
        "electoralDistricts": [
          {
            "election": null,
            "id": 90,
            "name": "St. Catharines"
          }
        ],
        "pollDivisionIds": [
          10141334
        ],
        "postalCode": "L2N0A9",
        "streetName": "TANNER",
        "streetDirectionId": null,
        "streetTypeId": "CIR",
        "placeName": "ST CATHARINES",
        "streetNameDisplayText": "TANNER CIR, ST CATHARINES"
      }
    ]
  },
  {
    "postal": "L2N1M3",
    "result": [
      {
        "electoralDistricts": [
          {
            "election": null,
            "id": 90,
            "name": "St. Catharines"
          }
        ],
        "pollDivisionIds": [
          10141340
        ],
        "postalCode": "L2N1M3",
        "streetName": "THOMPSON",
        "streetDirectionId": null,
        "streetTypeId": "AVE",
        "placeName": "ST CATHARINES",
        "streetNameDisplayText": "THOMPSON AVE, ST CATHARINES"
      }
    ]
  },
  {
    "postal": "L2N1W8",
    "result": [
      {
        "electoralDistricts": [
          {
            "election": null,
            "id": 90,
            "name": "St. Catharines"
          }
        ],
        "pollDivisionIds": [
          10141340
        ],
        "postalCode": "L2N1W8",
        "streetName": "HARCOVE",
        "streetDirectionId": null,
        "streetTypeId": "ST",
        "placeName": "ST CATHARINES",
        "streetNameDisplayText": "HARCOVE ST, ST CATHARINES"
      }
    ]
  },
  {
    "postal": "L2N9J1",
    "result": []
  },
  {
    "postal": "L2N8N5",
    "result": []
  },
  {
    "postal": "L2N5X1",
    "result": [
      {
        "electoralDistricts": [
          {
            "election": null,
            "id": 90,
            "name": "St. Catharines"
          }
        ],
        "pollDivisionIds": [
          10141334
        ],
        "postalCode": "L2N5X1",
        "streetName": "WESTGATE PARK",
        "streetDirectionId": null,
        "streetTypeId": "DR",
        "placeName": "ST CATHARINES",
        "streetNameDisplayText": "WESTGATE PARK DR, ST CATHARINES"
      }
    ]
  },
  {
    "postal": "L2N6S2",
    "result": [
      {
        "electoralDistricts": [
          {
            "election": null,
            "id": 90,
            "name": "St. Catharines"
          }
        ],
        "pollDivisionIds": [
          10141344
        ],
        "postalCode": "L2N6S2",
        "streetName": "MCCORDICK",
        "streetDirectionId": null,
        "streetTypeId": "DR",
        "placeName": "ST CATHARINES",
        "streetNameDisplayText": "MCCORDICK DR, ST CATHARINES"
      }
    ]
  },
  {
    "postal": "L2N2A2",
    "result": [
      {
        "electoralDistricts": [
          {
            "election": null,
            "id": 90,
            "name": "St. Catharines"
          }
        ],
        "pollDivisionIds": [
          10141340
        ],
        "postalCode": "L2N2A2",
        "streetName": "FORSTER",
        "streetDirectionId": null,
        "streetTypeId": "ST",
        "placeName": "ST CATHARINES",
        "streetNameDisplayText": "FORSTER ST, ST CATHARINES"
      }
    ]
  },
  {
    "postal": "L2N6A6",
    "result": [
      {
        "electoralDistricts": [
          {
            "election": null,
            "id": 90,
            "name": "St. Catharines"
          }
        ],
        "pollDivisionIds": [
          10141343
        ],
        "postalCode": "L2N6A6",
        "streetName": "ERNEST",
        "streetDirectionId": null,
        "streetTypeId": "ST",
        "placeName": "ST CATHARINES",
        "streetNameDisplayText": "ERNEST ST, ST CATHARINES"
      }
    ]
  },
  {
    "postal": "L2N0S3",
    "result": []
  },
  {
    "postal": "L2N3E7",
    "result": [
      {
        "electoralDistricts": [
          {
            "election": null,
            "id": 90,
            "name": "St. Catharines"
          }
        ],
        "pollDivisionIds": [
          10141336
        ],
        "postalCode": "L2N3E7",
        "streetName": "GLEN PARK",
        "streetDirectionId": null,
        "streetTypeId": "RD",
        "placeName": "ST CATHARINES",
        "streetNameDisplayText": "GLEN PARK RD, ST CATHARINES"
      }
    ]
  },
  {
    "postal": "L2N5R7",
    "result": [
      {
        "electoralDistricts": [
          {
            "election": null,
            "id": 90,
            "name": "St. Catharines"
          }
        ],
        "pollDivisionIds": [
          10141344
        ],
        "postalCode": "L2N5R7",
        "streetName": "LITTLE FORKS",
        "streetDirectionId": null,
        "streetTypeId": "SQ",
        "placeName": "ST CATHARINES",
        "streetNameDisplayText": "LITTLE FORKS SQ, ST CATHARINES"
      }
    ]
  },
  {
    "postal": "L2N3R6",
    "result": [
      {
        "electoralDistricts": [
          {
            "election": null,
            "id": 90,
            "name": "St. Catharines"
          }
        ],
        "pollDivisionIds": [
          10141334
        ],
        "postalCode": "L2N3R6",
        "streetName": "AQUADALE",
        "streetDirectionId": null,
        "streetTypeId": "DR",
        "placeName": "ST CATHARINES",
        "streetNameDisplayText": "AQUADALE DR, ST CATHARINES"
      }
    ]
  },
  {
    "postal": "L2N6K4",
    "result": [
      {
        "electoralDistricts": [
          {
            "election": null,
            "id": 90,
            "name": "St. Catharines"
          }
        ],
        "pollDivisionIds": [
          10141339
        ],
        "postalCode": "L2N6K4",
        "streetName": "ROYAL OAK",
        "streetDirectionId": null,
        "streetTypeId": "DR",
        "placeName": "ST CATHARINES",
        "streetNameDisplayText": "ROYAL OAK DR, ST CATHARINES"
      }
    ]
  },
  {
    "postal": "L2N2W5",
    "result": [
      {
        "electoralDistricts": [
          {
            "election": null,
            "id": 90,
            "name": "St. Catharines"
          }
        ],
        "pollDivisionIds": [
          10141336
        ],
        "postalCode": "L2N2W5",
        "streetName": "PARNELL",
        "streetDirectionId": null,
        "streetTypeId": "RD",
        "placeName": "ST CATHARINES",
        "streetNameDisplayText": "PARNELL RD, ST CATHARINES"
      }
    ]
  },
  {
    "postal": "L2N8W4",
    "result": []
  },
  {
    "postal": "L2N9C2",
    "result": []
  },
  {
    "postal": "L2N2C0",
    "result": []
  },
  {
    "postal": "L2N0E1",
    "result": []
  },
  {
    "postal": "L2N1K9",
    "result": [
      {
        "electoralDistricts": [
          {
            "election": null,
            "id": 90,
            "name": "St. Catharines"
          }
        ],
        "pollDivisionIds": [
          10141337,
          10141344
        ],
        "postalCode": "L2N1K9",
        "streetName": "SECORD",
        "streetDirectionId": null,
        "streetTypeId": "DR",
        "placeName": "ST CATHARINES",
        "streetNameDisplayText": "SECORD DR, ST CATHARINES"
      }
    ]
  },
  {
    "postal": "L2N1G7",
    "result": [
      {
        "electoralDistricts": [
          {
            "election": null,
            "id": 90,
            "name": "St. Catharines"
          }
        ],
        "pollDivisionIds": [
          10141345
        ],
        "postalCode": "L2N1G7",
        "streetName": "NELLO",
        "streetDirectionId": null,
        "streetTypeId": "ST",
        "placeName": "ST CATHARINES",
        "streetNameDisplayText": "NELLO ST, ST CATHARINES"
      }
    ]
  },
  {
    "postal": "L2N4E9",
    "result": [
      {
        "electoralDistricts": [
          {
            "election": null,
            "id": 90,
            "name": "St. Catharines"
          }
        ],
        "pollDivisionIds": [
          10141339
        ],
        "postalCode": "L2N4E9",
        "streetName": "ROYAL ORCHARD",
        "streetDirectionId": null,
        "streetTypeId": "CRES",
        "placeName": "ST CATHARINES",
        "streetNameDisplayText": "ROYAL ORCHARD CRES, ST CATHARINES"
      }
    ]
  },
  {
    "postal": "L2N9P0",
    "result": []
  },
  {
    "postal": "L2N5H3",
    "result": [
      {
        "electoralDistricts": [
          {
            "election": null,
            "id": 90,
            "name": "St. Catharines"
          }
        ],
        "pollDivisionIds": [
          10141338
        ],
        "postalCode": "L2N5H3",
        "streetName": "CHRISTIE",
        "streetDirectionId": null,
        "streetTypeId": "ST",
        "placeName": "ST CATHARINES",
        "streetNameDisplayText": "CHRISTIE ST, ST CATHARINES"
      }
    ]
  },
  {
    "postal": "L2N9X6",
    "result": []
  },
  {
    "postal": "L2N5N7",
    "result": [
      {
        "electoralDistricts": [
          {
            "election": null,
            "id": 90,
            "name": "St. Catharines"
          }
        ],
        "pollDivisionIds": [
          10141334
        ],
        "postalCode": "L2N5N7",
        "streetName": "SHORELINE",
        "streetDirectionId": null,
        "streetTypeId": "DR",
        "placeName": "ST CATHARINES",
        "streetNameDisplayText": "SHORELINE DR, ST CATHARINES"
      }
    ]
  },
  {
    "postal": "L2N5A6",
    "result": [
      {
        "electoralDistricts": [
          {
            "election": null,
            "id": 90,
            "name": "St. Catharines"
          }
        ],
        "pollDivisionIds": [
          10141338
        ],
        "postalCode": "L2N5A6",
        "streetName": "MARY",
        "streetDirectionId": null,
        "streetTypeId": "ST",
        "placeName": "ST CATHARINES",
        "streetNameDisplayText": "MARY ST, ST CATHARINES"
      }
    ]
  },
  {
    "postal": "L2N4M0",
    "result": []
  },
  {
    "postal": "L2N3V6",
    "result": [
      {
        "electoralDistricts": [
          {
            "election": null,
            "id": 90,
            "name": "St. Catharines"
          }
        ],
        "pollDivisionIds": [
          10141335
        ],
        "postalCode": "L2N3V6",
        "streetName": "JEFFERSON",
        "streetDirectionId": null,
        "streetTypeId": "DR",
        "placeName": "ST CATHARINES",
        "streetNameDisplayText": "JEFFERSON DR, ST CATHARINES"
      }
    ]
  },
  {
    "postal": "L2N1L7",
    "result": [
      {
        "electoralDistricts": [
          {
            "election": null,
            "id": 90,
            "name": "St. Catharines"
          }
        ],
        "pollDivisionIds": [
          10141344
        ],
        "postalCode": "L2N1L7",
        "streetName": "ASHLEY",
        "streetDirectionId": null,
        "streetTypeId": "CIR",
        "placeName": "ST CATHARINES",
        "streetNameDisplayText": "ASHLEY CIR, ST CATHARINES"
      }
    ]
  },
  {
    "postal": "L2N2P9",
    "result": [
      {
        "electoralDistricts": [
          {
            "election": null,
            "id": 90,
            "name": "St. Catharines"
          }
        ],
        "pollDivisionIds": [
          10141334
        ],
        "postalCode": "L2N2P9",
        "streetName": "LAKEVIEW",
        "streetDirectionId": null,
        "streetTypeId": "AVE",
        "placeName": "ST CATHARINES",
        "streetNameDisplayText": "LAKEVIEW AVE, ST CATHARINES"
      }
    ]
  },
  {
    "postal": "L2N5T4",
    "result": [
      {
        "electoralDistricts": [
          {
            "election": null,
            "id": 90,
            "name": "St. Catharines"
          }
        ],
        "pollDivisionIds": [
          10141345
        ],
        "postalCode": "L2N5T4",
        "streetName": "STANMARY",
        "streetDirectionId": null,
        "streetTypeId": "DR",
        "placeName": "ST CATHARINES",
        "streetNameDisplayText": "STANMARY DR, ST CATHARINES"
      }
    ]
  },
  {
    "postal": "L2N5Z1",
    "result": [
      {
        "electoralDistricts": [
          {
            "election": null,
            "id": 90,
            "name": "St. Catharines"
          }
        ],
        "pollDivisionIds": [
          10141334
        ],
        "postalCode": "L2N5Z1",
        "streetName": "BAYRIDGE",
        "streetDirectionId": null,
        "streetTypeId": "COVE",
        "placeName": "ST CATHARINES",
        "streetNameDisplayText": "BAYRIDGE COVE, ST CATHARINES"
      }
    ]
  },
  {
    "postal": "L2N2X0",
    "result": []
  },
  {
    "postal": "L2N6Z2",
    "result": [
      {
        "electoralDistricts": [
          {
            "election": null,
            "id": 90,
            "name": "St. Catharines"
          }
        ],
        "pollDivisionIds": [
          10141343
        ],
        "postalCode": "L2N6Z2",
        "streetName": "ELMA",
        "streetDirectionId": null,
        "streetTypeId": "ST",
        "placeName": "ST CATHARINES",
        "streetNameDisplayText": "ELMA ST, ST CATHARINES"
      }
    ]
  },
  {
    "postal": "L2N0E0",
    "result": []
  },
  {
    "postal": "L2N3Z5",
    "result": [
      {
        "electoralDistricts": [
          {
            "election": null,
            "id": 90,
            "name": "St. Catharines"
          }
        ],
        "pollDivisionIds": [
          10141334
        ],
        "postalCode": "L2N3Z5",
        "streetName": "SIMPSON",
        "streetDirectionId": null,
        "streetTypeId": "RD",
        "placeName": "ST CATHARINES",
        "streetNameDisplayText": "SIMPSON RD, ST CATHARINES"
      }
    ]
  },
  {
    "postal": "L2N8H3",
    "result": []
  },
  {
    "postal": "L2N7S6",
    "result": [
      {
        "electoralDistricts": [
          {
            "election": null,
            "id": 90,
            "name": "St. Catharines"
          }
        ],
        "pollDivisionIds": [
          10141338
        ],
        "postalCode": "L2N7S6",
        "streetName": "BROOKLYN",
        "streetDirectionId": null,
        "streetTypeId": "CRT",
        "placeName": "ST CATHARINES",
        "streetNameDisplayText": "BROOKLYN CRT, ST CATHARINES"
      }
    ]
  },
  {
    "postal": "L2N4C1",
    "result": [
      {
        "electoralDistricts": [
          {
            "election": null,
            "id": 90,
            "name": "St. Catharines"
          }
        ],
        "pollDivisionIds": [
          10141339
        ],
        "postalCode": "L2N4C1",
        "streetName": "MAYHOLME",
        "streetDirectionId": null,
        "streetTypeId": "CRT",
        "placeName": "ST CATHARINES",
        "streetNameDisplayText": "MAYHOLME CRT, ST CATHARINES"
      }
    ]
  },
  {
    "postal": "L2N3K2",
    "result": [
      {
        "electoralDistricts": [
          {
            "election": null,
            "id": 90,
            "name": "St. Catharines"
          }
        ],
        "pollDivisionIds": [
          10141334
        ],
        "postalCode": "L2N3K2",
        "streetName": "MISSISSAUGA",
        "streetDirectionId": null,
        "streetTypeId": "RD",
        "placeName": "ST CATHARINES",
        "streetNameDisplayText": "MISSISSAUGA RD, ST CATHARINES"
      }
    ]
  },
  {
    "postal": "L2N1Y5",
    "result": [
      {
        "electoralDistricts": [
          {
            "election": null,
            "id": 90,
            "name": "St. Catharines"
          }
        ],
        "pollDivisionIds": [
          10141346
        ],
        "postalCode": "L2N1Y5",
        "streetName": "DONCASTER",
        "streetDirectionId": null,
        "streetTypeId": "BLVD",
        "placeName": "ST CATHARINES",
        "streetNameDisplayText": "DONCASTER BLVD, ST CATHARINES"
      }
    ]
  },
  {
    "postal": "L2N6P6",
    "result": [
      {
        "electoralDistricts": [
          {
            "election": null,
            "id": 90,
            "name": "St. Catharines"
          }
        ],
        "pollDivisionIds": [
          10141339,
          10141334
        ],
        "postalCode": "L2N6P6",
        "streetName": "LAKE",
        "streetDirectionId": null,
        "streetTypeId": "ST",
        "placeName": "ST CATHARINES",
        "streetNameDisplayText": "LAKE ST, ST CATHARINES"
      }
    ]
  },
  {
    "postal": "L2N3N9",
    "result": [
      {
        "electoralDistricts": [
          {
            "election": null,
            "id": 90,
            "name": "St. Catharines"
          }
        ],
        "pollDivisionIds": [
          10141357,
          10141336
        ],
        "postalCode": "L2N3N9",
        "streetName": "DUNCAN",
        "streetDirectionId": null,
        "streetTypeId": "DR",
        "placeName": "ST CATHARINES",
        "streetNameDisplayText": "DUNCAN DR, ST CATHARINES"
      }
    ]
  },
  {
    "postal": "L2N3W2",
    "result": [
      {
        "electoralDistricts": [
          {
            "election": null,
            "id": 90,
            "name": "St. Catharines"
          }
        ],
        "pollDivisionIds": [
          10141334
        ],
        "postalCode": "L2N3W2",
        "streetName": "BEACHVIEW",
        "streetDirectionId": null,
        "streetTypeId": "DR",
        "placeName": "ST CATHARINES",
        "streetNameDisplayText": "BEACHVIEW DR, ST CATHARINES"
      }
    ]
  },
  {
    "postal": "L2N6H8",
    "result": [
      {
        "electoralDistricts": [
          {
            "election": null,
            "id": 90,
            "name": "St. Catharines"
          }
        ],
        "pollDivisionIds": [
          10141334
        ],
        "postalCode": "L2N6H8",
        "streetName": "BARBARA",
        "streetDirectionId": null,
        "streetTypeId": "PL",
        "placeName": "ST CATHARINES",
        "streetNameDisplayText": "BARBARA PL, ST CATHARINES"
      }
    ]
  },
  {
    "postal": "L2N9T3",
    "result": []
  },
  {
    "postal": "L2N5L9",
    "result": [
      {
        "electoralDistricts": [
          {
            "election": null,
            "id": 90,
            "name": "St. Catharines"
          }
        ],
        "pollDivisionIds": [
          10141338
        ],
        "postalCode": "L2N5L9",
        "streetName": "VERDUN",
        "streetDirectionId": null,
        "streetTypeId": "AVE",
        "placeName": "ST CATHARINES",
        "streetNameDisplayText": "VERDUN AVE, ST CATHARINES"
      }
    ]
  },
  {
    "postal": "L2N7X7",
    "result": []
  },
  {
    "postal": "L2N3J5",
    "result": [
      {
        "electoralDistricts": [
          {
            "election": null,
            "id": 90,
            "name": "St. Catharines"
          }
        ],
        "pollDivisionIds": [
          10141336
        ],
        "postalCode": "L2N3J5",
        "streetName": "RODGER",
        "streetDirectionId": null,
        "streetTypeId": "ST",
        "placeName": "ST CATHARINES",
        "streetNameDisplayText": "RODGER ST, ST CATHARINES"
      }
    ]
  },
  {
    "postal": "L2N4J5",
    "result": [
      {
        "electoralDistricts": [
          {
            "election": null,
            "id": 90,
            "name": "St. Catharines"
          }
        ],
        "pollDivisionIds": [
          10141334
        ],
        "postalCode": "L2N4J5",
        "streetName": "LAKE",
        "streetDirectionId": null,
        "streetTypeId": "ST",
        "placeName": "ST CATHARINES",
        "streetNameDisplayText": "LAKE ST, ST CATHARINES"
      }
    ]
  },
  {
    "postal": "L2N6J2",
    "result": [
      {
        "electoralDistricts": [
          {
            "election": null,
            "id": 90,
            "name": "St. Catharines"
          }
        ],
        "pollDivisionIds": [
          10141334
        ],
        "postalCode": "L2N6J2",
        "streetName": "JELLICOE",
        "streetDirectionId": null,
        "streetTypeId": "DR",
        "placeName": "ST CATHARINES",
        "streetNameDisplayText": "JELLICOE DR, ST CATHARINES"
      }
    ]
  },
  {
    "postal": "L2N5V6",
    "result": [
      {
        "electoralDistricts": [
          {
            "election": null,
            "id": 90,
            "name": "St. Catharines"
          }
        ],
        "pollDivisionIds": [
          10141334
        ],
        "postalCode": "L2N5V6",
        "streetName": "KIMBERMOUNT",
        "streetDirectionId": null,
        "streetTypeId": "DR",
        "placeName": "ST CATHARINES",
        "streetNameDisplayText": "KIMBERMOUNT DR, ST CATHARINES"
      }
    ]
  },
  {
    "postal": "L2N3N2",
    "result": [
      {
        "electoralDistricts": [
          {
            "election": null,
            "id": 90,
            "name": "St. Catharines"
          }
        ],
        "pollDivisionIds": [
          10141336
        ],
        "postalCode": "L2N3N2",
        "streetName": "WOODBINE",
        "streetDirectionId": null,
        "streetTypeId": "AVE",
        "placeName": "ST CATHARINES",
        "streetNameDisplayText": "WOODBINE AVE, ST CATHARINES"
      }
    ]
  },
  {
    "postal": "L2N3B1",
    "result": [
      {
        "electoralDistricts": [
          {
            "election": null,
            "id": 90,
            "name": "St. Catharines"
          }
        ],
        "pollDivisionIds": [
          10141335
        ],
        "postalCode": "L2N3B1",
        "streetName": "CHARLOTTE",
        "streetDirectionId": null,
        "streetTypeId": "ST",
        "placeName": "ST CATHARINES",
        "streetNameDisplayText": "CHARLOTTE ST, ST CATHARINES"
      }
    ]
  },
  {
    "postal": "L2N8B5",
    "result": []
  },
  {
    "postal": "L2N0K1",
    "result": []
  },
  {
    "postal": "L2N7M7",
    "result": [
      {
        "electoralDistricts": [
          {
            "election": null,
            "id": 90,
            "name": "St. Catharines"
          }
        ],
        "pollDivisionIds": [
          10141338
        ],
        "postalCode": "L2N7M7",
        "streetName": "GOLDEN",
        "streetDirectionId": null,
        "streetTypeId": "BLVD",
        "placeName": "ST CATHARINES",
        "streetNameDisplayText": "GOLDEN BLVD, ST CATHARINES"
      }
    ]
  },
  {
    "postal": "L2N2M2",
    "result": [
      {
        "electoralDistricts": [
          {
            "election": null,
            "id": 90,
            "name": "St. Catharines"
          }
        ],
        "pollDivisionIds": [
          10141338
        ],
        "postalCode": "L2N2M2",
        "streetName": "TARA",
        "streetDirectionId": null,
        "streetTypeId": "CRT",
        "placeName": "ST CATHARINES",
        "streetNameDisplayText": "TARA CRT, ST CATHARINES"
      }
    ]
  },
  {
    "postal": "L2N9N3",
    "result": []
  },
  {
    "postal": "L2N4Y8",
    "result": [
      {
        "electoralDistricts": [
          {
            "election": null,
            "id": 90,
            "name": "St. Catharines"
          }
        ],
        "pollDivisionIds": [
          10141338
        ],
        "postalCode": "L2N4Y8",
        "streetName": "BAYVIEW",
        "streetDirectionId": null,
        "streetTypeId": "DR",
        "placeName": "ST CATHARINES",
        "streetNameDisplayText": "BAYVIEW DR, ST CATHARINES"
      }
    ]
  },
  {
    "postal": "L2N3V7",
    "result": [
      {
        "electoralDistricts": [
          {
            "election": null,
            "id": 90,
            "name": "St. Catharines"
          }
        ],
        "pollDivisionIds": [
          10141334
        ],
        "postalCode": "L2N3V7",
        "streetName": "SHORELINE",
        "streetDirectionId": null,
        "streetTypeId": "DR",
        "placeName": "ST CATHARINES",
        "streetNameDisplayText": "SHORELINE DR, ST CATHARINES"
      }
    ]
  },
  {
    "postal": "L2N8Z1",
    "result": []
  },
  {
    "postal": "L2N7B3",
    "result": [
      {
        "electoralDistricts": [
          {
            "election": null,
            "id": 90,
            "name": "St. Catharines"
          }
        ],
        "pollDivisionIds": [
          10141334
        ],
        "postalCode": "L2N7B3",
        "streetName": "LAKESHORE",
        "streetDirectionId": null,
        "streetTypeId": "RD",
        "placeName": "ST CATHARINES",
        "streetNameDisplayText": "LAKESHORE RD, ST CATHARINES"
      }
    ]
  },
  {
    "postal": "L2N3A8",
    "result": [
      {
        "electoralDistricts": [
          {
            "election": null,
            "id": 90,
            "name": "St. Catharines"
          }
        ],
        "pollDivisionIds": [
          10141339
        ],
        "postalCode": "L2N3A8",
        "streetName": "PRINCE PAUL",
        "streetDirectionId": null,
        "streetTypeId": "CRES",
        "placeName": "ST CATHARINES",
        "streetNameDisplayText": "PRINCE PAUL CRES, ST CATHARINES"
      },
      {
        "electoralDistricts": [
          {
            "election": null,
            "id": 90,
            "name": "St. Catharines"
          }
        ],
        "pollDivisionIds": [
          10141339
        ],
        "postalCode": "L2N3A8",
        "streetName": "PRINCE PAUL",
        "streetDirectionId": null,
        "streetTypeId": "CRT",
        "placeName": "ST CATHARINES",
        "streetNameDisplayText": "PRINCE PAUL CRT, ST CATHARINES"
      }
    ]
  },
  {
    "postal": "L2N7V5",
    "result": [
      {
        "electoralDistricts": [
          {
            "election": null,
            "id": 90,
            "name": "St. Catharines"
          }
        ],
        "pollDivisionIds": [
          10141337
        ],
        "postalCode": "L2N7V5",
        "streetName": "CARLUCCIO",
        "streetDirectionId": null,
        "streetTypeId": "CRES",
        "placeName": "ST. CATHARINES",
        "streetNameDisplayText": "CARLUCCIO CRES, ST. CATHARINES"
      }
    ]
  },
  {
    "postal": "L2N2T2",
    "result": [
      {
        "electoralDistricts": [
          {
            "election": null,
            "id": 90,
            "name": "St. Catharines"
          }
        ],
        "pollDivisionIds": [
          10141334
        ],
        "postalCode": "L2N2T2",
        "streetName": "LAKESHORE",
        "streetDirectionId": null,
        "streetTypeId": "RD",
        "placeName": "ST CATHARINES",
        "streetNameDisplayText": "LAKESHORE RD, ST CATHARINES"
      }
    ]
  },
  {
    "postal": "L2N6L3",
    "result": [
      {
        "electoralDistricts": [
          {
            "election": null,
            "id": 90,
            "name": "St. Catharines"
          }
        ],
        "pollDivisionIds": [
          10141339
        ],
        "postalCode": "L2N6L3",
        "streetName": "GUILDWOOD",
        "streetDirectionId": null,
        "streetTypeId": "CRT",
        "placeName": "ST CATHARINES",
        "streetNameDisplayText": "GUILDWOOD CRT, ST CATHARINES"
      }
    ]
  },
  {
    "postal": "L2N0L2",
    "result": []
  },
  {
    "postal": "L2N5Y8",
    "result": [
      {
        "electoralDistricts": [
          {
            "election": null,
            "id": 90,
            "name": "St. Catharines"
          }
        ],
        "pollDivisionIds": [
          10141339
        ],
        "postalCode": "L2N5Y8",
        "streetName": "LEICESTER",
        "streetDirectionId": null,
        "streetTypeId": "CRT",
        "placeName": "ST CATHARINES",
        "streetNameDisplayText": "LEICESTER CRT, ST CATHARINES"
      }
    ]
  },
  {
    "postal": "L2N0B8",
    "result": []
  },
  {
    "postal": "L2N6R5",
    "result": [
      {
        "electoralDistricts": [
          {
            "election": null,
            "id": 90,
            "name": "St. Catharines"
          }
        ],
        "pollDivisionIds": [
          10141344
        ],
        "postalCode": "L2N6R5",
        "streetName": "BULA",
        "streetDirectionId": null,
        "streetTypeId": "DR",
        "placeName": "ST CATHARINES",
        "streetNameDisplayText": "BULA DR, ST CATHARINES"
      }
    ]
  },
  {
    "postal": "L2N8W6",
    "result": []
  },
  {
    "postal": "L2N8G6",
    "result": []
  },
  {
    "postal": "L2N6X3",
    "result": [
      {
        "electoralDistricts": [
          {
            "election": null,
            "id": 90,
            "name": "St. Catharines"
          }
        ],
        "pollDivisionIds": [
          10141338
        ],
        "postalCode": "L2N6X3",
        "streetName": "PORT MASTER",
        "streetDirectionId": null,
        "streetTypeId": "DR",
        "placeName": "ST CATHARINES",
        "streetNameDisplayText": "PORT MASTER DR, ST CATHARINES"
      }
    ]
  },
  {
    "postal": "L2N7R7",
    "result": [
      {
        "electoralDistricts": [
          {
            "election": null,
            "id": 90,
            "name": "St. Catharines"
          }
        ],
        "pollDivisionIds": [
          10141343
        ],
        "postalCode": "L2N7R7",
        "streetName": "TIMBER",
        "streetDirectionId": null,
        "streetTypeId": "LANE",
        "placeName": "ST CATHARINES",
        "streetNameDisplayText": "TIMBER LANE, ST CATHARINES"
      }
    ]
  },
  {
    "postal": "L2N4B6",
    "result": [
      {
        "electoralDistricts": [
          {
            "election": null,
            "id": 90,
            "name": "St. Catharines"
          }
        ],
        "pollDivisionIds": [
          10141339
        ],
        "postalCode": "L2N4B6",
        "streetName": "ROYAL OAK",
        "streetDirectionId": null,
        "streetTypeId": "DR",
        "placeName": "ST CATHARINES",
        "streetNameDisplayText": "ROYAL OAK DR, ST CATHARINES"
      }
    ]
  },
  {
    "postal": "L2N3P9",
    "result": [
      {
        "electoralDistricts": [
          {
            "election": null,
            "id": 90,
            "name": "St. Catharines"
          }
        ],
        "pollDivisionIds": [
          10141334
        ],
        "postalCode": "L2N3P9",
        "streetName": "SPRING GARDEN",
        "streetDirectionId": null,
        "streetTypeId": "BLVD",
        "placeName": "ST CATHARINES",
        "streetNameDisplayText": "SPRING GARDEN BLVD, ST CATHARINES"
      }
    ]
  },
  {
    "postal": "L2N2T3",
    "result": [
      {
        "electoralDistricts": [
          {
            "election": null,
            "id": 90,
            "name": "St. Catharines"
          }
        ],
        "pollDivisionIds": [
          10141334
        ],
        "postalCode": "L2N2T3",
        "streetName": "LAKESHORE",
        "streetDirectionId": null,
        "streetTypeId": "RD",
        "placeName": "ST CATHARINES",
        "streetNameDisplayText": "LAKESHORE RD, ST CATHARINES"
      }
    ]
  },
  {
    "postal": "L2N1M4",
    "result": [
      {
        "electoralDistricts": [
          {
            "election": null,
            "id": 90,
            "name": "St. Catharines"
          }
        ],
        "pollDivisionIds": [
          10141344
        ],
        "postalCode": "L2N1M4",
        "streetName": "THOMPSON",
        "streetDirectionId": null,
        "streetTypeId": "AVE",
        "placeName": "ST CATHARINES",
        "streetNameDisplayText": "THOMPSON AVE, ST CATHARINES"
      }
    ]
  },
  {
    "postal": "L2N0H1",
    "result": []
  },
  {
    "postal": "L2N9W3",
    "result": []
  },
  {
    "postal": "L2N6P1",
    "result": [
      {
        "electoralDistricts": [
          {
            "election": null,
            "id": 90,
            "name": "St. Catharines"
          }
        ],
        "pollDivisionIds": [
          10141343
        ],
        "postalCode": "L2N6P1",
        "streetName": "GREYSTONE",
        "streetDirectionId": null,
        "streetTypeId": "CRES",
        "placeName": "ST CATHARINES",
        "streetNameDisplayText": "GREYSTONE CRES, ST CATHARINES"
      }
    ]
  },
  {
    "postal": "L2N7G2",
    "result": [
      {
        "electoralDistricts": [
          {
            "election": null,
            "id": 90,
            "name": "St. Catharines"
          }
        ],
        "pollDivisionIds": [
          10141338
        ],
        "postalCode": "L2N7G2",
        "streetName": "BAYVIEW",
        "streetDirectionId": null,
        "streetTypeId": "DR",
        "placeName": "ST CATHARINES",
        "streetNameDisplayText": "BAYVIEW DR, ST CATHARINES"
      }
    ]
  },
  {
    "postal": "L2N4J9",
    "result": [
      {
        "electoralDistricts": [
          {
            "election": null,
            "id": 90,
            "name": "St. Catharines"
          }
        ],
        "pollDivisionIds": [
          10141339
        ],
        "postalCode": "L2N4J9",
        "streetName": "HUNTINGWOOD",
        "streetDirectionId": null,
        "streetTypeId": "GATE",
        "placeName": "ST CATHARINES",
        "streetNameDisplayText": "HUNTINGWOOD GATE, ST CATHARINES"
      }
    ]
  },
  {
    "postal": "L2N9E4",
    "result": []
  },
  {
    "postal": "L2N8H0",
    "result": []
  },
  {
    "postal": "L2N4M7",
    "result": [
      {
        "electoralDistricts": [
          {
            "election": null,
            "id": 90,
            "name": "St. Catharines"
          }
        ],
        "pollDivisionIds": [
          10141343
        ],
        "postalCode": "L2N4M7",
        "streetName": "DAWN",
        "streetDirectionId": null,
        "streetTypeId": "RD",
        "placeName": "ST CATHARINES",
        "streetNameDisplayText": "DAWN RD, ST CATHARINES"
      }
    ]
  },
  {
    "postal": "L2N2G9",
    "result": [
      {
        "electoralDistricts": [
          {
            "election": null,
            "id": 90,
            "name": "St. Catharines"
          }
        ],
        "pollDivisionIds": [
          10141344
        ],
        "postalCode": "L2N2G9",
        "streetName": "GENEVA",
        "streetDirectionId": null,
        "streetTypeId": "ST",
        "placeName": "ST CATHARINES",
        "streetNameDisplayText": "GENEVA ST, ST CATHARINES"
      }
    ]
  },
  {
    "postal": "L2N8T2",
    "result": []
  },
  {
    "postal": "L2N7G7",
    "result": []
  },
  {
    "postal": "L2N4Z3",
    "result": [
      {
        "electoralDistricts": [
          {
            "election": null,
            "id": 90,
            "name": "St. Catharines"
          }
        ],
        "pollDivisionIds": [
          10141338
        ],
        "postalCode": "L2N4Z3",
        "streetName": "BAYVIEW",
        "streetDirectionId": null,
        "streetTypeId": "DR",
        "placeName": "ST CATHARINES",
        "streetNameDisplayText": "BAYVIEW DR, ST CATHARINES"
      }
    ]
  },
  {
    "postal": "L2N5B3",
    "result": []
  },
  {
    "postal": "L2N1S7",
    "result": [
      {
        "electoralDistricts": [
          {
            "election": null,
            "id": 90,
            "name": "St. Catharines"
          }
        ],
        "pollDivisionIds": [
          10141340
        ],
        "postalCode": "L2N1S7",
        "streetName": "LINWELL",
        "streetDirectionId": null,
        "streetTypeId": "RD",
        "placeName": "ST CATHARINES",
        "streetNameDisplayText": "LINWELL RD, ST CATHARINES"
      }
    ]
  },
  {
    "postal": "L2N2N7",
    "result": [
      {
        "electoralDistricts": [
          {
            "election": null,
            "id": 90,
            "name": "St. Catharines"
          }
        ],
        "pollDivisionIds": [
          10141339
        ],
        "postalCode": "L2N2N7",
        "streetName": "ONTARIO",
        "streetDirectionId": null,
        "streetTypeId": "ST",
        "placeName": "ST.CATHARINES",
        "streetNameDisplayText": "ONTARIO ST, ST.CATHARINES"
      },
      {
        "electoralDistricts": [
          {
            "election": null,
            "id": 90,
            "name": "St. Catharines"
          }
        ],
        "pollDivisionIds": [
          10141334
        ],
        "postalCode": "L2N2N7",
        "streetName": "ROYAL YORK",
        "streetDirectionId": null,
        "streetTypeId": "RD",
        "placeName": "ST CATHARINES",
        "streetNameDisplayText": "ROYAL YORK RD, ST CATHARINES"
      }
    ]
  },
  {
    "postal": "L2N0H8",
    "result": []
  },
  {
    "postal": "L2N7Z4",
    "result": []
  },
  {
    "postal": "L2N7B1",
    "result": [
      {
        "electoralDistricts": [
          {
            "election": null,
            "id": 90,
            "name": "St. Catharines"
          }
        ],
        "pollDivisionIds": [
          10141338
        ],
        "postalCode": "L2N7B1",
        "streetName": "WESTPORT",
        "streetDirectionId": null,
        "streetTypeId": "AVE",
        "placeName": "ST CATHARINES",
        "streetNameDisplayText": "WESTPORT AVE, ST CATHARINES"
      }
    ]
  },
  {
    "postal": "L2N7P8",
    "result": []
  },
  {
    "postal": "L2N7N0",
    "result": []
  },
  {
    "postal": "L2N3Y5",
    "result": [
      {
        "electoralDistricts": [
          {
            "election": null,
            "id": 90,
            "name": "St. Catharines"
          }
        ],
        "pollDivisionIds": [
          10141339
        ],
        "postalCode": "L2N3Y5",
        "streetName": "PRINCE CHARLES",
        "streetDirectionId": null,
        "streetTypeId": "DR",
        "placeName": "ST CATHARINES",
        "streetNameDisplayText": "PRINCE CHARLES DR, ST CATHARINES"
      }
    ]
  },
  {
    "postal": "L2N6K1",
    "result": [
      {
        "electoralDistricts": [
          {
            "election": null,
            "id": 90,
            "name": "St. Catharines"
          }
        ],
        "pollDivisionIds": [
          10141334
        ],
        "postalCode": "L2N6K1",
        "streetName": "WESTGATE PARK",
        "streetDirectionId": null,
        "streetTypeId": "DR",
        "placeName": "ST CATHARINES",
        "streetNameDisplayText": "WESTGATE PARK DR, ST CATHARINES"
      }
    ]
  },
  {
    "postal": "L2N9X5",
    "result": []
  },
  {
    "postal": "L2N7S5",
    "result": []
  },
  {
    "postal": "L2N0A4",
    "result": []
  },
  {
    "postal": "L2N4T5",
    "result": [
      {
        "electoralDistricts": [
          {
            "election": null,
            "id": 90,
            "name": "St. Catharines"
          }
        ],
        "pollDivisionIds": [
          10141338
        ],
        "postalCode": "L2N4T5",
        "streetName": "MAIN",
        "streetDirectionId": null,
        "streetTypeId": "ST",
        "placeName": "ST CATHARINES",
        "streetNameDisplayText": "MAIN ST, ST CATHARINES"
      }
    ]
  },
  {
    "postal": "L2N5K1",
    "result": [
      {
        "electoralDistricts": [
          {
            "election": null,
            "id": 90,
            "name": "St. Catharines"
          }
        ],
        "pollDivisionIds": [
          10141338
        ],
        "postalCode": "L2N5K1",
        "streetName": "CONSIDINE",
        "streetDirectionId": null,
        "streetTypeId": "AVE",
        "placeName": "ST CATHARINES",
        "streetNameDisplayText": "CONSIDINE AVE, ST CATHARINES"
      }
    ]
  },
  {
    "postal": "L2N0Z9",
    "result": []
  },
  {
    "postal": "L2N7T2",
    "result": [
      {
        "electoralDistricts": [
          {
            "election": null,
            "id": 90,
            "name": "St. Catharines"
          }
        ],
        "pollDivisionIds": [
          10141376
        ],
        "postalCode": "L2N7T2",
        "streetName": "ERNEST",
        "streetDirectionId": null,
        "streetTypeId": "ST",
        "placeName": "ST CATHARINES",
        "streetNameDisplayText": "ERNEST ST, ST CATHARINES"
      }
    ]
  },
  {
    "postal": "L2N1L5",
    "result": [
      {
        "electoralDistricts": [
          {
            "election": null,
            "id": 90,
            "name": "St. Catharines"
          }
        ],
        "pollDivisionIds": [
          10141377
        ],
        "postalCode": "L2N1L5",
        "streetName": "ONTARIO",
        "streetDirectionId": null,
        "streetTypeId": "ST",
        "placeName": "ST CATHARINES",
        "streetNameDisplayText": "ONTARIO ST, ST CATHARINES"
      }
    ]
  },
  {
    "postal": "L2N3N5",
    "result": [
      {
        "electoralDistricts": [
          {
            "election": null,
            "id": 90,
            "name": "St. Catharines"
          }
        ],
        "pollDivisionIds": [
          10141336
        ],
        "postalCode": "L2N3N5",
        "streetName": "WOODBINE",
        "streetDirectionId": null,
        "streetTypeId": "AVE",
        "placeName": "ST CATHARINES",
        "streetNameDisplayText": "WOODBINE AVE, ST CATHARINES"
      }
    ]
  },
  {
    "postal": "L2N6H4",
    "result": [
      {
        "electoralDistricts": [
          {
            "election": null,
            "id": 90,
            "name": "St. Catharines"
          }
        ],
        "pollDivisionIds": [
          10141334
        ],
        "postalCode": "L2N6H4",
        "streetName": "LAKE",
        "streetDirectionId": null,
        "streetTypeId": "ST",
        "placeName": "ST CATHARINES",
        "streetNameDisplayText": "LAKE ST, ST CATHARINES"
      }
    ]
  },
  {
    "postal": "L2N5A5",
    "result": [
      {
        "electoralDistricts": [
          {
            "election": null,
            "id": 90,
            "name": "St. Catharines"
          }
        ],
        "pollDivisionIds": [
          10141338
        ],
        "postalCode": "L2N5A5",
        "streetName": "MARY",
        "streetDirectionId": null,
        "streetTypeId": "ST",
        "placeName": "ST CATHARINES",
        "streetNameDisplayText": "MARY ST, ST CATHARINES"
      }
    ]
  },
  {
    "postal": "L2N3R9",
    "result": [
      {
        "electoralDistricts": [
          {
            "election": null,
            "id": 90,
            "name": "St. Catharines"
          }
        ],
        "pollDivisionIds": [
          10141334
        ],
        "postalCode": "L2N3R9",
        "streetName": "AQUADALE",
        "streetDirectionId": null,
        "streetTypeId": "DR",
        "placeName": "ST CATHARINES",
        "streetNameDisplayText": "AQUADALE DR, ST CATHARINES"
      }
    ]
  },
  {
    "postal": "L2N7L8",
    "result": [
      {
        "electoralDistricts": [
          {
            "election": null,
            "id": 90,
            "name": "St. Catharines"
          }
        ],
        "pollDivisionIds": [
          10141338
        ],
        "postalCode": "L2N7L8",
        "streetName": "GOLDEN",
        "streetDirectionId": null,
        "streetTypeId": "BLVD",
        "placeName": "ST CATHARINES",
        "streetNameDisplayText": "GOLDEN BLVD, ST CATHARINES"
      }
    ]
  },
  {
    "postal": "L2N6T6",
    "result": [
      {
        "electoralDistricts": [
          {
            "election": null,
            "id": 90,
            "name": "St. Catharines"
          }
        ],
        "pollDivisionIds": [
          10141334
        ],
        "postalCode": "L2N6T6",
        "streetName": "SIMPSON",
        "streetDirectionId": null,
        "streetTypeId": "RD",
        "placeName": "ST CATHARINES",
        "streetNameDisplayText": "SIMPSON RD, ST CATHARINES"
      }
    ]
  },
  {
    "postal": "L2N7Y7",
    "result": []
  },
  {
    "postal": "L2N3M8",
    "result": [
      {
        "electoralDistricts": [
          {
            "election": null,
            "id": 90,
            "name": "St. Catharines"
          }
        ],
        "pollDivisionIds": [
          10141334
        ],
        "postalCode": "L2N3M8",
        "streetName": "TANNER",
        "streetDirectionId": null,
        "streetTypeId": "CIR",
        "placeName": "ST CATHARINES",
        "streetNameDisplayText": "TANNER CIR, ST CATHARINES"
      }
    ]
  },
  {
    "postal": "L2N2E0",
    "result": []
  },
  {
    "postal": "L2N4B5",
    "result": [
      {
        "electoralDistricts": [
          {
            "election": null,
            "id": 90,
            "name": "St. Catharines"
          }
        ],
        "pollDivisionIds": [
          10141343
        ],
        "postalCode": "L2N4B5",
        "streetName": "JULIANA",
        "streetDirectionId": null,
        "streetTypeId": "CRES",
        "placeName": "ST CATHARINES",
        "streetNameDisplayText": "JULIANA CRES, ST CATHARINES"
      }
    ]
  },
  {
    "postal": "L2N1J3",
    "result": [
      {
        "electoralDistricts": [
          {
            "election": null,
            "id": 90,
            "name": "St. Catharines"
          }
        ],
        "pollDivisionIds": [
          10141345
        ],
        "postalCode": "L2N1J3",
        "streetName": "SCOTT",
        "streetDirectionId": null,
        "streetTypeId": "ST",
        "placeName": "ST CATHARINES",
        "streetNameDisplayText": "SCOTT ST, ST CATHARINES"
      }
    ]
  },
  {
    "postal": "L2N5S6",
    "result": [
      {
        "electoralDistricts": [
          {
            "election": null,
            "id": 90,
            "name": "St. Catharines"
          }
        ],
        "pollDivisionIds": [
          10141344
        ],
        "postalCode": "L2N5S6",
        "streetName": "GENEVA",
        "streetDirectionId": null,
        "streetTypeId": "ST",
        "placeName": "ST CATHARINES",
        "streetNameDisplayText": "GENEVA ST, ST CATHARINES"
      }
    ]
  },
  {
    "postal": "L2N8P7",
    "result": []
  },
  {
    "postal": "L2N7S7",
    "result": [
      {
        "electoralDistricts": [
          {
            "election": null,
            "id": 90,
            "name": "St. Catharines"
          }
        ],
        "pollDivisionIds": [
          10141338
        ],
        "postalCode": "L2N7S7",
        "streetName": "OARSMAN",
        "streetDirectionId": null,
        "streetTypeId": "CRES",
        "placeName": "ST CATHARINES",
        "streetNameDisplayText": "OARSMAN CRES, ST CATHARINES"
      }
    ]
  },
  {
    "postal": "L2N4C2",
    "result": [
      {
        "electoralDistricts": [
          {
            "election": null,
            "id": 90,
            "name": "St. Catharines"
          }
        ],
        "pollDivisionIds": [
          10141339
        ],
        "postalCode": "L2N4C2",
        "streetName": "LAKEHURST",
        "streetDirectionId": null,
        "streetTypeId": "DR",
        "placeName": "ST CATHARINES",
        "streetNameDisplayText": "LAKEHURST DR, ST CATHARINES"
      }
    ]
  },
  {
    "postal": "L2N5Y0",
    "result": []
  },
  {
    "postal": "L2N2V7",
    "result": [
      {
        "electoralDistricts": [
          {
            "election": null,
            "id": 90,
            "name": "St. Catharines"
          }
        ],
        "pollDivisionIds": [
          10141336
        ],
        "postalCode": "L2N2V7",
        "streetName": "BAKER",
        "streetDirectionId": null,
        "streetTypeId": "DR",
        "placeName": "ST CATHARINES",
        "streetNameDisplayText": "BAKER DR, ST CATHARINES"
      }
    ]
  },
  {
    "postal": "L2N8P5",
    "result": []
  },
  {
    "postal": "L2N5P5",
    "result": [
      {
        "electoralDistricts": [
          {
            "election": null,
            "id": 90,
            "name": "St. Catharines"
          }
        ],
        "pollDivisionIds": [
          10141339
        ],
        "postalCode": "L2N5P5",
        "streetName": "GREENVIEW",
        "streetDirectionId": null,
        "streetTypeId": "GATE",
        "placeName": "ST CATHARINES",
        "streetNameDisplayText": "GREENVIEW GATE, ST CATHARINES"
      }
    ]
  },
  {
    "postal": "L2N5Z0",
    "result": []
  },
  {
    "postal": "L2N9B0",
    "result": []
  },
  {
    "postal": "L2N1L0",
    "result": []
  },
  {
    "postal": "L2N0B5",
    "result": []
  },
  {
    "postal": "L2N3L2",
    "result": [
      {
        "electoralDistricts": [
          {
            "election": null,
            "id": 90,
            "name": "St. Catharines"
          }
        ],
        "pollDivisionIds": [
          10141336
        ],
        "postalCode": "L2N3L2",
        "streetName": "BRISBANE",
        "streetDirectionId": null,
        "streetTypeId": "GLEN",
        "placeName": "ST CATHARINES",
        "streetNameDisplayText": "BRISBANE GLEN, ST CATHARINES"
      }
    ]
  },
  {
    "postal": "L2N3B7",
    "result": [
      {
        "electoralDistricts": [
          {
            "election": null,
            "id": 90,
            "name": "St. Catharines"
          }
        ],
        "pollDivisionIds": [
          10141336
        ],
        "postalCode": "L2N3B7",
        "streetName": "MANOR",
        "streetDirectionId": null,
        "streetTypeId": "RD",
        "placeName": "ST CATHARINES",
        "streetNameDisplayText": "MANOR RD, ST CATHARINES"
      }
    ]
  },
  {
    "postal": "L2N8L1",
    "result": []
  },
  {
    "postal": "L2N5M4",
    "result": [
      {
        "electoralDistricts": [
          {
            "election": null,
            "id": 90,
            "name": "St. Catharines"
          }
        ],
        "pollDivisionIds": [
          10141338
        ],
        "postalCode": "L2N5M4",
        "streetName": "CORBETT",
        "streetDirectionId": null,
        "streetTypeId": "AVE",
        "placeName": "ST CATHARINES",
        "streetNameDisplayText": "CORBETT AVE, ST CATHARINES"
      }
    ]
  },
  {
    "postal": "L2N4G9",
    "result": [
      {
        "electoralDistricts": [
          {
            "election": null,
            "id": 90,
            "name": "St. Catharines"
          }
        ],
        "pollDivisionIds": [
          10141344
        ],
        "postalCode": "L2N4G9",
        "streetName": "NORTH SERVICE",
        "streetDirectionId": null,
        "streetTypeId": "RD",
        "placeName": "ST CATHARINES",
        "streetNameDisplayText": "NORTH SERVICE RD, ST CATHARINES"
      }
    ]
  },
  {
    "postal": "L2N0P0",
    "result": []
  },
  {
    "postal": "L2N8G2",
    "result": []
  },
  {
    "postal": "L2N1V9",
    "result": [
      {
        "electoralDistricts": [
          {
            "election": null,
            "id": 90,
            "name": "St. Catharines"
          }
        ],
        "pollDivisionIds": [
          10141374
        ],
        "postalCode": "L2N1V9",
        "streetName": "TABOR",
        "streetDirectionId": null,
        "streetTypeId": "DR",
        "placeName": "ST CATHARINES",
        "streetNameDisplayText": "TABOR DR, ST CATHARINES"
      }
    ]
  },
  {
    "postal": "L2N8N8",
    "result": []
  },
  {
    "postal": "L2N6S8",
    "result": [
      {
        "electoralDistricts": [
          {
            "election": null,
            "id": 90,
            "name": "St. Catharines"
          }
        ],
        "pollDivisionIds": [
          10141339
        ],
        "postalCode": "L2N6S8",
        "streetName": "ZIRALDO",
        "streetDirectionId": null,
        "streetTypeId": "RD",
        "placeName": "ST CATHARINES",
        "streetNameDisplayText": "ZIRALDO RD, ST CATHARINES"
      }
    ]
  },
  {
    "postal": "L2N8H2",
    "result": []
  },
  {
    "postal": "L2N5R8",
    "result": [
      {
        "electoralDistricts": [
          {
            "election": null,
            "id": 90,
            "name": "St. Catharines"
          }
        ],
        "pollDivisionIds": [
          10141344
        ],
        "postalCode": "L2N5R8",
        "streetName": "LITTLE FORKS",
        "streetDirectionId": null,
        "streetTypeId": "SQ",
        "placeName": "ST CATHARINES",
        "streetNameDisplayText": "LITTLE FORKS SQ, ST CATHARINES"
      }
    ]
  },
  {
    "postal": "L2N5L4",
    "result": [
      {
        "electoralDistricts": [
          {
            "election": null,
            "id": 90,
            "name": "St. Catharines"
          }
        ],
        "pollDivisionIds": [
          10141338
        ],
        "postalCode": "L2N5L4",
        "streetName": "SHELLEY",
        "streetDirectionId": null,
        "streetTypeId": "AVE",
        "placeName": "ST CATHARINES",
        "streetNameDisplayText": "SHELLEY AVE, ST CATHARINES"
      }
    ]
  },
  {
    "postal": "L2N9E1",
    "result": []
  },
  {
    "postal": "L2N1C4",
    "result": [
      {
        "electoralDistricts": [
          {
            "election": null,
            "id": 90,
            "name": "St. Catharines"
          }
        ],
        "pollDivisionIds": [
          10141346
        ],
        "postalCode": "L2N1C4",
        "streetName": "CARLTON",
        "streetDirectionId": null,
        "streetTypeId": "ST",
        "placeName": "ST CATHARINES",
        "streetNameDisplayText": "CARLTON ST, ST CATHARINES"
      }
    ]
  },
  {
    "postal": "L2N8W5",
    "result": []
  },
  {
    "postal": "L2N1Y4",
    "result": [
      {
        "electoralDistricts": [
          {
            "election": null,
            "id": 90,
            "name": "St. Catharines"
          }
        ],
        "pollDivisionIds": [
          10141346
        ],
        "postalCode": "L2N1Y4",
        "streetName": "DONCASTER",
        "streetDirectionId": null,
        "streetTypeId": "BLVD",
        "placeName": "ST CATHARINES",
        "streetNameDisplayText": "DONCASTER BLVD, ST CATHARINES"
      }
    ]
  },
  {
    "postal": "L2N1C0",
    "result": []
  },
  {
    "postal": "L2N2J2",
    "result": [
      {
        "electoralDistricts": [
          {
            "election": null,
            "id": 90,
            "name": "St. Catharines"
          }
        ],
        "pollDivisionIds": [
          10141336
        ],
        "postalCode": "L2N2J2",
        "streetName": "GENEVA",
        "streetDirectionId": null,
        "streetTypeId": "ST",
        "placeName": "ST CATHARINES",
        "streetNameDisplayText": "GENEVA ST, ST CATHARINES"
      }
    ]
  },
  {
    "postal": "L2N2J0",
    "result": []
  },
  {
    "postal": "L2N7A3",
    "result": [
      {
        "electoralDistricts": [
          {
            "election": null,
            "id": 90,
            "name": "St. Catharines"
          }
        ],
        "pollDivisionIds": [
          10141344
        ],
        "postalCode": "L2N7A3",
        "streetName": "GENEVA",
        "streetDirectionId": null,
        "streetTypeId": "ST",
        "placeName": "ST CATHARINES",
        "streetNameDisplayText": "GENEVA ST, ST CATHARINES"
      }
    ]
  },
  {
    "postal": "L2N8M1",
    "result": []
  },
  {
    "postal": "L2N7T9",
    "result": []
  },
  {
    "postal": "L2N6C0",
    "result": []
  },
  {
    "postal": "L2N7X1",
    "result": []
  },
  {
    "postal": "L2N0G1",
    "result": []
  },
  {
    "postal": "L2N4X2",
    "result": [
      {
        "electoralDistricts": [
          {
            "election": null,
            "id": 90,
            "name": "St. Catharines"
          }
        ],
        "pollDivisionIds": [
          10141338
        ],
        "postalCode": "L2N4X2",
        "streetName": "DALHOUSIE",
        "streetDirectionId": null,
        "streetTypeId": "AVE",
        "placeName": "ST CATHARINES",
        "streetNameDisplayText": "DALHOUSIE AVE, ST CATHARINES"
      }
    ]
  },
  {
    "postal": "L2N0N6",
    "result": []
  },
  {
    "postal": "L2N8E3",
    "result": []
  },
  {
    "postal": "L2N5S8",
    "result": [
      {
        "electoralDistricts": [
          {
            "election": null,
            "id": 90,
            "name": "St. Catharines"
          }
        ],
        "pollDivisionIds": [
          10141344
        ],
        "postalCode": "L2N5S8",
        "streetName": "GENEVA",
        "streetDirectionId": null,
        "streetTypeId": "ST",
        "placeName": "ST CATHARINES",
        "streetNameDisplayText": "GENEVA ST, ST CATHARINES"
      }
    ]
  },
  {
    "postal": "L2N0R0",
    "result": []
  },
  {
    "postal": "L2N6J6",
    "result": [
      {
        "electoralDistricts": [
          {
            "election": null,
            "id": 90,
            "name": "St. Catharines"
          }
        ],
        "pollDivisionIds": [
          10141334
        ],
        "postalCode": "L2N6J6",
        "streetName": "OCTOBER",
        "streetDirectionId": null,
        "streetTypeId": "DR",
        "placeName": "ST CATHARINES",
        "streetNameDisplayText": "OCTOBER DR, ST CATHARINES"
      }
    ]
  },
  {
    "postal": "L2N4B4",
    "result": [
      {
        "electoralDistricts": [
          {
            "election": null,
            "id": 90,
            "name": "St. Catharines"
          }
        ],
        "pollDivisionIds": [
          10141343
        ],
        "postalCode": "L2N4B4",
        "streetName": "JULIANA",
        "streetDirectionId": null,
        "streetTypeId": "CRES",
        "placeName": "ST CATHARINES",
        "streetNameDisplayText": "JULIANA CRES, ST CATHARINES"
      }
    ]
  },
  {
    "postal": "L2N7E3",
    "result": [
      {
        "electoralDistricts": [
          {
            "election": null,
            "id": 90,
            "name": "St. Catharines"
          }
        ],
        "pollDivisionIds": [
          10141334
        ],
        "postalCode": "L2N7E3",
        "streetName": "OLD LAKESHORE",
        "streetDirectionId": null,
        "streetTypeId": "BLVD",
        "placeName": "ST CATHARINES",
        "streetNameDisplayText": "OLD LAKESHORE BLVD, ST CATHARINES"
      }
    ]
  },
  {
    "postal": "L2N3N6",
    "result": [
      {
        "electoralDistricts": [
          {
            "election": null,
            "id": 90,
            "name": "St. Catharines"
          }
        ],
        "pollDivisionIds": [
          10141336
        ],
        "postalCode": "L2N3N6",
        "streetName": "WEST LYNN",
        "streetDirectionId": null,
        "streetTypeId": "ST",
        "placeName": "ST CATHARINES",
        "streetNameDisplayText": "WEST LYNN ST, ST CATHARINES"
      }
    ]
  },
  {
    "postal": "L2N3X6",
    "result": [
      {
        "electoralDistricts": [
          {
            "election": null,
            "id": 90,
            "name": "St. Catharines"
          }
        ],
        "pollDivisionIds": [
          10141335
        ],
        "postalCode": "L2N3X6",
        "streetName": "REXLEIGH",
        "streetDirectionId": null,
        "streetTypeId": "CRES",
        "placeName": "ST CATHARINES",
        "streetNameDisplayText": "REXLEIGH CRES, ST CATHARINES"
      }
    ]
  },
  {
    "postal": "L2N8L0",
    "result": []
  },
  {
    "postal": "L2N8N1",
    "result": []
  },
  {
    "postal": "L2N4J0",
    "result": []
  },
  {
    "postal": "L2N0X7",
    "result": []
  },
  {
    "postal": "L2N6S4",
    "result": [
      {
        "electoralDistricts": [
          {
            "election": null,
            "id": 90,
            "name": "St. Catharines"
          }
        ],
        "pollDivisionIds": [
          10141343
        ],
        "postalCode": "L2N6S4",
        "streetName": "STEPHEN",
        "streetDirectionId": null,
        "streetTypeId": "ST",
        "placeName": "ST CATHARINES",
        "streetNameDisplayText": "STEPHEN ST, ST CATHARINES"
      }
    ]
  },
  {
    "postal": "L2N0Z0",
    "result": []
  },
  {
    "postal": "L2N9X8",
    "result": []
  },
  {
    "postal": "L2N3H3",
    "result": [
      {
        "electoralDistricts": [
          {
            "election": null,
            "id": 90,
            "name": "St. Catharines"
          }
        ],
        "pollDivisionIds": [
          10141334
        ],
        "postalCode": "L2N3H3",
        "streetName": "UPPER CANADA",
        "streetDirectionId": null,
        "streetTypeId": "DR",
        "placeName": "ST CATHARINES",
        "streetNameDisplayText": "UPPER CANADA DR, ST CATHARINES"
      }
    ]
  },
  {
    "postal": "L2N7S2",
    "result": [
      {
        "electoralDistricts": [
          {
            "election": null,
            "id": 90,
            "name": "St. Catharines"
          }
        ],
        "pollDivisionIds": [
          10141375,
          10141339
        ],
        "postalCode": "L2N7S2",
        "streetName": "ONTARIO",
        "streetDirectionId": null,
        "streetTypeId": "ST",
        "placeName": "ST CATHARINES",
        "streetNameDisplayText": "ONTARIO ST, ST CATHARINES"
      }
    ]
  },
  {
    "postal": "L2N3T3",
    "result": [
      {
        "electoralDistricts": [
          {
            "election": null,
            "id": 90,
            "name": "St. Catharines"
          }
        ],
        "pollDivisionIds": [
          10141335
        ],
        "postalCode": "L2N3T3",
        "streetName": "ALBANY",
        "streetDirectionId": null,
        "streetTypeId": "DR",
        "placeName": "ST CATHARINES",
        "streetNameDisplayText": "ALBANY DR, ST CATHARINES"
      }
    ]
  },
  {
    "postal": "L2N9P3",
    "result": []
  },
  {
    "postal": "L2N4H8",
    "result": [
      {
        "electoralDistricts": [
          {
            "election": null,
            "id": 90,
            "name": "St. Catharines"
          }
        ],
        "pollDivisionIds": [
          10141339
        ],
        "postalCode": "L2N4H8",
        "streetName": "LAKE",
        "streetDirectionId": null,
        "streetTypeId": "ST",
        "placeName": "ST CATHARINES",
        "streetNameDisplayText": "LAKE ST, ST CATHARINES"
      }
    ]
  },
  {
    "postal": "L2N6R1",
    "result": [
      {
        "electoralDistricts": [
          {
            "election": null,
            "id": 90,
            "name": "St. Catharines"
          }
        ],
        "pollDivisionIds": [
          10141339
        ],
        "postalCode": "L2N6R1",
        "streetName": "LINWELL",
        "streetDirectionId": null,
        "streetTypeId": "RD",
        "placeName": "ST CATHARINES",
        "streetNameDisplayText": "LINWELL RD, ST CATHARINES"
      }
    ]
  },
  {
    "postal": "L2N1S0",
    "result": []
  },
  {
    "postal": "L2N3W8",
    "result": [
      {
        "electoralDistricts": [
          {
            "election": null,
            "id": 90,
            "name": "St. Catharines"
          }
        ],
        "pollDivisionIds": [
          10141335
        ],
        "postalCode": "L2N3W8",
        "streetName": "HOWARD",
        "streetDirectionId": null,
        "streetTypeId": "AVE",
        "placeName": "ST CATHARINES",
        "streetNameDisplayText": "HOWARD AVE, ST CATHARINES"
      }
    ]
  },
  {
    "postal": "L2N4S3",
    "result": [
      {
        "electoralDistricts": [
          {
            "election": null,
            "id": 90,
            "name": "St. Catharines"
          }
        ],
        "pollDivisionIds": [
          10141339
        ],
        "postalCode": "L2N4S3",
        "streetName": "ROYAL HENLEY",
        "streetDirectionId": null,
        "streetTypeId": "BLVD",
        "placeName": "ST CATHARINES",
        "streetNameDisplayText": "ROYAL HENLEY BLVD, ST CATHARINES"
      }
    ]
  },
  {
    "postal": "L2N1B6",
    "result": [
      {
        "electoralDistricts": [
          {
            "election": null,
            "id": 90,
            "name": "St. Catharines"
          }
        ],
        "pollDivisionIds": [
          10141345
        ],
        "postalCode": "L2N1B6",
        "streetName": "CARLTON",
        "streetDirectionId": null,
        "streetTypeId": "ST",
        "placeName": "ST CATHARINES",
        "streetNameDisplayText": "CARLTON ST, ST CATHARINES"
      }
    ]
  },
  {
    "postal": "L2N8R3",
    "result": []
  },
  {
    "postal": "L2N4V9",
    "result": [
      {
        "electoralDistricts": [
          {
            "election": null,
            "id": 90,
            "name": "St. Catharines"
          }
        ],
        "pollDivisionIds": [
          10141338
        ],
        "postalCode": "L2N4V9",
        "streetName": "MAIN",
        "streetDirectionId": null,
        "streetTypeId": "ST",
        "placeName": "ST CATHARINES",
        "streetNameDisplayText": "MAIN ST, ST CATHARINES"
      }
    ]
  },
  {
    "postal": "L2N9W4",
    "result": []
  },
  {
    "postal": "L2N3T4",
    "result": [
      {
        "electoralDistricts": [
          {
            "election": null,
            "id": 90,
            "name": "St. Catharines"
          }
        ],
        "pollDivisionIds": [
          10141335
        ],
        "postalCode": "L2N3T4",
        "streetName": "ALBANY",
        "streetDirectionId": null,
        "streetTypeId": "DR",
        "placeName": "ST CATHARINES",
        "streetNameDisplayText": "ALBANY DR, ST CATHARINES"
      }
    ]
  },
  {
    "postal": "L2N5C7",
    "result": [
      {
        "electoralDistricts": [
          {
            "election": null,
            "id": 90,
            "name": "St. Catharines"
          }
        ],
        "pollDivisionIds": [
          10141338
        ],
        "postalCode": "L2N5C7",
        "streetName": "SIMCOE",
        "streetDirectionId": null,
        "streetTypeId": "ST",
        "placeName": "ST CATHARINES",
        "streetNameDisplayText": "SIMCOE ST, ST CATHARINES"
      }
    ]
  },
  {
    "postal": "L2N3Y1",
    "result": [
      {
        "electoralDistricts": [
          {
            "election": null,
            "id": 90,
            "name": "St. Catharines"
          }
        ],
        "pollDivisionIds": [
          10141339
        ],
        "postalCode": "L2N3Y1",
        "streetName": "ROYALE",
        "streetDirectionId": null,
        "streetTypeId": "RD",
        "placeName": "ST CATHARINES",
        "streetNameDisplayText": "ROYALE RD, ST CATHARINES"
      }
    ]
  },
  {
    "postal": "L2N5V0",
    "result": []
  },
  {
    "postal": "L2N8G8",
    "result": []
  },
  {
    "postal": "L2N8B1",
    "result": []
  },
  {
    "postal": "L2N4P5",
    "result": [
      {
        "electoralDistricts": [
          {
            "election": null,
            "id": 90,
            "name": "St. Catharines"
          }
        ],
        "pollDivisionIds": [
          10141338
        ],
        "postalCode": "L2N4P5",
        "streetName": "LAKEPORT",
        "streetDirectionId": null,
        "streetTypeId": "RD",
        "placeName": "ST CATHARINES",
        "streetNameDisplayText": "LAKEPORT RD, ST CATHARINES"
      }
    ]
  },
  {
    "postal": "L2N7B2",
    "result": [
      {
        "electoralDistricts": [
          {
            "election": null,
            "id": 90,
            "name": "St. Catharines"
          }
        ],
        "pollDivisionIds": [
          10141338
        ],
        "postalCode": "L2N7B2",
        "streetName": "OLD MILL",
        "streetDirectionId": null,
        "streetTypeId": "RD",
        "placeName": "ST CATHARINES",
        "streetNameDisplayText": "OLD MILL RD, ST CATHARINES"
      }
    ]
  },
  {
    "postal": "L2N0R2",
    "result": []
  },
  {
    "postal": "L2N4M4",
    "result": [
      {
        "electoralDistricts": [
          {
            "election": null,
            "id": 90,
            "name": "St. Catharines"
          }
        ],
        "pollDivisionIds": [
          10141343
        ],
        "postalCode": "L2N4M4",
        "streetName": "WOLFDALE",
        "streetDirectionId": null,
        "streetTypeId": "PL",
        "placeName": "ST CATHARINES",
        "streetNameDisplayText": "WOLFDALE PL, ST CATHARINES"
      }
    ]
  },
  {
    "postal": "L2N7M4",
    "result": [
      {
        "electoralDistricts": [
          {
            "election": null,
            "id": 90,
            "name": "St. Catharines"
          }
        ],
        "pollDivisionIds": [
          10141338
        ],
        "postalCode": "L2N7M4",
        "streetName": "GOLDEN",
        "streetDirectionId": null,
        "streetTypeId": "BLVD",
        "placeName": "ST CATHARINES",
        "streetNameDisplayText": "GOLDEN BLVD, ST CATHARINES"
      },
      {
        "electoralDistricts": [
          {
            "election": null,
            "id": 90,
            "name": "St. Catharines"
          }
        ],
        "pollDivisionIds": [
          10141338
        ],
        "postalCode": "L2N7M4",
        "streetName": "MACINTOSH",
        "streetDirectionId": null,
        "streetTypeId": "CRES",
        "placeName": "ST CATHARINES",
        "streetNameDisplayText": "MACINTOSH CRES, ST CATHARINES"
      }
    ]
  },
  {
    "postal": "L2N9S7",
    "result": []
  },
  {
    "postal": "L2N5Z7",
    "result": [
      {
        "electoralDistricts": [
          {
            "election": null,
            "id": 90,
            "name": "St. Catharines"
          }
        ],
        "pollDivisionIds": [
          10141334
        ],
        "postalCode": "L2N5Z7",
        "streetName": "BEACHVIEW",
        "streetDirectionId": null,
        "streetTypeId": "DR",
        "placeName": "ST CATHARINES",
        "streetNameDisplayText": "BEACHVIEW DR, ST CATHARINES"
      }
    ]
  },
  {
    "postal": "L2N7J7",
    "result": [
      {
        "electoralDistricts": [
          {
            "election": null,
            "id": 90,
            "name": "St. Catharines"
          }
        ],
        "pollDivisionIds": [
          10141338
        ],
        "postalCode": "L2N7J7",
        "streetName": "CHERITAN",
        "streetDirectionId": null,
        "streetTypeId": "CRT",
        "placeName": "ST CATHARINES",
        "streetNameDisplayText": "CHERITAN CRT, ST CATHARINES"
      }
    ]
  },
  {
    "postal": "L2N8R8",
    "result": []
  },
  {
    "postal": "L2N9X1",
    "result": []
  },
  {
    "postal": "L2N5M9",
    "result": [
      {
        "electoralDistricts": [
          {
            "election": null,
            "id": 90,
            "name": "St. Catharines"
          }
        ],
        "pollDivisionIds": [
          10141338
        ],
        "postalCode": "L2N5M9",
        "streetName": "CORBETT",
        "streetDirectionId": null,
        "streetTypeId": "AVE",
        "placeName": "ST CATHARINES",
        "streetNameDisplayText": "CORBETT AVE, ST CATHARINES"
      }
    ]
  },
  {
    "postal": "L2N9B4",
    "result": []
  },
  {
    "postal": "L2N0L9",
    "result": []
  },
  {
    "postal": "L2N9G4",
    "result": []
  },
  {
    "postal": "L2N1J4",
    "result": [
      {
        "electoralDistricts": [
          {
            "election": null,
            "id": 90,
            "name": "St. Catharines"
          }
        ],
        "pollDivisionIds": [
          10141340
        ],
        "postalCode": "L2N1J4",
        "streetName": "SCOTT",
        "streetDirectionId": null,
        "streetTypeId": "ST",
        "placeName": "ST CATHARINES",
        "streetNameDisplayText": "SCOTT ST, ST CATHARINES"
      }
    ]
  },
  {
    "postal": "L2N0W6",
    "result": []
  }
]
