[
  {
    "postal": "M6M9J6",
    "result": []
  },
  {
    "postal": "M6M9Z5",
    "result": []
  },
  {
    "postal": "M6M7H8",
    "result": []
  },
  {
    "postal": "M6M0P6",
    "result": []
  },
  {
    "postal": "M6M0S7",
    "result": []
  },
  {
    "postal": "M6M8B9",
    "result": []
  },
  {
    "postal": "M6M2A6",
    "result": [
      {
        "electoralDistricts": [
          {
            "election": null,
            "id": 122,
            "name": "York South—Weston"
          }
        ],
        "pollDivisionIds": [
          10142970
        ],
        "postalCode": "M6M2A6",
        "streetName": "GREENTREE",
        "streetDirectionId": null,
        "streetTypeId": "CRT",
        "placeName": "YORK",
        "streetNameDisplayText": "GREENTREE CRT, YORK"
      }
    ]
  },
  {
    "postal": "M6M7V2",
    "result": []
  },
  {
    "postal": "M6M9P4",
    "result": []
  },
  {
    "postal": "M6M6G0",
    "result": []
  },
  {
    "postal": "M6M2K0",
    "result": []
  },
  {
    "postal": "M6M7N6",
    "result": []
  },
  {
    "postal": "M6M5R3",
    "result": []
  },
  {
    "postal": "M6M7K0",
    "result": []
  },
  {
    "postal": "M6M3R2",
    "result": [
      {
        "electoralDistricts": [
          {
            "election": null,
            "id": 122,
            "name": "York South—Weston"
          }
        ],
        "pollDivisionIds": [
          10142979
        ],
        "postalCode": "M6M3R2",
        "streetName": "WATT",
        "streetDirectionId": null,
        "streetTypeId": "AVE",
        "placeName": "YORK",
        "streetNameDisplayText": "WATT AVE, YORK"
      }
    ]
  },
  {
    "postal": "M6M0J1",
    "result": []
  },
  {
    "postal": "M6M0B0",
    "result": []
  },
  {
    "postal": "M6M5Z2",
    "result": []
  },
  {
    "postal": "M6M7P3",
    "result": []
  },
  {
    "postal": "M6M2K3",
    "result": [
      {
        "electoralDistricts": [
          {
            "election": null,
            "id": 122,
            "name": "York South—Weston"
          }
        ],
        "pollDivisionIds": [
          10142969
        ],
        "postalCode": "M6M2K3",
        "streetName": "SEDAN",
        "streetDirectionId": null,
        "streetTypeId": "AVE",
        "placeName": "YORK",
        "streetNameDisplayText": "SEDAN AVE, YORK"
      }
    ]
  },
  {
    "postal": "M6M7Y6",
    "result": []
  },
  {
    "postal": "M6M1L9",
    "result": [
      {
        "electoralDistricts": [
          {
            "election": null,
            "id": 122,
            "name": "York South—Weston"
          }
        ],
        "pollDivisionIds": [
          10142977
        ],
        "postalCode": "M6M1L9",
        "streetName": "ROTHERHAM",
        "streetDirectionId": null,
        "streetTypeId": "AVE",
        "placeName": "YORK",
        "streetNameDisplayText": "ROTHERHAM AVE, YORK"
      }
    ]
  },
  {
    "postal": "M6M8T0",
    "result": []
  },
  {
    "postal": "M6M3K8",
    "result": [
      {
        "electoralDistricts": [
          {
            "election": null,
            "id": 122,
            "name": "York South—Weston"
          }
        ],
        "pollDivisionIds": [
          10142966
        ],
        "postalCode": "M6M3K8",
        "streetName": "SABLE",
        "streetDirectionId": null,
        "streetTypeId": "ST",
        "placeName": "NORTH YORK",
        "streetNameDisplayText": "SABLE ST, NORTH YORK"
      }
    ]
  },
  {
    "postal": "M6M5W9",
    "result": []
  },
  {
    "postal": "M6M6T9",
    "result": []
  },
  {
    "postal": "M6M4H1",
    "result": [
      {
        "electoralDistricts": [
          {
            "election": null,
            "id": 122,
            "name": "York South—Weston"
          }
        ],
        "pollDivisionIds": [
          10142977
        ],
        "postalCode": "M6M4H1",
        "streetName": "BICKNELL",
        "streetDirectionId": null,
        "streetTypeId": "AVE",
        "placeName": "YORK",
        "streetNameDisplayText": "BICKNELL AVE, YORK"
      }
    ]
  },
  {
    "postal": "M6M7A2",
    "result": []
  },
  {
    "postal": "M6M5G0",
    "result": []
  },
  {
    "postal": "M6M8V5",
    "result": []
  },
  {
    "postal": "M6M2Y8",
    "result": [
      {
        "electoralDistricts": [
          {
            "election": null,
            "id": 122,
            "name": "York South—Weston"
          }
        ],
        "pollDivisionIds": [
          10142966
        ],
        "postalCode": "M6M2Y8",
        "streetName": "GEORGE ANDERSON",
        "streetDirectionId": null,
        "streetTypeId": "DR",
        "placeName": "NORTH YORK",
        "streetNameDisplayText": "GEORGE ANDERSON DR, NORTH YORK"
      }
    ]
  },
  {
    "postal": "M6M2B6",
    "result": [
      {
        "electoralDistricts": [
          {
            "election": null,
            "id": 122,
            "name": "York South—Weston"
          }
        ],
        "pollDivisionIds": [
          10142968
        ],
        "postalCode": "M6M2B6",
        "streetName": "PINEHILL",
        "streetDirectionId": null,
        "streetTypeId": "CRES",
        "placeName": "YORK",
        "streetNameDisplayText": "PINEHILL CRES, YORK"
      }
    ]
  },
  {
    "postal": "M6M4W8",
    "result": []
  },
  {
    "postal": "M6M8H7",
    "result": []
  },
  {
    "postal": "M6M5P1",
    "result": []
  },
  {
    "postal": "M6M2B8",
    "result": [
      {
        "electoralDistricts": [
          {
            "election": null,
            "id": 122,
            "name": "York South—Weston"
          }
        ],
        "pollDivisionIds": [
          10142970
        ],
        "postalCode": "M6M2B8",
        "streetName": "WESTACRES",
        "streetDirectionId": null,
        "streetTypeId": "DR",
        "placeName": "YORK",
        "streetNameDisplayText": "WESTACRES DR, YORK"
      }
    ]
  },
  {
    "postal": "M6M0P2",
    "result": []
  },
  {
    "postal": "M6M9M1",
    "result": []
  },
  {
    "postal": "M6M3G0",
    "result": []
  },
  {
    "postal": "M6M9Z2",
    "result": []
  },
  {
    "postal": "M6M2A0",
    "result": []
  },
  {
    "postal": "M6M6Y0",
    "result": []
  },
  {
    "postal": "M6M2Z8",
    "result": [
      {
        "electoralDistricts": [
          {
            "election": null,
            "id": 122,
            "name": "York South—Weston"
          }
        ],
        "pollDivisionIds": [
          10142966
        ],
        "postalCode": "M6M2Z8",
        "streetName": "RIDGE POINT",
        "streetDirectionId": null,
        "streetTypeId": "CRES",
        "placeName": "NORTH YORK",
        "streetNameDisplayText": "RIDGE POINT CRES, NORTH YORK"
      }
    ]
  },
  {
    "postal": "M6M7Y3",
    "result": []
  },
  {
    "postal": "M6M6Z5",
    "result": []
  },
  {
    "postal": "M6M6E0",
    "result": []
  },
  {
    "postal": "M6M9B7",
    "result": []
  },
  {
    "postal": "M6M9S5",
    "result": []
  },
  {
    "postal": "M6M3X3",
    "result": [
      {
        "electoralDistricts": [
          {
            "election": null,
            "id": 122,
            "name": "York South—Weston"
          }
        ],
        "pollDivisionIds": [
          10142978
        ],
        "postalCode": "M6M3X3",
        "streetName": "KEELE",
        "streetDirectionId": null,
        "streetTypeId": "ST",
        "placeName": "YORK",
        "streetNameDisplayText": "KEELE ST, YORK"
      }
    ]
  },
  {
    "postal": "M6M7R5",
    "result": []
  },
  {
    "postal": "M6M2X3",
    "result": [
      {
        "electoralDistricts": [
          {
            "election": null,
            "id": 122,
            "name": "York South—Weston"
          }
        ],
        "pollDivisionIds": [
          10142966
        ],
        "postalCode": "M6M2X3",
        "streetName": "HARROW",
        "streetDirectionId": null,
        "streetTypeId": "DR",
        "placeName": "NORTH YORK",
        "streetNameDisplayText": "HARROW DR, NORTH YORK"
      }
    ]
  },
  {
    "postal": "M6M8Z9",
    "result": []
  },
  {
    "postal": "M6M0N4",
    "result": []
  },
  {
    "postal": "M6M1K1",
    "result": [
      {
        "electoralDistricts": [
          {
            "election": null,
            "id": 122,
            "name": "York South—Weston"
          }
        ],
        "pollDivisionIds": [
          10142978
        ],
        "postalCode": "M6M1K1",
        "streetName": "DONALD",
        "streetDirectionId": null,
        "streetTypeId": "AVE",
        "placeName": "YORK",
        "streetNameDisplayText": "DONALD AVE, YORK"
      }
    ]
  },
  {
    "postal": "M6M1S3",
    "result": [
      {
        "electoralDistricts": [
          {
            "election": null,
            "id": 122,
            "name": "York South—Weston"
          }
        ],
        "pollDivisionIds": [
          10142978
        ],
        "postalCode": "M6M1S3",
        "streetName": "VENN",
        "streetDirectionId": null,
        "streetTypeId": "CRES",
        "placeName": "YORK",
        "streetNameDisplayText": "VENN CRES, YORK"
      }
    ]
  },
  {
    "postal": "M6M6M4",
    "result": []
  },
  {
    "postal": "M6M9A9",
    "result": []
  },
  {
    "postal": "M6M9Z9",
    "result": []
  },
  {
    "postal": "M6M6T4",
    "result": []
  },
  {
    "postal": "M6M0B2",
    "result": [
      {
        "electoralDistricts": [
          {
            "election": null,
            "id": 122,
            "name": "York South—Weston"
          }
        ],
        "pollDivisionIds": [
          10142978
        ],
        "postalCode": "M6M0B2",
        "streetName": "GEORGE BROWNLEE",
        "streetDirectionId": null,
        "streetTypeId": "CRT",
        "placeName": "YORK",
        "streetNameDisplayText": "GEORGE BROWNLEE CRT, YORK"
      },
      {
        "electoralDistricts": [
          {
            "election": null,
            "id": 122,
            "name": "York South—Weston"
          }
        ],
        "pollDivisionIds": [
          10142978
        ],
        "postalCode": "M6M0B2",
        "streetName": "KANE",
        "streetDirectionId": null,
        "streetTypeId": "AVE",
        "placeName": "YORK",
        "streetNameDisplayText": "KANE AVE, YORK"
      },
      {
        "electoralDistricts": [
          {
            "election": null,
            "id": 122,
            "name": "York South—Weston"
          }
        ],
        "pollDivisionIds": [
          10142978
        ],
        "postalCode": "M6M0B2",
        "streetName": "SCOTT",
        "streetDirectionId": null,
        "streetTypeId": "RD",
        "placeName": "YORK",
        "streetNameDisplayText": "SCOTT RD, YORK"
      },
      {
        "electoralDistricts": [
          {
            "election": null,
            "id": 122,
            "name": "York South—Weston"
          }
        ],
        "pollDivisionIds": [
          10142978
        ],
        "postalCode": "M6M0B2",
        "streetName": "YPRES",
        "streetDirectionId": null,
        "streetTypeId": "RD",
        "placeName": "YORK",
        "streetNameDisplayText": "YPRES RD, YORK"
      }
    ]
  },
  {
    "postal": "M6M2L9",
    "result": []
  },
  {
    "postal": "M6M8K9",
    "result": []
  },
  {
    "postal": "M6M2H9",
    "result": [
      {
        "electoralDistricts": [
          {
            "election": null,
            "id": 122,
            "name": "York South—Weston"
          }
        ],
        "pollDivisionIds": [
          10142968
        ],
        "postalCode": "M6M2H9",
        "streetName": "BUTTONWOOD",
        "streetDirectionId": null,
        "streetTypeId": "AVE",
        "placeName": "YORK",
        "streetNameDisplayText": "BUTTONWOOD AVE, YORK"
      }
    ]
  },
  {
    "postal": "M6M3Z6",
    "result": [
      {
        "electoralDistricts": [
          {
            "election": null,
            "id": 122,
            "name": "York South—Weston"
          }
        ],
        "pollDivisionIds": [
          10142966
        ],
        "postalCode": "M6M3Z6",
        "streetName": "KEELE",
        "streetDirectionId": null,
        "streetTypeId": "ST",
        "placeName": "NORTH YORK",
        "streetNameDisplayText": "KEELE ST, NORTH YORK"
      }
    ]
  },
  {
    "postal": "M6M3B0",
    "result": []
  },
  {
    "postal": "M6M2H8",
    "result": [
      {
        "electoralDistricts": [
          {
            "election": null,
            "id": 122,
            "name": "York South—Weston"
          }
        ],
        "pollDivisionIds": [
          10142969
        ],
        "postalCode": "M6M2H8",
        "streetName": "NICKLE",
        "streetDirectionId": null,
        "streetTypeId": "ST",
        "placeName": "YORK",
        "streetNameDisplayText": "NICKLE ST, YORK"
      }
    ]
  },
  {
    "postal": "M6M3X2",
    "result": [
      {
        "electoralDistricts": [
          {
            "election": null,
            "id": 122,
            "name": "York South—Weston"
          }
        ],
        "pollDivisionIds": [
          10142978
        ],
        "postalCode": "M6M3X2",
        "streetName": "KEELE",
        "streetDirectionId": null,
        "streetTypeId": "ST",
        "placeName": "YORK",
        "streetNameDisplayText": "KEELE ST, YORK"
      }
    ]
  },
  {
    "postal": "M6M2E9",
    "result": [
      {
        "electoralDistricts": [
          {
            "election": null,
            "id": 122,
            "name": "York South—Weston"
          }
        ],
        "pollDivisionIds": [
          10142971
        ],
        "postalCode": "M6M2E9",
        "streetName": "STRATHNAIRN",
        "streetDirectionId": null,
        "streetTypeId": "AVE",
        "placeName": "YORK",
        "streetNameDisplayText": "STRATHNAIRN AVE, YORK"
      }
    ]
  },
  {
    "postal": "M6M9P6",
    "result": []
  },
  {
    "postal": "M6M9E2",
    "result": []
  },
  {
    "postal": "M6M9H2",
    "result": []
  },
  {
    "postal": "M6M1S8",
    "result": [
      {
        "electoralDistricts": [
          {
            "election": null,
            "id": 98,
            "name": "Scarborough Southwest"
          }
        ],
        "pollDivisionIds": [
          10141787
        ],
        "postalCode": "M6M1S8",
        "streetName": "EGLINTON",
        "streetDirectionId": "E",
        "streetTypeId": "AVE",
        "placeName": "YORK",
        "streetNameDisplayText": "EGLINTON AVE E, YORK"
      },
      {
        "electoralDistricts": [
          {
            "election": null,
            "id": 122,
            "name": "York South—Weston"
          }
        ],
        "pollDivisionIds": [
          10142978
        ],
        "postalCode": "M6M1S8",
        "streetName": "EGLINTON",
        "streetDirectionId": "W",
        "streetTypeId": "AVE",
        "placeName": "YORK",
        "streetNameDisplayText": "EGLINTON AVE W, YORK"
      }
    ]
  },
  {
    "postal": "M6M3M6",
    "result": [
      {
        "electoralDistricts": [
          {
            "election": null,
            "id": 122,
            "name": "York South—Weston"
          }
        ],
        "pollDivisionIds": [
          10142971
        ],
        "postalCode": "M6M3M6",
        "streetName": "GLENHAVEN",
        "streetDirectionId": null,
        "streetTypeId": "ST",
        "placeName": "YORK",
        "streetNameDisplayText": "GLENHAVEN ST, YORK"
      }
    ]
  },
  {
    "postal": "M6M6Z8",
    "result": []
  },
  {
    "postal": "M6M4J2",
    "result": [
      {
        "electoralDistricts": [
          {
            "election": null,
            "id": 122,
            "name": "York South—Weston"
          }
        ],
        "pollDivisionIds": [
          10142966
        ],
        "postalCode": "M6M4J2",
        "streetName": "AMESBURY",
        "streetDirectionId": null,
        "streetTypeId": "DR",
        "placeName": "NORTH YORK",
        "streetNameDisplayText": "AMESBURY DR, NORTH YORK"
      }
    ]
  },
  {
    "postal": "M6M9Y1",
    "result": []
  },
  {
    "postal": "M6M8V6",
    "result": []
  },
  {
    "postal": "M6M6B2",
    "result": []
  },
  {
    "postal": "M6M1P8",
    "result": [
      {
        "electoralDistricts": [
          {
            "election": null,
            "id": 122,
            "name": "York South—Weston"
          }
        ],
        "pollDivisionIds": [
          10142978
        ],
        "postalCode": "M6M1P8",
        "streetName": "AVON",
        "streetDirectionId": null,
        "streetTypeId": "DR",
        "placeName": "YORK",
        "streetNameDisplayText": "AVON DR, YORK"
      }
    ]
  },
  {
    "postal": "M6M0V8",
    "result": []
  },
  {
    "postal": "M6M4Y0",
    "result": []
  },
  {
    "postal": "M6M2T4",
    "result": [
      {
        "electoralDistricts": [
          {
            "election": null,
            "id": 122,
            "name": "York South—Weston"
          }
        ],
        "pollDivisionIds": [
          10142964
        ],
        "postalCode": "M6M2T4",
        "streetName": "THE WISHBONE",
        "streetDirectionId": null,
        "streetTypeId": null,
        "placeName": "NORTH YORK",
        "streetNameDisplayText": "THE WISHBONE, NORTH YORK"
      }
    ]
  },
  {
    "postal": "M6M2S3",
    "result": [
      {
        "electoralDistricts": [
          {
            "election": null,
            "id": 122,
            "name": "York South—Weston"
          }
        ],
        "pollDivisionIds": [
          10142964
        ],
        "postalCode": "M6M2S3",
        "streetName": "PARKCHESTER",
        "streetDirectionId": null,
        "streetTypeId": "RD",
        "placeName": "NORTH YORK",
        "streetNameDisplayText": "PARKCHESTER RD, NORTH YORK"
      }
    ]
  },
  {
    "postal": "M6M0K0",
    "result": []
  },
  {
    "postal": "M6M5N1",
    "result": []
  },
  {
    "postal": "M6M7T0",
    "result": []
  },
  {
    "postal": "M6M9N2",
    "result": []
  },
  {
    "postal": "M6M5L1",
    "result": [
      {
        "electoralDistricts": [
          {
            "election": null,
            "id": 122,
            "name": "York South—Weston"
          }
        ],
        "pollDivisionIds": [
          10142963
        ],
        "postalCode": "M6M5L1",
        "streetName": "TOUCHSTONE",
        "streetDirectionId": null,
        "streetTypeId": "DR",
        "placeName": "NORTH YORK",
        "streetNameDisplayText": "TOUCHSTONE DR, NORTH YORK"
      }
    ]
  },
  {
    "postal": "M6M7G5",
    "result": []
  },
  {
    "postal": "M6M6K2",
    "result": []
  },
  {
    "postal": "M6M6P9",
    "result": []
  },
  {
    "postal": "M6M0E6",
    "result": []
  },
  {
    "postal": "M6M8R9",
    "result": []
  },
  {
    "postal": "M6M3G9",
    "result": [
      {
        "electoralDistricts": [
          {
            "election": null,
            "id": 122,
            "name": "York South—Weston"
          }
        ],
        "pollDivisionIds": [
          10142979
        ],
        "postalCode": "M6M3G9",
        "streetName": "SILVERTHORN",
        "streetDirectionId": null,
        "streetTypeId": "AVE",
        "placeName": "YORK",
        "streetNameDisplayText": "SILVERTHORN AVE, YORK"
      }
    ]
  },
  {
    "postal": "M6M0V7",
    "result": []
  },
  {
    "postal": "M6M2Z1",
    "result": [
      {
        "electoralDistricts": [
          {
            "election": null,
            "id": 122,
            "name": "York South—Weston"
          }
        ],
        "pollDivisionIds": [
          10142966
        ],
        "postalCode": "M6M2Z1",
        "streetName": "GEORGE ANDERSON",
        "streetDirectionId": null,
        "streetTypeId": "DR",
        "placeName": "NORTH YORK",
        "streetNameDisplayText": "GEORGE ANDERSON DR, NORTH YORK"
      }
    ]
  },
  {
    "postal": "M6M7N1",
    "result": []
  },
  {
    "postal": "M6M3C6",
    "result": [
      {
        "electoralDistricts": [
          {
            "election": null,
            "id": 122,
            "name": "York South—Weston"
          }
        ],
        "pollDivisionIds": [
          10142978
        ],
        "postalCode": "M6M3C6",
        "streetName": "BLACKTHORN",
        "streetDirectionId": null,
        "streetTypeId": "AVE",
        "placeName": "YORK",
        "streetNameDisplayText": "BLACKTHORN AVE, YORK"
      }
    ]
  },
  {
    "postal": "M6M4M1",
    "result": []
  },
  {
    "postal": "M6M9K2",
    "result": []
  },
  {
    "postal": "M6M9S6",
    "result": []
  },
  {
    "postal": "M6M4X1",
    "result": [
      {
        "electoralDistricts": [
          {
            "election": null,
            "id": 122,
            "name": "York South—Weston"
          }
        ],
        "pollDivisionIds": [
          10142964
        ],
        "postalCode": "M6M4X1",
        "streetName": "TEDDER",
        "streetDirectionId": "N",
        "streetTypeId": "ST",
        "placeName": "NORTH YORK",
        "streetNameDisplayText": "TEDDER ST N, NORTH YORK"
      },
      {
        "electoralDistricts": [
          {
            "election": null,
            "id": 122,
            "name": "York South—Weston"
          }
        ],
        "pollDivisionIds": [
          10142959
        ],
        "postalCode": "M6M4X1",
        "streetName": "TEDDER",
        "streetDirectionId": null,
        "streetTypeId": "ST",
        "placeName": "NORTH YORK",
        "streetNameDisplayText": "TEDDER ST, NORTH YORK"
      }
    ]
  },
  {
    "postal": "M6M8W2",
    "result": []
  },
  {
    "postal": "M6M7N2",
    "result": []
  },
  {
    "postal": "M6M8S3",
    "result": []
  },
  {
    "postal": "M6M4V0",
    "result": []
  },
  {
    "postal": "M6M6W4",
    "result": []
  },
  {
    "postal": "M6M5M1",
    "result": []
  },
  {
    "postal": "M6M0S4",
    "result": []
  },
  {
    "postal": "M6M5X6",
    "result": []
  },
  {
    "postal": "M6M8L5",
    "result": []
  },
  {
    "postal": "M6M5M8",
    "result": []
  },
  {
    "postal": "M6M2G3",
    "result": [
      {
        "electoralDistricts": [
          {
            "election": null,
            "id": 122,
            "name": "York South—Weston"
          }
        ],
        "pollDivisionIds": [
          10142971
        ],
        "postalCode": "M6M2G3",
        "streetName": "STRATHNAIRN",
        "streetDirectionId": null,
        "streetTypeId": "AVE",
        "placeName": "YORK",
        "streetNameDisplayText": "STRATHNAIRN AVE, YORK"
      }
    ]
  },
  {
    "postal": "M6M8E4",
    "result": []
  },
  {
    "postal": "M6M7S9",
    "result": []
  },
  {
    "postal": "M6M1K3",
    "result": [
      {
        "electoralDistricts": [
          {
            "election": null,
            "id": 122,
            "name": "York South—Weston"
          }
        ],
        "pollDivisionIds": [
          10142978
        ],
        "postalCode": "M6M1K3",
        "streetName": "DONALD",
        "streetDirectionId": null,
        "streetTypeId": "AVE",
        "placeName": "YORK",
        "streetNameDisplayText": "DONALD AVE, YORK"
      }
    ]
  },
  {
    "postal": "M6M4E1",
    "result": [
      {
        "electoralDistricts": [
          {
            "election": null,
            "id": 122,
            "name": "York South—Weston"
          }
        ],
        "pollDivisionIds": [
          10142977
        ],
        "postalCode": "M6M4E1",
        "streetName": "YARROW",
        "streetDirectionId": null,
        "streetTypeId": "RD",
        "placeName": "YORK",
        "streetNameDisplayText": "YARROW RD, YORK"
      }
    ]
  },
  {
    "postal": "M6M4R2",
    "result": [
      {
        "electoralDistricts": [
          {
            "election": null,
            "id": 122,
            "name": "York South—Weston"
          }
        ],
        "pollDivisionIds": [
          10142969
        ],
        "postalCode": "M6M4R2",
        "streetName": "WESTON",
        "streetDirectionId": null,
        "streetTypeId": "RD",
        "placeName": "YORK",
        "streetNameDisplayText": "WESTON RD, YORK"
      }
    ]
  },
  {
    "postal": "M6M6T0",
    "result": []
  },
  {
    "postal": "M6M3K5",
    "result": [
      {
        "electoralDistricts": [
          {
            "election": null,
            "id": 122,
            "name": "York South—Weston"
          }
        ],
        "pollDivisionIds": [
          10142971
        ],
        "postalCode": "M6M3K5",
        "streetName": "COLFAX",
        "streetDirectionId": null,
        "streetTypeId": "ST",
        "placeName": "YORK",
        "streetNameDisplayText": "COLFAX ST, YORK"
      }
    ]
  },
  {
    "postal": "M6M3S3",
    "result": [
      {
        "electoralDistricts": [
          {
            "election": null,
            "id": 122,
            "name": "York South—Weston"
          }
        ],
        "pollDivisionIds": [
          10142972
        ],
        "postalCode": "M6M3S3",
        "streetName": "BERTRAM",
        "streetDirectionId": null,
        "streetTypeId": "ST",
        "placeName": "YORK",
        "streetNameDisplayText": "BERTRAM ST, YORK"
      }
    ]
  },
  {
    "postal": "M6M3L4",
    "result": [
      {
        "electoralDistricts": [
          {
            "election": null,
            "id": 122,
            "name": "York South—Weston"
          }
        ],
        "pollDivisionIds": [
          10142979
        ],
        "postalCode": "M6M3L4",
        "streetName": "CHAMBERS",
        "streetDirectionId": null,
        "streetTypeId": "AVE",
        "placeName": "YORK",
        "streetNameDisplayText": "CHAMBERS AVE, YORK"
      }
    ]
  },
  {
    "postal": "M6M9Y2",
    "result": []
  },
  {
    "postal": "M6M1E0",
    "result": []
  },
  {
    "postal": "M6M9A4",
    "result": []
  },
  {
    "postal": "M6M1L3",
    "result": [
      {
        "electoralDistricts": [
          {
            "election": null,
            "id": 122,
            "name": "York South—Weston"
          }
        ],
        "pollDivisionIds": [
          10142978
        ],
        "postalCode": "M6M1L3",
        "streetName": "TROWELL",
        "streetDirectionId": null,
        "streetTypeId": "AVE",
        "placeName": "YORK",
        "streetNameDisplayText": "TROWELL AVE, YORK"
      }
    ]
  },
  {
    "postal": "M6M6N1",
    "result": []
  },
  {
    "postal": "M6M6G7",
    "result": []
  },
  {
    "postal": "M6M7W1",
    "result": []
  },
  {
    "postal": "M6M4M6",
    "result": []
  },
  {
    "postal": "M6M1K0",
    "result": []
  },
  {
    "postal": "M6M3E2",
    "result": [
      {
        "electoralDistricts": [
          {
            "election": null,
            "id": 122,
            "name": "York South—Weston"
          }
        ],
        "pollDivisionIds": [
          10142966
        ],
        "postalCode": "M6M3E2",
        "streetName": "KINCORT",
        "streetDirectionId": null,
        "streetTypeId": "ST",
        "placeName": "YORK",
        "streetNameDisplayText": "KINCORT ST, YORK"
      }
    ]
  },
  {
    "postal": "M6M5H4",
    "result": [
      {
        "electoralDistricts": [
          {
            "election": null,
            "id": 122,
            "name": "York South—Weston"
          }
        ],
        "pollDivisionIds": [
          10142968
        ],
        "postalCode": "M6M5H4",
        "streetName": "GOLDWIN",
        "streetDirectionId": null,
        "streetTypeId": "AVE",
        "placeName": "YORK",
        "streetNameDisplayText": "GOLDWIN AVE, YORK"
      }
    ]
  },
  {
    "postal": "M6M1K7",
    "result": [
      {
        "electoralDistricts": [
          {
            "election": null,
            "id": 122,
            "name": "York South—Weston"
          }
        ],
        "pollDivisionIds": [
          10142977
        ],
        "postalCode": "M6M1K7",
        "streetName": "DONALD",
        "streetDirectionId": null,
        "streetTypeId": "AVE",
        "placeName": "YORK",
        "streetNameDisplayText": "DONALD AVE, YORK"
      }
    ]
  },
  {
    "postal": "M6M0H0",
    "result": []
  },
  {
    "postal": "M6M0J3",
    "result": []
  },
  {
    "postal": "M6M1X6",
    "result": [
      {
        "electoralDistricts": [
          {
            "election": null,
            "id": 122,
            "name": "York South—Weston"
          }
        ],
        "pollDivisionIds": [
          10142972
        ],
        "postalCode": "M6M1X6",
        "streetName": "LONBOROUGH",
        "streetDirectionId": null,
        "streetTypeId": "AVE",
        "placeName": "YORK",
        "streetNameDisplayText": "LONBOROUGH AVE, YORK"
      }
    ]
  },
  {
    "postal": "M6M2Z6",
    "result": [
      {
        "electoralDistricts": [
          {
            "election": null,
            "id": 122,
            "name": "York South—Weston"
          }
        ],
        "pollDivisionIds": [
          10142966
        ],
        "postalCode": "M6M2Z6",
        "streetName": "GARSIDE",
        "streetDirectionId": null,
        "streetTypeId": "CRES",
        "placeName": "NORTH YORK",
        "streetNameDisplayText": "GARSIDE CRES, NORTH YORK"
      }
    ]
  },
  {
    "postal": "M6M4R9",
    "result": [
      {
        "electoralDistricts": [
          {
            "election": null,
            "id": 122,
            "name": "York South—Weston"
          }
        ],
        "pollDivisionIds": [
          10142969
        ],
        "postalCode": "M6M4R9",
        "streetName": "WESTON",
        "streetDirectionId": null,
        "streetTypeId": "RD",
        "placeName": "YORK",
        "streetNameDisplayText": "WESTON RD, YORK"
      }
    ]
  },
  {
    "postal": "M6M0W8",
    "result": []
  },
  {
    "postal": "M6M1L4",
    "result": [
      {
        "electoralDistricts": [
          {
            "election": null,
            "id": 122,
            "name": "York South—Weston"
          }
        ],
        "pollDivisionIds": [
          10142978
        ],
        "postalCode": "M6M1L4",
        "streetName": "TROWELL",
        "streetDirectionId": null,
        "streetTypeId": "AVE",
        "placeName": "YORK",
        "streetNameDisplayText": "TROWELL AVE, YORK"
      }
    ]
  },
  {
    "postal": "M6M0C8",
    "result": []
  },
  {
    "postal": "M6M9X7",
    "result": []
  },
  {
    "postal": "M6M4T1",
    "result": []
  },
  {
    "postal": "M6M0M0",
    "result": []
  },
  {
    "postal": "M6M6A2",
    "result": []
  },
  {
    "postal": "M6M9S8",
    "result": []
  },
  {
    "postal": "M6M9T4",
    "result": []
  },
  {
    "postal": "M6M9Y4",
    "result": []
  },
  {
    "postal": "M6M6G5",
    "result": []
  },
  {
    "postal": "M6M6H9",
    "result": []
  },
  {
    "postal": "M6M2P3",
    "result": [
      {
        "electoralDistricts": [
          {
            "election": null,
            "id": 122,
            "name": "York South—Weston"
          }
        ],
        "pollDivisionIds": [
          10142966
        ],
        "postalCode": "M6M2P3",
        "streetName": "PILGRIM",
        "streetDirectionId": null,
        "streetTypeId": "CRT",
        "placeName": "NORTH YORK",
        "streetNameDisplayText": "PILGRIM CRT, NORTH YORK"
      }
    ]
  },
  {
    "postal": "M6M1T6",
    "result": [
      {
        "electoralDistricts": [
          {
            "election": null,
            "id": 122,
            "name": "York South—Weston"
          }
        ],
        "pollDivisionIds": [
          10142977
        ],
        "postalCode": "M6M1T6",
        "streetName": "EGLINTON",
        "streetDirectionId": "W",
        "streetTypeId": "AVE",
        "placeName": "YORK",
        "streetNameDisplayText": "EGLINTON AVE W, YORK"
      }
    ]
  },
  {
    "postal": "M6M4P6",
    "result": [
      {
        "electoralDistricts": [
          {
            "election": null,
            "id": 122,
            "name": "York South—Weston"
          }
        ],
        "pollDivisionIds": [
          10142969
        ],
        "postalCode": "M6M4P6",
        "streetName": "WESTON",
        "streetDirectionId": null,
        "streetTypeId": "RD",
        "placeName": "TORONTO",
        "streetNameDisplayText": "WESTON RD, TORONTO"
      },
      {
        "electoralDistricts": [
          {
            "election": null,
            "id": 122,
            "name": "York South—Weston"
          }
        ],
        "pollDivisionIds": [
          10142969
        ],
        "postalCode": "M6M4P6",
        "streetName": "WESTON",
        "streetDirectionId": null,
        "streetTypeId": "RD",
        "placeName": "YORK",
        "streetNameDisplayText": "WESTON RD, YORK"
      }
    ]
  },
  {
    "postal": "M6M3K1",
    "result": [
      {
        "electoralDistricts": [
          {
            "election": null,
            "id": 122,
            "name": "York South—Weston"
          }
        ],
        "pollDivisionIds": [
          10142978
        ],
        "postalCode": "M6M3K1",
        "streetName": "HAVERSON",
        "streetDirectionId": null,
        "streetTypeId": "BLVD",
        "placeName": "YORK",
        "streetNameDisplayText": "HAVERSON BLVD, YORK"
      }
    ]
  },
  {
    "postal": "M6M6X4",
    "result": []
  },
  {
    "postal": "M6M4M8",
    "result": []
  },
  {
    "postal": "M6M2Y1",
    "result": [
      {
        "electoralDistricts": [
          {
            "election": null,
            "id": 122,
            "name": "York South—Weston"
          }
        ],
        "pollDivisionIds": [
          10142964
        ],
        "postalCode": "M6M2Y1",
        "streetName": "NORANDA",
        "streetDirectionId": null,
        "streetTypeId": "DR",
        "placeName": "NORTH YORK",
        "streetNameDisplayText": "NORANDA DR, NORTH YORK"
      }
    ]
  },
  {
    "postal": "M6M6M1",
    "result": []
  },
  {
    "postal": "M6M5L8",
    "result": [
      {
        "electoralDistricts": [
          {
            "election": null,
            "id": 122,
            "name": "York South—Weston"
          }
        ],
        "pollDivisionIds": [
          10142970
        ],
        "postalCode": "M6M5L8",
        "streetName": "YORE",
        "streetDirectionId": null,
        "streetTypeId": "RD",
        "placeName": "YORK",
        "streetNameDisplayText": "YORE RD, YORK"
      }
    ]
  },
  {
    "postal": "M6M3P6",
    "result": [
      {
        "electoralDistricts": [
          {
            "election": null,
            "id": 122,
            "name": "York South—Weston"
          }
        ],
        "pollDivisionIds": [
          10142972
        ],
        "postalCode": "M6M3P6",
        "streetName": "CLAYBROOKE",
        "streetDirectionId": null,
        "streetTypeId": "ST",
        "placeName": "YORK",
        "streetNameDisplayText": "CLAYBROOKE ST, YORK"
      }
    ]
  },
  {
    "postal": "M6M9A5",
    "result": []
  },
  {
    "postal": "M6M7K1",
    "result": []
  },
  {
    "postal": "M6M3J4",
    "result": [
      {
        "electoralDistricts": [
          {
            "election": null,
            "id": 122,
            "name": "York South—Weston"
          }
        ],
        "pollDivisionIds": [
          10142978
        ],
        "postalCode": "M6M3J4",
        "streetName": "HAVERSON",
        "streetDirectionId": null,
        "streetTypeId": "BLVD",
        "placeName": "YORK",
        "streetNameDisplayText": "HAVERSON BLVD, YORK"
      }
    ]
  },
  {
    "postal": "M6M5E7",
    "result": [
      {
        "electoralDistricts": [
          {
            "election": null,
            "id": 122,
            "name": "York South—Weston"
          }
        ],
        "pollDivisionIds": [
          10143003
        ],
        "postalCode": "M6M5E7",
        "streetName": "EGLINTON",
        "streetDirectionId": "W",
        "streetTypeId": "AVE",
        "placeName": "YORK",
        "streetNameDisplayText": "EGLINTON AVE W, YORK"
      }
    ]
  },
  {
    "postal": "M6M3A7",
    "result": [
      {
        "electoralDistricts": [
          {
            "election": null,
            "id": 122,
            "name": "York South—Weston"
          }
        ],
        "pollDivisionIds": [
          10142964
        ],
        "postalCode": "M6M3A7",
        "streetName": "HARDING",
        "streetDirectionId": null,
        "streetTypeId": "AVE",
        "placeName": "NORTH YORK",
        "streetNameDisplayText": "HARDING AVE, NORTH YORK"
      }
    ]
  },
  {
    "postal": "M6M1B9",
    "result": [
      {
        "electoralDistricts": [
          {
            "election": null,
            "id": 122,
            "name": "York South—Weston"
          }
        ],
        "pollDivisionIds": [
          10142979
        ],
        "postalCode": "M6M1B9",
        "streetName": "ROGERS",
        "streetDirectionId": null,
        "streetTypeId": "RD",
        "placeName": "YORK",
        "streetNameDisplayText": "ROGERS RD, YORK"
      }
    ]
  },
  {
    "postal": "M6M9E8",
    "result": []
  },
  {
    "postal": "M6M1C9",
    "result": [
      {
        "electoralDistricts": [
          {
            "election": null,
            "id": 122,
            "name": "York South—Weston"
          }
        ],
        "pollDivisionIds": [
          10142979
        ],
        "postalCode": "M6M1C9",
        "streetName": "KERSDALE",
        "streetDirectionId": null,
        "streetTypeId": "AVE",
        "placeName": "YORK",
        "streetNameDisplayText": "KERSDALE AVE, YORK"
      }
    ]
  },
  {
    "postal": "M6M3B5",
    "result": [
      {
        "electoralDistricts": [
          {
            "election": null,
            "id": 122,
            "name": "York South—Weston"
          }
        ],
        "pollDivisionIds": [
          10142959
        ],
        "postalCode": "M6M3B5",
        "streetName": "THURODALE",
        "streetDirectionId": null,
        "streetTypeId": "AVE",
        "placeName": "NORTH YORK",
        "streetNameDisplayText": "THURODALE AVE, NORTH YORK"
      }
    ]
  },
  {
    "postal": "M6M8R0",
    "result": []
  },
  {
    "postal": "M6M3P2",
    "result": [
      {
        "electoralDistricts": [
          {
            "election": null,
            "id": 122,
            "name": "York South—Weston"
          }
        ],
        "pollDivisionIds": [
          10142978
        ],
        "postalCode": "M6M3P2",
        "streetName": "KANE",
        "streetDirectionId": null,
        "streetTypeId": "AVE",
        "placeName": "YORK",
        "streetNameDisplayText": "KANE AVE, YORK"
      }
    ]
  },
  {
    "postal": "M6M5V4",
    "result": []
  },
  {
    "postal": "M6M4H0",
    "result": []
  },
  {
    "postal": "M6M4S7",
    "result": []
  },
  {
    "postal": "M6M6C2",
    "result": []
  },
  {
    "postal": "M6M8W3",
    "result": []
  },
  {
    "postal": "M6M4M5",
    "result": []
  },
  {
    "postal": "M6M5T1",
    "result": []
  },
  {
    "postal": "M6M3B3",
    "result": [
      {
        "electoralDistricts": [
          {
            "election": null,
            "id": 122,
            "name": "York South—Weston"
          }
        ],
        "pollDivisionIds": [
          10142964
        ],
        "postalCode": "M6M3B3",
        "streetName": "THURODALE",
        "streetDirectionId": null,
        "streetTypeId": "AVE",
        "placeName": "NORTH YORK",
        "streetNameDisplayText": "THURODALE AVE, NORTH YORK"
      }
    ]
  },
  {
    "postal": "M6M6C6",
    "result": []
  },
  {
    "postal": "M6M7N8",
    "result": []
  },
  {
    "postal": "M6M2Y3",
    "result": []
  },
  {
    "postal": "M6M2R6",
    "result": [
      {
        "electoralDistricts": [
          {
            "election": null,
            "id": 122,
            "name": "York South—Weston"
          }
        ],
        "pollDivisionIds": [
          10142966
        ],
        "postalCode": "M6M2R6",
        "streetName": "FLAMBOROUGH",
        "streetDirectionId": null,
        "streetTypeId": "DR",
        "placeName": "NORTH YORK",
        "streetNameDisplayText": "FLAMBOROUGH DR, NORTH YORK"
      }
    ]
  },
  {
    "postal": "M6M7N3",
    "result": []
  },
  {
    "postal": "M6M8J2",
    "result": []
  },
  {
    "postal": "M6M6A9",
    "result": []
  },
  {
    "postal": "M6M3V2",
    "result": [
      {
        "electoralDistricts": [
          {
            "election": null,
            "id": 122,
            "name": "York South—Weston"
          }
        ],
        "pollDivisionIds": [
          10142978
        ],
        "postalCode": "M6M3V2",
        "streetName": "SCOTT",
        "streetDirectionId": null,
        "streetTypeId": "RD",
        "placeName": "YORK",
        "streetNameDisplayText": "SCOTT RD, YORK"
      }
    ]
  },
  {
    "postal": "M6M2N3",
    "result": [
      {
        "electoralDistricts": [
          {
            "election": null,
            "id": 122,
            "name": "York South—Weston"
          }
        ],
        "pollDivisionIds": [
          10142967
        ],
        "postalCode": "M6M2N3",
        "streetName": "GULLIVER",
        "streetDirectionId": null,
        "streetTypeId": "RD",
        "placeName": "NORTH YORK",
        "streetNameDisplayText": "GULLIVER RD, NORTH YORK"
      }
    ]
  },
  {
    "postal": "M6M1S5",
    "result": [
      {
        "electoralDistricts": [
          {
            "election": null,
            "id": 122,
            "name": "York South—Weston"
          }
        ],
        "pollDivisionIds": [
          10142978
        ],
        "postalCode": "M6M1S5",
        "streetName": "VENN",
        "streetDirectionId": null,
        "streetTypeId": "CRES",
        "placeName": "YORK",
        "streetNameDisplayText": "VENN CRES, YORK"
      }
    ]
  },
  {
    "postal": "M6M4T7",
    "result": [
      {
        "electoralDistricts": [
          {
            "election": null,
            "id": 122,
            "name": "York South—Weston"
          }
        ],
        "pollDivisionIds": [
          10142964
        ],
        "postalCode": "M6M4T7",
        "streetName": "CHISWICK",
        "streetDirectionId": null,
        "streetTypeId": "AVE",
        "placeName": "NORTH YORK",
        "streetNameDisplayText": "CHISWICK AVE, NORTH YORK"
      }
    ]
  },
  {
    "postal": "M6M6Y7",
    "result": []
  },
  {
    "postal": "M6M0W7",
    "result": []
  },
  {
    "postal": "M6M2W9",
    "result": [
      {
        "electoralDistricts": [
          {
            "election": null,
            "id": 122,
            "name": "York South—Weston"
          }
        ],
        "pollDivisionIds": [
          10142966
        ],
        "postalCode": "M6M2W9",
        "streetName": "ARROWSMITH",
        "streetDirectionId": null,
        "streetTypeId": "AVE",
        "placeName": "NORTH YORK",
        "streetNameDisplayText": "ARROWSMITH AVE, NORTH YORK"
      }
    ]
  },
  {
    "postal": "M6M8V0",
    "result": []
  },
  {
    "postal": "M6M0H4",
    "result": []
  },
  {
    "postal": "M6M2T1",
    "result": [
      {
        "electoralDistricts": [
          {
            "election": null,
            "id": 122,
            "name": "York South—Weston"
          }
        ],
        "pollDivisionIds": [
          10142964
        ],
        "postalCode": "M6M2T1",
        "streetName": "STEWART SMITH",
        "streetDirectionId": null,
        "streetTypeId": "DR",
        "placeName": "NORTH YORK",
        "streetNameDisplayText": "STEWART SMITH DR, NORTH YORK"
      }
    ]
  },
  {
    "postal": "M6M1B1",
    "result": [
      {
        "electoralDistricts": [
          {
            "election": null,
            "id": 122,
            "name": "York South—Weston"
          }
        ],
        "pollDivisionIds": [
          10142979
        ],
        "postalCode": "M6M1B1",
        "streetName": "ROGERS",
        "streetDirectionId": null,
        "streetTypeId": "RD",
        "placeName": "YORK",
        "streetNameDisplayText": "ROGERS RD, YORK"
      }
    ]
  },
  {
    "postal": "M6M8B6",
    "result": []
  },
  {
    "postal": "M6M6H1",
    "result": []
  },
  {
    "postal": "M6M8T8",
    "result": []
  },
  {
    "postal": "M6M0T4",
    "result": []
  },
  {
    "postal": "M6M2C4",
    "result": [
      {
        "electoralDistricts": [
          {
            "election": null,
            "id": 122,
            "name": "York South—Weston"
          }
        ],
        "pollDivisionIds": [
          10142968
        ],
        "postalCode": "M6M2C4",
        "streetName": "GOLDWIN",
        "streetDirectionId": null,
        "streetTypeId": "AVE",
        "placeName": "YORK",
        "streetNameDisplayText": "GOLDWIN AVE, YORK"
      }
    ]
  },
  {
    "postal": "M6M8N3",
    "result": []
  },
  {
    "postal": "M6M4L8",
    "result": [
      {
        "electoralDistricts": [
          {
            "election": null,
            "id": 122,
            "name": "York South—Weston"
          }
        ],
        "pollDivisionIds": [
          10142963
        ],
        "postalCode": "M6M4L8",
        "streetName": "INDUSTRY",
        "streetDirectionId": null,
        "streetTypeId": "ST",
        "placeName": "YORK",
        "streetNameDisplayText": "INDUSTRY ST, YORK"
      }
    ]
  },
  {
    "postal": "M6M2B5",
    "result": [
      {
        "electoralDistricts": [
          {
            "election": null,
            "id": 122,
            "name": "York South—Weston"
          }
        ],
        "pollDivisionIds": [
          10142969
        ],
        "postalCode": "M6M2B5",
        "streetName": "BARTONVILLE",
        "streetDirectionId": "W",
        "streetTypeId": "AVE",
        "placeName": "YORK",
        "streetNameDisplayText": "BARTONVILLE AVE W, YORK"
      }
    ]
  },
  {
    "postal": "M6M3H1",
    "result": [
      {
        "electoralDistricts": [
          {
            "election": null,
            "id": 122,
            "name": "York South—Weston"
          }
        ],
        "pollDivisionIds": [
          10142979
        ],
        "postalCode": "M6M3H1",
        "streetName": "SILVERTHORN",
        "streetDirectionId": null,
        "streetTypeId": "AVE",
        "placeName": "YORK",
        "streetNameDisplayText": "SILVERTHORN AVE, YORK"
      }
    ]
  },
  {
    "postal": "M6M4Y1",
    "result": [
      {
        "electoralDistricts": [
          {
            "election": null,
            "id": 122,
            "name": "York South—Weston"
          }
        ],
        "pollDivisionIds": [
          10142969
        ],
        "postalCode": "M6M4Y1",
        "streetName": "JANE",
        "streetDirectionId": null,
        "streetTypeId": "ST",
        "placeName": "YORK",
        "streetNameDisplayText": "JANE ST, YORK"
      }
    ]
  },
  {
    "postal": "M6M7E2",
    "result": []
  },
  {
    "postal": "M6M2P5",
    "result": [
      {
        "electoralDistricts": [
          {
            "election": null,
            "id": 122,
            "name": "York South—Weston"
          }
        ],
        "pollDivisionIds": [
          10142966
        ],
        "postalCode": "M6M2P5",
        "streetName": "DENSLEY",
        "streetDirectionId": null,
        "streetTypeId": "AVE",
        "placeName": "NORTH YORK",
        "streetNameDisplayText": "DENSLEY AVE, NORTH YORK"
      },
      {
        "electoralDistricts": [
          {
            "election": null,
            "id": 122,
            "name": "York South—Weston"
          }
        ],
        "pollDivisionIds": [
          10142966
        ],
        "postalCode": "M6M2P5",
        "streetName": "DENSLEY",
        "streetDirectionId": null,
        "streetTypeId": "AVE",
        "placeName": "TORONTO",
        "streetNameDisplayText": "DENSLEY AVE, TORONTO"
      }
    ]
  },
  {
    "postal": "M6M8R7",
    "result": []
  },
  {
    "postal": "M6M9P1",
    "result": []
  },
  {
    "postal": "M6M3B8",
    "result": [
      {
        "electoralDistricts": [
          {
            "election": null,
            "id": 122,
            "name": "York South—Weston"
          }
        ],
        "pollDivisionIds": [
          10142979
        ],
        "postalCode": "M6M3B8",
        "streetName": "BLACKTHORN",
        "streetDirectionId": null,
        "streetTypeId": "AVE",
        "placeName": "YORK",
        "streetNameDisplayText": "BLACKTHORN AVE, YORK"
      }
    ]
  },
  {
    "postal": "M6M3P7",
    "result": [
      {
        "electoralDistricts": [
          {
            "election": null,
            "id": 122,
            "name": "York South—Weston"
          }
        ],
        "pollDivisionIds": [
          10142972
        ],
        "postalCode": "M6M3P7",
        "streetName": "CLAYBROOKE",
        "streetDirectionId": null,
        "streetTypeId": "ST",
        "placeName": "YORK",
        "streetNameDisplayText": "CLAYBROOKE ST, YORK"
      }
    ]
  },
  {
    "postal": "M6M9B2",
    "result": []
  },
  {
    "postal": "M6M6Z3",
    "result": []
  },
  {
    "postal": "M6M4N5",
    "result": []
  },
  {
    "postal": "M6M8T3",
    "result": []
  },
  {
    "postal": "M6M1V2",
    "result": [
      {
        "electoralDistricts": [
          {
            "election": null,
            "id": 122,
            "name": "York South—Weston"
          }
        ],
        "pollDivisionIds": [
          10142977
        ],
        "postalCode": "M6M1V2",
        "streetName": "EGLINTON",
        "streetDirectionId": "W",
        "streetTypeId": "AVE",
        "placeName": "YORK",
        "streetNameDisplayText": "EGLINTON AVE W, YORK"
      }
    ]
  },
  {
    "postal": "M6M1Y0",
    "result": []
  },
  {
    "postal": "M6M3G6",
    "result": [
      {
        "electoralDistricts": [
          {
            "election": null,
            "id": 122,
            "name": "York South—Weston"
          }
        ],
        "pollDivisionIds": [
          10142979
        ],
        "postalCode": "M6M3G6",
        "streetName": "SILVERTHORN",
        "streetDirectionId": null,
        "streetTypeId": "AVE",
        "placeName": "YORK",
        "streetNameDisplayText": "SILVERTHORN AVE, YORK"
      }
    ]
  },
  {
    "postal": "M6M3H7",
    "result": [
      {
        "electoralDistricts": [
          {
            "election": null,
            "id": 122,
            "name": "York South—Weston"
          }
        ],
        "pollDivisionIds": [
          10142978
        ],
        "postalCode": "M6M3H7",
        "streetName": "SILVERTHORN",
        "streetDirectionId": null,
        "streetTypeId": "AVE",
        "placeName": "YORK",
        "streetNameDisplayText": "SILVERTHORN AVE, YORK"
      }
    ]
  },
  {
    "postal": "M6M7X8",
    "result": []
  },
  {
    "postal": "M6M0C7",
    "result": []
  },
  {
    "postal": "M6M0W9",
    "result": []
  },
  {
    "postal": "M6M8E6",
    "result": []
  },
  {
    "postal": "M6M9Z8",
    "result": []
  },
  {
    "postal": "M6M3P4",
    "result": [
      {
        "electoralDistricts": [
          {
            "election": null,
            "id": 122,
            "name": "York South—Weston"
          }
        ],
        "pollDivisionIds": [
          10142978
        ],
        "postalCode": "M6M3P4",
        "streetName": "KANE",
        "streetDirectionId": null,
        "streetTypeId": "AVE",
        "placeName": "YORK",
        "streetNameDisplayText": "KANE AVE, YORK"
      }
    ]
  },
  {
    "postal": "M6M6L8",
    "result": []
  },
  {
    "postal": "M6M2R4",
    "result": [
      {
        "electoralDistricts": [
          {
            "election": null,
            "id": 122,
            "name": "York South—Weston"
          }
        ],
        "pollDivisionIds": [
          10142966
        ],
        "postalCode": "M6M2R4",
        "streetName": "FLAMBOROUGH",
        "streetDirectionId": null,
        "streetTypeId": "DR",
        "placeName": "NORTH YORK",
        "streetNameDisplayText": "FLAMBOROUGH DR, NORTH YORK"
      }
    ]
  },
  {
    "postal": "M6M2W1",
    "result": [
      {
        "electoralDistricts": [
          {
            "election": null,
            "id": 122,
            "name": "York South—Weston"
          }
        ],
        "pollDivisionIds": [
          10142966
        ],
        "postalCode": "M6M2W1",
        "streetName": "MILFORD",
        "streetDirectionId": null,
        "streetTypeId": "AVE",
        "placeName": "NORTH YORK",
        "streetNameDisplayText": "MILFORD AVE, NORTH YORK"
      }
    ]
  },
  {
    "postal": "M6M9H8",
    "result": []
  },
  {
    "postal": "M6M8X9",
    "result": []
  },
  {
    "postal": "M6M7H4",
    "result": []
  },
  {
    "postal": "M6M3J1",
    "result": [
      {
        "electoralDistricts": [
          {
            "election": null,
            "id": 122,
            "name": "York South—Weston"
          }
        ],
        "pollDivisionIds": [
          10142978
        ],
        "postalCode": "M6M3J1",
        "streetName": "SILVERTHORN",
        "streetDirectionId": null,
        "streetTypeId": "AVE",
        "placeName": "YORK",
        "streetNameDisplayText": "SILVERTHORN AVE, YORK"
      }
    ]
  },
  {
    "postal": "M6M1P4",
    "result": [
      {
        "electoralDistricts": [
          {
            "election": null,
            "id": 122,
            "name": "York South—Weston"
          }
        ],
        "pollDivisionIds": [
          10142978
        ],
        "postalCode": "M6M1P4",
        "streetName": "HOLWOOD",
        "streetDirectionId": null,
        "streetTypeId": "AVE",
        "placeName": "YORK",
        "streetNameDisplayText": "HOLWOOD AVE, YORK"
      }
    ]
  },
  {
    "postal": "M6M2A3",
    "result": [
      {
        "electoralDistricts": [
          {
            "election": null,
            "id": 122,
            "name": "York South—Weston"
          }
        ],
        "pollDivisionIds": [
          10142970
        ],
        "postalCode": "M6M2A3",
        "streetName": "CLEARVIEW",
        "streetDirectionId": null,
        "streetTypeId": "HTS",
        "placeName": "YORK",
        "streetNameDisplayText": "CLEARVIEW HTS, YORK"
      }
    ]
  },
  {
    "postal": "M6M0Z1",
    "result": []
  },
  {
    "postal": "M6M1C1",
    "result": [
      {
        "electoralDistricts": [
          {
            "election": null,
            "id": 122,
            "name": "York South—Weston"
          }
        ],
        "pollDivisionIds": [
          10142977
        ],
        "postalCode": "M6M1C1",
        "streetName": "ROGERS",
        "streetDirectionId": null,
        "streetTypeId": "RD",
        "placeName": "YORK",
        "streetNameDisplayText": "ROGERS RD, YORK"
      }
    ]
  },
  {
    "postal": "M6M0H3",
    "result": []
  },
  {
    "postal": "M6M7B0",
    "result": []
  },
  {
    "postal": "M6M5K2",
    "result": [
      {
        "electoralDistricts": [
          {
            "election": null,
            "id": 122,
            "name": "York South—Weston"
          }
        ],
        "pollDivisionIds": [
          10142963
        ],
        "postalCode": "M6M5K2",
        "streetName": "PLATINUM",
        "streetDirectionId": null,
        "streetTypeId": "DR",
        "placeName": "NORTH YORK",
        "streetNameDisplayText": "PLATINUM DR, NORTH YORK"
      },
      {
        "electoralDistricts": [
          {
            "election": null,
            "id": 122,
            "name": "York South—Weston"
          }
        ],
        "pollDivisionIds": [
          10142963
        ],
        "postalCode": "M6M5K2",
        "streetName": "VIA AURELIA",
        "streetDirectionId": null,
        "streetTypeId": "DR",
        "placeName": "NORTH YORK",
        "streetNameDisplayText": "VIA AURELIA DR, NORTH YORK"
      }
    ]
  },
  {
    "postal": "M6M1E9",
    "result": [
      {
        "electoralDistricts": [
          {
            "election": null,
            "id": 122,
            "name": "York South—Weston"
          },
          {
            "election": null,
            "id": 121,
            "name": "York—Simcoe"
          }
        ],
        "pollDivisionIds": [
          10142979,
          10142914
        ],
        "postalCode": "M6M1E9",
        "streetName": "AILEEN",
        "streetDirectionId": null,
        "streetTypeId": "AVE",
        "placeName": "YORK",
        "streetNameDisplayText": "AILEEN AVE, YORK"
      }
    ]
  },
  {
    "postal": "M6M9W7",
    "result": []
  },
  {
    "postal": "M6M5W6",
    "result": []
  },
  {
    "postal": "M6M6S6",
    "result": []
  },
  {
    "postal": "M6M2P8",
    "result": []
  },
  {
    "postal": "M6M4P8",
    "result": [
      {
        "electoralDistricts": [
          {
            "election": null,
            "id": 122,
            "name": "York South—Weston"
          }
        ],
        "pollDivisionIds": [
          10142969
        ],
        "postalCode": "M6M4P8",
        "streetName": "WESTON",
        "streetDirectionId": null,
        "streetTypeId": "RD",
        "placeName": "YORK",
        "streetNameDisplayText": "WESTON RD, YORK"
      }
    ]
  },
  {
    "postal": "M6M0V9",
    "result": []
  },
  {
    "postal": "M6M5Y2",
    "result": []
  },
  {
    "postal": "M6M7Z7",
    "result": []
  },
  {
    "postal": "M6M6Y8",
    "result": []
  },
  {
    "postal": "M6M2G7",
    "result": [
      {
        "electoralDistricts": [
          {
            "election": null,
            "id": 122,
            "name": "York South—Weston"
          }
        ],
        "pollDivisionIds": [
          10142970
        ],
        "postalCode": "M6M2G7",
        "streetName": "KING GEORGE'S",
        "streetDirectionId": null,
        "streetTypeId": "DR",
        "placeName": "YORK",
        "streetNameDisplayText": "KING GEORGE'S DR, YORK"
      }
    ]
  },
  {
    "postal": "M6M8C1",
    "result": []
  },
  {
    "postal": "M6M5C5",
    "result": [
      {
        "electoralDistricts": [
          {
            "election": null,
            "id": 122,
            "name": "York South—Weston"
          }
        ],
        "pollDivisionIds": [
          10142977
        ],
        "postalCode": "M6M5C5",
        "streetName": "FORBES",
        "streetDirectionId": null,
        "streetTypeId": "AVE",
        "placeName": "YORK",
        "streetNameDisplayText": "FORBES AVE, YORK"
      }
    ]
  },
  {
    "postal": "M6M2X8",
    "result": [
      {
        "electoralDistricts": [
          {
            "election": null,
            "id": 122,
            "name": "York South—Weston"
          }
        ],
        "pollDivisionIds": [
          10142964
        ],
        "postalCode": "M6M2X8",
        "streetName": "NORANDA",
        "streetDirectionId": null,
        "streetTypeId": "DR",
        "placeName": "NORTH YORK",
        "streetNameDisplayText": "NORANDA DR, NORTH YORK"
      }
    ]
  },
  {
    "postal": "M6M1W5",
    "result": [
      {
        "electoralDistricts": [
          {
            "election": null,
            "id": 122,
            "name": "York South—Weston"
          }
        ],
        "pollDivisionIds": [
          10142972
        ],
        "postalCode": "M6M1W5",
        "streetName": "YORE",
        "streetDirectionId": null,
        "streetTypeId": "RD",
        "placeName": "YORK",
        "streetNameDisplayText": "YORE RD, YORK"
      }
    ]
  },
  {
    "postal": "M6M7G0",
    "result": []
  },
  {
    "postal": "M6M8J8",
    "result": []
  },
  {
    "postal": "M6M3Y0",
    "result": []
  },
  {
    "postal": "M6M9T7",
    "result": []
  },
  {
    "postal": "M6M5P4",
    "result": []
  },
  {
    "postal": "M6M4B0",
    "result": []
  },
  {
    "postal": "M6M9N8",
    "result": []
  },
  {
    "postal": "M6M4A7",
    "result": [
      {
        "electoralDistricts": [
          {
            "election": null,
            "id": 122,
            "name": "York South—Weston"
          }
        ],
        "pollDivisionIds": [
          10142970
        ],
        "postalCode": "M6M4A7",
        "streetName": "GREENACRES",
        "streetDirectionId": null,
        "streetTypeId": "RD",
        "placeName": "YORK",
        "streetNameDisplayText": "GREENACRES RD, YORK"
      }
    ]
  },
  {
    "postal": "M6M4H9",
    "result": [
      {
        "electoralDistricts": [
          {
            "election": null,
            "id": 122,
            "name": "York South—Weston"
          }
        ],
        "pollDivisionIds": [
          10142966
        ],
        "postalCode": "M6M4H9",
        "streetName": "AMESBURY",
        "streetDirectionId": null,
        "streetTypeId": "DR",
        "placeName": "NORTH YORK",
        "streetNameDisplayText": "AMESBURY DR, NORTH YORK"
      }
    ]
  },
  {
    "postal": "M6M6X1",
    "result": []
  },
  {
    "postal": "M6M9Y7",
    "result": []
  },
  {
    "postal": "M6M2Y5",
    "result": []
  },
  {
    "postal": "M6M8L7",
    "result": []
  },
  {
    "postal": "M6M2A8",
    "result": [
      {
        "electoralDistricts": [
          {
            "election": null,
            "id": 122,
            "name": "York South—Weston"
          }
        ],
        "pollDivisionIds": [
          10142969
        ],
        "postalCode": "M6M2A8",
        "streetName": "RAY",
        "streetDirectionId": null,
        "streetTypeId": "AVE",
        "placeName": "YORK",
        "streetNameDisplayText": "RAY AVE, YORK"
      }
    ]
  },
  {
    "postal": "M6M2K9",
    "result": [
      {
        "electoralDistricts": [
          {
            "election": null,
            "id": 122,
            "name": "York South—Weston"
          }
        ],
        "pollDivisionIds": [
          10142967
        ],
        "postalCode": "M6M2K9",
        "streetName": "COMAY",
        "streetDirectionId": null,
        "streetTypeId": "RD",
        "placeName": "NORTH YORK",
        "streetNameDisplayText": "COMAY RD, NORTH YORK"
      }
    ]
  },
  {
    "postal": "M6M3E5",
    "result": [
      {
        "electoralDistricts": [
          {
            "election": null,
            "id": 122,
            "name": "York South—Weston"
          }
        ],
        "pollDivisionIds": [
          10142966
        ],
        "postalCode": "M6M3E5",
        "streetName": "SHEFFIELD",
        "streetDirectionId": null,
        "streetTypeId": "ST",
        "placeName": "NORTH YORK",
        "streetNameDisplayText": "SHEFFIELD ST, NORTH YORK"
      }
    ]
  },
  {
    "postal": "M6M8N6",
    "result": []
  },
  {
    "postal": "M6M8J4",
    "result": []
  },
  {
    "postal": "M6M4R7",
    "result": [
      {
        "electoralDistricts": [
          {
            "election": null,
            "id": 122,
            "name": "York South—Weston"
          }
        ],
        "pollDivisionIds": [
          10142969
        ],
        "postalCode": "M6M4R7",
        "streetName": "WESTON",
        "streetDirectionId": null,
        "streetTypeId": "RD",
        "placeName": "YORK",
        "streetNameDisplayText": "WESTON RD, YORK"
      }
    ]
  },
  {
    "postal": "M6M9K1",
    "result": []
  },
  {
    "postal": "M6M8E1",
    "result": []
  },
  {
    "postal": "M6M0R1",
    "result": []
  },
  {
    "postal": "M6M4J3",
    "result": [
      {
        "electoralDistricts": [
          {
            "election": null,
            "id": 122,
            "name": "York South—Weston"
          }
        ],
        "pollDivisionIds": [
          10142977
        ],
        "postalCode": "M6M4J3",
        "streetName": "LANDOUR",
        "streetDirectionId": null,
        "streetTypeId": "AVE",
        "placeName": "YORK",
        "streetNameDisplayText": "LANDOUR AVE, YORK"
      }
    ]
  },
  {
    "postal": "M6M7E7",
    "result": []
  },
  {
    "postal": "M6M0J0",
    "result": []
  },
  {
    "postal": "M6M7R8",
    "result": []
  },
  {
    "postal": "M6M9X0",
    "result": []
  },
  {
    "postal": "M6M7P6",
    "result": []
  },
  {
    "postal": "M6M0R7",
    "result": []
  },
  {
    "postal": "M6M5W1",
    "result": []
  },
  {
    "postal": "M6M0K4",
    "result": []
  },
  {
    "postal": "M6M7N9",
    "result": []
  },
  {
    "postal": "M6M1N0",
    "result": []
  },
  {
    "postal": "M6M6P3",
    "result": []
  },
  {
    "postal": "M6M5A1",
    "result": [
      {
        "electoralDistricts": [
          {
            "election": null,
            "id": 122,
            "name": "York South—Weston"
          }
        ],
        "pollDivisionIds": [
          10142971
        ],
        "postalCode": "M6M5A1",
        "streetName": "WOODBOROUGH",
        "streetDirectionId": null,
        "streetTypeId": "AVE",
        "placeName": "YORK",
        "streetNameDisplayText": "WOODBOROUGH AVE, YORK"
      }
    ]
  },
  {
    "postal": "M6M9M9",
    "result": []
  },
  {
    "postal": "M6M7T6",
    "result": []
  },
  {
    "postal": "M6M3X0",
    "result": []
  },
  {
    "postal": "M6M2T0",
    "result": []
  },
  {
    "postal": "M6M5X9",
    "result": []
  },
  {
    "postal": "M6M2R3",
    "result": [
      {
        "electoralDistricts": [
          {
            "election": null,
            "id": 122,
            "name": "York South—Weston"
          }
        ],
        "pollDivisionIds": [
          10142966
        ],
        "postalCode": "M6M2R3",
        "streetName": "DENSLEY",
        "streetDirectionId": null,
        "streetTypeId": "AVE",
        "placeName": "NORTH YORK",
        "streetNameDisplayText": "DENSLEY AVE, NORTH YORK"
      }
    ]
  },
  {
    "postal": "M6M5N2",
    "result": []
  },
  {
    "postal": "M6M4Y7",
    "result": []
  },
  {
    "postal": "M6M7M0",
    "result": []
  },
  {
    "postal": "M6M8P3",
    "result": []
  },
  {
    "postal": "M6M3N3",
    "result": [
      {
        "electoralDistricts": [
          {
            "election": null,
            "id": 122,
            "name": "York South—Weston"
          }
        ],
        "pollDivisionIds": [
          10142979
        ],
        "postalCode": "M6M3N3",
        "streetName": "KANE",
        "streetDirectionId": null,
        "streetTypeId": "AVE",
        "placeName": "YORK",
        "streetNameDisplayText": "KANE AVE, YORK"
      }
    ]
  },
  {
    "postal": "M6M7S3",
    "result": []
  },
  {
    "postal": "M6M3V9",
    "result": [
      {
        "electoralDistricts": [
          {
            "election": null,
            "id": 122,
            "name": "York South—Weston"
          }
        ],
        "pollDivisionIds": [
          10142977
        ],
        "postalCode": "M6M3V9",
        "streetName": "KEELE",
        "streetDirectionId": null,
        "streetTypeId": "ST",
        "placeName": "YORK",
        "streetNameDisplayText": "KEELE ST, YORK"
      }
    ]
  },
  {
    "postal": "M6M9N7",
    "result": []
  },
  {
    "postal": "M6M0G4",
    "result": []
  },
  {
    "postal": "M6M2E2",
    "result": [
      {
        "electoralDistricts": [
          {
            "election": null,
            "id": 122,
            "name": "York South—Weston"
          }
        ],
        "pollDivisionIds": [
          10142969
        ],
        "postalCode": "M6M2E2",
        "streetName": "BALA",
        "streetDirectionId": null,
        "streetTypeId": "AVE",
        "placeName": "YORK",
        "streetNameDisplayText": "BALA AVE, YORK"
      }
    ]
  },
  {
    "postal": "M6M7W8",
    "result": []
  },
  {
    "postal": "M6M7M5",
    "result": []
  },
  {
    "postal": "M6M5W8",
    "result": []
  },
  {
    "postal": "M6M5E5",
    "result": [
      {
        "electoralDistricts": [
          {
            "election": null,
            "id": 122,
            "name": "York South—Weston"
          }
        ],
        "pollDivisionIds": [
          10142966
        ],
        "postalCode": "M6M5E5",
        "streetName": "NORTHWESTERN",
        "streetDirectionId": null,
        "streetTypeId": "AVE",
        "placeName": "YORK",
        "streetNameDisplayText": "NORTHWESTERN AVE, YORK"
      }
    ]
  },
  {
    "postal": "M6M1P9",
    "result": [
      {
        "electoralDistricts": [
          {
            "election": null,
            "id": 122,
            "name": "York South—Weston"
          }
        ],
        "pollDivisionIds": [
          10142978
        ],
        "postalCode": "M6M1P9",
        "streetName": "CAMERON",
        "streetDirectionId": null,
        "streetTypeId": "AVE",
        "placeName": "YORK",
        "streetNameDisplayText": "CAMERON AVE, YORK"
      }
    ]
  },
  {
    "postal": "M6M8V8",
    "result": []
  },
  {
    "postal": "M6M9G8",
    "result": []
  },
  {
    "postal": "M6M8H9",
    "result": []
  },
  {
    "postal": "M6M1Z1",
    "result": [
      {
        "electoralDistricts": [
          {
            "election": null,
            "id": 122,
            "name": "York South—Weston"
          }
        ],
        "pollDivisionIds": [
          10142971
        ],
        "postalCode": "M6M1Z1",
        "streetName": "BEECHBOROUGH",
        "streetDirectionId": null,
        "streetTypeId": "AVE",
        "placeName": "YORK",
        "streetNameDisplayText": "BEECHBOROUGH AVE, YORK"
      }
    ]
  },
  {
    "postal": "M6M8M3",
    "result": []
  },
  {
    "postal": "M6M5H6",
    "result": [
      {
        "electoralDistricts": [
          {
            "election": null,
            "id": 122,
            "name": "York South—Weston"
          }
        ],
        "pollDivisionIds": [
          10142962
        ],
        "postalCode": "M6M5H6",
        "streetName": "MOUNT DENNIS",
        "streetDirectionId": null,
        "streetTypeId": "DR",
        "placeName": "NORTH YORK",
        "streetNameDisplayText": "MOUNT DENNIS DR, NORTH YORK"
      },
      {
        "electoralDistricts": [
          {
            "election": null,
            "id": 122,
            "name": "York South—Weston"
          }
        ],
        "pollDivisionIds": [
          10142962
        ],
        "postalCode": "M6M5H6",
        "streetName": "SIDNEY BELSEY",
        "streetDirectionId": null,
        "streetTypeId": "CRES",
        "placeName": "YORK",
        "streetNameDisplayText": "SIDNEY BELSEY CRES, YORK"
      },
      {
        "electoralDistricts": [
          {
            "election": null,
            "id": 122,
            "name": "York South—Weston"
          }
        ],
        "pollDivisionIds": [
          10142962
        ],
        "postalCode": "M6M5H6",
        "streetName": "WESTPOINT",
        "streetDirectionId": null,
        "streetTypeId": "LANE",
        "placeName": "NORTH YORK",
        "streetNameDisplayText": "WESTPOINT LANE, NORTH YORK"
      }
    ]
  },
  {
    "postal": "M6M7W7",
    "result": []
  },
  {
    "postal": "M6M4L0",
    "result": []
  },
  {
    "postal": "M6M2N1",
    "result": [
      {
        "electoralDistricts": [
          {
            "election": null,
            "id": 122,
            "name": "York South—Weston"
          }
        ],
        "pollDivisionIds": [
          10142981,
          10142967
        ],
        "postalCode": "M6M2N1",
        "streetName": "GULLIVER",
        "streetDirectionId": null,
        "streetTypeId": "RD",
        "placeName": "NORTH YORK",
        "streetNameDisplayText": "GULLIVER RD, NORTH YORK"
      }
    ]
  },
  {
    "postal": "M6M2H4",
    "result": [
      {
        "electoralDistricts": [
          {
            "election": null,
            "id": 121,
            "name": "York—Simcoe"
          },
          {
            "election": null,
            "id": 122,
            "name": "York South—Weston"
          }
        ],
        "pollDivisionIds": [
          10142920,
          10142969
        ],
        "postalCode": "M6M2H4",
        "streetName": "MAHONEY",
        "streetDirectionId": null,
        "streetTypeId": "AVE",
        "placeName": "YORK",
        "streetNameDisplayText": "MAHONEY AVE, YORK"
      }
    ]
  },
  {
    "postal": "M6M5C8",
    "result": []
  },
  {
    "postal": "M6M8B0",
    "result": []
  },
  {
    "postal": "M6M1T4",
    "result": [
      {
        "electoralDistricts": [
          {
            "election": null,
            "id": 122,
            "name": "York South—Weston"
          }
        ],
        "pollDivisionIds": [
          10142970
        ],
        "postalCode": "M6M1T4",
        "streetName": "EGLINTON",
        "streetDirectionId": "W",
        "streetTypeId": "AVE",
        "placeName": "YORK",
        "streetNameDisplayText": "EGLINTON AVE W, YORK"
      }
    ]
  },
  {
    "postal": "M6M7N7",
    "result": []
  },
  {
    "postal": "M6M4L3",
    "result": []
  },
  {
    "postal": "M6M2N2",
    "result": [
      {
        "electoralDistricts": [
          {
            "election": null,
            "id": 122,
            "name": "York South—Weston"
          }
        ],
        "pollDivisionIds": [
          10142967
        ],
        "postalCode": "M6M2N2",
        "streetName": "GULLIVER",
        "streetDirectionId": null,
        "streetTypeId": "RD",
        "placeName": "NORTH YORK",
        "streetNameDisplayText": "GULLIVER RD, NORTH YORK"
      }
    ]
  },
  {
    "postal": "M6M4N8",
    "result": [
      {
        "electoralDistricts": [
          {
            "election": null,
            "id": 122,
            "name": "York South—Weston"
          }
        ],
        "pollDivisionIds": [
          10142964
        ],
        "postalCode": "M6M4N8",
        "streetName": "BROOKHAVEN",
        "streetDirectionId": null,
        "streetTypeId": "DR",
        "placeName": "NORTH YORK",
        "streetNameDisplayText": "BROOKHAVEN DR, NORTH YORK"
      }
    ]
  },
  {
    "postal": "M6M3M5",
    "result": [
      {
        "electoralDistricts": [
          {
            "election": null,
            "id": 122,
            "name": "York South—Weston"
          }
        ],
        "pollDivisionIds": [
          10142971
        ],
        "postalCode": "M6M3M5",
        "streetName": "GLENHAVEN",
        "streetDirectionId": null,
        "streetTypeId": "ST",
        "placeName": "YORK",
        "streetNameDisplayText": "GLENHAVEN ST, YORK"
      }
    ]
  },
  {
    "postal": "M6M6H7",
    "result": []
  },
  {
    "postal": "M6M8Y8",
    "result": []
  },
  {
    "postal": "M6M5R9",
    "result": []
  },
  {
    "postal": "M6M8G3",
    "result": []
  },
  {
    "postal": "M6M4N7",
    "result": [
      {
        "electoralDistricts": [
          {
            "election": null,
            "id": 122,
            "name": "York South—Weston"
          }
        ],
        "pollDivisionIds": [
          10142964
        ],
        "postalCode": "M6M4N7",
        "streetName": "BROOKHAVEN",
        "streetDirectionId": null,
        "streetTypeId": "DR",
        "placeName": "NORTH YORK",
        "streetNameDisplayText": "BROOKHAVEN DR, NORTH YORK"
      }
    ]
  },
  {
    "postal": "M6M0B9",
    "result": []
  },
  {
    "postal": "M6M9K7",
    "result": []
  },
  {
    "postal": "M6M9K9",
    "result": []
  },
  {
    "postal": "M6M3Z2",
    "result": [
      {
        "electoralDistricts": [
          {
            "election": null,
            "id": 122,
            "name": "York South—Weston"
          }
        ],
        "pollDivisionIds": [
          10142967
        ],
        "postalCode": "M6M3Z2",
        "streetName": "KEELE",
        "streetDirectionId": null,
        "streetTypeId": "ST",
        "placeName": "NORTH YORK",
        "streetNameDisplayText": "KEELE ST, NORTH YORK"
      }
    ]
  },
  {
    "postal": "M6M6W7",
    "result": []
  },
  {
    "postal": "M6M0P1",
    "result": []
  },
  {
    "postal": "M6M3A0",
    "result": []
  },
  {
    "postal": "M6M8L9",
    "result": []
  },
  {
    "postal": "M6M6X0",
    "result": []
  },
  {
    "postal": "M6M3E9",
    "result": [
      {
        "electoralDistricts": [
          {
            "election": null,
            "id": 122,
            "name": "York South—Weston"
          }
        ],
        "pollDivisionIds": [
          10142966
        ],
        "postalCode": "M6M3E9",
        "streetName": "SHEFFIELD",
        "streetDirectionId": null,
        "streetTypeId": "ST",
        "placeName": "NORTH YORK",
        "streetNameDisplayText": "SHEFFIELD ST, NORTH YORK"
      }
    ]
  },
  {
    "postal": "M6M0S5",
    "result": []
  },
  {
    "postal": "M6M1A2",
    "result": [
      {
        "electoralDistricts": [
          {
            "election": null,
            "id": 122,
            "name": "York South—Weston"
          }
        ],
        "pollDivisionIds": [
          10142979
        ],
        "postalCode": "M6M1A2",
        "streetName": "ROGERS",
        "streetDirectionId": null,
        "streetTypeId": "RD",
        "placeName": "YORK",
        "streetNameDisplayText": "ROGERS RD, YORK"
      }
    ]
  },
  {
    "postal": "M6M5V8",
    "result": []
  },
  {
    "postal": "M6M8C5",
    "result": []
  },
  {
    "postal": "M6M6N0",
    "result": []
  },
  {
    "postal": "M6M9E6",
    "result": []
  },
  {
    "postal": "M6M5J7",
    "result": [
      {
        "electoralDistricts": [
          {
            "election": null,
            "id": 122,
            "name": "York South—Weston"
          }
        ],
        "pollDivisionIds": [
          10142963
        ],
        "postalCode": "M6M5J7",
        "streetName": "TOUCHSTONE",
        "streetDirectionId": null,
        "streetTypeId": "DR",
        "placeName": "NORTH YORK",
        "streetNameDisplayText": "TOUCHSTONE DR, NORTH YORK"
      },
      {
        "electoralDistricts": [
          {
            "election": null,
            "id": 122,
            "name": "York South—Weston"
          }
        ],
        "pollDivisionIds": [
          10142963
        ],
        "postalCode": "M6M5J7",
        "streetName": "VIA TORRE",
        "streetDirectionId": null,
        "streetTypeId": "DR",
        "placeName": "NORTH YORK",
        "streetNameDisplayText": "VIA TORRE DR, NORTH YORK"
      }
    ]
  },
  {
    "postal": "M6M2R2",
    "result": [
      {
        "electoralDistricts": [
          {
            "election": null,
            "id": 122,
            "name": "York South—Weston"
          }
        ],
        "pollDivisionIds": [
          10142966
        ],
        "postalCode": "M6M2R2",
        "streetName": "DENSLEY",
        "streetDirectionId": null,
        "streetTypeId": "AVE",
        "placeName": "NORTH YORK",
        "streetNameDisplayText": "DENSLEY AVE, NORTH YORK"
      }
    ]
  },
  {
    "postal": "M6M0P5",
    "result": []
  },
  {
    "postal": "M6M5A7",
    "result": [
      {
        "electoralDistricts": [
          {
            "election": null,
            "id": 122,
            "name": "York South—Weston"
          }
        ],
        "pollDivisionIds": [
          10142954,
          10142968,
          10142950
        ],
        "postalCode": "M6M5A7",
        "streetName": "EMMETT",
        "streetDirectionId": null,
        "streetTypeId": "AVE",
        "placeName": "YORK",
        "streetNameDisplayText": "EMMETT AVE, YORK"
      }
    ]
  },
  {
    "postal": "M6M1G1",
    "result": [
      {
        "electoralDistricts": [
          {
            "election": null,
            "id": 122,
            "name": "York South—Weston"
          }
        ],
        "pollDivisionIds": [
          10142979
        ],
        "postalCode": "M6M1G1",
        "streetName": "AILEEN",
        "streetDirectionId": null,
        "streetTypeId": "AVE",
        "placeName": "YORK",
        "streetNameDisplayText": "AILEEN AVE, YORK"
      }
    ]
  },
  {
    "postal": "M6M9R6",
    "result": []
  },
  {
    "postal": "M6M4Z9",
    "result": [
      {
        "electoralDistricts": [
          {
            "election": null,
            "id": 122,
            "name": "York South—Weston"
          }
        ],
        "pollDivisionIds": [
          10142967
        ],
        "postalCode": "M6M4Z9",
        "streetName": "PARSON",
        "streetDirectionId": null,
        "streetTypeId": "CRT",
        "placeName": "NORTH YORK",
        "streetNameDisplayText": "PARSON CRT, NORTH YORK"
      }
    ]
  },
  {
    "postal": "M6M1V5",
    "result": [
      {
        "electoralDistricts": [
          {
            "election": null,
            "id": 122,
            "name": "York South—Weston"
          }
        ],
        "pollDivisionIds": [
          10142974
        ],
        "postalCode": "M6M1V5",
        "streetName": "EGLINTON",
        "streetDirectionId": "W",
        "streetTypeId": "AVE",
        "placeName": "YORK",
        "streetNameDisplayText": "EGLINTON AVE W, YORK"
      }
    ]
  },
  {
    "postal": "M6M9Y5",
    "result": []
  },
  {
    "postal": "M6M1P2",
    "result": [
      {
        "electoralDistricts": [
          {
            "election": null,
            "id": 122,
            "name": "York South—Weston"
          }
        ],
        "pollDivisionIds": [
          10142978
        ],
        "postalCode": "M6M1P2",
        "streetName": "YPRES",
        "streetDirectionId": null,
        "streetTypeId": "RD",
        "placeName": "YORK",
        "streetNameDisplayText": "YPRES RD, YORK"
      }
    ]
  },
  {
    "postal": "M6M5X0",
    "result": []
  },
  {
    "postal": "M6M7B8",
    "result": []
  },
  {
    "postal": "M6M0C6",
    "result": []
  },
  {
    "postal": "M6M6G1",
    "result": []
  },
  {
    "postal": "M6M3K3",
    "result": [
      {
        "electoralDistricts": [
          {
            "election": null,
            "id": 122,
            "name": "York South—Weston"
          }
        ],
        "pollDivisionIds": [
          10142978
        ],
        "postalCode": "M6M3K3",
        "streetName": "SUNDEL",
        "streetDirectionId": null,
        "streetTypeId": "AVE",
        "placeName": "YORK",
        "streetNameDisplayText": "SUNDEL AVE, YORK"
      }
    ]
  },
  {
    "postal": "M6M9R0",
    "result": []
  },
  {
    "postal": "M6M4R8",
    "result": [
      {
        "electoralDistricts": [
          {
            "election": null,
            "id": 122,
            "name": "York South—Weston"
          }
        ],
        "pollDivisionIds": [
          10142969
        ],
        "postalCode": "M6M4R8",
        "streetName": "WESTON",
        "streetDirectionId": null,
        "streetTypeId": "RD",
        "placeName": "YORK",
        "streetNameDisplayText": "WESTON RD, YORK"
      }
    ]
  },
  {
    "postal": "M6M5P9",
    "result": []
  },
  {
    "postal": "M6M8N4",
    "result": []
  },
  {
    "postal": "M6M8H4",
    "result": []
  },
  {
    "postal": "M6M4V1",
    "result": [
      {
        "electoralDistricts": [
          {
            "election": null,
            "id": 122,
            "name": "York South—Weston"
          }
        ],
        "pollDivisionIds": [
          10142964
        ],
        "postalCode": "M6M4V1",
        "streetName": "CHISWICK",
        "streetDirectionId": null,
        "streetTypeId": "AVE",
        "placeName": "NORTH YORK",
        "streetNameDisplayText": "CHISWICK AVE, NORTH YORK"
      }
    ]
  },
  {
    "postal": "M6M1K5",
    "result": [
      {
        "electoralDistricts": [
          {
            "election": null,
            "id": 122,
            "name": "York South—Weston"
          }
        ],
        "pollDivisionIds": [
          10142977
        ],
        "postalCode": "M6M1K5",
        "streetName": "DONALD",
        "streetDirectionId": null,
        "streetTypeId": "AVE",
        "placeName": "YORK",
        "streetNameDisplayText": "DONALD AVE, YORK"
      }
    ]
  },
  {
    "postal": "M6M1Z5",
    "result": [
      {
        "electoralDistricts": [
          {
            "election": null,
            "id": 122,
            "name": "York South—Weston"
          }
        ],
        "pollDivisionIds": [
          10142971
        ],
        "postalCode": "M6M1Z5",
        "streetName": "BEECHBOROUGH",
        "streetDirectionId": null,
        "streetTypeId": "AVE",
        "placeName": "YORK",
        "streetNameDisplayText": "BEECHBOROUGH AVE, YORK"
      }
    ]
  },
  {
    "postal": "M6M9L9",
    "result": []
  },
  {
    "postal": "M6M5L2",
    "result": [
      {
        "electoralDistricts": [
          {
            "election": null,
            "id": 122,
            "name": "York South—Weston"
          }
        ],
        "pollDivisionIds": [
          10142963
        ],
        "postalCode": "M6M5L2",
        "streetName": "TOUCHSTONE",
        "streetDirectionId": null,
        "streetTypeId": "DR",
        "placeName": "NORTH YORK",
        "streetNameDisplayText": "TOUCHSTONE DR, NORTH YORK"
      },
      {
        "electoralDistricts": [
          {
            "election": null,
            "id": 122,
            "name": "York South—Weston"
          }
        ],
        "pollDivisionIds": [
          10142963
        ],
        "postalCode": "M6M5L2",
        "streetName": "VIA CASSIA",
        "streetDirectionId": null,
        "streetTypeId": "DR",
        "placeName": "NORTH YORK",
        "streetNameDisplayText": "VIA CASSIA DR, NORTH YORK"
      }
    ]
  },
  {
    "postal": "M6M0M2",
    "result": []
  },
  {
    "postal": "M6M1K8",
    "result": [
      {
        "electoralDistricts": [
          {
            "election": null,
            "id": 122,
            "name": "York South—Weston"
          }
        ],
        "pollDivisionIds": [
          10142978
        ],
        "postalCode": "M6M1K8",
        "streetName": "WOODENHILL",
        "streetDirectionId": null,
        "streetTypeId": "CRT",
        "placeName": "YORK",
        "streetNameDisplayText": "WOODENHILL CRT, YORK"
      }
    ]
  },
  {
    "postal": "M6M3M7",
    "result": [
      {
        "electoralDistricts": [
          {
            "election": null,
            "id": 122,
            "name": "York South—Weston"
          }
        ],
        "pollDivisionIds": [
          10142979
        ],
        "postalCode": "M6M3M7",
        "streetName": "KANE",
        "streetDirectionId": null,
        "streetTypeId": "AVE",
        "placeName": "YORK",
        "streetNameDisplayText": "KANE AVE, YORK"
      }
    ]
  },
  {
    "postal": "M6M1B2",
    "result": [
      {
        "electoralDistricts": [
          {
            "election": null,
            "id": 19,
            "name": "Davenport"
          }
        ],
        "pollDivisionIds": [
          10136078
        ],
        "postalCode": "M6M1B2",
        "streetName": "ROGERS",
        "streetDirectionId": null,
        "streetTypeId": "RD",
        "placeName": "YORK",
        "streetNameDisplayText": "ROGERS RD, YORK"
      }
    ]
  },
  {
    "postal": "M6M0H9",
    "result": []
  },
  {
    "postal": "M6M8M4",
    "result": []
  },
  {
    "postal": "M6M2M5",
    "result": [
      {
        "electoralDistricts": [
          {
            "election": null,
            "id": 122,
            "name": "York South—Weston"
          }
        ],
        "pollDivisionIds": [
          10142967
        ],
        "postalCode": "M6M2M5",
        "streetName": "GULLIVER",
        "streetDirectionId": null,
        "streetTypeId": "RD",
        "placeName": "NORTH YORK",
        "streetNameDisplayText": "GULLIVER RD, NORTH YORK"
      }
    ]
  },
  {
    "postal": "M6M0T9",
    "result": []
  },
  {
    "postal": "M6M3P1",
    "result": [
      {
        "electoralDistricts": [
          {
            "election": null,
            "id": 122,
            "name": "York South—Weston"
          }
        ],
        "pollDivisionIds": [
          10142978
        ],
        "postalCode": "M6M3P1",
        "streetName": "KANE",
        "streetDirectionId": null,
        "streetTypeId": "AVE",
        "placeName": "YORK",
        "streetNameDisplayText": "KANE AVE, YORK"
      }
    ]
  },
  {
    "postal": "M6M1R6",
    "result": [
      {
        "electoralDistricts": [
          {
            "election": null,
            "id": 122,
            "name": "York South—Weston"
          }
        ],
        "pollDivisionIds": [
          10142978
        ],
        "postalCode": "M6M1R6",
        "streetName": "CAMERON",
        "streetDirectionId": null,
        "streetTypeId": "AVE",
        "placeName": "YORK",
        "streetNameDisplayText": "CAMERON AVE, YORK"
      }
    ]
  },
  {
    "postal": "M6M9V5",
    "result": []
  },
  {
    "postal": "M6M9T0",
    "result": []
  },
  {
    "postal": "M6M0A9",
    "result": []
  },
  {
    "postal": "M6M1M3",
    "result": [
      {
        "electoralDistricts": [
          {
            "election": null,
            "id": 122,
            "name": "York South—Weston"
          }
        ],
        "pollDivisionIds": [
          10142977
        ],
        "postalCode": "M6M1M3",
        "streetName": "WESTBURY",
        "streetDirectionId": null,
        "streetTypeId": "CRES",
        "placeName": "YORK",
        "streetNameDisplayText": "WESTBURY CRES, YORK"
      }
    ]
  },
  {
    "postal": "M6M1W8",
    "result": [
      {
        "electoralDistricts": [
          {
            "election": null,
            "id": 122,
            "name": "York South—Weston"
          }
        ],
        "pollDivisionIds": [
          10142970
        ],
        "postalCode": "M6M1W8",
        "streetName": "YORE",
        "streetDirectionId": null,
        "streetTypeId": "RD",
        "placeName": "YORK",
        "streetNameDisplayText": "YORE RD, YORK"
      }
    ]
  },
  {
    "postal": "M6M9J1",
    "result": []
  },
  {
    "postal": "M6M8N5",
    "result": []
  },
  {
    "postal": "M6M5X1",
    "result": []
  },
  {
    "postal": "M6M6S2",
    "result": []
  },
  {
    "postal": "M6M2A2",
    "result": [
      {
        "electoralDistricts": [
          {
            "election": null,
            "id": 122,
            "name": "York South—Weston"
          }
        ],
        "pollDivisionIds": [
          10142970
        ],
        "postalCode": "M6M2A2",
        "streetName": "CLEARVIEW",
        "streetDirectionId": null,
        "streetTypeId": "HTS",
        "placeName": "YORK",
        "streetNameDisplayText": "CLEARVIEW HTS, YORK"
      }
    ]
  },
  {
    "postal": "M6M6A6",
    "result": []
  },
  {
    "postal": "M6M0S3",
    "result": []
  },
  {
    "postal": "M6M3E7",
    "result": []
  },
  {
    "postal": "M6M5R7",
    "result": []
  },
  {
    "postal": "M6M3R6",
    "result": [
      {
        "electoralDistricts": [
          {
            "election": null,
            "id": 122,
            "name": "York South—Weston"
          }
        ],
        "pollDivisionIds": [
          10142970
        ],
        "postalCode": "M6M3R6",
        "streetName": "RICHARDSON",
        "streetDirectionId": null,
        "streetTypeId": "AVE",
        "placeName": "YORK",
        "streetNameDisplayText": "RICHARDSON AVE, YORK"
      }
    ]
  },
  {
    "postal": "M6M6K4",
    "result": []
  },
  {
    "postal": "M6M2W5",
    "result": [
      {
        "electoralDistricts": [
          {
            "election": null,
            "id": 122,
            "name": "York South—Weston"
          }
        ],
        "pollDivisionIds": [
          10142966
        ],
        "postalCode": "M6M2W5",
        "streetName": "HAWKINS",
        "streetDirectionId": null,
        "streetTypeId": "DR",
        "placeName": "NORTH YORK",
        "streetNameDisplayText": "HAWKINS DR, NORTH YORK"
      }
    ]
  },
  {
    "postal": "M6M8W4",
    "result": []
  },
  {
    "postal": "M6M9C2",
    "result": []
  },
  {
    "postal": "M6M2C0",
    "result": []
  },
  {
    "postal": "M6M0E1",
    "result": []
  },
  {
    "postal": "M6M1K9",
    "result": [
      {
        "electoralDistricts": [
          {
            "election": null,
            "id": 122,
            "name": "York South—Weston"
          }
        ],
        "pollDivisionIds": [
          10142978
        ],
        "postalCode": "M6M1K9",
        "streetName": "WOODENHILL",
        "streetDirectionId": null,
        "streetTypeId": "CRT",
        "placeName": "YORK",
        "streetNameDisplayText": "WOODENHILL CRT, YORK"
      }
    ]
  },
  {
    "postal": "M6M1G7",
    "result": [
      {
        "electoralDistricts": [
          {
            "election": null,
            "id": 122,
            "name": "York South—Weston"
          }
        ],
        "pollDivisionIds": [
          10142977
        ],
        "postalCode": "M6M1G7",
        "streetName": "GILPIN",
        "streetDirectionId": null,
        "streetTypeId": "AVE",
        "placeName": "YORK",
        "streetNameDisplayText": "GILPIN AVE, YORK"
      }
    ]
  },
  {
    "postal": "M6M4E9",
    "result": [
      {
        "electoralDistricts": [
          {
            "election": null,
            "id": 122,
            "name": "York South—Weston"
          }
        ],
        "pollDivisionIds": [
          10142966
        ],
        "postalCode": "M6M4E9",
        "streetName": "FLAMINGO",
        "streetDirectionId": null,
        "streetTypeId": "CRES",
        "placeName": "NORTH YORK",
        "streetNameDisplayText": "FLAMINGO CRES, NORTH YORK"
      }
    ]
  },
  {
    "postal": "M6M9P0",
    "result": []
  },
  {
    "postal": "M6M5H3",
    "result": []
  },
  {
    "postal": "M6M9X6",
    "result": []
  },
  {
    "postal": "M6M5N7",
    "result": []
  },
  {
    "postal": "M6M5A6",
    "result": [
      {
        "electoralDistricts": [
          {
            "election": null,
            "id": 122,
            "name": "York South—Weston"
          }
        ],
        "pollDivisionIds": [
          10142950,
          10143005
        ],
        "postalCode": "M6M5A6",
        "streetName": "BLACKTHORN",
        "streetDirectionId": null,
        "streetTypeId": "AVE",
        "placeName": "YORK",
        "streetNameDisplayText": "BLACKTHORN AVE, YORK"
      },
      {
        "electoralDistricts": [
          {
            "election": null,
            "id": 122,
            "name": "York South—Weston"
          }
        ],
        "pollDivisionIds": [
          10142974
        ],
        "postalCode": "M6M5A6",
        "streetName": "JANE",
        "streetDirectionId": null,
        "streetTypeId": "ST",
        "placeName": "TORONTO,ONTARIO",
        "streetNameDisplayText": "JANE ST, TORONTO,ONTARIO"
      }
    ]
  },
  {
    "postal": "M6M4M0",
    "result": []
  },
  {
    "postal": "M6M3V6",
    "result": [
      {
        "electoralDistricts": [
          {
            "election": null,
            "id": 122,
            "name": "York South—Weston"
          }
        ],
        "pollDivisionIds": [
          10142979
        ],
        "postalCode": "M6M3V6",
        "streetName": "REGENT",
        "streetDirectionId": null,
        "streetTypeId": "ST",
        "placeName": "YORK",
        "streetNameDisplayText": "REGENT ST, YORK"
      }
    ]
  },
  {
    "postal": "M6M1L7",
    "result": [
      {
        "electoralDistricts": [
          {
            "election": null,
            "id": 122,
            "name": "York South—Weston"
          }
        ],
        "pollDivisionIds": [
          10142978
        ],
        "postalCode": "M6M1L7",
        "streetName": "TROWELL",
        "streetDirectionId": null,
        "streetTypeId": "AVE",
        "placeName": "YORK",
        "streetNameDisplayText": "TROWELL AVE, YORK"
      }
    ]
  },
  {
    "postal": "M6M2P9",
    "result": []
  },
  {
    "postal": "M6M5T4",
    "result": []
  },
  {
    "postal": "M6M5Z1",
    "result": []
  },
  {
    "postal": "M6M2X0",
    "result": []
  },
  {
    "postal": "M6M6Z2",
    "result": []
  },
  {
    "postal": "M6M0E0",
    "result": []
  },
  {
    "postal": "M6M3Z5",
    "result": [
      {
        "electoralDistricts": [
          {
            "election": null,
            "id": 122,
            "name": "York South—Weston"
          }
        ],
        "pollDivisionIds": [
          10142966
        ],
        "postalCode": "M6M3Z5",
        "streetName": "KEELE",
        "streetDirectionId": null,
        "streetTypeId": "ST",
        "placeName": "NORTH YORK",
        "streetNameDisplayText": "KEELE ST, NORTH YORK"
      }
    ]
  },
  {
    "postal": "M6M8H3",
    "result": []
  },
  {
    "postal": "M6M7S6",
    "result": []
  },
  {
    "postal": "M6M4C1",
    "result": []
  },
  {
    "postal": "M6M3K2",
    "result": [
      {
        "electoralDistricts": [
          {
            "election": null,
            "id": 122,
            "name": "York South—Weston"
          }
        ],
        "pollDivisionIds": [
          10142978
        ],
        "postalCode": "M6M3K2",
        "streetName": "SUNDEL",
        "streetDirectionId": null,
        "streetTypeId": "AVE",
        "placeName": "YORK",
        "streetNameDisplayText": "SUNDEL AVE, YORK"
      }
    ]
  },
  {
    "postal": "M6M1Y5",
    "result": []
  },
  {
    "postal": "M6M6P6",
    "result": []
  },
  {
    "postal": "M6M3N9",
    "result": [
      {
        "electoralDistricts": [
          {
            "election": null,
            "id": 122,
            "name": "York South—Weston"
          }
        ],
        "pollDivisionIds": [
          10142978
        ],
        "postalCode": "M6M3N9",
        "streetName": "KANE",
        "streetDirectionId": null,
        "streetTypeId": "AVE",
        "placeName": "YORK",
        "streetNameDisplayText": "KANE AVE, YORK"
      }
    ]
  },
  {
    "postal": "M6M3W2",
    "result": [
      {
        "electoralDistricts": [
          {
            "election": null,
            "id": 122,
            "name": "York South—Weston"
          }
        ],
        "pollDivisionIds": [
          10142979
        ],
        "postalCode": "M6M3W2",
        "streetName": "KEELE",
        "streetDirectionId": null,
        "streetTypeId": "ST",
        "placeName": "YORK",
        "streetNameDisplayText": "KEELE ST, YORK"
      }
    ]
  },
  {
    "postal": "M6M6H8",
    "result": []
  },
  {
    "postal": "M6M9T3",
    "result": []
  },
  {
    "postal": "M6M5L9",
    "result": [
      {
        "electoralDistricts": [
          {
            "election": null,
            "id": 122,
            "name": "York South—Weston"
          }
        ],
        "pollDivisionIds": [
          10142977
        ],
        "postalCode": "M6M5L9",
        "streetName": "HYDE",
        "streetDirectionId": null,
        "streetTypeId": "AVE",
        "placeName": "YORK",
        "streetNameDisplayText": "HYDE AVE, YORK"
      }
    ]
  },
  {
    "postal": "M6M7X7",
    "result": []
  },
  {
    "postal": "M6M3J5",
    "result": [
      {
        "electoralDistricts": [
          {
            "election": null,
            "id": 122,
            "name": "York South—Weston"
          }
        ],
        "pollDivisionIds": [
          10142978
        ],
        "postalCode": "M6M3J5",
        "streetName": "HAVERSON",
        "streetDirectionId": null,
        "streetTypeId": "BLVD",
        "placeName": "YORK",
        "streetNameDisplayText": "HAVERSON BLVD, YORK"
      }
    ]
  },
  {
    "postal": "M6M4J5",
    "result": [
      {
        "electoralDistricts": [
          {
            "election": null,
            "id": 122,
            "name": "York South—Weston"
          }
        ],
        "pollDivisionIds": [
          10142967
        ],
        "postalCode": "M6M4J5",
        "streetName": "CULFORD",
        "streetDirectionId": null,
        "streetTypeId": "RD",
        "placeName": "NORTH YORK",
        "streetNameDisplayText": "CULFORD RD, NORTH YORK"
      }
    ]
  },
  {
    "postal": "M6M6J2",
    "result": []
  },
  {
    "postal": "M6M5V6",
    "result": []
  },
  {
    "postal": "M6M3N2",
    "result": [
      {
        "electoralDistricts": [
          {
            "election": null,
            "id": 122,
            "name": "York South—Weston"
          }
        ],
        "pollDivisionIds": [
          10142979
        ],
        "postalCode": "M6M3N2",
        "streetName": "KANE",
        "streetDirectionId": null,
        "streetTypeId": "AVE",
        "placeName": "YORK",
        "streetNameDisplayText": "KANE AVE, YORK"
      }
    ]
  },
  {
    "postal": "M6M3B1",
    "result": [
      {
        "electoralDistricts": [
          {
            "election": null,
            "id": 122,
            "name": "York South—Weston"
          }
        ],
        "pollDivisionIds": [
          10142959
        ],
        "postalCode": "M6M3B1",
        "streetName": "PAMILLE",
        "streetDirectionId": null,
        "streetTypeId": "PL",
        "placeName": "NORTH YORK",
        "streetNameDisplayText": "PAMILLE PL, NORTH YORK"
      }
    ]
  },
  {
    "postal": "M6M8B5",
    "result": []
  },
  {
    "postal": "M6M0K1",
    "result": []
  },
  {
    "postal": "M6M7M7",
    "result": []
  },
  {
    "postal": "M6M2M2",
    "result": []
  },
  {
    "postal": "M6M9N3",
    "result": []
  },
  {
    "postal": "M6M4Y8",
    "result": []
  },
  {
    "postal": "M6M3V7",
    "result": [
      {
        "electoralDistricts": [
          {
            "election": null,
            "id": 122,
            "name": "York South—Weston"
          }
        ],
        "pollDivisionIds": [
          10142977
        ],
        "postalCode": "M6M3V7",
        "streetName": "REGENT",
        "streetDirectionId": null,
        "streetTypeId": "ST",
        "placeName": "YORK",
        "streetNameDisplayText": "REGENT ST, YORK"
      }
    ]
  },
  {
    "postal": "M6M8Z1",
    "result": []
  },
  {
    "postal": "M6M7B3",
    "result": []
  },
  {
    "postal": "M6M3A8",
    "result": [
      {
        "electoralDistricts": [
          {
            "election": null,
            "id": 122,
            "name": "York South—Weston"
          }
        ],
        "pollDivisionIds": [
          10142964
        ],
        "postalCode": "M6M3A8",
        "streetName": "HARDING",
        "streetDirectionId": null,
        "streetTypeId": "AVE",
        "placeName": "NORTH YORK",
        "streetNameDisplayText": "HARDING AVE, NORTH YORK"
      }
    ]
  },
  {
    "postal": "M6M7V5",
    "result": []
  },
  {
    "postal": "M6M2T2",
    "result": [
      {
        "electoralDistricts": [
          {
            "election": null,
            "id": 122,
            "name": "York South—Weston"
          }
        ],
        "pollDivisionIds": [
          10142964
        ],
        "postalCode": "M6M2T2",
        "streetName": "STEWART SMITH",
        "streetDirectionId": null,
        "streetTypeId": "DR",
        "placeName": "NORTH YORK",
        "streetNameDisplayText": "STEWART SMITH DR, NORTH YORK"
      }
    ]
  },
  {
    "postal": "M6M6L3",
    "result": []
  },
  {
    "postal": "M6M0L2",
    "result": []
  },
  {
    "postal": "M6M5Y8",
    "result": []
  },
  {
    "postal": "M6M0B8",
    "result": []
  },
  {
    "postal": "M6M6R5",
    "result": []
  },
  {
    "postal": "M6M8W6",
    "result": []
  },
  {
    "postal": "M6M8G6",
    "result": []
  },
  {
    "postal": "M6M6X3",
    "result": []
  },
  {
    "postal": "M6M7R7",
    "result": []
  },
  {
    "postal": "M6M4B6",
    "result": [
      {
        "electoralDistricts": [
          {
            "election": null,
            "id": 122,
            "name": "York South—Weston"
          }
        ],
        "pollDivisionIds": [
          10142970
        ],
        "postalCode": "M6M4B6",
        "streetName": "TRETHEWEY",
        "streetDirectionId": null,
        "streetTypeId": "DR",
        "placeName": "YORK",
        "streetNameDisplayText": "TRETHEWEY DR, YORK"
      }
    ]
  },
  {
    "postal": "M6M3P9",
    "result": [
      {
        "electoralDistricts": [
          {
            "election": null,
            "id": 122,
            "name": "York South—Weston"
          }
        ],
        "pollDivisionIds": [
          10142971
        ],
        "postalCode": "M6M3P9",
        "streetName": "CLAYBROOKE",
        "streetDirectionId": null,
        "streetTypeId": "ST",
        "placeName": "YORK",
        "streetNameDisplayText": "CLAYBROOKE ST, YORK"
      }
    ]
  },
  {
    "postal": "M6M2T3",
    "result": [
      {
        "electoralDistricts": [
          {
            "election": null,
            "id": 122,
            "name": "York South—Weston"
          }
        ],
        "pollDivisionIds": [
          10142964
        ],
        "postalCode": "M6M2T3",
        "streetName": "STEWART SMITH",
        "streetDirectionId": null,
        "streetTypeId": "DR",
        "placeName": "NORTH YORK",
        "streetNameDisplayText": "STEWART SMITH DR, NORTH YORK"
      }
    ]
  },
  {
    "postal": "M6M1M4",
    "result": [
      {
        "electoralDistricts": [
          {
            "election": null,
            "id": 122,
            "name": "York South—Weston"
          }
        ],
        "pollDivisionIds": [
          10142977
        ],
        "postalCode": "M6M1M4",
        "streetName": "WESTBURY",
        "streetDirectionId": null,
        "streetTypeId": "CRES",
        "placeName": "YORK",
        "streetNameDisplayText": "WESTBURY CRES, YORK"
      }
    ]
  },
  {
    "postal": "M6M0H1",
    "result": []
  },
  {
    "postal": "M6M9W3",
    "result": []
  },
  {
    "postal": "M6M6P1",
    "result": []
  },
  {
    "postal": "M6M7G2",
    "result": []
  },
  {
    "postal": "M6M4J9",
    "result": [
      {
        "electoralDistricts": [
          {
            "election": null,
            "id": 122,
            "name": "York South—Weston"
          }
        ],
        "pollDivisionIds": [
          10142966
        ],
        "postalCode": "M6M4J9",
        "streetName": "CULFORD",
        "streetDirectionId": null,
        "streetTypeId": "RD",
        "placeName": "NORTH YORK",
        "streetNameDisplayText": "CULFORD RD, NORTH YORK"
      }
    ]
  },
  {
    "postal": "M6M9E4",
    "result": []
  },
  {
    "postal": "M6M8H0",
    "result": []
  },
  {
    "postal": "M6M4M7",
    "result": [
      {
        "electoralDistricts": [
          {
            "election": null,
            "id": 122,
            "name": "York South—Weston"
          }
        ],
        "pollDivisionIds": [
          10142963
        ],
        "postalCode": "M6M4M7",
        "streetName": "BERTAL",
        "streetDirectionId": null,
        "streetTypeId": "RD",
        "placeName": "YORK",
        "streetNameDisplayText": "BERTAL RD, YORK"
      }
    ]
  },
  {
    "postal": "M6M2G9",
    "result": [
      {
        "electoralDistricts": [
          {
            "election": null,
            "id": 122,
            "name": "York South—Weston"
          }
        ],
        "pollDivisionIds": [
          10142970
        ],
        "postalCode": "M6M2G9",
        "streetName": "KING GEORGE'S",
        "streetDirectionId": null,
        "streetTypeId": "DR",
        "placeName": "YORK",
        "streetNameDisplayText": "KING GEORGE'S DR, YORK"
      }
    ]
  },
  {
    "postal": "M6M8T2",
    "result": []
  },
  {
    "postal": "M6M7G7",
    "result": []
  },
  {
    "postal": "M6M4Z3",
    "result": []
  },
  {
    "postal": "M6M5B3",
    "result": [
      {
        "electoralDistricts": [
          {
            "election": null,
            "id": 122,
            "name": "York South—Weston"
          }
        ],
        "pollDivisionIds": [
          10142998
        ],
        "postalCode": "M6M5B3",
        "streetName": "MARTHA EATON",
        "streetDirectionId": null,
        "streetTypeId": "WAY",
        "placeName": "NORTH YORK",
        "streetNameDisplayText": "MARTHA EATON WAY, NORTH YORK"
      }
    ]
  },
  {
    "postal": "M6M1S7",
    "result": [
      {
        "electoralDistricts": [
          {
            "election": null,
            "id": 122,
            "name": "York South—Weston"
          }
        ],
        "pollDivisionIds": [
          10142978
        ],
        "postalCode": "M6M1S7",
        "streetName": "EGLINTON",
        "streetDirectionId": "W",
        "streetTypeId": "AVE",
        "placeName": "YORK",
        "streetNameDisplayText": "EGLINTON AVE W, YORK"
      }
    ]
  },
  {
    "postal": "M6M2N7",
    "result": [
      {
        "electoralDistricts": [
          {
            "election": null,
            "id": 122,
            "name": "York South—Weston"
          }
        ],
        "pollDivisionIds": [
          10142967
        ],
        "postalCode": "M6M2N7",
        "streetName": "PARSON",
        "streetDirectionId": null,
        "streetTypeId": "CRT",
        "placeName": "NORTH YORK",
        "streetNameDisplayText": "PARSON CRT, NORTH YORK"
      }
    ]
  },
  {
    "postal": "M6M0H8",
    "result": []
  },
  {
    "postal": "M6M7Z4",
    "result": []
  },
  {
    "postal": "M6M7B1",
    "result": []
  },
  {
    "postal": "M6M7P8",
    "result": []
  },
  {
    "postal": "M6M7N0",
    "result": []
  },
  {
    "postal": "M6M3Y5",
    "result": [
      {
        "electoralDistricts": [
          {
            "election": null,
            "id": 122,
            "name": "York South—Weston"
          }
        ],
        "pollDivisionIds": [
          10142970
        ],
        "postalCode": "M6M3Y5",
        "streetName": "KEELE",
        "streetDirectionId": null,
        "streetTypeId": "ST",
        "placeName": "YORK",
        "streetNameDisplayText": "KEELE ST, YORK"
      }
    ]
  },
  {
    "postal": "M6M6K1",
    "result": []
  },
  {
    "postal": "M6M9X5",
    "result": []
  },
  {
    "postal": "M6M7S5",
    "result": []
  },
  {
    "postal": "M6M0A4",
    "result": [
      {
        "electoralDistricts": [
          {
            "election": null,
            "id": 122,
            "name": "York South—Weston"
          }
        ],
        "pollDivisionIds": [
          10142996
        ],
        "postalCode": "M6M0A4",
        "streetName": "HARDING",
        "streetDirectionId": null,
        "streetTypeId": "AVE",
        "placeName": "NORTH YORK",
        "streetNameDisplayText": "HARDING AVE, NORTH YORK"
      }
    ]
  },
  {
    "postal": "M6M4T5",
    "result": [
      {
        "electoralDistricts": [
          {
            "election": null,
            "id": 122,
            "name": "York South—Weston"
          }
        ],
        "pollDivisionIds": [
          10142964
        ],
        "postalCode": "M6M4T5",
        "streetName": "CHISWICK",
        "streetDirectionId": null,
        "streetTypeId": "AVE",
        "placeName": "NORTH YORK",
        "streetNameDisplayText": "CHISWICK AVE, NORTH YORK"
      },
      {
        "electoralDistricts": [
          {
            "election": null,
            "id": 122,
            "name": "York South—Weston"
          }
        ],
        "pollDivisionIds": [
          10142964
        ],
        "postalCode": "M6M4T5",
        "streetName": "CHISWICK",
        "streetDirectionId": null,
        "streetTypeId": "ST",
        "placeName": "NORTH YORK",
        "streetNameDisplayText": "CHISWICK ST, NORTH YORK"
      }
    ]
  },
  {
    "postal": "M6M5K1",
    "result": [
      {
        "electoralDistricts": [
          {
            "election": null,
            "id": 122,
            "name": "York South—Weston"
          }
        ],
        "pollDivisionIds": [
          10142963
        ],
        "postalCode": "M6M5K1",
        "streetName": "CENTREPARK",
        "streetDirectionId": null,
        "streetTypeId": "DR",
        "placeName": "NORTH YORK",
        "streetNameDisplayText": "CENTREPARK DR, NORTH YORK"
      },
      {
        "electoralDistricts": [
          {
            "election": null,
            "id": 122,
            "name": "York South—Weston"
          }
        ],
        "pollDivisionIds": [
          10142963
        ],
        "postalCode": "M6M5K1",
        "streetName": "PLATINUM",
        "streetDirectionId": null,
        "streetTypeId": "DR",
        "placeName": "NORTH YORK",
        "streetNameDisplayText": "PLATINUM DR, NORTH YORK"
      },
      {
        "electoralDistricts": [
          {
            "election": null,
            "id": 122,
            "name": "York South—Weston"
          }
        ],
        "pollDivisionIds": [
          10142963
        ],
        "postalCode": "M6M5K1",
        "streetName": "TOUCH STONE",
        "streetDirectionId": null,
        "streetTypeId": "DR",
        "placeName": "NORTH YORK",
        "streetNameDisplayText": "TOUCH STONE DR, NORTH YORK"
      },
      {
        "electoralDistricts": [
          {
            "election": null,
            "id": 122,
            "name": "York South—Weston"
          }
        ],
        "pollDivisionIds": [
          10142963
        ],
        "postalCode": "M6M5K1",
        "streetName": "TOUCHSTONE",
        "streetDirectionId": null,
        "streetTypeId": "DR",
        "placeName": "NORTH YORK",
        "streetNameDisplayText": "TOUCHSTONE DR, NORTH YORK"
      }
    ]
  },
  {
    "postal": "M6M0Z9",
    "result": []
  },
  {
    "postal": "M6M7T2",
    "result": []
  },
  {
    "postal": "M6M1L5",
    "result": [
      {
        "electoralDistricts": [
          {
            "election": null,
            "id": 122,
            "name": "York South—Weston"
          }
        ],
        "pollDivisionIds": [
          10142977
        ],
        "postalCode": "M6M1L5",
        "streetName": "TROWELL",
        "streetDirectionId": null,
        "streetTypeId": "AVE",
        "placeName": "YORK",
        "streetNameDisplayText": "TROWELL AVE, YORK"
      }
    ]
  },
  {
    "postal": "M6M3N5",
    "result": [
      {
        "electoralDistricts": [
          {
            "election": null,
            "id": 122,
            "name": "York South—Weston"
          }
        ],
        "pollDivisionIds": [
          10142977
        ],
        "postalCode": "M6M3N5",
        "streetName": "KANE",
        "streetDirectionId": null,
        "streetTypeId": "AVE",
        "placeName": "YORK",
        "streetNameDisplayText": "KANE AVE, YORK"
      }
    ]
  },
  {
    "postal": "M6M6H4",
    "result": []
  },
  {
    "postal": "M6M5A5",
    "result": [
      {
        "electoralDistricts": [
          {
            "election": null,
            "id": 122,
            "name": "York South—Weston"
          }
        ],
        "pollDivisionIds": [
          10142952,
          10142997
        ],
        "postalCode": "M6M5A5",
        "streetName": "TRETHEWEY",
        "streetDirectionId": null,
        "streetTypeId": "DR",
        "placeName": "NORTH YORK",
        "streetNameDisplayText": "TRETHEWEY DR, NORTH YORK"
      }
    ]
  },
  {
    "postal": "M6M3R9",
    "result": [
      {
        "electoralDistricts": [
          {
            "election": null,
            "id": 122,
            "name": "York South—Weston"
          }
        ],
        "pollDivisionIds": [
          10142972
        ],
        "postalCode": "M6M3R9",
        "streetName": "RICHARDSON",
        "streetDirectionId": null,
        "streetTypeId": "AVE",
        "placeName": "YORK",
        "streetNameDisplayText": "RICHARDSON AVE, YORK"
      }
    ]
  },
  {
    "postal": "M6M7L8",
    "result": []
  },
  {
    "postal": "M6M6T6",
    "result": []
  },
  {
    "postal": "M6M7Y7",
    "result": []
  },
  {
    "postal": "M6M3M8",
    "result": [
      {
        "electoralDistricts": [
          {
            "election": null,
            "id": 122,
            "name": "York South—Weston"
          }
        ],
        "pollDivisionIds": [
          10142979
        ],
        "postalCode": "M6M3M8",
        "streetName": "KANE",
        "streetDirectionId": null,
        "streetTypeId": "AVE",
        "placeName": "YORK",
        "streetNameDisplayText": "KANE AVE, YORK"
      }
    ]
  },
  {
    "postal": "M6M2E0",
    "result": []
  },
  {
    "postal": "M6M4B5",
    "result": [
      {
        "electoralDistricts": [
          {
            "election": null,
            "id": 122,
            "name": "York South—Weston"
          }
        ],
        "pollDivisionIds": [
          10142970
        ],
        "postalCode": "M6M4B5",
        "streetName": "TRETHEWEY",
        "streetDirectionId": null,
        "streetTypeId": "DR",
        "placeName": "YORK",
        "streetNameDisplayText": "TRETHEWEY DR, YORK"
      }
    ]
  },
  {
    "postal": "M6M1J3",
    "result": [
      {
        "electoralDistricts": [
          {
            "election": null,
            "id": 122,
            "name": "York South—Weston"
          }
        ],
        "pollDivisionIds": [
          10142977
        ],
        "postalCode": "M6M1J3",
        "streetName": "HYDE",
        "streetDirectionId": null,
        "streetTypeId": "AVE",
        "placeName": "YORK",
        "streetNameDisplayText": "HYDE AVE, YORK"
      }
    ]
  },
  {
    "postal": "M6M5S6",
    "result": []
  },
  {
    "postal": "M6M8P7",
    "result": []
  },
  {
    "postal": "M6M7S7",
    "result": []
  },
  {
    "postal": "M6M4C2",
    "result": [
      {
        "electoralDistricts": [
          {
            "election": null,
            "id": 122,
            "name": "York South—Weston"
          }
        ],
        "pollDivisionIds": [
          10142964
        ],
        "postalCode": "M6M4C2",
        "streetName": "TRETHEWEY",
        "streetDirectionId": null,
        "streetTypeId": "DR",
        "placeName": "NORTH YORK",
        "streetNameDisplayText": "TRETHEWEY DR, NORTH YORK"
      }
    ]
  },
  {
    "postal": "M6M5Y0",
    "result": []
  },
  {
    "postal": "M6M2V7",
    "result": [
      {
        "electoralDistricts": [
          {
            "election": null,
            "id": 122,
            "name": "York South—Weston"
          }
        ],
        "pollDivisionIds": [
          10142966
        ],
        "postalCode": "M6M2V7",
        "streetName": "HAFIS",
        "streetDirectionId": null,
        "streetTypeId": "RD",
        "placeName": "NORTH YORK",
        "streetNameDisplayText": "HAFIS RD, NORTH YORK"
      }
    ]
  },
  {
    "postal": "M6M8P5",
    "result": []
  },
  {
    "postal": "M6M5P5",
    "result": []
  },
  {
    "postal": "M6M5Z0",
    "result": []
  },
  {
    "postal": "M6M9B0",
    "result": []
  },
  {
    "postal": "M6M1L0",
    "result": []
  },
  {
    "postal": "M6M0B5",
    "result": []
  },
  {
    "postal": "M6M3L2",
    "result": [
      {
        "electoralDistricts": [
          {
            "election": null,
            "id": 122,
            "name": "York South—Weston"
          }
        ],
        "pollDivisionIds": [
          10142972
        ],
        "postalCode": "M6M3L2",
        "streetName": "ALYWARD",
        "streetDirectionId": null,
        "streetTypeId": "ST",
        "placeName": "YORK",
        "streetNameDisplayText": "ALYWARD ST, YORK"
      }
    ]
  },
  {
    "postal": "M6M3B7",
    "result": [
      {
        "electoralDistricts": [
          {
            "election": null,
            "id": 122,
            "name": "York South—Weston"
          }
        ],
        "pollDivisionIds": [
          10142965
        ],
        "postalCode": "M6M3B7",
        "streetName": "OLYMPIA",
        "streetDirectionId": null,
        "streetTypeId": "DR",
        "placeName": "NORTH YORK",
        "streetNameDisplayText": "OLYMPIA DR, NORTH YORK"
      }
    ]
  },
  {
    "postal": "M6M8L1",
    "result": []
  },
  {
    "postal": "M6M5M4",
    "result": []
  },
  {
    "postal": "M6M4G9",
    "result": [
      {
        "electoralDistricts": [
          {
            "election": null,
            "id": 122,
            "name": "York South—Weston"
          }
        ],
        "pollDivisionIds": [
          10142977
        ],
        "postalCode": "M6M4G9",
        "streetName": "BICKNELL",
        "streetDirectionId": null,
        "streetTypeId": "AVE",
        "placeName": "YORK",
        "streetNameDisplayText": "BICKNELL AVE, YORK"
      }
    ]
  },
  {
    "postal": "M6M0P0",
    "result": []
  },
  {
    "postal": "M6M8G2",
    "result": []
  },
  {
    "postal": "M6M1V9",
    "result": [
      {
        "electoralDistricts": [
          {
            "election": null,
            "id": 122,
            "name": "York South—Weston"
          }
        ],
        "pollDivisionIds": [
          10142970
        ],
        "postalCode": "M6M1V9",
        "streetName": "LESTER",
        "streetDirectionId": null,
        "streetTypeId": "AVE",
        "placeName": "YORK",
        "streetNameDisplayText": "LESTER AVE, YORK"
      }
    ]
  },
  {
    "postal": "M6M8N8",
    "result": []
  },
  {
    "postal": "M6M6S8",
    "result": []
  },
  {
    "postal": "M6M8H2",
    "result": []
  },
  {
    "postal": "M6M5R8",
    "result": []
  },
  {
    "postal": "M6M5L4",
    "result": [
      {
        "electoralDistricts": [
          {
            "election": null,
            "id": 122,
            "name": "York South—Weston"
          }
        ],
        "pollDivisionIds": [
          10142962
        ],
        "postalCode": "M6M5L4",
        "streetName": "RIVERS EDGE",
        "streetDirectionId": null,
        "streetTypeId": "DR",
        "placeName": "NORTH YORK",
        "streetNameDisplayText": "RIVERS EDGE DR, NORTH YORK"
      }
    ]
  },
  {
    "postal": "M6M9E1",
    "result": []
  },
  {
    "postal": "M6M1C4",
    "result": []
  },
  {
    "postal": "M6M8W5",
    "result": []
  },
  {
    "postal": "M6M1Y4",
    "result": [
      {
        "electoralDistricts": [
          {
            "election": null,
            "id": 122,
            "name": "York South—Weston"
          }
        ],
        "pollDivisionIds": [
          10142971
        ],
        "postalCode": "M6M1Y4",
        "streetName": "CASTLEFIELD",
        "streetDirectionId": null,
        "streetTypeId": "AVE",
        "placeName": "YORK",
        "streetNameDisplayText": "CASTLEFIELD AVE, YORK"
      }
    ]
  },
  {
    "postal": "M6M1C0",
    "result": []
  },
  {
    "postal": "M6M2J2",
    "result": [
      {
        "electoralDistricts": [
          {
            "election": null,
            "id": 122,
            "name": "York South—Weston"
          }
        ],
        "pollDivisionIds": [
          10142968
        ],
        "postalCode": "M6M2J2",
        "streetName": "BUTTONWOOD",
        "streetDirectionId": null,
        "streetTypeId": "AVE",
        "placeName": "YORK",
        "streetNameDisplayText": "BUTTONWOOD AVE, YORK"
      }
    ]
  },
  {
    "postal": "M6M2J0",
    "result": []
  },
  {
    "postal": "M6M7A3",
    "result": []
  },
  {
    "postal": "M6M8M1",
    "result": []
  },
  {
    "postal": "M6M7T9",
    "result": []
  },
  {
    "postal": "M6M6C0",
    "result": []
  },
  {
    "postal": "M6M7X1",
    "result": []
  },
  {
    "postal": "M6M0G1",
    "result": []
  },
  {
    "postal": "M6M4X2",
    "result": [
      {
        "electoralDistricts": [
          {
            "election": null,
            "id": 122,
            "name": "York South—Weston"
          }
        ],
        "pollDivisionIds": [
          10142959
        ],
        "postalCode": "M6M4X2",
        "streetName": "TEDDER",
        "streetDirectionId": null,
        "streetTypeId": "ST",
        "placeName": "NORTH YORK",
        "streetNameDisplayText": "TEDDER ST, NORTH YORK"
      }
    ]
  },
  {
    "postal": "M6M0N6",
    "result": []
  },
  {
    "postal": "M6M8E3",
    "result": []
  },
  {
    "postal": "M6M5S8",
    "result": []
  },
  {
    "postal": "M6M0R0",
    "result": []
  },
  {
    "postal": "M6M6J6",
    "result": []
  },
  {
    "postal": "M6M4B4",
    "result": [
      {
        "electoralDistricts": [
          {
            "election": null,
            "id": 122,
            "name": "York South—Weston"
          }
        ],
        "pollDivisionIds": [
          10142970
        ],
        "postalCode": "M6M4B4",
        "streetName": "TRETHEWEY",
        "streetDirectionId": null,
        "streetTypeId": "DR",
        "placeName": "YORK",
        "streetNameDisplayText": "TRETHEWEY DR, YORK"
      }
    ]
  },
  {
    "postal": "M6M7E3",
    "result": []
  },
  {
    "postal": "M6M3N6",
    "result": [
      {
        "electoralDistricts": [
          {
            "election": null,
            "id": 122,
            "name": "York South—Weston"
          }
        ],
        "pollDivisionIds": [
          10142978
        ],
        "postalCode": "M6M3N6",
        "streetName": "KANE",
        "streetDirectionId": null,
        "streetTypeId": "AVE",
        "placeName": "YORK",
        "streetNameDisplayText": "KANE AVE, YORK"
      }
    ]
  },
  {
    "postal": "M6M3X6",
    "result": [
      {
        "electoralDistricts": [
          {
            "election": null,
            "id": 122,
            "name": "York South—Weston"
          }
        ],
        "pollDivisionIds": [
          10142970
        ],
        "postalCode": "M6M3X6",
        "streetName": "KEELE",
        "streetDirectionId": null,
        "streetTypeId": "ST",
        "placeName": "YORK",
        "streetNameDisplayText": "KEELE ST, YORK"
      }
    ]
  },
  {
    "postal": "M6M8L0",
    "result": []
  },
  {
    "postal": "M6M8N1",
    "result": []
  },
  {
    "postal": "M6M4J0",
    "result": []
  },
  {
    "postal": "M6M0X7",
    "result": []
  },
  {
    "postal": "M6M6S4",
    "result": []
  },
  {
    "postal": "M6M0Z0",
    "result": []
  },
  {
    "postal": "M6M9X8",
    "result": []
  },
  {
    "postal": "M6M3H3",
    "result": [
      {
        "electoralDistricts": [
          {
            "election": null,
            "id": 122,
            "name": "York South—Weston"
          }
        ],
        "pollDivisionIds": [
          10142978
        ],
        "postalCode": "M6M3H3",
        "streetName": "SILVERTHORN",
        "streetDirectionId": null,
        "streetTypeId": "AVE",
        "placeName": "YORK",
        "streetNameDisplayText": "SILVERTHORN AVE, YORK"
      }
    ]
  },
  {
    "postal": "M6M7S2",
    "result": []
  },
  {
    "postal": "M6M3T3",
    "result": [
      {
        "electoralDistricts": [
          {
            "election": null,
            "id": 122,
            "name": "York South—Weston"
          }
        ],
        "pollDivisionIds": [
          10142977
        ],
        "postalCode": "M6M3T3",
        "streetName": "SCOTT",
        "streetDirectionId": null,
        "streetTypeId": "RD",
        "placeName": "YORK",
        "streetNameDisplayText": "SCOTT RD, YORK"
      }
    ]
  },
  {
    "postal": "M6M9P3",
    "result": []
  },
  {
    "postal": "M6M4H8",
    "result": [
      {
        "electoralDistricts": [
          {
            "election": null,
            "id": 122,
            "name": "York South—Weston"
          }
        ],
        "pollDivisionIds": [
          10142966
        ],
        "postalCode": "M6M4H8",
        "streetName": "AMESBURY",
        "streetDirectionId": null,
        "streetTypeId": "DR",
        "placeName": "NORTH YORK",
        "streetNameDisplayText": "AMESBURY DR, NORTH YORK"
      }
    ]
  },
  {
    "postal": "M6M6R1",
    "result": []
  },
  {
    "postal": "M6M1S0",
    "result": []
  },
  {
    "postal": "M6M3W8",
    "result": [
      {
        "electoralDistricts": [
          {
            "election": null,
            "id": 122,
            "name": "York South—Weston"
          }
        ],
        "pollDivisionIds": [
          10142977
        ],
        "postalCode": "M6M3W8",
        "streetName": "KEELE",
        "streetDirectionId": null,
        "streetTypeId": "ST",
        "placeName": "YORK",
        "streetNameDisplayText": "KEELE ST, YORK"
      }
    ]
  },
  {
    "postal": "M6M4S3",
    "result": [
      {
        "electoralDistricts": [
          {
            "election": null,
            "id": 122,
            "name": "York South—Weston"
          }
        ],
        "pollDivisionIds": [
          10142962
        ],
        "postalCode": "M6M4S3",
        "streetName": "WESTON",
        "streetDirectionId": null,
        "streetTypeId": "RD",
        "placeName": "YORK",
        "streetNameDisplayText": "WESTON RD, YORK"
      }
    ]
  },
  {
    "postal": "M6M1B6",
    "result": [
      {
        "electoralDistricts": [
          {
            "election": null,
            "id": 122,
            "name": "York South—Weston"
          }
        ],
        "pollDivisionIds": [
          10142977
        ],
        "postalCode": "M6M1B6",
        "streetName": "ROGERS",
        "streetDirectionId": null,
        "streetTypeId": "RD",
        "placeName": "YORK",
        "streetNameDisplayText": "ROGERS RD, YORK"
      }
    ]
  },
  {
    "postal": "M6M8R3",
    "result": []
  },
  {
    "postal": "M6M4V9",
    "result": [
      {
        "electoralDistricts": [
          {
            "election": null,
            "id": 122,
            "name": "York South—Weston"
          }
        ],
        "pollDivisionIds": [
          10142969
        ],
        "postalCode": "M6M4V9",
        "streetName": "GLENVALLEY",
        "streetDirectionId": null,
        "streetTypeId": "DR",
        "placeName": "YORK",
        "streetNameDisplayText": "GLENVALLEY DR, YORK"
      }
    ]
  },
  {
    "postal": "M6M9W4",
    "result": []
  },
  {
    "postal": "M6M3T4",
    "result": [
      {
        "electoralDistricts": [
          {
            "election": null,
            "id": 122,
            "name": "York South—Weston"
          }
        ],
        "pollDivisionIds": [
          10142977
        ],
        "postalCode": "M6M3T4",
        "streetName": "SCOTT",
        "streetDirectionId": null,
        "streetTypeId": "RD",
        "placeName": "YORK",
        "streetNameDisplayText": "SCOTT RD, YORK"
      }
    ]
  },
  {
    "postal": "M6M5C7",
    "result": [
      {
        "electoralDistricts": [
          {
            "election": null,
            "id": 122,
            "name": "York South—Weston"
          }
        ],
        "pollDivisionIds": [
          10142974
        ],
        "postalCode": "M6M5C7",
        "streetName": "EGLINTON",
        "streetDirectionId": "W",
        "streetTypeId": "AVE",
        "placeName": "YORK",
        "streetNameDisplayText": "EGLINTON AVE W, YORK"
      }
    ]
  },
  {
    "postal": "M6M3Y1",
    "result": [
      {
        "electoralDistricts": [
          {
            "election": null,
            "id": 122,
            "name": "York South—Weston"
          }
        ],
        "pollDivisionIds": [
          10142978,
          10142967
        ],
        "postalCode": "M6M3Y1",
        "streetName": "KEELE",
        "streetDirectionId": null,
        "streetTypeId": "ST",
        "placeName": "YORK",
        "streetNameDisplayText": "KEELE ST, YORK"
      }
    ]
  },
  {
    "postal": "M6M5V0",
    "result": []
  },
  {
    "postal": "M6M8G8",
    "result": []
  },
  {
    "postal": "M6M8B1",
    "result": []
  },
  {
    "postal": "M6M4P5",
    "result": [
      {
        "electoralDistricts": [
          {
            "election": null,
            "id": 122,
            "name": "York South—Weston"
          }
        ],
        "pollDivisionIds": [
          10142969
        ],
        "postalCode": "M6M4P5",
        "streetName": "WESTON",
        "streetDirectionId": null,
        "streetTypeId": "RD",
        "placeName": "YORK",
        "streetNameDisplayText": "WESTON RD, YORK"
      }
    ]
  },
  {
    "postal": "M6M7B2",
    "result": []
  },
  {
    "postal": "M6M0R2",
    "result": []
  },
  {
    "postal": "M6M4M4",
    "result": [
      {
        "electoralDistricts": [
          {
            "election": null,
            "id": 122,
            "name": "York South—Weston"
          }
        ],
        "pollDivisionIds": [
          10142963
        ],
        "postalCode": "M6M4M4",
        "streetName": "BERTAL",
        "streetDirectionId": null,
        "streetTypeId": "RD",
        "placeName": "YORK",
        "streetNameDisplayText": "BERTAL RD, YORK"
      }
    ]
  },
  {
    "postal": "M6M7M4",
    "result": []
  },
  {
    "postal": "M6M9S7",
    "result": []
  },
  {
    "postal": "M6M5Z7",
    "result": []
  },
  {
    "postal": "M6M7J7",
    "result": []
  },
  {
    "postal": "M6M8R8",
    "result": []
  },
  {
    "postal": "M6M9X1",
    "result": []
  },
  {
    "postal": "M6M5M9",
    "result": []
  },
  {
    "postal": "M6M9B4",
    "result": []
  },
  {
    "postal": "M6M0L9",
    "result": []
  },
  {
    "postal": "M6M9G4",
    "result": []
  },
  {
    "postal": "M6M1J4",
    "result": [
      {
        "electoralDistricts": [
          {
            "election": null,
            "id": 122,
            "name": "York South—Weston"
          }
        ],
        "pollDivisionIds": [
          10142977
        ],
        "postalCode": "M6M1J4",
        "streetName": "HYDE",
        "streetDirectionId": null,
        "streetTypeId": "AVE",
        "placeName": "YORK",
        "streetNameDisplayText": "HYDE AVE, YORK"
      }
    ]
  },
  {
    "postal": "M6M0W6",
    "result": []
  }
]
