[
  {
    "postal": "M6G9J6",
    "result": []
  },
  {
    "postal": "M6G9Z5",
    "result": []
  },
  {
    "postal": "M6G7H8",
    "result": []
  },
  {
    "postal": "M6G0P6",
    "result": []
  },
  {
    "postal": "M6G0S7",
    "result": []
  },
  {
    "postal": "M6G8B9",
    "result": []
  },
  {
    "postal": "M6G2A6",
    "result": [
      {
        "electoralDistricts": [
          {
            "election": null,
            "id": 111,
            "name": "Toronto—St. Paul's"
          }
        ],
        "pollDivisionIds": [
          10136067
        ],
        "postalCode": "M6G2A6",
        "streetName": "ASHWORTH",
        "streetDirectionId": null,
        "streetTypeId": "AVE",
        "placeName": "TORONTO",
        "streetNameDisplayText": "ASHWORTH AVE, TORONTO"
      }
    ]
  },
  {
    "postal": "M6G7V2",
    "result": []
  },
  {
    "postal": "M6G9P4",
    "result": []
  },
  {
    "postal": "M6G6G0",
    "result": []
  },
  {
    "postal": "M6G2K0",
    "result": []
  },
  {
    "postal": "M6G7N6",
    "result": []
  },
  {
    "postal": "M6G5R3",
    "result": []
  },
  {
    "postal": "M6G7K0",
    "result": []
  },
  {
    "postal": "M6G3R2",
    "result": [
      {
        "electoralDistricts": [
          {
            "election": null,
            "id": 112,
            "name": "University—Rosedale"
          }
        ],
        "pollDivisionIds": [
          10136376
        ],
        "postalCode": "M6G3R2",
        "streetName": "ROXTON",
        "streetDirectionId": null,
        "streetTypeId": "RD",
        "placeName": "TORONTO",
        "streetNameDisplayText": "ROXTON RD, TORONTO"
      }
    ]
  },
  {
    "postal": "M6G0J1",
    "result": []
  },
  {
    "postal": "M6G0B0",
    "result": []
  },
  {
    "postal": "M6G5Z2",
    "result": []
  },
  {
    "postal": "M6G7P3",
    "result": []
  },
  {
    "postal": "M6G2K3",
    "result": [
      {
        "electoralDistricts": [
          {
            "election": null,
            "id": 111,
            "name": "Toronto—St. Paul's"
          }
        ],
        "pollDivisionIds": [
          10136064
        ],
        "postalCode": "M6G2K3",
        "streetName": "ELLSWORTH",
        "streetDirectionId": null,
        "streetTypeId": "AVE",
        "placeName": "TORONTO",
        "streetNameDisplayText": "ELLSWORTH AVE, TORONTO"
      }
    ]
  },
  {
    "postal": "M6G7Y6",
    "result": []
  },
  {
    "postal": "M6G1L9",
    "result": [
      {
        "electoralDistricts": [
          {
            "election": null,
            "id": 112,
            "name": "University—Rosedale"
          }
        ],
        "pollDivisionIds": [
          10136374
        ],
        "postalCode": "M6G1L9",
        "streetName": "BLOOR",
        "streetDirectionId": "W",
        "streetTypeId": "ST",
        "placeName": "TORONTO",
        "streetNameDisplayText": "BLOOR ST W, TORONTO"
      }
    ]
  },
  {
    "postal": "M6G8T0",
    "result": []
  },
  {
    "postal": "M6G3K8",
    "result": [
      {
        "electoralDistricts": [
          {
            "election": null,
            "id": 111,
            "name": "Toronto—St. Paul's"
          }
        ],
        "pollDivisionIds": [
          10136065
        ],
        "postalCode": "M6G3K8",
        "streetName": "ARLINGTON",
        "streetDirectionId": null,
        "streetTypeId": "AVE",
        "placeName": "TORONTO",
        "streetNameDisplayText": "ARLINGTON AVE, TORONTO"
      }
    ]
  },
  {
    "postal": "M6G5W9",
    "result": []
  },
  {
    "postal": "M6G6T9",
    "result": []
  },
  {
    "postal": "M6G4H1",
    "result": []
  },
  {
    "postal": "M6G7A2",
    "result": []
  },
  {
    "postal": "M6G5G0",
    "result": []
  },
  {
    "postal": "M6G8V5",
    "result": []
  },
  {
    "postal": "M6G2Y8",
    "result": [
      {
        "electoralDistricts": [
          {
            "election": null,
            "id": 112,
            "name": "University—Rosedale"
          }
        ],
        "pollDivisionIds": [
          10136375
        ],
        "postalCode": "M6G2Y8",
        "streetName": "CLINTON",
        "streetDirectionId": null,
        "streetTypeId": "ST",
        "placeName": "TORONTO",
        "streetNameDisplayText": "CLINTON ST, TORONTO"
      }
    ]
  },
  {
    "postal": "M6G2B6",
    "result": [
      {
        "electoralDistricts": [
          {
            "election": null,
            "id": 112,
            "name": "University—Rosedale"
          },
          {
            "election": null,
            "id": 111,
            "name": "Toronto—St. Paul's"
          }
        ],
        "pollDivisionIds": [
          10136393,
          10136067
        ],
        "postalCode": "M6G2B6",
        "streetName": "DAVENPORT",
        "streetDirectionId": null,
        "streetTypeId": "RD",
        "placeName": "TORONTO",
        "streetNameDisplayText": "DAVENPORT RD, TORONTO"
      }
    ]
  },
  {
    "postal": "M6G4W8",
    "result": []
  },
  {
    "postal": "M6G8H7",
    "result": []
  },
  {
    "postal": "M6G5P1",
    "result": []
  },
  {
    "postal": "M6G2B8",
    "result": [
      {
        "electoralDistricts": [
          {
            "election": null,
            "id": 111,
            "name": "Toronto—St. Paul's"
          }
        ],
        "pollDivisionIds": [
          10136067
        ],
        "postalCode": "M6G2B8",
        "streetName": "DAVENPORT",
        "streetDirectionId": null,
        "streetTypeId": "RD",
        "placeName": "TORONTO",
        "streetNameDisplayText": "DAVENPORT RD, TORONTO"
      }
    ]
  },
  {
    "postal": "M6G0P2",
    "result": []
  },
  {
    "postal": "M6G9M1",
    "result": []
  },
  {
    "postal": "M6G3G0",
    "result": []
  },
  {
    "postal": "M6G9Z2",
    "result": []
  },
  {
    "postal": "M6G2A0",
    "result": []
  },
  {
    "postal": "M6G6Y0",
    "result": []
  },
  {
    "postal": "M6G2Z8",
    "result": [
      {
        "electoralDistricts": [
          {
            "election": null,
            "id": 112,
            "name": "University—Rosedale"
          }
        ],
        "pollDivisionIds": [
          10136378
        ],
        "postalCode": "M6G2Z8",
        "streetName": "CLINTON",
        "streetDirectionId": null,
        "streetTypeId": "ST",
        "placeName": "TORONTO",
        "streetNameDisplayText": "CLINTON ST, TORONTO"
      }
    ]
  },
  {
    "postal": "M6G7Y3",
    "result": []
  },
  {
    "postal": "M6G6Z5",
    "result": []
  },
  {
    "postal": "M6G6E0",
    "result": []
  },
  {
    "postal": "M6G9B7",
    "result": []
  },
  {
    "postal": "M6G9S5",
    "result": []
  },
  {
    "postal": "M6G3X3",
    "result": [
      {
        "electoralDistricts": [
          {
            "election": null,
            "id": 111,
            "name": "Toronto—St. Paul's"
          }
        ],
        "pollDivisionIds": [
          10136067
        ],
        "postalCode": "M6G3X3",
        "streetName": "LAMBERTLODGE",
        "streetDirectionId": null,
        "streetTypeId": "AVE",
        "placeName": "TORONTO",
        "streetNameDisplayText": "LAMBERTLODGE AVE, TORONTO"
      }
    ]
  },
  {
    "postal": "M6G7R5",
    "result": []
  },
  {
    "postal": "M6G2X3",
    "result": [
      {
        "electoralDistricts": [
          {
            "election": null,
            "id": 112,
            "name": "University—Rosedale"
          }
        ],
        "pollDivisionIds": [
          10136378
        ],
        "postalCode": "M6G2X3",
        "streetName": "MANNING",
        "streetDirectionId": null,
        "streetTypeId": "AVE",
        "placeName": "TORONTO",
        "streetNameDisplayText": "MANNING AVE, TORONTO"
      }
    ]
  },
  {
    "postal": "M6G8Z9",
    "result": []
  },
  {
    "postal": "M6G0N4",
    "result": []
  },
  {
    "postal": "M6G1K1",
    "result": [
      {
        "electoralDistricts": [
          {
            "election": null,
            "id": 112,
            "name": "University—Rosedale"
          }
        ],
        "pollDivisionIds": [
          10136379
        ],
        "postalCode": "M6G1K1",
        "streetName": "BLOOR",
        "streetDirectionId": "W",
        "streetTypeId": "ST",
        "placeName": "TORONTO",
        "streetNameDisplayText": "BLOOR ST W, TORONTO"
      }
    ]
  },
  {
    "postal": "M6G1S3",
    "result": [
      {
        "electoralDistricts": [
          {
            "election": null,
            "id": 112,
            "name": "University—Rosedale"
          }
        ],
        "pollDivisionIds": [
          10136379
        ],
        "postalCode": "M6G1S3",
        "streetName": "FOLLIS",
        "streetDirectionId": null,
        "streetTypeId": "AVE",
        "placeName": "TORONTO",
        "streetNameDisplayText": "FOLLIS AVE, TORONTO"
      }
    ]
  },
  {
    "postal": "M6G6M4",
    "result": []
  },
  {
    "postal": "M6G9A9",
    "result": []
  },
  {
    "postal": "M6G9Z9",
    "result": []
  },
  {
    "postal": "M6G6T4",
    "result": []
  },
  {
    "postal": "M6G0B2",
    "result": []
  },
  {
    "postal": "M6G2L9",
    "result": [
      {
        "electoralDistricts": [
          {
            "election": null,
            "id": 112,
            "name": "University—Rosedale"
          }
        ],
        "pollDivisionIds": [
          10136380,
          10136379
        ],
        "postalCode": "M6G2L9",
        "streetName": "MARKHAM",
        "streetDirectionId": null,
        "streetTypeId": "ST",
        "placeName": "TORONTO",
        "streetNameDisplayText": "MARKHAM ST, TORONTO"
      }
    ]
  },
  {
    "postal": "M6G8K9",
    "result": []
  },
  {
    "postal": "M6G2H9",
    "result": [
      {
        "electoralDistricts": [
          {
            "election": null,
            "id": 111,
            "name": "Toronto—St. Paul's"
          }
        ],
        "pollDivisionIds": [
          10136065
        ],
        "postalCode": "M6G2H9",
        "streetName": "BENSON",
        "streetDirectionId": null,
        "streetTypeId": "AVE",
        "placeName": "TORONTO",
        "streetNameDisplayText": "BENSON AVE, TORONTO"
      }
    ]
  },
  {
    "postal": "M6G3Z6",
    "result": [
      {
        "electoralDistricts": [
          {
            "election": null,
            "id": 111,
            "name": "Toronto—St. Paul's"
          }
        ],
        "pollDivisionIds": [
          10136066
        ],
        "postalCode": "M6G3Z6",
        "streetName": "BRACONDALE HILL",
        "streetDirectionId": null,
        "streetTypeId": "RD",
        "placeName": "TORONTO",
        "streetNameDisplayText": "BRACONDALE HILL RD, TORONTO"
      }
    ]
  },
  {
    "postal": "M6G3B0",
    "result": []
  },
  {
    "postal": "M6G2H8",
    "result": [
      {
        "electoralDistricts": [
          {
            "election": null,
            "id": 111,
            "name": "Toronto—St. Paul's"
          }
        ],
        "pollDivisionIds": [
          10136065
        ],
        "postalCode": "M6G2H8",
        "streetName": "BENSON",
        "streetDirectionId": null,
        "streetTypeId": "AVE",
        "placeName": "TORONTO",
        "streetNameDisplayText": "BENSON AVE, TORONTO"
      }
    ]
  },
  {
    "postal": "M6G3X2",
    "result": [
      {
        "electoralDistricts": [
          {
            "election": null,
            "id": 111,
            "name": "Toronto—St. Paul's"
          }
        ],
        "pollDivisionIds": [
          10136067
        ],
        "postalCode": "M6G3X2",
        "streetName": "MELITA",
        "streetDirectionId": null,
        "streetTypeId": "CRES",
        "placeName": "TORONTO",
        "streetNameDisplayText": "MELITA CRES, TORONTO"
      }
    ]
  },
  {
    "postal": "M6G2E9",
    "result": [
      {
        "electoralDistricts": [
          {
            "election": null,
            "id": 111,
            "name": "Toronto—St. Paul's"
          }
        ],
        "pollDivisionIds": [
          10136064
        ],
        "postalCode": "M6G2E9",
        "streetName": "TYRREL",
        "streetDirectionId": null,
        "streetTypeId": "AVE",
        "placeName": "TORONTO",
        "streetNameDisplayText": "TYRREL AVE, TORONTO"
      }
    ]
  },
  {
    "postal": "M6G9P6",
    "result": []
  },
  {
    "postal": "M6G9E2",
    "result": []
  },
  {
    "postal": "M6G9H2",
    "result": []
  },
  {
    "postal": "M6G1S8",
    "result": [
      {
        "electoralDistricts": [
          {
            "election": null,
            "id": 112,
            "name": "University—Rosedale"
          }
        ],
        "pollDivisionIds": [
          10136376
        ],
        "postalCode": "M6G1S8",
        "streetName": "DEWSON",
        "streetDirectionId": null,
        "streetTypeId": "ST",
        "placeName": "TORONTO",
        "streetNameDisplayText": "DEWSON ST, TORONTO"
      }
    ]
  },
  {
    "postal": "M6G3M6",
    "result": [
      {
        "electoralDistricts": [
          {
            "election": null,
            "id": 112,
            "name": "University—Rosedale"
          }
        ],
        "pollDivisionIds": [
          10136374
        ],
        "postalCode": "M6G3M6",
        "streetName": "SHAW",
        "streetDirectionId": null,
        "streetTypeId": "ST",
        "placeName": "TORONTO",
        "streetNameDisplayText": "SHAW ST, TORONTO"
      }
    ]
  },
  {
    "postal": "M6G6Z8",
    "result": []
  },
  {
    "postal": "M6G4J2",
    "result": []
  },
  {
    "postal": "M6G9Y1",
    "result": []
  },
  {
    "postal": "M6G8V6",
    "result": []
  },
  {
    "postal": "M6G6B2",
    "result": []
  },
  {
    "postal": "M6G1P8",
    "result": [
      {
        "electoralDistricts": [
          {
            "election": null,
            "id": 112,
            "name": "University—Rosedale"
          }
        ],
        "pollDivisionIds": [
          10136379
        ],
        "postalCode": "M6G1P8",
        "streetName": "BARTON",
        "streetDirectionId": null,
        "streetTypeId": "AVE",
        "placeName": "TORONTO",
        "streetNameDisplayText": "BARTON AVE, TORONTO"
      }
    ]
  },
  {
    "postal": "M6G0V8",
    "result": []
  },
  {
    "postal": "M6G4Y0",
    "result": []
  },
  {
    "postal": "M6G2T4",
    "result": [
      {
        "electoralDistricts": [
          {
            "election": null,
            "id": 112,
            "name": "University—Rosedale"
          }
        ],
        "pollDivisionIds": [
          10136380
        ],
        "postalCode": "M6G2T4",
        "streetName": "EUCLID",
        "streetDirectionId": null,
        "streetTypeId": "AVE",
        "placeName": "TORONTO",
        "streetNameDisplayText": "EUCLID AVE, TORONTO"
      }
    ]
  },
  {
    "postal": "M6G2S3",
    "result": [
      {
        "electoralDistricts": [
          {
            "election": null,
            "id": 112,
            "name": "University—Rosedale"
          }
        ],
        "pollDivisionIds": [
          10136378
        ],
        "postalCode": "M6G2S3",
        "streetName": "PALMERSTON",
        "streetDirectionId": null,
        "streetTypeId": "AVE",
        "placeName": "TORONTO",
        "streetNameDisplayText": "PALMERSTON AVE, TORONTO"
      }
    ]
  },
  {
    "postal": "M6G0K0",
    "result": []
  },
  {
    "postal": "M6G5N1",
    "result": []
  },
  {
    "postal": "M6G7T0",
    "result": []
  },
  {
    "postal": "M6G9N2",
    "result": []
  },
  {
    "postal": "M6G5L1",
    "result": []
  },
  {
    "postal": "M6G7G5",
    "result": []
  },
  {
    "postal": "M6G6K2",
    "result": []
  },
  {
    "postal": "M6G6P9",
    "result": []
  },
  {
    "postal": "M6G0E6",
    "result": []
  },
  {
    "postal": "M6G8R9",
    "result": []
  },
  {
    "postal": "M6G3G9",
    "result": [
      {
        "electoralDistricts": [
          {
            "election": null,
            "id": 112,
            "name": "University—Rosedale"
          }
        ],
        "pollDivisionIds": [
          10136376
        ],
        "postalCode": "M6G3G9",
        "streetName": "MONTROSE",
        "streetDirectionId": null,
        "streetTypeId": "AVE",
        "placeName": "TORONTO",
        "streetNameDisplayText": "MONTROSE AVE, TORONTO"
      }
    ]
  },
  {
    "postal": "M6G0V7",
    "result": []
  },
  {
    "postal": "M6G2Z1",
    "result": [
      {
        "electoralDistricts": [
          {
            "election": null,
            "id": 112,
            "name": "University—Rosedale"
          }
        ],
        "pollDivisionIds": [
          10136379
        ],
        "postalCode": "M6G2Z1",
        "streetName": "CLINTON",
        "streetDirectionId": null,
        "streetTypeId": "ST",
        "placeName": "TORONTO",
        "streetNameDisplayText": "CLINTON ST, TORONTO"
      }
    ]
  },
  {
    "postal": "M6G7N1",
    "result": []
  },
  {
    "postal": "M6G3C6",
    "result": [
      {
        "electoralDistricts": [
          {
            "election": null,
            "id": 111,
            "name": "Toronto—St. Paul's"
          }
        ],
        "pollDivisionIds": [
          10136067
        ],
        "postalCode": "M6G3C6",
        "streetName": "CHRISTIE",
        "streetDirectionId": null,
        "streetTypeId": "ST",
        "placeName": "TORONTO",
        "streetNameDisplayText": "CHRISTIE ST, TORONTO"
      }
    ]
  },
  {
    "postal": "M6G4M1",
    "result": []
  },
  {
    "postal": "M6G9K2",
    "result": []
  },
  {
    "postal": "M6G9S6",
    "result": []
  },
  {
    "postal": "M6G4X1",
    "result": []
  },
  {
    "postal": "M6G8W2",
    "result": []
  },
  {
    "postal": "M6G7N2",
    "result": []
  },
  {
    "postal": "M6G8S3",
    "result": []
  },
  {
    "postal": "M6G4V0",
    "result": []
  },
  {
    "postal": "M6G6W4",
    "result": []
  },
  {
    "postal": "M6G5M1",
    "result": []
  },
  {
    "postal": "M6G0S4",
    "result": []
  },
  {
    "postal": "M6G5X6",
    "result": []
  },
  {
    "postal": "M6G8L5",
    "result": []
  },
  {
    "postal": "M6G5M8",
    "result": []
  },
  {
    "postal": "M6G2G3",
    "result": [
      {
        "electoralDistricts": [
          {
            "election": null,
            "id": 111,
            "name": "Toronto—St. Paul's"
          }
        ],
        "pollDivisionIds": [
          10136066
        ],
        "postalCode": "M6G2G3",
        "streetName": "TYRREL",
        "streetDirectionId": null,
        "streetTypeId": "AVE",
        "placeName": "TORONTO",
        "streetNameDisplayText": "TYRREL AVE, TORONTO"
      }
    ]
  },
  {
    "postal": "M6G8E4",
    "result": []
  },
  {
    "postal": "M6G7S9",
    "result": []
  },
  {
    "postal": "M6G1K3",
    "result": [
      {
        "electoralDistricts": [
          {
            "election": null,
            "id": 112,
            "name": "University—Rosedale"
          }
        ],
        "pollDivisionIds": [
          10136380
        ],
        "postalCode": "M6G1K3",
        "streetName": "BLOOR",
        "streetDirectionId": "W",
        "streetTypeId": "ST",
        "placeName": "TORONTO",
        "streetNameDisplayText": "BLOOR ST W, TORONTO"
      }
    ]
  },
  {
    "postal": "M6G4E1",
    "result": []
  },
  {
    "postal": "M6G4R2",
    "result": []
  },
  {
    "postal": "M6G6T0",
    "result": []
  },
  {
    "postal": "M6G3K5",
    "result": [
      {
        "electoralDistricts": [
          {
            "election": null,
            "id": 111,
            "name": "Toronto—St. Paul's"
          }
        ],
        "pollDivisionIds": [
          10136066
        ],
        "postalCode": "M6G3K5",
        "streetName": "FRANK",
        "streetDirectionId": null,
        "streetTypeId": "CRES",
        "placeName": "TORONTO",
        "streetNameDisplayText": "FRANK CRES, TORONTO"
      }
    ]
  },
  {
    "postal": "M6G3S3",
    "result": [
      {
        "electoralDistricts": [
          {
            "election": null,
            "id": 111,
            "name": "Toronto—St. Paul's"
          }
        ],
        "pollDivisionIds": [
          10136066
        ],
        "postalCode": "M6G3S3",
        "streetName": "HENDRICK",
        "streetDirectionId": null,
        "streetTypeId": "AVE",
        "placeName": "TORONTO",
        "streetNameDisplayText": "HENDRICK AVE, TORONTO"
      }
    ]
  },
  {
    "postal": "M6G3L4",
    "result": [
      {
        "electoralDistricts": [
          {
            "election": null,
            "id": 112,
            "name": "University—Rosedale"
          }
        ],
        "pollDivisionIds": [
          10136376
        ],
        "postalCode": "M6G3L4",
        "streetName": "SHAW",
        "streetDirectionId": null,
        "streetTypeId": "ST",
        "placeName": "TORONTO",
        "streetNameDisplayText": "SHAW ST, TORONTO"
      }
    ]
  },
  {
    "postal": "M6G9Y2",
    "result": []
  },
  {
    "postal": "M6G1E0",
    "result": []
  },
  {
    "postal": "M6G9A4",
    "result": []
  },
  {
    "postal": "M6G1L3",
    "result": [
      {
        "electoralDistricts": [
          {
            "election": null,
            "id": 112,
            "name": "University—Rosedale"
          }
        ],
        "pollDivisionIds": [
          10136380
        ],
        "postalCode": "M6G1L3",
        "streetName": "BLOOR",
        "streetDirectionId": "W",
        "streetTypeId": "ST",
        "placeName": "TORONTO",
        "streetNameDisplayText": "BLOOR ST W, TORONTO"
      }
    ]
  },
  {
    "postal": "M6G6N1",
    "result": []
  },
  {
    "postal": "M6G6G7",
    "result": []
  },
  {
    "postal": "M6G7W1",
    "result": []
  },
  {
    "postal": "M6G4M6",
    "result": []
  },
  {
    "postal": "M6G1K0",
    "result": []
  },
  {
    "postal": "M6G3E2",
    "result": [
      {
        "electoralDistricts": [
          {
            "election": null,
            "id": 111,
            "name": "Toronto—St. Paul's"
          }
        ],
        "pollDivisionIds": [
          10136065
        ],
        "postalCode": "M6G3E2",
        "streetName": "CHRISTIE",
        "streetDirectionId": null,
        "streetTypeId": "ST",
        "placeName": "TORONTO",
        "streetNameDisplayText": "CHRISTIE ST, TORONTO"
      }
    ]
  },
  {
    "postal": "M6G5H4",
    "result": []
  },
  {
    "postal": "M6G1K7",
    "result": [
      {
        "electoralDistricts": [
          {
            "election": null,
            "id": 112,
            "name": "University—Rosedale"
          }
        ],
        "pollDivisionIds": [
          10136379
        ],
        "postalCode": "M6G1K7",
        "streetName": "BLOOR",
        "streetDirectionId": "W",
        "streetTypeId": "ST",
        "placeName": "TORONTO",
        "streetNameDisplayText": "BLOOR ST W, TORONTO"
      }
    ]
  },
  {
    "postal": "M6G0H0",
    "result": []
  },
  {
    "postal": "M6G0J3",
    "result": []
  },
  {
    "postal": "M6G1X6",
    "result": [
      {
        "electoralDistricts": [
          {
            "election": null,
            "id": 112,
            "name": "University—Rosedale"
          }
        ],
        "pollDivisionIds": [
          10136378
        ],
        "postalCode": "M6G1X6",
        "streetName": "VERMONT",
        "streetDirectionId": null,
        "streetTypeId": "AVE",
        "placeName": "TORONTO",
        "streetNameDisplayText": "VERMONT AVE, TORONTO"
      }
    ]
  },
  {
    "postal": "M6G2Z6",
    "result": [
      {
        "electoralDistricts": [
          {
            "election": null,
            "id": 112,
            "name": "University—Rosedale"
          }
        ],
        "pollDivisionIds": [
          10136378
        ],
        "postalCode": "M6G2Z6",
        "streetName": "CLINTON",
        "streetDirectionId": null,
        "streetTypeId": "ST",
        "placeName": "TORONTO",
        "streetNameDisplayText": "CLINTON ST, TORONTO"
      }
    ]
  },
  {
    "postal": "M6G4R9",
    "result": []
  },
  {
    "postal": "M6G0W8",
    "result": []
  },
  {
    "postal": "M6G1L4",
    "result": [
      {
        "electoralDistricts": [
          {
            "election": null,
            "id": 112,
            "name": "University—Rosedale"
          }
        ],
        "pollDivisionIds": [
          10136379
        ],
        "postalCode": "M6G1L4",
        "streetName": "BLOOR",
        "streetDirectionId": "W",
        "streetTypeId": "ST",
        "placeName": "TORONTO",
        "streetNameDisplayText": "BLOOR ST W, TORONTO"
      }
    ]
  },
  {
    "postal": "M6G0C8",
    "result": []
  },
  {
    "postal": "M6G9X7",
    "result": []
  },
  {
    "postal": "M6G4T1",
    "result": []
  },
  {
    "postal": "M6G0M0",
    "result": []
  },
  {
    "postal": "M6G6A2",
    "result": []
  },
  {
    "postal": "M6G9S8",
    "result": []
  },
  {
    "postal": "M6G9T4",
    "result": []
  },
  {
    "postal": "M6G9Y4",
    "result": []
  },
  {
    "postal": "M6G6G5",
    "result": []
  },
  {
    "postal": "M6G6H9",
    "result": []
  },
  {
    "postal": "M6G2P3",
    "result": [
      {
        "electoralDistricts": [
          {
            "election": null,
            "id": 112,
            "name": "University—Rosedale"
          }
        ],
        "pollDivisionIds": [
          10136379,
          10136380
        ],
        "postalCode": "M6G2P3",
        "streetName": "PALMERSTON",
        "streetDirectionId": null,
        "streetTypeId": "BLVD",
        "placeName": "TORONTO",
        "streetNameDisplayText": "PALMERSTON BLVD, TORONTO"
      }
    ]
  },
  {
    "postal": "M6G1T6",
    "result": [
      {
        "electoralDistricts": [
          {
            "election": null,
            "id": 112,
            "name": "University—Rosedale"
          }
        ],
        "pollDivisionIds": [
          10136374
        ],
        "postalCode": "M6G1T6",
        "streetName": "ESSEX",
        "streetDirectionId": null,
        "streetTypeId": "ST",
        "placeName": "TORONTO",
        "streetNameDisplayText": "ESSEX ST, TORONTO"
      }
    ]
  },
  {
    "postal": "M6G4P6",
    "result": []
  },
  {
    "postal": "M6G3K1",
    "result": [
      {
        "electoralDistricts": [
          {
            "election": null,
            "id": 112,
            "name": "University—Rosedale"
          }
        ],
        "pollDivisionIds": [
          10136375
        ],
        "postalCode": "M6G3K1",
        "streetName": "CRAWFORD",
        "streetDirectionId": null,
        "streetTypeId": "ST",
        "placeName": "TORONTO",
        "streetNameDisplayText": "CRAWFORD ST, TORONTO"
      }
    ]
  },
  {
    "postal": "M6G6X4",
    "result": []
  },
  {
    "postal": "M6G4M8",
    "result": []
  },
  {
    "postal": "M6G2Y1",
    "result": [
      {
        "electoralDistricts": [
          {
            "election": null,
            "id": 111,
            "name": "Toronto—St. Paul's"
          }
        ],
        "pollDivisionIds": [
          10136064
        ],
        "postalCode": "M6G2Y1",
        "streetName": "WYCHWOOD",
        "streetDirectionId": null,
        "streetTypeId": "AVE",
        "placeName": "TORONTO",
        "streetNameDisplayText": "WYCHWOOD AVE, TORONTO"
      }
    ]
  },
  {
    "postal": "M6G6M1",
    "result": []
  },
  {
    "postal": "M6G5L8",
    "result": []
  },
  {
    "postal": "M6G3P6",
    "result": [
      {
        "electoralDistricts": [
          {
            "election": null,
            "id": 111,
            "name": "Toronto—St. Paul's"
          }
        ],
        "pollDivisionIds": [
          10136066
        ],
        "postalCode": "M6G3P6",
        "streetName": "GREENSIDES",
        "streetDirectionId": null,
        "streetTypeId": "AVE",
        "placeName": "TORONTO",
        "streetNameDisplayText": "GREENSIDES AVE, TORONTO"
      }
    ]
  },
  {
    "postal": "M6G9A5",
    "result": []
  },
  {
    "postal": "M6G7K1",
    "result": []
  },
  {
    "postal": "M6G3J4",
    "result": [
      {
        "electoralDistricts": [
          {
            "election": null,
            "id": 111,
            "name": "Toronto—St. Paul's"
          }
        ],
        "pollDivisionIds": [
          10136065
        ],
        "postalCode": "M6G3J4",
        "streetName": "RUSHTON",
        "streetDirectionId": null,
        "streetTypeId": "RD",
        "placeName": "TORONTO",
        "streetNameDisplayText": "RUSHTON RD, TORONTO"
      }
    ]
  },
  {
    "postal": "M6G5E7",
    "result": []
  },
  {
    "postal": "M6G3A7",
    "result": [
      {
        "electoralDistricts": [
          {
            "election": null,
            "id": 112,
            "name": "University—Rosedale"
          }
        ],
        "pollDivisionIds": [
          10136375,
          10136381,
          10136376
        ],
        "postalCode": "M6G3A7",
        "streetName": "GRACE",
        "streetDirectionId": null,
        "streetTypeId": "ST",
        "placeName": "TORONTO",
        "streetNameDisplayText": "GRACE ST, TORONTO"
      }
    ]
  },
  {
    "postal": "M6G1B9",
    "result": [
      {
        "electoralDistricts": [
          {
            "election": null,
            "id": 112,
            "name": "University—Rosedale"
          }
        ],
        "pollDivisionIds": [
          10136377
        ],
        "postalCode": "M6G1B9",
        "streetName": "COLLEGE",
        "streetDirectionId": null,
        "streetTypeId": "ST",
        "placeName": "TORONTO",
        "streetNameDisplayText": "COLLEGE ST, TORONTO"
      }
    ]
  },
  {
    "postal": "M6G9E8",
    "result": []
  },
  {
    "postal": "M6G1C9",
    "result": [
      {
        "electoralDistricts": [
          {
            "election": null,
            "id": 112,
            "name": "University—Rosedale"
          }
        ],
        "pollDivisionIds": [
          10136377
        ],
        "postalCode": "M6G1C9",
        "streetName": "COLLEGE",
        "streetDirectionId": null,
        "streetTypeId": "ST",
        "placeName": "TORONTO",
        "streetNameDisplayText": "COLLEGE ST, TORONTO"
      }
    ]
  },
  {
    "postal": "M6G3B5",
    "result": [
      {
        "electoralDistricts": [
          {
            "election": null,
            "id": 112,
            "name": "University—Rosedale"
          }
        ],
        "pollDivisionIds": [
          10136378
        ],
        "postalCode": "M6G3B5",
        "streetName": "CHRISTIE",
        "streetDirectionId": null,
        "streetTypeId": "ST",
        "placeName": "TORONTO",
        "streetNameDisplayText": "CHRISTIE ST, TORONTO"
      }
    ]
  },
  {
    "postal": "M6G8R0",
    "result": []
  },
  {
    "postal": "M6G3P2",
    "result": [
      {
        "electoralDistricts": [
          {
            "election": null,
            "id": 111,
            "name": "Toronto—St. Paul's"
          }
        ],
        "pollDivisionIds": [
          10136066
        ],
        "postalCode": "M6G3P2",
        "streetName": "BRACONDALE HILL",
        "streetDirectionId": null,
        "streetTypeId": "RD",
        "placeName": "TORONTO",
        "streetNameDisplayText": "BRACONDALE HILL RD, TORONTO"
      }
    ]
  },
  {
    "postal": "M6G5V4",
    "result": []
  },
  {
    "postal": "M6G4H0",
    "result": []
  },
  {
    "postal": "M6G4S7",
    "result": []
  },
  {
    "postal": "M6G6C2",
    "result": []
  },
  {
    "postal": "M6G8W3",
    "result": []
  },
  {
    "postal": "M6G4M5",
    "result": []
  },
  {
    "postal": "M6G5T1",
    "result": []
  },
  {
    "postal": "M6G3B3",
    "result": [
      {
        "electoralDistricts": [
          {
            "election": null,
            "id": 112,
            "name": "University—Rosedale"
          }
        ],
        "pollDivisionIds": [
          10136379,
          10136374
        ],
        "postalCode": "M6G3B3",
        "streetName": "CHRISTIE",
        "streetDirectionId": null,
        "streetTypeId": "ST",
        "placeName": "TORONTO",
        "streetNameDisplayText": "CHRISTIE ST, TORONTO"
      }
    ]
  },
  {
    "postal": "M6G6C6",
    "result": []
  },
  {
    "postal": "M6G7N8",
    "result": []
  },
  {
    "postal": "M6G2Y3",
    "result": [
      {
        "electoralDistricts": [
          {
            "election": null,
            "id": 112,
            "name": "University—Rosedale"
          }
        ],
        "pollDivisionIds": [
          10136381,
          10136376
        ],
        "postalCode": "M6G2Y3",
        "streetName": "CLINTON",
        "streetDirectionId": null,
        "streetTypeId": "ST",
        "placeName": "TORONTO",
        "streetNameDisplayText": "CLINTON ST, TORONTO"
      }
    ]
  },
  {
    "postal": "M6G2R6",
    "result": [
      {
        "electoralDistricts": [
          {
            "election": null,
            "id": 112,
            "name": "University—Rosedale"
          }
        ],
        "pollDivisionIds": [
          10136379
        ],
        "postalCode": "M6G2R6",
        "streetName": "PALMERSTON",
        "streetDirectionId": null,
        "streetTypeId": "AVE",
        "placeName": "TORONTO",
        "streetNameDisplayText": "PALMERSTON AVE, TORONTO"
      }
    ]
  },
  {
    "postal": "M6G7N3",
    "result": []
  },
  {
    "postal": "M6G8J2",
    "result": []
  },
  {
    "postal": "M6G6A9",
    "result": []
  },
  {
    "postal": "M6G3V2",
    "result": [
      {
        "electoralDistricts": [
          {
            "election": null,
            "id": 112,
            "name": "University—Rosedale"
          }
        ],
        "pollDivisionIds": [
          10136374
        ],
        "postalCode": "M6G3V2",
        "streetName": "OSSINGTON",
        "streetDirectionId": null,
        "streetTypeId": "AVE",
        "placeName": "TORONTO",
        "streetNameDisplayText": "OSSINGTON AVE, TORONTO"
      }
    ]
  },
  {
    "postal": "M6G2N3",
    "result": [
      {
        "electoralDistricts": [
          {
            "election": null,
            "id": 111,
            "name": "Toronto—St. Paul's"
          }
        ],
        "pollDivisionIds": [
          10136064
        ],
        "postalCode": "M6G2N3",
        "streetName": "VAUGHAN",
        "streetDirectionId": null,
        "streetTypeId": "RD",
        "placeName": "TORONTO",
        "streetNameDisplayText": "VAUGHAN RD, TORONTO"
      }
    ]
  },
  {
    "postal": "M6G1S5",
    "result": [
      {
        "electoralDistricts": [
          {
            "election": null,
            "id": 112,
            "name": "University—Rosedale"
          }
        ],
        "pollDivisionIds": [
          10136379
        ],
        "postalCode": "M6G1S5",
        "streetName": "FOLLIS",
        "streetDirectionId": null,
        "streetTypeId": "AVE",
        "placeName": "TORONTO",
        "streetNameDisplayText": "FOLLIS AVE, TORONTO"
      }
    ]
  },
  {
    "postal": "M6G4T7",
    "result": []
  },
  {
    "postal": "M6G6Y7",
    "result": []
  },
  {
    "postal": "M6G0W7",
    "result": []
  },
  {
    "postal": "M6G2W9",
    "result": [
      {
        "electoralDistricts": [
          {
            "election": null,
            "id": 112,
            "name": "University—Rosedale"
          }
        ],
        "pollDivisionIds": [
          10136379
        ],
        "postalCode": "M6G2W9",
        "streetName": "MANNING",
        "streetDirectionId": null,
        "streetTypeId": "AVE",
        "placeName": "TORONTO",
        "streetNameDisplayText": "MANNING AVE, TORONTO"
      }
    ]
  },
  {
    "postal": "M6G8V0",
    "result": []
  },
  {
    "postal": "M6G0H4",
    "result": []
  },
  {
    "postal": "M6G2T1",
    "result": [
      {
        "electoralDistricts": [
          {
            "election": null,
            "id": 112,
            "name": "University—Rosedale"
          }
        ],
        "pollDivisionIds": [
          10136381
        ],
        "postalCode": "M6G2T1",
        "streetName": "EUCLID",
        "streetDirectionId": null,
        "streetTypeId": "AVE",
        "placeName": "TORONTO",
        "streetNameDisplayText": "EUCLID AVE, TORONTO"
      }
    ]
  },
  {
    "postal": "M6G1B1",
    "result": [
      {
        "electoralDistricts": [
          {
            "election": null,
            "id": 112,
            "name": "University—Rosedale"
          }
        ],
        "pollDivisionIds": [
          10136381
        ],
        "postalCode": "M6G1B1",
        "streetName": "COLLEGE",
        "streetDirectionId": null,
        "streetTypeId": "ST",
        "placeName": "TORONTO",
        "streetNameDisplayText": "COLLEGE ST, TORONTO"
      }
    ]
  },
  {
    "postal": "M6G8B6",
    "result": []
  },
  {
    "postal": "M6G6H1",
    "result": []
  },
  {
    "postal": "M6G8T8",
    "result": []
  },
  {
    "postal": "M6G0T4",
    "result": []
  },
  {
    "postal": "M6G2C4",
    "result": [
      {
        "electoralDistricts": [
          {
            "election": null,
            "id": 111,
            "name": "Toronto—St. Paul's"
          }
        ],
        "pollDivisionIds": [
          10136064
        ],
        "postalCode": "M6G2C4",
        "streetName": "VAUGHAN",
        "streetDirectionId": null,
        "streetTypeId": "RD",
        "placeName": "TORONTO",
        "streetNameDisplayText": "VAUGHAN RD, TORONTO"
      },
      {
        "electoralDistricts": [
          {
            "election": null,
            "id": 111,
            "name": "Toronto—St. Paul's"
          }
        ],
        "pollDivisionIds": [
          10136064
        ],
        "postalCode": "M6G2C4",
        "streetName": "VAUGHAN RD.",
        "streetDirectionId": null,
        "streetTypeId": "RD",
        "placeName": "TORONTO",
        "streetNameDisplayText": "VAUGHAN RD. RD, TORONTO"
      },
      {
        "electoralDistricts": [
          {
            "election": null,
            "id": 111,
            "name": "Toronto—St. Paul's"
          }
        ],
        "pollDivisionIds": [
          10136064
        ],
        "postalCode": "M6G2C4",
        "streetName": "VAUGHAN RD.",
        "streetDirectionId": null,
        "streetTypeId": null,
        "placeName": "TORONTO,ON",
        "streetNameDisplayText": "VAUGHAN RD., TORONTO,ON"
      }
    ]
  },
  {
    "postal": "M6G8N3",
    "result": []
  },
  {
    "postal": "M6G4L8",
    "result": []
  },
  {
    "postal": "M6G2B5",
    "result": []
  },
  {
    "postal": "M6G3H1",
    "result": [
      {
        "electoralDistricts": [
          {
            "election": null,
            "id": 112,
            "name": "University—Rosedale"
          }
        ],
        "pollDivisionIds": [
          10136377,
          10136375
        ],
        "postalCode": "M6G3H1",
        "streetName": "MONTROSE",
        "streetDirectionId": null,
        "streetTypeId": "AVE",
        "placeName": "TORONTO",
        "streetNameDisplayText": "MONTROSE AVE, TORONTO"
      }
    ]
  },
  {
    "postal": "M6G4Y1",
    "result": []
  },
  {
    "postal": "M6G7E2",
    "result": []
  },
  {
    "postal": "M6G2P5",
    "result": [
      {
        "electoralDistricts": [
          {
            "election": null,
            "id": 112,
            "name": "University—Rosedale"
          }
        ],
        "pollDivisionIds": [
          10136380
        ],
        "postalCode": "M6G2P5",
        "streetName": "PALMERSTON",
        "streetDirectionId": null,
        "streetTypeId": "BLVD",
        "placeName": "TORONTO",
        "streetNameDisplayText": "PALMERSTON BLVD, TORONTO"
      }
    ]
  },
  {
    "postal": "M6G8R7",
    "result": []
  },
  {
    "postal": "M6G9P1",
    "result": []
  },
  {
    "postal": "M6G3B8",
    "result": [
      {
        "electoralDistricts": [
          {
            "election": null,
            "id": 112,
            "name": "University—Rosedale"
          }
        ],
        "pollDivisionIds": [
          10136374
        ],
        "postalCode": "M6G3B8",
        "streetName": "CHRISTIE",
        "streetDirectionId": null,
        "streetTypeId": "ST",
        "placeName": "TORONTO",
        "streetNameDisplayText": "CHRISTIE ST, TORONTO"
      }
    ]
  },
  {
    "postal": "M6G3P7",
    "result": [
      {
        "electoralDistricts": [
          {
            "election": null,
            "id": 111,
            "name": "Toronto—St. Paul's"
          }
        ],
        "pollDivisionIds": [
          10136066
        ],
        "postalCode": "M6G3P7",
        "streetName": "GREENSIDES",
        "streetDirectionId": null,
        "streetTypeId": "AVE",
        "placeName": "TORONTO",
        "streetNameDisplayText": "GREENSIDES AVE, TORONTO"
      }
    ]
  },
  {
    "postal": "M6G9B2",
    "result": []
  },
  {
    "postal": "M6G6Z3",
    "result": []
  },
  {
    "postal": "M6G4N5",
    "result": []
  },
  {
    "postal": "M6G8T3",
    "result": []
  },
  {
    "postal": "M6G1V2",
    "result": [
      {
        "electoralDistricts": [
          {
            "election": null,
            "id": 112,
            "name": "University—Rosedale"
          }
        ],
        "pollDivisionIds": [
          10136379
        ],
        "postalCode": "M6G1V2",
        "streetName": "OLIVE",
        "streetDirectionId": null,
        "streetTypeId": "AVE",
        "placeName": "TORONTO",
        "streetNameDisplayText": "OLIVE AVE, TORONTO"
      }
    ]
  },
  {
    "postal": "M6G1Y0",
    "result": []
  },
  {
    "postal": "M6G3G6",
    "result": [
      {
        "electoralDistricts": [
          {
            "election": null,
            "id": 112,
            "name": "University—Rosedale"
          }
        ],
        "pollDivisionIds": [
          10136376
        ],
        "postalCode": "M6G3G6",
        "streetName": "MONTROSE",
        "streetDirectionId": null,
        "streetTypeId": "AVE",
        "placeName": "TORONTO",
        "streetNameDisplayText": "MONTROSE AVE, TORONTO"
      }
    ]
  },
  {
    "postal": "M6G3H7",
    "result": [
      {
        "electoralDistricts": [
          {
            "election": null,
            "id": 111,
            "name": "Toronto—St. Paul's"
          }
        ],
        "pollDivisionIds": [
          10136066
        ],
        "postalCode": "M6G3H7",
        "streetName": "TURNER",
        "streetDirectionId": null,
        "streetTypeId": "RD",
        "placeName": "TORONTO",
        "streetNameDisplayText": "TURNER RD, TORONTO"
      }
    ]
  },
  {
    "postal": "M6G7X8",
    "result": []
  },
  {
    "postal": "M6G0C7",
    "result": []
  },
  {
    "postal": "M6G0W9",
    "result": []
  },
  {
    "postal": "M6G8E6",
    "result": []
  },
  {
    "postal": "M6G9Z8",
    "result": []
  },
  {
    "postal": "M6G3P4",
    "result": [
      {
        "electoralDistricts": [
          {
            "election": null,
            "id": 111,
            "name": "Toronto—St. Paul's"
          }
        ],
        "pollDivisionIds": [
          10136066
        ],
        "postalCode": "M6G3P4",
        "streetName": "BRACONDALE HILL",
        "streetDirectionId": null,
        "streetTypeId": "RD",
        "placeName": "TORONTO",
        "streetNameDisplayText": "BRACONDALE HILL RD, TORONTO"
      }
    ]
  },
  {
    "postal": "M6G6L8",
    "result": []
  },
  {
    "postal": "M6G2R4",
    "result": [
      {
        "electoralDistricts": [
          {
            "election": null,
            "id": 112,
            "name": "University—Rosedale"
          }
        ],
        "pollDivisionIds": [
          10136379
        ],
        "postalCode": "M6G2R4",
        "streetName": "PALMERSTON",
        "streetDirectionId": null,
        "streetTypeId": "AVE",
        "placeName": "TORONTO",
        "streetNameDisplayText": "PALMERSTON AVE, TORONTO"
      }
    ]
  },
  {
    "postal": "M6G2W1",
    "result": [
      {
        "electoralDistricts": [
          {
            "election": null,
            "id": 112,
            "name": "University—Rosedale"
          }
        ],
        "pollDivisionIds": [
          10136380
        ],
        "postalCode": "M6G2W1",
        "streetName": "MANNING",
        "streetDirectionId": null,
        "streetTypeId": "AVE",
        "placeName": "TORONTO",
        "streetNameDisplayText": "MANNING AVE, TORONTO"
      }
    ]
  },
  {
    "postal": "M6G9H8",
    "result": []
  },
  {
    "postal": "M6G8X9",
    "result": []
  },
  {
    "postal": "M6G7H4",
    "result": []
  },
  {
    "postal": "M6G3J1",
    "result": [
      {
        "electoralDistricts": [
          {
            "election": null,
            "id": 111,
            "name": "Toronto—St. Paul's"
          }
        ],
        "pollDivisionIds": [
          10136065
        ],
        "postalCode": "M6G3J1",
        "streetName": "RUSHTON",
        "streetDirectionId": null,
        "streetTypeId": "RD",
        "placeName": "TORONTO",
        "streetNameDisplayText": "RUSHTON RD, TORONTO"
      }
    ]
  },
  {
    "postal": "M6G1P4",
    "result": [
      {
        "electoralDistricts": [
          {
            "election": null,
            "id": 112,
            "name": "University—Rosedale"
          }
        ],
        "pollDivisionIds": [
          10136379
        ],
        "postalCode": "M6G1P4",
        "streetName": "BARTON",
        "streetDirectionId": null,
        "streetTypeId": "AVE",
        "placeName": "TORONTO",
        "streetNameDisplayText": "BARTON AVE, TORONTO"
      }
    ]
  },
  {
    "postal": "M6G2A3",
    "result": [
      {
        "electoralDistricts": [
          {
            "election": null,
            "id": 111,
            "name": "Toronto—St. Paul's"
          }
        ],
        "pollDivisionIds": [
          10136067
        ],
        "postalCode": "M6G2A3",
        "streetName": "MELITA",
        "streetDirectionId": null,
        "streetTypeId": "AVE",
        "placeName": "TORONTO",
        "streetNameDisplayText": "MELITA AVE, TORONTO"
      }
    ]
  },
  {
    "postal": "M6G0Z1",
    "result": []
  },
  {
    "postal": "M6G1C1",
    "result": [
      {
        "electoralDistricts": [
          {
            "election": null,
            "id": 112,
            "name": "University—Rosedale"
          }
        ],
        "pollDivisionIds": [
          10136376
        ],
        "postalCode": "M6G1C1",
        "streetName": "COLLEGE",
        "streetDirectionId": null,
        "streetTypeId": "ST",
        "placeName": "TORONTO",
        "streetNameDisplayText": "COLLEGE ST, TORONTO"
      }
    ]
  },
  {
    "postal": "M6G0H3",
    "result": []
  },
  {
    "postal": "M6G7B0",
    "result": []
  },
  {
    "postal": "M6G5K2",
    "result": []
  },
  {
    "postal": "M6G1E9",
    "result": [
      {
        "electoralDistricts": [
          {
            "election": null,
            "id": 112,
            "name": "University—Rosedale"
          }
        ],
        "pollDivisionIds": [
          10136380
        ],
        "postalCode": "M6G1E9",
        "streetName": "HARBORD",
        "streetDirectionId": null,
        "streetTypeId": "ST",
        "placeName": "TORONTO",
        "streetNameDisplayText": "HARBORD ST, TORONTO"
      }
    ]
  },
  {
    "postal": "M6G9W7",
    "result": []
  },
  {
    "postal": "M6G5W6",
    "result": []
  },
  {
    "postal": "M6G6S6",
    "result": []
  },
  {
    "postal": "M6G2P8",
    "result": [
      {
        "electoralDistricts": [
          {
            "election": null,
            "id": 112,
            "name": "University—Rosedale"
          }
        ],
        "pollDivisionIds": [
          10136379
        ],
        "postalCode": "M6G2P8",
        "streetName": "PALMERSTON",
        "streetDirectionId": null,
        "streetTypeId": "AVE",
        "placeName": "TORONTO",
        "streetNameDisplayText": "PALMERSTON AVE, TORONTO"
      }
    ]
  },
  {
    "postal": "M6G4P8",
    "result": []
  },
  {
    "postal": "M6G0V9",
    "result": []
  },
  {
    "postal": "M6G5Y2",
    "result": []
  },
  {
    "postal": "M6G7Z7",
    "result": []
  },
  {
    "postal": "M6G6Y8",
    "result": []
  },
  {
    "postal": "M6G2G7",
    "result": [
      {
        "electoralDistricts": [
          {
            "election": null,
            "id": 111,
            "name": "Toronto—St. Paul's"
          }
        ],
        "pollDivisionIds": [
          10136065
        ],
        "postalCode": "M6G2G7",
        "streetName": "TYRREL",
        "streetDirectionId": null,
        "streetTypeId": "AVE",
        "placeName": "TORONTO",
        "streetNameDisplayText": "TYRREL AVE, TORONTO"
      }
    ]
  },
  {
    "postal": "M6G8C1",
    "result": []
  },
  {
    "postal": "M6G5C5",
    "result": []
  },
  {
    "postal": "M6G2X8",
    "result": [
      {
        "electoralDistricts": [
          {
            "election": null,
            "id": 111,
            "name": "Toronto—St. Paul's"
          }
        ],
        "pollDivisionIds": [
          10136061
        ],
        "postalCode": "M6G2X8",
        "streetName": "WYCHWOOD",
        "streetDirectionId": null,
        "streetTypeId": "AVE",
        "placeName": "TORONTO",
        "streetNameDisplayText": "WYCHWOOD AVE, TORONTO"
      }
    ]
  },
  {
    "postal": "M6G1W5",
    "result": [
      {
        "electoralDistricts": [
          {
            "election": null,
            "id": 112,
            "name": "University—Rosedale"
          }
        ],
        "pollDivisionIds": [
          10136378
        ],
        "postalCode": "M6G1W5",
        "streetName": "YARMOUTH",
        "streetDirectionId": null,
        "streetTypeId": "RD",
        "placeName": "TORONTO",
        "streetNameDisplayText": "YARMOUTH RD, TORONTO"
      }
    ]
  },
  {
    "postal": "M6G7G0",
    "result": []
  },
  {
    "postal": "M6G8J8",
    "result": []
  },
  {
    "postal": "M6G3Y0",
    "result": []
  },
  {
    "postal": "M6G9T7",
    "result": []
  },
  {
    "postal": "M6G5P4",
    "result": []
  },
  {
    "postal": "M6G4B0",
    "result": []
  },
  {
    "postal": "M6G9N8",
    "result": []
  },
  {
    "postal": "M6G4A7",
    "result": []
  },
  {
    "postal": "M6G4H9",
    "result": []
  },
  {
    "postal": "M6G6X1",
    "result": []
  },
  {
    "postal": "M6G9Y7",
    "result": []
  },
  {
    "postal": "M6G2Y5",
    "result": [
      {
        "electoralDistricts": [
          {
            "election": null,
            "id": 112,
            "name": "University—Rosedale"
          }
        ],
        "pollDivisionIds": [
          10136380
        ],
        "postalCode": "M6G2Y5",
        "streetName": "CLINTON",
        "streetDirectionId": null,
        "streetTypeId": "ST",
        "placeName": "TORONTO",
        "streetNameDisplayText": "CLINTON ST, TORONTO"
      }
    ]
  },
  {
    "postal": "M6G8L7",
    "result": []
  },
  {
    "postal": "M6G2A8",
    "result": [
      {
        "electoralDistricts": [
          {
            "election": null,
            "id": 111,
            "name": "Toronto—St. Paul's"
          }
        ],
        "pollDivisionIds": [
          10136066
        ],
        "postalCode": "M6G2A8",
        "streetName": "MARCHMOUNT",
        "streetDirectionId": null,
        "streetTypeId": "RD",
        "placeName": "TORONTO",
        "streetNameDisplayText": "MARCHMOUNT RD, TORONTO"
      }
    ]
  },
  {
    "postal": "M6G2K9",
    "result": [
      {
        "electoralDistricts": [
          {
            "election": null,
            "id": 112,
            "name": "University—Rosedale"
          }
        ],
        "pollDivisionIds": [
          10136381
        ],
        "postalCode": "M6G2K9",
        "streetName": "MARKHAM",
        "streetDirectionId": null,
        "streetTypeId": "ST",
        "placeName": "TORONTO",
        "streetNameDisplayText": "MARKHAM ST, TORONTO"
      }
    ]
  },
  {
    "postal": "M6G3E5",
    "result": [
      {
        "electoralDistricts": [
          {
            "election": null,
            "id": 111,
            "name": "Toronto—St. Paul's"
          }
        ],
        "pollDivisionIds": [
          10136065
        ],
        "postalCode": "M6G3E5",
        "streetName": "CHRISTIE",
        "streetDirectionId": null,
        "streetTypeId": "ST",
        "placeName": "TORONTO",
        "streetNameDisplayText": "CHRISTIE ST, TORONTO"
      }
    ]
  },
  {
    "postal": "M6G8N6",
    "result": []
  },
  {
    "postal": "M6G8J4",
    "result": []
  },
  {
    "postal": "M6G4R7",
    "result": []
  },
  {
    "postal": "M6G9K1",
    "result": []
  },
  {
    "postal": "M6G8E1",
    "result": []
  },
  {
    "postal": "M6G0R1",
    "result": []
  },
  {
    "postal": "M6G4J3",
    "result": []
  },
  {
    "postal": "M6G7E7",
    "result": []
  },
  {
    "postal": "M6G0J0",
    "result": []
  },
  {
    "postal": "M6G7R8",
    "result": []
  },
  {
    "postal": "M6G9X0",
    "result": []
  },
  {
    "postal": "M6G7P6",
    "result": []
  },
  {
    "postal": "M6G0R7",
    "result": []
  },
  {
    "postal": "M6G5W1",
    "result": []
  },
  {
    "postal": "M6G0K4",
    "result": []
  },
  {
    "postal": "M6G7N9",
    "result": []
  },
  {
    "postal": "M6G1N0",
    "result": []
  },
  {
    "postal": "M6G6P3",
    "result": []
  },
  {
    "postal": "M6G5A1",
    "result": []
  },
  {
    "postal": "M6G9M9",
    "result": []
  },
  {
    "postal": "M6G7T6",
    "result": []
  },
  {
    "postal": "M6G3X0",
    "result": []
  },
  {
    "postal": "M6G2T0",
    "result": []
  },
  {
    "postal": "M6G5X9",
    "result": []
  },
  {
    "postal": "M6G2R3",
    "result": [
      {
        "electoralDistricts": [
          {
            "election": null,
            "id": 112,
            "name": "University—Rosedale"
          }
        ],
        "pollDivisionIds": [
          10136379
        ],
        "postalCode": "M6G2R3",
        "streetName": "PALMERSTON",
        "streetDirectionId": null,
        "streetTypeId": "AVE",
        "placeName": "TORONTO",
        "streetNameDisplayText": "PALMERSTON AVE, TORONTO"
      }
    ]
  },
  {
    "postal": "M6G5N2",
    "result": []
  },
  {
    "postal": "M6G4Y7",
    "result": []
  },
  {
    "postal": "M6G7M0",
    "result": []
  },
  {
    "postal": "M6G8P3",
    "result": []
  },
  {
    "postal": "M6G3N3",
    "result": [
      {
        "electoralDistricts": [
          {
            "election": null,
            "id": 112,
            "name": "University—Rosedale"
          }
        ],
        "pollDivisionIds": [
          10136374
        ],
        "postalCode": "M6G3N3",
        "streetName": "SHAW",
        "streetDirectionId": null,
        "streetTypeId": "ST",
        "placeName": "TORONTO",
        "streetNameDisplayText": "SHAW ST, TORONTO"
      }
    ]
  },
  {
    "postal": "M6G7S3",
    "result": []
  },
  {
    "postal": "M6G3V9",
    "result": [
      {
        "electoralDistricts": [
          {
            "election": null,
            "id": 112,
            "name": "University—Rosedale"
          }
        ],
        "pollDivisionIds": [
          10136374
        ],
        "postalCode": "M6G3V9",
        "streetName": "OSSINGTON",
        "streetDirectionId": null,
        "streetTypeId": "AVE",
        "placeName": "TORONTO",
        "streetNameDisplayText": "OSSINGTON AVE, TORONTO"
      }
    ]
  },
  {
    "postal": "M6G9N7",
    "result": []
  },
  {
    "postal": "M6G0G4",
    "result": []
  },
  {
    "postal": "M6G2E2",
    "result": [
      {
        "electoralDistricts": [
          {
            "election": null,
            "id": 111,
            "name": "Toronto—St. Paul's"
          }
        ],
        "pollDivisionIds": [
          10136066
        ],
        "postalCode": "M6G2E2",
        "streetName": "HILLCREST",
        "streetDirectionId": null,
        "streetTypeId": "DR",
        "placeName": "TORONTO",
        "streetNameDisplayText": "HILLCREST DR, TORONTO"
      }
    ]
  },
  {
    "postal": "M6G7W8",
    "result": []
  },
  {
    "postal": "M6G7M5",
    "result": []
  },
  {
    "postal": "M6G5W8",
    "result": []
  },
  {
    "postal": "M6G5E5",
    "result": []
  },
  {
    "postal": "M6G1P9",
    "result": [
      {
        "electoralDistricts": [
          {
            "election": null,
            "id": 112,
            "name": "University—Rosedale"
          }
        ],
        "pollDivisionIds": [
          10136379
        ],
        "postalCode": "M6G1P9",
        "streetName": "BARTON",
        "streetDirectionId": null,
        "streetTypeId": "AVE",
        "placeName": "TORONTO",
        "streetNameDisplayText": "BARTON AVE, TORONTO"
      }
    ]
  },
  {
    "postal": "M6G8V8",
    "result": []
  },
  {
    "postal": "M6G9G8",
    "result": []
  },
  {
    "postal": "M6G8H9",
    "result": []
  },
  {
    "postal": "M6G1Z1",
    "result": []
  },
  {
    "postal": "M6G8M3",
    "result": []
  },
  {
    "postal": "M6G5H6",
    "result": []
  },
  {
    "postal": "M6G7W7",
    "result": []
  },
  {
    "postal": "M6G4L0",
    "result": []
  },
  {
    "postal": "M6G2N1",
    "result": [
      {
        "electoralDistricts": [
          {
            "election": null,
            "id": 111,
            "name": "Toronto—St. Paul's"
          }
        ],
        "pollDivisionIds": [
          10136028,
          10136064
        ],
        "postalCode": "M6G2N1",
        "streetName": "VAUGHAN",
        "streetDirectionId": null,
        "streetTypeId": "RD",
        "placeName": "TORONTO",
        "streetNameDisplayText": "VAUGHAN RD, TORONTO"
      },
      {
        "electoralDistricts": [
          {
            "election": null,
            "id": 111,
            "name": "Toronto—St. Paul's"
          }
        ],
        "pollDivisionIds": [
          10136064
        ],
        "postalCode": "M6G2N1",
        "streetName": "VAUGHAN RD.",
        "streetDirectionId": null,
        "streetTypeId": "RD",
        "placeName": "TORONTO",
        "streetNameDisplayText": "VAUGHAN RD. RD, TORONTO"
      }
    ]
  },
  {
    "postal": "M6G2H4",
    "result": [
      {
        "electoralDistricts": [
          {
            "election": null,
            "id": 111,
            "name": "Toronto—St. Paul's"
          }
        ],
        "pollDivisionIds": [
          10136065
        ],
        "postalCode": "M6G2H4",
        "streetName": "ILFORD",
        "streetDirectionId": null,
        "streetTypeId": "RD",
        "placeName": "TORONTO",
        "streetNameDisplayText": "ILFORD RD, TORONTO"
      }
    ]
  },
  {
    "postal": "M6G5C8",
    "result": []
  },
  {
    "postal": "M6G8B0",
    "result": []
  },
  {
    "postal": "M6G1T4",
    "result": [
      {
        "electoralDistricts": [
          {
            "election": null,
            "id": 112,
            "name": "University—Rosedale"
          }
        ],
        "pollDivisionIds": [
          10136374
        ],
        "postalCode": "M6G1T4",
        "streetName": "ESSEX",
        "streetDirectionId": null,
        "streetTypeId": "ST",
        "placeName": "TORONTO",
        "streetNameDisplayText": "ESSEX ST, TORONTO"
      }
    ]
  },
  {
    "postal": "M6G7N7",
    "result": []
  },
  {
    "postal": "M6G4L3",
    "result": []
  },
  {
    "postal": "M6G2N2",
    "result": [
      {
        "electoralDistricts": [
          {
            "election": null,
            "id": 111,
            "name": "Toronto—St. Paul's"
          }
        ],
        "pollDivisionIds": [
          10136064,
          10136028
        ],
        "postalCode": "M6G2N2",
        "streetName": "VAUGHAN",
        "streetDirectionId": null,
        "streetTypeId": "RD",
        "placeName": "TORONTO",
        "streetNameDisplayText": "VAUGHAN RD, TORONTO"
      },
      {
        "electoralDistricts": [
          {
            "election": null,
            "id": 111,
            "name": "Toronto—St. Paul's"
          }
        ],
        "pollDivisionIds": [
          10136064
        ],
        "postalCode": "M6G2N2",
        "streetName": "VAUGHAN RD.",
        "streetDirectionId": null,
        "streetTypeId": "RD",
        "placeName": "TORONTO",
        "streetNameDisplayText": "VAUGHAN RD. RD, TORONTO"
      }
    ]
  },
  {
    "postal": "M6G4N8",
    "result": []
  },
  {
    "postal": "M6G3M5",
    "result": [
      {
        "electoralDistricts": [
          {
            "election": null,
            "id": 112,
            "name": "University—Rosedale"
          }
        ],
        "pollDivisionIds": [
          10136374
        ],
        "postalCode": "M6G3M5",
        "streetName": "SHAW",
        "streetDirectionId": null,
        "streetTypeId": "ST",
        "placeName": "TORONTO",
        "streetNameDisplayText": "SHAW ST, TORONTO"
      }
    ]
  },
  {
    "postal": "M6G6H7",
    "result": []
  },
  {
    "postal": "M6G8Y8",
    "result": []
  },
  {
    "postal": "M6G5R9",
    "result": []
  },
  {
    "postal": "M6G8G3",
    "result": []
  },
  {
    "postal": "M6G4N7",
    "result": []
  },
  {
    "postal": "M6G0B9",
    "result": []
  },
  {
    "postal": "M6G9K7",
    "result": []
  },
  {
    "postal": "M6G9K9",
    "result": []
  },
  {
    "postal": "M6G3Z2",
    "result": [
      {
        "electoralDistricts": [
          {
            "election": null,
            "id": 111,
            "name": "Toronto—St. Paul's"
          }
        ],
        "pollDivisionIds": [
          10136067
        ],
        "postalCode": "M6G3Z2",
        "streetName": "MELITA",
        "streetDirectionId": null,
        "streetTypeId": "CRES",
        "placeName": "TORONTO",
        "streetNameDisplayText": "MELITA CRES, TORONTO"
      }
    ]
  },
  {
    "postal": "M6G6W7",
    "result": []
  },
  {
    "postal": "M6G0P1",
    "result": []
  },
  {
    "postal": "M6G3A0",
    "result": []
  },
  {
    "postal": "M6G8L9",
    "result": []
  },
  {
    "postal": "M6G6X0",
    "result": []
  },
  {
    "postal": "M6G3E9",
    "result": [
      {
        "electoralDistricts": [
          {
            "election": null,
            "id": 112,
            "name": "University—Rosedale"
          }
        ],
        "pollDivisionIds": [
          10136376
        ],
        "postalCode": "M6G3E9",
        "streetName": "BEATRICE",
        "streetDirectionId": null,
        "streetTypeId": "ST",
        "placeName": "TORONTO",
        "streetNameDisplayText": "BEATRICE ST, TORONTO"
      }
    ]
  },
  {
    "postal": "M6G0S5",
    "result": []
  },
  {
    "postal": "M6G1A2",
    "result": []
  },
  {
    "postal": "M6G5V8",
    "result": []
  },
  {
    "postal": "M6G8C5",
    "result": []
  },
  {
    "postal": "M6G6N0",
    "result": []
  },
  {
    "postal": "M6G9E6",
    "result": []
  },
  {
    "postal": "M6G5J7",
    "result": []
  },
  {
    "postal": "M6G2R2",
    "result": [
      {
        "electoralDistricts": [
          {
            "election": null,
            "id": 112,
            "name": "University—Rosedale"
          }
        ],
        "pollDivisionIds": [
          10136379
        ],
        "postalCode": "M6G2R2",
        "streetName": "PALMERSTON",
        "streetDirectionId": null,
        "streetTypeId": "AVE",
        "placeName": "TORONTO",
        "streetNameDisplayText": "PALMERSTON AVE, TORONTO"
      }
    ]
  },
  {
    "postal": "M6G0P5",
    "result": []
  },
  {
    "postal": "M6G5A7",
    "result": []
  },
  {
    "postal": "M6G1G1",
    "result": [
      {
        "electoralDistricts": [
          {
            "election": null,
            "id": 112,
            "name": "University—Rosedale"
          }
        ],
        "pollDivisionIds": [
          10136380
        ],
        "postalCode": "M6G1G1",
        "streetName": "HARBORD",
        "streetDirectionId": null,
        "streetTypeId": "ST",
        "placeName": "TORONTO",
        "streetNameDisplayText": "HARBORD ST, TORONTO"
      }
    ]
  },
  {
    "postal": "M6G9R6",
    "result": []
  },
  {
    "postal": "M6G4Z9",
    "result": [
      {
        "electoralDistricts": [
          {
            "election": null,
            "id": 111,
            "name": "Toronto—St. Paul's"
          }
        ],
        "pollDivisionIds": [
          10136028
        ],
        "postalCode": "M6G4Z9",
        "streetName": "EGLINTON",
        "streetDirectionId": "W",
        "streetTypeId": "AVE",
        "placeName": "TORONTO,ON",
        "streetNameDisplayText": "EGLINTON AVE W, TORONTO,ON"
      }
    ]
  },
  {
    "postal": "M6G1V5",
    "result": [
      {
        "electoralDistricts": [
          {
            "election": null,
            "id": 112,
            "name": "University—Rosedale"
          }
        ],
        "pollDivisionIds": [
          10136374
        ],
        "postalCode": "M6G1V5",
        "streetName": "GARNET",
        "streetDirectionId": null,
        "streetTypeId": "AVE",
        "placeName": "TORONTO",
        "streetNameDisplayText": "GARNET AVE, TORONTO"
      }
    ]
  },
  {
    "postal": "M6G9Y5",
    "result": []
  },
  {
    "postal": "M6G1P2",
    "result": [
      {
        "electoralDistricts": [
          {
            "election": null,
            "id": 112,
            "name": "University—Rosedale"
          }
        ],
        "pollDivisionIds": [
          10136379
        ],
        "postalCode": "M6G1P2",
        "streetName": "BARTON",
        "streetDirectionId": null,
        "streetTypeId": "AVE",
        "placeName": "TORONTO",
        "streetNameDisplayText": "BARTON AVE, TORONTO"
      }
    ]
  },
  {
    "postal": "M6G5X0",
    "result": []
  },
  {
    "postal": "M6G7B8",
    "result": []
  },
  {
    "postal": "M6G0C6",
    "result": []
  },
  {
    "postal": "M6G6G1",
    "result": []
  },
  {
    "postal": "M6G3K3",
    "result": [
      {
        "electoralDistricts": [
          {
            "election": null,
            "id": 112,
            "name": "University—Rosedale"
          },
          {
            "election": null,
            "id": 101,
            "name": "Spadina—Fort York"
          }
        ],
        "pollDivisionIds": [
          10136374,
          10143934
        ],
        "postalCode": "M6G3K3",
        "streetName": "CRAWFORD",
        "streetDirectionId": null,
        "streetTypeId": "ST",
        "placeName": "TORONTO",
        "streetNameDisplayText": "CRAWFORD ST, TORONTO"
      }
    ]
  },
  {
    "postal": "M6G9R0",
    "result": []
  },
  {
    "postal": "M6G4R8",
    "result": []
  },
  {
    "postal": "M6G5P9",
    "result": []
  },
  {
    "postal": "M6G8N4",
    "result": []
  },
  {
    "postal": "M6G8H4",
    "result": []
  },
  {
    "postal": "M6G4V1",
    "result": []
  },
  {
    "postal": "M6G1K5",
    "result": [
      {
        "electoralDistricts": [
          {
            "election": null,
            "id": 112,
            "name": "University—Rosedale"
          }
        ],
        "pollDivisionIds": [
          10136380
        ],
        "postalCode": "M6G1K5",
        "streetName": "BLOOR",
        "streetDirectionId": "W",
        "streetTypeId": "ST",
        "placeName": "TORONTO",
        "streetNameDisplayText": "BLOOR ST W, TORONTO"
      }
    ]
  },
  {
    "postal": "M6G1Z5",
    "result": [
      {
        "electoralDistricts": [
          {
            "election": null,
            "id": 111,
            "name": "Toronto—St. Paul's"
          }
        ],
        "pollDivisionIds": [
          10136067
        ],
        "postalCode": "M6G1Z5",
        "streetName": "DUPONT ST",
        "streetDirectionId": null,
        "streetTypeId": "ST",
        "placeName": "TORONTO",
        "streetNameDisplayText": "DUPONT ST ST, TORONTO"
      },
      {
        "electoralDistricts": [
          {
            "election": null,
            "id": 112,
            "name": "University—Rosedale"
          }
        ],
        "pollDivisionIds": [
          10136374
        ],
        "postalCode": "M6G1Z5",
        "streetName": "DUPONT",
        "streetDirectionId": null,
        "streetTypeId": "ST",
        "placeName": "TORONTO",
        "streetNameDisplayText": "DUPONT ST, TORONTO"
      }
    ]
  },
  {
    "postal": "M6G9L9",
    "result": []
  },
  {
    "postal": "M6G5L2",
    "result": []
  },
  {
    "postal": "M6G0M2",
    "result": []
  },
  {
    "postal": "M6G1K8",
    "result": [
      {
        "electoralDistricts": [
          {
            "election": null,
            "id": 112,
            "name": "University—Rosedale"
          }
        ],
        "pollDivisionIds": [
          10136380
        ],
        "postalCode": "M6G1K8",
        "streetName": "BLOOR",
        "streetDirectionId": "W",
        "streetTypeId": "ST",
        "placeName": "TORONTO",
        "streetNameDisplayText": "BLOOR ST W, TORONTO"
      }
    ]
  },
  {
    "postal": "M6G3M7",
    "result": [
      {
        "electoralDistricts": [
          {
            "election": null,
            "id": 112,
            "name": "University—Rosedale"
          }
        ],
        "pollDivisionIds": [
          10136374
        ],
        "postalCode": "M6G3M7",
        "streetName": "SHAW",
        "streetDirectionId": null,
        "streetTypeId": "ST",
        "placeName": "TORONTO",
        "streetNameDisplayText": "SHAW ST, TORONTO"
      }
    ]
  },
  {
    "postal": "M6G1B2",
    "result": [
      {
        "electoralDistricts": [
          {
            "election": null,
            "id": 112,
            "name": "University—Rosedale"
          }
        ],
        "pollDivisionIds": [
          10136381
        ],
        "postalCode": "M6G1B2",
        "streetName": "COLLEGE",
        "streetDirectionId": null,
        "streetTypeId": "ST",
        "placeName": "TORONTO",
        "streetNameDisplayText": "COLLEGE ST, TORONTO"
      }
    ]
  },
  {
    "postal": "M6G0H9",
    "result": []
  },
  {
    "postal": "M6G8M4",
    "result": []
  },
  {
    "postal": "M6G2M5",
    "result": [
      {
        "electoralDistricts": [
          {
            "election": null,
            "id": 112,
            "name": "University—Rosedale"
          }
        ],
        "pollDivisionIds": [
          10136379
        ],
        "postalCode": "M6G2M5",
        "streetName": "MARKHAM",
        "streetDirectionId": null,
        "streetTypeId": "ST",
        "placeName": "TORONTO",
        "streetNameDisplayText": "MARKHAM ST, TORONTO"
      }
    ]
  },
  {
    "postal": "M6G0T9",
    "result": []
  },
  {
    "postal": "M6G3P1",
    "result": [
      {
        "electoralDistricts": [
          {
            "election": null,
            "id": 111,
            "name": "Toronto—St. Paul's"
          }
        ],
        "pollDivisionIds": [
          10136066
        ],
        "postalCode": "M6G3P1",
        "streetName": "SHAW",
        "streetDirectionId": null,
        "streetTypeId": "ST",
        "placeName": "TORONTO",
        "streetNameDisplayText": "SHAW ST, TORONTO"
      }
    ]
  },
  {
    "postal": "M6G1R6",
    "result": [
      {
        "electoralDistricts": [
          {
            "election": null,
            "id": 112,
            "name": "University—Rosedale"
          }
        ],
        "pollDivisionIds": [
          10136374
        ],
        "postalCode": "M6G1R6",
        "streetName": "PENDRITH",
        "streetDirectionId": null,
        "streetTypeId": "ST",
        "placeName": "TORONTO",
        "streetNameDisplayText": "PENDRITH ST, TORONTO"
      }
    ]
  },
  {
    "postal": "M6G9V5",
    "result": []
  },
  {
    "postal": "M6G9T0",
    "result": []
  },
  {
    "postal": "M6G0A9",
    "result": []
  },
  {
    "postal": "M6G1M3",
    "result": [
      {
        "electoralDistricts": [
          {
            "election": null,
            "id": 112,
            "name": "University—Rosedale"
          }
        ],
        "pollDivisionIds": [
          10136375
        ],
        "postalCode": "M6G1M3",
        "streetName": "BLOOR",
        "streetDirectionId": "W",
        "streetTypeId": "ST",
        "placeName": "TORONTO",
        "streetNameDisplayText": "BLOOR ST W, TORONTO"
      }
    ]
  },
  {
    "postal": "M6G1W8",
    "result": [
      {
        "electoralDistricts": [
          {
            "election": null,
            "id": 112,
            "name": "University—Rosedale"
          }
        ],
        "pollDivisionIds": [
          10136378
        ],
        "postalCode": "M6G1W8",
        "streetName": "A YARMOUTH",
        "streetDirectionId": null,
        "streetTypeId": "RD",
        "placeName": "TORONTO",
        "streetNameDisplayText": "A YARMOUTH RD, TORONTO"
      },
      {
        "electoralDistricts": [
          {
            "election": null,
            "id": 112,
            "name": "University—Rosedale"
          }
        ],
        "pollDivisionIds": [
          10136378
        ],
        "postalCode": "M6G1W8",
        "streetName": "YARMOUTH",
        "streetDirectionId": null,
        "streetTypeId": "RD",
        "placeName": "TORONTO",
        "streetNameDisplayText": "YARMOUTH RD, TORONTO"
      }
    ]
  },
  {
    "postal": "M6G9J1",
    "result": []
  },
  {
    "postal": "M6G8N5",
    "result": []
  },
  {
    "postal": "M6G5X1",
    "result": []
  },
  {
    "postal": "M6G6S2",
    "result": []
  },
  {
    "postal": "M6G2A2",
    "result": [
      {
        "electoralDistricts": [
          {
            "election": null,
            "id": 111,
            "name": "Toronto—St. Paul's"
          }
        ],
        "pollDivisionIds": [
          10136067
        ],
        "postalCode": "M6G2A2",
        "streetName": "MELITA",
        "streetDirectionId": null,
        "streetTypeId": "AVE",
        "placeName": "TORONTO",
        "streetNameDisplayText": "MELITA AVE, TORONTO"
      }
    ]
  },
  {
    "postal": "M6G6A6",
    "result": []
  },
  {
    "postal": "M6G0S3",
    "result": []
  },
  {
    "postal": "M6G3E7",
    "result": [
      {
        "electoralDistricts": [
          {
            "election": null,
            "id": 111,
            "name": "Toronto—St. Paul's"
          }
        ],
        "pollDivisionIds": [
          10136065
        ],
        "postalCode": "M6G3E7",
        "streetName": "CHRISTIE",
        "streetDirectionId": null,
        "streetTypeId": "ST",
        "placeName": "TORONTO",
        "streetNameDisplayText": "CHRISTIE ST, TORONTO"
      }
    ]
  },
  {
    "postal": "M6G5R7",
    "result": []
  },
  {
    "postal": "M6G3R6",
    "result": [
      {
        "electoralDistricts": [
          {
            "election": null,
            "id": 112,
            "name": "University—Rosedale"
          }
        ],
        "pollDivisionIds": [
          10136374
        ],
        "postalCode": "M6G3R6",
        "streetName": "ROBLOCKE",
        "streetDirectionId": null,
        "streetTypeId": "AVE",
        "placeName": "TORONTO",
        "streetNameDisplayText": "ROBLOCKE AVE, TORONTO"
      }
    ]
  },
  {
    "postal": "M6G6K4",
    "result": []
  },
  {
    "postal": "M6G2W5",
    "result": [
      {
        "electoralDistricts": [
          {
            "election": null,
            "id": 112,
            "name": "University—Rosedale"
          }
        ],
        "pollDivisionIds": [
          10136379
        ],
        "postalCode": "M6G2W5",
        "streetName": "MANNING",
        "streetDirectionId": null,
        "streetTypeId": "AVE",
        "placeName": "TORONTO",
        "streetNameDisplayText": "MANNING AVE, TORONTO"
      }
    ]
  },
  {
    "postal": "M6G8W4",
    "result": []
  },
  {
    "postal": "M6G9C2",
    "result": []
  },
  {
    "postal": "M6G2C0",
    "result": []
  },
  {
    "postal": "M6G0E1",
    "result": []
  },
  {
    "postal": "M6G1K9",
    "result": [
      {
        "electoralDistricts": [
          {
            "election": null,
            "id": 112,
            "name": "University—Rosedale"
          }
        ],
        "pollDivisionIds": [
          10136379
        ],
        "postalCode": "M6G1K9",
        "streetName": "BLOOR",
        "streetDirectionId": "W",
        "streetTypeId": "ST",
        "placeName": "TORONTO",
        "streetNameDisplayText": "BLOOR ST W, TORONTO"
      }
    ]
  },
  {
    "postal": "M6G1G7",
    "result": [
      {
        "electoralDistricts": [
          {
            "election": null,
            "id": 112,
            "name": "University—Rosedale"
          }
        ],
        "pollDivisionIds": [
          10136380
        ],
        "postalCode": "M6G1G7",
        "streetName": "HARBORD",
        "streetDirectionId": null,
        "streetTypeId": "ST",
        "placeName": "TORONTO",
        "streetNameDisplayText": "HARBORD ST, TORONTO"
      }
    ]
  },
  {
    "postal": "M6G4E9",
    "result": []
  },
  {
    "postal": "M6G9P0",
    "result": []
  },
  {
    "postal": "M6G5H3",
    "result": []
  },
  {
    "postal": "M6G9X6",
    "result": []
  },
  {
    "postal": "M6G5N7",
    "result": []
  },
  {
    "postal": "M6G5A6",
    "result": []
  },
  {
    "postal": "M6G4M0",
    "result": []
  },
  {
    "postal": "M6G3V6",
    "result": [
      {
        "electoralDistricts": [
          {
            "election": null,
            "id": 19,
            "name": "Davenport"
          }
        ],
        "pollDivisionIds": [
          10136092
        ],
        "postalCode": "M6G3V6",
        "streetName": "OSSINGTON",
        "streetDirectionId": null,
        "streetTypeId": "AVE",
        "placeName": "TORONTO",
        "streetNameDisplayText": "OSSINGTON AVE, TORONTO"
      }
    ]
  },
  {
    "postal": "M6G1L7",
    "result": [
      {
        "electoralDistricts": [
          {
            "election": null,
            "id": 112,
            "name": "University—Rosedale"
          }
        ],
        "pollDivisionIds": [
          10136374
        ],
        "postalCode": "M6G1L7",
        "streetName": "BLOOR",
        "streetDirectionId": "W",
        "streetTypeId": "ST",
        "placeName": "TORONTO",
        "streetNameDisplayText": "BLOOR ST W, TORONTO"
      }
    ]
  },
  {
    "postal": "M6G2P9",
    "result": [
      {
        "electoralDistricts": [
          {
            "election": null,
            "id": 112,
            "name": "University—Rosedale"
          }
        ],
        "pollDivisionIds": [
          10136379
        ],
        "postalCode": "M6G2P9",
        "streetName": "PALMERSTON",
        "streetDirectionId": null,
        "streetTypeId": "AVE",
        "placeName": "TORONTO",
        "streetNameDisplayText": "PALMERSTON AVE, TORONTO"
      }
    ]
  },
  {
    "postal": "M6G5T4",
    "result": []
  },
  {
    "postal": "M6G5Z1",
    "result": []
  },
  {
    "postal": "M6G2X0",
    "result": []
  },
  {
    "postal": "M6G6Z2",
    "result": []
  },
  {
    "postal": "M6G0E0",
    "result": []
  },
  {
    "postal": "M6G3Z5",
    "result": [
      {
        "electoralDistricts": [
          {
            "election": null,
            "id": 111,
            "name": "Toronto—St. Paul's"
          }
        ],
        "pollDivisionIds": [
          10136073
        ],
        "postalCode": "M6G3Z5",
        "streetName": "MELITA",
        "streetDirectionId": null,
        "streetTypeId": "CRES",
        "placeName": "TORONTO",
        "streetNameDisplayText": "MELITA CRES, TORONTO"
      }
    ]
  },
  {
    "postal": "M6G8H3",
    "result": []
  },
  {
    "postal": "M6G7S6",
    "result": []
  },
  {
    "postal": "M6G4C1",
    "result": [
      {
        "electoralDistricts": [
          {
            "election": null,
            "id": 112,
            "name": "University—Rosedale"
          }
        ],
        "pollDivisionIds": [
          10136382
        ],
        "postalCode": "M6G4C1",
        "streetName": "COLLEGE",
        "streetDirectionId": null,
        "streetTypeId": "ST",
        "placeName": "TORONTO",
        "streetNameDisplayText": "COLLEGE ST, TORONTO"
      }
    ]
  },
  {
    "postal": "M6G3K2",
    "result": [
      {
        "electoralDistricts": [
          {
            "election": null,
            "id": 112,
            "name": "University—Rosedale"
          }
        ],
        "pollDivisionIds": [
          10136375
        ],
        "postalCode": "M6G3K2",
        "streetName": "CRAWFORD",
        "streetDirectionId": null,
        "streetTypeId": "ST",
        "placeName": "TORONTO",
        "streetNameDisplayText": "CRAWFORD ST, TORONTO"
      }
    ]
  },
  {
    "postal": "M6G1Y5",
    "result": [
      {
        "electoralDistricts": [
          {
            "election": null,
            "id": 112,
            "name": "University—Rosedale"
          }
        ],
        "pollDivisionIds": [
          10136374
        ],
        "postalCode": "M6G1Y5",
        "streetName": "BURNFIELD",
        "streetDirectionId": null,
        "streetTypeId": "AVE",
        "placeName": "TORONTO",
        "streetNameDisplayText": "BURNFIELD AVE, TORONTO"
      }
    ]
  },
  {
    "postal": "M6G6P6",
    "result": []
  },
  {
    "postal": "M6G3N9",
    "result": [
      {
        "electoralDistricts": [
          {
            "election": null,
            "id": 111,
            "name": "Toronto—St. Paul's"
          }
        ],
        "pollDivisionIds": [
          10136066
        ],
        "postalCode": "M6G3N9",
        "streetName": "SHAW",
        "streetDirectionId": null,
        "streetTypeId": "ST",
        "placeName": "TORONTO",
        "streetNameDisplayText": "SHAW ST, TORONTO"
      }
    ]
  },
  {
    "postal": "M6G3W2",
    "result": [
      {
        "electoralDistricts": [
          {
            "election": null,
            "id": 111,
            "name": "Toronto—St. Paul's"
          },
          {
            "election": null,
            "id": 101,
            "name": "Spadina—Fort York"
          }
        ],
        "pollDivisionIds": [
          10136066,
          10141940
        ],
        "postalCode": "M6G3W2",
        "streetName": "OSSINGTON",
        "streetDirectionId": null,
        "streetTypeId": "AVE",
        "placeName": "TORONTO",
        "streetNameDisplayText": "OSSINGTON AVE, TORONTO"
      }
    ]
  },
  {
    "postal": "M6G6H8",
    "result": []
  },
  {
    "postal": "M6G9T3",
    "result": []
  },
  {
    "postal": "M6G5L9",
    "result": []
  },
  {
    "postal": "M6G7X7",
    "result": []
  },
  {
    "postal": "M6G3J5",
    "result": [
      {
        "electoralDistricts": [
          {
            "election": null,
            "id": 111,
            "name": "Toronto—St. Paul's"
          }
        ],
        "pollDivisionIds": [
          10136065
        ],
        "postalCode": "M6G3J5",
        "streetName": "RUSHTON",
        "streetDirectionId": null,
        "streetTypeId": "RD",
        "placeName": "TORONTO",
        "streetNameDisplayText": "RUSHTON RD, TORONTO"
      }
    ]
  },
  {
    "postal": "M6G4J5",
    "result": []
  },
  {
    "postal": "M6G6J2",
    "result": []
  },
  {
    "postal": "M6G5V6",
    "result": []
  },
  {
    "postal": "M6G3N2",
    "result": [
      {
        "electoralDistricts": [
          {
            "election": null,
            "id": 112,
            "name": "University—Rosedale"
          }
        ],
        "pollDivisionIds": [
          10136374
        ],
        "postalCode": "M6G3N2",
        "streetName": "SHAW",
        "streetDirectionId": null,
        "streetTypeId": "ST",
        "placeName": "TORONTO",
        "streetNameDisplayText": "SHAW ST, TORONTO"
      }
    ]
  },
  {
    "postal": "M6G3B1",
    "result": [
      {
        "electoralDistricts": [
          {
            "election": null,
            "id": 112,
            "name": "University—Rosedale"
          }
        ],
        "pollDivisionIds": [
          10136379,
          10136435
        ],
        "postalCode": "M6G3B1",
        "streetName": "CHRISTIE",
        "streetDirectionId": null,
        "streetTypeId": "ST",
        "placeName": "TORONTO",
        "streetNameDisplayText": "CHRISTIE ST, TORONTO"
      }
    ]
  },
  {
    "postal": "M6G8B5",
    "result": []
  },
  {
    "postal": "M6G0K1",
    "result": []
  },
  {
    "postal": "M6G7M7",
    "result": []
  },
  {
    "postal": "M6G2M2",
    "result": [
      {
        "electoralDistricts": [
          {
            "election": null,
            "id": 112,
            "name": "University—Rosedale"
          }
        ],
        "pollDivisionIds": [
          10136379
        ],
        "postalCode": "M6G2M2",
        "streetName": "MARKHAM",
        "streetDirectionId": null,
        "streetTypeId": "ST",
        "placeName": "TORONTO",
        "streetNameDisplayText": "MARKHAM ST, TORONTO"
      }
    ]
  },
  {
    "postal": "M6G9N3",
    "result": []
  },
  {
    "postal": "M6G4Y8",
    "result": []
  },
  {
    "postal": "M6G3V7",
    "result": [
      {
        "electoralDistricts": [
          {
            "election": null,
            "id": 112,
            "name": "University—Rosedale"
          }
        ],
        "pollDivisionIds": [
          10136374
        ],
        "postalCode": "M6G3V7",
        "streetName": "OSSINGTON",
        "streetDirectionId": null,
        "streetTypeId": "AVE",
        "placeName": "TORONTO",
        "streetNameDisplayText": "OSSINGTON AVE, TORONTO"
      }
    ]
  },
  {
    "postal": "M6G8Z1",
    "result": []
  },
  {
    "postal": "M6G7B3",
    "result": []
  },
  {
    "postal": "M6G3A8",
    "result": [
      {
        "electoralDistricts": [
          {
            "election": null,
            "id": 112,
            "name": "University—Rosedale"
          }
        ],
        "pollDivisionIds": [
          10136383
        ],
        "postalCode": "M6G3A8",
        "streetName": "GARNET",
        "streetDirectionId": null,
        "streetTypeId": "AVE",
        "placeName": "TORONTO",
        "streetNameDisplayText": "GARNET AVE, TORONTO"
      },
      {
        "electoralDistricts": [
          {
            "election": null,
            "id": 112,
            "name": "University—Rosedale"
          }
        ],
        "pollDivisionIds": [
          10136375
        ],
        "postalCode": "M6G3A8",
        "streetName": "GRACE",
        "streetDirectionId": null,
        "streetTypeId": "ST",
        "placeName": "TORONTO",
        "streetNameDisplayText": "GRACE ST, TORONTO"
      }
    ]
  },
  {
    "postal": "M6G7V5",
    "result": []
  },
  {
    "postal": "M6G2T2",
    "result": [
      {
        "electoralDistricts": [
          {
            "election": null,
            "id": 112,
            "name": "University—Rosedale"
          }
        ],
        "pollDivisionIds": [
          10136380
        ],
        "postalCode": "M6G2T2",
        "streetName": "EUCLID",
        "streetDirectionId": null,
        "streetTypeId": "AVE",
        "placeName": "TORONTO",
        "streetNameDisplayText": "EUCLID AVE, TORONTO"
      }
    ]
  },
  {
    "postal": "M6G6L3",
    "result": []
  },
  {
    "postal": "M6G0L2",
    "result": []
  },
  {
    "postal": "M6G5Y8",
    "result": []
  },
  {
    "postal": "M6G0B8",
    "result": []
  },
  {
    "postal": "M6G6R5",
    "result": []
  },
  {
    "postal": "M6G8W6",
    "result": []
  },
  {
    "postal": "M6G8G6",
    "result": []
  },
  {
    "postal": "M6G6X3",
    "result": []
  },
  {
    "postal": "M6G7R7",
    "result": []
  },
  {
    "postal": "M6G4B6",
    "result": [
      {
        "electoralDistricts": [
          {
            "election": null,
            "id": 111,
            "name": "Toronto—St. Paul's"
          }
        ],
        "pollDivisionIds": [
          10136066
        ],
        "postalCode": "M6G4B6",
        "streetName": "MINHO",
        "streetDirectionId": null,
        "streetTypeId": "BLVD",
        "placeName": "TORONTO",
        "streetNameDisplayText": "MINHO BLVD, TORONTO"
      }
    ]
  },
  {
    "postal": "M6G3P9",
    "result": [
      {
        "electoralDistricts": [
          {
            "election": null,
            "id": 112,
            "name": "University—Rosedale"
          }
        ],
        "pollDivisionIds": [
          10136376
        ],
        "postalCode": "M6G3P9",
        "streetName": "ROXTON",
        "streetDirectionId": null,
        "streetTypeId": "RD",
        "placeName": "TORONTO",
        "streetNameDisplayText": "ROXTON RD, TORONTO"
      }
    ]
  },
  {
    "postal": "M6G2T3",
    "result": [
      {
        "electoralDistricts": [
          {
            "election": null,
            "id": 112,
            "name": "University—Rosedale"
          }
        ],
        "pollDivisionIds": [
          10136380,
          10136382
        ],
        "postalCode": "M6G2T3",
        "streetName": "EUCLID",
        "streetDirectionId": null,
        "streetTypeId": "AVE",
        "placeName": "TORONTO",
        "streetNameDisplayText": "EUCLID AVE, TORONTO"
      }
    ]
  },
  {
    "postal": "M6G1M4",
    "result": [
      {
        "electoralDistricts": [
          {
            "election": null,
            "id": 112,
            "name": "University—Rosedale"
          }
        ],
        "pollDivisionIds": [
          10136375
        ],
        "postalCode": "M6G1M4",
        "streetName": "BLOOR",
        "streetDirectionId": "W",
        "streetTypeId": "ST",
        "placeName": "TORONTO",
        "streetNameDisplayText": "BLOOR ST W, TORONTO"
      }
    ]
  },
  {
    "postal": "M6G0H1",
    "result": []
  },
  {
    "postal": "M6G9W3",
    "result": []
  },
  {
    "postal": "M6G6P1",
    "result": []
  },
  {
    "postal": "M6G7G2",
    "result": []
  },
  {
    "postal": "M6G4J9",
    "result": []
  },
  {
    "postal": "M6G9E4",
    "result": []
  },
  {
    "postal": "M6G8H0",
    "result": []
  },
  {
    "postal": "M6G4M7",
    "result": []
  },
  {
    "postal": "M6G2G9",
    "result": [
      {
        "electoralDistricts": [
          {
            "election": null,
            "id": 19,
            "name": "Davenport"
          }
        ],
        "pollDivisionIds": [
          10136087
        ],
        "postalCode": "M6G2G9",
        "streetName": "TYRREL",
        "streetDirectionId": null,
        "streetTypeId": "AVE",
        "placeName": "TORONTO",
        "streetNameDisplayText": "TYRREL AVE, TORONTO"
      }
    ]
  },
  {
    "postal": "M6G8T2",
    "result": []
  },
  {
    "postal": "M6G7G7",
    "result": []
  },
  {
    "postal": "M6G4Z3",
    "result": []
  },
  {
    "postal": "M6G5B3",
    "result": []
  },
  {
    "postal": "M6G1S7",
    "result": [
      {
        "electoralDistricts": [
          {
            "election": null,
            "id": 112,
            "name": "University—Rosedale"
          }
        ],
        "pollDivisionIds": [
          10136379
        ],
        "postalCode": "M6G1S7",
        "streetName": "FOLLIS",
        "streetDirectionId": null,
        "streetTypeId": "AVE",
        "placeName": "TORONTO",
        "streetNameDisplayText": "FOLLIS AVE, TORONTO"
      }
    ]
  },
  {
    "postal": "M6G2N7",
    "result": [
      {
        "electoralDistricts": [
          {
            "election": null,
            "id": 112,
            "name": "University—Rosedale"
          }
        ],
        "pollDivisionIds": [
          10136380
        ],
        "postalCode": "M6G2N7",
        "streetName": "PALMERSTON",
        "streetDirectionId": null,
        "streetTypeId": "BLVD",
        "placeName": "TORONTO",
        "streetNameDisplayText": "PALMERSTON BLVD, TORONTO"
      }
    ]
  },
  {
    "postal": "M6G0H8",
    "result": []
  },
  {
    "postal": "M6G7Z4",
    "result": []
  },
  {
    "postal": "M6G7B1",
    "result": []
  },
  {
    "postal": "M6G7P8",
    "result": []
  },
  {
    "postal": "M6G7N0",
    "result": []
  },
  {
    "postal": "M6G3Y5",
    "result": [
      {
        "electoralDistricts": [
          {
            "election": null,
            "id": 112,
            "name": "University—Rosedale"
          }
        ],
        "pollDivisionIds": [
          10136380
        ],
        "postalCode": "M6G3Y5",
        "streetName": "HERRICK",
        "streetDirectionId": null,
        "streetTypeId": "ST",
        "placeName": "TORONTO",
        "streetNameDisplayText": "HERRICK ST, TORONTO"
      }
    ]
  },
  {
    "postal": "M6G6K1",
    "result": []
  },
  {
    "postal": "M6G9X5",
    "result": []
  },
  {
    "postal": "M6G7S5",
    "result": []
  },
  {
    "postal": "M6G0A4",
    "result": []
  },
  {
    "postal": "M6G4T5",
    "result": []
  },
  {
    "postal": "M6G5K1",
    "result": []
  },
  {
    "postal": "M6G0Z9",
    "result": []
  },
  {
    "postal": "M6G7T2",
    "result": []
  },
  {
    "postal": "M6G1L5",
    "result": [
      {
        "electoralDistricts": [
          {
            "election": null,
            "id": 112,
            "name": "University—Rosedale"
          }
        ],
        "pollDivisionIds": [
          10136402
        ],
        "postalCode": "M6G1L5",
        "streetName": "BLOOR",
        "streetDirectionId": "E",
        "streetTypeId": "ST",
        "placeName": "TORONTO",
        "streetNameDisplayText": "BLOOR ST E, TORONTO"
      },
      {
        "electoralDistricts": [
          {
            "election": null,
            "id": 112,
            "name": "University—Rosedale"
          }
        ],
        "pollDivisionIds": [
          10136375
        ],
        "postalCode": "M6G1L5",
        "streetName": "BLOOR",
        "streetDirectionId": "W",
        "streetTypeId": "ST",
        "placeName": "TORONTO",
        "streetNameDisplayText": "BLOOR ST W, TORONTO"
      }
    ]
  },
  {
    "postal": "M6G3N5",
    "result": [
      {
        "electoralDistricts": [
          {
            "election": null,
            "id": 112,
            "name": "University—Rosedale"
          }
        ],
        "pollDivisionIds": [
          10136374
        ],
        "postalCode": "M6G3N5",
        "streetName": "SHAW",
        "streetDirectionId": null,
        "streetTypeId": "ST",
        "placeName": "TORONTO",
        "streetNameDisplayText": "SHAW ST, TORONTO"
      }
    ]
  },
  {
    "postal": "M6G6H4",
    "result": []
  },
  {
    "postal": "M6G5A5",
    "result": []
  },
  {
    "postal": "M6G3R9",
    "result": [
      {
        "electoralDistricts": [
          {
            "election": null,
            "id": 112,
            "name": "University—Rosedale"
          }
        ],
        "pollDivisionIds": [
          10136374
        ],
        "postalCode": "M6G3R9",
        "streetName": "CARLING",
        "streetDirectionId": null,
        "streetTypeId": "AVE",
        "placeName": "TORONTO",
        "streetNameDisplayText": "CARLING AVE, TORONTO"
      }
    ]
  },
  {
    "postal": "M6G7L8",
    "result": []
  },
  {
    "postal": "M6G6T6",
    "result": []
  },
  {
    "postal": "M6G7Y7",
    "result": []
  },
  {
    "postal": "M6G3M8",
    "result": [
      {
        "electoralDistricts": [
          {
            "election": null,
            "id": 112,
            "name": "University—Rosedale"
          }
        ],
        "pollDivisionIds": [
          10136374
        ],
        "postalCode": "M6G3M8",
        "streetName": "SHAW",
        "streetDirectionId": null,
        "streetTypeId": "ST",
        "placeName": "TORONTO",
        "streetNameDisplayText": "SHAW ST, TORONTO"
      }
    ]
  },
  {
    "postal": "M6G2E0",
    "result": []
  },
  {
    "postal": "M6G4B5",
    "result": [
      {
        "electoralDistricts": [
          {
            "election": null,
            "id": 111,
            "name": "Toronto—St. Paul's"
          }
        ],
        "pollDivisionIds": [
          10136066
        ],
        "postalCode": "M6G4B5",
        "streetName": "MINHO",
        "streetDirectionId": null,
        "streetTypeId": "BLVD",
        "placeName": "TORONTO",
        "streetNameDisplayText": "MINHO BLVD, TORONTO"
      }
    ]
  },
  {
    "postal": "M6G1J3",
    "result": [
      {
        "electoralDistricts": [
          {
            "election": null,
            "id": 112,
            "name": "University—Rosedale"
          }
        ],
        "pollDivisionIds": [
          10136375
        ],
        "postalCode": "M6G1J3",
        "streetName": "PAGE",
        "streetDirectionId": null,
        "streetTypeId": "ST",
        "placeName": "TORONTO",
        "streetNameDisplayText": "PAGE ST, TORONTO"
      }
    ]
  },
  {
    "postal": "M6G5S6",
    "result": []
  },
  {
    "postal": "M6G8P7",
    "result": []
  },
  {
    "postal": "M6G7S7",
    "result": []
  },
  {
    "postal": "M6G4C2",
    "result": [
      {
        "electoralDistricts": [
          {
            "election": null,
            "id": 112,
            "name": "University—Rosedale"
          }
        ],
        "pollDivisionIds": [
          10136374
        ],
        "postalCode": "M6G4C2",
        "streetName": "ST RAYMOND",
        "streetDirectionId": null,
        "streetTypeId": "HTS",
        "placeName": "TORONTO",
        "streetNameDisplayText": "ST RAYMOND HTS, TORONTO"
      }
    ]
  },
  {
    "postal": "M6G5Y0",
    "result": []
  },
  {
    "postal": "M6G2V7",
    "result": [
      {
        "electoralDistricts": [
          {
            "election": null,
            "id": 112,
            "name": "University—Rosedale"
          }
        ],
        "pollDivisionIds": [
          10136380,
          10136381
        ],
        "postalCode": "M6G2V7",
        "streetName": "MANNING",
        "streetDirectionId": null,
        "streetTypeId": "AVE",
        "placeName": "TORONTO",
        "streetNameDisplayText": "MANNING AVE, TORONTO"
      }
    ]
  },
  {
    "postal": "M6G8P5",
    "result": []
  },
  {
    "postal": "M6G5P5",
    "result": []
  },
  {
    "postal": "M6G5Z0",
    "result": []
  },
  {
    "postal": "M6G9B0",
    "result": []
  },
  {
    "postal": "M6G1L0",
    "result": []
  },
  {
    "postal": "M6G0B5",
    "result": []
  },
  {
    "postal": "M6G3L2",
    "result": [
      {
        "electoralDistricts": [
          {
            "election": null,
            "id": 111,
            "name": "Toronto—St. Paul's"
          }
        ],
        "pollDivisionIds": [
          10136065
        ],
        "postalCode": "M6G3L2",
        "streetName": "ARLINGTON",
        "streetDirectionId": null,
        "streetTypeId": "AVE",
        "placeName": "TORONTO",
        "streetNameDisplayText": "ARLINGTON AVE, TORONTO"
      }
    ]
  },
  {
    "postal": "M6G3B7",
    "result": [
      {
        "electoralDistricts": [
          {
            "election": null,
            "id": 112,
            "name": "University—Rosedale"
          }
        ],
        "pollDivisionIds": [
          10136374
        ],
        "postalCode": "M6G3B7",
        "streetName": "CHRISTIE",
        "streetDirectionId": null,
        "streetTypeId": "ST",
        "placeName": "TORONTO",
        "streetNameDisplayText": "CHRISTIE ST, TORONTO"
      }
    ]
  },
  {
    "postal": "M6G8L1",
    "result": []
  },
  {
    "postal": "M6G5M4",
    "result": []
  },
  {
    "postal": "M6G4G9",
    "result": []
  },
  {
    "postal": "M6G0P0",
    "result": []
  },
  {
    "postal": "M6G8G2",
    "result": []
  },
  {
    "postal": "M6G1V9",
    "result": [
      {
        "electoralDistricts": [
          {
            "election": null,
            "id": 112,
            "name": "University—Rosedale"
          }
        ],
        "pollDivisionIds": [
          10136378
        ],
        "postalCode": "M6G1V9",
        "streetName": "PALMERSTON",
        "streetDirectionId": null,
        "streetTypeId": "GDN",
        "placeName": "TORONTO",
        "streetNameDisplayText": "PALMERSTON GDN, TORONTO"
      },
      {
        "electoralDistricts": [
          {
            "election": null,
            "id": 112,
            "name": "University—Rosedale"
          }
        ],
        "pollDivisionIds": [
          10136378
        ],
        "postalCode": "M6G1V9",
        "streetName": "PALMERSTON",
        "streetDirectionId": null,
        "streetTypeId": "GDNS",
        "placeName": "TORONTO",
        "streetNameDisplayText": "PALMERSTON GDNS, TORONTO"
      }
    ]
  },
  {
    "postal": "M6G8N8",
    "result": []
  },
  {
    "postal": "M6G6S8",
    "result": []
  },
  {
    "postal": "M6G8H2",
    "result": []
  },
  {
    "postal": "M6G5R8",
    "result": []
  },
  {
    "postal": "M6G5L4",
    "result": []
  },
  {
    "postal": "M6G9E1",
    "result": []
  },
  {
    "postal": "M6G1C4",
    "result": [
      {
        "electoralDistricts": [
          {
            "election": null,
            "id": 112,
            "name": "University—Rosedale"
          }
        ],
        "pollDivisionIds": [
          10136376
        ],
        "postalCode": "M6G1C4",
        "streetName": "COLLEGE",
        "streetDirectionId": null,
        "streetTypeId": "ST",
        "placeName": "TORONTO",
        "streetNameDisplayText": "COLLEGE ST, TORONTO"
      }
    ]
  },
  {
    "postal": "M6G8W5",
    "result": []
  },
  {
    "postal": "M6G1Y4",
    "result": [
      {
        "electoralDistricts": [
          {
            "election": null,
            "id": 112,
            "name": "University—Rosedale"
          }
        ],
        "pollDivisionIds": [
          10136374
        ],
        "postalCode": "M6G1Y4",
        "streetName": "BURNFIELD",
        "streetDirectionId": null,
        "streetTypeId": "AVE",
        "placeName": "TORONTO",
        "streetNameDisplayText": "BURNFIELD AVE, TORONTO"
      }
    ]
  },
  {
    "postal": "M6G1C0",
    "result": []
  },
  {
    "postal": "M6G2J2",
    "result": [
      {
        "electoralDistricts": [
          {
            "election": null,
            "id": 111,
            "name": "Toronto—St. Paul's"
          }
        ],
        "pollDivisionIds": [
          10136065
        ],
        "postalCode": "M6G2J2",
        "streetName": "BENSON",
        "streetDirectionId": null,
        "streetTypeId": "AVE",
        "placeName": "TORONTO",
        "streetNameDisplayText": "BENSON AVE, TORONTO"
      }
    ]
  },
  {
    "postal": "M6G2J0",
    "result": []
  },
  {
    "postal": "M6G7A3",
    "result": []
  },
  {
    "postal": "M6G8M1",
    "result": []
  },
  {
    "postal": "M6G7T9",
    "result": []
  },
  {
    "postal": "M6G6C0",
    "result": []
  },
  {
    "postal": "M6G7X1",
    "result": []
  },
  {
    "postal": "M6G0G1",
    "result": []
  },
  {
    "postal": "M6G4X2",
    "result": []
  },
  {
    "postal": "M6G0N6",
    "result": []
  },
  {
    "postal": "M6G8E3",
    "result": []
  },
  {
    "postal": "M6G5S8",
    "result": []
  },
  {
    "postal": "M6G0R0",
    "result": []
  },
  {
    "postal": "M6G6J6",
    "result": []
  },
  {
    "postal": "M6G4B4",
    "result": [
      {
        "electoralDistricts": [
          {
            "election": null,
            "id": 111,
            "name": "Toronto—St. Paul's"
          }
        ],
        "pollDivisionIds": [
          10136066
        ],
        "postalCode": "M6G4B4",
        "streetName": "ACORES",
        "streetDirectionId": null,
        "streetTypeId": "AVE",
        "placeName": "TORONTO",
        "streetNameDisplayText": "ACORES AVE, TORONTO"
      }
    ]
  },
  {
    "postal": "M6G7E3",
    "result": []
  },
  {
    "postal": "M6G3N6",
    "result": [
      {
        "electoralDistricts": [
          {
            "election": null,
            "id": 111,
            "name": "Toronto—St. Paul's"
          }
        ],
        "pollDivisionIds": [
          10136066
        ],
        "postalCode": "M6G3N6",
        "streetName": "SHAW",
        "streetDirectionId": null,
        "streetTypeId": "ST",
        "placeName": "TORONTO",
        "streetNameDisplayText": "SHAW ST, TORONTO"
      }
    ]
  },
  {
    "postal": "M6G3X6",
    "result": [
      {
        "electoralDistricts": [
          {
            "election": null,
            "id": 111,
            "name": "Toronto—St. Paul's"
          }
        ],
        "pollDivisionIds": [
          10136067
        ],
        "postalCode": "M6G3X6",
        "streetName": "MELITA",
        "streetDirectionId": null,
        "streetTypeId": "CRES",
        "placeName": "TORONTO",
        "streetNameDisplayText": "MELITA CRES, TORONTO"
      }
    ]
  },
  {
    "postal": "M6G8L0",
    "result": []
  },
  {
    "postal": "M6G8N1",
    "result": []
  },
  {
    "postal": "M6G4J0",
    "result": []
  },
  {
    "postal": "M6G0X7",
    "result": []
  },
  {
    "postal": "M6G6S4",
    "result": []
  },
  {
    "postal": "M6G0Z0",
    "result": []
  },
  {
    "postal": "M6G9X8",
    "result": []
  },
  {
    "postal": "M6G3H3",
    "result": [
      {
        "electoralDistricts": [
          {
            "election": null,
            "id": 112,
            "name": "University—Rosedale"
          }
        ],
        "pollDivisionIds": [
          10136374
        ],
        "postalCode": "M6G3H3",
        "streetName": "MILES",
        "streetDirectionId": null,
        "streetTypeId": "PL",
        "placeName": "TORONTO",
        "streetNameDisplayText": "MILES PL, TORONTO"
      }
    ]
  },
  {
    "postal": "M6G7S2",
    "result": []
  },
  {
    "postal": "M6G3T3",
    "result": [
      {
        "electoralDistricts": [
          {
            "election": null,
            "id": 112,
            "name": "University—Rosedale"
          }
        ],
        "pollDivisionIds": [
          10136376
        ],
        "postalCode": "M6G3T3",
        "streetName": "OSSINGTON",
        "streetDirectionId": null,
        "streetTypeId": "AVE",
        "placeName": "TORONTO",
        "streetNameDisplayText": "OSSINGTON AVE, TORONTO"
      }
    ]
  },
  {
    "postal": "M6G9P3",
    "result": []
  },
  {
    "postal": "M6G4H8",
    "result": []
  },
  {
    "postal": "M6G6R1",
    "result": []
  },
  {
    "postal": "M6G1S0",
    "result": []
  },
  {
    "postal": "M6G3W8",
    "result": []
  },
  {
    "postal": "M6G4S3",
    "result": []
  },
  {
    "postal": "M6G1B6",
    "result": [
      {
        "electoralDistricts": [
          {
            "election": null,
            "id": 112,
            "name": "University—Rosedale"
          }
        ],
        "pollDivisionIds": [
          10136381
        ],
        "postalCode": "M6G1B6",
        "streetName": "COLLEGE",
        "streetDirectionId": null,
        "streetTypeId": "ST",
        "placeName": "TORONTO",
        "streetNameDisplayText": "COLLEGE ST, TORONTO"
      }
    ]
  },
  {
    "postal": "M6G8R3",
    "result": []
  },
  {
    "postal": "M6G4V9",
    "result": []
  },
  {
    "postal": "M6G9W4",
    "result": []
  },
  {
    "postal": "M6G3T4",
    "result": [
      {
        "electoralDistricts": [
          {
            "election": null,
            "id": 112,
            "name": "University—Rosedale"
          }
        ],
        "pollDivisionIds": [
          10136376,
          10136375
        ],
        "postalCode": "M6G3T4",
        "streetName": "OSSINGTON",
        "streetDirectionId": null,
        "streetTypeId": "AVE",
        "placeName": "TORONTO",
        "streetNameDisplayText": "OSSINGTON AVE, TORONTO"
      }
    ]
  },
  {
    "postal": "M6G5C7",
    "result": []
  },
  {
    "postal": "M6G3Y1",
    "result": [
      {
        "electoralDistricts": [
          {
            "election": null,
            "id": 111,
            "name": "Toronto—St. Paul's"
          }
        ],
        "pollDivisionIds": [
          10136066
        ],
        "postalCode": "M6G3Y1",
        "streetName": "MELITA",
        "streetDirectionId": null,
        "streetTypeId": "CRES",
        "placeName": "TORONTO",
        "streetNameDisplayText": "MELITA CRES, TORONTO"
      }
    ]
  },
  {
    "postal": "M6G5V0",
    "result": []
  },
  {
    "postal": "M6G8G8",
    "result": []
  },
  {
    "postal": "M6G8B1",
    "result": []
  },
  {
    "postal": "M6G4P5",
    "result": []
  },
  {
    "postal": "M6G7B2",
    "result": []
  },
  {
    "postal": "M6G0R2",
    "result": []
  },
  {
    "postal": "M6G4M4",
    "result": []
  },
  {
    "postal": "M6G7M4",
    "result": []
  },
  {
    "postal": "M6G9S7",
    "result": []
  },
  {
    "postal": "M6G5Z7",
    "result": []
  },
  {
    "postal": "M6G7J7",
    "result": []
  },
  {
    "postal": "M6G8R8",
    "result": []
  },
  {
    "postal": "M6G9X1",
    "result": []
  },
  {
    "postal": "M6G5M9",
    "result": []
  },
  {
    "postal": "M6G9B4",
    "result": []
  },
  {
    "postal": "M6G0L9",
    "result": []
  },
  {
    "postal": "M6G9G4",
    "result": []
  },
  {
    "postal": "M6G1J4",
    "result": [
      {
        "electoralDistricts": [
          {
            "election": null,
            "id": 112,
            "name": "University—Rosedale"
          }
        ],
        "pollDivisionIds": [
          10136380
        ],
        "postalCode": "M6G1J4",
        "streetName": "LENNOX",
        "streetDirectionId": null,
        "streetTypeId": "ST",
        "placeName": "TORONTO",
        "streetNameDisplayText": "LENNOX ST, TORONTO"
      }
    ]
  },
  {
    "postal": "M6G0W6",
    "result": []
  }
]
