[
  {
    "postal": "K7A9J6",
    "result": []
  },
  {
    "postal": "K7A9Z5",
    "result": []
  },
  {
    "postal": "K7A7H8",
    "result": []
  },
  {
    "postal": "K7A0P6",
    "result": []
  },
  {
    "postal": "K7A0S7",
    "result": []
  },
  {
    "postal": "K7A8B9",
    "result": []
  },
  {
    "postal": "K7A2A6",
    "result": [
      {
        "electoralDistricts": [
          {
            "election": null,
            "id": 51,
            "name": "Lanark—Frontenac—Kingston"
          }
        ],
        "pollDivisionIds": [
          10139418
        ],
        "postalCode": "K7A2A6",
        "streetName": "MAPLE",
        "streetDirectionId": null,
        "streetTypeId": "AVE",
        "placeName": "SMITHS FALLS",
        "streetNameDisplayText": "MAPLE AVE, SMITHS FALLS"
      }
    ]
  },
  {
    "postal": "K7A7V2",
    "result": []
  },
  {
    "postal": "K7A9P4",
    "result": []
  },
  {
    "postal": "K7A6G0",
    "result": []
  },
  {
    "postal": "K7A2K0",
    "result": []
  },
  {
    "postal": "K7A7N6",
    "result": []
  },
  {
    "postal": "K7A5R3",
    "result": []
  },
  {
    "postal": "K7A7K0",
    "result": []
  },
  {
    "postal": "K7A3R2",
    "result": [
      {
        "electoralDistricts": [
          {
            "election": null,
            "id": 51,
            "name": "Lanark—Frontenac—Kingston"
          }
        ],
        "pollDivisionIds": [
          10139419
        ],
        "postalCode": "K7A3R2",
        "streetName": "MARY",
        "streetDirectionId": "S",
        "streetTypeId": "ST",
        "placeName": "SMITHS FALLS",
        "streetNameDisplayText": "MARY ST S, SMITHS FALLS"
      }
    ]
  },
  {
    "postal": "K7A0J1",
    "result": []
  },
  {
    "postal": "K7A0B0",
    "result": []
  },
  {
    "postal": "K7A5Z2",
    "result": []
  },
  {
    "postal": "K7A7P3",
    "result": []
  },
  {
    "postal": "K7A2K3",
    "result": [
      {
        "electoralDistricts": [
          {
            "election": null,
            "id": 51,
            "name": "Lanark—Frontenac—Kingston"
          }
        ],
        "pollDivisionIds": [
          10139418
        ],
        "postalCode": "K7A2K3",
        "streetName": "MCEWEN",
        "streetDirectionId": null,
        "streetTypeId": "AVE",
        "placeName": "SMITHS FALLS",
        "streetNameDisplayText": "MCEWEN AVE, SMITHS FALLS"
      }
    ]
  },
  {
    "postal": "K7A7Y6",
    "result": []
  },
  {
    "postal": "K7A1L9",
    "result": []
  },
  {
    "postal": "K7A8T0",
    "result": []
  },
  {
    "postal": "K7A3K8",
    "result": [
      {
        "electoralDistricts": [
          {
            "election": null,
            "id": 51,
            "name": "Lanark—Frontenac—Kingston"
          }
        ],
        "pollDivisionIds": [
          10139419
        ],
        "postalCode": "K7A3K8",
        "streetName": "LORNE",
        "streetDirectionId": null,
        "streetTypeId": "ST",
        "placeName": "SMITHS FALLS",
        "streetNameDisplayText": "LORNE ST, SMITHS FALLS"
      }
    ]
  },
  {
    "postal": "K7A5W9",
    "result": []
  },
  {
    "postal": "K7A6T9",
    "result": []
  },
  {
    "postal": "K7A4H1",
    "result": [
      {
        "electoralDistricts": [
          {
            "election": null,
            "id": 51,
            "name": "Lanark—Frontenac—Kingston"
          }
        ],
        "pollDivisionIds": [
          10139430
        ],
        "postalCode": "K7A4H1",
        "streetName": "ELM",
        "streetDirectionId": "W",
        "streetTypeId": "ST",
        "placeName": "SMITHS FALLS",
        "streetNameDisplayText": "ELM ST W, SMITHS FALLS"
      }
    ]
  },
  {
    "postal": "K7A7A2",
    "result": []
  },
  {
    "postal": "K7A5G0",
    "result": []
  },
  {
    "postal": "K7A8V5",
    "result": []
  },
  {
    "postal": "K7A2Y8",
    "result": [
      {
        "electoralDistricts": [
          {
            "election": null,
            "id": 51,
            "name": "Lanark—Frontenac—Kingston"
          }
        ],
        "pollDivisionIds": [
          10139419
        ],
        "postalCode": "K7A2Y8",
        "streetName": "CHAMBERS",
        "streetDirectionId": null,
        "streetTypeId": "ST",
        "placeName": "SMITHS FALLS",
        "streetNameDisplayText": "CHAMBERS ST, SMITHS FALLS"
      }
    ]
  },
  {
    "postal": "K7A2B6",
    "result": [
      {
        "electoralDistricts": [
          {
            "election": null,
            "id": 51,
            "name": "Lanark—Frontenac—Kingston"
          }
        ],
        "pollDivisionIds": [
          10139418,
          10139419
        ],
        "postalCode": "K7A2B6",
        "streetName": "BECKWITH",
        "streetDirectionId": "N",
        "streetTypeId": "ST",
        "placeName": "SMITHS FALLS",
        "streetNameDisplayText": "BECKWITH ST N, SMITHS FALLS"
      }
    ]
  },
  {
    "postal": "K7A4W8",
    "result": [
      {
        "electoralDistricts": [
          {
            "election": null,
            "id": 51,
            "name": "Lanark—Frontenac—Kingston"
          }
        ],
        "pollDivisionIds": [
          10139430
        ],
        "postalCode": "K7A4W8",
        "streetName": "PERCY",
        "streetDirectionId": null,
        "streetTypeId": "ST",
        "placeName": "SMITHS FALLS",
        "streetNameDisplayText": "PERCY ST, SMITHS FALLS"
      }
    ]
  },
  {
    "postal": "K7A8H7",
    "result": []
  },
  {
    "postal": "K7A5P1",
    "result": []
  },
  {
    "postal": "K7A2B8",
    "result": [
      {
        "electoralDistricts": [
          {
            "election": null,
            "id": 51,
            "name": "Lanark—Frontenac—Kingston"
          }
        ],
        "pollDivisionIds": [
          10139418
        ],
        "postalCode": "K7A2B8",
        "streetName": "BECKWITH",
        "streetDirectionId": "N",
        "streetTypeId": "ST",
        "placeName": "SMITHS FALLS",
        "streetNameDisplayText": "BECKWITH ST N, SMITHS FALLS"
      }
    ]
  },
  {
    "postal": "K7A0P2",
    "result": []
  },
  {
    "postal": "K7A9M1",
    "result": []
  },
  {
    "postal": "K7A3G0",
    "result": []
  },
  {
    "postal": "K7A9Z2",
    "result": []
  },
  {
    "postal": "K7A2A0",
    "result": []
  },
  {
    "postal": "K7A6Y0",
    "result": []
  },
  {
    "postal": "K7A2Z8",
    "result": [
      {
        "electoralDistricts": [
          {
            "election": null,
            "id": 51,
            "name": "Lanark—Frontenac—Kingston"
          }
        ],
        "pollDivisionIds": [
          10139418
        ],
        "postalCode": "K7A2Z8",
        "streetName": "CHAMBERS",
        "streetDirectionId": null,
        "streetTypeId": "ST",
        "placeName": "SMITHS FALLS",
        "streetNameDisplayText": "CHAMBERS ST, SMITHS FALLS"
      },
      {
        "electoralDistricts": [
          {
            "election": null,
            "id": 51,
            "name": "Lanark—Frontenac—Kingston"
          }
        ],
        "pollDivisionIds": [
          10139419
        ],
        "postalCode": "K7A2Z8",
        "streetName": "MATHESON",
        "streetDirectionId": null,
        "streetTypeId": "DR",
        "placeName": "SMITHS FALLS",
        "streetNameDisplayText": "MATHESON DR, SMITHS FALLS"
      }
    ]
  },
  {
    "postal": "K7A7Y3",
    "result": []
  },
  {
    "postal": "K7A6Z5",
    "result": []
  },
  {
    "postal": "K7A6E0",
    "result": []
  },
  {
    "postal": "K7A9B7",
    "result": []
  },
  {
    "postal": "K7A9S5",
    "result": []
  },
  {
    "postal": "K7A3X3",
    "result": [
      {
        "electoralDistricts": [
          {
            "election": null,
            "id": 51,
            "name": "Lanark—Frontenac—Kingston"
          }
        ],
        "pollDivisionIds": [
          10139430
        ],
        "postalCode": "K7A3X3",
        "streetName": "MARSHA",
        "streetDirectionId": null,
        "streetTypeId": "DR",
        "placeName": "SMITHS FALLS",
        "streetNameDisplayText": "MARSHA DR, SMITHS FALLS"
      }
    ]
  },
  {
    "postal": "K7A7R5",
    "result": []
  },
  {
    "postal": "K7A2X3",
    "result": [
      {
        "electoralDistricts": [
          {
            "election": null,
            "id": 51,
            "name": "Lanark—Frontenac—Kingston"
          }
        ],
        "pollDivisionIds": [
          10139419
        ],
        "postalCode": "K7A2X3",
        "streetName": "LILA",
        "streetDirectionId": null,
        "streetTypeId": "ST",
        "placeName": "SMITHS FALLS",
        "streetNameDisplayText": "LILA ST, SMITHS FALLS"
      }
    ]
  },
  {
    "postal": "K7A8Z9",
    "result": []
  },
  {
    "postal": "K7A0N4",
    "result": []
  },
  {
    "postal": "K7A1K1",
    "result": [
      {
        "electoralDistricts": [
          {
            "election": null,
            "id": 51,
            "name": "Lanark—Frontenac—Kingston"
          }
        ],
        "pollDivisionIds": [
          10139418
        ],
        "postalCode": "K7A1K1",
        "streetName": "FOSTER",
        "streetDirectionId": null,
        "streetTypeId": "AVE",
        "placeName": "SMITHS FALLS",
        "streetNameDisplayText": "FOSTER AVE, SMITHS FALLS"
      }
    ]
  },
  {
    "postal": "K7A1S3",
    "result": [
      {
        "electoralDistricts": [
          {
            "election": null,
            "id": 51,
            "name": "Lanark—Frontenac—Kingston"
          }
        ],
        "pollDivisionIds": [
          10139418
        ],
        "postalCode": "K7A1S3",
        "streetName": "GLEN",
        "streetDirectionId": null,
        "streetTypeId": "AVE",
        "placeName": "SMITHS FALLS",
        "streetNameDisplayText": "GLEN AVE, SMITHS FALLS"
      }
    ]
  },
  {
    "postal": "K7A6M4",
    "result": []
  },
  {
    "postal": "K7A9A9",
    "result": []
  },
  {
    "postal": "K7A9Z9",
    "result": []
  },
  {
    "postal": "K7A6T4",
    "result": []
  },
  {
    "postal": "K7A0B2",
    "result": [
      {
        "electoralDistricts": [
          {
            "election": null,
            "id": 51,
            "name": "Lanark—Frontenac—Kingston"
          }
        ],
        "pollDivisionIds": [
          10139419
        ],
        "postalCode": "K7A0B2",
        "streetName": "WALKER",
        "streetDirectionId": null,
        "streetTypeId": "RD",
        "placeName": "SMITHS FALLS",
        "streetNameDisplayText": "WALKER RD, SMITHS FALLS"
      }
    ]
  },
  {
    "postal": "K7A2L9",
    "result": [
      {
        "electoralDistricts": [
          {
            "election": null,
            "id": 51,
            "name": "Lanark—Frontenac—Kingston"
          }
        ],
        "pollDivisionIds": [
          10139418
        ],
        "postalCode": "K7A2L9",
        "streetName": "OGDEN",
        "streetDirectionId": null,
        "streetTypeId": "AVE",
        "placeName": "SMITHS FALLS",
        "streetNameDisplayText": "OGDEN AVE, SMITHS FALLS"
      }
    ]
  },
  {
    "postal": "K7A8K9",
    "result": []
  },
  {
    "postal": "K7A2H9",
    "result": [
      {
        "electoralDistricts": [
          {
            "election": null,
            "id": 51,
            "name": "Lanark—Frontenac—Kingston"
          }
        ],
        "pollDivisionIds": [
          10139418
        ],
        "postalCode": "K7A2H9",
        "streetName": "CORNELIA",
        "streetDirectionId": "W",
        "streetTypeId": "ST",
        "placeName": "SMITHS FALLS",
        "streetNameDisplayText": "CORNELIA ST W, SMITHS FALLS"
      }
    ]
  },
  {
    "postal": "K7A3Z6",
    "result": [
      {
        "electoralDistricts": [
          {
            "election": null,
            "id": 51,
            "name": "Lanark—Frontenac—Kingston"
          }
        ],
        "pollDivisionIds": [
          10139430
        ],
        "postalCode": "K7A3Z6",
        "streetName": "SIMPSON",
        "streetDirectionId": null,
        "streetTypeId": "ST",
        "placeName": "SMITHS FALLS",
        "streetNameDisplayText": "SIMPSON ST, SMITHS FALLS"
      }
    ]
  },
  {
    "postal": "K7A3B0",
    "result": []
  },
  {
    "postal": "K7A2H8",
    "result": [
      {
        "electoralDistricts": [
          {
            "election": null,
            "id": 51,
            "name": "Lanark—Frontenac—Kingston"
          }
        ],
        "pollDivisionIds": [
          10139418
        ],
        "postalCode": "K7A2H8",
        "streetName": "ELMSLEY",
        "streetDirectionId": "N",
        "streetTypeId": "ST",
        "placeName": "SMITHS FALLS",
        "streetNameDisplayText": "ELMSLEY ST N, SMITHS FALLS"
      }
    ]
  },
  {
    "postal": "K7A3X2",
    "result": [
      {
        "electoralDistricts": [
          {
            "election": null,
            "id": 51,
            "name": "Lanark—Frontenac—Kingston"
          }
        ],
        "pollDivisionIds": [
          10139430
        ],
        "postalCode": "K7A3X2",
        "streetName": "MARSHA",
        "streetDirectionId": null,
        "streetTypeId": "DR",
        "placeName": "SMITHS FALLS",
        "streetNameDisplayText": "MARSHA DR, SMITHS FALLS"
      }
    ]
  },
  {
    "postal": "K7A2E9",
    "result": [
      {
        "electoralDistricts": [
          {
            "election": null,
            "id": 51,
            "name": "Lanark—Frontenac—Kingston"
          }
        ],
        "pollDivisionIds": [
          10139419
        ],
        "postalCode": "K7A2E9",
        "streetName": "BAY",
        "streetDirectionId": "S",
        "streetTypeId": "ST",
        "placeName": "SMITHS FALLS",
        "streetNameDisplayText": "BAY ST S, SMITHS FALLS"
      }
    ]
  },
  {
    "postal": "K7A9P6",
    "result": []
  },
  {
    "postal": "K7A9E2",
    "result": []
  },
  {
    "postal": "K7A9H2",
    "result": []
  },
  {
    "postal": "K7A1S8",
    "result": [
      {
        "electoralDistricts": [
          {
            "election": null,
            "id": 51,
            "name": "Lanark—Frontenac—Kingston"
          }
        ],
        "pollDivisionIds": [
          10139418
        ],
        "postalCode": "K7A1S8",
        "streetName": "COWAN",
        "streetDirectionId": null,
        "streetTypeId": "ST",
        "placeName": "SMITHS FALLS",
        "streetNameDisplayText": "COWAN ST, SMITHS FALLS"
      }
    ]
  },
  {
    "postal": "K7A3M6",
    "result": [
      {
        "electoralDistricts": [
          {
            "election": null,
            "id": 51,
            "name": "Lanark—Frontenac—Kingston"
          }
        ],
        "pollDivisionIds": [
          10139419
        ],
        "postalCode": "K7A3M6",
        "streetName": "MCGILL",
        "streetDirectionId": "S",
        "streetTypeId": "ST",
        "placeName": "SMITHS FALLS",
        "streetNameDisplayText": "MCGILL ST S, SMITHS FALLS"
      }
    ]
  },
  {
    "postal": "K7A6Z8",
    "result": []
  },
  {
    "postal": "K7A4J2",
    "result": [
      {
        "electoralDistricts": [
          {
            "election": null,
            "id": 51,
            "name": "Lanark—Frontenac—Kingston"
          }
        ],
        "pollDivisionIds": [
          10139430
        ],
        "postalCode": "K7A4J2",
        "streetName": "ALFRED",
        "streetDirectionId": null,
        "streetTypeId": "ST",
        "placeName": "SMITHS FALLS",
        "streetNameDisplayText": "ALFRED ST, SMITHS FALLS"
      }
    ]
  },
  {
    "postal": "K7A9Y1",
    "result": []
  },
  {
    "postal": "K7A8V6",
    "result": []
  },
  {
    "postal": "K7A6B2",
    "result": []
  },
  {
    "postal": "K7A1P8",
    "result": [
      {
        "electoralDistricts": [
          {
            "election": null,
            "id": 51,
            "name": "Lanark—Frontenac—Kingston"
          }
        ],
        "pollDivisionIds": [
          10139418
        ],
        "postalCode": "K7A1P8",
        "streetName": "CHURCH",
        "streetDirectionId": "W",
        "streetTypeId": "ST",
        "placeName": "SMITHS FALLS",
        "streetNameDisplayText": "CHURCH ST W, SMITHS FALLS"
      }
    ]
  },
  {
    "postal": "K7A0V8",
    "result": []
  },
  {
    "postal": "K7A4Y0",
    "result": []
  },
  {
    "postal": "K7A2T4",
    "result": [
      {
        "electoralDistricts": [
          {
            "election": null,
            "id": 51,
            "name": "Lanark—Frontenac—Kingston"
          }
        ],
        "pollDivisionIds": [
          10139418
        ],
        "postalCode": "K7A2T4",
        "streetName": "CONDIE",
        "streetDirectionId": null,
        "streetTypeId": "ST",
        "placeName": "SMITHS FALLS",
        "streetNameDisplayText": "CONDIE ST, SMITHS FALLS"
      }
    ]
  },
  {
    "postal": "K7A2S3",
    "result": [
      {
        "electoralDistricts": [
          {
            "election": null,
            "id": 51,
            "name": "Lanark—Frontenac—Kingston"
          }
        ],
        "pollDivisionIds": [
          10139418
        ],
        "postalCode": "K7A2S3",
        "streetName": "UNION",
        "streetDirectionId": null,
        "streetTypeId": "ST",
        "placeName": "SMITHS FALLS",
        "streetNameDisplayText": "UNION ST, SMITHS FALLS"
      }
    ]
  },
  {
    "postal": "K7A0K0",
    "result": []
  },
  {
    "postal": "K7A5N1",
    "result": []
  },
  {
    "postal": "K7A7T0",
    "result": []
  },
  {
    "postal": "K7A9N2",
    "result": []
  },
  {
    "postal": "K7A5L1",
    "result": [
      {
        "electoralDistricts": [
          {
            "election": null,
            "id": 51,
            "name": "Lanark—Frontenac—Kingston"
          }
        ],
        "pollDivisionIds": [
          10139430
        ],
        "postalCode": "K7A5L1",
        "streetName": "GLENWOOD",
        "streetDirectionId": null,
        "streetTypeId": "CRES",
        "placeName": "SMITHS FALLS",
        "streetNameDisplayText": "GLENWOOD CRES, SMITHS FALLS"
      }
    ]
  },
  {
    "postal": "K7A7G5",
    "result": []
  },
  {
    "postal": "K7A6K2",
    "result": []
  },
  {
    "postal": "K7A6P9",
    "result": []
  },
  {
    "postal": "K7A0E6",
    "result": []
  },
  {
    "postal": "K7A8R9",
    "result": []
  },
  {
    "postal": "K7A3G9",
    "result": [
      {
        "electoralDistricts": [
          {
            "election": null,
            "id": 51,
            "name": "Lanark—Frontenac—Kingston"
          }
        ],
        "pollDivisionIds": [
          10139419
        ],
        "postalCode": "K7A3G9",
        "streetName": "SECOND",
        "streetDirectionId": null,
        "streetTypeId": "ST",
        "placeName": "SMITHS FALLS",
        "streetNameDisplayText": "SECOND ST, SMITHS FALLS"
      }
    ]
  },
  {
    "postal": "K7A0V7",
    "result": []
  },
  {
    "postal": "K7A2Z1",
    "result": [
      {
        "electoralDistricts": [
          {
            "election": null,
            "id": 51,
            "name": "Lanark—Frontenac—Kingston"
          }
        ],
        "pollDivisionIds": [
          10139419
        ],
        "postalCode": "K7A2Z1",
        "streetName": "CHAMBERS",
        "streetDirectionId": null,
        "streetTypeId": "ST",
        "placeName": "SMITHS FALLS",
        "streetNameDisplayText": "CHAMBERS ST, SMITHS FALLS"
      }
    ]
  },
  {
    "postal": "K7A7N1",
    "result": []
  },
  {
    "postal": "K7A3C6",
    "result": [
      {
        "electoralDistricts": [
          {
            "election": null,
            "id": 51,
            "name": "Lanark—Frontenac—Kingston"
          }
        ],
        "pollDivisionIds": [
          10139419
        ],
        "postalCode": "K7A3C6",
        "streetName": "ELGIN",
        "streetDirectionId": null,
        "streetTypeId": "ST",
        "placeName": "SMITHS FALLS",
        "streetNameDisplayText": "ELGIN ST, SMITHS FALLS"
      }
    ]
  },
  {
    "postal": "K7A4M1",
    "result": [
      {
        "electoralDistricts": [
          {
            "election": null,
            "id": 51,
            "name": "Lanark—Frontenac—Kingston"
          }
        ],
        "pollDivisionIds": [
          10139409
        ],
        "postalCode": "K7A4M1",
        "streetName": "15",
        "streetDirectionId": null,
        "streetTypeId": "HWY",
        "placeName": "SMITHS FALLS",
        "streetNameDisplayText": "15 HWY, SMITHS FALLS"
      },
      {
        "electoralDistricts": [
          {
            "election": null,
            "id": 51,
            "name": "Lanark—Frontenac—Kingston"
          }
        ],
        "pollDivisionIds": [
          10139430
        ],
        "postalCode": "K7A4M1",
        "streetName": "ABEL",
        "streetDirectionId": null,
        "streetTypeId": "ST",
        "placeName": "SMITHS FALLS",
        "streetNameDisplayText": "ABEL ST, SMITHS FALLS"
      }
    ]
  },
  {
    "postal": "K7A9K2",
    "result": []
  },
  {
    "postal": "K7A9S6",
    "result": []
  },
  {
    "postal": "K7A4X1",
    "result": [
      {
        "electoralDistricts": [
          {
            "election": null,
            "id": 51,
            "name": "Lanark—Frontenac—Kingston"
          }
        ],
        "pollDivisionIds": [
          10139430
        ],
        "postalCode": "K7A4X1",
        "streetName": "CARSS",
        "streetDirectionId": null,
        "streetTypeId": "AVE",
        "placeName": "SMITHS FALLS",
        "streetNameDisplayText": "CARSS AVE, SMITHS FALLS"
      }
    ]
  },
  {
    "postal": "K7A8W2",
    "result": []
  },
  {
    "postal": "K7A7N2",
    "result": []
  },
  {
    "postal": "K7A8S3",
    "result": []
  },
  {
    "postal": "K7A4V0",
    "result": []
  },
  {
    "postal": "K7A6W4",
    "result": []
  },
  {
    "postal": "K7A5M1",
    "result": [
      {
        "electoralDistricts": [
          {
            "election": null,
            "id": 51,
            "name": "Lanark—Frontenac—Kingston"
          }
        ],
        "pollDivisionIds": [
          10139419
        ],
        "postalCode": "K7A5M1",
        "streetName": "LILA",
        "streetDirectionId": null,
        "streetTypeId": "ST",
        "placeName": "SMITHS FALLS",
        "streetNameDisplayText": "LILA ST, SMITHS FALLS"
      }
    ]
  },
  {
    "postal": "K7A0S4",
    "result": []
  },
  {
    "postal": "K7A5X6",
    "result": []
  },
  {
    "postal": "K7A8L5",
    "result": []
  },
  {
    "postal": "K7A5M8",
    "result": []
  },
  {
    "postal": "K7A2G3",
    "result": [
      {
        "electoralDistricts": [
          {
            "election": null,
            "id": 52,
            "name": "Leeds—Grenville—Thousand Islands and Rideau Lakes"
          },
          {
            "election": null,
            "id": 51,
            "name": "Lanark—Frontenac—Kingston"
          }
        ],
        "pollDivisionIds": [
          10139484,
          10139419
        ],
        "postalCode": "K7A2G3",
        "streetName": "BAY",
        "streetDirectionId": "N",
        "streetTypeId": "ST",
        "placeName": "SMITHS FALLS",
        "streetNameDisplayText": "BAY ST N, SMITHS FALLS"
      }
    ]
  },
  {
    "postal": "K7A8E4",
    "result": []
  },
  {
    "postal": "K7A7S9",
    "result": []
  },
  {
    "postal": "K7A1K3",
    "result": [
      {
        "electoralDistricts": [
          {
            "election": null,
            "id": 51,
            "name": "Lanark—Frontenac—Kingston"
          }
        ],
        "pollDivisionIds": [
          10139418
        ],
        "postalCode": "K7A1K3",
        "streetName": "ROBINSON",
        "streetDirectionId": null,
        "streetTypeId": "AVE",
        "placeName": "SMITHS FALLS",
        "streetNameDisplayText": "ROBINSON AVE, SMITHS FALLS"
      }
    ]
  },
  {
    "postal": "K7A4E1",
    "result": [
      {
        "electoralDistricts": [
          {
            "election": null,
            "id": 51,
            "name": "Lanark—Frontenac—Kingston"
          }
        ],
        "pollDivisionIds": [
          10139430
        ],
        "postalCode": "K7A4E1",
        "streetName": "JASPER",
        "streetDirectionId": null,
        "streetTypeId": "AVE",
        "placeName": "SMITHS FALLS",
        "streetNameDisplayText": "JASPER AVE, SMITHS FALLS"
      }
    ]
  },
  {
    "postal": "K7A4R2",
    "result": [
      {
        "electoralDistricts": [
          {
            "election": null,
            "id": 51,
            "name": "Lanark—Frontenac—Kingston"
          }
        ],
        "pollDivisionIds": [
          10139430
        ],
        "postalCode": "K7A4R2",
        "streetName": "MERRICK",
        "streetDirectionId": null,
        "streetTypeId": "ST",
        "placeName": "SMITHS FALLS",
        "streetNameDisplayText": "MERRICK ST, SMITHS FALLS"
      }
    ]
  },
  {
    "postal": "K7A6T0",
    "result": []
  },
  {
    "postal": "K7A3K5",
    "result": [
      {
        "electoralDistricts": [
          {
            "election": null,
            "id": 51,
            "name": "Lanark—Frontenac—Kingston"
          }
        ],
        "pollDivisionIds": [
          10139419
        ],
        "postalCode": "K7A3K5",
        "streetName": "LORNE",
        "streetDirectionId": null,
        "streetTypeId": "ST",
        "placeName": "SMITHS FALLS",
        "streetNameDisplayText": "LORNE ST, SMITHS FALLS"
      }
    ]
  },
  {
    "postal": "K7A3S3",
    "result": [
      {
        "electoralDistricts": [
          {
            "election": null,
            "id": 51,
            "name": "Lanark—Frontenac—Kingston"
          }
        ],
        "pollDivisionIds": [
          10139430
        ],
        "postalCode": "K7A3S3",
        "streetName": "RIVER",
        "streetDirectionId": null,
        "streetTypeId": "ST",
        "placeName": "SMITHS FALLS",
        "streetNameDisplayText": "RIVER ST, SMITHS FALLS"
      }
    ]
  },
  {
    "postal": "K7A3L4",
    "result": [
      {
        "electoralDistricts": [
          {
            "election": null,
            "id": 51,
            "name": "Lanark—Frontenac—Kingston"
          }
        ],
        "pollDivisionIds": [
          10139419
        ],
        "postalCode": "K7A3L4",
        "streetName": "JONES",
        "streetDirectionId": null,
        "streetTypeId": "ST",
        "placeName": "SMITHS FALLS",
        "streetNameDisplayText": "JONES ST, SMITHS FALLS"
      }
    ]
  },
  {
    "postal": "K7A9Y2",
    "result": []
  },
  {
    "postal": "K7A1E0",
    "result": []
  },
  {
    "postal": "K7A9A4",
    "result": []
  },
  {
    "postal": "K7A1L3",
    "result": [
      {
        "electoralDistricts": [
          {
            "election": null,
            "id": 51,
            "name": "Lanark—Frontenac—Kingston"
          }
        ],
        "pollDivisionIds": [
          10139418
        ],
        "postalCode": "K7A1L3",
        "streetName": "CORNELIA",
        "streetDirectionId": "E",
        "streetTypeId": "ST",
        "placeName": "SMITHS FALLS",
        "streetNameDisplayText": "CORNELIA ST E, SMITHS FALLS"
      }
    ]
  },
  {
    "postal": "K7A6N1",
    "result": []
  },
  {
    "postal": "K7A6G7",
    "result": []
  },
  {
    "postal": "K7A7W1",
    "result": []
  },
  {
    "postal": "K7A4M6",
    "result": [
      {
        "electoralDistricts": [
          {
            "election": null,
            "id": 51,
            "name": "Lanark—Frontenac—Kingston"
          }
        ],
        "pollDivisionIds": [
          10139430
        ],
        "postalCode": "K7A4M6",
        "streetName": "ABEL",
        "streetDirectionId": null,
        "streetTypeId": "ST",
        "placeName": "SMITHS FALLS",
        "streetNameDisplayText": "ABEL ST, SMITHS FALLS"
      }
    ]
  },
  {
    "postal": "K7A1K0",
    "result": []
  },
  {
    "postal": "K7A3E2",
    "result": [
      {
        "electoralDistricts": [
          {
            "election": null,
            "id": 51,
            "name": "Lanark—Frontenac—Kingston"
          }
        ],
        "pollDivisionIds": [
          10139419
        ],
        "postalCode": "K7A3E2",
        "streetName": "KING",
        "streetDirectionId": null,
        "streetTypeId": "ST",
        "placeName": "SMITHS FALLS",
        "streetNameDisplayText": "KING ST, SMITHS FALLS"
      }
    ]
  },
  {
    "postal": "K7A5H4",
    "result": [
      {
        "electoralDistricts": [
          {
            "election": null,
            "id": 51,
            "name": "Lanark—Frontenac—Kingston"
          }
        ],
        "pollDivisionIds": [
          10139430
        ],
        "postalCode": "K7A5H4",
        "streetName": "ARMSTRONG",
        "streetDirectionId": null,
        "streetTypeId": "DR",
        "placeName": "SMITHS FALLS",
        "streetNameDisplayText": "ARMSTRONG DR, SMITHS FALLS"
      },
      {
        "electoralDistricts": [
          {
            "election": null,
            "id": 51,
            "name": "Lanark—Frontenac—Kingston"
          }
        ],
        "pollDivisionIds": [
          10139430
        ],
        "postalCode": "K7A5H4",
        "streetName": "WOOD",
        "streetDirectionId": null,
        "streetTypeId": "AVE",
        "placeName": "SMITHS FALLS",
        "streetNameDisplayText": "WOOD AVE, SMITHS FALLS"
      }
    ]
  },
  {
    "postal": "K7A1K7",
    "result": [
      {
        "electoralDistricts": [
          {
            "election": null,
            "id": 51,
            "name": "Lanark—Frontenac—Kingston"
          }
        ],
        "pollDivisionIds": [
          10139418
        ],
        "postalCode": "K7A1K7",
        "streetName": "STEPHEN",
        "streetDirectionId": null,
        "streetTypeId": "ST",
        "placeName": "SMITHS FALLS",
        "streetNameDisplayText": "STEPHEN ST, SMITHS FALLS"
      }
    ]
  },
  {
    "postal": "K7A0H0",
    "result": []
  },
  {
    "postal": "K7A0J3",
    "result": []
  },
  {
    "postal": "K7A1X6",
    "result": [
      {
        "electoralDistricts": [
          {
            "election": null,
            "id": 51,
            "name": "Lanark—Frontenac—Kingston"
          }
        ],
        "pollDivisionIds": [
          10139418
        ],
        "postalCode": "K7A1X6",
        "streetName": "GEORGE",
        "streetDirectionId": "S",
        "streetTypeId": "ST",
        "placeName": "SMITHS FALLS",
        "streetNameDisplayText": "GEORGE ST S, SMITHS FALLS"
      }
    ]
  },
  {
    "postal": "K7A2Z6",
    "result": [
      {
        "electoralDistricts": [
          {
            "election": null,
            "id": 51,
            "name": "Lanark—Frontenac—Kingston"
          }
        ],
        "pollDivisionIds": [
          10139419
        ],
        "postalCode": "K7A2Z6",
        "streetName": "CHAMBERS",
        "streetDirectionId": null,
        "streetTypeId": "ST",
        "placeName": "SMITHS FALLS",
        "streetNameDisplayText": "CHAMBERS ST, SMITHS FALLS"
      }
    ]
  },
  {
    "postal": "K7A4R9",
    "result": [
      {
        "electoralDistricts": [
          {
            "election": null,
            "id": 51,
            "name": "Lanark—Frontenac—Kingston"
          }
        ],
        "pollDivisionIds": [
          10139430
        ],
        "postalCode": "K7A4R9",
        "streetName": "ANDREWS",
        "streetDirectionId": null,
        "streetTypeId": "AVE",
        "placeName": "SMITHS FALLS",
        "streetNameDisplayText": "ANDREWS AVE, SMITHS FALLS"
      }
    ]
  },
  {
    "postal": "K7A0W8",
    "result": []
  },
  {
    "postal": "K7A1L4",
    "result": [
      {
        "electoralDistricts": [
          {
            "election": null,
            "id": 51,
            "name": "Lanark—Frontenac—Kingston"
          }
        ],
        "pollDivisionIds": [
          10139418
        ],
        "postalCode": "K7A1L4",
        "streetName": "CORNELIA",
        "streetDirectionId": "E",
        "streetTypeId": "ST",
        "placeName": "SMITHS FALLS",
        "streetNameDisplayText": "CORNELIA ST E, SMITHS FALLS"
      }
    ]
  },
  {
    "postal": "K7A0C8",
    "result": []
  },
  {
    "postal": "K7A9X7",
    "result": []
  },
  {
    "postal": "K7A4T1",
    "result": [
      {
        "electoralDistricts": [
          {
            "election": null,
            "id": 51,
            "name": "Lanark—Frontenac—Kingston"
          }
        ],
        "pollDivisionIds": [
          10139417
        ],
        "postalCode": "K7A4T1",
        "streetName": "43",
        "streetDirectionId": null,
        "streetTypeId": "HWY",
        "placeName": "SMITHS FALLS",
        "streetNameDisplayText": "43 HWY, SMITHS FALLS"
      },
      {
        "electoralDistricts": [
          {
            "election": null,
            "id": 52,
            "name": "Leeds—Grenville—Thousand Islands and Rideau Lakes"
          }
        ],
        "pollDivisionIds": [
          10139498
        ],
        "postalCode": "K7A4T1",
        "streetName": "BASS",
        "streetDirectionId": null,
        "streetTypeId": "RD",
        "placeName": "LOMBARDY",
        "streetNameDisplayText": "BASS RD, LOMBARDY"
      },
      {
        "electoralDistricts": [
          {
            "election": null,
            "id": 51,
            "name": "Lanark—Frontenac—Kingston"
          }
        ],
        "pollDivisionIds": [
          10139420
        ],
        "postalCode": "K7A4T1",
        "streetName": "MCCREA",
        "streetDirectionId": null,
        "streetTypeId": "RD",
        "placeName": "SMITHS FALLS",
        "streetNameDisplayText": "MCCREA RD, SMITHS FALLS"
      }
    ]
  },
  {
    "postal": "K7A0M0",
    "result": []
  },
  {
    "postal": "K7A6A2",
    "result": []
  },
  {
    "postal": "K7A9S8",
    "result": []
  },
  {
    "postal": "K7A9T4",
    "result": []
  },
  {
    "postal": "K7A9Y4",
    "result": []
  },
  {
    "postal": "K7A6G5",
    "result": []
  },
  {
    "postal": "K7A6H9",
    "result": []
  },
  {
    "postal": "K7A2P3",
    "result": [
      {
        "electoralDistricts": [
          {
            "election": null,
            "id": 51,
            "name": "Lanark—Frontenac—Kingston"
          }
        ],
        "pollDivisionIds": [
          10139419
        ],
        "postalCode": "K7A2P3",
        "streetName": "VICTORIA",
        "streetDirectionId": null,
        "streetTypeId": "AVE",
        "placeName": "SMITHS FALLS",
        "streetNameDisplayText": "VICTORIA AVE, SMITHS FALLS"
      }
    ]
  },
  {
    "postal": "K7A1T6",
    "result": [
      {
        "electoralDistricts": [
          {
            "election": null,
            "id": 51,
            "name": "Lanark—Frontenac—Kingston"
          }
        ],
        "pollDivisionIds": [
          10139418
        ],
        "postalCode": "K7A1T6",
        "streetName": "CORNELIA",
        "streetDirectionId": "W",
        "streetTypeId": "ST",
        "placeName": "SMITHS FALLS",
        "streetNameDisplayText": "CORNELIA ST W, SMITHS FALLS"
      }
    ]
  },
  {
    "postal": "K7A4P6",
    "result": [
      {
        "electoralDistricts": [
          {
            "election": null,
            "id": 51,
            "name": "Lanark—Frontenac—Kingston"
          }
        ],
        "pollDivisionIds": [
          10139430
        ],
        "postalCode": "K7A4P6",
        "streetName": "LAVINIA",
        "streetDirectionId": null,
        "streetTypeId": "ST",
        "placeName": "SMITHS FALLS",
        "streetNameDisplayText": "LAVINIA ST, SMITHS FALLS"
      }
    ]
  },
  {
    "postal": "K7A3K1",
    "result": [
      {
        "electoralDistricts": [
          {
            "election": null,
            "id": 51,
            "name": "Lanark—Frontenac—Kingston"
          }
        ],
        "pollDivisionIds": [
          10139419
        ],
        "postalCode": "K7A3K1",
        "streetName": "FIFTH",
        "streetDirectionId": null,
        "streetTypeId": "ST",
        "placeName": "SMITHS FALLS",
        "streetNameDisplayText": "FIFTH ST, SMITHS FALLS"
      }
    ]
  },
  {
    "postal": "K7A6X4",
    "result": []
  },
  {
    "postal": "K7A4M8",
    "result": [
      {
        "electoralDistricts": [
          {
            "election": null,
            "id": 51,
            "name": "Lanark—Frontenac—Kingston"
          }
        ],
        "pollDivisionIds": [
          10139430
        ],
        "postalCode": "K7A4M8",
        "streetName": "9TH LINE",
        "streetDirectionId": null,
        "streetTypeId": "RD",
        "placeName": "SMITHS FALLS",
        "streetNameDisplayText": "9TH LINE RD, SMITHS FALLS"
      },
      {
        "electoralDistricts": [
          {
            "election": null,
            "id": 51,
            "name": "Lanark—Frontenac—Kingston"
          }
        ],
        "pollDivisionIds": [
          10139430
        ],
        "postalCode": "K7A4M8",
        "streetName": "ABEL",
        "streetDirectionId": null,
        "streetTypeId": "ST",
        "placeName": "SMITHS FALLS",
        "streetNameDisplayText": "ABEL ST, SMITHS FALLS"
      }
    ]
  },
  {
    "postal": "K7A2Y1",
    "result": [
      {
        "electoralDistricts": [
          {
            "election": null,
            "id": 51,
            "name": "Lanark—Frontenac—Kingston"
          }
        ],
        "pollDivisionIds": [
          10139419
        ],
        "postalCode": "K7A2Y1",
        "streetName": "CHAMBERS",
        "streetDirectionId": null,
        "streetTypeId": "ST",
        "placeName": "SMITHS FALLS",
        "streetNameDisplayText": "CHAMBERS ST, SMITHS FALLS"
      }
    ]
  },
  {
    "postal": "K7A6M1",
    "result": []
  },
  {
    "postal": "K7A5L8",
    "result": [
      {
        "electoralDistricts": [
          {
            "election": null,
            "id": 51,
            "name": "Lanark—Frontenac—Kingston"
          }
        ],
        "pollDivisionIds": [
          10139419
        ],
        "postalCode": "K7A5L8",
        "streetName": "FIFTH",
        "streetDirectionId": null,
        "streetTypeId": "ST",
        "placeName": "SMITHS FALLS",
        "streetNameDisplayText": "FIFTH ST, SMITHS FALLS"
      }
    ]
  },
  {
    "postal": "K7A3P6",
    "result": [
      {
        "electoralDistricts": [
          {
            "election": null,
            "id": 51,
            "name": "Lanark—Frontenac—Kingston"
          }
        ],
        "pollDivisionIds": [
          10139419
        ],
        "postalCode": "K7A3P6",
        "streetName": "ELMSLEY",
        "streetDirectionId": "S",
        "streetTypeId": "ST",
        "placeName": "SMITHS FALLS",
        "streetNameDisplayText": "ELMSLEY ST S, SMITHS FALLS"
      }
    ]
  },
  {
    "postal": "K7A9A5",
    "result": []
  },
  {
    "postal": "K7A7K1",
    "result": []
  },
  {
    "postal": "K7A3J4",
    "result": [
      {
        "electoralDistricts": [
          {
            "election": null,
            "id": 51,
            "name": "Lanark—Frontenac—Kingston"
          }
        ],
        "pollDivisionIds": [
          10139419
        ],
        "postalCode": "K7A3J4",
        "streetName": "FOURTH",
        "streetDirectionId": null,
        "streetTypeId": "ST",
        "placeName": "SMITHS FALLS",
        "streetNameDisplayText": "FOURTH ST, SMITHS FALLS"
      }
    ]
  },
  {
    "postal": "K7A5E7",
    "result": [
      {
        "electoralDistricts": [
          {
            "election": null,
            "id": 51,
            "name": "Lanark—Frontenac—Kingston"
          }
        ],
        "pollDivisionIds": [
          10139419
        ],
        "postalCode": "K7A5E7",
        "streetName": "CHAMBERS",
        "streetDirectionId": null,
        "streetTypeId": "ST",
        "placeName": "SMITHS FALLS",
        "streetNameDisplayText": "CHAMBERS ST, SMITHS FALLS"
      }
    ]
  },
  {
    "postal": "K7A3A7",
    "result": [
      {
        "electoralDistricts": [
          {
            "election": null,
            "id": 51,
            "name": "Lanark—Frontenac—Kingston"
          }
        ],
        "pollDivisionIds": [
          10139419
        ],
        "postalCode": "K7A3A7",
        "streetName": "EMPRESS",
        "streetDirectionId": null,
        "streetTypeId": "AVE",
        "placeName": "SMITHS FALLS",
        "streetNameDisplayText": "EMPRESS AVE, SMITHS FALLS"
      }
    ]
  },
  {
    "postal": "K7A1B9",
    "result": [
      {
        "electoralDistricts": [
          {
            "election": null,
            "id": 51,
            "name": "Lanark—Frontenac—Kingston"
          }
        ],
        "pollDivisionIds": [
          10139419
        ],
        "postalCode": "K7A1B9",
        "streetName": "DUFFERIN",
        "streetDirectionId": null,
        "streetTypeId": "ST",
        "placeName": "SMITHS FALLS",
        "streetNameDisplayText": "DUFFERIN ST, SMITHS FALLS"
      }
    ]
  },
  {
    "postal": "K7A9E8",
    "result": []
  },
  {
    "postal": "K7A1C9",
    "result": [
      {
        "electoralDistricts": [
          {
            "election": null,
            "id": 51,
            "name": "Lanark—Frontenac—Kingston"
          }
        ],
        "pollDivisionIds": [
          10139419
        ],
        "postalCode": "K7A1C9",
        "streetName": "WILLIAM",
        "streetDirectionId": "E",
        "streetTypeId": "ST",
        "placeName": "SMITHS FALLS",
        "streetNameDisplayText": "WILLIAM ST E, SMITHS FALLS"
      }
    ]
  },
  {
    "postal": "K7A3B5",
    "result": [
      {
        "electoralDistricts": [
          {
            "election": null,
            "id": 51,
            "name": "Lanark—Frontenac—Kingston"
          }
        ],
        "pollDivisionIds": [
          10139419
        ],
        "postalCode": "K7A3B5",
        "streetName": "ROBINA",
        "streetDirectionId": null,
        "streetTypeId": "AVE",
        "placeName": "SMITHS FALLS",
        "streetNameDisplayText": "ROBINA AVE, SMITHS FALLS"
      }
    ]
  },
  {
    "postal": "K7A8R0",
    "result": []
  },
  {
    "postal": "K7A3P2",
    "result": [
      {
        "electoralDistricts": [
          {
            "election": null,
            "id": 51,
            "name": "Lanark—Frontenac—Kingston"
          }
        ],
        "pollDivisionIds": [
          10139419
        ],
        "postalCode": "K7A3P2",
        "streetName": "ELMSLEY",
        "streetDirectionId": "S",
        "streetTypeId": "ST",
        "placeName": "SMITHS FALLS",
        "streetNameDisplayText": "ELMSLEY ST S, SMITHS FALLS"
      }
    ]
  },
  {
    "postal": "K7A5V4",
    "result": []
  },
  {
    "postal": "K7A4H0",
    "result": []
  },
  {
    "postal": "K7A4S7",
    "result": [
      {
        "electoralDistricts": [
          {
            "election": null,
            "id": 51,
            "name": "Lanark—Frontenac—Kingston"
          }
        ],
        "pollDivisionIds": [
          10139409,
          10139418
        ],
        "postalCode": "K7A4S7",
        "streetName": "15",
        "streetDirectionId": null,
        "streetTypeId": "HWY",
        "placeName": "SMITHS FALLS",
        "streetNameDisplayText": "15 HWY, SMITHS FALLS"
      },
      {
        "electoralDistricts": [
          {
            "election": null,
            "id": 51,
            "name": "Lanark—Frontenac—Kingston"
          }
        ],
        "pollDivisionIds": [
          10139409
        ],
        "postalCode": "K7A4S7",
        "streetName": "15",
        "streetDirectionId": null,
        "streetTypeId": null,
        "placeName": "SMITHS FALLS",
        "streetNameDisplayText": "15, SMITHS FALLS"
      },
      {
        "electoralDistricts": [
          {
            "election": null,
            "id": 51,
            "name": "Lanark—Frontenac—Kingston"
          }
        ],
        "pollDivisionIds": [
          10139409
        ],
        "postalCode": "K7A4S7",
        "streetName": "4TH LINE",
        "streetDirectionId": null,
        "streetTypeId": "RD",
        "placeName": "SMITHS FALLLS",
        "streetNameDisplayText": "4TH LINE RD, SMITHS FALLLS"
      },
      {
        "electoralDistricts": [
          {
            "election": null,
            "id": 51,
            "name": "Lanark—Frontenac—Kingston"
          }
        ],
        "pollDivisionIds": [
          10139409
        ],
        "postalCode": "K7A4S7",
        "streetName": "4TH LINE",
        "streetDirectionId": null,
        "streetTypeId": "RD",
        "placeName": "SMITHS FALLS",
        "streetNameDisplayText": "4TH LINE RD, SMITHS FALLS"
      },
      {
        "electoralDistricts": [
          {
            "election": null,
            "id": 51,
            "name": "Lanark—Frontenac—Kingston"
          }
        ],
        "pollDivisionIds": [
          10139409
        ],
        "postalCode": "K7A4S7",
        "streetName": "4TH",
        "streetDirectionId": null,
        "streetTypeId": "LINE",
        "placeName": "SMITHS FALLS",
        "streetNameDisplayText": "4TH LINE, SMITHS FALLS"
      },
      {
        "electoralDistricts": [
          {
            "election": null,
            "id": 51,
            "name": "Lanark—Frontenac—Kingston"
          }
        ],
        "pollDivisionIds": [
          10139409
        ],
        "postalCode": "K7A4S7",
        "streetName": "6TH LINE",
        "streetDirectionId": null,
        "streetTypeId": "RD",
        "placeName": "CARLETON PLACE",
        "streetNameDisplayText": "6TH LINE RD, CARLETON PLACE"
      },
      {
        "electoralDistricts": [
          {
            "election": null,
            "id": 51,
            "name": "Lanark—Frontenac—Kingston"
          }
        ],
        "pollDivisionIds": [
          10139409
        ],
        "postalCode": "K7A4S7",
        "streetName": "6TH LINE",
        "streetDirectionId": null,
        "streetTypeId": "RD",
        "placeName": "SMITHS FALLS",
        "streetNameDisplayText": "6TH LINE RD, SMITHS FALLS"
      },
      {
        "electoralDistricts": [
          {
            "election": null,
            "id": 51,
            "name": "Lanark—Frontenac—Kingston"
          }
        ],
        "pollDivisionIds": [
          10139409
        ],
        "postalCode": "K7A4S7",
        "streetName": "6TH",
        "streetDirectionId": null,
        "streetTypeId": "LINE",
        "placeName": "SMITHS FALLS",
        "streetNameDisplayText": "6TH LINE, SMITHS FALLS"
      },
      {
        "electoralDistricts": [
          {
            "election": null,
            "id": 51,
            "name": "Lanark—Frontenac—Kingston"
          }
        ],
        "pollDivisionIds": [
          10139409
        ],
        "postalCode": "K7A4S7",
        "streetName": "BARRACH",
        "streetDirectionId": null,
        "streetTypeId": "ST",
        "placeName": "SMITHS FALLS",
        "streetNameDisplayText": "BARRACH ST, SMITHS FALLS"
      },
      {
        "electoralDistricts": [
          {
            "election": null,
            "id": 51,
            "name": "Lanark—Frontenac—Kingston"
          }
        ],
        "pollDivisionIds": [
          10139409
        ],
        "postalCode": "K7A4S7",
        "streetName": "BECK 6TH LINE",
        "streetDirectionId": null,
        "streetTypeId": "LINE",
        "placeName": "SMITHS FALLS",
        "streetNameDisplayText": "BECK 6TH LINE LINE, SMITHS FALLS"
      },
      {
        "electoralDistricts": [
          {
            "election": null,
            "id": 51,
            "name": "Lanark—Frontenac—Kingston"
          }
        ],
        "pollDivisionIds": [
          10139409,
          10139420
        ],
        "postalCode": "K7A4S7",
        "streetName": "BECKWITH BOUNDARY",
        "streetDirectionId": null,
        "streetTypeId": "RD",
        "placeName": "SMITHS FALLS",
        "streetNameDisplayText": "BECKWITH BOUNDARY RD, SMITHS FALLS"
      },
      {
        "electoralDistricts": [
          {
            "election": null,
            "id": 51,
            "name": "Lanark—Frontenac—Kingston"
          }
        ],
        "pollDivisionIds": [
          10139409
        ],
        "postalCode": "K7A4S7",
        "streetName": "BECKWITH BOUNDRY",
        "streetDirectionId": "N",
        "streetTypeId": "RD",
        "placeName": "SMITHS FALLS",
        "streetNameDisplayText": "BECKWITH BOUNDRY RD N, SMITHS FALLS"
      },
      {
        "electoralDistricts": [
          {
            "election": null,
            "id": 51,
            "name": "Lanark—Frontenac—Kingston"
          }
        ],
        "pollDivisionIds": [
          10139409
        ],
        "postalCode": "K7A4S7",
        "streetName": "BELL",
        "streetDirectionId": null,
        "streetTypeId": "RD",
        "placeName": "SMITHS FALLS",
        "streetNameDisplayText": "BELL RD, SMITHS FALLS"
      },
      {
        "electoralDistricts": [
          {
            "election": null,
            "id": 51,
            "name": "Lanark—Frontenac—Kingston"
          }
        ],
        "pollDivisionIds": [
          10139409
        ],
        "postalCode": "K7A4S7",
        "streetName": "BOURNE",
        "streetDirectionId": null,
        "streetTypeId": "RD",
        "placeName": "SMITHS FALLS",
        "streetNameDisplayText": "BOURNE RD, SMITHS FALLS"
      },
      {
        "electoralDistricts": [
          {
            "election": null,
            "id": 51,
            "name": "Lanark—Frontenac—Kingston"
          }
        ],
        "pollDivisionIds": [
          10139409
        ],
        "postalCode": "K7A4S7",
        "streetName": "BROWN SIDE",
        "streetDirectionId": null,
        "streetTypeId": "RD",
        "placeName": "SMITHS FALLS",
        "streetNameDisplayText": "BROWN SIDE RD, SMITHS FALLS"
      },
      {
        "electoralDistricts": [
          {
            "election": null,
            "id": 51,
            "name": "Lanark—Frontenac—Kingston"
          }
        ],
        "pollDivisionIds": [
          10139409
        ],
        "postalCode": "K7A4S7",
        "streetName": "BROWN SIDERD",
        "streetDirectionId": null,
        "streetTypeId": null,
        "placeName": "SMITHS FALLS",
        "streetNameDisplayText": "BROWN SIDERD, SMITHS FALLS"
      },
      {
        "electoralDistricts": [
          {
            "election": null,
            "id": 51,
            "name": "Lanark—Frontenac—Kingston"
          }
        ],
        "pollDivisionIds": [
          10139409
        ],
        "postalCode": "K7A4S7",
        "streetName": "BROWN",
        "streetDirectionId": null,
        "streetTypeId": "SIDERD",
        "placeName": "SMITHS FALLS",
        "streetNameDisplayText": "BROWN SIDERD, SMITHS FALLS"
      },
      {
        "electoralDistricts": [
          {
            "election": null,
            "id": 51,
            "name": "Lanark—Frontenac—Kingston"
          }
        ],
        "pollDivisionIds": [
          10139409
        ],
        "postalCode": "K7A4S7",
        "streetName": "BRUNTON SIDE",
        "streetDirectionId": null,
        "streetTypeId": "RD",
        "placeName": "SMITHS FALLS",
        "streetNameDisplayText": "BRUNTON SIDE RD, SMITHS FALLS"
      },
      {
        "electoralDistricts": [
          {
            "election": null,
            "id": 51,
            "name": "Lanark—Frontenac—Kingston"
          }
        ],
        "pollDivisionIds": [
          10139409
        ],
        "postalCode": "K7A4S7",
        "streetName": "BRUNTON SIDE",
        "streetDirectionId": null,
        "streetTypeId": "SIDERD",
        "placeName": "SMITHS FALLS",
        "streetNameDisplayText": "BRUNTON SIDE SIDERD, SMITHS FALLS"
      },
      {
        "electoralDistricts": [
          {
            "election": null,
            "id": 51,
            "name": "Lanark—Frontenac—Kingston"
          }
        ],
        "pollDivisionIds": [
          10139409
        ],
        "postalCode": "K7A4S7",
        "streetName": "BRUNTON",
        "streetDirectionId": null,
        "streetTypeId": "SIDERD",
        "placeName": "SMITHS FALLS",
        "streetNameDisplayText": "BRUNTON SIDERD, SMITHS FALLS"
      },
      {
        "electoralDistricts": [
          {
            "election": null,
            "id": 51,
            "name": "Lanark—Frontenac—Kingston"
          }
        ],
        "pollDivisionIds": [
          10139428,
          10139409
        ],
        "postalCode": "K7A4S7",
        "streetName": "CHURCH",
        "streetDirectionId": null,
        "streetTypeId": "ST",
        "placeName": "SMITHS FALLS",
        "streetNameDisplayText": "CHURCH ST, SMITHS FALLS"
      },
      {
        "electoralDistricts": [
          {
            "election": null,
            "id": 51,
            "name": "Lanark—Frontenac—Kingston"
          }
        ],
        "pollDivisionIds": [
          10139409
        ],
        "postalCode": "K7A4S7",
        "streetName": "COLEMAN",
        "streetDirectionId": null,
        "streetTypeId": "RD",
        "placeName": "SMITHS FALLS",
        "streetNameDisplayText": "COLEMAN RD, SMITHS FALLS"
      },
      {
        "electoralDistricts": [
          {
            "election": null,
            "id": 51,
            "name": "Lanark—Frontenac—Kingston"
          }
        ],
        "pollDivisionIds": [
          10139409
        ],
        "postalCode": "K7A4S7",
        "streetName": "CUCKOO'S NEST",
        "streetDirectionId": null,
        "streetTypeId": "RD",
        "placeName": "CARLETON PLACE",
        "streetNameDisplayText": "CUCKOO'S NEST RD, CARLETON PLACE"
      },
      {
        "electoralDistricts": [
          {
            "election": null,
            "id": 51,
            "name": "Lanark—Frontenac—Kingston"
          }
        ],
        "pollDivisionIds": [
          10139409
        ],
        "postalCode": "K7A4S7",
        "streetName": "CUCKOO'S NEST",
        "streetDirectionId": null,
        "streetTypeId": "RD",
        "placeName": "SMITH FALLS",
        "streetNameDisplayText": "CUCKOO'S NEST RD, SMITH FALLS"
      },
      {
        "electoralDistricts": [
          {
            "election": null,
            "id": 51,
            "name": "Lanark—Frontenac—Kingston"
          }
        ],
        "pollDivisionIds": [
          10139409
        ],
        "postalCode": "K7A4S7",
        "streetName": "CUCKOOS NEST",
        "streetDirectionId": null,
        "streetTypeId": "RD",
        "placeName": "SMITHS FALLS",
        "streetNameDisplayText": "CUCKOOS NEST RD, SMITHS FALLS"
      },
      {
        "electoralDistricts": [
          {
            "election": null,
            "id": 51,
            "name": "Lanark—Frontenac—Kingston"
          }
        ],
        "pollDivisionIds": [
          10139409
        ],
        "postalCode": "K7A4S7",
        "streetName": "CUCKOO'S NEST",
        "streetDirectionId": null,
        "streetTypeId": "RD",
        "placeName": "SMITHS FALLS",
        "streetNameDisplayText": "CUCKOO'S NEST RD, SMITHS FALLS"
      },
      {
        "electoralDistricts": [
          {
            "election": null,
            "id": 51,
            "name": "Lanark—Frontenac—Kingston"
          }
        ],
        "pollDivisionIds": [
          10139409
        ],
        "postalCode": "K7A4S7",
        "streetName": "DAIS SIDE",
        "streetDirectionId": null,
        "streetTypeId": "RD",
        "placeName": "SMITHS FALLS",
        "streetNameDisplayText": "DAIS SIDE RD, SMITHS FALLS"
      },
      {
        "electoralDistricts": [
          {
            "election": null,
            "id": 51,
            "name": "Lanark—Frontenac—Kingston"
          }
        ],
        "pollDivisionIds": [
          10139409
        ],
        "postalCode": "K7A4S7",
        "streetName": "DAVIS",
        "streetDirectionId": null,
        "streetTypeId": "SIDERD",
        "placeName": "ASHTON",
        "streetNameDisplayText": "DAVIS SIDERD, ASHTON"
      },
      {
        "electoralDistricts": [
          {
            "election": null,
            "id": 51,
            "name": "Lanark—Frontenac—Kingston"
          }
        ],
        "pollDivisionIds": [
          10139409
        ],
        "postalCode": "K7A4S7",
        "streetName": "DAVIS",
        "streetDirectionId": null,
        "streetTypeId": "SIDERD",
        "placeName": "CARLETON PLACE",
        "streetNameDisplayText": "DAVIS SIDERD, CARLETON PLACE"
      },
      {
        "electoralDistricts": [
          {
            "election": null,
            "id": 51,
            "name": "Lanark—Frontenac—Kingston"
          }
        ],
        "pollDivisionIds": [
          10139409
        ],
        "postalCode": "K7A4S7",
        "streetName": "DAVIS SIDERD",
        "streetDirectionId": null,
        "streetTypeId": null,
        "placeName": "SMITH FALLS",
        "streetNameDisplayText": "DAVIS SIDERD, SMITH FALLS"
      },
      {
        "electoralDistricts": [
          {
            "election": null,
            "id": 51,
            "name": "Lanark—Frontenac—Kingston"
          }
        ],
        "pollDivisionIds": [
          10139409
        ],
        "postalCode": "K7A4S7",
        "streetName": "DAVIS",
        "streetDirectionId": null,
        "streetTypeId": "SIDERD",
        "placeName": "SMITH FALLS",
        "streetNameDisplayText": "DAVIS SIDERD, SMITH FALLS"
      },
      {
        "electoralDistricts": [
          {
            "election": null,
            "id": 51,
            "name": "Lanark—Frontenac—Kingston"
          }
        ],
        "pollDivisionIds": [
          10139400
        ],
        "postalCode": "K7A4S7",
        "streetName": "DAVIS",
        "streetDirectionId": null,
        "streetTypeId": "SIDERD",
        "placeName": "SMITHS FALLLS",
        "streetNameDisplayText": "DAVIS SIDERD, SMITHS FALLLS"
      },
      {
        "electoralDistricts": [
          {
            "election": null,
            "id": 51,
            "name": "Lanark—Frontenac—Kingston"
          }
        ],
        "pollDivisionIds": [
          10139409
        ],
        "postalCode": "K7A4S7",
        "streetName": "DAVIS",
        "streetDirectionId": null,
        "streetTypeId": "SIDERD",
        "placeName": "SMITHS FALLS",
        "streetNameDisplayText": "DAVIS SIDERD, SMITHS FALLS"
      },
      {
        "electoralDistricts": [
          {
            "election": null,
            "id": 51,
            "name": "Lanark—Frontenac—Kingston"
          }
        ],
        "pollDivisionIds": [
          10139397,
          10139409
        ],
        "postalCode": "K7A4S7",
        "streetName": "EJ'S",
        "streetDirectionId": null,
        "streetTypeId": "LANE",
        "placeName": "SMITHS FALLS",
        "streetNameDisplayText": "EJ'S LANE, SMITHS FALLS"
      },
      {
        "electoralDistricts": [
          {
            "election": null,
            "id": 51,
            "name": "Lanark—Frontenac—Kingston"
          }
        ],
        "pollDivisionIds": [
          10139409
        ],
        "postalCode": "K7A4S7",
        "streetName": "FORD",
        "streetDirectionId": null,
        "streetTypeId": "RD",
        "placeName": "SMITHS FALLS",
        "streetNameDisplayText": "FORD RD, SMITHS FALLS"
      },
      {
        "electoralDistricts": [
          {
            "election": null,
            "id": 51,
            "name": "Lanark—Frontenac—Kingston"
          }
        ],
        "pollDivisionIds": [
          10139409
        ],
        "postalCode": "K7A4S7",
        "streetName": "FOURTH LINE",
        "streetDirectionId": null,
        "streetTypeId": "RD",
        "placeName": "SMITHS FALLS",
        "streetNameDisplayText": "FOURTH LINE RD, SMITHS FALLS"
      },
      {
        "electoralDistricts": [
          {
            "election": null,
            "id": 51,
            "name": "Lanark—Frontenac—Kingston"
          }
        ],
        "pollDivisionIds": [
          10139409
        ],
        "postalCode": "K7A4S7",
        "streetName": "FRANKTOWN CEMETERY",
        "streetDirectionId": null,
        "streetTypeId": "RD",
        "placeName": "SMITH FALLS",
        "streetNameDisplayText": "FRANKTOWN CEMETERY RD, SMITH FALLS"
      },
      {
        "electoralDistricts": [
          {
            "election": null,
            "id": 51,
            "name": "Lanark—Frontenac—Kingston"
          }
        ],
        "pollDivisionIds": [
          10139409
        ],
        "postalCode": "K7A4S7",
        "streetName": "FRANKTOWN CEMETERY",
        "streetDirectionId": null,
        "streetTypeId": "RD",
        "placeName": "SMITHS FALLS",
        "streetNameDisplayText": "FRANKTOWN CEMETERY RD, SMITHS FALLS"
      },
      {
        "electoralDistricts": [
          {
            "election": null,
            "id": 51,
            "name": "Lanark—Frontenac—Kingston"
          }
        ],
        "pollDivisionIds": [
          10139409
        ],
        "postalCode": "K7A4S7",
        "streetName": "GILLES SIDE",
        "streetDirectionId": null,
        "streetTypeId": "RD",
        "placeName": "SMITHS FALLS",
        "streetNameDisplayText": "GILLES SIDE RD, SMITHS FALLS"
      },
      {
        "electoralDistricts": [
          {
            "election": null,
            "id": 51,
            "name": "Lanark—Frontenac—Kingston"
          }
        ],
        "pollDivisionIds": [
          10139409
        ],
        "postalCode": "K7A4S7",
        "streetName": "GILLIES CORNERS SIDE",
        "streetDirectionId": null,
        "streetTypeId": "SIDERD",
        "placeName": "SMITHS FALLS",
        "streetNameDisplayText": "GILLIES CORNERS SIDE SIDERD, SMITHS FALLS"
      },
      {
        "electoralDistricts": [
          {
            "election": null,
            "id": 51,
            "name": "Lanark—Frontenac—Kingston"
          }
        ],
        "pollDivisionIds": [
          10139409
        ],
        "postalCode": "K7A4S7",
        "streetName": "GILLIES CORNERS",
        "streetDirectionId": null,
        "streetTypeId": "SIDERD",
        "placeName": "SMITHS FALLS",
        "streetNameDisplayText": "GILLIES CORNERS SIDERD, SMITHS FALLS"
      },
      {
        "electoralDistricts": [
          {
            "election": null,
            "id": 51,
            "name": "Lanark—Frontenac—Kingston"
          }
        ],
        "pollDivisionIds": [
          10139409
        ],
        "postalCode": "K7A4S7",
        "streetName": "GILLIES CRNS",
        "streetDirectionId": null,
        "streetTypeId": "RD",
        "placeName": "SMITHS FALLS",
        "streetNameDisplayText": "GILLIES CRNS RD, SMITHS FALLS"
      },
      {
        "electoralDistricts": [
          {
            "election": null,
            "id": 51,
            "name": "Lanark—Frontenac—Kingston"
          }
        ],
        "pollDivisionIds": [
          10139409
        ],
        "postalCode": "K7A4S7",
        "streetName": "GILLIES SIDE",
        "streetDirectionId": null,
        "streetTypeId": "RD",
        "placeName": "SMITH FALLS",
        "streetNameDisplayText": "GILLIES SIDE RD, SMITH FALLS"
      },
      {
        "electoralDistricts": [
          {
            "election": null,
            "id": 51,
            "name": "Lanark—Frontenac—Kingston"
          }
        ],
        "pollDivisionIds": [
          10139409
        ],
        "postalCode": "K7A4S7",
        "streetName": "HIGHWAY 15",
        "streetDirectionId": null,
        "streetTypeId": null,
        "placeName": "SMITHS FALLS",
        "streetNameDisplayText": "HIGHWAY 15, SMITHS FALLS"
      },
      {
        "electoralDistricts": [
          {
            "election": null,
            "id": 51,
            "name": "Lanark—Frontenac—Kingston"
          }
        ],
        "pollDivisionIds": [
          10139420
        ],
        "postalCode": "K7A4S7",
        "streetName": "HOLBROOK",
        "streetDirectionId": null,
        "streetTypeId": "RD",
        "placeName": "SMITHS FALLS",
        "streetNameDisplayText": "HOLBROOK RD, SMITHS FALLS"
      },
      {
        "electoralDistricts": [
          {
            "election": null,
            "id": 51,
            "name": "Lanark—Frontenac—Kingston"
          }
        ],
        "pollDivisionIds": [
          10139409
        ],
        "postalCode": "K7A4S7",
        "streetName": "HWY 15",
        "streetDirectionId": "N",
        "streetTypeId": null,
        "placeName": "SMITH FALLS",
        "streetNameDisplayText": "HWY 15 N, SMITH FALLS"
      },
      {
        "electoralDistricts": [
          {
            "election": null,
            "id": 51,
            "name": "Lanark—Frontenac—Kingston"
          }
        ],
        "pollDivisionIds": [
          10139418
        ],
        "postalCode": "K7A4S7",
        "streetName": "HWY 15",
        "streetDirectionId": "N",
        "streetTypeId": null,
        "placeName": "SMITHS FALLS",
        "streetNameDisplayText": "HWY 15 N, SMITHS FALLS"
      },
      {
        "electoralDistricts": [
          {
            "election": null,
            "id": 51,
            "name": "Lanark—Frontenac—Kingston"
          }
        ],
        "pollDivisionIds": [
          10139409,
          10139418
        ],
        "postalCode": "K7A4S7",
        "streetName": "HWY 15",
        "streetDirectionId": null,
        "streetTypeId": null,
        "placeName": "SMITHS FALLS",
        "streetNameDisplayText": "HWY 15, SMITHS FALLS"
      },
      {
        "electoralDistricts": [
          {
            "election": null,
            "id": 51,
            "name": "Lanark—Frontenac—Kingston"
          }
        ],
        "pollDivisionIds": [
          10139409
        ],
        "postalCode": "K7A4S7",
        "streetName": "IRISH",
        "streetDirectionId": null,
        "streetTypeId": "ST",
        "placeName": "SMITHS FALLS",
        "streetNameDisplayText": "IRISH ST, SMITHS FALLS"
      },
      {
        "electoralDistricts": [
          {
            "election": null,
            "id": 51,
            "name": "Lanark—Frontenac—Kingston"
          }
        ],
        "pollDivisionIds": [
          10139409
        ],
        "postalCode": "K7A4S7",
        "streetName": "IRVINE",
        "streetDirectionId": null,
        "streetTypeId": "RD",
        "placeName": "SMITHS FALLS",
        "streetNameDisplayText": "IRVINE RD, SMITHS FALLS"
      },
      {
        "electoralDistricts": [
          {
            "election": null,
            "id": 51,
            "name": "Lanark—Frontenac—Kingston"
          }
        ],
        "pollDivisionIds": [
          10139409
        ],
        "postalCode": "K7A4S7",
        "streetName": "IRVINE",
        "streetDirectionId": null,
        "streetTypeId": "ST",
        "placeName": "SMITHS FALLS",
        "streetNameDisplayText": "IRVINE ST, SMITHS FALLS"
      },
      {
        "electoralDistricts": [
          {
            "election": null,
            "id": 51,
            "name": "Lanark—Frontenac—Kingston"
          }
        ],
        "pollDivisionIds": [
          10139418
        ],
        "postalCode": "K7A4S7",
        "streetName": "KELLY JORDAN",
        "streetDirectionId": null,
        "streetTypeId": "RD",
        "placeName": "SMITHS FALLS",
        "streetNameDisplayText": "KELLY JORDAN RD, SMITHS FALLS"
      },
      {
        "electoralDistricts": [
          {
            "election": null,
            "id": 51,
            "name": "Lanark—Frontenac—Kingston"
          }
        ],
        "pollDivisionIds": [
          10139409
        ],
        "postalCode": "K7A4S7",
        "streetName": "MAITLAND",
        "streetDirectionId": null,
        "streetTypeId": "ST",
        "placeName": "SMITHS FALLS",
        "streetNameDisplayText": "MAITLAND ST, SMITHS FALLS"
      },
      {
        "electoralDistricts": [
          {
            "election": null,
            "id": 51,
            "name": "Lanark—Frontenac—Kingston"
          }
        ],
        "pollDivisionIds": [
          10139409
        ],
        "postalCode": "K7A4S7",
        "streetName": "MALCOLMS",
        "streetDirectionId": null,
        "streetTypeId": "WAY",
        "placeName": "SMITHS FALLS",
        "streetNameDisplayText": "MALCOLMS WAY, SMITHS FALLS"
      },
      {
        "electoralDistricts": [
          {
            "election": null,
            "id": 51,
            "name": "Lanark—Frontenac—Kingston"
          }
        ],
        "pollDivisionIds": [
          10139409
        ],
        "postalCode": "K7A4S7",
        "streetName": "MALCOLM'S",
        "streetDirectionId": null,
        "streetTypeId": "WAY",
        "placeName": "SMITHS FALLS",
        "streetNameDisplayText": "MALCOLM'S WAY, SMITHS FALLS"
      },
      {
        "electoralDistricts": [
          {
            "election": null,
            "id": 51,
            "name": "Lanark—Frontenac—Kingston"
          }
        ],
        "pollDivisionIds": [
          10139409
        ],
        "postalCode": "K7A4S7",
        "streetName": "MALCOMS",
        "streetDirectionId": null,
        "streetTypeId": "WAY",
        "placeName": "SMITHS FALLS",
        "streetNameDisplayText": "MALCOMS WAY, SMITHS FALLS"
      },
      {
        "electoralDistricts": [
          {
            "election": null,
            "id": 51,
            "name": "Lanark—Frontenac—Kingston"
          }
        ],
        "pollDivisionIds": [
          10139409,
          10139418
        ],
        "postalCode": "K7A4S7",
        "streetName": "MCLACHLIN",
        "streetDirectionId": null,
        "streetTypeId": "RD",
        "placeName": "SMITHS FALLS",
        "streetNameDisplayText": "MCLACHLIN RD, SMITHS FALLS"
      },
      {
        "electoralDistricts": [
          {
            "election": null,
            "id": 51,
            "name": "Lanark—Frontenac—Kingston"
          }
        ],
        "pollDivisionIds": [
          10139409
        ],
        "postalCode": "K7A4S7",
        "streetName": "MCLELLAN",
        "streetDirectionId": null,
        "streetTypeId": "RD",
        "placeName": "SMITHS FALLS",
        "streetNameDisplayText": "MCLELLAN RD, SMITHS FALLS"
      },
      {
        "electoralDistricts": [
          {
            "election": null,
            "id": 51,
            "name": "Lanark—Frontenac—Kingston"
          }
        ],
        "pollDivisionIds": [
          10139420
        ],
        "postalCode": "K7A4S7",
        "streetName": "MONTAGUE BOUNDARY",
        "streetDirectionId": null,
        "streetTypeId": "RD",
        "placeName": "SMITHS FALLS",
        "streetNameDisplayText": "MONTAGUE BOUNDARY RD, SMITHS FALLS"
      },
      {
        "electoralDistricts": [
          {
            "election": null,
            "id": 51,
            "name": "Lanark—Frontenac—Kingston"
          }
        ],
        "pollDivisionIds": [
          10139409
        ],
        "postalCode": "K7A4S7",
        "streetName": "PERTH",
        "streetDirectionId": null,
        "streetTypeId": "RD",
        "placeName": "SMITHS FALLS",
        "streetNameDisplayText": "PERTH RD, SMITHS FALLS"
      },
      {
        "electoralDistricts": [
          {
            "election": null,
            "id": 51,
            "name": "Lanark—Frontenac—Kingston"
          }
        ],
        "pollDivisionIds": [
          10139408,
          10139420,
          10139418
        ],
        "postalCode": "K7A4S7",
        "streetName": "PINERY",
        "streetDirectionId": null,
        "streetTypeId": "RD",
        "placeName": "SMITHS FALLS",
        "streetNameDisplayText": "PINERY RD, SMITHS FALLS"
      },
      {
        "electoralDistricts": [
          {
            "election": null,
            "id": 51,
            "name": "Lanark—Frontenac—Kingston"
          }
        ],
        "pollDivisionIds": [
          10139409
        ],
        "postalCode": "K7A4S7",
        "streetName": "POWELL",
        "streetDirectionId": null,
        "streetTypeId": "ST",
        "placeName": "SMITHS FALLS",
        "streetNameDisplayText": "POWELL ST, SMITHS FALLS"
      },
      {
        "electoralDistricts": [
          {
            "election": null,
            "id": 51,
            "name": "Lanark—Frontenac—Kingston"
          }
        ],
        "pollDivisionIds": [
          10139409
        ],
        "postalCode": "K7A4S7",
        "streetName": "RICHMOND",
        "streetDirectionId": null,
        "streetTypeId": "RD",
        "placeName": "SMITHS FALLS",
        "streetNameDisplayText": "RICHMOND RD, SMITHS FALLS"
      },
      {
        "electoralDistricts": [
          {
            "election": null,
            "id": 51,
            "name": "Lanark—Frontenac—Kingston"
          }
        ],
        "pollDivisionIds": [
          10139418
        ],
        "postalCode": "K7A4S7",
        "streetName": "ROSEDALE",
        "streetDirectionId": "N",
        "streetTypeId": "RD",
        "placeName": "SMITHS FALLS",
        "streetNameDisplayText": "ROSEDALE RD N, SMITHS FALLS"
      },
      {
        "electoralDistricts": [
          {
            "election": null,
            "id": 51,
            "name": "Lanark—Frontenac—Kingston"
          }
        ],
        "pollDivisionIds": [
          10139418
        ],
        "postalCode": "K7A4S7",
        "streetName": "SALTER",
        "streetDirectionId": "N",
        "streetTypeId": "CRES",
        "placeName": "SMITHS FALLS",
        "streetNameDisplayText": "SALTER CRES N, SMITHS FALLS"
      },
      {
        "electoralDistricts": [
          {
            "election": null,
            "id": 51,
            "name": "Lanark—Frontenac—Kingston"
          }
        ],
        "pollDivisionIds": [
          10139418,
          10139417
        ],
        "postalCode": "K7A4S7",
        "streetName": "SALTER",
        "streetDirectionId": null,
        "streetTypeId": "CRES",
        "placeName": "SMITHS FALLS",
        "streetNameDisplayText": "SALTER CRES, SMITHS FALLS"
      },
      {
        "electoralDistricts": [
          {
            "election": null,
            "id": 51,
            "name": "Lanark—Frontenac—Kingston"
          }
        ],
        "pollDivisionIds": [
          10139409,
          10139418
        ],
        "postalCode": "K7A4S7",
        "streetName": "SALTER",
        "streetDirectionId": "N",
        "streetTypeId": "RD",
        "placeName": "SMITHS FALLS",
        "streetNameDisplayText": "SALTER RD N, SMITHS FALLS"
      },
      {
        "electoralDistricts": [
          {
            "election": null,
            "id": 51,
            "name": "Lanark—Frontenac—Kingston"
          }
        ],
        "pollDivisionIds": [
          10139418,
          10139409
        ],
        "postalCode": "K7A4S7",
        "streetName": "SALTER",
        "streetDirectionId": null,
        "streetTypeId": "RD",
        "placeName": "SMITHS FALLS",
        "streetNameDisplayText": "SALTER RD, SMITHS FALLS"
      },
      {
        "electoralDistricts": [
          {
            "election": null,
            "id": 51,
            "name": "Lanark—Frontenac—Kingston"
          }
        ],
        "pollDivisionIds": [
          10139409
        ],
        "postalCode": "K7A4S7",
        "streetName": "SHIRLEY",
        "streetDirectionId": null,
        "streetTypeId": "RD",
        "placeName": "SMITHS FALLS",
        "streetNameDisplayText": "SHIRLEY RD, SMITHS FALLS"
      },
      {
        "electoralDistricts": [
          {
            "election": null,
            "id": 51,
            "name": "Lanark—Frontenac—Kingston"
          }
        ],
        "pollDivisionIds": [
          10139409
        ],
        "postalCode": "K7A4S7",
        "streetName": "SIXTH LINE",
        "streetDirectionId": null,
        "streetTypeId": "RD",
        "placeName": "SMITHS FALLS",
        "streetNameDisplayText": "SIXTH LINE RD, SMITHS FALLS"
      },
      {
        "electoralDistricts": [
          {
            "election": null,
            "id": 51,
            "name": "Lanark—Frontenac—Kingston"
          }
        ],
        "pollDivisionIds": [
          10139418
        ],
        "postalCode": "K7A4S7",
        "streetName": "STURGESS",
        "streetDirectionId": null,
        "streetTypeId": "RD",
        "placeName": "SMITHS FALLS",
        "streetNameDisplayText": "STURGESS RD, SMITHS FALLS"
      },
      {
        "electoralDistricts": [
          {
            "election": null,
            "id": 51,
            "name": "Lanark—Frontenac—Kingston"
          }
        ],
        "pollDivisionIds": [
          10139418
        ],
        "postalCode": "K7A4S7",
        "streetName": "UNION",
        "streetDirectionId": null,
        "streetTypeId": "ST",
        "placeName": "SMITHS FALLS",
        "streetNameDisplayText": "UNION ST, SMITHS FALLS"
      },
      {
        "electoralDistricts": [
          {
            "election": null,
            "id": 51,
            "name": "Lanark—Frontenac—Kingston"
          }
        ],
        "pollDivisionIds": [
          10139409
        ],
        "postalCode": "K7A4S7",
        "streetName": "WHIPPOORWILL",
        "streetDirectionId": null,
        "streetTypeId": "RD",
        "placeName": "SMITHS FALLS",
        "streetNameDisplayText": "WHIPPOORWILL RD, SMITHS FALLS"
      }
    ]
  },
  {
    "postal": "K7A6C2",
    "result": []
  },
  {
    "postal": "K7A8W3",
    "result": []
  },
  {
    "postal": "K7A4M5",
    "result": [
      {
        "electoralDistricts": [
          {
            "election": null,
            "id": 51,
            "name": "Lanark—Frontenac—Kingston"
          }
        ],
        "pollDivisionIds": [
          10139430
        ],
        "postalCode": "K7A4M5",
        "streetName": "ABEL",
        "streetDirectionId": null,
        "streetTypeId": "ST",
        "placeName": "SMITHS FALLS",
        "streetNameDisplayText": "ABEL ST, SMITHS FALLS"
      }
    ]
  },
  {
    "postal": "K7A5T1",
    "result": []
  },
  {
    "postal": "K7A3B3",
    "result": [
      {
        "electoralDistricts": [
          {
            "election": null,
            "id": 51,
            "name": "Lanark—Frontenac—Kingston"
          }
        ],
        "pollDivisionIds": [
          10139419
        ],
        "postalCode": "K7A3B3",
        "streetName": "SMITHS FALLS",
        "streetDirectionId": null,
        "streetTypeId": "AVE",
        "placeName": "SMITHS FALLS",
        "streetNameDisplayText": "SMITHS FALLS AVE, SMITHS FALLS"
      }
    ]
  },
  {
    "postal": "K7A6C6",
    "result": []
  },
  {
    "postal": "K7A7N8",
    "result": []
  },
  {
    "postal": "K7A2Y3",
    "result": [
      {
        "electoralDistricts": [
          {
            "election": null,
            "id": 51,
            "name": "Lanark—Frontenac—Kingston"
          }
        ],
        "pollDivisionIds": [
          10139419
        ],
        "postalCode": "K7A2Y3",
        "streetName": "CHAMBERS",
        "streetDirectionId": null,
        "streetTypeId": "ST",
        "placeName": "SMITHS FALLS",
        "streetNameDisplayText": "CHAMBERS ST, SMITHS FALLS"
      }
    ]
  },
  {
    "postal": "K7A2R6",
    "result": [
      {
        "electoralDistricts": [
          {
            "election": null,
            "id": 51,
            "name": "Lanark—Frontenac—Kingston"
          }
        ],
        "pollDivisionIds": [
          10139418
        ],
        "postalCode": "K7A2R6",
        "streetName": "MCCANN",
        "streetDirectionId": null,
        "streetTypeId": "ST",
        "placeName": "SMITHS FALLS",
        "streetNameDisplayText": "MCCANN ST, SMITHS FALLS"
      }
    ]
  },
  {
    "postal": "K7A7N3",
    "result": []
  },
  {
    "postal": "K7A8J2",
    "result": []
  },
  {
    "postal": "K7A6A9",
    "result": []
  },
  {
    "postal": "K7A3V2",
    "result": []
  },
  {
    "postal": "K7A2N3",
    "result": [
      {
        "electoralDistricts": [
          {
            "election": null,
            "id": 51,
            "name": "Lanark—Frontenac—Kingston"
          }
        ],
        "pollDivisionIds": [
          10139419
        ],
        "postalCode": "K7A2N3",
        "streetName": "WINNIFRED",
        "streetDirectionId": "N",
        "streetTypeId": "ST",
        "placeName": "SMITHS FALLS",
        "streetNameDisplayText": "WINNIFRED ST N, SMITHS FALLS"
      }
    ]
  },
  {
    "postal": "K7A1S5",
    "result": [
      {
        "electoralDistricts": [
          {
            "election": null,
            "id": 51,
            "name": "Lanark—Frontenac—Kingston"
          }
        ],
        "pollDivisionIds": [
          10139418
        ],
        "postalCode": "K7A1S5",
        "streetName": "GLEN",
        "streetDirectionId": null,
        "streetTypeId": "AVE",
        "placeName": "SMITHS FALLS",
        "streetNameDisplayText": "GLEN AVE, SMITHS FALLS"
      }
    ]
  },
  {
    "postal": "K7A4T7",
    "result": [
      {
        "electoralDistricts": [
          {
            "election": null,
            "id": 51,
            "name": "Lanark—Frontenac—Kingston"
          }
        ],
        "pollDivisionIds": [
          10139417
        ],
        "postalCode": "K7A4T7",
        "streetName": "43",
        "streetDirectionId": null,
        "streetTypeId": "HWY",
        "placeName": "SMITHS FALLS",
        "streetNameDisplayText": "43 HWY, SMITHS FALLS"
      }
    ]
  },
  {
    "postal": "K7A6Y7",
    "result": []
  },
  {
    "postal": "K7A0W7",
    "result": []
  },
  {
    "postal": "K7A2W9",
    "result": [
      {
        "electoralDistricts": [
          {
            "election": null,
            "id": 51,
            "name": "Lanark—Frontenac—Kingston"
          }
        ],
        "pollDivisionIds": [
          10139419
        ],
        "postalCode": "K7A2W9",
        "streetName": "JUBILEE",
        "streetDirectionId": null,
        "streetTypeId": "ST",
        "placeName": "SMITHS FALLS",
        "streetNameDisplayText": "JUBILEE ST, SMITHS FALLS"
      }
    ]
  },
  {
    "postal": "K7A8V0",
    "result": []
  },
  {
    "postal": "K7A0H4",
    "result": []
  },
  {
    "postal": "K7A2T1",
    "result": [
      {
        "electoralDistricts": [
          {
            "election": null,
            "id": 51,
            "name": "Lanark—Frontenac—Kingston"
          }
        ],
        "pollDivisionIds": [
          10139418
        ],
        "postalCode": "K7A2T1",
        "streetName": "CONDIE",
        "streetDirectionId": null,
        "streetTypeId": "ST",
        "placeName": "SMITHS FALLS",
        "streetNameDisplayText": "CONDIE ST, SMITHS FALLS"
      }
    ]
  },
  {
    "postal": "K7A1B1",
    "result": [
      {
        "electoralDistricts": [
          {
            "election": null,
            "id": 51,
            "name": "Lanark—Frontenac—Kingston"
          }
        ],
        "pollDivisionIds": [
          10139419
        ],
        "postalCode": "K7A1B1",
        "streetName": "MAIN",
        "streetDirectionId": "E",
        "streetTypeId": "ST",
        "placeName": "SMITHS FALLS",
        "streetNameDisplayText": "MAIN ST E, SMITHS FALLS"
      }
    ]
  },
  {
    "postal": "K7A8B6",
    "result": []
  },
  {
    "postal": "K7A6H1",
    "result": []
  },
  {
    "postal": "K7A8T8",
    "result": []
  },
  {
    "postal": "K7A0T4",
    "result": []
  },
  {
    "postal": "K7A2C4",
    "result": [
      {
        "electoralDistricts": [
          {
            "election": null,
            "id": 51,
            "name": "Lanark—Frontenac—Kingston"
          }
        ],
        "pollDivisionIds": [
          10139418
        ],
        "postalCode": "K7A2C4",
        "streetName": "BECKWITH",
        "streetDirectionId": "N",
        "streetTypeId": "ST",
        "placeName": "SMITHS FALLS",
        "streetNameDisplayText": "BECKWITH ST N, SMITHS FALLS"
      }
    ]
  },
  {
    "postal": "K7A8N3",
    "result": []
  },
  {
    "postal": "K7A4L8",
    "result": [
      {
        "electoralDistricts": [
          {
            "election": null,
            "id": 51,
            "name": "Lanark—Frontenac—Kingston"
          }
        ],
        "pollDivisionIds": [
          10139430
        ],
        "postalCode": "K7A4L8",
        "streetName": "ABEL",
        "streetDirectionId": null,
        "streetTypeId": "ST",
        "placeName": "SMITHS FALLS",
        "streetNameDisplayText": "ABEL ST, SMITHS FALLS"
      }
    ]
  },
  {
    "postal": "K7A2B5",
    "result": [
      {
        "electoralDistricts": [
          {
            "election": null,
            "id": 51,
            "name": "Lanark—Frontenac—Kingston"
          }
        ],
        "pollDivisionIds": [
          10139418
        ],
        "postalCode": "K7A2B5",
        "streetName": "BECKWITH",
        "streetDirectionId": "N",
        "streetTypeId": "ST",
        "placeName": "SMITHS FALLS",
        "streetNameDisplayText": "BECKWITH ST N, SMITHS FALLS"
      }
    ]
  },
  {
    "postal": "K7A3H1",
    "result": [
      {
        "electoralDistricts": [
          {
            "election": null,
            "id": 51,
            "name": "Lanark—Frontenac—Kingston"
          }
        ],
        "pollDivisionIds": [
          10139419
        ],
        "postalCode": "K7A3H1",
        "streetName": "SECOND",
        "streetDirectionId": null,
        "streetTypeId": "ST",
        "placeName": "SMITHS FALLS",
        "streetNameDisplayText": "SECOND ST, SMITHS FALLS"
      }
    ]
  },
  {
    "postal": "K7A4Y1",
    "result": [
      {
        "electoralDistricts": [
          {
            "election": null,
            "id": 51,
            "name": "Lanark—Frontenac—Kingston"
          }
        ],
        "pollDivisionIds": [
          10139419,
          10139418
        ],
        "postalCode": "K7A4Y1",
        "streetName": "ROGER STEVENS",
        "streetDirectionId": null,
        "streetTypeId": "DR",
        "placeName": "SMITHS FALLS",
        "streetNameDisplayText": "ROGER STEVENS DR, SMITHS FALLS"
      }
    ]
  },
  {
    "postal": "K7A7E2",
    "result": []
  },
  {
    "postal": "K7A2P5",
    "result": [
      {
        "electoralDistricts": [
          {
            "election": null,
            "id": 51,
            "name": "Lanark—Frontenac—Kingston"
          }
        ],
        "pollDivisionIds": [
          10139418
        ],
        "postalCode": "K7A2P5",
        "streetName": "VICTORIA",
        "streetDirectionId": null,
        "streetTypeId": "AVE",
        "placeName": "SMITHS FALLS",
        "streetNameDisplayText": "VICTORIA AVE, SMITHS FALLS"
      }
    ]
  },
  {
    "postal": "K7A8R7",
    "result": []
  },
  {
    "postal": "K7A9P1",
    "result": []
  },
  {
    "postal": "K7A3B8",
    "result": [
      {
        "electoralDistricts": [
          {
            "election": null,
            "id": 51,
            "name": "Lanark—Frontenac—Kingston"
          }
        ],
        "pollDivisionIds": [
          10139419
        ],
        "postalCode": "K7A3B8",
        "streetName": "CENTRE",
        "streetDirectionId": null,
        "streetTypeId": "ST",
        "placeName": "SMITHS FALLS",
        "streetNameDisplayText": "CENTRE ST, SMITHS FALLS"
      }
    ]
  },
  {
    "postal": "K7A3P7",
    "result": [
      {
        "electoralDistricts": [
          {
            "election": null,
            "id": 51,
            "name": "Lanark—Frontenac—Kingston"
          }
        ],
        "pollDivisionIds": [
          10139419
        ],
        "postalCode": "K7A3P7",
        "streetName": "MARY",
        "streetDirectionId": "S",
        "streetTypeId": "ST",
        "placeName": "SMITHS FALLS",
        "streetNameDisplayText": "MARY ST S, SMITHS FALLS"
      }
    ]
  },
  {
    "postal": "K7A9B2",
    "result": []
  },
  {
    "postal": "K7A6Z3",
    "result": []
  },
  {
    "postal": "K7A4N5",
    "result": [
      {
        "electoralDistricts": [
          {
            "election": null,
            "id": 51,
            "name": "Lanark—Frontenac—Kingston"
          }
        ],
        "pollDivisionIds": [
          10139430
        ],
        "postalCode": "K7A4N5",
        "streetName": "ABERDEEN",
        "streetDirectionId": null,
        "streetTypeId": "AVE",
        "placeName": "SMITHS FALLS",
        "streetNameDisplayText": "ABERDEEN AVE, SMITHS FALLS"
      }
    ]
  },
  {
    "postal": "K7A8T3",
    "result": []
  },
  {
    "postal": "K7A1V2",
    "result": [
      {
        "electoralDistricts": [
          {
            "election": null,
            "id": 51,
            "name": "Lanark—Frontenac—Kingston"
          }
        ],
        "pollDivisionIds": [
          10139418
        ],
        "postalCode": "K7A1V2",
        "streetName": "JOHNSTON",
        "streetDirectionId": null,
        "streetTypeId": "ST",
        "placeName": "SMITHS FALLS",
        "streetNameDisplayText": "JOHNSTON ST, SMITHS FALLS"
      }
    ]
  },
  {
    "postal": "K7A1Y0",
    "result": []
  },
  {
    "postal": "K7A3G6",
    "result": [
      {
        "electoralDistricts": [
          {
            "election": null,
            "id": 51,
            "name": "Lanark—Frontenac—Kingston"
          }
        ],
        "pollDivisionIds": [
          10139419
        ],
        "postalCode": "K7A3G6",
        "streetName": "SECOND",
        "streetDirectionId": null,
        "streetTypeId": "ST",
        "placeName": "SMITHS FALLS",
        "streetNameDisplayText": "SECOND ST, SMITHS FALLS"
      }
    ]
  },
  {
    "postal": "K7A3H7",
    "result": [
      {
        "electoralDistricts": [
          {
            "election": null,
            "id": 51,
            "name": "Lanark—Frontenac—Kingston"
          }
        ],
        "pollDivisionIds": [
          10139419
        ],
        "postalCode": "K7A3H7",
        "streetName": "THIRD",
        "streetDirectionId": null,
        "streetTypeId": "ST",
        "placeName": "SMITHS FALLS",
        "streetNameDisplayText": "THIRD ST, SMITHS FALLS"
      }
    ]
  },
  {
    "postal": "K7A7X8",
    "result": []
  },
  {
    "postal": "K7A0C7",
    "result": []
  },
  {
    "postal": "K7A0W9",
    "result": []
  },
  {
    "postal": "K7A8E6",
    "result": []
  },
  {
    "postal": "K7A9Z8",
    "result": []
  },
  {
    "postal": "K7A3P4",
    "result": []
  },
  {
    "postal": "K7A6L8",
    "result": []
  },
  {
    "postal": "K7A2R4",
    "result": [
      {
        "electoralDistricts": [
          {
            "election": null,
            "id": 51,
            "name": "Lanark—Frontenac—Kingston"
          }
        ],
        "pollDivisionIds": [
          10139418
        ],
        "postalCode": "K7A2R4",
        "streetName": "MCCANN",
        "streetDirectionId": null,
        "streetTypeId": "ST",
        "placeName": "SMITHS FALLS",
        "streetNameDisplayText": "MCCANN ST, SMITHS FALLS"
      }
    ]
  },
  {
    "postal": "K7A2W1",
    "result": [
      {
        "electoralDistricts": [
          {
            "election": null,
            "id": 51,
            "name": "Lanark—Frontenac—Kingston"
          }
        ],
        "pollDivisionIds": [
          10139419
        ],
        "postalCode": "K7A2W1",
        "streetName": "ALICE",
        "streetDirectionId": null,
        "streetTypeId": "ST",
        "placeName": "SMITHS FALLS",
        "streetNameDisplayText": "ALICE ST, SMITHS FALLS"
      }
    ]
  },
  {
    "postal": "K7A9H8",
    "result": []
  },
  {
    "postal": "K7A8X9",
    "result": []
  },
  {
    "postal": "K7A7H4",
    "result": []
  },
  {
    "postal": "K7A3J1",
    "result": [
      {
        "electoralDistricts": [
          {
            "election": null,
            "id": 51,
            "name": "Lanark—Frontenac—Kingston"
          }
        ],
        "pollDivisionIds": [
          10139417
        ],
        "postalCode": "K7A3J1",
        "streetName": "43",
        "streetDirectionId": null,
        "streetTypeId": "HWY",
        "placeName": "SMITHS FALLS",
        "streetNameDisplayText": "43 HWY, SMITHS FALLS"
      },
      {
        "electoralDistricts": [
          {
            "election": null,
            "id": 51,
            "name": "Lanark—Frontenac—Kingston"
          }
        ],
        "pollDivisionIds": [
          10139419
        ],
        "postalCode": "K7A3J1",
        "streetName": "THIRD",
        "streetDirectionId": null,
        "streetTypeId": "ST",
        "placeName": "SMITHS FALLS",
        "streetNameDisplayText": "THIRD ST, SMITHS FALLS"
      }
    ]
  },
  {
    "postal": "K7A1P4",
    "result": [
      {
        "electoralDistricts": [
          {
            "election": null,
            "id": 51,
            "name": "Lanark—Frontenac—Kingston"
          }
        ],
        "pollDivisionIds": [
          10139418
        ],
        "postalCode": "K7A1P4",
        "streetName": "RUSSELL",
        "streetDirectionId": "W",
        "streetTypeId": "ST",
        "placeName": "SMITHS FALLS",
        "streetNameDisplayText": "RUSSELL ST W, SMITHS FALLS"
      }
    ]
  },
  {
    "postal": "K7A2A3",
    "result": [
      {
        "electoralDistricts": [
          {
            "election": null,
            "id": 51,
            "name": "Lanark—Frontenac—Kingston"
          }
        ],
        "pollDivisionIds": [
          10139418
        ],
        "postalCode": "K7A2A3",
        "streetName": "MAPLE",
        "streetDirectionId": null,
        "streetTypeId": "AVE",
        "placeName": "SMITHS FALLS",
        "streetNameDisplayText": "MAPLE AVE, SMITHS FALLS"
      }
    ]
  },
  {
    "postal": "K7A0Z1",
    "result": []
  },
  {
    "postal": "K7A1C1",
    "result": [
      {
        "electoralDistricts": [
          {
            "election": null,
            "id": 51,
            "name": "Lanark—Frontenac—Kingston"
          }
        ],
        "pollDivisionIds": [
          10139419
        ],
        "postalCode": "K7A1C1",
        "streetName": "WILLIAM",
        "streetDirectionId": "E",
        "streetTypeId": "ST",
        "placeName": "SMITHS FALLS",
        "streetNameDisplayText": "WILLIAM ST E, SMITHS FALLS"
      }
    ]
  },
  {
    "postal": "K7A0H3",
    "result": []
  },
  {
    "postal": "K7A7B0",
    "result": []
  },
  {
    "postal": "K7A5K2",
    "result": [
      {
        "electoralDistricts": [
          {
            "election": null,
            "id": 51,
            "name": "Lanark—Frontenac—Kingston"
          }
        ],
        "pollDivisionIds": [
          10139430
        ],
        "postalCode": "K7A5K2",
        "streetName": "LOMBARD",
        "streetDirectionId": null,
        "streetTypeId": "ST",
        "placeName": "SMITHS FALLS",
        "streetNameDisplayText": "LOMBARD ST, SMITHS FALLS"
      }
    ]
  },
  {
    "postal": "K7A1E9",
    "result": [
      {
        "electoralDistricts": [
          {
            "election": null,
            "id": 51,
            "name": "Lanark—Frontenac—Kingston"
          }
        ],
        "pollDivisionIds": [
          10139419
        ],
        "postalCode": "K7A1E9",
        "streetName": "RUSSELL",
        "streetDirectionId": "E",
        "streetTypeId": "ST",
        "placeName": "SMITHS FALLS",
        "streetNameDisplayText": "RUSSELL ST E, SMITHS FALLS"
      }
    ]
  },
  {
    "postal": "K7A9W7",
    "result": []
  },
  {
    "postal": "K7A5W6",
    "result": []
  },
  {
    "postal": "K7A6S6",
    "result": []
  },
  {
    "postal": "K7A2P8",
    "result": [
      {
        "electoralDistricts": [
          {
            "election": null,
            "id": 51,
            "name": "Lanark—Frontenac—Kingston"
          }
        ],
        "pollDivisionIds": [
          10139418
        ],
        "postalCode": "K7A2P8",
        "streetName": "BOND",
        "streetDirectionId": null,
        "streetTypeId": "ST",
        "placeName": "SMITHS FALLS",
        "streetNameDisplayText": "BOND ST, SMITHS FALLS"
      }
    ]
  },
  {
    "postal": "K7A4P8",
    "result": [
      {
        "electoralDistricts": [
          {
            "election": null,
            "id": 51,
            "name": "Lanark—Frontenac—Kingston"
          }
        ],
        "pollDivisionIds": [
          10139430
        ],
        "postalCode": "K7A4P8",
        "streetName": "HOGAN",
        "streetDirectionId": null,
        "streetTypeId": "AVE",
        "placeName": "SMITHS FALLS",
        "streetNameDisplayText": "HOGAN AVE, SMITHS FALLS"
      }
    ]
  },
  {
    "postal": "K7A0V9",
    "result": []
  },
  {
    "postal": "K7A5Y2",
    "result": []
  },
  {
    "postal": "K7A7Z7",
    "result": []
  },
  {
    "postal": "K7A6Y8",
    "result": []
  },
  {
    "postal": "K7A2G7",
    "result": [
      {
        "electoralDistricts": [
          {
            "election": null,
            "id": 51,
            "name": "Lanark—Frontenac—Kingston"
          }
        ],
        "pollDivisionIds": [
          10139419
        ],
        "postalCode": "K7A2G7",
        "streetName": "ELMSLEY",
        "streetDirectionId": "N",
        "streetTypeId": "ST",
        "placeName": "SMITHS FALLS",
        "streetNameDisplayText": "ELMSLEY ST N, SMITHS FALLS"
      }
    ]
  },
  {
    "postal": "K7A8C1",
    "result": []
  },
  {
    "postal": "K7A5C5",
    "result": [
      {
        "electoralDistricts": [
          {
            "election": null,
            "id": 51,
            "name": "Lanark—Frontenac—Kingston"
          }
        ],
        "pollDivisionIds": [
          10139419
        ],
        "postalCode": "K7A5C5",
        "streetName": "FIFTH",
        "streetDirectionId": null,
        "streetTypeId": "ST",
        "placeName": "SMITHS FALLS",
        "streetNameDisplayText": "FIFTH ST, SMITHS FALLS"
      }
    ]
  },
  {
    "postal": "K7A2X8",
    "result": [
      {
        "electoralDistricts": [
          {
            "election": null,
            "id": 51,
            "name": "Lanark—Frontenac—Kingston"
          }
        ],
        "pollDivisionIds": [
          10139419
        ],
        "postalCode": "K7A2X8",
        "streetName": "MINTO",
        "streetDirectionId": null,
        "streetTypeId": "ST",
        "placeName": "SMITHS FALLS",
        "streetNameDisplayText": "MINTO ST, SMITHS FALLS"
      }
    ]
  },
  {
    "postal": "K7A1W5",
    "result": [
      {
        "electoralDistricts": [
          {
            "election": null,
            "id": 51,
            "name": "Lanark—Frontenac—Kingston"
          }
        ],
        "pollDivisionIds": [
          10139418
        ],
        "postalCode": "K7A1W5",
        "streetName": "ABBOTT",
        "streetDirectionId": "N",
        "streetTypeId": "ST",
        "placeName": "SMITHS FALLS",
        "streetNameDisplayText": "ABBOTT ST N, SMITHS FALLS"
      }
    ]
  },
  {
    "postal": "K7A7G0",
    "result": []
  },
  {
    "postal": "K7A8J8",
    "result": []
  },
  {
    "postal": "K7A3Y0",
    "result": []
  },
  {
    "postal": "K7A9T7",
    "result": []
  },
  {
    "postal": "K7A5P4",
    "result": []
  },
  {
    "postal": "K7A4B0",
    "result": []
  },
  {
    "postal": "K7A9N8",
    "result": []
  },
  {
    "postal": "K7A4A7",
    "result": [
      {
        "electoralDistricts": [
          {
            "election": null,
            "id": 51,
            "name": "Lanark—Frontenac—Kingston"
          }
        ],
        "pollDivisionIds": [
          10139430
        ],
        "postalCode": "K7A4A7",
        "streetName": "ISABELLA",
        "streetDirectionId": null,
        "streetTypeId": "ST",
        "placeName": "SMITHS FALLS",
        "streetNameDisplayText": "ISABELLA ST, SMITHS FALLS"
      }
    ]
  },
  {
    "postal": "K7A4H9",
    "result": [
      {
        "electoralDistricts": [
          {
            "election": null,
            "id": 51,
            "name": "Lanark—Frontenac—Kingston"
          }
        ],
        "pollDivisionIds": [
          10139430
        ],
        "postalCode": "K7A4H9",
        "streetName": "ALFRED",
        "streetDirectionId": null,
        "streetTypeId": "ST",
        "placeName": "SMITHS FALLS",
        "streetNameDisplayText": "ALFRED ST, SMITHS FALLS"
      }
    ]
  },
  {
    "postal": "K7A6X1",
    "result": []
  },
  {
    "postal": "K7A9Y7",
    "result": []
  },
  {
    "postal": "K7A2Y5",
    "result": [
      {
        "electoralDistricts": [
          {
            "election": null,
            "id": 51,
            "name": "Lanark—Frontenac—Kingston"
          }
        ],
        "pollDivisionIds": [
          10139419
        ],
        "postalCode": "K7A2Y5",
        "streetName": "CHAMBERS",
        "streetDirectionId": null,
        "streetTypeId": "ST",
        "placeName": "SMITHS FALLS",
        "streetNameDisplayText": "CHAMBERS ST, SMITHS FALLS"
      }
    ]
  },
  {
    "postal": "K7A8L7",
    "result": []
  },
  {
    "postal": "K7A2A8",
    "result": [
      {
        "electoralDistricts": [
          {
            "election": null,
            "id": 51,
            "name": "Lanark—Frontenac—Kingston"
          }
        ],
        "pollDivisionIds": [
          10139418,
          10139419
        ],
        "postalCode": "K7A2A8",
        "streetName": "BECKWITH",
        "streetDirectionId": "S",
        "streetTypeId": "ST",
        "placeName": "SMITHS FALLS",
        "streetNameDisplayText": "BECKWITH ST S, SMITHS FALLS"
      }
    ]
  },
  {
    "postal": "K7A2K9",
    "result": [
      {
        "electoralDistricts": [
          {
            "election": null,
            "id": 51,
            "name": "Lanark—Frontenac—Kingston"
          }
        ],
        "pollDivisionIds": [
          10139418
        ],
        "postalCode": "K7A2K9",
        "streetName": "MAITLAND",
        "streetDirectionId": null,
        "streetTypeId": "ST",
        "placeName": "SMITHS FALLS",
        "streetNameDisplayText": "MAITLAND ST, SMITHS FALLS"
      }
    ]
  },
  {
    "postal": "K7A3E5",
    "result": [
      {
        "electoralDistricts": [
          {
            "election": null,
            "id": 51,
            "name": "Lanark—Frontenac—Kingston"
          }
        ],
        "pollDivisionIds": [
          10139419
        ],
        "postalCode": "K7A3E5",
        "streetName": "THOMAS",
        "streetDirectionId": null,
        "streetTypeId": "ST",
        "placeName": "SMITHS FALLS",
        "streetNameDisplayText": "THOMAS ST, SMITHS FALLS"
      }
    ]
  },
  {
    "postal": "K7A8N6",
    "result": []
  },
  {
    "postal": "K7A8J4",
    "result": []
  },
  {
    "postal": "K7A4R7",
    "result": [
      {
        "electoralDistricts": [
          {
            "election": null,
            "id": 51,
            "name": "Lanark—Frontenac—Kingston"
          }
        ],
        "pollDivisionIds": [
          10139430
        ],
        "postalCode": "K7A4R7",
        "streetName": "MERRICK",
        "streetDirectionId": null,
        "streetTypeId": "ST",
        "placeName": "SMITHS FALLS",
        "streetNameDisplayText": "MERRICK ST, SMITHS FALLS"
      }
    ]
  },
  {
    "postal": "K7A9K1",
    "result": []
  },
  {
    "postal": "K7A8E1",
    "result": []
  },
  {
    "postal": "K7A0R1",
    "result": []
  },
  {
    "postal": "K7A4J3",
    "result": [
      {
        "electoralDistricts": [
          {
            "election": null,
            "id": 51,
            "name": "Lanark—Frontenac—Kingston"
          }
        ],
        "pollDivisionIds": [
          10139430
        ],
        "postalCode": "K7A4J3",
        "streetName": "ALFRED",
        "streetDirectionId": null,
        "streetTypeId": "ST",
        "placeName": "SMITHS FALLS",
        "streetNameDisplayText": "ALFRED ST, SMITHS FALLS"
      }
    ]
  },
  {
    "postal": "K7A7E7",
    "result": []
  },
  {
    "postal": "K7A0J0",
    "result": []
  },
  {
    "postal": "K7A7R8",
    "result": []
  },
  {
    "postal": "K7A9X0",
    "result": []
  },
  {
    "postal": "K7A7P6",
    "result": []
  },
  {
    "postal": "K7A0R7",
    "result": []
  },
  {
    "postal": "K7A5W1",
    "result": []
  },
  {
    "postal": "K7A0K4",
    "result": []
  },
  {
    "postal": "K7A7N9",
    "result": []
  },
  {
    "postal": "K7A1N0",
    "result": []
  },
  {
    "postal": "K7A6P3",
    "result": []
  },
  {
    "postal": "K7A5A1",
    "result": [
      {
        "electoralDistricts": [
          {
            "election": null,
            "id": 51,
            "name": "Lanark—Frontenac—Kingston"
          }
        ],
        "pollDivisionIds": [
          10139419
        ],
        "postalCode": "K7A5A1",
        "streetName": "EMPRESS",
        "streetDirectionId": null,
        "streetTypeId": "AVE",
        "placeName": "SMITHS FALLS",
        "streetNameDisplayText": "EMPRESS AVE, SMITHS FALLS"
      }
    ]
  },
  {
    "postal": "K7A9M9",
    "result": []
  },
  {
    "postal": "K7A7T6",
    "result": []
  },
  {
    "postal": "K7A3X0",
    "result": []
  },
  {
    "postal": "K7A2T0",
    "result": []
  },
  {
    "postal": "K7A5X9",
    "result": []
  },
  {
    "postal": "K7A2R3",
    "result": [
      {
        "electoralDistricts": [
          {
            "election": null,
            "id": 51,
            "name": "Lanark—Frontenac—Kingston"
          }
        ],
        "pollDivisionIds": [
          10139418
        ],
        "postalCode": "K7A2R3",
        "streetName": "MCCANN",
        "streetDirectionId": null,
        "streetTypeId": "ST",
        "placeName": "SMITHS FALLS",
        "streetNameDisplayText": "MCCANN ST, SMITHS FALLS"
      }
    ]
  },
  {
    "postal": "K7A5N2",
    "result": []
  },
  {
    "postal": "K7A4Y7",
    "result": [
      {
        "electoralDistricts": [
          {
            "election": null,
            "id": 51,
            "name": "Lanark—Frontenac—Kingston"
          }
        ],
        "pollDivisionIds": [
          10139418
        ],
        "postalCode": "K7A4Y7",
        "streetName": "GRANGE",
        "streetDirectionId": null,
        "streetTypeId": "ST",
        "placeName": "SMITHS FALLS",
        "streetNameDisplayText": "GRANGE ST, SMITHS FALLS"
      }
    ]
  },
  {
    "postal": "K7A7M0",
    "result": []
  },
  {
    "postal": "K7A8P3",
    "result": []
  },
  {
    "postal": "K7A3N3",
    "result": [
      {
        "electoralDistricts": [
          {
            "election": null,
            "id": 51,
            "name": "Lanark—Frontenac—Kingston"
          }
        ],
        "pollDivisionIds": [
          10139419
        ],
        "postalCode": "K7A3N3",
        "streetName": "QUEEN",
        "streetDirectionId": null,
        "streetTypeId": "ST",
        "placeName": "SMITHS FALLS",
        "streetNameDisplayText": "QUEEN ST, SMITHS FALLS"
      }
    ]
  },
  {
    "postal": "K7A7S3",
    "result": []
  },
  {
    "postal": "K7A3V9",
    "result": [
      {
        "electoralDistricts": [
          {
            "election": null,
            "id": 52,
            "name": "Leeds—Grenville—Thousand Islands and Rideau Lakes"
          }
        ],
        "pollDivisionIds": [
          10139484
        ],
        "postalCode": "K7A3V9",
        "streetName": "CEDAR",
        "streetDirectionId": null,
        "streetTypeId": "LANE",
        "placeName": "SMITHS FALLS",
        "streetNameDisplayText": "CEDAR LANE, SMITHS FALLS"
      },
      {
        "electoralDistricts": [
          {
            "election": null,
            "id": 51,
            "name": "Lanark—Frontenac—Kingston"
          }
        ],
        "pollDivisionIds": [
          10139430
        ],
        "postalCode": "K7A3V9",
        "streetName": "CEDAR",
        "streetDirectionId": null,
        "streetTypeId": "RD",
        "placeName": "SMITHS FALLS",
        "streetNameDisplayText": "CEDAR RD, SMITHS FALLS"
      }
    ]
  },
  {
    "postal": "K7A9N7",
    "result": []
  },
  {
    "postal": "K7A0G4",
    "result": []
  },
  {
    "postal": "K7A2E2",
    "result": []
  },
  {
    "postal": "K7A7W8",
    "result": []
  },
  {
    "postal": "K7A7M5",
    "result": []
  },
  {
    "postal": "K7A5W8",
    "result": []
  },
  {
    "postal": "K7A5E5",
    "result": [
      {
        "electoralDistricts": [
          {
            "election": null,
            "id": 51,
            "name": "Lanark—Frontenac—Kingston"
          }
        ],
        "pollDivisionIds": [
          10139430
        ],
        "postalCode": "K7A5E5",
        "streetName": "PEARL",
        "streetDirectionId": null,
        "streetTypeId": "ST",
        "placeName": "SMITHS FALLS",
        "streetNameDisplayText": "PEARL ST, SMITHS FALLS"
      }
    ]
  },
  {
    "postal": "K7A1P9",
    "result": [
      {
        "electoralDistricts": [
          {
            "election": null,
            "id": 51,
            "name": "Lanark—Frontenac—Kingston"
          }
        ],
        "pollDivisionIds": [
          10139418
        ],
        "postalCode": "K7A1P9",
        "streetName": "CHURCH",
        "streetDirectionId": "W",
        "streetTypeId": "ST",
        "placeName": "SMITHS FALLS",
        "streetNameDisplayText": "CHURCH ST W, SMITHS FALLS"
      }
    ]
  },
  {
    "postal": "K7A8V8",
    "result": []
  },
  {
    "postal": "K7A9G8",
    "result": []
  },
  {
    "postal": "K7A8H9",
    "result": []
  },
  {
    "postal": "K7A1Z1",
    "result": [
      {
        "electoralDistricts": [
          {
            "election": null,
            "id": 51,
            "name": "Lanark—Frontenac—Kingston"
          }
        ],
        "pollDivisionIds": [
          10139418
        ],
        "postalCode": "K7A1Z1",
        "streetName": "GEORGE",
        "streetDirectionId": "N",
        "streetTypeId": "ST",
        "placeName": "SMITHS FALLS",
        "streetNameDisplayText": "GEORGE ST N, SMITHS FALLS"
      }
    ]
  },
  {
    "postal": "K7A8M3",
    "result": []
  },
  {
    "postal": "K7A5H6",
    "result": [
      {
        "electoralDistricts": [
          {
            "election": null,
            "id": 51,
            "name": "Lanark—Frontenac—Kingston"
          }
        ],
        "pollDivisionIds": [
          10139430
        ],
        "postalCode": "K7A5H6",
        "streetName": "MARGUERITE",
        "streetDirectionId": null,
        "streetTypeId": "ST",
        "placeName": "SMITHS FALLS",
        "streetNameDisplayText": "MARGUERITE ST, SMITHS FALLS"
      },
      {
        "electoralDistricts": [
          {
            "election": null,
            "id": 51,
            "name": "Lanark—Frontenac—Kingston"
          }
        ],
        "pollDivisionIds": [
          10139430
        ],
        "postalCode": "K7A5H6",
        "streetName": "WOOD",
        "streetDirectionId": null,
        "streetTypeId": "AVE",
        "placeName": "SMITHS FALLS",
        "streetNameDisplayText": "WOOD AVE, SMITHS FALLS"
      }
    ]
  },
  {
    "postal": "K7A7W7",
    "result": []
  },
  {
    "postal": "K7A4L0",
    "result": []
  },
  {
    "postal": "K7A2N1",
    "result": [
      {
        "electoralDistricts": [
          {
            "election": null,
            "id": 51,
            "name": "Lanark—Frontenac—Kingston"
          }
        ],
        "pollDivisionIds": [
          10139419
        ],
        "postalCode": "K7A2N1",
        "streetName": "WINNIFRED",
        "streetDirectionId": "N",
        "streetTypeId": "ST",
        "placeName": "SMITHS FALLS",
        "streetNameDisplayText": "WINNIFRED ST N, SMITHS FALLS"
      }
    ]
  },
  {
    "postal": "K7A2H4",
    "result": [
      {
        "electoralDistricts": [
          {
            "election": null,
            "id": 51,
            "name": "Lanark—Frontenac—Kingston"
          }
        ],
        "pollDivisionIds": [
          10139418
        ],
        "postalCode": "K7A2H4",
        "streetName": "ELMSLEY",
        "streetDirectionId": "N",
        "streetTypeId": "ST",
        "placeName": "SMITHS FALLS",
        "streetNameDisplayText": "ELMSLEY ST N, SMITHS FALLS"
      }
    ]
  },
  {
    "postal": "K7A5C8",
    "result": []
  },
  {
    "postal": "K7A8B0",
    "result": []
  },
  {
    "postal": "K7A1T4",
    "result": [
      {
        "electoralDistricts": [
          {
            "election": null,
            "id": 51,
            "name": "Lanark—Frontenac—Kingston"
          }
        ],
        "pollDivisionIds": [
          10139418
        ],
        "postalCode": "K7A1T4",
        "streetName": "CORNELIA",
        "streetDirectionId": "W",
        "streetTypeId": "ST",
        "placeName": "SMITHS FALLS",
        "streetNameDisplayText": "CORNELIA ST W, SMITHS FALLS"
      }
    ]
  },
  {
    "postal": "K7A7N7",
    "result": []
  },
  {
    "postal": "K7A4L3",
    "result": [
      {
        "electoralDistricts": [
          {
            "election": null,
            "id": 52,
            "name": "Leeds—Grenville—Thousand Islands and Rideau Lakes"
          },
          {
            "election": null,
            "id": 51,
            "name": "Lanark—Frontenac—Kingston"
          }
        ],
        "pollDivisionIds": [
          10139484,
          10139430
        ],
        "postalCode": "K7A4L3",
        "streetName": "BROADVIEW",
        "streetDirectionId": "W",
        "streetTypeId": "AVE",
        "placeName": "SMITHS FALLS",
        "streetNameDisplayText": "BROADVIEW AVE W, SMITHS FALLS"
      }
    ]
  },
  {
    "postal": "K7A2N2",
    "result": [
      {
        "electoralDistricts": [
          {
            "election": null,
            "id": 51,
            "name": "Lanark—Frontenac—Kingston"
          }
        ],
        "pollDivisionIds": [
          10139419
        ],
        "postalCode": "K7A2N2",
        "streetName": "WINNIFRED",
        "streetDirectionId": "N",
        "streetTypeId": "ST",
        "placeName": "SMITHS FALLS",
        "streetNameDisplayText": "WINNIFRED ST N, SMITHS FALLS"
      }
    ]
  },
  {
    "postal": "K7A4N8",
    "result": [
      {
        "electoralDistricts": [
          {
            "election": null,
            "id": 51,
            "name": "Lanark—Frontenac—Kingston"
          }
        ],
        "pollDivisionIds": [
          10139430
        ],
        "postalCode": "K7A4N8",
        "streetName": "ABERDEEN",
        "streetDirectionId": null,
        "streetTypeId": "AVE",
        "placeName": "SMITHS FALLS",
        "streetNameDisplayText": "ABERDEEN AVE, SMITHS FALLS"
      }
    ]
  },
  {
    "postal": "K7A3M5",
    "result": [
      {
        "electoralDistricts": [
          {
            "election": null,
            "id": 51,
            "name": "Lanark—Frontenac—Kingston"
          }
        ],
        "pollDivisionIds": [
          10139419
        ],
        "postalCode": "K7A3M5",
        "streetName": "MCGILL",
        "streetDirectionId": "S",
        "streetTypeId": "ST",
        "placeName": "SMITHS FALLS",
        "streetNameDisplayText": "MCGILL ST S, SMITHS FALLS"
      }
    ]
  },
  {
    "postal": "K7A6H7",
    "result": []
  },
  {
    "postal": "K7A8Y8",
    "result": []
  },
  {
    "postal": "K7A5R9",
    "result": []
  },
  {
    "postal": "K7A8G3",
    "result": []
  },
  {
    "postal": "K7A4N7",
    "result": [
      {
        "electoralDistricts": [
          {
            "election": null,
            "id": 51,
            "name": "Lanark—Frontenac—Kingston"
          }
        ],
        "pollDivisionIds": [
          10139430
        ],
        "postalCode": "K7A4N7",
        "streetName": "ABERDEEN",
        "streetDirectionId": null,
        "streetTypeId": "AVE",
        "placeName": "SMITHS FALLS",
        "streetNameDisplayText": "ABERDEEN AVE, SMITHS FALLS"
      }
    ]
  },
  {
    "postal": "K7A0B9",
    "result": []
  },
  {
    "postal": "K7A9K7",
    "result": []
  },
  {
    "postal": "K7A9K9",
    "result": []
  },
  {
    "postal": "K7A3Z2",
    "result": [
      {
        "electoralDistricts": [
          {
            "election": null,
            "id": 51,
            "name": "Lanark—Frontenac—Kingston"
          }
        ],
        "pollDivisionIds": [
          10139430
        ],
        "postalCode": "K7A3Z2",
        "streetName": "BROCKVILLE",
        "streetDirectionId": null,
        "streetTypeId": "ST",
        "placeName": "SMITHS FALLS",
        "streetNameDisplayText": "BROCKVILLE ST, SMITHS FALLS"
      }
    ]
  },
  {
    "postal": "K7A6W7",
    "result": []
  },
  {
    "postal": "K7A0P1",
    "result": []
  },
  {
    "postal": "K7A3A0",
    "result": []
  },
  {
    "postal": "K7A8L9",
    "result": []
  },
  {
    "postal": "K7A6X0",
    "result": []
  },
  {
    "postal": "K7A3E9",
    "result": [
      {
        "electoralDistricts": [
          {
            "election": null,
            "id": 51,
            "name": "Lanark—Frontenac—Kingston"
          }
        ],
        "pollDivisionIds": [
          10139419
        ],
        "postalCode": "K7A3E9",
        "streetName": "THURBER",
        "streetDirectionId": null,
        "streetTypeId": "ST",
        "placeName": "SMITHS FALLS",
        "streetNameDisplayText": "THURBER ST, SMITHS FALLS"
      }
    ]
  },
  {
    "postal": "K7A0S5",
    "result": []
  },
  {
    "postal": "K7A1A2",
    "result": [
      {
        "electoralDistricts": [
          {
            "election": null,
            "id": 51,
            "name": "Lanark—Frontenac—Kingston"
          }
        ],
        "pollDivisionIds": [
          10139419
        ],
        "postalCode": "K7A1A2",
        "streetName": "MAIN",
        "streetDirectionId": "E",
        "streetTypeId": "ST",
        "placeName": "SMITHS FALLS",
        "streetNameDisplayText": "MAIN ST E, SMITHS FALLS"
      }
    ]
  },
  {
    "postal": "K7A5V8",
    "result": []
  },
  {
    "postal": "K7A8C5",
    "result": []
  },
  {
    "postal": "K7A6N0",
    "result": []
  },
  {
    "postal": "K7A9E6",
    "result": []
  },
  {
    "postal": "K7A5J7",
    "result": [
      {
        "electoralDistricts": [
          {
            "election": null,
            "id": 51,
            "name": "Lanark—Frontenac—Kingston"
          }
        ],
        "pollDivisionIds": [
          10139419
        ],
        "postalCode": "K7A5J7",
        "streetName": "LORNE",
        "streetDirectionId": null,
        "streetTypeId": "ST",
        "placeName": "SMITHS FALLS",
        "streetNameDisplayText": "LORNE ST, SMITHS FALLS"
      }
    ]
  },
  {
    "postal": "K7A2R2",
    "result": [
      {
        "electoralDistricts": [
          {
            "election": null,
            "id": 51,
            "name": "Lanark—Frontenac—Kingston"
          }
        ],
        "pollDivisionIds": [
          10139418
        ],
        "postalCode": "K7A2R2",
        "streetName": "ANNE",
        "streetDirectionId": null,
        "streetTypeId": "ST",
        "placeName": "SMITHS FALLS",
        "streetNameDisplayText": "ANNE ST, SMITHS FALLS"
      }
    ]
  },
  {
    "postal": "K7A0P5",
    "result": []
  },
  {
    "postal": "K7A5A7",
    "result": [
      {
        "electoralDistricts": [
          {
            "election": null,
            "id": 51,
            "name": "Lanark—Frontenac—Kingston"
          }
        ],
        "pollDivisionIds": [
          10139418
        ],
        "postalCode": "K7A5A7",
        "streetName": "RIDEAU",
        "streetDirectionId": "N",
        "streetTypeId": "AVE",
        "placeName": "SMITHS FALLS",
        "streetNameDisplayText": "RIDEAU AVE N, SMITHS FALLS"
      }
    ]
  },
  {
    "postal": "K7A1G1",
    "result": [
      {
        "electoralDistricts": [
          {
            "election": null,
            "id": 51,
            "name": "Lanark—Frontenac—Kingston"
          }
        ],
        "pollDivisionIds": [
          10139419
        ],
        "postalCode": "K7A1G1",
        "streetName": "RUSSELL",
        "streetDirectionId": "E",
        "streetTypeId": "ST",
        "placeName": "SMITHS FALLS",
        "streetNameDisplayText": "RUSSELL ST E, SMITHS FALLS"
      }
    ]
  },
  {
    "postal": "K7A9R6",
    "result": []
  },
  {
    "postal": "K7A4Z9",
    "result": [
      {
        "electoralDistricts": [
          {
            "election": null,
            "id": 51,
            "name": "Lanark—Frontenac—Kingston"
          }
        ],
        "pollDivisionIds": [
          10139418
        ],
        "postalCode": "K7A4Z9",
        "streetName": "UPHILL",
        "streetDirectionId": null,
        "streetTypeId": "ST",
        "placeName": "SMITHS FALLS",
        "streetNameDisplayText": "UPHILL ST, SMITHS FALLS"
      }
    ]
  },
  {
    "postal": "K7A1V5",
    "result": [
      {
        "electoralDistricts": [
          {
            "election": null,
            "id": 51,
            "name": "Lanark—Frontenac—Kingston"
          }
        ],
        "pollDivisionIds": [
          10139418
        ],
        "postalCode": "K7A1V5",
        "streetName": "STRATHCONA",
        "streetDirectionId": null,
        "streetTypeId": "ST",
        "placeName": "SMITHS FALLS",
        "streetNameDisplayText": "STRATHCONA ST, SMITHS FALLS"
      }
    ]
  },
  {
    "postal": "K7A9Y5",
    "result": []
  },
  {
    "postal": "K7A1P2",
    "result": [
      {
        "electoralDistricts": [
          {
            "election": null,
            "id": 51,
            "name": "Lanark—Frontenac—Kingston"
          }
        ],
        "pollDivisionIds": [
          10139418
        ],
        "postalCode": "K7A1P2",
        "streetName": "RUSSELL",
        "streetDirectionId": "W",
        "streetTypeId": "ST",
        "placeName": "SMITHS FALLS",
        "streetNameDisplayText": "RUSSELL ST W, SMITHS FALLS"
      }
    ]
  },
  {
    "postal": "K7A5X0",
    "result": []
  },
  {
    "postal": "K7A7B8",
    "result": []
  },
  {
    "postal": "K7A0C6",
    "result": []
  },
  {
    "postal": "K7A6G1",
    "result": []
  },
  {
    "postal": "K7A3K3",
    "result": [
      {
        "electoralDistricts": [
          {
            "election": null,
            "id": 51,
            "name": "Lanark—Frontenac—Kingston"
          }
        ],
        "pollDivisionIds": [
          10139419
        ],
        "postalCode": "K7A3K3",
        "streetName": "FIFTH",
        "streetDirectionId": null,
        "streetTypeId": "ST",
        "placeName": "SMITHS FALLS",
        "streetNameDisplayText": "FIFTH ST, SMITHS FALLS"
      }
    ]
  },
  {
    "postal": "K7A9R0",
    "result": []
  },
  {
    "postal": "K7A4R8",
    "result": [
      {
        "electoralDistricts": [
          {
            "election": null,
            "id": 51,
            "name": "Lanark—Frontenac—Kingston"
          }
        ],
        "pollDivisionIds": [
          10139430
        ],
        "postalCode": "K7A4R8",
        "streetName": "ANDREWS",
        "streetDirectionId": null,
        "streetTypeId": "AVE",
        "placeName": "SMITHS FALLS",
        "streetNameDisplayText": "ANDREWS AVE, SMITHS FALLS"
      }
    ]
  },
  {
    "postal": "K7A5P9",
    "result": []
  },
  {
    "postal": "K7A8N4",
    "result": []
  },
  {
    "postal": "K7A8H4",
    "result": []
  },
  {
    "postal": "K7A4V1",
    "result": []
  },
  {
    "postal": "K7A1K5",
    "result": [
      {
        "electoralDistricts": [
          {
            "election": null,
            "id": 51,
            "name": "Lanark—Frontenac—Kingston"
          }
        ],
        "pollDivisionIds": [
          10139418
        ],
        "postalCode": "K7A1K5",
        "streetName": "LANARK",
        "streetDirectionId": null,
        "streetTypeId": "ST",
        "placeName": "SMITHS FALLS",
        "streetNameDisplayText": "LANARK ST, SMITHS FALLS"
      }
    ]
  },
  {
    "postal": "K7A1Z5",
    "result": [
      {
        "electoralDistricts": [
          {
            "election": null,
            "id": 51,
            "name": "Lanark—Frontenac—Kingston"
          }
        ],
        "pollDivisionIds": [
          10139418
        ],
        "postalCode": "K7A1Z5",
        "streetName": "MAPLE",
        "streetDirectionId": "N",
        "streetTypeId": "AVE",
        "placeName": "SMITHS FALLS",
        "streetNameDisplayText": "MAPLE AVE N, SMITHS FALLS"
      },
      {
        "electoralDistricts": [
          {
            "election": null,
            "id": 51,
            "name": "Lanark—Frontenac—Kingston"
          }
        ],
        "pollDivisionIds": [
          10139418
        ],
        "postalCode": "K7A1Z5",
        "streetName": "MAPLE",
        "streetDirectionId": null,
        "streetTypeId": "AVE",
        "placeName": "SMITHS FALLS",
        "streetNameDisplayText": "MAPLE AVE, SMITHS FALLS"
      }
    ]
  },
  {
    "postal": "K7A9L9",
    "result": []
  },
  {
    "postal": "K7A5L2",
    "result": [
      {
        "electoralDistricts": [
          {
            "election": null,
            "id": 51,
            "name": "Lanark—Frontenac—Kingston"
          }
        ],
        "pollDivisionIds": [
          10139430,
          10139470
        ],
        "postalCode": "K7A5L2",
        "streetName": "VAN HORNE",
        "streetDirectionId": null,
        "streetTypeId": "AVE",
        "placeName": "SMITHS FALLS",
        "streetNameDisplayText": "VAN HORNE AVE, SMITHS FALLS"
      }
    ]
  },
  {
    "postal": "K7A0M2",
    "result": []
  },
  {
    "postal": "K7A1K8",
    "result": [
      {
        "electoralDistricts": [
          {
            "election": null,
            "id": 51,
            "name": "Lanark—Frontenac—Kingston"
          }
        ],
        "pollDivisionIds": [
          10139418
        ],
        "postalCode": "K7A1K8",
        "streetName": "STEPHEN",
        "streetDirectionId": null,
        "streetTypeId": "ST",
        "placeName": "SMITHS FALLS",
        "streetNameDisplayText": "STEPHEN ST, SMITHS FALLS"
      }
    ]
  },
  {
    "postal": "K7A3M7",
    "result": [
      {
        "electoralDistricts": [
          {
            "election": null,
            "id": 51,
            "name": "Lanark—Frontenac—Kingston"
          }
        ],
        "pollDivisionIds": [
          10139419
        ],
        "postalCode": "K7A3M7",
        "streetName": "MCGILL",
        "streetDirectionId": "S",
        "streetTypeId": "ST",
        "placeName": "SMITHS FALLS",
        "streetNameDisplayText": "MCGILL ST S, SMITHS FALLS"
      }
    ]
  },
  {
    "postal": "K7A1B2",
    "result": [
      {
        "electoralDistricts": [
          {
            "election": null,
            "id": 51,
            "name": "Lanark—Frontenac—Kingston"
          }
        ],
        "pollDivisionIds": [
          10139419
        ],
        "postalCode": "K7A1B2",
        "streetName": "MAIN",
        "streetDirectionId": "E",
        "streetTypeId": "ST",
        "placeName": "SMITHS FALLS",
        "streetNameDisplayText": "MAIN ST E, SMITHS FALLS"
      }
    ]
  },
  {
    "postal": "K7A0H9",
    "result": []
  },
  {
    "postal": "K7A8M4",
    "result": []
  },
  {
    "postal": "K7A2M5",
    "result": [
      {
        "electoralDistricts": [
          {
            "election": null,
            "id": 51,
            "name": "Lanark—Frontenac—Kingston"
          }
        ],
        "pollDivisionIds": [
          10139418
        ],
        "postalCode": "K7A2M5",
        "streetName": "LEEDS",
        "streetDirectionId": null,
        "streetTypeId": "ST",
        "placeName": "SMITHS FALLS",
        "streetNameDisplayText": "LEEDS ST, SMITHS FALLS"
      }
    ]
  },
  {
    "postal": "K7A0T9",
    "result": []
  },
  {
    "postal": "K7A3P1",
    "result": [
      {
        "electoralDistricts": [
          {
            "election": null,
            "id": 51,
            "name": "Lanark—Frontenac—Kingston"
          }
        ],
        "pollDivisionIds": [
          10139419
        ],
        "postalCode": "K7A3P1",
        "streetName": "ELMSLEY",
        "streetDirectionId": "S",
        "streetTypeId": "ST",
        "placeName": "SMITHS FALLS",
        "streetNameDisplayText": "ELMSLEY ST S, SMITHS FALLS"
      }
    ]
  },
  {
    "postal": "K7A1R6",
    "result": [
      {
        "electoralDistricts": [
          {
            "election": null,
            "id": 51,
            "name": "Lanark—Frontenac—Kingston"
          }
        ],
        "pollDivisionIds": [
          10139418
        ],
        "postalCode": "K7A1R6",
        "streetName": "GLADSTONE",
        "streetDirectionId": null,
        "streetTypeId": "AVE",
        "placeName": "SMITHS FALLS",
        "streetNameDisplayText": "GLADSTONE AVE, SMITHS FALLS"
      }
    ]
  },
  {
    "postal": "K7A9V5",
    "result": []
  },
  {
    "postal": "K7A9T0",
    "result": []
  },
  {
    "postal": "K7A0A9",
    "result": [
      {
        "electoralDistricts": [
          {
            "election": null,
            "id": 51,
            "name": "Lanark—Frontenac—Kingston"
          }
        ],
        "pollDivisionIds": [
          10139430
        ],
        "postalCode": "K7A0A9",
        "streetName": "CODE",
        "streetDirectionId": null,
        "streetTypeId": "CRES",
        "placeName": "SMITHS FALLS",
        "streetNameDisplayText": "CODE CRES, SMITHS FALLS"
      }
    ]
  },
  {
    "postal": "K7A1M3",
    "result": [
      {
        "electoralDistricts": [
          {
            "election": null,
            "id": 51,
            "name": "Lanark—Frontenac—Kingston"
          }
        ],
        "pollDivisionIds": [
          10139418
        ],
        "postalCode": "K7A1M3",
        "streetName": "GREIG",
        "streetDirectionId": null,
        "streetTypeId": "ST",
        "placeName": "SMITHS FALLS",
        "streetNameDisplayText": "GREIG ST, SMITHS FALLS"
      }
    ]
  },
  {
    "postal": "K7A1W8",
    "result": [
      {
        "electoralDistricts": [
          {
            "election": null,
            "id": 51,
            "name": "Lanark—Frontenac—Kingston"
          }
        ],
        "pollDivisionIds": [
          10139418
        ],
        "postalCode": "K7A1W8",
        "streetName": "JAMES",
        "streetDirectionId": "N",
        "streetTypeId": "ST",
        "placeName": "SMITHS FALLS",
        "streetNameDisplayText": "JAMES ST N, SMITHS FALLS"
      },
      {
        "electoralDistricts": [
          {
            "election": null,
            "id": 51,
            "name": "Lanark—Frontenac—Kingston"
          }
        ],
        "pollDivisionIds": [
          10139418
        ],
        "postalCode": "K7A1W8",
        "streetName": "JAMES",
        "streetDirectionId": null,
        "streetTypeId": "ST",
        "placeName": "SMITHS FALLS",
        "streetNameDisplayText": "JAMES ST, SMITHS FALLS"
      }
    ]
  },
  {
    "postal": "K7A9J1",
    "result": []
  },
  {
    "postal": "K7A8N5",
    "result": []
  },
  {
    "postal": "K7A5X1",
    "result": []
  },
  {
    "postal": "K7A6S2",
    "result": []
  },
  {
    "postal": "K7A2A2",
    "result": [
      {
        "electoralDistricts": [
          {
            "election": null,
            "id": 51,
            "name": "Lanark—Frontenac—Kingston"
          }
        ],
        "pollDivisionIds": [
          10139418
        ],
        "postalCode": "K7A2A2",
        "streetName": "MAPLE",
        "streetDirectionId": null,
        "streetTypeId": "AVE",
        "placeName": "SMITHS FALLS",
        "streetNameDisplayText": "MAPLE AVE, SMITHS FALLS"
      }
    ]
  },
  {
    "postal": "K7A6A6",
    "result": []
  },
  {
    "postal": "K7A0S3",
    "result": []
  },
  {
    "postal": "K7A3E7",
    "result": [
      {
        "electoralDistricts": [
          {
            "election": null,
            "id": 51,
            "name": "Lanark—Frontenac—Kingston"
          }
        ],
        "pollDivisionIds": [
          10139419
        ],
        "postalCode": "K7A3E7",
        "streetName": "1ST",
        "streetDirectionId": null,
        "streetTypeId": "ST",
        "placeName": "SMITHS FALLS",
        "streetNameDisplayText": "1ST ST, SMITHS FALLS"
      },
      {
        "electoralDistricts": [
          {
            "election": null,
            "id": 51,
            "name": "Lanark—Frontenac—Kingston"
          }
        ],
        "pollDivisionIds": [
          10139419
        ],
        "postalCode": "K7A3E7",
        "streetName": "FIRST",
        "streetDirectionId": null,
        "streetTypeId": "ST",
        "placeName": "SMITHS FALLS",
        "streetNameDisplayText": "FIRST ST, SMITHS FALLS"
      }
    ]
  },
  {
    "postal": "K7A5R7",
    "result": []
  },
  {
    "postal": "K7A3R6",
    "result": [
      {
        "electoralDistricts": [
          {
            "election": null,
            "id": 51,
            "name": "Lanark—Frontenac—Kingston"
          }
        ],
        "pollDivisionIds": [
          10139419
        ],
        "postalCode": "K7A3R6",
        "streetName": "MARY",
        "streetDirectionId": "N",
        "streetTypeId": "ST",
        "placeName": "SMITHS FALLS",
        "streetNameDisplayText": "MARY ST N, SMITHS FALLS"
      }
    ]
  },
  {
    "postal": "K7A6K4",
    "result": []
  },
  {
    "postal": "K7A2W5",
    "result": [
      {
        "electoralDistricts": [
          {
            "election": null,
            "id": 51,
            "name": "Lanark—Frontenac—Kingston"
          }
        ],
        "pollDivisionIds": [
          10139419
        ],
        "postalCode": "K7A2W5",
        "streetName": "ALICE",
        "streetDirectionId": null,
        "streetTypeId": "ST",
        "placeName": "SMITHS FALLS",
        "streetNameDisplayText": "ALICE ST, SMITHS FALLS"
      }
    ]
  },
  {
    "postal": "K7A8W4",
    "result": []
  },
  {
    "postal": "K7A9C2",
    "result": []
  },
  {
    "postal": "K7A2C0",
    "result": []
  },
  {
    "postal": "K7A0E1",
    "result": []
  },
  {
    "postal": "K7A1K9",
    "result": [
      {
        "electoralDistricts": [
          {
            "election": null,
            "id": 51,
            "name": "Lanark—Frontenac—Kingston"
          }
        ],
        "pollDivisionIds": [
          10139418
        ],
        "postalCode": "K7A1K9",
        "streetName": "GROVENOR",
        "streetDirectionId": null,
        "streetTypeId": "ST",
        "placeName": "SMITHS FALLS",
        "streetNameDisplayText": "GROVENOR ST, SMITHS FALLS"
      }
    ]
  },
  {
    "postal": "K7A1G7",
    "result": [
      {
        "electoralDistricts": [
          {
            "election": null,
            "id": 51,
            "name": "Lanark—Frontenac—Kingston"
          }
        ],
        "pollDivisionIds": [
          10139419
        ],
        "postalCode": "K7A1G7",
        "streetName": "RUSSELL",
        "streetDirectionId": "E",
        "streetTypeId": "ST",
        "placeName": "SMITHS FALLS",
        "streetNameDisplayText": "RUSSELL ST E, SMITHS FALLS"
      }
    ]
  },
  {
    "postal": "K7A4E9",
    "result": [
      {
        "electoralDistricts": [
          {
            "election": null,
            "id": 51,
            "name": "Lanark—Frontenac—Kingston"
          }
        ],
        "pollDivisionIds": [
          10139430
        ],
        "postalCode": "K7A4E9",
        "streetName": "LOMBARD",
        "streetDirectionId": null,
        "streetTypeId": "ST",
        "placeName": "SMITHS FALLS",
        "streetNameDisplayText": "LOMBARD ST, SMITHS FALLS"
      }
    ]
  },
  {
    "postal": "K7A9P0",
    "result": []
  },
  {
    "postal": "K7A5H3",
    "result": []
  },
  {
    "postal": "K7A9X6",
    "result": []
  },
  {
    "postal": "K7A5N7",
    "result": []
  },
  {
    "postal": "K7A5A6",
    "result": [
      {
        "electoralDistricts": [
          {
            "election": null,
            "id": 51,
            "name": "Lanark—Frontenac—Kingston"
          }
        ],
        "pollDivisionIds": [
          10139418
        ],
        "postalCode": "K7A5A6",
        "streetName": "ALEXANDER",
        "streetDirectionId": null,
        "streetTypeId": "ST",
        "placeName": "SMITHS FALLS",
        "streetNameDisplayText": "ALEXANDER ST, SMITHS FALLS"
      }
    ]
  },
  {
    "postal": "K7A4M0",
    "result": []
  },
  {
    "postal": "K7A3V6",
    "result": [
      {
        "electoralDistricts": [
          {
            "election": null,
            "id": 51,
            "name": "Lanark—Frontenac—Kingston"
          }
        ],
        "pollDivisionIds": [
          10139430
        ],
        "postalCode": "K7A3V6",
        "streetName": "BEECH",
        "streetDirectionId": null,
        "streetTypeId": "ST",
        "placeName": "SMITHS FALLS",
        "streetNameDisplayText": "BEECH ST, SMITHS FALLS"
      }
    ]
  },
  {
    "postal": "K7A1L7",
    "result": [
      {
        "electoralDistricts": [
          {
            "election": null,
            "id": 51,
            "name": "Lanark—Frontenac—Kingston"
          }
        ],
        "pollDivisionIds": [
          10139418
        ],
        "postalCode": "K7A1L7",
        "streetName": "CORNELIA",
        "streetDirectionId": "E",
        "streetTypeId": "ST",
        "placeName": "SMITHS FALLS",
        "streetNameDisplayText": "CORNELIA ST E, SMITHS FALLS"
      }
    ]
  },
  {
    "postal": "K7A2P9",
    "result": [
      {
        "electoralDistricts": [
          {
            "election": null,
            "id": 51,
            "name": "Lanark—Frontenac—Kingston"
          }
        ],
        "pollDivisionIds": [
          10139418
        ],
        "postalCode": "K7A2P9",
        "streetName": "ANNE",
        "streetDirectionId": null,
        "streetTypeId": "ST",
        "placeName": "SMITHS FALLS",
        "streetNameDisplayText": "ANNE ST, SMITHS FALLS"
      }
    ]
  },
  {
    "postal": "K7A5T4",
    "result": []
  },
  {
    "postal": "K7A5Z1",
    "result": []
  },
  {
    "postal": "K7A2X0",
    "result": []
  },
  {
    "postal": "K7A6Z2",
    "result": []
  },
  {
    "postal": "K7A0E0",
    "result": []
  },
  {
    "postal": "K7A3Z5",
    "result": [
      {
        "electoralDistricts": [
          {
            "election": null,
            "id": 51,
            "name": "Lanark—Frontenac—Kingston"
          }
        ],
        "pollDivisionIds": [
          10139430
        ],
        "postalCode": "K7A3Z5",
        "streetName": "BROCKVILLE",
        "streetDirectionId": null,
        "streetTypeId": "ST",
        "placeName": "SMITHS FALLS",
        "streetNameDisplayText": "BROCKVILLE ST, SMITHS FALLS"
      }
    ]
  },
  {
    "postal": "K7A8H3",
    "result": []
  },
  {
    "postal": "K7A7S6",
    "result": []
  },
  {
    "postal": "K7A4C1",
    "result": [
      {
        "electoralDistricts": [
          {
            "election": null,
            "id": 51,
            "name": "Lanark—Frontenac—Kingston"
          }
        ],
        "pollDivisionIds": [
          10139430
        ],
        "postalCode": "K7A4C1",
        "streetName": "JASPER",
        "streetDirectionId": null,
        "streetTypeId": "AVE",
        "placeName": "SMITHS FALLS",
        "streetNameDisplayText": "JASPER AVE, SMITHS FALLS"
      }
    ]
  },
  {
    "postal": "K7A3K2",
    "result": [
      {
        "electoralDistricts": [
          {
            "election": null,
            "id": 51,
            "name": "Lanark—Frontenac—Kingston"
          }
        ],
        "pollDivisionIds": [
          10139419
        ],
        "postalCode": "K7A3K2",
        "streetName": "FIFTH",
        "streetDirectionId": null,
        "streetTypeId": "ST",
        "placeName": "SMITHS FALLS",
        "streetNameDisplayText": "FIFTH ST, SMITHS FALLS"
      }
    ]
  },
  {
    "postal": "K7A1Y5",
    "result": [
      {
        "electoralDistricts": [
          {
            "election": null,
            "id": 51,
            "name": "Lanark—Frontenac—Kingston"
          }
        ],
        "pollDivisionIds": [
          10139418
        ],
        "postalCode": "K7A1Y5",
        "streetName": "GEORGE",
        "streetDirectionId": "N",
        "streetTypeId": "ST",
        "placeName": "SMITHS FALLS",
        "streetNameDisplayText": "GEORGE ST N, SMITHS FALLS"
      }
    ]
  },
  {
    "postal": "K7A6P6",
    "result": []
  },
  {
    "postal": "K7A3N9",
    "result": [
      {
        "electoralDistricts": [
          {
            "election": null,
            "id": 51,
            "name": "Lanark—Frontenac—Kingston"
          }
        ],
        "pollDivisionIds": [
          10139419
        ],
        "postalCode": "K7A3N9",
        "streetName": "THOM",
        "streetDirectionId": null,
        "streetTypeId": "ST",
        "placeName": "SMITHS FALLS",
        "streetNameDisplayText": "THOM ST, SMITHS FALLS"
      }
    ]
  },
  {
    "postal": "K7A3W2",
    "result": [
      {
        "electoralDistricts": [
          {
            "election": null,
            "id": 51,
            "name": "Lanark—Frontenac—Kingston"
          }
        ],
        "pollDivisionIds": [
          10139430
        ],
        "postalCode": "K7A3W2",
        "streetName": "BROADVIEW",
        "streetDirectionId": "E",
        "streetTypeId": "AVE",
        "placeName": "SMITHS FALLS",
        "streetNameDisplayText": "BROADVIEW AVE E, SMITHS FALLS"
      }
    ]
  },
  {
    "postal": "K7A6H8",
    "result": []
  },
  {
    "postal": "K7A9T3",
    "result": []
  },
  {
    "postal": "K7A5L9",
    "result": [
      {
        "electoralDistricts": [
          {
            "election": null,
            "id": 51,
            "name": "Lanark—Frontenac—Kingston"
          }
        ],
        "pollDivisionIds": [
          10139419
        ],
        "postalCode": "K7A5L9",
        "streetName": "LILA",
        "streetDirectionId": null,
        "streetTypeId": "ST",
        "placeName": "SMITHS FALLS",
        "streetNameDisplayText": "LILA ST, SMITHS FALLS"
      }
    ]
  },
  {
    "postal": "K7A7X7",
    "result": []
  },
  {
    "postal": "K7A3J5",
    "result": [
      {
        "electoralDistricts": [
          {
            "election": null,
            "id": 51,
            "name": "Lanark—Frontenac—Kingston"
          }
        ],
        "pollDivisionIds": [
          10139419
        ],
        "postalCode": "K7A3J5",
        "streetName": "4TH",
        "streetDirectionId": null,
        "streetTypeId": "ST",
        "placeName": "SMITHS FALLS",
        "streetNameDisplayText": "4TH ST, SMITHS FALLS"
      },
      {
        "electoralDistricts": [
          {
            "election": null,
            "id": 51,
            "name": "Lanark—Frontenac—Kingston"
          }
        ],
        "pollDivisionIds": [
          10139419
        ],
        "postalCode": "K7A3J5",
        "streetName": "FOURTH",
        "streetDirectionId": null,
        "streetTypeId": "ST",
        "placeName": "SMITHS FALLS",
        "streetNameDisplayText": "FOURTH ST, SMITHS FALLS"
      }
    ]
  },
  {
    "postal": "K7A4J5",
    "result": [
      {
        "electoralDistricts": [
          {
            "election": null,
            "id": 51,
            "name": "Lanark—Frontenac—Kingston"
          }
        ],
        "pollDivisionIds": [
          10139430
        ],
        "postalCode": "K7A4J5",
        "streetName": "DAVIDSON",
        "streetDirectionId": "W",
        "streetTypeId": "ST",
        "placeName": "SMITHS FALLS",
        "streetNameDisplayText": "DAVIDSON ST W, SMITHS FALLS"
      }
    ]
  },
  {
    "postal": "K7A6J2",
    "result": []
  },
  {
    "postal": "K7A5V6",
    "result": []
  },
  {
    "postal": "K7A3N2",
    "result": [
      {
        "electoralDistricts": [
          {
            "election": null,
            "id": 51,
            "name": "Lanark—Frontenac—Kingston"
          }
        ],
        "pollDivisionIds": [
          10139419
        ],
        "postalCode": "K7A3N2",
        "streetName": "QUEEN",
        "streetDirectionId": null,
        "streetTypeId": "ST",
        "placeName": "SMITHS FALLS",
        "streetNameDisplayText": "QUEEN ST, SMITHS FALLS"
      }
    ]
  },
  {
    "postal": "K7A3B1",
    "result": [
      {
        "electoralDistricts": [
          {
            "election": null,
            "id": 51,
            "name": "Lanark—Frontenac—Kingston"
          }
        ],
        "pollDivisionIds": [
          10139419
        ],
        "postalCode": "K7A3B1",
        "streetName": "SMITHS FALLS",
        "streetDirectionId": null,
        "streetTypeId": "AVE",
        "placeName": "SMITHS FALLS",
        "streetNameDisplayText": "SMITHS FALLS AVE, SMITHS FALLS"
      }
    ]
  },
  {
    "postal": "K7A8B5",
    "result": []
  },
  {
    "postal": "K7A0K1",
    "result": []
  },
  {
    "postal": "K7A7M7",
    "result": []
  },
  {
    "postal": "K7A2M2",
    "result": [
      {
        "electoralDistricts": [
          {
            "election": null,
            "id": 51,
            "name": "Lanark—Frontenac—Kingston"
          }
        ],
        "pollDivisionIds": [
          10139418
        ],
        "postalCode": "K7A2M2",
        "streetName": "MONTAGUE",
        "streetDirectionId": null,
        "streetTypeId": "ST",
        "placeName": "SMITHS FALLS",
        "streetNameDisplayText": "MONTAGUE ST, SMITHS FALLS"
      }
    ]
  },
  {
    "postal": "K7A9N3",
    "result": []
  },
  {
    "postal": "K7A4Y8",
    "result": [
      {
        "electoralDistricts": [
          {
            "election": null,
            "id": 51,
            "name": "Lanark—Frontenac—Kingston"
          }
        ],
        "pollDivisionIds": [
          10139418
        ],
        "postalCode": "K7A4Y8",
        "streetName": "GRANGE",
        "streetDirectionId": null,
        "streetTypeId": "ST",
        "placeName": "SMITHS FALLS",
        "streetNameDisplayText": "GRANGE ST, SMITHS FALLS"
      }
    ]
  },
  {
    "postal": "K7A3V7",
    "result": [
      {
        "electoralDistricts": [
          {
            "election": null,
            "id": 51,
            "name": "Lanark—Frontenac—Kingston"
          }
        ],
        "pollDivisionIds": [
          10139430
        ],
        "postalCode": "K7A3V7",
        "streetName": "BEECH",
        "streetDirectionId": null,
        "streetTypeId": "ST",
        "placeName": "SMITHS FALLS",
        "streetNameDisplayText": "BEECH ST, SMITHS FALLS"
      }
    ]
  },
  {
    "postal": "K7A8Z1",
    "result": []
  },
  {
    "postal": "K7A7B3",
    "result": []
  },
  {
    "postal": "K7A3A8",
    "result": []
  },
  {
    "postal": "K7A7V5",
    "result": []
  },
  {
    "postal": "K7A2T2",
    "result": [
      {
        "electoralDistricts": [
          {
            "election": null,
            "id": 51,
            "name": "Lanark—Frontenac—Kingston"
          }
        ],
        "pollDivisionIds": [
          10139418
        ],
        "postalCode": "K7A2T2",
        "streetName": "CONDIE",
        "streetDirectionId": null,
        "streetTypeId": "ST",
        "placeName": "SMITHS FALLS",
        "streetNameDisplayText": "CONDIE ST, SMITHS FALLS"
      }
    ]
  },
  {
    "postal": "K7A6L3",
    "result": []
  },
  {
    "postal": "K7A0L2",
    "result": []
  },
  {
    "postal": "K7A5Y8",
    "result": []
  },
  {
    "postal": "K7A0B8",
    "result": []
  },
  {
    "postal": "K7A6R5",
    "result": []
  },
  {
    "postal": "K7A8W6",
    "result": []
  },
  {
    "postal": "K7A8G6",
    "result": []
  },
  {
    "postal": "K7A6X3",
    "result": []
  },
  {
    "postal": "K7A7R7",
    "result": []
  },
  {
    "postal": "K7A4B6",
    "result": [
      {
        "electoralDistricts": [
          {
            "election": null,
            "id": 51,
            "name": "Lanark—Frontenac—Kingston"
          }
        ],
        "pollDivisionIds": [
          10139430
        ],
        "postalCode": "K7A4B6",
        "streetName": "JASPER",
        "streetDirectionId": null,
        "streetTypeId": "AVE",
        "placeName": "SMITHS FALLS",
        "streetNameDisplayText": "JASPER AVE, SMITHS FALLS"
      }
    ]
  },
  {
    "postal": "K7A3P9",
    "result": [
      {
        "electoralDistricts": [
          {
            "election": null,
            "id": 51,
            "name": "Lanark—Frontenac—Kingston"
          }
        ],
        "pollDivisionIds": [
          10139419
        ],
        "postalCode": "K7A3P9",
        "streetName": "MARY",
        "streetDirectionId": "S",
        "streetTypeId": "ST",
        "placeName": "SMITHS FALLS",
        "streetNameDisplayText": "MARY ST S, SMITHS FALLS"
      }
    ]
  },
  {
    "postal": "K7A2T3",
    "result": [
      {
        "electoralDistricts": [
          {
            "election": null,
            "id": 51,
            "name": "Lanark—Frontenac—Kingston"
          }
        ],
        "pollDivisionIds": [
          10139418
        ],
        "postalCode": "K7A2T3",
        "streetName": "CONDIE",
        "streetDirectionId": null,
        "streetTypeId": "ST",
        "placeName": "SMITHS FALLS",
        "streetNameDisplayText": "CONDIE ST, SMITHS FALLS"
      }
    ]
  },
  {
    "postal": "K7A1M4",
    "result": [
      {
        "electoralDistricts": [
          {
            "election": null,
            "id": 51,
            "name": "Lanark—Frontenac—Kingston"
          }
        ],
        "pollDivisionIds": [
          10139418
        ],
        "postalCode": "K7A1M4",
        "streetName": "MAIN",
        "streetDirectionId": "W",
        "streetTypeId": "ST",
        "placeName": "SMITHS FALLS",
        "streetNameDisplayText": "MAIN ST W, SMITHS FALLS"
      }
    ]
  },
  {
    "postal": "K7A0H1",
    "result": []
  },
  {
    "postal": "K7A9W3",
    "result": []
  },
  {
    "postal": "K7A6P1",
    "result": []
  },
  {
    "postal": "K7A7G2",
    "result": []
  },
  {
    "postal": "K7A4J9",
    "result": [
      {
        "electoralDistricts": [
          {
            "election": null,
            "id": 51,
            "name": "Lanark—Frontenac—Kingston"
          }
        ],
        "pollDivisionIds": [
          10139430
        ],
        "postalCode": "K7A4J9",
        "streetName": "DAVIDSON",
        "streetDirectionId": "W",
        "streetTypeId": "ST",
        "placeName": "SMITHS FALLS",
        "streetNameDisplayText": "DAVIDSON ST W, SMITHS FALLS"
      }
    ]
  },
  {
    "postal": "K7A9E4",
    "result": []
  },
  {
    "postal": "K7A8H0",
    "result": []
  },
  {
    "postal": "K7A4M7",
    "result": [
      {
        "electoralDistricts": [
          {
            "election": null,
            "id": 51,
            "name": "Lanark—Frontenac—Kingston"
          }
        ],
        "pollDivisionIds": [
          10139430
        ],
        "postalCode": "K7A4M7",
        "streetName": "ABEL",
        "streetDirectionId": null,
        "streetTypeId": "ST",
        "placeName": "SMITHS FALLS",
        "streetNameDisplayText": "ABEL ST, SMITHS FALLS"
      }
    ]
  },
  {
    "postal": "K7A2G9",
    "result": [
      {
        "electoralDistricts": [
          {
            "election": null,
            "id": 51,
            "name": "Lanark—Frontenac—Kingston"
          }
        ],
        "pollDivisionIds": [
          10139419
        ],
        "postalCode": "K7A2G9",
        "streetName": "ELMSLEY",
        "streetDirectionId": "N",
        "streetTypeId": "ST",
        "placeName": "SMITHS FALLS",
        "streetNameDisplayText": "ELMSLEY ST N, SMITHS FALLS"
      }
    ]
  },
  {
    "postal": "K7A8T2",
    "result": []
  },
  {
    "postal": "K7A7G7",
    "result": []
  },
  {
    "postal": "K7A4Z3",
    "result": [
      {
        "electoralDistricts": [
          {
            "election": null,
            "id": 51,
            "name": "Lanark—Frontenac—Kingston"
          }
        ],
        "pollDivisionIds": [
          10139418
        ],
        "postalCode": "K7A4Z3",
        "streetName": "RUTHVEN",
        "streetDirectionId": null,
        "streetTypeId": "ST",
        "placeName": "SMITHS FALLS",
        "streetNameDisplayText": "RUTHVEN ST, SMITHS FALLS"
      }
    ]
  },
  {
    "postal": "K7A5B3",
    "result": [
      {
        "electoralDistricts": [
          {
            "election": null,
            "id": 51,
            "name": "Lanark—Frontenac—Kingston"
          }
        ],
        "pollDivisionIds": [
          10139430
        ],
        "postalCode": "K7A5B3",
        "streetName": "PERCY",
        "streetDirectionId": null,
        "streetTypeId": "ST",
        "placeName": "SMITHS FALLS",
        "streetNameDisplayText": "PERCY ST, SMITHS FALLS"
      }
    ]
  },
  {
    "postal": "K7A1S7",
    "result": [
      {
        "electoralDistricts": [
          {
            "election": null,
            "id": 51,
            "name": "Lanark—Frontenac—Kingston"
          }
        ],
        "pollDivisionIds": [
          10139418
        ],
        "postalCode": "K7A1S7",
        "streetName": "MONTGOMERY",
        "streetDirectionId": null,
        "streetTypeId": "PL",
        "placeName": "SMITHS FALLS",
        "streetNameDisplayText": "MONTGOMERY PL, SMITHS FALLS"
      }
    ]
  },
  {
    "postal": "K7A2N7",
    "result": [
      {
        "electoralDistricts": [
          {
            "election": null,
            "id": 51,
            "name": "Lanark—Frontenac—Kingston"
          }
        ],
        "pollDivisionIds": [
          10139419,
          10139430
        ],
        "postalCode": "K7A2N7",
        "streetName": "WINNIFRED",
        "streetDirectionId": "N",
        "streetTypeId": "ST",
        "placeName": "SMITHS FALLS",
        "streetNameDisplayText": "WINNIFRED ST N, SMITHS FALLS"
      }
    ]
  },
  {
    "postal": "K7A0H8",
    "result": []
  },
  {
    "postal": "K7A7Z4",
    "result": []
  },
  {
    "postal": "K7A7B1",
    "result": []
  },
  {
    "postal": "K7A7P8",
    "result": []
  },
  {
    "postal": "K7A7N0",
    "result": []
  },
  {
    "postal": "K7A3Y5",
    "result": [
      {
        "electoralDistricts": [
          {
            "election": null,
            "id": 51,
            "name": "Lanark—Frontenac—Kingston"
          }
        ],
        "pollDivisionIds": [
          10139430
        ],
        "postalCode": "K7A3Y5",
        "streetName": "BROCKVILLE",
        "streetDirectionId": null,
        "streetTypeId": "ST",
        "placeName": "SMITHS FALLS",
        "streetNameDisplayText": "BROCKVILLE ST, SMITHS FALLS"
      }
    ]
  },
  {
    "postal": "K7A6K1",
    "result": []
  },
  {
    "postal": "K7A9X5",
    "result": []
  },
  {
    "postal": "K7A7S5",
    "result": []
  },
  {
    "postal": "K7A0A4",
    "result": [
      {
        "electoralDistricts": [
          {
            "election": null,
            "id": 51,
            "name": "Lanark—Frontenac—Kingston"
          }
        ],
        "pollDivisionIds": [
          10139418
        ],
        "postalCode": "K7A0A4",
        "streetName": "JOHNSTON",
        "streetDirectionId": null,
        "streetTypeId": "ST",
        "placeName": "SMITHS FALLS",
        "streetNameDisplayText": "JOHNSTON ST, SMITHS FALLS"
      }
    ]
  },
  {
    "postal": "K7A4T5",
    "result": []
  },
  {
    "postal": "K7A5K1",
    "result": []
  },
  {
    "postal": "K7A0Z9",
    "result": []
  },
  {
    "postal": "K7A7T2",
    "result": []
  },
  {
    "postal": "K7A1L5",
    "result": [
      {
        "electoralDistricts": [
          {
            "election": null,
            "id": 51,
            "name": "Lanark—Frontenac—Kingston"
          }
        ],
        "pollDivisionIds": [
          10139418
        ],
        "postalCode": "K7A1L5",
        "streetName": "CORNELIA",
        "streetDirectionId": "E",
        "streetTypeId": "ST",
        "placeName": "SMITHS FALLS",
        "streetNameDisplayText": "CORNELIA ST E, SMITHS FALLS"
      }
    ]
  },
  {
    "postal": "K7A3N5",
    "result": [
      {
        "electoralDistricts": [
          {
            "election": null,
            "id": 51,
            "name": "Lanark—Frontenac—Kingston"
          }
        ],
        "pollDivisionIds": [
          10139419
        ],
        "postalCode": "K7A3N5",
        "streetName": "QUEEN",
        "streetDirectionId": null,
        "streetTypeId": "ST",
        "placeName": "SMITHS FALLS",
        "streetNameDisplayText": "QUEEN ST, SMITHS FALLS"
      }
    ]
  },
  {
    "postal": "K7A6H4",
    "result": []
  },
  {
    "postal": "K7A5A5",
    "result": [
      {
        "electoralDistricts": [
          {
            "election": null,
            "id": 52,
            "name": "Leeds—Grenville—Thousand Islands and Rideau Lakes"
          }
        ],
        "pollDivisionIds": [
          10139484
        ],
        "postalCode": "K7A5A5",
        "streetName": "COUNTY 29",
        "streetDirectionId": null,
        "streetTypeId": "RD",
        "placeName": "SMITHS FALLS",
        "streetNameDisplayText": "COUNTY 29 RD, SMITHS FALLS"
      },
      {
        "electoralDistricts": [
          {
            "election": null,
            "id": 52,
            "name": "Leeds—Grenville—Thousand Islands and Rideau Lakes"
          }
        ],
        "pollDivisionIds": [
          10139499
        ],
        "postalCode": "K7A5A5",
        "streetName": "LINE 3",
        "streetDirectionId": null,
        "streetTypeId": "RD",
        "placeName": "JASPER",
        "streetNameDisplayText": "LINE 3 RD, JASPER"
      }
    ]
  },
  {
    "postal": "K7A3R9",
    "result": [
      {
        "electoralDistricts": [
          {
            "election": null,
            "id": 51,
            "name": "Lanark—Frontenac—Kingston"
          }
        ],
        "pollDivisionIds": [
          10139419
        ],
        "postalCode": "K7A3R9",
        "streetName": "RUNNING",
        "streetDirectionId": null,
        "streetTypeId": "AVE",
        "placeName": "SMITHS FALLS",
        "streetNameDisplayText": "RUNNING AVE, SMITHS FALLS"
      }
    ]
  },
  {
    "postal": "K7A7L8",
    "result": []
  },
  {
    "postal": "K7A6T6",
    "result": []
  },
  {
    "postal": "K7A7Y7",
    "result": []
  },
  {
    "postal": "K7A3M8",
    "result": [
      {
        "electoralDistricts": [
          {
            "election": null,
            "id": 51,
            "name": "Lanark—Frontenac—Kingston"
          }
        ],
        "pollDivisionIds": [
          10139419
        ],
        "postalCode": "K7A3M8",
        "streetName": "MCGILL",
        "streetDirectionId": "S",
        "streetTypeId": "ST",
        "placeName": "SMITHS FALLS",
        "streetNameDisplayText": "MCGILL ST S, SMITHS FALLS"
      }
    ]
  },
  {
    "postal": "K7A2E0",
    "result": []
  },
  {
    "postal": "K7A4B5",
    "result": [
      {
        "electoralDistricts": [
          {
            "election": null,
            "id": 51,
            "name": "Lanark—Frontenac—Kingston"
          }
        ],
        "pollDivisionIds": [
          10139430
        ],
        "postalCode": "K7A4B5",
        "streetName": "JASPER",
        "streetDirectionId": null,
        "streetTypeId": "AVE",
        "placeName": "SMITHS FALLS",
        "streetNameDisplayText": "JASPER AVE, SMITHS FALLS"
      }
    ]
  },
  {
    "postal": "K7A1J3",
    "result": [
      {
        "electoralDistricts": [
          {
            "election": null,
            "id": 51,
            "name": "Lanark—Frontenac—Kingston"
          }
        ],
        "pollDivisionIds": [
          10139418
        ],
        "postalCode": "K7A1J3",
        "streetName": "DANIEL",
        "streetDirectionId": null,
        "streetTypeId": "ST",
        "placeName": "SMITHS FALLS",
        "streetNameDisplayText": "DANIEL ST, SMITHS FALLS"
      }
    ]
  },
  {
    "postal": "K7A5S6",
    "result": []
  },
  {
    "postal": "K7A8P7",
    "result": []
  },
  {
    "postal": "K7A7S7",
    "result": []
  },
  {
    "postal": "K7A4C2",
    "result": [
      {
        "electoralDistricts": [
          {
            "election": null,
            "id": 51,
            "name": "Lanark—Frontenac—Kingston"
          }
        ],
        "pollDivisionIds": [
          10139430
        ],
        "postalCode": "K7A4C2",
        "streetName": "JASPER",
        "streetDirectionId": null,
        "streetTypeId": "AVE",
        "placeName": "SMITHS FALLS",
        "streetNameDisplayText": "JASPER AVE, SMITHS FALLS"
      }
    ]
  },
  {
    "postal": "K7A5Y0",
    "result": []
  },
  {
    "postal": "K7A2V7",
    "result": [
      {
        "electoralDistricts": [
          {
            "election": null,
            "id": 51,
            "name": "Lanark—Frontenac—Kingston"
          }
        ],
        "pollDivisionIds": [
          10139419
        ],
        "postalCode": "K7A2V7",
        "streetName": "RIDEAU",
        "streetDirectionId": "S",
        "streetTypeId": "AVE",
        "placeName": "SMITHS FALLS",
        "streetNameDisplayText": "RIDEAU AVE S, SMITHS FALLS"
      }
    ]
  },
  {
    "postal": "K7A8P5",
    "result": []
  },
  {
    "postal": "K7A5P5",
    "result": []
  },
  {
    "postal": "K7A5Z0",
    "result": []
  },
  {
    "postal": "K7A9B0",
    "result": []
  },
  {
    "postal": "K7A1L0",
    "result": []
  },
  {
    "postal": "K7A0B5",
    "result": []
  },
  {
    "postal": "K7A3L2",
    "result": [
      {
        "electoralDistricts": [
          {
            "election": null,
            "id": 51,
            "name": "Lanark—Frontenac—Kingston"
          }
        ],
        "pollDivisionIds": [
          10139419
        ],
        "postalCode": "K7A3L2",
        "streetName": "ALBERT",
        "streetDirectionId": null,
        "streetTypeId": "ST",
        "placeName": "SMITHS FALLS",
        "streetNameDisplayText": "ALBERT ST, SMITHS FALLS"
      }
    ]
  },
  {
    "postal": "K7A3B7",
    "result": [
      {
        "electoralDistricts": [
          {
            "election": null,
            "id": 51,
            "name": "Lanark—Frontenac—Kingston"
          }
        ],
        "pollDivisionIds": [
          10139419
        ],
        "postalCode": "K7A3B7",
        "streetName": "ROBINA",
        "streetDirectionId": null,
        "streetTypeId": "AVE",
        "placeName": "SMITHS FALLS",
        "streetNameDisplayText": "ROBINA AVE, SMITHS FALLS"
      }
    ]
  },
  {
    "postal": "K7A8L1",
    "result": []
  },
  {
    "postal": "K7A5M4",
    "result": [
      {
        "electoralDistricts": [
          {
            "election": null,
            "id": 51,
            "name": "Lanark—Frontenac—Kingston"
          }
        ],
        "pollDivisionIds": [
          10139430
        ],
        "postalCode": "K7A5M4",
        "streetName": "LERA",
        "streetDirectionId": null,
        "streetTypeId": "ST",
        "placeName": "SMITHS FALLS",
        "streetNameDisplayText": "LERA ST, SMITHS FALLS"
      }
    ]
  },
  {
    "postal": "K7A4G9",
    "result": [
      {
        "electoralDistricts": [
          {
            "election": null,
            "id": 51,
            "name": "Lanark—Frontenac—Kingston"
          }
        ],
        "pollDivisionIds": [
          10139430
        ],
        "postalCode": "K7A4G9",
        "streetName": "ELM",
        "streetDirectionId": "W",
        "streetTypeId": "ST",
        "placeName": "SMITHS FALLS",
        "streetNameDisplayText": "ELM ST W, SMITHS FALLS"
      }
    ]
  },
  {
    "postal": "K7A0P0",
    "result": []
  },
  {
    "postal": "K7A8G2",
    "result": []
  },
  {
    "postal": "K7A1V9",
    "result": [
      {
        "electoralDistricts": [
          {
            "election": null,
            "id": 51,
            "name": "Lanark—Frontenac—Kingston"
          }
        ],
        "pollDivisionIds": [
          10139418
        ],
        "postalCode": "K7A1V9",
        "streetName": "STRATHCONA",
        "streetDirectionId": null,
        "streetTypeId": "ST",
        "placeName": "SMITHS FALLS",
        "streetNameDisplayText": "STRATHCONA ST, SMITHS FALLS"
      }
    ]
  },
  {
    "postal": "K7A8N8",
    "result": []
  },
  {
    "postal": "K7A6S8",
    "result": []
  },
  {
    "postal": "K7A8H2",
    "result": []
  },
  {
    "postal": "K7A5R8",
    "result": []
  },
  {
    "postal": "K7A5L4",
    "result": [
      {
        "electoralDistricts": [
          {
            "election": null,
            "id": 51,
            "name": "Lanark—Frontenac—Kingston"
          }
        ],
        "pollDivisionIds": [
          10139430
        ],
        "postalCode": "K7A5L4",
        "streetName": "BROCKVILLE",
        "streetDirectionId": null,
        "streetTypeId": "ST",
        "placeName": "SMITHS FALLS",
        "streetNameDisplayText": "BROCKVILLE ST, SMITHS FALLS"
      }
    ]
  },
  {
    "postal": "K7A9E1",
    "result": []
  },
  {
    "postal": "K7A1C4",
    "result": [
      {
        "electoralDistricts": [
          {
            "election": null,
            "id": 51,
            "name": "Lanark—Frontenac—Kingston"
          }
        ],
        "pollDivisionIds": [
          10139419
        ],
        "postalCode": "K7A1C4",
        "streetName": "WILLIAM",
        "streetDirectionId": "E",
        "streetTypeId": "ST",
        "placeName": "SMITHS FALLS",
        "streetNameDisplayText": "WILLIAM ST E, SMITHS FALLS"
      }
    ]
  },
  {
    "postal": "K7A8W5",
    "result": []
  },
  {
    "postal": "K7A1Y4",
    "result": [
      {
        "electoralDistricts": [
          {
            "election": null,
            "id": 51,
            "name": "Lanark—Frontenac—Kingston"
          }
        ],
        "pollDivisionIds": [
          10139418
        ],
        "postalCode": "K7A1Y4",
        "streetName": "GEORGE",
        "streetDirectionId": "N",
        "streetTypeId": "ST",
        "placeName": "SMITHS FALLS",
        "streetNameDisplayText": "GEORGE ST N, SMITHS FALLS"
      }
    ]
  },
  {
    "postal": "K7A1C0",
    "result": []
  },
  {
    "postal": "K7A2J2",
    "result": [
      {
        "electoralDistricts": [
          {
            "election": null,
            "id": 51,
            "name": "Lanark—Frontenac—Kingston"
          }
        ],
        "pollDivisionIds": [
          10139419
        ],
        "postalCode": "K7A2J2",
        "streetName": "MCGILL",
        "streetDirectionId": "N",
        "streetTypeId": "ST",
        "placeName": "SMITHS FALLS",
        "streetNameDisplayText": "MCGILL ST N, SMITHS FALLS"
      }
    ]
  },
  {
    "postal": "K7A2J0",
    "result": []
  },
  {
    "postal": "K7A7A3",
    "result": []
  },
  {
    "postal": "K7A8M1",
    "result": []
  },
  {
    "postal": "K7A7T9",
    "result": []
  },
  {
    "postal": "K7A6C0",
    "result": []
  },
  {
    "postal": "K7A7X1",
    "result": []
  },
  {
    "postal": "K7A0G1",
    "result": []
  },
  {
    "postal": "K7A4X2",
    "result": [
      {
        "electoralDistricts": [
          {
            "election": null,
            "id": 51,
            "name": "Lanark—Frontenac—Kingston"
          }
        ],
        "pollDivisionIds": [
          10139430
        ],
        "postalCode": "K7A4X2",
        "streetName": "CARSS",
        "streetDirectionId": null,
        "streetTypeId": "AVE",
        "placeName": "SMITHS FALLS",
        "streetNameDisplayText": "CARSS AVE, SMITHS FALLS"
      }
    ]
  },
  {
    "postal": "K7A0N6",
    "result": []
  },
  {
    "postal": "K7A8E3",
    "result": []
  },
  {
    "postal": "K7A5S8",
    "result": []
  },
  {
    "postal": "K7A0R0",
    "result": []
  },
  {
    "postal": "K7A6J6",
    "result": []
  },
  {
    "postal": "K7A4B4",
    "result": [
      {
        "electoralDistricts": [
          {
            "election": null,
            "id": 51,
            "name": "Lanark—Frontenac—Kingston"
          }
        ],
        "pollDivisionIds": [
          10139430
        ],
        "postalCode": "K7A4B4",
        "streetName": "CARSS",
        "streetDirectionId": null,
        "streetTypeId": "AVE",
        "placeName": "SMITHS FALLS",
        "streetNameDisplayText": "CARSS AVE, SMITHS FALLS"
      }
    ]
  },
  {
    "postal": "K7A7E3",
    "result": []
  },
  {
    "postal": "K7A3N6",
    "result": [
      {
        "electoralDistricts": [
          {
            "election": null,
            "id": 51,
            "name": "Lanark—Frontenac—Kingston"
          }
        ],
        "pollDivisionIds": [
          10139419
        ],
        "postalCode": "K7A3N6",
        "streetName": "QUEEN",
        "streetDirectionId": null,
        "streetTypeId": "ST",
        "placeName": "SMITHS FALLS",
        "streetNameDisplayText": "QUEEN ST, SMITHS FALLS"
      }
    ]
  },
  {
    "postal": "K7A3X6",
    "result": [
      {
        "electoralDistricts": [
          {
            "election": null,
            "id": 51,
            "name": "Lanark—Frontenac—Kingston"
          }
        ],
        "pollDivisionIds": [
          10139430
        ],
        "postalCode": "K7A3X6",
        "streetName": "RYAN",
        "streetDirectionId": null,
        "streetTypeId": "ST",
        "placeName": "SMITHS FALLS",
        "streetNameDisplayText": "RYAN ST, SMITHS FALLS"
      }
    ]
  },
  {
    "postal": "K7A8L0",
    "result": []
  },
  {
    "postal": "K7A8N1",
    "result": []
  },
  {
    "postal": "K7A4J0",
    "result": []
  },
  {
    "postal": "K7A0X7",
    "result": []
  },
  {
    "postal": "K7A6S4",
    "result": []
  },
  {
    "postal": "K7A0Z0",
    "result": []
  },
  {
    "postal": "K7A9X8",
    "result": []
  },
  {
    "postal": "K7A3H3",
    "result": [
      {
        "electoralDistricts": [
          {
            "election": null,
            "id": 51,
            "name": "Lanark—Frontenac—Kingston"
          }
        ],
        "pollDivisionIds": [
          10139419
        ],
        "postalCode": "K7A3H3",
        "streetName": "CHURCH CR",
        "streetDirectionId": null,
        "streetTypeId": "CRES",
        "placeName": "SMITHS FALLS",
        "streetNameDisplayText": "CHURCH CR CRES, SMITHS FALLS"
      },
      {
        "electoralDistricts": [
          {
            "election": null,
            "id": 51,
            "name": "Lanark—Frontenac—Kingston"
          }
        ],
        "pollDivisionIds": [
          10139419
        ],
        "postalCode": "K7A3H3",
        "streetName": "CHURCHILL",
        "streetDirectionId": null,
        "streetTypeId": "CRES",
        "placeName": "SMITHS FALLS",
        "streetNameDisplayText": "CHURCHILL CRES, SMITHS FALLS"
      }
    ]
  },
  {
    "postal": "K7A7S2",
    "result": []
  },
  {
    "postal": "K7A3T3",
    "result": [
      {
        "electoralDistricts": [
          {
            "election": null,
            "id": 51,
            "name": "Lanark—Frontenac—Kingston"
          }
        ],
        "pollDivisionIds": [
          10139430
        ],
        "postalCode": "K7A3T3",
        "streetName": "OAK",
        "streetDirectionId": null,
        "streetTypeId": "ST",
        "placeName": "SMITHS FALLS",
        "streetNameDisplayText": "OAK ST, SMITHS FALLS"
      }
    ]
  },
  {
    "postal": "K7A9P3",
    "result": []
  },
  {
    "postal": "K7A4H8",
    "result": [
      {
        "electoralDistricts": [
          {
            "election": null,
            "id": 51,
            "name": "Lanark—Frontenac—Kingston"
          }
        ],
        "pollDivisionIds": [
          10139430
        ],
        "postalCode": "K7A4H8",
        "streetName": "ALFRED",
        "streetDirectionId": null,
        "streetTypeId": "ST",
        "placeName": "SMITHS FALLS",
        "streetNameDisplayText": "ALFRED ST, SMITHS FALLS"
      }
    ]
  },
  {
    "postal": "K7A6R1",
    "result": []
  },
  {
    "postal": "K7A1S0",
    "result": []
  },
  {
    "postal": "K7A3W8",
    "result": [
      {
        "electoralDistricts": [
          {
            "election": null,
            "id": 51,
            "name": "Lanark—Frontenac—Kingston"
          }
        ],
        "pollDivisionIds": [
          10139430
        ],
        "postalCode": "K7A3W8",
        "streetName": "BROADVIEW",
        "streetDirectionId": "E",
        "streetTypeId": "AVE",
        "placeName": "SMITHS FALLS",
        "streetNameDisplayText": "BROADVIEW AVE E, SMITHS FALLS"
      }
    ]
  },
  {
    "postal": "K7A4S3",
    "result": [
      {
        "electoralDistricts": [
          {
            "election": null,
            "id": 51,
            "name": "Lanark—Frontenac—Kingston"
          }
        ],
        "pollDivisionIds": [
          10139430
        ],
        "postalCode": "K7A4S3",
        "streetName": "ABBOTT",
        "streetDirectionId": "S",
        "streetTypeId": "ST",
        "placeName": "SMITHS FALLS",
        "streetNameDisplayText": "ABBOTT ST S, SMITHS FALLS"
      }
    ]
  },
  {
    "postal": "K7A1B6",
    "result": [
      {
        "electoralDistricts": [
          {
            "election": null,
            "id": 51,
            "name": "Lanark—Frontenac—Kingston"
          }
        ],
        "pollDivisionIds": [
          10139419
        ],
        "postalCode": "K7A1B6",
        "streetName": "DUFFERIN",
        "streetDirectionId": null,
        "streetTypeId": "ST",
        "placeName": "SMITHS FALLS",
        "streetNameDisplayText": "DUFFERIN ST, SMITHS FALLS"
      }
    ]
  },
  {
    "postal": "K7A8R3",
    "result": []
  },
  {
    "postal": "K7A4V9",
    "result": [
      {
        "electoralDistricts": [
          {
            "election": null,
            "id": 51,
            "name": "Lanark—Frontenac—Kingston"
          }
        ],
        "pollDivisionIds": [
          10139419
        ],
        "postalCode": "K7A4V9",
        "streetName": "SUSSEX",
        "streetDirectionId": null,
        "streetTypeId": "ST",
        "placeName": "SMITHS FALLS",
        "streetNameDisplayText": "SUSSEX ST, SMITHS FALLS"
      }
    ]
  },
  {
    "postal": "K7A9W4",
    "result": []
  },
  {
    "postal": "K7A3T4",
    "result": [
      {
        "electoralDistricts": [
          {
            "election": null,
            "id": 51,
            "name": "Lanark—Frontenac—Kingston"
          }
        ],
        "pollDivisionIds": [
          10139430
        ],
        "postalCode": "K7A3T4",
        "streetName": "OAK",
        "streetDirectionId": null,
        "streetTypeId": "ST",
        "placeName": "SMITHS FALLS",
        "streetNameDisplayText": "OAK ST, SMITHS FALLS"
      }
    ]
  },
  {
    "postal": "K7A5C7",
    "result": [
      {
        "electoralDistricts": [
          {
            "election": null,
            "id": 52,
            "name": "Leeds—Grenville—Thousand Islands and Rideau Lakes"
          }
        ],
        "pollDivisionIds": [
          10139484
        ],
        "postalCode": "K7A5C7",
        "streetName": "HUNTERS",
        "streetDirectionId": null,
        "streetTypeId": "RD",
        "placeName": "SMITHS FALLS",
        "streetNameDisplayText": "HUNTERS RD, SMITHS FALLS"
      },
      {
        "electoralDistricts": [
          {
            "election": null,
            "id": 51,
            "name": "Lanark—Frontenac—Kingston"
          }
        ],
        "pollDivisionIds": [
          10139418
        ],
        "postalCode": "K7A5C7",
        "streetName": "KELLY JORDAN",
        "streetDirectionId": null,
        "streetTypeId": "RD",
        "placeName": "SMITHS FALLS",
        "streetNameDisplayText": "KELLY JORDAN RD, SMITHS FALLS"
      }
    ]
  },
  {
    "postal": "K7A3Y1",
    "result": [
      {
        "electoralDistricts": [
          {
            "election": null,
            "id": 51,
            "name": "Lanark—Frontenac—Kingston"
          }
        ],
        "pollDivisionIds": [
          10139430
        ],
        "postalCode": "K7A3Y1",
        "streetName": "VINCENT",
        "streetDirectionId": null,
        "streetTypeId": "ST",
        "placeName": "SMITHS FALLS",
        "streetNameDisplayText": "VINCENT ST, SMITHS FALLS"
      }
    ]
  },
  {
    "postal": "K7A5V0",
    "result": []
  },
  {
    "postal": "K7A8G8",
    "result": []
  },
  {
    "postal": "K7A8B1",
    "result": []
  },
  {
    "postal": "K7A4P5",
    "result": [
      {
        "electoralDistricts": [
          {
            "election": null,
            "id": 51,
            "name": "Lanark—Frontenac—Kingston"
          }
        ],
        "pollDivisionIds": [
          10139430
        ],
        "postalCode": "K7A4P5",
        "streetName": "LAVINIA",
        "streetDirectionId": null,
        "streetTypeId": "ST",
        "placeName": "SMITHS FALLS",
        "streetNameDisplayText": "LAVINIA ST, SMITHS FALLS"
      }
    ]
  },
  {
    "postal": "K7A7B2",
    "result": []
  },
  {
    "postal": "K7A0R2",
    "result": []
  },
  {
    "postal": "K7A4M4",
    "result": [
      {
        "electoralDistricts": [
          {
            "election": null,
            "id": 51,
            "name": "Lanark—Frontenac—Kingston"
          }
        ],
        "pollDivisionIds": [
          10139430
        ],
        "postalCode": "K7A4M4",
        "streetName": "ABEL",
        "streetDirectionId": null,
        "streetTypeId": "ST",
        "placeName": "SMITHS FALLS",
        "streetNameDisplayText": "ABEL ST, SMITHS FALLS"
      }
    ]
  },
  {
    "postal": "K7A7M4",
    "result": []
  },
  {
    "postal": "K7A9S7",
    "result": []
  },
  {
    "postal": "K7A5Z7",
    "result": []
  },
  {
    "postal": "K7A7J7",
    "result": []
  },
  {
    "postal": "K7A8R8",
    "result": []
  },
  {
    "postal": "K7A9X1",
    "result": []
  },
  {
    "postal": "K7A5M9",
    "result": []
  },
  {
    "postal": "K7A9B4",
    "result": []
  },
  {
    "postal": "K7A0L9",
    "result": []
  },
  {
    "postal": "K7A9G4",
    "result": []
  },
  {
    "postal": "K7A1J4",
    "result": [
      {
        "electoralDistricts": [
          {
            "election": null,
            "id": 51,
            "name": "Lanark—Frontenac—Kingston"
          }
        ],
        "pollDivisionIds": [
          10139418
        ],
        "postalCode": "K7A1J4",
        "streetName": "DANIEL",
        "streetDirectionId": null,
        "streetTypeId": "ST",
        "placeName": "SMITHS FALLS",
        "streetNameDisplayText": "DANIEL ST, SMITHS FALLS"
      }
    ]
  },
  {
    "postal": "K7A0W6",
    "result": []
  }
]
