[
  {
    "postal": "M6C9J6",
    "result": []
  },
  {
    "postal": "M6C9Z5",
    "result": []
  },
  {
    "postal": "M6C7H8",
    "result": []
  },
  {
    "postal": "M6C0P6",
    "result": []
  },
  {
    "postal": "M6C0S7",
    "result": []
  },
  {
    "postal": "M6C8B9",
    "result": []
  },
  {
    "postal": "M6C2A6",
    "result": [
      {
        "electoralDistricts": [
          {
            "election": null,
            "id": 111,
            "name": "Toronto—St. Paul's"
          }
        ],
        "pollDivisionIds": [
          10136028
        ],
        "postalCode": "M6C2A6",
        "streetName": "GLOUCESTER",
        "streetDirectionId": null,
        "streetTypeId": "GROVE",
        "placeName": "YORK",
        "streetNameDisplayText": "GLOUCESTER GROVE, YORK"
      }
    ]
  },
  {
    "postal": "M6C7V2",
    "result": []
  },
  {
    "postal": "M6C9P4",
    "result": []
  },
  {
    "postal": "M6C6G0",
    "result": []
  },
  {
    "postal": "M6C2K0",
    "result": []
  },
  {
    "postal": "M6C7N6",
    "result": []
  },
  {
    "postal": "M6C5R3",
    "result": []
  },
  {
    "postal": "M6C7K0",
    "result": []
  },
  {
    "postal": "M6C3R2",
    "result": [
      {
        "electoralDistricts": [
          {
            "election": null,
            "id": 111,
            "name": "Toronto—St. Paul's"
          }
        ],
        "pollDivisionIds": [
          10136030
        ],
        "postalCode": "M6C3R2",
        "streetName": "ATLAS",
        "streetDirectionId": null,
        "streetTypeId": "AVE",
        "placeName": "YORK",
        "streetNameDisplayText": "ATLAS AVE, YORK"
      }
    ]
  },
  {
    "postal": "M6C0J1",
    "result": []
  },
  {
    "postal": "M6C0B0",
    "result": []
  },
  {
    "postal": "M6C5Z2",
    "result": []
  },
  {
    "postal": "M6C7P3",
    "result": []
  },
  {
    "postal": "M6C2K3",
    "result": [
      {
        "electoralDistricts": [
          {
            "election": null,
            "id": 25,
            "name": "Eglinton—Lawrence"
          }
        ],
        "pollDivisionIds": [
          10137919
        ],
        "postalCode": "M6C2K3",
        "streetName": "ALDBURN",
        "streetDirectionId": null,
        "streetTypeId": "RD",
        "placeName": "TORONTO",
        "streetNameDisplayText": "ALDBURN RD, TORONTO"
      }
    ]
  },
  {
    "postal": "M6C7Y6",
    "result": []
  },
  {
    "postal": "M6C1L9",
    "result": [
      {
        "electoralDistricts": [
          {
            "election": null,
            "id": 111,
            "name": "Toronto—St. Paul's"
          }
        ],
        "pollDivisionIds": [
          10136032
        ],
        "postalCode": "M6C1L9",
        "streetName": "CLAXTON",
        "streetDirectionId": null,
        "streetTypeId": "BLVD",
        "placeName": "YORK",
        "streetNameDisplayText": "CLAXTON BLVD, YORK"
      }
    ]
  },
  {
    "postal": "M6C8T0",
    "result": []
  },
  {
    "postal": "M6C3K8",
    "result": [
      {
        "electoralDistricts": [
          {
            "election": null,
            "id": 111,
            "name": "Toronto—St. Paul's"
          }
        ],
        "pollDivisionIds": [
          10136028
        ],
        "postalCode": "M6C3K8",
        "streetName": "EVERDEN",
        "streetDirectionId": null,
        "streetTypeId": "RD",
        "placeName": "YORK",
        "streetNameDisplayText": "EVERDEN RD, YORK"
      }
    ]
  },
  {
    "postal": "M6C5W9",
    "result": []
  },
  {
    "postal": "M6C6T9",
    "result": []
  },
  {
    "postal": "M6C4H1",
    "result": []
  },
  {
    "postal": "M6C7A2",
    "result": []
  },
  {
    "postal": "M6C5G0",
    "result": []
  },
  {
    "postal": "M6C8V5",
    "result": []
  },
  {
    "postal": "M6C2Y8",
    "result": [
      {
        "electoralDistricts": [
          {
            "election": null,
            "id": 111,
            "name": "Toronto—St. Paul's"
          }
        ],
        "pollDivisionIds": [
          10136122
        ],
        "postalCode": "M6C2Y8",
        "streetName": "RUSHTON",
        "streetDirectionId": null,
        "streetTypeId": "RD",
        "placeName": "YORK",
        "streetNameDisplayText": "RUSHTON RD, YORK"
      }
    ]
  },
  {
    "postal": "M6C2B6",
    "result": [
      {
        "electoralDistricts": [
          {
            "election": null,
            "id": 25,
            "name": "Eglinton—Lawrence"
          }
        ],
        "pollDivisionIds": [
          10137919
        ],
        "postalCode": "M6C2B6",
        "streetName": "EGLINTON",
        "streetDirectionId": "W",
        "streetTypeId": "AVE",
        "placeName": "TORONTO",
        "streetNameDisplayText": "EGLINTON AVE W, TORONTO"
      }
    ]
  },
  {
    "postal": "M6C4W8",
    "result": []
  },
  {
    "postal": "M6C8H7",
    "result": []
  },
  {
    "postal": "M6C5P1",
    "result": []
  },
  {
    "postal": "M6C2B8",
    "result": []
  },
  {
    "postal": "M6C0P2",
    "result": []
  },
  {
    "postal": "M6C9M1",
    "result": []
  },
  {
    "postal": "M6C3G0",
    "result": []
  },
  {
    "postal": "M6C9Z2",
    "result": []
  },
  {
    "postal": "M6C2A0",
    "result": []
  },
  {
    "postal": "M6C6Y0",
    "result": []
  },
  {
    "postal": "M6C2Z8",
    "result": [
      {
        "electoralDistricts": [
          {
            "election": null,
            "id": 111,
            "name": "Toronto—St. Paul's"
          }
        ],
        "pollDivisionIds": [
          10136032
        ],
        "postalCode": "M6C2Z8",
        "streetName": "ARLINGTON",
        "streetDirectionId": null,
        "streetTypeId": "AVE",
        "placeName": "YORK",
        "streetNameDisplayText": "ARLINGTON AVE, YORK"
      }
    ]
  },
  {
    "postal": "M6C7Y3",
    "result": []
  },
  {
    "postal": "M6C6Z5",
    "result": []
  },
  {
    "postal": "M6C6E0",
    "result": []
  },
  {
    "postal": "M6C9B7",
    "result": []
  },
  {
    "postal": "M6C9S5",
    "result": []
  },
  {
    "postal": "M6C3X3",
    "result": [
      {
        "electoralDistricts": [
          {
            "election": null,
            "id": 111,
            "name": "Toronto—St. Paul's"
          }
        ],
        "pollDivisionIds": [
          10136028
        ],
        "postalCode": "M6C3X3",
        "streetName": "ALAMEDA",
        "streetDirectionId": null,
        "streetTypeId": "AVE",
        "placeName": "YORK",
        "streetNameDisplayText": "ALAMEDA AVE, YORK"
      }
    ]
  },
  {
    "postal": "M6C7R5",
    "result": []
  },
  {
    "postal": "M6C2X3",
    "result": [
      {
        "electoralDistricts": [
          {
            "election": null,
            "id": 111,
            "name": "Toronto—St. Paul's"
          }
        ],
        "pollDivisionIds": [
          10136065
        ],
        "postalCode": "M6C2X3",
        "streetName": "ARLINGTON",
        "streetDirectionId": null,
        "streetTypeId": "AVE",
        "placeName": "TORONTO,ON",
        "streetNameDisplayText": "ARLINGTON AVE, TORONTO,ON"
      },
      {
        "electoralDistricts": [
          {
            "election": null,
            "id": 111,
            "name": "Toronto—St. Paul's"
          }
        ],
        "pollDivisionIds": [
          10136032
        ],
        "postalCode": "M6C2X3",
        "streetName": "CHERRYWOOD",
        "streetDirectionId": null,
        "streetTypeId": "AVE",
        "placeName": "YORK",
        "streetNameDisplayText": "CHERRYWOOD AVE, YORK"
      }
    ]
  },
  {
    "postal": "M6C8Z9",
    "result": []
  },
  {
    "postal": "M6C0N4",
    "result": []
  },
  {
    "postal": "M6C1K1",
    "result": []
  },
  {
    "postal": "M6C1S3",
    "result": [
      {
        "electoralDistricts": [
          {
            "election": null,
            "id": 111,
            "name": "Toronto—St. Paul's"
          }
        ],
        "pollDivisionIds": [
          10136034
        ],
        "postalCode": "M6C1S3",
        "streetName": "STRATHEARN",
        "streetDirectionId": null,
        "streetTypeId": "RD",
        "placeName": "YORK",
        "streetNameDisplayText": "STRATHEARN RD, YORK"
      }
    ]
  },
  {
    "postal": "M6C6M4",
    "result": []
  },
  {
    "postal": "M6C9A9",
    "result": []
  },
  {
    "postal": "M6C9Z9",
    "result": []
  },
  {
    "postal": "M6C6T4",
    "result": []
  },
  {
    "postal": "M6C0B2",
    "result": []
  },
  {
    "postal": "M6C2L9",
    "result": [
      {
        "electoralDistricts": [
          {
            "election": null,
            "id": 111,
            "name": "Toronto—St. Paul's"
          }
        ],
        "pollDivisionIds": [
          10136028,
          10136064
        ],
        "postalCode": "M6C2L9",
        "streetName": "VAUGHAN",
        "streetDirectionId": null,
        "streetTypeId": "RD",
        "placeName": "YORK",
        "streetNameDisplayText": "VAUGHAN RD, YORK"
      },
      {
        "electoralDistricts": [
          {
            "election": null,
            "id": 111,
            "name": "Toronto—St. Paul's"
          }
        ],
        "pollDivisionIds": [
          10136064
        ],
        "postalCode": "M6C2L9",
        "streetName": "VAUGHAN RD.",
        "streetDirectionId": null,
        "streetTypeId": "RD",
        "placeName": "YORK",
        "streetNameDisplayText": "VAUGHAN RD. RD, YORK"
      },
      {
        "electoralDistricts": [
          {
            "election": null,
            "id": 111,
            "name": "Toronto—St. Paul's"
          }
        ],
        "pollDivisionIds": [
          10136064
        ],
        "postalCode": "M6C2L9",
        "streetName": "VAUGHAN RD.",
        "streetDirectionId": null,
        "streetTypeId": null,
        "placeName": "TORONTO,ON",
        "streetNameDisplayText": "VAUGHAN RD., TORONTO,ON"
      }
    ]
  },
  {
    "postal": "M6C8K9",
    "result": []
  },
  {
    "postal": "M6C2H9",
    "result": [
      {
        "electoralDistricts": [
          {
            "election": null,
            "id": 25,
            "name": "Eglinton—Lawrence"
          }
        ],
        "pollDivisionIds": [
          10137918
        ],
        "postalCode": "M6C2H9",
        "streetName": "WHITMORE",
        "streetDirectionId": null,
        "streetTypeId": "AVE",
        "placeName": "TORONTO",
        "streetNameDisplayText": "WHITMORE AVE, TORONTO"
      }
    ]
  },
  {
    "postal": "M6C3Z6",
    "result": [
      {
        "electoralDistricts": [
          {
            "election": null,
            "id": 111,
            "name": "Toronto—St. Paul's"
          }
        ],
        "pollDivisionIds": [
          10136064
        ],
        "postalCode": "M6C3Z6",
        "streetName": "VAUGHAN",
        "streetDirectionId": null,
        "streetTypeId": "RD",
        "placeName": "YORK",
        "streetNameDisplayText": "VAUGHAN RD, YORK"
      }
    ]
  },
  {
    "postal": "M6C3B0",
    "result": []
  },
  {
    "postal": "M6C2H8",
    "result": [
      {
        "electoralDistricts": [
          {
            "election": null,
            "id": 25,
            "name": "Eglinton—Lawrence"
          }
        ],
        "pollDivisionIds": [
          10137918
        ],
        "postalCode": "M6C2H8",
        "streetName": "WHITMORE",
        "streetDirectionId": null,
        "streetTypeId": "AVE",
        "placeName": "TORONTO",
        "streetNameDisplayText": "WHITMORE AVE, TORONTO"
      }
    ]
  },
  {
    "postal": "M6C3X2",
    "result": [
      {
        "electoralDistricts": [
          {
            "election": null,
            "id": 111,
            "name": "Toronto—St. Paul's"
          }
        ],
        "pollDivisionIds": [
          10136028
        ],
        "postalCode": "M6C3X2",
        "streetName": "ALAMEDA",
        "streetDirectionId": null,
        "streetTypeId": "AVE",
        "placeName": "YORK",
        "streetNameDisplayText": "ALAMEDA AVE, YORK"
      }
    ]
  },
  {
    "postal": "M6C2E9",
    "result": [
      {
        "electoralDistricts": [
          {
            "election": null,
            "id": 25,
            "name": "Eglinton—Lawrence"
          }
        ],
        "pollDivisionIds": [
          10137919
        ],
        "postalCode": "M6C2E9",
        "streetName": "WEMBLEY",
        "streetDirectionId": null,
        "streetTypeId": "RD",
        "placeName": "TORONTO",
        "streetNameDisplayText": "WEMBLEY RD, TORONTO"
      }
    ]
  },
  {
    "postal": "M6C9P6",
    "result": []
  },
  {
    "postal": "M6C9E2",
    "result": []
  },
  {
    "postal": "M6C9H2",
    "result": []
  },
  {
    "postal": "M6C1S8",
    "result": [
      {
        "electoralDistricts": [
          {
            "election": null,
            "id": 111,
            "name": "Toronto—St. Paul's"
          }
        ],
        "pollDivisionIds": [
          10136122
        ],
        "postalCode": "M6C1S8",
        "streetName": "MARKDALE",
        "streetDirectionId": null,
        "streetTypeId": "AVE",
        "placeName": "TORONTO",
        "streetNameDisplayText": "MARKDALE AVE, TORONTO"
      }
    ]
  },
  {
    "postal": "M6C3M6",
    "result": [
      {
        "electoralDistricts": [
          {
            "election": null,
            "id": 111,
            "name": "Toronto—St. Paul's"
          }
        ],
        "pollDivisionIds": [
          10136028
        ],
        "postalCode": "M6C3M6",
        "streetName": "WINNETT",
        "streetDirectionId": null,
        "streetTypeId": "AVE",
        "placeName": "YORK",
        "streetNameDisplayText": "WINNETT AVE, YORK"
      }
    ]
  },
  {
    "postal": "M6C6Z8",
    "result": []
  },
  {
    "postal": "M6C4J2",
    "result": []
  },
  {
    "postal": "M6C9Y1",
    "result": []
  },
  {
    "postal": "M6C8V6",
    "result": []
  },
  {
    "postal": "M6C6B2",
    "result": []
  },
  {
    "postal": "M6C1P8",
    "result": [
      {
        "electoralDistricts": [
          {
            "election": null,
            "id": 111,
            "name": "Toronto—St. Paul's"
          }
        ],
        "pollDivisionIds": [
          10136030
        ],
        "postalCode": "M6C1P8",
        "streetName": "BELVIDERE",
        "streetDirectionId": null,
        "streetTypeId": "AVE",
        "placeName": "YORK",
        "streetNameDisplayText": "BELVIDERE AVE, YORK"
      }
    ]
  },
  {
    "postal": "M6C0V8",
    "result": []
  },
  {
    "postal": "M6C4Y0",
    "result": []
  },
  {
    "postal": "M6C2T4",
    "result": [
      {
        "electoralDistricts": [
          {
            "election": null,
            "id": 19,
            "name": "Davenport"
          }
        ],
        "pollDivisionIds": [
          10136081
        ],
        "postalCode": "M6C2T4",
        "streetName": "WYCHWOOD",
        "streetDirectionId": null,
        "streetTypeId": "AV",
        "placeName": "YORK",
        "streetNameDisplayText": "WYCHWOOD AV, YORK"
      },
      {
        "electoralDistricts": [
          {
            "election": null,
            "id": 111,
            "name": "Toronto—St. Paul's"
          }
        ],
        "pollDivisionIds": [
          10136064,
          10136028
        ],
        "postalCode": "M6C2T4",
        "streetName": "WYCHWOOD",
        "streetDirectionId": null,
        "streetTypeId": "AVE",
        "placeName": "YORK",
        "streetNameDisplayText": "WYCHWOOD AVE, YORK"
      }
    ]
  },
  {
    "postal": "M6C2S3",
    "result": [
      {
        "electoralDistricts": [
          {
            "election": null,
            "id": 111,
            "name": "Toronto—St. Paul's"
          }
        ],
        "pollDivisionIds": [
          10136032
        ],
        "postalCode": "M6C2S3",
        "streetName": "KENWOOD",
        "streetDirectionId": null,
        "streetTypeId": "AVE",
        "placeName": "YORK",
        "streetNameDisplayText": "KENWOOD AVE, YORK"
      }
    ]
  },
  {
    "postal": "M6C0K0",
    "result": []
  },
  {
    "postal": "M6C5N1",
    "result": []
  },
  {
    "postal": "M6C7T0",
    "result": []
  },
  {
    "postal": "M6C9N2",
    "result": []
  },
  {
    "postal": "M6C5L1",
    "result": []
  },
  {
    "postal": "M6C7G5",
    "result": []
  },
  {
    "postal": "M6C6K2",
    "result": []
  },
  {
    "postal": "M6C6P9",
    "result": []
  },
  {
    "postal": "M6C0E6",
    "result": []
  },
  {
    "postal": "M6C8R9",
    "result": []
  },
  {
    "postal": "M6C3G9",
    "result": [
      {
        "electoralDistricts": [
          {
            "election": null,
            "id": 111,
            "name": "Toronto—St. Paul's"
          }
        ],
        "pollDivisionIds": [
          10136034
        ],
        "postalCode": "M6C3G9",
        "streetName": "GLEN CEDAR",
        "streetDirectionId": null,
        "streetTypeId": "RD",
        "placeName": "YORK",
        "streetNameDisplayText": "GLEN CEDAR RD, YORK"
      }
    ]
  },
  {
    "postal": "M6C0V7",
    "result": []
  },
  {
    "postal": "M6C2Z1",
    "result": [
      {
        "electoralDistricts": [
          {
            "election": null,
            "id": 111,
            "name": "Toronto—St. Paul's"
          }
        ],
        "pollDivisionIds": [
          10136031
        ],
        "postalCode": "M6C2Z1",
        "streetName": "ARLINGTON",
        "streetDirectionId": null,
        "streetTypeId": "AVE",
        "placeName": "TORONTO",
        "streetNameDisplayText": "ARLINGTON AVE, TORONTO"
      }
    ]
  },
  {
    "postal": "M6C7N1",
    "result": []
  },
  {
    "postal": "M6C3C6",
    "result": [
      {
        "electoralDistricts": [
          {
            "election": null,
            "id": 25,
            "name": "Eglinton—Lawrence"
          }
        ],
        "pollDivisionIds": [
          10137919
        ],
        "postalCode": "M6C3C6",
        "streetName": "HILLTOP",
        "streetDirectionId": null,
        "streetTypeId": "RD",
        "placeName": "TORONTO",
        "streetNameDisplayText": "HILLTOP RD, TORONTO"
      }
    ]
  },
  {
    "postal": "M6C4M1",
    "result": []
  },
  {
    "postal": "M6C9K2",
    "result": []
  },
  {
    "postal": "M6C9S6",
    "result": []
  },
  {
    "postal": "M6C4X1",
    "result": []
  },
  {
    "postal": "M6C8W2",
    "result": []
  },
  {
    "postal": "M6C7N2",
    "result": []
  },
  {
    "postal": "M6C8S3",
    "result": []
  },
  {
    "postal": "M6C4V0",
    "result": []
  },
  {
    "postal": "M6C6W4",
    "result": []
  },
  {
    "postal": "M6C5M1",
    "result": []
  },
  {
    "postal": "M6C0S4",
    "result": []
  },
  {
    "postal": "M6C5X6",
    "result": []
  },
  {
    "postal": "M6C8L5",
    "result": []
  },
  {
    "postal": "M6C5M8",
    "result": []
  },
  {
    "postal": "M6C2G3",
    "result": [
      {
        "electoralDistricts": [
          {
            "election": null,
            "id": 25,
            "name": "Eglinton—Lawrence"
          }
        ],
        "pollDivisionIds": [
          10137919
        ],
        "postalCode": "M6C2G3",
        "streetName": "WEMBLEY",
        "streetDirectionId": null,
        "streetTypeId": "RD",
        "placeName": "TORONTO",
        "streetNameDisplayText": "WEMBLEY RD, TORONTO"
      }
    ]
  },
  {
    "postal": "M6C8E4",
    "result": []
  },
  {
    "postal": "M6C7S9",
    "result": []
  },
  {
    "postal": "M6C1K3",
    "result": [
      {
        "electoralDistricts": [
          {
            "election": null,
            "id": 111,
            "name": "Toronto—St. Paul's"
          }
        ],
        "pollDivisionIds": [
          10136032
        ],
        "postalCode": "M6C1K3",
        "streetName": "HURSTING",
        "streetDirectionId": null,
        "streetTypeId": "AVE",
        "placeName": "YORK",
        "streetNameDisplayText": "HURSTING AVE, YORK"
      }
    ]
  },
  {
    "postal": "M6C4E1",
    "result": []
  },
  {
    "postal": "M6C4R2",
    "result": []
  },
  {
    "postal": "M6C6T0",
    "result": []
  },
  {
    "postal": "M6C3K5",
    "result": [
      {
        "electoralDistricts": [
          {
            "election": null,
            "id": 111,
            "name": "Toronto—St. Paul's"
          }
        ],
        "pollDivisionIds": [
          10136034
        ],
        "postalCode": "M6C3K5",
        "streetName": "FLANDERS",
        "streetDirectionId": null,
        "streetTypeId": "RD",
        "placeName": "YORK",
        "streetNameDisplayText": "FLANDERS RD, YORK"
      }
    ]
  },
  {
    "postal": "M6C3S3",
    "result": [
      {
        "electoralDistricts": [
          {
            "election": null,
            "id": 111,
            "name": "Toronto—St. Paul's"
          }
        ],
        "pollDivisionIds": [
          10136031
        ],
        "postalCode": "M6C3S3",
        "streetName": "WINONA",
        "streetDirectionId": null,
        "streetTypeId": "DR",
        "placeName": "TORONTO",
        "streetNameDisplayText": "WINONA DR, TORONTO"
      }
    ]
  },
  {
    "postal": "M6C3L4",
    "result": [
      {
        "electoralDistricts": [
          {
            "election": null,
            "id": 111,
            "name": "Toronto—St. Paul's"
          }
        ],
        "pollDivisionIds": [
          10136031
        ],
        "postalCode": "M6C3L4",
        "streetName": "WINNETT",
        "streetDirectionId": null,
        "streetTypeId": "AVE",
        "placeName": "YORK",
        "streetNameDisplayText": "WINNETT AVE, YORK"
      }
    ]
  },
  {
    "postal": "M6C9Y2",
    "result": []
  },
  {
    "postal": "M6C1E0",
    "result": []
  },
  {
    "postal": "M6C9A4",
    "result": []
  },
  {
    "postal": "M6C1L3",
    "result": [
      {
        "electoralDistricts": [
          {
            "election": null,
            "id": 19,
            "name": "Davenport"
          },
          {
            "election": null,
            "id": 111,
            "name": "Toronto—St. Paul's"
          }
        ],
        "pollDivisionIds": [
          10136079,
          10136032
        ],
        "postalCode": "M6C1L3",
        "streetName": "EARLSDALE",
        "streetDirectionId": null,
        "streetTypeId": "AVE",
        "placeName": "YORK",
        "streetNameDisplayText": "EARLSDALE AVE, YORK"
      }
    ]
  },
  {
    "postal": "M6C6N1",
    "result": []
  },
  {
    "postal": "M6C6G7",
    "result": []
  },
  {
    "postal": "M6C7W1",
    "result": []
  },
  {
    "postal": "M6C4M6",
    "result": []
  },
  {
    "postal": "M6C1K0",
    "result": []
  },
  {
    "postal": "M6C3E2",
    "result": [
      {
        "electoralDistricts": [
          {
            "election": null,
            "id": 25,
            "name": "Eglinton—Lawrence"
          }
        ],
        "pollDivisionIds": [
          10137919
        ],
        "postalCode": "M6C3E2",
        "streetName": "HILLTOP",
        "streetDirectionId": null,
        "streetTypeId": "RD",
        "placeName": "TORONTO",
        "streetNameDisplayText": "HILLTOP RD, TORONTO"
      }
    ]
  },
  {
    "postal": "M6C5H4",
    "result": []
  },
  {
    "postal": "M6C1K7",
    "result": [
      {
        "electoralDistricts": [
          {
            "election": null,
            "id": 19,
            "name": "Davenport"
          }
        ],
        "pollDivisionIds": [
          10136082
        ],
        "postalCode": "M6C1K7",
        "streetName": "COATES",
        "streetDirectionId": null,
        "streetTypeId": "AVE",
        "placeName": "YORK",
        "streetNameDisplayText": "COATES AVE, YORK"
      }
    ]
  },
  {
    "postal": "M6C0H0",
    "result": []
  },
  {
    "postal": "M6C0J3",
    "result": []
  },
  {
    "postal": "M6C1X6",
    "result": [
      {
        "electoralDistricts": [
          {
            "election": null,
            "id": 111,
            "name": "Toronto—St. Paul's"
          }
        ],
        "pollDivisionIds": [
          10136028
        ],
        "postalCode": "M6C1X6",
        "streetName": "BUDE",
        "streetDirectionId": null,
        "streetTypeId": "ST",
        "placeName": "YORK",
        "streetNameDisplayText": "BUDE ST, YORK"
      }
    ]
  },
  {
    "postal": "M6C2Z6",
    "result": [
      {
        "electoralDistricts": [
          {
            "election": null,
            "id": 111,
            "name": "Toronto—St. Paul's"
          }
        ],
        "pollDivisionIds": [
          10136032
        ],
        "postalCode": "M6C2Z6",
        "streetName": "ARLINGTON",
        "streetDirectionId": null,
        "streetTypeId": "AVE",
        "placeName": "YORK",
        "streetNameDisplayText": "ARLINGTON AVE, YORK"
      }
    ]
  },
  {
    "postal": "M6C4R9",
    "result": []
  },
  {
    "postal": "M6C0W8",
    "result": []
  },
  {
    "postal": "M6C1L4",
    "result": [
      {
        "electoralDistricts": [
          {
            "election": null,
            "id": 19,
            "name": "Davenport"
          }
        ],
        "pollDivisionIds": [
          10136082
        ],
        "postalCode": "M6C1L4",
        "streetName": "EARLSDALE",
        "streetDirectionId": null,
        "streetTypeId": "AVE",
        "placeName": "YORK",
        "streetNameDisplayText": "EARLSDALE AVE, YORK"
      }
    ]
  },
  {
    "postal": "M6C0C8",
    "result": []
  },
  {
    "postal": "M6C9X7",
    "result": []
  },
  {
    "postal": "M6C4T1",
    "result": []
  },
  {
    "postal": "M6C0M0",
    "result": []
  },
  {
    "postal": "M6C6A2",
    "result": []
  },
  {
    "postal": "M6C9S8",
    "result": []
  },
  {
    "postal": "M6C9T4",
    "result": []
  },
  {
    "postal": "M6C9Y4",
    "result": []
  },
  {
    "postal": "M6C6G5",
    "result": []
  },
  {
    "postal": "M6C6H9",
    "result": []
  },
  {
    "postal": "M6C2P3",
    "result": [
      {
        "electoralDistricts": [
          {
            "election": null,
            "id": 111,
            "name": "Toronto—St. Paul's"
          }
        ],
        "pollDivisionIds": [
          10136032
        ],
        "postalCode": "M6C2P3",
        "streetName": "VAUGHAN",
        "streetDirectionId": null,
        "streetTypeId": "RD",
        "placeName": "YORK",
        "streetNameDisplayText": "VAUGHAN RD, YORK"
      }
    ]
  },
  {
    "postal": "M6C1T6",
    "result": [
      {
        "electoralDistricts": [
          {
            "election": null,
            "id": 111,
            "name": "Toronto—St. Paul's"
          }
        ],
        "pollDivisionIds": [
          10136122
        ],
        "postalCode": "M6C1T6",
        "streetName": "WARWICK",
        "streetDirectionId": null,
        "streetTypeId": "AVE",
        "placeName": "YORK",
        "streetNameDisplayText": "WARWICK AVE, YORK"
      }
    ]
  },
  {
    "postal": "M6C4P6",
    "result": []
  },
  {
    "postal": "M6C3K1",
    "result": [
      {
        "electoralDistricts": [
          {
            "election": null,
            "id": 25,
            "name": "Eglinton—Lawrence"
          }
        ],
        "pollDivisionIds": [
          10137919
        ],
        "postalCode": "M6C3K1",
        "streetName": "GLENARDEN",
        "streetDirectionId": null,
        "streetTypeId": "RD",
        "placeName": "TORONTO",
        "streetNameDisplayText": "GLENARDEN RD, TORONTO"
      }
    ]
  },
  {
    "postal": "M6C6X4",
    "result": []
  },
  {
    "postal": "M6C4M8",
    "result": []
  },
  {
    "postal": "M6C2Y1",
    "result": [
      {
        "electoralDistricts": [
          {
            "election": null,
            "id": 111,
            "name": "Toronto—St. Paul's"
          }
        ],
        "pollDivisionIds": [
          10136032
        ],
        "postalCode": "M6C2Y1",
        "streetName": "RUSHTON",
        "streetDirectionId": null,
        "streetTypeId": "RD",
        "placeName": "YORK",
        "streetNameDisplayText": "RUSHTON RD, YORK"
      }
    ]
  },
  {
    "postal": "M6C6M1",
    "result": []
  },
  {
    "postal": "M6C5L8",
    "result": []
  },
  {
    "postal": "M6C3P6",
    "result": [
      {
        "electoralDistricts": [
          {
            "election": null,
            "id": 111,
            "name": "Toronto—St. Paul's"
          }
        ],
        "pollDivisionIds": [
          10136032
        ],
        "postalCode": "M6C3P6",
        "streetName": "ATLAS AVE",
        "streetDirectionId": null,
        "streetTypeId": "AVE",
        "placeName": "YORK",
        "streetNameDisplayText": "ATLAS AVE AVE, YORK"
      },
      {
        "electoralDistricts": [
          {
            "election": null,
            "id": 111,
            "name": "Toronto—St. Paul's"
          }
        ],
        "pollDivisionIds": [
          10136032
        ],
        "postalCode": "M6C3P6",
        "streetName": "ATLAS",
        "streetDirectionId": null,
        "streetTypeId": "AVE",
        "placeName": "YORK",
        "streetNameDisplayText": "ATLAS AVE, YORK"
      }
    ]
  },
  {
    "postal": "M6C9A5",
    "result": []
  },
  {
    "postal": "M6C7K1",
    "result": []
  },
  {
    "postal": "M6C3J4",
    "result": [
      {
        "electoralDistricts": [
          {
            "election": null,
            "id": 111,
            "name": "Toronto—St. Paul's"
          }
        ],
        "pollDivisionIds": [
          10136122
        ],
        "postalCode": "M6C3J4",
        "streetName": "WESTOVER HILL",
        "streetDirectionId": null,
        "streetTypeId": "RD",
        "placeName": "YORK",
        "streetNameDisplayText": "WESTOVER HILL RD, YORK"
      }
    ]
  },
  {
    "postal": "M6C5E7",
    "result": []
  },
  {
    "postal": "M6C3A7",
    "result": [
      {
        "electoralDistricts": [
          {
            "election": null,
            "id": 111,
            "name": "Toronto—St. Paul's"
          }
        ],
        "pollDivisionIds": [
          10136122
        ],
        "postalCode": "M6C3A7",
        "streetName": "PEVERIL",
        "streetDirectionId": "S",
        "streetTypeId": "HILL",
        "placeName": "YORK",
        "streetNameDisplayText": "PEVERIL HILL S, YORK"
      }
    ]
  },
  {
    "postal": "M6C1B9",
    "result": [
      {
        "electoralDistricts": [
          {
            "election": null,
            "id": 111,
            "name": "Toronto—St. Paul's"
          }
        ],
        "pollDivisionIds": [
          10136065,
          10136028,
          10136066
        ],
        "postalCode": "M6C1B9",
        "streetName": "ST CLAIR",
        "streetDirectionId": "W",
        "streetTypeId": "AVE",
        "placeName": "TORONTO",
        "streetNameDisplayText": "ST CLAIR AVE W, TORONTO"
      }
    ]
  },
  {
    "postal": "M6C9E8",
    "result": []
  },
  {
    "postal": "M6C1C9",
    "result": [
      {
        "electoralDistricts": [
          {
            "election": null,
            "id": 111,
            "name": "Toronto—St. Paul's"
          }
        ],
        "pollDivisionIds": [
          10136065
        ],
        "postalCode": "M6C1C9",
        "streetName": "HUMEWOOD",
        "streetDirectionId": null,
        "streetTypeId": "DR",
        "placeName": "YORK",
        "streetNameDisplayText": "HUMEWOOD DR, YORK"
      }
    ]
  },
  {
    "postal": "M6C3B5",
    "result": [
      {
        "electoralDistricts": [
          {
            "election": null,
            "id": 111,
            "name": "Toronto—St. Paul's"
          }
        ],
        "pollDivisionIds": [
          10136122
        ],
        "postalCode": "M6C3B5",
        "streetName": "CHILTERN HILL",
        "streetDirectionId": null,
        "streetTypeId": "RD",
        "placeName": "YORK",
        "streetNameDisplayText": "CHILTERN HILL RD, YORK"
      }
    ]
  },
  {
    "postal": "M6C8R0",
    "result": []
  },
  {
    "postal": "M6C3P2",
    "result": [
      {
        "electoralDistricts": [
          {
            "election": null,
            "id": 111,
            "name": "Toronto—St. Paul's"
          }
        ],
        "pollDivisionIds": [
          10136031
        ],
        "postalCode": "M6C3P2",
        "streetName": "ATLAS",
        "streetDirectionId": null,
        "streetTypeId": "AVE",
        "placeName": "YORK",
        "streetNameDisplayText": "ATLAS AVE, YORK"
      }
    ]
  },
  {
    "postal": "M6C5V4",
    "result": []
  },
  {
    "postal": "M6C4H0",
    "result": []
  },
  {
    "postal": "M6C4S7",
    "result": []
  },
  {
    "postal": "M6C6C2",
    "result": []
  },
  {
    "postal": "M6C8W3",
    "result": []
  },
  {
    "postal": "M6C4M5",
    "result": []
  },
  {
    "postal": "M6C5T1",
    "result": []
  },
  {
    "postal": "M6C3B3",
    "result": [
      {
        "electoralDistricts": [
          {
            "election": null,
            "id": 111,
            "name": "Toronto—St. Paul's"
          }
        ],
        "pollDivisionIds": [
          10136122
        ],
        "postalCode": "M6C3B3",
        "streetName": "CHILTERN HILL",
        "streetDirectionId": null,
        "streetTypeId": "RD",
        "placeName": "YORK",
        "streetNameDisplayText": "CHILTERN HILL RD, YORK"
      }
    ]
  },
  {
    "postal": "M6C6C6",
    "result": []
  },
  {
    "postal": "M6C7N8",
    "result": []
  },
  {
    "postal": "M6C2Y3",
    "result": [
      {
        "electoralDistricts": [
          {
            "election": null,
            "id": 111,
            "name": "Toronto—St. Paul's"
          }
        ],
        "pollDivisionIds": [
          10136032
        ],
        "postalCode": "M6C2Y3",
        "streetName": "RUSHTON",
        "streetDirectionId": null,
        "streetTypeId": "RD",
        "placeName": "YORK",
        "streetNameDisplayText": "RUSHTON RD, YORK"
      }
    ]
  },
  {
    "postal": "M6C2R6",
    "result": [
      {
        "electoralDistricts": [
          {
            "election": null,
            "id": 111,
            "name": "Toronto—St. Paul's"
          }
        ],
        "pollDivisionIds": [
          10136064
        ],
        "postalCode": "M6C2R6",
        "streetName": "KENWOOD",
        "streetDirectionId": null,
        "streetTypeId": "AVE",
        "placeName": "TORONTO",
        "streetNameDisplayText": "KENWOOD AVE, TORONTO"
      }
    ]
  },
  {
    "postal": "M6C7N3",
    "result": []
  },
  {
    "postal": "M6C8J2",
    "result": []
  },
  {
    "postal": "M6C6A9",
    "result": []
  },
  {
    "postal": "M6C3V2",
    "result": [
      {
        "electoralDistricts": [
          {
            "election": null,
            "id": 111,
            "name": "Toronto—St. Paul's"
          }
        ],
        "pollDivisionIds": [
          10136030
        ],
        "postalCode": "M6C3V2",
        "streetName": "WINONA",
        "streetDirectionId": null,
        "streetTypeId": "DR",
        "placeName": "YORK",
        "streetNameDisplayText": "WINONA DR, YORK"
      }
    ]
  },
  {
    "postal": "M6C2N3",
    "result": [
      {
        "electoralDistricts": [
          {
            "election": null,
            "id": 111,
            "name": "Toronto—St. Paul's"
          }
        ],
        "pollDivisionIds": [
          10136032
        ],
        "postalCode": "M6C2N3",
        "streetName": "VAUGHAN",
        "streetDirectionId": null,
        "streetTypeId": "RD",
        "placeName": "YORK",
        "streetNameDisplayText": "VAUGHAN RD, YORK"
      }
    ]
  },
  {
    "postal": "M6C1S5",
    "result": [
      {
        "electoralDistricts": [
          {
            "election": null,
            "id": 111,
            "name": "Toronto—St. Paul's"
          }
        ],
        "pollDivisionIds": [
          10136034
        ],
        "postalCode": "M6C1S5",
        "streetName": "STRATHEARN",
        "streetDirectionId": null,
        "streetTypeId": "RD",
        "placeName": "YORK",
        "streetNameDisplayText": "STRATHEARN RD, YORK"
      }
    ]
  },
  {
    "postal": "M6C4T7",
    "result": []
  },
  {
    "postal": "M6C6Y7",
    "result": []
  },
  {
    "postal": "M6C0W7",
    "result": []
  },
  {
    "postal": "M6C2W9",
    "result": [
      {
        "electoralDistricts": [
          {
            "election": null,
            "id": 111,
            "name": "Toronto—St. Paul's"
          }
        ],
        "pollDivisionIds": [
          10136122
        ],
        "postalCode": "M6C2W9",
        "streetName": "HUMEWOOD",
        "streetDirectionId": null,
        "streetTypeId": "DR",
        "placeName": "YORK",
        "streetNameDisplayText": "HUMEWOOD DR, YORK"
      }
    ]
  },
  {
    "postal": "M6C8V0",
    "result": []
  },
  {
    "postal": "M6C0H4",
    "result": []
  },
  {
    "postal": "M6C2T1",
    "result": [
      {
        "electoralDistricts": [
          {
            "election": null,
            "id": 111,
            "name": "Toronto—St. Paul's"
          }
        ],
        "pollDivisionIds": [
          10136064
        ],
        "postalCode": "M6C2T1",
        "streetName": "WYCHWOOD",
        "streetDirectionId": null,
        "streetTypeId": "AVE",
        "placeName": "TORONTO",
        "streetNameDisplayText": "WYCHWOOD AVE, TORONTO"
      }
    ]
  },
  {
    "postal": "M6C1B1",
    "result": [
      {
        "electoralDistricts": [
          {
            "election": null,
            "id": 111,
            "name": "Toronto—St. Paul's"
          }
        ],
        "pollDivisionIds": [
          10136065
        ],
        "postalCode": "M6C1B1",
        "streetName": "ST CLAIR",
        "streetDirectionId": "W",
        "streetTypeId": "AVE",
        "placeName": "TORONTO",
        "streetNameDisplayText": "ST CLAIR AVE W, TORONTO"
      }
    ]
  },
  {
    "postal": "M6C8B6",
    "result": []
  },
  {
    "postal": "M6C6H1",
    "result": []
  },
  {
    "postal": "M6C8T8",
    "result": []
  },
  {
    "postal": "M6C0T4",
    "result": []
  },
  {
    "postal": "M6C2C4",
    "result": [
      {
        "electoralDistricts": [
          {
            "election": null,
            "id": 111,
            "name": "Toronto—St. Paul's"
          }
        ],
        "pollDivisionIds": [
          10136034
        ],
        "postalCode": "M6C2C4",
        "streetName": "EGLINTON",
        "streetDirectionId": "W",
        "streetTypeId": "AVE",
        "placeName": "YORK",
        "streetNameDisplayText": "EGLINTON AVE W, YORK"
      },
      {
        "electoralDistricts": [
          {
            "election": null,
            "id": 111,
            "name": "Toronto—St. Paul's"
          }
        ],
        "pollDivisionIds": [
          10136064
        ],
        "postalCode": "M6C2C4",
        "streetName": "VAUGHAN",
        "streetDirectionId": null,
        "streetTypeId": "RD",
        "placeName": "TORONTO,ON",
        "streetNameDisplayText": "VAUGHAN RD, TORONTO,ON"
      }
    ]
  },
  {
    "postal": "M6C8N3",
    "result": []
  },
  {
    "postal": "M6C4L8",
    "result": []
  },
  {
    "postal": "M6C2B5",
    "result": [
      {
        "electoralDistricts": [
          {
            "election": null,
            "id": 111,
            "name": "Toronto—St. Paul's"
          }
        ],
        "pollDivisionIds": [
          10136028
        ],
        "postalCode": "M6C2B5",
        "streetName": "LANARK",
        "streetDirectionId": null,
        "streetTypeId": "AVE",
        "placeName": "YORK",
        "streetNameDisplayText": "LANARK AVE, YORK"
      }
    ]
  },
  {
    "postal": "M6C3H1",
    "result": [
      {
        "electoralDistricts": [
          {
            "election": null,
            "id": 111,
            "name": "Toronto—St. Paul's"
          }
        ],
        "pollDivisionIds": [
          10136034
        ],
        "postalCode": "M6C3H1",
        "streetName": "GLEN CEDAR",
        "streetDirectionId": null,
        "streetTypeId": "RD",
        "placeName": "YORK",
        "streetNameDisplayText": "GLEN CEDAR RD, YORK"
      }
    ]
  },
  {
    "postal": "M6C4Y1",
    "result": []
  },
  {
    "postal": "M6C7E2",
    "result": []
  },
  {
    "postal": "M6C2P5",
    "result": [
      {
        "electoralDistricts": [
          {
            "election": null,
            "id": 111,
            "name": "Toronto—St. Paul's"
          }
        ],
        "pollDivisionIds": [
          10136030
        ],
        "postalCode": "M6C2P5",
        "streetName": "VAUGHAN",
        "streetDirectionId": null,
        "streetTypeId": "RD",
        "placeName": "YORK",
        "streetNameDisplayText": "VAUGHAN RD, YORK"
      }
    ]
  },
  {
    "postal": "M6C8R7",
    "result": []
  },
  {
    "postal": "M6C9P1",
    "result": []
  },
  {
    "postal": "M6C3B8",
    "result": [
      {
        "electoralDistricts": [
          {
            "election": null,
            "id": 111,
            "name": "Toronto—St. Paul's"
          }
        ],
        "pollDivisionIds": [
          10136122
        ],
        "postalCode": "M6C3B8",
        "streetName": "CHILTERN HILL",
        "streetDirectionId": null,
        "streetTypeId": "RD",
        "placeName": "YORK",
        "streetNameDisplayText": "CHILTERN HILL RD, YORK"
      }
    ]
  },
  {
    "postal": "M6C3P7",
    "result": [
      {
        "electoralDistricts": [
          {
            "election": null,
            "id": 111,
            "name": "Toronto—St. Paul's"
          }
        ],
        "pollDivisionIds": [
          10136032,
          10136031
        ],
        "postalCode": "M6C3P7",
        "streetName": "ATLAS",
        "streetDirectionId": null,
        "streetTypeId": "AVE",
        "placeName": "YORK",
        "streetNameDisplayText": "ATLAS AVE, YORK"
      }
    ]
  },
  {
    "postal": "M6C9B2",
    "result": []
  },
  {
    "postal": "M6C6Z3",
    "result": []
  },
  {
    "postal": "M6C4N5",
    "result": []
  },
  {
    "postal": "M6C8T3",
    "result": []
  },
  {
    "postal": "M6C1V2",
    "result": [
      {
        "electoralDistricts": [
          {
            "election": null,
            "id": 111,
            "name": "Toronto—St. Paul's"
          }
        ],
        "pollDivisionIds": [
          10136122
        ],
        "postalCode": "M6C1V2",
        "streetName": "AVENAL",
        "streetDirectionId": null,
        "streetTypeId": "DR",
        "placeName": "YORK",
        "streetNameDisplayText": "AVENAL DR, YORK"
      }
    ]
  },
  {
    "postal": "M6C1Y0",
    "result": []
  },
  {
    "postal": "M6C3G6",
    "result": [
      {
        "electoralDistricts": [
          {
            "election": null,
            "id": 111,
            "name": "Toronto—St. Paul's"
          }
        ],
        "pollDivisionIds": [
          10136122
        ],
        "postalCode": "M6C3G6",
        "streetName": "GLEN CEDAR",
        "streetDirectionId": null,
        "streetTypeId": "RD",
        "placeName": "YORK",
        "streetNameDisplayText": "GLEN CEDAR RD, YORK"
      }
    ]
  },
  {
    "postal": "M6C3H7",
    "result": [
      {
        "electoralDistricts": [
          {
            "election": null,
            "id": 25,
            "name": "Eglinton—Lawrence"
          }
        ],
        "pollDivisionIds": [
          10137919
        ],
        "postalCode": "M6C3H7",
        "streetName": "OLD PARK",
        "streetDirectionId": null,
        "streetTypeId": "RD",
        "placeName": "TORONTO",
        "streetNameDisplayText": "OLD PARK RD, TORONTO"
      }
    ]
  },
  {
    "postal": "M6C7X8",
    "result": []
  },
  {
    "postal": "M6C0C7",
    "result": []
  },
  {
    "postal": "M6C0W9",
    "result": []
  },
  {
    "postal": "M6C8E6",
    "result": []
  },
  {
    "postal": "M6C9Z8",
    "result": []
  },
  {
    "postal": "M6C3P4",
    "result": [
      {
        "electoralDistricts": [
          {
            "election": null,
            "id": 111,
            "name": "Toronto—St. Paul's"
          }
        ],
        "pollDivisionIds": [
          10136031
        ],
        "postalCode": "M6C3P4",
        "streetName": "ATLAS",
        "streetDirectionId": null,
        "streetTypeId": "AVE",
        "placeName": "YORK",
        "streetNameDisplayText": "ATLAS AVE, YORK"
      }
    ]
  },
  {
    "postal": "M6C6L8",
    "result": []
  },
  {
    "postal": "M6C2R4",
    "result": [
      {
        "electoralDistricts": [
          {
            "election": null,
            "id": 111,
            "name": "Toronto—St. Paul's"
          }
        ],
        "pollDivisionIds": [
          10136030
        ],
        "postalCode": "M6C2R4",
        "streetName": "VAUGHAN",
        "streetDirectionId": null,
        "streetTypeId": "RD",
        "placeName": "YORK",
        "streetNameDisplayText": "VAUGHAN RD, YORK"
      }
    ]
  },
  {
    "postal": "M6C2W1",
    "result": [
      {
        "electoralDistricts": [
          {
            "election": null,
            "id": 111,
            "name": "Toronto—St. Paul's"
          }
        ],
        "pollDivisionIds": [
          10136065
        ],
        "postalCode": "M6C2W1",
        "streetName": "HUMEWOOD",
        "streetDirectionId": null,
        "streetTypeId": "DR",
        "placeName": "YORK",
        "streetNameDisplayText": "HUMEWOOD DR, YORK"
      }
    ]
  },
  {
    "postal": "M6C9H8",
    "result": []
  },
  {
    "postal": "M6C8X9",
    "result": []
  },
  {
    "postal": "M6C7H4",
    "result": []
  },
  {
    "postal": "M6C3J1",
    "result": [
      {
        "electoralDistricts": [
          {
            "election": null,
            "id": 111,
            "name": "Toronto—St. Paul's"
          }
        ],
        "pollDivisionIds": [
          10136034
        ],
        "postalCode": "M6C3J1",
        "streetName": "MENIN",
        "streetDirectionId": null,
        "streetTypeId": "RD",
        "placeName": "YORK",
        "streetNameDisplayText": "MENIN RD, YORK"
      }
    ]
  },
  {
    "postal": "M6C1P4",
    "result": [
      {
        "electoralDistricts": [
          {
            "election": null,
            "id": 111,
            "name": "Toronto—St. Paul's"
          }
        ],
        "pollDivisionIds": [
          10136030
        ],
        "postalCode": "M6C1P4",
        "streetName": "BELVIDERE",
        "streetDirectionId": null,
        "streetTypeId": "AVE",
        "placeName": "YORK",
        "streetNameDisplayText": "BELVIDERE AVE, YORK"
      }
    ]
  },
  {
    "postal": "M6C2A3",
    "result": [
      {
        "electoralDistricts": [
          {
            "election": null,
            "id": 111,
            "name": "Toronto—St. Paul's"
          }
        ],
        "pollDivisionIds": [
          10136028
        ],
        "postalCode": "M6C2A3",
        "streetName": "GLOUCESTER",
        "streetDirectionId": null,
        "streetTypeId": "GROVE",
        "placeName": "YORK",
        "streetNameDisplayText": "GLOUCESTER GROVE, YORK"
      }
    ]
  },
  {
    "postal": "M6C0Z1",
    "result": []
  },
  {
    "postal": "M6C1C1",
    "result": [
      {
        "electoralDistricts": [
          {
            "election": null,
            "id": 111,
            "name": "Toronto—St. Paul's"
          }
        ],
        "pollDivisionIds": [
          10136031
        ],
        "postalCode": "M6C1C1",
        "streetName": "ST CLAIR",
        "streetDirectionId": "W",
        "streetTypeId": "AVE",
        "placeName": "TORONTO",
        "streetNameDisplayText": "ST CLAIR AVE W, TORONTO"
      }
    ]
  },
  {
    "postal": "M6C0H3",
    "result": []
  },
  {
    "postal": "M6C7B0",
    "result": []
  },
  {
    "postal": "M6C5K2",
    "result": []
  },
  {
    "postal": "M6C1E9",
    "result": [
      {
        "electoralDistricts": [
          {
            "election": null,
            "id": 111,
            "name": "Toronto—St. Paul's"
          }
        ],
        "pollDivisionIds": [
          10136065
        ],
        "postalCode": "M6C1E9",
        "streetName": "HUMEWOOD",
        "streetDirectionId": null,
        "streetTypeId": "GDNS",
        "placeName": "YORK",
        "streetNameDisplayText": "HUMEWOOD GDNS, YORK"
      }
    ]
  },
  {
    "postal": "M6C9W7",
    "result": []
  },
  {
    "postal": "M6C5W6",
    "result": []
  },
  {
    "postal": "M6C6S6",
    "result": []
  },
  {
    "postal": "M6C2P8",
    "result": [
      {
        "electoralDistricts": [
          {
            "election": null,
            "id": 111,
            "name": "Toronto—St. Paul's"
          }
        ],
        "pollDivisionIds": [
          10136030
        ],
        "postalCode": "M6C2P8",
        "streetName": "VAUGHAN",
        "streetDirectionId": null,
        "streetTypeId": "RD",
        "placeName": "YORK",
        "streetNameDisplayText": "VAUGHAN RD, YORK"
      }
    ]
  },
  {
    "postal": "M6C4P8",
    "result": []
  },
  {
    "postal": "M6C0V9",
    "result": []
  },
  {
    "postal": "M6C5Y2",
    "result": []
  },
  {
    "postal": "M6C7Z7",
    "result": []
  },
  {
    "postal": "M6C6Y8",
    "result": []
  },
  {
    "postal": "M6C2G7",
    "result": [
      {
        "electoralDistricts": [
          {
            "election": null,
            "id": 25,
            "name": "Eglinton—Lawrence"
          }
        ],
        "pollDivisionIds": [
          10137919
        ],
        "postalCode": "M6C2G7",
        "streetName": "OLD FOREST HILL",
        "streetDirectionId": null,
        "streetTypeId": "RD",
        "placeName": "TORONTO",
        "streetNameDisplayText": "OLD FOREST HILL RD, TORONTO"
      }
    ]
  },
  {
    "postal": "M6C8C1",
    "result": []
  },
  {
    "postal": "M6C5C5",
    "result": []
  },
  {
    "postal": "M6C2X8",
    "result": [
      {
        "electoralDistricts": [
          {
            "election": null,
            "id": 111,
            "name": "Toronto—St. Paul's"
          }
        ],
        "pollDivisionIds": [
          10136065
        ],
        "postalCode": "M6C2X8",
        "streetName": "RUSHTON",
        "streetDirectionId": null,
        "streetTypeId": "RD",
        "placeName": "TORONTO",
        "streetNameDisplayText": "RUSHTON RD, TORONTO"
      }
    ]
  },
  {
    "postal": "M6C1W5",
    "result": [
      {
        "electoralDistricts": [
          {
            "election": null,
            "id": 111,
            "name": "Toronto—St. Paul's"
          }
        ],
        "pollDivisionIds": [
          10136034
        ],
        "postalCode": "M6C1W5",
        "streetName": "AVA",
        "streetDirectionId": null,
        "streetTypeId": "RD",
        "placeName": "YORK",
        "streetNameDisplayText": "AVA RD, YORK"
      }
    ]
  },
  {
    "postal": "M6C7G0",
    "result": []
  },
  {
    "postal": "M6C8J8",
    "result": []
  },
  {
    "postal": "M6C3Y0",
    "result": []
  },
  {
    "postal": "M6C9T7",
    "result": []
  },
  {
    "postal": "M6C5P4",
    "result": []
  },
  {
    "postal": "M6C4B0",
    "result": []
  },
  {
    "postal": "M6C9N8",
    "result": []
  },
  {
    "postal": "M6C4A7",
    "result": []
  },
  {
    "postal": "M6C4H9",
    "result": []
  },
  {
    "postal": "M6C6X1",
    "result": []
  },
  {
    "postal": "M6C9Y7",
    "result": []
  },
  {
    "postal": "M6C2Y5",
    "result": [
      {
        "electoralDistricts": [
          {
            "election": null,
            "id": 111,
            "name": "Toronto—St. Paul's"
          }
        ],
        "pollDivisionIds": [
          10136032
        ],
        "postalCode": "M6C2Y5",
        "streetName": "RUSHTON",
        "streetDirectionId": null,
        "streetTypeId": "RD",
        "placeName": "YORK",
        "streetNameDisplayText": "RUSHTON RD, YORK"
      }
    ]
  },
  {
    "postal": "M6C8L7",
    "result": []
  },
  {
    "postal": "M6C2A8",
    "result": [
      {
        "electoralDistricts": [
          {
            "election": null,
            "id": 111,
            "name": "Toronto—St. Paul's"
          }
        ],
        "pollDivisionIds": [
          10136028
        ],
        "postalCode": "M6C2A8",
        "streetName": "GLOUCESTER",
        "streetDirectionId": null,
        "streetTypeId": "GROVE",
        "placeName": "YORK",
        "streetNameDisplayText": "GLOUCESTER GROVE, YORK"
      }
    ]
  },
  {
    "postal": "M6C2K9",
    "result": [
      {
        "electoralDistricts": [
          {
            "election": null,
            "id": 111,
            "name": "Toronto—St. Paul's"
          }
        ],
        "pollDivisionIds": [
          10136064,
          10136032
        ],
        "postalCode": "M6C2K9",
        "streetName": "RAGLAN",
        "streetDirectionId": null,
        "streetTypeId": "AVE",
        "placeName": "YORK",
        "streetNameDisplayText": "RAGLAN AVE, YORK"
      }
    ]
  },
  {
    "postal": "M6C3E5",
    "result": [
      {
        "electoralDistricts": [
          {
            "election": null,
            "id": 111,
            "name": "Toronto—St. Paul's"
          }
        ],
        "pollDivisionIds": [
          10136034
        ],
        "postalCode": "M6C3E5",
        "streetName": "ROSTREVOR",
        "streetDirectionId": null,
        "streetTypeId": "RD",
        "placeName": "YORK",
        "streetNameDisplayText": "ROSTREVOR RD, YORK"
      }
    ]
  },
  {
    "postal": "M6C8N6",
    "result": []
  },
  {
    "postal": "M6C8J4",
    "result": []
  },
  {
    "postal": "M6C4R7",
    "result": []
  },
  {
    "postal": "M6C9K1",
    "result": []
  },
  {
    "postal": "M6C8E1",
    "result": []
  },
  {
    "postal": "M6C0R1",
    "result": []
  },
  {
    "postal": "M6C4J3",
    "result": []
  },
  {
    "postal": "M6C7E7",
    "result": []
  },
  {
    "postal": "M6C0J0",
    "result": []
  },
  {
    "postal": "M6C7R8",
    "result": []
  },
  {
    "postal": "M6C9X0",
    "result": []
  },
  {
    "postal": "M6C7P6",
    "result": []
  },
  {
    "postal": "M6C0R7",
    "result": []
  },
  {
    "postal": "M6C5W1",
    "result": []
  },
  {
    "postal": "M6C0K4",
    "result": []
  },
  {
    "postal": "M6C7N9",
    "result": []
  },
  {
    "postal": "M6C1N0",
    "result": []
  },
  {
    "postal": "M6C6P3",
    "result": []
  },
  {
    "postal": "M6C5A1",
    "result": []
  },
  {
    "postal": "M6C9M9",
    "result": []
  },
  {
    "postal": "M6C7T6",
    "result": []
  },
  {
    "postal": "M6C3X0",
    "result": []
  },
  {
    "postal": "M6C2T0",
    "result": []
  },
  {
    "postal": "M6C5X9",
    "result": []
  },
  {
    "postal": "M6C2R3",
    "result": [
      {
        "electoralDistricts": [
          {
            "election": null,
            "id": 111,
            "name": "Toronto—St. Paul's"
          }
        ],
        "pollDivisionIds": [
          10136030
        ],
        "postalCode": "M6C2R3",
        "streetName": "VAUGHAN",
        "streetDirectionId": null,
        "streetTypeId": "RD",
        "placeName": "YORK",
        "streetNameDisplayText": "VAUGHAN RD, YORK"
      }
    ]
  },
  {
    "postal": "M6C5N2",
    "result": []
  },
  {
    "postal": "M6C4Y7",
    "result": []
  },
  {
    "postal": "M6C7M0",
    "result": []
  },
  {
    "postal": "M6C8P3",
    "result": []
  },
  {
    "postal": "M6C3N3",
    "result": [
      {
        "electoralDistricts": [
          {
            "election": null,
            "id": 111,
            "name": "Toronto—St. Paul's"
          }
        ],
        "pollDivisionIds": [
          10136031
        ],
        "postalCode": "M6C3N3",
        "streetName": "ATLAS",
        "streetDirectionId": null,
        "streetTypeId": "AVE",
        "placeName": "TORONTO",
        "streetNameDisplayText": "ATLAS AVE, TORONTO"
      }
    ]
  },
  {
    "postal": "M6C7S3",
    "result": []
  },
  {
    "postal": "M6C3V9",
    "result": [
      {
        "electoralDistricts": [
          {
            "election": null,
            "id": 111,
            "name": "Toronto—St. Paul's"
          }
        ],
        "pollDivisionIds": [
          10136028
        ],
        "postalCode": "M6C3V9",
        "streetName": "WINONA",
        "streetDirectionId": null,
        "streetTypeId": "DR",
        "placeName": "YORK",
        "streetNameDisplayText": "WINONA DR, YORK"
      }
    ]
  },
  {
    "postal": "M6C9N7",
    "result": []
  },
  {
    "postal": "M6C0G4",
    "result": []
  },
  {
    "postal": "M6C2E2",
    "result": [
      {
        "electoralDistricts": [
          {
            "election": null,
            "id": 25,
            "name": "Eglinton—Lawrence"
          }
        ],
        "pollDivisionIds": [
          10137919
        ],
        "postalCode": "M6C2E2",
        "streetName": "EGLINTON",
        "streetDirectionId": "W",
        "streetTypeId": "AVE",
        "placeName": "TORONTO",
        "streetNameDisplayText": "EGLINTON AVE W, TORONTO"
      },
      {
        "electoralDistricts": [
          {
            "election": null,
            "id": 25,
            "name": "Eglinton—Lawrence"
          }
        ],
        "pollDivisionIds": [
          10137919
        ],
        "postalCode": "M6C2E2",
        "streetName": "EGLINTON AVE WEST",
        "streetDirectionId": "W",
        "streetTypeId": "AVE",
        "placeName": "TORONTO",
        "streetNameDisplayText": "EGLINTON AVE WEST AVE W, TORONTO"
      }
    ]
  },
  {
    "postal": "M6C7W8",
    "result": []
  },
  {
    "postal": "M6C7M5",
    "result": []
  },
  {
    "postal": "M6C5W8",
    "result": []
  },
  {
    "postal": "M6C5E5",
    "result": []
  },
  {
    "postal": "M6C1P9",
    "result": [
      {
        "electoralDistricts": [
          {
            "election": null,
            "id": 111,
            "name": "Toronto—St. Paul's"
          }
        ],
        "pollDivisionIds": [
          10136028
        ],
        "postalCode": "M6C1P9",
        "streetName": "STRADER",
        "streetDirectionId": null,
        "streetTypeId": "AVE",
        "placeName": "YORK",
        "streetNameDisplayText": "STRADER AVE, YORK"
      }
    ]
  },
  {
    "postal": "M6C8V8",
    "result": []
  },
  {
    "postal": "M6C9G8",
    "result": []
  },
  {
    "postal": "M6C8H9",
    "result": []
  },
  {
    "postal": "M6C1Z1",
    "result": [
      {
        "electoralDistricts": [
          {
            "election": null,
            "id": 111,
            "name": "Toronto—St. Paul's"
          }
        ],
        "pollDivisionIds": [
          10136034
        ],
        "postalCode": "M6C1Z1",
        "streetName": "DEWBOURNE",
        "streetDirectionId": null,
        "streetTypeId": "AVE",
        "placeName": "YORK",
        "streetNameDisplayText": "DEWBOURNE AVE, YORK"
      }
    ]
  },
  {
    "postal": "M6C8M3",
    "result": []
  },
  {
    "postal": "M6C5H6",
    "result": []
  },
  {
    "postal": "M6C7W7",
    "result": []
  },
  {
    "postal": "M6C4L0",
    "result": []
  },
  {
    "postal": "M6C2N1",
    "result": [
      {
        "electoralDistricts": [
          {
            "election": null,
            "id": 111,
            "name": "Toronto—St. Paul's"
          }
        ],
        "pollDivisionIds": [
          10136032
        ],
        "postalCode": "M6C2N1",
        "streetName": "VAUGHAN",
        "streetDirectionId": null,
        "streetTypeId": "RD",
        "placeName": "YORK",
        "streetNameDisplayText": "VAUGHAN RD, YORK"
      }
    ]
  },
  {
    "postal": "M6C2H4",
    "result": [
      {
        "electoralDistricts": [
          {
            "election": null,
            "id": 25,
            "name": "Eglinton—Lawrence"
          }
        ],
        "pollDivisionIds": [
          10137919
        ],
        "postalCode": "M6C2H4",
        "streetName": "OLD FOREST HILL",
        "streetDirectionId": null,
        "streetTypeId": "RD",
        "placeName": "TORONTO",
        "streetNameDisplayText": "OLD FOREST HILL RD, TORONTO"
      }
    ]
  },
  {
    "postal": "M6C5C8",
    "result": []
  },
  {
    "postal": "M6C8B0",
    "result": []
  },
  {
    "postal": "M6C1T4",
    "result": [
      {
        "electoralDistricts": [
          {
            "election": null,
            "id": 111,
            "name": "Toronto—St. Paul's"
          }
        ],
        "pollDivisionIds": [
          10136122
        ],
        "postalCode": "M6C1T4",
        "streetName": "MARKDALE",
        "streetDirectionId": null,
        "streetTypeId": "AVE",
        "placeName": "TORONTO",
        "streetNameDisplayText": "MARKDALE AVE, TORONTO"
      }
    ]
  },
  {
    "postal": "M6C7N7",
    "result": []
  },
  {
    "postal": "M6C4L3",
    "result": []
  },
  {
    "postal": "M6C2N2",
    "result": [
      {
        "electoralDistricts": [
          {
            "election": null,
            "id": 111,
            "name": "Toronto—St. Paul's"
          }
        ],
        "pollDivisionIds": [
          10136032
        ],
        "postalCode": "M6C2N2",
        "streetName": "VAUGHAN",
        "streetDirectionId": null,
        "streetTypeId": "RD",
        "placeName": "YORK",
        "streetNameDisplayText": "VAUGHAN RD, YORK"
      }
    ]
  },
  {
    "postal": "M6C4N8",
    "result": []
  },
  {
    "postal": "M6C3M5",
    "result": [
      {
        "electoralDistricts": [
          {
            "election": null,
            "id": 111,
            "name": "Toronto—St. Paul's"
          }
        ],
        "pollDivisionIds": [
          10136028
        ],
        "postalCode": "M6C3M5",
        "streetName": "WINNET",
        "streetDirectionId": null,
        "streetTypeId": "AVE",
        "placeName": "YORK",
        "streetNameDisplayText": "WINNET AVE, YORK"
      },
      {
        "electoralDistricts": [
          {
            "election": null,
            "id": 111,
            "name": "Toronto—St. Paul's"
          }
        ],
        "pollDivisionIds": [
          10136028
        ],
        "postalCode": "M6C3M5",
        "streetName": "WINNETT",
        "streetDirectionId": null,
        "streetTypeId": "AVE",
        "placeName": "YORK",
        "streetNameDisplayText": "WINNETT AVE, YORK"
      }
    ]
  },
  {
    "postal": "M6C6H7",
    "result": []
  },
  {
    "postal": "M6C8Y8",
    "result": []
  },
  {
    "postal": "M6C5R9",
    "result": []
  },
  {
    "postal": "M6C8G3",
    "result": []
  },
  {
    "postal": "M6C4N7",
    "result": []
  },
  {
    "postal": "M6C0B9",
    "result": []
  },
  {
    "postal": "M6C9K7",
    "result": []
  },
  {
    "postal": "M6C9K9",
    "result": []
  },
  {
    "postal": "M6C3Z2",
    "result": [
      {
        "electoralDistricts": [
          {
            "election": null,
            "id": 111,
            "name": "Toronto—St. Paul's"
          }
        ],
        "pollDivisionIds": [
          10136030
        ],
        "postalCode": "M6C3Z2",
        "streetName": "ROBINA",
        "streetDirectionId": null,
        "streetTypeId": "AVE",
        "placeName": "YORK",
        "streetNameDisplayText": "ROBINA AVE, YORK"
      }
    ]
  },
  {
    "postal": "M6C6W7",
    "result": []
  },
  {
    "postal": "M6C0P1",
    "result": []
  },
  {
    "postal": "M6C3A0",
    "result": []
  },
  {
    "postal": "M6C8L9",
    "result": []
  },
  {
    "postal": "M6C6X0",
    "result": []
  },
  {
    "postal": "M6C3E9",
    "result": [
      {
        "electoralDistricts": [
          {
            "election": null,
            "id": 111,
            "name": "Toronto—St. Paul's"
          }
        ],
        "pollDivisionIds": [
          10136122
        ],
        "postalCode": "M6C3E9",
        "streetName": "GLEN CEDAR",
        "streetDirectionId": null,
        "streetTypeId": "RD",
        "placeName": "YORK",
        "streetNameDisplayText": "GLEN CEDAR RD, YORK"
      }
    ]
  },
  {
    "postal": "M6C0S5",
    "result": []
  },
  {
    "postal": "M6C1A2",
    "result": [
      {
        "electoralDistricts": [
          {
            "election": null,
            "id": 111,
            "name": "Toronto—St. Paul's"
          }
        ],
        "pollDivisionIds": [
          10136063
        ],
        "postalCode": "M6C1A2",
        "streetName": "ST CLAIR",
        "streetDirectionId": "W",
        "streetTypeId": "AVE",
        "placeName": "TORONTO",
        "streetNameDisplayText": "ST CLAIR AVE W, TORONTO"
      }
    ]
  },
  {
    "postal": "M6C5V8",
    "result": []
  },
  {
    "postal": "M6C8C5",
    "result": []
  },
  {
    "postal": "M6C6N0",
    "result": []
  },
  {
    "postal": "M6C9E6",
    "result": []
  },
  {
    "postal": "M6C5J7",
    "result": []
  },
  {
    "postal": "M6C2R2",
    "result": [
      {
        "electoralDistricts": [
          {
            "election": null,
            "id": 111,
            "name": "Toronto—St. Paul's"
          }
        ],
        "pollDivisionIds": [
          10136030
        ],
        "postalCode": "M6C2R2",
        "streetName": "VAUGHAN",
        "streetDirectionId": null,
        "streetTypeId": "RD",
        "placeName": "YORK",
        "streetNameDisplayText": "VAUGHAN RD, YORK"
      }
    ]
  },
  {
    "postal": "M6C0P5",
    "result": []
  },
  {
    "postal": "M6C5A7",
    "result": []
  },
  {
    "postal": "M6C1G1",
    "result": [
      {
        "electoralDistricts": [
          {
            "election": null,
            "id": 111,
            "name": "Toronto—St. Paul's"
          }
        ],
        "pollDivisionIds": [
          10136032
        ],
        "postalCode": "M6C1G1",
        "streetName": "HUMEWOOD",
        "streetDirectionId": null,
        "streetTypeId": "GDNS",
        "placeName": "YORK",
        "streetNameDisplayText": "HUMEWOOD GDNS, YORK"
      }
    ]
  },
  {
    "postal": "M6C9R6",
    "result": []
  },
  {
    "postal": "M6C4Z9",
    "result": []
  },
  {
    "postal": "M6C1V5",
    "result": [
      {
        "electoralDistricts": [
          {
            "election": null,
            "id": 111,
            "name": "Toronto—St. Paul's"
          }
        ],
        "pollDivisionIds": [
          10136122
        ],
        "postalCode": "M6C1V5",
        "streetName": "AVENAL",
        "streetDirectionId": null,
        "streetTypeId": "DR",
        "placeName": "YORK",
        "streetNameDisplayText": "AVENAL DR, YORK"
      }
    ]
  },
  {
    "postal": "M6C9Y5",
    "result": []
  },
  {
    "postal": "M6C1P2",
    "result": [
      {
        "electoralDistricts": [
          {
            "election": null,
            "id": 111,
            "name": "Toronto—St. Paul's"
          }
        ],
        "pollDivisionIds": [
          10136030
        ],
        "postalCode": "M6C1P2",
        "streetName": "BELVIDERE",
        "streetDirectionId": null,
        "streetTypeId": "AVE",
        "placeName": "YORK",
        "streetNameDisplayText": "BELVIDERE AVE, YORK"
      }
    ]
  },
  {
    "postal": "M6C5X0",
    "result": []
  },
  {
    "postal": "M6C7B8",
    "result": []
  },
  {
    "postal": "M6C0C6",
    "result": []
  },
  {
    "postal": "M6C6G1",
    "result": []
  },
  {
    "postal": "M6C3K3",
    "result": [
      {
        "electoralDistricts": [
          {
            "election": null,
            "id": 25,
            "name": "Eglinton—Lawrence"
          }
        ],
        "pollDivisionIds": [
          10137919
        ],
        "postalCode": "M6C3K3",
        "streetName": "GLENARDEN",
        "streetDirectionId": null,
        "streetTypeId": "RD",
        "placeName": "TORONTO",
        "streetNameDisplayText": "GLENARDEN RD, TORONTO"
      }
    ]
  },
  {
    "postal": "M6C9R0",
    "result": []
  },
  {
    "postal": "M6C4R8",
    "result": []
  },
  {
    "postal": "M6C5P9",
    "result": []
  },
  {
    "postal": "M6C8N4",
    "result": []
  },
  {
    "postal": "M6C8H4",
    "result": []
  },
  {
    "postal": "M6C4V1",
    "result": []
  },
  {
    "postal": "M6C1K5",
    "result": [
      {
        "electoralDistricts": [
          {
            "election": null,
            "id": 111,
            "name": "Toronto—St. Paul's"
          }
        ],
        "pollDivisionIds": [
          10136031
        ],
        "postalCode": "M6C1K5",
        "streetName": "HURSTING",
        "streetDirectionId": null,
        "streetTypeId": "AVE",
        "placeName": "YORK",
        "streetNameDisplayText": "HURSTING AVE, YORK"
      }
    ]
  },
  {
    "postal": "M6C1Z5",
    "result": [
      {
        "electoralDistricts": [
          {
            "election": null,
            "id": 111,
            "name": "Toronto—St. Paul's"
          }
        ],
        "pollDivisionIds": [
          10136034
        ],
        "postalCode": "M6C1Z5",
        "streetName": "DEWBOURNE",
        "streetDirectionId": null,
        "streetTypeId": "AVE",
        "placeName": "YORK",
        "streetNameDisplayText": "DEWBOURNE AVE, YORK"
      }
    ]
  },
  {
    "postal": "M6C9L9",
    "result": []
  },
  {
    "postal": "M6C5L2",
    "result": []
  },
  {
    "postal": "M6C0M2",
    "result": []
  },
  {
    "postal": "M6C1K8",
    "result": [
      {
        "electoralDistricts": [
          {
            "election": null,
            "id": 111,
            "name": "Toronto—St. Paul's"
          }
        ],
        "pollDivisionIds": [
          10136032
        ],
        "postalCode": "M6C1K8",
        "streetName": "VALEWOOD",
        "streetDirectionId": null,
        "streetTypeId": "AVE",
        "placeName": "YORK",
        "streetNameDisplayText": "VALEWOOD AVE, YORK"
      }
    ]
  },
  {
    "postal": "M6C3M7",
    "result": [
      {
        "electoralDistricts": [
          {
            "election": null,
            "id": 111,
            "name": "Toronto—St. Paul's"
          }
        ],
        "pollDivisionIds": [
          10136028
        ],
        "postalCode": "M6C3M7",
        "streetName": "WINNETT",
        "streetDirectionId": null,
        "streetTypeId": "AVE",
        "placeName": "YORK",
        "streetNameDisplayText": "WINNETT AVE, YORK"
      }
    ]
  },
  {
    "postal": "M6C1B2",
    "result": [
      {
        "electoralDistricts": [
          {
            "election": null,
            "id": 111,
            "name": "Toronto—St. Paul's"
          }
        ],
        "pollDivisionIds": [
          10136028,
          10136065
        ],
        "postalCode": "M6C1B2",
        "streetName": "ST CLAIR",
        "streetDirectionId": "W",
        "streetTypeId": "AVE",
        "placeName": "TORONTO",
        "streetNameDisplayText": "ST CLAIR AVE W, TORONTO"
      }
    ]
  },
  {
    "postal": "M6C0H9",
    "result": []
  },
  {
    "postal": "M6C8M4",
    "result": []
  },
  {
    "postal": "M6C2M5",
    "result": [
      {
        "electoralDistricts": [
          {
            "election": null,
            "id": 111,
            "name": "Toronto—St. Paul's"
          }
        ],
        "pollDivisionIds": [
          10136032,
          10136028
        ],
        "postalCode": "M6C2M5",
        "streetName": "VAUGHAN",
        "streetDirectionId": null,
        "streetTypeId": "RD",
        "placeName": "YORK",
        "streetNameDisplayText": "VAUGHAN RD, YORK"
      },
      {
        "electoralDistricts": [
          {
            "election": null,
            "id": 111,
            "name": "Toronto—St. Paul's"
          }
        ],
        "pollDivisionIds": [
          10136064,
          10136032
        ],
        "postalCode": "M6C2M5",
        "streetName": "VAUGHAN RD.",
        "streetDirectionId": null,
        "streetTypeId": "RD",
        "placeName": "YORK",
        "streetNameDisplayText": "VAUGHAN RD. RD, YORK"
      }
    ]
  },
  {
    "postal": "M6C0T9",
    "result": []
  },
  {
    "postal": "M6C3P1",
    "result": [
      {
        "electoralDistricts": [
          {
            "election": null,
            "id": 111,
            "name": "Toronto—St. Paul's"
          }
        ],
        "pollDivisionIds": [
          10136031
        ],
        "postalCode": "M6C3P1",
        "streetName": "ATLAS",
        "streetDirectionId": null,
        "streetTypeId": "AVE",
        "placeName": "YORK",
        "streetNameDisplayText": "ATLAS AVE, YORK"
      }
    ]
  },
  {
    "postal": "M6C1R6",
    "result": [
      {
        "electoralDistricts": [
          {
            "election": null,
            "id": 111,
            "name": "Toronto—St. Paul's"
          }
        ],
        "pollDivisionIds": [
          10136122
        ],
        "postalCode": "M6C1R6",
        "streetName": "STRATHEARN",
        "streetDirectionId": null,
        "streetTypeId": "RD",
        "placeName": "YORK",
        "streetNameDisplayText": "STRATHEARN RD, YORK"
      }
    ]
  },
  {
    "postal": "M6C9V5",
    "result": []
  },
  {
    "postal": "M6C9T0",
    "result": []
  },
  {
    "postal": "M6C0A9",
    "result": [
      {
        "electoralDistricts": [
          {
            "election": null,
            "id": 111,
            "name": "Toronto—St. Paul's"
          }
        ],
        "pollDivisionIds": [
          10136028,
          10136034
        ],
        "postalCode": "M6C0A9",
        "streetName": "CHILTERN HILL",
        "streetDirectionId": null,
        "streetTypeId": "RD",
        "placeName": "YORK",
        "streetNameDisplayText": "CHILTERN HILL RD, YORK"
      }
    ]
  },
  {
    "postal": "M6C1M3",
    "result": [
      {
        "electoralDistricts": [
          {
            "election": null,
            "id": 111,
            "name": "Toronto—St. Paul's"
          }
        ],
        "pollDivisionIds": [
          10136030
        ],
        "postalCode": "M6C1M3",
        "streetName": "HOLLAND PARK",
        "streetDirectionId": null,
        "streetTypeId": "AVE",
        "placeName": "YORK",
        "streetNameDisplayText": "HOLLAND PARK AVE, YORK"
      }
    ]
  },
  {
    "postal": "M6C1W8",
    "result": [
      {
        "electoralDistricts": [
          {
            "election": null,
            "id": 111,
            "name": "Toronto—St. Paul's"
          }
        ],
        "pollDivisionIds": [
          10136122
        ],
        "postalCode": "M6C1W8",
        "streetName": "AVA",
        "streetDirectionId": null,
        "streetTypeId": "RD",
        "placeName": "YORK",
        "streetNameDisplayText": "AVA RD, YORK"
      }
    ]
  },
  {
    "postal": "M6C9J1",
    "result": []
  },
  {
    "postal": "M6C8N5",
    "result": []
  },
  {
    "postal": "M6C5X1",
    "result": []
  },
  {
    "postal": "M6C6S2",
    "result": []
  },
  {
    "postal": "M6C2A2",
    "result": [
      {
        "electoralDistricts": [
          {
            "election": null,
            "id": 111,
            "name": "Toronto—St. Paul's"
          }
        ],
        "pollDivisionIds": [
          10136028
        ],
        "postalCode": "M6C2A2",
        "streetName": "GLOUCESTER",
        "streetDirectionId": null,
        "streetTypeId": "GROVE",
        "placeName": "YORK",
        "streetNameDisplayText": "GLOUCESTER GROVE, YORK"
      }
    ]
  },
  {
    "postal": "M6C6A6",
    "result": []
  },
  {
    "postal": "M6C0S3",
    "result": []
  },
  {
    "postal": "M6C3E7",
    "result": [
      {
        "electoralDistricts": [
          {
            "election": null,
            "id": 111,
            "name": "Toronto—St. Paul's"
          }
        ],
        "pollDivisionIds": [
          10136034
        ],
        "postalCode": "M6C3E7",
        "streetName": "CAMBERWELL",
        "streetDirectionId": null,
        "streetTypeId": "RD",
        "placeName": "YORK",
        "streetNameDisplayText": "CAMBERWELL RD, YORK"
      }
    ]
  },
  {
    "postal": "M6C5R7",
    "result": []
  },
  {
    "postal": "M6C3R6",
    "result": [
      {
        "electoralDistricts": [
          {
            "election": null,
            "id": 111,
            "name": "Toronto—St. Paul's"
          }
        ],
        "pollDivisionIds": [
          10136028
        ],
        "postalCode": "M6C3R6",
        "streetName": "ATLAS",
        "streetDirectionId": null,
        "streetTypeId": "AVE",
        "placeName": "YORK",
        "streetNameDisplayText": "ATLAS AVE, YORK"
      }
    ]
  },
  {
    "postal": "M6C6K4",
    "result": []
  },
  {
    "postal": "M6C2W5",
    "result": [
      {
        "electoralDistricts": [
          {
            "election": null,
            "id": 111,
            "name": "Toronto—St. Paul's"
          }
        ],
        "pollDivisionIds": [
          10136032
        ],
        "postalCode": "M6C2W5",
        "streetName": "HUMEWOOD",
        "streetDirectionId": null,
        "streetTypeId": "DR",
        "placeName": "YORK",
        "streetNameDisplayText": "HUMEWOOD DR, YORK"
      }
    ]
  },
  {
    "postal": "M6C8W4",
    "result": []
  },
  {
    "postal": "M6C9C2",
    "result": []
  },
  {
    "postal": "M6C2C0",
    "result": []
  },
  {
    "postal": "M6C0E1",
    "result": []
  },
  {
    "postal": "M6C1K9",
    "result": [
      {
        "electoralDistricts": [
          {
            "election": null,
            "id": 111,
            "name": "Toronto—St. Paul's"
          }
        ],
        "pollDivisionIds": [
          10136031
        ],
        "postalCode": "M6C1K9",
        "streetName": "EARLSDALE",
        "streetDirectionId": null,
        "streetTypeId": "AVE",
        "placeName": "YORK",
        "streetNameDisplayText": "EARLSDALE AVE, YORK"
      }
    ]
  },
  {
    "postal": "M6C1G7",
    "result": [
      {
        "electoralDistricts": [
          {
            "election": null,
            "id": 111,
            "name": "Toronto—St. Paul's"
          }
        ],
        "pollDivisionIds": [
          10136031
        ],
        "postalCode": "M6C1G7",
        "streetName": "GRAHAM",
        "streetDirectionId": null,
        "streetTypeId": "GDNS",
        "placeName": "YORK",
        "streetNameDisplayText": "GRAHAM GDNS, YORK"
      }
    ]
  },
  {
    "postal": "M6C4E9",
    "result": []
  },
  {
    "postal": "M6C9P0",
    "result": []
  },
  {
    "postal": "M6C5H3",
    "result": []
  },
  {
    "postal": "M6C9X6",
    "result": []
  },
  {
    "postal": "M6C5N7",
    "result": []
  },
  {
    "postal": "M6C5A6",
    "result": []
  },
  {
    "postal": "M6C4M0",
    "result": []
  },
  {
    "postal": "M6C3V6",
    "result": [
      {
        "electoralDistricts": [
          {
            "election": null,
            "id": 111,
            "name": "Toronto—St. Paul's"
          }
        ],
        "pollDivisionIds": [
          10136028
        ],
        "postalCode": "M6C3V6",
        "streetName": "WINONA",
        "streetDirectionId": null,
        "streetTypeId": "DR",
        "placeName": "YORK",
        "streetNameDisplayText": "WINONA DR, YORK"
      }
    ]
  },
  {
    "postal": "M6C1L7",
    "result": [
      {
        "electoralDistricts": [
          {
            "election": null,
            "id": 111,
            "name": "Toronto—St. Paul's"
          }
        ],
        "pollDivisionIds": [
          10136032
        ],
        "postalCode": "M6C1L7",
        "streetName": "CLAXTON",
        "streetDirectionId": null,
        "streetTypeId": "BLVD",
        "placeName": "YORK",
        "streetNameDisplayText": "CLAXTON BLVD, YORK"
      }
    ]
  },
  {
    "postal": "M6C2P9",
    "result": [
      {
        "electoralDistricts": [
          {
            "election": null,
            "id": 111,
            "name": "Toronto—St. Paul's"
          }
        ],
        "pollDivisionIds": [
          10136030
        ],
        "postalCode": "M6C2P9",
        "streetName": "VAUGHAN",
        "streetDirectionId": null,
        "streetTypeId": "RD",
        "placeName": "YORK",
        "streetNameDisplayText": "VAUGHAN RD, YORK"
      }
    ]
  },
  {
    "postal": "M6C5T4",
    "result": []
  },
  {
    "postal": "M6C5Z1",
    "result": []
  },
  {
    "postal": "M6C2X0",
    "result": []
  },
  {
    "postal": "M6C6Z2",
    "result": []
  },
  {
    "postal": "M6C0E0",
    "result": []
  },
  {
    "postal": "M6C3Z5",
    "result": [
      {
        "electoralDistricts": [
          {
            "election": null,
            "id": 111,
            "name": "Toronto—St. Paul's"
          }
        ],
        "pollDivisionIds": [
          10136028
        ],
        "postalCode": "M6C3Z5",
        "streetName": "EGLINTON",
        "streetDirectionId": "W",
        "streetTypeId": "AVE",
        "placeName": "YORK",
        "streetNameDisplayText": "EGLINTON AVE W, YORK"
      }
    ]
  },
  {
    "postal": "M6C8H3",
    "result": []
  },
  {
    "postal": "M6C7S6",
    "result": []
  },
  {
    "postal": "M6C4C1",
    "result": []
  },
  {
    "postal": "M6C3K2",
    "result": [
      {
        "electoralDistricts": [
          {
            "election": null,
            "id": 25,
            "name": "Eglinton—Lawrence"
          }
        ],
        "pollDivisionIds": [
          10137919
        ],
        "postalCode": "M6C3K2",
        "streetName": "GLENARDEN",
        "streetDirectionId": null,
        "streetTypeId": "RD",
        "placeName": "TORONTO",
        "streetNameDisplayText": "GLENARDEN RD, TORONTO"
      }
    ]
  },
  {
    "postal": "M6C1Y5",
    "result": [
      {
        "electoralDistricts": [
          {
            "election": null,
            "id": 111,
            "name": "Toronto—St. Paul's"
          }
        ],
        "pollDivisionIds": [
          10136034
        ],
        "postalCode": "M6C1Y5",
        "streetName": "DEWBOURNE",
        "streetDirectionId": null,
        "streetTypeId": "AVE",
        "placeName": "YORK",
        "streetNameDisplayText": "DEWBOURNE AVE, YORK"
      }
    ]
  },
  {
    "postal": "M6C6P6",
    "result": []
  },
  {
    "postal": "M6C3N9",
    "result": [
      {
        "electoralDistricts": [
          {
            "election": null,
            "id": 111,
            "name": "Toronto—St. Paul's"
          }
        ],
        "pollDivisionIds": [
          10136031
        ],
        "postalCode": "M6C3N9",
        "streetName": "ATLAS",
        "streetDirectionId": null,
        "streetTypeId": "AVE",
        "placeName": "YORK",
        "streetNameDisplayText": "ATLAS AVE, YORK"
      }
    ]
  },
  {
    "postal": "M6C3W2",
    "result": [
      {
        "electoralDistricts": [
          {
            "election": null,
            "id": 111,
            "name": "Toronto—St. Paul's"
          }
        ],
        "pollDivisionIds": [
          10136030
        ],
        "postalCode": "M6C3W2",
        "streetName": "ALAMEDA",
        "streetDirectionId": null,
        "streetTypeId": "AVE",
        "placeName": "YORK",
        "streetNameDisplayText": "ALAMEDA AVE, YORK"
      }
    ]
  },
  {
    "postal": "M6C6H8",
    "result": []
  },
  {
    "postal": "M6C9T3",
    "result": []
  },
  {
    "postal": "M6C5L9",
    "result": []
  },
  {
    "postal": "M6C7X7",
    "result": []
  },
  {
    "postal": "M6C3J5",
    "result": [
      {
        "electoralDistricts": [
          {
            "election": null,
            "id": 111,
            "name": "Toronto—St. Paul's"
          }
        ],
        "pollDivisionIds": [
          10136034
        ],
        "postalCode": "M6C3J5",
        "streetName": "WESTOVER HILL",
        "streetDirectionId": null,
        "streetTypeId": "RD",
        "placeName": "YORK",
        "streetNameDisplayText": "WESTOVER HILL RD, YORK"
      }
    ]
  },
  {
    "postal": "M6C4J5",
    "result": []
  },
  {
    "postal": "M6C6J2",
    "result": []
  },
  {
    "postal": "M6C5V6",
    "result": []
  },
  {
    "postal": "M6C3N2",
    "result": [
      {
        "electoralDistricts": [
          {
            "election": null,
            "id": 25,
            "name": "Eglinton—Lawrence"
          }
        ],
        "pollDivisionIds": [
          10137918
        ],
        "postalCode": "M6C3N2",
        "streetName": "PARK HILL",
        "streetDirectionId": null,
        "streetTypeId": "RD",
        "placeName": "TORONTO",
        "streetNameDisplayText": "PARK HILL RD, TORONTO"
      }
    ]
  },
  {
    "postal": "M6C3B1",
    "result": [
      {
        "electoralDistricts": [
          {
            "election": null,
            "id": 111,
            "name": "Toronto—St. Paul's"
          }
        ],
        "pollDivisionIds": [
          10136034
        ],
        "postalCode": "M6C3B1",
        "streetName": "PEVERIL",
        "streetDirectionId": "N",
        "streetTypeId": "HILL",
        "placeName": "YORK",
        "streetNameDisplayText": "PEVERIL HILL N, YORK"
      }
    ]
  },
  {
    "postal": "M6C8B5",
    "result": []
  },
  {
    "postal": "M6C0K1",
    "result": []
  },
  {
    "postal": "M6C7M7",
    "result": []
  },
  {
    "postal": "M6C2M2",
    "result": [
      {
        "electoralDistricts": [
          {
            "election": null,
            "id": 111,
            "name": "Toronto—St. Paul's"
          }
        ],
        "pollDivisionIds": [
          10136028,
          10136064
        ],
        "postalCode": "M6C2M2",
        "streetName": "VAUGHAN",
        "streetDirectionId": null,
        "streetTypeId": "RD",
        "placeName": "YORK",
        "streetNameDisplayText": "VAUGHAN RD, YORK"
      },
      {
        "electoralDistricts": [
          {
            "election": null,
            "id": 111,
            "name": "Toronto—St. Paul's"
          }
        ],
        "pollDivisionIds": [
          10136064
        ],
        "postalCode": "M6C2M2",
        "streetName": "VAUGHAN RD.",
        "streetDirectionId": null,
        "streetTypeId": "RD",
        "placeName": "YORK",
        "streetNameDisplayText": "VAUGHAN RD. RD, YORK"
      }
    ]
  },
  {
    "postal": "M6C9N3",
    "result": []
  },
  {
    "postal": "M6C4Y8",
    "result": []
  },
  {
    "postal": "M6C3V7",
    "result": [
      {
        "electoralDistricts": [
          {
            "election": null,
            "id": 111,
            "name": "Toronto—St. Paul's"
          }
        ],
        "pollDivisionIds": [
          10136028
        ],
        "postalCode": "M6C3V7",
        "streetName": "WINONA",
        "streetDirectionId": null,
        "streetTypeId": "DR",
        "placeName": "YORK",
        "streetNameDisplayText": "WINONA DR, YORK"
      }
    ]
  },
  {
    "postal": "M6C8Z1",
    "result": []
  },
  {
    "postal": "M6C7B3",
    "result": []
  },
  {
    "postal": "M6C3A8",
    "result": [
      {
        "electoralDistricts": [
          {
            "election": null,
            "id": 111,
            "name": "Toronto—St. Paul's"
          }
        ],
        "pollDivisionIds": [
          10136122
        ],
        "postalCode": "M6C3A8",
        "streetName": "PEVERIL",
        "streetDirectionId": "S",
        "streetTypeId": "HILL",
        "placeName": "YORK",
        "streetNameDisplayText": "PEVERIL HILL S, YORK"
      }
    ]
  },
  {
    "postal": "M6C7V5",
    "result": []
  },
  {
    "postal": "M6C2T2",
    "result": []
  },
  {
    "postal": "M6C6L3",
    "result": []
  },
  {
    "postal": "M6C0L2",
    "result": []
  },
  {
    "postal": "M6C5Y8",
    "result": []
  },
  {
    "postal": "M6C0B8",
    "result": []
  },
  {
    "postal": "M6C6R5",
    "result": []
  },
  {
    "postal": "M6C8W6",
    "result": []
  },
  {
    "postal": "M6C8G6",
    "result": []
  },
  {
    "postal": "M6C6X3",
    "result": []
  },
  {
    "postal": "M6C7R7",
    "result": []
  },
  {
    "postal": "M6C4B6",
    "result": []
  },
  {
    "postal": "M6C3P9",
    "result": [
      {
        "electoralDistricts": [
          {
            "election": null,
            "id": 111,
            "name": "Toronto—St. Paul's"
          }
        ],
        "pollDivisionIds": [
          10136030
        ],
        "postalCode": "M6C3P9",
        "streetName": "ATLAS",
        "streetDirectionId": null,
        "streetTypeId": "AVE",
        "placeName": "YORK",
        "streetNameDisplayText": "ATLAS AVE, YORK"
      }
    ]
  },
  {
    "postal": "M6C2T3",
    "result": [
      {
        "electoralDistricts": [
          {
            "election": null,
            "id": 111,
            "name": "Toronto—St. Paul's"
          }
        ],
        "pollDivisionIds": [
          10136064,
          10136065
        ],
        "postalCode": "M6C2T3",
        "streetName": "WYCHWOOD",
        "streetDirectionId": null,
        "streetTypeId": "AVE",
        "placeName": "YORK",
        "streetNameDisplayText": "WYCHWOOD AVE, YORK"
      },
      {
        "electoralDistricts": [
          {
            "election": null,
            "id": 111,
            "name": "Toronto—St. Paul's"
          }
        ],
        "pollDivisionIds": [
          10136064
        ],
        "postalCode": "M6C2T3",
        "streetName": "WYCHWOOD AVE.",
        "streetDirectionId": null,
        "streetTypeId": "AVE",
        "placeName": "YORK",
        "streetNameDisplayText": "WYCHWOOD AVE. AVE, YORK"
      }
    ]
  },
  {
    "postal": "M6C1M4",
    "result": [
      {
        "electoralDistricts": [
          {
            "election": null,
            "id": 111,
            "name": "Toronto—St. Paul's"
          }
        ],
        "pollDivisionIds": [
          10136030
        ],
        "postalCode": "M6C1M4",
        "streetName": "HOLLAND PARK",
        "streetDirectionId": null,
        "streetTypeId": "AVE",
        "placeName": "YORK",
        "streetNameDisplayText": "HOLLAND PARK AVE, YORK"
      }
    ]
  },
  {
    "postal": "M6C0H1",
    "result": []
  },
  {
    "postal": "M6C9W3",
    "result": []
  },
  {
    "postal": "M6C6P1",
    "result": []
  },
  {
    "postal": "M6C7G2",
    "result": []
  },
  {
    "postal": "M6C4J9",
    "result": []
  },
  {
    "postal": "M6C9E4",
    "result": []
  },
  {
    "postal": "M6C8H0",
    "result": []
  },
  {
    "postal": "M6C4M7",
    "result": []
  },
  {
    "postal": "M6C2G9",
    "result": [
      {
        "electoralDistricts": [
          {
            "election": null,
            "id": 25,
            "name": "Eglinton—Lawrence"
          }
        ],
        "pollDivisionIds": [
          10137919
        ],
        "postalCode": "M6C2G9",
        "streetName": "OLD FOREST HILL",
        "streetDirectionId": null,
        "streetTypeId": "RD",
        "placeName": "TORONTO",
        "streetNameDisplayText": "OLD FOREST HILL RD, TORONTO"
      }
    ]
  },
  {
    "postal": "M6C8T2",
    "result": []
  },
  {
    "postal": "M6C7G7",
    "result": []
  },
  {
    "postal": "M6C4Z3",
    "result": []
  },
  {
    "postal": "M6C5B3",
    "result": []
  },
  {
    "postal": "M6C1S7",
    "result": [
      {
        "electoralDistricts": [
          {
            "election": null,
            "id": 111,
            "name": "Toronto—St. Paul's"
          }
        ],
        "pollDivisionIds": [
          10136122
        ],
        "postalCode": "M6C1S7",
        "streetName": "CROYDON",
        "streetDirectionId": null,
        "streetTypeId": "RD",
        "placeName": "YORK",
        "streetNameDisplayText": "CROYDON RD, YORK"
      }
    ]
  },
  {
    "postal": "M6C2N7",
    "result": [
      {
        "electoralDistricts": [
          {
            "election": null,
            "id": 111,
            "name": "Toronto—St. Paul's"
          }
        ],
        "pollDivisionIds": [
          10136032
        ],
        "postalCode": "M6C2N7",
        "streetName": "VAUGHAN",
        "streetDirectionId": null,
        "streetTypeId": "RD",
        "placeName": "YORK",
        "streetNameDisplayText": "VAUGHAN RD, YORK"
      }
    ]
  },
  {
    "postal": "M6C0H8",
    "result": []
  },
  {
    "postal": "M6C7Z4",
    "result": []
  },
  {
    "postal": "M6C7B1",
    "result": []
  },
  {
    "postal": "M6C7P8",
    "result": []
  },
  {
    "postal": "M6C7N0",
    "result": []
  },
  {
    "postal": "M6C3Y5",
    "result": [
      {
        "electoralDistricts": [
          {
            "election": null,
            "id": 19,
            "name": "Davenport"
          }
        ],
        "pollDivisionIds": [
          10136082
        ],
        "postalCode": "M6C3Y5",
        "streetName": "ROBINA",
        "streetDirectionId": null,
        "streetTypeId": "AVE",
        "placeName": "YORK",
        "streetNameDisplayText": "ROBINA AVE, YORK"
      }
    ]
  },
  {
    "postal": "M6C6K1",
    "result": []
  },
  {
    "postal": "M6C9X5",
    "result": []
  },
  {
    "postal": "M6C7S5",
    "result": []
  },
  {
    "postal": "M6C0A4",
    "result": []
  },
  {
    "postal": "M6C4T5",
    "result": []
  },
  {
    "postal": "M6C5K1",
    "result": []
  },
  {
    "postal": "M6C0Z9",
    "result": []
  },
  {
    "postal": "M6C7T2",
    "result": []
  },
  {
    "postal": "M6C1L5",
    "result": []
  },
  {
    "postal": "M6C3N5",
    "result": [
      {
        "electoralDistricts": [
          {
            "election": null,
            "id": 111,
            "name": "Toronto—St. Paul's"
          }
        ],
        "pollDivisionIds": [
          10136031
        ],
        "postalCode": "M6C3N5",
        "streetName": "ATLAS",
        "streetDirectionId": null,
        "streetTypeId": "AVE",
        "placeName": "YORK",
        "streetNameDisplayText": "ATLAS AVE, YORK"
      }
    ]
  },
  {
    "postal": "M6C6H4",
    "result": []
  },
  {
    "postal": "M6C5A5",
    "result": []
  },
  {
    "postal": "M6C3R9",
    "result": [
      {
        "electoralDistricts": [
          {
            "election": null,
            "id": 25,
            "name": "Eglinton—Lawrence"
          }
        ],
        "pollDivisionIds": [
          10137918
        ],
        "postalCode": "M6C3R9",
        "streetName": "FAIRLEIGH",
        "streetDirectionId": null,
        "streetTypeId": "CRES",
        "placeName": "TORONTO",
        "streetNameDisplayText": "FAIRLEIGH CRES, TORONTO"
      }
    ]
  },
  {
    "postal": "M6C7L8",
    "result": []
  },
  {
    "postal": "M6C6T6",
    "result": []
  },
  {
    "postal": "M6C7Y7",
    "result": []
  },
  {
    "postal": "M6C3M8",
    "result": [
      {
        "electoralDistricts": [
          {
            "election": null,
            "id": 25,
            "name": "Eglinton—Lawrence"
          }
        ],
        "pollDivisionIds": [
          10137918
        ],
        "postalCode": "M6C3M8",
        "streetName": "PARK HILL",
        "streetDirectionId": null,
        "streetTypeId": "RD",
        "placeName": "TORONTO",
        "streetNameDisplayText": "PARK HILL RD, TORONTO"
      }
    ]
  },
  {
    "postal": "M6C2E0",
    "result": []
  },
  {
    "postal": "M6C4B5",
    "result": []
  },
  {
    "postal": "M6C1J3",
    "result": [
      {
        "electoralDistricts": [
          {
            "election": null,
            "id": 111,
            "name": "Toronto—St. Paul's"
          }
        ],
        "pollDivisionIds": [
          10136064
        ],
        "postalCode": "M6C1J3",
        "streetName": "MAPLEWOOD",
        "streetDirectionId": null,
        "streetTypeId": "AVE",
        "placeName": "YORK",
        "streetNameDisplayText": "MAPLEWOOD AVE, YORK"
      }
    ]
  },
  {
    "postal": "M6C5S6",
    "result": []
  },
  {
    "postal": "M6C8P7",
    "result": []
  },
  {
    "postal": "M6C7S7",
    "result": []
  },
  {
    "postal": "M6C4C2",
    "result": []
  },
  {
    "postal": "M6C5Y0",
    "result": []
  },
  {
    "postal": "M6C2V7",
    "result": [
      {
        "electoralDistricts": [
          {
            "election": null,
            "id": 111,
            "name": "Toronto—St. Paul's"
          }
        ],
        "pollDivisionIds": [
          10136032
        ],
        "postalCode": "M6C2V7",
        "streetName": "PINEWOOD",
        "streetDirectionId": null,
        "streetTypeId": "AVE",
        "placeName": "YORK",
        "streetNameDisplayText": "PINEWOOD AVE, YORK"
      }
    ]
  },
  {
    "postal": "M6C8P5",
    "result": []
  },
  {
    "postal": "M6C5P5",
    "result": []
  },
  {
    "postal": "M6C5Z0",
    "result": []
  },
  {
    "postal": "M6C9B0",
    "result": []
  },
  {
    "postal": "M6C1L0",
    "result": []
  },
  {
    "postal": "M6C0B5",
    "result": []
  },
  {
    "postal": "M6C3L2",
    "result": [
      {
        "electoralDistricts": [
          {
            "election": null,
            "id": 111,
            "name": "Toronto—St. Paul's"
          }
        ],
        "pollDivisionIds": [
          10136032
        ],
        "postalCode": "M6C3L2",
        "streetName": "WINNETT",
        "streetDirectionId": null,
        "streetTypeId": "AVE",
        "placeName": "YORK",
        "streetNameDisplayText": "WINNETT AVE, YORK"
      }
    ]
  },
  {
    "postal": "M6C3B7",
    "result": [
      {
        "electoralDistricts": [
          {
            "election": null,
            "id": 111,
            "name": "Toronto—St. Paul's"
          }
        ],
        "pollDivisionIds": [
          10136122
        ],
        "postalCode": "M6C3B7",
        "streetName": "CHILTERN HILL",
        "streetDirectionId": null,
        "streetTypeId": "RD",
        "placeName": "YORK",
        "streetNameDisplayText": "CHILTERN HILL RD, YORK"
      }
    ]
  },
  {
    "postal": "M6C8L1",
    "result": []
  },
  {
    "postal": "M6C5M4",
    "result": []
  },
  {
    "postal": "M6C4G9",
    "result": []
  },
  {
    "postal": "M6C0P0",
    "result": []
  },
  {
    "postal": "M6C8G2",
    "result": []
  },
  {
    "postal": "M6C1V9",
    "result": [
      {
        "electoralDistricts": [
          {
            "election": null,
            "id": 111,
            "name": "Toronto—St. Paul's"
          }
        ],
        "pollDivisionIds": [
          10136122
        ],
        "postalCode": "M6C1V9",
        "streetName": "AVA",
        "streetDirectionId": null,
        "streetTypeId": "RD",
        "placeName": "YORK",
        "streetNameDisplayText": "AVA RD, YORK"
      }
    ]
  },
  {
    "postal": "M6C8N8",
    "result": []
  },
  {
    "postal": "M6C6S8",
    "result": []
  },
  {
    "postal": "M6C8H2",
    "result": []
  },
  {
    "postal": "M6C5R8",
    "result": []
  },
  {
    "postal": "M6C5L4",
    "result": []
  },
  {
    "postal": "M6C9E1",
    "result": []
  },
  {
    "postal": "M6C1C4",
    "result": [
      {
        "electoralDistricts": [
          {
            "election": null,
            "id": 19,
            "name": "Davenport"
          },
          {
            "election": null,
            "id": 111,
            "name": "Toronto—St. Paul's"
          }
        ],
        "pollDivisionIds": [
          10136082,
          10136064
        ],
        "postalCode": "M6C1C4",
        "streetName": "ST CLAIR",
        "streetDirectionId": "W",
        "streetTypeId": "AVE",
        "placeName": "TORONTO",
        "streetNameDisplayText": "ST CLAIR AVE W, TORONTO"
      }
    ]
  },
  {
    "postal": "M6C8W5",
    "result": []
  },
  {
    "postal": "M6C1Y4",
    "result": [
      {
        "electoralDistricts": [
          {
            "election": null,
            "id": 111,
            "name": "Toronto—St. Paul's"
          }
        ],
        "pollDivisionIds": [
          10136034
        ],
        "postalCode": "M6C1Y4",
        "streetName": "DEWBOURNE",
        "streetDirectionId": null,
        "streetTypeId": "AVE",
        "placeName": "YORK",
        "streetNameDisplayText": "DEWBOURNE AVE, YORK"
      }
    ]
  },
  {
    "postal": "M6C1C0",
    "result": []
  },
  {
    "postal": "M6C2J2",
    "result": [
      {
        "electoralDistricts": [
          {
            "election": null,
            "id": 25,
            "name": "Eglinton—Lawrence"
          }
        ],
        "pollDivisionIds": [
          10137919
        ],
        "postalCode": "M6C2J2",
        "streetName": "RIDGE HILL",
        "streetDirectionId": null,
        "streetTypeId": "DR",
        "placeName": "TORONTO",
        "streetNameDisplayText": "RIDGE HILL DR, TORONTO"
      }
    ]
  },
  {
    "postal": "M6C2J0",
    "result": []
  },
  {
    "postal": "M6C7A3",
    "result": []
  },
  {
    "postal": "M6C8M1",
    "result": []
  },
  {
    "postal": "M6C7T9",
    "result": []
  },
  {
    "postal": "M6C6C0",
    "result": []
  },
  {
    "postal": "M6C7X1",
    "result": []
  },
  {
    "postal": "M6C0G1",
    "result": []
  },
  {
    "postal": "M6C4X2",
    "result": []
  },
  {
    "postal": "M6C0N6",
    "result": []
  },
  {
    "postal": "M6C8E3",
    "result": []
  },
  {
    "postal": "M6C5S8",
    "result": []
  },
  {
    "postal": "M6C0R0",
    "result": []
  },
  {
    "postal": "M6C6J6",
    "result": []
  },
  {
    "postal": "M6C4B4",
    "result": [
      {
        "electoralDistricts": [
          {
            "election": null,
            "id": 111,
            "name": "Toronto—St. Paul's"
          }
        ],
        "pollDivisionIds": [
          10136064
        ],
        "postalCode": "M6C4B4",
        "streetName": "MAPLEWOOD",
        "streetDirectionId": null,
        "streetTypeId": "AVE",
        "placeName": "YORK",
        "streetNameDisplayText": "MAPLEWOOD AVE, YORK"
      }
    ]
  },
  {
    "postal": "M6C7E3",
    "result": []
  },
  {
    "postal": "M6C3N6",
    "result": [
      {
        "electoralDistricts": [
          {
            "election": null,
            "id": 111,
            "name": "Toronto—St. Paul's"
          }
        ],
        "pollDivisionIds": [
          10136031
        ],
        "postalCode": "M6C3N6",
        "streetName": "ATLAS",
        "streetDirectionId": null,
        "streetTypeId": "AVE",
        "placeName": "YORK",
        "streetNameDisplayText": "ATLAS AVE, YORK"
      }
    ]
  },
  {
    "postal": "M6C3X6",
    "result": [
      {
        "electoralDistricts": [
          {
            "election": null,
            "id": 19,
            "name": "Davenport"
          }
        ],
        "pollDivisionIds": [
          10136082
        ],
        "postalCode": "M6C3X6",
        "streetName": "ROSENEATH",
        "streetDirectionId": null,
        "streetTypeId": "GDNS",
        "placeName": "YORK",
        "streetNameDisplayText": "ROSENEATH GDNS, YORK"
      }
    ]
  },
  {
    "postal": "M6C8L0",
    "result": []
  },
  {
    "postal": "M6C8N1",
    "result": []
  },
  {
    "postal": "M6C4J0",
    "result": []
  },
  {
    "postal": "M6C0X7",
    "result": []
  },
  {
    "postal": "M6C6S4",
    "result": []
  },
  {
    "postal": "M6C0Z0",
    "result": []
  },
  {
    "postal": "M6C9X8",
    "result": []
  },
  {
    "postal": "M6C3H3",
    "result": [
      {
        "electoralDistricts": [
          {
            "election": null,
            "id": 25,
            "name": "Eglinton—Lawrence"
          }
        ],
        "pollDivisionIds": [
          10137919
        ],
        "postalCode": "M6C3H3",
        "streetName": "OLD PARK",
        "streetDirectionId": null,
        "streetTypeId": "RD",
        "placeName": "TORONTO",
        "streetNameDisplayText": "OLD PARK RD, TORONTO"
      }
    ]
  },
  {
    "postal": "M6C7S2",
    "result": []
  },
  {
    "postal": "M6C3T3",
    "result": [
      {
        "electoralDistricts": [
          {
            "election": null,
            "id": 19,
            "name": "Davenport"
          }
        ],
        "pollDivisionIds": [
          10136082
        ],
        "postalCode": "M6C3T3",
        "streetName": "WINONA",
        "streetDirectionId": null,
        "streetTypeId": "DR",
        "placeName": "YORK",
        "streetNameDisplayText": "WINONA DR, YORK"
      }
    ]
  },
  {
    "postal": "M6C9P3",
    "result": []
  },
  {
    "postal": "M6C4H8",
    "result": []
  },
  {
    "postal": "M6C6R1",
    "result": []
  },
  {
    "postal": "M6C1S0",
    "result": []
  },
  {
    "postal": "M6C3W8",
    "result": [
      {
        "electoralDistricts": [
          {
            "election": null,
            "id": 111,
            "name": "Toronto—St. Paul's"
          }
        ],
        "pollDivisionIds": [
          10136028
        ],
        "postalCode": "M6C3W8",
        "streetName": "ALAMEDA",
        "streetDirectionId": null,
        "streetTypeId": "AVE",
        "placeName": "YORK",
        "streetNameDisplayText": "ALAMEDA AVE, YORK"
      }
    ]
  },
  {
    "postal": "M6C4S3",
    "result": []
  },
  {
    "postal": "M6C1B6",
    "result": [
      {
        "electoralDistricts": [
          {
            "election": null,
            "id": 111,
            "name": "Toronto—St. Paul's"
          }
        ],
        "pollDivisionIds": [
          10136031
        ],
        "postalCode": "M6C1B6",
        "streetName": "ST CLAIR",
        "streetDirectionId": "W",
        "streetTypeId": "AVE",
        "placeName": "TORONTO",
        "streetNameDisplayText": "ST CLAIR AVE W, TORONTO"
      }
    ]
  },
  {
    "postal": "M6C8R3",
    "result": []
  },
  {
    "postal": "M6C4V9",
    "result": []
  },
  {
    "postal": "M6C9W4",
    "result": []
  },
  {
    "postal": "M6C3T4",
    "result": [
      {
        "electoralDistricts": [
          {
            "election": null,
            "id": 111,
            "name": "Toronto—St. Paul's"
          }
        ],
        "pollDivisionIds": [
          10136032
        ],
        "postalCode": "M6C3T4",
        "streetName": "WINONA",
        "streetDirectionId": null,
        "streetTypeId": "DR",
        "placeName": "YORK",
        "streetNameDisplayText": "WINONA DR, YORK"
      }
    ]
  },
  {
    "postal": "M6C5C7",
    "result": []
  },
  {
    "postal": "M6C3Y1",
    "result": [
      {
        "electoralDistricts": [
          {
            "election": null,
            "id": 111,
            "name": "Toronto—St. Paul's"
          }
        ],
        "pollDivisionIds": [
          10136030
        ],
        "postalCode": "M6C3Y1",
        "streetName": "CEDRIC",
        "streetDirectionId": null,
        "streetTypeId": "AVE",
        "placeName": "YORK",
        "streetNameDisplayText": "CEDRIC AVE, YORK"
      }
    ]
  },
  {
    "postal": "M6C5V0",
    "result": []
  },
  {
    "postal": "M6C8G8",
    "result": []
  },
  {
    "postal": "M6C8B1",
    "result": []
  },
  {
    "postal": "M6C4P5",
    "result": []
  },
  {
    "postal": "M6C7B2",
    "result": []
  },
  {
    "postal": "M6C0R2",
    "result": []
  },
  {
    "postal": "M6C4M4",
    "result": []
  },
  {
    "postal": "M6C7M4",
    "result": []
  },
  {
    "postal": "M6C9S7",
    "result": []
  },
  {
    "postal": "M6C5Z7",
    "result": []
  },
  {
    "postal": "M6C7J7",
    "result": []
  },
  {
    "postal": "M6C8R8",
    "result": []
  },
  {
    "postal": "M6C9X1",
    "result": []
  },
  {
    "postal": "M6C5M9",
    "result": []
  },
  {
    "postal": "M6C9B4",
    "result": []
  },
  {
    "postal": "M6C0L9",
    "result": []
  },
  {
    "postal": "M6C9G4",
    "result": []
  },
  {
    "postal": "M6C1J4",
    "result": [
      {
        "electoralDistricts": [
          {
            "election": null,
            "id": 111,
            "name": "Toronto—St. Paul's"
          }
        ],
        "pollDivisionIds": [
          10136065
        ],
        "postalCode": "M6C1J4",
        "streetName": "MAPLEWOOD",
        "streetDirectionId": null,
        "streetTypeId": "AVE",
        "placeName": "YORK",
        "streetNameDisplayText": "MAPLEWOOD AVE, YORK"
      }
    ]
  },
  {
    "postal": "M6C0W6",
    "result": []
  },
  {
    "postal": "M6C4C5",
    "result": []
  },
  {
    "postal": "M6C7E4",
    "result": []
  },
  {
    "postal": "M6C1R9",
    "result": [
      {
        "electoralDistricts": [
          {
            "election": null,
            "id": 111,
            "name": "Toronto—St. Paul's"
          }
        ],
        "pollDivisionIds": [
          10136122
        ],
        "postalCode": "M6C1R9",
        "streetName": "STRATHEARN",
        "streetDirectionId": null,
        "streetTypeId": "RD",
        "placeName": "YORK",
        "streetNameDisplayText": "STRATHEARN RD, YORK"
      }
    ]
  },
  {
    "postal": "M6C2P0",
    "result": []
  },
  {
    "postal": "M6C5S4",
    "result": []
  },
  {
    "postal": "M6C5K8",
    "result": []
  },
  {
    "postal": "M6C8K4",
    "result": []
  },
  {
    "postal": "M6C7C1",
    "result": []
  },
  {
    "postal": "M6C7K9",
    "result": []
  },
  {
    "postal": "M6C5J1",
    "result": []
  },
  {
    "postal": "M6C4P9",
    "result": []
  },
  {
    "postal": "M6C0N2",
    "result": []
  },
  {
    "postal": "M6C2G6",
    "result": [
      {
        "electoralDistricts": [
          {
            "election": null,
            "id": 25,
            "name": "Eglinton—Lawrence"
          }
        ],
        "pollDivisionIds": [
          10137919
        ],
        "postalCode": "M6C2G6",
        "streetName": "WEMBLEY",
        "streetDirectionId": null,
        "streetTypeId": "RD",
        "placeName": "TORONTO",
        "streetNameDisplayText": "WEMBLEY RD, TORONTO"
      }
    ]
  },
  {
    "postal": "M6C6P4",
    "result": []
  },
  {
    "postal": "M6C3J0",
    "result": []
  },
  {
    "postal": "M6C8X4",
    "result": []
  },
  {
    "postal": "M6C1Y3",
    "result": [
      {
        "electoralDistricts": [
          {
            "election": null,
            "id": 111,
            "name": "Toronto—St. Paul's"
          }
        ],
        "pollDivisionIds": [
          10136028
        ],
        "postalCode": "M6C1Y3",
        "streetName": "CLOVELLY",
        "streetDirectionId": null,
        "streetTypeId": "AVE",
        "placeName": "YORK",
        "streetNameDisplayText": "CLOVELLY AVE, YORK"
      }
    ]
  },
  {
    "postal": "M6C1A8",
    "result": [
      {
        "electoralDistricts": [
          {
            "election": null,
            "id": 111,
            "name": "Toronto—St. Paul's"
          }
        ],
        "pollDivisionIds": [
          10136028,
          10136063,
          10136036
        ],
        "postalCode": "M6C1A8",
        "streetName": "ST CLAIR",
        "streetDirectionId": "W",
        "streetTypeId": "AVE",
        "placeName": "TORONTO",
        "streetNameDisplayText": "ST CLAIR AVE W, TORONTO"
      },
      {
        "electoralDistricts": [
          {
            "election": null,
            "id": 111,
            "name": "Toronto—St. Paul's"
          }
        ],
        "pollDivisionIds": [
          10136028
        ],
        "postalCode": "M6C1A8",
        "streetName": "ST. CLAIR",
        "streetDirectionId": "W",
        "streetTypeId": "AVE",
        "placeName": "TORONTO",
        "streetNameDisplayText": "ST. CLAIR AVE W, TORONTO"
      }
    ]
  },
  {
    "postal": "M6C6Y5",
    "result": []
  },
  {
    "postal": "M6C0J6",
    "result": []
  },
  {
    "postal": "M6C2C9",
    "result": [
      {
        "electoralDistricts": [
          {
            "election": null,
            "id": 111,
            "name": "Toronto—St. Paul's"
          }
        ],
        "pollDivisionIds": [
          10136034
        ],
        "postalCode": "M6C2C9",
        "streetName": "EGLINTON",
        "streetDirectionId": "W",
        "streetTypeId": "AVE",
        "placeName": "YORK",
        "streetNameDisplayText": "EGLINTON AVE W, YORK"
      }
    ]
  },
  {
    "postal": "M6C8J6",
    "result": []
  },
  {
    "postal": "M6C8T4",
    "result": []
  },
  {
    "postal": "M6C1P7",
    "result": [
      {
        "electoralDistricts": [
          {
            "election": null,
            "id": 111,
            "name": "Toronto—St. Paul's"
          }
        ],
        "pollDivisionIds": [
          10136030
        ],
        "postalCode": "M6C1P7",
        "streetName": "BELVIDERE",
        "streetDirectionId": null,
        "streetTypeId": "AVE",
        "placeName": "YORK",
        "streetNameDisplayText": "BELVIDERE AVE, YORK"
      }
    ]
  },
  {
    "postal": "M6C9V9",
    "result": []
  },
  {
    "postal": "M6C0M1",
    "result": []
  },
  {
    "postal": "M6C6K5",
    "result": []
  },
  {
    "postal": "M6C2T5",
    "result": [
      {
        "electoralDistricts": [
          {
            "election": null,
            "id": 111,
            "name": "Toronto—St. Paul's"
          }
        ],
        "pollDivisionIds": [
          10136064
        ],
        "postalCode": "M6C2T5",
        "streetName": "WYCHWOOD",
        "streetDirectionId": null,
        "streetTypeId": "AVE",
        "placeName": "YORK",
        "streetNameDisplayText": "WYCHWOOD AVE, YORK"
      },
      {
        "electoralDistricts": [
          {
            "election": null,
            "id": 111,
            "name": "Toronto—St. Paul's"
          }
        ],
        "pollDivisionIds": [
          10136064
        ],
        "postalCode": "M6C2T5",
        "streetName": "WYCHWOOD",
        "streetDirectionId": null,
        "streetTypeId": "PK",
        "placeName": "YORK",
        "streetNameDisplayText": "WYCHWOOD PK, YORK"
      }
    ]
  },
  {
    "postal": "M6C7E9",
    "result": []
  },
  {
    "postal": "M6C5K5",
    "result": []
  },
  {
    "postal": "M6C3R5",
    "result": [
      {
        "electoralDistricts": [
          {
            "election": null,
            "id": 111,
            "name": "Toronto—St. Paul's"
          }
        ],
        "pollDivisionIds": [
          10136028
        ],
        "postalCode": "M6C3R5",
        "streetName": "ATLAS",
        "streetDirectionId": null,
        "streetTypeId": "AVE",
        "placeName": "YORK",
        "streetNameDisplayText": "ATLAS AVE, YORK"
      }
    ]
  },
  {
    "postal": "M6C5B1",
    "result": []
  },
  {
    "postal": "M6C2P1",
    "result": [
      {
        "electoralDistricts": [
          {
            "election": null,
            "id": 111,
            "name": "Toronto—St. Paul's"
          }
        ],
        "pollDivisionIds": [
          10136122
        ],
        "postalCode": "M6C2P1",
        "streetName": "VAUGHAN",
        "streetDirectionId": null,
        "streetTypeId": "RD",
        "placeName": "YORK",
        "streetNameDisplayText": "VAUGHAN RD, YORK"
      }
    ]
  },
  {
    "postal": "M6C7L0",
    "result": []
  },
  {
    "postal": "M6C3L6",
    "result": [
      {
        "electoralDistricts": [
          {
            "election": null,
            "id": 111,
            "name": "Toronto—St. Paul's"
          }
        ],
        "pollDivisionIds": [
          10136032
        ],
        "postalCode": "M6C3L6",
        "streetName": "WINNETT",
        "streetDirectionId": null,
        "streetTypeId": "AVE",
        "placeName": "YORK",
        "streetNameDisplayText": "WINNETT AVE, YORK"
      }
    ]
  },
  {
    "postal": "M6C2A4",
    "result": [
      {
        "electoralDistricts": [
          {
            "election": null,
            "id": 111,
            "name": "Toronto—St. Paul's"
          }
        ],
        "pollDivisionIds": [
          10136028
        ],
        "postalCode": "M6C2A4",
        "streetName": "GLOUCESTER",
        "streetDirectionId": null,
        "streetTypeId": "GROVE",
        "placeName": "YORK",
        "streetNameDisplayText": "GLOUCESTER GROVE, YORK"
      }
    ]
  },
  {
    "postal": "M6C8S0",
    "result": []
  },
  {
    "postal": "M6C3L5",
    "result": [
      {
        "electoralDistricts": [
          {
            "election": null,
            "id": 111,
            "name": "Toronto—St. Paul's"
          }
        ],
        "pollDivisionIds": [
          10136031
        ],
        "postalCode": "M6C3L5",
        "streetName": "WINNETT",
        "streetDirectionId": null,
        "streetTypeId": "AVE",
        "placeName": "YORK",
        "streetNameDisplayText": "WINNETT AVE, YORK"
      }
    ]
  },
  {
    "postal": "M6C2R5",
    "result": [
      {
        "electoralDistricts": [
          {
            "election": null,
            "id": 111,
            "name": "Toronto—St. Paul's"
          }
        ],
        "pollDivisionIds": [
          10136030
        ],
        "postalCode": "M6C2R5",
        "streetName": "VAUGHAN",
        "streetDirectionId": null,
        "streetTypeId": "RD",
        "placeName": "YORK",
        "streetNameDisplayText": "VAUGHAN RD, YORK"
      }
    ]
  },
  {
    "postal": "M6C9T6",
    "result": []
  },
  {
    "postal": "M6C8Z2",
    "result": []
  },
  {
    "postal": "M6C0E9",
    "result": []
  },
  {
    "postal": "M6C8C0",
    "result": []
  },
  {
    "postal": "M6C3K7",
    "result": [
      {
        "electoralDistricts": [
          {
            "election": null,
            "id": 111,
            "name": "Toronto—St. Paul's"
          }
        ],
        "pollDivisionIds": [
          10136034
        ],
        "postalCode": "M6C3K7",
        "streetName": "EVERDEN",
        "streetDirectionId": null,
        "streetTypeId": "RD",
        "placeName": "YORK",
        "streetNameDisplayText": "EVERDEN RD, YORK"
      }
    ]
  },
  {
    "postal": "M6C2H3",
    "result": [
      {
        "electoralDistricts": [
          {
            "election": null,
            "id": 25,
            "name": "Eglinton—Lawrence"
          }
        ],
        "pollDivisionIds": [
          10137919
        ],
        "postalCode": "M6C2H3",
        "streetName": "OLD FOREST HILL",
        "streetDirectionId": null,
        "streetTypeId": "RD",
        "placeName": "TORONTO",
        "streetNameDisplayText": "OLD FOREST HILL RD, TORONTO"
      }
    ]
  },
  {
    "postal": "M6C2Y6",
    "result": [
      {
        "electoralDistricts": [
          {
            "election": null,
            "id": 111,
            "name": "Toronto—St. Paul's"
          }
        ],
        "pollDivisionIds": [
          10136032
        ],
        "postalCode": "M6C2Y6",
        "streetName": "RUSHTON",
        "streetDirectionId": null,
        "streetTypeId": "RD",
        "placeName": "YORK",
        "streetNameDisplayText": "RUSHTON RD, YORK"
      }
    ]
  },
  {
    "postal": "M6C7M2",
    "result": []
  },
  {
    "postal": "M6C6E2",
    "result": []
  },
  {
    "postal": "M6C3R0",
    "result": []
  },
  {
    "postal": "M6C4J7",
    "result": []
  },
  {
    "postal": "M6C6N8",
    "result": []
  },
  {
    "postal": "M6C0J7",
    "result": []
  },
  {
    "postal": "M6C7P2",
    "result": []
  },
  {
    "postal": "M6C3T8",
    "result": [
      {
        "electoralDistricts": [
          {
            "election": null,
            "id": 111,
            "name": "Toronto—St. Paul's"
          }
        ],
        "pollDivisionIds": [
          10136028,
          10136030,
          10136031
        ],
        "postalCode": "M6C3T8",
        "streetName": "WINONA",
        "streetDirectionId": null,
        "streetTypeId": "DR",
        "placeName": "YORK",
        "streetNameDisplayText": "WINONA DR, YORK"
      }
    ]
  },
  {
    "postal": "M6C3S7",
    "result": [
      {
        "electoralDistricts": [
          {
            "election": null,
            "id": 19,
            "name": "Davenport"
          }
        ],
        "pollDivisionIds": [
          10136082
        ],
        "postalCode": "M6C3S7",
        "streetName": "WINONA",
        "streetDirectionId": null,
        "streetTypeId": "DR",
        "placeName": "YORK",
        "streetNameDisplayText": "WINONA DR, YORK"
      }
    ]
  },
  {
    "postal": "M6C2S7",
    "result": [
      {
        "electoralDistricts": [
          {
            "election": null,
            "id": 111,
            "name": "Toronto—St. Paul's"
          }
        ],
        "pollDivisionIds": [
          10136032
        ],
        "postalCode": "M6C2S7",
        "streetName": "CONNAUGHT",
        "streetDirectionId": null,
        "streetTypeId": "CIR",
        "placeName": "YORK",
        "streetNameDisplayText": "CONNAUGHT CIR, YORK"
      }
    ]
  },
  {
    "postal": "M6C1S4",
    "result": [
      {
        "electoralDistricts": [
          {
            "election": null,
            "id": 111,
            "name": "Toronto—St. Paul's"
          }
        ],
        "pollDivisionIds": [
          10136034
        ],
        "postalCode": "M6C1S4",
        "streetName": "STRATHEARN",
        "streetDirectionId": null,
        "streetTypeId": "RD",
        "placeName": "YORK",
        "streetNameDisplayText": "STRATHEARN RD, YORK"
      }
    ]
  },
  {
    "postal": "M6C1L8",
    "result": [
      {
        "electoralDistricts": [
          {
            "election": null,
            "id": 111,
            "name": "Toronto—St. Paul's"
          }
        ],
        "pollDivisionIds": [
          10136032
        ],
        "postalCode": "M6C1L8",
        "streetName": "CLAXTON",
        "streetDirectionId": null,
        "streetTypeId": "BLVD",
        "placeName": "YORK",
        "streetNameDisplayText": "CLAXTON BLVD, YORK"
      }
    ]
  },
  {
    "postal": "M6C8E9",
    "result": []
  },
  {
    "postal": "M6C0T0",
    "result": []
  },
  {
    "postal": "M6C3G4",
    "result": [
      {
        "electoralDistricts": [
          {
            "election": null,
            "id": 111,
            "name": "Toronto—St. Paul's"
          }
        ],
        "pollDivisionIds": [
          10136122
        ],
        "postalCode": "M6C3G4",
        "streetName": "GLEN CEDAR",
        "streetDirectionId": null,
        "streetTypeId": "RD",
        "placeName": "YORK",
        "streetNameDisplayText": "GLEN CEDAR RD, YORK"
      }
    ]
  },
  {
    "postal": "M6C0V6",
    "result": []
  },
  {
    "postal": "M6C4W1",
    "result": []
  },
  {
    "postal": "M6C9G9",
    "result": []
  },
  {
    "postal": "M6C5W4",
    "result": []
  },
  {
    "postal": "M6C7M8",
    "result": []
  },
  {
    "postal": "M6C2C2",
    "result": [
      {
        "electoralDistricts": [
          {
            "election": null,
            "id": 25,
            "name": "Eglinton—Lawrence"
          }
        ],
        "pollDivisionIds": [
          10137919
        ],
        "postalCode": "M6C2C2",
        "streetName": "EGLINTON",
        "streetDirectionId": "W",
        "streetTypeId": "AVE",
        "placeName": "TORONTO",
        "streetNameDisplayText": "EGLINTON AVE W, TORONTO"
      }
    ]
  },
  {
    "postal": "M6C4Y2",
    "result": []
  },
  {
    "postal": "M6C9X9",
    "result": []
  },
  {
    "postal": "M6C3T0",
    "result": []
  },
  {
    "postal": "M6C4T8",
    "result": []
  },
  {
    "postal": "M6C9C4",
    "result": []
  },
  {
    "postal": "M6C8P2",
    "result": []
  },
  {
    "postal": "M6C0Y8",
    "result": []
  },
  {
    "postal": "M6C1G8",
    "result": [
      {
        "electoralDistricts": [
          {
            "election": null,
            "id": 111,
            "name": "Toronto—St. Paul's"
          }
        ],
        "pollDivisionIds": [
          10136032
        ],
        "postalCode": "M6C1G8",
        "streetName": "WELLWOOD",
        "streetDirectionId": null,
        "streetTypeId": "AVE",
        "placeName": "YORK",
        "streetNameDisplayText": "WELLWOOD AVE, YORK"
      }
    ]
  },
  {
    "postal": "M6C2T6",
    "result": [
      {
        "electoralDistricts": [
          {
            "election": null,
            "id": 111,
            "name": "Toronto—St. Paul's"
          }
        ],
        "pollDivisionIds": [
          10136032
        ],
        "postalCode": "M6C2T6",
        "streetName": "WYCHWOOD",
        "streetDirectionId": null,
        "streetTypeId": "AVE",
        "placeName": "YORK",
        "streetNameDisplayText": "WYCHWOOD AVE, YORK"
      }
    ]
  },
  {
    "postal": "M6C1N7",
    "result": [
      {
        "electoralDistricts": [
          {
            "election": null,
            "id": 111,
            "name": "Toronto—St. Paul's"
          }
        ],
        "pollDivisionIds": [
          10136030
        ],
        "postalCode": "M6C1N7",
        "streetName": "MOIR",
        "streetDirectionId": null,
        "streetTypeId": "AVE",
        "placeName": "YORK",
        "streetNameDisplayText": "MOIR AVE, YORK"
      }
    ]
  },
  {
    "postal": "M6C0L6",
    "result": []
  },
  {
    "postal": "M6C9V4",
    "result": []
  },
  {
    "postal": "M6C2V1",
    "result": [
      {
        "electoralDistricts": [
          {
            "election": null,
            "id": 111,
            "name": "Toronto—St. Paul's"
          }
        ],
        "pollDivisionIds": [
          10136065,
          10136064
        ],
        "postalCode": "M6C2V1",
        "streetName": "PINEWOOD",
        "streetDirectionId": null,
        "streetTypeId": "AVE",
        "placeName": "YORK",
        "streetNameDisplayText": "PINEWOOD AVE, YORK"
      }
    ]
  },
  {
    "postal": "M6C3L8",
    "result": [
      {
        "electoralDistricts": [
          {
            "election": null,
            "id": 111,
            "name": "Toronto—St. Paul's"
          }
        ],
        "pollDivisionIds": [
          10136122
        ],
        "postalCode": "M6C3L8",
        "streetName": "WINNETT",
        "streetDirectionId": null,
        "streetTypeId": "AVE",
        "placeName": "YORK",
        "streetNameDisplayText": "WINNETT AVE, YORK"
      }
    ]
  },
  {
    "postal": "M6C2R8",
    "result": [
      {
        "electoralDistricts": [
          {
            "election": null,
            "id": 111,
            "name": "Toronto—St. Paul's"
          }
        ],
        "pollDivisionIds": [
          10136064
        ],
        "postalCode": "M6C2R8",
        "streetName": "KENWOOD",
        "streetDirectionId": null,
        "streetTypeId": "AVE",
        "placeName": "YORK",
        "streetNameDisplayText": "KENWOOD AVE, YORK"
      }
    ]
  },
  {
    "postal": "M6C5C1",
    "result": []
  },
  {
    "postal": "M6C4W3",
    "result": []
  },
  {
    "postal": "M6C5X5",
    "result": []
  },
  {
    "postal": "M6C9W5",
    "result": []
  },
  {
    "postal": "M6C3C4",
    "result": [
      {
        "electoralDistricts": [
          {
            "election": null,
            "id": 111,
            "name": "Toronto—St. Paul's"
          }
        ],
        "pollDivisionIds": [
          10136034
        ],
        "postalCode": "M6C3C4",
        "streetName": "CHILTERN HILL",
        "streetDirectionId": null,
        "streetTypeId": "RD",
        "placeName": "YORK",
        "streetNameDisplayText": "CHILTERN HILL RD, YORK"
      }
    ]
  },
  {
    "postal": "M6C1N6",
    "result": [
      {
        "electoralDistricts": [
          {
            "election": null,
            "id": 111,
            "name": "Toronto—St. Paul's"
          }
        ],
        "pollDivisionIds": [
          10136030
        ],
        "postalCode": "M6C1N6",
        "streetName": "MOIR",
        "streetDirectionId": null,
        "streetTypeId": "AVE",
        "placeName": "YORK",
        "streetNameDisplayText": "MOIR AVE, YORK"
      }
    ]
  },
  {
    "postal": "M6C9S9",
    "result": []
  },
  {
    "postal": "M6C9M2",
    "result": []
  },
  {
    "postal": "M6C8Y4",
    "result": []
  },
  {
    "postal": "M6C7S4",
    "result": []
  },
  {
    "postal": "M6C0K6",
    "result": []
  },
  {
    "postal": "M6C1W3",
    "result": [
      {
        "electoralDistricts": [
          {
            "election": null,
            "id": 111,
            "name": "Toronto—St. Paul's"
          }
        ],
        "pollDivisionIds": [
          10136034
        ],
        "postalCode": "M6C1W3",
        "streetName": "AVA",
        "streetDirectionId": null,
        "streetTypeId": "RD",
        "placeName": "YORK",
        "streetNameDisplayText": "AVA RD, YORK"
      }
    ]
  },
  {
    "postal": "M6C7R2",
    "result": []
  },
  {
    "postal": "M6C2Y9",
    "result": [
      {
        "electoralDistricts": [
          {
            "election": null,
            "id": 111,
            "name": "Toronto—St. Paul's"
          }
        ],
        "pollDivisionIds": [
          10136065
        ],
        "postalCode": "M6C2Y9",
        "streetName": "ARLINGTON",
        "streetDirectionId": null,
        "streetTypeId": "AVE",
        "placeName": "TORONTO",
        "streetNameDisplayText": "ARLINGTON AVE, TORONTO"
      },
      {
        "electoralDistricts": [
          {
            "election": null,
            "id": 111,
            "name": "Toronto—St. Paul's"
          }
        ],
        "pollDivisionIds": [
          10136028
        ],
        "postalCode": "M6C2Y9",
        "streetName": "VAUGHAN",
        "streetDirectionId": null,
        "streetTypeId": "RD",
        "placeName": "TORONTO,ON",
        "streetNameDisplayText": "VAUGHAN RD, TORONTO,ON"
      }
    ]
  },
  {
    "postal": "M6C7G4",
    "result": []
  },
  {
    "postal": "M6C7E5",
    "result": []
  },
  {
    "postal": "M6C9G2",
    "result": []
  },
  {
    "postal": "M6C7Y8",
    "result": []
  },
  {
    "postal": "M6C9V2",
    "result": []
  },
  {
    "postal": "M6C3T7",
    "result": [
      {
        "electoralDistricts": [
          {
            "election": null,
            "id": 111,
            "name": "Toronto—St. Paul's"
          }
        ],
        "pollDivisionIds": [
          10136030
        ],
        "postalCode": "M6C3T7",
        "streetName": "WINONA",
        "streetDirectionId": null,
        "streetTypeId": "DR",
        "placeName": "YORK",
        "streetNameDisplayText": "WINONA DR, YORK"
      }
    ]
  },
  {
    "postal": "M6C1H0",
    "result": []
  },
  {
    "postal": "M6C1M7",
    "result": [
      {
        "electoralDistricts": [
          {
            "election": null,
            "id": 111,
            "name": "Toronto—St. Paul's"
          }
        ],
        "pollDivisionIds": [
          10136032
        ],
        "postalCode": "M6C1M7",
        "streetName": "HEATHDALE",
        "streetDirectionId": null,
        "streetTypeId": "RD",
        "placeName": "YORK",
        "streetNameDisplayText": "HEATHDALE RD, YORK"
      }
    ]
  },
  {
    "postal": "M6C8V4",
    "result": []
  },
  {
    "postal": "M6C4M2",
    "result": []
  },
  {
    "postal": "M6C0X2",
    "result": []
  },
  {
    "postal": "M6C5Z4",
    "result": []
  },
  {
    "postal": "M6C6V4",
    "result": []
  },
  {
    "postal": "M6C8J3",
    "result": []
  },
  {
    "postal": "M6C8E5",
    "result": []
  },
  {
    "postal": "M6C2V5",
    "result": [
      {
        "electoralDistricts": [
          {
            "election": null,
            "id": 111,
            "name": "Toronto—St. Paul's"
          }
        ],
        "pollDivisionIds": [
          10136032
        ],
        "postalCode": "M6C2V5",
        "streetName": "PINEWOOD",
        "streetDirectionId": null,
        "streetTypeId": "AVE",
        "placeName": "YORK",
        "streetNameDisplayText": "PINEWOOD AVE, YORK"
      }
    ]
  },
  {
    "postal": "M6C7S1",
    "result": []
  },
  {
    "postal": "M6C6V3",
    "result": []
  },
  {
    "postal": "M6C2L8",
    "result": []
  },
  {
    "postal": "M6C9V0",
    "result": []
  },
  {
    "postal": "M6C3M4",
    "result": [
      {
        "electoralDistricts": [
          {
            "election": null,
            "id": 111,
            "name": "Toronto—St. Paul's"
          }
        ],
        "pollDivisionIds": [
          10136028
        ],
        "postalCode": "M6C3M4",
        "streetName": "WINNETT",
        "streetDirectionId": null,
        "streetTypeId": "AVE",
        "placeName": "YORK",
        "streetNameDisplayText": "WINNETT AVE, YORK"
      },
      {
        "electoralDistricts": [
          {
            "election": null,
            "id": 111,
            "name": "Toronto—St. Paul's"
          }
        ],
        "pollDivisionIds": [
          10136028
        ],
        "postalCode": "M6C3M4",
        "streetName": "WINNETTE",
        "streetDirectionId": null,
        "streetTypeId": "AVE",
        "placeName": "YORK",
        "streetNameDisplayText": "WINNETTE AVE, YORK"
      }
    ]
  },
  {
    "postal": "M6C5B2",
    "result": []
  },
  {
    "postal": "M6C3X5",
    "result": [
      {
        "electoralDistricts": [
          {
            "election": null,
            "id": 111,
            "name": "Toronto—St. Paul's"
          }
        ],
        "pollDivisionIds": [
          10136030
        ],
        "postalCode": "M6C3X5",
        "streetName": "ROSENEATH GARDENS",
        "streetDirectionId": null,
        "streetTypeId": "GDNS",
        "placeName": "YORK",
        "streetNameDisplayText": "ROSENEATH GARDENS GDNS, YORK"
      },
      {
        "electoralDistricts": [
          {
            "election": null,
            "id": 19,
            "name": "Davenport"
          }
        ],
        "pollDivisionIds": [
          10136082
        ],
        "postalCode": "M6C3X5",
        "streetName": "ROSENEATH",
        "streetDirectionId": null,
        "streetTypeId": "GDNS",
        "placeName": "YORK",
        "streetNameDisplayText": "ROSENEATH GDNS, YORK"
      }
    ]
  },
  {
    "postal": "M6C9R7",
    "result": []
  },
  {
    "postal": "M6C2X2",
    "result": [
      {
        "electoralDistricts": [
          {
            "election": null,
            "id": 111,
            "name": "Toronto—St. Paul's"
          }
        ],
        "pollDivisionIds": [
          10136032
        ],
        "postalCode": "M6C2X2",
        "streetName": "CHERRYWOOD",
        "streetDirectionId": null,
        "streetTypeId": "AVE",
        "placeName": "YORK",
        "streetNameDisplayText": "CHERRYWOOD AVE, YORK"
      }
    ]
  },
  {
    "postal": "M6C8Z6",
    "result": []
  },
  {
    "postal": "M6C4R4",
    "result": []
  },
  {
    "postal": "M6C2R1",
    "result": [
      {
        "electoralDistricts": [
          {
            "election": null,
            "id": 111,
            "name": "Toronto—St. Paul's"
          }
        ],
        "pollDivisionIds": [
          10136030
        ],
        "postalCode": "M6C2R1",
        "streetName": "VAUGHAN",
        "streetDirectionId": null,
        "streetTypeId": "RD",
        "placeName": "YORK",
        "streetNameDisplayText": "VAUGHAN RD, YORK"
      }
    ]
  },
  {
    "postal": "M6C3R8",
    "result": [
      {
        "electoralDistricts": [
          {
            "election": null,
            "id": 25,
            "name": "Eglinton—Lawrence"
          }
        ],
        "pollDivisionIds": [
          10137918
        ],
        "postalCode": "M6C3R8",
        "streetName": "FAIRLEIGH",
        "streetDirectionId": null,
        "streetTypeId": "CRES",
        "placeName": "TORONTO",
        "streetNameDisplayText": "FAIRLEIGH CRES, TORONTO"
      }
    ]
  },
  {
    "postal": "M6C9A1",
    "result": []
  },
  {
    "postal": "M6C8L3",
    "result": []
  },
  {
    "postal": "M6C9K4",
    "result": []
  },
  {
    "postal": "M6C9S3",
    "result": []
  },
  {
    "postal": "M6C8N7",
    "result": []
  },
  {
    "postal": "M6C1C6",
    "result": [
      {
        "electoralDistricts": [
          {
            "election": null,
            "id": 19,
            "name": "Davenport"
          }
        ],
        "pollDivisionIds": [
          10136082
        ],
        "postalCode": "M6C1C6",
        "streetName": "ST CLAIR",
        "streetDirectionId": "W",
        "streetTypeId": "AVE",
        "placeName": "TORONTO",
        "streetNameDisplayText": "ST CLAIR AVE W, TORONTO"
      }
    ]
  },
  {
    "postal": "M6C3Z8",
    "result": []
  },
  {
    "postal": "M6C8G5",
    "result": []
  },
  {
    "postal": "M6C5R6",
    "result": []
  },
  {
    "postal": "M6C2W3",
    "result": [
      {
        "electoralDistricts": [
          {
            "election": null,
            "id": 111,
            "name": "Toronto—St. Paul's"
          }
        ],
        "pollDivisionIds": [
          10136065
        ],
        "postalCode": "M6C2W3",
        "streetName": "HUMEWOOD",
        "streetDirectionId": null,
        "streetTypeId": "CRT",
        "placeName": "YORK",
        "streetNameDisplayText": "HUMEWOOD CRT, YORK"
      },
      {
        "electoralDistricts": [
          {
            "election": null,
            "id": 111,
            "name": "Toronto—St. Paul's"
          }
        ],
        "pollDivisionIds": [
          10136065
        ],
        "postalCode": "M6C2W3",
        "streetName": "HUMEWOOD",
        "streetDirectionId": null,
        "streetTypeId": "DR",
        "placeName": "YORK",
        "streetNameDisplayText": "HUMEWOOD DR, YORK"
      }
    ]
  },
  {
    "postal": "M6C0A0",
    "result": []
  },
  {
    "postal": "M6C6P8",
    "result": []
  },
  {
    "postal": "M6C8N9",
    "result": []
  },
  {
    "postal": "M6C0S9",
    "result": []
  },
  {
    "postal": "M6C8G0",
    "result": []
  },
  {
    "postal": "M6C8C7",
    "result": []
  },
  {
    "postal": "M6C5X8",
    "result": []
  },
  {
    "postal": "M6C7E8",
    "result": []
  },
  {
    "postal": "M6C6X2",
    "result": []
  },
  {
    "postal": "M6C4C6",
    "result": []
  },
  {
    "postal": "M6C7H2",
    "result": []
  },
  {
    "postal": "M6C4R0",
    "result": []
  },
  {
    "postal": "M6C6J3",
    "result": []
  },
  {
    "postal": "M6C4B8",
    "result": []
  },
  {
    "postal": "M6C6H6",
    "result": []
  },
  {
    "postal": "M6C0S1",
    "result": []
  },
  {
    "postal": "M6C4E3",
    "result": []
  },
  {
    "postal": "M6C7K2",
    "result": []
  },
  {
    "postal": "M6C7T8",
    "result": []
  },
  {
    "postal": "M6C0J9",
    "result": []
  },
  {
    "postal": "M6C5J9",
    "result": []
  },
  {
    "postal": "M6C5S7",
    "result": []
  },
  {
    "postal": "M6C0G9",
    "result": []
  },
  {
    "postal": "M6C3J9",
    "result": [
      {
        "electoralDistricts": [
          {
            "election": null,
            "id": 25,
            "name": "Eglinton—Lawrence"
          }
        ],
        "pollDivisionIds": [
          10137919
        ],
        "postalCode": "M6C3J9",
        "streetName": "GLENARDEN",
        "streetDirectionId": null,
        "streetTypeId": "RD",
        "placeName": "TORONTO",
        "streetNameDisplayText": "GLENARDEN RD, TORONTO"
      }
    ]
  },
  {
    "postal": "M6C2Y0",
    "result": []
  },
  {
    "postal": "M6C8X5",
    "result": []
  },
  {
    "postal": "M6C2M7",
    "result": [
      {
        "electoralDistricts": [
          {
            "election": null,
            "id": 111,
            "name": "Toronto—St. Paul's"
          }
        ],
        "pollDivisionIds": [
          10136032
        ],
        "postalCode": "M6C2M7",
        "streetName": "VAUGHAN",
        "streetDirectionId": null,
        "streetTypeId": "RD",
        "placeName": "YORK",
        "streetNameDisplayText": "VAUGHAN RD, YORK"
      }
    ]
  },
  {
    "postal": "M6C9Z3",
    "result": []
  },
  {
    "postal": "M6C7W2",
    "result": []
  },
  {
    "postal": "M6C3W0",
    "result": []
  },
  {
    "postal": "M6C3M1",
    "result": [
      {
        "electoralDistricts": [
          {
            "election": null,
            "id": 111,
            "name": "Toronto—St. Paul's"
          }
        ],
        "pollDivisionIds": [
          10136030
        ],
        "postalCode": "M6C3M1",
        "streetName": "WINNETT",
        "streetDirectionId": null,
        "streetTypeId": "AVE",
        "placeName": "YORK",
        "streetNameDisplayText": "WINNETT AVE, YORK"
      }
    ]
  },
  {
    "postal": "M6C6A5",
    "result": []
  },
  {
    "postal": "M6C2M9",
    "result": [
      {
        "electoralDistricts": [
          {
            "election": null,
            "id": 111,
            "name": "Toronto—St. Paul's"
          }
        ],
        "pollDivisionIds": [
          10136032
        ],
        "postalCode": "M6C2M9",
        "streetName": "VAUGHAN",
        "streetDirectionId": null,
        "streetTypeId": "RD",
        "placeName": "YORK",
        "streetNameDisplayText": "VAUGHAN RD, YORK"
      }
    ]
  },
  {
    "postal": "M6C5C3",
    "result": []
  },
  {
    "postal": "M6C0Y6",
    "result": []
  },
  {
    "postal": "M6C9H7",
    "result": []
  },
  {
    "postal": "M6C3L0",
    "result": []
  },
  {
    "postal": "M6C5N9",
    "result": []
  },
  {
    "postal": "M6C5E3",
    "result": []
  },
  {
    "postal": "M6C7M9",
    "result": []
  },
  {
    "postal": "M6C8N2",
    "result": []
  },
  {
    "postal": "M6C9H3",
    "result": []
  },
  {
    "postal": "M6C2K8",
    "result": [
      {
        "electoralDistricts": [
          {
            "election": null,
            "id": 111,
            "name": "Toronto—St. Paul's"
          }
        ],
        "pollDivisionIds": [
          10136063
        ],
        "postalCode": "M6C2K8",
        "streetName": "RAGLAN",
        "streetDirectionId": null,
        "streetTypeId": "AVE",
        "placeName": "YORK",
        "streetNameDisplayText": "RAGLAN AVE, YORK"
      }
    ]
  },
  {
    "postal": "M6C9L0",
    "result": []
  },
  {
    "postal": "M6C6L9",
    "result": []
  },
  {
    "postal": "M6C6A8",
    "result": []
  },
  {
    "postal": "M6C2K6",
    "result": [
      {
        "electoralDistricts": [
          {
            "election": null,
            "id": 111,
            "name": "Toronto—St. Paul's"
          }
        ],
        "pollDivisionIds": [
          10136064
        ],
        "postalCode": "M6C2K6",
        "streetName": "RAGLAN",
        "streetDirectionId": null,
        "streetTypeId": "AVE",
        "placeName": "TORONTO",
        "streetNameDisplayText": "RAGLAN AVE, TORONTO"
      }
    ]
  },
  {
    "postal": "M6C2M0",
    "result": []
  },
  {
    "postal": "M6C5X7",
    "result": []
  },
  {
    "postal": "M6C0M7",
    "result": []
  },
  {
    "postal": "M6C7A6",
    "result": []
  },
  {
    "postal": "M6C3C5",
    "result": [
      {
        "electoralDistricts": [
          {
            "election": null,
            "id": 25,
            "name": "Eglinton—Lawrence"
          }
        ],
        "pollDivisionIds": [
          10137919
        ],
        "postalCode": "M6C3C5",
        "streetName": "HILLTOP",
        "streetDirectionId": null,
        "streetTypeId": "RD",
        "placeName": "TORONTO",
        "streetNameDisplayText": "HILLTOP RD, TORONTO"
      }
    ]
  },
  {
    "postal": "M6C2P2",
    "result": [
      {
        "electoralDistricts": [
          {
            "election": null,
            "id": 111,
            "name": "Toronto—St. Paul's"
          }
        ],
        "pollDivisionIds": [
          10136032
        ],
        "postalCode": "M6C2P2",
        "streetName": "VAUGHAN",
        "streetDirectionId": null,
        "streetTypeId": "RD",
        "placeName": "YORK",
        "streetNameDisplayText": "VAUGHAN RD, YORK"
      }
    ]
  },
  {
    "postal": "M6C9N4",
    "result": []
  },
  {
    "postal": "M6C3M9",
    "result": [
      {
        "electoralDistricts": [
          {
            "election": null,
            "id": 25,
            "name": "Eglinton—Lawrence"
          }
        ],
        "pollDivisionIds": [
          10137918
        ],
        "postalCode": "M6C3M9",
        "streetName": "PARK HILL",
        "streetDirectionId": null,
        "streetTypeId": "RD",
        "placeName": "TORONTO",
        "streetNameDisplayText": "PARK HILL RD, TORONTO"
      }
    ]
  },
  {
    "postal": "M6C8K6",
    "result": []
  },
  {
    "postal": "M6C1L2",
    "result": [
      {
        "electoralDistricts": [
          {
            "election": null,
            "id": 19,
            "name": "Davenport"
          }
        ],
        "pollDivisionIds": [
          10136082
        ],
        "postalCode": "M6C1L2",
        "streetName": "EARLSDALE",
        "streetDirectionId": null,
        "streetTypeId": "AVE",
        "placeName": "YORK",
        "streetNameDisplayText": "EARLSDALE AVE, YORK"
      }
    ]
  },
  {
    "postal": "M6C2Z9",
    "result": [
      {
        "electoralDistricts": [
          {
            "election": null,
            "id": 111,
            "name": "Toronto—St. Paul's"
          }
        ],
        "pollDivisionIds": [
          10136032
        ],
        "postalCode": "M6C2Z9",
        "streetName": "ARLINGTON",
        "streetDirectionId": null,
        "streetTypeId": "AVE",
        "placeName": "YORK",
        "streetNameDisplayText": "ARLINGTON AVE, YORK"
      }
    ]
  },
  {
    "postal": "M6C2S2",
    "result": [
      {
        "electoralDistricts": [
          {
            "election": null,
            "id": 111,
            "name": "Toronto—St. Paul's"
          }
        ],
        "pollDivisionIds": [
          10136064
        ],
        "postalCode": "M6C2S2",
        "streetName": "KENWOOD",
        "streetDirectionId": null,
        "streetTypeId": "AVE",
        "placeName": "YORK",
        "streetNameDisplayText": "KENWOOD AVE, YORK"
      }
    ]
  },
  {
    "postal": "M6C2W2",
    "result": [
      {
        "electoralDistricts": [
          {
            "election": null,
            "id": 111,
            "name": "Toronto—St. Paul's"
          }
        ],
        "pollDivisionIds": [
          10136065
        ],
        "postalCode": "M6C2W2",
        "streetName": "HUMEWOOD",
        "streetDirectionId": null,
        "streetTypeId": "CRT",
        "placeName": "YORK",
        "streetNameDisplayText": "HUMEWOOD CRT, YORK"
      },
      {
        "electoralDistricts": [
          {
            "election": null,
            "id": 111,
            "name": "Toronto—St. Paul's"
          }
        ],
        "pollDivisionIds": [
          10136065
        ],
        "postalCode": "M6C2W2",
        "streetName": "HUMEWOOD",
        "streetDirectionId": null,
        "streetTypeId": "DR",
        "placeName": "YORK",
        "streetNameDisplayText": "HUMEWOOD DR, YORK"
      }
    ]
  },
  {
    "postal": "M6C2C3",
    "result": [
      {
        "electoralDistricts": [
          {
            "election": null,
            "id": 111,
            "name": "Toronto—St. Paul's"
          }
        ],
        "pollDivisionIds": [
          10136034
        ],
        "postalCode": "M6C2C3",
        "streetName": "EGLINTON",
        "streetDirectionId": "W",
        "streetTypeId": "AVE",
        "placeName": "YORK",
        "streetNameDisplayText": "EGLINTON AVE W, YORK"
      }
    ]
  },
  {
    "postal": "M6C6L7",
    "result": []
  },
  {
    "postal": "M6C3K0",
    "result": []
  },
  {
    "postal": "M6C3C1",
    "result": [
      {
        "electoralDistricts": [
          {
            "election": null,
            "id": 111,
            "name": "Toronto—St. Paul's"
          }
        ],
        "pollDivisionIds": [
          10136122
        ],
        "postalCode": "M6C3C1",
        "streetName": "CHILTERN HILL",
        "streetDirectionId": null,
        "streetTypeId": "RD",
        "placeName": "YORK",
        "streetNameDisplayText": "CHILTERN HILL RD, YORK"
      }
    ]
  },
  {
    "postal": "M6C6M9",
    "result": []
  },
  {
    "postal": "M6C4N9",
    "result": []
  },
  {
    "postal": "M6C3Y7",
    "result": [
      {
        "electoralDistricts": [
          {
            "election": null,
            "id": 19,
            "name": "Davenport"
          },
          {
            "election": null,
            "id": 111,
            "name": "Toronto—St. Paul's"
          }
        ],
        "pollDivisionIds": [
          10136082,
          10136030
        ],
        "postalCode": "M6C3Y7",
        "streetName": "ROBINA",
        "streetDirectionId": null,
        "streetTypeId": "AVE",
        "placeName": "YORK",
        "streetNameDisplayText": "ROBINA AVE, YORK"
      }
    ]
  },
  {
    "postal": "M6C2A9",
    "result": [
      {
        "electoralDistricts": [
          {
            "election": null,
            "id": 111,
            "name": "Toronto—St. Paul's"
          }
        ],
        "pollDivisionIds": [
          10136028
        ],
        "postalCode": "M6C2A9",
        "streetName": "GLOUCESTER",
        "streetDirectionId": null,
        "streetTypeId": "GROVE",
        "placeName": "YORK",
        "streetNameDisplayText": "GLOUCESTER GROVE, YORK"
      }
    ]
  },
  {
    "postal": "M6C6H5",
    "result": []
  },
  {
    "postal": "M6C8B4",
    "result": []
  },
  {
    "postal": "M6C4Z2",
    "result": []
  },
  {
    "postal": "M6C9J0",
    "result": []
  },
  {
    "postal": "M6C7V7",
    "result": []
  },
  {
    "postal": "M6C5T5",
    "result": []
  },
  {
    "postal": "M6C4W5",
    "result": []
  },
  {
    "postal": "M6C1T8",
    "result": [
      {
        "electoralDistricts": [
          {
            "election": null,
            "id": 111,
            "name": "Toronto—St. Paul's"
          }
        ],
        "pollDivisionIds": [
          10136122
        ],
        "postalCode": "M6C1T8",
        "streetName": "WARWICK",
        "streetDirectionId": null,
        "streetTypeId": "AVE",
        "placeName": "YORK",
        "streetNameDisplayText": "WARWICK AVE, YORK"
      }
    ]
  },
  {
    "postal": "M6C9G6",
    "result": []
  },
  {
    "postal": "M6C1H3",
    "result": [
      {
        "electoralDistricts": [
          {
            "election": null,
            "id": 111,
            "name": "Toronto—St. Paul's"
          }
        ],
        "pollDivisionIds": [
          10136031
        ],
        "postalCode": "M6C1H3",
        "streetName": "NORMANNA",
        "streetDirectionId": null,
        "streetTypeId": "AVE",
        "placeName": "YORK",
        "streetNameDisplayText": "NORMANNA AVE, YORK"
      }
    ]
  },
  {
    "postal": "M6C5R5",
    "result": []
  },
  {
    "postal": "M6C8A4",
    "result": []
  },
  {
    "postal": "M6C3T6",
    "result": [
      {
        "electoralDistricts": [
          {
            "election": null,
            "id": 111,
            "name": "Toronto—St. Paul's"
          }
        ],
        "pollDivisionIds": [
          10136030
        ],
        "postalCode": "M6C3T6",
        "streetName": "WINONA",
        "streetDirectionId": null,
        "streetTypeId": "DR",
        "placeName": "YORK",
        "streetNameDisplayText": "WINONA DR, YORK"
      }
    ]
  },
  {
    "postal": "M6C9W8",
    "result": []
  },
  {
    "postal": "M6C0N3",
    "result": []
  },
  {
    "postal": "M6C7V0",
    "result": []
  },
  {
    "postal": "M6C8T5",
    "result": []
  },
  {
    "postal": "M6C5N3",
    "result": []
  },
  {
    "postal": "M6C5G9",
    "result": []
  },
  {
    "postal": "M6C3X8",
    "result": [
      {
        "electoralDistricts": [
          {
            "election": null,
            "id": 111,
            "name": "Toronto—St. Paul's"
          }
        ],
        "pollDivisionIds": [
          10136030
        ],
        "postalCode": "M6C3X8",
        "streetName": "CEDRIC",
        "streetDirectionId": null,
        "streetTypeId": "AVE",
        "placeName": "YORK",
        "streetNameDisplayText": "CEDRIC AVE, YORK"
      }
    ]
  },
  {
    "postal": "M6C9R3",
    "result": []
  },
  {
    "postal": "M6C2S1",
    "result": [
      {
        "electoralDistricts": [
          {
            "election": null,
            "id": 111,
            "name": "Toronto—St. Paul's"
          }
        ],
        "pollDivisionIds": [
          10136064
        ],
        "postalCode": "M6C2S1",
        "streetName": "KENWOOD",
        "streetDirectionId": null,
        "streetTypeId": "AVE",
        "placeName": "TORONTO,ON",
        "streetNameDisplayText": "KENWOOD AVE, TORONTO,ON"
      },
      {
        "electoralDistricts": [
          {
            "election": null,
            "id": 111,
            "name": "Toronto—St. Paul's"
          }
        ],
        "pollDivisionIds": [
          10136064,
          10136028
        ],
        "postalCode": "M6C2S1",
        "streetName": "KENWOOD",
        "streetDirectionId": null,
        "streetTypeId": "AVE",
        "placeName": "YORK",
        "streetNameDisplayText": "KENWOOD AVE, YORK"
      }
    ]
  },
  {
    "postal": "M6C9J7",
    "result": []
  },
  {
    "postal": "M6C2J3",
    "result": [
      {
        "electoralDistricts": [
          {
            "election": null,
            "id": 25,
            "name": "Eglinton—Lawrence"
          }
        ],
        "pollDivisionIds": [
          10137919
        ],
        "postalCode": "M6C2J3",
        "streetName": "RIDGE HILL",
        "streetDirectionId": null,
        "streetTypeId": "DR",
        "placeName": "TORONTO",
        "streetNameDisplayText": "RIDGE HILL DR, TORONTO"
      }
    ]
  },
  {
    "postal": "M6C3B6",
    "result": [
      {
        "electoralDistricts": [
          {
            "election": null,
            "id": 111,
            "name": "Toronto—St. Paul's"
          }
        ],
        "pollDivisionIds": [
          10136122
        ],
        "postalCode": "M6C3B6",
        "streetName": "CHILTERN HILL",
        "streetDirectionId": null,
        "streetTypeId": "RD",
        "placeName": "YORK",
        "streetNameDisplayText": "CHILTERN HILL RD, YORK"
      }
    ]
  },
  {
    "postal": "M6C8J0",
    "result": []
  },
  {
    "postal": "M6C7R4",
    "result": []
  },
  {
    "postal": "M6C8K8",
    "result": []
  },
  {
    "postal": "M6C4P3",
    "result": []
  },
  {
    "postal": "M6C0A2",
    "result": [
      {
        "electoralDistricts": [
          {
            "election": null,
            "id": 111,
            "name": "Toronto—St. Paul's"
          }
        ],
        "pollDivisionIds": [
          10136063
        ],
        "postalCode": "M6C0A2",
        "streetName": "ST CLAIR",
        "streetDirectionId": "W",
        "streetTypeId": "AVE",
        "placeName": "TORONTO",
        "streetNameDisplayText": "ST CLAIR AVE W, TORONTO"
      }
    ]
  },
  {
    "postal": "M6C2G2",
    "result": [
      {
        "electoralDistricts": [
          {
            "election": null,
            "id": 25,
            "name": "Eglinton—Lawrence"
          }
        ],
        "pollDivisionIds": [
          10137919
        ],
        "postalCode": "M6C2G2",
        "streetName": "WEMBLEY",
        "streetDirectionId": null,
        "streetTypeId": "RD",
        "placeName": "TORONTO",
        "streetNameDisplayText": "WEMBLEY RD, TORONTO"
      }
    ]
  },
  {
    "postal": "M6C5Y9",
    "result": []
  },
  {
    "postal": "M6C7X0",
    "result": []
  },
  {
    "postal": "M6C7W3",
    "result": []
  },
  {
    "postal": "M6C7X5",
    "result": []
  },
  {
    "postal": "M6C5K6",
    "result": []
  },
  {
    "postal": "M6C5B6",
    "result": []
  },
  {
    "postal": "M6C7Z0",
    "result": []
  },
  {
    "postal": "M6C9H6",
    "result": []
  },
  {
    "postal": "M6C1B4",
    "result": [
      {
        "electoralDistricts": [
          {
            "election": null,
            "id": 111,
            "name": "Toronto—St. Paul's"
          }
        ],
        "pollDivisionIds": [
          10136065
        ],
        "postalCode": "M6C1B4",
        "streetName": "ST CLAIR",
        "streetDirectionId": "W",
        "streetTypeId": "AVE",
        "placeName": "TORONTO",
        "streetNameDisplayText": "ST CLAIR AVE W, TORONTO"
      }
    ]
  },
  {
    "postal": "M6C1A0",
    "result": []
  },
  {
    "postal": "M6C9A0",
    "result": []
  },
  {
    "postal": "M6C1M6",
    "result": [
      {
        "electoralDistricts": [
          {
            "election": null,
            "id": 111,
            "name": "Toronto—St. Paul's"
          }
        ],
        "pollDivisionIds": [
          10136032
        ],
        "postalCode": "M6C1M6",
        "streetName": "HEATHDALE",
        "streetDirectionId": null,
        "streetTypeId": "RD",
        "placeName": "YORK",
        "streetNameDisplayText": "HEATHDALE RD, YORK"
      }
    ]
  },
  {
    "postal": "M6C5H0",
    "result": []
  },
  {
    "postal": "M6C1K6",
    "result": [
      {
        "electoralDistricts": [
          {
            "election": null,
            "id": 19,
            "name": "Davenport"
          }
        ],
        "pollDivisionIds": [
          10136082
        ],
        "postalCode": "M6C1K6",
        "streetName": "FALWYN",
        "streetDirectionId": null,
        "streetTypeId": "AVE",
        "placeName": "YORK",
        "streetNameDisplayText": "FALWYN AVE, YORK"
      }
    ]
  },
  {
    "postal": "M6C5E1",
    "result": []
  },
  {
    "postal": "M6C3T9",
    "result": [
      {
        "electoralDistricts": [
          {
            "election": null,
            "id": 111,
            "name": "Toronto—St. Paul's"
          }
        ],
        "pollDivisionIds": [
          10136030
        ],
        "postalCode": "M6C3T9",
        "streetName": "WINONA",
        "streetDirectionId": null,
        "streetTypeId": "DR",
        "placeName": "YORK",
        "streetNameDisplayText": "WINONA DR, YORK"
      }
    ]
  },
  {
    "postal": "M6C2M6",
    "result": [
      {
        "electoralDistricts": [
          {
            "election": null,
            "id": 111,
            "name": "Toronto—St. Paul's"
          }
        ],
        "pollDivisionIds": [
          10136064
        ],
        "postalCode": "M6C2M6",
        "streetName": "VAUGHAN",
        "streetDirectionId": null,
        "streetTypeId": "RD",
        "placeName": "TORONTO",
        "streetNameDisplayText": "VAUGHAN RD, TORONTO"
      },
      {
        "electoralDistricts": [
          {
            "election": null,
            "id": 111,
            "name": "Toronto—St. Paul's"
          }
        ],
        "pollDivisionIds": [
          10136032
        ],
        "postalCode": "M6C2M6",
        "streetName": "VAUGHAN",
        "streetDirectionId": null,
        "streetTypeId": "RD",
        "placeName": "YORK",
        "streetNameDisplayText": "VAUGHAN RD, YORK"
      }
    ]
  },
  {
    "postal": "M6C0G5",
    "result": []
  },
  {
    "postal": "M6C0Y2",
    "result": []
  },
  {
    "postal": "M6C2Y7",
    "result": [
      {
        "electoralDistricts": [
          {
            "election": null,
            "id": 111,
            "name": "Toronto—St. Paul's"
          }
        ],
        "pollDivisionIds": [
          10136122
        ],
        "postalCode": "M6C2Y7",
        "streetName": "RUSHTON",
        "streetDirectionId": null,
        "streetTypeId": "RD",
        "placeName": "YORK",
        "streetNameDisplayText": "RUSHTON RD, YORK"
      }
    ]
  },
  {
    "postal": "M6C2J7",
    "result": [
      {
        "electoralDistricts": [
          {
            "election": null,
            "id": 25,
            "name": "Eglinton—Lawrence"
          }
        ],
        "pollDivisionIds": [
          10137919
        ],
        "postalCode": "M6C2J7",
        "streetName": "RIDGE HILL",
        "streetDirectionId": null,
        "streetTypeId": "DR",
        "placeName": "TORONTO",
        "streetNameDisplayText": "RIDGE HILL DR, TORONTO"
      }
    ]
  },
  {
    "postal": "M6C4K7",
    "result": []
  },
  {
    "postal": "M6C7P9",
    "result": []
  },
  {
    "postal": "M6C8X0",
    "result": []
  },
  {
    "postal": "M6C3X1",
    "result": [
      {
        "electoralDistricts": [
          {
            "election": null,
            "id": 111,
            "name": "Toronto—St. Paul's"
          }
        ],
        "pollDivisionIds": [
          10136028
        ],
        "postalCode": "M6C3X1",
        "streetName": "ALAMEDA",
        "streetDirectionId": null,
        "streetTypeId": "AVE",
        "placeName": "YORK",
        "streetNameDisplayText": "ALAMEDA AVE, YORK"
      }
    ]
  },
  {
    "postal": "M6C1R5",
    "result": [
      {
        "electoralDistricts": [
          {
            "election": null,
            "id": 111,
            "name": "Toronto—St. Paul's"
          }
        ],
        "pollDivisionIds": [
          10136122
        ],
        "postalCode": "M6C1R5",
        "streetName": "STRATHEARN",
        "streetDirectionId": null,
        "streetTypeId": "RD",
        "placeName": "YORK",
        "streetNameDisplayText": "STRATHEARN RD, YORK"
      }
    ]
  },
  {
    "postal": "M6C6X6",
    "result": []
  },
  {
    "postal": "M6C0Y1",
    "result": []
  },
  {
    "postal": "M6C8G1",
    "result": []
  },
  {
    "postal": "M6C3J3",
    "result": [
      {
        "electoralDistricts": [
          {
            "election": null,
            "id": 111,
            "name": "Toronto—St. Paul's"
          }
        ],
        "pollDivisionIds": [
          10136122
        ],
        "postalCode": "M6C3J3",
        "streetName": "WESTOVER HILL",
        "streetDirectionId": null,
        "streetTypeId": "RD",
        "placeName": "YORK",
        "streetNameDisplayText": "WESTOVER HILL RD, YORK"
      }
    ]
  },
  {
    "postal": "M6C8C2",
    "result": []
  },
  {
    "postal": "M6C4X9",
    "result": []
  },
  {
    "postal": "M6C6G9",
    "result": []
  },
  {
    "postal": "M6C4M3",
    "result": []
  },
  {
    "postal": "M6C9P7",
    "result": []
  },
  {
    "postal": "M6C4E5",
    "result": []
  },
  {
    "postal": "M6C5K9",
    "result": []
  },
  {
    "postal": "M6C2V2",
    "result": [
      {
        "electoralDistricts": [
          {
            "election": null,
            "id": 111,
            "name": "Toronto—St. Paul's"
          }
        ],
        "pollDivisionIds": [
          10136065
        ],
        "postalCode": "M6C2V2",
        "streetName": "PINEWOOD",
        "streetDirectionId": null,
        "streetTypeId": "AVE",
        "placeName": "YORK",
        "streetNameDisplayText": "PINEWOOD AVE, YORK"
      }
    ]
  },
  {
    "postal": "M6C2N9",
    "result": [
      {
        "electoralDistricts": [
          {
            "election": null,
            "id": 111,
            "name": "Toronto—St. Paul's"
          }
        ],
        "pollDivisionIds": [
          10136032
        ],
        "postalCode": "M6C2N9",
        "streetName": "VAUGHAN",
        "streetDirectionId": null,
        "streetTypeId": "RD",
        "placeName": "YORK",
        "streetNameDisplayText": "VAUGHAN RD, YORK"
      }
    ]
  },
  {
    "postal": "M6C6L4",
    "result": []
  },
  {
    "postal": "M6C8E0",
    "result": []
  },
  {
    "postal": "M6C0N0",
    "result": []
  },
  {
    "postal": "M6C6R0",
    "result": []
  },
  {
    "postal": "M6C9C1",
    "result": []
  },
  {
    "postal": "M6C4H4",
    "result": []
  },
  {
    "postal": "M6C5W3",
    "result": []
  },
  {
    "postal": "M6C9N9",
    "result": []
  },
  {
    "postal": "M6C1V7",
    "result": [
      {
        "electoralDistricts": [
          {
            "election": null,
            "id": 111,
            "name": "Toronto—St. Paul's"
          }
        ],
        "pollDivisionIds": [
          10136122
        ],
        "postalCode": "M6C1V7",
        "streetName": "AVA",
        "streetDirectionId": null,
        "streetTypeId": "RD",
        "placeName": "YORK",
        "streetNameDisplayText": "AVA RD, YORK"
      }
    ]
  },
  {
    "postal": "M6C8J1",
    "result": []
  },
  {
    "postal": "M6C5V9",
    "result": []
  },
  {
    "postal": "M6C2S8",
    "result": [
      {
        "electoralDistricts": [
          {
            "election": null,
            "id": 111,
            "name": "Toronto—St. Paul's"
          }
        ],
        "pollDivisionIds": [
          10136032
        ],
        "postalCode": "M6C2S8",
        "streetName": "CONNAUGHT",
        "streetDirectionId": null,
        "streetTypeId": "CIR",
        "placeName": "YORK",
        "streetNameDisplayText": "CONNAUGHT CIR, YORK"
      }
    ]
  },
  {
    "postal": "M6C6P0",
    "result": []
  },
  {
    "postal": "M6C4J8",
    "result": []
  },
  {
    "postal": "M6C0N1",
    "result": []
  },
  {
    "postal": "M6C1Y7",
    "result": [
      {
        "electoralDistricts": [
          {
            "election": null,
            "id": 111,
            "name": "Toronto—St. Paul's"
          }
        ],
        "pollDivisionIds": [
          10136034
        ],
        "postalCode": "M6C1Y7",
        "streetName": "DEWBOURNE",
        "streetDirectionId": null,
        "streetTypeId": "AVE",
        "placeName": "YORK",
        "streetNameDisplayText": "DEWBOURNE AVE, YORK"
      }
    ]
  },
  {
    "postal": "M6C7W5",
    "result": []
  },
  {
    "postal": "M6C3Z1",
    "result": [
      {
        "electoralDistricts": [
          {
            "election": null,
            "id": 111,
            "name": "Toronto—St. Paul's"
          }
        ],
        "pollDivisionIds": [
          10136030
        ],
        "postalCode": "M6C3Z1",
        "streetName": "ROBINA",
        "streetDirectionId": null,
        "streetTypeId": "AVE",
        "placeName": "YORK",
        "streetNameDisplayText": "ROBINA AVE, YORK"
      }
    ]
  },
  {
    "postal": "M6C7M6",
    "result": []
  },
  {
    "postal": "M6C1W7",
    "result": [
      {
        "electoralDistricts": [
          {
            "election": null,
            "id": 111,
            "name": "Toronto—St. Paul's"
          }
        ],
        "pollDivisionIds": [
          10136034
        ],
        "postalCode": "M6C1W7",
        "streetName": "AVA",
        "streetDirectionId": null,
        "streetTypeId": "RD",
        "placeName": "YORK",
        "streetNameDisplayText": "AVA RD, YORK"
      }
    ]
  },
  {
    "postal": "M6C1X1",
    "result": [
      {
        "electoralDistricts": [
          {
            "election": null,
            "id": 111,
            "name": "Toronto—St. Paul's"
          }
        ],
        "pollDivisionIds": [
          10136028
        ],
        "postalCode": "M6C1X1",
        "streetName": "AVA",
        "streetDirectionId": null,
        "streetTypeId": "RD",
        "placeName": "YORK",
        "streetNameDisplayText": "AVA RD, YORK"
      }
    ]
  },
  {
    "postal": "M6C0C1",
    "result": []
  },
  {
    "postal": "M6C4N3",
    "result": []
  },
  {
    "postal": "M6C4S8",
    "result": []
  },
  {
    "postal": "M6C1H6",
    "result": [
      {
        "electoralDistricts": [
          {
            "election": null,
            "id": 111,
            "name": "Toronto—St. Paul's"
          }
        ],
        "pollDivisionIds": [
          10136031
        ],
        "postalCode": "M6C1H6",
        "streetName": "DUNDURN",
        "streetDirectionId": null,
        "streetTypeId": "CRES",
        "placeName": "YORK",
        "streetNameDisplayText": "DUNDURN CRES, YORK"
      }
    ]
  },
  {
    "postal": "M6C2Z4",
    "result": [
      {
        "electoralDistricts": [
          {
            "election": null,
            "id": 111,
            "name": "Toronto—St. Paul's"
          }
        ],
        "pollDivisionIds": [
          10136032
        ],
        "postalCode": "M6C2Z4",
        "streetName": "ARLINGTON",
        "streetDirectionId": null,
        "streetTypeId": "AVE",
        "placeName": "YORK",
        "streetNameDisplayText": "ARLINGTON AVE, YORK"
      }
    ]
  },
  {
    "postal": "M6C7K3",
    "result": []
  },
  {
    "postal": "M6C8A2",
    "result": []
  },
  {
    "postal": "M6C6J1",
    "result": []
  },
  {
    "postal": "M6C5Z6",
    "result": []
  },
  {
    "postal": "M6C3Z0",
    "result": []
  },
  {
    "postal": "M6C8M0",
    "result": []
  },
  {
    "postal": "M6C1Z6",
    "result": [
      {
        "electoralDistricts": [
          {
            "election": null,
            "id": 111,
            "name": "Toronto—St. Paul's"
          }
        ],
        "pollDivisionIds": [
          10136034
        ],
        "postalCode": "M6C1Z6",
        "streetName": "DEWBOURNE",
        "streetDirectionId": null,
        "streetTypeId": "AVE",
        "placeName": "YORK",
        "streetNameDisplayText": "DEWBOURNE AVE, YORK"
      }
    ]
  },
  {
    "postal": "M6C8K7",
    "result": []
  },
  {
    "postal": "M6C1N3",
    "result": [
      {
        "electoralDistricts": [
          {
            "election": null,
            "id": 111,
            "name": "Toronto—St. Paul's"
          }
        ],
        "pollDivisionIds": [
          10136122
        ],
        "postalCode": "M6C1N3",
        "streetName": "WINDLEY",
        "streetDirectionId": null,
        "streetTypeId": "AVE",
        "placeName": "YORK",
        "streetNameDisplayText": "WINDLEY AVE, YORK"
      }
    ]
  },
  {
    "postal": "M6C9S2",
    "result": []
  },
  {
    "postal": "M6C2K1",
    "result": [
      {
        "electoralDistricts": [
          {
            "election": null,
            "id": 25,
            "name": "Eglinton—Lawrence"
          }
        ],
        "pollDivisionIds": [
          10137919
        ],
        "postalCode": "M6C2K1",
        "streetName": "SHALLMAR",
        "streetDirectionId": null,
        "streetTypeId": "BLVD",
        "placeName": "TORONTO",
        "streetNameDisplayText": "SHALLMAR BLVD, TORONTO"
      }
    ]
  },
  {
    "postal": "M6C1E8",
    "result": [
      {
        "electoralDistricts": [
          {
            "election": null,
            "id": 111,
            "name": "Toronto—St. Paul's"
          }
        ],
        "pollDivisionIds": [
          10136032
        ],
        "postalCode": "M6C1E8",
        "streetName": "HUMEWOOD",
        "streetDirectionId": null,
        "streetTypeId": "GDNS",
        "placeName": "YORK",
        "streetNameDisplayText": "HUMEWOOD GDNS, YORK"
      }
    ]
  },
  {
    "postal": "M6C9B8",
    "result": []
  },
  {
    "postal": "M6C7X4",
    "result": []
  },
  {
    "postal": "M6C1Z4",
    "result": [
      {
        "electoralDistricts": [
          {
            "election": null,
            "id": 111,
            "name": "Toronto—St. Paul's"
          }
        ],
        "pollDivisionIds": [
          10136034
        ],
        "postalCode": "M6C1Z4",
        "streetName": "DEWBOURNE",
        "streetDirectionId": null,
        "streetTypeId": "AVE",
        "placeName": "YORK",
        "streetNameDisplayText": "DEWBOURNE AVE, YORK"
      }
    ]
  },
  {
    "postal": "M6C2C7",
    "result": [
      {
        "electoralDistricts": [
          {
            "election": null,
            "id": 111,
            "name": "Toronto—St. Paul's"
          }
        ],
        "pollDivisionIds": [
          10136034
        ],
        "postalCode": "M6C2C7",
        "streetName": "EGLINTON",
        "streetDirectionId": "W",
        "streetTypeId": "AVE",
        "placeName": "YORK",
        "streetNameDisplayText": "EGLINTON AVE W, YORK"
      }
    ]
  },
  {
    "postal": "M6C2E7",
    "result": []
  },
  {
    "postal": "M6C3R1",
    "result": [
      {
        "electoralDistricts": [
          {
            "election": null,
            "id": 111,
            "name": "Toronto—St. Paul's"
          }
        ],
        "pollDivisionIds": [
          10136030
        ],
        "postalCode": "M6C3R1",
        "streetName": "ATLAS",
        "streetDirectionId": null,
        "streetTypeId": "AVE",
        "placeName": "YORK",
        "streetNameDisplayText": "ATLAS AVE, YORK"
      }
    ]
  },
  {
    "postal": "M6C4K4",
    "result": []
  },
  {
    "postal": "M6C9G3",
    "result": []
  },
  {
    "postal": "M6C6C9",
    "result": []
  },
  {
    "postal": "M6C9H5",
    "result": []
  },
  {
    "postal": "M6C1P5",
    "result": [
      {
        "electoralDistricts": [
          {
            "election": null,
            "id": 111,
            "name": "Toronto—St. Paul's"
          }
        ],
        "pollDivisionIds": [
          10136030
        ],
        "postalCode": "M6C1P5",
        "streetName": "BELVIDERE",
        "streetDirectionId": null,
        "streetTypeId": "AVE",
        "placeName": "YORK",
        "streetNameDisplayText": "BELVIDERE AVE, YORK"
      }
    ]
  },
  {
    "postal": "M6C2J5",
    "result": [
      {
        "electoralDistricts": [
          {
            "election": null,
            "id": 25,
            "name": "Eglinton—Lawrence"
          }
        ],
        "pollDivisionIds": [
          10137919
        ],
        "postalCode": "M6C2J5",
        "streetName": "RIDGE HILL",
        "streetDirectionId": null,
        "streetTypeId": "DR",
        "placeName": "TORONTO",
        "streetNameDisplayText": "RIDGE HILL DR, TORONTO"
      }
    ]
  },
  {
    "postal": "M6C4W6",
    "result": []
  },
  {
    "postal": "M6C8M8",
    "result": []
  },
  {
    "postal": "M6C6C5",
    "result": []
  },
  {
    "postal": "M6C9H0",
    "result": []
  },
  {
    "postal": "M6C1X8",
    "result": [
      {
        "electoralDistricts": [
          {
            "election": null,
            "id": 111,
            "name": "Toronto—St. Paul's"
          }
        ],
        "pollDivisionIds": [
          10136028
        ],
        "postalCode": "M6C1X8",
        "streetName": "BUDE",
        "streetDirectionId": null,
        "streetTypeId": "ST",
        "placeName": "YORK",
        "streetNameDisplayText": "BUDE ST, YORK"
      }
    ]
  },
  {
    "postal": "M6C3H4",
    "result": [
      {
        "electoralDistricts": [
          {
            "election": null,
            "id": 25,
            "name": "Eglinton—Lawrence"
          }
        ],
        "pollDivisionIds": [
          10137919
        ],
        "postalCode": "M6C3H4",
        "streetName": "OLD PARK",
        "streetDirectionId": null,
        "streetTypeId": "RD",
        "placeName": "TORONTO",
        "streetNameDisplayText": "OLD PARK RD, TORONTO"
      }
    ]
  },
  {
    "postal": "M6C4E7",
    "result": []
  },
  {
    "postal": "M6C8A0",
    "result": []
  },
  {
    "postal": "M6C1Z7",
    "result": [
      {
        "electoralDistricts": [
          {
            "election": null,
            "id": 111,
            "name": "Toronto—St. Paul's"
          }
        ],
        "pollDivisionIds": [
          10136034
        ],
        "postalCode": "M6C1Z7",
        "streetName": "DEWBOURNE",
        "streetDirectionId": null,
        "streetTypeId": "AVE",
        "placeName": "YORK",
        "streetNameDisplayText": "DEWBOURNE AVE, YORK"
      }
    ]
  },
  {
    "postal": "M6C7Z3",
    "result": []
  },
  {
    "postal": "M6C0L7",
    "result": []
  },
  {
    "postal": "M6C2C6",
    "result": [
      {
        "electoralDistricts": [
          {
            "election": null,
            "id": 111,
            "name": "Toronto—St. Paul's"
          }
        ],
        "pollDivisionIds": [
          10136034
        ],
        "postalCode": "M6C2C6",
        "streetName": "EGLINTON",
        "streetDirectionId": "W",
        "streetTypeId": "AVE",
        "placeName": "YORK",
        "streetNameDisplayText": "EGLINTON AVE W, YORK"
      }
    ]
  },
  {
    "postal": "M6C6M3",
    "result": []
  },
  {
    "postal": "M6C2J1",
    "result": [
      {
        "electoralDistricts": [
          {
            "election": null,
            "id": 25,
            "name": "Eglinton—Lawrence"
          }
        ],
        "pollDivisionIds": [
          10137918
        ],
        "postalCode": "M6C2J1",
        "streetName": "WHITMORE",
        "streetDirectionId": null,
        "streetTypeId": "AVE",
        "placeName": "TORONTO",
        "streetNameDisplayText": "WHITMORE AVE, TORONTO"
      }
    ]
  },
  {
    "postal": "M6C3E3",
    "result": [
      {
        "electoralDistricts": [
          {
            "election": null,
            "id": 25,
            "name": "Eglinton—Lawrence"
          }
        ],
        "pollDivisionIds": [
          10137919
        ],
        "postalCode": "M6C3E3",
        "streetName": "HILLTOP",
        "streetDirectionId": null,
        "streetTypeId": "RD",
        "placeName": "TORONTO",
        "streetNameDisplayText": "HILLTOP RD, TORONTO"
      }
    ]
  },
  {
    "postal": "M6C6Z9",
    "result": []
  },
  {
    "postal": "M6C3M3",
    "result": [
      {
        "electoralDistricts": [
          {
            "election": null,
            "id": 111,
            "name": "Toronto—St. Paul's"
          }
        ],
        "pollDivisionIds": [
          10136030
        ],
        "postalCode": "M6C3M3",
        "streetName": "WINNETT",
        "streetDirectionId": null,
        "streetTypeId": "AVE",
        "placeName": "YORK",
        "streetNameDisplayText": "WINNETT AVE, YORK"
      }
    ]
  },
  {
    "postal": "M6C9B1",
    "result": []
  },
  {
    "postal": "M6C9J5",
    "result": []
  },
  {
    "postal": "M6C4V8",
    "result": []
  },
  {
    "postal": "M6C6W2",
    "result": []
  },
  {
    "postal": "M6C0V5",
    "result": []
  },
  {
    "postal": "M6C0Z8",
    "result": []
  },
  {
    "postal": "M6C5G2",
    "result": []
  },
  {
    "postal": "M6C4N4",
    "result": []
  },
  {
    "postal": "M6C8G7",
    "result": []
  },
  {
    "postal": "M6C8W1",
    "result": []
  },
  {
    "postal": "M6C1S6",
    "result": [
      {
        "electoralDistricts": [
          {
            "election": null,
            "id": 111,
            "name": "Toronto—St. Paul's"
          }
        ],
        "pollDivisionIds": [
          10136122
        ],
        "postalCode": "M6C1S6",
        "streetName": "CROYDON",
        "streetDirectionId": null,
        "streetTypeId": "RD",
        "placeName": "YORK",
        "streetNameDisplayText": "CROYDON RD, YORK"
      }
    ]
  },
  {
    "postal": "M6C4E0",
    "result": []
  },
  {
    "postal": "M6C4L9",
    "result": []
  },
  {
    "postal": "M6C5Z9",
    "result": []
  },
  {
    "postal": "M6C5V3",
    "result": []
  },
  {
    "postal": "M6C4V2",
    "result": []
  },
  {
    "postal": "M6C7C0",
    "result": []
  },
  {
    "postal": "M6C6L0",
    "result": []
  },
  {
    "postal": "M6C1S9",
    "result": [
      {
        "electoralDistricts": [
          {
            "election": null,
            "id": 111,
            "name": "Toronto—St. Paul's"
          }
        ],
        "pollDivisionIds": [
          10136122
        ],
        "postalCode": "M6C1S9",
        "streetName": "MARKDALE",
        "streetDirectionId": null,
        "streetTypeId": "AVE",
        "placeName": "TORONTO",
        "streetNameDisplayText": "MARKDALE AVE, TORONTO"
      }
    ]
  },
  {
    "postal": "M6C7R6",
    "result": []
  },
  {
    "postal": "M6C7J0",
    "result": []
  },
  {
    "postal": "M6C5M0",
    "result": []
  },
  {
    "postal": "M6C2E5",
    "result": [
      {
        "electoralDistricts": [
          {
            "election": null,
            "id": 25,
            "name": "Eglinton—Lawrence"
          }
        ],
        "pollDivisionIds": [
          10137918
        ],
        "postalCode": "M6C2E5",
        "streetName": "EGLINTON",
        "streetDirectionId": "W",
        "streetTypeId": "AVE",
        "placeName": "TORONTO",
        "streetNameDisplayText": "EGLINTON AVE W, TORONTO"
      },
      {
        "electoralDistricts": [
          {
            "election": null,
            "id": 25,
            "name": "Eglinton—Lawrence"
          }
        ],
        "pollDivisionIds": [
          10137918
        ],
        "postalCode": "M6C2E5",
        "streetName": "EGLINTON AVE.WEST",
        "streetDirectionId": "W",
        "streetTypeId": "AVE",
        "placeName": "TORONTO",
        "streetNameDisplayText": "EGLINTON AVE.WEST AVE W, TORONTO"
      }
    ]
  },
  {
    "postal": "M6C7C7",
    "result": []
  },
  {
    "postal": "M6C5C0",
    "result": []
  },
  {
    "postal": "M6C8V9",
    "result": []
  },
  {
    "postal": "M6C7E0",
    "result": []
  },
  {
    "postal": "M6C6R4",
    "result": []
  },
  {
    "postal": "M6C3Z7",
    "result": []
  },
  {
    "postal": "M6C1J9",
    "result": [
      {
        "electoralDistricts": [
          {
            "election": null,
            "id": 111,
            "name": "Toronto—St. Paul's"
          }
        ],
        "pollDivisionIds": [
          10136032
        ],
        "postalCode": "M6C1J9",
        "streetName": "MAPLEWOOD",
        "streetDirectionId": null,
        "streetTypeId": "AVE",
        "placeName": "YORK",
        "streetNameDisplayText": "MAPLEWOOD AVE, YORK"
      }
    ]
  },
  {
    "postal": "M6C7K6",
    "result": []
  },
  {
    "postal": "M6C7Y5",
    "result": []
  },
  {
    "postal": "M6C1B7",
    "result": [
      {
        "electoralDistricts": [
          {
            "election": null,
            "id": 111,
            "name": "Toronto—St. Paul's"
          }
        ],
        "pollDivisionIds": [
          10136065
        ],
        "postalCode": "M6C1B7",
        "streetName": "ST CLAIR",
        "streetDirectionId": "W",
        "streetTypeId": "AVE",
        "placeName": "TORONTO",
        "streetNameDisplayText": "ST CLAIR AVE W, TORONTO"
      }
    ]
  },
  {
    "postal": "M6C4S9",
    "result": []
  },
  {
    "postal": "M6C9R9",
    "result": []
  },
  {
    "postal": "M6C5K7",
    "result": []
  },
  {
    "postal": "M6C6P2",
    "result": []
  },
  {
    "postal": "M6C2C5",
    "result": [
      {
        "electoralDistricts": [
          {
            "election": null,
            "id": 22,
            "name": "Don Valley West"
          }
        ],
        "pollDivisionIds": [
          10137757
        ],
        "postalCode": "M6C2C5",
        "streetName": "EGLINTON",
        "streetDirectionId": "E",
        "streetTypeId": "AVE",
        "placeName": "TORONTO",
        "streetNameDisplayText": "EGLINTON AVE E, TORONTO"
      },
      {
        "electoralDistricts": [
          {
            "election": null,
            "id": 25,
            "name": "Eglinton—Lawrence"
          }
        ],
        "pollDivisionIds": [
          10137919
        ],
        "postalCode": "M6C2C5",
        "streetName": "EGLINTON",
        "streetDirectionId": "W",
        "streetTypeId": "AVE",
        "placeName": "TORONTO",
        "streetNameDisplayText": "EGLINTON AVE W, TORONTO"
      }
    ]
  },
  {
    "postal": "M6C2N0",
    "result": []
  },
  {
    "postal": "M6C1G0",
    "result": []
  },
  {
    "postal": "M6C4K5",
    "result": []
  },
  {
    "postal": "M6C9B5",
    "result": []
  },
  {
    "postal": "M6C6T5",
    "result": []
  },
  {
    "postal": "M6C1N8",
    "result": [
      {
        "electoralDistricts": [
          {
            "election": null,
            "id": 111,
            "name": "Toronto—St. Paul's"
          }
        ],
        "pollDivisionIds": [
          10136030
        ],
        "postalCode": "M6C1N8",
        "streetName": "DURHAM",
        "streetDirectionId": null,
        "streetTypeId": "AVE",
        "placeName": "TORONTO",
        "streetNameDisplayText": "DURHAM AVE, TORONTO"
      },
      {
        "electoralDistricts": [
          {
            "election": null,
            "id": 111,
            "name": "Toronto—St. Paul's"
          }
        ],
        "pollDivisionIds": [
          10136030
        ],
        "postalCode": "M6C1N8",
        "streetName": "DURHAM",
        "streetDirectionId": null,
        "streetTypeId": "AVE",
        "placeName": "YORK",
        "streetNameDisplayText": "DURHAM AVE, YORK"
      }
    ]
  },
  {
    "postal": "M6C0C0",
    "result": []
  },
  {
    "postal": "M6C0R9",
    "result": []
  },
  {
    "postal": "M6C7L1",
    "result": []
  },
  {
    "postal": "M6C3Y8",
    "result": [
      {
        "electoralDistricts": [
          {
            "election": null,
            "id": 19,
            "name": "Davenport"
          }
        ],
        "pollDivisionIds": [
          10136082
        ],
        "postalCode": "M6C3Y8",
        "streetName": "ROBINA",
        "streetDirectionId": null,
        "streetTypeId": "AVE",
        "placeName": "YORK",
        "streetNameDisplayText": "ROBINA AVE, YORK"
      }
    ]
  },
  {
    "postal": "M6C7X9",
    "result": []
  },
  {
    "postal": "M6C1A7",
    "result": [
      {
        "electoralDistricts": [
          {
            "election": null,
            "id": 111,
            "name": "Toronto—St. Paul's"
          }
        ],
        "pollDivisionIds": [
          10136064
        ],
        "postalCode": "M6C1A7",
        "streetName": "ST CLAIR",
        "streetDirectionId": "W",
        "streetTypeId": "AVE",
        "placeName": "TORONTO",
        "streetNameDisplayText": "ST CLAIR AVE W, TORONTO"
      },
      {
        "electoralDistricts": [
          {
            "election": null,
            "id": 111,
            "name": "Toronto—St. Paul's"
          }
        ],
        "pollDivisionIds": [
          10136064
        ],
        "postalCode": "M6C1A7",
        "streetName": "ST CLAIR",
        "streetDirectionId": "W",
        "streetTypeId": "AVE",
        "placeName": "TORONTO,ON",
        "streetNameDisplayText": "ST CLAIR AVE W, TORONTO,ON"
      }
    ]
  },
  {
    "postal": "M6C2T9",
    "result": [
      {
        "electoralDistricts": [
          {
            "election": null,
            "id": 111,
            "name": "Toronto—St. Paul's"
          }
        ],
        "pollDivisionIds": [
          10136065
        ],
        "postalCode": "M6C2T9",
        "streetName": "PINEWOOD",
        "streetDirectionId": null,
        "streetTypeId": "AVE",
        "placeName": "YORK",
        "streetNameDisplayText": "PINEWOOD AVE, YORK"
      }
    ]
  },
  {
    "postal": "M6C2E6",
    "result": [
      {
        "electoralDistricts": [
          {
            "election": null,
            "id": 111,
            "name": "Toronto—St. Paul's"
          }
        ],
        "pollDivisionIds": [
          10136028
        ],
        "postalCode": "M6C2E6",
        "streetName": "EGLINTON",
        "streetDirectionId": "W",
        "streetTypeId": "AVE",
        "placeName": "YORK",
        "streetNameDisplayText": "EGLINTON AVE W, YORK"
      }
    ]
  },
  {
    "postal": "M6C8Y1",
    "result": []
  },
  {
    "postal": "M6C0J5",
    "result": []
  },
  {
    "postal": "M6C4J1",
    "result": []
  },
  {
    "postal": "M6C1A5",
    "result": [
      {
        "electoralDistricts": [
          {
            "election": null,
            "id": 111,
            "name": "Toronto—St. Paul's"
          }
        ],
        "pollDivisionIds": [
          10136064
        ],
        "postalCode": "M6C1A5",
        "streetName": "ST CLAIR",
        "streetDirectionId": "W",
        "streetTypeId": "AVE",
        "placeName": "TORONTO",
        "streetNameDisplayText": "ST CLAIR AVE W, TORONTO"
      }
    ]
  },
  {
    "postal": "M6C6Z6",
    "result": []
  },
  {
    "postal": "M6C5K4",
    "result": []
  },
  {
    "postal": "M6C7R9",
    "result": []
  },
  {
    "postal": "M6C6G4",
    "result": []
  }
]
