[
  {
    "postal": "N2L9J6",
    "result": []
  },
  {
    "postal": "N2L9Z5",
    "result": []
  },
  {
    "postal": "N2L7H8",
    "result": []
  },
  {
    "postal": "N2L0P6",
    "result": []
  },
  {
    "postal": "N2L0S7",
    "result": []
  },
  {
    "postal": "N2L8B9",
    "result": []
  },
  {
    "postal": "N2L2A6",
    "result": [
      {
        "electoralDistricts": [
          {
            "election": null,
            "id": 114,
            "name": "Waterloo"
          }
        ],
        "pollDivisionIds": [
          10126557
        ],
        "postalCode": "N2L2A6",
        "streetName": "MENNO",
        "streetDirectionId": null,
        "streetTypeId": "ST",
        "placeName": "WATERLOO",
        "streetNameDisplayText": "MENNO ST, WATERLOO"
      }
    ]
  },
  {
    "postal": "N2L7V2",
    "result": []
  },
  {
    "postal": "N2L9P4",
    "result": []
  },
  {
    "postal": "N2L6G0",
    "result": []
  },
  {
    "postal": "N2L2K0",
    "result": []
  },
  {
    "postal": "N2L7N6",
    "result": []
  },
  {
    "postal": "N2L5R3",
    "result": [
      {
        "electoralDistricts": [
          {
            "election": null,
            "id": 114,
            "name": "Waterloo"
          }
        ],
        "pollDivisionIds": [
          10126541
        ],
        "postalCode": "N2L5R3",
        "streetName": "PARKMOUNT",
        "streetDirectionId": null,
        "streetTypeId": "DR",
        "placeName": "WATERLOO",
        "streetNameDisplayText": "PARKMOUNT DR, WATERLOO"
      }
    ]
  },
  {
    "postal": "N2L7K0",
    "result": []
  },
  {
    "postal": "N2L3R2",
    "result": [
      {
        "electoralDistricts": [
          {
            "election": null,
            "id": 114,
            "name": "Waterloo"
          }
        ],
        "pollDivisionIds": [
          10126548
        ],
        "postalCode": "N2L3R2",
        "streetName": "LARCH",
        "streetDirectionId": null,
        "streetTypeId": "ST",
        "placeName": "WATERLOO",
        "streetNameDisplayText": "LARCH ST, WATERLOO"
      }
    ]
  },
  {
    "postal": "N2L0J1",
    "result": []
  },
  {
    "postal": "N2L0B0",
    "result": []
  },
  {
    "postal": "N2L5Z2",
    "result": [
      {
        "electoralDistricts": [
          {
            "election": null,
            "id": 114,
            "name": "Waterloo"
          }
        ],
        "pollDivisionIds": [
          10126544
        ],
        "postalCode": "N2L5Z2",
        "streetName": "BELGREEN",
        "streetDirectionId": null,
        "streetTypeId": "WAY",
        "placeName": "WATERLOO",
        "streetNameDisplayText": "BELGREEN WAY, WATERLOO"
      }
    ]
  },
  {
    "postal": "N2L7P3",
    "result": []
  },
  {
    "postal": "N2L2K3",
    "result": [
      {
        "electoralDistricts": [
          {
            "election": null,
            "id": 114,
            "name": "Waterloo"
          }
        ],
        "pollDivisionIds": [
          10126549
        ],
        "postalCode": "N2L2K3",
        "streetName": "WESTMOUNT",
        "streetDirectionId": "S",
        "streetTypeId": "RD",
        "placeName": "WATERLOO",
        "streetNameDisplayText": "WESTMOUNT RD S, WATERLOO"
      }
    ]
  },
  {
    "postal": "N2L7Y6",
    "result": []
  },
  {
    "postal": "N2L1L9",
    "result": [
      {
        "electoralDistricts": [
          {
            "election": null,
            "id": 114,
            "name": "Waterloo"
          }
        ],
        "pollDivisionIds": [
          10126551
        ],
        "postalCode": "N2L1L9",
        "streetName": "ALEXANDRA",
        "streetDirectionId": null,
        "streetTypeId": "AVE",
        "placeName": "WATERLOO",
        "streetNameDisplayText": "ALEXANDRA AVE, WATERLOO"
      }
    ]
  },
  {
    "postal": "N2L8T0",
    "result": []
  },
  {
    "postal": "N2L3K8",
    "result": [
      {
        "electoralDistricts": [
          {
            "election": null,
            "id": 114,
            "name": "Waterloo"
          }
        ],
        "pollDivisionIds": [
          10126551
        ],
        "postalCode": "N2L3K8",
        "streetName": "COLOMBIA",
        "streetDirectionId": "W",
        "streetTypeId": "ST",
        "placeName": "WATERLOO",
        "streetNameDisplayText": "COLOMBIA ST W, WATERLOO"
      },
      {
        "electoralDistricts": [
          {
            "election": null,
            "id": 114,
            "name": "Waterloo"
          }
        ],
        "pollDivisionIds": [
          10126541
        ],
        "postalCode": "N2L3K8",
        "streetName": "COLUMBIA",
        "streetDirectionId": "W",
        "streetTypeId": "ST",
        "placeName": "WATERLOO",
        "streetNameDisplayText": "COLUMBIA ST W, WATERLOO"
      }
    ]
  },
  {
    "postal": "N2L5W9",
    "result": [
      {
        "electoralDistricts": [
          {
            "election": null,
            "id": 114,
            "name": "Waterloo"
          }
        ],
        "pollDivisionIds": [
          10126540
        ],
        "postalCode": "N2L5W9",
        "streetName": "CANDLEWOOD",
        "streetDirectionId": null,
        "streetTypeId": "CRES",
        "placeName": "WATERLOO",
        "streetNameDisplayText": "CANDLEWOOD CRES, WATERLOO"
      }
    ]
  },
  {
    "postal": "N2L6T9",
    "result": []
  },
  {
    "postal": "N2L4H1",
    "result": [
      {
        "electoralDistricts": [
          {
            "election": null,
            "id": 114,
            "name": "Waterloo"
          }
        ],
        "pollDivisionIds": [
          10126550
        ],
        "postalCode": "N2L4H1",
        "streetName": "TAMARACK",
        "streetDirectionId": null,
        "streetTypeId": "DR",
        "placeName": "WATERLOO",
        "streetNameDisplayText": "TAMARACK DR, WATERLOO"
      }
    ]
  },
  {
    "postal": "N2L7A2",
    "result": []
  },
  {
    "postal": "N2L5G0",
    "result": []
  },
  {
    "postal": "N2L8V5",
    "result": []
  },
  {
    "postal": "N2L2Y8",
    "result": [
      {
        "electoralDistricts": [
          {
            "election": null,
            "id": 114,
            "name": "Waterloo"
          }
        ],
        "pollDivisionIds": [
          10126553
        ],
        "postalCode": "N2L2Y8",
        "streetName": "YOUNG",
        "streetDirectionId": "W",
        "streetTypeId": "ST",
        "placeName": "WATERLOO",
        "streetNameDisplayText": "YOUNG ST W, WATERLOO"
      }
    ]
  },
  {
    "postal": "N2L2B6",
    "result": [
      {
        "electoralDistricts": [
          {
            "election": null,
            "id": 114,
            "name": "Waterloo"
          }
        ],
        "pollDivisionIds": [
          10126551
        ],
        "postalCode": "N2L2B6",
        "streetName": "AVONDALE",
        "streetDirectionId": "S",
        "streetTypeId": "AVE",
        "placeName": "WATERLOO",
        "streetNameDisplayText": "AVONDALE AVE S, WATERLOO"
      }
    ]
  },
  {
    "postal": "N2L4W8",
    "result": [
      {
        "electoralDistricts": [
          {
            "election": null,
            "id": 114,
            "name": "Waterloo"
          }
        ],
        "pollDivisionIds": [
          10126543
        ],
        "postalCode": "N2L4W8",
        "streetName": "WOODVILLE",
        "streetDirectionId": null,
        "streetTypeId": "PL",
        "placeName": "WATERLOO",
        "streetNameDisplayText": "WOODVILLE PL, WATERLOO"
      }
    ]
  },
  {
    "postal": "N2L8H7",
    "result": []
  },
  {
    "postal": "N2L5P1",
    "result": [
      {
        "electoralDistricts": [
          {
            "election": null,
            "id": 114,
            "name": "Waterloo"
          }
        ],
        "pollDivisionIds": [
          10126533
        ],
        "postalCode": "N2L5P1",
        "streetName": "ROSELAWN",
        "streetDirectionId": null,
        "streetTypeId": "PL",
        "placeName": "WATERLOO",
        "streetNameDisplayText": "ROSELAWN PL, WATERLOO"
      }
    ]
  },
  {
    "postal": "N2L2B8",
    "result": [
      {
        "electoralDistricts": [
          {
            "election": null,
            "id": 114,
            "name": "Waterloo"
          }
        ],
        "pollDivisionIds": [
          10126557
        ],
        "postalCode": "N2L2B8",
        "streetName": "AVONDALE",
        "streetDirectionId": "S",
        "streetTypeId": "AVE",
        "placeName": "WATERLOO",
        "streetNameDisplayText": "AVONDALE AVE S, WATERLOO"
      }
    ]
  },
  {
    "postal": "N2L0P2",
    "result": []
  },
  {
    "postal": "N2L9M1",
    "result": []
  },
  {
    "postal": "N2L3G0",
    "result": []
  },
  {
    "postal": "N2L9Z2",
    "result": []
  },
  {
    "postal": "N2L2A0",
    "result": []
  },
  {
    "postal": "N2L6Y0",
    "result": []
  },
  {
    "postal": "N2L2Z8",
    "result": [
      {
        "electoralDistricts": [
          {
            "election": null,
            "id": 114,
            "name": "Waterloo"
          }
        ],
        "pollDivisionIds": [
          10126553
        ],
        "postalCode": "N2L2Z8",
        "streetName": "SPRING",
        "streetDirectionId": "W",
        "streetTypeId": "ST",
        "placeName": "WATERLOO",
        "streetNameDisplayText": "SPRING ST W, WATERLOO"
      }
    ]
  },
  {
    "postal": "N2L7Y3",
    "result": []
  },
  {
    "postal": "N2L6Z5",
    "result": []
  },
  {
    "postal": "N2L6E0",
    "result": []
  },
  {
    "postal": "N2L9B7",
    "result": []
  },
  {
    "postal": "N2L9S5",
    "result": []
  },
  {
    "postal": "N2L3X3",
    "result": []
  },
  {
    "postal": "N2L7R5",
    "result": []
  },
  {
    "postal": "N2L2X3",
    "result": [
      {
        "electoralDistricts": [
          {
            "election": null,
            "id": 114,
            "name": "Waterloo"
          }
        ],
        "pollDivisionIds": [
          10126545
        ],
        "postalCode": "N2L2X3",
        "streetName": "FISCHER HALLMAN",
        "streetDirectionId": "N",
        "streetTypeId": "RD",
        "placeName": "WATERLOO",
        "streetNameDisplayText": "FISCHER HALLMAN RD N, WATERLOO"
      }
    ]
  },
  {
    "postal": "N2L8Z9",
    "result": []
  },
  {
    "postal": "N2L0N4",
    "result": []
  },
  {
    "postal": "N2L1K1",
    "result": [
      {
        "electoralDistricts": [
          {
            "election": null,
            "id": 114,
            "name": "Waterloo"
          }
        ],
        "pollDivisionIds": [
          10126557
        ],
        "postalCode": "N2L1K1",
        "streetName": "WILLIAM",
        "streetDirectionId": "W",
        "streetTypeId": "ST",
        "placeName": "WATERLOO",
        "streetNameDisplayText": "WILLIAM ST W, WATERLOO"
      }
    ]
  },
  {
    "postal": "N2L1S3",
    "result": [
      {
        "electoralDistricts": [
          {
            "election": null,
            "id": 114,
            "name": "Waterloo"
          }
        ],
        "pollDivisionIds": [
          10126549
        ],
        "postalCode": "N2L1S3",
        "streetName": "DAWSON",
        "streetDirectionId": null,
        "streetTypeId": "ST",
        "placeName": "WATERLOO",
        "streetNameDisplayText": "DAWSON ST, WATERLOO"
      }
    ]
  },
  {
    "postal": "N2L6M4",
    "result": []
  },
  {
    "postal": "N2L9A9",
    "result": []
  },
  {
    "postal": "N2L9Z9",
    "result": []
  },
  {
    "postal": "N2L6T4",
    "result": []
  },
  {
    "postal": "N2L0B2",
    "result": [
      {
        "electoralDistricts": [
          {
            "election": null,
            "id": 114,
            "name": "Waterloo"
          }
        ],
        "pollDivisionIds": [
          10126557
        ],
        "postalCode": "N2L0B2",
        "streetName": "PARK",
        "streetDirectionId": null,
        "streetTypeId": "ST",
        "placeName": "WATERLOO",
        "streetNameDisplayText": "PARK ST, WATERLOO"
      }
    ]
  },
  {
    "postal": "N2L2L9",
    "result": [
      {
        "electoralDistricts": [
          {
            "election": null,
            "id": 114,
            "name": "Waterloo"
          }
        ],
        "pollDivisionIds": [
          10126549
        ],
        "postalCode": "N2L2L9",
        "streetName": "EMPIRE",
        "streetDirectionId": null,
        "streetTypeId": "ST",
        "placeName": "WATERLOO",
        "streetNameDisplayText": "EMPIRE ST, WATERLOO"
      }
    ]
  },
  {
    "postal": "N2L8K9",
    "result": []
  },
  {
    "postal": "N2L2H9",
    "result": [
      {
        "electoralDistricts": [
          {
            "election": null,
            "id": 114,
            "name": "Waterloo"
          }
        ],
        "pollDivisionIds": [
          10126557
        ],
        "postalCode": "N2L2H9",
        "streetName": "HILLCREST",
        "streetDirectionId": null,
        "streetTypeId": "AVE",
        "placeName": "WATERLOO",
        "streetNameDisplayText": "HILLCREST AVE, WATERLOO"
      }
    ]
  },
  {
    "postal": "N2L3Z6",
    "result": [
      {
        "electoralDistricts": [
          {
            "election": null,
            "id": 114,
            "name": "Waterloo"
          }
        ],
        "pollDivisionIds": [
          10126550
        ],
        "postalCode": "N2L3Z6",
        "streetName": "BARRIE",
        "streetDirectionId": null,
        "streetTypeId": "PL",
        "placeName": "WATERLOO",
        "streetNameDisplayText": "BARRIE PL, WATERLOO"
      }
    ]
  },
  {
    "postal": "N2L3B0",
    "result": []
  },
  {
    "postal": "N2L2H8",
    "result": [
      {
        "electoralDistricts": [
          {
            "election": null,
            "id": 114,
            "name": "Waterloo"
          }
        ],
        "pollDivisionIds": [
          10126551
        ],
        "postalCode": "N2L2H8",
        "streetName": "BEVERLEY",
        "streetDirectionId": null,
        "streetTypeId": "ST",
        "placeName": "WATERLOO",
        "streetNameDisplayText": "BEVERLEY ST, WATERLOO"
      }
    ]
  },
  {
    "postal": "N2L3X2",
    "result": [
      {
        "electoralDistricts": [
          {
            "election": null,
            "id": 114,
            "name": "Waterloo"
          }
        ],
        "pollDivisionIds": [
          10126547,
          10126541
        ],
        "postalCode": "N2L3X2",
        "streetName": "PHILLIP",
        "streetDirectionId": null,
        "streetTypeId": "ST",
        "placeName": "WATERLOO",
        "streetNameDisplayText": "PHILLIP ST, WATERLOO"
      }
    ]
  },
  {
    "postal": "N2L2E9",
    "result": [
      {
        "electoralDistricts": [
          {
            "election": null,
            "id": 114,
            "name": "Waterloo"
          }
        ],
        "pollDivisionIds": [
          10126557
        ],
        "postalCode": "N2L2E9",
        "streetName": "DUNBAR",
        "streetDirectionId": "S",
        "streetTypeId": "RD",
        "placeName": "WATERLOO",
        "streetNameDisplayText": "DUNBAR RD S, WATERLOO"
      }
    ]
  },
  {
    "postal": "N2L9P6",
    "result": []
  },
  {
    "postal": "N2L9E2",
    "result": []
  },
  {
    "postal": "N2L9H2",
    "result": []
  },
  {
    "postal": "N2L1S8",
    "result": [
      {
        "electoralDistricts": [
          {
            "election": null,
            "id": 114,
            "name": "Waterloo"
          }
        ],
        "pollDivisionIds": [
          10126553
        ],
        "postalCode": "N2L1S8",
        "streetName": "ERB",
        "streetDirectionId": "W",
        "streetTypeId": "ST",
        "placeName": "WATERLOO",
        "streetNameDisplayText": "ERB ST W, WATERLOO"
      }
    ]
  },
  {
    "postal": "N2L3M6",
    "result": [
      {
        "electoralDistricts": [
          {
            "election": null,
            "id": 114,
            "name": "Waterloo"
          }
        ],
        "pollDivisionIds": [
          10142551
        ],
        "postalCode": "N2L3M6",
        "streetName": "SPRUCE",
        "streetDirectionId": null,
        "streetTypeId": "ST",
        "placeName": "WATERLOO",
        "streetNameDisplayText": "SPRUCE ST, WATERLOO"
      }
    ]
  },
  {
    "postal": "N2L6Z8",
    "result": []
  },
  {
    "postal": "N2L4J2",
    "result": [
      {
        "electoralDistricts": [
          {
            "election": null,
            "id": 114,
            "name": "Waterloo"
          }
        ],
        "pollDivisionIds": [
          10126541
        ],
        "postalCode": "N2L4J2",
        "streetName": "GLEN FORREST",
        "streetDirectionId": null,
        "streetTypeId": "BLVD",
        "placeName": "WATERLOO",
        "streetNameDisplayText": "GLEN FORREST BLVD, WATERLOO"
      }
    ]
  },
  {
    "postal": "N2L9Y1",
    "result": []
  },
  {
    "postal": "N2L8V6",
    "result": []
  },
  {
    "postal": "N2L6B2",
    "result": [
      {
        "electoralDistricts": [
          {
            "election": null,
            "id": 114,
            "name": "Waterloo"
          }
        ],
        "pollDivisionIds": [
          10126549
        ],
        "postalCode": "N2L6B2",
        "streetName": "STONEHAVEN",
        "streetDirectionId": null,
        "streetTypeId": "DR",
        "placeName": "WATERLOO",
        "streetNameDisplayText": "STONEHAVEN DR, WATERLOO"
      }
    ]
  },
  {
    "postal": "N2L1P8",
    "result": [
      {
        "electoralDistricts": [
          {
            "election": null,
            "id": 114,
            "name": "Waterloo"
          }
        ],
        "pollDivisionIds": [
          10126549
        ],
        "postalCode": "N2L1P8",
        "streetName": "KINGSLEY",
        "streetDirectionId": null,
        "streetTypeId": "CRES",
        "placeName": "WATERLOO",
        "streetNameDisplayText": "KINGSLEY CRES, WATERLOO"
      }
    ]
  },
  {
    "postal": "N2L0V8",
    "result": []
  },
  {
    "postal": "N2L4Y0",
    "result": []
  },
  {
    "postal": "N2L2T4",
    "result": [
      {
        "electoralDistricts": [
          {
            "election": null,
            "id": 114,
            "name": "Waterloo"
          }
        ],
        "pollDivisionIds": [
          10126540
        ],
        "postalCode": "N2L2T4",
        "streetName": "MOHAWK",
        "streetDirectionId": null,
        "streetTypeId": "AVE",
        "placeName": "WATERLOO",
        "streetNameDisplayText": "MOHAWK AVE, WATERLOO"
      }
    ]
  },
  {
    "postal": "N2L2S3",
    "result": [
      {
        "electoralDistricts": [
          {
            "election": null,
            "id": 114,
            "name": "Waterloo"
          }
        ],
        "pollDivisionIds": [
          10126540
        ],
        "postalCode": "N2L2S3",
        "streetName": "LONGFELLOW",
        "streetDirectionId": null,
        "streetTypeId": "DR",
        "placeName": "WATERLOO",
        "streetNameDisplayText": "LONGFELLOW DR, WATERLOO"
      }
    ]
  },
  {
    "postal": "N2L0K0",
    "result": []
  },
  {
    "postal": "N2L5N1",
    "result": [
      {
        "electoralDistricts": [
          {
            "election": null,
            "id": 114,
            "name": "Waterloo"
          }
        ],
        "pollDivisionIds": [
          10126540
        ],
        "postalCode": "N2L5N1",
        "streetName": "MCCARRON",
        "streetDirectionId": null,
        "streetTypeId": "CRES",
        "placeName": "WATERLOO",
        "streetNameDisplayText": "MCCARRON CRES, WATERLOO"
      }
    ]
  },
  {
    "postal": "N2L7T0",
    "result": []
  },
  {
    "postal": "N2L9N2",
    "result": []
  },
  {
    "postal": "N2L5L1",
    "result": [
      {
        "electoralDistricts": [
          {
            "election": null,
            "id": 114,
            "name": "Waterloo"
          }
        ],
        "pollDivisionIds": [
          10126545
        ],
        "postalCode": "N2L5L1",
        "streetName": "CULPEPPER",
        "streetDirectionId": null,
        "streetTypeId": "DR",
        "placeName": "WATERLOO",
        "streetNameDisplayText": "CULPEPPER DR, WATERLOO"
      }
    ]
  },
  {
    "postal": "N2L7G5",
    "result": []
  },
  {
    "postal": "N2L6K2",
    "result": [
      {
        "electoralDistricts": [
          {
            "election": null,
            "id": 114,
            "name": "Waterloo"
          }
        ],
        "pollDivisionIds": [
          10126552
        ],
        "postalCode": "N2L6K2",
        "streetName": "KRAUS",
        "streetDirectionId": null,
        "streetTypeId": "DR",
        "placeName": "WATERLOO",
        "streetNameDisplayText": "KRAUS DR, WATERLOO"
      }
    ]
  },
  {
    "postal": "N2L6P9",
    "result": []
  },
  {
    "postal": "N2L0E6",
    "result": []
  },
  {
    "postal": "N2L8R9",
    "result": []
  },
  {
    "postal": "N2L3G9",
    "result": [
      {
        "electoralDistricts": [
          {
            "election": null,
            "id": 114,
            "name": "Waterloo"
          }
        ],
        "pollDivisionIds": [
          10142551
        ],
        "postalCode": "N2L3G9",
        "streetName": "STATE",
        "streetDirectionId": null,
        "streetTypeId": "CRT",
        "placeName": "WATERLOO",
        "streetNameDisplayText": "STATE CRT, WATERLOO"
      }
    ]
  },
  {
    "postal": "N2L0V7",
    "result": []
  },
  {
    "postal": "N2L2Z1",
    "result": [
      {
        "electoralDistricts": [
          {
            "election": null,
            "id": 114,
            "name": "Waterloo"
          }
        ],
        "pollDivisionIds": [
          10126553
        ],
        "postalCode": "N2L2Z1",
        "streetName": "YOUNG",
        "streetDirectionId": "W",
        "streetTypeId": "ST",
        "placeName": "WATERLOO",
        "streetNameDisplayText": "YOUNG ST W, WATERLOO"
      }
    ]
  },
  {
    "postal": "N2L7N1",
    "result": []
  },
  {
    "postal": "N2L3C6",
    "result": [
      {
        "electoralDistricts": [
          {
            "election": null,
            "id": 114,
            "name": "Waterloo"
          }
        ],
        "pollDivisionIds": [
          10142551
        ],
        "postalCode": "N2L3C6",
        "streetName": "UNIVERSITY",
        "streetDirectionId": "W",
        "streetTypeId": "AVE",
        "placeName": "WATERLOO",
        "streetNameDisplayText": "UNIVERSITY AVE W, WATERLOO"
      }
    ]
  },
  {
    "postal": "N2L4M1",
    "result": [
      {
        "electoralDistricts": [
          {
            "election": null,
            "id": 114,
            "name": "Waterloo"
          }
        ],
        "pollDivisionIds": [
          10126541
        ],
        "postalCode": "N2L4M1",
        "streetName": "PARKMOUNT",
        "streetDirectionId": null,
        "streetTypeId": "DR",
        "placeName": "WATERLOO",
        "streetNameDisplayText": "PARKMOUNT DR, WATERLOO"
      }
    ]
  },
  {
    "postal": "N2L9K2",
    "result": []
  },
  {
    "postal": "N2L9S6",
    "result": []
  },
  {
    "postal": "N2L4X1",
    "result": [
      {
        "electoralDistricts": [
          {
            "election": null,
            "id": 114,
            "name": "Waterloo"
          }
        ],
        "pollDivisionIds": [
          10126543
        ],
        "postalCode": "N2L4X1",
        "streetName": "LYNNBROOK",
        "streetDirectionId": null,
        "streetTypeId": "CRES",
        "placeName": "WATERLOO",
        "streetNameDisplayText": "LYNNBROOK CRES, WATERLOO"
      }
    ]
  },
  {
    "postal": "N2L8W2",
    "result": []
  },
  {
    "postal": "N2L7N2",
    "result": []
  },
  {
    "postal": "N2L8S3",
    "result": []
  },
  {
    "postal": "N2L4V0",
    "result": []
  },
  {
    "postal": "N2L6W4",
    "result": []
  },
  {
    "postal": "N2L5M1",
    "result": [
      {
        "electoralDistricts": [
          {
            "election": null,
            "id": 114,
            "name": "Waterloo"
          }
        ],
        "pollDivisionIds": [
          10126540
        ],
        "postalCode": "N2L5M1",
        "streetName": "STILLMEADOW",
        "streetDirectionId": null,
        "streetTypeId": "CIR",
        "placeName": "WATERLOO",
        "streetNameDisplayText": "STILLMEADOW CIR, WATERLOO"
      }
    ]
  },
  {
    "postal": "N2L0S4",
    "result": []
  },
  {
    "postal": "N2L5X6",
    "result": [
      {
        "electoralDistricts": [
          {
            "election": null,
            "id": 114,
            "name": "Waterloo"
          }
        ],
        "pollDivisionIds": [
          10126544
        ],
        "postalCode": "N2L5X6",
        "streetName": "BELGREEN",
        "streetDirectionId": null,
        "streetTypeId": "WAY",
        "placeName": "WATERLOO",
        "streetNameDisplayText": "BELGREEN WAY, WATERLOO"
      }
    ]
  },
  {
    "postal": "N2L8L5",
    "result": []
  },
  {
    "postal": "N2L5M8",
    "result": [
      {
        "electoralDistricts": [
          {
            "election": null,
            "id": 114,
            "name": "Waterloo"
          }
        ],
        "pollDivisionIds": [
          10126540
        ],
        "postalCode": "N2L5M8",
        "streetName": "CANDLEWOOD",
        "streetDirectionId": null,
        "streetTypeId": "CRES",
        "placeName": "WATERLOO",
        "streetNameDisplayText": "CANDLEWOOD CRES, WATERLOO"
      }
    ]
  },
  {
    "postal": "N2L2G3",
    "result": [
      {
        "electoralDistricts": [
          {
            "election": null,
            "id": 114,
            "name": "Waterloo"
          }
        ],
        "pollDivisionIds": [
          10126551
        ],
        "postalCode": "N2L2G3",
        "streetName": "ROSLIN",
        "streetDirectionId": "N",
        "streetTypeId": "AVE",
        "placeName": "WATERLOO",
        "streetNameDisplayText": "ROSLIN AVE N, WATERLOO"
      }
    ]
  },
  {
    "postal": "N2L8E4",
    "result": []
  },
  {
    "postal": "N2L7S9",
    "result": []
  },
  {
    "postal": "N2L1K3",
    "result": [
      {
        "electoralDistricts": [
          {
            "election": null,
            "id": 114,
            "name": "Waterloo"
          }
        ],
        "pollDivisionIds": [
          10126557
        ],
        "postalCode": "N2L1K3",
        "streetName": "WILLIAM",
        "streetDirectionId": "W",
        "streetTypeId": "ST",
        "placeName": "WATERLOO",
        "streetNameDisplayText": "WILLIAM ST W, WATERLOO"
      }
    ]
  },
  {
    "postal": "N2L4E1",
    "result": []
  },
  {
    "postal": "N2L4R2",
    "result": [
      {
        "electoralDistricts": [
          {
            "election": null,
            "id": 114,
            "name": "Waterloo"
          }
        ],
        "pollDivisionIds": [
          10126542
        ],
        "postalCode": "N2L4R2",
        "streetName": "NORTHGATE",
        "streetDirectionId": null,
        "streetTypeId": "AVE",
        "placeName": "WATERLOO",
        "streetNameDisplayText": "NORTHGATE AVE, WATERLOO"
      }
    ]
  },
  {
    "postal": "N2L6T0",
    "result": []
  },
  {
    "postal": "N2L3K5",
    "result": [
      {
        "electoralDistricts": [
          {
            "election": null,
            "id": 114,
            "name": "Waterloo"
          }
        ],
        "pollDivisionIds": [
          10142551
        ],
        "postalCode": "N2L3K5",
        "streetName": "COLUMBIA",
        "streetDirectionId": "W",
        "streetTypeId": "ST",
        "placeName": "WATERLOO",
        "streetNameDisplayText": "COLUMBIA ST W, WATERLOO"
      }
    ]
  },
  {
    "postal": "N2L3S3",
    "result": []
  },
  {
    "postal": "N2L3L4",
    "result": []
  },
  {
    "postal": "N2L9Y2",
    "result": []
  },
  {
    "postal": "N2L1E0",
    "result": []
  },
  {
    "postal": "N2L9A4",
    "result": []
  },
  {
    "postal": "N2L1L3",
    "result": [
      {
        "electoralDistricts": [
          {
            "election": null,
            "id": 114,
            "name": "Waterloo"
          }
        ],
        "pollDivisionIds": [
          10126557
        ],
        "postalCode": "N2L1L3",
        "streetName": "ALEXANDRA",
        "streetDirectionId": null,
        "streetTypeId": "AVE",
        "placeName": "WATERLOO",
        "streetNameDisplayText": "ALEXANDRA AVE, WATERLOO"
      }
    ]
  },
  {
    "postal": "N2L6N1",
    "result": [
      {
        "electoralDistricts": [
          {
            "election": null,
            "id": 114,
            "name": "Waterloo"
          }
        ],
        "pollDivisionIds": [
          10126545
        ],
        "postalCode": "N2L6N1",
        "streetName": "FENNER",
        "streetDirectionId": null,
        "streetTypeId": "LANE",
        "placeName": "WATERLOO",
        "streetNameDisplayText": "FENNER LANE, WATERLOO"
      }
    ]
  },
  {
    "postal": "N2L6G7",
    "result": [
      {
        "electoralDistricts": [
          {
            "election": null,
            "id": 114,
            "name": "Waterloo"
          }
        ],
        "pollDivisionIds": [
          10126539
        ],
        "postalCode": "N2L6G7",
        "streetName": "COLUMBIA",
        "streetDirectionId": "W",
        "streetTypeId": "ST",
        "placeName": "WATERLOO",
        "streetNameDisplayText": "COLUMBIA ST W, WATERLOO"
      }
    ]
  },
  {
    "postal": "N2L7W1",
    "result": []
  },
  {
    "postal": "N2L4M6",
    "result": [
      {
        "electoralDistricts": [
          {
            "election": null,
            "id": 114,
            "name": "Waterloo"
          }
        ],
        "pollDivisionIds": [
          10126541
        ],
        "postalCode": "N2L4M6",
        "streetName": "DOGWOOD",
        "streetDirectionId": null,
        "streetTypeId": "LANE",
        "placeName": "WATERLOO",
        "streetNameDisplayText": "DOGWOOD LANE, WATERLOO"
      }
    ]
  },
  {
    "postal": "N2L1K0",
    "result": []
  },
  {
    "postal": "N2L3E2",
    "result": [
      {
        "electoralDistricts": [
          {
            "election": null,
            "id": 114,
            "name": "Waterloo"
          }
        ],
        "pollDivisionIds": [
          10126548
        ],
        "postalCode": "N2L3E2",
        "streetName": "UNIVERSITY",
        "streetDirectionId": "W",
        "streetTypeId": "AVE",
        "placeName": "WATERLOO",
        "streetNameDisplayText": "UNIVERSITY AVE W, WATERLOO"
      }
    ]
  },
  {
    "postal": "N2L5H4",
    "result": [
      {
        "electoralDistricts": [
          {
            "election": null,
            "id": 114,
            "name": "Waterloo"
          }
        ],
        "pollDivisionIds": [
          10126540
        ],
        "postalCode": "N2L5H4",
        "streetName": "KEATS WAY",
        "streetDirectionId": null,
        "streetTypeId": "PL",
        "placeName": "WATERLOO",
        "streetNameDisplayText": "KEATS WAY PL, WATERLOO"
      }
    ]
  },
  {
    "postal": "N2L1K7",
    "result": [
      {
        "electoralDistricts": [
          {
            "election": null,
            "id": 114,
            "name": "Waterloo"
          }
        ],
        "pollDivisionIds": [
          10126549
        ],
        "postalCode": "N2L1K7",
        "streetName": "DOUGLAS",
        "streetDirectionId": null,
        "streetTypeId": "ST",
        "placeName": "WATERLOO",
        "streetNameDisplayText": "DOUGLAS ST, WATERLOO"
      }
    ]
  },
  {
    "postal": "N2L0H0",
    "result": []
  },
  {
    "postal": "N2L0J3",
    "result": []
  },
  {
    "postal": "N2L1X6",
    "result": []
  },
  {
    "postal": "N2L2Z6",
    "result": [
      {
        "electoralDistricts": [
          {
            "election": null,
            "id": 114,
            "name": "Waterloo"
          }
        ],
        "pollDivisionIds": [
          10126553
        ],
        "postalCode": "N2L2Z6",
        "streetName": "SPRING",
        "streetDirectionId": "W",
        "streetTypeId": "ST",
        "placeName": "WATERLOO",
        "streetNameDisplayText": "SPRING ST W, WATERLOO"
      }
    ]
  },
  {
    "postal": "N2L4R9",
    "result": [
      {
        "electoralDistricts": [
          {
            "election": null,
            "id": 114,
            "name": "Waterloo"
          }
        ],
        "pollDivisionIds": [
          10126542
        ],
        "postalCode": "N2L4R9",
        "streetName": "TWIN OAKS",
        "streetDirectionId": null,
        "streetTypeId": "CRES",
        "placeName": "WATERLOO",
        "streetNameDisplayText": "TWIN OAKS CRES, WATERLOO"
      }
    ]
  },
  {
    "postal": "N2L0W8",
    "result": []
  },
  {
    "postal": "N2L1L4",
    "result": [
      {
        "electoralDistricts": [
          {
            "election": null,
            "id": 114,
            "name": "Waterloo"
          }
        ],
        "pollDivisionIds": [
          10126557
        ],
        "postalCode": "N2L1L4",
        "streetName": "ALEXANDRA",
        "streetDirectionId": null,
        "streetTypeId": "AVE",
        "placeName": "WATERLOO",
        "streetNameDisplayText": "ALEXANDRA AVE, WATERLOO"
      }
    ]
  },
  {
    "postal": "N2L0C8",
    "result": [
      {
        "electoralDistricts": [
          {
            "election": null,
            "id": 114,
            "name": "Waterloo"
          }
        ],
        "pollDivisionIds": [
          10126533
        ],
        "postalCode": "N2L0C8",
        "streetName": "COLOMBIA",
        "streetDirectionId": "W",
        "streetTypeId": "ST",
        "placeName": "WATERLOO",
        "streetNameDisplayText": "COLOMBIA ST W, WATERLOO"
      },
      {
        "electoralDistricts": [
          {
            "election": null,
            "id": 114,
            "name": "Waterloo"
          }
        ],
        "pollDivisionIds": [
          10142551
        ],
        "postalCode": "N2L0C8",
        "streetName": "COLUMBIA",
        "streetDirectionId": "W",
        "streetTypeId": "ST",
        "placeName": "WATERLOO",
        "streetNameDisplayText": "COLUMBIA ST W, WATERLOO"
      },
      {
        "electoralDistricts": [
          {
            "election": null,
            "id": 114,
            "name": "Waterloo"
          }
        ],
        "pollDivisionIds": [
          10142551
        ],
        "postalCode": "N2L0C8",
        "streetName": "COLUMBIA ST WEST",
        "streetDirectionId": "W",
        "streetTypeId": "ST",
        "placeName": "WATERLOO",
        "streetNameDisplayText": "COLUMBIA ST WEST ST W, WATERLOO"
      }
    ]
  },
  {
    "postal": "N2L9X7",
    "result": []
  },
  {
    "postal": "N2L4T1",
    "result": [
      {
        "electoralDistricts": [
          {
            "election": null,
            "id": 114,
            "name": "Waterloo"
          }
        ],
        "pollDivisionIds": [
          10126543,
          10126541
        ],
        "postalCode": "N2L4T1",
        "streetName": "SUNNYDALE",
        "streetDirectionId": null,
        "streetTypeId": "PL",
        "placeName": "WATERLOO",
        "streetNameDisplayText": "SUNNYDALE PL, WATERLOO"
      }
    ]
  },
  {
    "postal": "N2L0M0",
    "result": []
  },
  {
    "postal": "N2L6A2",
    "result": [
      {
        "electoralDistricts": [
          {
            "election": null,
            "id": 114,
            "name": "Waterloo"
          }
        ],
        "pollDivisionIds": [
          10126540
        ],
        "postalCode": "N2L6A2",
        "streetName": "AMOS",
        "streetDirectionId": null,
        "streetTypeId": "AVE",
        "placeName": "WATERLOO",
        "streetNameDisplayText": "AMOS AVE, WATERLOO"
      }
    ]
  },
  {
    "postal": "N2L9S8",
    "result": []
  },
  {
    "postal": "N2L9T4",
    "result": []
  },
  {
    "postal": "N2L9Y4",
    "result": []
  },
  {
    "postal": "N2L6G5",
    "result": [
      {
        "electoralDistricts": [
          {
            "election": null,
            "id": 114,
            "name": "Waterloo"
          }
        ],
        "pollDivisionIds": [
          10126539
        ],
        "postalCode": "N2L6G5",
        "streetName": "COLUMBIA",
        "streetDirectionId": "W",
        "streetTypeId": "ST",
        "placeName": "WATERLOO",
        "streetNameDisplayText": "COLUMBIA ST W, WATERLOO"
      }
    ]
  },
  {
    "postal": "N2L6H9",
    "result": [
      {
        "electoralDistricts": [
          {
            "election": null,
            "id": 114,
            "name": "Waterloo"
          }
        ],
        "pollDivisionIds": [
          10126552
        ],
        "postalCode": "N2L6H9",
        "streetName": "DAVENPORT",
        "streetDirectionId": null,
        "streetTypeId": "RD",
        "placeName": "WATERLOO",
        "streetNameDisplayText": "DAVENPORT RD, WATERLOO"
      }
    ]
  },
  {
    "postal": "N2L2P3",
    "result": [
      {
        "electoralDistricts": [
          {
            "election": null,
            "id": 114,
            "name": "Waterloo"
          }
        ],
        "pollDivisionIds": [
          10126545
        ],
        "postalCode": "N2L2P3",
        "streetName": "REDWOOD",
        "streetDirectionId": null,
        "streetTypeId": "PL",
        "placeName": "WATERLOO",
        "streetNameDisplayText": "REDWOOD PL, WATERLOO"
      }
    ]
  },
  {
    "postal": "N2L1T6",
    "result": [
      {
        "electoralDistricts": [
          {
            "election": null,
            "id": 114,
            "name": "Waterloo"
          }
        ],
        "pollDivisionIds": [
          10126551
        ],
        "postalCode": "N2L1T6",
        "streetName": "ERB",
        "streetDirectionId": "W",
        "streetTypeId": "ST",
        "placeName": "WATERLOO",
        "streetNameDisplayText": "ERB ST W, WATERLOO"
      }
    ]
  },
  {
    "postal": "N2L4P6",
    "result": [
      {
        "electoralDistricts": [
          {
            "election": null,
            "id": 114,
            "name": "Waterloo"
          }
        ],
        "pollDivisionIds": [
          10126542
        ],
        "postalCode": "N2L4P6",
        "streetName": "ELM RIDGE",
        "streetDirectionId": null,
        "streetTypeId": "PL",
        "placeName": "WATERLOO",
        "streetNameDisplayText": "ELM RIDGE PL, WATERLOO"
      }
    ]
  },
  {
    "postal": "N2L3K1",
    "result": [
      {
        "electoralDistricts": [
          {
            "election": null,
            "id": 114,
            "name": "Waterloo"
          }
        ],
        "pollDivisionIds": [
          10126548
        ],
        "postalCode": "N2L3K1",
        "streetName": "HICKORY",
        "streetDirectionId": "W",
        "streetTypeId": "ST",
        "placeName": "WATERLOO",
        "streetNameDisplayText": "HICKORY ST W, WATERLOO"
      }
    ]
  },
  {
    "postal": "N2L6X4",
    "result": []
  },
  {
    "postal": "N2L4M8",
    "result": [
      {
        "electoralDistricts": [
          {
            "election": null,
            "id": 114,
            "name": "Waterloo"
          }
        ],
        "pollDivisionIds": [
          10126541
        ],
        "postalCode": "N2L4M8",
        "streetName": "MARTINDALE",
        "streetDirectionId": null,
        "streetTypeId": "CRES",
        "placeName": "WATERLOO",
        "streetNameDisplayText": "MARTINDALE CRES, WATERLOO"
      }
    ]
  },
  {
    "postal": "N2L2Y1",
    "result": [
      {
        "electoralDistricts": [
          {
            "election": null,
            "id": 114,
            "name": "Waterloo"
          }
        ],
        "pollDivisionIds": [
          10126553
        ],
        "postalCode": "N2L2Y1",
        "streetName": "BRIDGEPORT",
        "streetDirectionId": "W",
        "streetTypeId": "RD",
        "placeName": "WATERLOO",
        "streetNameDisplayText": "BRIDGEPORT RD W, WATERLOO"
      }
    ]
  },
  {
    "postal": "N2L6M1",
    "result": [
      {
        "electoralDistricts": [
          {
            "election": null,
            "id": 114,
            "name": "Waterloo"
          }
        ],
        "pollDivisionIds": [
          10126551,
          10126557
        ],
        "postalCode": "N2L6M1",
        "streetName": "FATHER DAVID BAUER",
        "streetDirectionId": null,
        "streetTypeId": "DR",
        "placeName": "WATERLOO",
        "streetNameDisplayText": "FATHER DAVID BAUER DR, WATERLOO"
      }
    ]
  },
  {
    "postal": "N2L5L8",
    "result": [
      {
        "electoralDistricts": [
          {
            "election": null,
            "id": 114,
            "name": "Waterloo"
          }
        ],
        "pollDivisionIds": [
          10126540
        ],
        "postalCode": "N2L5L8",
        "streetName": "BEECHLAWN",
        "streetDirectionId": null,
        "streetTypeId": "DR",
        "placeName": "WATERLOO",
        "streetNameDisplayText": "BEECHLAWN DR, WATERLOO"
      }
    ]
  },
  {
    "postal": "N2L3P6",
    "result": [
      {
        "electoralDistricts": [
          {
            "election": null,
            "id": 114,
            "name": "Waterloo"
          }
        ],
        "pollDivisionIds": [
          10126550
        ],
        "postalCode": "N2L3P6",
        "streetName": "HAZEL",
        "streetDirectionId": null,
        "streetTypeId": "ST",
        "placeName": "WATERLOO",
        "streetNameDisplayText": "HAZEL ST, WATERLOO"
      }
    ]
  },
  {
    "postal": "N2L9A5",
    "result": []
  },
  {
    "postal": "N2L7K1",
    "result": []
  },
  {
    "postal": "N2L3J4",
    "result": [
      {
        "electoralDistricts": [
          {
            "election": null,
            "id": 114,
            "name": "Waterloo"
          }
        ],
        "pollDivisionIds": [
          10126548
        ],
        "postalCode": "N2L3J4",
        "streetName": "HICKORY",
        "streetDirectionId": "W",
        "streetTypeId": "ST",
        "placeName": "WATERLOO",
        "streetNameDisplayText": "HICKORY ST W, WATERLOO"
      }
    ]
  },
  {
    "postal": "N2L5E7",
    "result": [
      {
        "electoralDistricts": [
          {
            "election": null,
            "id": 114,
            "name": "Waterloo"
          }
        ],
        "pollDivisionIds": [
          10126547
        ],
        "postalCode": "N2L5E7",
        "streetName": "PARKSIDE",
        "streetDirectionId": null,
        "streetTypeId": "DR",
        "placeName": "WATERLOO",
        "streetNameDisplayText": "PARKSIDE DR, WATERLOO"
      }
    ]
  },
  {
    "postal": "N2L3A7",
    "result": [
      {
        "electoralDistricts": [
          {
            "election": null,
            "id": 114,
            "name": "Waterloo"
          }
        ],
        "pollDivisionIds": [
          10126553
        ],
        "postalCode": "N2L3A7",
        "streetName": "CENTRAL",
        "streetDirectionId": null,
        "streetTypeId": "ST",
        "placeName": "WATERLOO",
        "streetNameDisplayText": "CENTRAL ST, WATERLOO"
      }
    ]
  },
  {
    "postal": "N2L1B9",
    "result": [
      {
        "electoralDistricts": [
          {
            "election": null,
            "id": 114,
            "name": "Waterloo"
          }
        ],
        "pollDivisionIds": [
          10126557
        ],
        "postalCode": "N2L1B9",
        "streetName": "JOHN",
        "streetDirectionId": "W",
        "streetTypeId": "ST",
        "placeName": "WATERLOO",
        "streetNameDisplayText": "JOHN ST W, WATERLOO"
      }
    ]
  },
  {
    "postal": "N2L9E8",
    "result": []
  },
  {
    "postal": "N2L1C9",
    "result": [
      {
        "electoralDistricts": [
          {
            "election": null,
            "id": 114,
            "name": "Waterloo"
          }
        ],
        "pollDivisionIds": [
          10126557
        ],
        "postalCode": "N2L1C9",
        "streetName": "ALLEN",
        "streetDirectionId": "W",
        "streetTypeId": "ST",
        "placeName": "WATERLOO",
        "streetNameDisplayText": "ALLEN ST W, WATERLOO"
      }
    ]
  },
  {
    "postal": "N2L3B5",
    "result": [
      {
        "electoralDistricts": [
          {
            "election": null,
            "id": 114,
            "name": "Waterloo"
          }
        ],
        "pollDivisionIds": [
          10126553
        ],
        "postalCode": "N2L3B5",
        "streetName": "BRICKER",
        "streetDirectionId": null,
        "streetTypeId": "AVE",
        "placeName": "WATERLOO",
        "streetNameDisplayText": "BRICKER AVE, WATERLOO"
      }
    ]
  },
  {
    "postal": "N2L8R0",
    "result": []
  },
  {
    "postal": "N2L3P2",
    "result": [
      {
        "electoralDistricts": [
          {
            "election": null,
            "id": 114,
            "name": "Waterloo"
          }
        ],
        "pollDivisionIds": [
          10142551
        ],
        "postalCode": "N2L3P2",
        "streetName": "HAZEL",
        "streetDirectionId": null,
        "streetTypeId": "ST",
        "placeName": "WATERLOO",
        "streetNameDisplayText": "HAZEL ST, WATERLOO"
      }
    ]
  },
  {
    "postal": "N2L5V4",
    "result": [
      {
        "electoralDistricts": [
          {
            "election": null,
            "id": 114,
            "name": "Waterloo"
          }
        ],
        "pollDivisionIds": [
          10126547
        ],
        "postalCode": "N2L5V4",
        "streetName": "PARKSIDE",
        "streetDirectionId": null,
        "streetTypeId": "DR",
        "placeName": "WATERLOO",
        "streetNameDisplayText": "PARKSIDE DR, WATERLOO"
      }
    ]
  },
  {
    "postal": "N2L4H0",
    "result": []
  },
  {
    "postal": "N2L4S7",
    "result": [
      {
        "electoralDistricts": [
          {
            "election": null,
            "id": 114,
            "name": "Waterloo"
          }
        ],
        "pollDivisionIds": [
          10126542
        ],
        "postalCode": "N2L4S7",
        "streetName": "CEDARBRAE",
        "streetDirectionId": null,
        "streetTypeId": "AVE",
        "placeName": "WATERLOO",
        "streetNameDisplayText": "CEDARBRAE AVE, WATERLOO"
      }
    ]
  },
  {
    "postal": "N2L6C2",
    "result": [
      {
        "electoralDistricts": [
          {
            "election": null,
            "id": 114,
            "name": "Waterloo"
          }
        ],
        "pollDivisionIds": [
          10126557
        ],
        "postalCode": "N2L6C2",
        "streetName": "ERB",
        "streetDirectionId": "W",
        "streetTypeId": "ST",
        "placeName": "WATERLOO",
        "streetNameDisplayText": "ERB ST W, WATERLOO"
      }
    ]
  },
  {
    "postal": "N2L8W3",
    "result": []
  },
  {
    "postal": "N2L4M5",
    "result": [
      {
        "electoralDistricts": [
          {
            "election": null,
            "id": 114,
            "name": "Waterloo"
          }
        ],
        "pollDivisionIds": [
          10126541
        ],
        "postalCode": "N2L4M5",
        "streetName": "TOLL GATE",
        "streetDirectionId": null,
        "streetTypeId": "BLVD",
        "placeName": "WATERLOO",
        "streetNameDisplayText": "TOLL GATE BLVD, WATERLOO"
      }
    ]
  },
  {
    "postal": "N2L5T1",
    "result": [
      {
        "electoralDistricts": [
          {
            "election": null,
            "id": 114,
            "name": "Waterloo"
          }
        ],
        "pollDivisionIds": [
          10126557
        ],
        "postalCode": "N2L5T1",
        "streetName": "CAROLINE",
        "streetDirectionId": "S",
        "streetTypeId": "ST",
        "placeName": "WATERLOO",
        "streetNameDisplayText": "CAROLINE ST S, WATERLOO"
      }
    ]
  },
  {
    "postal": "N2L3B3",
    "result": [
      {
        "electoralDistricts": [
          {
            "election": null,
            "id": 114,
            "name": "Waterloo"
          }
        ],
        "pollDivisionIds": [
          10126554
        ],
        "postalCode": "N2L3B3",
        "streetName": "BRICKER",
        "streetDirectionId": null,
        "streetTypeId": "AVE",
        "placeName": "WATERLOO",
        "streetNameDisplayText": "BRICKER AVE, WATERLOO"
      }
    ]
  },
  {
    "postal": "N2L6C6",
    "result": [
      {
        "electoralDistricts": [
          {
            "election": null,
            "id": 114,
            "name": "Waterloo"
          }
        ],
        "pollDivisionIds": [
          10126539
        ],
        "postalCode": "N2L6C6",
        "streetName": "COLUMBIA",
        "streetDirectionId": "W",
        "streetTypeId": "ST",
        "placeName": "WATERLOO",
        "streetNameDisplayText": "COLUMBIA ST W, WATERLOO"
      }
    ]
  },
  {
    "postal": "N2L7N8",
    "result": []
  },
  {
    "postal": "N2L2Y3",
    "result": [
      {
        "electoralDistricts": [
          {
            "election": null,
            "id": 114,
            "name": "Waterloo"
          }
        ],
        "pollDivisionIds": [
          10126553
        ],
        "postalCode": "N2L2Y3",
        "streetName": "BRIDGEPORT",
        "streetDirectionId": "W",
        "streetTypeId": "RD",
        "placeName": "WATERLOO",
        "streetNameDisplayText": "BRIDGEPORT RD W, WATERLOO"
      }
    ]
  },
  {
    "postal": "N2L2R6",
    "result": []
  },
  {
    "postal": "N2L7N3",
    "result": []
  },
  {
    "postal": "N2L8J2",
    "result": []
  },
  {
    "postal": "N2L6A9",
    "result": [
      {
        "electoralDistricts": [
          {
            "election": null,
            "id": 114,
            "name": "Waterloo"
          }
        ],
        "pollDivisionIds": [
          10126549
        ],
        "postalCode": "N2L6A9",
        "streetName": "CRAIGSTON",
        "streetDirectionId": null,
        "streetTypeId": "PL",
        "placeName": "WATERLOO",
        "streetNameDisplayText": "CRAIGSTON PL, WATERLOO"
      }
    ]
  },
  {
    "postal": "N2L3V2",
    "result": [
      {
        "electoralDistricts": [
          {
            "election": null,
            "id": 114,
            "name": "Waterloo"
          }
        ],
        "pollDivisionIds": [
          10126547,
          10126541
        ],
        "postalCode": "N2L3V2",
        "streetName": "ALBERT",
        "streetDirectionId": null,
        "streetTypeId": "ST",
        "placeName": "WATERLOO",
        "streetNameDisplayText": "ALBERT ST, WATERLOO"
      }
    ]
  },
  {
    "postal": "N2L2N3",
    "result": [
      {
        "electoralDistricts": [
          {
            "election": null,
            "id": 114,
            "name": "Waterloo"
          }
        ],
        "pollDivisionIds": [
          10126545
        ],
        "postalCode": "N2L2N3",
        "streetName": "ROOSEVELT",
        "streetDirectionId": null,
        "streetTypeId": "AVE",
        "placeName": "WATERLOO",
        "streetNameDisplayText": "ROOSEVELT AVE, WATERLOO"
      }
    ]
  },
  {
    "postal": "N2L1S5",
    "result": [
      {
        "electoralDistricts": [
          {
            "election": null,
            "id": 114,
            "name": "Waterloo"
          }
        ],
        "pollDivisionIds": [
          10126549
        ],
        "postalCode": "N2L1S5",
        "streetName": "DAWSON",
        "streetDirectionId": null,
        "streetTypeId": "ST",
        "placeName": "WATERLOO",
        "streetNameDisplayText": "DAWSON ST, WATERLOO"
      }
    ]
  },
  {
    "postal": "N2L4T7",
    "result": [
      {
        "electoralDistricts": [
          {
            "election": null,
            "id": 114,
            "name": "Waterloo"
          }
        ],
        "pollDivisionIds": [
          10126542
        ],
        "postalCode": "N2L4T7",
        "streetName": "GLEN MANOR",
        "streetDirectionId": null,
        "streetTypeId": "BLVD",
        "placeName": "WATERLOO",
        "streetNameDisplayText": "GLEN MANOR BLVD, WATERLOO"
      }
    ]
  },
  {
    "postal": "N2L6Y7",
    "result": []
  },
  {
    "postal": "N2L0W7",
    "result": []
  },
  {
    "postal": "N2L2W9",
    "result": [
      {
        "electoralDistricts": [
          {
            "election": null,
            "id": 114,
            "name": "Waterloo"
          }
        ],
        "pollDivisionIds": [
          10126540
        ],
        "postalCode": "N2L2W9",
        "streetName": "AMOS",
        "streetDirectionId": null,
        "streetTypeId": "AVE",
        "placeName": "WATERLOO",
        "streetNameDisplayText": "AMOS AVE, WATERLOO"
      }
    ]
  },
  {
    "postal": "N2L8V0",
    "result": []
  },
  {
    "postal": "N2L0H4",
    "result": [
      {
        "electoralDistricts": [
          {
            "election": null,
            "id": 114,
            "name": "Waterloo"
          }
        ],
        "pollDivisionIds": [
          10126548
        ],
        "postalCode": "N2L0H4",
        "streetName": "LARCH",
        "streetDirectionId": null,
        "streetTypeId": "ST",
        "placeName": "WATERLOO",
        "streetNameDisplayText": "LARCH ST, WATERLOO"
      }
    ]
  },
  {
    "postal": "N2L2T1",
    "result": [
      {
        "electoralDistricts": [
          {
            "election": null,
            "id": 114,
            "name": "Waterloo"
          }
        ],
        "pollDivisionIds": [
          10126540
        ],
        "postalCode": "N2L2T1",
        "streetName": "TENNYSON",
        "streetDirectionId": null,
        "streetTypeId": "PL",
        "placeName": "WATERLOO",
        "streetNameDisplayText": "TENNYSON PL, WATERLOO"
      }
    ]
  },
  {
    "postal": "N2L1B1",
    "result": [
      {
        "electoralDistricts": [
          {
            "election": null,
            "id": 114,
            "name": "Waterloo"
          }
        ],
        "pollDivisionIds": [
          10126557
        ],
        "postalCode": "N2L1B1",
        "streetName": "JOHN",
        "streetDirectionId": "W",
        "streetTypeId": "ST",
        "placeName": "WATERLOO",
        "streetNameDisplayText": "JOHN ST W, WATERLOO"
      }
    ]
  },
  {
    "postal": "N2L8B6",
    "result": []
  },
  {
    "postal": "N2L6H1",
    "result": [
      {
        "electoralDistricts": [
          {
            "election": null,
            "id": 114,
            "name": "Waterloo"
          }
        ],
        "pollDivisionIds": [
          10126557
        ],
        "postalCode": "N2L6H1",
        "streetName": "ALLEN",
        "streetDirectionId": "W",
        "streetTypeId": "ST",
        "placeName": "WATERLOO",
        "streetNameDisplayText": "ALLEN ST W, WATERLOO"
      }
    ]
  },
  {
    "postal": "N2L8T8",
    "result": []
  },
  {
    "postal": "N2L0T4",
    "result": []
  },
  {
    "postal": "N2L2C4",
    "result": [
      {
        "electoralDistricts": [
          {
            "election": null,
            "id": 114,
            "name": "Waterloo"
          }
        ],
        "pollDivisionIds": [
          10126557
        ],
        "postalCode": "N2L2C4",
        "streetName": "AVONDALE",
        "streetDirectionId": "S",
        "streetTypeId": "AVE",
        "placeName": "WATERLOO",
        "streetNameDisplayText": "AVONDALE AVE S, WATERLOO"
      }
    ]
  },
  {
    "postal": "N2L8N3",
    "result": []
  },
  {
    "postal": "N2L4L8",
    "result": [
      {
        "electoralDistricts": [
          {
            "election": null,
            "id": 114,
            "name": "Waterloo"
          }
        ],
        "pollDivisionIds": [
          10126541
        ],
        "postalCode": "N2L4L8",
        "streetName": "TEAKWOOD",
        "streetDirectionId": null,
        "streetTypeId": "PL",
        "placeName": "WATERLOO",
        "streetNameDisplayText": "TEAKWOOD PL, WATERLOO"
      }
    ]
  },
  {
    "postal": "N2L2B5",
    "result": [
      {
        "electoralDistricts": [
          {
            "election": null,
            "id": 114,
            "name": "Waterloo"
          }
        ],
        "pollDivisionIds": [
          10126551
        ],
        "postalCode": "N2L2B5",
        "streetName": "AVONDALE",
        "streetDirectionId": "S",
        "streetTypeId": "AVE",
        "placeName": "WATERLOO",
        "streetNameDisplayText": "AVONDALE AVE S, WATERLOO"
      }
    ]
  },
  {
    "postal": "N2L3H1",
    "result": [
      {
        "electoralDistricts": [
          {
            "election": null,
            "id": 114,
            "name": "Waterloo"
          }
        ],
        "pollDivisionIds": [
          10142551
        ],
        "postalCode": "N2L3H1",
        "streetName": "BEECH",
        "streetDirectionId": null,
        "streetTypeId": "ST",
        "placeName": "WATERLOO",
        "streetNameDisplayText": "BEECH ST, WATERLOO"
      }
    ]
  },
  {
    "postal": "N2L4Y1",
    "result": [
      {
        "electoralDistricts": [
          {
            "election": null,
            "id": 114,
            "name": "Waterloo"
          }
        ],
        "pollDivisionIds": [
          10126541
        ],
        "postalCode": "N2L4Y1",
        "streetName": "DOGWOOD",
        "streetDirectionId": null,
        "streetTypeId": "LANE",
        "placeName": "WATERLOO",
        "streetNameDisplayText": "DOGWOOD LANE, WATERLOO"
      }
    ]
  },
  {
    "postal": "N2L7E2",
    "result": []
  },
  {
    "postal": "N2L2P5",
    "result": [
      {
        "electoralDistricts": [
          {
            "election": null,
            "id": 114,
            "name": "Waterloo"
          }
        ],
        "pollDivisionIds": [
          10126545
        ],
        "postalCode": "N2L2P5",
        "streetName": "NORWOOD",
        "streetDirectionId": null,
        "streetTypeId": "CRES",
        "placeName": "WATERLOO",
        "streetNameDisplayText": "NORWOOD CRES, WATERLOO"
      }
    ]
  },
  {
    "postal": "N2L8R7",
    "result": []
  },
  {
    "postal": "N2L9P1",
    "result": []
  },
  {
    "postal": "N2L3B8",
    "result": [
      {
        "electoralDistricts": [
          {
            "election": null,
            "id": 114,
            "name": "Waterloo"
          }
        ],
        "pollDivisionIds": [
          10126553
        ],
        "postalCode": "N2L3B8",
        "streetName": "SEAGRAM",
        "streetDirectionId": null,
        "streetTypeId": "DR",
        "placeName": "WATERLOO",
        "streetNameDisplayText": "SEAGRAM DR, WATERLOO"
      }
    ]
  },
  {
    "postal": "N2L3P7",
    "result": [
      {
        "electoralDistricts": [
          {
            "election": null,
            "id": 114,
            "name": "Waterloo"
          }
        ],
        "pollDivisionIds": [
          10126547
        ],
        "postalCode": "N2L3P7",
        "streetName": "HAZEL",
        "streetDirectionId": null,
        "streetTypeId": "ST",
        "placeName": "WATERLOO",
        "streetNameDisplayText": "HAZEL ST, WATERLOO"
      }
    ]
  },
  {
    "postal": "N2L9B2",
    "result": []
  },
  {
    "postal": "N2L6Z3",
    "result": []
  },
  {
    "postal": "N2L4N5",
    "result": [
      {
        "electoralDistricts": [
          {
            "election": null,
            "id": 114,
            "name": "Waterloo"
          }
        ],
        "pollDivisionIds": [
          10126542
        ],
        "postalCode": "N2L4N5",
        "streetName": "EDENBROOK",
        "streetDirectionId": null,
        "streetTypeId": "PL",
        "placeName": "WATERLOO",
        "streetNameDisplayText": "EDENBROOK PL, WATERLOO"
      }
    ]
  },
  {
    "postal": "N2L8T3",
    "result": []
  },
  {
    "postal": "N2L1V2",
    "result": [
      {
        "electoralDistricts": [
          {
            "election": null,
            "id": 114,
            "name": "Waterloo"
          }
        ],
        "pollDivisionIds": [
          10126551
        ],
        "postalCode": "N2L1V2",
        "streetName": "ERB",
        "streetDirectionId": "W",
        "streetTypeId": "ST",
        "placeName": "WATERLOO",
        "streetNameDisplayText": "ERB ST W, WATERLOO"
      }
    ]
  },
  {
    "postal": "N2L1Y0",
    "result": []
  },
  {
    "postal": "N2L3G6",
    "result": [
      {
        "electoralDistricts": [
          {
            "election": null,
            "id": 114,
            "name": "Waterloo"
          }
        ],
        "pollDivisionIds": [
          10126546
        ],
        "postalCode": "N2L3G6",
        "streetName": "WATERLOO UNIV",
        "streetDirectionId": null,
        "streetTypeId": "CAMPUS",
        "placeName": "WATERLOO",
        "streetNameDisplayText": "WATERLOO UNIV CAMPUS, WATERLOO"
      },
      {
        "electoralDistricts": [
          {
            "election": null,
            "id": 114,
            "name": "Waterloo"
          }
        ],
        "pollDivisionIds": [
          10126539
        ],
        "postalCode": "N2L3G6",
        "streetName": "WESTMOUNT",
        "streetDirectionId": "N",
        "streetTypeId": "RD",
        "placeName": "WATERLOO",
        "streetNameDisplayText": "WESTMOUNT RD N, WATERLOO"
      }
    ]
  },
  {
    "postal": "N2L3H7",
    "result": [
      {
        "electoralDistricts": [
          {
            "election": null,
            "id": 114,
            "name": "Waterloo"
          }
        ],
        "pollDivisionIds": [
          10142551
        ],
        "postalCode": "N2L3H7",
        "streetName": "HICKORY",
        "streetDirectionId": "W",
        "streetTypeId": "ST",
        "placeName": "WATERLOO",
        "streetNameDisplayText": "HICKORY ST W, WATERLOO"
      }
    ]
  },
  {
    "postal": "N2L7X8",
    "result": []
  },
  {
    "postal": "N2L0C7",
    "result": []
  },
  {
    "postal": "N2L0W9",
    "result": []
  },
  {
    "postal": "N2L8E6",
    "result": []
  },
  {
    "postal": "N2L9Z8",
    "result": []
  },
  {
    "postal": "N2L3P4",
    "result": [
      {
        "electoralDistricts": [
          {
            "election": null,
            "id": 114,
            "name": "Waterloo"
          }
        ],
        "pollDivisionIds": [
          10142551
        ],
        "postalCode": "N2L3P4",
        "streetName": "HAZEL",
        "streetDirectionId": null,
        "streetTypeId": "ST",
        "placeName": "WATERLOO",
        "streetNameDisplayText": "HAZEL ST, WATERLOO"
      }
    ]
  },
  {
    "postal": "N2L6L8",
    "result": [
      {
        "electoralDistricts": [
          {
            "election": null,
            "id": 114,
            "name": "Waterloo"
          }
        ],
        "pollDivisionIds": [
          10126557
        ],
        "postalCode": "N2L6L8",
        "streetName": "FREEMONT",
        "streetDirectionId": null,
        "streetTypeId": "ST",
        "placeName": "WATERLOO",
        "streetNameDisplayText": "FREEMONT ST, WATERLOO"
      }
    ]
  },
  {
    "postal": "N2L2R4",
    "result": [
      {
        "electoralDistricts": [
          {
            "election": null,
            "id": 114,
            "name": "Waterloo"
          }
        ],
        "pollDivisionIds": [
          10126553
        ],
        "postalCode": "N2L2R4",
        "streetName": "WESTMOUNT",
        "streetDirectionId": "N",
        "streetTypeId": "RD",
        "placeName": "WATERLOO",
        "streetNameDisplayText": "WESTMOUNT RD N, WATERLOO"
      }
    ]
  },
  {
    "postal": "N2L2W1",
    "result": [
      {
        "electoralDistricts": [
          {
            "election": null,
            "id": 114,
            "name": "Waterloo"
          }
        ],
        "pollDivisionIds": [
          10126540
        ],
        "postalCode": "N2L2W1",
        "streetName": "HIAWATHA",
        "streetDirectionId": null,
        "streetTypeId": "DR",
        "placeName": "WATERLOO",
        "streetNameDisplayText": "HIAWATHA DR, WATERLOO"
      }
    ]
  },
  {
    "postal": "N2L9H8",
    "result": []
  },
  {
    "postal": "N2L8X9",
    "result": []
  },
  {
    "postal": "N2L7H4",
    "result": []
  },
  {
    "postal": "N2L3J1",
    "result": [
      {
        "electoralDistricts": [
          {
            "election": null,
            "id": 114,
            "name": "Waterloo"
          }
        ],
        "pollDivisionIds": [
          10142551
        ],
        "postalCode": "N2L3J1",
        "streetName": "HICKORY",
        "streetDirectionId": "W",
        "streetTypeId": "ST",
        "placeName": "WATERLOO",
        "streetNameDisplayText": "HICKORY ST W, WATERLOO"
      }
    ]
  },
  {
    "postal": "N2L1P4",
    "result": [
      {
        "electoralDistricts": [
          {
            "election": null,
            "id": 114,
            "name": "Waterloo"
          }
        ],
        "pollDivisionIds": [
          10126549
        ],
        "postalCode": "N2L1P4",
        "streetName": "LOURDES",
        "streetDirectionId": null,
        "streetTypeId": "ST",
        "placeName": "WATERLOO",
        "streetNameDisplayText": "LOURDES ST, WATERLOO"
      }
    ]
  },
  {
    "postal": "N2L2A3",
    "result": []
  },
  {
    "postal": "N2L0Z1",
    "result": []
  },
  {
    "postal": "N2L1C1",
    "result": [
      {
        "electoralDistricts": [
          {
            "election": null,
            "id": 114,
            "name": "Waterloo"
          }
        ],
        "pollDivisionIds": [
          10126557
        ],
        "postalCode": "N2L1C1",
        "streetName": "JOHN",
        "streetDirectionId": "W",
        "streetTypeId": "ST",
        "placeName": "WATERLOO",
        "streetNameDisplayText": "JOHN ST W, WATERLOO"
      }
    ]
  },
  {
    "postal": "N2L0H3",
    "result": [
      {
        "electoralDistricts": [
          {
            "election": null,
            "id": 114,
            "name": "Waterloo"
          }
        ],
        "pollDivisionIds": [
          10126548
        ],
        "postalCode": "N2L0H3",
        "streetName": "SUNVIEW",
        "streetDirectionId": null,
        "streetTypeId": "ST",
        "placeName": "WATERLOO",
        "streetNameDisplayText": "SUNVIEW ST, WATERLOO"
      },
      {
        "electoralDistricts": [
          {
            "election": null,
            "id": 114,
            "name": "Waterloo"
          }
        ],
        "pollDivisionIds": [
          10126539
        ],
        "postalCode": "N2L0H3",
        "streetName": "UNIVERSITY",
        "streetDirectionId": "W",
        "streetTypeId": "AVE",
        "placeName": "WATERLOO",
        "streetNameDisplayText": "UNIVERSITY AVE W, WATERLOO"
      }
    ]
  },
  {
    "postal": "N2L7B0",
    "result": []
  },
  {
    "postal": "N2L5K2",
    "result": [
      {
        "electoralDistricts": [
          {
            "election": null,
            "id": 114,
            "name": "Waterloo"
          }
        ],
        "pollDivisionIds": [
          10126540
        ],
        "postalCode": "N2L5K2",
        "streetName": "AMOS",
        "streetDirectionId": null,
        "streetTypeId": "AVE",
        "placeName": "WATERLOO",
        "streetNameDisplayText": "AMOS AVE, WATERLOO"
      }
    ]
  },
  {
    "postal": "N2L1E9",
    "result": [
      {
        "electoralDistricts": [
          {
            "election": null,
            "id": 114,
            "name": "Waterloo"
          }
        ],
        "pollDivisionIds": [
          10126557
        ],
        "postalCode": "N2L1E9",
        "streetName": "ALLEN",
        "streetDirectionId": "W",
        "streetTypeId": "ST",
        "placeName": "WATERLOO",
        "streetNameDisplayText": "ALLEN ST W, WATERLOO"
      }
    ]
  },
  {
    "postal": "N2L9W7",
    "result": []
  },
  {
    "postal": "N2L5W6",
    "result": [
      {
        "electoralDistricts": [
          {
            "election": null,
            "id": 114,
            "name": "Waterloo"
          }
        ],
        "pollDivisionIds": [
          10126552
        ],
        "postalCode": "N2L5W6",
        "streetName": "KING",
        "streetDirectionId": "N",
        "streetTypeId": "ST",
        "placeName": "WATERLOO",
        "streetNameDisplayText": "KING ST N, WATERLOO"
      }
    ]
  },
  {
    "postal": "N2L6S6",
    "result": []
  },
  {
    "postal": "N2L2P8",
    "result": [
      {
        "electoralDistricts": [
          {
            "election": null,
            "id": 114,
            "name": "Waterloo"
          }
        ],
        "pollDivisionIds": [
          10126544
        ],
        "postalCode": "N2L2P8",
        "streetName": "WARRINGTON",
        "streetDirectionId": null,
        "streetTypeId": "DR",
        "placeName": "WATERLOO",
        "streetNameDisplayText": "WARRINGTON DR, WATERLOO"
      }
    ]
  },
  {
    "postal": "N2L4P8",
    "result": [
      {
        "electoralDistricts": [
          {
            "election": null,
            "id": 114,
            "name": "Waterloo"
          }
        ],
        "pollDivisionIds": [
          10126542
        ],
        "postalCode": "N2L4P8",
        "streetName": "HUNTINGDON",
        "streetDirectionId": null,
        "streetTypeId": "CRES",
        "placeName": "WATERLOO",
        "streetNameDisplayText": "HUNTINGDON CRES, WATERLOO"
      }
    ]
  },
  {
    "postal": "N2L0V9",
    "result": []
  },
  {
    "postal": "N2L5Y2",
    "result": []
  },
  {
    "postal": "N2L7Z7",
    "result": []
  },
  {
    "postal": "N2L6Y8",
    "result": []
  },
  {
    "postal": "N2L2G7",
    "result": [
      {
        "electoralDistricts": [
          {
            "election": null,
            "id": 114,
            "name": "Waterloo"
          }
        ],
        "pollDivisionIds": [
          10126551
        ],
        "postalCode": "N2L2G7",
        "streetName": "ROSLIN",
        "streetDirectionId": "S",
        "streetTypeId": "AVE",
        "placeName": "WATERLOO",
        "streetNameDisplayText": "ROSLIN AVE S, WATERLOO"
      }
    ]
  },
  {
    "postal": "N2L8C1",
    "result": []
  },
  {
    "postal": "N2L5C5",
    "result": [
      {
        "electoralDistricts": [
          {
            "election": null,
            "id": 114,
            "name": "Waterloo"
          }
        ],
        "pollDivisionIds": [
          10126533,
          10126540
        ],
        "postalCode": "N2L5C5",
        "streetName": "MCDOUGALL",
        "streetDirectionId": null,
        "streetTypeId": "RD",
        "placeName": "WATERLOO",
        "streetNameDisplayText": "MCDOUGALL RD, WATERLOO"
      }
    ]
  },
  {
    "postal": "N2L2X8",
    "result": [
      {
        "electoralDistricts": [
          {
            "election": null,
            "id": 114,
            "name": "Waterloo"
          }
        ],
        "pollDivisionIds": [
          10126553
        ],
        "postalCode": "N2L2X8",
        "streetName": "PRINCESS",
        "streetDirectionId": "W",
        "streetTypeId": "ST",
        "placeName": "WATERLOO",
        "streetNameDisplayText": "PRINCESS ST W, WATERLOO"
      }
    ]
  },
  {
    "postal": "N2L1W5",
    "result": [
      {
        "electoralDistricts": [
          {
            "election": null,
            "id": 114,
            "name": "Waterloo"
          }
        ],
        "pollDivisionIds": [
          10126549
        ],
        "postalCode": "N2L1W5",
        "streetName": "ERB",
        "streetDirectionId": "W",
        "streetTypeId": "ST",
        "placeName": "WATERLOO",
        "streetNameDisplayText": "ERB ST W, WATERLOO"
      }
    ]
  },
  {
    "postal": "N2L7G0",
    "result": []
  },
  {
    "postal": "N2L8J8",
    "result": []
  },
  {
    "postal": "N2L3Y0",
    "result": []
  },
  {
    "postal": "N2L9T7",
    "result": []
  },
  {
    "postal": "N2L5P4",
    "result": [
      {
        "electoralDistricts": [
          {
            "election": null,
            "id": 114,
            "name": "Waterloo"
          }
        ],
        "pollDivisionIds": [
          10126541
        ],
        "postalCode": "N2L5P4",
        "streetName": "CANEWOOD",
        "streetDirectionId": null,
        "streetTypeId": "CRES",
        "placeName": "WATERLOO",
        "streetNameDisplayText": "CANEWOOD CRES, WATERLOO"
      }
    ]
  },
  {
    "postal": "N2L4B0",
    "result": []
  },
  {
    "postal": "N2L9N8",
    "result": []
  },
  {
    "postal": "N2L4A7",
    "result": [
      {
        "electoralDistricts": [
          {
            "election": null,
            "id": 114,
            "name": "Waterloo"
          }
        ],
        "pollDivisionIds": [
          10126550
        ],
        "postalCode": "N2L4A7",
        "streetName": "PARKWOOD",
        "streetDirectionId": null,
        "streetTypeId": "CRT",
        "placeName": "WATERLOO",
        "streetNameDisplayText": "PARKWOOD CRT, WATERLOO"
      }
    ]
  },
  {
    "postal": "N2L4H9",
    "result": [
      {
        "electoralDistricts": [
          {
            "election": null,
            "id": 114,
            "name": "Waterloo"
          }
        ],
        "pollDivisionIds": [
          10126541
        ],
        "postalCode": "N2L4H9",
        "streetName": "GLEN FORREST",
        "streetDirectionId": null,
        "streetTypeId": "BLVD",
        "placeName": "WATERLOO",
        "streetNameDisplayText": "GLEN FORREST BLVD, WATERLOO"
      }
    ]
  },
  {
    "postal": "N2L6X1",
    "result": []
  },
  {
    "postal": "N2L9Y7",
    "result": []
  },
  {
    "postal": "N2L2Y5",
    "result": [
      {
        "electoralDistricts": [
          {
            "election": null,
            "id": 114,
            "name": "Waterloo"
          }
        ],
        "pollDivisionIds": [
          10126553
        ],
        "postalCode": "N2L2Y5",
        "streetName": "CAROLINE",
        "streetDirectionId": "N",
        "streetTypeId": "ST",
        "placeName": "WATERLOO",
        "streetNameDisplayText": "CAROLINE ST N, WATERLOO"
      }
    ]
  },
  {
    "postal": "N2L8L7",
    "result": []
  },
  {
    "postal": "N2L2A8",
    "result": [
      {
        "electoralDistricts": [
          {
            "election": null,
            "id": 114,
            "name": "Waterloo"
          }
        ],
        "pollDivisionIds": [
          10126557
        ],
        "postalCode": "N2L2A8",
        "streetName": "BELMONT",
        "streetDirectionId": null,
        "streetTypeId": "AVE",
        "placeName": "WATERLOO",
        "streetNameDisplayText": "BELMONT AVE, WATERLOO"
      }
    ]
  },
  {
    "postal": "N2L2K9",
    "result": [
      {
        "electoralDistricts": [
          {
            "election": null,
            "id": 114,
            "name": "Waterloo"
          }
        ],
        "pollDivisionIds": [
          10126549
        ],
        "postalCode": "N2L2K9",
        "streetName": "WESTMOUNT",
        "streetDirectionId": "S",
        "streetTypeId": "RD",
        "placeName": "WATERLOO",
        "streetNameDisplayText": "WESTMOUNT RD S, WATERLOO"
      }
    ]
  },
  {
    "postal": "N2L3E5",
    "result": [
      {
        "electoralDistricts": [
          {
            "election": null,
            "id": 114,
            "name": "Waterloo"
          }
        ],
        "pollDivisionIds": [
          10126553
        ],
        "postalCode": "N2L3E5",
        "streetName": "UNIVERSITY",
        "streetDirectionId": "W",
        "streetTypeId": "AVE",
        "placeName": "WATERLOO",
        "streetNameDisplayText": "UNIVERSITY AVE W, WATERLOO"
      }
    ]
  },
  {
    "postal": "N2L8N6",
    "result": []
  },
  {
    "postal": "N2L8J4",
    "result": []
  },
  {
    "postal": "N2L4R7",
    "result": [
      {
        "electoralDistricts": [
          {
            "election": null,
            "id": 114,
            "name": "Waterloo"
          }
        ],
        "pollDivisionIds": [
          10126542,
          10126533
        ],
        "postalCode": "N2L4R7",
        "streetName": "BROOKHAVEN",
        "streetDirectionId": null,
        "streetTypeId": "CRES",
        "placeName": "WATERLOO",
        "streetNameDisplayText": "BROOKHAVEN CRES, WATERLOO"
      }
    ]
  },
  {
    "postal": "N2L9K1",
    "result": []
  },
  {
    "postal": "N2L8E1",
    "result": []
  },
  {
    "postal": "N2L0R1",
    "result": []
  },
  {
    "postal": "N2L4J3",
    "result": [
      {
        "electoralDistricts": [
          {
            "election": null,
            "id": 114,
            "name": "Waterloo"
          }
        ],
        "pollDivisionIds": [
          10126541
        ],
        "postalCode": "N2L4J3",
        "streetName": "GLEN FORREST",
        "streetDirectionId": null,
        "streetTypeId": "BLVD",
        "placeName": "WATERLOO",
        "streetNameDisplayText": "GLEN FORREST BLVD, WATERLOO"
      }
    ]
  },
  {
    "postal": "N2L7E7",
    "result": []
  },
  {
    "postal": "N2L0J0",
    "result": []
  },
  {
    "postal": "N2L7R8",
    "result": []
  },
  {
    "postal": "N2L9X0",
    "result": []
  },
  {
    "postal": "N2L7P6",
    "result": []
  },
  {
    "postal": "N2L0R7",
    "result": []
  },
  {
    "postal": "N2L5W1",
    "result": []
  },
  {
    "postal": "N2L0K4",
    "result": [
      {
        "electoralDistricts": [
          {
            "election": null,
            "id": 114,
            "name": "Waterloo"
          }
        ],
        "pollDivisionIds": [
          10142551
        ],
        "postalCode": "N2L0K4",
        "streetName": "HICKORY",
        "streetDirectionId": "W",
        "streetTypeId": "ST",
        "placeName": "WATERLOO",
        "streetNameDisplayText": "HICKORY ST W, WATERLOO"
      }
    ]
  },
  {
    "postal": "N2L7N9",
    "result": []
  },
  {
    "postal": "N2L1N0",
    "result": []
  },
  {
    "postal": "N2L6P3",
    "result": [
      {
        "electoralDistricts": [
          {
            "election": null,
            "id": 114,
            "name": "Waterloo"
          }
        ],
        "pollDivisionIds": [
          10126539
        ],
        "postalCode": "N2L6P3",
        "streetName": "COLUMBIA",
        "streetDirectionId": "W",
        "streetTypeId": "ST",
        "placeName": "WATERLOO",
        "streetNameDisplayText": "COLUMBIA ST W, WATERLOO"
      }
    ]
  },
  {
    "postal": "N2L5A1",
    "result": [
      {
        "electoralDistricts": [
          {
            "election": null,
            "id": 114,
            "name": "Waterloo"
          }
        ],
        "pollDivisionIds": [
          10126542
        ],
        "postalCode": "N2L5A1",
        "streetName": "ROLLING HILLS",
        "streetDirectionId": null,
        "streetTypeId": "DR",
        "placeName": "WATERLOO",
        "streetNameDisplayText": "ROLLING HILLS DR, WATERLOO"
      }
    ]
  },
  {
    "postal": "N2L9M9",
    "result": []
  },
  {
    "postal": "N2L7T6",
    "result": []
  },
  {
    "postal": "N2L3X0",
    "result": []
  },
  {
    "postal": "N2L2T0",
    "result": []
  },
  {
    "postal": "N2L5X9",
    "result": [
      {
        "electoralDistricts": [
          {
            "election": null,
            "id": 114,
            "name": "Waterloo"
          }
        ],
        "pollDivisionIds": [
          10126545
        ],
        "postalCode": "N2L5X9",
        "streetName": "WESTRIDGE",
        "streetDirectionId": null,
        "streetTypeId": "PL",
        "placeName": "WATERLOO",
        "streetNameDisplayText": "WESTRIDGE PL, WATERLOO"
      }
    ]
  },
  {
    "postal": "N2L2R3",
    "result": [
      {
        "electoralDistricts": [
          {
            "election": null,
            "id": 114,
            "name": "Waterloo"
          }
        ],
        "pollDivisionIds": [
          10126551
        ],
        "postalCode": "N2L2R3",
        "streetName": "WESTMOUNT",
        "streetDirectionId": "N",
        "streetTypeId": "RD",
        "placeName": "WATERLOO",
        "streetNameDisplayText": "WESTMOUNT RD N, WATERLOO"
      },
      {
        "electoralDistricts": [
          {
            "election": null,
            "id": 114,
            "name": "Waterloo"
          }
        ],
        "pollDivisionIds": [
          10126551
        ],
        "postalCode": "N2L2R3",
        "streetName": "WESTMOUNT RD.",
        "streetDirectionId": "N",
        "streetTypeId": "RD",
        "placeName": "WATERLOO",
        "streetNameDisplayText": "WESTMOUNT RD. RD N, WATERLOO"
      }
    ]
  },
  {
    "postal": "N2L5N2",
    "result": [
      {
        "electoralDistricts": [
          {
            "election": null,
            "id": 114,
            "name": "Waterloo"
          }
        ],
        "pollDivisionIds": [
          10126540
        ],
        "postalCode": "N2L5N2",
        "streetName": "MCCARRON",
        "streetDirectionId": null,
        "streetTypeId": "CRES",
        "placeName": "WATERLOO",
        "streetNameDisplayText": "MCCARRON CRES, WATERLOO"
      }
    ]
  },
  {
    "postal": "N2L4Y7",
    "result": [
      {
        "electoralDistricts": [
          {
            "election": null,
            "id": 114,
            "name": "Waterloo"
          }
        ],
        "pollDivisionIds": [
          10126544
        ],
        "postalCode": "N2L4Y7",
        "streetName": "THORNDALE",
        "streetDirectionId": null,
        "streetTypeId": "DR",
        "placeName": "WATERLOO",
        "streetNameDisplayText": "THORNDALE DR, WATERLOO"
      }
    ]
  },
  {
    "postal": "N2L7M0",
    "result": []
  },
  {
    "postal": "N2L8P3",
    "result": []
  },
  {
    "postal": "N2L3N3",
    "result": [
      {
        "electoralDistricts": [
          {
            "election": null,
            "id": 114,
            "name": "Waterloo"
          }
        ],
        "pollDivisionIds": [
          10126554
        ],
        "postalCode": "N2L3N3",
        "streetName": "CLAYFIELD",
        "streetDirectionId": null,
        "streetTypeId": "AVE",
        "placeName": "WATERLOO",
        "streetNameDisplayText": "CLAYFIELD AVE, WATERLOO"
      }
    ]
  },
  {
    "postal": "N2L7S3",
    "result": []
  },
  {
    "postal": "N2L3V9",
    "result": [
      {
        "electoralDistricts": [
          {
            "election": null,
            "id": 114,
            "name": "Waterloo"
          }
        ],
        "pollDivisionIds": [
          10126548
        ],
        "postalCode": "N2L3V9",
        "streetName": "SUNVIEW",
        "streetDirectionId": null,
        "streetTypeId": "ST",
        "placeName": "WATERLOO",
        "streetNameDisplayText": "SUNVIEW ST, WATERLOO"
      }
    ]
  },
  {
    "postal": "N2L9N7",
    "result": []
  },
  {
    "postal": "N2L0G4",
    "result": [
      {
        "electoralDistricts": [
          {
            "election": null,
            "id": 114,
            "name": "Waterloo"
          }
        ],
        "pollDivisionIds": [
          10142551
        ],
        "postalCode": "N2L0G4",
        "streetName": "SPRUCE",
        "streetDirectionId": null,
        "streetTypeId": "ST",
        "placeName": "WATERLOO",
        "streetNameDisplayText": "SPRUCE ST, WATERLOO"
      }
    ]
  },
  {
    "postal": "N2L2E2",
    "result": [
      {
        "electoralDistricts": [
          {
            "election": null,
            "id": 114,
            "name": "Waterloo"
          }
        ],
        "pollDivisionIds": [
          10126551
        ],
        "postalCode": "N2L2E2",
        "streetName": "DUNBAR",
        "streetDirectionId": "S",
        "streetTypeId": "RD",
        "placeName": "WATERLOO",
        "streetNameDisplayText": "DUNBAR RD S, WATERLOO"
      }
    ]
  },
  {
    "postal": "N2L7W8",
    "result": []
  },
  {
    "postal": "N2L7M5",
    "result": []
  },
  {
    "postal": "N2L5W8",
    "result": [
      {
        "electoralDistricts": [
          {
            "election": null,
            "id": 114,
            "name": "Waterloo"
          }
        ],
        "pollDivisionIds": [
          10126540
        ],
        "postalCode": "N2L5W8",
        "streetName": "BEECHLAWN",
        "streetDirectionId": null,
        "streetTypeId": "DR",
        "placeName": "WATERLOO",
        "streetNameDisplayText": "BEECHLAWN DR, WATERLOO"
      }
    ]
  },
  {
    "postal": "N2L5E5",
    "result": [
      {
        "electoralDistricts": [
          {
            "election": null,
            "id": 114,
            "name": "Waterloo"
          }
        ],
        "pollDivisionIds": [
          10126545
        ],
        "postalCode": "N2L5E5",
        "streetName": "HELENE",
        "streetDirectionId": null,
        "streetTypeId": "CRES",
        "placeName": "WATERLOO",
        "streetNameDisplayText": "HELENE CRES, WATERLOO"
      }
    ]
  },
  {
    "postal": "N2L1P9",
    "result": [
      {
        "electoralDistricts": [
          {
            "election": null,
            "id": 114,
            "name": "Waterloo"
          }
        ],
        "pollDivisionIds": [
          10126549
        ],
        "postalCode": "N2L1P9",
        "streetName": "ASHTON",
        "streetDirectionId": null,
        "streetTypeId": "CRES",
        "placeName": "WATERLOO",
        "streetNameDisplayText": "ASHTON CRES, WATERLOO"
      }
    ]
  },
  {
    "postal": "N2L8V8",
    "result": []
  },
  {
    "postal": "N2L9G8",
    "result": []
  },
  {
    "postal": "N2L8H9",
    "result": []
  },
  {
    "postal": "N2L1Z1",
    "result": []
  },
  {
    "postal": "N2L8M3",
    "result": []
  },
  {
    "postal": "N2L5H6",
    "result": [
      {
        "electoralDistricts": [
          {
            "election": null,
            "id": 114,
            "name": "Waterloo"
          }
        ],
        "pollDivisionIds": [
          10126544
        ],
        "postalCode": "N2L5H6",
        "streetName": "THORNDALE",
        "streetDirectionId": null,
        "streetTypeId": "DR",
        "placeName": "WATERLOO",
        "streetNameDisplayText": "THORNDALE DR, WATERLOO"
      }
    ]
  },
  {
    "postal": "N2L7W7",
    "result": []
  },
  {
    "postal": "N2L4L0",
    "result": []
  },
  {
    "postal": "N2L2N1",
    "result": [
      {
        "electoralDistricts": [
          {
            "election": null,
            "id": 114,
            "name": "Waterloo"
          }
        ],
        "pollDivisionIds": [
          10126545
        ],
        "postalCode": "N2L2N1",
        "streetName": "ROOSEVELT",
        "streetDirectionId": null,
        "streetTypeId": "AVE",
        "placeName": "WATERLOO",
        "streetNameDisplayText": "ROOSEVELT AVE, WATERLOO"
      }
    ]
  },
  {
    "postal": "N2L2H4",
    "result": [
      {
        "electoralDistricts": [
          {
            "election": null,
            "id": 114,
            "name": "Waterloo"
          }
        ],
        "pollDivisionIds": [
          10126557
        ],
        "postalCode": "N2L2H4",
        "streetName": "ROSLIN",
        "streetDirectionId": "S",
        "streetTypeId": "AVE",
        "placeName": "WATERLOO",
        "streetNameDisplayText": "ROSLIN AVE S, WATERLOO"
      }
    ]
  },
  {
    "postal": "N2L5C8",
    "result": [
      {
        "electoralDistricts": [
          {
            "election": null,
            "id": 114,
            "name": "Waterloo"
          }
        ],
        "pollDivisionIds": [
          10126547
        ],
        "postalCode": "N2L5C8",
        "streetName": "GLENELM",
        "streetDirectionId": null,
        "streetTypeId": "CRES",
        "placeName": "WATERLOO",
        "streetNameDisplayText": "GLENELM CRES, WATERLOO"
      }
    ]
  },
  {
    "postal": "N2L8B0",
    "result": []
  },
  {
    "postal": "N2L1T4",
    "result": [
      {
        "electoralDistricts": [
          {
            "election": null,
            "id": 114,
            "name": "Waterloo"
          }
        ],
        "pollDivisionIds": [
          10126551
        ],
        "postalCode": "N2L1T4",
        "streetName": "ERB",
        "streetDirectionId": "W",
        "streetTypeId": "ST",
        "placeName": "WATERLOO",
        "streetNameDisplayText": "ERB ST W, WATERLOO"
      }
    ]
  },
  {
    "postal": "N2L7N7",
    "result": []
  },
  {
    "postal": "N2L4L3",
    "result": [
      {
        "electoralDistricts": [
          {
            "election": null,
            "id": 114,
            "name": "Waterloo"
          }
        ],
        "pollDivisionIds": [
          10126541
        ],
        "postalCode": "N2L4L3",
        "streetName": "THORNCREST",
        "streetDirectionId": null,
        "streetTypeId": "DR",
        "placeName": "WATERLOO",
        "streetNameDisplayText": "THORNCREST DR, WATERLOO"
      }
    ]
  },
  {
    "postal": "N2L2N2",
    "result": [
      {
        "electoralDistricts": [
          {
            "election": null,
            "id": 114,
            "name": "Waterloo"
          }
        ],
        "pollDivisionIds": [
          10126545
        ],
        "postalCode": "N2L2N2",
        "streetName": "ROOSEVELT",
        "streetDirectionId": null,
        "streetTypeId": "AVE",
        "placeName": "WATERLOO",
        "streetNameDisplayText": "ROOSEVELT AVE, WATERLOO"
      }
    ]
  },
  {
    "postal": "N2L4N8",
    "result": [
      {
        "electoralDistricts": [
          {
            "election": null,
            "id": 114,
            "name": "Waterloo"
          }
        ],
        "pollDivisionIds": [
          10126542
        ],
        "postalCode": "N2L4N8",
        "streetName": "HAVELOCK",
        "streetDirectionId": null,
        "streetTypeId": "DR",
        "placeName": "WATERLOO",
        "streetNameDisplayText": "HAVELOCK DR, WATERLOO"
      }
    ]
  },
  {
    "postal": "N2L3M5",
    "result": [
      {
        "electoralDistricts": [
          {
            "election": null,
            "id": 114,
            "name": "Waterloo"
          }
        ],
        "pollDivisionIds": [
          10142551
        ],
        "postalCode": "N2L3M5",
        "streetName": "SPRUCE",
        "streetDirectionId": null,
        "streetTypeId": "ST",
        "placeName": "WATERLOO",
        "streetNameDisplayText": "SPRUCE ST, WATERLOO"
      }
    ]
  },
  {
    "postal": "N2L6H7",
    "result": [
      {
        "electoralDistricts": [
          {
            "election": null,
            "id": 114,
            "name": "Waterloo"
          }
        ],
        "pollDivisionIds": [
          10126550
        ],
        "postalCode": "N2L6H7",
        "streetName": "DUTTON",
        "streetDirectionId": null,
        "streetTypeId": "DR",
        "placeName": "WATERLOO",
        "streetNameDisplayText": "DUTTON DR, WATERLOO"
      }
    ]
  },
  {
    "postal": "N2L8Y8",
    "result": []
  },
  {
    "postal": "N2L5R9",
    "result": [
      {
        "electoralDistricts": [
          {
            "election": null,
            "id": 114,
            "name": "Waterloo"
          }
        ],
        "pollDivisionIds": [
          10126547
        ],
        "postalCode": "N2L5R9",
        "streetName": "PHILLIP",
        "streetDirectionId": null,
        "streetTypeId": "ST",
        "placeName": "WATERLOO",
        "streetNameDisplayText": "PHILLIP ST, WATERLOO"
      }
    ]
  },
  {
    "postal": "N2L8G3",
    "result": []
  },
  {
    "postal": "N2L4N7",
    "result": [
      {
        "electoralDistricts": [
          {
            "election": null,
            "id": 114,
            "name": "Waterloo"
          }
        ],
        "pollDivisionIds": [
          10126542
        ],
        "postalCode": "N2L4N7",
        "streetName": "HAVELOCK",
        "streetDirectionId": null,
        "streetTypeId": "DR",
        "placeName": "WATERLOO",
        "streetNameDisplayText": "HAVELOCK DR, WATERLOO"
      }
    ]
  },
  {
    "postal": "N2L0B9",
    "result": []
  },
  {
    "postal": "N2L9K7",
    "result": []
  },
  {
    "postal": "N2L9K9",
    "result": []
  },
  {
    "postal": "N2L3Z2",
    "result": [
      {
        "electoralDistricts": [
          {
            "election": null,
            "id": 114,
            "name": "Waterloo"
          }
        ],
        "pollDivisionIds": [
          10126550
        ],
        "postalCode": "N2L3Z2",
        "streetName": "SMALLWOOD",
        "streetDirectionId": null,
        "streetTypeId": "DR",
        "placeName": "WATERLOO",
        "streetNameDisplayText": "SMALLWOOD DR, WATERLOO"
      }
    ]
  },
  {
    "postal": "N2L6W7",
    "result": []
  },
  {
    "postal": "N2L0P1",
    "result": []
  },
  {
    "postal": "N2L3A0",
    "result": []
  },
  {
    "postal": "N2L8L9",
    "result": []
  },
  {
    "postal": "N2L6X0",
    "result": []
  },
  {
    "postal": "N2L3E9",
    "result": [
      {
        "electoralDistricts": [
          {
            "election": null,
            "id": 114,
            "name": "Waterloo"
          }
        ],
        "pollDivisionIds": [
          10126548,
          10126553,
          10142551
        ],
        "postalCode": "N2L3E9",
        "streetName": "UNIVERSITY",
        "streetDirectionId": "W",
        "streetTypeId": "AVE",
        "placeName": "WATERLOO",
        "streetNameDisplayText": "UNIVERSITY AVE W, WATERLOO"
      }
    ]
  },
  {
    "postal": "N2L0S5",
    "result": []
  },
  {
    "postal": "N2L1A2",
    "result": [
      {
        "electoralDistricts": [
          {
            "election": null,
            "id": 114,
            "name": "Waterloo"
          }
        ],
        "pollDivisionIds": [
          10126549
        ],
        "postalCode": "N2L1A2",
        "streetName": "FORSYTH",
        "streetDirectionId": null,
        "streetTypeId": "DR",
        "placeName": "WATERLOO",
        "streetNameDisplayText": "FORSYTH DR, WATERLOO"
      }
    ]
  },
  {
    "postal": "N2L5V8",
    "result": [
      {
        "electoralDistricts": [
          {
            "election": null,
            "id": 114,
            "name": "Waterloo"
          }
        ],
        "pollDivisionIds": [
          10126545
        ],
        "postalCode": "N2L5V8",
        "streetName": "VOGEL",
        "streetDirectionId": null,
        "streetTypeId": "PL",
        "placeName": "WATERLOO",
        "streetNameDisplayText": "VOGEL PL, WATERLOO"
      }
    ]
  },
  {
    "postal": "N2L8C5",
    "result": []
  },
  {
    "postal": "N2L6N0",
    "result": []
  },
  {
    "postal": "N2L9E6",
    "result": []
  },
  {
    "postal": "N2L5J7",
    "result": []
  },
  {
    "postal": "N2L2R2",
    "result": []
  },
  {
    "postal": "N2L0P5",
    "result": []
  },
  {
    "postal": "N2L5A7",
    "result": [
      {
        "electoralDistricts": [
          {
            "election": null,
            "id": 114,
            "name": "Waterloo"
          }
        ],
        "pollDivisionIds": [
          10126550,
          10126547
        ],
        "postalCode": "N2L5A7",
        "streetName": "ALBERT",
        "streetDirectionId": null,
        "streetTypeId": "ST",
        "placeName": "WATERLOO",
        "streetNameDisplayText": "ALBERT ST, WATERLOO"
      }
    ]
  },
  {
    "postal": "N2L1G1",
    "result": [
      {
        "electoralDistricts": [
          {
            "election": null,
            "id": 114,
            "name": "Waterloo"
          }
        ],
        "pollDivisionIds": [
          10126549
        ],
        "postalCode": "N2L1G1",
        "streetName": "HILLIARD",
        "streetDirectionId": null,
        "streetTypeId": "AVE",
        "placeName": "WATERLOO",
        "streetNameDisplayText": "HILLIARD AVE, WATERLOO"
      }
    ]
  },
  {
    "postal": "N2L9R6",
    "result": []
  },
  {
    "postal": "N2L4Z9",
    "result": [
      {
        "electoralDistricts": [
          {
            "election": null,
            "id": 114,
            "name": "Waterloo"
          }
        ],
        "pollDivisionIds": [
          10126541
        ],
        "postalCode": "N2L4Z9",
        "streetName": "ROLLING HILLS",
        "streetDirectionId": null,
        "streetTypeId": "DR",
        "placeName": "WATERLOO",
        "streetNameDisplayText": "ROLLING HILLS DR, WATERLOO"
      }
    ]
  },
  {
    "postal": "N2L1V5",
    "result": [
      {
        "electoralDistricts": [
          {
            "election": null,
            "id": 114,
            "name": "Waterloo"
          }
        ],
        "pollDivisionIds": [
          10126551
        ],
        "postalCode": "N2L1V5",
        "streetName": "ERB",
        "streetDirectionId": "W",
        "streetTypeId": "ST",
        "placeName": "WATERLOO",
        "streetNameDisplayText": "ERB ST W, WATERLOO"
      }
    ]
  },
  {
    "postal": "N2L9Y5",
    "result": []
  },
  {
    "postal": "N2L1P2",
    "result": [
      {
        "electoralDistricts": [
          {
            "election": null,
            "id": 114,
            "name": "Waterloo"
          }
        ],
        "pollDivisionIds": [
          10126549
        ],
        "postalCode": "N2L1P2",
        "streetName": "LOURDES",
        "streetDirectionId": null,
        "streetTypeId": "ST",
        "placeName": "WATERLOO",
        "streetNameDisplayText": "LOURDES ST, WATERLOO"
      }
    ]
  },
  {
    "postal": "N2L5X0",
    "result": []
  },
  {
    "postal": "N2L7B8",
    "result": []
  },
  {
    "postal": "N2L0C6",
    "result": []
  },
  {
    "postal": "N2L6G1",
    "result": [
      {
        "electoralDistricts": [
          {
            "election": null,
            "id": 114,
            "name": "Waterloo"
          }
        ],
        "pollDivisionIds": [
          10126539
        ],
        "postalCode": "N2L6G1",
        "streetName": "COLUMBIA",
        "streetDirectionId": "W",
        "streetTypeId": "ST",
        "placeName": "WATERLOO",
        "streetNameDisplayText": "COLUMBIA ST W, WATERLOO"
      }
    ]
  },
  {
    "postal": "N2L3K3",
    "result": [
      {
        "electoralDistricts": [
          {
            "election": null,
            "id": 114,
            "name": "Waterloo"
          }
        ],
        "pollDivisionIds": [
          10142551
        ],
        "postalCode": "N2L3K3",
        "streetName": "COLUMBIA",
        "streetDirectionId": "W",
        "streetTypeId": "ST",
        "placeName": "WATERLOO",
        "streetNameDisplayText": "COLUMBIA ST W, WATERLOO"
      }
    ]
  },
  {
    "postal": "N2L9R0",
    "result": []
  },
  {
    "postal": "N2L4R8",
    "result": [
      {
        "electoralDistricts": [
          {
            "election": null,
            "id": 114,
            "name": "Waterloo"
          }
        ],
        "pollDivisionIds": [
          10126542
        ],
        "postalCode": "N2L4R8",
        "streetName": "TWIN OAKS",
        "streetDirectionId": null,
        "streetTypeId": "CRES",
        "placeName": "WATERLOO",
        "streetNameDisplayText": "TWIN OAKS CRES, WATERLOO"
      }
    ]
  },
  {
    "postal": "N2L5P9",
    "result": [
      {
        "electoralDistricts": [
          {
            "election": null,
            "id": 114,
            "name": "Waterloo"
          }
        ],
        "pollDivisionIds": [
          10126541
        ],
        "postalCode": "N2L5P9",
        "streetName": "CANEWOOD",
        "streetDirectionId": null,
        "streetTypeId": "PL",
        "placeName": "WATERLOO",
        "streetNameDisplayText": "CANEWOOD PL, WATERLOO"
      }
    ]
  },
  {
    "postal": "N2L8N4",
    "result": []
  },
  {
    "postal": "N2L8H4",
    "result": []
  },
  {
    "postal": "N2L4V1",
    "result": [
      {
        "electoralDistricts": [
          {
            "election": null,
            "id": 114,
            "name": "Waterloo"
          }
        ],
        "pollDivisionIds": [
          10126543
        ],
        "postalCode": "N2L4V1",
        "streetName": "PINE GROVE",
        "streetDirectionId": null,
        "streetTypeId": "CRES",
        "placeName": "WATERLOO",
        "streetNameDisplayText": "PINE GROVE CRES, WATERLOO"
      },
      {
        "electoralDistricts": [
          {
            "election": null,
            "id": 114,
            "name": "Waterloo"
          }
        ],
        "pollDivisionIds": [
          10126543
        ],
        "postalCode": "N2L4V1",
        "streetName": "PINEGROVE",
        "streetDirectionId": null,
        "streetTypeId": "CRES",
        "placeName": "WATERLOO",
        "streetNameDisplayText": "PINEGROVE CRES, WATERLOO"
      }
    ]
  },
  {
    "postal": "N2L1K5",
    "result": [
      {
        "electoralDistricts": [
          {
            "election": null,
            "id": 114,
            "name": "Waterloo"
          }
        ],
        "pollDivisionIds": [
          10126557
        ],
        "postalCode": "N2L1K5",
        "streetName": "WILLIAM",
        "streetDirectionId": "W",
        "streetTypeId": "ST",
        "placeName": "WATERLOO",
        "streetNameDisplayText": "WILLIAM ST W, WATERLOO"
      }
    ]
  },
  {
    "postal": "N2L1Z5",
    "result": [
      {
        "electoralDistricts": [
          {
            "election": null,
            "id": 114,
            "name": "Waterloo"
          }
        ],
        "pollDivisionIds": [
          10126557
        ],
        "postalCode": "N2L1Z5",
        "streetName": "EUCLID",
        "streetDirectionId": null,
        "streetTypeId": "AVE",
        "placeName": "WATERLOO",
        "streetNameDisplayText": "EUCLID AVE, WATERLOO"
      }
    ]
  },
  {
    "postal": "N2L9L9",
    "result": []
  },
  {
    "postal": "N2L5L2",
    "result": [
      {
        "electoralDistricts": [
          {
            "election": null,
            "id": 114,
            "name": "Waterloo"
          }
        ],
        "pollDivisionIds": [
          10126545
        ],
        "postalCode": "N2L5L2",
        "streetName": "CULPEPPER",
        "streetDirectionId": null,
        "streetTypeId": "PL",
        "placeName": "WATERLOO",
        "streetNameDisplayText": "CULPEPPER PL, WATERLOO"
      }
    ]
  },
  {
    "postal": "N2L0M2",
    "result": []
  },
  {
    "postal": "N2L1K8",
    "result": [
      {
        "electoralDistricts": [
          {
            "election": null,
            "id": 114,
            "name": "Waterloo"
          }
        ],
        "pollDivisionIds": [
          10126549
        ],
        "postalCode": "N2L1K8",
        "streetName": "LAURIER",
        "streetDirectionId": null,
        "streetTypeId": "PL",
        "placeName": "WATERLOO",
        "streetNameDisplayText": "LAURIER PL, WATERLOO"
      }
    ]
  },
  {
    "postal": "N2L3M7",
    "result": [
      {
        "electoralDistricts": [
          {
            "election": null,
            "id": 114,
            "name": "Waterloo"
          }
        ],
        "pollDivisionIds": [
          10142551
        ],
        "postalCode": "N2L3M7",
        "streetName": "SPRUCE",
        "streetDirectionId": null,
        "streetTypeId": "ST",
        "placeName": "WATERLOO",
        "streetNameDisplayText": "SPRUCE ST, WATERLOO"
      }
    ]
  },
  {
    "postal": "N2L1B2",
    "result": [
      {
        "electoralDistricts": [
          {
            "election": null,
            "id": 114,
            "name": "Waterloo"
          }
        ],
        "pollDivisionIds": [
          10126557
        ],
        "postalCode": "N2L1B2",
        "streetName": "JOHN",
        "streetDirectionId": "W",
        "streetTypeId": "ST",
        "placeName": "WATERLOO",
        "streetNameDisplayText": "JOHN ST W, WATERLOO"
      }
    ]
  },
  {
    "postal": "N2L0H9",
    "result": []
  },
  {
    "postal": "N2L8M4",
    "result": []
  },
  {
    "postal": "N2L2M5",
    "result": [
      {
        "electoralDistricts": [
          {
            "election": null,
            "id": 114,
            "name": "Waterloo"
          }
        ],
        "pollDivisionIds": [
          10126549
        ],
        "postalCode": "N2L2M5",
        "streetName": "MELBOURNE",
        "streetDirectionId": null,
        "streetTypeId": "CRES",
        "placeName": "WATERLOO",
        "streetNameDisplayText": "MELBOURNE CRES, WATERLOO"
      }
    ]
  },
  {
    "postal": "N2L0T9",
    "result": []
  },
  {
    "postal": "N2L3P1",
    "result": [
      {
        "electoralDistricts": [
          {
            "election": null,
            "id": 114,
            "name": "Waterloo"
          }
        ],
        "pollDivisionIds": [
          10126548
        ],
        "postalCode": "N2L3P1",
        "streetName": "HAZEL",
        "streetDirectionId": null,
        "streetTypeId": "ST",
        "placeName": "WATERLOO",
        "streetNameDisplayText": "HAZEL ST, WATERLOO"
      }
    ]
  },
  {
    "postal": "N2L1R6",
    "result": [
      {
        "electoralDistricts": [
          {
            "election": null,
            "id": 114,
            "name": "Waterloo"
          }
        ],
        "pollDivisionIds": [
          10126551
        ],
        "postalCode": "N2L1R6",
        "streetName": "DAWSON",
        "streetDirectionId": null,
        "streetTypeId": "ST",
        "placeName": "WATERLOO",
        "streetNameDisplayText": "DAWSON ST, WATERLOO"
      }
    ]
  },
  {
    "postal": "N2L9V5",
    "result": []
  },
  {
    "postal": "N2L9T0",
    "result": []
  },
  {
    "postal": "N2L0A9",
    "result": [
      {
        "electoralDistricts": [
          {
            "election": null,
            "id": 114,
            "name": "Waterloo"
          }
        ],
        "pollDivisionIds": [
          10126533
        ],
        "postalCode": "N2L0A9",
        "streetName": "WESTMOUNT",
        "streetDirectionId": "N",
        "streetTypeId": "RD",
        "placeName": "WATERLOO",
        "streetNameDisplayText": "WESTMOUNT RD N, WATERLOO"
      }
    ]
  },
  {
    "postal": "N2L1M3",
    "result": [
      {
        "electoralDistricts": [
          {
            "election": null,
            "id": 114,
            "name": "Waterloo"
          }
        ],
        "pollDivisionIds": [
          10126557
        ],
        "postalCode": "N2L1M3",
        "streetName": "ALEXANDRA",
        "streetDirectionId": null,
        "streetTypeId": "AVE",
        "placeName": "WATERLOO",
        "streetNameDisplayText": "ALEXANDRA AVE, WATERLOO"
      }
    ]
  },
  {
    "postal": "N2L1W8",
    "result": [
      {
        "electoralDistricts": [
          {
            "election": null,
            "id": 114,
            "name": "Waterloo"
          }
        ],
        "pollDivisionIds": [
          10126545
        ],
        "postalCode": "N2L1W8",
        "streetName": "ERB",
        "streetDirectionId": "W",
        "streetTypeId": "ST",
        "placeName": "WATERLOO",
        "streetNameDisplayText": "ERB ST W, WATERLOO"
      }
    ]
  },
  {
    "postal": "N2L9J1",
    "result": []
  },
  {
    "postal": "N2L8N5",
    "result": []
  },
  {
    "postal": "N2L5X1",
    "result": [
      {
        "electoralDistricts": [
          {
            "election": null,
            "id": 114,
            "name": "Waterloo"
          }
        ],
        "pollDivisionIds": [
          10126545
        ],
        "postalCode": "N2L5X1",
        "streetName": "KAREN",
        "streetDirectionId": null,
        "streetTypeId": "WALK",
        "placeName": "WATERLOO",
        "streetNameDisplayText": "KAREN WALK, WATERLOO"
      }
    ]
  },
  {
    "postal": "N2L6S2",
    "result": []
  },
  {
    "postal": "N2L2A2",
    "result": [
      {
        "electoralDistricts": [
          {
            "election": null,
            "id": 114,
            "name": "Waterloo"
          }
        ],
        "pollDivisionIds": [
          10126557
        ],
        "postalCode": "N2L2A2",
        "streetName": "ESSON",
        "streetDirectionId": null,
        "streetTypeId": "ST",
        "placeName": "WATERLOO",
        "streetNameDisplayText": "ESSON ST, WATERLOO"
      }
    ]
  },
  {
    "postal": "N2L6A6",
    "result": [
      {
        "electoralDistricts": [
          {
            "election": null,
            "id": 114,
            "name": "Waterloo"
          }
        ],
        "pollDivisionIds": [
          10126540
        ],
        "postalCode": "N2L6A6",
        "streetName": "FARADAY",
        "streetDirectionId": null,
        "streetTypeId": "CRT",
        "placeName": "WATERLOO",
        "streetNameDisplayText": "FARADAY CRT, WATERLOO"
      }
    ]
  },
  {
    "postal": "N2L0S3",
    "result": []
  },
  {
    "postal": "N2L3E7",
    "result": [
      {
        "electoralDistricts": [
          {
            "election": null,
            "id": 114,
            "name": "Waterloo"
          }
        ],
        "pollDivisionIds": [
          10126553
        ],
        "postalCode": "N2L3E7",
        "streetName": "UNIVERSITY",
        "streetDirectionId": "W",
        "streetTypeId": "AVE",
        "placeName": "WATERLOO",
        "streetNameDisplayText": "UNIVERSITY AVE W, WATERLOO"
      }
    ]
  },
  {
    "postal": "N2L5R7",
    "result": [
      {
        "electoralDistricts": [
          {
            "election": null,
            "id": 114,
            "name": "Waterloo"
          }
        ],
        "pollDivisionIds": [
          10126541
        ],
        "postalCode": "N2L5R7",
        "streetName": "THORNCREST",
        "streetDirectionId": null,
        "streetTypeId": "DR",
        "placeName": "WATERLOO",
        "streetNameDisplayText": "THORNCREST DR, WATERLOO"
      }
    ]
  },
  {
    "postal": "N2L3R6",
    "result": [
      {
        "electoralDistricts": [
          {
            "election": null,
            "id": 114,
            "name": "Waterloo"
          }
        ],
        "pollDivisionIds": [
          10126548
        ],
        "postalCode": "N2L3R6",
        "streetName": "HEMLOCK",
        "streetDirectionId": null,
        "streetTypeId": "ST",
        "placeName": "WATERLOO",
        "streetNameDisplayText": "HEMLOCK ST, WATERLOO"
      }
    ]
  },
  {
    "postal": "N2L6K4",
    "result": [
      {
        "electoralDistricts": [
          {
            "election": null,
            "id": 114,
            "name": "Waterloo"
          }
        ],
        "pollDivisionIds": [
          10126547
        ],
        "postalCode": "N2L6K4",
        "streetName": "NORTHFIELD",
        "streetDirectionId": "W",
        "streetTypeId": "DR",
        "placeName": "WATERLOO",
        "streetNameDisplayText": "NORTHFIELD DR W, WATERLOO"
      }
    ]
  },
  {
    "postal": "N2L2W5",
    "result": [
      {
        "electoralDistricts": [
          {
            "election": null,
            "id": 114,
            "name": "Waterloo"
          }
        ],
        "pollDivisionIds": [
          10126551
        ],
        "postalCode": "N2L2W5",
        "streetName": "MCDOUGALL",
        "streetDirectionId": null,
        "streetTypeId": "RD",
        "placeName": "WATERLOO",
        "streetNameDisplayText": "MCDOUGALL RD, WATERLOO"
      }
    ]
  },
  {
    "postal": "N2L8W4",
    "result": []
  },
  {
    "postal": "N2L9C2",
    "result": []
  },
  {
    "postal": "N2L2C0",
    "result": []
  },
  {
    "postal": "N2L0E1",
    "result": [
      {
        "electoralDistricts": [
          {
            "election": null,
            "id": 114,
            "name": "Waterloo"
          }
        ],
        "pollDivisionIds": [
          10126548
        ],
        "postalCode": "N2L0E1",
        "streetName": "PHILLIP",
        "streetDirectionId": null,
        "streetTypeId": "ST",
        "placeName": "WATERLOO",
        "streetNameDisplayText": "PHILLIP ST, WATERLOO"
      }
    ]
  },
  {
    "postal": "N2L1K9",
    "result": [
      {
        "electoralDistricts": [
          {
            "election": null,
            "id": 114,
            "name": "Waterloo"
          }
        ],
        "pollDivisionIds": [
          10126549
        ],
        "postalCode": "N2L1K9",
        "streetName": "LAURIER",
        "streetDirectionId": null,
        "streetTypeId": "PL",
        "placeName": "WATERLOO",
        "streetNameDisplayText": "LAURIER PL, WATERLOO"
      }
    ]
  },
  {
    "postal": "N2L1G7",
    "result": [
      {
        "electoralDistricts": [
          {
            "election": null,
            "id": 114,
            "name": "Waterloo"
          }
        ],
        "pollDivisionIds": [
          10126557
        ],
        "postalCode": "N2L1G7",
        "streetName": "NORMAN",
        "streetDirectionId": null,
        "streetTypeId": "ST",
        "placeName": "WATERLOO",
        "streetNameDisplayText": "NORMAN ST, WATERLOO"
      }
    ]
  },
  {
    "postal": "N2L4E9",
    "result": [
      {
        "electoralDistricts": [
          {
            "election": null,
            "id": 114,
            "name": "Waterloo"
          }
        ],
        "pollDivisionIds": [
          10126550
        ],
        "postalCode": "N2L4E9",
        "streetName": "WEBER",
        "streetDirectionId": "N",
        "streetTypeId": "ST",
        "placeName": "WATERLOO",
        "streetNameDisplayText": "WEBER ST N, WATERLOO"
      }
    ]
  },
  {
    "postal": "N2L9P0",
    "result": []
  },
  {
    "postal": "N2L5H3",
    "result": [
      {
        "electoralDistricts": [
          {
            "election": null,
            "id": 114,
            "name": "Waterloo"
          }
        ],
        "pollDivisionIds": [
          10126540
        ],
        "postalCode": "N2L5H3",
        "streetName": "KEATS WAY",
        "streetDirectionId": null,
        "streetTypeId": "PL",
        "placeName": "WATERLOO",
        "streetNameDisplayText": "KEATS WAY PL, WATERLOO"
      }
    ]
  },
  {
    "postal": "N2L9X6",
    "result": []
  },
  {
    "postal": "N2L5N7",
    "result": [
      {
        "electoralDistricts": [
          {
            "election": null,
            "id": 114,
            "name": "Waterloo"
          }
        ],
        "pollDivisionIds": [
          10126533
        ],
        "postalCode": "N2L5N7",
        "streetName": "PINERIDGE",
        "streetDirectionId": null,
        "streetTypeId": "RD",
        "placeName": "WATERLOO",
        "streetNameDisplayText": "PINERIDGE RD, WATERLOO"
      }
    ]
  },
  {
    "postal": "N2L5A6",
    "result": [
      {
        "electoralDistricts": [
          {
            "election": null,
            "id": 114,
            "name": "Waterloo"
          }
        ],
        "pollDivisionIds": [
          10126547
        ],
        "postalCode": "N2L5A6",
        "streetName": "NORTHFIELD",
        "streetDirectionId": "W",
        "streetTypeId": "DR",
        "placeName": "WATERLOO",
        "streetNameDisplayText": "NORTHFIELD DR W, WATERLOO"
      }
    ]
  },
  {
    "postal": "N2L4M0",
    "result": []
  },
  {
    "postal": "N2L3V6",
    "result": [
      {
        "electoralDistricts": [
          {
            "election": null,
            "id": 114,
            "name": "Waterloo"
          }
        ],
        "pollDivisionIds": [
          10126553
        ],
        "postalCode": "N2L3V6",
        "streetName": "SUNVIEW",
        "streetDirectionId": null,
        "streetTypeId": "ST",
        "placeName": "WATERLOO",
        "streetNameDisplayText": "SUNVIEW ST, WATERLOO"
      }
    ]
  },
  {
    "postal": "N2L1L7",
    "result": [
      {
        "electoralDistricts": [
          {
            "election": null,
            "id": 114,
            "name": "Waterloo"
          }
        ],
        "pollDivisionIds": [
          10126557
        ],
        "postalCode": "N2L1L7",
        "streetName": "ALEXANDRA",
        "streetDirectionId": null,
        "streetTypeId": "AVE",
        "placeName": "WATERLOO",
        "streetNameDisplayText": "ALEXANDRA AVE, WATERLOO"
      }
    ]
  },
  {
    "postal": "N2L2P9",
    "result": [
      {
        "electoralDistricts": [
          {
            "election": null,
            "id": 114,
            "name": "Waterloo"
          }
        ],
        "pollDivisionIds": [
          10126544
        ],
        "postalCode": "N2L2P9",
        "streetName": "RIDGEVIEW",
        "streetDirectionId": null,
        "streetTypeId": "CRES",
        "placeName": "WATERLOO",
        "streetNameDisplayText": "RIDGEVIEW CRES, WATERLOO"
      }
    ]
  },
  {
    "postal": "N2L5T4",
    "result": [
      {
        "electoralDistricts": [
          {
            "election": null,
            "id": 114,
            "name": "Waterloo"
          }
        ],
        "pollDivisionIds": [
          10126540
        ],
        "postalCode": "N2L5T4",
        "streetName": "CANDLEWOOD",
        "streetDirectionId": null,
        "streetTypeId": "CRES",
        "placeName": "WATERLOO",
        "streetNameDisplayText": "CANDLEWOOD CRES, WATERLOO"
      }
    ]
  },
  {
    "postal": "N2L5Z1",
    "result": [
      {
        "electoralDistricts": [
          {
            "election": null,
            "id": 114,
            "name": "Waterloo"
          }
        ],
        "pollDivisionIds": [
          10126544
        ],
        "postalCode": "N2L5Z1",
        "streetName": "GARDEN TREE",
        "streetDirectionId": null,
        "streetTypeId": "CRT",
        "placeName": "WATERLOO",
        "streetNameDisplayText": "GARDEN TREE CRT, WATERLOO"
      }
    ]
  },
  {
    "postal": "N2L2X0",
    "result": []
  },
  {
    "postal": "N2L6Z2",
    "result": []
  },
  {
    "postal": "N2L0E0",
    "result": []
  },
  {
    "postal": "N2L3Z5",
    "result": [
      {
        "electoralDistricts": [
          {
            "election": null,
            "id": 114,
            "name": "Waterloo"
          }
        ],
        "pollDivisionIds": [
          10126550
        ],
        "postalCode": "N2L3Z5",
        "streetName": "MILFORD",
        "streetDirectionId": null,
        "streetTypeId": "AVE",
        "placeName": "WATERLOO",
        "streetNameDisplayText": "MILFORD AVE, WATERLOO"
      }
    ]
  },
  {
    "postal": "N2L8H3",
    "result": []
  },
  {
    "postal": "N2L7S6",
    "result": []
  },
  {
    "postal": "N2L4C1",
    "result": [
      {
        "electoralDistricts": [
          {
            "election": null,
            "id": 114,
            "name": "Waterloo"
          }
        ],
        "pollDivisionIds": [
          10126550,
          10126547
        ],
        "postalCode": "N2L4C1",
        "streetName": "LONGWOOD",
        "streetDirectionId": null,
        "streetTypeId": "DR",
        "placeName": "WATERLOO",
        "streetNameDisplayText": "LONGWOOD DR, WATERLOO"
      }
    ]
  },
  {
    "postal": "N2L3K2",
    "result": [
      {
        "electoralDistricts": [
          {
            "election": null,
            "id": 114,
            "name": "Waterloo"
          }
        ],
        "pollDivisionIds": [
          10142551
        ],
        "postalCode": "N2L3K2",
        "streetName": "COLUMBIA",
        "streetDirectionId": "W",
        "streetTypeId": "ST",
        "placeName": "WATERLOO",
        "streetNameDisplayText": "COLUMBIA ST W, WATERLOO"
      }
    ]
  },
  {
    "postal": "N2L1Y5",
    "result": [
      {
        "electoralDistricts": [
          {
            "election": null,
            "id": 114,
            "name": "Waterloo"
          }
        ],
        "pollDivisionIds": [
          10126557
        ],
        "postalCode": "N2L1Y5",
        "streetName": "PARK",
        "streetDirectionId": null,
        "streetTypeId": "ST",
        "placeName": "WATERLOO",
        "streetNameDisplayText": "PARK ST, WATERLOO"
      }
    ]
  },
  {
    "postal": "N2L6P6",
    "result": [
      {
        "electoralDistricts": [
          {
            "election": null,
            "id": 114,
            "name": "Waterloo"
          }
        ],
        "pollDivisionIds": [
          10126539
        ],
        "postalCode": "N2L6P6",
        "streetName": "COLUMBIA",
        "streetDirectionId": "W",
        "streetTypeId": "ST",
        "placeName": "WATERLOO",
        "streetNameDisplayText": "COLUMBIA ST W, WATERLOO"
      }
    ]
  },
  {
    "postal": "N2L3N9",
    "result": [
      {
        "electoralDistricts": [
          {
            "election": null,
            "id": 114,
            "name": "Waterloo"
          }
        ],
        "pollDivisionIds": [
          10142551
        ],
        "postalCode": "N2L3N9",
        "streetName": "HAZEL",
        "streetDirectionId": null,
        "streetTypeId": "ST",
        "placeName": "WATERLOO",
        "streetNameDisplayText": "HAZEL ST, WATERLOO"
      }
    ]
  },
  {
    "postal": "N2L3W2",
    "result": [
      {
        "electoralDistricts": [
          {
            "election": null,
            "id": 114,
            "name": "Waterloo"
          }
        ],
        "pollDivisionIds": [
          10126548
        ],
        "postalCode": "N2L3W2",
        "streetName": "BATAVIA",
        "streetDirectionId": null,
        "streetTypeId": "PL",
        "placeName": "WATERLOO",
        "streetNameDisplayText": "BATAVIA PL, WATERLOO"
      }
    ]
  },
  {
    "postal": "N2L6H8",
    "result": [
      {
        "electoralDistricts": [
          {
            "election": null,
            "id": 114,
            "name": "Waterloo"
          }
        ],
        "pollDivisionIds": [
          10126552
        ],
        "postalCode": "N2L6H8",
        "streetName": "DAVENPORT",
        "streetDirectionId": null,
        "streetTypeId": "RD",
        "placeName": "WATERLOO",
        "streetNameDisplayText": "DAVENPORT RD, WATERLOO"
      }
    ]
  },
  {
    "postal": "N2L9T3",
    "result": []
  },
  {
    "postal": "N2L5L9",
    "result": []
  },
  {
    "postal": "N2L7X7",
    "result": []
  },
  {
    "postal": "N2L3J5",
    "result": [
      {
        "electoralDistricts": [
          {
            "election": null,
            "id": 114,
            "name": "Waterloo"
          }
        ],
        "pollDivisionIds": [
          10126548
        ],
        "postalCode": "N2L3J5",
        "streetName": "HICKORY",
        "streetDirectionId": "W",
        "streetTypeId": "ST",
        "placeName": "WATERLOO",
        "streetNameDisplayText": "HICKORY ST W, WATERLOO"
      }
    ]
  },
  {
    "postal": "N2L4J5",
    "result": [
      {
        "electoralDistricts": [
          {
            "election": null,
            "id": 114,
            "name": "Waterloo"
          }
        ],
        "pollDivisionIds": [
          10126542
        ],
        "postalCode": "N2L4J5",
        "streetName": "GLEN FORREST",
        "streetDirectionId": null,
        "streetTypeId": "BLVD",
        "placeName": "WATERLOO",
        "streetNameDisplayText": "GLEN FORREST BLVD, WATERLOO"
      }
    ]
  },
  {
    "postal": "N2L6J2",
    "result": [
      {
        "electoralDistricts": [
          {
            "election": null,
            "id": 114,
            "name": "Waterloo"
          }
        ],
        "pollDivisionIds": [
          10126550
        ],
        "postalCode": "N2L6J2",
        "streetName": "WEBER",
        "streetDirectionId": "N",
        "streetTypeId": "ST",
        "placeName": "WATERLOO",
        "streetNameDisplayText": "WEBER ST N, WATERLOO"
      }
    ]
  },
  {
    "postal": "N2L5V6",
    "result": [
      {
        "electoralDistricts": [
          {
            "election": null,
            "id": 114,
            "name": "Waterloo"
          }
        ],
        "pollDivisionIds": [
          10126540
        ],
        "postalCode": "N2L5V6",
        "streetName": "CLAIRBROOK",
        "streetDirectionId": null,
        "streetTypeId": "CRES",
        "placeName": "WATERLOO",
        "streetNameDisplayText": "CLAIRBROOK CRES, WATERLOO"
      }
    ]
  },
  {
    "postal": "N2L3N2",
    "result": [
      {
        "electoralDistricts": [
          {
            "election": null,
            "id": 114,
            "name": "Waterloo"
          }
        ],
        "pollDivisionIds": [
          10126553
        ],
        "postalCode": "N2L3N2",
        "streetName": "CLAYFIELD",
        "streetDirectionId": null,
        "streetTypeId": "AVE",
        "placeName": "WATERLOO",
        "streetNameDisplayText": "CLAYFIELD AVE, WATERLOO"
      }
    ]
  },
  {
    "postal": "N2L3B1",
    "result": [
      {
        "electoralDistricts": [
          {
            "election": null,
            "id": 114,
            "name": "Waterloo"
          }
        ],
        "pollDivisionIds": [
          10126554
        ],
        "postalCode": "N2L3B1",
        "streetName": "EZRA",
        "streetDirectionId": null,
        "streetTypeId": "AVE",
        "placeName": "WATERLOO",
        "streetNameDisplayText": "EZRA AVE, WATERLOO"
      }
    ]
  },
  {
    "postal": "N2L8B5",
    "result": []
  },
  {
    "postal": "N2L0K1",
    "result": []
  },
  {
    "postal": "N2L7M7",
    "result": []
  },
  {
    "postal": "N2L2M2",
    "result": [
      {
        "electoralDistricts": [
          {
            "election": null,
            "id": 114,
            "name": "Waterloo"
          }
        ],
        "pollDivisionIds": [
          10126549
        ],
        "postalCode": "N2L2M2",
        "streetName": "EMPIRE",
        "streetDirectionId": null,
        "streetTypeId": "ST",
        "placeName": "WATERLOO",
        "streetNameDisplayText": "EMPIRE ST, WATERLOO"
      }
    ]
  },
  {
    "postal": "N2L9N3",
    "result": []
  },
  {
    "postal": "N2L4Y8",
    "result": [
      {
        "electoralDistricts": [
          {
            "election": null,
            "id": 114,
            "name": "Waterloo"
          }
        ],
        "pollDivisionIds": [
          10126541
        ],
        "postalCode": "N2L4Y8",
        "streetName": "CEDARGROVE",
        "streetDirectionId": null,
        "streetTypeId": "PL",
        "placeName": "WATERLOO",
        "streetNameDisplayText": "CEDARGROVE PL, WATERLOO"
      }
    ]
  },
  {
    "postal": "N2L3V7",
    "result": [
      {
        "electoralDistricts": [
          {
            "election": null,
            "id": 114,
            "name": "Waterloo"
          }
        ],
        "pollDivisionIds": [
          10126553
        ],
        "postalCode": "N2L3V7",
        "streetName": "SUNVIEW",
        "streetDirectionId": null,
        "streetTypeId": "ST",
        "placeName": "WATERLOO",
        "streetNameDisplayText": "SUNVIEW ST, WATERLOO"
      }
    ]
  },
  {
    "postal": "N2L8Z1",
    "result": []
  },
  {
    "postal": "N2L7B3",
    "result": []
  },
  {
    "postal": "N2L3A8",
    "result": [
      {
        "electoralDistricts": [
          {
            "election": null,
            "id": 114,
            "name": "Waterloo"
          }
        ],
        "pollDivisionIds": [
          10126553
        ],
        "postalCode": "N2L3A8",
        "streetName": "CENTRAL",
        "streetDirectionId": null,
        "streetTypeId": "ST",
        "placeName": "WATERLOO",
        "streetNameDisplayText": "CENTRAL ST, WATERLOO"
      }
    ]
  },
  {
    "postal": "N2L7V5",
    "result": []
  },
  {
    "postal": "N2L2T2",
    "result": [
      {
        "electoralDistricts": [
          {
            "election": null,
            "id": 114,
            "name": "Waterloo"
          }
        ],
        "pollDivisionIds": [
          10126540
        ],
        "postalCode": "N2L2T2",
        "streetName": "TENNYSON",
        "streetDirectionId": null,
        "streetTypeId": "PL",
        "placeName": "WATERLOO",
        "streetNameDisplayText": "TENNYSON PL, WATERLOO"
      }
    ]
  },
  {
    "postal": "N2L6L3",
    "result": [
      {
        "electoralDistricts": [
          {
            "election": null,
            "id": 114,
            "name": "Waterloo"
          }
        ],
        "pollDivisionIds": [
          10126552
        ],
        "postalCode": "N2L6L3",
        "streetName": "KING",
        "streetDirectionId": "N",
        "streetTypeId": "ST",
        "placeName": "WATERLOO",
        "streetNameDisplayText": "KING ST N, WATERLOO"
      }
    ]
  },
  {
    "postal": "N2L0L2",
    "result": []
  },
  {
    "postal": "N2L5Y8",
    "result": [
      {
        "electoralDistricts": [
          {
            "election": null,
            "id": 114,
            "name": "Waterloo"
          }
        ],
        "pollDivisionIds": [
          10126545
        ],
        "postalCode": "N2L5Y8",
        "streetName": "THORNDALE",
        "streetDirectionId": null,
        "streetTypeId": "PL",
        "placeName": "WATERLOO",
        "streetNameDisplayText": "THORNDALE PL, WATERLOO"
      }
    ]
  },
  {
    "postal": "N2L0B8",
    "result": []
  },
  {
    "postal": "N2L6R5",
    "result": [
      {
        "electoralDistricts": [
          {
            "election": null,
            "id": 114,
            "name": "Waterloo"
          }
        ],
        "pollDivisionIds": [
          10126541
        ],
        "postalCode": "N2L6R5",
        "streetName": "HAGEY",
        "streetDirectionId": null,
        "streetTypeId": "BLVD",
        "placeName": "WATERLOO",
        "streetNameDisplayText": "HAGEY BLVD, WATERLOO"
      }
    ]
  },
  {
    "postal": "N2L8W6",
    "result": []
  },
  {
    "postal": "N2L8G6",
    "result": []
  },
  {
    "postal": "N2L6X3",
    "result": []
  },
  {
    "postal": "N2L7R7",
    "result": []
  },
  {
    "postal": "N2L4B6",
    "result": [
      {
        "electoralDistricts": [
          {
            "election": null,
            "id": 114,
            "name": "Waterloo"
          }
        ],
        "pollDivisionIds": [
          10126550
        ],
        "postalCode": "N2L4B6",
        "streetName": "LONGWOOD",
        "streetDirectionId": null,
        "streetTypeId": "DR",
        "placeName": "WATERLOO",
        "streetNameDisplayText": "LONGWOOD DR, WATERLOO"
      }
    ]
  },
  {
    "postal": "N2L3P9",
    "result": [
      {
        "electoralDistricts": [
          {
            "election": null,
            "id": 114,
            "name": "Waterloo"
          }
        ],
        "pollDivisionIds": [
          10126550
        ],
        "postalCode": "N2L3P9",
        "streetName": "HAZEL",
        "streetDirectionId": null,
        "streetTypeId": "ST",
        "placeName": "WATERLOO",
        "streetNameDisplayText": "HAZEL ST, WATERLOO"
      }
    ]
  },
  {
    "postal": "N2L2T3",
    "result": [
      {
        "electoralDistricts": [
          {
            "election": null,
            "id": 114,
            "name": "Waterloo"
          }
        ],
        "pollDivisionIds": [
          10126540
        ],
        "postalCode": "N2L2T3",
        "streetName": "MOHAWK",
        "streetDirectionId": null,
        "streetTypeId": "AVE",
        "placeName": "WATERLOO",
        "streetNameDisplayText": "MOHAWK AVE, WATERLOO"
      }
    ]
  },
  {
    "postal": "N2L1M4",
    "result": [
      {
        "electoralDistricts": [
          {
            "election": null,
            "id": 114,
            "name": "Waterloo"
          }
        ],
        "pollDivisionIds": [
          10126557
        ],
        "postalCode": "N2L1M4",
        "streetName": "ALEXANDRA",
        "streetDirectionId": null,
        "streetTypeId": "AVE",
        "placeName": "WATERLOO",
        "streetNameDisplayText": "ALEXANDRA AVE, WATERLOO"
      }
    ]
  },
  {
    "postal": "N2L0H1",
    "result": []
  },
  {
    "postal": "N2L9W3",
    "result": []
  },
  {
    "postal": "N2L6P1",
    "result": [
      {
        "electoralDistricts": [
          {
            "election": null,
            "id": 114,
            "name": "Waterloo"
          }
        ],
        "pollDivisionIds": [
          10126539
        ],
        "postalCode": "N2L6P1",
        "streetName": "COLUMBIA",
        "streetDirectionId": "W",
        "streetTypeId": "ST",
        "placeName": "WATERLOO",
        "streetNameDisplayText": "COLUMBIA ST W, WATERLOO"
      }
    ]
  },
  {
    "postal": "N2L7G2",
    "result": []
  },
  {
    "postal": "N2L4J9",
    "result": [
      {
        "electoralDistricts": [
          {
            "election": null,
            "id": 114,
            "name": "Waterloo"
          }
        ],
        "pollDivisionIds": [
          10126542
        ],
        "postalCode": "N2L4J9",
        "streetName": "GLEN FORREST",
        "streetDirectionId": null,
        "streetTypeId": "BLVD",
        "placeName": "WATERLOO",
        "streetNameDisplayText": "GLEN FORREST BLVD, WATERLOO"
      }
    ]
  },
  {
    "postal": "N2L9E4",
    "result": []
  },
  {
    "postal": "N2L8H0",
    "result": []
  },
  {
    "postal": "N2L4M7",
    "result": [
      {
        "electoralDistricts": [
          {
            "election": null,
            "id": 114,
            "name": "Waterloo"
          }
        ],
        "pollDivisionIds": [
          10126541
        ],
        "postalCode": "N2L4M7",
        "streetName": "EDGEBROOK",
        "streetDirectionId": null,
        "streetTypeId": "PL",
        "placeName": "WATERLOO",
        "streetNameDisplayText": "EDGEBROOK PL, WATERLOO"
      }
    ]
  },
  {
    "postal": "N2L2G9",
    "result": [
      {
        "electoralDistricts": [
          {
            "election": null,
            "id": 114,
            "name": "Waterloo"
          }
        ],
        "pollDivisionIds": [
          10126557
        ],
        "postalCode": "N2L2G9",
        "streetName": "ROSLIN",
        "streetDirectionId": "S",
        "streetTypeId": "AVE",
        "placeName": "WATERLOO",
        "streetNameDisplayText": "ROSLIN AVE S, WATERLOO"
      }
    ]
  },
  {
    "postal": "N2L8T2",
    "result": []
  },
  {
    "postal": "N2L7G7",
    "result": []
  },
  {
    "postal": "N2L4Z3",
    "result": [
      {
        "electoralDistricts": [
          {
            "election": null,
            "id": 114,
            "name": "Waterloo"
          }
        ],
        "pollDivisionIds": [
          10126541
        ],
        "postalCode": "N2L4Z3",
        "streetName": "HIGHPOINT",
        "streetDirectionId": null,
        "streetTypeId": "AVE",
        "placeName": "WATERLOO",
        "streetNameDisplayText": "HIGHPOINT AVE, WATERLOO"
      }
    ]
  },
  {
    "postal": "N2L5B3",
    "result": [
      {
        "electoralDistricts": [
          {
            "election": null,
            "id": 114,
            "name": "Waterloo"
          }
        ],
        "pollDivisionIds": [
          10126540
        ],
        "postalCode": "N2L5B3",
        "streetName": "CRAIGLEITH",
        "streetDirectionId": null,
        "streetTypeId": "DR",
        "placeName": "WATERLOO",
        "streetNameDisplayText": "CRAIGLEITH DR, WATERLOO"
      }
    ]
  },
  {
    "postal": "N2L1S7",
    "result": [
      {
        "electoralDistricts": [
          {
            "election": null,
            "id": 114,
            "name": "Waterloo"
          }
        ],
        "pollDivisionIds": [
          10126553
        ],
        "postalCode": "N2L1S7",
        "streetName": "ERB",
        "streetDirectionId": "W",
        "streetTypeId": "ST",
        "placeName": "WATERLOO",
        "streetNameDisplayText": "ERB ST W, WATERLOO"
      }
    ]
  },
  {
    "postal": "N2L2N7",
    "result": [
      {
        "electoralDistricts": [
          {
            "election": null,
            "id": 114,
            "name": "Waterloo"
          }
        ],
        "pollDivisionIds": [
          10126545
        ],
        "postalCode": "N2L2N7",
        "streetName": "ARDEN",
        "streetDirectionId": null,
        "streetTypeId": "PL",
        "placeName": "WATERLOO",
        "streetNameDisplayText": "ARDEN PL, WATERLOO"
      }
    ]
  },
  {
    "postal": "N2L0H8",
    "result": [
      {
        "electoralDistricts": [
          {
            "election": null,
            "id": 114,
            "name": "Waterloo"
          }
        ],
        "pollDivisionIds": [
          10126548
        ],
        "postalCode": "N2L0H8",
        "streetName": "SUNVIEW",
        "streetDirectionId": null,
        "streetTypeId": "ST",
        "placeName": "WATERLOO",
        "streetNameDisplayText": "SUNVIEW ST, WATERLOO"
      }
    ]
  },
  {
    "postal": "N2L7Z4",
    "result": []
  },
  {
    "postal": "N2L7B1",
    "result": []
  },
  {
    "postal": "N2L7P8",
    "result": []
  },
  {
    "postal": "N2L7N0",
    "result": []
  },
  {
    "postal": "N2L3Y5",
    "result": [
      {
        "electoralDistricts": [
          {
            "election": null,
            "id": 114,
            "name": "Waterloo"
          }
        ],
        "pollDivisionIds": [
          10126550
        ],
        "postalCode": "N2L3Y5",
        "streetName": "AUSTIN",
        "streetDirectionId": null,
        "streetTypeId": "DR",
        "placeName": "WATERLOO",
        "streetNameDisplayText": "AUSTIN DR, WATERLOO"
      }
    ]
  },
  {
    "postal": "N2L6K1",
    "result": [
      {
        "electoralDistricts": [
          {
            "election": null,
            "id": 114,
            "name": "Waterloo"
          }
        ],
        "pollDivisionIds": [
          10126547
        ],
        "postalCode": "N2L6K1",
        "streetName": "NORTHFIELD",
        "streetDirectionId": "W",
        "streetTypeId": "DR",
        "placeName": "WATERLOO",
        "streetNameDisplayText": "NORTHFIELD DR W, WATERLOO"
      }
    ]
  },
  {
    "postal": "N2L9X5",
    "result": []
  },
  {
    "postal": "N2L7S5",
    "result": []
  },
  {
    "postal": "N2L0A4",
    "result": [
      {
        "electoralDistricts": [
          {
            "election": null,
            "id": 114,
            "name": "Waterloo"
          }
        ],
        "pollDivisionIds": [
          10126541
        ],
        "postalCode": "N2L0A4",
        "streetName": "HAGEY",
        "streetDirectionId": null,
        "streetTypeId": "BLVD",
        "placeName": "WATERLOO",
        "streetNameDisplayText": "HAGEY BLVD, WATERLOO"
      }
    ]
  },
  {
    "postal": "N2L4T5",
    "result": [
      {
        "electoralDistricts": [
          {
            "election": null,
            "id": 114,
            "name": "Waterloo"
          }
        ],
        "pollDivisionIds": [
          10126543
        ],
        "postalCode": "N2L4T5",
        "streetName": "GLEN MANOR",
        "streetDirectionId": null,
        "streetTypeId": "BLVD",
        "placeName": "WATERLOO",
        "streetNameDisplayText": "GLEN MANOR BLVD, WATERLOO"
      }
    ]
  },
  {
    "postal": "N2L5K1",
    "result": [
      {
        "electoralDistricts": [
          {
            "election": null,
            "id": 114,
            "name": "Waterloo"
          }
        ],
        "pollDivisionIds": [
          10126540
        ],
        "postalCode": "N2L5K1",
        "streetName": "GLENBURN",
        "streetDirectionId": null,
        "streetTypeId": "DR",
        "placeName": "WATERLOO",
        "streetNameDisplayText": "GLENBURN DR, WATERLOO"
      }
    ]
  },
  {
    "postal": "N2L0Z9",
    "result": []
  },
  {
    "postal": "N2L7T2",
    "result": []
  },
  {
    "postal": "N2L1L5",
    "result": [
      {
        "electoralDistricts": [
          {
            "election": null,
            "id": 114,
            "name": "Waterloo"
          }
        ],
        "pollDivisionIds": [
          10126557
        ],
        "postalCode": "N2L1L5",
        "streetName": "ALEXANDRA",
        "streetDirectionId": null,
        "streetTypeId": "AVE",
        "placeName": "WATERLOO",
        "streetNameDisplayText": "ALEXANDRA AVE, WATERLOO"
      }
    ]
  },
  {
    "postal": "N2L3N5",
    "result": [
      {
        "electoralDistricts": [
          {
            "election": null,
            "id": 114,
            "name": "Waterloo"
          }
        ],
        "pollDivisionIds": [
          10142551
        ],
        "postalCode": "N2L3N5",
        "streetName": "HAWTHORN",
        "streetDirectionId": null,
        "streetTypeId": "ST",
        "placeName": "WATERLOO",
        "streetNameDisplayText": "HAWTHORN ST, WATERLOO"
      }
    ]
  },
  {
    "postal": "N2L6H4",
    "result": [
      {
        "electoralDistricts": [
          {
            "election": null,
            "id": 114,
            "name": "Waterloo"
          }
        ],
        "pollDivisionIds": [
          10126557
        ],
        "postalCode": "N2L6H4",
        "streetName": "ALLEN",
        "streetDirectionId": "W",
        "streetTypeId": "ST",
        "placeName": "WATERLOO",
        "streetNameDisplayText": "ALLEN ST W, WATERLOO"
      }
    ]
  },
  {
    "postal": "N2L5A5",
    "result": [
      {
        "electoralDistricts": [
          {
            "election": null,
            "id": 114,
            "name": "Waterloo"
          }
        ],
        "pollDivisionIds": [
          10126540
        ],
        "postalCode": "N2L5A5",
        "streetName": "MARLOWE",
        "streetDirectionId": null,
        "streetTypeId": "DR",
        "placeName": "WATERLOO",
        "streetNameDisplayText": "MARLOWE DR, WATERLOO"
      }
    ]
  },
  {
    "postal": "N2L3R9",
    "result": []
  },
  {
    "postal": "N2L7L8",
    "result": []
  },
  {
    "postal": "N2L6T6",
    "result": []
  },
  {
    "postal": "N2L7Y7",
    "result": []
  },
  {
    "postal": "N2L3M8",
    "result": [
      {
        "electoralDistricts": [
          {
            "election": null,
            "id": 114,
            "name": "Waterloo"
          }
        ],
        "pollDivisionIds": [
          10126553
        ],
        "postalCode": "N2L3M8",
        "streetName": "FOUNTAIN",
        "streetDirectionId": null,
        "streetTypeId": "ST",
        "placeName": "WATERLOO",
        "streetNameDisplayText": "FOUNTAIN ST, WATERLOO"
      }
    ]
  },
  {
    "postal": "N2L2E0",
    "result": []
  },
  {
    "postal": "N2L4B5",
    "result": [
      {
        "electoralDistricts": [
          {
            "election": null,
            "id": 114,
            "name": "Waterloo"
          }
        ],
        "pollDivisionIds": [
          10126547
        ],
        "postalCode": "N2L4B5",
        "streetName": "GREENBRIER",
        "streetDirectionId": null,
        "streetTypeId": "DR",
        "placeName": "WATERLOO",
        "streetNameDisplayText": "GREENBRIER DR, WATERLOO"
      }
    ]
  },
  {
    "postal": "N2L1J3",
    "result": [
      {
        "electoralDistricts": [
          {
            "election": null,
            "id": 114,
            "name": "Waterloo"
          }
        ],
        "pollDivisionIds": [
          10126557
        ],
        "postalCode": "N2L1J3",
        "streetName": "WILLIAM",
        "streetDirectionId": "W",
        "streetTypeId": "ST",
        "placeName": "WATERLOO",
        "streetNameDisplayText": "WILLIAM ST W, WATERLOO"
      }
    ]
  },
  {
    "postal": "N2L5S6",
    "result": [
      {
        "electoralDistricts": [
          {
            "election": null,
            "id": 114,
            "name": "Waterloo"
          }
        ],
        "pollDivisionIds": [
          10126540
        ],
        "postalCode": "N2L5S6",
        "streetName": "PARKGREEN",
        "streetDirectionId": null,
        "streetTypeId": "PL",
        "placeName": "WATERLOO",
        "streetNameDisplayText": "PARKGREEN PL, WATERLOO"
      }
    ]
  },
  {
    "postal": "N2L8P7",
    "result": []
  },
  {
    "postal": "N2L7S7",
    "result": []
  },
  {
    "postal": "N2L4C2",
    "result": [
      {
        "electoralDistricts": [
          {
            "election": null,
            "id": 114,
            "name": "Waterloo"
          }
        ],
        "pollDivisionIds": [
          10126547
        ],
        "postalCode": "N2L4C2",
        "streetName": "MOCCASIN",
        "streetDirectionId": null,
        "streetTypeId": "DR",
        "placeName": "WATERLOO",
        "streetNameDisplayText": "MOCCASIN DR, WATERLOO"
      }
    ]
  },
  {
    "postal": "N2L5Y0",
    "result": []
  },
  {
    "postal": "N2L2V7",
    "result": [
      {
        "electoralDistricts": [
          {
            "election": null,
            "id": 114,
            "name": "Waterloo"
          }
        ],
        "pollDivisionIds": [
          10126540
        ],
        "postalCode": "N2L2V7",
        "streetName": "COLERIDGE",
        "streetDirectionId": null,
        "streetTypeId": "PL",
        "placeName": "WATERLOO",
        "streetNameDisplayText": "COLERIDGE PL, WATERLOO"
      }
    ]
  },
  {
    "postal": "N2L8P5",
    "result": []
  },
  {
    "postal": "N2L5P5",
    "result": [
      {
        "electoralDistricts": [
          {
            "election": null,
            "id": 114,
            "name": "Waterloo"
          }
        ],
        "pollDivisionIds": [
          10126541
        ],
        "postalCode": "N2L5P5",
        "streetName": "CANEWOOD",
        "streetDirectionId": null,
        "streetTypeId": "CRES",
        "placeName": "WATERLOO",
        "streetNameDisplayText": "CANEWOOD CRES, WATERLOO"
      }
    ]
  },
  {
    "postal": "N2L5Z0",
    "result": []
  },
  {
    "postal": "N2L9B0",
    "result": []
  },
  {
    "postal": "N2L1L0",
    "result": []
  },
  {
    "postal": "N2L0B5",
    "result": [
      {
        "electoralDistricts": [
          {
            "election": null,
            "id": 114,
            "name": "Waterloo"
          }
        ],
        "pollDivisionIds": [
          10126553
        ],
        "postalCode": "N2L0B5",
        "streetName": "LESTER",
        "streetDirectionId": null,
        "streetTypeId": "ST",
        "placeName": "WATERLOO",
        "streetNameDisplayText": "LESTER ST, WATERLOO"
      }
    ]
  },
  {
    "postal": "N2L3L2",
    "result": [
      {
        "electoralDistricts": [
          {
            "election": null,
            "id": 114,
            "name": "Waterloo"
          }
        ],
        "pollDivisionIds": [
          10126548
        ],
        "postalCode": "N2L3L2",
        "streetName": "COLUMBIA",
        "streetDirectionId": "W",
        "streetTypeId": "ST",
        "placeName": "WATERLOO",
        "streetNameDisplayText": "COLUMBIA ST W, WATERLOO"
      }
    ]
  },
  {
    "postal": "N2L3B7",
    "result": [
      {
        "electoralDistricts": [
          {
            "election": null,
            "id": 114,
            "name": "Waterloo"
          }
        ],
        "pollDivisionIds": [
          10126553
        ],
        "postalCode": "N2L3B7",
        "streetName": "SEAGRAM",
        "streetDirectionId": null,
        "streetTypeId": "DR",
        "placeName": "WATERLOO",
        "streetNameDisplayText": "SEAGRAM DR, WATERLOO"
      }
    ]
  },
  {
    "postal": "N2L8L1",
    "result": []
  },
  {
    "postal": "N2L5M4",
    "result": [
      {
        "electoralDistricts": [
          {
            "election": null,
            "id": 114,
            "name": "Waterloo"
          }
        ],
        "pollDivisionIds": [
          10126533
        ],
        "postalCode": "N2L5M4",
        "streetName": "DALESIDE",
        "streetDirectionId": null,
        "streetTypeId": "PL",
        "placeName": "WATERLOO",
        "streetNameDisplayText": "DALESIDE PL, WATERLOO"
      }
    ]
  },
  {
    "postal": "N2L4G9",
    "result": [
      {
        "electoralDistricts": [
          {
            "election": null,
            "id": 114,
            "name": "Waterloo"
          }
        ],
        "pollDivisionIds": [
          10126550
        ],
        "postalCode": "N2L4G9",
        "streetName": "TAMARACK",
        "streetDirectionId": null,
        "streetTypeId": "DR",
        "placeName": "WATERLOO",
        "streetNameDisplayText": "TAMARACK DR, WATERLOO"
      }
    ]
  },
  {
    "postal": "N2L0P0",
    "result": []
  },
  {
    "postal": "N2L8G2",
    "result": []
  },
  {
    "postal": "N2L1V9",
    "result": [
      {
        "electoralDistricts": [
          {
            "election": null,
            "id": 114,
            "name": "Waterloo"
          }
        ],
        "pollDivisionIds": [
          10126549
        ],
        "postalCode": "N2L1V9",
        "streetName": "ERB",
        "streetDirectionId": "W",
        "streetTypeId": "ST",
        "placeName": "WATERLOO",
        "streetNameDisplayText": "ERB ST W, WATERLOO"
      }
    ]
  },
  {
    "postal": "N2L8N8",
    "result": []
  },
  {
    "postal": "N2L6S8",
    "result": []
  },
  {
    "postal": "N2L8H2",
    "result": []
  },
  {
    "postal": "N2L5R8",
    "result": [
      {
        "electoralDistricts": [
          {
            "election": null,
            "id": 114,
            "name": "Waterloo"
          }
        ],
        "pollDivisionIds": [
          10126541
        ],
        "postalCode": "N2L5R8",
        "streetName": "PHILLIP",
        "streetDirectionId": null,
        "streetTypeId": "ST",
        "placeName": "WATERLOO",
        "streetNameDisplayText": "PHILLIP ST, WATERLOO"
      }
    ]
  },
  {
    "postal": "N2L5L4",
    "result": [
      {
        "electoralDistricts": [
          {
            "election": null,
            "id": 114,
            "name": "Waterloo"
          }
        ],
        "pollDivisionIds": [
          10126545
        ],
        "postalCode": "N2L5L4",
        "streetName": "MULBERRY",
        "streetDirectionId": null,
        "streetTypeId": "LANE",
        "placeName": "WATERLOO",
        "streetNameDisplayText": "MULBERRY LANE, WATERLOO"
      }
    ]
  },
  {
    "postal": "N2L9E1",
    "result": []
  },
  {
    "postal": "N2L1C4",
    "result": [
      {
        "electoralDistricts": [
          {
            "election": null,
            "id": 47,
            "name": "Kitchener Centre"
          },
          {
            "election": null,
            "id": 114,
            "name": "Waterloo"
          }
        ],
        "pollDivisionIds": [
          10143703,
          10126557
        ],
        "postalCode": "N2L1C4",
        "streetName": "JOHN",
        "streetDirectionId": "W",
        "streetTypeId": "ST",
        "placeName": "WATERLOO",
        "streetNameDisplayText": "JOHN ST W, WATERLOO"
      }
    ]
  },
  {
    "postal": "N2L8W5",
    "result": []
  },
  {
    "postal": "N2L1Y4",
    "result": [
      {
        "electoralDistricts": [
          {
            "election": null,
            "id": 114,
            "name": "Waterloo"
          }
        ],
        "pollDivisionIds": [
          10126557
        ],
        "postalCode": "N2L1Y4",
        "streetName": "PARK",
        "streetDirectionId": null,
        "streetTypeId": "ST",
        "placeName": "WATERLOO",
        "streetNameDisplayText": "PARK ST, WATERLOO"
      }
    ]
  },
  {
    "postal": "N2L1C0",
    "result": []
  },
  {
    "postal": "N2L2J2",
    "result": [
      {
        "electoralDistricts": [
          {
            "election": null,
            "id": 114,
            "name": "Waterloo"
          }
        ],
        "pollDivisionIds": [
          10126551
        ],
        "postalCode": "N2L2J2",
        "streetName": "DIETZ",
        "streetDirectionId": "N",
        "streetTypeId": "AVE",
        "placeName": "WATERLOO",
        "streetNameDisplayText": "DIETZ AVE N, WATERLOO"
      }
    ]
  },
  {
    "postal": "N2L2J0",
    "result": []
  },
  {
    "postal": "N2L7A3",
    "result": []
  },
  {
    "postal": "N2L8M1",
    "result": []
  },
  {
    "postal": "N2L7T9",
    "result": []
  },
  {
    "postal": "N2L6C0",
    "result": []
  },
  {
    "postal": "N2L7X1",
    "result": []
  },
  {
    "postal": "N2L0G1",
    "result": [
      {
        "electoralDistricts": [
          {
            "election": null,
            "id": 114,
            "name": "Waterloo"
          }
        ],
        "pollDivisionIds": [
          10126551
        ],
        "postalCode": "N2L0G1",
        "streetName": "BARREL YARDS",
        "streetDirectionId": null,
        "streetTypeId": "BLVD",
        "placeName": "WATERLOO",
        "streetNameDisplayText": "BARREL YARDS BLVD, WATERLOO"
      }
    ]
  },
  {
    "postal": "N2L4X2",
    "result": [
      {
        "electoralDistricts": [
          {
            "election": null,
            "id": 114,
            "name": "Waterloo"
          }
        ],
        "pollDivisionIds": [
          10126543
        ],
        "postalCode": "N2L4X2",
        "streetName": "LYNNBROOK",
        "streetDirectionId": null,
        "streetTypeId": "CRES",
        "placeName": "WATERLOO",
        "streetNameDisplayText": "LYNNBROOK CRES, WATERLOO"
      }
    ]
  },
  {
    "postal": "N2L0N6",
    "result": []
  },
  {
    "postal": "N2L8E3",
    "result": []
  },
  {
    "postal": "N2L5S8",
    "result": [
      {
        "electoralDistricts": [
          {
            "election": null,
            "id": 114,
            "name": "Waterloo"
          }
        ],
        "pollDivisionIds": [
          10126533
        ],
        "postalCode": "N2L5S8",
        "streetName": "PINERIDGE",
        "streetDirectionId": null,
        "streetTypeId": "RD",
        "placeName": "WATERLOO",
        "streetNameDisplayText": "PINERIDGE RD, WATERLOO"
      }
    ]
  },
  {
    "postal": "N2L0R0",
    "result": []
  },
  {
    "postal": "N2L6J6",
    "result": []
  },
  {
    "postal": "N2L4B4",
    "result": [
      {
        "electoralDistricts": [
          {
            "election": null,
            "id": 114,
            "name": "Waterloo"
          }
        ],
        "pollDivisionIds": [
          10126547
        ],
        "postalCode": "N2L4B4",
        "streetName": "GREENBRIER",
        "streetDirectionId": null,
        "streetTypeId": "DR",
        "placeName": "WATERLOO",
        "streetNameDisplayText": "GREENBRIER DR, WATERLOO"
      }
    ]
  },
  {
    "postal": "N2L7E3",
    "result": []
  },
  {
    "postal": "N2L3N6",
    "result": [
      {
        "electoralDistricts": [
          {
            "election": null,
            "id": 114,
            "name": "Waterloo"
          }
        ],
        "pollDivisionIds": [
          10142551
        ],
        "postalCode": "N2L3N6",
        "streetName": "STATE",
        "streetDirectionId": null,
        "streetTypeId": "ST",
        "placeName": "WATERLOO",
        "streetNameDisplayText": "STATE ST, WATERLOO"
      }
    ]
  },
  {
    "postal": "N2L3X6",
    "result": [
      {
        "electoralDistricts": [
          {
            "election": null,
            "id": 114,
            "name": "Waterloo"
          }
        ],
        "pollDivisionIds": [
          10142551
        ],
        "postalCode": "N2L3X6",
        "streetName": "HIGH",
        "streetDirectionId": null,
        "streetTypeId": "ST",
        "placeName": "WATERLOO",
        "streetNameDisplayText": "HIGH ST, WATERLOO"
      }
    ]
  },
  {
    "postal": "N2L8L0",
    "result": []
  },
  {
    "postal": "N2L8N1",
    "result": []
  },
  {
    "postal": "N2L4J0",
    "result": []
  },
  {
    "postal": "N2L0X7",
    "result": []
  },
  {
    "postal": "N2L6S4",
    "result": []
  },
  {
    "postal": "N2L0Z0",
    "result": []
  },
  {
    "postal": "N2L9X8",
    "result": []
  },
  {
    "postal": "N2L3H3",
    "result": [
      {
        "electoralDistricts": [
          {
            "election": null,
            "id": 114,
            "name": "Waterloo"
          }
        ],
        "pollDivisionIds": [
          10126548
        ],
        "postalCode": "N2L3H3",
        "streetName": "BALSAM",
        "streetDirectionId": null,
        "streetTypeId": "ST",
        "placeName": "WATERLOO",
        "streetNameDisplayText": "BALSAM ST, WATERLOO"
      }
    ]
  },
  {
    "postal": "N2L7S2",
    "result": []
  },
  {
    "postal": "N2L3T3",
    "result": [
      {
        "electoralDistricts": [
          {
            "election": null,
            "id": 114,
            "name": "Waterloo"
          }
        ],
        "pollDivisionIds": [
          10126553
        ],
        "postalCode": "N2L3T3",
        "streetName": "ALBERT",
        "streetDirectionId": null,
        "streetTypeId": "ST",
        "placeName": "WATERLOO",
        "streetNameDisplayText": "ALBERT ST, WATERLOO"
      }
    ]
  },
  {
    "postal": "N2L9P3",
    "result": []
  },
  {
    "postal": "N2L4H8",
    "result": [
      {
        "electoralDistricts": [
          {
            "election": null,
            "id": 114,
            "name": "Waterloo"
          }
        ],
        "pollDivisionIds": [
          10126541
        ],
        "postalCode": "N2L4H8",
        "streetName": "GLEN FORREST",
        "streetDirectionId": null,
        "streetTypeId": "BLVD",
        "placeName": "WATERLOO",
        "streetNameDisplayText": "GLEN FORREST BLVD, WATERLOO"
      }
    ]
  },
  {
    "postal": "N2L6R1",
    "result": []
  },
  {
    "postal": "N2L1S0",
    "result": []
  },
  {
    "postal": "N2L3W8",
    "result": [
      {
        "electoralDistricts": [
          {
            "election": null,
            "id": 114,
            "name": "Waterloo"
          }
        ],
        "pollDivisionIds": [
          10126548
        ],
        "postalCode": "N2L3W8",
        "streetName": "PHILLIP",
        "streetDirectionId": null,
        "streetTypeId": "ST",
        "placeName": "WATERLOO",
        "streetNameDisplayText": "PHILLIP ST, WATERLOO"
      }
    ]
  },
  {
    "postal": "N2L4S3",
    "result": [
      {
        "electoralDistricts": [
          {
            "election": null,
            "id": 114,
            "name": "Waterloo"
          }
        ],
        "pollDivisionIds": [
          10126543
        ],
        "postalCode": "N2L4S3",
        "streetName": "CEDARBRAE",
        "streetDirectionId": null,
        "streetTypeId": "AVE",
        "placeName": "WATERLOO",
        "streetNameDisplayText": "CEDARBRAE AVE, WATERLOO"
      }
    ]
  },
  {
    "postal": "N2L1B6",
    "result": [
      {
        "electoralDistricts": [
          {
            "election": null,
            "id": 114,
            "name": "Waterloo"
          }
        ],
        "pollDivisionIds": [
          10126557
        ],
        "postalCode": "N2L1B6",
        "streetName": "JOHN",
        "streetDirectionId": "W",
        "streetTypeId": "ST",
        "placeName": "WATERLOO",
        "streetNameDisplayText": "JOHN ST W, WATERLOO"
      }
    ]
  },
  {
    "postal": "N2L8R3",
    "result": []
  },
  {
    "postal": "N2L4V9",
    "result": [
      {
        "electoralDistricts": [
          {
            "election": null,
            "id": 114,
            "name": "Waterloo"
          }
        ],
        "pollDivisionIds": [
          10126543
        ],
        "postalCode": "N2L4V9",
        "streetName": "SPRUCEHILL",
        "streetDirectionId": null,
        "streetTypeId": "AVE",
        "placeName": "WATERLOO",
        "streetNameDisplayText": "SPRUCEHILL AVE, WATERLOO"
      }
    ]
  },
  {
    "postal": "N2L9W4",
    "result": []
  },
  {
    "postal": "N2L3T4",
    "result": [
      {
        "electoralDistricts": [
          {
            "election": null,
            "id": 114,
            "name": "Waterloo"
          }
        ],
        "pollDivisionIds": [
          10126553
        ],
        "postalCode": "N2L3T4",
        "streetName": "ALBERT",
        "streetDirectionId": null,
        "streetTypeId": "ST",
        "placeName": "WATERLOO",
        "streetNameDisplayText": "ALBERT ST, WATERLOO"
      }
    ]
  },
  {
    "postal": "N2L5C7",
    "result": [
      {
        "electoralDistricts": [
          {
            "election": null,
            "id": 114,
            "name": "Waterloo"
          }
        ],
        "pollDivisionIds": [
          10126547
        ],
        "postalCode": "N2L5C7",
        "streetName": "GLENELM",
        "streetDirectionId": null,
        "streetTypeId": "CRES",
        "placeName": "WATERLOO",
        "streetNameDisplayText": "GLENELM CRES, WATERLOO"
      }
    ]
  },
  {
    "postal": "N2L3Y1",
    "result": [
      {
        "electoralDistricts": [
          {
            "election": null,
            "id": 114,
            "name": "Waterloo"
          }
        ],
        "pollDivisionIds": [
          10126550
        ],
        "postalCode": "N2L3Y1",
        "streetName": "AUSTIN",
        "streetDirectionId": null,
        "streetTypeId": "DR",
        "placeName": "WATERLOO",
        "streetNameDisplayText": "AUSTIN DR, WATERLOO"
      }
    ]
  },
  {
    "postal": "N2L5V0",
    "result": []
  },
  {
    "postal": "N2L8G8",
    "result": []
  },
  {
    "postal": "N2L8B1",
    "result": []
  },
  {
    "postal": "N2L4P5",
    "result": [
      {
        "electoralDistricts": [
          {
            "election": null,
            "id": 114,
            "name": "Waterloo"
          }
        ],
        "pollDivisionIds": [
          10126542
        ],
        "postalCode": "N2L4P5",
        "streetName": "GLENDENE",
        "streetDirectionId": null,
        "streetTypeId": "CRES",
        "placeName": "WATERLOO",
        "streetNameDisplayText": "GLENDENE CRES, WATERLOO"
      }
    ]
  },
  {
    "postal": "N2L7B2",
    "result": []
  },
  {
    "postal": "N2L0R2",
    "result": []
  },
  {
    "postal": "N2L4M4",
    "result": [
      {
        "electoralDistricts": [
          {
            "election": null,
            "id": 114,
            "name": "Waterloo"
          }
        ],
        "pollDivisionIds": [
          10126541
        ],
        "postalCode": "N2L4M4",
        "streetName": "TOLL GATE",
        "streetDirectionId": null,
        "streetTypeId": "BLVD",
        "placeName": "WATERLOO",
        "streetNameDisplayText": "TOLL GATE BLVD, WATERLOO"
      }
    ]
  },
  {
    "postal": "N2L7M4",
    "result": []
  },
  {
    "postal": "N2L9S7",
    "result": []
  },
  {
    "postal": "N2L5Z7",
    "result": [
      {
        "electoralDistricts": [
          {
            "election": null,
            "id": 114,
            "name": "Waterloo"
          }
        ],
        "pollDivisionIds": [
          10126552
        ],
        "postalCode": "N2L5Z7",
        "streetName": "GINGERICH",
        "streetDirectionId": null,
        "streetTypeId": "AVE",
        "placeName": "WATERLOO",
        "streetNameDisplayText": "GINGERICH AVE, WATERLOO"
      },
      {
        "electoralDistricts": [
          {
            "election": null,
            "id": 114,
            "name": "Waterloo"
          }
        ],
        "pollDivisionIds": [
          10126552
        ],
        "postalCode": "N2L5Z7",
        "streetName": "KING",
        "streetDirectionId": "N",
        "streetTypeId": "ST",
        "placeName": "WATERLOO",
        "streetNameDisplayText": "KING ST N, WATERLOO"
      }
    ]
  },
  {
    "postal": "N2L7J7",
    "result": []
  },
  {
    "postal": "N2L8R8",
    "result": []
  },
  {
    "postal": "N2L9X1",
    "result": []
  },
  {
    "postal": "N2L5M9",
    "result": [
      {
        "electoralDistricts": [
          {
            "election": null,
            "id": 114,
            "name": "Waterloo"
          }
        ],
        "pollDivisionIds": [
          10126540
        ],
        "postalCode": "N2L5M9",
        "streetName": "MCCARRON",
        "streetDirectionId": null,
        "streetTypeId": "CRES",
        "placeName": "WATERLOO",
        "streetNameDisplayText": "MCCARRON CRES, WATERLOO"
      }
    ]
  },
  {
    "postal": "N2L9B4",
    "result": []
  },
  {
    "postal": "N2L0L9",
    "result": []
  },
  {
    "postal": "N2L9G4",
    "result": []
  },
  {
    "postal": "N2L1J4",
    "result": [
      {
        "electoralDistricts": [
          {
            "election": null,
            "id": 114,
            "name": "Waterloo"
          }
        ],
        "pollDivisionIds": [
          10126557
        ],
        "postalCode": "N2L1J4",
        "streetName": "WILLIAM",
        "streetDirectionId": "W",
        "streetTypeId": "ST",
        "placeName": "WATERLOO",
        "streetNameDisplayText": "WILLIAM ST W, WATERLOO"
      }
    ]
  },
  {
    "postal": "N2L0W6",
    "result": []
  }
]
