[
  {
    "postal": "N9C9J6",
    "result": []
  },
  {
    "postal": "N9C9Z5",
    "result": []
  },
  {
    "postal": "N9C7H8",
    "result": []
  },
  {
    "postal": "N9C0P6",
    "result": []
  },
  {
    "postal": "N9C0S7",
    "result": []
  },
  {
    "postal": "N9C8B9",
    "result": []
  },
  {
    "postal": "N9C2A6",
    "result": [
      {
        "electoralDistricts": [
          {
            "election": null,
            "id": 119,
            "name": "Windsor West"
          }
        ],
        "pollDivisionIds": [
          10142777
        ],
        "postalCode": "N9C2A6",
        "streetName": "MATCHETTE",
        "streetDirectionId": null,
        "streetTypeId": "RD",
        "placeName": "WINDSOR",
        "streetNameDisplayText": "MATCHETTE RD, WINDSOR"
      }
    ]
  },
  {
    "postal": "N9C7V2",
    "result": []
  },
  {
    "postal": "N9C9P4",
    "result": []
  },
  {
    "postal": "N9C6G0",
    "result": []
  },
  {
    "postal": "N9C2K0",
    "result": []
  },
  {
    "postal": "N9C7N6",
    "result": []
  },
  {
    "postal": "N9C5R3",
    "result": []
  },
  {
    "postal": "N9C7K0",
    "result": []
  },
  {
    "postal": "N9C3R2",
    "result": [
      {
        "electoralDistricts": [
          {
            "election": null,
            "id": 119,
            "name": "Windsor West"
          }
        ],
        "pollDivisionIds": [
          10142777
        ],
        "postalCode": "N9C3R2",
        "streetName": "SUN VALLEY",
        "streetDirectionId": null,
        "streetTypeId": "DR",
        "placeName": "WINDSOR",
        "streetNameDisplayText": "SUN VALLEY DR, WINDSOR"
      }
    ]
  },
  {
    "postal": "N9C0J1",
    "result": []
  },
  {
    "postal": "N9C0B0",
    "result": []
  },
  {
    "postal": "N9C5Z2",
    "result": []
  },
  {
    "postal": "N9C7P3",
    "result": []
  },
  {
    "postal": "N9C2K3",
    "result": [
      {
        "electoralDistricts": [
          {
            "election": null,
            "id": 119,
            "name": "Windsor West"
          }
        ],
        "pollDivisionIds": [
          10142778
        ],
        "postalCode": "N9C2K3",
        "streetName": "HURON CHURCH",
        "streetDirectionId": null,
        "streetTypeId": "RD",
        "placeName": "WINDSOR",
        "streetNameDisplayText": "HURON CHURCH RD, WINDSOR"
      }
    ]
  },
  {
    "postal": "N9C7Y6",
    "result": []
  },
  {
    "postal": "N9C1L9",
    "result": [
      {
        "electoralDistricts": [
          {
            "election": null,
            "id": 119,
            "name": "Windsor West"
          }
        ],
        "pollDivisionIds": [
          10142775
        ],
        "postalCode": "N9C1L9",
        "streetName": "DONNELLY",
        "streetDirectionId": null,
        "streetTypeId": "ST",
        "placeName": "WINDSOR",
        "streetNameDisplayText": "DONNELLY ST, WINDSOR"
      }
    ]
  },
  {
    "postal": "N9C8T0",
    "result": []
  },
  {
    "postal": "N9C3K8",
    "result": [
      {
        "electoralDistricts": [
          {
            "election": null,
            "id": 119,
            "name": "Windsor West"
          }
        ],
        "pollDivisionIds": [
          10142778,
          10142776
        ],
        "postalCode": "N9C3K8",
        "streetName": "FELIX",
        "streetDirectionId": null,
        "streetTypeId": "AVE",
        "placeName": "WINDSOR",
        "streetNameDisplayText": "FELIX AVE, WINDSOR"
      }
    ]
  },
  {
    "postal": "N9C5W9",
    "result": []
  },
  {
    "postal": "N9C6T9",
    "result": []
  },
  {
    "postal": "N9C4H1",
    "result": []
  },
  {
    "postal": "N9C7A2",
    "result": []
  },
  {
    "postal": "N9C5G0",
    "result": []
  },
  {
    "postal": "N9C8V5",
    "result": []
  },
  {
    "postal": "N9C2Y8",
    "result": [
      {
        "electoralDistricts": [
          {
            "election": null,
            "id": 119,
            "name": "Windsor West"
          }
        ],
        "pollDivisionIds": [
          10142776
        ],
        "postalCode": "N9C2Y8",
        "streetName": "PRINCE",
        "streetDirectionId": null,
        "streetTypeId": "RD",
        "placeName": "WINDSOR",
        "streetNameDisplayText": "PRINCE RD, WINDSOR"
      }
    ]
  },
  {
    "postal": "N9C2B6",
    "result": [
      {
        "electoralDistricts": [
          {
            "election": null,
            "id": 119,
            "name": "Windsor West"
          }
        ],
        "pollDivisionIds": [
          10142777
        ],
        "postalCode": "N9C2B6",
        "streetName": "TECUMSEH",
        "streetDirectionId": "W",
        "streetTypeId": "RD",
        "placeName": "WINDSOR",
        "streetNameDisplayText": "TECUMSEH RD W, WINDSOR"
      }
    ]
  },
  {
    "postal": "N9C4W8",
    "result": []
  },
  {
    "postal": "N9C8H7",
    "result": []
  },
  {
    "postal": "N9C5P1",
    "result": []
  },
  {
    "postal": "N9C2B8",
    "result": [
      {
        "electoralDistricts": [
          {
            "election": null,
            "id": 119,
            "name": "Windsor West"
          }
        ],
        "pollDivisionIds": [
          10142777
        ],
        "postalCode": "N9C2B8",
        "streetName": "BEECHWOOD",
        "streetDirectionId": null,
        "streetTypeId": "ST",
        "placeName": "WINDSOR",
        "streetNameDisplayText": "BEECHWOOD ST, WINDSOR"
      }
    ]
  },
  {
    "postal": "N9C0P2",
    "result": []
  },
  {
    "postal": "N9C9M1",
    "result": []
  },
  {
    "postal": "N9C3G0",
    "result": []
  },
  {
    "postal": "N9C9Z2",
    "result": []
  },
  {
    "postal": "N9C2A0",
    "result": []
  },
  {
    "postal": "N9C6Y0",
    "result": []
  },
  {
    "postal": "N9C2Z8",
    "result": [
      {
        "electoralDistricts": [
          {
            "election": null,
            "id": 119,
            "name": "Windsor West"
          }
        ],
        "pollDivisionIds": [
          10142778
        ],
        "postalCode": "N9C2Z8",
        "streetName": "PRINCE",
        "streetDirectionId": null,
        "streetTypeId": "RD",
        "placeName": "WINDSOR",
        "streetNameDisplayText": "PRINCE RD, WINDSOR"
      }
    ]
  },
  {
    "postal": "N9C7Y3",
    "result": []
  },
  {
    "postal": "N9C6Z5",
    "result": []
  },
  {
    "postal": "N9C6E0",
    "result": []
  },
  {
    "postal": "N9C9B7",
    "result": []
  },
  {
    "postal": "N9C9S5",
    "result": []
  },
  {
    "postal": "N9C3X3",
    "result": [
      {
        "electoralDistricts": [
          {
            "election": null,
            "id": 119,
            "name": "Windsor West"
          }
        ],
        "pollDivisionIds": [
          10142777
        ],
        "postalCode": "N9C3X3",
        "streetName": "WENTWORTH",
        "streetDirectionId": null,
        "streetTypeId": "ST",
        "placeName": "WINDSOR",
        "streetNameDisplayText": "WENTWORTH ST, WINDSOR"
      }
    ]
  },
  {
    "postal": "N9C7R5",
    "result": []
  },
  {
    "postal": "N9C2X3",
    "result": [
      {
        "electoralDistricts": [
          {
            "election": null,
            "id": 119,
            "name": "Windsor West"
          }
        ],
        "pollDivisionIds": [
          10142778
        ],
        "postalCode": "N9C2X3",
        "streetName": "SOUTH",
        "streetDirectionId": null,
        "streetTypeId": "ST",
        "placeName": "WINDSOR",
        "streetNameDisplayText": "SOUTH ST, WINDSOR"
      }
    ]
  },
  {
    "postal": "N9C8Z9",
    "result": []
  },
  {
    "postal": "N9C0N4",
    "result": []
  },
  {
    "postal": "N9C1K1",
    "result": [
      {
        "electoralDistricts": [
          {
            "election": null,
            "id": 119,
            "name": "Windsor West"
          }
        ],
        "pollDivisionIds": [
          10142776
        ],
        "postalCode": "N9C1K1",
        "streetName": "PETER",
        "streetDirectionId": null,
        "streetTypeId": "ST",
        "placeName": "WINDSOR",
        "streetNameDisplayText": "PETER ST, WINDSOR"
      }
    ]
  },
  {
    "postal": "N9C1S3",
    "result": [
      {
        "electoralDistricts": [
          {
            "election": null,
            "id": 119,
            "name": "Windsor West"
          }
        ],
        "pollDivisionIds": [
          10142776
        ],
        "postalCode": "N9C1S3",
        "streetName": "EDISON",
        "streetDirectionId": null,
        "streetTypeId": "ST",
        "placeName": "WINDSOR",
        "streetNameDisplayText": "EDISON ST, WINDSOR"
      }
    ]
  },
  {
    "postal": "N9C6M4",
    "result": []
  },
  {
    "postal": "N9C9A9",
    "result": []
  },
  {
    "postal": "N9C9Z9",
    "result": []
  },
  {
    "postal": "N9C6T4",
    "result": []
  },
  {
    "postal": "N9C0B2",
    "result": [
      {
        "electoralDistricts": [
          {
            "election": null,
            "id": 119,
            "name": "Windsor West"
          }
        ],
        "pollDivisionIds": [
          10142777
        ],
        "postalCode": "N9C0B2",
        "streetName": "SPRUCEWOOD",
        "streetDirectionId": null,
        "streetTypeId": "AVE",
        "placeName": "WINDSOR",
        "streetNameDisplayText": "SPRUCEWOOD AVE, WINDSOR"
      }
    ]
  },
  {
    "postal": "N9C2L9",
    "result": [
      {
        "electoralDistricts": [
          {
            "election": null,
            "id": 119,
            "name": "Windsor West"
          }
        ],
        "pollDivisionIds": [
          10142788,
          10142777
        ],
        "postalCode": "N9C2L9",
        "streetName": "HURON CHURCH",
        "streetDirectionId": null,
        "streetTypeId": "RD",
        "placeName": "WINDSOR",
        "streetNameDisplayText": "HURON CHURCH RD, WINDSOR"
      }
    ]
  },
  {
    "postal": "N9C8K9",
    "result": []
  },
  {
    "postal": "N9C2H9",
    "result": []
  },
  {
    "postal": "N9C3Z6",
    "result": [
      {
        "electoralDistricts": [
          {
            "election": null,
            "id": 119,
            "name": "Windsor West"
          }
        ],
        "pollDivisionIds": [
          10142776
        ],
        "postalCode": "N9C3Z6",
        "streetName": "PETER",
        "streetDirectionId": null,
        "streetTypeId": "ST",
        "placeName": "WINDSOR",
        "streetNameDisplayText": "PETER ST, WINDSOR"
      }
    ]
  },
  {
    "postal": "N9C3B0",
    "result": []
  },
  {
    "postal": "N9C2H8",
    "result": []
  },
  {
    "postal": "N9C3X2",
    "result": [
      {
        "electoralDistricts": [
          {
            "election": null,
            "id": 119,
            "name": "Windsor West"
          }
        ],
        "pollDivisionIds": [
          10142777
        ],
        "postalCode": "N9C3X2",
        "streetName": "WENTWORTH",
        "streetDirectionId": null,
        "streetTypeId": "ST",
        "placeName": "WINDSOR",
        "streetNameDisplayText": "WENTWORTH ST, WINDSOR"
      }
    ]
  },
  {
    "postal": "N9C2E9",
    "result": [
      {
        "electoralDistricts": [
          {
            "election": null,
            "id": 119,
            "name": "Windsor West"
          }
        ],
        "pollDivisionIds": [
          10142777
        ],
        "postalCode": "N9C2E9",
        "streetName": "GREENVIEW",
        "streetDirectionId": null,
        "streetTypeId": "CRES",
        "placeName": "WINDSOR",
        "streetNameDisplayText": "GREENVIEW CRES, WINDSOR"
      }
    ]
  },
  {
    "postal": "N9C9P6",
    "result": []
  },
  {
    "postal": "N9C9E2",
    "result": []
  },
  {
    "postal": "N9C9H2",
    "result": []
  },
  {
    "postal": "N9C1S8",
    "result": []
  },
  {
    "postal": "N9C3M6",
    "result": [
      {
        "electoralDistricts": [
          {
            "election": null,
            "id": 119,
            "name": "Windsor West"
          }
        ],
        "pollDivisionIds": [
          10142777
        ],
        "postalCode": "N9C3M6",
        "streetName": "FELIX",
        "streetDirectionId": null,
        "streetTypeId": "AVE",
        "placeName": "WINDSOR",
        "streetNameDisplayText": "FELIX AVE, WINDSOR"
      }
    ]
  },
  {
    "postal": "N9C6Z8",
    "result": []
  },
  {
    "postal": "N9C4J2",
    "result": []
  },
  {
    "postal": "N9C9Y1",
    "result": []
  },
  {
    "postal": "N9C8V6",
    "result": []
  },
  {
    "postal": "N9C6B2",
    "result": []
  },
  {
    "postal": "N9C1P8",
    "result": [
      {
        "electoralDistricts": [
          {
            "election": null,
            "id": 119,
            "name": "Windsor West"
          }
        ],
        "pollDivisionIds": [
          10142776
        ],
        "postalCode": "N9C1P8",
        "streetName": "LINWOOD",
        "streetDirectionId": null,
        "streetTypeId": "PL",
        "placeName": "WINDSOR",
        "streetNameDisplayText": "LINWOOD PL, WINDSOR"
      }
    ]
  },
  {
    "postal": "N9C0V8",
    "result": []
  },
  {
    "postal": "N9C4Y0",
    "result": []
  },
  {
    "postal": "N9C2T4",
    "result": [
      {
        "electoralDistricts": [
          {
            "election": null,
            "id": 119,
            "name": "Windsor West"
          }
        ],
        "pollDivisionIds": [
          10142776
        ],
        "postalCode": "N9C2T4",
        "streetName": "BROCK",
        "streetDirectionId": null,
        "streetTypeId": "ST",
        "placeName": "WINDSOR",
        "streetNameDisplayText": "BROCK ST, WINDSOR"
      }
    ]
  },
  {
    "postal": "N9C2S3",
    "result": [
      {
        "electoralDistricts": [
          {
            "election": null,
            "id": 119,
            "name": "Windsor West"
          }
        ],
        "pollDivisionIds": [
          10142775
        ],
        "postalCode": "N9C2S3",
        "streetName": "MILL",
        "streetDirectionId": null,
        "streetTypeId": "ST",
        "placeName": "WINDSOR",
        "streetNameDisplayText": "MILL ST, WINDSOR"
      }
    ]
  },
  {
    "postal": "N9C0K0",
    "result": []
  },
  {
    "postal": "N9C5N1",
    "result": []
  },
  {
    "postal": "N9C7T0",
    "result": []
  },
  {
    "postal": "N9C9N2",
    "result": []
  },
  {
    "postal": "N9C5L1",
    "result": []
  },
  {
    "postal": "N9C7G5",
    "result": []
  },
  {
    "postal": "N9C6K2",
    "result": []
  },
  {
    "postal": "N9C6P9",
    "result": []
  },
  {
    "postal": "N9C0E6",
    "result": []
  },
  {
    "postal": "N9C8R9",
    "result": []
  },
  {
    "postal": "N9C3G9",
    "result": [
      {
        "electoralDistricts": [
          {
            "election": null,
            "id": 119,
            "name": "Windsor West"
          }
        ],
        "pollDivisionIds": [
          10142776
        ],
        "postalCode": "N9C3G9",
        "streetName": "TOURNIER",
        "streetDirectionId": null,
        "streetTypeId": "ST",
        "placeName": "WINDSOR",
        "streetNameDisplayText": "TOURNIER ST, WINDSOR"
      }
    ]
  },
  {
    "postal": "N9C0V7",
    "result": []
  },
  {
    "postal": "N9C2Z1",
    "result": [
      {
        "electoralDistricts": [
          {
            "election": null,
            "id": 119,
            "name": "Windsor West"
          }
        ],
        "pollDivisionIds": [
          10142776
        ],
        "postalCode": "N9C2Z1",
        "streetName": "PRINCE",
        "streetDirectionId": null,
        "streetTypeId": "RD",
        "placeName": "WINDSOR",
        "streetNameDisplayText": "PRINCE RD, WINDSOR"
      }
    ]
  },
  {
    "postal": "N9C7N1",
    "result": []
  },
  {
    "postal": "N9C3C6",
    "result": [
      {
        "electoralDistricts": [
          {
            "election": null,
            "id": 119,
            "name": "Windsor West"
          }
        ],
        "pollDivisionIds": [
          10142776
        ],
        "postalCode": "N9C3C6",
        "streetName": "CHAPPELL",
        "streetDirectionId": null,
        "streetTypeId": "AVE",
        "placeName": "WINDSOR",
        "streetNameDisplayText": "CHAPPELL AVE, WINDSOR"
      }
    ]
  },
  {
    "postal": "N9C4M1",
    "result": []
  },
  {
    "postal": "N9C9K2",
    "result": []
  },
  {
    "postal": "N9C9S6",
    "result": []
  },
  {
    "postal": "N9C4X1",
    "result": []
  },
  {
    "postal": "N9C8W2",
    "result": []
  },
  {
    "postal": "N9C7N2",
    "result": []
  },
  {
    "postal": "N9C8S3",
    "result": []
  },
  {
    "postal": "N9C4V0",
    "result": []
  },
  {
    "postal": "N9C6W4",
    "result": []
  },
  {
    "postal": "N9C5M1",
    "result": []
  },
  {
    "postal": "N9C0S4",
    "result": []
  },
  {
    "postal": "N9C5X6",
    "result": []
  },
  {
    "postal": "N9C8L5",
    "result": []
  },
  {
    "postal": "N9C5M8",
    "result": []
  },
  {
    "postal": "N9C2G3",
    "result": []
  },
  {
    "postal": "N9C8E4",
    "result": []
  },
  {
    "postal": "N9C7S9",
    "result": []
  },
  {
    "postal": "N9C1K3",
    "result": [
      {
        "electoralDistricts": [
          {
            "election": null,
            "id": 119,
            "name": "Windsor West"
          }
        ],
        "pollDivisionIds": [
          10142776
        ],
        "postalCode": "N9C1K3",
        "streetName": "PETER",
        "streetDirectionId": null,
        "streetTypeId": "ST",
        "placeName": "WINDSOR",
        "streetNameDisplayText": "PETER ST, WINDSOR"
      }
    ]
  },
  {
    "postal": "N9C4E1",
    "result": [
      {
        "electoralDistricts": [
          {
            "election": null,
            "id": 119,
            "name": "Windsor West"
          }
        ],
        "pollDivisionIds": [
          10142775
        ],
        "postalCode": "N9C4E1",
        "streetName": "RUSSELL",
        "streetDirectionId": null,
        "streetTypeId": "ST",
        "placeName": "WINDSOR",
        "streetNameDisplayText": "RUSSELL ST, WINDSOR"
      }
    ]
  },
  {
    "postal": "N9C4R2",
    "result": []
  },
  {
    "postal": "N9C6T0",
    "result": []
  },
  {
    "postal": "N9C3K5",
    "result": [
      {
        "electoralDistricts": [
          {
            "election": null,
            "id": 119,
            "name": "Windsor West"
          }
        ],
        "pollDivisionIds": [
          10142778
        ],
        "postalCode": "N9C3K5",
        "streetName": "LENA",
        "streetDirectionId": null,
        "streetTypeId": "AVE",
        "placeName": "WINDSOR",
        "streetNameDisplayText": "LENA AVE, WINDSOR"
      }
    ]
  },
  {
    "postal": "N9C3S3",
    "result": []
  },
  {
    "postal": "N9C3L4",
    "result": [
      {
        "electoralDistricts": [
          {
            "election": null,
            "id": 119,
            "name": "Windsor West"
          }
        ],
        "pollDivisionIds": [
          10142778
        ],
        "postalCode": "N9C3L4",
        "streetName": "FELIX",
        "streetDirectionId": null,
        "streetTypeId": "AVE",
        "placeName": "WINDSOR",
        "streetNameDisplayText": "FELIX AVE, WINDSOR"
      }
    ]
  },
  {
    "postal": "N9C9Y2",
    "result": []
  },
  {
    "postal": "N9C1E0",
    "result": []
  },
  {
    "postal": "N9C9A4",
    "result": []
  },
  {
    "postal": "N9C1L3",
    "result": [
      {
        "electoralDistricts": [
          {
            "election": null,
            "id": 119,
            "name": "Windsor West"
          }
        ],
        "pollDivisionIds": [
          10142776
        ],
        "postalCode": "N9C1L3",
        "streetName": "BABY",
        "streetDirectionId": null,
        "streetTypeId": "ST",
        "placeName": "WINDSOR",
        "streetNameDisplayText": "BABY ST, WINDSOR"
      }
    ]
  },
  {
    "postal": "N9C6N1",
    "result": []
  },
  {
    "postal": "N9C6G7",
    "result": []
  },
  {
    "postal": "N9C7W1",
    "result": []
  },
  {
    "postal": "N9C4M6",
    "result": []
  },
  {
    "postal": "N9C1K0",
    "result": []
  },
  {
    "postal": "N9C3E2",
    "result": [
      {
        "electoralDistricts": [
          {
            "election": null,
            "id": 119,
            "name": "Windsor West"
          }
        ],
        "pollDivisionIds": [
          10142777
        ],
        "postalCode": "N9C3E2",
        "streetName": "CHAPPELL",
        "streetDirectionId": null,
        "streetTypeId": "AVE",
        "placeName": "WINDSOR",
        "streetNameDisplayText": "CHAPPELL AVE, WINDSOR"
      }
    ]
  },
  {
    "postal": "N9C5H4",
    "result": []
  },
  {
    "postal": "N9C1K7",
    "result": [
      {
        "electoralDistricts": [
          {
            "election": null,
            "id": 119,
            "name": "Windsor West"
          }
        ],
        "pollDivisionIds": [
          10142776
        ],
        "postalCode": "N9C1K7",
        "streetName": "BABY",
        "streetDirectionId": null,
        "streetTypeId": "ST",
        "placeName": "WINDSOR",
        "streetNameDisplayText": "BABY ST, WINDSOR"
      }
    ]
  },
  {
    "postal": "N9C0H0",
    "result": []
  },
  {
    "postal": "N9C0J3",
    "result": []
  },
  {
    "postal": "N9C1X6",
    "result": [
      {
        "electoralDistricts": [
          {
            "election": null,
            "id": 119,
            "name": "Windsor West"
          }
        ],
        "pollDivisionIds": [
          10142778
        ],
        "postalCode": "N9C1X6",
        "streetName": "MANCHESTER",
        "streetDirectionId": null,
        "streetTypeId": "RD",
        "placeName": "WINDSOR",
        "streetNameDisplayText": "MANCHESTER RD, WINDSOR"
      }
    ]
  },
  {
    "postal": "N9C2Z6",
    "result": [
      {
        "electoralDistricts": [
          {
            "election": null,
            "id": 119,
            "name": "Windsor West"
          }
        ],
        "pollDivisionIds": [
          10142778
        ],
        "postalCode": "N9C2Z6",
        "streetName": "PRINCE",
        "streetDirectionId": null,
        "streetTypeId": "RD",
        "placeName": "WINDSOR",
        "streetNameDisplayText": "PRINCE RD, WINDSOR"
      }
    ]
  },
  {
    "postal": "N9C4R9",
    "result": []
  },
  {
    "postal": "N9C0W8",
    "result": []
  },
  {
    "postal": "N9C1L4",
    "result": [
      {
        "electoralDistricts": [
          {
            "election": null,
            "id": 119,
            "name": "Windsor West"
          }
        ],
        "pollDivisionIds": [
          10142776
        ],
        "postalCode": "N9C1L4",
        "streetName": "BABY",
        "streetDirectionId": null,
        "streetTypeId": "ST",
        "placeName": "WINDSOR",
        "streetNameDisplayText": "BABY ST, WINDSOR"
      }
    ]
  },
  {
    "postal": "N9C0C8",
    "result": [
      {
        "electoralDistricts": [
          {
            "election": null,
            "id": 119,
            "name": "Windsor West"
          }
        ],
        "pollDivisionIds": [
          10142776
        ],
        "postalCode": "N9C0C8",
        "streetName": "KING",
        "streetDirectionId": null,
        "streetTypeId": "ST",
        "placeName": "WINDSOR",
        "streetNameDisplayText": "KING ST, WINDSOR"
      }
    ]
  },
  {
    "postal": "N9C9X7",
    "result": []
  },
  {
    "postal": "N9C4T1",
    "result": []
  },
  {
    "postal": "N9C0M0",
    "result": []
  },
  {
    "postal": "N9C6A2",
    "result": []
  },
  {
    "postal": "N9C9S8",
    "result": []
  },
  {
    "postal": "N9C9T4",
    "result": []
  },
  {
    "postal": "N9C9Y4",
    "result": []
  },
  {
    "postal": "N9C6G5",
    "result": []
  },
  {
    "postal": "N9C6H9",
    "result": []
  },
  {
    "postal": "N9C2P3",
    "result": [
      {
        "electoralDistricts": [
          {
            "election": null,
            "id": 119,
            "name": "Windsor West"
          }
        ],
        "pollDivisionIds": [
          10142775
        ],
        "postalCode": "N9C2P3",
        "streetName": "DETROIT",
        "streetDirectionId": null,
        "streetTypeId": "ST",
        "placeName": "WINDSOR",
        "streetNameDisplayText": "DETROIT ST, WINDSOR"
      }
    ]
  },
  {
    "postal": "N9C1T6",
    "result": [
      {
        "electoralDistricts": [
          {
            "election": null,
            "id": 119,
            "name": "Windsor West"
          }
        ],
        "pollDivisionIds": [
          10142776,
          10142778
        ],
        "postalCode": "N9C1T6",
        "streetName": "WELLS",
        "streetDirectionId": null,
        "streetTypeId": "ST",
        "placeName": "WINDSOR",
        "streetNameDisplayText": "WELLS ST, WINDSOR"
      }
    ]
  },
  {
    "postal": "N9C4P6",
    "result": []
  },
  {
    "postal": "N9C3K1",
    "result": [
      {
        "electoralDistricts": [
          {
            "election": null,
            "id": 119,
            "name": "Windsor West"
          }
        ],
        "pollDivisionIds": [
          10142778
        ],
        "postalCode": "N9C3K1",
        "streetName": "LENA",
        "streetDirectionId": null,
        "streetTypeId": "AVE",
        "placeName": "WINDSOR",
        "streetNameDisplayText": "LENA AVE, WINDSOR"
      }
    ]
  },
  {
    "postal": "N9C6X4",
    "result": []
  },
  {
    "postal": "N9C4M8",
    "result": []
  },
  {
    "postal": "N9C2Y1",
    "result": [
      {
        "electoralDistricts": [
          {
            "election": null,
            "id": 119,
            "name": "Windsor West"
          }
        ],
        "pollDivisionIds": [
          10142776
        ],
        "postalCode": "N9C2Y1",
        "streetName": "WATKINS",
        "streetDirectionId": null,
        "streetTypeId": "ST",
        "placeName": "WINDSOR",
        "streetNameDisplayText": "WATKINS ST, WINDSOR"
      }
    ]
  },
  {
    "postal": "N9C6M1",
    "result": []
  },
  {
    "postal": "N9C5L8",
    "result": []
  },
  {
    "postal": "N9C3P6",
    "result": [
      {
        "electoralDistricts": [
          {
            "election": null,
            "id": 119,
            "name": "Windsor West"
          }
        ],
        "pollDivisionIds": [
          10142777
        ],
        "postalCode": "N9C3P6",
        "streetName": "ST JAMES",
        "streetDirectionId": null,
        "streetTypeId": "ST",
        "placeName": "WINDSOR",
        "streetNameDisplayText": "ST JAMES ST, WINDSOR"
      }
    ]
  },
  {
    "postal": "N9C9A5",
    "result": []
  },
  {
    "postal": "N9C7K1",
    "result": []
  },
  {
    "postal": "N9C3J4",
    "result": [
      {
        "electoralDistricts": [
          {
            "election": null,
            "id": 119,
            "name": "Windsor West"
          }
        ],
        "pollDivisionIds": [
          10142778
        ],
        "postalCode": "N9C3J4",
        "streetName": "HARRISON",
        "streetDirectionId": null,
        "streetTypeId": "AVE",
        "placeName": "WINDSOR",
        "streetNameDisplayText": "HARRISON AVE, WINDSOR"
      }
    ]
  },
  {
    "postal": "N9C5E7",
    "result": []
  },
  {
    "postal": "N9C3A7",
    "result": [
      {
        "electoralDistricts": [
          {
            "election": null,
            "id": 119,
            "name": "Windsor West"
          }
        ],
        "pollDivisionIds": [
          10142777
        ],
        "postalCode": "N9C3A7",
        "streetName": "PRINCE",
        "streetDirectionId": null,
        "streetTypeId": "RD",
        "placeName": "WINDSOR",
        "streetNameDisplayText": "PRINCE RD, WINDSOR"
      }
    ]
  },
  {
    "postal": "N9C1B9",
    "result": []
  },
  {
    "postal": "N9C9E8",
    "result": []
  },
  {
    "postal": "N9C1C9",
    "result": []
  },
  {
    "postal": "N9C3B5",
    "result": [
      {
        "electoralDistricts": [
          {
            "election": null,
            "id": 119,
            "name": "Windsor West"
          }
        ],
        "pollDivisionIds": [
          10142777
        ],
        "postalCode": "N9C3B5",
        "streetName": "PRINCE",
        "streetDirectionId": null,
        "streetTypeId": "RD",
        "placeName": "WINDSOR",
        "streetNameDisplayText": "PRINCE RD, WINDSOR"
      }
    ]
  },
  {
    "postal": "N9C8R0",
    "result": []
  },
  {
    "postal": "N9C3P2",
    "result": [
      {
        "electoralDistricts": [
          {
            "election": null,
            "id": 119,
            "name": "Windsor West"
          }
        ],
        "pollDivisionIds": [
          10142777
        ],
        "postalCode": "N9C3P2",
        "streetName": "REDWOOD",
        "streetDirectionId": null,
        "streetTypeId": "AVE",
        "placeName": "WINDSOR",
        "streetNameDisplayText": "REDWOOD AVE, WINDSOR"
      }
    ]
  },
  {
    "postal": "N9C5V4",
    "result": []
  },
  {
    "postal": "N9C4H0",
    "result": []
  },
  {
    "postal": "N9C4S7",
    "result": []
  },
  {
    "postal": "N9C6C2",
    "result": []
  },
  {
    "postal": "N9C8W3",
    "result": []
  },
  {
    "postal": "N9C4M5",
    "result": []
  },
  {
    "postal": "N9C5T1",
    "result": []
  },
  {
    "postal": "N9C3B3",
    "result": [
      {
        "electoralDistricts": [
          {
            "election": null,
            "id": 119,
            "name": "Windsor West"
          }
        ],
        "pollDivisionIds": [
          10142777
        ],
        "postalCode": "N9C3B3",
        "streetName": "PRINCE",
        "streetDirectionId": null,
        "streetTypeId": "RD",
        "placeName": "WINDSOR",
        "streetNameDisplayText": "PRINCE RD, WINDSOR"
      }
    ]
  },
  {
    "postal": "N9C6C6",
    "result": []
  },
  {
    "postal": "N9C7N8",
    "result": []
  },
  {
    "postal": "N9C2Y3",
    "result": [
      {
        "electoralDistricts": [
          {
            "election": null,
            "id": 119,
            "name": "Windsor West"
          }
        ],
        "pollDivisionIds": [
          10142776
        ],
        "postalCode": "N9C2Y3",
        "streetName": "WATKINS",
        "streetDirectionId": null,
        "streetTypeId": "ST",
        "placeName": "WINDSOR",
        "streetNameDisplayText": "WATKINS ST, WINDSOR"
      }
    ]
  },
  {
    "postal": "N9C2R6",
    "result": [
      {
        "electoralDistricts": [
          {
            "election": null,
            "id": 119,
            "name": "Windsor West"
          }
        ],
        "pollDivisionIds": [
          10142775
        ],
        "postalCode": "N9C2R6",
        "streetName": "MILL",
        "streetDirectionId": null,
        "streetTypeId": "ST",
        "placeName": "WINDSOR",
        "streetNameDisplayText": "MILL ST, WINDSOR"
      }
    ]
  },
  {
    "postal": "N9C7N3",
    "result": []
  },
  {
    "postal": "N9C8J2",
    "result": []
  },
  {
    "postal": "N9C6A9",
    "result": []
  },
  {
    "postal": "N9C3V2",
    "result": []
  },
  {
    "postal": "N9C2N3",
    "result": [
      {
        "electoralDistricts": [
          {
            "election": null,
            "id": 119,
            "name": "Windsor West"
          }
        ],
        "pollDivisionIds": [
          10142775
        ],
        "postalCode": "N9C2N3",
        "streetName": "ROSEDALE",
        "streetDirectionId": null,
        "streetTypeId": "AVE",
        "placeName": "WINDSOR",
        "streetNameDisplayText": "ROSEDALE AVE, WINDSOR"
      }
    ]
  },
  {
    "postal": "N9C1S5",
    "result": [
      {
        "electoralDistricts": [
          {
            "election": null,
            "id": 119,
            "name": "Windsor West"
          }
        ],
        "pollDivisionIds": [
          10142778
        ],
        "postalCode": "N9C1S5",
        "streetName": "COLLEGE",
        "streetDirectionId": null,
        "streetTypeId": "AVE",
        "placeName": "WINDSOR",
        "streetNameDisplayText": "COLLEGE AVE, WINDSOR"
      }
    ]
  },
  {
    "postal": "N9C4T7",
    "result": []
  },
  {
    "postal": "N9C6Y7",
    "result": []
  },
  {
    "postal": "N9C0W7",
    "result": []
  },
  {
    "postal": "N9C2W9",
    "result": [
      {
        "electoralDistricts": [
          {
            "election": null,
            "id": 119,
            "name": "Windsor West"
          }
        ],
        "pollDivisionIds": [
          10142776
        ],
        "postalCode": "N9C2W9",
        "streetName": "SOUTH",
        "streetDirectionId": null,
        "streetTypeId": "ST",
        "placeName": "WINDSOR",
        "streetNameDisplayText": "SOUTH ST, WINDSOR"
      }
    ]
  },
  {
    "postal": "N9C8V0",
    "result": []
  },
  {
    "postal": "N9C0H4",
    "result": []
  },
  {
    "postal": "N9C2T1",
    "result": [
      {
        "electoralDistricts": [
          {
            "election": null,
            "id": 119,
            "name": "Windsor West"
          }
        ],
        "pollDivisionIds": [
          10142776
        ],
        "postalCode": "N9C2T1",
        "streetName": "BROCK",
        "streetDirectionId": null,
        "streetTypeId": "ST",
        "placeName": "WINDSOR",
        "streetNameDisplayText": "BROCK ST, WINDSOR"
      }
    ]
  },
  {
    "postal": "N9C1B1",
    "result": [
      {
        "electoralDistricts": [
          {
            "election": null,
            "id": 119,
            "name": "Windsor West"
          }
        ],
        "pollDivisionIds": [
          10142775
        ],
        "postalCode": "N9C1B1",
        "streetName": "SANDWICH",
        "streetDirectionId": null,
        "streetTypeId": "ST",
        "placeName": "WINDSOR",
        "streetNameDisplayText": "SANDWICH ST, WINDSOR"
      }
    ]
  },
  {
    "postal": "N9C8B6",
    "result": []
  },
  {
    "postal": "N9C6H1",
    "result": []
  },
  {
    "postal": "N9C8T8",
    "result": []
  },
  {
    "postal": "N9C0T4",
    "result": []
  },
  {
    "postal": "N9C2C4",
    "result": [
      {
        "electoralDistricts": [
          {
            "election": null,
            "id": 119,
            "name": "Windsor West"
          }
        ],
        "pollDivisionIds": [
          10142777
        ],
        "postalCode": "N9C2C4",
        "streetName": "WHITNEY",
        "streetDirectionId": null,
        "streetTypeId": "AVE",
        "placeName": "WINDSOR",
        "streetNameDisplayText": "WHITNEY AVE, WINDSOR"
      }
    ]
  },
  {
    "postal": "N9C8N3",
    "result": []
  },
  {
    "postal": "N9C4L8",
    "result": []
  },
  {
    "postal": "N9C2B5",
    "result": [
      {
        "electoralDistricts": [
          {
            "election": null,
            "id": 119,
            "name": "Windsor West"
          }
        ],
        "pollDivisionIds": [
          10142777
        ],
        "postalCode": "N9C2B5",
        "streetName": "TECUMSEH",
        "streetDirectionId": "W",
        "streetTypeId": "RD",
        "placeName": "WINDSOR",
        "streetNameDisplayText": "TECUMSEH RD W, WINDSOR"
      }
    ]
  },
  {
    "postal": "N9C3H1",
    "result": [
      {
        "electoralDistricts": [
          {
            "election": null,
            "id": 119,
            "name": "Windsor West"
          }
        ],
        "pollDivisionIds": [
          10142776
        ],
        "postalCode": "N9C3H1",
        "streetName": "TOURNIER",
        "streetDirectionId": null,
        "streetTypeId": "ST",
        "placeName": "WINDSOR",
        "streetNameDisplayText": "TOURNIER ST, WINDSOR"
      }
    ]
  },
  {
    "postal": "N9C4Y1",
    "result": []
  },
  {
    "postal": "N9C7E2",
    "result": []
  },
  {
    "postal": "N9C2P5",
    "result": [
      {
        "electoralDistricts": [
          {
            "election": null,
            "id": 119,
            "name": "Windsor West"
          }
        ],
        "pollDivisionIds": [
          10142775
        ],
        "postalCode": "N9C2P5",
        "streetName": "DETROIT",
        "streetDirectionId": null,
        "streetTypeId": "ST",
        "placeName": "WINDSOR",
        "streetNameDisplayText": "DETROIT ST, WINDSOR"
      }
    ]
  },
  {
    "postal": "N9C8R7",
    "result": []
  },
  {
    "postal": "N9C9P1",
    "result": []
  },
  {
    "postal": "N9C3B8",
    "result": [
      {
        "electoralDistricts": [
          {
            "election": null,
            "id": 119,
            "name": "Windsor West"
          }
        ],
        "pollDivisionIds": [
          10142775
        ],
        "postalCode": "N9C3B8",
        "streetName": "HILL",
        "streetDirectionId": null,
        "streetTypeId": "AVE",
        "placeName": "WINDSOR",
        "streetNameDisplayText": "HILL AVE, WINDSOR"
      }
    ]
  },
  {
    "postal": "N9C3P7",
    "result": [
      {
        "electoralDistricts": [
          {
            "election": null,
            "id": 119,
            "name": "Windsor West"
          }
        ],
        "pollDivisionIds": [
          10142777
        ],
        "postalCode": "N9C3P7",
        "streetName": "ST JAMES",
        "streetDirectionId": null,
        "streetTypeId": "ST",
        "placeName": "WINDSOR",
        "streetNameDisplayText": "ST JAMES ST, WINDSOR"
      }
    ]
  },
  {
    "postal": "N9C9B2",
    "result": []
  },
  {
    "postal": "N9C6Z3",
    "result": []
  },
  {
    "postal": "N9C4N5",
    "result": []
  },
  {
    "postal": "N9C8T3",
    "result": []
  },
  {
    "postal": "N9C1V2",
    "result": [
      {
        "electoralDistricts": [
          {
            "election": null,
            "id": 119,
            "name": "Windsor West"
          }
        ],
        "pollDivisionIds": [
          10142778
        ],
        "postalCode": "N9C1V2",
        "streetName": "BARRYMORE",
        "streetDirectionId": null,
        "streetTypeId": "LANE",
        "placeName": "WINDSOR",
        "streetNameDisplayText": "BARRYMORE LANE, WINDSOR"
      }
    ]
  },
  {
    "postal": "N9C1Y0",
    "result": []
  },
  {
    "postal": "N9C3G6",
    "result": [
      {
        "electoralDistricts": [
          {
            "election": null,
            "id": 119,
            "name": "Windsor West"
          }
        ],
        "pollDivisionIds": [
          10142775
        ],
        "postalCode": "N9C3G6",
        "streetName": "PICHE",
        "streetDirectionId": null,
        "streetTypeId": "ST",
        "placeName": "WINDSOR",
        "streetNameDisplayText": "PICHE ST, WINDSOR"
      }
    ]
  },
  {
    "postal": "N9C3H7",
    "result": [
      {
        "electoralDistricts": [
          {
            "election": null,
            "id": 119,
            "name": "Windsor West"
          },
          {
            "election": null,
            "id": 27,
            "name": "Essex"
          }
        ],
        "pollDivisionIds": [
          10142778,
          10138033
        ],
        "postalCode": "N9C3H7",
        "streetName": "DOT",
        "streetDirectionId": null,
        "streetTypeId": "AVE",
        "placeName": "WINDSOR",
        "streetNameDisplayText": "DOT AVE, WINDSOR"
      }
    ]
  },
  {
    "postal": "N9C7X8",
    "result": []
  },
  {
    "postal": "N9C0C7",
    "result": [
      {
        "electoralDistricts": [
          {
            "election": null,
            "id": 119,
            "name": "Windsor West"
          }
        ],
        "pollDivisionIds": [
          10142778
        ],
        "postalCode": "N9C0C7",
        "streetName": "HURON CHURCH",
        "streetDirectionId": null,
        "streetTypeId": "RD",
        "placeName": "WINDSOR",
        "streetNameDisplayText": "HURON CHURCH RD, WINDSOR"
      }
    ]
  },
  {
    "postal": "N9C0W9",
    "result": []
  },
  {
    "postal": "N9C8E6",
    "result": []
  },
  {
    "postal": "N9C9Z8",
    "result": []
  },
  {
    "postal": "N9C3P4",
    "result": [
      {
        "electoralDistricts": [
          {
            "election": null,
            "id": 119,
            "name": "Windsor West"
          }
        ],
        "pollDivisionIds": [
          10142777
        ],
        "postalCode": "N9C3P4",
        "streetName": "REDWOOD",
        "streetDirectionId": null,
        "streetTypeId": "AVE",
        "placeName": "WINDSOR",
        "streetNameDisplayText": "REDWOOD AVE, WINDSOR"
      }
    ]
  },
  {
    "postal": "N9C6L8",
    "result": []
  },
  {
    "postal": "N9C2R4",
    "result": [
      {
        "electoralDistricts": [
          {
            "election": null,
            "id": 119,
            "name": "Windsor West"
          }
        ],
        "pollDivisionIds": [
          10142775
        ],
        "postalCode": "N9C2R4",
        "streetName": "MILL",
        "streetDirectionId": null,
        "streetTypeId": "ST",
        "placeName": "WINDSOR",
        "streetNameDisplayText": "MILL ST, WINDSOR"
      }
    ]
  },
  {
    "postal": "N9C2W1",
    "result": [
      {
        "electoralDistricts": [
          {
            "election": null,
            "id": 119,
            "name": "Windsor West"
          }
        ],
        "pollDivisionIds": [
          10142776
        ],
        "postalCode": "N9C2W1",
        "streetName": "CHIPPAWA",
        "streetDirectionId": null,
        "streetTypeId": "ST",
        "placeName": "WINDSOR",
        "streetNameDisplayText": "CHIPPAWA ST, WINDSOR"
      }
    ]
  },
  {
    "postal": "N9C9H8",
    "result": []
  },
  {
    "postal": "N9C8X9",
    "result": []
  },
  {
    "postal": "N9C7H4",
    "result": []
  },
  {
    "postal": "N9C3J1",
    "result": [
      {
        "electoralDistricts": [
          {
            "election": null,
            "id": 119,
            "name": "Windsor West"
          }
        ],
        "pollDivisionIds": [
          10142778
        ],
        "postalCode": "N9C3J1",
        "streetName": "DOT",
        "streetDirectionId": null,
        "streetTypeId": "AVE",
        "placeName": "WINDSOR",
        "streetNameDisplayText": "DOT AVE, WINDSOR"
      }
    ]
  },
  {
    "postal": "N9C1P4",
    "result": [
      {
        "electoralDistricts": [
          {
            "election": null,
            "id": 119,
            "name": "Windsor West"
          }
        ],
        "pollDivisionIds": [
          10142776
        ],
        "postalCode": "N9C1P4",
        "streetName": "KING",
        "streetDirectionId": null,
        "streetTypeId": "ST",
        "placeName": "WINDSOR",
        "streetNameDisplayText": "KING ST, WINDSOR"
      }
    ]
  },
  {
    "postal": "N9C2A3",
    "result": [
      {
        "electoralDistricts": [
          {
            "election": null,
            "id": 119,
            "name": "Windsor West"
          }
        ],
        "pollDivisionIds": [
          10142777
        ],
        "postalCode": "N9C2A3",
        "streetName": "MATCHETTE",
        "streetDirectionId": null,
        "streetTypeId": "RD",
        "placeName": "WINDSOR",
        "streetNameDisplayText": "MATCHETTE RD, WINDSOR"
      }
    ]
  },
  {
    "postal": "N9C0Z1",
    "result": []
  },
  {
    "postal": "N9C1C1",
    "result": [
      {
        "electoralDistricts": [
          {
            "election": null,
            "id": 119,
            "name": "Windsor West"
          }
        ],
        "pollDivisionIds": [
          10142775
        ],
        "postalCode": "N9C1C1",
        "streetName": "SANDWICH",
        "streetDirectionId": null,
        "streetTypeId": "ST",
        "placeName": "WINDSOR",
        "streetNameDisplayText": "SANDWICH ST, WINDSOR"
      }
    ]
  },
  {
    "postal": "N9C0H3",
    "result": []
  },
  {
    "postal": "N9C7B0",
    "result": []
  },
  {
    "postal": "N9C5K2",
    "result": []
  },
  {
    "postal": "N9C1E9",
    "result": [
      {
        "electoralDistricts": [
          {
            "election": null,
            "id": 119,
            "name": "Windsor West"
          }
        ],
        "pollDivisionIds": [
          10142775
        ],
        "postalCode": "N9C1E9",
        "streetName": "RUSSELL",
        "streetDirectionId": null,
        "streetTypeId": "ST",
        "placeName": "WINDSOR",
        "streetNameDisplayText": "RUSSELL ST, WINDSOR"
      }
    ]
  },
  {
    "postal": "N9C9W7",
    "result": []
  },
  {
    "postal": "N9C5W6",
    "result": []
  },
  {
    "postal": "N9C6S6",
    "result": []
  },
  {
    "postal": "N9C2P8",
    "result": []
  },
  {
    "postal": "N9C4P8",
    "result": []
  },
  {
    "postal": "N9C0V9",
    "result": []
  },
  {
    "postal": "N9C5Y2",
    "result": []
  },
  {
    "postal": "N9C7Z7",
    "result": []
  },
  {
    "postal": "N9C6Y8",
    "result": []
  },
  {
    "postal": "N9C2G7",
    "result": []
  },
  {
    "postal": "N9C8C1",
    "result": []
  },
  {
    "postal": "N9C5C5",
    "result": []
  },
  {
    "postal": "N9C2X8",
    "result": [
      {
        "electoralDistricts": [
          {
            "election": null,
            "id": 119,
            "name": "Windsor West"
          }
        ],
        "pollDivisionIds": [
          10142775
        ],
        "postalCode": "N9C2X8",
        "streetName": "WATKINS",
        "streetDirectionId": null,
        "streetTypeId": "ST",
        "placeName": "WINDSOR",
        "streetNameDisplayText": "WATKINS ST, WINDSOR"
      }
    ]
  },
  {
    "postal": "N9C1W5",
    "result": [
      {
        "electoralDistricts": [
          {
            "election": null,
            "id": 119,
            "name": "Windsor West"
          }
        ],
        "pollDivisionIds": [
          10142778
        ],
        "postalCode": "N9C1W5",
        "streetName": "GIRARDOT",
        "streetDirectionId": null,
        "streetTypeId": "ST",
        "placeName": "WINDSOR",
        "streetNameDisplayText": "GIRARDOT ST, WINDSOR"
      }
    ]
  },
  {
    "postal": "N9C7G0",
    "result": []
  },
  {
    "postal": "N9C8J8",
    "result": []
  },
  {
    "postal": "N9C3Y0",
    "result": []
  },
  {
    "postal": "N9C9T7",
    "result": []
  },
  {
    "postal": "N9C5P4",
    "result": []
  },
  {
    "postal": "N9C4B0",
    "result": []
  },
  {
    "postal": "N9C9N8",
    "result": []
  },
  {
    "postal": "N9C4A7",
    "result": []
  },
  {
    "postal": "N9C4H9",
    "result": [
      {
        "electoralDistricts": [
          {
            "election": null,
            "id": 119,
            "name": "Windsor West"
          }
        ],
        "pollDivisionIds": [
          10142777
        ],
        "postalCode": "N9C4H9",
        "streetName": "POPLAR",
        "streetDirectionId": null,
        "streetTypeId": "AVE",
        "placeName": "WINDSOR",
        "streetNameDisplayText": "POPLAR AVE, WINDSOR"
      }
    ]
  },
  {
    "postal": "N9C6X1",
    "result": []
  },
  {
    "postal": "N9C9Y7",
    "result": []
  },
  {
    "postal": "N9C2Y5",
    "result": [
      {
        "electoralDistricts": [
          {
            "election": null,
            "id": 119,
            "name": "Windsor West"
          }
        ],
        "pollDivisionIds": [
          10142776
        ],
        "postalCode": "N9C2Y5",
        "streetName": "WATKINS",
        "streetDirectionId": null,
        "streetTypeId": "ST",
        "placeName": "WINDSOR",
        "streetNameDisplayText": "WATKINS ST, WINDSOR"
      }
    ]
  },
  {
    "postal": "N9C8L7",
    "result": []
  },
  {
    "postal": "N9C2A8",
    "result": [
      {
        "electoralDistricts": [
          {
            "election": null,
            "id": 119,
            "name": "Windsor West"
          }
        ],
        "pollDivisionIds": [
          10142777
        ],
        "postalCode": "N9C2A8",
        "streetName": "MATCHETTE",
        "streetDirectionId": null,
        "streetTypeId": "RD",
        "placeName": "WINDSOR",
        "streetNameDisplayText": "MATCHETTE RD, WINDSOR"
      }
    ]
  },
  {
    "postal": "N9C2K9",
    "result": [
      {
        "electoralDistricts": [
          {
            "election": null,
            "id": 119,
            "name": "Windsor West"
          }
        ],
        "pollDivisionIds": [
          10142777
        ],
        "postalCode": "N9C2K9",
        "streetName": "HURON CHURCH LINE",
        "streetDirectionId": null,
        "streetTypeId": "RD",
        "placeName": "WINDSOR",
        "streetNameDisplayText": "HURON CHURCH LINE RD, WINDSOR"
      },
      {
        "electoralDistricts": [
          {
            "election": null,
            "id": 119,
            "name": "Windsor West"
          }
        ],
        "pollDivisionIds": [
          10142777
        ],
        "postalCode": "N9C2K9",
        "streetName": "HURON CHURCH",
        "streetDirectionId": null,
        "streetTypeId": "RD",
        "placeName": "WINDSOR",
        "streetNameDisplayText": "HURON CHURCH RD, WINDSOR"
      }
    ]
  },
  {
    "postal": "N9C3E5",
    "result": [
      {
        "electoralDistricts": [
          {
            "election": null,
            "id": 119,
            "name": "Windsor West"
          }
        ],
        "pollDivisionIds": [
          10142777
        ],
        "postalCode": "N9C3E5",
        "streetName": "CHAPPELL",
        "streetDirectionId": null,
        "streetTypeId": "AVE",
        "placeName": "WINDSOR",
        "streetNameDisplayText": "CHAPPELL AVE, WINDSOR"
      }
    ]
  },
  {
    "postal": "N9C8N6",
    "result": []
  },
  {
    "postal": "N9C8J4",
    "result": []
  },
  {
    "postal": "N9C4R7",
    "result": []
  },
  {
    "postal": "N9C9K1",
    "result": []
  },
  {
    "postal": "N9C8E1",
    "result": []
  },
  {
    "postal": "N9C0R1",
    "result": []
  },
  {
    "postal": "N9C4J3",
    "result": [
      {
        "electoralDistricts": [
          {
            "election": null,
            "id": 119,
            "name": "Windsor West"
          }
        ],
        "pollDivisionIds": [
          10142777
        ],
        "postalCode": "N9C4J3",
        "streetName": "CHAPPUS",
        "streetDirectionId": null,
        "streetTypeId": "ST",
        "placeName": "WINDSOR",
        "streetNameDisplayText": "CHAPPUS ST, WINDSOR"
      }
    ]
  },
  {
    "postal": "N9C7E7",
    "result": []
  },
  {
    "postal": "N9C0J0",
    "result": []
  },
  {
    "postal": "N9C7R8",
    "result": []
  },
  {
    "postal": "N9C9X0",
    "result": []
  },
  {
    "postal": "N9C7P6",
    "result": []
  },
  {
    "postal": "N9C0R7",
    "result": []
  },
  {
    "postal": "N9C5W1",
    "result": []
  },
  {
    "postal": "N9C0K4",
    "result": []
  },
  {
    "postal": "N9C7N9",
    "result": []
  },
  {
    "postal": "N9C1N0",
    "result": []
  },
  {
    "postal": "N9C6P3",
    "result": []
  },
  {
    "postal": "N9C5A1",
    "result": []
  },
  {
    "postal": "N9C9M9",
    "result": []
  },
  {
    "postal": "N9C7T6",
    "result": []
  },
  {
    "postal": "N9C3X0",
    "result": []
  },
  {
    "postal": "N9C2T0",
    "result": []
  },
  {
    "postal": "N9C5X9",
    "result": []
  },
  {
    "postal": "N9C2R3",
    "result": [
      {
        "electoralDistricts": [
          {
            "election": null,
            "id": 119,
            "name": "Windsor West"
          }
        ],
        "pollDivisionIds": [
          10142776
        ],
        "postalCode": "N9C2R3",
        "streetName": "MILL",
        "streetDirectionId": null,
        "streetTypeId": "ST",
        "placeName": "WINDSOR",
        "streetNameDisplayText": "MILL ST, WINDSOR"
      }
    ]
  },
  {
    "postal": "N9C5N2",
    "result": []
  },
  {
    "postal": "N9C4Y7",
    "result": []
  },
  {
    "postal": "N9C7M0",
    "result": []
  },
  {
    "postal": "N9C8P3",
    "result": []
  },
  {
    "postal": "N9C3N3",
    "result": [
      {
        "electoralDistricts": [
          {
            "election": null,
            "id": 119,
            "name": "Windsor West"
          }
        ],
        "pollDivisionIds": [
          10142778
        ],
        "postalCode": "N9C3N3",
        "streetName": "STRATHMORE",
        "streetDirectionId": null,
        "streetTypeId": "ST",
        "placeName": "WINDSOR",
        "streetNameDisplayText": "STRATHMORE ST, WINDSOR"
      }
    ]
  },
  {
    "postal": "N9C7S3",
    "result": []
  },
  {
    "postal": "N9C3V9",
    "result": []
  },
  {
    "postal": "N9C9N7",
    "result": []
  },
  {
    "postal": "N9C0G4",
    "result": []
  },
  {
    "postal": "N9C2E2",
    "result": [
      {
        "electoralDistricts": [
          {
            "election": null,
            "id": 119,
            "name": "Windsor West"
          }
        ],
        "pollDivisionIds": [
          10142777
        ],
        "postalCode": "N9C2E2",
        "streetName": "POPLAR",
        "streetDirectionId": null,
        "streetTypeId": "AVE",
        "placeName": "WINDSOR",
        "streetNameDisplayText": "POPLAR AVE, WINDSOR"
      }
    ]
  },
  {
    "postal": "N9C7W8",
    "result": []
  },
  {
    "postal": "N9C7M5",
    "result": []
  },
  {
    "postal": "N9C5W8",
    "result": []
  },
  {
    "postal": "N9C5E5",
    "result": []
  },
  {
    "postal": "N9C1P9",
    "result": [
      {
        "electoralDistricts": [
          {
            "election": null,
            "id": 119,
            "name": "Windsor West"
          }
        ],
        "pollDivisionIds": [
          10142776
        ],
        "postalCode": "N9C1P9",
        "streetName": "LINWOOD",
        "streetDirectionId": null,
        "streetTypeId": "PL",
        "placeName": "WINDSOR",
        "streetNameDisplayText": "LINWOOD PL, WINDSOR"
      }
    ]
  },
  {
    "postal": "N9C8V8",
    "result": []
  },
  {
    "postal": "N9C9G8",
    "result": []
  },
  {
    "postal": "N9C8H9",
    "result": []
  },
  {
    "postal": "N9C1Z1",
    "result": [
      {
        "electoralDistricts": [
          {
            "election": null,
            "id": 119,
            "name": "Windsor West"
          }
        ],
        "pollDivisionIds": [
          10142778
        ],
        "postalCode": "N9C1Z1",
        "streetName": "BIRCH",
        "streetDirectionId": null,
        "streetTypeId": "ST",
        "placeName": "WINDSOR",
        "streetNameDisplayText": "BIRCH ST, WINDSOR"
      }
    ]
  },
  {
    "postal": "N9C8M3",
    "result": []
  },
  {
    "postal": "N9C5H6",
    "result": []
  },
  {
    "postal": "N9C7W7",
    "result": []
  },
  {
    "postal": "N9C4L0",
    "result": []
  },
  {
    "postal": "N9C2N1",
    "result": [
      {
        "electoralDistricts": [
          {
            "election": null,
            "id": 119,
            "name": "Windsor West"
          }
        ],
        "pollDivisionIds": [
          10142775
        ],
        "postalCode": "N9C2N1",
        "streetName": "ROSEDALE",
        "streetDirectionId": null,
        "streetTypeId": "AVE",
        "placeName": "WINDSOR",
        "streetNameDisplayText": "ROSEDALE AVE, WINDSOR"
      }
    ]
  },
  {
    "postal": "N9C2H4",
    "result": []
  },
  {
    "postal": "N9C5C8",
    "result": []
  },
  {
    "postal": "N9C8B0",
    "result": []
  },
  {
    "postal": "N9C1T4",
    "result": [
      {
        "electoralDistricts": [
          {
            "election": null,
            "id": 119,
            "name": "Windsor West"
          }
        ],
        "pollDivisionIds": [
          10142778
        ],
        "postalCode": "N9C1T4",
        "streetName": "MILLEN",
        "streetDirectionId": null,
        "streetTypeId": "ST",
        "placeName": "WINDSOR",
        "streetNameDisplayText": "MILLEN ST, WINDSOR"
      }
    ]
  },
  {
    "postal": "N9C7N7",
    "result": []
  },
  {
    "postal": "N9C4L3",
    "result": []
  },
  {
    "postal": "N9C2N2",
    "result": [
      {
        "electoralDistricts": [
          {
            "election": null,
            "id": 119,
            "name": "Windsor West"
          }
        ],
        "pollDivisionIds": [
          10142775
        ],
        "postalCode": "N9C2N2",
        "streetName": "ROSEDALE",
        "streetDirectionId": null,
        "streetTypeId": "AVE",
        "placeName": "WINDSOR",
        "streetNameDisplayText": "ROSEDALE AVE, WINDSOR"
      }
    ]
  },
  {
    "postal": "N9C4N8",
    "result": []
  },
  {
    "postal": "N9C3M5",
    "result": [
      {
        "electoralDistricts": [
          {
            "election": null,
            "id": 119,
            "name": "Windsor West"
          }
        ],
        "pollDivisionIds": [
          10142777
        ],
        "postalCode": "N9C3M5",
        "streetName": "FELIX",
        "streetDirectionId": null,
        "streetTypeId": "AVE",
        "placeName": "WINDSOR",
        "streetNameDisplayText": "FELIX AVE, WINDSOR"
      }
    ]
  },
  {
    "postal": "N9C6H7",
    "result": []
  },
  {
    "postal": "N9C8Y8",
    "result": []
  },
  {
    "postal": "N9C5R9",
    "result": []
  },
  {
    "postal": "N9C8G3",
    "result": []
  },
  {
    "postal": "N9C4N7",
    "result": []
  },
  {
    "postal": "N9C0B9",
    "result": [
      {
        "electoralDistricts": [
          {
            "election": null,
            "id": 119,
            "name": "Windsor West"
          }
        ],
        "pollDivisionIds": [
          10142777
        ],
        "postalCode": "N9C0B9",
        "streetName": "MAPLEWOOD",
        "streetDirectionId": null,
        "streetTypeId": "DR",
        "placeName": "WINDSOR",
        "streetNameDisplayText": "MAPLEWOOD DR, WINDSOR"
      },
      {
        "electoralDistricts": [
          {
            "election": null,
            "id": 119,
            "name": "Windsor West"
          }
        ],
        "pollDivisionIds": [
          10142777
        ],
        "postalCode": "N9C0B9",
        "streetName": "MAPLEWOOD",
        "streetDirectionId": null,
        "streetTypeId": "RD",
        "placeName": "WINDSOR",
        "streetNameDisplayText": "MAPLEWOOD RD, WINDSOR"
      }
    ]
  },
  {
    "postal": "N9C9K7",
    "result": []
  },
  {
    "postal": "N9C9K9",
    "result": []
  },
  {
    "postal": "N9C3Z2",
    "result": []
  },
  {
    "postal": "N9C6W7",
    "result": []
  },
  {
    "postal": "N9C0P1",
    "result": []
  },
  {
    "postal": "N9C3A0",
    "result": []
  },
  {
    "postal": "N9C8L9",
    "result": []
  },
  {
    "postal": "N9C6X0",
    "result": []
  },
  {
    "postal": "N9C3E9",
    "result": [
      {
        "electoralDistricts": [
          {
            "election": null,
            "id": 119,
            "name": "Windsor West"
          }
        ],
        "pollDivisionIds": [
          10142777
        ],
        "postalCode": "N9C3E9",
        "streetName": "CHAPPELL",
        "streetDirectionId": null,
        "streetTypeId": "AVE",
        "placeName": "WINDSOR",
        "streetNameDisplayText": "CHAPPELL AVE, WINDSOR"
      }
    ]
  },
  {
    "postal": "N9C0S5",
    "result": []
  },
  {
    "postal": "N9C1A2",
    "result": [
      {
        "electoralDistricts": [
          {
            "election": null,
            "id": 119,
            "name": "Windsor West"
          }
        ],
        "pollDivisionIds": [
          10142775,
          10142830
        ],
        "postalCode": "N9C1A2",
        "streetName": "RIVERSIDE",
        "streetDirectionId": "W",
        "streetTypeId": "DR",
        "placeName": "WINDSOR",
        "streetNameDisplayText": "RIVERSIDE DR W, WINDSOR"
      }
    ]
  },
  {
    "postal": "N9C5V8",
    "result": []
  },
  {
    "postal": "N9C8C5",
    "result": []
  },
  {
    "postal": "N9C6N0",
    "result": []
  },
  {
    "postal": "N9C9E6",
    "result": []
  },
  {
    "postal": "N9C5J7",
    "result": []
  },
  {
    "postal": "N9C2R2",
    "result": [
      {
        "electoralDistricts": [
          {
            "election": null,
            "id": 119,
            "name": "Windsor West"
          }
        ],
        "pollDivisionIds": [
          10142775
        ],
        "postalCode": "N9C2R2",
        "streetName": "MILL",
        "streetDirectionId": null,
        "streetTypeId": "ST",
        "placeName": "WINDSOR",
        "streetNameDisplayText": "MILL ST, WINDSOR"
      }
    ]
  },
  {
    "postal": "N9C0P5",
    "result": []
  },
  {
    "postal": "N9C5A7",
    "result": []
  },
  {
    "postal": "N9C1G1",
    "result": [
      {
        "electoralDistricts": [
          {
            "election": null,
            "id": 119,
            "name": "Windsor West"
          }
        ],
        "pollDivisionIds": [
          10142775
        ],
        "postalCode": "N9C1G1",
        "streetName": "RUSSELL",
        "streetDirectionId": null,
        "streetTypeId": "ST",
        "placeName": "WINDSOR",
        "streetNameDisplayText": "RUSSELL ST, WINDSOR"
      }
    ]
  },
  {
    "postal": "N9C9R6",
    "result": []
  },
  {
    "postal": "N9C4Z9",
    "result": []
  },
  {
    "postal": "N9C1V5",
    "result": [
      {
        "electoralDistricts": [
          {
            "election": null,
            "id": 119,
            "name": "Windsor West"
          }
        ],
        "pollDivisionIds": [
          10142778
        ],
        "postalCode": "N9C1V5",
        "streetName": "BARRYMORE",
        "streetDirectionId": null,
        "streetTypeId": "LANE",
        "placeName": "WINDSOR",
        "streetNameDisplayText": "BARRYMORE LANE, WINDSOR"
      }
    ]
  },
  {
    "postal": "N9C9Y5",
    "result": []
  },
  {
    "postal": "N9C1P2",
    "result": [
      {
        "electoralDistricts": [
          {
            "election": null,
            "id": 119,
            "name": "Windsor West"
          }
        ],
        "pollDivisionIds": [
          10142776
        ],
        "postalCode": "N9C1P2",
        "streetName": "QUEEN",
        "streetDirectionId": null,
        "streetTypeId": "ST",
        "placeName": "WINDSOR",
        "streetNameDisplayText": "QUEEN ST, WINDSOR"
      }
    ]
  },
  {
    "postal": "N9C5X0",
    "result": []
  },
  {
    "postal": "N9C7B8",
    "result": []
  },
  {
    "postal": "N9C0C6",
    "result": []
  },
  {
    "postal": "N9C6G1",
    "result": []
  },
  {
    "postal": "N9C3K3",
    "result": [
      {
        "electoralDistricts": [
          {
            "election": null,
            "id": 119,
            "name": "Windsor West"
          }
        ],
        "pollDivisionIds": [
          10142778
        ],
        "postalCode": "N9C3K3",
        "streetName": "LENA",
        "streetDirectionId": null,
        "streetTypeId": "AVE",
        "placeName": "WINDSOR",
        "streetNameDisplayText": "LENA AVE, WINDSOR"
      }
    ]
  },
  {
    "postal": "N9C9R0",
    "result": []
  },
  {
    "postal": "N9C4R8",
    "result": []
  },
  {
    "postal": "N9C5P9",
    "result": []
  },
  {
    "postal": "N9C8N4",
    "result": []
  },
  {
    "postal": "N9C8H4",
    "result": []
  },
  {
    "postal": "N9C4V1",
    "result": []
  },
  {
    "postal": "N9C1K5",
    "result": [
      {
        "electoralDistricts": [
          {
            "election": null,
            "id": 119,
            "name": "Windsor West"
          }
        ],
        "pollDivisionIds": [
          10142776
        ],
        "postalCode": "N9C1K5",
        "streetName": "BABY",
        "streetDirectionId": null,
        "streetTypeId": "ST",
        "placeName": "WINDSOR",
        "streetNameDisplayText": "BABY ST, WINDSOR"
      }
    ]
  },
  {
    "postal": "N9C1Z5",
    "result": [
      {
        "electoralDistricts": [
          {
            "election": null,
            "id": 119,
            "name": "Windsor West"
          }
        ],
        "pollDivisionIds": [
          10142777
        ],
        "postalCode": "N9C1Z5",
        "streetName": "VAUGHAN",
        "streetDirectionId": null,
        "streetTypeId": "ST",
        "placeName": "WINDSOR",
        "streetNameDisplayText": "VAUGHAN ST, WINDSOR"
      }
    ]
  },
  {
    "postal": "N9C9L9",
    "result": []
  },
  {
    "postal": "N9C5L2",
    "result": []
  },
  {
    "postal": "N9C0M2",
    "result": []
  },
  {
    "postal": "N9C1K8",
    "result": [
      {
        "electoralDistricts": [
          {
            "election": null,
            "id": 119,
            "name": "Windsor West"
          }
        ],
        "pollDivisionIds": [
          10142776
        ],
        "postalCode": "N9C1K8",
        "streetName": "BABY",
        "streetDirectionId": null,
        "streetTypeId": "ST",
        "placeName": "WINDSOR",
        "streetNameDisplayText": "BABY ST, WINDSOR"
      }
    ]
  },
  {
    "postal": "N9C3M7",
    "result": [
      {
        "electoralDistricts": [
          {
            "election": null,
            "id": 119,
            "name": "Windsor West"
          }
        ],
        "pollDivisionIds": [
          10142778
        ],
        "postalCode": "N9C3M7",
        "streetName": "WIGLE",
        "streetDirectionId": null,
        "streetTypeId": "AVE",
        "placeName": "WINDSOR",
        "streetNameDisplayText": "WIGLE AVE, WINDSOR"
      }
    ]
  },
  {
    "postal": "N9C1B2",
    "result": [
      {
        "electoralDistricts": [
          {
            "election": null,
            "id": 119,
            "name": "Windsor West"
          }
        ],
        "pollDivisionIds": [
          10142776
        ],
        "postalCode": "N9C1B2",
        "streetName": "SANDWICH",
        "streetDirectionId": null,
        "streetTypeId": "ST",
        "placeName": "WINDSOR",
        "streetNameDisplayText": "SANDWICH ST, WINDSOR"
      }
    ]
  },
  {
    "postal": "N9C0H9",
    "result": []
  },
  {
    "postal": "N9C8M4",
    "result": []
  },
  {
    "postal": "N9C2M5",
    "result": [
      {
        "electoralDistricts": [
          {
            "election": null,
            "id": 119,
            "name": "Windsor West"
          }
        ],
        "pollDivisionIds": [
          10142775
        ],
        "postalCode": "N9C2M5",
        "streetName": "INDIAN",
        "streetDirectionId": null,
        "streetTypeId": "RD",
        "placeName": "WINDSOR",
        "streetNameDisplayText": "INDIAN RD, WINDSOR"
      }
    ]
  },
  {
    "postal": "N9C0T9",
    "result": []
  },
  {
    "postal": "N9C3P1",
    "result": [
      {
        "electoralDistricts": [
          {
            "election": null,
            "id": 119,
            "name": "Windsor West"
          }
        ],
        "pollDivisionIds": [
          10142777
        ],
        "postalCode": "N9C3P1",
        "streetName": "REDWOOD",
        "streetDirectionId": null,
        "streetTypeId": "AVE",
        "placeName": "WINDSOR",
        "streetNameDisplayText": "REDWOOD AVE, WINDSOR"
      }
    ]
  },
  {
    "postal": "N9C1R6",
    "result": [
      {
        "electoralDistricts": [
          {
            "election": null,
            "id": 119,
            "name": "Windsor West"
          }
        ],
        "pollDivisionIds": [
          10142776
        ],
        "postalCode": "N9C1R6",
        "streetName": "BLOOMFIELD",
        "streetDirectionId": null,
        "streetTypeId": "RD",
        "placeName": "WINDSOR",
        "streetNameDisplayText": "BLOOMFIELD RD, WINDSOR"
      }
    ]
  },
  {
    "postal": "N9C9V5",
    "result": []
  },
  {
    "postal": "N9C9T0",
    "result": []
  },
  {
    "postal": "N9C0A9",
    "result": []
  },
  {
    "postal": "N9C1M3",
    "result": [
      {
        "electoralDistricts": [
          {
            "election": null,
            "id": 119,
            "name": "Windsor West"
          }
        ],
        "pollDivisionIds": [
          10142775
        ],
        "postalCode": "N9C1M3",
        "streetName": "DONNELLY",
        "streetDirectionId": null,
        "streetTypeId": "ST",
        "placeName": "WINDSOR",
        "streetNameDisplayText": "DONNELLY ST, WINDSOR"
      }
    ]
  },
  {
    "postal": "N9C1W8",
    "result": [
      {
        "electoralDistricts": [
          {
            "election": null,
            "id": 119,
            "name": "Windsor West"
          }
        ],
        "pollDivisionIds": [
          10142778
        ],
        "postalCode": "N9C1W8",
        "streetName": "MULFORD",
        "streetDirectionId": null,
        "streetTypeId": "CRT",
        "placeName": "WINDSOR",
        "streetNameDisplayText": "MULFORD CRT, WINDSOR"
      }
    ]
  },
  {
    "postal": "N9C9J1",
    "result": []
  },
  {
    "postal": "N9C8N5",
    "result": []
  },
  {
    "postal": "N9C5X1",
    "result": []
  },
  {
    "postal": "N9C6S2",
    "result": []
  },
  {
    "postal": "N9C2A2",
    "result": [
      {
        "electoralDistricts": [
          {
            "election": null,
            "id": 119,
            "name": "Windsor West"
          }
        ],
        "pollDivisionIds": [
          10142777
        ],
        "postalCode": "N9C2A2",
        "streetName": "MATCHETTE",
        "streetDirectionId": null,
        "streetTypeId": "RD",
        "placeName": "WINDSOR",
        "streetNameDisplayText": "MATCHETTE RD, WINDSOR"
      }
    ]
  },
  {
    "postal": "N9C6A6",
    "result": []
  },
  {
    "postal": "N9C0S3",
    "result": []
  },
  {
    "postal": "N9C3E7",
    "result": [
      {
        "electoralDistricts": [
          {
            "election": null,
            "id": 119,
            "name": "Windsor West"
          }
        ],
        "pollDivisionIds": [
          10142777
        ],
        "postalCode": "N9C3E7",
        "streetName": "CHAPPELL",
        "streetDirectionId": null,
        "streetTypeId": "AVE",
        "placeName": "WINDSOR",
        "streetNameDisplayText": "CHAPPELL AVE, WINDSOR"
      }
    ]
  },
  {
    "postal": "N9C5R7",
    "result": []
  },
  {
    "postal": "N9C3R6",
    "result": []
  },
  {
    "postal": "N9C6K4",
    "result": []
  },
  {
    "postal": "N9C2W5",
    "result": [
      {
        "electoralDistricts": [
          {
            "election": null,
            "id": 119,
            "name": "Windsor West"
          }
        ],
        "pollDivisionIds": [
          10142776
        ],
        "postalCode": "N9C2W5",
        "streetName": "SOUTH",
        "streetDirectionId": null,
        "streetTypeId": "ST",
        "placeName": "WINDSOR",
        "streetNameDisplayText": "SOUTH ST, WINDSOR"
      }
    ]
  },
  {
    "postal": "N9C8W4",
    "result": []
  },
  {
    "postal": "N9C9C2",
    "result": []
  },
  {
    "postal": "N9C2C0",
    "result": []
  },
  {
    "postal": "N9C0E1",
    "result": []
  },
  {
    "postal": "N9C1K9",
    "result": [
      {
        "electoralDistricts": [
          {
            "election": null,
            "id": 119,
            "name": "Windsor West"
          }
        ],
        "pollDivisionIds": [
          10142776
        ],
        "postalCode": "N9C1K9",
        "streetName": "BABY",
        "streetDirectionId": null,
        "streetTypeId": "ST",
        "placeName": "WINDSOR",
        "streetNameDisplayText": "BABY ST, WINDSOR"
      }
    ]
  },
  {
    "postal": "N9C1G7",
    "result": [
      {
        "electoralDistricts": [
          {
            "election": null,
            "id": 119,
            "name": "Windsor West"
          }
        ],
        "pollDivisionIds": [
          10142775
        ],
        "postalCode": "N9C1G7",
        "streetName": "PETER",
        "streetDirectionId": null,
        "streetTypeId": "ST",
        "placeName": "WINDSOR",
        "streetNameDisplayText": "PETER ST, WINDSOR"
      }
    ]
  },
  {
    "postal": "N9C4E9",
    "result": []
  },
  {
    "postal": "N9C9P0",
    "result": []
  },
  {
    "postal": "N9C5H3",
    "result": []
  },
  {
    "postal": "N9C9X6",
    "result": []
  },
  {
    "postal": "N9C5N7",
    "result": []
  },
  {
    "postal": "N9C5A6",
    "result": []
  },
  {
    "postal": "N9C4M0",
    "result": []
  },
  {
    "postal": "N9C3V6",
    "result": []
  },
  {
    "postal": "N9C1L7",
    "result": [
      {
        "electoralDistricts": [
          {
            "election": null,
            "id": 119,
            "name": "Windsor West"
          }
        ],
        "pollDivisionIds": [
          10142775
        ],
        "postalCode": "N9C1L7",
        "streetName": "DONNELLY",
        "streetDirectionId": null,
        "streetTypeId": "ST",
        "placeName": "WINDSOR",
        "streetNameDisplayText": "DONNELLY ST, WINDSOR"
      }
    ]
  },
  {
    "postal": "N9C2P9",
    "result": []
  },
  {
    "postal": "N9C5T4",
    "result": []
  },
  {
    "postal": "N9C5Z1",
    "result": []
  },
  {
    "postal": "N9C2X0",
    "result": []
  },
  {
    "postal": "N9C6Z2",
    "result": []
  },
  {
    "postal": "N9C0E0",
    "result": []
  },
  {
    "postal": "N9C3Z5",
    "result": [
      {
        "electoralDistricts": [
          {
            "election": null,
            "id": 119,
            "name": "Windsor West"
          }
        ],
        "pollDivisionIds": [
          10142778
        ],
        "postalCode": "N9C3Z5",
        "streetName": "STRATHMORE",
        "streetDirectionId": null,
        "streetTypeId": "ST",
        "placeName": "WINDSOR",
        "streetNameDisplayText": "STRATHMORE ST, WINDSOR"
      }
    ]
  },
  {
    "postal": "N9C8H3",
    "result": []
  },
  {
    "postal": "N9C7S6",
    "result": []
  },
  {
    "postal": "N9C4C1",
    "result": [
      {
        "electoralDistricts": [
          {
            "election": null,
            "id": 119,
            "name": "Windsor West"
          }
        ],
        "pollDivisionIds": [
          10142776
        ],
        "postalCode": "N9C4C1",
        "streetName": "PETER",
        "streetDirectionId": null,
        "streetTypeId": "ST",
        "placeName": "WINDSOR",
        "streetNameDisplayText": "PETER ST, WINDSOR"
      }
    ]
  },
  {
    "postal": "N9C3K2",
    "result": [
      {
        "electoralDistricts": [
          {
            "election": null,
            "id": 119,
            "name": "Windsor West"
          }
        ],
        "pollDivisionIds": [
          10142778
        ],
        "postalCode": "N9C3K2",
        "streetName": "LENA",
        "streetDirectionId": null,
        "streetTypeId": "AVE",
        "placeName": "WINDSOR",
        "streetNameDisplayText": "LENA AVE, WINDSOR"
      }
    ]
  },
  {
    "postal": "N9C1Y5",
    "result": [
      {
        "electoralDistricts": [
          {
            "election": null,
            "id": 119,
            "name": "Windsor West"
          }
        ],
        "pollDivisionIds": [
          10142778
        ],
        "postalCode": "N9C1Y5",
        "streetName": "MELBOURNE",
        "streetDirectionId": null,
        "streetTypeId": "RD",
        "placeName": "WINDSOR",
        "streetNameDisplayText": "MELBOURNE RD, WINDSOR"
      }
    ]
  },
  {
    "postal": "N9C6P6",
    "result": []
  },
  {
    "postal": "N9C3N9",
    "result": [
      {
        "electoralDistricts": [
          {
            "election": null,
            "id": 119,
            "name": "Windsor West"
          }
        ],
        "pollDivisionIds": [
          10142777
        ],
        "postalCode": "N9C3N9",
        "streetName": "GRANVILLE",
        "streetDirectionId": null,
        "streetTypeId": "CRES",
        "placeName": "WINDSOR",
        "streetNameDisplayText": "GRANVILLE CRES, WINDSOR"
      }
    ]
  },
  {
    "postal": "N9C3W2",
    "result": []
  },
  {
    "postal": "N9C6H8",
    "result": []
  },
  {
    "postal": "N9C9T3",
    "result": []
  },
  {
    "postal": "N9C5L9",
    "result": []
  },
  {
    "postal": "N9C7X7",
    "result": []
  },
  {
    "postal": "N9C3J5",
    "result": [
      {
        "electoralDistricts": [
          {
            "election": null,
            "id": 119,
            "name": "Windsor West"
          }
        ],
        "pollDivisionIds": [
          10142778
        ],
        "postalCode": "N9C3J5",
        "streetName": "HARRISON",
        "streetDirectionId": null,
        "streetTypeId": "AVE",
        "placeName": "WINDSOR",
        "streetNameDisplayText": "HARRISON AVE, WINDSOR"
      }
    ]
  },
  {
    "postal": "N9C4J5",
    "result": [
      {
        "electoralDistricts": [
          {
            "election": null,
            "id": 119,
            "name": "Windsor West"
          }
        ],
        "pollDivisionIds": [
          10142777
        ],
        "postalCode": "N9C4J5",
        "streetName": "OJIBWAY",
        "streetDirectionId": null,
        "streetTypeId": "PKY",
        "placeName": "WINDSOR",
        "streetNameDisplayText": "OJIBWAY PKY, WINDSOR"
      }
    ]
  },
  {
    "postal": "N9C6J2",
    "result": []
  },
  {
    "postal": "N9C5V6",
    "result": []
  },
  {
    "postal": "N9C3N2",
    "result": [
      {
        "electoralDistricts": [
          {
            "election": null,
            "id": 119,
            "name": "Windsor West"
          }
        ],
        "pollDivisionIds": [
          10142778
        ],
        "postalCode": "N9C3N2",
        "streetName": "STRATHMORE",
        "streetDirectionId": null,
        "streetTypeId": "ST",
        "placeName": "WINDSOR",
        "streetNameDisplayText": "STRATHMORE ST, WINDSOR"
      }
    ]
  },
  {
    "postal": "N9C3B1",
    "result": [
      {
        "electoralDistricts": [
          {
            "election": null,
            "id": 119,
            "name": "Windsor West"
          }
        ],
        "pollDivisionIds": [
          10142777
        ],
        "postalCode": "N9C3B1",
        "streetName": "PRINCE",
        "streetDirectionId": null,
        "streetTypeId": "RD",
        "placeName": "WINDSOR",
        "streetNameDisplayText": "PRINCE RD, WINDSOR"
      }
    ]
  },
  {
    "postal": "N9C8B5",
    "result": []
  },
  {
    "postal": "N9C0K1",
    "result": []
  },
  {
    "postal": "N9C7M7",
    "result": []
  },
  {
    "postal": "N9C2M2",
    "result": [
      {
        "electoralDistricts": [
          {
            "election": null,
            "id": 119,
            "name": "Windsor West"
          }
        ],
        "pollDivisionIds": [
          10142775
        ],
        "postalCode": "N9C2M2",
        "streetName": "INDIAN",
        "streetDirectionId": null,
        "streetTypeId": "RD",
        "placeName": "WINDSOR",
        "streetNameDisplayText": "INDIAN RD, WINDSOR"
      }
    ]
  },
  {
    "postal": "N9C9N3",
    "result": []
  },
  {
    "postal": "N9C4Y8",
    "result": []
  },
  {
    "postal": "N9C3V7",
    "result": []
  },
  {
    "postal": "N9C8Z1",
    "result": []
  },
  {
    "postal": "N9C7B3",
    "result": []
  },
  {
    "postal": "N9C3A8",
    "result": []
  },
  {
    "postal": "N9C7V5",
    "result": []
  },
  {
    "postal": "N9C2T2",
    "result": [
      {
        "electoralDistricts": [
          {
            "election": null,
            "id": 119,
            "name": "Windsor West"
          }
        ],
        "pollDivisionIds": [
          10142776
        ],
        "postalCode": "N9C2T2",
        "streetName": "BROCK",
        "streetDirectionId": null,
        "streetTypeId": "ST",
        "placeName": "WINDSOR",
        "streetNameDisplayText": "BROCK ST, WINDSOR"
      }
    ]
  },
  {
    "postal": "N9C6L3",
    "result": []
  },
  {
    "postal": "N9C0L2",
    "result": []
  },
  {
    "postal": "N9C5Y8",
    "result": []
  },
  {
    "postal": "N9C0B8",
    "result": [
      {
        "electoralDistricts": [
          {
            "election": null,
            "id": 119,
            "name": "Windsor West"
          }
        ],
        "pollDivisionIds": [
          10142777
        ],
        "postalCode": "N9C0B8",
        "streetName": "MAPLEWOOD",
        "streetDirectionId": null,
        "streetTypeId": "DR",
        "placeName": "WINDSOR",
        "streetNameDisplayText": "MAPLEWOOD DR, WINDSOR"
      },
      {
        "electoralDistricts": [
          {
            "election": null,
            "id": 119,
            "name": "Windsor West"
          }
        ],
        "pollDivisionIds": [
          10142777
        ],
        "postalCode": "N9C0B8",
        "streetName": "MAPLEWOOD",
        "streetDirectionId": null,
        "streetTypeId": "RD",
        "placeName": "WINDSOR",
        "streetNameDisplayText": "MAPLEWOOD RD, WINDSOR"
      }
    ]
  },
  {
    "postal": "N9C6R5",
    "result": []
  },
  {
    "postal": "N9C8W6",
    "result": []
  },
  {
    "postal": "N9C8G6",
    "result": []
  },
  {
    "postal": "N9C6X3",
    "result": []
  },
  {
    "postal": "N9C7R7",
    "result": []
  },
  {
    "postal": "N9C4B6",
    "result": []
  },
  {
    "postal": "N9C3P9",
    "result": [
      {
        "electoralDistricts": [
          {
            "election": null,
            "id": 119,
            "name": "Windsor West"
          }
        ],
        "pollDivisionIds": [
          10142777
        ],
        "postalCode": "N9C3P9",
        "streetName": "PARKWAY",
        "streetDirectionId": null,
        "streetTypeId": "DR",
        "placeName": "WINDSOR",
        "streetNameDisplayText": "PARKWAY DR, WINDSOR"
      }
    ]
  },
  {
    "postal": "N9C2T3",
    "result": [
      {
        "electoralDistricts": [
          {
            "election": null,
            "id": 119,
            "name": "Windsor West"
          }
        ],
        "pollDivisionIds": [
          10142776
        ],
        "postalCode": "N9C2T3",
        "streetName": "BROCK",
        "streetDirectionId": null,
        "streetTypeId": "ST",
        "placeName": "WINDSOR",
        "streetNameDisplayText": "BROCK ST, WINDSOR"
      }
    ]
  },
  {
    "postal": "N9C1M4",
    "result": [
      {
        "electoralDistricts": [
          {
            "election": null,
            "id": 119,
            "name": "Windsor West"
          }
        ],
        "pollDivisionIds": [
          10142775
        ],
        "postalCode": "N9C1M4",
        "streetName": "WYANDOTTE",
        "streetDirectionId": "W",
        "streetTypeId": "ST",
        "placeName": "WINDSOR",
        "streetNameDisplayText": "WYANDOTTE ST W, WINDSOR"
      }
    ]
  },
  {
    "postal": "N9C0H1",
    "result": []
  },
  {
    "postal": "N9C9W3",
    "result": []
  },
  {
    "postal": "N9C6P1",
    "result": []
  },
  {
    "postal": "N9C7G2",
    "result": []
  },
  {
    "postal": "N9C4J9",
    "result": []
  },
  {
    "postal": "N9C9E4",
    "result": []
  },
  {
    "postal": "N9C8H0",
    "result": []
  },
  {
    "postal": "N9C4M7",
    "result": []
  },
  {
    "postal": "N9C2G9",
    "result": []
  },
  {
    "postal": "N9C8T2",
    "result": []
  },
  {
    "postal": "N9C7G7",
    "result": []
  },
  {
    "postal": "N9C4Z3",
    "result": []
  },
  {
    "postal": "N9C5B3",
    "result": []
  },
  {
    "postal": "N9C1S7",
    "result": [
      {
        "electoralDistricts": [
          {
            "election": null,
            "id": 119,
            "name": "Windsor West"
          }
        ],
        "pollDivisionIds": [
          10142778
        ],
        "postalCode": "N9C1S7",
        "streetName": "COLLEGE",
        "streetDirectionId": null,
        "streetTypeId": "AVE",
        "placeName": "WINDSOR",
        "streetNameDisplayText": "COLLEGE AVE, WINDSOR"
      }
    ]
  },
  {
    "postal": "N9C2N7",
    "result": [
      {
        "electoralDistricts": [
          {
            "election": null,
            "id": 119,
            "name": "Windsor West"
          }
        ],
        "pollDivisionIds": [
          10142775
        ],
        "postalCode": "N9C2N7",
        "streetName": "ROSEDALE",
        "streetDirectionId": null,
        "streetTypeId": "AVE",
        "placeName": "WINDSOR",
        "streetNameDisplayText": "ROSEDALE AVE, WINDSOR"
      }
    ]
  },
  {
    "postal": "N9C0H8",
    "result": []
  },
  {
    "postal": "N9C7Z4",
    "result": []
  },
  {
    "postal": "N9C7B1",
    "result": []
  },
  {
    "postal": "N9C7P8",
    "result": []
  },
  {
    "postal": "N9C7N0",
    "result": []
  },
  {
    "postal": "N9C3Y5",
    "result": []
  },
  {
    "postal": "N9C6K1",
    "result": []
  },
  {
    "postal": "N9C9X5",
    "result": []
  },
  {
    "postal": "N9C7S5",
    "result": []
  },
  {
    "postal": "N9C0A4",
    "result": []
  },
  {
    "postal": "N9C4T5",
    "result": []
  },
  {
    "postal": "N9C5K1",
    "result": []
  },
  {
    "postal": "N9C0Z9",
    "result": []
  },
  {
    "postal": "N9C7T2",
    "result": []
  },
  {
    "postal": "N9C1L5",
    "result": [
      {
        "electoralDistricts": [
          {
            "election": null,
            "id": 119,
            "name": "Windsor West"
          }
        ],
        "pollDivisionIds": [
          10142776
        ],
        "postalCode": "N9C1L5",
        "streetName": "BABY",
        "streetDirectionId": null,
        "streetTypeId": "ST",
        "placeName": "WINDSOR",
        "streetNameDisplayText": "BABY ST, WINDSOR"
      }
    ]
  },
  {
    "postal": "N9C3N5",
    "result": [
      {
        "electoralDistricts": [
          {
            "election": null,
            "id": 119,
            "name": "Windsor West"
          }
        ],
        "pollDivisionIds": [
          10142778
        ],
        "postalCode": "N9C3N5",
        "streetName": "STRATHMORE",
        "streetDirectionId": null,
        "streetTypeId": "ST",
        "placeName": "WINDSOR",
        "streetNameDisplayText": "STRATHMORE ST, WINDSOR"
      }
    ]
  },
  {
    "postal": "N9C6H4",
    "result": []
  },
  {
    "postal": "N9C5A5",
    "result": []
  },
  {
    "postal": "N9C3R9",
    "result": [
      {
        "electoralDistricts": [
          {
            "election": null,
            "id": 119,
            "name": "Windsor West"
          }
        ],
        "pollDivisionIds": [
          10142777
        ],
        "postalCode": "N9C3R9",
        "streetName": "INDUSTRIAL",
        "streetDirectionId": null,
        "streetTypeId": "DR",
        "placeName": "WINDSOR",
        "streetNameDisplayText": "INDUSTRIAL DR, WINDSOR"
      }
    ]
  },
  {
    "postal": "N9C7L8",
    "result": []
  },
  {
    "postal": "N9C6T6",
    "result": []
  },
  {
    "postal": "N9C7Y7",
    "result": []
  },
  {
    "postal": "N9C3M8",
    "result": [
      {
        "electoralDistricts": [
          {
            "election": null,
            "id": 119,
            "name": "Windsor West"
          }
        ],
        "pollDivisionIds": [
          10142778
        ],
        "postalCode": "N9C3M8",
        "streetName": "WIGLE",
        "streetDirectionId": null,
        "streetTypeId": "AVE",
        "placeName": "WINDSOR",
        "streetNameDisplayText": "WIGLE AVE, WINDSOR"
      }
    ]
  },
  {
    "postal": "N9C2E0",
    "result": []
  },
  {
    "postal": "N9C4B5",
    "result": [
      {
        "electoralDistricts": [
          {
            "election": null,
            "id": 119,
            "name": "Windsor West"
          }
        ],
        "pollDivisionIds": [
          10142777
        ],
        "postalCode": "N9C4B5",
        "streetName": "AMBASSADOR",
        "streetDirectionId": null,
        "streetTypeId": "DR",
        "placeName": "WINDSOR",
        "streetNameDisplayText": "AMBASSADOR DR, WINDSOR"
      }
    ]
  },
  {
    "postal": "N9C1J3",
    "result": [
      {
        "electoralDistricts": [
          {
            "election": null,
            "id": 119,
            "name": "Windsor West"
          }
        ],
        "pollDivisionIds": [
          10142829,
          10142776
        ],
        "postalCode": "N9C1J3",
        "streetName": "PETER",
        "streetDirectionId": null,
        "streetTypeId": "ST",
        "placeName": "WINDSOR",
        "streetNameDisplayText": "PETER ST, WINDSOR"
      }
    ]
  },
  {
    "postal": "N9C5S6",
    "result": []
  },
  {
    "postal": "N9C8P7",
    "result": []
  },
  {
    "postal": "N9C7S7",
    "result": []
  },
  {
    "postal": "N9C4C2",
    "result": [
      {
        "electoralDistricts": [
          {
            "election": null,
            "id": 119,
            "name": "Windsor West"
          }
        ],
        "pollDivisionIds": [
          10142777
        ],
        "postalCode": "N9C4C2",
        "streetName": "MATCHETTE",
        "streetDirectionId": null,
        "streetTypeId": "RD",
        "placeName": "WINDSOR",
        "streetNameDisplayText": "MATCHETTE RD, WINDSOR"
      }
    ]
  },
  {
    "postal": "N9C5Y0",
    "result": []
  },
  {
    "postal": "N9C2V7",
    "result": [
      {
        "electoralDistricts": [
          {
            "election": null,
            "id": 119,
            "name": "Windsor West"
          }
        ],
        "pollDivisionIds": [
          10142776
        ],
        "postalCode": "N9C2V7",
        "streetName": "CHIPPAWA",
        "streetDirectionId": null,
        "streetTypeId": "ST",
        "placeName": "WINDSOR",
        "streetNameDisplayText": "CHIPPAWA ST, WINDSOR"
      }
    ]
  },
  {
    "postal": "N9C8P5",
    "result": []
  },
  {
    "postal": "N9C5P5",
    "result": []
  },
  {
    "postal": "N9C5Z0",
    "result": []
  },
  {
    "postal": "N9C9B0",
    "result": []
  },
  {
    "postal": "N9C1L0",
    "result": []
  },
  {
    "postal": "N9C0B5",
    "result": [
      {
        "electoralDistricts": [
          {
            "election": null,
            "id": 119,
            "name": "Windsor West"
          }
        ],
        "pollDivisionIds": [
          10142777
        ],
        "postalCode": "N9C0B5",
        "streetName": "WEAVER",
        "streetDirectionId": null,
        "streetTypeId": "RD",
        "placeName": "WINDSOR",
        "streetNameDisplayText": "WEAVER RD, WINDSOR"
      }
    ]
  },
  {
    "postal": "N9C3L2",
    "result": [
      {
        "electoralDistricts": [
          {
            "election": null,
            "id": 119,
            "name": "Windsor West"
          }
        ],
        "pollDivisionIds": [
          10142778
        ],
        "postalCode": "N9C3L2",
        "streetName": "FELIX",
        "streetDirectionId": null,
        "streetTypeId": "AVE",
        "placeName": "WINDSOR",
        "streetNameDisplayText": "FELIX AVE, WINDSOR"
      }
    ]
  },
  {
    "postal": "N9C3B7",
    "result": [
      {
        "electoralDistricts": [
          {
            "election": null,
            "id": 119,
            "name": "Windsor West"
          }
        ],
        "pollDivisionIds": [
          10142777
        ],
        "postalCode": "N9C3B7",
        "streetName": "PRINCE",
        "streetDirectionId": null,
        "streetTypeId": "RD",
        "placeName": "WINDSOR",
        "streetNameDisplayText": "PRINCE RD, WINDSOR"
      }
    ]
  },
  {
    "postal": "N9C8L1",
    "result": []
  },
  {
    "postal": "N9C5M4",
    "result": []
  },
  {
    "postal": "N9C4G9",
    "result": []
  },
  {
    "postal": "N9C0P0",
    "result": []
  },
  {
    "postal": "N9C8G2",
    "result": []
  },
  {
    "postal": "N9C1V9",
    "result": [
      {
        "electoralDistricts": [
          {
            "election": null,
            "id": 119,
            "name": "Windsor West"
          }
        ],
        "pollDivisionIds": [
          10142778
        ],
        "postalCode": "N9C1V9",
        "streetName": "GIRARDOT",
        "streetDirectionId": null,
        "streetTypeId": "ST",
        "placeName": "WINDSOR",
        "streetNameDisplayText": "GIRARDOT ST, WINDSOR"
      }
    ]
  },
  {
    "postal": "N9C8N8",
    "result": []
  },
  {
    "postal": "N9C6S8",
    "result": []
  },
  {
    "postal": "N9C8H2",
    "result": []
  },
  {
    "postal": "N9C5R8",
    "result": []
  },
  {
    "postal": "N9C5L4",
    "result": []
  },
  {
    "postal": "N9C9E1",
    "result": []
  },
  {
    "postal": "N9C1C4",
    "result": [
      {
        "electoralDistricts": [
          {
            "election": null,
            "id": 119,
            "name": "Windsor West"
          }
        ],
        "pollDivisionIds": [
          10142775
        ],
        "postalCode": "N9C1C4",
        "streetName": "SANDWICH",
        "streetDirectionId": null,
        "streetTypeId": "ST",
        "placeName": "WINDSOR",
        "streetNameDisplayText": "SANDWICH ST, WINDSOR"
      }
    ]
  },
  {
    "postal": "N9C8W5",
    "result": []
  },
  {
    "postal": "N9C1Y4",
    "result": [
      {
        "electoralDistricts": [
          {
            "election": null,
            "id": 119,
            "name": "Windsor West"
          }
        ],
        "pollDivisionIds": [
          10142778
        ],
        "postalCode": "N9C1Y4",
        "streetName": "MELBOURNE",
        "streetDirectionId": null,
        "streetTypeId": "RD",
        "placeName": "WINDSOR",
        "streetNameDisplayText": "MELBOURNE RD, WINDSOR"
      }
    ]
  },
  {
    "postal": "N9C1C0",
    "result": []
  },
  {
    "postal": "N9C2J2",
    "result": []
  },
  {
    "postal": "N9C2J0",
    "result": []
  },
  {
    "postal": "N9C7A3",
    "result": []
  },
  {
    "postal": "N9C8M1",
    "result": []
  },
  {
    "postal": "N9C7T9",
    "result": []
  },
  {
    "postal": "N9C6C0",
    "result": []
  },
  {
    "postal": "N9C7X1",
    "result": []
  },
  {
    "postal": "N9C0G1",
    "result": []
  },
  {
    "postal": "N9C4X2",
    "result": []
  },
  {
    "postal": "N9C0N6",
    "result": []
  },
  {
    "postal": "N9C8E3",
    "result": []
  },
  {
    "postal": "N9C5S8",
    "result": []
  },
  {
    "postal": "N9C0R0",
    "result": []
  },
  {
    "postal": "N9C6J6",
    "result": []
  },
  {
    "postal": "N9C4B4",
    "result": [
      {
        "electoralDistricts": [
          {
            "election": null,
            "id": 119,
            "name": "Windsor West"
          }
        ],
        "pollDivisionIds": [
          10142775
        ],
        "postalCode": "N9C4B4",
        "streetName": "DETROIT",
        "streetDirectionId": null,
        "streetTypeId": "ST",
        "placeName": "WINDSOR",
        "streetNameDisplayText": "DETROIT ST, WINDSOR"
      }
    ]
  },
  {
    "postal": "N9C7E3",
    "result": []
  },
  {
    "postal": "N9C3N6",
    "result": [
      {
        "electoralDistricts": [
          {
            "election": null,
            "id": 119,
            "name": "Windsor West"
          }
        ],
        "pollDivisionIds": [
          10142777
        ],
        "postalCode": "N9C3N6",
        "streetName": "GRANVILLE",
        "streetDirectionId": null,
        "streetTypeId": "CRES",
        "placeName": "WINDSOR",
        "streetNameDisplayText": "GRANVILLE CRES, WINDSOR"
      }
    ]
  },
  {
    "postal": "N9C3X6",
    "result": [
      {
        "electoralDistricts": [
          {
            "election": null,
            "id": 119,
            "name": "Windsor West"
          }
        ],
        "pollDivisionIds": [
          10142777
        ],
        "postalCode": "N9C3X6",
        "streetName": "TITCOMBE",
        "streetDirectionId": null,
        "streetTypeId": "RD",
        "placeName": "WINDSOR",
        "streetNameDisplayText": "TITCOMBE RD, WINDSOR"
      }
    ]
  },
  {
    "postal": "N9C8L0",
    "result": []
  },
  {
    "postal": "N9C8N1",
    "result": []
  },
  {
    "postal": "N9C4J0",
    "result": []
  },
  {
    "postal": "N9C0X7",
    "result": []
  },
  {
    "postal": "N9C6S4",
    "result": []
  },
  {
    "postal": "N9C0Z0",
    "result": []
  },
  {
    "postal": "N9C9X8",
    "result": []
  },
  {
    "postal": "N9C3H3",
    "result": [
      {
        "electoralDistricts": [
          {
            "election": null,
            "id": 119,
            "name": "Windsor West"
          }
        ],
        "pollDivisionIds": [
          10142776
        ],
        "postalCode": "N9C3H3",
        "streetName": "ST JOSEPH",
        "streetDirectionId": null,
        "streetTypeId": "ST",
        "placeName": "WINDSOR",
        "streetNameDisplayText": "ST JOSEPH ST, WINDSOR"
      }
    ]
  },
  {
    "postal": "N9C7S2",
    "result": []
  },
  {
    "postal": "N9C3T3",
    "result": []
  },
  {
    "postal": "N9C9P3",
    "result": []
  },
  {
    "postal": "N9C4H8",
    "result": [
      {
        "electoralDistricts": [
          {
            "election": null,
            "id": 119,
            "name": "Windsor West"
          }
        ],
        "pollDivisionIds": [
          10142777
        ],
        "postalCode": "N9C4H8",
        "streetName": "CHAPPELL",
        "streetDirectionId": null,
        "streetTypeId": "AVE",
        "placeName": "WINDSOR",
        "streetNameDisplayText": "CHAPPELL AVE, WINDSOR"
      }
    ]
  },
  {
    "postal": "N9C6R1",
    "result": []
  },
  {
    "postal": "N9C1S0",
    "result": []
  },
  {
    "postal": "N9C3W8",
    "result": [
      {
        "electoralDistricts": [
          {
            "election": null,
            "id": 119,
            "name": "Windsor West"
          }
        ],
        "pollDivisionIds": [
          10142777
        ],
        "postalCode": "N9C3W8",
        "streetName": "ARMANDA",
        "streetDirectionId": null,
        "streetTypeId": "ST",
        "placeName": "WINDSOR",
        "streetNameDisplayText": "ARMANDA ST, WINDSOR"
      }
    ]
  },
  {
    "postal": "N9C4S3",
    "result": []
  },
  {
    "postal": "N9C1B6",
    "result": [
      {
        "electoralDistricts": [
          {
            "election": null,
            "id": 119,
            "name": "Windsor West"
          }
        ],
        "pollDivisionIds": [
          10142775,
          10142776
        ],
        "postalCode": "N9C1B6",
        "streetName": "SANDWICH",
        "streetDirectionId": null,
        "streetTypeId": "ST",
        "placeName": "WINDSOR",
        "streetNameDisplayText": "SANDWICH ST, WINDSOR"
      }
    ]
  },
  {
    "postal": "N9C8R3",
    "result": []
  },
  {
    "postal": "N9C4V9",
    "result": []
  },
  {
    "postal": "N9C9W4",
    "result": []
  },
  {
    "postal": "N9C3T4",
    "result": []
  },
  {
    "postal": "N9C5C7",
    "result": []
  },
  {
    "postal": "N9C3Y1",
    "result": [
      {
        "electoralDistricts": [
          {
            "election": null,
            "id": 119,
            "name": "Windsor West"
          }
        ],
        "pollDivisionIds": [
          10142777
        ],
        "postalCode": "N9C3Y1",
        "streetName": "OJIBWAY",
        "streetDirectionId": null,
        "streetTypeId": "PKY",
        "placeName": "WINDSOR",
        "streetNameDisplayText": "OJIBWAY PKY, WINDSOR"
      }
    ]
  },
  {
    "postal": "N9C5V0",
    "result": []
  },
  {
    "postal": "N9C8G8",
    "result": []
  },
  {
    "postal": "N9C8B1",
    "result": []
  },
  {
    "postal": "N9C4P5",
    "result": []
  },
  {
    "postal": "N9C7B2",
    "result": []
  },
  {
    "postal": "N9C0R2",
    "result": []
  },
  {
    "postal": "N9C4M4",
    "result": []
  },
  {
    "postal": "N9C7M4",
    "result": []
  },
  {
    "postal": "N9C9S7",
    "result": []
  },
  {
    "postal": "N9C5Z7",
    "result": []
  },
  {
    "postal": "N9C7J7",
    "result": []
  },
  {
    "postal": "N9C8R8",
    "result": []
  },
  {
    "postal": "N9C9X1",
    "result": []
  },
  {
    "postal": "N9C5M9",
    "result": []
  },
  {
    "postal": "N9C9B4",
    "result": []
  },
  {
    "postal": "N9C0L9",
    "result": []
  },
  {
    "postal": "N9C9G4",
    "result": []
  },
  {
    "postal": "N9C1J4",
    "result": [
      {
        "electoralDistricts": [
          {
            "election": null,
            "id": 119,
            "name": "Windsor West"
          }
        ],
        "pollDivisionIds": [
          10142776
        ],
        "postalCode": "N9C1J4",
        "streetName": "PETER",
        "streetDirectionId": null,
        "streetTypeId": "ST",
        "placeName": "WINDSOR",
        "streetNameDisplayText": "PETER ST, WINDSOR"
      }
    ]
  },
  {
    "postal": "N9C0W6",
    "result": []
  },
  {
    "postal": "N9C4C5",
    "result": []
  },
  {
    "postal": "N9C7E4",
    "result": []
  },
  {
    "postal": "N9C1R9",
    "result": [
      {
        "electoralDistricts": [
          {
            "election": null,
            "id": 119,
            "setId": 0,
            "name": "Windsor West"
          }
        ],
        "pollDivisionIds": [
          10142776
        ],
        "postalCode": "N9C1R9",
        "streetName": "BLOOMFIELD",
        "streetDirectionId": null,
        "streetTypeId": "RD",
        "placeName": "WINDSOR",
        "streetNameDisplayText": "BLOOMFIELD RD, WINDSOR"
      }
    ]
  },
  {
    "postal": "N9C2P0",
    "result": []
  },
  {
    "postal": "N9C5S4",
    "result": []
  },
  {
    "postal": "N9C5K8",
    "result": []
  },
  {
    "postal": "N9C8K4",
    "result": []
  },
  {
    "postal": "N9C7C1",
    "result": []
  },
  {
    "postal": "N9C7K9",
    "result": []
  },
  {
    "postal": "N9C5J1",
    "result": []
  },
  {
    "postal": "N9C4P9",
    "result": []
  },
  {
    "postal": "N9C0N2",
    "result": []
  },
  {
    "postal": "N9C2G6",
    "result": []
  },
  {
    "postal": "N9C6P4",
    "result": []
  },
  {
    "postal": "N9C3J0",
    "result": []
  },
  {
    "postal": "N9C8X4",
    "result": []
  },
  {
    "postal": "N9C1Y3",
    "result": [
      {
        "electoralDistricts": [
          {
            "election": null,
            "id": 119,
            "setId": 0,
            "name": "Windsor West"
          }
        ],
        "pollDivisionIds": [
          10142778
        ],
        "postalCode": "N9C1Y3",
        "streetName": "MELBOURNE",
        "streetDirectionId": null,
        "streetTypeId": "RD",
        "placeName": "WINDSOR",
        "streetNameDisplayText": "MELBOURNE RD, WINDSOR"
      }
    ]
  },
  {
    "postal": "N9C1A8",
    "result": [
      {
        "electoralDistricts": [
          {
            "election": null,
            "id": 119,
            "setId": 0,
            "name": "Windsor West"
          }
        ],
        "pollDivisionIds": [
          10142775
        ],
        "postalCode": "N9C1A8",
        "streetName": "SANDWICH",
        "streetDirectionId": null,
        "streetTypeId": "ST",
        "placeName": "WINDSOR",
        "streetNameDisplayText": "SANDWICH ST, WINDSOR"
      }
    ]
  },
  {
    "postal": "N9C6Y5",
    "result": []
  },
  {
    "postal": "N9C0J6",
    "result": []
  },
  {
    "postal": "N9C2C9",
    "result": [
      {
        "electoralDistricts": [
          {
            "election": null,
            "id": 119,
            "setId": 0,
            "name": "Windsor West"
          }
        ],
        "pollDivisionIds": [
          10142777
        ],
        "postalCode": "N9C2C9",
        "streetName": "MYRTLE",
        "streetDirectionId": null,
        "streetTypeId": "AVE",
        "placeName": "WINDSOR",
        "streetNameDisplayText": "MYRTLE AVE, WINDSOR"
      }
    ]
  },
  {
    "postal": "N9C8J6",
    "result": []
  },
  {
    "postal": "N9C8T4",
    "result": []
  },
  {
    "postal": "N9C1P7",
    "result": [
      {
        "electoralDistricts": [
          {
            "election": null,
            "id": 119,
            "setId": 0,
            "name": "Windsor West"
          }
        ],
        "pollDivisionIds": [
          10142776
        ],
        "postalCode": "N9C1P7",
        "streetName": "KING",
        "streetDirectionId": null,
        "streetTypeId": "ST",
        "placeName": "WINDSOR",
        "streetNameDisplayText": "KING ST, WINDSOR"
      }
    ]
  },
  {
    "postal": "N9C9V9",
    "result": []
  },
  {
    "postal": "N9C0M1",
    "result": []
  },
  {
    "postal": "N9C6K5",
    "result": []
  },
  {
    "postal": "N9C2T5",
    "result": [
      {
        "electoralDistricts": [
          {
            "election": null,
            "id": 119,
            "setId": 0,
            "name": "Windsor West"
          }
        ],
        "pollDivisionIds": [
          10142776
        ],
        "postalCode": "N9C2T5",
        "streetName": "BROCK",
        "streetDirectionId": null,
        "streetTypeId": "ST",
        "placeName": "WINDSOR",
        "streetNameDisplayText": "BROCK ST, WINDSOR"
      }
    ]
  },
  {
    "postal": "N9C7E9",
    "result": []
  },
  {
    "postal": "N9C5K5",
    "result": []
  },
  {
    "postal": "N9C3R5",
    "result": [
      {
        "electoralDistricts": [
          {
            "election": null,
            "id": 119,
            "setId": 0,
            "name": "Windsor West"
          }
        ],
        "pollDivisionIds": [
          10142777
        ],
        "postalCode": "N9C3R5",
        "streetName": "AMBASSADOR",
        "streetDirectionId": null,
        "streetTypeId": "DR",
        "placeName": "WINDSOR",
        "streetNameDisplayText": "AMBASSADOR DR, WINDSOR"
      }
    ]
  },
  {
    "postal": "N9C5B1",
    "result": []
  },
  {
    "postal": "N9C2P1",
    "result": [
      {
        "electoralDistricts": [
          {
            "election": null,
            "id": 119,
            "setId": 0,
            "name": "Windsor West"
          }
        ],
        "pollDivisionIds": [
          10142775
        ],
        "postalCode": "N9C2P1",
        "streetName": "DETROIT",
        "streetDirectionId": null,
        "streetTypeId": "ST",
        "placeName": "WINDSOR",
        "streetNameDisplayText": "DETROIT ST, WINDSOR"
      }
    ]
  },
  {
    "postal": "N9C7L0",
    "result": []
  },
  {
    "postal": "N9C3L6",
    "result": [
      {
        "electoralDistricts": [
          {
            "election": null,
            "id": 119,
            "setId": 0,
            "name": "Windsor West"
          }
        ],
        "pollDivisionIds": [
          10142778
        ],
        "postalCode": "N9C3L6",
        "streetName": "FELIX",
        "streetDirectionId": null,
        "streetTypeId": "AVE",
        "placeName": "WINDSOR",
        "streetNameDisplayText": "FELIX AVE, WINDSOR"
      }
    ]
  },
  {
    "postal": "N9C2A4",
    "result": [
      {
        "electoralDistricts": [
          {
            "election": null,
            "id": 119,
            "setId": 0,
            "name": "Windsor West"
          }
        ],
        "pollDivisionIds": [
          10142777
        ],
        "postalCode": "N9C2A4",
        "streetName": "MATCHETTE",
        "streetDirectionId": null,
        "streetTypeId": "RD",
        "placeName": "WINDSOR",
        "streetNameDisplayText": "MATCHETTE RD, WINDSOR"
      }
    ]
  },
  {
    "postal": "N9C8S0",
    "result": []
  },
  {
    "postal": "N9C3L5",
    "result": [
      {
        "electoralDistricts": [
          {
            "election": null,
            "id": 119,
            "setId": 0,
            "name": "Windsor West"
          }
        ],
        "pollDivisionIds": [
          10142778
        ],
        "postalCode": "N9C3L5",
        "streetName": "FELIX",
        "streetDirectionId": null,
        "streetTypeId": "AVE",
        "placeName": "WINDSOR",
        "streetNameDisplayText": "FELIX AVE, WINDSOR"
      }
    ]
  },
  {
    "postal": "N9C2R5",
    "result": [
      {
        "electoralDistricts": [
          {
            "election": null,
            "id": 119,
            "setId": 0,
            "name": "Windsor West"
          }
        ],
        "pollDivisionIds": [
          10142776
        ],
        "postalCode": "N9C2R5",
        "streetName": "MILL",
        "streetDirectionId": null,
        "streetTypeId": "ST",
        "placeName": "WINDSOR",
        "streetNameDisplayText": "MILL ST, WINDSOR"
      }
    ]
  },
  {
    "postal": "N9C9T6",
    "result": []
  },
  {
    "postal": "N9C8Z2",
    "result": []
  },
  {
    "postal": "N9C0E9",
    "result": []
  },
  {
    "postal": "N9C8C0",
    "result": []
  },
  {
    "postal": "N9C3K7",
    "result": [
      {
        "electoralDistricts": [
          {
            "election": null,
            "id": 119,
            "setId": 0,
            "name": "Windsor West"
          }
        ],
        "pollDivisionIds": [
          10142776
        ],
        "postalCode": "N9C3K7",
        "streetName": "FELIX",
        "streetDirectionId": null,
        "streetTypeId": "AVE",
        "placeName": "WINDSOR",
        "streetNameDisplayText": "FELIX AVE, WINDSOR"
      }
    ]
  },
  {
    "postal": "N9C2H3",
    "result": []
  },
  {
    "postal": "N9C2Y6",
    "result": [
      {
        "electoralDistricts": [
          {
            "election": null,
            "id": 119,
            "setId": 0,
            "name": "Windsor West"
          }
        ],
        "pollDivisionIds": [
          10142776
        ],
        "postalCode": "N9C2Y6",
        "streetName": "PRINCE",
        "streetDirectionId": null,
        "streetTypeId": "RD",
        "placeName": "WINDSOR",
        "streetNameDisplayText": "PRINCE RD, WINDSOR"
      }
    ]
  },
  {
    "postal": "N9C7M2",
    "result": []
  },
  {
    "postal": "N9C6E2",
    "result": []
  },
  {
    "postal": "N9C3R0",
    "result": []
  },
  {
    "postal": "N9C4J7",
    "result": [
      {
        "electoralDistricts": [
          {
            "election": null,
            "id": 119,
            "setId": 0,
            "name": "Windsor West"
          }
        ],
        "pollDivisionIds": [
          10142777
        ],
        "postalCode": "N9C4J7",
        "streetName": "BEECH",
        "streetDirectionId": null,
        "streetTypeId": "ST",
        "placeName": "WINDSOR",
        "streetNameDisplayText": "BEECH ST, WINDSOR"
      }
    ]
  },
  {
    "postal": "N9C6N8",
    "result": []
  },
  {
    "postal": "N9C0J7",
    "result": []
  },
  {
    "postal": "N9C7P2",
    "result": []
  },
  {
    "postal": "N9C3T8",
    "result": []
  },
  {
    "postal": "N9C3S7",
    "result": []
  },
  {
    "postal": "N9C2S7",
    "result": [
      {
        "electoralDistricts": [
          {
            "election": null,
            "id": 119,
            "setId": 0,
            "name": "Windsor West"
          }
        ],
        "pollDivisionIds": [
          10142776
        ],
        "postalCode": "N9C2S7",
        "streetName": "BROCK",
        "streetDirectionId": null,
        "streetTypeId": "ST",
        "placeName": "WINDSOR",
        "streetNameDisplayText": "BROCK ST, WINDSOR"
      }
    ]
  },
  {
    "postal": "N9C1S4",
    "result": [
      {
        "electoralDistricts": [
          {
            "election": null,
            "id": 119,
            "setId": 0,
            "name": "Windsor West"
          }
        ],
        "pollDivisionIds": [
          10142776
        ],
        "postalCode": "N9C1S4",
        "streetName": "EDISON",
        "streetDirectionId": null,
        "streetTypeId": "ST",
        "placeName": "WINDSOR",
        "streetNameDisplayText": "EDISON ST, WINDSOR"
      }
    ]
  },
  {
    "postal": "N9C1L8",
    "result": [
      {
        "electoralDistricts": [
          {
            "election": null,
            "id": 119,
            "setId": 0,
            "name": "Windsor West"
          }
        ],
        "pollDivisionIds": [
          10142775
        ],
        "postalCode": "N9C1L8",
        "streetName": "DONNELLY",
        "streetDirectionId": null,
        "streetTypeId": "ST",
        "placeName": "WINDSOR",
        "streetNameDisplayText": "DONNELLY ST, WINDSOR"
      }
    ]
  },
  {
    "postal": "N9C8E9",
    "result": []
  },
  {
    "postal": "N9C0T0",
    "result": []
  },
  {
    "postal": "N9C3G4",
    "result": [
      {
        "electoralDistricts": [
          {
            "election": null,
            "id": 119,
            "setId": 0,
            "name": "Windsor West"
          }
        ],
        "pollDivisionIds": [
          10142775
        ],
        "postalCode": "N9C3G4",
        "streetName": "PICHE",
        "streetDirectionId": null,
        "streetTypeId": "ST",
        "placeName": "WINDSOR",
        "streetNameDisplayText": "PICHE ST, WINDSOR"
      }
    ]
  },
  {
    "postal": "N9C0V6",
    "result": []
  },
  {
    "postal": "N9C4W1",
    "result": []
  },
  {
    "postal": "N9C9G9",
    "result": []
  },
  {
    "postal": "N9C5W4",
    "result": []
  },
  {
    "postal": "N9C7M8",
    "result": []
  },
  {
    "postal": "N9C2C2",
    "result": [
      {
        "electoralDistricts": [
          {
            "election": null,
            "id": 119,
            "setId": 0,
            "name": "Windsor West"
          }
        ],
        "pollDivisionIds": [
          10142777
        ],
        "postalCode": "N9C2C2",
        "streetName": "CONNAUGHT",
        "streetDirectionId": null,
        "streetTypeId": "AVE",
        "placeName": "WINDSOR",
        "streetNameDisplayText": "CONNAUGHT AVE, WINDSOR"
      }
    ]
  },
  {
    "postal": "N9C4Y2",
    "result": []
  },
  {
    "postal": "N9C9X9",
    "result": []
  },
  {
    "postal": "N9C3T0",
    "result": []
  },
  {
    "postal": "N9C4T8",
    "result": []
  },
  {
    "postal": "N9C9C4",
    "result": []
  },
  {
    "postal": "N9C8P2",
    "result": []
  },
  {
    "postal": "N9C0Y8",
    "result": []
  },
  {
    "postal": "N9C1G8",
    "result": [
      {
        "electoralDistricts": [
          {
            "election": null,
            "id": 119,
            "setId": 0,
            "name": "Windsor West"
          }
        ],
        "pollDivisionIds": [
          10142775
        ],
        "postalCode": "N9C1G8",
        "streetName": "PETER",
        "streetDirectionId": null,
        "streetTypeId": "ST",
        "placeName": "WINDSOR",
        "streetNameDisplayText": "PETER ST, WINDSOR"
      }
    ]
  },
  {
    "postal": "N9C2T6",
    "result": [
      {
        "electoralDistricts": [
          {
            "election": null,
            "id": 119,
            "setId": 0,
            "name": "Windsor West"
          }
        ],
        "pollDivisionIds": [
          10142778
        ],
        "postalCode": "N9C2T6",
        "streetName": "BROCK",
        "streetDirectionId": null,
        "streetTypeId": "ST",
        "placeName": "WINDSOR",
        "streetNameDisplayText": "BROCK ST, WINDSOR"
      }
    ]
  },
  {
    "postal": "N9C1N7",
    "result": [
      {
        "electoralDistricts": [
          {
            "election": null,
            "id": 119,
            "setId": 0,
            "name": "Windsor West"
          }
        ],
        "pollDivisionIds": [
          10142776
        ],
        "postalCode": "N9C1N7",
        "streetName": "QUEEN",
        "streetDirectionId": null,
        "streetTypeId": "ST",
        "placeName": "WINDSOR",
        "streetNameDisplayText": "QUEEN ST, WINDSOR"
      }
    ]
  },
  {
    "postal": "N9C0L6",
    "result": []
  },
  {
    "postal": "N9C9V4",
    "result": []
  },
  {
    "postal": "N9C2V1",
    "result": [
      {
        "electoralDistricts": [
          {
            "election": null,
            "id": 119,
            "setId": 0,
            "name": "Windsor West"
          }
        ],
        "pollDivisionIds": [
          10142778
        ],
        "postalCode": "N9C2V1",
        "streetName": "BROCK",
        "streetDirectionId": null,
        "streetTypeId": "ST",
        "placeName": "WINDSOR",
        "streetNameDisplayText": "BROCK ST, WINDSOR"
      }
    ]
  },
  {
    "postal": "N9C3L8",
    "result": [
      {
        "electoralDistricts": [
          {
            "election": null,
            "id": 119,
            "setId": 0,
            "name": "Windsor West"
          }
        ],
        "pollDivisionIds": [
          10142778
        ],
        "postalCode": "N9C3L8",
        "streetName": "FELIX",
        "streetDirectionId": null,
        "streetTypeId": "AVE",
        "placeName": "WINDSOR",
        "streetNameDisplayText": "FELIX AVE, WINDSOR"
      }
    ]
  },
  {
    "postal": "N9C2R8",
    "result": [
      {
        "electoralDistricts": [
          {
            "election": null,
            "id": 119,
            "setId": 0,
            "name": "Windsor West"
          }
        ],
        "pollDivisionIds": [
          10142775
        ],
        "postalCode": "N9C2R8",
        "streetName": "MILL",
        "streetDirectionId": null,
        "streetTypeId": "ST",
        "placeName": "WINDSOR",
        "streetNameDisplayText": "MILL ST, WINDSOR"
      }
    ]
  },
  {
    "postal": "N9C5C1",
    "result": []
  },
  {
    "postal": "N9C4W3",
    "result": []
  },
  {
    "postal": "N9C5X5",
    "result": []
  },
  {
    "postal": "N9C9W5",
    "result": []
  },
  {
    "postal": "N9C3C4",
    "result": [
      {
        "electoralDistricts": [
          {
            "election": null,
            "id": 119,
            "setId": 0,
            "name": "Windsor West"
          }
        ],
        "pollDivisionIds": [
          10142776
        ],
        "postalCode": "N9C3C4",
        "streetName": "HILL",
        "streetDirectionId": null,
        "streetTypeId": "AVE",
        "placeName": "WINDSOR",
        "streetNameDisplayText": "HILL AVE, WINDSOR"
      }
    ]
  },
  {
    "postal": "N9C1N6",
    "result": [
      {
        "electoralDistricts": [
          {
            "election": null,
            "id": 119,
            "setId": 0,
            "name": "Windsor West"
          }
        ],
        "pollDivisionIds": [
          10142776
        ],
        "postalCode": "N9C1N6",
        "streetName": "HARRIS",
        "streetDirectionId": null,
        "streetTypeId": "ST",
        "placeName": "WINDSOR",
        "streetNameDisplayText": "HARRIS ST, WINDSOR"
      }
    ]
  },
  {
    "postal": "N9C9S9",
    "result": []
  },
  {
    "postal": "N9C9M2",
    "result": []
  },
  {
    "postal": "N9C8Y4",
    "result": []
  },
  {
    "postal": "N9C7S4",
    "result": []
  },
  {
    "postal": "N9C0K6",
    "result": []
  },
  {
    "postal": "N9C1W3",
    "result": [
      {
        "electoralDistricts": [
          {
            "election": null,
            "id": 119,
            "setId": 0,
            "name": "Windsor West"
          }
        ],
        "pollDivisionIds": [
          10142778
        ],
        "postalCode": "N9C1W3",
        "streetName": "GIRARDOT",
        "streetDirectionId": null,
        "streetTypeId": "ST",
        "placeName": "WINDSOR",
        "streetNameDisplayText": "GIRARDOT ST, WINDSOR"
      }
    ]
  },
  {
    "postal": "N9C7R2",
    "result": []
  },
  {
    "postal": "N9C2Y9",
    "result": [
      {
        "electoralDistricts": [
          {
            "election": null,
            "id": 119,
            "setId": 0,
            "name": "Windsor West"
          }
        ],
        "pollDivisionIds": [
          10142776
        ],
        "postalCode": "N9C2Y9",
        "streetName": "PRINCE",
        "streetDirectionId": null,
        "streetTypeId": "RD",
        "placeName": "WINDSOR",
        "streetNameDisplayText": "PRINCE RD, WINDSOR"
      }
    ]
  },
  {
    "postal": "N9C7G4",
    "result": []
  },
  {
    "postal": "N9C7E5",
    "result": []
  },
  {
    "postal": "N9C9G2",
    "result": []
  },
  {
    "postal": "N9C7Y8",
    "result": []
  },
  {
    "postal": "N9C9V2",
    "result": []
  },
  {
    "postal": "N9C3T7",
    "result": []
  },
  {
    "postal": "N9C1H0",
    "result": []
  },
  {
    "postal": "N9C1M7",
    "result": [
      {
        "electoralDistricts": [
          {
            "election": null,
            "id": 119,
            "setId": 0,
            "name": "Windsor West"
          }
        ],
        "pollDivisionIds": [
          10142775
        ],
        "postalCode": "N9C1M7",
        "streetName": "WYANDOTTE",
        "streetDirectionId": "W",
        "streetTypeId": "ST",
        "placeName": "WINDSOR",
        "streetNameDisplayText": "WYANDOTTE ST W, WINDSOR"
      }
    ]
  },
  {
    "postal": "N9C8V4",
    "result": []
  },
  {
    "postal": "N9C4M2",
    "result": []
  },
  {
    "postal": "N9C0X2",
    "result": []
  },
  {
    "postal": "N9C5Z4",
    "result": []
  },
  {
    "postal": "N9C6V4",
    "result": []
  },
  {
    "postal": "N9C8J3",
    "result": []
  },
  {
    "postal": "N9C8E5",
    "result": []
  },
  {
    "postal": "N9C2V5",
    "result": [
      {
        "electoralDistricts": [
          {
            "election": null,
            "id": 119,
            "setId": 0,
            "name": "Windsor West"
          }
        ],
        "pollDivisionIds": [
          10142778
        ],
        "postalCode": "N9C2V5",
        "streetName": "BROCK",
        "streetDirectionId": null,
        "streetTypeId": "ST",
        "placeName": "WINDSOR",
        "streetNameDisplayText": "BROCK ST, WINDSOR"
      }
    ]
  },
  {
    "postal": "N9C7S1",
    "result": []
  },
  {
    "postal": "N9C6V3",
    "result": []
  },
  {
    "postal": "N9C2L8",
    "result": [
      {
        "electoralDistricts": [
          {
            "election": null,
            "id": 119,
            "setId": 0,
            "name": "Windsor West"
          }
        ],
        "pollDivisionIds": [
          10142777
        ],
        "postalCode": "N9C2L8",
        "streetName": "HURON CHURCH",
        "streetDirectionId": null,
        "streetTypeId": "RD",
        "placeName": "WINDSOR",
        "streetNameDisplayText": "HURON CHURCH RD, WINDSOR"
      }
    ]
  },
  {
    "postal": "N9C9V0",
    "result": []
  },
  {
    "postal": "N9C3M4",
    "result": [
      {
        "electoralDistricts": [
          {
            "election": null,
            "id": 119,
            "setId": 0,
            "name": "Windsor West"
          }
        ],
        "pollDivisionIds": [
          10142777
        ],
        "postalCode": "N9C3M4",
        "streetName": "FELIX",
        "streetDirectionId": null,
        "streetTypeId": "AVE",
        "placeName": "WINDSOR",
        "streetNameDisplayText": "FELIX AVE, WINDSOR"
      }
    ]
  },
  {
    "postal": "N9C5B2",
    "result": []
  },
  {
    "postal": "N9C3X5",
    "result": [
      {
        "electoralDistricts": [
          {
            "election": null,
            "id": 119,
            "setId": 0,
            "name": "Windsor West"
          }
        ],
        "pollDivisionIds": [
          10142777
        ],
        "postalCode": "N9C3X5",
        "streetName": "WERNER",
        "streetDirectionId": null,
        "streetTypeId": "AVE",
        "placeName": "WINDSOR",
        "streetNameDisplayText": "WERNER AVE, WINDSOR"
      }
    ]
  },
  {
    "postal": "N9C9R7",
    "result": []
  },
  {
    "postal": "N9C2X2",
    "result": [
      {
        "electoralDistricts": [
          {
            "election": null,
            "id": 119,
            "setId": 0,
            "name": "Windsor West"
          }
        ],
        "pollDivisionIds": [
          10142776
        ],
        "postalCode": "N9C2X2",
        "streetName": "SOUTH",
        "streetDirectionId": null,
        "streetTypeId": "ST",
        "placeName": "WINDSOR",
        "streetNameDisplayText": "SOUTH ST, WINDSOR"
      }
    ]
  },
  {
    "postal": "N9C8Z6",
    "result": []
  },
  {
    "postal": "N9C4R4",
    "result": []
  },
  {
    "postal": "N9C2R1",
    "result": [
      {
        "electoralDistricts": [
          {
            "election": null,
            "id": 119,
            "setId": 0,
            "name": "Windsor West"
          }
        ],
        "pollDivisionIds": [
          10142775
        ],
        "postalCode": "N9C2R1",
        "streetName": "MILL",
        "streetDirectionId": null,
        "streetTypeId": "ST",
        "placeName": "WINDSOR",
        "streetNameDisplayText": "MILL ST, WINDSOR"
      }
    ]
  },
  {
    "postal": "N9C3R8",
    "result": [
      {
        "electoralDistricts": [
          {
            "election": null,
            "id": 119,
            "setId": 0,
            "name": "Windsor West"
          }
        ],
        "pollDivisionIds": [
          10142777
        ],
        "postalCode": "N9C3R8",
        "streetName": "INDUSTRIAL",
        "streetDirectionId": null,
        "streetTypeId": "DR",
        "placeName": "WINDSOR",
        "streetNameDisplayText": "INDUSTRIAL DR, WINDSOR"
      }
    ]
  },
  {
    "postal": "N9C9A1",
    "result": []
  },
  {
    "postal": "N9C8L3",
    "result": []
  },
  {
    "postal": "N9C9K4",
    "result": []
  },
  {
    "postal": "N9C9S3",
    "result": []
  },
  {
    "postal": "N9C8N7",
    "result": []
  },
  {
    "postal": "N9C1C6",
    "result": []
  },
  {
    "postal": "N9C3Z8",
    "result": [
      {
        "electoralDistricts": [
          {
            "election": null,
            "id": 119,
            "setId": 0,
            "name": "Windsor West"
          }
        ],
        "pollDivisionIds": [
          10142777
        ],
        "postalCode": "N9C3Z8",
        "streetName": "BURWELL",
        "streetDirectionId": null,
        "streetTypeId": "CRT",
        "placeName": "WINDSOR",
        "streetNameDisplayText": "BURWELL CRT, WINDSOR"
      }
    ]
  },
  {
    "postal": "N9C8G5",
    "result": []
  },
  {
    "postal": "N9C5R6",
    "result": []
  },
  {
    "postal": "N9C2W3",
    "result": [
      {
        "electoralDistricts": [
          {
            "election": null,
            "id": 119,
            "setId": 0,
            "name": "Windsor West"
          }
        ],
        "pollDivisionIds": [
          10142776
        ],
        "postalCode": "N9C2W3",
        "streetName": "CHIPPAWA",
        "streetDirectionId": null,
        "streetTypeId": "ST",
        "placeName": "WINDSOR",
        "streetNameDisplayText": "CHIPPAWA ST, WINDSOR"
      }
    ]
  },
  {
    "postal": "N9C0A0",
    "result": []
  },
  {
    "postal": "N9C6P8",
    "result": []
  },
  {
    "postal": "N9C8N9",
    "result": []
  },
  {
    "postal": "N9C0S9",
    "result": []
  },
  {
    "postal": "N9C8G0",
    "result": []
  },
  {
    "postal": "N9C8C7",
    "result": []
  },
  {
    "postal": "N9C5X8",
    "result": []
  },
  {
    "postal": "N9C7E8",
    "result": []
  },
  {
    "postal": "N9C6X2",
    "result": []
  },
  {
    "postal": "N9C4C6",
    "result": [
      {
        "electoralDistricts": [
          {
            "election": null,
            "id": 119,
            "setId": 0,
            "name": "Windsor West"
          }
        ],
        "pollDivisionIds": [
          10142775
        ],
        "postalCode": "N9C4C6",
        "streetName": "SANDWICH",
        "streetDirectionId": null,
        "streetTypeId": "ST",
        "placeName": "WINDSOR",
        "streetNameDisplayText": "SANDWICH ST, WINDSOR"
      }
    ]
  },
  {
    "postal": "N9C7H2",
    "result": []
  },
  {
    "postal": "N9C4R0",
    "result": []
  },
  {
    "postal": "N9C6J3",
    "result": []
  },
  {
    "postal": "N9C4B8",
    "result": []
  },
  {
    "postal": "N9C6H6",
    "result": []
  },
  {
    "postal": "N9C0S1",
    "result": []
  },
  {
    "postal": "N9C4E3",
    "result": [
      {
        "electoralDistricts": [
          {
            "election": null,
            "id": 119,
            "setId": 0,
            "name": "Windsor West"
          }
        ],
        "pollDivisionIds": [
          10142775
        ],
        "postalCode": "N9C4E3",
        "streetName": "DONNELLY",
        "streetDirectionId": null,
        "streetTypeId": "ST",
        "placeName": "WINDSOR",
        "streetNameDisplayText": "DONNELLY ST, WINDSOR"
      }
    ]
  },
  {
    "postal": "N9C7K2",
    "result": []
  },
  {
    "postal": "N9C7T8",
    "result": []
  },
  {
    "postal": "N9C0J9",
    "result": []
  },
  {
    "postal": "N9C5J9",
    "result": []
  },
  {
    "postal": "N9C5S7",
    "result": []
  },
  {
    "postal": "N9C0G9",
    "result": []
  },
  {
    "postal": "N9C3J9",
    "result": [
      {
        "electoralDistricts": [
          {
            "election": null,
            "id": 119,
            "setId": 0,
            "name": "Windsor West"
          }
        ],
        "pollDivisionIds": [
          10142778
        ],
        "postalCode": "N9C3J9",
        "streetName": "HARRISON",
        "streetDirectionId": null,
        "streetTypeId": "AVE",
        "placeName": "WINDSOR",
        "streetNameDisplayText": "HARRISON AVE, WINDSOR"
      }
    ]
  },
  {
    "postal": "N9C2Y0",
    "result": []
  },
  {
    "postal": "N9C8X5",
    "result": []
  },
  {
    "postal": "N9C2M7",
    "result": [
      {
        "electoralDistricts": [
          {
            "election": null,
            "id": 119,
            "setId": 0,
            "name": "Windsor West"
          }
        ],
        "pollDivisionIds": [
          10142775
        ],
        "postalCode": "N9C2M7",
        "streetName": "INDIAN",
        "streetDirectionId": null,
        "streetTypeId": "RD",
        "placeName": "WINDSOR",
        "streetNameDisplayText": "INDIAN RD, WINDSOR"
      }
    ]
  },
  {
    "postal": "N9C9Z3",
    "result": []
  },
  {
    "postal": "N9C7W2",
    "result": []
  },
  {
    "postal": "N9C3W0",
    "result": []
  },
  {
    "postal": "N9C3M1",
    "result": [
      {
        "electoralDistricts": [
          {
            "election": null,
            "id": 119,
            "setId": 0,
            "name": "Windsor West"
          }
        ],
        "pollDivisionIds": [
          10142777
        ],
        "postalCode": "N9C3M1",
        "streetName": "FELIX",
        "streetDirectionId": null,
        "streetTypeId": "AVE",
        "placeName": "WINDSOR",
        "streetNameDisplayText": "FELIX AVE, WINDSOR"
      }
    ]
  },
  {
    "postal": "N9C6A5",
    "result": []
  },
  {
    "postal": "N9C2M9",
    "result": [
      {
        "electoralDistricts": [
          {
            "election": null,
            "id": 119,
            "setId": 0,
            "name": "Windsor West"
          }
        ],
        "pollDivisionIds": [
          10142775
        ],
        "postalCode": "N9C2M9",
        "streetName": "ROSEDALE",
        "streetDirectionId": null,
        "streetTypeId": "AVE",
        "placeName": "WINDSOR",
        "streetNameDisplayText": "ROSEDALE AVE, WINDSOR"
      }
    ]
  },
  {
    "postal": "N9C5C3",
    "result": []
  },
  {
    "postal": "N9C0Y6",
    "result": []
  },
  {
    "postal": "N9C9H7",
    "result": []
  },
  {
    "postal": "N9C3L0",
    "result": []
  },
  {
    "postal": "N9C5N9",
    "result": []
  },
  {
    "postal": "N9C5E3",
    "result": []
  },
  {
    "postal": "N9C7M9",
    "result": []
  },
  {
    "postal": "N9C8N2",
    "result": []
  },
  {
    "postal": "N9C9H3",
    "result": []
  },
  {
    "postal": "N9C2K8",
    "result": []
  },
  {
    "postal": "N9C9L0",
    "result": []
  },
  {
    "postal": "N9C6L9",
    "result": []
  },
  {
    "postal": "N9C6A8",
    "result": []
  },
  {
    "postal": "N9C2K6",
    "result": [
      {
        "electoralDistricts": [
          {
            "election": null,
            "id": 119,
            "setId": 0,
            "name": "Windsor West"
          }
        ],
        "pollDivisionIds": [
          10142778
        ],
        "postalCode": "N9C2K6",
        "streetName": "HURON CHURCH",
        "streetDirectionId": null,
        "streetTypeId": "RD",
        "placeName": "WINDSOR",
        "streetNameDisplayText": "HURON CHURCH RD, WINDSOR"
      }
    ]
  },
  {
    "postal": "N9C2M0",
    "result": []
  },
  {
    "postal": "N9C5X7",
    "result": []
  },
  {
    "postal": "N9C0M7",
    "result": []
  },
  {
    "postal": "N9C7A6",
    "result": []
  },
  {
    "postal": "N9C3C5",
    "result": []
  },
  {
    "postal": "N9C2P2",
    "result": [
      {
        "electoralDistricts": [
          {
            "election": null,
            "id": 119,
            "setId": 0,
            "name": "Windsor West"
          }
        ],
        "pollDivisionIds": [
          10142775
        ],
        "postalCode": "N9C2P2",
        "streetName": "DETROIT",
        "streetDirectionId": null,
        "streetTypeId": "ST",
        "placeName": "WINDSOR",
        "streetNameDisplayText": "DETROIT ST, WINDSOR"
      }
    ]
  },
  {
    "postal": "N9C9N4",
    "result": []
  },
  {
    "postal": "N9C3M9",
    "result": [
      {
        "electoralDistricts": [
          {
            "election": null,
            "id": 27,
            "setId": 0,
            "name": "Essex"
          },
          {
            "election": null,
            "id": 119,
            "setId": 0,
            "name": "Windsor West"
          }
        ],
        "pollDivisionIds": [
          10138021,
          10142778
        ],
        "postalCode": "N9C3M9",
        "streetName": "WIGLE",
        "streetDirectionId": null,
        "streetTypeId": "AVE",
        "placeName": "WINDSOR",
        "streetNameDisplayText": "WIGLE AVE, WINDSOR"
      }
    ]
  },
  {
    "postal": "N9C8K6",
    "result": []
  },
  {
    "postal": "N9C1L2",
    "result": [
      {
        "electoralDistricts": [
          {
            "election": null,
            "id": 119,
            "setId": 0,
            "name": "Windsor West"
          }
        ],
        "pollDivisionIds": [
          10142776
        ],
        "postalCode": "N9C1L2",
        "streetName": "BABY",
        "streetDirectionId": null,
        "streetTypeId": "ST",
        "placeName": "WINDSOR",
        "streetNameDisplayText": "BABY ST, WINDSOR"
      }
    ]
  },
  {
    "postal": "N9C2Z9",
    "result": [
      {
        "electoralDistricts": [
          {
            "election": null,
            "id": 119,
            "setId": 0,
            "name": "Windsor West"
          }
        ],
        "pollDivisionIds": [
          10142777
        ],
        "postalCode": "N9C2Z9",
        "streetName": "PRINCE",
        "streetDirectionId": null,
        "streetTypeId": "RD",
        "placeName": "WINDSOR",
        "streetNameDisplayText": "PRINCE RD, WINDSOR"
      }
    ]
  },
  {
    "postal": "N9C2S2",
    "result": [
      {
        "electoralDistricts": [
          {
            "election": null,
            "id": 119,
            "setId": 0,
            "name": "Windsor West"
          }
        ],
        "pollDivisionIds": [
          10142775
        ],
        "postalCode": "N9C2S2",
        "streetName": "MILL",
        "streetDirectionId": null,
        "streetTypeId": "ST",
        "placeName": "WINDSOR",
        "streetNameDisplayText": "MILL ST, WINDSOR"
      }
    ]
  },
  {
    "postal": "N9C2W2",
    "result": [
      {
        "electoralDistricts": [
          {
            "election": null,
            "id": 119,
            "setId": 0,
            "name": "Windsor West"
          }
        ],
        "pollDivisionIds": [
          10142776
        ],
        "postalCode": "N9C2W2",
        "streetName": "CHIPPAWA",
        "streetDirectionId": null,
        "streetTypeId": "ST",
        "placeName": "WINDSOR",
        "streetNameDisplayText": "CHIPPAWA ST, WINDSOR"
      }
    ]
  },
  {
    "postal": "N9C2C3",
    "result": [
      {
        "electoralDistricts": [
          {
            "election": null,
            "id": 119,
            "setId": 0,
            "name": "Windsor West"
          }
        ],
        "pollDivisionIds": [
          10142777
        ],
        "postalCode": "N9C2C3",
        "streetName": "DORCHESTER",
        "streetDirectionId": null,
        "streetTypeId": "RD",
        "placeName": "WINDSOR",
        "streetNameDisplayText": "DORCHESTER RD, WINDSOR"
      }
    ]
  },
  {
    "postal": "N9C6L7",
    "result": []
  },
  {
    "postal": "N9C3K0",
    "result": []
  },
  {
    "postal": "N9C3C1",
    "result": [
      {
        "electoralDistricts": [
          {
            "election": null,
            "id": 119,
            "setId": 0,
            "name": "Windsor West"
          }
        ],
        "pollDivisionIds": [
          10142775
        ],
        "postalCode": "N9C3C1",
        "streetName": "HILL",
        "streetDirectionId": null,
        "streetTypeId": "AVE",
        "placeName": "WINDSOR",
        "streetNameDisplayText": "HILL AVE, WINDSOR"
      }
    ]
  },
  {
    "postal": "N9C6M9",
    "result": []
  },
  {
    "postal": "N9C4N9",
    "result": []
  },
  {
    "postal": "N9C3Y7",
    "result": []
  },
  {
    "postal": "N9C2A9",
    "result": [
      {
        "electoralDistricts": [
          {
            "election": null,
            "id": 119,
            "setId": 0,
            "name": "Windsor West"
          }
        ],
        "pollDivisionIds": [
          10142777
        ],
        "postalCode": "N9C2A9",
        "streetName": "MONTCALM",
        "streetDirectionId": null,
        "streetTypeId": "ST",
        "placeName": "WINDSOR",
        "streetNameDisplayText": "MONTCALM ST, WINDSOR"
      }
    ]
  },
  {
    "postal": "N9C6H5",
    "result": []
  },
  {
    "postal": "N9C8B4",
    "result": []
  },
  {
    "postal": "N9C4Z2",
    "result": []
  },
  {
    "postal": "N9C9J0",
    "result": []
  },
  {
    "postal": "N9C7V7",
    "result": []
  },
  {
    "postal": "N9C5T5",
    "result": []
  },
  {
    "postal": "N9C4W5",
    "result": []
  },
  {
    "postal": "N9C1T8",
    "result": [
      {
        "electoralDistricts": [
          {
            "election": null,
            "id": 119,
            "setId": 0,
            "name": "Windsor West"
          }
        ],
        "pollDivisionIds": [
          10142778
        ],
        "postalCode": "N9C1T8",
        "streetName": "WELLS",
        "streetDirectionId": null,
        "streetTypeId": "ST",
        "placeName": "WINDSOR",
        "streetNameDisplayText": "WELLS ST, WINDSOR"
      }
    ]
  },
  {
    "postal": "N9C9G6",
    "result": []
  },
  {
    "postal": "N9C1H3",
    "result": [
      {
        "electoralDistricts": [
          {
            "election": null,
            "id": 119,
            "setId": 0,
            "name": "Windsor West"
          }
        ],
        "pollDivisionIds": [
          10142829,
          10142775
        ],
        "postalCode": "N9C1H3",
        "streetName": "PETER",
        "streetDirectionId": null,
        "streetTypeId": "ST",
        "placeName": "WINDSOR",
        "streetNameDisplayText": "PETER ST, WINDSOR"
      }
    ]
  },
  {
    "postal": "N9C5R5",
    "result": []
  },
  {
    "postal": "N9C8A4",
    "result": []
  },
  {
    "postal": "N9C3T6",
    "result": [
      {
        "electoralDistricts": [
          {
            "election": null,
            "id": 119,
            "setId": 0,
            "name": "Windsor West"
          }
        ],
        "pollDivisionIds": [
          10142777
        ],
        "postalCode": "N9C3T6",
        "streetName": "PAGE",
        "streetDirectionId": null,
        "streetTypeId": "ST",
        "placeName": "WINDSOR",
        "streetNameDisplayText": "PAGE ST, WINDSOR"
      }
    ]
  },
  {
    "postal": "N9C9W8",
    "result": []
  },
  {
    "postal": "N9C0N3",
    "result": []
  },
  {
    "postal": "N9C7V0",
    "result": []
  },
  {
    "postal": "N9C8T5",
    "result": []
  },
  {
    "postal": "N9C5N3",
    "result": []
  },
  {
    "postal": "N9C5G9",
    "result": []
  },
  {
    "postal": "N9C3X8",
    "result": []
  },
  {
    "postal": "N9C9R3",
    "result": []
  },
  {
    "postal": "N9C2S1",
    "result": [
      {
        "electoralDistricts": [
          {
            "election": null,
            "id": 119,
            "setId": 0,
            "name": "Windsor West"
          }
        ],
        "pollDivisionIds": [
          10142776
        ],
        "postalCode": "N9C2S1",
        "streetName": "MILL",
        "streetDirectionId": null,
        "streetTypeId": "ST",
        "placeName": "WINDSOR",
        "streetNameDisplayText": "MILL ST, WINDSOR"
      }
    ]
  },
  {
    "postal": "N9C9J7",
    "result": []
  },
  {
    "postal": "N9C2J3",
    "result": []
  },
  {
    "postal": "N9C3B6",
    "result": []
  },
  {
    "postal": "N9C8J0",
    "result": []
  },
  {
    "postal": "N9C7R4",
    "result": []
  },
  {
    "postal": "N9C8K8",
    "result": []
  },
  {
    "postal": "N9C4P3",
    "result": []
  },
  {
    "postal": "N9C0A2",
    "result": []
  },
  {
    "postal": "N9C2G2",
    "result": [
      {
        "electoralDistricts": [
          {
            "election": null,
            "id": 119,
            "setId": 0,
            "name": "Windsor West"
          }
        ],
        "pollDivisionIds": [
          10142777
        ],
        "postalCode": "N9C2G2",
        "streetName": "MALDEN",
        "streetDirectionId": null,
        "streetTypeId": "RD",
        "placeName": "WINDSOR",
        "streetNameDisplayText": "MALDEN RD, WINDSOR"
      }
    ]
  },
  {
    "postal": "N9C5Y9",
    "result": []
  },
  {
    "postal": "N9C7X0",
    "result": []
  },
  {
    "postal": "N9C7W3",
    "result": []
  },
  {
    "postal": "N9C7X5",
    "result": []
  },
  {
    "postal": "N9C5K6",
    "result": []
  },
  {
    "postal": "N9C5B6",
    "result": []
  },
  {
    "postal": "N9C7Z0",
    "result": []
  },
  {
    "postal": "N9C9H6",
    "result": []
  },
  {
    "postal": "N9C1B4",
    "result": [
      {
        "electoralDistricts": [
          {
            "election": null,
            "id": 119,
            "setId": 0,
            "name": "Windsor West"
          }
        ],
        "pollDivisionIds": [
          10142776
        ],
        "postalCode": "N9C1B4",
        "streetName": "SANDWICH",
        "streetDirectionId": null,
        "streetTypeId": "ST",
        "placeName": "WINDSOR",
        "streetNameDisplayText": "SANDWICH ST, WINDSOR"
      }
    ]
  },
  {
    "postal": "N9C1A0",
    "result": []
  },
  {
    "postal": "N9C9A0",
    "result": []
  },
  {
    "postal": "N9C1M6",
    "result": [
      {
        "electoralDistricts": [
          {
            "election": null,
            "id": 119,
            "setId": 0,
            "name": "Windsor West"
          }
        ],
        "pollDivisionIds": [
          10142775
        ],
        "postalCode": "N9C1M6",
        "streetName": "WYANDOTTE",
        "streetDirectionId": "W",
        "streetTypeId": "ST",
        "placeName": "WINDSOR",
        "streetNameDisplayText": "WYANDOTTE ST W, WINDSOR"
      }
    ]
  },
  {
    "postal": "N9C5H0",
    "result": []
  },
  {
    "postal": "N9C1K6",
    "result": [
      {
        "electoralDistricts": [
          {
            "election": null,
            "id": 119,
            "setId": 0,
            "name": "Windsor West"
          }
        ],
        "pollDivisionIds": [
          10142776
        ],
        "postalCode": "N9C1K6",
        "streetName": "BABY",
        "streetDirectionId": null,
        "streetTypeId": "ST",
        "placeName": "WINDSOR",
        "streetNameDisplayText": "BABY ST, WINDSOR"
      }
    ]
  },
  {
    "postal": "N9C5E1",
    "result": []
  },
  {
    "postal": "N9C3T9",
    "result": [
      {
        "electoralDistricts": [
          {
            "election": null,
            "id": 119,
            "setId": 0,
            "name": "Windsor West"
          }
        ],
        "pollDivisionIds": [
          10142777
        ],
        "postalCode": "N9C3T9",
        "streetName": "HEALY",
        "streetDirectionId": null,
        "streetTypeId": "ST",
        "placeName": "WINDSOR",
        "streetNameDisplayText": "HEALY ST, WINDSOR"
      }
    ]
  },
  {
    "postal": "N9C2M6",
    "result": [
      {
        "electoralDistricts": [
          {
            "election": null,
            "id": 119,
            "setId": 0,
            "name": "Windsor West"
          }
        ],
        "pollDivisionIds": [
          10142775
        ],
        "postalCode": "N9C2M6",
        "streetName": "INDIAN",
        "streetDirectionId": null,
        "streetTypeId": "RD",
        "placeName": "WINDSOR",
        "streetNameDisplayText": "INDIAN RD, WINDSOR"
      }
    ]
  },
  {
    "postal": "N9C0G5",
    "result": []
  },
  {
    "postal": "N9C0Y2",
    "result": []
  },
  {
    "postal": "N9C2Y7",
    "result": [
      {
        "electoralDistricts": [
          {
            "election": null,
            "id": 119,
            "setId": 0,
            "name": "Windsor West"
          }
        ],
        "pollDivisionIds": [
          10142776
        ],
        "postalCode": "N9C2Y7",
        "streetName": "PRINCE",
        "streetDirectionId": null,
        "streetTypeId": "RD",
        "placeName": "WINDSOR",
        "streetNameDisplayText": "PRINCE RD, WINDSOR"
      }
    ]
  },
  {
    "postal": "N9C2J7",
    "result": []
  },
  {
    "postal": "N9C4K7",
    "result": []
  },
  {
    "postal": "N9C7P9",
    "result": []
  },
  {
    "postal": "N9C8X0",
    "result": []
  },
  {
    "postal": "N9C3X1",
    "result": [
      {
        "electoralDistricts": [
          {
            "election": null,
            "id": 119,
            "setId": 0,
            "name": "Windsor West"
          }
        ],
        "pollDivisionIds": [
          10142777
        ],
        "postalCode": "N9C3X1",
        "streetName": "ARMANDA",
        "streetDirectionId": null,
        "streetTypeId": "ST",
        "placeName": "WINDSOR",
        "streetNameDisplayText": "ARMANDA ST, WINDSOR"
      }
    ]
  },
  {
    "postal": "N9C1R5",
    "result": [
      {
        "electoralDistricts": [
          {
            "election": null,
            "id": 119,
            "setId": 0,
            "name": "Windsor West"
          }
        ],
        "pollDivisionIds": [
          10142776
        ],
        "postalCode": "N9C1R5",
        "streetName": "BLOOMFIELD",
        "streetDirectionId": null,
        "streetTypeId": "RD",
        "placeName": "WINDSOR",
        "streetNameDisplayText": "BLOOMFIELD RD, WINDSOR"
      }
    ]
  },
  {
    "postal": "N9C6X6",
    "result": []
  },
  {
    "postal": "N9C0Y1",
    "result": []
  },
  {
    "postal": "N9C8G1",
    "result": []
  },
  {
    "postal": "N9C3J3",
    "result": [
      {
        "electoralDistricts": [
          {
            "election": null,
            "id": 119,
            "setId": 0,
            "name": "Windsor West"
          }
        ],
        "pollDivisionIds": [
          10142778
        ],
        "postalCode": "N9C3J3",
        "streetName": "HARRISON",
        "streetDirectionId": null,
        "streetTypeId": "AVE",
        "placeName": "WINDSOR",
        "streetNameDisplayText": "HARRISON AVE, WINDSOR"
      }
    ]
  },
  {
    "postal": "N9C8C2",
    "result": []
  },
  {
    "postal": "N9C4X9",
    "result": []
  },
  {
    "postal": "N9C6G9",
    "result": []
  },
  {
    "postal": "N9C4M3",
    "result": []
  },
  {
    "postal": "N9C9P7",
    "result": []
  },
  {
    "postal": "N9C4E5",
    "result": []
  },
  {
    "postal": "N9C5K9",
    "result": []
  },
  {
    "postal": "N9C2V2",
    "result": [
      {
        "electoralDistricts": [
          {
            "election": null,
            "id": 119,
            "setId": 0,
            "name": "Windsor West"
          }
        ],
        "pollDivisionIds": [
          10142778
        ],
        "postalCode": "N9C2V2",
        "streetName": "BROCK",
        "streetDirectionId": null,
        "streetTypeId": "ST",
        "placeName": "WINDSOR",
        "streetNameDisplayText": "BROCK ST, WINDSOR"
      }
    ]
  },
  {
    "postal": "N9C2N9",
    "result": [
      {
        "electoralDistricts": [
          {
            "election": null,
            "id": 119,
            "setId": 0,
            "name": "Windsor West"
          }
        ],
        "pollDivisionIds": [
          10142775
        ],
        "postalCode": "N9C2N9",
        "streetName": "ROSEDALE",
        "streetDirectionId": null,
        "streetTypeId": "AVE",
        "placeName": "WINDSOR",
        "streetNameDisplayText": "ROSEDALE AVE, WINDSOR"
      }
    ]
  },
  {
    "postal": "N9C6L4",
    "result": []
  },
  {
    "postal": "N9C8E0",
    "result": []
  },
  {
    "postal": "N9C0N0",
    "result": []
  },
  {
    "postal": "N9C6R0",
    "result": []
  },
  {
    "postal": "N9C9C1",
    "result": []
  },
  {
    "postal": "N9C4H4",
    "result": []
  },
  {
    "postal": "N9C5W3",
    "result": []
  },
  {
    "postal": "N9C9N9",
    "result": []
  },
  {
    "postal": "N9C1V7",
    "result": [
      {
        "electoralDistricts": [
          {
            "election": null,
            "id": 119,
            "setId": 0,
            "name": "Windsor West"
          }
        ],
        "pollDivisionIds": [
          10142778
        ],
        "postalCode": "N9C1V7",
        "streetName": "GIRARDOT",
        "streetDirectionId": null,
        "streetTypeId": "ST",
        "placeName": "WINDSOR",
        "streetNameDisplayText": "GIRARDOT ST, WINDSOR"
      }
    ]
  },
  {
    "postal": "N9C8J1",
    "result": []
  },
  {
    "postal": "N9C5V9",
    "result": []
  },
  {
    "postal": "N9C2S8",
    "result": [
      {
        "electoralDistricts": [
          {
            "election": null,
            "id": 119,
            "setId": 0,
            "name": "Windsor West"
          }
        ],
        "pollDivisionIds": [
          10142776
        ],
        "postalCode": "N9C2S8",
        "streetName": "BROCK",
        "streetDirectionId": null,
        "streetTypeId": "ST",
        "placeName": "WINDSOR",
        "streetNameDisplayText": "BROCK ST, WINDSOR"
      }
    ]
  },
  {
    "postal": "N9C6P0",
    "result": []
  },
  {
    "postal": "N9C4J8",
    "result": []
  },
  {
    "postal": "N9C0N1",
    "result": []
  },
  {
    "postal": "N9C1Y7",
    "result": [
      {
        "electoralDistricts": [
          {
            "election": null,
            "id": 119,
            "setId": 0,
            "name": "Windsor West"
          }
        ],
        "pollDivisionIds": [
          10142778
        ],
        "postalCode": "N9C1Y7",
        "streetName": "MARLBOROUGH",
        "streetDirectionId": null,
        "streetTypeId": "BLVD",
        "placeName": "WINDSOR",
        "streetNameDisplayText": "MARLBOROUGH BLVD, WINDSOR"
      }
    ]
  },
  {
    "postal": "N9C7W5",
    "result": []
  },
  {
    "postal": "N9C3Z1",
    "result": []
  },
  {
    "postal": "N9C7M6",
    "result": []
  },
  {
    "postal": "N9C1W7",
    "result": [
      {
        "electoralDistricts": [
          {
            "election": null,
            "id": 119,
            "setId": 0,
            "name": "Windsor West"
          }
        ],
        "pollDivisionIds": [
          10142778
        ],
        "postalCode": "N9C1W7",
        "streetName": "MULFORD",
        "streetDirectionId": null,
        "streetTypeId": "CRT",
        "placeName": "WINDSOR",
        "streetNameDisplayText": "MULFORD CRT, WINDSOR"
      }
    ]
  },
  {
    "postal": "N9C1X1",
    "result": [
      {
        "electoralDistricts": [
          {
            "election": null,
            "id": 119,
            "setId": 0,
            "name": "Windsor West"
          }
        ],
        "pollDivisionIds": [
          10142778
        ],
        "postalCode": "N9C1X1",
        "streetName": "WOLFE",
        "streetDirectionId": null,
        "streetTypeId": "CRT",
        "placeName": "WINDSOR",
        "streetNameDisplayText": "WOLFE CRT, WINDSOR"
      }
    ]
  },
  {
    "postal": "N9C0C1",
    "result": [
      {
        "electoralDistricts": [
          {
            "election": null,
            "id": 119,
            "setId": 0,
            "name": "Windsor West"
          }
        ],
        "pollDivisionIds": [
          10142777
        ],
        "postalCode": "N9C0C1",
        "streetName": "BROADWAY",
        "streetDirectionId": null,
        "streetTypeId": "ST",
        "placeName": "WINDSOR",
        "streetNameDisplayText": "BROADWAY ST, WINDSOR"
      }
    ]
  },
  {
    "postal": "N9C4N3",
    "result": []
  },
  {
    "postal": "N9C4S8",
    "result": []
  },
  {
    "postal": "N9C1H6",
    "result": [
      {
        "electoralDistricts": [
          {
            "election": null,
            "id": 119,
            "setId": 0,
            "name": "Windsor West"
          }
        ],
        "pollDivisionIds": [
          10142776
        ],
        "postalCode": "N9C1H6",
        "streetName": "PETER",
        "streetDirectionId": null,
        "streetTypeId": "ST",
        "placeName": "WINDSOR",
        "streetNameDisplayText": "PETER ST, WINDSOR"
      }
    ]
  },
  {
    "postal": "N9C2Z4",
    "result": [
      {
        "electoralDistricts": [
          {
            "election": null,
            "id": 119,
            "setId": 0,
            "name": "Windsor West"
          }
        ],
        "pollDivisionIds": [
          10142777
        ],
        "postalCode": "N9C2Z4",
        "streetName": "PRINCE",
        "streetDirectionId": null,
        "streetTypeId": "RD",
        "placeName": "WINDSOR",
        "streetNameDisplayText": "PRINCE RD, WINDSOR"
      }
    ]
  },
  {
    "postal": "N9C7K3",
    "result": []
  },
  {
    "postal": "N9C8A2",
    "result": []
  },
  {
    "postal": "N9C6J1",
    "result": []
  },
  {
    "postal": "N9C5Z6",
    "result": []
  },
  {
    "postal": "N9C3Z0",
    "result": []
  },
  {
    "postal": "N9C8M0",
    "result": []
  },
  {
    "postal": "N9C1Z6",
    "result": [
      {
        "electoralDistricts": [
          {
            "election": null,
            "id": 119,
            "setId": 0,
            "name": "Windsor West"
          }
        ],
        "pollDivisionIds": [
          10142777
        ],
        "postalCode": "N9C1Z6",
        "streetName": "VAUGHAN",
        "streetDirectionId": null,
        "streetTypeId": "ST",
        "placeName": "WINDSOR",
        "streetNameDisplayText": "VAUGHAN ST, WINDSOR"
      }
    ]
  },
  {
    "postal": "N9C8K7",
    "result": []
  },
  {
    "postal": "N9C1N3",
    "result": [
      {
        "electoralDistricts": [
          {
            "election": null,
            "id": 119,
            "setId": 0,
            "name": "Windsor West"
          }
        ],
        "pollDivisionIds": [
          10142776
        ],
        "postalCode": "N9C1N3",
        "streetName": "CROSS",
        "streetDirectionId": null,
        "streetTypeId": "ST",
        "placeName": "WINDSOR",
        "streetNameDisplayText": "CROSS ST, WINDSOR"
      }
    ]
  },
  {
    "postal": "N9C9S2",
    "result": []
  },
  {
    "postal": "N9C2K1",
    "result": []
  },
  {
    "postal": "N9C1E8",
    "result": []
  },
  {
    "postal": "N9C9B8",
    "result": []
  },
  {
    "postal": "N9C7X4",
    "result": []
  },
  {
    "postal": "N9C1Z4",
    "result": [
      {
        "electoralDistricts": [
          {
            "election": null,
            "id": 119,
            "setId": 0,
            "name": "Windsor West"
          }
        ],
        "pollDivisionIds": [
          10142777
        ],
        "postalCode": "N9C1Z4",
        "streetName": "BIRCH",
        "streetDirectionId": null,
        "streetTypeId": "ST",
        "placeName": "WINDSOR",
        "streetNameDisplayText": "BIRCH ST, WINDSOR"
      }
    ]
  },
  {
    "postal": "N9C2C7",
    "result": [
      {
        "electoralDistricts": [
          {
            "election": null,
            "id": 119,
            "setId": 0,
            "name": "Windsor West"
          }
        ],
        "pollDivisionIds": [
          10142777
        ],
        "postalCode": "N9C2C7",
        "streetName": "WHITNEY",
        "streetDirectionId": null,
        "streetTypeId": "AVE",
        "placeName": "WINDSOR",
        "streetNameDisplayText": "WHITNEY AVE, WINDSOR"
      }
    ]
  },
  {
    "postal": "N9C2E7",
    "result": [
      {
        "electoralDistricts": [
          {
            "election": null,
            "id": 119,
            "setId": 0,
            "name": "Windsor West"
          }
        ],
        "pollDivisionIds": [
          10142777
        ],
        "postalCode": "N9C2E7",
        "streetName": "BLACKBURN",
        "streetDirectionId": null,
        "streetTypeId": "CRT",
        "placeName": "WINDSOR",
        "streetNameDisplayText": "BLACKBURN CRT, WINDSOR"
      }
    ]
  },
  {
    "postal": "N9C3R1",
    "result": [
      {
        "electoralDistricts": [
          {
            "election": null,
            "id": 119,
            "setId": 0,
            "name": "Windsor West"
          }
        ],
        "pollDivisionIds": [
          10142777
        ],
        "postalCode": "N9C3R1",
        "streetName": "MALDEN",
        "streetDirectionId": null,
        "streetTypeId": "RD",
        "placeName": "WINDSOR",
        "streetNameDisplayText": "MALDEN RD, WINDSOR"
      },
      {
        "electoralDistricts": [
          {
            "election": null,
            "id": 119,
            "setId": 0,
            "name": "Windsor West"
          }
        ],
        "pollDivisionIds": [
          10142777
        ],
        "postalCode": "N9C3R1",
        "streetName": "SUN VALLEY",
        "streetDirectionId": null,
        "streetTypeId": "DR",
        "placeName": "WINDSOR",
        "streetNameDisplayText": "SUN VALLEY DR, WINDSOR"
      }
    ]
  },
  {
    "postal": "N9C4K4",
    "result": []
  },
  {
    "postal": "N9C9G3",
    "result": []
  },
  {
    "postal": "N9C6C9",
    "result": []
  },
  {
    "postal": "N9C9H5",
    "result": []
  },
  {
    "postal": "N9C1P5",
    "result": [
      {
        "electoralDistricts": [
          {
            "election": null,
            "id": 119,
            "setId": 0,
            "name": "Windsor West"
          }
        ],
        "pollDivisionIds": [
          10142776
        ],
        "postalCode": "N9C1P5",
        "streetName": "KING",
        "streetDirectionId": null,
        "streetTypeId": "ST",
        "placeName": "WINDSOR",
        "streetNameDisplayText": "KING ST, WINDSOR"
      }
    ]
  },
  {
    "postal": "N9C2J5",
    "result": []
  },
  {
    "postal": "N9C4W6",
    "result": []
  },
  {
    "postal": "N9C8M8",
    "result": []
  },
  {
    "postal": "N9C6C5",
    "result": []
  },
  {
    "postal": "N9C9H0",
    "result": []
  },
  {
    "postal": "N9C1X8",
    "result": [
      {
        "electoralDistricts": [
          {
            "election": null,
            "id": 119,
            "setId": 0,
            "name": "Windsor West"
          }
        ],
        "pollDivisionIds": [
          10142778
        ],
        "postalCode": "N9C1X8",
        "streetName": "MANCHESTER",
        "streetDirectionId": null,
        "streetTypeId": "RD",
        "placeName": "WINDSOR",
        "streetNameDisplayText": "MANCHESTER RD, WINDSOR"
      }
    ]
  },
  {
    "postal": "N9C3H4",
    "result": [
      {
        "electoralDistricts": [
          {
            "election": null,
            "id": 119,
            "setId": 0,
            "name": "Windsor West"
          }
        ],
        "pollDivisionIds": [
          10142776
        ],
        "postalCode": "N9C3H4",
        "streetName": "ST JOSEPH",
        "streetDirectionId": null,
        "streetTypeId": "ST",
        "placeName": "WINDSOR",
        "streetNameDisplayText": "ST JOSEPH ST, WINDSOR"
      }
    ]
  },
  {
    "postal": "N9C4E7",
    "result": []
  },
  {
    "postal": "N9C8A0",
    "result": []
  },
  {
    "postal": "N9C1Z7",
    "result": [
      {
        "electoralDistricts": [
          {
            "election": null,
            "id": 119,
            "setId": 0,
            "name": "Windsor West"
          }
        ],
        "pollDivisionIds": [
          10142778
        ],
        "postalCode": "N9C1Z7",
        "streetName": "MATCHETTE",
        "streetDirectionId": null,
        "streetTypeId": "RD",
        "placeName": "WINDSOR",
        "streetNameDisplayText": "MATCHETTE RD, WINDSOR"
      }
    ]
  },
  {
    "postal": "N9C7Z3",
    "result": []
  },
  {
    "postal": "N9C0L7",
    "result": []
  },
  {
    "postal": "N9C2C6",
    "result": [
      {
        "electoralDistricts": [
          {
            "election": null,
            "id": 119,
            "setId": 0,
            "name": "Windsor West"
          }
        ],
        "pollDivisionIds": [
          10142777
        ],
        "postalCode": "N9C2C6",
        "streetName": "WHITNEY",
        "streetDirectionId": null,
        "streetTypeId": "AVE",
        "placeName": "WINDSOR",
        "streetNameDisplayText": "WHITNEY AVE, WINDSOR"
      }
    ]
  },
  {
    "postal": "N9C6M3",
    "result": []
  },
  {
    "postal": "N9C2J1",
    "result": []
  },
  {
    "postal": "N9C3E3",
    "result": []
  },
  {
    "postal": "N9C6Z9",
    "result": []
  },
  {
    "postal": "N9C3M3",
    "result": [
      {
        "electoralDistricts": [
          {
            "election": null,
            "id": 119,
            "setId": 0,
            "name": "Windsor West"
          }
        ],
        "pollDivisionIds": [
          10142777
        ],
        "postalCode": "N9C3M3",
        "streetName": "FELIX",
        "streetDirectionId": null,
        "streetTypeId": "AVE",
        "placeName": "WINDSOR",
        "streetNameDisplayText": "FELIX AVE, WINDSOR"
      }
    ]
  },
  {
    "postal": "N9C9B1",
    "result": []
  },
  {
    "postal": "N9C9J5",
    "result": []
  },
  {
    "postal": "N9C4V8",
    "result": []
  },
  {
    "postal": "N9C6W2",
    "result": []
  },
  {
    "postal": "N9C0V5",
    "result": []
  },
  {
    "postal": "N9C0Z8",
    "result": []
  },
  {
    "postal": "N9C5G2",
    "result": []
  },
  {
    "postal": "N9C4N4",
    "result": []
  },
  {
    "postal": "N9C8G7",
    "result": []
  },
  {
    "postal": "N9C8W1",
    "result": []
  },
  {
    "postal": "N9C1S6",
    "result": [
      {
        "electoralDistricts": [
          {
            "election": null,
            "id": 119,
            "setId": 0,
            "name": "Windsor West"
          }
        ],
        "pollDivisionIds": [
          10142778
        ],
        "postalCode": "N9C1S6",
        "streetName": "COLLEGE",
        "streetDirectionId": null,
        "streetTypeId": "AVE",
        "placeName": "WINDSOR",
        "streetNameDisplayText": "COLLEGE AVE, WINDSOR"
      }
    ]
  },
  {
    "postal": "N9C4E0",
    "result": []
  },
  {
    "postal": "N9C4L9",
    "result": []
  },
  {
    "postal": "N9C5Z9",
    "result": []
  },
  {
    "postal": "N9C5V3",
    "result": []
  },
  {
    "postal": "N9C4V2",
    "result": []
  },
  {
    "postal": "N9C7C0",
    "result": []
  },
  {
    "postal": "N9C6L0",
    "result": []
  },
  {
    "postal": "N9C1S9",
    "result": [
      {
        "electoralDistricts": [
          {
            "election": null,
            "id": 119,
            "setId": 0,
            "name": "Windsor West"
          }
        ],
        "pollDivisionIds": [
          10142778
        ],
        "postalCode": "N9C1S9",
        "streetName": "MILLEN",
        "streetDirectionId": null,
        "streetTypeId": "ST",
        "placeName": "WINDSOR",
        "streetNameDisplayText": "MILLEN ST, WINDSOR"
      }
    ]
  },
  {
    "postal": "N9C7R6",
    "result": []
  },
  {
    "postal": "N9C7J0",
    "result": []
  },
  {
    "postal": "N9C5M0",
    "result": []
  },
  {
    "postal": "N9C2E5",
    "result": [
      {
        "electoralDistricts": [
          {
            "election": null,
            "id": 119,
            "setId": 0,
            "name": "Windsor West"
          }
        ],
        "pollDivisionIds": [
          10142777
        ],
        "postalCode": "N9C2E5",
        "streetName": "ROSEMOUNT",
        "streetDirectionId": null,
        "streetTypeId": "AVE",
        "placeName": "WINDSOR",
        "streetNameDisplayText": "ROSEMOUNT AVE, WINDSOR"
      }
    ]
  },
  {
    "postal": "N9C7C7",
    "result": []
  },
  {
    "postal": "N9C5C0",
    "result": []
  },
  {
    "postal": "N9C8V9",
    "result": []
  },
  {
    "postal": "N9C7E0",
    "result": []
  },
  {
    "postal": "N9C6R4",
    "result": []
  },
  {
    "postal": "N9C3Z7",
    "result": []
  },
  {
    "postal": "N9C1J9",
    "result": [
      {
        "electoralDistricts": [
          {
            "election": null,
            "id": 119,
            "setId": 0,
            "name": "Windsor West"
          }
        ],
        "pollDivisionIds": [
          10142776
        ],
        "postalCode": "N9C1J9",
        "streetName": "PETER",
        "streetDirectionId": null,
        "streetTypeId": "ST",
        "placeName": "WINDSOR",
        "streetNameDisplayText": "PETER ST, WINDSOR"
      }
    ]
  },
  {
    "postal": "N9C7K6",
    "result": []
  },
  {
    "postal": "N9C7Y5",
    "result": []
  },
  {
    "postal": "N9C1B7",
    "result": [
      {
        "electoralDistricts": [
          {
            "election": null,
            "id": 119,
            "setId": 0,
            "name": "Windsor West"
          }
        ],
        "pollDivisionIds": [
          10142775
        ],
        "postalCode": "N9C1B7",
        "streetName": "SANDWICH",
        "streetDirectionId": null,
        "streetTypeId": "ST",
        "placeName": "WINDSOR",
        "streetNameDisplayText": "SANDWICH ST, WINDSOR"
      }
    ]
  },
  {
    "postal": "N9C4S9",
    "result": []
  },
  {
    "postal": "N9C9R9",
    "result": []
  },
  {
    "postal": "N9C5K7",
    "result": []
  },
  {
    "postal": "N9C6P2",
    "result": []
  },
  {
    "postal": "N9C2C5",
    "result": [
      {
        "electoralDistricts": [
          {
            "election": null,
            "id": 119,
            "setId": 0,
            "name": "Windsor West"
          }
        ],
        "pollDivisionIds": [
          10142777
        ],
        "postalCode": "N9C2C5",
        "streetName": "WHITNEY",
        "streetDirectionId": null,
        "streetTypeId": "AVE",
        "placeName": "WINDSOR",
        "streetNameDisplayText": "WHITNEY AVE, WINDSOR"
      }
    ]
  },
  {
    "postal": "N9C2N0",
    "result": []
  },
  {
    "postal": "N9C1G0",
    "result": []
  },
  {
    "postal": "N9C4K5",
    "result": []
  },
  {
    "postal": "N9C9B5",
    "result": []
  },
  {
    "postal": "N9C6T5",
    "result": []
  },
  {
    "postal": "N9C1N8",
    "result": [
      {
        "electoralDistricts": [
          {
            "election": null,
            "id": 119,
            "setId": 0,
            "name": "Windsor West"
          }
        ],
        "pollDivisionIds": [
          10142776
        ],
        "postalCode": "N9C1N8",
        "streetName": "QUEEN",
        "streetDirectionId": null,
        "streetTypeId": "ST",
        "placeName": "WINDSOR",
        "streetNameDisplayText": "QUEEN ST, WINDSOR"
      }
    ]
  },
  {
    "postal": "N9C0C0",
    "result": []
  },
  {
    "postal": "N9C0R9",
    "result": []
  },
  {
    "postal": "N9C7L1",
    "result": []
  },
  {
    "postal": "N9C3Y8",
    "result": []
  },
  {
    "postal": "N9C7X9",
    "result": []
  },
  {
    "postal": "N9C1A7",
    "result": [
      {
        "electoralDistricts": [
          {
            "election": null,
            "id": 119,
            "setId": 0,
            "name": "Windsor West"
          }
        ],
        "pollDivisionIds": [
          10142775
        ],
        "postalCode": "N9C1A7",
        "streetName": "SANDWICH",
        "streetDirectionId": null,
        "streetTypeId": "ST",
        "placeName": "WINDSOR",
        "streetNameDisplayText": "SANDWICH ST, WINDSOR"
      }
    ]
  },
  {
    "postal": "N9C2T9",
    "result": [
      {
        "electoralDistricts": [
          {
            "election": null,
            "id": 119,
            "setId": 0,
            "name": "Windsor West"
          }
        ],
        "pollDivisionIds": [
          10142778
        ],
        "postalCode": "N9C2T9",
        "streetName": "BROCK",
        "streetDirectionId": null,
        "streetTypeId": "ST",
        "placeName": "WINDSOR",
        "streetNameDisplayText": "BROCK ST, WINDSOR"
      }
    ]
  },
  {
    "postal": "N9C2E6",
    "result": [
      {
        "electoralDistricts": [
          {
            "election": null,
            "id": 119,
            "setId": 0,
            "name": "Windsor West"
          }
        ],
        "pollDivisionIds": [
          10142777
        ],
        "postalCode": "N9C2E6",
        "streetName": "ROSEMOUNT",
        "streetDirectionId": null,
        "streetTypeId": "AVE",
        "placeName": "WINDSOR",
        "streetNameDisplayText": "ROSEMOUNT AVE, WINDSOR"
      }
    ]
  },
  {
    "postal": "N9C8Y1",
    "result": []
  },
  {
    "postal": "N9C0J5",
    "result": []
  },
  {
    "postal": "N9C4J1",
    "result": [
      {
        "electoralDistricts": [
          {
            "election": null,
            "id": 119,
            "setId": 0,
            "name": "Windsor West"
          }
        ],
        "pollDivisionIds": [
          10142777
        ],
        "postalCode": "N9C4J1",
        "streetName": "WHITNEY",
        "streetDirectionId": null,
        "streetTypeId": "AVE",
        "placeName": "WINDSOR",
        "streetNameDisplayText": "WHITNEY AVE, WINDSOR"
      }
    ]
  },
  {
    "postal": "N9C1A5",
    "result": [
      {
        "electoralDistricts": [
          {
            "election": null,
            "id": 119,
            "setId": 0,
            "name": "Windsor West"
          }
        ],
        "pollDivisionIds": [
          10142775
        ],
        "postalCode": "N9C1A5",
        "streetName": "SANDWICH",
        "streetDirectionId": null,
        "streetTypeId": "ST",
        "placeName": "WINDSOR",
        "streetNameDisplayText": "SANDWICH ST, WINDSOR"
      }
    ]
  },
  {
    "postal": "N9C6Z6",
    "result": []
  },
  {
    "postal": "N9C5K4",
    "result": []
  },
  {
    "postal": "N9C7R9",
    "result": []
  },
  {
    "postal": "N9C6G4",
    "result": []
  }
]
