[
  {
    "postal": "N1M9J6",
    "result": []
  },
  {
    "postal": "N1M9Z5",
    "result": []
  },
  {
    "postal": "N1M7H8",
    "result": []
  },
  {
    "postal": "N1M0P6",
    "result": []
  },
  {
    "postal": "N1M0S7",
    "result": []
  },
  {
    "postal": "N1M8B9",
    "result": []
  },
  {
    "postal": "N1M2A6",
    "result": [
      {
        "electoralDistricts": [
          {
            "election": null,
            "id": 115,
            "name": "Wellington—Halton Hills"
          }
        ],
        "pollDivisionIds": [
          10142556
        ],
        "postalCode": "N1M2A6",
        "streetName": "TOM",
        "streetDirectionId": null,
        "streetTypeId": "ST",
        "placeName": "FERGUS",
        "streetNameDisplayText": "TOM ST, FERGUS"
      }
    ]
  },
  {
    "postal": "N1M7V2",
    "result": []
  },
  {
    "postal": "N1M9P4",
    "result": []
  },
  {
    "postal": "N1M6G0",
    "result": []
  },
  {
    "postal": "N1M2K0",
    "result": []
  },
  {
    "postal": "N1M7N6",
    "result": []
  },
  {
    "postal": "N1M5R3",
    "result": []
  },
  {
    "postal": "N1M7K0",
    "result": []
  },
  {
    "postal": "N1M3R2",
    "result": [
      {
        "electoralDistricts": [
          {
            "election": null,
            "id": 115,
            "name": "Wellington—Halton Hills"
          }
        ],
        "pollDivisionIds": [
          10142559
        ],
        "postalCode": "N1M3R2",
        "streetName": "PERTH",
        "streetDirectionId": null,
        "streetTypeId": "ST",
        "placeName": "FERGUS",
        "streetNameDisplayText": "PERTH ST, FERGUS"
      }
    ]
  },
  {
    "postal": "N1M0J1",
    "result": []
  },
  {
    "postal": "N1M0B0",
    "result": []
  },
  {
    "postal": "N1M5Z2",
    "result": []
  },
  {
    "postal": "N1M7P3",
    "result": []
  },
  {
    "postal": "N1M2K3",
    "result": [
      {
        "electoralDistricts": [
          {
            "election": null,
            "id": 115,
            "name": "Wellington—Halton Hills"
          }
        ],
        "pollDivisionIds": [
          10142557
        ],
        "postalCode": "N1M2K3",
        "streetName": "ST DAVID",
        "streetDirectionId": "N",
        "streetTypeId": "ST",
        "placeName": "FERGUS",
        "streetNameDisplayText": "ST DAVID ST N, FERGUS"
      },
      {
        "electoralDistricts": [
          {
            "election": null,
            "id": 115,
            "name": "Wellington—Halton Hills"
          }
        ],
        "pollDivisionIds": [
          10142557
        ],
        "postalCode": "N1M2K3",
        "streetName": "ST. DAVID",
        "streetDirectionId": "N",
        "streetTypeId": "ST",
        "placeName": "FERGUS",
        "streetNameDisplayText": "ST. DAVID ST N, FERGUS"
      }
    ]
  },
  {
    "postal": "N1M7Y6",
    "result": []
  },
  {
    "postal": "N1M1L9",
    "result": [
      {
        "electoralDistricts": [
          {
            "election": null,
            "id": 115,
            "name": "Wellington—Halton Hills"
          }
        ],
        "pollDivisionIds": [
          10142558
        ],
        "postalCode": "N1M1L9",
        "streetName": "ST PATRICK",
        "streetDirectionId": "W",
        "streetTypeId": "ST",
        "placeName": "FERGUS",
        "streetNameDisplayText": "ST PATRICK ST W, FERGUS"
      },
      {
        "electoralDistricts": [
          {
            "election": null,
            "id": 115,
            "name": "Wellington—Halton Hills"
          }
        ],
        "pollDivisionIds": [
          10142558
        ],
        "postalCode": "N1M1L9",
        "streetName": "ST. PATRICK",
        "streetDirectionId": "W",
        "streetTypeId": "ST",
        "placeName": "FERGUS",
        "streetNameDisplayText": "ST. PATRICK ST W, FERGUS"
      }
    ]
  },
  {
    "postal": "N1M8T0",
    "result": []
  },
  {
    "postal": "N1M3K8",
    "result": [
      {
        "electoralDistricts": [
          {
            "election": null,
            "id": 115,
            "name": "Wellington—Halton Hills"
          }
        ],
        "pollDivisionIds": [
          10142557
        ],
        "postalCode": "N1M3K8",
        "streetName": "STRATHALLAN",
        "streetDirectionId": null,
        "streetTypeId": "ST",
        "placeName": "FERGUS",
        "streetNameDisplayText": "STRATHALLAN ST, FERGUS"
      }
    ]
  },
  {
    "postal": "N1M5W9",
    "result": []
  },
  {
    "postal": "N1M6T9",
    "result": []
  },
  {
    "postal": "N1M4H1",
    "result": []
  },
  {
    "postal": "N1M7A2",
    "result": []
  },
  {
    "postal": "N1M5G0",
    "result": []
  },
  {
    "postal": "N1M8V5",
    "result": []
  },
  {
    "postal": "N1M2Y8",
    "result": [
      {
        "electoralDistricts": [
          {
            "election": null,
            "id": 115,
            "name": "Wellington—Halton Hills"
          }
        ],
        "pollDivisionIds": [
          10142559
        ],
        "postalCode": "N1M2Y8",
        "streetName": "BRAESIDE",
        "streetDirectionId": null,
        "streetTypeId": "RD",
        "placeName": "FERGUS",
        "streetNameDisplayText": "BRAESIDE RD, FERGUS"
      }
    ]
  },
  {
    "postal": "N1M2B6",
    "result": [
      {
        "electoralDistricts": [
          {
            "election": null,
            "id": 115,
            "name": "Wellington—Halton Hills"
          }
        ],
        "pollDivisionIds": [
          10142558
        ],
        "postalCode": "N1M2B6",
        "streetName": "SCOTLAND",
        "streetDirectionId": null,
        "streetTypeId": "ST",
        "placeName": "FERGUS",
        "streetNameDisplayText": "SCOTLAND ST, FERGUS"
      }
    ]
  },
  {
    "postal": "N1M4W8",
    "result": []
  },
  {
    "postal": "N1M8H7",
    "result": []
  },
  {
    "postal": "N1M5P1",
    "result": []
  },
  {
    "postal": "N1M2B8",
    "result": [
      {
        "electoralDistricts": [
          {
            "election": null,
            "id": 115,
            "name": "Wellington—Halton Hills"
          }
        ],
        "pollDivisionIds": [
          10142558
        ],
        "postalCode": "N1M2B8",
        "streetName": "ELGIN",
        "streetDirectionId": null,
        "streetTypeId": "ST",
        "placeName": "FERGUS",
        "streetNameDisplayText": "ELGIN ST, FERGUS"
      }
    ]
  },
  {
    "postal": "N1M0P2",
    "result": []
  },
  {
    "postal": "N1M9M1",
    "result": []
  },
  {
    "postal": "N1M3G0",
    "result": []
  },
  {
    "postal": "N1M9Z2",
    "result": []
  },
  {
    "postal": "N1M2A0",
    "result": []
  },
  {
    "postal": "N1M6Y0",
    "result": []
  },
  {
    "postal": "N1M2Z8",
    "result": [
      {
        "electoralDistricts": [
          {
            "election": null,
            "id": 115,
            "name": "Wellington—Halton Hills"
          }
        ],
        "pollDivisionIds": [
          10142558
        ],
        "postalCode": "N1M2Z8",
        "streetName": "BLAIR",
        "streetDirectionId": null,
        "streetTypeId": "ST",
        "placeName": "FERGUS",
        "streetNameDisplayText": "BLAIR ST, FERGUS"
      }
    ]
  },
  {
    "postal": "N1M7Y3",
    "result": []
  },
  {
    "postal": "N1M6Z5",
    "result": []
  },
  {
    "postal": "N1M6E0",
    "result": []
  },
  {
    "postal": "N1M9B7",
    "result": []
  },
  {
    "postal": "N1M9S5",
    "result": []
  },
  {
    "postal": "N1M3X3",
    "result": []
  },
  {
    "postal": "N1M7R5",
    "result": []
  },
  {
    "postal": "N1M2X3",
    "result": [
      {
        "electoralDistricts": [
          {
            "election": null,
            "id": 115,
            "name": "Wellington—Halton Hills"
          }
        ],
        "pollDivisionIds": [
          10142557
        ],
        "postalCode": "N1M2X3",
        "streetName": "BERGIN",
        "streetDirectionId": null,
        "streetTypeId": "AVE",
        "placeName": "FERGUS",
        "streetNameDisplayText": "BERGIN AVE, FERGUS"
      }
    ]
  },
  {
    "postal": "N1M8Z9",
    "result": []
  },
  {
    "postal": "N1M0N4",
    "result": []
  },
  {
    "postal": "N1M1K1",
    "result": [
      {
        "electoralDistricts": [
          {
            "election": null,
            "id": 115,
            "name": "Wellington—Halton Hills"
          }
        ],
        "pollDivisionIds": [
          10142558
        ],
        "postalCode": "N1M1K1",
        "streetName": "ST GEORGE",
        "streetDirectionId": "W",
        "streetTypeId": "ST",
        "placeName": "FERGUS",
        "streetNameDisplayText": "ST GEORGE ST W, FERGUS"
      }
    ]
  },
  {
    "postal": "N1M1S3",
    "result": [
      {
        "electoralDistricts": [
          {
            "election": null,
            "id": 115,
            "name": "Wellington—Halton Hills"
          }
        ],
        "pollDivisionIds": [
          10142558
        ],
        "postalCode": "N1M1S3",
        "streetName": "COLQUHOUN",
        "streetDirectionId": null,
        "streetTypeId": "ST",
        "placeName": "FERGUS",
        "streetNameDisplayText": "COLQUHOUN ST, FERGUS"
      }
    ]
  },
  {
    "postal": "N1M6M4",
    "result": []
  },
  {
    "postal": "N1M9A9",
    "result": []
  },
  {
    "postal": "N1M9Z9",
    "result": []
  },
  {
    "postal": "N1M6T4",
    "result": []
  },
  {
    "postal": "N1M0B2",
    "result": [
      {
        "electoralDistricts": [
          {
            "election": null,
            "id": 115,
            "name": "Wellington—Halton Hills"
          }
        ],
        "pollDivisionIds": [
          10142556
        ],
        "postalCode": "N1M0B2",
        "streetName": "ST ANDREW",
        "streetDirectionId": "E",
        "streetTypeId": "ST",
        "placeName": "FERGUS",
        "streetNameDisplayText": "ST ANDREW ST E, FERGUS"
      }
    ]
  },
  {
    "postal": "N1M2L9",
    "result": [
      {
        "electoralDistricts": [
          {
            "election": null,
            "id": 115,
            "name": "Wellington—Halton Hills"
          }
        ],
        "pollDivisionIds": [
          10142559
        ],
        "postalCode": "N1M2L9",
        "streetName": "ST DAVID",
        "streetDirectionId": "S",
        "streetTypeId": "ST",
        "placeName": "FERGUS",
        "streetNameDisplayText": "ST DAVID ST S, FERGUS"
      }
    ]
  },
  {
    "postal": "N1M8K9",
    "result": []
  },
  {
    "postal": "N1M2H9",
    "result": [
      {
        "electoralDistricts": [
          {
            "election": null,
            "id": 115,
            "name": "Wellington—Halton Hills"
          }
        ],
        "pollDivisionIds": [
          10142557
        ],
        "postalCode": "N1M2H9",
        "streetName": "JAMES",
        "streetDirectionId": null,
        "streetTypeId": "ST",
        "placeName": "FERGUS",
        "streetNameDisplayText": "JAMES ST, FERGUS"
      }
    ]
  },
  {
    "postal": "N1M3Z6",
    "result": []
  },
  {
    "postal": "N1M3B0",
    "result": []
  },
  {
    "postal": "N1M2H8",
    "result": [
      {
        "electoralDistricts": [
          {
            "election": null,
            "id": 115,
            "name": "Wellington—Halton Hills"
          }
        ],
        "pollDivisionIds": [
          10142557
        ],
        "postalCode": "N1M2H8",
        "streetName": "JAMES",
        "streetDirectionId": null,
        "streetTypeId": "ST",
        "placeName": "FERGUS",
        "streetNameDisplayText": "JAMES ST, FERGUS"
      }
    ]
  },
  {
    "postal": "N1M3X2",
    "result": []
  },
  {
    "postal": "N1M2E9",
    "result": [
      {
        "electoralDistricts": [
          {
            "election": null,
            "id": 115,
            "name": "Wellington—Halton Hills"
          }
        ],
        "pollDivisionIds": [
          10142558
        ],
        "postalCode": "N1M2E9",
        "streetName": "CAMERON",
        "streetDirectionId": null,
        "streetTypeId": "ST",
        "placeName": "FERGUS",
        "streetNameDisplayText": "CAMERON ST, FERGUS"
      }
    ]
  },
  {
    "postal": "N1M9P6",
    "result": []
  },
  {
    "postal": "N1M9E2",
    "result": []
  },
  {
    "postal": "N1M9H2",
    "result": []
  },
  {
    "postal": "N1M1S8",
    "result": [
      {
        "electoralDistricts": [
          {
            "election": null,
            "id": 115,
            "name": "Wellington—Halton Hills"
          }
        ],
        "pollDivisionIds": [
          10142558
        ],
        "postalCode": "N1M1S8",
        "streetName": "QUEEN",
        "streetDirectionId": "W",
        "streetTypeId": "ST",
        "placeName": "FERGUS",
        "streetNameDisplayText": "QUEEN ST W, FERGUS"
      }
    ]
  },
  {
    "postal": "N1M3M6",
    "result": [
      {
        "electoralDistricts": [
          {
            "election": null,
            "id": 115,
            "name": "Wellington—Halton Hills"
          }
        ],
        "pollDivisionIds": [
          10142559
        ],
        "postalCode": "N1M3M6",
        "streetName": "HARVEY",
        "streetDirectionId": null,
        "streetTypeId": "ST",
        "placeName": "FERGUS",
        "streetNameDisplayText": "HARVEY ST, FERGUS"
      }
    ]
  },
  {
    "postal": "N1M6Z8",
    "result": []
  },
  {
    "postal": "N1M4J2",
    "result": []
  },
  {
    "postal": "N1M9Y1",
    "result": []
  },
  {
    "postal": "N1M8V6",
    "result": []
  },
  {
    "postal": "N1M6B2",
    "result": []
  },
  {
    "postal": "N1M1P8",
    "result": [
      {
        "electoralDistricts": [
          {
            "election": null,
            "id": 115,
            "name": "Wellington—Halton Hills"
          }
        ],
        "pollDivisionIds": [
          10142558
        ],
        "postalCode": "N1M1P8",
        "streetName": "ST ANDREW",
        "streetDirectionId": "E",
        "streetTypeId": "ST",
        "placeName": "FERGUS",
        "streetNameDisplayText": "ST ANDREW ST E, FERGUS"
      },
      {
        "electoralDistricts": [
          {
            "election": null,
            "id": 115,
            "name": "Wellington—Halton Hills"
          }
        ],
        "pollDivisionIds": [
          10142558
        ],
        "postalCode": "N1M1P8",
        "streetName": "ST. ANDREW",
        "streetDirectionId": "E",
        "streetTypeId": "ST",
        "placeName": "FERGUS",
        "streetNameDisplayText": "ST. ANDREW ST E, FERGUS"
      }
    ]
  },
  {
    "postal": "N1M0V8",
    "result": []
  },
  {
    "postal": "N1M4Y0",
    "result": []
  },
  {
    "postal": "N1M2T4",
    "result": [
      {
        "electoralDistricts": [
          {
            "election": null,
            "id": 115,
            "name": "Wellington—Halton Hills"
          }
        ],
        "pollDivisionIds": [
          10142557
        ],
        "postalCode": "N1M2T4",
        "streetName": "BREADALBANE",
        "streetDirectionId": null,
        "streetTypeId": "ST",
        "placeName": "FERGUS",
        "streetNameDisplayText": "BREADALBANE ST, FERGUS"
      }
    ]
  },
  {
    "postal": "N1M2S3",
    "result": [
      {
        "electoralDistricts": [
          {
            "election": null,
            "id": 115,
            "name": "Wellington—Halton Hills"
          }
        ],
        "pollDivisionIds": [
          10142557
        ],
        "postalCode": "N1M2S3",
        "streetName": "MAIDEN",
        "streetDirectionId": null,
        "streetTypeId": "LANE",
        "placeName": "FERGUS",
        "streetNameDisplayText": "MAIDEN LANE, FERGUS"
      }
    ]
  },
  {
    "postal": "N1M0K0",
    "result": []
  },
  {
    "postal": "N1M5N1",
    "result": []
  },
  {
    "postal": "N1M7T0",
    "result": []
  },
  {
    "postal": "N1M9N2",
    "result": []
  },
  {
    "postal": "N1M5L1",
    "result": []
  },
  {
    "postal": "N1M7G5",
    "result": []
  },
  {
    "postal": "N1M6K2",
    "result": []
  },
  {
    "postal": "N1M6P9",
    "result": []
  },
  {
    "postal": "N1M0E6",
    "result": [
      {
        "electoralDistricts": [
          {
            "election": null,
            "id": 115,
            "name": "Wellington—Halton Hills"
          }
        ],
        "pollDivisionIds": [
          10142559
        ],
        "postalCode": "N1M0E6",
        "streetName": "DOVER",
        "streetDirectionId": null,
        "streetTypeId": "LANE",
        "placeName": "FERGUS",
        "streetNameDisplayText": "DOVER LANE, FERGUS"
      },
      {
        "electoralDistricts": [
          {
            "election": null,
            "id": 115,
            "name": "Wellington—Halton Hills"
          }
        ],
        "pollDivisionIds": [
          10142559
        ],
        "postalCode": "N1M0E6",
        "streetName": "DVER",
        "streetDirectionId": null,
        "streetTypeId": "LANE",
        "placeName": "FERGUS",
        "streetNameDisplayText": "DVER LANE, FERGUS"
      },
      {
        "electoralDistricts": [
          {
            "election": null,
            "id": 115,
            "name": "Wellington—Halton Hills"
          }
        ],
        "pollDivisionIds": [
          10142559
        ],
        "postalCode": "N1M0E6",
        "streetName": "HERITAGE LAKE",
        "streetDirectionId": null,
        "streetTypeId": "DR",
        "placeName": "FERGUS",
        "streetNameDisplayText": "HERITAGE LAKE DR, FERGUS"
      },
      {
        "electoralDistricts": [
          {
            "election": null,
            "id": 115,
            "name": "Wellington—Halton Hills"
          }
        ],
        "pollDivisionIds": [
          10142559,
          10142558
        ],
        "postalCode": "N1M0E6",
        "streetName": "HERITAGE",
        "streetDirectionId": null,
        "streetTypeId": "LANE",
        "placeName": "FERGUS",
        "streetNameDisplayText": "HERITAGE LANE, FERGUS"
      },
      {
        "electoralDistricts": [
          {
            "election": null,
            "id": 115,
            "name": "Wellington—Halton Hills"
          }
        ],
        "pollDivisionIds": [
          10142559
        ],
        "postalCode": "N1M0E6",
        "streetName": "STROME",
        "streetDirectionId": null,
        "streetTypeId": "LANE",
        "placeName": "FERGUS",
        "streetNameDisplayText": "STROME LANE, FERGUS"
      }
    ]
  },
  {
    "postal": "N1M8R9",
    "result": []
  },
  {
    "postal": "N1M3G9",
    "result": [
      {
        "electoralDistricts": [
          {
            "election": null,
            "id": 115,
            "name": "Wellington—Halton Hills"
          }
        ],
        "pollDivisionIds": [
          10142559
        ],
        "postalCode": "N1M3G9",
        "streetName": "HIGHLAND",
        "streetDirectionId": null,
        "streetTypeId": "RD",
        "placeName": "FERGUS",
        "streetNameDisplayText": "HIGHLAND RD, FERGUS"
      }
    ]
  },
  {
    "postal": "N1M0V7",
    "result": []
  },
  {
    "postal": "N1M2Z1",
    "result": [
      {
        "electoralDistricts": [
          {
            "election": null,
            "id": 115,
            "name": "Wellington—Halton Hills"
          }
        ],
        "pollDivisionIds": [
          10142559
        ],
        "postalCode": "N1M2Z1",
        "streetName": "UNION",
        "streetDirectionId": "W",
        "streetTypeId": "ST",
        "placeName": "FERGUS",
        "streetNameDisplayText": "UNION ST W, FERGUS"
      }
    ]
  },
  {
    "postal": "N1M7N1",
    "result": []
  },
  {
    "postal": "N1M3C6",
    "result": [
      {
        "electoralDistricts": [
          {
            "election": null,
            "id": 115,
            "name": "Wellington—Halton Hills"
          }
        ],
        "pollDivisionIds": [
          10142558
        ],
        "postalCode": "N1M3C6",
        "streetName": "OMAR",
        "streetDirectionId": null,
        "streetTypeId": "ST",
        "placeName": "FERGUS",
        "streetNameDisplayText": "OMAR ST, FERGUS"
      }
    ]
  },
  {
    "postal": "N1M4M1",
    "result": []
  },
  {
    "postal": "N1M9K2",
    "result": []
  },
  {
    "postal": "N1M9S6",
    "result": []
  },
  {
    "postal": "N1M4X1",
    "result": []
  },
  {
    "postal": "N1M8W2",
    "result": []
  },
  {
    "postal": "N1M7N2",
    "result": []
  },
  {
    "postal": "N1M8S3",
    "result": []
  },
  {
    "postal": "N1M4V0",
    "result": []
  },
  {
    "postal": "N1M6W4",
    "result": []
  },
  {
    "postal": "N1M5M1",
    "result": []
  },
  {
    "postal": "N1M0S4",
    "result": []
  },
  {
    "postal": "N1M5X6",
    "result": []
  },
  {
    "postal": "N1M8L5",
    "result": []
  },
  {
    "postal": "N1M5M8",
    "result": []
  },
  {
    "postal": "N1M2G3",
    "result": [
      {
        "electoralDistricts": [
          {
            "election": null,
            "id": 115,
            "name": "Wellington—Halton Hills"
          }
        ],
        "pollDivisionIds": [
          10142557
        ],
        "postalCode": "N1M2G3",
        "streetName": "CAMERON",
        "streetDirectionId": null,
        "streetTypeId": "ST",
        "placeName": "FERGUS",
        "streetNameDisplayText": "CAMERON ST, FERGUS"
      }
    ]
  },
  {
    "postal": "N1M8E4",
    "result": []
  },
  {
    "postal": "N1M7S9",
    "result": []
  },
  {
    "postal": "N1M1K3",
    "result": [
      {
        "electoralDistricts": [
          {
            "election": null,
            "id": 115,
            "name": "Wellington—Halton Hills"
          }
        ],
        "pollDivisionIds": [
          10142558
        ],
        "postalCode": "N1M1K3",
        "streetName": "ST GEORGE",
        "streetDirectionId": "E",
        "streetTypeId": "ST",
        "placeName": "FERGUS",
        "streetNameDisplayText": "ST GEORGE ST E, FERGUS"
      }
    ]
  },
  {
    "postal": "N1M4E1",
    "result": []
  },
  {
    "postal": "N1M4R2",
    "result": []
  },
  {
    "postal": "N1M6T0",
    "result": []
  },
  {
    "postal": "N1M3K5",
    "result": [
      {
        "electoralDistricts": [
          {
            "election": null,
            "id": 115,
            "name": "Wellington—Halton Hills"
          }
        ],
        "pollDivisionIds": [
          10142557
        ],
        "postalCode": "N1M3K5",
        "streetName": "ANNANDALE",
        "streetDirectionId": null,
        "streetTypeId": "LANE",
        "placeName": "FERGUS",
        "streetNameDisplayText": "ANNANDALE LANE, FERGUS"
      }
    ]
  },
  {
    "postal": "N1M3S3",
    "result": [
      {
        "electoralDistricts": [
          {
            "election": null,
            "id": 115,
            "name": "Wellington—Halton Hills"
          }
        ],
        "pollDivisionIds": [
          10142559
        ],
        "postalCode": "N1M3S3",
        "streetName": "MILLBURN",
        "streetDirectionId": null,
        "streetTypeId": "BLVD",
        "placeName": "FERGUS",
        "streetNameDisplayText": "MILLBURN BLVD, FERGUS"
      },
      {
        "electoralDistricts": [
          {
            "election": null,
            "id": 115,
            "name": "Wellington—Halton Hills"
          }
        ],
        "pollDivisionIds": [
          10142559
        ],
        "postalCode": "N1M3S3",
        "streetName": "MILLIGAN",
        "streetDirectionId": null,
        "streetTypeId": "ST",
        "placeName": "FERGUS",
        "streetNameDisplayText": "MILLIGAN ST, FERGUS"
      }
    ]
  },
  {
    "postal": "N1M3L4",
    "result": [
      {
        "electoralDistricts": [
          {
            "election": null,
            "id": 115,
            "name": "Wellington—Halton Hills"
          }
        ],
        "pollDivisionIds": [
          10142557
        ],
        "postalCode": "N1M3L4",
        "streetName": "GZOWSKI",
        "streetDirectionId": null,
        "streetTypeId": "ST",
        "placeName": "FERGUS",
        "streetNameDisplayText": "GZOWSKI ST, FERGUS"
      }
    ]
  },
  {
    "postal": "N1M9Y2",
    "result": []
  },
  {
    "postal": "N1M1E0",
    "result": []
  },
  {
    "postal": "N1M9A4",
    "result": []
  },
  {
    "postal": "N1M1L3",
    "result": [
      {
        "electoralDistricts": [
          {
            "election": null,
            "id": 115,
            "name": "Wellington—Halton Hills"
          }
        ],
        "pollDivisionIds": [
          10142556
        ],
        "postalCode": "N1M1L3",
        "streetName": "ST GEORGE",
        "streetDirectionId": "E",
        "streetTypeId": "ST",
        "placeName": "FERGUS",
        "streetNameDisplayText": "ST GEORGE ST E, FERGUS"
      }
    ]
  },
  {
    "postal": "N1M6N1",
    "result": []
  },
  {
    "postal": "N1M6G7",
    "result": []
  },
  {
    "postal": "N1M7W1",
    "result": []
  },
  {
    "postal": "N1M4M6",
    "result": []
  },
  {
    "postal": "N1M1K0",
    "result": []
  },
  {
    "postal": "N1M3E2",
    "result": []
  },
  {
    "postal": "N1M5H4",
    "result": []
  },
  {
    "postal": "N1M1K7",
    "result": [
      {
        "electoralDistricts": [
          {
            "election": null,
            "id": 115,
            "name": "Wellington—Halton Hills"
          }
        ],
        "pollDivisionIds": [
          10142558
        ],
        "postalCode": "N1M1K7",
        "streetName": "ST GEORGE",
        "streetDirectionId": "E",
        "streetTypeId": "ST",
        "placeName": "FERGUS",
        "streetNameDisplayText": "ST GEORGE ST E, FERGUS"
      },
      {
        "electoralDistricts": [
          {
            "election": null,
            "id": 115,
            "name": "Wellington—Halton Hills"
          }
        ],
        "pollDivisionIds": [
          10142558
        ],
        "postalCode": "N1M1K7",
        "streetName": "ST. GEORGE",
        "streetDirectionId": "E",
        "streetTypeId": "ST",
        "placeName": "FERGUS",
        "streetNameDisplayText": "ST. GEORGE ST E, FERGUS"
      }
    ]
  },
  {
    "postal": "N1M0H0",
    "result": []
  },
  {
    "postal": "N1M0J3",
    "result": []
  },
  {
    "postal": "N1M1X6",
    "result": [
      {
        "electoralDistricts": [
          {
            "election": null,
            "id": 115,
            "name": "Wellington—Halton Hills"
          }
        ],
        "pollDivisionIds": [
          10142559
        ],
        "postalCode": "N1M1X6",
        "streetName": "ALBERT",
        "streetDirectionId": "W",
        "streetTypeId": "ST",
        "placeName": "FERGUS",
        "streetNameDisplayText": "ALBERT ST W, FERGUS"
      }
    ]
  },
  {
    "postal": "N1M2Z6",
    "result": [
      {
        "electoralDistricts": [
          {
            "election": null,
            "id": 115,
            "name": "Wellington—Halton Hills"
          }
        ],
        "pollDivisionIds": [
          10142558
        ],
        "postalCode": "N1M2Z6",
        "streetName": "ANGELICA",
        "streetDirectionId": null,
        "streetTypeId": "ST",
        "placeName": "FERGUS",
        "streetNameDisplayText": "ANGELICA ST, FERGUS"
      }
    ]
  },
  {
    "postal": "N1M4R9",
    "result": []
  },
  {
    "postal": "N1M0W8",
    "result": []
  },
  {
    "postal": "N1M1L4",
    "result": [
      {
        "electoralDistricts": [
          {
            "election": null,
            "id": 115,
            "name": "Wellington—Halton Hills"
          }
        ],
        "pollDivisionIds": [
          10142558
        ],
        "postalCode": "N1M1L4",
        "streetName": "ST PATRICK",
        "streetDirectionId": "W",
        "streetTypeId": "ST",
        "placeName": "FERGUS",
        "streetNameDisplayText": "ST PATRICK ST W, FERGUS"
      }
    ]
  },
  {
    "postal": "N1M0C8",
    "result": [
      {
        "electoralDistricts": [
          {
            "election": null,
            "id": 115,
            "name": "Wellington—Halton Hills"
          }
        ],
        "pollDivisionIds": [
          10142556
        ],
        "postalCode": "N1M0C8",
        "streetName": "AITKEN",
        "streetDirectionId": null,
        "streetTypeId": "CRT",
        "placeName": "FERGUS",
        "streetNameDisplayText": "AITKEN CRT, FERGUS"
      },
      {
        "electoralDistricts": [
          {
            "election": null,
            "id": 115,
            "name": "Wellington—Halton Hills"
          }
        ],
        "pollDivisionIds": [
          10142556
        ],
        "postalCode": "N1M0C8",
        "streetName": "GOODALL",
        "streetDirectionId": null,
        "streetTypeId": "CRT",
        "placeName": "FERGUS",
        "streetNameDisplayText": "GOODALL CRT, FERGUS"
      }
    ]
  },
  {
    "postal": "N1M9X7",
    "result": []
  },
  {
    "postal": "N1M4T1",
    "result": []
  },
  {
    "postal": "N1M0M0",
    "result": []
  },
  {
    "postal": "N1M6A2",
    "result": []
  },
  {
    "postal": "N1M9S8",
    "result": []
  },
  {
    "postal": "N1M9T4",
    "result": []
  },
  {
    "postal": "N1M9Y4",
    "result": []
  },
  {
    "postal": "N1M6G5",
    "result": []
  },
  {
    "postal": "N1M6H9",
    "result": []
  },
  {
    "postal": "N1M2P3",
    "result": [
      {
        "electoralDistricts": [
          {
            "election": null,
            "id": 115,
            "name": "Wellington—Halton Hills"
          }
        ],
        "pollDivisionIds": [
          10142558
        ],
        "postalCode": "N1M2P3",
        "streetName": "TOWER",
        "streetDirectionId": "S",
        "streetTypeId": "ST",
        "placeName": "FERGUS",
        "streetNameDisplayText": "TOWER ST S, FERGUS"
      }
    ]
  },
  {
    "postal": "N1M1T6",
    "result": [
      {
        "electoralDistricts": [
          {
            "election": null,
            "id": 115,
            "name": "Wellington—Halton Hills"
          }
        ],
        "pollDivisionIds": [
          10142558
        ],
        "postalCode": "N1M1T6",
        "streetName": "BRIDGE",
        "streetDirectionId": null,
        "streetTypeId": "ST",
        "placeName": "FERGUS",
        "streetNameDisplayText": "BRIDGE ST, FERGUS"
      }
    ]
  },
  {
    "postal": "N1M4P6",
    "result": []
  },
  {
    "postal": "N1M3K1",
    "result": [
      {
        "electoralDistricts": [
          {
            "election": null,
            "id": 115,
            "name": "Wellington—Halton Hills"
          }
        ],
        "pollDivisionIds": [
          10142556
        ],
        "postalCode": "N1M3K1",
        "streetName": "ATCHISON",
        "streetDirectionId": null,
        "streetTypeId": "LANE",
        "placeName": "FERGUS",
        "streetNameDisplayText": "ATCHISON LANE, FERGUS"
      }
    ]
  },
  {
    "postal": "N1M6X4",
    "result": []
  },
  {
    "postal": "N1M4M8",
    "result": []
  },
  {
    "postal": "N1M2Y1",
    "result": [
      {
        "electoralDistricts": [
          {
            "election": null,
            "id": 115,
            "name": "Wellington—Halton Hills"
          }
        ],
        "pollDivisionIds": [
          10142556
        ],
        "postalCode": "N1M2Y1",
        "streetName": "ST GEORGE",
        "streetDirectionId": "E",
        "streetTypeId": "ST",
        "placeName": "FERGUS",
        "streetNameDisplayText": "ST GEORGE ST E, FERGUS"
      }
    ]
  },
  {
    "postal": "N1M6M1",
    "result": []
  },
  {
    "postal": "N1M5L8",
    "result": []
  },
  {
    "postal": "N1M3P6",
    "result": [
      {
        "electoralDistricts": [
          {
            "election": null,
            "id": 115,
            "name": "Wellington—Halton Hills"
          }
        ],
        "pollDivisionIds": [
          10142559
        ],
        "postalCode": "N1M3P6",
        "streetName": "ROBERTSON",
        "streetDirectionId": null,
        "streetTypeId": "ST",
        "placeName": "FERGUS",
        "streetNameDisplayText": "ROBERTSON ST, FERGUS"
      },
      {
        "electoralDistricts": [
          {
            "election": null,
            "id": 115,
            "name": "Wellington—Halton Hills"
          }
        ],
        "pollDivisionIds": [
          10142559
        ],
        "postalCode": "N1M3P6",
        "streetName": "TAIT",
        "streetDirectionId": null,
        "streetTypeId": "CRES",
        "placeName": "FERGUS",
        "streetNameDisplayText": "TAIT CRES, FERGUS"
      }
    ]
  },
  {
    "postal": "N1M9A5",
    "result": []
  },
  {
    "postal": "N1M7K1",
    "result": []
  },
  {
    "postal": "N1M3J4",
    "result": [
      {
        "electoralDistricts": [
          {
            "election": null,
            "id": 115,
            "name": "Wellington—Halton Hills"
          }
        ],
        "pollDivisionIds": [
          10142559
        ],
        "postalCode": "N1M3J4",
        "streetName": "HARVEY",
        "streetDirectionId": null,
        "streetTypeId": "ST",
        "placeName": "FERGUS",
        "streetNameDisplayText": "HARVEY ST, FERGUS"
      },
      {
        "electoralDistricts": [
          {
            "election": null,
            "id": 115,
            "name": "Wellington—Halton Hills"
          }
        ],
        "pollDivisionIds": [
          10142558,
          10142559
        ],
        "postalCode": "N1M3J4",
        "streetName": "WATT",
        "streetDirectionId": null,
        "streetTypeId": "ST",
        "placeName": "FERGUS",
        "streetNameDisplayText": "WATT ST, FERGUS"
      }
    ]
  },
  {
    "postal": "N1M5E7",
    "result": []
  },
  {
    "postal": "N1M3A7",
    "result": [
      {
        "electoralDistricts": [
          {
            "election": null,
            "id": 115,
            "name": "Wellington—Halton Hills"
          }
        ],
        "pollDivisionIds": [
          10142558
        ],
        "postalCode": "N1M3A7",
        "streetName": "FERGUS",
        "streetDirectionId": null,
        "streetTypeId": "ST",
        "placeName": "FERGUS",
        "streetNameDisplayText": "FERGUS ST, FERGUS"
      }
    ]
  },
  {
    "postal": "N1M1B9",
    "result": [
      {
        "electoralDistricts": [
          {
            "election": null,
            "id": 115,
            "name": "Wellington—Halton Hills"
          }
        ],
        "pollDivisionIds": [
          10142557
        ],
        "postalCode": "N1M1B9",
        "streetName": "GRAHAM",
        "streetDirectionId": null,
        "streetTypeId": "ST",
        "placeName": "FERGUS",
        "streetNameDisplayText": "GRAHAM ST, FERGUS"
      }
    ]
  },
  {
    "postal": "N1M9E8",
    "result": []
  },
  {
    "postal": "N1M1C9",
    "result": [
      {
        "electoralDistricts": [
          {
            "election": null,
            "id": 115,
            "name": "Wellington—Halton Hills"
          }
        ],
        "pollDivisionIds": [
          10142557
        ],
        "postalCode": "N1M1C9",
        "streetName": "GARAFRAXA",
        "streetDirectionId": "E",
        "streetTypeId": "ST",
        "placeName": "FERGUS",
        "streetNameDisplayText": "GARAFRAXA ST E, FERGUS"
      }
    ]
  },
  {
    "postal": "N1M3B5",
    "result": [
      {
        "electoralDistricts": [
          {
            "election": null,
            "id": 115,
            "name": "Wellington—Halton Hills"
          }
        ],
        "pollDivisionIds": [
          10142559
        ],
        "postalCode": "N1M3B5",
        "streetName": "MCTAVISH",
        "streetDirectionId": null,
        "streetTypeId": "ST",
        "placeName": "FERGUS",
        "streetNameDisplayText": "MCTAVISH ST, FERGUS"
      }
    ]
  },
  {
    "postal": "N1M8R0",
    "result": []
  },
  {
    "postal": "N1M3P2",
    "result": [
      {
        "electoralDistricts": [
          {
            "election": null,
            "id": 115,
            "name": "Wellington—Halton Hills"
          }
        ],
        "pollDivisionIds": [
          10142559
        ],
        "postalCode": "N1M3P2",
        "streetName": "FLANNERY",
        "streetDirectionId": null,
        "streetTypeId": "DR",
        "placeName": "FERGUS",
        "streetNameDisplayText": "FLANNERY DR, FERGUS"
      },
      {
        "electoralDistricts": [
          {
            "election": null,
            "id": 115,
            "name": "Wellington—Halton Hills"
          }
        ],
        "pollDivisionIds": [
          10142559
        ],
        "postalCode": "N1M3P2",
        "streetName": "MILLBURN",
        "streetDirectionId": null,
        "streetTypeId": "BLVD",
        "placeName": "FERGUS",
        "streetNameDisplayText": "MILLBURN BLVD, FERGUS"
      }
    ]
  },
  {
    "postal": "N1M5V4",
    "result": []
  },
  {
    "postal": "N1M4H0",
    "result": []
  },
  {
    "postal": "N1M4S7",
    "result": []
  },
  {
    "postal": "N1M6C2",
    "result": []
  },
  {
    "postal": "N1M8W3",
    "result": []
  },
  {
    "postal": "N1M4M5",
    "result": []
  },
  {
    "postal": "N1M5T1",
    "result": []
  },
  {
    "postal": "N1M3B3",
    "result": [
      {
        "electoralDistricts": [
          {
            "election": null,
            "id": 115,
            "name": "Wellington—Halton Hills"
          }
        ],
        "pollDivisionIds": [
          10142558
        ],
        "postalCode": "N1M3B3",
        "streetName": "RAGLAN",
        "streetDirectionId": null,
        "streetTypeId": "ST",
        "placeName": "FERGUS",
        "streetNameDisplayText": "RAGLAN ST, FERGUS"
      }
    ]
  },
  {
    "postal": "N1M6C6",
    "result": []
  },
  {
    "postal": "N1M7N8",
    "result": []
  },
  {
    "postal": "N1M2Y3",
    "result": [
      {
        "electoralDistricts": [
          {
            "election": null,
            "id": 115,
            "name": "Wellington—Halton Hills"
          }
        ],
        "pollDivisionIds": [
          10142559
        ],
        "postalCode": "N1M2Y3",
        "streetName": "ARGYLL",
        "streetDirectionId": null,
        "streetTypeId": "ST",
        "placeName": "FERGUS",
        "streetNameDisplayText": "ARGYLL ST, FERGUS"
      }
    ]
  },
  {
    "postal": "N1M2R6",
    "result": []
  },
  {
    "postal": "N1M7N3",
    "result": []
  },
  {
    "postal": "N1M8J2",
    "result": []
  },
  {
    "postal": "N1M6A9",
    "result": []
  },
  {
    "postal": "N1M3V2",
    "result": [
      {
        "electoralDistricts": [
          {
            "election": null,
            "id": 115,
            "name": "Wellington—Halton Hills"
          }
        ],
        "pollDivisionIds": [
          10142559
        ],
        "postalCode": "N1M3V2",
        "streetName": "ELKIN",
        "streetDirectionId": null,
        "streetTypeId": "CRT",
        "placeName": "FERGUS",
        "streetNameDisplayText": "ELKIN CRT, FERGUS"
      },
      {
        "electoralDistricts": [
          {
            "election": null,
            "id": 115,
            "name": "Wellington—Halton Hills"
          }
        ],
        "pollDivisionIds": [
          10142559
        ],
        "postalCode": "N1M3V2",
        "streetName": "PATTISON",
        "streetDirectionId": null,
        "streetTypeId": "PL",
        "placeName": "FERGUS",
        "streetNameDisplayText": "PATTISON PL, FERGUS"
      }
    ]
  },
  {
    "postal": "N1M2N3",
    "result": [
      {
        "electoralDistricts": [
          {
            "election": null,
            "id": 115,
            "name": "Wellington—Halton Hills"
          }
        ],
        "pollDivisionIds": [
          10142557
        ],
        "postalCode": "N1M2N3",
        "streetName": "PROVOST",
        "streetDirectionId": null,
        "streetTypeId": "LANE",
        "placeName": "FERGUS",
        "streetNameDisplayText": "PROVOST LANE, FERGUS"
      }
    ]
  },
  {
    "postal": "N1M1S5",
    "result": [
      {
        "electoralDistricts": [
          {
            "election": null,
            "id": 115,
            "name": "Wellington—Halton Hills"
          }
        ],
        "pollDivisionIds": [
          10142558
        ],
        "postalCode": "N1M1S5",
        "streetName": "BLAIR",
        "streetDirectionId": null,
        "streetTypeId": "ST",
        "placeName": "FERGUS",
        "streetNameDisplayText": "BLAIR ST, FERGUS"
      }
    ]
  },
  {
    "postal": "N1M4T7",
    "result": []
  },
  {
    "postal": "N1M6Y7",
    "result": []
  },
  {
    "postal": "N1M0W7",
    "result": []
  },
  {
    "postal": "N1M2W9",
    "result": [
      {
        "electoralDistricts": [
          {
            "election": null,
            "id": 115,
            "name": "Wellington—Halton Hills"
          }
        ],
        "pollDivisionIds": [
          10142557
        ],
        "postalCode": "N1M2W9",
        "streetName": "GZOWSKI",
        "streetDirectionId": null,
        "streetTypeId": "ST",
        "placeName": "FERGUS",
        "streetNameDisplayText": "GZOWSKI ST, FERGUS"
      }
    ]
  },
  {
    "postal": "N1M8V0",
    "result": []
  },
  {
    "postal": "N1M0H4",
    "result": []
  },
  {
    "postal": "N1M2T1",
    "result": [
      {
        "electoralDistricts": [
          {
            "election": null,
            "id": 115,
            "name": "Wellington—Halton Hills"
          }
        ],
        "pollDivisionIds": [
          10142558
        ],
        "postalCode": "N1M2T1",
        "streetName": "BREADALBANE",
        "streetDirectionId": null,
        "streetTypeId": "ST",
        "placeName": "FERGUS",
        "streetNameDisplayText": "BREADALBANE ST, FERGUS"
      }
    ]
  },
  {
    "postal": "N1M1B1",
    "result": [
      {
        "electoralDistricts": [
          {
            "election": null,
            "id": 115,
            "name": "Wellington—Halton Hills"
          }
        ],
        "pollDivisionIds": [
          10142557
        ],
        "postalCode": "N1M1B1",
        "streetName": "FORFAR",
        "streetDirectionId": "W",
        "streetTypeId": "ST",
        "placeName": "FERGUS",
        "streetNameDisplayText": "FORFAR ST W, FERGUS"
      }
    ]
  },
  {
    "postal": "N1M8B6",
    "result": []
  },
  {
    "postal": "N1M6H1",
    "result": []
  },
  {
    "postal": "N1M8T8",
    "result": []
  },
  {
    "postal": "N1M0T4",
    "result": []
  },
  {
    "postal": "N1M2C4",
    "result": [
      {
        "electoralDistricts": [
          {
            "election": null,
            "id": 115,
            "name": "Wellington—Halton Hills"
          }
        ],
        "pollDivisionIds": [
          10142559
        ],
        "postalCode": "N1M2C4",
        "streetName": "HIGHLAND",
        "streetDirectionId": null,
        "streetTypeId": "RD",
        "placeName": "FERGUS",
        "streetNameDisplayText": "HIGHLAND RD, FERGUS"
      }
    ]
  },
  {
    "postal": "N1M8N3",
    "result": []
  },
  {
    "postal": "N1M4L8",
    "result": []
  },
  {
    "postal": "N1M2B5",
    "result": []
  },
  {
    "postal": "N1M3H1",
    "result": [
      {
        "electoralDistricts": [
          {
            "election": null,
            "id": 115,
            "name": "Wellington—Halton Hills"
          }
        ],
        "pollDivisionIds": [
          10142559
        ],
        "postalCode": "N1M3H1",
        "streetName": "ATHOL",
        "streetDirectionId": null,
        "streetTypeId": "ST",
        "placeName": "FERGUS",
        "streetNameDisplayText": "ATHOL ST, FERGUS"
      }
    ]
  },
  {
    "postal": "N1M4Y1",
    "result": []
  },
  {
    "postal": "N1M7E2",
    "result": []
  },
  {
    "postal": "N1M2P5",
    "result": [
      {
        "electoralDistricts": [
          {
            "election": null,
            "id": 115,
            "name": "Wellington—Halton Hills"
          }
        ],
        "pollDivisionIds": [
          10142559
        ],
        "postalCode": "N1M2P5",
        "streetName": "TOWER",
        "streetDirectionId": "S",
        "streetTypeId": "ST",
        "placeName": "FERGUS",
        "streetNameDisplayText": "TOWER ST S, FERGUS"
      }
    ]
  },
  {
    "postal": "N1M8R7",
    "result": []
  },
  {
    "postal": "N1M9P1",
    "result": []
  },
  {
    "postal": "N1M3B8",
    "result": [
      {
        "electoralDistricts": [
          {
            "election": null,
            "id": 115,
            "name": "Wellington—Halton Hills"
          }
        ],
        "pollDivisionIds": [
          10142558
        ],
        "postalCode": "N1M3B8",
        "streetName": "ST ARNAUD",
        "streetDirectionId": null,
        "streetTypeId": "ST",
        "placeName": "FERGUS",
        "streetNameDisplayText": "ST ARNAUD ST, FERGUS"
      }
    ]
  },
  {
    "postal": "N1M3P7",
    "result": [
      {
        "electoralDistricts": [
          {
            "election": null,
            "id": 115,
            "name": "Wellington—Halton Hills"
          }
        ],
        "pollDivisionIds": [
          10142559
        ],
        "postalCode": "N1M3P7",
        "streetName": "ROBERTSON",
        "streetDirectionId": null,
        "streetTypeId": "ST",
        "placeName": "FERGUS",
        "streetNameDisplayText": "ROBERTSON ST, FERGUS"
      },
      {
        "electoralDistricts": [
          {
            "election": null,
            "id": 115,
            "name": "Wellington—Halton Hills"
          }
        ],
        "pollDivisionIds": [
          10142559
        ],
        "postalCode": "N1M3P7",
        "streetName": "TAIT",
        "streetDirectionId": null,
        "streetTypeId": "CRES",
        "placeName": "FERGUS",
        "streetNameDisplayText": "TAIT CRES, FERGUS"
      }
    ]
  },
  {
    "postal": "N1M9B2",
    "result": []
  },
  {
    "postal": "N1M6Z3",
    "result": []
  },
  {
    "postal": "N1M4N5",
    "result": []
  },
  {
    "postal": "N1M8T3",
    "result": []
  },
  {
    "postal": "N1M1V2",
    "result": [
      {
        "electoralDistricts": [
          {
            "election": null,
            "id": 115,
            "name": "Wellington—Halton Hills"
          }
        ],
        "pollDivisionIds": [
          10142558
        ],
        "postalCode": "N1M1V2",
        "streetName": "UNION",
        "streetDirectionId": "W",
        "streetTypeId": "ST",
        "placeName": "FERGUS",
        "streetNameDisplayText": "UNION ST W, FERGUS"
      }
    ]
  },
  {
    "postal": "N1M1Y0",
    "result": []
  },
  {
    "postal": "N1M3G6",
    "result": [
      {
        "electoralDistricts": [
          {
            "election": null,
            "id": 115,
            "name": "Wellington—Halton Hills"
          }
        ],
        "pollDivisionIds": [
          10142559
        ],
        "postalCode": "N1M3G6",
        "streetName": "HIGHLAND",
        "streetDirectionId": null,
        "streetTypeId": "RD",
        "placeName": "FERGUS",
        "streetNameDisplayText": "HIGHLAND RD, FERGUS"
      }
    ]
  },
  {
    "postal": "N1M3H7",
    "result": [
      {
        "electoralDistricts": [
          {
            "election": null,
            "id": 115,
            "name": "Wellington—Halton Hills"
          }
        ],
        "pollDivisionIds": [
          10142557
        ],
        "postalCode": "N1M3H7",
        "streetName": "FORFAR",
        "streetDirectionId": "E",
        "streetTypeId": "ST",
        "placeName": "FERGUS",
        "streetNameDisplayText": "FORFAR ST E, FERGUS"
      }
    ]
  },
  {
    "postal": "N1M7X8",
    "result": []
  },
  {
    "postal": "N1M0C7",
    "result": []
  },
  {
    "postal": "N1M0W9",
    "result": []
  },
  {
    "postal": "N1M8E6",
    "result": []
  },
  {
    "postal": "N1M9Z8",
    "result": []
  },
  {
    "postal": "N1M3P4",
    "result": [
      {
        "electoralDistricts": [
          {
            "election": null,
            "id": 115,
            "name": "Wellington—Halton Hills"
          }
        ],
        "pollDivisionIds": [
          10142559
        ],
        "postalCode": "N1M3P4",
        "streetName": "FLANNERY",
        "streetDirectionId": null,
        "streetTypeId": "DR",
        "placeName": "FERGUS",
        "streetNameDisplayText": "FLANNERY DR, FERGUS"
      }
    ]
  },
  {
    "postal": "N1M6L8",
    "result": []
  },
  {
    "postal": "N1M2R4",
    "result": [
      {
        "electoralDistricts": [
          {
            "election": null,
            "id": 115,
            "name": "Wellington—Halton Hills"
          }
        ],
        "pollDivisionIds": [
          10142557
        ],
        "postalCode": "N1M2R4",
        "streetName": "PERRY",
        "streetDirectionId": null,
        "streetTypeId": "ST",
        "placeName": "FERGUS",
        "streetNameDisplayText": "PERRY ST, FERGUS"
      }
    ]
  },
  {
    "postal": "N1M2W1",
    "result": [
      {
        "electoralDistricts": [
          {
            "election": null,
            "id": 115,
            "name": "Wellington—Halton Hills"
          }
        ],
        "pollDivisionIds": [
          10142558
        ],
        "postalCode": "N1M2W1",
        "streetName": "PARK",
        "streetDirectionId": null,
        "streetTypeId": "AVE",
        "placeName": "FERGUS",
        "streetNameDisplayText": "PARK AVE, FERGUS"
      }
    ]
  },
  {
    "postal": "N1M9H8",
    "result": []
  },
  {
    "postal": "N1M8X9",
    "result": []
  },
  {
    "postal": "N1M7H4",
    "result": []
  },
  {
    "postal": "N1M3J1",
    "result": [
      {
        "electoralDistricts": [
          {
            "election": null,
            "id": 115,
            "name": "Wellington—Halton Hills"
          }
        ],
        "pollDivisionIds": [
          10142559
        ],
        "postalCode": "N1M3J1",
        "streetName": "WALKER",
        "streetDirectionId": null,
        "streetTypeId": "ST",
        "placeName": "FERGUS",
        "streetNameDisplayText": "WALKER ST, FERGUS"
      }
    ]
  },
  {
    "postal": "N1M1P4",
    "result": [
      {
        "electoralDistricts": [
          {
            "election": null,
            "id": 115,
            "name": "Wellington—Halton Hills"
          }
        ],
        "pollDivisionIds": [
          10142556
        ],
        "postalCode": "N1M1P4",
        "streetName": "ST ANDREW",
        "streetDirectionId": "E",
        "streetTypeId": "ST",
        "placeName": "FERGUS",
        "streetNameDisplayText": "ST ANDREW ST E, FERGUS"
      },
      {
        "electoralDistricts": [
          {
            "election": null,
            "id": 115,
            "name": "Wellington—Halton Hills"
          }
        ],
        "pollDivisionIds": [
          10142558
        ],
        "postalCode": "N1M1P4",
        "streetName": "ST ANDREW",
        "streetDirectionId": "W",
        "streetTypeId": "ST",
        "placeName": "FERGUS",
        "streetNameDisplayText": "ST ANDREW ST W, FERGUS"
      }
    ]
  },
  {
    "postal": "N1M2A3",
    "result": [
      {
        "electoralDistricts": [
          {
            "election": null,
            "id": 115,
            "name": "Wellington—Halton Hills"
          }
        ],
        "pollDivisionIds": [
          10142556
        ],
        "postalCode": "N1M2A3",
        "streetName": "BARKER",
        "streetDirectionId": null,
        "streetTypeId": "ST",
        "placeName": "FERGUS",
        "streetNameDisplayText": "BARKER ST, FERGUS"
      }
    ]
  },
  {
    "postal": "N1M0Z1",
    "result": []
  },
  {
    "postal": "N1M1C1",
    "result": [
      {
        "electoralDistricts": [
          {
            "election": null,
            "id": 115,
            "name": "Wellington—Halton Hills"
          }
        ],
        "pollDivisionIds": [
          10142557
        ],
        "postalCode": "N1M1C1",
        "streetName": "DOUGLAS",
        "streetDirectionId": null,
        "streetTypeId": "CRES",
        "placeName": "FERGUS",
        "streetNameDisplayText": "DOUGLAS CRES, FERGUS"
      }
    ]
  },
  {
    "postal": "N1M0H3",
    "result": []
  },
  {
    "postal": "N1M7B0",
    "result": []
  },
  {
    "postal": "N1M5K2",
    "result": []
  },
  {
    "postal": "N1M1E9",
    "result": [
      {
        "electoralDistricts": [
          {
            "election": null,
            "id": 115,
            "name": "Wellington—Halton Hills"
          }
        ],
        "pollDivisionIds": [
          10142557
        ],
        "postalCode": "N1M1E9",
        "streetName": "JOHN",
        "streetDirectionId": null,
        "streetTypeId": "ST",
        "placeName": "FERGUS",
        "streetNameDisplayText": "JOHN ST, FERGUS"
      }
    ]
  },
  {
    "postal": "N1M9W7",
    "result": []
  },
  {
    "postal": "N1M5W6",
    "result": []
  },
  {
    "postal": "N1M6S6",
    "result": []
  },
  {
    "postal": "N1M2P8",
    "result": [
      {
        "electoralDistricts": [
          {
            "election": null,
            "id": 115,
            "name": "Wellington—Halton Hills"
          }
        ],
        "pollDivisionIds": [
          10142559
        ],
        "postalCode": "N1M2P8",
        "streetName": "TOWER",
        "streetDirectionId": "S",
        "streetTypeId": "ST",
        "placeName": "FERGUS",
        "streetNameDisplayText": "TOWER ST S, FERGUS"
      }
    ]
  },
  {
    "postal": "N1M4P8",
    "result": []
  },
  {
    "postal": "N1M0V9",
    "result": []
  },
  {
    "postal": "N1M5Y2",
    "result": []
  },
  {
    "postal": "N1M7Z7",
    "result": []
  },
  {
    "postal": "N1M6Y8",
    "result": []
  },
  {
    "postal": "N1M2G7",
    "result": [
      {
        "electoralDistricts": [
          {
            "election": null,
            "id": 115,
            "name": "Wellington—Halton Hills"
          }
        ],
        "pollDivisionIds": [
          10142559
        ],
        "postalCode": "N1M2G7",
        "streetName": "MCALLISTER",
        "streetDirectionId": null,
        "streetTypeId": "ST",
        "placeName": "FERGUS",
        "streetNameDisplayText": "MCALLISTER ST, FERGUS"
      }
    ]
  },
  {
    "postal": "N1M8C1",
    "result": []
  },
  {
    "postal": "N1M5C5",
    "result": []
  },
  {
    "postal": "N1M2X8",
    "result": [
      {
        "electoralDistricts": [
          {
            "election": null,
            "id": 115,
            "name": "Wellington—Halton Hills"
          }
        ],
        "pollDivisionIds": [
          10142556
        ],
        "postalCode": "N1M2X8",
        "streetName": "ORANGEVILLE",
        "streetDirectionId": null,
        "streetTypeId": "RD",
        "placeName": "FERGUS",
        "streetNameDisplayText": "ORANGEVILLE RD, FERGUS"
      }
    ]
  },
  {
    "postal": "N1M1W5",
    "result": [
      {
        "electoralDistricts": [
          {
            "election": null,
            "id": 115,
            "name": "Wellington—Halton Hills"
          }
        ],
        "pollDivisionIds": [
          10142558
        ],
        "postalCode": "N1M1W5",
        "streetName": "UNION",
        "streetDirectionId": "E",
        "streetTypeId": "ST",
        "placeName": "FERGUS",
        "streetNameDisplayText": "UNION ST E, FERGUS"
      }
    ]
  },
  {
    "postal": "N1M7G0",
    "result": []
  },
  {
    "postal": "N1M8J8",
    "result": []
  },
  {
    "postal": "N1M3Y0",
    "result": []
  },
  {
    "postal": "N1M9T7",
    "result": []
  },
  {
    "postal": "N1M5P4",
    "result": []
  },
  {
    "postal": "N1M4B0",
    "result": []
  },
  {
    "postal": "N1M9N8",
    "result": []
  },
  {
    "postal": "N1M4A7",
    "result": []
  },
  {
    "postal": "N1M4H9",
    "result": []
  },
  {
    "postal": "N1M6X1",
    "result": []
  },
  {
    "postal": "N1M9Y7",
    "result": []
  },
  {
    "postal": "N1M2Y5",
    "result": [
      {
        "electoralDistricts": [
          {
            "election": null,
            "id": 115,
            "name": "Wellington—Halton Hills"
          }
        ],
        "pollDivisionIds": [
          10142558
        ],
        "postalCode": "N1M2Y5",
        "streetName": "HERRICK",
        "streetDirectionId": "N",
        "streetTypeId": "ST",
        "placeName": "FERGUS",
        "streetNameDisplayText": "HERRICK ST N, FERGUS"
      }
    ]
  },
  {
    "postal": "N1M8L7",
    "result": []
  },
  {
    "postal": "N1M2A8",
    "result": []
  },
  {
    "postal": "N1M2K9",
    "result": [
      {
        "electoralDistricts": [
          {
            "election": null,
            "id": 115,
            "name": "Wellington—Halton Hills"
          }
        ],
        "pollDivisionIds": [
          10142557
        ],
        "postalCode": "N1M2K9",
        "streetName": "ST DAVID",
        "streetDirectionId": "N",
        "streetTypeId": "ST",
        "placeName": "FERGUS",
        "streetNameDisplayText": "ST DAVID ST N, FERGUS"
      },
      {
        "electoralDistricts": [
          {
            "election": null,
            "id": 115,
            "name": "Wellington—Halton Hills"
          }
        ],
        "pollDivisionIds": [
          10142557
        ],
        "postalCode": "N1M2K9",
        "streetName": "ST. DAVID",
        "streetDirectionId": "N",
        "streetTypeId": "ST",
        "placeName": "FERGUS",
        "streetNameDisplayText": "ST. DAVID ST N, FERGUS"
      }
    ]
  },
  {
    "postal": "N1M3E5",
    "result": [
      {
        "electoralDistricts": [
          {
            "election": null,
            "id": 115,
            "name": "Wellington—Halton Hills"
          }
        ],
        "pollDivisionIds": [
          10142559
        ],
        "postalCode": "N1M3E5",
        "streetName": "BARNETT",
        "streetDirectionId": null,
        "streetTypeId": "CRES",
        "placeName": "FERGUS",
        "streetNameDisplayText": "BARNETT CRES, FERGUS"
      }
    ]
  },
  {
    "postal": "N1M8N6",
    "result": []
  },
  {
    "postal": "N1M8J4",
    "result": []
  },
  {
    "postal": "N1M4R7",
    "result": []
  },
  {
    "postal": "N1M9K1",
    "result": []
  },
  {
    "postal": "N1M8E1",
    "result": []
  },
  {
    "postal": "N1M0R1",
    "result": []
  },
  {
    "postal": "N1M4J3",
    "result": []
  },
  {
    "postal": "N1M7E7",
    "result": []
  },
  {
    "postal": "N1M0J0",
    "result": []
  },
  {
    "postal": "N1M7R8",
    "result": []
  },
  {
    "postal": "N1M9X0",
    "result": []
  },
  {
    "postal": "N1M7P6",
    "result": []
  },
  {
    "postal": "N1M0R7",
    "result": []
  },
  {
    "postal": "N1M5W1",
    "result": []
  },
  {
    "postal": "N1M0K4",
    "result": []
  },
  {
    "postal": "N1M7N9",
    "result": []
  },
  {
    "postal": "N1M1N0",
    "result": []
  },
  {
    "postal": "N1M6P3",
    "result": []
  },
  {
    "postal": "N1M5A1",
    "result": []
  },
  {
    "postal": "N1M9M9",
    "result": []
  },
  {
    "postal": "N1M7T6",
    "result": []
  },
  {
    "postal": "N1M3X0",
    "result": []
  },
  {
    "postal": "N1M2T0",
    "result": []
  },
  {
    "postal": "N1M5X9",
    "result": []
  },
  {
    "postal": "N1M2R3",
    "result": [
      {
        "electoralDistricts": [
          {
            "election": null,
            "id": 115,
            "name": "Wellington—Halton Hills"
          }
        ],
        "pollDivisionIds": [
          10142559
        ],
        "postalCode": "N1M2R3",
        "streetName": "TOWER",
        "streetDirectionId": "S",
        "streetTypeId": "ST",
        "placeName": "FERGUS",
        "streetNameDisplayText": "TOWER ST S, FERGUS"
      }
    ]
  },
  {
    "postal": "N1M5N2",
    "result": []
  },
  {
    "postal": "N1M4Y7",
    "result": []
  },
  {
    "postal": "N1M7M0",
    "result": []
  },
  {
    "postal": "N1M8P3",
    "result": []
  },
  {
    "postal": "N1M3N3",
    "result": []
  },
  {
    "postal": "N1M7S3",
    "result": []
  },
  {
    "postal": "N1M3V9",
    "result": [
      {
        "electoralDistricts": [
          {
            "election": null,
            "id": 115,
            "name": "Wellington—Halton Hills"
          }
        ],
        "pollDivisionIds": [
          10142557
        ],
        "postalCode": "N1M3V9",
        "streetName": "GZOWSKI",
        "streetDirectionId": null,
        "streetTypeId": "ST",
        "placeName": "FERGUS",
        "streetNameDisplayText": "GZOWSKI ST, FERGUS"
      },
      {
        "electoralDistricts": [
          {
            "election": null,
            "id": 115,
            "name": "Wellington—Halton Hills"
          }
        ],
        "pollDivisionIds": [
          10142557
        ],
        "postalCode": "N1M3V9",
        "streetName": "HARPER",
        "streetDirectionId": null,
        "streetTypeId": "CRES",
        "placeName": "FERGUS",
        "streetNameDisplayText": "HARPER CRES, FERGUS"
      }
    ]
  },
  {
    "postal": "N1M9N7",
    "result": []
  },
  {
    "postal": "N1M0G4",
    "result": [
      {
        "electoralDistricts": [
          {
            "election": null,
            "id": 115,
            "name": "Wellington—Halton Hills"
          }
        ],
        "pollDivisionIds": [
          10142557
        ],
        "postalCode": "N1M0G4",
        "streetName": "MIDDLETON",
        "streetDirectionId": null,
        "streetTypeId": "AVE",
        "placeName": "FERGUS",
        "streetNameDisplayText": "MIDDLETON AVE, FERGUS"
      },
      {
        "electoralDistricts": [
          {
            "election": null,
            "id": 115,
            "name": "Wellington—Halton Hills"
          }
        ],
        "pollDivisionIds": [
          10142557
        ],
        "postalCode": "N1M0G4",
        "streetName": "READY",
        "streetDirectionId": null,
        "streetTypeId": "RD",
        "placeName": "FERGUS",
        "streetNameDisplayText": "READY RD, FERGUS"
      }
    ]
  },
  {
    "postal": "N1M2E2",
    "result": [
      {
        "electoralDistricts": [
          {
            "election": null,
            "id": 115,
            "name": "Wellington—Halton Hills"
          }
        ],
        "pollDivisionIds": [
          10142557
        ],
        "postalCode": "N1M2E2",
        "streetName": "HERRICK",
        "streetDirectionId": "N",
        "streetTypeId": "ST",
        "placeName": "FERGUS",
        "streetNameDisplayText": "HERRICK ST N, FERGUS"
      }
    ]
  },
  {
    "postal": "N1M7W8",
    "result": []
  },
  {
    "postal": "N1M7M5",
    "result": []
  },
  {
    "postal": "N1M5W8",
    "result": []
  },
  {
    "postal": "N1M5E5",
    "result": []
  },
  {
    "postal": "N1M1P9",
    "result": [
      {
        "electoralDistricts": [
          {
            "election": null,
            "id": 115,
            "name": "Wellington—Halton Hills"
          }
        ],
        "pollDivisionIds": [
          10142558
        ],
        "postalCode": "N1M1P9",
        "streetName": "ST ANDREW",
        "streetDirectionId": "E",
        "streetTypeId": "ST",
        "placeName": "FERGUS",
        "streetNameDisplayText": "ST ANDREW ST E, FERGUS"
      }
    ]
  },
  {
    "postal": "N1M8V8",
    "result": []
  },
  {
    "postal": "N1M9G8",
    "result": []
  },
  {
    "postal": "N1M8H9",
    "result": []
  },
  {
    "postal": "N1M1Z1",
    "result": [
      {
        "electoralDistricts": [
          {
            "election": null,
            "id": 115,
            "name": "Wellington—Halton Hills"
          }
        ],
        "pollDivisionIds": [
          10142559
        ],
        "postalCode": "N1M1Z1",
        "streetName": "ELORA",
        "streetDirectionId": null,
        "streetTypeId": "ST",
        "placeName": "FERGUS",
        "streetNameDisplayText": "ELORA ST, FERGUS"
      }
    ]
  },
  {
    "postal": "N1M8M3",
    "result": []
  },
  {
    "postal": "N1M5H6",
    "result": []
  },
  {
    "postal": "N1M7W7",
    "result": []
  },
  {
    "postal": "N1M4L0",
    "result": []
  },
  {
    "postal": "N1M2N1",
    "result": [
      {
        "electoralDistricts": [
          {
            "election": null,
            "id": 115,
            "name": "Wellington—Halton Hills"
          }
        ],
        "pollDivisionIds": [
          10142557
        ],
        "postalCode": "N1M2N1",
        "streetName": "PROVOST",
        "streetDirectionId": null,
        "streetTypeId": "LANE",
        "placeName": "FERGUS",
        "streetNameDisplayText": "PROVOST LANE, FERGUS"
      }
    ]
  },
  {
    "postal": "N1M2H4",
    "result": [
      {
        "electoralDistricts": [
          {
            "election": null,
            "id": 115,
            "name": "Wellington—Halton Hills"
          }
        ],
        "pollDivisionIds": [
          10142557
        ],
        "postalCode": "N1M2H4",
        "streetName": "GOWRIE",
        "streetDirectionId": "N",
        "streetTypeId": "ST",
        "placeName": "FERGUS",
        "streetNameDisplayText": "GOWRIE ST N, FERGUS"
      }
    ]
  },
  {
    "postal": "N1M5C8",
    "result": []
  },
  {
    "postal": "N1M8B0",
    "result": []
  },
  {
    "postal": "N1M1T4",
    "result": [
      {
        "electoralDistricts": [
          {
            "election": null,
            "id": 115,
            "name": "Wellington—Halton Hills"
          }
        ],
        "pollDivisionIds": [
          10142558
        ],
        "postalCode": "N1M1T4",
        "streetName": "QUEEN",
        "streetDirectionId": "E",
        "streetTypeId": "ST",
        "placeName": "FERGUS",
        "streetNameDisplayText": "QUEEN ST E, FERGUS"
      }
    ]
  },
  {
    "postal": "N1M7N7",
    "result": []
  },
  {
    "postal": "N1M4L3",
    "result": []
  },
  {
    "postal": "N1M2N2",
    "result": [
      {
        "electoralDistricts": [
          {
            "election": null,
            "id": 115,
            "name": "Wellington—Halton Hills"
          }
        ],
        "pollDivisionIds": [
          10142557
        ],
        "postalCode": "N1M2N2",
        "streetName": "PROVOST",
        "streetDirectionId": null,
        "streetTypeId": "LANE",
        "placeName": "FERGUS",
        "streetNameDisplayText": "PROVOST LANE, FERGUS"
      }
    ]
  },
  {
    "postal": "N1M4N8",
    "result": []
  },
  {
    "postal": "N1M3M5",
    "result": [
      {
        "electoralDistricts": [
          {
            "election": null,
            "id": 115,
            "name": "Wellington—Halton Hills"
          }
        ],
        "pollDivisionIds": [
          10142557
        ],
        "postalCode": "N1M3M5",
        "streetName": "PARKSIDE",
        "streetDirectionId": "W",
        "streetTypeId": "DR",
        "placeName": "FERGUS",
        "streetNameDisplayText": "PARKSIDE DR W, FERGUS"
      }
    ]
  },
  {
    "postal": "N1M6H7",
    "result": []
  },
  {
    "postal": "N1M8Y8",
    "result": []
  },
  {
    "postal": "N1M5R9",
    "result": []
  },
  {
    "postal": "N1M8G3",
    "result": []
  },
  {
    "postal": "N1M4N7",
    "result": []
  },
  {
    "postal": "N1M0B9",
    "result": [
      {
        "electoralDistricts": [
          {
            "election": null,
            "id": 115,
            "name": "Wellington—Halton Hills"
          }
        ],
        "pollDivisionIds": [
          10142559
        ],
        "postalCode": "N1M0B9",
        "streetName": "RILEY",
        "streetDirectionId": null,
        "streetTypeId": "CRES",
        "placeName": "FERGUS",
        "streetNameDisplayText": "RILEY CRES, FERGUS"
      }
    ]
  },
  {
    "postal": "N1M9K7",
    "result": []
  },
  {
    "postal": "N1M9K9",
    "result": []
  },
  {
    "postal": "N1M3Z2",
    "result": []
  },
  {
    "postal": "N1M6W7",
    "result": []
  },
  {
    "postal": "N1M0P1",
    "result": []
  },
  {
    "postal": "N1M3A0",
    "result": []
  },
  {
    "postal": "N1M8L9",
    "result": []
  },
  {
    "postal": "N1M6X0",
    "result": []
  },
  {
    "postal": "N1M3E9",
    "result": [
      {
        "electoralDistricts": [
          {
            "election": null,
            "id": 115,
            "name": "Wellington—Halton Hills"
          }
        ],
        "pollDivisionIds": [
          10142557
        ],
        "postalCode": "N1M3E9",
        "streetName": "VICTORIA",
        "streetDirectionId": null,
        "streetTypeId": "TERR",
        "placeName": "FERGUS",
        "streetNameDisplayText": "VICTORIA TERR, FERGUS"
      }
    ]
  },
  {
    "postal": "N1M0S5",
    "result": []
  },
  {
    "postal": "N1M1A2",
    "result": [
      {
        "electoralDistricts": [
          {
            "election": null,
            "id": 115,
            "name": "Wellington—Halton Hills"
          }
        ],
        "pollDivisionIds": [
          10142557
        ],
        "postalCode": "N1M1A2",
        "streetName": "EDINBURGH",
        "streetDirectionId": null,
        "streetTypeId": "AVE",
        "placeName": "FERGUS",
        "streetNameDisplayText": "EDINBURGH AVE, FERGUS"
      }
    ]
  },
  {
    "postal": "N1M5V8",
    "result": []
  },
  {
    "postal": "N1M8C5",
    "result": []
  },
  {
    "postal": "N1M6N0",
    "result": []
  },
  {
    "postal": "N1M9E6",
    "result": []
  },
  {
    "postal": "N1M5J7",
    "result": []
  },
  {
    "postal": "N1M2R2",
    "result": [
      {
        "electoralDistricts": [
          {
            "election": null,
            "id": 115,
            "name": "Wellington—Halton Hills"
          }
        ],
        "pollDivisionIds": [
          10142559
        ],
        "postalCode": "N1M2R2",
        "streetName": "TOWER",
        "streetDirectionId": "S",
        "streetTypeId": "ST",
        "placeName": "FERGUS",
        "streetNameDisplayText": "TOWER ST S, FERGUS"
      }
    ]
  },
  {
    "postal": "N1M0P5",
    "result": []
  },
  {
    "postal": "N1M5A7",
    "result": []
  },
  {
    "postal": "N1M1G1",
    "result": [
      {
        "electoralDistricts": [
          {
            "election": null,
            "id": 115,
            "name": "Wellington—Halton Hills"
          }
        ],
        "pollDivisionIds": [
          10142557
        ],
        "postalCode": "N1M1G1",
        "streetName": "HILL",
        "streetDirectionId": "W",
        "streetTypeId": "ST",
        "placeName": "FERGUS",
        "streetNameDisplayText": "HILL ST W, FERGUS"
      }
    ]
  },
  {
    "postal": "N1M9R6",
    "result": []
  },
  {
    "postal": "N1M4Z9",
    "result": []
  },
  {
    "postal": "N1M1V5",
    "result": [
      {
        "electoralDistricts": [
          {
            "election": null,
            "id": 115,
            "name": "Wellington—Halton Hills"
          }
        ],
        "pollDivisionIds": [
          10142558
        ],
        "postalCode": "N1M1V5",
        "streetName": "UNION",
        "streetDirectionId": "W",
        "streetTypeId": "ST",
        "placeName": "FERGUS",
        "streetNameDisplayText": "UNION ST W, FERGUS"
      }
    ]
  },
  {
    "postal": "N1M9Y5",
    "result": []
  },
  {
    "postal": "N1M1P2",
    "result": [
      {
        "electoralDistricts": [
          {
            "election": null,
            "id": 115,
            "name": "Wellington—Halton Hills"
          }
        ],
        "pollDivisionIds": [
          10142558
        ],
        "postalCode": "N1M1P2",
        "streetName": "ST ANDREW",
        "streetDirectionId": "W",
        "streetTypeId": "ST",
        "placeName": "FERGUS",
        "streetNameDisplayText": "ST ANDREW ST W, FERGUS"
      }
    ]
  },
  {
    "postal": "N1M5X0",
    "result": []
  },
  {
    "postal": "N1M7B8",
    "result": []
  },
  {
    "postal": "N1M0C6",
    "result": [
      {
        "electoralDistricts": [
          {
            "election": null,
            "id": 115,
            "name": "Wellington—Halton Hills"
          }
        ],
        "pollDivisionIds": [
          10142559
        ],
        "postalCode": "N1M0C6",
        "streetName": "WESTMINISTER",
        "streetDirectionId": null,
        "streetTypeId": "CRES",
        "placeName": "FERGUS",
        "streetNameDisplayText": "WESTMINISTER CRES, FERGUS"
      },
      {
        "electoralDistricts": [
          {
            "election": null,
            "id": 115,
            "name": "Wellington—Halton Hills"
          }
        ],
        "pollDivisionIds": [
          10142559
        ],
        "postalCode": "N1M0C6",
        "streetName": "WESTMINSTER",
        "streetDirectionId": null,
        "streetTypeId": "CRES",
        "placeName": "FERGUS",
        "streetNameDisplayText": "WESTMINSTER CRES, FERGUS"
      }
    ]
  },
  {
    "postal": "N1M6G1",
    "result": []
  },
  {
    "postal": "N1M3K3",
    "result": [
      {
        "electoralDistricts": [
          {
            "election": null,
            "id": 115,
            "name": "Wellington—Halton Hills"
          }
        ],
        "pollDivisionIds": [
          10142559
        ],
        "postalCode": "N1M3K3",
        "streetName": "HARVEY",
        "streetDirectionId": null,
        "streetTypeId": "ST",
        "placeName": "FERGUS",
        "streetNameDisplayText": "HARVEY ST, FERGUS"
      },
      {
        "electoralDistricts": [
          {
            "election": null,
            "id": 115,
            "name": "Wellington—Halton Hills"
          }
        ],
        "pollDivisionIds": [
          10142558
        ],
        "postalCode": "N1M3K3",
        "streetName": "WATT",
        "streetDirectionId": null,
        "streetTypeId": "ST",
        "placeName": "FERGUS",
        "streetNameDisplayText": "WATT ST, FERGUS"
      }
    ]
  },
  {
    "postal": "N1M9R0",
    "result": []
  },
  {
    "postal": "N1M4R8",
    "result": []
  },
  {
    "postal": "N1M5P9",
    "result": []
  },
  {
    "postal": "N1M8N4",
    "result": []
  },
  {
    "postal": "N1M8H4",
    "result": []
  },
  {
    "postal": "N1M4V1",
    "result": []
  },
  {
    "postal": "N1M1K5",
    "result": [
      {
        "electoralDistricts": [
          {
            "election": null,
            "id": 115,
            "name": "Wellington—Halton Hills"
          }
        ],
        "pollDivisionIds": [
          10142557
        ],
        "postalCode": "N1M1K5",
        "streetName": "ST GEORGE",
        "streetDirectionId": "E",
        "streetTypeId": "ST",
        "placeName": "FERGUS",
        "streetNameDisplayText": "ST GEORGE ST E, FERGUS"
      },
      {
        "electoralDistricts": [
          {
            "election": null,
            "id": 115,
            "name": "Wellington—Halton Hills"
          }
        ],
        "pollDivisionIds": [
          10142557
        ],
        "postalCode": "N1M1K5",
        "streetName": "ST. GEORGE",
        "streetDirectionId": "E",
        "streetTypeId": "ST",
        "placeName": "FERGUS",
        "streetNameDisplayText": "ST. GEORGE ST E, FERGUS"
      }
    ]
  },
  {
    "postal": "N1M1Z5",
    "result": [
      {
        "electoralDistricts": [
          {
            "election": null,
            "id": 115,
            "name": "Wellington—Halton Hills"
          }
        ],
        "pollDivisionIds": [
          10142559,
          10142596
        ],
        "postalCode": "N1M1Z5",
        "streetName": "BELSYDE",
        "streetDirectionId": "E",
        "streetTypeId": "AVE",
        "placeName": "FERGUS",
        "streetNameDisplayText": "BELSYDE AVE E, FERGUS"
      },
      {
        "electoralDistricts": [
          {
            "election": null,
            "id": 115,
            "name": "Wellington—Halton Hills"
          }
        ],
        "pollDivisionIds": [
          10142559
        ],
        "postalCode": "N1M1Z5",
        "streetName": "BELSYDE",
        "streetDirectionId": "W",
        "streetTypeId": "AVE",
        "placeName": "FERGUS",
        "streetNameDisplayText": "BELSYDE AVE W, FERGUS"
      }
    ]
  },
  {
    "postal": "N1M9L9",
    "result": []
  },
  {
    "postal": "N1M5L2",
    "result": []
  },
  {
    "postal": "N1M0M2",
    "result": []
  },
  {
    "postal": "N1M1K8",
    "result": [
      {
        "electoralDistricts": [
          {
            "election": null,
            "id": 115,
            "name": "Wellington—Halton Hills"
          }
        ],
        "pollDivisionIds": [
          10142557,
          10142558
        ],
        "postalCode": "N1M1K8",
        "streetName": "ST GEORGE",
        "streetDirectionId": "E",
        "streetTypeId": "ST",
        "placeName": "FERGUS",
        "streetNameDisplayText": "ST GEORGE ST E, FERGUS"
      },
      {
        "electoralDistricts": [
          {
            "election": null,
            "id": 115,
            "name": "Wellington—Halton Hills"
          }
        ],
        "pollDivisionIds": [
          10142558
        ],
        "postalCode": "N1M1K8",
        "streetName": "ST. GEORGE",
        "streetDirectionId": "E",
        "streetTypeId": "ST",
        "placeName": "FERGUS",
        "streetNameDisplayText": "ST. GEORGE ST E, FERGUS"
      },
      {
        "electoralDistricts": [
          {
            "election": null,
            "id": 115,
            "name": "Wellington—Halton Hills"
          }
        ],
        "pollDivisionIds": [
          10142558
        ],
        "postalCode": "N1M1K8",
        "streetName": "ST.GEORGE",
        "streetDirectionId": "E",
        "streetTypeId": "ST",
        "placeName": "FERGUS",
        "streetNameDisplayText": "ST.GEORGE ST E, FERGUS"
      }
    ]
  },
  {
    "postal": "N1M3M7",
    "result": [
      {
        "electoralDistricts": [
          {
            "election": null,
            "id": 115,
            "name": "Wellington—Halton Hills"
          }
        ],
        "pollDivisionIds": [
          10142557
        ],
        "postalCode": "N1M3M7",
        "streetName": "BLACK",
        "streetDirectionId": null,
        "streetTypeId": "ST",
        "placeName": "FERGUS",
        "streetNameDisplayText": "BLACK ST, FERGUS"
      },
      {
        "electoralDistricts": [
          {
            "election": null,
            "id": 115,
            "name": "Wellington—Halton Hills"
          }
        ],
        "pollDivisionIds": [
          10142557
        ],
        "postalCode": "N1M3M7",
        "streetName": "REVELL",
        "streetDirectionId": null,
        "streetTypeId": "DR",
        "placeName": "FERGUS",
        "streetNameDisplayText": "REVELL DR, FERGUS"
      }
    ]
  },
  {
    "postal": "N1M1B2",
    "result": [
      {
        "electoralDistricts": [
          {
            "election": null,
            "id": 115,
            "name": "Wellington—Halton Hills"
          }
        ],
        "pollDivisionIds": [
          10142557
        ],
        "postalCode": "N1M1B2",
        "streetName": "19",
        "streetDirectionId": null,
        "streetTypeId": "SIDERD",
        "placeName": "FERGUS",
        "streetNameDisplayText": "19 SIDERD, FERGUS"
      },
      {
        "electoralDistricts": [
          {
            "election": null,
            "id": 115,
            "name": "Wellington—Halton Hills"
          }
        ],
        "pollDivisionIds": [
          10142558,
          10142557
        ],
        "postalCode": "N1M1B2",
        "streetName": "FORFAR",
        "streetDirectionId": "E",
        "streetTypeId": "ST",
        "placeName": "FERGUS",
        "streetNameDisplayText": "FORFAR ST E, FERGUS"
      },
      {
        "electoralDistricts": [
          {
            "election": null,
            "id": 115,
            "name": "Wellington—Halton Hills"
          }
        ],
        "pollDivisionIds": [
          10142557
        ],
        "postalCode": "N1M1B2",
        "streetName": "WOODHILL",
        "streetDirectionId": null,
        "streetTypeId": "DR",
        "placeName": "FERGUS",
        "streetNameDisplayText": "WOODHILL DR, FERGUS"
      }
    ]
  },
  {
    "postal": "N1M0H9",
    "result": []
  },
  {
    "postal": "N1M8M4",
    "result": []
  },
  {
    "postal": "N1M2M5",
    "result": [
      {
        "electoralDistricts": [
          {
            "election": null,
            "id": 115,
            "name": "Wellington—Halton Hills"
          }
        ],
        "pollDivisionIds": [
          10142557
        ],
        "postalCode": "N1M2M5",
        "streetName": "WOODSIDE",
        "streetDirectionId": null,
        "streetTypeId": "ST",
        "placeName": "FERGUS",
        "streetNameDisplayText": "WOODSIDE ST, FERGUS"
      }
    ]
  },
  {
    "postal": "N1M0T9",
    "result": []
  },
  {
    "postal": "N1M3P1",
    "result": [
      {
        "electoralDistricts": [
          {
            "election": null,
            "id": 115,
            "name": "Wellington—Halton Hills"
          }
        ],
        "pollDivisionIds": [
          10142559
        ],
        "postalCode": "N1M3P1",
        "streetName": "FLANNERY",
        "streetDirectionId": null,
        "streetTypeId": "DR",
        "placeName": "FERGUS",
        "streetNameDisplayText": "FLANNERY DR, FERGUS"
      },
      {
        "electoralDistricts": [
          {
            "election": null,
            "id": 115,
            "name": "Wellington—Halton Hills"
          }
        ],
        "pollDivisionIds": [
          10142559
        ],
        "postalCode": "N1M3P1",
        "streetName": "MILLBURN",
        "streetDirectionId": null,
        "streetTypeId": "BLVD",
        "placeName": "FERGUS",
        "streetNameDisplayText": "MILLBURN BLVD, FERGUS"
      }
    ]
  },
  {
    "postal": "N1M1R6",
    "result": [
      {
        "electoralDistricts": [
          {
            "election": null,
            "id": 115,
            "name": "Wellington—Halton Hills"
          }
        ],
        "pollDivisionIds": [
          10142556
        ],
        "postalCode": "N1M1R6",
        "streetName": "ST ANDREW",
        "streetDirectionId": "E",
        "streetTypeId": "ST",
        "placeName": "FERGUS",
        "streetNameDisplayText": "ST ANDREW ST E, FERGUS"
      }
    ]
  },
  {
    "postal": "N1M9V5",
    "result": []
  },
  {
    "postal": "N1M9T0",
    "result": []
  },
  {
    "postal": "N1M0A9",
    "result": [
      {
        "electoralDistricts": [
          {
            "election": null,
            "id": 115,
            "name": "Wellington—Halton Hills"
          }
        ],
        "pollDivisionIds": [
          10142559
        ],
        "postalCode": "N1M0A9",
        "streetName": "ST DAVID",
        "streetDirectionId": "S",
        "streetTypeId": "ST",
        "placeName": "FERGUS",
        "streetNameDisplayText": "ST DAVID ST S, FERGUS"
      },
      {
        "electoralDistricts": [
          {
            "election": null,
            "id": 115,
            "name": "Wellington—Halton Hills"
          }
        ],
        "pollDivisionIds": [
          10142559
        ],
        "postalCode": "N1M0A9",
        "streetName": "ST. DAVID",
        "streetDirectionId": "S",
        "streetTypeId": "ST",
        "placeName": "FERGUS",
        "streetNameDisplayText": "ST. DAVID ST S, FERGUS"
      }
    ]
  },
  {
    "postal": "N1M1M3",
    "result": [
      {
        "electoralDistricts": [
          {
            "election": null,
            "id": 115,
            "name": "Wellington—Halton Hills"
          }
        ],
        "pollDivisionIds": [
          10142558
        ],
        "postalCode": "N1M1M3",
        "streetName": "ST PATRICK",
        "streetDirectionId": "E",
        "streetTypeId": "ST",
        "placeName": "FERGUS",
        "streetNameDisplayText": "ST PATRICK ST E, FERGUS"
      },
      {
        "electoralDistricts": [
          {
            "election": null,
            "id": 115,
            "name": "Wellington—Halton Hills"
          }
        ],
        "pollDivisionIds": [
          10142558
        ],
        "postalCode": "N1M1M3",
        "streetName": "ST. PATRICK",
        "streetDirectionId": "E",
        "streetTypeId": "ST",
        "placeName": "FERGUS",
        "streetNameDisplayText": "ST. PATRICK ST E, FERGUS"
      }
    ]
  },
  {
    "postal": "N1M1W8",
    "result": [
      {
        "electoralDistricts": [
          {
            "election": null,
            "id": 115,
            "name": "Wellington—Halton Hills"
          }
        ],
        "pollDivisionIds": [
          10142559
        ],
        "postalCode": "N1M1W8",
        "streetName": "FERRIER",
        "streetDirectionId": null,
        "streetTypeId": "ST",
        "placeName": "FERGUS",
        "streetNameDisplayText": "FERRIER ST, FERGUS"
      }
    ]
  },
  {
    "postal": "N1M9J1",
    "result": []
  },
  {
    "postal": "N1M8N5",
    "result": []
  },
  {
    "postal": "N1M5X1",
    "result": []
  },
  {
    "postal": "N1M6S2",
    "result": []
  },
  {
    "postal": "N1M2A2",
    "result": [
      {
        "electoralDistricts": [
          {
            "election": null,
            "id": 115,
            "name": "Wellington—Halton Hills"
          }
        ],
        "pollDivisionIds": [
          10142556
        ],
        "postalCode": "N1M2A2",
        "streetName": "BARKER",
        "streetDirectionId": null,
        "streetTypeId": "ST",
        "placeName": "FERGUS",
        "streetNameDisplayText": "BARKER ST, FERGUS"
      }
    ]
  },
  {
    "postal": "N1M6A6",
    "result": []
  },
  {
    "postal": "N1M0S3",
    "result": []
  },
  {
    "postal": "N1M3E7",
    "result": [
      {
        "electoralDistricts": [
          {
            "election": null,
            "id": 115,
            "name": "Wellington—Halton Hills"
          }
        ],
        "pollDivisionIds": [
          10142557
        ],
        "postalCode": "N1M3E7",
        "streetName": "PARKSIDE",
        "streetDirectionId": "E",
        "streetTypeId": "DR",
        "placeName": "FERGUS",
        "streetNameDisplayText": "PARKSIDE DR E, FERGUS"
      }
    ]
  },
  {
    "postal": "N1M5R7",
    "result": []
  },
  {
    "postal": "N1M3R6",
    "result": [
      {
        "electoralDistricts": [
          {
            "election": null,
            "id": 115,
            "name": "Wellington—Halton Hills"
          }
        ],
        "pollDivisionIds": [
          10142558
        ],
        "postalCode": "N1M3R6",
        "streetName": "QUEEN",
        "streetDirectionId": "E",
        "streetTypeId": "ST",
        "placeName": "FERGUS",
        "streetNameDisplayText": "QUEEN ST E, FERGUS"
      },
      {
        "electoralDistricts": [
          {
            "election": null,
            "id": 115,
            "name": "Wellington—Halton Hills"
          }
        ],
        "pollDivisionIds": [
          10142558
        ],
        "postalCode": "N1M3R6",
        "streetName": "QUEEN",
        "streetDirectionId": "W",
        "streetTypeId": "ST",
        "placeName": "FERGUS",
        "streetNameDisplayText": "QUEEN ST W, FERGUS"
      }
    ]
  },
  {
    "postal": "N1M6K4",
    "result": []
  },
  {
    "postal": "N1M2W5",
    "result": [
      {
        "electoralDistricts": [
          {
            "election": null,
            "id": 115,
            "name": "Wellington—Halton Hills"
          }
        ],
        "pollDivisionIds": [
          10142556
        ],
        "postalCode": "N1M2W5",
        "streetName": "18 WELLINGTON",
        "streetDirectionId": null,
        "streetTypeId": "RD",
        "placeName": "FERGUS",
        "streetNameDisplayText": "18 WELLINGTON RD, FERGUS"
      },
      {
        "electoralDistricts": [
          {
            "election": null,
            "id": 115,
            "name": "Wellington—Halton Hills"
          }
        ],
        "pollDivisionIds": [
          10142556
        ],
        "postalCode": "N1M2W5",
        "streetName": "1ST",
        "streetDirectionId": null,
        "streetTypeId": "AVE",
        "placeName": "FERGUS",
        "streetNameDisplayText": "1ST AVE, FERGUS"
      },
      {
        "electoralDistricts": [
          {
            "election": null,
            "id": 115,
            "name": "Wellington—Halton Hills"
          }
        ],
        "pollDivisionIds": [
          10142556
        ],
        "postalCode": "N1M2W5",
        "streetName": "29 WELLINGTON",
        "streetDirectionId": null,
        "streetTypeId": "RD",
        "placeName": "FERGUS",
        "streetNameDisplayText": "29 WELLINGTON RD, FERGUS"
      },
      {
        "electoralDistricts": [
          {
            "election": null,
            "id": 115,
            "name": "Wellington—Halton Hills"
          }
        ],
        "pollDivisionIds": [
          10142556
        ],
        "postalCode": "N1M2W5",
        "streetName": "2ND",
        "streetDirectionId": null,
        "streetTypeId": "AVE",
        "placeName": "FERGUS",
        "streetNameDisplayText": "2ND AVE, FERGUS"
      },
      {
        "electoralDistricts": [
          {
            "election": null,
            "id": 115,
            "name": "Wellington—Halton Hills"
          }
        ],
        "pollDivisionIds": [
          10142556,
          10142559
        ],
        "postalCode": "N1M2W5",
        "streetName": "4TH",
        "streetDirectionId": null,
        "streetTypeId": "LINE",
        "placeName": "FERGUS",
        "streetNameDisplayText": "4TH LINE, FERGUS"
      },
      {
        "electoralDistricts": [
          {
            "election": null,
            "id": 115,
            "name": "Wellington—Halton Hills"
          }
        ],
        "pollDivisionIds": [
          10142556
        ],
        "postalCode": "N1M2W5",
        "streetName": "5",
        "streetDirectionId": null,
        "streetTypeId": "LINE",
        "placeName": "FERGUS",
        "streetNameDisplayText": "5 LINE, FERGUS"
      },
      {
        "electoralDistricts": [
          {
            "election": null,
            "id": 115,
            "name": "Wellington—Halton Hills"
          }
        ],
        "pollDivisionIds": [
          10142558
        ],
        "postalCode": "N1M2W5",
        "streetName": "5TH LINE MLA 107",
        "streetDirectionId": null,
        "streetTypeId": "LINE",
        "placeName": "FERGUS",
        "streetNameDisplayText": "5TH LINE MLA 107 LINE, FERGUS"
      },
      {
        "electoralDistricts": [
          {
            "election": null,
            "id": 115,
            "name": "Wellington—Halton Hills"
          }
        ],
        "pollDivisionIds": [
          10142558
        ],
        "postalCode": "N1M2W5",
        "streetName": "5TH LINE RR2",
        "streetDirectionId": null,
        "streetTypeId": null,
        "placeName": "FERGUS",
        "streetNameDisplayText": "5TH LINE RR2, FERGUS"
      },
      {
        "electoralDistricts": [
          {
            "election": null,
            "id": 115,
            "name": "Wellington—Halton Hills"
          }
        ],
        "pollDivisionIds": [
          10142556,
          10142558
        ],
        "postalCode": "N1M2W5",
        "streetName": "5TH",
        "streetDirectionId": null,
        "streetTypeId": "LINE",
        "placeName": "FERGUS",
        "streetNameDisplayText": "5TH LINE, FERGUS"
      },
      {
        "electoralDistricts": [
          {
            "election": null,
            "id": 115,
            "name": "Wellington—Halton Hills"
          }
        ],
        "pollDivisionIds": [
          10142556
        ],
        "postalCode": "N1M2W5",
        "streetName": "8TH",
        "streetDirectionId": null,
        "streetTypeId": "ST",
        "placeName": "FERGUS",
        "streetNameDisplayText": "8TH ST, FERGUS"
      },
      {
        "electoralDistricts": [
          {
            "election": null,
            "id": 115,
            "name": "Wellington—Halton Hills"
          }
        ],
        "pollDivisionIds": [
          10142556
        ],
        "postalCode": "N1M2W5",
        "streetName": "BASSWOOD",
        "streetDirectionId": null,
        "streetTypeId": "DR",
        "placeName": "FERGUS",
        "streetNameDisplayText": "BASSWOOD DR, FERGUS"
      },
      {
        "electoralDistricts": [
          {
            "election": null,
            "id": 115,
            "name": "Wellington—Halton Hills"
          }
        ],
        "pollDivisionIds": [
          10142557,
          10142556
        ],
        "postalCode": "N1M2W5",
        "streetName": "BEACH",
        "streetDirectionId": null,
        "streetTypeId": "RD",
        "placeName": "FERGUS",
        "streetNameDisplayText": "BEACH RD, FERGUS"
      },
      {
        "electoralDistricts": [
          {
            "election": null,
            "id": 115,
            "name": "Wellington—Halton Hills"
          }
        ],
        "pollDivisionIds": [
          10142556,
          10142559
        ],
        "postalCode": "N1M2W5",
        "streetName": "BELSYDE",
        "streetDirectionId": "E",
        "streetTypeId": "AVE",
        "placeName": "FERGUS",
        "streetNameDisplayText": "BELSYDE AVE E, FERGUS"
      },
      {
        "electoralDistricts": [
          {
            "election": null,
            "id": 115,
            "name": "Wellington—Halton Hills"
          }
        ],
        "pollDivisionIds": [
          10142556
        ],
        "postalCode": "N1M2W5",
        "streetName": "BIRCH",
        "streetDirectionId": null,
        "streetTypeId": "ST",
        "placeName": "FERGUS",
        "streetNameDisplayText": "BIRCH ST, FERGUS"
      },
      {
        "electoralDistricts": [
          {
            "election": null,
            "id": 115,
            "name": "Wellington—Halton Hills"
          }
        ],
        "pollDivisionIds": [
          10142556
        ],
        "postalCode": "N1M2W5",
        "streetName": "CEDAR",
        "streetDirectionId": null,
        "streetTypeId": "CRES",
        "placeName": "FERGUS",
        "streetNameDisplayText": "CEDAR CRES, FERGUS"
      },
      {
        "electoralDistricts": [
          {
            "election": null,
            "id": 115,
            "name": "Wellington—Halton Hills"
          }
        ],
        "pollDivisionIds": [
          10142557
        ],
        "postalCode": "N1M2W5",
        "streetName": "DICKSON",
        "streetDirectionId": null,
        "streetTypeId": "DR",
        "placeName": "FERGUS",
        "streetNameDisplayText": "DICKSON DR, FERGUS"
      },
      {
        "electoralDistricts": [
          {
            "election": null,
            "id": 115,
            "name": "Wellington—Halton Hills"
          }
        ],
        "pollDivisionIds": [
          10142556
        ],
        "postalCode": "N1M2W5",
        "streetName": "ELM",
        "streetDirectionId": null,
        "streetTypeId": "PL",
        "placeName": "FERGUS",
        "streetNameDisplayText": "ELM PL, FERGUS"
      },
      {
        "electoralDistricts": [
          {
            "election": null,
            "id": 115,
            "name": "Wellington—Halton Hills"
          }
        ],
        "pollDivisionIds": [
          10142556
        ],
        "postalCode": "N1M2W5",
        "streetName": "ERAMOSA-GARAFRAXA",
        "streetDirectionId": null,
        "streetTypeId": "TLINE",
        "placeName": "FERGUS",
        "streetNameDisplayText": "ERAMOSA-GARAFRAXA TLINE, FERGUS"
      },
      {
        "electoralDistricts": [
          {
            "election": null,
            "id": 115,
            "name": "Wellington—Halton Hills"
          }
        ],
        "pollDivisionIds": [
          10142556
        ],
        "postalCode": "N1M2W5",
        "streetName": "FIFTH",
        "streetDirectionId": null,
        "streetTypeId": "LINE",
        "placeName": "FERGUS",
        "streetNameDisplayText": "FIFTH LINE, FERGUS"
      },
      {
        "electoralDistricts": [
          {
            "election": null,
            "id": 115,
            "name": "Wellington—Halton Hills"
          }
        ],
        "pollDivisionIds": [
          10142556
        ],
        "postalCode": "N1M2W5",
        "streetName": "FIRST",
        "streetDirectionId": null,
        "streetTypeId": "AVE",
        "placeName": "FERGUS",
        "streetNameDisplayText": "FIRST AVE, FERGUS"
      },
      {
        "electoralDistricts": [
          {
            "election": null,
            "id": 115,
            "name": "Wellington—Halton Hills"
          }
        ],
        "pollDivisionIds": [
          10142556
        ],
        "postalCode": "N1M2W5",
        "streetName": "FOURTH",
        "streetDirectionId": null,
        "streetTypeId": "LINE",
        "placeName": "FERGUS",
        "streetNameDisplayText": "FOURTH LINE, FERGUS"
      },
      {
        "electoralDistricts": [
          {
            "election": null,
            "id": 115,
            "name": "Wellington—Halton Hills"
          }
        ],
        "pollDivisionIds": [
          10142556
        ],
        "postalCode": "N1M2W5",
        "streetName": "FRIENDLY",
        "streetDirectionId": null,
        "streetTypeId": "BLVD",
        "placeName": "FERGUS",
        "streetNameDisplayText": "FRIENDLY BLVD, FERGUS"
      },
      {
        "electoralDistricts": [
          {
            "election": null,
            "id": 115,
            "name": "Wellington—Halton Hills"
          }
        ],
        "pollDivisionIds": [
          10142556
        ],
        "postalCode": "N1M2W5",
        "streetName": "HAVESUMFUN",
        "streetDirectionId": null,
        "streetTypeId": "RD",
        "placeName": "FERGUS",
        "streetNameDisplayText": "HAVESUMFUN RD, FERGUS"
      },
      {
        "electoralDistricts": [
          {
            "election": null,
            "id": 115,
            "name": "Wellington—Halton Hills"
          }
        ],
        "pollDivisionIds": [
          10142556,
          10142562
        ],
        "postalCode": "N1M2W5",
        "streetName": "JONES BASELINE",
        "streetDirectionId": null,
        "streetTypeId": "RD",
        "placeName": "FERGUS",
        "streetNameDisplayText": "JONES BASELINE RD, FERGUS"
      },
      {
        "electoralDistricts": [
          {
            "election": null,
            "id": 115,
            "name": "Wellington—Halton Hills"
          }
        ],
        "pollDivisionIds": [
          10142559,
          10142556,
          10142562
        ],
        "postalCode": "N1M2W5",
        "streetName": "JONES BASELINE",
        "streetDirectionId": null,
        "streetTypeId": null,
        "placeName": "FERGUS",
        "streetNameDisplayText": "JONES BASELINE, FERGUS"
      },
      {
        "electoralDistricts": [
          {
            "election": null,
            "id": 115,
            "name": "Wellington—Halton Hills"
          }
        ],
        "pollDivisionIds": [
          10142556
        ],
        "postalCode": "N1M2W5",
        "streetName": "LANE",
        "streetDirectionId": null,
        "streetTypeId": "ST",
        "placeName": "FERGUS",
        "streetNameDisplayText": "LANE ST, FERGUS"
      },
      {
        "electoralDistricts": [
          {
            "election": null,
            "id": 115,
            "name": "Wellington—Halton Hills"
          }
        ],
        "pollDivisionIds": [
          10142556
        ],
        "postalCode": "N1M2W5",
        "streetName": "NINTH",
        "streetDirectionId": null,
        "streetTypeId": "ST",
        "placeName": "FERGUS",
        "streetNameDisplayText": "NINTH ST, FERGUS"
      },
      {
        "electoralDistricts": [
          {
            "election": null,
            "id": 115,
            "name": "Wellington—Halton Hills"
          }
        ],
        "pollDivisionIds": [
          10142556
        ],
        "postalCode": "N1M2W5",
        "streetName": "OAK",
        "streetDirectionId": null,
        "streetTypeId": "CRES",
        "placeName": "CENTRE WELLINGTON",
        "streetNameDisplayText": "OAK CRES, CENTRE WELLINGTON"
      },
      {
        "electoralDistricts": [
          {
            "election": null,
            "id": 115,
            "name": "Wellington—Halton Hills"
          }
        ],
        "pollDivisionIds": [
          10142556
        ],
        "postalCode": "N1M2W5",
        "streetName": "OAK",
        "streetDirectionId": null,
        "streetTypeId": "CRES",
        "placeName": "FERGUS",
        "streetNameDisplayText": "OAK CRES, FERGUS"
      },
      {
        "electoralDistricts": [
          {
            "election": null,
            "id": 115,
            "name": "Wellington—Halton Hills"
          }
        ],
        "pollDivisionIds": [
          10142556
        ],
        "postalCode": "N1M2W5",
        "streetName": "PINE",
        "streetDirectionId": null,
        "streetTypeId": "PASS",
        "placeName": "FERGUS",
        "streetNameDisplayText": "PINE PASS, FERGUS"
      },
      {
        "electoralDistricts": [
          {
            "election": null,
            "id": 115,
            "name": "Wellington—Halton Hills"
          }
        ],
        "pollDivisionIds": [
          10142556
        ],
        "postalCode": "N1M2W5",
        "streetName": "POPLAR",
        "streetDirectionId": null,
        "streetTypeId": "PL",
        "placeName": "FERGUS",
        "streetNameDisplayText": "POPLAR PL, FERGUS"
      },
      {
        "electoralDistricts": [
          {
            "election": null,
            "id": 115,
            "name": "Wellington—Halton Hills"
          }
        ],
        "pollDivisionIds": [
          10142562,
          10142556
        ],
        "postalCode": "N1M2W5",
        "streetName": "SCOTLAND",
        "streetDirectionId": null,
        "streetTypeId": "ST",
        "placeName": "FERGUS",
        "streetNameDisplayText": "SCOTLAND ST, FERGUS"
      },
      {
        "electoralDistricts": [
          {
            "election": null,
            "id": 115,
            "name": "Wellington—Halton Hills"
          }
        ],
        "pollDivisionIds": [
          10142556
        ],
        "postalCode": "N1M2W5",
        "streetName": "SECOND",
        "streetDirectionId": null,
        "streetTypeId": "AVE",
        "placeName": "FERGUS",
        "streetNameDisplayText": "SECOND AVE, FERGUS"
      },
      {
        "electoralDistricts": [
          {
            "election": null,
            "id": 115,
            "name": "Wellington—Halton Hills"
          }
        ],
        "pollDivisionIds": [
          10142562,
          10142556
        ],
        "postalCode": "N1M2W5",
        "streetName": "SECOND",
        "streetDirectionId": null,
        "streetTypeId": "LINE",
        "placeName": "FERGUS",
        "streetNameDisplayText": "SECOND LINE, FERGUS"
      },
      {
        "electoralDistricts": [
          {
            "election": null,
            "id": 115,
            "name": "Wellington—Halton Hills"
          }
        ],
        "pollDivisionIds": [
          10142556
        ],
        "postalCode": "N1M2W5",
        "streetName": "SPRUCE",
        "streetDirectionId": null,
        "streetTypeId": "ST",
        "placeName": "FERGUS",
        "streetNameDisplayText": "SPRUCE ST, FERGUS"
      },
      {
        "electoralDistricts": [
          {
            "election": null,
            "id": 115,
            "name": "Wellington—Halton Hills"
          }
        ],
        "pollDivisionIds": [
          10142556
        ],
        "postalCode": "N1M2W5",
        "streetName": "SUMAC",
        "streetDirectionId": null,
        "streetTypeId": "ST",
        "placeName": "FERGUS",
        "streetNameDisplayText": "SUMAC ST, FERGUS"
      },
      {
        "electoralDistricts": [
          {
            "election": null,
            "id": 115,
            "name": "Wellington—Halton Hills"
          }
        ],
        "pollDivisionIds": [
          10142556
        ],
        "postalCode": "N1M2W5",
        "streetName": "TEAK",
        "streetDirectionId": null,
        "streetTypeId": "TRAIL",
        "placeName": "FERGUS",
        "streetNameDisplayText": "TEAK TRAIL, FERGUS"
      },
      {
        "electoralDistricts": [
          {
            "election": null,
            "id": 115,
            "name": "Wellington—Halton Hills"
          }
        ],
        "pollDivisionIds": [
          10142556
        ],
        "postalCode": "N1M2W5",
        "streetName": "THIRD",
        "streetDirectionId": null,
        "streetTypeId": "LINE",
        "placeName": "FERGUS",
        "streetNameDisplayText": "THIRD LINE, FERGUS"
      },
      {
        "electoralDistricts": [
          {
            "election": null,
            "id": 115,
            "name": "Wellington—Halton Hills"
          }
        ],
        "pollDivisionIds": [
          10142556
        ],
        "postalCode": "N1M2W5",
        "streetName": "WELLINGTON 18",
        "streetDirectionId": null,
        "streetTypeId": "RD",
        "placeName": "FERGUS",
        "streetNameDisplayText": "WELLINGTON 18 RD, FERGUS"
      },
      {
        "electoralDistricts": [
          {
            "election": null,
            "id": 115,
            "name": "Wellington—Halton Hills"
          }
        ],
        "pollDivisionIds": [
          10142556
        ],
        "postalCode": "N1M2W5",
        "streetName": "WELLINGTON 29",
        "streetDirectionId": null,
        "streetTypeId": "RD",
        "placeName": "FERGUS",
        "streetNameDisplayText": "WELLINGTON 29 RD, FERGUS"
      },
      {
        "electoralDistricts": [
          {
            "election": null,
            "id": 115,
            "name": "Wellington—Halton Hills"
          }
        ],
        "pollDivisionIds": [
          10142556
        ],
        "postalCode": "N1M2W5",
        "streetName": "WELLINGTON RD 18",
        "streetDirectionId": null,
        "streetTypeId": null,
        "placeName": "FERGUS",
        "streetNameDisplayText": "WELLINGTON RD 18, FERGUS"
      },
      {
        "electoralDistricts": [
          {
            "election": null,
            "id": 115,
            "name": "Wellington—Halton Hills"
          }
        ],
        "pollDivisionIds": [
          10142556
        ],
        "postalCode": "N1M2W5",
        "streetName": "WELLINGTON RD 29",
        "streetDirectionId": null,
        "streetTypeId": "RD",
        "placeName": "FERGUS",
        "streetNameDisplayText": "WELLINGTON RD 29 RD, FERGUS"
      },
      {
        "electoralDistricts": [
          {
            "election": null,
            "id": 115,
            "name": "Wellington—Halton Hills"
          }
        ],
        "pollDivisionIds": [
          10142556
        ],
        "postalCode": "N1M2W5",
        "streetName": "WELLINGTON RD 29",
        "streetDirectionId": null,
        "streetTypeId": null,
        "placeName": "FERGUS",
        "streetNameDisplayText": "WELLINGTON RD 29, FERGUS"
      },
      {
        "electoralDistricts": [
          {
            "election": null,
            "id": 115,
            "name": "Wellington—Halton Hills"
          }
        ],
        "pollDivisionIds": [
          10142556
        ],
        "postalCode": "N1M2W5",
        "streetName": "WILLOW",
        "streetDirectionId": null,
        "streetTypeId": "WAY",
        "placeName": "FERGUS",
        "streetNameDisplayText": "WILLOW WAY, FERGUS"
      }
    ]
  },
  {
    "postal": "N1M8W4",
    "result": []
  },
  {
    "postal": "N1M9C2",
    "result": []
  },
  {
    "postal": "N1M2C0",
    "result": []
  },
  {
    "postal": "N1M0E1",
    "result": []
  },
  {
    "postal": "N1M1K9",
    "result": [
      {
        "electoralDistricts": [
          {
            "election": null,
            "id": 115,
            "name": "Wellington—Halton Hills"
          }
        ],
        "pollDivisionIds": [
          10142557
        ],
        "postalCode": "N1M1K9",
        "streetName": "ST GEORGE",
        "streetDirectionId": "E",
        "streetTypeId": "ST",
        "placeName": "FERGUS",
        "streetNameDisplayText": "ST GEORGE ST E, FERGUS"
      },
      {
        "electoralDistricts": [
          {
            "election": null,
            "id": 115,
            "name": "Wellington—Halton Hills"
          }
        ],
        "pollDivisionIds": [
          10142557
        ],
        "postalCode": "N1M1K9",
        "streetName": "ST GEORGE",
        "streetDirectionId": "W",
        "streetTypeId": "ST",
        "placeName": "FERGUS",
        "streetNameDisplayText": "ST GEORGE ST W, FERGUS"
      },
      {
        "electoralDistricts": [
          {
            "election": null,
            "id": 115,
            "name": "Wellington—Halton Hills"
          }
        ],
        "pollDivisionIds": [
          10142557
        ],
        "postalCode": "N1M1K9",
        "streetName": "ST. GEORGE",
        "streetDirectionId": "E",
        "streetTypeId": "ST",
        "placeName": "FERGUS",
        "streetNameDisplayText": "ST. GEORGE ST E, FERGUS"
      }
    ]
  },
  {
    "postal": "N1M1G7",
    "result": [
      {
        "electoralDistricts": [
          {
            "election": null,
            "id": 115,
            "name": "Wellington—Halton Hills"
          }
        ],
        "pollDivisionIds": [
          10142557
        ],
        "postalCode": "N1M1G7",
        "streetName": "VICTORIA",
        "streetDirectionId": null,
        "streetTypeId": "TERR",
        "placeName": "FERGUS",
        "streetNameDisplayText": "VICTORIA TERR, FERGUS"
      }
    ]
  },
  {
    "postal": "N1M4E9",
    "result": []
  },
  {
    "postal": "N1M9P0",
    "result": []
  },
  {
    "postal": "N1M5H3",
    "result": []
  },
  {
    "postal": "N1M9X6",
    "result": []
  },
  {
    "postal": "N1M5N7",
    "result": []
  },
  {
    "postal": "N1M5A6",
    "result": []
  },
  {
    "postal": "N1M4M0",
    "result": []
  },
  {
    "postal": "N1M3V6",
    "result": [
      {
        "electoralDistricts": [
          {
            "election": null,
            "id": 115,
            "name": "Wellington—Halton Hills"
          }
        ],
        "pollDivisionIds": [
          10142558
        ],
        "postalCode": "N1M3V6",
        "streetName": "ST ANDREW",
        "streetDirectionId": "E",
        "streetTypeId": "ST",
        "placeName": "FERGUS",
        "streetNameDisplayText": "ST ANDREW ST E, FERGUS"
      },
      {
        "electoralDistricts": [
          {
            "election": null,
            "id": 115,
            "name": "Wellington—Halton Hills"
          }
        ],
        "pollDivisionIds": [
          10142558
        ],
        "postalCode": "N1M3V6",
        "streetName": "ST. ANDREW",
        "streetDirectionId": "E",
        "streetTypeId": "ST",
        "placeName": "FERGUS",
        "streetNameDisplayText": "ST. ANDREW ST E, FERGUS"
      }
    ]
  },
  {
    "postal": "N1M1L7",
    "result": [
      {
        "electoralDistricts": [
          {
            "election": null,
            "id": 115,
            "name": "Wellington—Halton Hills"
          }
        ],
        "pollDivisionIds": [
          10142558
        ],
        "postalCode": "N1M1L7",
        "streetName": "ST PATRICK",
        "streetDirectionId": "W",
        "streetTypeId": "ST",
        "placeName": "FERGUS",
        "streetNameDisplayText": "ST PATRICK ST W, FERGUS"
      }
    ]
  },
  {
    "postal": "N1M2P9",
    "result": [
      {
        "electoralDistricts": [
          {
            "election": null,
            "id": 115,
            "name": "Wellington—Halton Hills"
          }
        ],
        "pollDivisionIds": [
          10142559
        ],
        "postalCode": "N1M2P9",
        "streetName": "TOWER",
        "streetDirectionId": "S",
        "streetTypeId": "ST",
        "placeName": "FERGUS",
        "streetNameDisplayText": "TOWER ST S, FERGUS"
      }
    ]
  },
  {
    "postal": "N1M5T4",
    "result": []
  },
  {
    "postal": "N1M5Z1",
    "result": []
  },
  {
    "postal": "N1M2X0",
    "result": []
  },
  {
    "postal": "N1M6Z2",
    "result": []
  },
  {
    "postal": "N1M0E0",
    "result": []
  },
  {
    "postal": "N1M3Z5",
    "result": []
  },
  {
    "postal": "N1M8H3",
    "result": []
  },
  {
    "postal": "N1M7S6",
    "result": []
  },
  {
    "postal": "N1M4C1",
    "result": []
  },
  {
    "postal": "N1M3K2",
    "result": [
      {
        "electoralDistricts": [
          {
            "election": null,
            "id": 115,
            "name": "Wellington—Halton Hills"
          }
        ],
        "pollDivisionIds": [
          10142559
        ],
        "postalCode": "N1M3K2",
        "streetName": "HARVEY",
        "streetDirectionId": null,
        "streetTypeId": "ST",
        "placeName": "FERGUS",
        "streetNameDisplayText": "HARVEY ST, FERGUS"
      }
    ]
  },
  {
    "postal": "N1M1Y5",
    "result": [
      {
        "electoralDistricts": [
          {
            "election": null,
            "id": 115,
            "name": "Wellington—Halton Hills"
          }
        ],
        "pollDivisionIds": [
          10142557
        ],
        "postalCode": "N1M1Y5",
        "streetName": "COLBORNE",
        "streetDirectionId": null,
        "streetTypeId": "ST",
        "placeName": "FERGUS",
        "streetNameDisplayText": "COLBORNE ST, FERGUS"
      },
      {
        "electoralDistricts": [
          {
            "election": null,
            "id": 115,
            "name": "Wellington—Halton Hills"
          }
        ],
        "pollDivisionIds": [
          10142559
        ],
        "postalCode": "N1M1Y5",
        "streetName": "WELLINGTON",
        "streetDirectionId": null,
        "streetTypeId": "ST",
        "placeName": "FERGUS",
        "streetNameDisplayText": "WELLINGTON ST, FERGUS"
      }
    ]
  },
  {
    "postal": "N1M6P6",
    "result": []
  },
  {
    "postal": "N1M3N9",
    "result": [
      {
        "electoralDistricts": [
          {
            "election": null,
            "id": 115,
            "name": "Wellington—Halton Hills"
          }
        ],
        "pollDivisionIds": [
          10142559
        ],
        "postalCode": "N1M3N9",
        "streetName": "HIGHLAND",
        "streetDirectionId": null,
        "streetTypeId": "RD",
        "placeName": "FERGUS",
        "streetNameDisplayText": "HIGHLAND RD, FERGUS"
      }
    ]
  },
  {
    "postal": "N1M3W2",
    "result": [
      {
        "electoralDistricts": [
          {
            "election": null,
            "id": 115,
            "name": "Wellington—Halton Hills"
          }
        ],
        "pollDivisionIds": [
          10142557
        ],
        "postalCode": "N1M3W2",
        "streetName": "GIBBONS",
        "streetDirectionId": null,
        "streetTypeId": "DR",
        "placeName": "FERGUS",
        "streetNameDisplayText": "GIBBONS DR, FERGUS"
      },
      {
        "electoralDistricts": [
          {
            "election": null,
            "id": 115,
            "name": "Wellington—Halton Hills"
          }
        ],
        "pollDivisionIds": [
          10142557
        ],
        "postalCode": "N1M3W2",
        "streetName": "GZOWSKI",
        "streetDirectionId": null,
        "streetTypeId": "ST",
        "placeName": "FERGUS",
        "streetNameDisplayText": "GZOWSKI ST, FERGUS"
      }
    ]
  },
  {
    "postal": "N1M6H8",
    "result": []
  },
  {
    "postal": "N1M9T3",
    "result": []
  },
  {
    "postal": "N1M5L9",
    "result": []
  },
  {
    "postal": "N1M7X7",
    "result": []
  },
  {
    "postal": "N1M3J5",
    "result": [
      {
        "electoralDistricts": [
          {
            "election": null,
            "id": 115,
            "name": "Wellington—Halton Hills"
          }
        ],
        "pollDivisionIds": [
          10142556
        ],
        "postalCode": "N1M3J5",
        "streetName": "ST GEORGE",
        "streetDirectionId": "E",
        "streetTypeId": "ST",
        "placeName": "FERGUS",
        "streetNameDisplayText": "ST GEORGE ST E, FERGUS"
      },
      {
        "electoralDistricts": [
          {
            "election": null,
            "id": 115,
            "name": "Wellington—Halton Hills"
          }
        ],
        "pollDivisionIds": [
          10142556
        ],
        "postalCode": "N1M3J5",
        "streetName": "ST. GEORGE",
        "streetDirectionId": "E",
        "streetTypeId": "ST",
        "placeName": "FERGUS",
        "streetNameDisplayText": "ST. GEORGE ST E, FERGUS"
      }
    ]
  },
  {
    "postal": "N1M4J5",
    "result": []
  },
  {
    "postal": "N1M6J2",
    "result": []
  },
  {
    "postal": "N1M5V6",
    "result": []
  },
  {
    "postal": "N1M3N2",
    "result": [
      {
        "electoralDistricts": [
          {
            "election": null,
            "id": 115,
            "name": "Wellington—Halton Hills"
          }
        ],
        "pollDivisionIds": [
          10142557
        ],
        "postalCode": "N1M3N2",
        "streetName": "ELIZABETH",
        "streetDirectionId": null,
        "streetTypeId": "CRES",
        "placeName": "FERGUS",
        "streetNameDisplayText": "ELIZABETH CRES, FERGUS"
      },
      {
        "electoralDistricts": [
          {
            "election": null,
            "id": 115,
            "name": "Wellington—Halton Hills"
          }
        ],
        "pollDivisionIds": [
          10142557
        ],
        "postalCode": "N1M3N2",
        "streetName": "WOODHILL",
        "streetDirectionId": null,
        "streetTypeId": "DR",
        "placeName": "FERGUS",
        "streetNameDisplayText": "WOODHILL DR, FERGUS"
      }
    ]
  },
  {
    "postal": "N1M3B1",
    "result": [
      {
        "electoralDistricts": [
          {
            "election": null,
            "id": 115,
            "name": "Wellington—Halton Hills"
          }
        ],
        "pollDivisionIds": [
          10142558
        ],
        "postalCode": "N1M3B1",
        "streetName": "RAGLAN",
        "streetDirectionId": null,
        "streetTypeId": "ST",
        "placeName": "FERGUS",
        "streetNameDisplayText": "RAGLAN ST, FERGUS"
      }
    ]
  },
  {
    "postal": "N1M8B5",
    "result": []
  },
  {
    "postal": "N1M0K1",
    "result": []
  },
  {
    "postal": "N1M7M7",
    "result": []
  },
  {
    "postal": "N1M2M2",
    "result": [
      {
        "electoralDistricts": [
          {
            "election": null,
            "id": 115,
            "name": "Wellington—Halton Hills"
          }
        ],
        "pollDivisionIds": [
          10142559
        ],
        "postalCode": "N1M2M2",
        "streetName": "ANGUS",
        "streetDirectionId": null,
        "streetTypeId": "ST",
        "placeName": "FERGUS",
        "streetNameDisplayText": "ANGUS ST, FERGUS"
      }
    ]
  },
  {
    "postal": "N1M9N3",
    "result": []
  },
  {
    "postal": "N1M4Y8",
    "result": []
  },
  {
    "postal": "N1M3V7",
    "result": [
      {
        "electoralDistricts": [
          {
            "election": null,
            "id": 115,
            "name": "Wellington—Halton Hills"
          }
        ],
        "pollDivisionIds": [
          10142558
        ],
        "postalCode": "N1M3V7",
        "streetName": "ST ANDREW",
        "streetDirectionId": "E",
        "streetTypeId": "ST",
        "placeName": "FERGUS",
        "streetNameDisplayText": "ST ANDREW ST E, FERGUS"
      }
    ]
  },
  {
    "postal": "N1M8Z1",
    "result": []
  },
  {
    "postal": "N1M7B3",
    "result": []
  },
  {
    "postal": "N1M3A8",
    "result": [
      {
        "electoralDistricts": [
          {
            "election": null,
            "id": 115,
            "name": "Wellington—Halton Hills"
          }
        ],
        "pollDivisionIds": [
          10142558
        ],
        "postalCode": "N1M3A8",
        "streetName": "WELLINGTON RD 18",
        "streetDirectionId": null,
        "streetTypeId": null,
        "placeName": "FERGUS",
        "streetNameDisplayText": "WELLINGTON RD 18, FERGUS"
      }
    ]
  },
  {
    "postal": "N1M7V5",
    "result": []
  },
  {
    "postal": "N1M2T2",
    "result": [
      {
        "electoralDistricts": [
          {
            "election": null,
            "id": 115,
            "name": "Wellington—Halton Hills"
          }
        ],
        "pollDivisionIds": [
          10142558
        ],
        "postalCode": "N1M2T2",
        "streetName": "BREADALBANE",
        "streetDirectionId": null,
        "streetTypeId": "ST",
        "placeName": "FERGUS",
        "streetNameDisplayText": "BREADALBANE ST, FERGUS"
      }
    ]
  },
  {
    "postal": "N1M6L3",
    "result": []
  },
  {
    "postal": "N1M0L2",
    "result": []
  },
  {
    "postal": "N1M5Y8",
    "result": []
  },
  {
    "postal": "N1M0B8",
    "result": [
      {
        "electoralDistricts": [
          {
            "election": null,
            "id": 115,
            "name": "Wellington—Halton Hills"
          }
        ],
        "pollDivisionIds": [
          10142559
        ],
        "postalCode": "N1M0B8",
        "streetName": "ABERDEEN",
        "streetDirectionId": null,
        "streetTypeId": "ST",
        "placeName": "FERGUS",
        "streetNameDisplayText": "ABERDEEN ST, FERGUS"
      },
      {
        "electoralDistricts": [
          {
            "election": null,
            "id": 115,
            "name": "Wellington—Halton Hills"
          }
        ],
        "pollDivisionIds": [
          10142559
        ],
        "postalCode": "N1M0B8",
        "streetName": "RILEY",
        "streetDirectionId": null,
        "streetTypeId": "CRES",
        "placeName": "FERGUS",
        "streetNameDisplayText": "RILEY CRES, FERGUS"
      }
    ]
  },
  {
    "postal": "N1M6R5",
    "result": []
  },
  {
    "postal": "N1M8W6",
    "result": []
  },
  {
    "postal": "N1M8G6",
    "result": []
  },
  {
    "postal": "N1M6X3",
    "result": []
  },
  {
    "postal": "N1M7R7",
    "result": []
  },
  {
    "postal": "N1M4B6",
    "result": []
  },
  {
    "postal": "N1M3P9",
    "result": [
      {
        "electoralDistricts": [
          {
            "election": null,
            "id": 115,
            "name": "Wellington—Halton Hills"
          }
        ],
        "pollDivisionIds": [
          10142559
        ],
        "postalCode": "N1M3P9",
        "streetName": "MCTAVISH",
        "streetDirectionId": null,
        "streetTypeId": "ST",
        "placeName": "FERGUS",
        "streetNameDisplayText": "MCTAVISH ST, FERGUS"
      }
    ]
  },
  {
    "postal": "N1M2T3",
    "result": [
      {
        "electoralDistricts": [
          {
            "election": null,
            "id": 115,
            "name": "Wellington—Halton Hills"
          }
        ],
        "pollDivisionIds": [
          10142558
        ],
        "postalCode": "N1M2T3",
        "streetName": "BREADALBANE",
        "streetDirectionId": null,
        "streetTypeId": "ST",
        "placeName": "FERGUS",
        "streetNameDisplayText": "BREADALBANE ST, FERGUS"
      }
    ]
  },
  {
    "postal": "N1M1M4",
    "result": [
      {
        "electoralDistricts": [
          {
            "election": null,
            "id": 115,
            "name": "Wellington—Halton Hills"
          }
        ],
        "pollDivisionIds": [
          10142558
        ],
        "postalCode": "N1M1M4",
        "streetName": "ST PATRICK",
        "streetDirectionId": "E",
        "streetTypeId": "ST",
        "placeName": "FERGUS",
        "streetNameDisplayText": "ST PATRICK ST E, FERGUS"
      }
    ]
  },
  {
    "postal": "N1M0H1",
    "result": [
      {
        "electoralDistricts": [
          {
            "election": null,
            "id": 115,
            "name": "Wellington—Halton Hills"
          }
        ],
        "pollDivisionIds": [
          10142557
        ],
        "postalCode": "N1M0H1",
        "streetName": "CONLIN",
        "streetDirectionId": null,
        "streetTypeId": "CRT",
        "placeName": "FERGUS",
        "streetNameDisplayText": "CONLIN CRT, FERGUS"
      },
      {
        "electoralDistricts": [
          {
            "election": null,
            "id": 115,
            "name": "Wellington—Halton Hills"
          }
        ],
        "pollDivisionIds": [
          10142557
        ],
        "postalCode": "N1M0H1",
        "streetName": "DASS",
        "streetDirectionId": "E",
        "streetTypeId": "DR",
        "placeName": "FERGUS",
        "streetNameDisplayText": "DASS DR E, FERGUS"
      },
      {
        "electoralDistricts": [
          {
            "election": null,
            "id": 115,
            "name": "Wellington—Halton Hills"
          }
        ],
        "pollDivisionIds": [
          10142557
        ],
        "postalCode": "N1M0H1",
        "streetName": "HARPIN",
        "streetDirectionId": "E",
        "streetTypeId": "WAY",
        "placeName": "FERGUS",
        "streetNameDisplayText": "HARPIN WAY E, FERGUS"
      }
    ]
  },
  {
    "postal": "N1M9W3",
    "result": []
  },
  {
    "postal": "N1M6P1",
    "result": []
  },
  {
    "postal": "N1M7G2",
    "result": []
  },
  {
    "postal": "N1M4J9",
    "result": []
  },
  {
    "postal": "N1M9E4",
    "result": []
  },
  {
    "postal": "N1M8H0",
    "result": []
  },
  {
    "postal": "N1M4M7",
    "result": []
  },
  {
    "postal": "N1M2G9",
    "result": []
  },
  {
    "postal": "N1M8T2",
    "result": []
  },
  {
    "postal": "N1M7G7",
    "result": []
  },
  {
    "postal": "N1M4Z3",
    "result": []
  },
  {
    "postal": "N1M5B3",
    "result": []
  },
  {
    "postal": "N1M1S7",
    "result": [
      {
        "electoralDistricts": [
          {
            "election": null,
            "id": 115,
            "name": "Wellington—Halton Hills"
          }
        ],
        "pollDivisionIds": [
          10142558
        ],
        "postalCode": "N1M1S7",
        "streetName": "QUEEN",
        "streetDirectionId": "W",
        "streetTypeId": "ST",
        "placeName": "FERGUS",
        "streetNameDisplayText": "QUEEN ST W, FERGUS"
      }
    ]
  },
  {
    "postal": "N1M2N7",
    "result": [
      {
        "electoralDistricts": [
          {
            "election": null,
            "id": 115,
            "name": "Wellington—Halton Hills"
          }
        ],
        "pollDivisionIds": [
          10142557
        ],
        "postalCode": "N1M2N7",
        "streetName": "TOWER",
        "streetDirectionId": "N",
        "streetTypeId": "ST",
        "placeName": "FERGUS",
        "streetNameDisplayText": "TOWER ST N, FERGUS"
      }
    ]
  },
  {
    "postal": "N1M0H8",
    "result": []
  },
  {
    "postal": "N1M7Z4",
    "result": []
  },
  {
    "postal": "N1M7B1",
    "result": []
  },
  {
    "postal": "N1M7P8",
    "result": []
  },
  {
    "postal": "N1M7N0",
    "result": []
  },
  {
    "postal": "N1M3Y5",
    "result": []
  },
  {
    "postal": "N1M6K1",
    "result": []
  },
  {
    "postal": "N1M9X5",
    "result": []
  },
  {
    "postal": "N1M7S5",
    "result": []
  },
  {
    "postal": "N1M0A4",
    "result": [
      {
        "electoralDistricts": [
          {
            "election": null,
            "id": 115,
            "name": "Wellington—Halton Hills"
          }
        ],
        "pollDivisionIds": [
          10142557
        ],
        "postalCode": "N1M0A4",
        "streetName": "FINDLAY",
        "streetDirectionId": null,
        "streetTypeId": "WAY",
        "placeName": "FERGUS",
        "streetNameDisplayText": "FINDLAY WAY, FERGUS"
      },
      {
        "electoralDistricts": [
          {
            "election": null,
            "id": 115,
            "name": "Wellington—Halton Hills"
          }
        ],
        "pollDivisionIds": [
          10142558,
          10142559,
          10142557
        ],
        "postalCode": "N1M0A4",
        "streetName": "KAY",
        "streetDirectionId": null,
        "streetTypeId": "CRES",
        "placeName": "FERGUS",
        "streetNameDisplayText": "KAY CRES, FERGUS"
      },
      {
        "electoralDistricts": [
          {
            "election": null,
            "id": 115,
            "name": "Wellington—Halton Hills"
          }
        ],
        "pollDivisionIds": [
          10142557,
          10142558,
          10142559
        ],
        "postalCode": "N1M0A4",
        "streetName": "MIDDLETON",
        "streetDirectionId": null,
        "streetTypeId": "AVE",
        "placeName": "FERGUS",
        "streetNameDisplayText": "MIDDLETON AVE, FERGUS"
      }
    ]
  },
  {
    "postal": "N1M4T5",
    "result": []
  },
  {
    "postal": "N1M5K1",
    "result": []
  },
  {
    "postal": "N1M0Z9",
    "result": []
  },
  {
    "postal": "N1M7T2",
    "result": []
  },
  {
    "postal": "N1M1L5",
    "result": [
      {
        "electoralDistricts": [
          {
            "election": null,
            "id": 115,
            "name": "Wellington—Halton Hills"
          }
        ],
        "pollDivisionIds": [
          10142558
        ],
        "postalCode": "N1M1L5",
        "streetName": "ST PATRICK",
        "streetDirectionId": "W",
        "streetTypeId": "ST",
        "placeName": "FERGUS",
        "streetNameDisplayText": "ST PATRICK ST W, FERGUS"
      }
    ]
  },
  {
    "postal": "N1M3N5",
    "result": [
      {
        "electoralDistricts": [
          {
            "election": null,
            "id": 115,
            "name": "Wellington—Halton Hills"
          }
        ],
        "pollDivisionIds": [
          10142558,
          10142556
        ],
        "postalCode": "N1M3N5",
        "streetName": "DIANNE",
        "streetDirectionId": null,
        "streetTypeId": "CRES",
        "placeName": "FERGUS",
        "streetNameDisplayText": "DIANNE CRES, FERGUS"
      }
    ]
  },
  {
    "postal": "N1M6H4",
    "result": []
  },
  {
    "postal": "N1M5A5",
    "result": []
  },
  {
    "postal": "N1M3R9",
    "result": [
      {
        "electoralDistricts": [
          {
            "election": null,
            "id": 115,
            "name": "Wellington—Halton Hills"
          }
        ],
        "pollDivisionIds": [
          10142559
        ],
        "postalCode": "N1M3R9",
        "streetName": "DARROCH",
        "streetDirectionId": null,
        "streetTypeId": "WAY",
        "placeName": "FERGUS",
        "streetNameDisplayText": "DARROCH WAY, FERGUS"
      },
      {
        "electoralDistricts": [
          {
            "election": null,
            "id": 115,
            "name": "Wellington—Halton Hills"
          }
        ],
        "pollDivisionIds": [
          10142559
        ],
        "postalCode": "N1M3R9",
        "streetName": "SCOTLAND",
        "streetDirectionId": null,
        "streetTypeId": "ST",
        "placeName": "FERGUS",
        "streetNameDisplayText": "SCOTLAND ST, FERGUS"
      }
    ]
  },
  {
    "postal": "N1M7L8",
    "result": []
  },
  {
    "postal": "N1M6T6",
    "result": []
  },
  {
    "postal": "N1M7Y7",
    "result": []
  },
  {
    "postal": "N1M3M8",
    "result": [
      {
        "electoralDistricts": [
          {
            "election": null,
            "id": 115,
            "name": "Wellington—Halton Hills"
          }
        ],
        "pollDivisionIds": [
          10142557
        ],
        "postalCode": "N1M3M8",
        "streetName": "CAMPBELL",
        "streetDirectionId": null,
        "streetTypeId": "AVE",
        "placeName": "FERGUS",
        "streetNameDisplayText": "CAMPBELL AVE, FERGUS"
      },
      {
        "electoralDistricts": [
          {
            "election": null,
            "id": 115,
            "name": "Wellington—Halton Hills"
          }
        ],
        "pollDivisionIds": [
          10142557
        ],
        "postalCode": "N1M3M8",
        "streetName": "ST.DAVID",
        "streetDirectionId": "N",
        "streetTypeId": "ST",
        "placeName": "FERGUS",
        "streetNameDisplayText": "ST.DAVID ST N, FERGUS"
      },
      {
        "electoralDistricts": [
          {
            "election": null,
            "id": 115,
            "name": "Wellington—Halton Hills"
          }
        ],
        "pollDivisionIds": [
          10142557
        ],
        "postalCode": "N1M3M8",
        "streetName": "WOODHILL",
        "streetDirectionId": null,
        "streetTypeId": "DR",
        "placeName": "FERGUS",
        "streetNameDisplayText": "WOODHILL DR, FERGUS"
      }
    ]
  },
  {
    "postal": "N1M2E0",
    "result": []
  },
  {
    "postal": "N1M4B5",
    "result": []
  },
  {
    "postal": "N1M1J3",
    "result": [
      {
        "electoralDistricts": [
          {
            "election": null,
            "id": 115,
            "name": "Wellington—Halton Hills"
          }
        ],
        "pollDivisionIds": [
          10142558
        ],
        "postalCode": "N1M1J3",
        "streetName": "ST GEORGE",
        "streetDirectionId": "W",
        "streetTypeId": "ST",
        "placeName": "FERGUS",
        "streetNameDisplayText": "ST GEORGE ST W, FERGUS"
      },
      {
        "electoralDistricts": [
          {
            "election": null,
            "id": 115,
            "name": "Wellington—Halton Hills"
          }
        ],
        "pollDivisionIds": [
          10142558
        ],
        "postalCode": "N1M1J3",
        "streetName": "ST GEORGE ST.W",
        "streetDirectionId": "W",
        "streetTypeId": "ST",
        "placeName": "FERGUS",
        "streetNameDisplayText": "ST GEORGE ST.W ST W, FERGUS"
      }
    ]
  },
  {
    "postal": "N1M5S6",
    "result": []
  },
  {
    "postal": "N1M8P7",
    "result": []
  },
  {
    "postal": "N1M7S7",
    "result": []
  },
  {
    "postal": "N1M4C2",
    "result": []
  },
  {
    "postal": "N1M5Y0",
    "result": []
  },
  {
    "postal": "N1M2V7",
    "result": [
      {
        "electoralDistricts": [
          {
            "election": null,
            "id": 115,
            "name": "Wellington—Halton Hills"
          }
        ],
        "pollDivisionIds": [
          10142558
        ],
        "postalCode": "N1M2V7",
        "streetName": "JOHNSTON",
        "streetDirectionId": "N",
        "streetTypeId": "ST",
        "placeName": "FERGUS",
        "streetNameDisplayText": "JOHNSTON ST N, FERGUS"
      }
    ]
  },
  {
    "postal": "N1M8P5",
    "result": []
  },
  {
    "postal": "N1M5P5",
    "result": []
  },
  {
    "postal": "N1M5Z0",
    "result": []
  },
  {
    "postal": "N1M9B0",
    "result": []
  },
  {
    "postal": "N1M1L0",
    "result": []
  },
  {
    "postal": "N1M0B5",
    "result": [
      {
        "electoralDistricts": [
          {
            "election": null,
            "id": 115,
            "name": "Wellington—Halton Hills"
          }
        ],
        "pollDivisionIds": [
          10142558
        ],
        "postalCode": "N1M0B5",
        "streetName": "SCOTLAND",
        "streetDirectionId": null,
        "streetTypeId": "ST",
        "placeName": "FERGUS",
        "streetNameDisplayText": "SCOTLAND ST, FERGUS"
      }
    ]
  },
  {
    "postal": "N1M3L2",
    "result": [
      {
        "electoralDistricts": [
          {
            "election": null,
            "id": 115,
            "name": "Wellington—Halton Hills"
          }
        ],
        "pollDivisionIds": [
          10142556
        ],
        "postalCode": "N1M3L2",
        "streetName": "ATCHISON",
        "streetDirectionId": null,
        "streetTypeId": "LANE",
        "placeName": "FERGUS",
        "streetNameDisplayText": "ATCHISON LANE, FERGUS"
      },
      {
        "electoralDistricts": [
          {
            "election": null,
            "id": 115,
            "name": "Wellington—Halton Hills"
          }
        ],
        "pollDivisionIds": [
          10142556
        ],
        "postalCode": "N1M3L2",
        "streetName": "GOW",
        "streetDirectionId": null,
        "streetTypeId": "ST",
        "placeName": "FERGUS",
        "streetNameDisplayText": "GOW ST, FERGUS"
      }
    ]
  },
  {
    "postal": "N1M3B7",
    "result": [
      {
        "electoralDistricts": [
          {
            "election": null,
            "id": 115,
            "name": "Wellington—Halton Hills"
          }
        ],
        "pollDivisionIds": [
          10142558
        ],
        "postalCode": "N1M3B7",
        "streetName": "WELLINGTON RD 18",
        "streetDirectionId": null,
        "streetTypeId": null,
        "placeName": "FERGUS",
        "streetNameDisplayText": "WELLINGTON RD 18, FERGUS"
      }
    ]
  },
  {
    "postal": "N1M8L1",
    "result": []
  },
  {
    "postal": "N1M5M4",
    "result": []
  },
  {
    "postal": "N1M4G9",
    "result": []
  },
  {
    "postal": "N1M0P0",
    "result": []
  },
  {
    "postal": "N1M8G2",
    "result": []
  },
  {
    "postal": "N1M1V9",
    "result": [
      {
        "electoralDistricts": [
          {
            "election": null,
            "id": 115,
            "name": "Wellington—Halton Hills"
          }
        ],
        "pollDivisionIds": [
          10142559
        ],
        "postalCode": "N1M1V9",
        "streetName": "UNION",
        "streetDirectionId": "E",
        "streetTypeId": "ST",
        "placeName": "FERGUS",
        "streetNameDisplayText": "UNION ST E, FERGUS"
      }
    ]
  },
  {
    "postal": "N1M8N8",
    "result": []
  },
  {
    "postal": "N1M6S8",
    "result": []
  },
  {
    "postal": "N1M8H2",
    "result": []
  },
  {
    "postal": "N1M5R8",
    "result": []
  },
  {
    "postal": "N1M5L4",
    "result": []
  },
  {
    "postal": "N1M9E1",
    "result": []
  },
  {
    "postal": "N1M1C4",
    "result": [
      {
        "electoralDistricts": [
          {
            "election": null,
            "id": 115,
            "name": "Wellington—Halton Hills"
          }
        ],
        "pollDivisionIds": [
          10142557
        ],
        "postalCode": "N1M1C4",
        "streetName": "GARAFRAXA",
        "streetDirectionId": "W",
        "streetTypeId": "ST",
        "placeName": "FERGUS",
        "streetNameDisplayText": "GARAFRAXA ST W, FERGUS"
      }
    ]
  },
  {
    "postal": "N1M8W5",
    "result": []
  },
  {
    "postal": "N1M1Y4",
    "result": [
      {
        "electoralDistricts": [
          {
            "election": null,
            "id": 115,
            "name": "Wellington—Halton Hills"
          }
        ],
        "pollDivisionIds": [
          10142559
        ],
        "postalCode": "N1M1Y4",
        "streetName": "WELLINGTON",
        "streetDirectionId": null,
        "streetTypeId": "ST",
        "placeName": "FERGUS",
        "streetNameDisplayText": "WELLINGTON ST, FERGUS"
      }
    ]
  },
  {
    "postal": "N1M1C0",
    "result": []
  },
  {
    "postal": "N1M2J2",
    "result": [
      {
        "electoralDistricts": [
          {
            "election": null,
            "id": 115,
            "name": "Wellington—Halton Hills"
          }
        ],
        "pollDivisionIds": [
          10142557
        ],
        "postalCode": "N1M2J2",
        "streetName": "JAMES",
        "streetDirectionId": null,
        "streetTypeId": "ST",
        "placeName": "FERGUS",
        "streetNameDisplayText": "JAMES ST, FERGUS"
      }
    ]
  },
  {
    "postal": "N1M2J0",
    "result": []
  },
  {
    "postal": "N1M7A3",
    "result": []
  },
  {
    "postal": "N1M8M1",
    "result": []
  },
  {
    "postal": "N1M7T9",
    "result": []
  },
  {
    "postal": "N1M6C0",
    "result": []
  },
  {
    "postal": "N1M7X1",
    "result": []
  },
  {
    "postal": "N1M0G1",
    "result": [
      {
        "electoralDistricts": [
          {
            "election": null,
            "id": 115,
            "name": "Wellington—Halton Hills"
          }
        ],
        "pollDivisionIds": [
          10142557
        ],
        "postalCode": "N1M0G1",
        "streetName": "GORDON",
        "streetDirectionId": null,
        "streetTypeId": "ST",
        "placeName": "FERGUS",
        "streetNameDisplayText": "GORDON ST, FERGUS"
      }
    ]
  },
  {
    "postal": "N1M4X2",
    "result": []
  },
  {
    "postal": "N1M0N6",
    "result": []
  },
  {
    "postal": "N1M8E3",
    "result": []
  },
  {
    "postal": "N1M5S8",
    "result": []
  },
  {
    "postal": "N1M0R0",
    "result": []
  },
  {
    "postal": "N1M6J6",
    "result": []
  },
  {
    "postal": "N1M4B4",
    "result": []
  },
  {
    "postal": "N1M7E3",
    "result": []
  },
  {
    "postal": "N1M3N6",
    "result": [
      {
        "electoralDistricts": [
          {
            "election": null,
            "id": 115,
            "name": "Wellington—Halton Hills"
          }
        ],
        "pollDivisionIds": [
          10142556
        ],
        "postalCode": "N1M3N6",
        "streetName": "ST GEORGE",
        "streetDirectionId": "E",
        "streetTypeId": "ST",
        "placeName": "FERGUS",
        "streetNameDisplayText": "ST GEORGE ST E, FERGUS"
      },
      {
        "electoralDistricts": [
          {
            "election": null,
            "id": 115,
            "name": "Wellington—Halton Hills"
          }
        ],
        "pollDivisionIds": [
          10142556
        ],
        "postalCode": "N1M3N6",
        "streetName": "ST. GEORGE",
        "streetDirectionId": "E",
        "streetTypeId": "ST",
        "placeName": "FERGUS",
        "streetNameDisplayText": "ST. GEORGE ST E, FERGUS"
      },
      {
        "electoralDistricts": [
          {
            "election": null,
            "id": 115,
            "name": "Wellington—Halton Hills"
          }
        ],
        "pollDivisionIds": [
          10142556
        ],
        "postalCode": "N1M3N6",
        "streetName": "ST.GEORGE",
        "streetDirectionId": "E",
        "streetTypeId": "ST",
        "placeName": "FERGUS",
        "streetNameDisplayText": "ST.GEORGE ST E, FERGUS"
      }
    ]
  },
  {
    "postal": "N1M3X6",
    "result": []
  },
  {
    "postal": "N1M8L0",
    "result": []
  },
  {
    "postal": "N1M8N1",
    "result": []
  },
  {
    "postal": "N1M4J0",
    "result": []
  },
  {
    "postal": "N1M0X7",
    "result": []
  },
  {
    "postal": "N1M6S4",
    "result": []
  },
  {
    "postal": "N1M0Z0",
    "result": []
  },
  {
    "postal": "N1M9X8",
    "result": []
  },
  {
    "postal": "N1M3H3",
    "result": [
      {
        "electoralDistricts": [
          {
            "election": null,
            "id": 115,
            "name": "Wellington—Halton Hills"
          }
        ],
        "pollDivisionIds": [
          10142559
        ],
        "postalCode": "N1M3H3",
        "streetName": "HIGHLAND",
        "streetDirectionId": null,
        "streetTypeId": "RD",
        "placeName": "FERGUS",
        "streetNameDisplayText": "HIGHLAND RD, FERGUS"
      }
    ]
  },
  {
    "postal": "N1M7S2",
    "result": []
  },
  {
    "postal": "N1M3T3",
    "result": [
      {
        "electoralDistricts": [
          {
            "election": null,
            "id": 115,
            "name": "Wellington—Halton Hills"
          }
        ],
        "pollDivisionIds": [
          10142557
        ],
        "postalCode": "N1M3T3",
        "streetName": "PEGLAR",
        "streetDirectionId": null,
        "streetTypeId": "CRES",
        "placeName": "FERGUS",
        "streetNameDisplayText": "PEGLAR CRES, FERGUS"
      }
    ]
  },
  {
    "postal": "N1M9P3",
    "result": []
  },
  {
    "postal": "N1M4H8",
    "result": []
  },
  {
    "postal": "N1M6R1",
    "result": []
  },
  {
    "postal": "N1M1S0",
    "result": []
  },
  {
    "postal": "N1M3W8",
    "result": []
  },
  {
    "postal": "N1M4S3",
    "result": []
  },
  {
    "postal": "N1M1B6",
    "result": [
      {
        "electoralDistricts": [
          {
            "election": null,
            "id": 115,
            "name": "Wellington—Halton Hills"
          }
        ],
        "pollDivisionIds": [
          10142557
        ],
        "postalCode": "N1M1B6",
        "streetName": "FORFAR",
        "streetDirectionId": "E",
        "streetTypeId": "ST",
        "placeName": "FERGUS",
        "streetNameDisplayText": "FORFAR ST E, FERGUS"
      }
    ]
  },
  {
    "postal": "N1M8R3",
    "result": []
  },
  {
    "postal": "N1M4V9",
    "result": []
  },
  {
    "postal": "N1M9W4",
    "result": []
  },
  {
    "postal": "N1M3T4",
    "result": [
      {
        "electoralDistricts": [
          {
            "election": null,
            "id": 115,
            "name": "Wellington—Halton Hills"
          }
        ],
        "pollDivisionIds": [
          10142557
        ],
        "postalCode": "N1M3T4",
        "streetName": "GIBBONS",
        "streetDirectionId": null,
        "streetTypeId": "DR",
        "placeName": "FERGUS",
        "streetNameDisplayText": "GIBBONS DR, FERGUS"
      },
      {
        "electoralDistricts": [
          {
            "election": null,
            "id": 115,
            "name": "Wellington—Halton Hills"
          }
        ],
        "pollDivisionIds": [
          10142557
        ],
        "postalCode": "N1M3T4",
        "streetName": "PEGLAR",
        "streetDirectionId": null,
        "streetTypeId": "CRES",
        "placeName": "FERGUS",
        "streetNameDisplayText": "PEGLAR CRES, FERGUS"
      }
    ]
  },
  {
    "postal": "N1M5C7",
    "result": []
  },
  {
    "postal": "N1M3Y1",
    "result": []
  },
  {
    "postal": "N1M5V0",
    "result": []
  },
  {
    "postal": "N1M8G8",
    "result": []
  },
  {
    "postal": "N1M8B1",
    "result": []
  },
  {
    "postal": "N1M4P5",
    "result": []
  },
  {
    "postal": "N1M7B2",
    "result": []
  },
  {
    "postal": "N1M0R2",
    "result": []
  },
  {
    "postal": "N1M4M4",
    "result": []
  },
  {
    "postal": "N1M7M4",
    "result": []
  },
  {
    "postal": "N1M9S7",
    "result": []
  },
  {
    "postal": "N1M5Z7",
    "result": []
  },
  {
    "postal": "N1M7J7",
    "result": []
  },
  {
    "postal": "N1M8R8",
    "result": []
  },
  {
    "postal": "N1M9X1",
    "result": []
  },
  {
    "postal": "N1M5M9",
    "result": []
  },
  {
    "postal": "N1M9B4",
    "result": []
  },
  {
    "postal": "N1M0L9",
    "result": []
  },
  {
    "postal": "N1M9G4",
    "result": []
  },
  {
    "postal": "N1M1J4",
    "result": [
      {
        "electoralDistricts": [
          {
            "election": null,
            "id": 115,
            "name": "Wellington—Halton Hills"
          }
        ],
        "pollDivisionIds": [
          10142557
        ],
        "postalCode": "N1M1J4",
        "streetName": "ST GEORGE",
        "streetDirectionId": "W",
        "streetTypeId": "ST",
        "placeName": "FERGUS",
        "streetNameDisplayText": "ST GEORGE ST W, FERGUS"
      }
    ]
  },
  {
    "postal": "N1M0W6",
    "result": []
  }
]
