[
  {
    "postal": "K2S9J6",
    "result": []
  },
  {
    "postal": "K2S9Z5",
    "result": []
  },
  {
    "postal": "K2S7H8",
    "result": []
  },
  {
    "postal": "K2S0P6",
    "result": []
  },
  {
    "postal": "K2S0S7",
    "result": [
      {
        "electoralDistricts": [
          {
            "election": null,
            "id": 17,
            "name": "Carleton"
          }
        ],
        "pollDivisionIds": [
          10137485,
          10137480
        ],
        "postalCode": "K2S0S7",
        "streetName": "ADAMSON",
        "streetDirectionId": null,
        "streetTypeId": "CRES",
        "placeName": "STITTSVILLE",
        "streetNameDisplayText": "ADAMSON CRES, STITTSVILLE"
      }
    ]
  },
  {
    "postal": "K2S8B9",
    "result": []
  },
  {
    "postal": "K2S2A6",
    "result": [
      {
        "electoralDistricts": [
          {
            "election": null,
            "id": 17,
            "name": "Carleton"
          }
        ],
        "pollDivisionIds": [
          10137485
        ],
        "postalCode": "K2S2A6",
        "streetName": "ADAMSON",
        "streetDirectionId": null,
        "streetTypeId": "CRES",
        "placeName": "STITTSVILLE",
        "streetNameDisplayText": "ADAMSON CRES, STITTSVILLE"
      },
      {
        "electoralDistricts": [
          {
            "election": null,
            "id": 17,
            "name": "Carleton"
          }
        ],
        "pollDivisionIds": [
          10137485
        ],
        "postalCode": "K2S2A6",
        "streetName": "BIRCHLAND",
        "streetDirectionId": null,
        "streetTypeId": "CRES",
        "placeName": "STITTSVILLE",
        "streetNameDisplayText": "BIRCHLAND CRES, STITTSVILLE"
      },
      {
        "electoralDistricts": [
          {
            "election": null,
            "id": 17,
            "name": "Carleton"
          }
        ],
        "pollDivisionIds": [
          10137485
        ],
        "postalCode": "K2S2A6",
        "streetName": "FRANKLIN CATHCART",
        "streetDirectionId": null,
        "streetTypeId": "CRES",
        "placeName": "STITTSVILLE",
        "streetNameDisplayText": "FRANKLIN CATHCART CRES, STITTSVILLE"
      },
      {
        "electoralDistricts": [
          {
            "election": null,
            "id": 78,
            "name": "Ottawa Centre"
          }
        ],
        "pollDivisionIds": [
          10140552
        ],
        "postalCode": "K2S2A6",
        "streetName": "SNOWBERRY",
        "streetDirectionId": null,
        "streetTypeId": "WAY",
        "placeName": "OTTAWA",
        "streetNameDisplayText": "SNOWBERRY WAY, OTTAWA"
      },
      {
        "electoralDistricts": [
          {
            "election": null,
            "id": 17,
            "name": "Carleton"
          }
        ],
        "pollDivisionIds": [
          10137485
        ],
        "postalCode": "K2S2A6",
        "streetName": "SNOWBERRY",
        "streetDirectionId": null,
        "streetTypeId": "WAY",
        "placeName": "STITTSVILLE",
        "streetNameDisplayText": "SNOWBERRY WAY, STITTSVILLE"
      }
    ]
  },
  {
    "postal": "K2S7V2",
    "result": []
  },
  {
    "postal": "K2S9P4",
    "result": []
  },
  {
    "postal": "K2S6G0",
    "result": []
  },
  {
    "postal": "K2S2K0",
    "result": []
  },
  {
    "postal": "K2S7N6",
    "result": []
  },
  {
    "postal": "K2S5R3",
    "result": []
  },
  {
    "postal": "K2S7K0",
    "result": []
  },
  {
    "postal": "K2S3R2",
    "result": []
  },
  {
    "postal": "K2S0J1",
    "result": [
      {
        "electoralDistricts": [
          {
            "election": null,
            "id": 43,
            "name": "Kanata—Carleton"
          }
        ],
        "pollDivisionIds": [
          10138964
        ],
        "postalCode": "K2S0J1",
        "streetName": "BRIGITTA",
        "streetDirectionId": null,
        "streetTypeId": "ST",
        "placeName": "KANATA",
        "streetNameDisplayText": "BRIGITTA ST, KANATA"
      },
      {
        "electoralDistricts": [
          {
            "election": null,
            "id": 43,
            "name": "Kanata—Carleton"
          }
        ],
        "pollDivisionIds": [
          10138964
        ],
        "postalCode": "K2S0J1",
        "streetName": "OPUS",
        "streetDirectionId": null,
        "streetTypeId": "ST",
        "placeName": "KANATA",
        "streetNameDisplayText": "OPUS ST, KANATA"
      }
    ]
  },
  {
    "postal": "K2S0B0",
    "result": []
  },
  {
    "postal": "K2S5Z2",
    "result": []
  },
  {
    "postal": "K2S7P3",
    "result": []
  },
  {
    "postal": "K2S2K3",
    "result": []
  },
  {
    "postal": "K2S7Y6",
    "result": []
  },
  {
    "postal": "K2S1L9",
    "result": [
      {
        "electoralDistricts": [
          {
            "election": null,
            "id": 17,
            "name": "Carleton"
          }
        ],
        "pollDivisionIds": [
          10137481
        ],
        "postalCode": "K2S1L9",
        "streetName": "KATHLEEN",
        "streetDirectionId": null,
        "streetTypeId": "CRES",
        "placeName": "STITTSVILLE",
        "streetNameDisplayText": "KATHLEEN CRES, STITTSVILLE"
      },
      {
        "electoralDistricts": [
          {
            "election": null,
            "id": 17,
            "name": "Carleton"
          }
        ],
        "pollDivisionIds": [
          10137481
        ],
        "postalCode": "K2S1L9",
        "streetName": "RANDALL JAMES",
        "streetDirectionId": null,
        "streetTypeId": "DR",
        "placeName": "STITTSVILLE",
        "streetNameDisplayText": "RANDALL JAMES DR, STITTSVILLE"
      }
    ]
  },
  {
    "postal": "K2S8T0",
    "result": []
  },
  {
    "postal": "K2S3K8",
    "result": []
  },
  {
    "postal": "K2S5W9",
    "result": []
  },
  {
    "postal": "K2S6T9",
    "result": []
  },
  {
    "postal": "K2S4H1",
    "result": []
  },
  {
    "postal": "K2S7A2",
    "result": []
  },
  {
    "postal": "K2S5G0",
    "result": []
  },
  {
    "postal": "K2S8V5",
    "result": []
  },
  {
    "postal": "K2S2Y8",
    "result": []
  },
  {
    "postal": "K2S2B6",
    "result": [
      {
        "electoralDistricts": [
          {
            "election": null,
            "id": 17,
            "name": "Carleton"
          }
        ],
        "pollDivisionIds": [
          10137486
        ],
        "postalCode": "K2S2B6",
        "streetName": "FRIENDLY",
        "streetDirectionId": null,
        "streetTypeId": "CRES",
        "placeName": "STITTSVILLE",
        "streetNameDisplayText": "FRIENDLY CRES, STITTSVILLE"
      }
    ]
  },
  {
    "postal": "K2S4W8",
    "result": []
  },
  {
    "postal": "K2S8H7",
    "result": []
  },
  {
    "postal": "K2S5P1",
    "result": []
  },
  {
    "postal": "K2S2B8",
    "result": [
      {
        "electoralDistricts": [
          {
            "election": null,
            "id": 17,
            "name": "Carleton"
          }
        ],
        "pollDivisionIds": [
          10137483
        ],
        "postalCode": "K2S2B8",
        "streetName": "SMOKETREE",
        "streetDirectionId": null,
        "streetTypeId": "CRES",
        "placeName": "STITTSVILLE",
        "streetNameDisplayText": "SMOKETREE CRES, STITTSVILLE"
      }
    ]
  },
  {
    "postal": "K2S0P2",
    "result": [
      {
        "electoralDistricts": [
          {
            "election": null,
            "id": 17,
            "name": "Carleton"
          }
        ],
        "pollDivisionIds": [
          10137480
        ],
        "postalCode": "K2S0P2",
        "streetName": "MESSOR",
        "streetDirectionId": null,
        "streetTypeId": "CRES",
        "placeName": "STITTSVILLE",
        "streetNameDisplayText": "MESSOR CRES, STITTSVILLE"
      }
    ]
  },
  {
    "postal": "K2S9M1",
    "result": []
  },
  {
    "postal": "K2S3G0",
    "result": []
  },
  {
    "postal": "K2S9Z2",
    "result": []
  },
  {
    "postal": "K2S2A0",
    "result": []
  },
  {
    "postal": "K2S6Y0",
    "result": []
  },
  {
    "postal": "K2S2Z8",
    "result": []
  },
  {
    "postal": "K2S7Y3",
    "result": []
  },
  {
    "postal": "K2S6Z5",
    "result": []
  },
  {
    "postal": "K2S6E0",
    "result": []
  },
  {
    "postal": "K2S9B7",
    "result": []
  },
  {
    "postal": "K2S9S5",
    "result": []
  },
  {
    "postal": "K2S3X3",
    "result": []
  },
  {
    "postal": "K2S7R5",
    "result": []
  },
  {
    "postal": "K2S2X3",
    "result": []
  },
  {
    "postal": "K2S8Z9",
    "result": []
  },
  {
    "postal": "K2S0N4",
    "result": [
      {
        "electoralDistricts": [
          {
            "election": null,
            "id": 17,
            "name": "Carleton"
          }
        ],
        "pollDivisionIds": [
          10137480
        ],
        "postalCode": "K2S0N4",
        "streetName": "CAMPOBELLO",
        "streetDirectionId": null,
        "streetTypeId": "DR",
        "placeName": "STITTSVILLE",
        "streetNameDisplayText": "CAMPOBELLO DR, STITTSVILLE"
      },
      {
        "electoralDistricts": [
          {
            "election": null,
            "id": 17,
            "name": "Carleton"
          }
        ],
        "pollDivisionIds": [
          10137480
        ],
        "postalCode": "K2S0N4",
        "streetName": "PAMPERO",
        "streetDirectionId": null,
        "streetTypeId": "CRES",
        "placeName": "STITTSVILLE",
        "streetNameDisplayText": "PAMPERO CRES, STITTSVILLE"
      }
    ]
  },
  {
    "postal": "K2S1K1",
    "result": [
      {
        "electoralDistricts": [
          {
            "election": null,
            "id": 17,
            "name": "Carleton"
          }
        ],
        "pollDivisionIds": [
          10137486
        ],
        "postalCode": "K2S1K1",
        "streetName": "EAST HEALEY",
        "streetDirectionId": null,
        "streetTypeId": "AVE",
        "placeName": "STITTSVILLE",
        "streetNameDisplayText": "EAST HEALEY AVE, STITTSVILLE"
      },
      {
        "electoralDistricts": [
          {
            "election": null,
            "id": 17,
            "name": "Carleton"
          }
        ],
        "pollDivisionIds": [
          10137496
        ],
        "postalCode": "K2S1K1",
        "streetName": "HEALEY",
        "streetDirectionId": "E",
        "streetTypeId": "AVE",
        "placeName": "STITTSVILLE",
        "streetNameDisplayText": "HEALEY AVE E, STITTSVILLE"
      },
      {
        "electoralDistricts": [
          {
            "election": null,
            "id": 17,
            "name": "Carleton"
          }
        ],
        "pollDivisionIds": [
          10137486
        ],
        "postalCode": "K2S1K1",
        "streetName": "HEALEY",
        "streetDirectionId": "W",
        "streetTypeId": "AVE",
        "placeName": "STITTSVILLE",
        "streetNameDisplayText": "HEALEY AVE W, STITTSVILLE"
      },
      {
        "electoralDistricts": [
          {
            "election": null,
            "id": 17,
            "name": "Carleton"
          }
        ],
        "pollDivisionIds": [
          10137486
        ],
        "postalCode": "K2S1K1",
        "streetName": "STITTSVILLE MAIN",
        "streetDirectionId": null,
        "streetTypeId": "ST",
        "placeName": "STITTSVILLE",
        "streetNameDisplayText": "STITTSVILLE MAIN ST, STITTSVILLE"
      },
      {
        "electoralDistricts": [
          {
            "election": null,
            "id": 17,
            "name": "Carleton"
          }
        ],
        "pollDivisionIds": [
          10137486
        ],
        "postalCode": "K2S1K1",
        "streetName": "WEST HEALEY",
        "streetDirectionId": null,
        "streetTypeId": "AVE",
        "placeName": "STITTSVILLE",
        "streetNameDisplayText": "WEST HEALEY AVE, STITTSVILLE"
      }
    ]
  },
  {
    "postal": "K2S1S3",
    "result": [
      {
        "electoralDistricts": [
          {
            "election": null,
            "id": 17,
            "name": "Carleton"
          }
        ],
        "pollDivisionIds": [
          10137482
        ],
        "postalCode": "K2S1S3",
        "streetName": "FERNBANK",
        "streetDirectionId": null,
        "streetTypeId": "RD",
        "placeName": "STITTSVILLE",
        "streetNameDisplayText": "FERNBANK RD, STITTSVILLE"
      }
    ]
  },
  {
    "postal": "K2S6M4",
    "result": []
  },
  {
    "postal": "K2S9A9",
    "result": []
  },
  {
    "postal": "K2S9Z9",
    "result": []
  },
  {
    "postal": "K2S6T4",
    "result": []
  },
  {
    "postal": "K2S0B2",
    "result": [
      {
        "electoralDistricts": [
          {
            "election": null,
            "id": 17,
            "name": "Carleton"
          }
        ],
        "pollDivisionIds": [
          10137486
        ],
        "postalCode": "K2S0B2",
        "streetName": "SHEA",
        "streetDirectionId": null,
        "streetTypeId": "RD",
        "placeName": "STITTSVILLE",
        "streetNameDisplayText": "SHEA RD, STITTSVILLE"
      }
    ]
  },
  {
    "postal": "K2S2L9",
    "result": [
      {
        "electoralDistricts": [
          {
            "election": null,
            "id": 17,
            "name": "Carleton"
          }
        ],
        "pollDivisionIds": [
          10137485
        ],
        "postalCode": "K2S2L9",
        "streetName": "PORTER",
        "streetDirectionId": null,
        "streetTypeId": "ST",
        "placeName": "STITTSVILLE",
        "streetNameDisplayText": "PORTER ST, STITTSVILLE"
      }
    ]
  },
  {
    "postal": "K2S8K9",
    "result": []
  },
  {
    "postal": "K2S2H9",
    "result": [
      {
        "electoralDistricts": [
          {
            "election": null,
            "id": 17,
            "name": "Carleton"
          }
        ],
        "pollDivisionIds": [
          10137480
        ],
        "postalCode": "K2S2H9",
        "streetName": "EAGLEHEAD",
        "streetDirectionId": null,
        "streetTypeId": "CRES",
        "placeName": "STITTSVILLE",
        "streetNameDisplayText": "EAGLEHEAD CRES, STITTSVILLE"
      },
      {
        "electoralDistricts": [
          {
            "election": null,
            "id": 17,
            "name": "Carleton"
          }
        ],
        "pollDivisionIds": [
          10137480
        ],
        "postalCode": "K2S2H9",
        "streetName": "KIMPTON",
        "streetDirectionId": null,
        "streetTypeId": "DR",
        "placeName": "STITTSVILLE",
        "streetNameDisplayText": "KIMPTON DR, STITTSVILLE"
      }
    ]
  },
  {
    "postal": "K2S3Z6",
    "result": []
  },
  {
    "postal": "K2S3B0",
    "result": []
  },
  {
    "postal": "K2S2H8",
    "result": [
      {
        "electoralDistricts": [
          {
            "election": null,
            "id": 17,
            "name": "Carleton"
          }
        ],
        "pollDivisionIds": [
          10137480
        ],
        "postalCode": "K2S2H8",
        "streetName": "ALLAN MOORE",
        "streetDirectionId": null,
        "streetTypeId": "PL",
        "placeName": "STITTSVILLE",
        "streetNameDisplayText": "ALLAN MOORE PL, STITTSVILLE"
      },
      {
        "electoralDistricts": [
          {
            "election": null,
            "id": 17,
            "name": "Carleton"
          }
        ],
        "pollDivisionIds": [
          10137480
        ],
        "postalCode": "K2S2H8",
        "streetName": "SAMANTHA EASTOP",
        "streetDirectionId": null,
        "streetTypeId": "AVE",
        "placeName": "STITTSVILLE",
        "streetNameDisplayText": "SAMANTHA EASTOP AVE, STITTSVILLE"
      }
    ]
  },
  {
    "postal": "K2S3X2",
    "result": []
  },
  {
    "postal": "K2S2E9",
    "result": [
      {
        "electoralDistricts": [
          {
            "election": null,
            "id": 17,
            "name": "Carleton"
          }
        ],
        "pollDivisionIds": [
          10137486
        ],
        "postalCode": "K2S2E9",
        "streetName": "FRIENDLY",
        "streetDirectionId": null,
        "streetTypeId": "CRES",
        "placeName": "STITTSVILLE",
        "streetNameDisplayText": "FRIENDLY CRES, STITTSVILLE"
      }
    ]
  },
  {
    "postal": "K2S9P6",
    "result": []
  },
  {
    "postal": "K2S9E2",
    "result": []
  },
  {
    "postal": "K2S9H2",
    "result": []
  },
  {
    "postal": "K2S1S8",
    "result": [
      {
        "electoralDistricts": [
          {
            "election": null,
            "id": 17,
            "name": "Carleton"
          }
        ],
        "pollDivisionIds": [
          10137485
        ],
        "postalCode": "K2S1S8",
        "streetName": "BRAE",
        "streetDirectionId": null,
        "streetTypeId": "CRES",
        "placeName": "STITTSVILLE",
        "streetNameDisplayText": "BRAE CRES, STITTSVILLE"
      },
      {
        "electoralDistricts": [
          {
            "election": null,
            "id": 17,
            "name": "Carleton"
          }
        ],
        "pollDivisionIds": [
          10137483
        ],
        "postalCode": "K2S1S8",
        "streetName": "STONEPATH",
        "streetDirectionId": null,
        "streetTypeId": "CRES",
        "placeName": "STITTSVILLE",
        "streetNameDisplayText": "STONEPATH CRES, STITTSVILLE"
      }
    ]
  },
  {
    "postal": "K2S3M6",
    "result": []
  },
  {
    "postal": "K2S6Z8",
    "result": []
  },
  {
    "postal": "K2S4J2",
    "result": []
  },
  {
    "postal": "K2S9Y1",
    "result": []
  },
  {
    "postal": "K2S8V6",
    "result": []
  },
  {
    "postal": "K2S6B2",
    "result": []
  },
  {
    "postal": "K2S1P8",
    "result": [
      {
        "electoralDistricts": [
          {
            "election": null,
            "id": 17,
            "name": "Carleton"
          }
        ],
        "pollDivisionIds": [
          10137485
        ],
        "postalCode": "K2S1P8",
        "streetName": "NORWAY SPRUCE",
        "streetDirectionId": null,
        "streetTypeId": "ST",
        "placeName": "STITTSVILLE",
        "streetNameDisplayText": "NORWAY SPRUCE ST, STITTSVILLE"
      },
      {
        "electoralDistricts": [
          {
            "election": null,
            "id": 17,
            "name": "Carleton"
          }
        ],
        "pollDivisionIds": [
          10137485
        ],
        "postalCode": "K2S1P8",
        "streetName": "PORTER",
        "streetDirectionId": null,
        "streetTypeId": "ST",
        "placeName": "STITTSVILLE",
        "streetNameDisplayText": "PORTER ST, STITTSVILLE"
      },
      {
        "electoralDistricts": [
          {
            "election": null,
            "id": 17,
            "name": "Carleton"
          }
        ],
        "pollDivisionIds": [
          10137485
        ],
        "postalCode": "K2S1P8",
        "streetName": "STITTSVILLE MAIN",
        "streetDirectionId": null,
        "streetTypeId": "ST",
        "placeName": "STITTSVILLE",
        "streetNameDisplayText": "STITTSVILLE MAIN ST, STITTSVILLE"
      },
      {
        "electoralDistricts": [
          {
            "election": null,
            "id": 17,
            "name": "Carleton"
          }
        ],
        "pollDivisionIds": [
          10137485
        ],
        "postalCode": "K2S1P8",
        "streetName": "TURTLEBACK",
        "streetDirectionId": null,
        "streetTypeId": "WAY",
        "placeName": "STITTSVILLE",
        "streetNameDisplayText": "TURTLEBACK WAY, STITTSVILLE"
      }
    ]
  },
  {
    "postal": "K2S0V8",
    "result": [
      {
        "electoralDistricts": [
          {
            "election": null,
            "id": 43,
            "name": "Kanata—Carleton"
          }
        ],
        "pollDivisionIds": [
          10138953,
          10138964
        ],
        "postalCode": "K2S0V8",
        "streetName": "OVERBERG",
        "streetDirectionId": null,
        "streetTypeId": "WAY",
        "placeName": "STITTSVILLE",
        "streetNameDisplayText": "OVERBERG WAY, STITTSVILLE"
      },
      {
        "electoralDistricts": [
          {
            "election": null,
            "id": 43,
            "name": "Kanata—Carleton"
          }
        ],
        "pollDivisionIds": [
          10138964
        ],
        "postalCode": "K2S0V8",
        "streetName": "OVERGERG",
        "streetDirectionId": null,
        "streetTypeId": "WAY",
        "placeName": "STITTSVILLE",
        "streetNameDisplayText": "OVERGERG WAY, STITTSVILLE"
      },
      {
        "electoralDistricts": [
          {
            "election": null,
            "id": 43,
            "name": "Kanata—Carleton"
          }
        ],
        "pollDivisionIds": [
          10138964
        ],
        "postalCode": "K2S0V8",
        "streetName": "RIOJA",
        "streetDirectionId": null,
        "streetTypeId": "ST",
        "placeName": "STITTSVILLE",
        "streetNameDisplayText": "RIOJA ST, STITTSVILLE"
      }
    ]
  },
  {
    "postal": "K2S4Y0",
    "result": []
  },
  {
    "postal": "K2S2T4",
    "result": []
  },
  {
    "postal": "K2S2S3",
    "result": []
  },
  {
    "postal": "K2S0K0",
    "result": []
  },
  {
    "postal": "K2S5N1",
    "result": []
  },
  {
    "postal": "K2S7T0",
    "result": []
  },
  {
    "postal": "K2S9N2",
    "result": []
  },
  {
    "postal": "K2S5L1",
    "result": []
  },
  {
    "postal": "K2S7G5",
    "result": []
  },
  {
    "postal": "K2S6K2",
    "result": []
  },
  {
    "postal": "K2S6P9",
    "result": []
  },
  {
    "postal": "K2S0E6",
    "result": [
      {
        "electoralDistricts": [
          {
            "election": null,
            "id": 17,
            "name": "Carleton"
          }
        ],
        "pollDivisionIds": [
          10137482
        ],
        "postalCode": "K2S0E6",
        "streetName": "KOHILO",
        "streetDirectionId": null,
        "streetTypeId": "CRES",
        "placeName": "STITTSVILLE",
        "streetNameDisplayText": "KOHILO CRES, STITTSVILLE"
      }
    ]
  },
  {
    "postal": "K2S8R9",
    "result": []
  },
  {
    "postal": "K2S3G9",
    "result": []
  },
  {
    "postal": "K2S0V7",
    "result": [
      {
        "electoralDistricts": [
          {
            "election": null,
            "id": 43,
            "name": "Kanata—Carleton"
          }
        ],
        "pollDivisionIds": [
          10138964
        ],
        "postalCode": "K2S0V7",
        "streetName": "OVERBERG",
        "streetDirectionId": null,
        "streetTypeId": "WAY",
        "placeName": "STITTSVILLE",
        "streetNameDisplayText": "OVERBERG WAY, STITTSVILLE"
      },
      {
        "electoralDistricts": [
          {
            "election": null,
            "id": 43,
            "name": "Kanata—Carleton"
          }
        ],
        "pollDivisionIds": [
          10138964
        ],
        "postalCode": "K2S0V7",
        "streetName": "OVERGERG",
        "streetDirectionId": null,
        "streetTypeId": "WAY",
        "placeName": "STITTSVILLE",
        "streetNameDisplayText": "OVERGERG WAY, STITTSVILLE"
      }
    ]
  },
  {
    "postal": "K2S2Z1",
    "result": []
  },
  {
    "postal": "K2S7N1",
    "result": []
  },
  {
    "postal": "K2S3C6",
    "result": []
  },
  {
    "postal": "K2S4M1",
    "result": []
  },
  {
    "postal": "K2S9K2",
    "result": []
  },
  {
    "postal": "K2S9S6",
    "result": []
  },
  {
    "postal": "K2S4X1",
    "result": []
  },
  {
    "postal": "K2S8W2",
    "result": []
  },
  {
    "postal": "K2S7N2",
    "result": []
  },
  {
    "postal": "K2S8S3",
    "result": []
  },
  {
    "postal": "K2S4V0",
    "result": []
  },
  {
    "postal": "K2S6W4",
    "result": []
  },
  {
    "postal": "K2S5M1",
    "result": []
  },
  {
    "postal": "K2S0S4",
    "result": [
      {
        "electoralDistricts": [
          {
            "election": null,
            "id": 17,
            "name": "Carleton"
          }
        ],
        "pollDivisionIds": [
          10137484
        ],
        "postalCode": "K2S0S4",
        "streetName": "BEVERLY",
        "streetDirectionId": null,
        "streetTypeId": "ST",
        "placeName": "STITTSVILLE",
        "streetNameDisplayText": "BEVERLY ST, STITTSVILLE"
      },
      {
        "electoralDistricts": [
          {
            "election": null,
            "id": 17,
            "name": "Carleton"
          }
        ],
        "pollDivisionIds": [
          10137484
        ],
        "postalCode": "K2S0S4",
        "streetName": "COACH",
        "streetDirectionId": null,
        "streetTypeId": "AVE",
        "placeName": "STITTSVILLE",
        "streetNameDisplayText": "COACH AVE, STITTSVILLE"
      },
      {
        "electoralDistricts": [
          {
            "election": null,
            "id": 17,
            "name": "Carleton"
          }
        ],
        "pollDivisionIds": [
          10137483,
          10137484
        ],
        "postalCode": "K2S0S4",
        "streetName": "EMBER GLOW",
        "streetDirectionId": null,
        "streetTypeId": "CRT",
        "placeName": "STITTSVILLE",
        "streetNameDisplayText": "EMBER GLOW CRT, STITTSVILLE"
      }
    ]
  },
  {
    "postal": "K2S5X6",
    "result": []
  },
  {
    "postal": "K2S8L5",
    "result": []
  },
  {
    "postal": "K2S5M8",
    "result": []
  },
  {
    "postal": "K2S2G3",
    "result": [
      {
        "electoralDistricts": [
          {
            "election": null,
            "id": 17,
            "name": "Carleton"
          }
        ],
        "pollDivisionIds": [
          10137485
        ],
        "postalCode": "K2S2G3",
        "streetName": "ARROWWOOD",
        "streetDirectionId": null,
        "streetTypeId": "DR",
        "placeName": "STITTSVILLE",
        "streetNameDisplayText": "ARROWWOOD DR, STITTSVILLE"
      }
    ]
  },
  {
    "postal": "K2S8E4",
    "result": []
  },
  {
    "postal": "K2S7S9",
    "result": []
  },
  {
    "postal": "K2S1K3",
    "result": [
      {
        "electoralDistricts": [
          {
            "election": null,
            "id": 17,
            "name": "Carleton"
          }
        ],
        "pollDivisionIds": [
          10137485
        ],
        "postalCode": "K2S1K3",
        "streetName": "JAMES LEWIS",
        "streetDirectionId": null,
        "streetTypeId": "AVE",
        "placeName": "STITTSVILLE",
        "streetNameDisplayText": "JAMES LEWIS AVE, STITTSVILLE"
      }
    ]
  },
  {
    "postal": "K2S4E1",
    "result": []
  },
  {
    "postal": "K2S4R2",
    "result": []
  },
  {
    "postal": "K2S6T0",
    "result": []
  },
  {
    "postal": "K2S3K5",
    "result": []
  },
  {
    "postal": "K2S3S3",
    "result": []
  },
  {
    "postal": "K2S3L4",
    "result": []
  },
  {
    "postal": "K2S9Y2",
    "result": []
  },
  {
    "postal": "K2S1E0",
    "result": []
  },
  {
    "postal": "K2S9A4",
    "result": []
  },
  {
    "postal": "K2S1L3",
    "result": [
      {
        "electoralDistricts": [
          {
            "election": null,
            "id": 17,
            "name": "Carleton"
          }
        ],
        "pollDivisionIds": [
          10137484
        ],
        "postalCode": "K2S1L3",
        "streetName": "DUNEDIN",
        "streetDirectionId": null,
        "streetTypeId": "LANE",
        "placeName": "STITTSVILLE",
        "streetNameDisplayText": "DUNEDIN LANE, STITTSVILLE"
      },
      {
        "electoralDistricts": [
          {
            "election": null,
            "id": 17,
            "name": "Carleton"
          }
        ],
        "pollDivisionIds": [
          10137484
        ],
        "postalCode": "K2S1L3",
        "streetName": "RIVER OAKS",
        "streetDirectionId": null,
        "streetTypeId": "CRT",
        "placeName": "STITTSVILLE",
        "streetNameDisplayText": "RIVER OAKS CRT, STITTSVILLE"
      }
    ]
  },
  {
    "postal": "K2S6N1",
    "result": []
  },
  {
    "postal": "K2S6G7",
    "result": []
  },
  {
    "postal": "K2S7W1",
    "result": []
  },
  {
    "postal": "K2S4M6",
    "result": []
  },
  {
    "postal": "K2S1K0",
    "result": []
  },
  {
    "postal": "K2S3E2",
    "result": []
  },
  {
    "postal": "K2S5H4",
    "result": []
  },
  {
    "postal": "K2S1K7",
    "result": [
      {
        "electoralDistricts": [
          {
            "election": null,
            "id": 17,
            "name": "Carleton"
          }
        ],
        "pollDivisionIds": [
          10137480,
          10137481
        ],
        "postalCode": "K2S1K7",
        "streetName": "ALON",
        "streetDirectionId": null,
        "streetTypeId": "ST",
        "placeName": "STITTSVILLE",
        "streetNameDisplayText": "ALON ST, STITTSVILLE"
      },
      {
        "electoralDistricts": [
          {
            "election": null,
            "id": 17,
            "name": "Carleton"
          }
        ],
        "pollDivisionIds": [
          10137481
        ],
        "postalCode": "K2S1K7",
        "streetName": "CANDOW",
        "streetDirectionId": null,
        "streetTypeId": "CRES",
        "placeName": "STITTSVILLE",
        "streetNameDisplayText": "CANDOW CRES, STITTSVILLE"
      },
      {
        "electoralDistricts": [
          {
            "election": null,
            "id": 17,
            "name": "Carleton"
          }
        ],
        "pollDivisionIds": [
          10137481
        ],
        "postalCode": "K2S1K7",
        "streetName": "MIKA",
        "streetDirectionId": null,
        "streetTypeId": "ST",
        "placeName": "STITTSVILLE",
        "streetNameDisplayText": "MIKA ST, STITTSVILLE"
      }
    ]
  },
  {
    "postal": "K2S0H0",
    "result": []
  },
  {
    "postal": "K2S0J3",
    "result": [
      {
        "electoralDistricts": [
          {
            "election": null,
            "id": 43,
            "name": "Kanata—Carleton"
          }
        ],
        "pollDivisionIds": [
          10138964
        ],
        "postalCode": "K2S0J3",
        "streetName": "ARRITA",
        "streetDirectionId": null,
        "streetTypeId": "ST",
        "placeName": "KANATA",
        "streetNameDisplayText": "ARRITA ST, KANATA"
      },
      {
        "electoralDistricts": [
          {
            "election": null,
            "id": 43,
            "name": "Kanata—Carleton"
          }
        ],
        "pollDivisionIds": [
          10138964
        ],
        "postalCode": "K2S0J3",
        "streetName": "LOKOYA",
        "streetDirectionId": null,
        "streetTypeId": "ST",
        "placeName": "KANATA",
        "streetNameDisplayText": "LOKOYA ST, KANATA"
      },
      {
        "electoralDistricts": [
          {
            "election": null,
            "id": 43,
            "name": "Kanata—Carleton"
          }
        ],
        "pollDivisionIds": [
          10138964
        ],
        "postalCode": "K2S0J3",
        "streetName": "ROMINA",
        "streetDirectionId": null,
        "streetTypeId": "ST",
        "placeName": "KANATA",
        "streetNameDisplayText": "ROMINA ST, KANATA"
      }
    ]
  },
  {
    "postal": "K2S1X6",
    "result": []
  },
  {
    "postal": "K2S2Z6",
    "result": []
  },
  {
    "postal": "K2S4R9",
    "result": []
  },
  {
    "postal": "K2S0W8",
    "result": [
      {
        "electoralDistricts": [
          {
            "election": null,
            "id": 17,
            "name": "Carleton"
          }
        ],
        "pollDivisionIds": [
          10137481
        ],
        "postalCode": "K2S0W8",
        "streetName": "SANTOLINA",
        "streetDirectionId": null,
        "streetTypeId": "ST",
        "placeName": "STITTSVILLE",
        "streetNameDisplayText": "SANTOLINA ST, STITTSVILLE"
      },
      {
        "electoralDistricts": [
          {
            "election": null,
            "id": 17,
            "name": "Carleton"
          }
        ],
        "pollDivisionIds": [
          10137481
        ],
        "postalCode": "K2S0W8",
        "streetName": "SWEETBAY",
        "streetDirectionId": null,
        "streetTypeId": "CIR",
        "placeName": "STITTSVILLE",
        "streetNameDisplayText": "SWEETBAY CIR, STITTSVILLE"
      }
    ]
  },
  {
    "postal": "K2S1L4",
    "result": [
      {
        "electoralDistricts": [
          {
            "election": null,
            "id": 17,
            "name": "Carleton"
          }
        ],
        "pollDivisionIds": [
          10137484
        ],
        "postalCode": "K2S1L4",
        "streetName": "DUNEDIN",
        "streetDirectionId": null,
        "streetTypeId": "LANE",
        "placeName": "STITTSVILLE",
        "streetNameDisplayText": "DUNEDIN LANE, STITTSVILLE"
      },
      {
        "electoralDistricts": [
          {
            "election": null,
            "id": 17,
            "name": "Carleton"
          }
        ],
        "pollDivisionIds": [
          10137484
        ],
        "postalCode": "K2S1L4",
        "streetName": "HEATHER GLEN",
        "streetDirectionId": null,
        "streetTypeId": "CRT",
        "placeName": "STITTSVILLE",
        "streetNameDisplayText": "HEATHER GLEN CRT, STITTSVILLE"
      }
    ]
  },
  {
    "postal": "K2S0C8",
    "result": [
      {
        "electoralDistricts": [
          {
            "election": null,
            "id": 17,
            "name": "Carleton"
          }
        ],
        "pollDivisionIds": [
          10137480
        ],
        "postalCode": "K2S0C8",
        "streetName": "A STITTSVILLE MAIN",
        "streetDirectionId": null,
        "streetTypeId": "ST",
        "placeName": "STITTSVILLE",
        "streetNameDisplayText": "A STITTSVILLE MAIN ST, STITTSVILLE"
      },
      {
        "electoralDistricts": [
          {
            "election": null,
            "id": 17,
            "name": "Carleton"
          }
        ],
        "pollDivisionIds": [
          10137480
        ],
        "postalCode": "K2S0C8",
        "streetName": "D STITTSVILLE MAIN",
        "streetDirectionId": null,
        "streetTypeId": "ST",
        "placeName": "STITTSVILLE",
        "streetNameDisplayText": "D STITTSVILLE MAIN ST, STITTSVILLE"
      },
      {
        "electoralDistricts": [
          {
            "election": null,
            "id": 17,
            "name": "Carleton"
          }
        ],
        "pollDivisionIds": [
          10137480
        ],
        "postalCode": "K2S0C8",
        "streetName": "F STITTSVILLE MAIN",
        "streetDirectionId": null,
        "streetTypeId": "ST",
        "placeName": "STITTSVILLE",
        "streetNameDisplayText": "F STITTSVILLE MAIN ST, STITTSVILLE"
      },
      {
        "electoralDistricts": [
          {
            "election": null,
            "id": 17,
            "name": "Carleton"
          }
        ],
        "pollDivisionIds": [
          10137480
        ],
        "postalCode": "K2S0C8",
        "streetName": "G STITTSVILLE MAIN",
        "streetDirectionId": null,
        "streetTypeId": "ST",
        "placeName": "STITTSVILLE",
        "streetNameDisplayText": "G STITTSVILLE MAIN ST, STITTSVILLE"
      },
      {
        "electoralDistricts": [
          {
            "election": null,
            "id": 17,
            "name": "Carleton"
          }
        ],
        "pollDivisionIds": [
          10137480
        ],
        "postalCode": "K2S0C8",
        "streetName": "J STITTSVILLE MAIN",
        "streetDirectionId": null,
        "streetTypeId": "ST",
        "placeName": "STITTSVILLE",
        "streetNameDisplayText": "J STITTSVILLE MAIN ST, STITTSVILLE"
      },
      {
        "electoralDistricts": [
          {
            "election": null,
            "id": 17,
            "name": "Carleton"
          }
        ],
        "pollDivisionIds": [
          10137480
        ],
        "postalCode": "K2S0C8",
        "streetName": "K STITTSVILLE MAIN",
        "streetDirectionId": null,
        "streetTypeId": "ST",
        "placeName": "STITTSVILLE",
        "streetNameDisplayText": "K STITTSVILLE MAIN ST, STITTSVILLE"
      },
      {
        "electoralDistricts": [
          {
            "election": null,
            "id": 17,
            "name": "Carleton"
          }
        ],
        "pollDivisionIds": [
          10137480
        ],
        "postalCode": "K2S0C8",
        "streetName": "L STITTSVILLE MAIN",
        "streetDirectionId": null,
        "streetTypeId": "ST",
        "placeName": "STITTSVILLE",
        "streetNameDisplayText": "L STITTSVILLE MAIN ST, STITTSVILLE"
      },
      {
        "electoralDistricts": [
          {
            "election": null,
            "id": 17,
            "name": "Carleton"
          }
        ],
        "pollDivisionIds": [
          10137480
        ],
        "postalCode": "K2S0C8",
        "streetName": "STITTSVILLE MAIN",
        "streetDirectionId": null,
        "streetTypeId": "ST",
        "placeName": "STITTSVILLE",
        "streetNameDisplayText": "STITTSVILLE MAIN ST, STITTSVILLE"
      },
      {
        "electoralDistricts": [
          {
            "election": null,
            "id": 17,
            "name": "Carleton"
          }
        ],
        "pollDivisionIds": [
          10137480
        ],
        "postalCode": "K2S0C8",
        "streetName": "STITTSVILLE MAIN ST.-PARKING",
        "streetDirectionId": null,
        "streetTypeId": "ST",
        "placeName": "STITTSVILLE",
        "streetNameDisplayText": "STITTSVILLE MAIN ST.-PARKING ST, STITTSVILLE"
      }
    ]
  },
  {
    "postal": "K2S9X7",
    "result": []
  },
  {
    "postal": "K2S4T1",
    "result": []
  },
  {
    "postal": "K2S0M0",
    "result": []
  },
  {
    "postal": "K2S6A2",
    "result": []
  },
  {
    "postal": "K2S9S8",
    "result": []
  },
  {
    "postal": "K2S9T4",
    "result": []
  },
  {
    "postal": "K2S9Y4",
    "result": []
  },
  {
    "postal": "K2S6G5",
    "result": []
  },
  {
    "postal": "K2S6H9",
    "result": []
  },
  {
    "postal": "K2S2P3",
    "result": []
  },
  {
    "postal": "K2S1T6",
    "result": [
      {
        "electoralDistricts": [
          {
            "election": null,
            "id": 17,
            "name": "Carleton"
          }
        ],
        "pollDivisionIds": [
          10137481
        ],
        "postalCode": "K2S1T6",
        "streetName": "POOLE CREEK",
        "streetDirectionId": null,
        "streetTypeId": "CRES",
        "placeName": "STITTSVILLE",
        "streetNameDisplayText": "POOLE CREEK CRES, STITTSVILLE"
      }
    ]
  },
  {
    "postal": "K2S4P6",
    "result": []
  },
  {
    "postal": "K2S3K1",
    "result": []
  },
  {
    "postal": "K2S6X4",
    "result": []
  },
  {
    "postal": "K2S4M8",
    "result": []
  },
  {
    "postal": "K2S2Y1",
    "result": []
  },
  {
    "postal": "K2S6M1",
    "result": []
  },
  {
    "postal": "K2S5L8",
    "result": []
  },
  {
    "postal": "K2S3P6",
    "result": []
  },
  {
    "postal": "K2S9A5",
    "result": []
  },
  {
    "postal": "K2S7K1",
    "result": []
  },
  {
    "postal": "K2S3J4",
    "result": []
  },
  {
    "postal": "K2S5E7",
    "result": []
  },
  {
    "postal": "K2S3A7",
    "result": []
  },
  {
    "postal": "K2S1B9",
    "result": [
      {
        "electoralDistricts": [
          {
            "election": null,
            "id": 17,
            "name": "Carleton"
          }
        ],
        "pollDivisionIds": [
          10137484
        ],
        "postalCode": "K2S1B9",
        "streetName": "ARBOR",
        "streetDirectionId": null,
        "streetTypeId": "RIDGE",
        "placeName": "STITTSVILLE",
        "streetNameDisplayText": "ARBOR RIDGE, STITTSVILLE"
      },
      {
        "electoralDistricts": [
          {
            "election": null,
            "id": 17,
            "name": "Carleton"
          }
        ],
        "pollDivisionIds": [
          10137484
        ],
        "postalCode": "K2S1B9",
        "streetName": "BAY HILL",
        "streetDirectionId": null,
        "streetTypeId": "RIDGE",
        "placeName": "STITTSVILLE",
        "streetNameDisplayText": "BAY HILL RIDGE, STITTSVILLE"
      },
      {
        "electoralDistricts": [
          {
            "election": null,
            "id": 17,
            "name": "Carleton"
          }
        ],
        "pollDivisionIds": [
          10137484
        ],
        "postalCode": "K2S1B9",
        "streetName": "CAMELBACK",
        "streetDirectionId": null,
        "streetTypeId": "CRT",
        "placeName": "STITTSVILLE",
        "streetNameDisplayText": "CAMELBACK CRT, STITTSVILLE"
      },
      {
        "electoralDistricts": [
          {
            "election": null,
            "id": 43,
            "name": "Kanata—Carleton"
          }
        ],
        "pollDivisionIds": [
          10138946
        ],
        "postalCode": "K2S1B9",
        "streetName": "CARP",
        "streetDirectionId": null,
        "streetTypeId": "RD",
        "placeName": "CARP",
        "streetNameDisplayText": "CARP RD, CARP"
      },
      {
        "electoralDistricts": [
          {
            "election": null,
            "id": 17,
            "name": "Carleton"
          }
        ],
        "pollDivisionIds": [
          10137480,
          10137483
        ],
        "postalCode": "K2S1B9",
        "streetName": "CARP",
        "streetDirectionId": null,
        "streetTypeId": "RD",
        "placeName": "STITTSVILLE",
        "streetNameDisplayText": "CARP RD, STITTSVILLE"
      },
      {
        "electoralDistricts": [
          {
            "election": null,
            "id": 17,
            "name": "Carleton"
          }
        ],
        "pollDivisionIds": [
          10137484
        ],
        "postalCode": "K2S1B9",
        "streetName": "CASTLE HARBOR",
        "streetDirectionId": null,
        "streetTypeId": "CRT",
        "placeName": "STITTSVILLE",
        "streetNameDisplayText": "CASTLE HARBOR CRT, STITTSVILLE"
      },
      {
        "electoralDistricts": [
          {
            "election": null,
            "id": 17,
            "name": "Carleton"
          }
        ],
        "pollDivisionIds": [
          10137481
        ],
        "postalCode": "K2S1B9",
        "streetName": "HARTIN",
        "streetDirectionId": null,
        "streetTypeId": "ST",
        "placeName": "STITTSVILLE",
        "streetNameDisplayText": "HARTIN ST, STITTSVILLE"
      },
      {
        "electoralDistricts": [
          {
            "election": null,
            "id": 17,
            "name": "Carleton"
          }
        ],
        "pollDivisionIds": [
          10137482,
          10137481,
          10137480,
          10137484,
          10137483,
          10137486
        ],
        "postalCode": "K2S1B9",
        "streetName": "HAZELDEAN",
        "streetDirectionId": null,
        "streetTypeId": "RD",
        "placeName": "STITTSVILLE",
        "streetNameDisplayText": "HAZELDEAN RD, STITTSVILLE"
      },
      {
        "electoralDistricts": [
          {
            "election": null,
            "id": 17,
            "name": "Carleton"
          },
          {
            "election": null,
            "id": 43,
            "name": "Kanata—Carleton"
          }
        ],
        "pollDivisionIds": [
          10137480,
          10138949,
          10138968
        ],
        "postalCode": "K2S1B9",
        "streetName": "HUNTMAR",
        "streetDirectionId": null,
        "streetTypeId": "DR",
        "placeName": "STITTSVILLE",
        "streetNameDisplayText": "HUNTMAR DR, STITTSVILLE"
      },
      {
        "electoralDistricts": [
          {
            "election": null,
            "id": 17,
            "name": "Carleton"
          }
        ],
        "pollDivisionIds": [
          10137481
        ],
        "postalCode": "K2S1B9",
        "streetName": "JOHNWOODS",
        "streetDirectionId": null,
        "streetTypeId": "ST",
        "placeName": "STITTSVILLE",
        "streetNameDisplayText": "JOHNWOODS ST, STITTSVILLE"
      },
      {
        "electoralDistricts": [
          {
            "election": null,
            "id": 17,
            "name": "Carleton"
          }
        ],
        "pollDivisionIds": [
          10137481
        ],
        "postalCode": "K2S1B9",
        "streetName": "JOSEPH",
        "streetDirectionId": null,
        "streetTypeId": "CIR",
        "placeName": "STITTSVILLE",
        "streetNameDisplayText": "JOSEPH CIR, STITTSVILLE"
      },
      {
        "electoralDistricts": [
          {
            "election": null,
            "id": 17,
            "name": "Carleton"
          }
        ],
        "pollDivisionIds": [
          10137484
        ],
        "postalCode": "K2S1B9",
        "streetName": "KITTANSETT",
        "streetDirectionId": null,
        "streetTypeId": "CRT",
        "placeName": "STITTSVILLE",
        "streetNameDisplayText": "KITTANSETT CRT, STITTSVILLE"
      },
      {
        "electoralDistricts": [
          {
            "election": null,
            "id": 17,
            "name": "Carleton"
          }
        ],
        "pollDivisionIds": [
          10137484
        ],
        "postalCode": "K2S1B9",
        "streetName": "LAUREL VALLEY",
        "streetDirectionId": null,
        "streetTypeId": "CRT",
        "placeName": "STITTSVILLE",
        "streetNameDisplayText": "LAUREL VALLEY CRT, STITTSVILLE"
      },
      {
        "electoralDistricts": [
          {
            "election": null,
            "id": 17,
            "name": "Carleton"
          }
        ],
        "pollDivisionIds": [
          10137480
        ],
        "postalCode": "K2S1B9",
        "streetName": "MAPLE GROVE",
        "streetDirectionId": null,
        "streetTypeId": "RD",
        "placeName": "STITTSVILLE",
        "streetNameDisplayText": "MAPLE GROVE RD, STITTSVILLE"
      },
      {
        "electoralDistricts": [
          {
            "election": null,
            "id": 17,
            "name": "Carleton"
          }
        ],
        "pollDivisionIds": [
          10137483
        ],
        "postalCode": "K2S1B9",
        "streetName": "MCCOOEYE",
        "streetDirectionId": null,
        "streetTypeId": "LANE",
        "placeName": "STITTSVILLE",
        "streetNameDisplayText": "MCCOOEYE LANE, STITTSVILLE"
      },
      {
        "electoralDistricts": [
          {
            "election": null,
            "id": 17,
            "name": "Carleton"
          }
        ],
        "pollDivisionIds": [
          10137484
        ],
        "postalCode": "K2S1B9",
        "streetName": "MEADOWMIST",
        "streetDirectionId": null,
        "streetTypeId": "CRT",
        "placeName": "STITTSVILLE",
        "streetNameDisplayText": "MEADOWMIST CRT, STITTSVILLE"
      },
      {
        "electoralDistricts": [
          {
            "election": null,
            "id": 17,
            "name": "Carleton"
          }
        ],
        "pollDivisionIds": [
          10137483
        ],
        "postalCode": "K2S1B9",
        "streetName": "NEIL",
        "streetDirectionId": null,
        "streetTypeId": "AVE",
        "placeName": "STITTSVILLE",
        "streetNameDisplayText": "NEIL AVE, STITTSVILLE"
      },
      {
        "electoralDistricts": [
          {
            "election": null,
            "id": 17,
            "name": "Carleton"
          }
        ],
        "pollDivisionIds": [
          10137484
        ],
        "postalCode": "K2S1B9",
        "streetName": "OAKMONT",
        "streetDirectionId": null,
        "streetTypeId": "CRT",
        "placeName": "STITTSVILLE",
        "streetNameDisplayText": "OAKMONT CRT, STITTSVILLE"
      },
      {
        "electoralDistricts": [
          {
            "election": null,
            "id": 17,
            "name": "Carleton"
          }
        ],
        "pollDivisionIds": [
          10137484
        ],
        "postalCode": "K2S1B9",
        "streetName": "PEBBLE BEACH",
        "streetDirectionId": null,
        "streetTypeId": "CRT",
        "placeName": "STITTSVILLE",
        "streetNameDisplayText": "PEBBLE BEACH CRT, STITTSVILLE"
      },
      {
        "electoralDistricts": [
          {
            "election": null,
            "id": 17,
            "name": "Carleton"
          }
        ],
        "pollDivisionIds": [
          10137484
        ],
        "postalCode": "K2S1B9",
        "streetName": "PINE TREE",
        "streetDirectionId": null,
        "streetTypeId": "CRT",
        "placeName": "STITTSVILLE",
        "streetNameDisplayText": "PINE TREE CRT, STITTSVILLE"
      },
      {
        "electoralDistricts": [
          {
            "election": null,
            "id": 17,
            "name": "Carleton"
          }
        ],
        "pollDivisionIds": [
          10137486
        ],
        "postalCode": "K2S1B9",
        "streetName": "ROTHBOURNE",
        "streetDirectionId": null,
        "streetTypeId": "RD",
        "placeName": "STITTSVILLE",
        "streetNameDisplayText": "ROTHBOURNE RD, STITTSVILLE"
      },
      {
        "electoralDistricts": [
          {
            "election": null,
            "id": 17,
            "name": "Carleton"
          }
        ],
        "pollDivisionIds": [
          10137481
        ],
        "postalCode": "K2S1B9",
        "streetName": "SAVAGE",
        "streetDirectionId": null,
        "streetTypeId": "DR",
        "placeName": "STITTSVILLE",
        "streetNameDisplayText": "SAVAGE DR, STITTSVILLE"
      },
      {
        "electoralDistricts": [
          {
            "election": null,
            "id": 17,
            "name": "Carleton"
          }
        ],
        "pollDivisionIds": [
          10137484
        ],
        "postalCode": "K2S1B9",
        "streetName": "SPRINGBROOK",
        "streetDirectionId": null,
        "streetTypeId": "DR",
        "placeName": "STITTSVILLE",
        "streetNameDisplayText": "SPRINGBROOK DR, STITTSVILLE"
      }
    ]
  },
  {
    "postal": "K2S9E8",
    "result": []
  },
  {
    "postal": "K2S1C9",
    "result": [
      {
        "electoralDistricts": [
          {
            "election": null,
            "id": 17,
            "name": "Carleton"
          }
        ],
        "pollDivisionIds": [
          10137484
        ],
        "postalCode": "K2S1C9",
        "streetName": "BUTTONWOOD",
        "streetDirectionId": null,
        "streetTypeId": "TRAIL",
        "placeName": "STITTSVILLE",
        "streetNameDisplayText": "BUTTONWOOD TRAIL, STITTSVILLE"
      },
      {
        "electoralDistricts": [
          {
            "election": null,
            "id": 17,
            "name": "Carleton"
          }
        ],
        "pollDivisionIds": [
          10137484
        ],
        "postalCode": "K2S1C9",
        "streetName": "DEER MOSS",
        "streetDirectionId": null,
        "streetTypeId": "TRAIL",
        "placeName": "STITTSVILLE",
        "streetNameDisplayText": "DEER MOSS TRAIL, STITTSVILLE"
      },
      {
        "electoralDistricts": [
          {
            "election": null,
            "id": 17,
            "name": "Carleton"
          }
        ],
        "pollDivisionIds": [
          10137484
        ],
        "postalCode": "K2S1C9",
        "streetName": "EAGLE ROCK",
        "streetDirectionId": null,
        "streetTypeId": "WAY",
        "placeName": "STITTSVILLE",
        "streetNameDisplayText": "EAGLE ROCK WAY, STITTSVILLE"
      },
      {
        "electoralDistricts": [
          {
            "election": null,
            "id": 17,
            "name": "Carleton"
          }
        ],
        "pollDivisionIds": [
          10137484
        ],
        "postalCode": "K2S1C9",
        "streetName": "ELDERWOOD",
        "streetDirectionId": null,
        "streetTypeId": "TRAIL",
        "placeName": "STITTSVILLE",
        "streetNameDisplayText": "ELDERWOOD TRAIL, STITTSVILLE"
      },
      {
        "electoralDistricts": [
          {
            "election": null,
            "id": 17,
            "name": "Carleton"
          }
        ],
        "pollDivisionIds": [
          10137484
        ],
        "postalCode": "K2S1C9",
        "streetName": "HAVENWOOD",
        "streetDirectionId": null,
        "streetTypeId": "TRAIL",
        "placeName": "STITTSVILLE",
        "streetNameDisplayText": "HAVENWOOD TRAIL, STITTSVILLE"
      },
      {
        "electoralDistricts": [
          {
            "election": null,
            "id": 17,
            "name": "Carleton"
          }
        ],
        "pollDivisionIds": [
          10137484
        ],
        "postalCode": "K2S1C9",
        "streetName": "HEDGEROW",
        "streetDirectionId": null,
        "streetTypeId": "LANE",
        "placeName": "STITTSVILLE",
        "streetNameDisplayText": "HEDGEROW LANE, STITTSVILLE"
      },
      {
        "electoralDistricts": [
          {
            "election": null,
            "id": 17,
            "name": "Carleton"
          }
        ],
        "pollDivisionIds": [
          10137484
        ],
        "postalCode": "K2S1C9",
        "streetName": "HOLLY",
        "streetDirectionId": null,
        "streetTypeId": "RIDGE",
        "placeName": "STITTSVILLE",
        "streetNameDisplayText": "HOLLY RIDGE, STITTSVILLE"
      },
      {
        "electoralDistricts": [
          {
            "election": null,
            "id": 17,
            "name": "Carleton"
          }
        ],
        "pollDivisionIds": [
          10137484
        ],
        "postalCode": "K2S1C9",
        "streetName": "LONE MEADOW",
        "streetDirectionId": null,
        "streetTypeId": "TRAIL",
        "placeName": "STITTSVILLE",
        "streetNameDisplayText": "LONE MEADOW TRAIL, STITTSVILLE"
      }
    ]
  },
  {
    "postal": "K2S3B5",
    "result": []
  },
  {
    "postal": "K2S8R0",
    "result": []
  },
  {
    "postal": "K2S3P2",
    "result": []
  },
  {
    "postal": "K2S5V4",
    "result": []
  },
  {
    "postal": "K2S4H0",
    "result": []
  },
  {
    "postal": "K2S4S7",
    "result": []
  },
  {
    "postal": "K2S6C2",
    "result": []
  },
  {
    "postal": "K2S8W3",
    "result": []
  },
  {
    "postal": "K2S4M5",
    "result": []
  },
  {
    "postal": "K2S5T1",
    "result": []
  },
  {
    "postal": "K2S3B3",
    "result": []
  },
  {
    "postal": "K2S6C6",
    "result": []
  },
  {
    "postal": "K2S7N8",
    "result": []
  },
  {
    "postal": "K2S2Y3",
    "result": []
  },
  {
    "postal": "K2S2R6",
    "result": []
  },
  {
    "postal": "K2S7N3",
    "result": []
  },
  {
    "postal": "K2S8J2",
    "result": []
  },
  {
    "postal": "K2S6A9",
    "result": []
  },
  {
    "postal": "K2S3V2",
    "result": []
  },
  {
    "postal": "K2S2N3",
    "result": []
  },
  {
    "postal": "K2S1S5",
    "result": [
      {
        "electoralDistricts": [
          {
            "election": null,
            "id": 17,
            "name": "Carleton"
          }
        ],
        "pollDivisionIds": [
          10137487
        ],
        "postalCode": "K2S1S5",
        "streetName": "HUBERTINE",
        "streetDirectionId": null,
        "streetTypeId": "GATE",
        "placeName": "STITTSVILLE",
        "streetNameDisplayText": "HUBERTINE GATE, STITTSVILLE"
      },
      {
        "electoralDistricts": [
          {
            "election": null,
            "id": 17,
            "name": "Carleton"
          }
        ],
        "pollDivisionIds": [
          10137487
        ],
        "postalCode": "K2S1S5",
        "streetName": "LUCAS",
        "streetDirectionId": null,
        "streetTypeId": "LANE",
        "placeName": "STITTSVILLE",
        "streetNameDisplayText": "LUCAS LANE, STITTSVILLE"
      }
    ]
  },
  {
    "postal": "K2S4T7",
    "result": []
  },
  {
    "postal": "K2S6Y7",
    "result": []
  },
  {
    "postal": "K2S0W7",
    "result": [
      {
        "electoralDistricts": [
          {
            "election": null,
            "id": 17,
            "name": "Carleton"
          }
        ],
        "pollDivisionIds": [
          10137481
        ],
        "postalCode": "K2S0W7",
        "streetName": "ASTELIA",
        "streetDirectionId": null,
        "streetTypeId": "CRES",
        "placeName": "STITTSVILLE",
        "streetNameDisplayText": "ASTELIA CRES, STITTSVILLE"
      },
      {
        "electoralDistricts": [
          {
            "election": null,
            "id": 17,
            "name": "Carleton"
          }
        ],
        "pollDivisionIds": [
          10137481
        ],
        "postalCode": "K2S0W7",
        "streetName": "SANTOLINA",
        "streetDirectionId": null,
        "streetTypeId": "ST",
        "placeName": "STITTSVILLE",
        "streetNameDisplayText": "SANTOLINA ST, STITTSVILLE"
      }
    ]
  },
  {
    "postal": "K2S2W9",
    "result": []
  },
  {
    "postal": "K2S8V0",
    "result": []
  },
  {
    "postal": "K2S0H4",
    "result": [
      {
        "electoralDistricts": [
          {
            "election": null,
            "id": 17,
            "name": "Carleton"
          }
        ],
        "pollDivisionIds": [
          10137480
        ],
        "postalCode": "K2S0H4",
        "streetName": "CHEROKEE",
        "streetDirectionId": null,
        "streetTypeId": "WAY",
        "placeName": "STITTSVILLE",
        "streetNameDisplayText": "CHEROKEE WAY, STITTSVILLE"
      },
      {
        "electoralDistricts": [
          {
            "election": null,
            "id": 17,
            "name": "Carleton"
          }
        ],
        "pollDivisionIds": [
          10137480
        ],
        "postalCode": "K2S0H4",
        "streetName": "MOJAVE",
        "streetDirectionId": null,
        "streetTypeId": "CRES",
        "placeName": "STITTSVILLE",
        "streetNameDisplayText": "MOJAVE CRES, STITTSVILLE"
      }
    ]
  },
  {
    "postal": "K2S2T1",
    "result": []
  },
  {
    "postal": "K2S1B1",
    "result": [
      {
        "electoralDistricts": [
          {
            "election": null,
            "id": 17,
            "name": "Carleton"
          }
        ],
        "pollDivisionIds": [
          10137483
        ],
        "postalCode": "K2S1B1",
        "streetName": "HOBIN",
        "streetDirectionId": null,
        "streetTypeId": "ST",
        "placeName": "STITTSVILLE",
        "streetNameDisplayText": "HOBIN ST, STITTSVILLE"
      },
      {
        "electoralDistricts": [
          {
            "election": null,
            "id": 17,
            "name": "Carleton"
          }
        ],
        "pollDivisionIds": [
          10137484,
          10137486
        ],
        "postalCode": "K2S1B1",
        "streetName": "STITTSVILLE MAIN",
        "streetDirectionId": null,
        "streetTypeId": "ST",
        "placeName": "STITTSVILLE",
        "streetNameDisplayText": "STITTSVILLE MAIN ST, STITTSVILLE"
      }
    ]
  },
  {
    "postal": "K2S8B6",
    "result": []
  },
  {
    "postal": "K2S6H1",
    "result": []
  },
  {
    "postal": "K2S8T8",
    "result": []
  },
  {
    "postal": "K2S0T4",
    "result": [
      {
        "electoralDistricts": [
          {
            "election": null,
            "id": 17,
            "name": "Carleton"
          }
        ],
        "pollDivisionIds": [
          10137485
        ],
        "postalCode": "K2S0T4",
        "streetName": "WEST RIDGE",
        "streetDirectionId": null,
        "streetTypeId": "DR",
        "placeName": "STITTSVILLE",
        "streetNameDisplayText": "WEST RIDGE DR, STITTSVILLE"
      },
      {
        "electoralDistricts": [
          {
            "election": null,
            "id": 17,
            "name": "Carleton"
          }
        ],
        "pollDivisionIds": [
          10137485
        ],
        "postalCode": "K2S0T4",
        "streetName": "WESTRIDGE",
        "streetDirectionId": null,
        "streetTypeId": "DR",
        "placeName": "STITTSVILLE",
        "streetNameDisplayText": "WESTRIDGE DR, STITTSVILLE"
      },
      {
        "electoralDistricts": [
          {
            "election": null,
            "id": 17,
            "name": "Carleton"
          }
        ],
        "pollDivisionIds": [
          10137485
        ],
        "postalCode": "K2S0T4",
        "streetName": "WOODHURST",
        "streetDirectionId": null,
        "streetTypeId": "CRES",
        "placeName": "STITTSVILLE",
        "streetNameDisplayText": "WOODHURST CRES, STITTSVILLE"
      }
    ]
  },
  {
    "postal": "K2S2C4",
    "result": [
      {
        "electoralDistricts": [
          {
            "election": null,
            "id": 17,
            "name": "Carleton"
          }
        ],
        "pollDivisionIds": [
          10137480
        ],
        "postalCode": "K2S2C4",
        "streetName": "ABACA",
        "streetDirectionId": null,
        "streetTypeId": "WAY",
        "placeName": "STITTSVILLE",
        "streetNameDisplayText": "ABACA WAY, STITTSVILLE"
      }
    ]
  },
  {
    "postal": "K2S8N3",
    "result": []
  },
  {
    "postal": "K2S4L8",
    "result": []
  },
  {
    "postal": "K2S2B5",
    "result": [
      {
        "electoralDistricts": [
          {
            "election": null,
            "id": 17,
            "name": "Carleton"
          }
        ],
        "pollDivisionIds": [
          10137486
        ],
        "postalCode": "K2S2B5",
        "streetName": "FRIENDLY",
        "streetDirectionId": null,
        "streetTypeId": "CRES",
        "placeName": "STITTSVILLE",
        "streetNameDisplayText": "FRIENDLY CRES, STITTSVILLE"
      },
      {
        "electoralDistricts": [
          {
            "election": null,
            "id": 17,
            "name": "Carleton"
          }
        ],
        "pollDivisionIds": [
          10137486
        ],
        "postalCode": "K2S2B5",
        "streetName": "HARTSMERE",
        "streetDirectionId": null,
        "streetTypeId": "DR",
        "placeName": "STITTSVILLE",
        "streetNameDisplayText": "HARTSMERE DR, STITTSVILLE"
      },
      {
        "electoralDistricts": [
          {
            "election": null,
            "id": 17,
            "name": "Carleton"
          }
        ],
        "pollDivisionIds": [
          10137486
        ],
        "postalCode": "K2S2B5",
        "streetName": "HOPETOWN",
        "streetDirectionId": null,
        "streetTypeId": "ST",
        "placeName": "STITTSVILLE",
        "streetNameDisplayText": "HOPETOWN ST, STITTSVILLE"
      },
      {
        "electoralDistricts": [
          {
            "election": null,
            "id": 17,
            "name": "Carleton"
          }
        ],
        "pollDivisionIds": [
          10137486
        ],
        "postalCode": "K2S2B5",
        "streetName": "SHINING STAR",
        "streetDirectionId": null,
        "streetTypeId": "CIR",
        "placeName": "STITTSVILLE",
        "streetNameDisplayText": "SHINING STAR CIR, STITTSVILLE"
      }
    ]
  },
  {
    "postal": "K2S3H1",
    "result": []
  },
  {
    "postal": "K2S4Y1",
    "result": []
  },
  {
    "postal": "K2S7E2",
    "result": []
  },
  {
    "postal": "K2S2P5",
    "result": []
  },
  {
    "postal": "K2S8R7",
    "result": []
  },
  {
    "postal": "K2S9P1",
    "result": []
  },
  {
    "postal": "K2S3B8",
    "result": []
  },
  {
    "postal": "K2S3P7",
    "result": []
  },
  {
    "postal": "K2S9B2",
    "result": []
  },
  {
    "postal": "K2S6Z3",
    "result": []
  },
  {
    "postal": "K2S4N5",
    "result": []
  },
  {
    "postal": "K2S8T3",
    "result": []
  },
  {
    "postal": "K2S1V2",
    "result": [
      {
        "electoralDistricts": [
          {
            "election": null,
            "id": 17,
            "name": "Carleton"
          }
        ],
        "pollDivisionIds": [
          10137486
        ],
        "postalCode": "K2S1V2",
        "streetName": "BRAD'S",
        "streetDirectionId": null,
        "streetTypeId": "CRT",
        "placeName": "STITTSVILLE",
        "streetNameDisplayText": "BRAD'S CRT, STITTSVILLE"
      },
      {
        "electoralDistricts": [
          {
            "election": null,
            "id": 17,
            "name": "Carleton"
          }
        ],
        "pollDivisionIds": [
          10137486
        ],
        "postalCode": "K2S1V2",
        "streetName": "FORESTGROVE",
        "streetDirectionId": null,
        "streetTypeId": "DR",
        "placeName": "STITTSVILLE",
        "streetNameDisplayText": "FORESTGROVE DR, STITTSVILLE"
      }
    ]
  },
  {
    "postal": "K2S1Y0",
    "result": []
  },
  {
    "postal": "K2S3G6",
    "result": []
  },
  {
    "postal": "K2S3H7",
    "result": []
  },
  {
    "postal": "K2S7X8",
    "result": []
  },
  {
    "postal": "K2S0C7",
    "result": [
      {
        "electoralDistricts": [
          {
            "election": null,
            "id": 17,
            "name": "Carleton"
          }
        ],
        "pollDivisionIds": [
          10137480
        ],
        "postalCode": "K2S0C7",
        "streetName": "B STITTSVILLE MAIN",
        "streetDirectionId": null,
        "streetTypeId": "ST",
        "placeName": "STITTSVILLE",
        "streetNameDisplayText": "B STITTSVILLE MAIN ST, STITTSVILLE"
      },
      {
        "electoralDistricts": [
          {
            "election": null,
            "id": 17,
            "name": "Carleton"
          }
        ],
        "pollDivisionIds": [
          10137480
        ],
        "postalCode": "K2S0C7",
        "streetName": "C STITTSVILLE MAIN",
        "streetDirectionId": null,
        "streetTypeId": "ST",
        "placeName": "STITTSVILLE",
        "streetNameDisplayText": "C STITTSVILLE MAIN ST, STITTSVILLE"
      },
      {
        "electoralDistricts": [
          {
            "election": null,
            "id": 17,
            "name": "Carleton"
          }
        ],
        "pollDivisionIds": [
          10137480
        ],
        "postalCode": "K2S0C7",
        "streetName": "D STITTSVILLE MAIN",
        "streetDirectionId": null,
        "streetTypeId": "ST",
        "placeName": "STITTSVILLE",
        "streetNameDisplayText": "D STITTSVILLE MAIN ST, STITTSVILLE"
      },
      {
        "electoralDistricts": [
          {
            "election": null,
            "id": 17,
            "name": "Carleton"
          }
        ],
        "pollDivisionIds": [
          10137480
        ],
        "postalCode": "K2S0C7",
        "streetName": "H STITTSVILLE MAIN",
        "streetDirectionId": null,
        "streetTypeId": "ST",
        "placeName": "STITTSVILLE",
        "streetNameDisplayText": "H STITTSVILLE MAIN ST, STITTSVILLE"
      },
      {
        "electoralDistricts": [
          {
            "election": null,
            "id": 17,
            "name": "Carleton"
          }
        ],
        "pollDivisionIds": [
          10137480
        ],
        "postalCode": "K2S0C7",
        "streetName": "J STITTSVILLE MAIN",
        "streetDirectionId": null,
        "streetTypeId": "ST",
        "placeName": "STITTSVILLE",
        "streetNameDisplayText": "J STITTSVILLE MAIN ST, STITTSVILLE"
      },
      {
        "electoralDistricts": [
          {
            "election": null,
            "id": 17,
            "name": "Carleton"
          }
        ],
        "pollDivisionIds": [
          10137480
        ],
        "postalCode": "K2S0C7",
        "streetName": "L STITTSVILLE MAIN",
        "streetDirectionId": null,
        "streetTypeId": "ST",
        "placeName": "STITTSVILLE",
        "streetNameDisplayText": "L STITTSVILLE MAIN ST, STITTSVILLE"
      },
      {
        "electoralDistricts": [
          {
            "election": null,
            "id": 17,
            "name": "Carleton"
          }
        ],
        "pollDivisionIds": [
          10137480
        ],
        "postalCode": "K2S0C7",
        "streetName": "MAIN",
        "streetDirectionId": null,
        "streetTypeId": "ST",
        "placeName": "STITTSVILLE",
        "streetNameDisplayText": "MAIN ST, STITTSVILLE"
      },
      {
        "electoralDistricts": [
          {
            "election": null,
            "id": 17,
            "name": "Carleton"
          }
        ],
        "pollDivisionIds": [
          10137480
        ],
        "postalCode": "K2S0C7",
        "streetName": "STITTSVILLE MAIN",
        "streetDirectionId": null,
        "streetTypeId": "ST",
        "placeName": "STITTSVILLE",
        "streetNameDisplayText": "STITTSVILLE MAIN ST, STITTSVILLE"
      },
      {
        "electoralDistricts": [
          {
            "election": null,
            "id": 17,
            "name": "Carleton"
          }
        ],
        "pollDivisionIds": [
          10137480
        ],
        "postalCode": "K2S0C7",
        "streetName": "STITTSVILLE MAIN ST.-PARKING",
        "streetDirectionId": null,
        "streetTypeId": "ST",
        "placeName": "STITTSVILLE",
        "streetNameDisplayText": "STITTSVILLE MAIN ST.-PARKING ST, STITTSVILLE"
      }
    ]
  },
  {
    "postal": "K2S0W9",
    "result": [
      {
        "electoralDistricts": [
          {
            "election": null,
            "id": 17,
            "name": "Carleton"
          }
        ],
        "pollDivisionIds": [
          10137481
        ],
        "postalCode": "K2S0W9",
        "streetName": "ESCALLONIA",
        "streetDirectionId": null,
        "streetTypeId": "CRT",
        "placeName": "STITTSVILLE",
        "streetNameDisplayText": "ESCALLONIA CRT, STITTSVILLE"
      },
      {
        "electoralDistricts": [
          {
            "election": null,
            "id": 17,
            "name": "Carleton"
          }
        ],
        "pollDivisionIds": [
          10137481
        ],
        "postalCode": "K2S0W9",
        "streetName": "SANTOLINA",
        "streetDirectionId": null,
        "streetTypeId": "ST",
        "placeName": "STITTSVILLE",
        "streetNameDisplayText": "SANTOLINA ST, STITTSVILLE"
      }
    ]
  },
  {
    "postal": "K2S8E6",
    "result": []
  },
  {
    "postal": "K2S9Z8",
    "result": []
  },
  {
    "postal": "K2S3P4",
    "result": []
  },
  {
    "postal": "K2S6L8",
    "result": []
  },
  {
    "postal": "K2S2R4",
    "result": []
  },
  {
    "postal": "K2S2W1",
    "result": []
  },
  {
    "postal": "K2S9H8",
    "result": []
  },
  {
    "postal": "K2S8X9",
    "result": []
  },
  {
    "postal": "K2S7H4",
    "result": []
  },
  {
    "postal": "K2S3J1",
    "result": []
  },
  {
    "postal": "K2S1P4",
    "result": [
      {
        "electoralDistricts": [
          {
            "election": null,
            "id": 17,
            "name": "Carleton"
          }
        ],
        "pollDivisionIds": [
          10137485
        ],
        "postalCode": "K2S1P4",
        "streetName": "CORDUKES",
        "streetDirectionId": null,
        "streetTypeId": "ST",
        "placeName": "STITTSVILLE",
        "streetNameDisplayText": "CORDUKES ST, STITTSVILLE"
      },
      {
        "electoralDistricts": [
          {
            "election": null,
            "id": 17,
            "name": "Carleton"
          }
        ],
        "pollDivisionIds": [
          10137485
        ],
        "postalCode": "K2S1P4",
        "streetName": "HENRY GOULBURN",
        "streetDirectionId": null,
        "streetTypeId": "WAY",
        "placeName": "STITTSVILLE",
        "streetNameDisplayText": "HENRY GOULBURN WAY, STITTSVILLE"
      },
      {
        "electoralDistricts": [
          {
            "election": null,
            "id": 17,
            "name": "Carleton"
          }
        ],
        "pollDivisionIds": [
          10137485
        ],
        "postalCode": "K2S1P4",
        "streetName": "TURTLEBACK",
        "streetDirectionId": null,
        "streetTypeId": "WAY",
        "placeName": "STITTSVILLE",
        "streetNameDisplayText": "TURTLEBACK WAY, STITTSVILLE"
      }
    ]
  },
  {
    "postal": "K2S2A3",
    "result": [
      {
        "electoralDistricts": [
          {
            "election": null,
            "id": 17,
            "name": "Carleton"
          }
        ],
        "pollDivisionIds": [
          10137485
        ],
        "postalCode": "K2S2A3",
        "streetName": "ELIZA",
        "streetDirectionId": null,
        "streetTypeId": "CRES",
        "placeName": "STITTSVILLE",
        "streetNameDisplayText": "ELIZA CRES, STITTSVILLE"
      }
    ]
  },
  {
    "postal": "K2S0Z1",
    "result": [
      {
        "electoralDistricts": [
          {
            "election": null,
            "id": 17,
            "name": "Carleton"
          }
        ],
        "pollDivisionIds": [
          10137486
        ],
        "postalCode": "K2S0Z1",
        "streetName": "BECKETT",
        "streetDirectionId": null,
        "streetTypeId": "CRES",
        "placeName": "OTTAWA",
        "streetNameDisplayText": "BECKETT CRES, OTTAWA"
      },
      {
        "electoralDistricts": [
          {
            "election": null,
            "id": 17,
            "name": "Carleton"
          }
        ],
        "pollDivisionIds": [
          10137486
        ],
        "postalCode": "K2S0Z1",
        "streetName": "BECKETT",
        "streetDirectionId": null,
        "streetTypeId": "CRES",
        "placeName": "STITTSVILLE",
        "streetNameDisplayText": "BECKETT CRES, STITTSVILLE"
      }
    ]
  },
  {
    "postal": "K2S1C1",
    "result": [
      {
        "electoralDistricts": [
          {
            "election": null,
            "id": 17,
            "name": "Carleton"
          }
        ],
        "pollDivisionIds": [
          10137484
        ],
        "postalCode": "K2S1C1",
        "streetName": "STITTSVILLE MAIN",
        "streetDirectionId": null,
        "streetTypeId": "ST",
        "placeName": "STITTSVILLE",
        "streetNameDisplayText": "STITTSVILLE MAIN ST, STITTSVILLE"
      }
    ]
  },
  {
    "postal": "K2S0H3",
    "result": [
      {
        "electoralDistricts": [
          {
            "election": null,
            "id": 17,
            "name": "Carleton"
          }
        ],
        "pollDivisionIds": [
          10137480
        ],
        "postalCode": "K2S0H3",
        "streetName": "MOJAVE",
        "streetDirectionId": null,
        "streetTypeId": "CRES",
        "placeName": "STITTSVILLE",
        "streetNameDisplayText": "MOJAVE CRES, STITTSVILLE"
      }
    ]
  },
  {
    "postal": "K2S7B0",
    "result": []
  },
  {
    "postal": "K2S5K2",
    "result": []
  },
  {
    "postal": "K2S1E9",
    "result": [
      {
        "electoralDistricts": [
          {
            "election": null,
            "id": 17,
            "name": "Carleton"
          }
        ],
        "pollDivisionIds": [
          10137482,
          10137481
        ],
        "postalCode": "K2S1E9",
        "streetName": "IBER",
        "streetDirectionId": null,
        "streetTypeId": "RD",
        "placeName": "STITTSVILLE",
        "streetNameDisplayText": "IBER RD, STITTSVILLE"
      }
    ]
  },
  {
    "postal": "K2S9W7",
    "result": []
  },
  {
    "postal": "K2S5W6",
    "result": []
  },
  {
    "postal": "K2S6S6",
    "result": []
  },
  {
    "postal": "K2S2P8",
    "result": []
  },
  {
    "postal": "K2S4P8",
    "result": []
  },
  {
    "postal": "K2S0V9",
    "result": [
      {
        "electoralDistricts": [
          {
            "election": null,
            "id": 43,
            "name": "Kanata—Carleton"
          }
        ],
        "pollDivisionIds": [
          10138964
        ],
        "postalCode": "K2S0V9",
        "streetName": "OVERBERG",
        "streetDirectionId": null,
        "streetTypeId": "WAY",
        "placeName": "OTTAWA",
        "streetNameDisplayText": "OVERBERG WAY, OTTAWA"
      },
      {
        "electoralDistricts": [
          {
            "election": null,
            "id": 43,
            "name": "Kanata—Carleton"
          }
        ],
        "pollDivisionIds": [
          10138964
        ],
        "postalCode": "K2S0V9",
        "streetName": "OVERBERG",
        "streetDirectionId": null,
        "streetTypeId": "WAY",
        "placeName": "STITTSVILLE",
        "streetNameDisplayText": "OVERBERG WAY, STITTSVILLE"
      },
      {
        "electoralDistricts": [
          {
            "election": null,
            "id": 43,
            "name": "Kanata—Carleton"
          }
        ],
        "pollDivisionIds": [
          10138964
        ],
        "postalCode": "K2S0V9",
        "streetName": "RIOJA",
        "streetDirectionId": null,
        "streetTypeId": "ST",
        "placeName": "STITTSVILLE",
        "streetNameDisplayText": "RIOJA ST, STITTSVILLE"
      },
      {
        "electoralDistricts": [
          {
            "election": null,
            "id": 43,
            "name": "Kanata—Carleton"
          }
        ],
        "pollDivisionIds": [
          10138964
        ],
        "postalCode": "K2S0V9",
        "streetName": "TULUM",
        "streetDirectionId": null,
        "streetTypeId": "CRES",
        "placeName": "STITTSVILLE",
        "streetNameDisplayText": "TULUM CRES, STITTSVILLE"
      }
    ]
  },
  {
    "postal": "K2S5Y2",
    "result": []
  },
  {
    "postal": "K2S7Z7",
    "result": []
  },
  {
    "postal": "K2S6Y8",
    "result": []
  },
  {
    "postal": "K2S2G7",
    "result": [
      {
        "electoralDistricts": [
          {
            "election": null,
            "id": 17,
            "name": "Carleton"
          }
        ],
        "pollDivisionIds": [
          10137485
        ],
        "postalCode": "K2S2G7",
        "streetName": "BLACK BEAR",
        "streetDirectionId": null,
        "streetTypeId": "WAY",
        "placeName": "STITTSVILLE",
        "streetNameDisplayText": "BLACK BEAR WAY, STITTSVILLE"
      },
      {
        "electoralDistricts": [
          {
            "election": null,
            "id": 17,
            "name": "Carleton"
          }
        ],
        "pollDivisionIds": [
          10137485
        ],
        "postalCode": "K2S2G7",
        "streetName": "WEST RIDGE",
        "streetDirectionId": null,
        "streetTypeId": "DR",
        "placeName": "STITTSVILLE",
        "streetNameDisplayText": "WEST RIDGE DR, STITTSVILLE"
      }
    ]
  },
  {
    "postal": "K2S8C1",
    "result": []
  },
  {
    "postal": "K2S5C5",
    "result": []
  },
  {
    "postal": "K2S2X8",
    "result": []
  },
  {
    "postal": "K2S1W5",
    "result": [
      {
        "electoralDistricts": [
          {
            "election": null,
            "id": 17,
            "name": "Carleton"
          }
        ],
        "pollDivisionIds": [
          10137485
        ],
        "postalCode": "K2S1W5",
        "streetName": "BEECHGROVE",
        "streetDirectionId": null,
        "streetTypeId": "GDNS",
        "placeName": "STITTSVILLE",
        "streetNameDisplayText": "BEECHGROVE GDNS, STITTSVILLE"
      },
      {
        "electoralDistricts": [
          {
            "election": null,
            "id": 17,
            "name": "Carleton"
          }
        ],
        "pollDivisionIds": [
          10137485
        ],
        "postalCode": "K2S1W5",
        "streetName": "CYPRESS",
        "streetDirectionId": null,
        "streetTypeId": "GDNS",
        "placeName": "STITTSVILLE",
        "streetNameDisplayText": "CYPRESS GDNS, STITTSVILLE"
      }
    ]
  },
  {
    "postal": "K2S7G0",
    "result": []
  },
  {
    "postal": "K2S8J8",
    "result": []
  },
  {
    "postal": "K2S3Y0",
    "result": []
  },
  {
    "postal": "K2S9T7",
    "result": []
  },
  {
    "postal": "K2S5P4",
    "result": []
  },
  {
    "postal": "K2S4B0",
    "result": []
  },
  {
    "postal": "K2S9N8",
    "result": []
  },
  {
    "postal": "K2S4A7",
    "result": []
  },
  {
    "postal": "K2S4H9",
    "result": []
  },
  {
    "postal": "K2S6X1",
    "result": []
  },
  {
    "postal": "K2S9Y7",
    "result": []
  },
  {
    "postal": "K2S2Y5",
    "result": []
  },
  {
    "postal": "K2S8L7",
    "result": []
  },
  {
    "postal": "K2S2A8",
    "result": [
      {
        "electoralDistricts": [
          {
            "election": null,
            "id": 17,
            "name": "Carleton"
          }
        ],
        "pollDivisionIds": [
          10137485
        ],
        "postalCode": "K2S2A8",
        "streetName": "SNOWBERRY",
        "streetDirectionId": null,
        "streetTypeId": "WAY",
        "placeName": "STITTSVILLE",
        "streetNameDisplayText": "SNOWBERRY WAY, STITTSVILLE"
      }
    ]
  },
  {
    "postal": "K2S2K9",
    "result": []
  },
  {
    "postal": "K2S3E5",
    "result": []
  },
  {
    "postal": "K2S8N6",
    "result": []
  },
  {
    "postal": "K2S8J4",
    "result": []
  },
  {
    "postal": "K2S4R7",
    "result": []
  },
  {
    "postal": "K2S9K1",
    "result": []
  },
  {
    "postal": "K2S8E1",
    "result": []
  },
  {
    "postal": "K2S0R1",
    "result": [
      {
        "electoralDistricts": [
          {
            "election": null,
            "id": 17,
            "name": "Carleton"
          },
          {
            "election": null,
            "id": 43,
            "name": "Kanata—Carleton"
          }
        ],
        "pollDivisionIds": [
          10137482,
          10138949
        ],
        "postalCode": "K2S0R1",
        "streetName": "GALLANTRY",
        "streetDirectionId": null,
        "streetTypeId": "WAY",
        "placeName": "STITTSVILLE",
        "streetNameDisplayText": "GALLANTRY WAY, STITTSVILLE"
      }
    ]
  },
  {
    "postal": "K2S4J3",
    "result": []
  },
  {
    "postal": "K2S7E7",
    "result": []
  },
  {
    "postal": "K2S0J0",
    "result": []
  },
  {
    "postal": "K2S7R8",
    "result": []
  },
  {
    "postal": "K2S9X0",
    "result": []
  },
  {
    "postal": "K2S7P6",
    "result": []
  },
  {
    "postal": "K2S0R7",
    "result": [
      {
        "electoralDistricts": [
          {
            "election": null,
            "id": 17,
            "name": "Carleton"
          }
        ],
        "pollDivisionIds": [
          10137484
        ],
        "postalCode": "K2S0R7",
        "streetName": "FOREST HEIGHTS",
        "streetDirectionId": null,
        "streetTypeId": "AVE",
        "placeName": "STITTSVILLE",
        "streetNameDisplayText": "FOREST HEIGHTS AVE, STITTSVILLE"
      },
      {
        "electoralDistricts": [
          {
            "election": null,
            "id": 17,
            "name": "Carleton"
          }
        ],
        "pollDivisionIds": [
          10137484
        ],
        "postalCode": "K2S0R7",
        "streetName": "LONG MEADOW",
        "streetDirectionId": null,
        "streetTypeId": "WAY",
        "placeName": "STITTSVILLE",
        "streetNameDisplayText": "LONG MEADOW WAY, STITTSVILLE"
      }
    ]
  },
  {
    "postal": "K2S5W1",
    "result": []
  },
  {
    "postal": "K2S0K4",
    "result": [
      {
        "electoralDistricts": [
          {
            "election": null,
            "id": 17,
            "name": "Carleton"
          }
        ],
        "pollDivisionIds": [
          10137482
        ],
        "postalCode": "K2S0K4",
        "streetName": "SHAWONDASEE",
        "streetDirectionId": null,
        "streetTypeId": "ST",
        "placeName": "STITTSVILLE",
        "streetNameDisplayText": "SHAWONDASEE ST, STITTSVILLE"
      },
      {
        "electoralDistricts": [
          {
            "election": null,
            "id": 17,
            "name": "Carleton"
          }
        ],
        "pollDivisionIds": [
          10137482
        ],
        "postalCode": "K2S0K4",
        "streetName": "TEMPEST",
        "streetDirectionId": null,
        "streetTypeId": "DR",
        "placeName": "STITTSVILLE",
        "streetNameDisplayText": "TEMPEST DR, STITTSVILLE"
      }
    ]
  },
  {
    "postal": "K2S7N9",
    "result": []
  },
  {
    "postal": "K2S1N0",
    "result": []
  },
  {
    "postal": "K2S6P3",
    "result": []
  },
  {
    "postal": "K2S5A1",
    "result": []
  },
  {
    "postal": "K2S9M9",
    "result": []
  },
  {
    "postal": "K2S7T6",
    "result": []
  },
  {
    "postal": "K2S3X0",
    "result": []
  },
  {
    "postal": "K2S2T0",
    "result": []
  },
  {
    "postal": "K2S5X9",
    "result": []
  },
  {
    "postal": "K2S2R3",
    "result": [
      {
        "electoralDistricts": [
          {
            "election": null,
            "id": 17,
            "name": "Carleton"
          }
        ],
        "pollDivisionIds": [
          10137482
        ],
        "postalCode": "K2S2R3",
        "streetName": "HARMATTAN",
        "streetDirectionId": null,
        "streetTypeId": "AVE",
        "placeName": "STITTSVILLE",
        "streetNameDisplayText": "HARMATTAN AVE, STITTSVILLE"
      }
    ]
  },
  {
    "postal": "K2S5N2",
    "result": []
  },
  {
    "postal": "K2S4Y7",
    "result": []
  },
  {
    "postal": "K2S7M0",
    "result": []
  },
  {
    "postal": "K2S8P3",
    "result": []
  },
  {
    "postal": "K2S3N3",
    "result": []
  },
  {
    "postal": "K2S7S3",
    "result": []
  },
  {
    "postal": "K2S3V9",
    "result": []
  },
  {
    "postal": "K2S9N7",
    "result": []
  },
  {
    "postal": "K2S0G4",
    "result": []
  },
  {
    "postal": "K2S2E2",
    "result": [
      {
        "electoralDistricts": [
          {
            "election": null,
            "id": 17,
            "name": "Carleton"
          }
        ],
        "pollDivisionIds": [
          10137480
        ],
        "postalCode": "K2S2E2",
        "streetName": "WILDERNESS",
        "streetDirectionId": null,
        "streetTypeId": "WAY",
        "placeName": "STITTSVILLE",
        "streetNameDisplayText": "WILDERNESS WAY, STITTSVILLE"
      }
    ]
  },
  {
    "postal": "K2S7W8",
    "result": []
  },
  {
    "postal": "K2S7M5",
    "result": []
  },
  {
    "postal": "K2S5W8",
    "result": []
  },
  {
    "postal": "K2S5E5",
    "result": []
  },
  {
    "postal": "K2S1P9",
    "result": [
      {
        "electoralDistricts": [
          {
            "election": null,
            "id": 17,
            "name": "Carleton"
          }
        ],
        "pollDivisionIds": [
          10137481
        ],
        "postalCode": "K2S1P9",
        "streetName": "AMY",
        "streetDirectionId": null,
        "streetTypeId": "ST",
        "placeName": "STITTSVILLE",
        "streetNameDisplayText": "AMY ST, STITTSVILLE"
      },
      {
        "electoralDistricts": [
          {
            "election": null,
            "id": 17,
            "name": "Carleton"
          }
        ],
        "pollDivisionIds": [
          10137481
        ],
        "postalCode": "K2S1P9",
        "streetName": "FOREST CREEK",
        "streetDirectionId": null,
        "streetTypeId": "DR",
        "placeName": "STITTSVILLE",
        "streetNameDisplayText": "FOREST CREEK DR, STITTSVILLE"
      },
      {
        "electoralDistricts": [
          {
            "election": null,
            "id": 17,
            "name": "Carleton"
          }
        ],
        "pollDivisionIds": [
          10137481
        ],
        "postalCode": "K2S1P9",
        "streetName": "KATHLEEN",
        "streetDirectionId": null,
        "streetTypeId": "CRES",
        "placeName": "STITTSVILLE",
        "streetNameDisplayText": "KATHLEEN CRES, STITTSVILLE"
      }
    ]
  },
  {
    "postal": "K2S8V8",
    "result": []
  },
  {
    "postal": "K2S9G8",
    "result": []
  },
  {
    "postal": "K2S8H9",
    "result": []
  },
  {
    "postal": "K2S1Z1",
    "result": [
      {
        "electoralDistricts": [
          {
            "election": null,
            "id": 17,
            "name": "Carleton"
          }
        ],
        "pollDivisionIds": [
          10137481
        ],
        "postalCode": "K2S1Z1",
        "streetName": "AMETHYST",
        "streetDirectionId": null,
        "streetTypeId": "CRES",
        "placeName": "STITTSVILLE",
        "streetNameDisplayText": "AMETHYST CRES, STITTSVILLE"
      }
    ]
  },
  {
    "postal": "K2S8M3",
    "result": []
  },
  {
    "postal": "K2S5H6",
    "result": []
  },
  {
    "postal": "K2S7W7",
    "result": []
  },
  {
    "postal": "K2S4L0",
    "result": []
  },
  {
    "postal": "K2S2N1",
    "result": [
      {
        "electoralDistricts": [
          {
            "election": null,
            "id": 17,
            "name": "Carleton"
          }
        ],
        "pollDivisionIds": [
          10137482
        ],
        "postalCode": "K2S2N1",
        "streetName": "CLIO",
        "streetDirectionId": null,
        "streetTypeId": "ST",
        "placeName": "STITTSVILLE",
        "streetNameDisplayText": "CLIO ST, STITTSVILLE"
      },
      {
        "electoralDistricts": [
          {
            "election": null,
            "id": 17,
            "name": "Carleton"
          }
        ],
        "pollDivisionIds": [
          10137482
        ],
        "postalCode": "K2S2N1",
        "streetName": "VIVERA",
        "streetDirectionId": null,
        "streetTypeId": "PL",
        "placeName": "STITTSVILLE",
        "streetNameDisplayText": "VIVERA PL, STITTSVILLE"
      }
    ]
  },
  {
    "postal": "K2S2H4",
    "result": [
      {
        "electoralDistricts": [
          {
            "election": null,
            "id": 17,
            "name": "Carleton"
          }
        ],
        "pollDivisionIds": [
          10137485,
          10137486
        ],
        "postalCode": "K2S2H4",
        "streetName": "HARTSMERE",
        "streetDirectionId": null,
        "streetTypeId": "DR",
        "placeName": "STITTSVILLE",
        "streetNameDisplayText": "HARTSMERE DR, STITTSVILLE"
      },
      {
        "electoralDistricts": [
          {
            "election": null,
            "id": 17,
            "name": "Carleton"
          }
        ],
        "pollDivisionIds": [
          10137485
        ],
        "postalCode": "K2S2H4",
        "streetName": "MONTEROSSA",
        "streetDirectionId": null,
        "streetTypeId": "ST",
        "placeName": "STITTSVILLE",
        "streetNameDisplayText": "MONTEROSSA ST, STITTSVILLE"
      },
      {
        "electoralDistricts": [
          {
            "election": null,
            "id": 17,
            "name": "Carleton"
          }
        ],
        "pollDivisionIds": [
          10137485
        ],
        "postalCode": "K2S2H4",
        "streetName": "UPCOUNTRY",
        "streetDirectionId": null,
        "streetTypeId": "DR",
        "placeName": "STITTSVILLE",
        "streetNameDisplayText": "UPCOUNTRY DR, STITTSVILLE"
      }
    ]
  },
  {
    "postal": "K2S5C8",
    "result": []
  },
  {
    "postal": "K2S8B0",
    "result": []
  },
  {
    "postal": "K2S1T4",
    "result": [
      {
        "electoralDistricts": [
          {
            "election": null,
            "id": 17,
            "name": "Carleton"
          }
        ],
        "pollDivisionIds": [
          10137481
        ],
        "postalCode": "K2S1T4",
        "streetName": "FRINGEWOOD",
        "streetDirectionId": null,
        "streetTypeId": "DR",
        "placeName": "STITTSVILLE",
        "streetNameDisplayText": "FRINGEWOOD DR, STITTSVILLE"
      },
      {
        "electoralDistricts": [
          {
            "election": null,
            "id": 17,
            "name": "Carleton"
          }
        ],
        "pollDivisionIds": [
          10137481
        ],
        "postalCode": "K2S1T4",
        "streetName": "LAZY NOL",
        "streetDirectionId": null,
        "streetTypeId": "CRT",
        "placeName": "STITTSVILLE",
        "streetNameDisplayText": "LAZY NOL CRT, STITTSVILLE"
      }
    ]
  },
  {
    "postal": "K2S7N7",
    "result": []
  },
  {
    "postal": "K2S4L3",
    "result": []
  },
  {
    "postal": "K2S2N2",
    "result": []
  },
  {
    "postal": "K2S4N8",
    "result": []
  },
  {
    "postal": "K2S3M5",
    "result": []
  },
  {
    "postal": "K2S6H7",
    "result": []
  },
  {
    "postal": "K2S8Y8",
    "result": []
  },
  {
    "postal": "K2S5R9",
    "result": []
  },
  {
    "postal": "K2S8G3",
    "result": []
  },
  {
    "postal": "K2S4N7",
    "result": []
  },
  {
    "postal": "K2S0B9",
    "result": [
      {
        "electoralDistricts": [
          {
            "election": null,
            "id": 17,
            "name": "Carleton"
          }
        ],
        "pollDivisionIds": [
          10137480
        ],
        "postalCode": "K2S0B9",
        "streetName": "KIMPTON",
        "streetDirectionId": null,
        "streetTypeId": "DR",
        "placeName": "STITTSVILLE",
        "streetNameDisplayText": "KIMPTON DR, STITTSVILLE"
      },
      {
        "electoralDistricts": [
          {
            "election": null,
            "id": 17,
            "name": "Carleton"
          }
        ],
        "pollDivisionIds": [
          10137480
        ],
        "postalCode": "K2S0B9",
        "streetName": "STITTSVILLE MAIN",
        "streetDirectionId": null,
        "streetTypeId": "ST",
        "placeName": "STITTSVILLE",
        "streetNameDisplayText": "STITTSVILLE MAIN ST, STITTSVILLE"
      }
    ]
  },
  {
    "postal": "K2S9K7",
    "result": []
  },
  {
    "postal": "K2S9K9",
    "result": []
  },
  {
    "postal": "K2S3Z2",
    "result": []
  },
  {
    "postal": "K2S6W7",
    "result": []
  },
  {
    "postal": "K2S0P1",
    "result": [
      {
        "electoralDistricts": [
          {
            "election": null,
            "id": 17,
            "name": "Carleton"
          }
        ],
        "pollDivisionIds": [
          10137480
        ],
        "postalCode": "K2S0P1",
        "streetName": "BENSINGER",
        "streetDirectionId": null,
        "streetTypeId": "WAY",
        "placeName": "STITTSVILLE",
        "streetNameDisplayText": "BENSINGER WAY, STITTSVILLE"
      },
      {
        "electoralDistricts": [
          {
            "election": null,
            "id": 17,
            "name": "Carleton"
          }
        ],
        "pollDivisionIds": [
          10137480
        ],
        "postalCode": "K2S0P1",
        "streetName": "GRENADINE",
        "streetDirectionId": null,
        "streetTypeId": "ST",
        "placeName": "STITTSVILLE",
        "streetNameDisplayText": "GRENADINE ST, STITTSVILLE"
      },
      {
        "electoralDistricts": [
          {
            "election": null,
            "id": 17,
            "name": "Carleton"
          }
        ],
        "pollDivisionIds": [
          10137480
        ],
        "postalCode": "K2S0P1",
        "streetName": "MALOJA",
        "streetDirectionId": null,
        "streetTypeId": "WAY",
        "placeName": "STITTSVILLE",
        "streetNameDisplayText": "MALOJA WAY, STITTSVILLE"
      },
      {
        "electoralDistricts": [
          {
            "election": null,
            "id": 17,
            "name": "Carleton"
          }
        ],
        "pollDivisionIds": [
          10137480
        ],
        "postalCode": "K2S0P1",
        "streetName": "MAPLE GROVE",
        "streetDirectionId": null,
        "streetTypeId": "RD",
        "placeName": "STITTSVILLE",
        "streetNameDisplayText": "MAPLE GROVE RD, STITTSVILLE"
      },
      {
        "electoralDistricts": [
          {
            "election": null,
            "id": 17,
            "name": "Carleton"
          }
        ],
        "pollDivisionIds": [
          10137488,
          10137480
        ],
        "postalCode": "K2S0P1",
        "streetName": "MYKONOS",
        "streetDirectionId": null,
        "streetTypeId": "CRES",
        "placeName": "STITTSVILLE",
        "streetNameDisplayText": "MYKONOS CRES, STITTSVILLE"
      }
    ]
  },
  {
    "postal": "K2S3A0",
    "result": []
  },
  {
    "postal": "K2S8L9",
    "result": []
  },
  {
    "postal": "K2S6X0",
    "result": []
  },
  {
    "postal": "K2S3E9",
    "result": []
  },
  {
    "postal": "K2S0S5",
    "result": []
  },
  {
    "postal": "K2S1A2",
    "result": [
      {
        "electoralDistricts": [
          {
            "election": null,
            "id": 17,
            "name": "Carleton"
          }
        ],
        "pollDivisionIds": [
          10137484
        ],
        "postalCode": "K2S1A2",
        "streetName": "ANDREW ALEXANDER",
        "streetDirectionId": null,
        "streetTypeId": "CRT",
        "placeName": "STITTSVILLE",
        "streetNameDisplayText": "ANDREW ALEXANDER CRT, STITTSVILLE"
      },
      {
        "electoralDistricts": [
          {
            "election": null,
            "id": 17,
            "name": "Carleton"
          }
        ],
        "pollDivisionIds": [
          10137486,
          10137485,
          10137484
        ],
        "postalCode": "K2S1A2",
        "streetName": "STITTSVILLE MAIN",
        "streetDirectionId": null,
        "streetTypeId": "ST",
        "placeName": "STITTSVILLE",
        "streetNameDisplayText": "STITTSVILLE MAIN ST, STITTSVILLE"
      },
      {
        "electoralDistricts": [
          {
            "election": null,
            "id": 17,
            "name": "Carleton"
          }
        ],
        "pollDivisionIds": [
          10137486
        ],
        "postalCode": "K2S1A2",
        "streetName": "STITTSVILLE MAIN",
        "streetDirectionId": null,
        "streetTypeId": null,
        "placeName": "STITTSVILLE",
        "streetNameDisplayText": "STITTSVILLE MAIN, STITTSVILLE"
      }
    ]
  },
  {
    "postal": "K2S5V8",
    "result": []
  },
  {
    "postal": "K2S8C5",
    "result": []
  },
  {
    "postal": "K2S6N0",
    "result": []
  },
  {
    "postal": "K2S9E6",
    "result": []
  },
  {
    "postal": "K2S5J7",
    "result": []
  },
  {
    "postal": "K2S2R2",
    "result": []
  },
  {
    "postal": "K2S0P5",
    "result": [
      {
        "electoralDistricts": [
          {
            "election": null,
            "id": 17,
            "name": "Carleton"
          }
        ],
        "pollDivisionIds": [
          10137482
        ],
        "postalCode": "K2S0P5",
        "streetName": "HAZELDEAN",
        "streetDirectionId": null,
        "streetTypeId": "RD",
        "placeName": "STITTSVILLE",
        "streetNameDisplayText": "HAZELDEAN RD, STITTSVILLE"
      }
    ]
  },
  {
    "postal": "K2S5A7",
    "result": []
  },
  {
    "postal": "K2S1G1",
    "result": [
      {
        "electoralDistricts": [
          {
            "election": null,
            "id": 17,
            "name": "Carleton"
          }
        ],
        "pollDivisionIds": [
          10137480
        ],
        "postalCode": "K2S1G1",
        "streetName": "EAGLE CREST",
        "streetDirectionId": null,
        "streetTypeId": "HTS",
        "placeName": "STITTSVILLE",
        "streetNameDisplayText": "EAGLE CREST HTS, STITTSVILLE"
      }
    ]
  },
  {
    "postal": "K2S9R6",
    "result": []
  },
  {
    "postal": "K2S4Z9",
    "result": []
  },
  {
    "postal": "K2S1V5",
    "result": [
      {
        "electoralDistricts": [
          {
            "election": null,
            "id": 17,
            "name": "Carleton"
          }
        ],
        "pollDivisionIds": [
          10137484
        ],
        "postalCode": "K2S1V5",
        "streetName": "ABBOTT",
        "streetDirectionId": "E",
        "streetTypeId": "ST",
        "placeName": "STITTSVILLE",
        "streetNameDisplayText": "ABBOTT ST E, STITTSVILLE"
      },
      {
        "electoralDistricts": [
          {
            "election": null,
            "id": 17,
            "name": "Carleton"
          }
        ],
        "pollDivisionIds": [
          10137484
        ],
        "postalCode": "K2S1V5",
        "streetName": "ABBOTT",
        "streetDirectionId": "W",
        "streetTypeId": "ST",
        "placeName": "STITTSVILLE",
        "streetNameDisplayText": "ABBOTT ST W, STITTSVILLE"
      }
    ]
  },
  {
    "postal": "K2S9Y5",
    "result": []
  },
  {
    "postal": "K2S1P2",
    "result": [
      {
        "electoralDistricts": [
          {
            "election": null,
            "id": 17,
            "name": "Carleton"
          }
        ],
        "pollDivisionIds": [
          10137485
        ],
        "postalCode": "K2S1P2",
        "streetName": "CRAB TREE",
        "streetDirectionId": null,
        "streetTypeId": "ST",
        "placeName": "STITTSVILLE",
        "streetNameDisplayText": "CRAB TREE ST, STITTSVILLE"
      },
      {
        "electoralDistricts": [
          {
            "election": null,
            "id": 17,
            "name": "Carleton"
          }
        ],
        "pollDivisionIds": [
          10137485
        ],
        "postalCode": "K2S1P2",
        "streetName": "HENRY GOULBURN",
        "streetDirectionId": null,
        "streetTypeId": "WAY",
        "placeName": "STITTSVILLE",
        "streetNameDisplayText": "HENRY GOULBURN WAY, STITTSVILLE"
      },
      {
        "electoralDistricts": [
          {
            "election": null,
            "id": 17,
            "name": "Carleton"
          }
        ],
        "pollDivisionIds": [
          10137485
        ],
        "postalCode": "K2S1P2",
        "streetName": "NORWAY SPRUCE",
        "streetDirectionId": null,
        "streetTypeId": "ST",
        "placeName": "STITTSVILLE",
        "streetNameDisplayText": "NORWAY SPRUCE ST, STITTSVILLE"
      }
    ]
  },
  {
    "postal": "K2S5X0",
    "result": []
  },
  {
    "postal": "K2S7B8",
    "result": []
  },
  {
    "postal": "K2S0C6",
    "result": [
      {
        "electoralDistricts": [
          {
            "election": null,
            "id": 17,
            "name": "Carleton"
          }
        ],
        "pollDivisionIds": [
          10137480
        ],
        "postalCode": "K2S0C6",
        "streetName": "B MAIN",
        "streetDirectionId": null,
        "streetTypeId": "ST",
        "placeName": "STITTSVILLE",
        "streetNameDisplayText": "B MAIN ST, STITTSVILLE"
      },
      {
        "electoralDistricts": [
          {
            "election": null,
            "id": 17,
            "name": "Carleton"
          }
        ],
        "pollDivisionIds": [
          10137480
        ],
        "postalCode": "K2S0C6",
        "streetName": "B STITTSVILLE MAIN",
        "streetDirectionId": null,
        "streetTypeId": "ST",
        "placeName": "STITTSVILLE",
        "streetNameDisplayText": "B STITTSVILLE MAIN ST, STITTSVILLE"
      },
      {
        "electoralDistricts": [
          {
            "election": null,
            "id": 17,
            "name": "Carleton"
          }
        ],
        "pollDivisionIds": [
          10137480
        ],
        "postalCode": "K2S0C6",
        "streetName": "D STITTSVILLE MAIN",
        "streetDirectionId": null,
        "streetTypeId": "ST",
        "placeName": "STITTSVILLE",
        "streetNameDisplayText": "D STITTSVILLE MAIN ST, STITTSVILLE"
      },
      {
        "electoralDistricts": [
          {
            "election": null,
            "id": 17,
            "name": "Carleton"
          }
        ],
        "pollDivisionIds": [
          10137480
        ],
        "postalCode": "K2S0C6",
        "streetName": "K STITTSVILLE MAIN",
        "streetDirectionId": null,
        "streetTypeId": "ST",
        "placeName": "STITTSVILLE",
        "streetNameDisplayText": "K STITTSVILLE MAIN ST, STITTSVILLE"
      },
      {
        "electoralDistricts": [
          {
            "election": null,
            "id": 17,
            "name": "Carleton"
          }
        ],
        "pollDivisionIds": [
          10137480
        ],
        "postalCode": "K2S0C6",
        "streetName": "STITTSVILLE MAIN",
        "streetDirectionId": "E",
        "streetTypeId": "ST",
        "placeName": "STITTSVILLE",
        "streetNameDisplayText": "STITTSVILLE MAIN ST E, STITTSVILLE"
      },
      {
        "electoralDistricts": [
          {
            "election": null,
            "id": 17,
            "name": "Carleton"
          }
        ],
        "pollDivisionIds": [
          10137480
        ],
        "postalCode": "K2S0C6",
        "streetName": "STITTSVILLE MAIN",
        "streetDirectionId": null,
        "streetTypeId": "ST",
        "placeName": "STITTSVILLE",
        "streetNameDisplayText": "STITTSVILLE MAIN ST, STITTSVILLE"
      }
    ]
  },
  {
    "postal": "K2S6G1",
    "result": []
  },
  {
    "postal": "K2S3K3",
    "result": []
  },
  {
    "postal": "K2S9R0",
    "result": []
  },
  {
    "postal": "K2S4R8",
    "result": []
  },
  {
    "postal": "K2S5P9",
    "result": []
  },
  {
    "postal": "K2S8N4",
    "result": []
  },
  {
    "postal": "K2S8H4",
    "result": []
  },
  {
    "postal": "K2S4V1",
    "result": []
  },
  {
    "postal": "K2S1K5",
    "result": [
      {
        "electoralDistricts": [
          {
            "election": null,
            "id": 17,
            "name": "Carleton"
          }
        ],
        "pollDivisionIds": [
          10137486,
          10137485
        ],
        "postalCode": "K2S1K5",
        "streetName": "BAYWOOD",
        "streetDirectionId": null,
        "streetTypeId": "DR",
        "placeName": "STITTSVILLE",
        "streetNameDisplayText": "BAYWOOD DR, STITTSVILLE"
      },
      {
        "electoralDistricts": [
          {
            "election": null,
            "id": 17,
            "name": "Carleton"
          }
        ],
        "pollDivisionIds": [
          10137486
        ],
        "postalCode": "K2S1K5",
        "streetName": "BRIGHTSIDE",
        "streetDirectionId": null,
        "streetTypeId": "AVE",
        "placeName": "STITTSVILLE",
        "streetNameDisplayText": "BRIGHTSIDE AVE, STITTSVILLE"
      },
      {
        "electoralDistricts": [
          {
            "election": null,
            "id": 17,
            "name": "Carleton"
          }
        ],
        "pollDivisionIds": [
          10137486
        ],
        "postalCode": "K2S1K5",
        "streetName": "JAMES LEWIS",
        "streetDirectionId": null,
        "streetTypeId": "AVE",
        "placeName": "STITTSVILLE",
        "streetNameDisplayText": "JAMES LEWIS AVE, STITTSVILLE"
      }
    ]
  },
  {
    "postal": "K2S1Z5",
    "result": [
      {
        "electoralDistricts": [
          {
            "election": null,
            "id": 17,
            "name": "Carleton"
          }
        ],
        "pollDivisionIds": [
          10137480
        ],
        "postalCode": "K2S1Z5",
        "streetName": "KITTIWAKE",
        "streetDirectionId": null,
        "streetTypeId": "DR",
        "placeName": "STITTSVILLE",
        "streetNameDisplayText": "KITTIWAKE DR, STITTSVILLE"
      },
      {
        "electoralDistricts": [
          {
            "election": null,
            "id": 17,
            "name": "Carleton"
          }
        ],
        "pollDivisionIds": [
          10137480
        ],
        "postalCode": "K2S1Z5",
        "streetName": "SUNDEW",
        "streetDirectionId": null,
        "streetTypeId": "CRT",
        "placeName": "STITTSVILLE",
        "streetNameDisplayText": "SUNDEW CRT, STITTSVILLE"
      }
    ]
  },
  {
    "postal": "K2S9L9",
    "result": []
  },
  {
    "postal": "K2S5L2",
    "result": []
  },
  {
    "postal": "K2S0M2",
    "result": [
      {
        "electoralDistricts": [
          {
            "election": null,
            "id": 17,
            "name": "Carleton"
          }
        ],
        "pollDivisionIds": [
          10137480
        ],
        "postalCode": "K2S0M2",
        "streetName": "MAPLE GROVE",
        "streetDirectionId": null,
        "streetTypeId": "RD",
        "placeName": "STITTSVILLE",
        "streetNameDisplayText": "MAPLE GROVE RD, STITTSVILLE"
      }
    ]
  },
  {
    "postal": "K2S1K8",
    "result": [
      {
        "electoralDistricts": [
          {
            "election": null,
            "id": 17,
            "name": "Carleton"
          }
        ],
        "pollDivisionIds": [
          10137481
        ],
        "postalCode": "K2S1K8",
        "streetName": "MIKA",
        "streetDirectionId": null,
        "streetTypeId": "ST",
        "placeName": "STITTSVILLE",
        "streetNameDisplayText": "MIKA ST, STITTSVILLE"
      }
    ]
  },
  {
    "postal": "K2S3M7",
    "result": []
  },
  {
    "postal": "K2S1B2",
    "result": [
      {
        "electoralDistricts": [
          {
            "election": null,
            "id": 17,
            "name": "Carleton"
          }
        ],
        "pollDivisionIds": [
          10137484
        ],
        "postalCode": "K2S1B2",
        "streetName": "ANDREW ALEXANDER",
        "streetDirectionId": null,
        "streetTypeId": "CRT",
        "placeName": "STITTSVILLE",
        "streetNameDisplayText": "ANDREW ALEXANDER CRT, STITTSVILLE"
      },
      {
        "electoralDistricts": [
          {
            "election": null,
            "id": 17,
            "name": "Carleton"
          }
        ],
        "pollDivisionIds": [
          10137484,
          10137485
        ],
        "postalCode": "K2S1B2",
        "streetName": "STITTSVILLE MAIN",
        "streetDirectionId": null,
        "streetTypeId": "ST",
        "placeName": "STITTSVILLE",
        "streetNameDisplayText": "STITTSVILLE MAIN ST, STITTSVILLE"
      }
    ]
  },
  {
    "postal": "K2S0H9",
    "result": [
      {
        "electoralDistricts": [
          {
            "election": null,
            "id": 43,
            "name": "Kanata—Carleton"
          }
        ],
        "pollDivisionIds": [
          10138964
        ],
        "postalCode": "K2S0H9",
        "streetName": "BRIGITTA",
        "streetDirectionId": null,
        "streetTypeId": "ST",
        "placeName": "KANATA",
        "streetNameDisplayText": "BRIGITTA ST, KANATA"
      }
    ]
  },
  {
    "postal": "K2S8M4",
    "result": []
  },
  {
    "postal": "K2S2M5",
    "result": []
  },
  {
    "postal": "K2S0T9",
    "result": [
      {
        "electoralDistricts": [
          {
            "election": null,
            "id": 17,
            "name": "Carleton"
          }
        ],
        "pollDivisionIds": [
          10137484
        ],
        "postalCode": "K2S0T9",
        "streetName": "REVERIE",
        "streetDirectionId": null,
        "streetTypeId": "PVT",
        "placeName": "STITTSVILLE",
        "streetNameDisplayText": "REVERIE PVT, STITTSVILLE"
      }
    ]
  },
  {
    "postal": "K2S3P1",
    "result": []
  },
  {
    "postal": "K2S1R6",
    "result": [
      {
        "electoralDistricts": [
          {
            "election": null,
            "id": 17,
            "name": "Carleton"
          }
        ],
        "pollDivisionIds": [
          10137484
        ],
        "postalCode": "K2S1R6",
        "streetName": "GLEN ABBEY",
        "streetDirectionId": null,
        "streetTypeId": "CRES",
        "placeName": "STITTSVILLE",
        "streetNameDisplayText": "GLEN ABBEY CRES, STITTSVILLE"
      },
      {
        "electoralDistricts": [
          {
            "election": null,
            "id": 17,
            "name": "Carleton"
          }
        ],
        "pollDivisionIds": [
          10137484
        ],
        "postalCode": "K2S1R6",
        "streetName": "SPYGLASS",
        "streetDirectionId": null,
        "streetTypeId": "RIDGE",
        "placeName": "STITTSVILLE",
        "streetNameDisplayText": "SPYGLASS RIDGE, STITTSVILLE"
      }
    ]
  },
  {
    "postal": "K2S9V5",
    "result": []
  },
  {
    "postal": "K2S9T0",
    "result": []
  },
  {
    "postal": "K2S0A9",
    "result": [
      {
        "electoralDistricts": [
          {
            "election": null,
            "id": 17,
            "name": "Carleton"
          }
        ],
        "pollDivisionIds": [
          10137482
        ],
        "postalCode": "K2S0A9",
        "streetName": "TALLTREE",
        "streetDirectionId": null,
        "streetTypeId": "CRES",
        "placeName": "STITTSVILLE",
        "streetNameDisplayText": "TALLTREE CRES, STITTSVILLE"
      }
    ]
  },
  {
    "postal": "K2S1M3",
    "result": [
      {
        "electoralDistricts": [
          {
            "election": null,
            "id": 17,
            "name": "Carleton"
          }
        ],
        "pollDivisionIds": [
          10137481
        ],
        "postalCode": "K2S1M3",
        "streetName": "EILEEN",
        "streetDirectionId": null,
        "streetTypeId": "CRES",
        "placeName": "STITTSVILLE",
        "streetNameDisplayText": "EILEEN CRES, STITTSVILLE"
      },
      {
        "electoralDistricts": [
          {
            "election": null,
            "id": 17,
            "name": "Carleton"
          }
        ],
        "pollDivisionIds": [
          10137480,
          10137481
        ],
        "postalCode": "K2S1M3",
        "streetName": "FOREST CREEK",
        "streetDirectionId": null,
        "streetTypeId": "DR",
        "placeName": "STITTSVILLE",
        "streetNameDisplayText": "FOREST CREEK DR, STITTSVILLE"
      }
    ]
  },
  {
    "postal": "K2S1W8",
    "result": [
      {
        "electoralDistricts": [
          {
            "election": null,
            "id": 17,
            "name": "Carleton"
          }
        ],
        "pollDivisionIds": [
          10137483
        ],
        "postalCode": "K2S1W8",
        "streetName": "SABLE RUN",
        "streetDirectionId": null,
        "streetTypeId": "DR",
        "placeName": "STITTSVILLE",
        "streetNameDisplayText": "SABLE RUN DR, STITTSVILLE"
      }
    ]
  },
  {
    "postal": "K2S9J1",
    "result": []
  },
  {
    "postal": "K2S8N5",
    "result": []
  },
  {
    "postal": "K2S5X1",
    "result": []
  },
  {
    "postal": "K2S6S2",
    "result": []
  },
  {
    "postal": "K2S2A2",
    "result": [
      {
        "electoralDistricts": [
          {
            "election": null,
            "id": 17,
            "name": "Carleton"
          }
        ],
        "pollDivisionIds": [
          10137484
        ],
        "postalCode": "K2S2A2",
        "streetName": "AMBERLAKES",
        "streetDirectionId": null,
        "streetTypeId": "DR",
        "placeName": "STITTSVILLE",
        "streetNameDisplayText": "AMBERLAKES DR, STITTSVILLE"
      }
    ]
  },
  {
    "postal": "K2S6A6",
    "result": []
  },
  {
    "postal": "K2S0S3",
    "result": [
      {
        "electoralDistricts": [
          {
            "election": null,
            "id": 17,
            "name": "Carleton"
          }
        ],
        "pollDivisionIds": [
          10137484
        ],
        "postalCode": "K2S0S3",
        "streetName": "BEVERLY",
        "streetDirectionId": null,
        "streetTypeId": "ST",
        "placeName": "STITTSVILLE",
        "streetNameDisplayText": "BEVERLY ST, STITTSVILLE"
      },
      {
        "electoralDistricts": [
          {
            "election": null,
            "id": 17,
            "name": "Carleton"
          }
        ],
        "pollDivisionIds": [
          10137484
        ],
        "postalCode": "K2S0S3",
        "streetName": "CONDUCTOR",
        "streetDirectionId": null,
        "streetTypeId": "AVE",
        "placeName": "STITTSVILLE",
        "streetNameDisplayText": "CONDUCTOR AVE, STITTSVILLE"
      },
      {
        "electoralDistricts": [
          {
            "election": null,
            "id": 17,
            "name": "Carleton"
          }
        ],
        "pollDivisionIds": [
          10137484
        ],
        "postalCode": "K2S0S3",
        "streetName": "PULLMAN",
        "streetDirectionId": null,
        "streetTypeId": "AVE",
        "placeName": "STITTSVILLE",
        "streetNameDisplayText": "PULLMAN AVE, STITTSVILLE"
      }
    ]
  },
  {
    "postal": "K2S3E7",
    "result": []
  },
  {
    "postal": "K2S5R7",
    "result": []
  },
  {
    "postal": "K2S3R6",
    "result": []
  },
  {
    "postal": "K2S6K4",
    "result": []
  },
  {
    "postal": "K2S2W5",
    "result": []
  },
  {
    "postal": "K2S8W4",
    "result": []
  },
  {
    "postal": "K2S9C2",
    "result": []
  },
  {
    "postal": "K2S2C0",
    "result": []
  },
  {
    "postal": "K2S0E1",
    "result": [
      {
        "electoralDistricts": [
          {
            "election": null,
            "id": 17,
            "name": "Carleton"
          }
        ],
        "pollDivisionIds": [
          10137485
        ],
        "postalCode": "K2S0E1",
        "streetName": "EVELYN POWERS",
        "streetDirectionId": null,
        "streetTypeId": "PVT",
        "placeName": "STITTSVILLE",
        "streetNameDisplayText": "EVELYN POWERS PVT, STITTSVILLE"
      }
    ]
  },
  {
    "postal": "K2S1K9",
    "result": [
      {
        "electoralDistricts": [
          {
            "election": null,
            "id": 17,
            "name": "Carleton"
          }
        ],
        "pollDivisionIds": [
          10137481
        ],
        "postalCode": "K2S1K9",
        "streetName": "KINALEA",
        "streetDirectionId": null,
        "streetTypeId": "CRES",
        "placeName": "STITTSVILLE",
        "streetNameDisplayText": "KINALEA CRES, STITTSVILLE"
      }
    ]
  },
  {
    "postal": "K2S1G7",
    "result": [
      {
        "electoralDistricts": [
          {
            "election": null,
            "id": 17,
            "name": "Carleton"
          }
        ],
        "pollDivisionIds": [
          10137483
        ],
        "postalCode": "K2S1G7",
        "streetName": "ALBURY",
        "streetDirectionId": null,
        "streetTypeId": "CRES",
        "placeName": "STITTSVILLE",
        "streetNameDisplayText": "ALBURY CRES, STITTSVILLE"
      },
      {
        "electoralDistricts": [
          {
            "election": null,
            "id": 17,
            "name": "Carleton"
          }
        ],
        "pollDivisionIds": [
          10137483
        ],
        "postalCode": "K2S1G7",
        "streetName": "BASFORD",
        "streetDirectionId": null,
        "streetTypeId": "CRES",
        "placeName": "STITTSVILLE",
        "streetNameDisplayText": "BASFORD CRES, STITTSVILLE"
      },
      {
        "electoralDistricts": [
          {
            "election": null,
            "id": 17,
            "name": "Carleton"
          }
        ],
        "pollDivisionIds": [
          10137483
        ],
        "postalCode": "K2S1G7",
        "streetName": "BELTON",
        "streetDirectionId": null,
        "streetTypeId": "AVE",
        "placeName": "STITTSVILLE",
        "streetNameDisplayText": "BELTON AVE, STITTSVILLE"
      },
      {
        "electoralDistricts": [
          {
            "election": null,
            "id": 17,
            "name": "Carleton"
          }
        ],
        "pollDivisionIds": [
          10137483
        ],
        "postalCode": "K2S1G7",
        "streetName": "DELAMERE",
        "streetDirectionId": null,
        "streetTypeId": "DR",
        "placeName": "STITTSVILLE",
        "streetNameDisplayText": "DELAMERE DR, STITTSVILLE"
      }
    ]
  },
  {
    "postal": "K2S4E9",
    "result": []
  },
  {
    "postal": "K2S9P0",
    "result": []
  },
  {
    "postal": "K2S5H3",
    "result": []
  },
  {
    "postal": "K2S9X6",
    "result": []
  },
  {
    "postal": "K2S5N7",
    "result": []
  },
  {
    "postal": "K2S5A6",
    "result": []
  },
  {
    "postal": "K2S4M0",
    "result": []
  },
  {
    "postal": "K2S3V6",
    "result": []
  },
  {
    "postal": "K2S1L7",
    "result": [
      {
        "electoralDistricts": [
          {
            "election": null,
            "id": 17,
            "name": "Carleton"
          }
        ],
        "pollDivisionIds": [
          10137481
        ],
        "postalCode": "K2S1L7",
        "streetName": "AMY",
        "streetDirectionId": null,
        "streetTypeId": "ST",
        "placeName": "STITTSVILLE",
        "streetNameDisplayText": "AMY ST, STITTSVILLE"
      }
    ]
  },
  {
    "postal": "K2S2P9",
    "result": []
  },
  {
    "postal": "K2S5T4",
    "result": []
  },
  {
    "postal": "K2S5Z1",
    "result": []
  },
  {
    "postal": "K2S2X0",
    "result": []
  },
  {
    "postal": "K2S6Z2",
    "result": []
  },
  {
    "postal": "K2S0E0",
    "result": []
  },
  {
    "postal": "K2S3Z5",
    "result": []
  },
  {
    "postal": "K2S8H3",
    "result": []
  },
  {
    "postal": "K2S7S6",
    "result": []
  },
  {
    "postal": "K2S4C1",
    "result": []
  },
  {
    "postal": "K2S3K2",
    "result": []
  },
  {
    "postal": "K2S1Y5",
    "result": [
      {
        "electoralDistricts": [
          {
            "election": null,
            "id": 17,
            "name": "Carleton"
          }
        ],
        "pollDivisionIds": [
          10137482
        ],
        "postalCode": "K2S1Y5",
        "streetName": "AMMOLITE",
        "streetDirectionId": null,
        "streetTypeId": "ST",
        "placeName": "STITTSVILLE",
        "streetNameDisplayText": "AMMOLITE ST, STITTSVILLE"
      },
      {
        "electoralDistricts": [
          {
            "election": null,
            "id": 17,
            "name": "Carleton"
          }
        ],
        "pollDivisionIds": [
          10137481
        ],
        "postalCode": "K2S1Y5",
        "streetName": "CINNABAR",
        "streetDirectionId": null,
        "streetTypeId": "WAY",
        "placeName": "STITTSVILLE",
        "streetNameDisplayText": "CINNABAR WAY, STITTSVILLE"
      },
      {
        "electoralDistricts": [
          {
            "election": null,
            "id": 17,
            "name": "Carleton"
          }
        ],
        "pollDivisionIds": [
          10137482
        ],
        "postalCode": "K2S1Y5",
        "streetName": "GRAPHITE",
        "streetDirectionId": null,
        "streetTypeId": "RD",
        "placeName": "STITTSVILLE",
        "streetNameDisplayText": "GRAPHITE RD, STITTSVILLE"
      },
      {
        "electoralDistricts": [
          {
            "election": null,
            "id": 17,
            "name": "Carleton"
          }
        ],
        "pollDivisionIds": [
          10137482
        ],
        "postalCode": "K2S1Y5",
        "streetName": "SLATE",
        "streetDirectionId": null,
        "streetTypeId": "ST",
        "placeName": "STITTSVILLE",
        "streetNameDisplayText": "SLATE ST, STITTSVILLE"
      }
    ]
  },
  {
    "postal": "K2S6P6",
    "result": []
  },
  {
    "postal": "K2S3N9",
    "result": []
  },
  {
    "postal": "K2S3W2",
    "result": []
  },
  {
    "postal": "K2S6H8",
    "result": []
  },
  {
    "postal": "K2S9T3",
    "result": []
  },
  {
    "postal": "K2S5L9",
    "result": []
  },
  {
    "postal": "K2S7X7",
    "result": []
  },
  {
    "postal": "K2S3J5",
    "result": []
  },
  {
    "postal": "K2S4J5",
    "result": []
  },
  {
    "postal": "K2S6J2",
    "result": []
  },
  {
    "postal": "K2S5V6",
    "result": []
  },
  {
    "postal": "K2S3N2",
    "result": []
  },
  {
    "postal": "K2S3B1",
    "result": []
  },
  {
    "postal": "K2S8B5",
    "result": []
  },
  {
    "postal": "K2S0K1",
    "result": [
      {
        "electoralDistricts": [
          {
            "election": null,
            "id": 17,
            "name": "Carleton"
          }
        ],
        "pollDivisionIds": [
          10137482
        ],
        "postalCode": "K2S0K1",
        "streetName": "BURNABY",
        "streetDirectionId": null,
        "streetTypeId": "DR",
        "placeName": "STITTSVILLE",
        "streetNameDisplayText": "BURNABY DR, STITTSVILLE"
      },
      {
        "electoralDistricts": [
          {
            "election": null,
            "id": 17,
            "name": "Carleton"
          }
        ],
        "pollDivisionIds": [
          10137482
        ],
        "postalCode": "K2S0K1",
        "streetName": "ETESIAN",
        "streetDirectionId": null,
        "streetTypeId": "ST",
        "placeName": "STITTSVILLE",
        "streetNameDisplayText": "ETESIAN ST, STITTSVILLE"
      }
    ]
  },
  {
    "postal": "K2S7M7",
    "result": []
  },
  {
    "postal": "K2S2M2",
    "result": []
  },
  {
    "postal": "K2S9N3",
    "result": []
  },
  {
    "postal": "K2S4Y8",
    "result": []
  },
  {
    "postal": "K2S3V7",
    "result": []
  },
  {
    "postal": "K2S8Z1",
    "result": []
  },
  {
    "postal": "K2S7B3",
    "result": []
  },
  {
    "postal": "K2S3A8",
    "result": []
  },
  {
    "postal": "K2S7V5",
    "result": []
  },
  {
    "postal": "K2S2T2",
    "result": []
  },
  {
    "postal": "K2S6L3",
    "result": []
  },
  {
    "postal": "K2S0L2",
    "result": [
      {
        "electoralDistricts": [
          {
            "election": null,
            "id": 17,
            "name": "Carleton"
          }
        ],
        "pollDivisionIds": [
          10137486,
          10137484
        ],
        "postalCode": "K2S0L2",
        "streetName": "BARRACKS",
        "streetDirectionId": null,
        "streetTypeId": "WAY",
        "placeName": "STITTSVILLE",
        "streetNameDisplayText": "BARRACKS WAY, STITTSVILLE"
      },
      {
        "electoralDistricts": [
          {
            "election": null,
            "id": 17,
            "name": "Carleton"
          }
        ],
        "pollDivisionIds": [
          10137486
        ],
        "postalCode": "K2S0L2",
        "streetName": "BARRACK'S",
        "streetDirectionId": null,
        "streetTypeId": "WAY",
        "placeName": "STITTSVILLE",
        "streetNameDisplayText": "BARRACK'S WAY, STITTSVILLE"
      },
      {
        "electoralDistricts": [
          {
            "election": null,
            "id": 17,
            "name": "Carleton"
          }
        ],
        "pollDivisionIds": [
          10137486
        ],
        "postalCode": "K2S0L2",
        "streetName": "DALEWOOD",
        "streetDirectionId": null,
        "streetTypeId": "CRES",
        "placeName": "STITTSVILLE",
        "streetNameDisplayText": "DALEWOOD CRES, STITTSVILLE"
      },
      {
        "electoralDistricts": [
          {
            "election": null,
            "id": 17,
            "name": "Carleton"
          }
        ],
        "pollDivisionIds": [
          10137486
        ],
        "postalCode": "K2S0L2",
        "streetName": "WEST RIDGE",
        "streetDirectionId": null,
        "streetTypeId": "DR",
        "placeName": "STITTSVILLE",
        "streetNameDisplayText": "WEST RIDGE DR, STITTSVILLE"
      }
    ]
  },
  {
    "postal": "K2S5Y8",
    "result": []
  },
  {
    "postal": "K2S0B8",
    "result": [
      {
        "electoralDistricts": [
          {
            "election": null,
            "id": 17,
            "name": "Carleton"
          }
        ],
        "pollDivisionIds": [
          10137480
        ],
        "postalCode": "K2S0B8",
        "streetName": "HORSESHOE",
        "streetDirectionId": null,
        "streetTypeId": "CRES",
        "placeName": "STITTSVILLE",
        "streetNameDisplayText": "HORSESHOE CRES, STITTSVILLE"
      }
    ]
  },
  {
    "postal": "K2S6R5",
    "result": []
  },
  {
    "postal": "K2S8W6",
    "result": []
  },
  {
    "postal": "K2S8G6",
    "result": []
  },
  {
    "postal": "K2S6X3",
    "result": []
  },
  {
    "postal": "K2S7R7",
    "result": []
  },
  {
    "postal": "K2S4B6",
    "result": []
  },
  {
    "postal": "K2S3P9",
    "result": []
  },
  {
    "postal": "K2S2T3",
    "result": []
  },
  {
    "postal": "K2S1M4",
    "result": [
      {
        "electoralDistricts": [
          {
            "election": null,
            "id": 17,
            "name": "Carleton"
          }
        ],
        "pollDivisionIds": [
          10137481
        ],
        "postalCode": "K2S1M4",
        "streetName": "FOREST CREEK",
        "streetDirectionId": null,
        "streetTypeId": "DR",
        "placeName": "STITTSVILLE",
        "streetNameDisplayText": "FOREST CREEK DR, STITTSVILLE"
      },
      {
        "electoralDistricts": [
          {
            "election": null,
            "id": 17,
            "name": "Carleton"
          }
        ],
        "pollDivisionIds": [
          10137481
        ],
        "postalCode": "K2S1M4",
        "streetName": "HARRY DOUGLAS",
        "streetDirectionId": null,
        "streetTypeId": "DR",
        "placeName": "STITTSVILLE",
        "streetNameDisplayText": "HARRY DOUGLAS DR, STITTSVILLE"
      },
      {
        "electoralDistricts": [
          {
            "election": null,
            "id": 17,
            "name": "Carleton"
          }
        ],
        "pollDivisionIds": [
          10137481
        ],
        "postalCode": "K2S1M4",
        "streetName": "RANDALL JAMES",
        "streetDirectionId": null,
        "streetTypeId": "DR",
        "placeName": "STITTSVILLE",
        "streetNameDisplayText": "RANDALL JAMES DR, STITTSVILLE"
      }
    ]
  },
  {
    "postal": "K2S0H1",
    "result": [
      {
        "electoralDistricts": [
          {
            "election": null,
            "id": 17,
            "name": "Carleton"
          }
        ],
        "pollDivisionIds": [
          10137482
        ],
        "postalCode": "K2S0H1",
        "streetName": "SONESTA",
        "streetDirectionId": null,
        "streetTypeId": "CIR",
        "placeName": "STITTSVILLE",
        "streetNameDisplayText": "SONESTA CIR, STITTSVILLE"
      }
    ]
  },
  {
    "postal": "K2S9W3",
    "result": []
  },
  {
    "postal": "K2S6P1",
    "result": []
  },
  {
    "postal": "K2S7G2",
    "result": []
  },
  {
    "postal": "K2S4J9",
    "result": []
  },
  {
    "postal": "K2S9E4",
    "result": []
  },
  {
    "postal": "K2S8H0",
    "result": []
  },
  {
    "postal": "K2S4M7",
    "result": []
  },
  {
    "postal": "K2S2G9",
    "result": [
      {
        "electoralDistricts": [
          {
            "election": null,
            "id": 17,
            "name": "Carleton"
          }
        ],
        "pollDivisionIds": [
          10137485
        ],
        "postalCode": "K2S2G9",
        "streetName": "WEST RIDGE",
        "streetDirectionId": null,
        "streetTypeId": "DR",
        "placeName": "STITTSVILLE",
        "streetNameDisplayText": "WEST RIDGE DR, STITTSVILLE"
      }
    ]
  },
  {
    "postal": "K2S8T2",
    "result": []
  },
  {
    "postal": "K2S7G7",
    "result": []
  },
  {
    "postal": "K2S4Z3",
    "result": []
  },
  {
    "postal": "K2S5B3",
    "result": []
  },
  {
    "postal": "K2S1S7",
    "result": []
  },
  {
    "postal": "K2S2N7",
    "result": []
  },
  {
    "postal": "K2S0H8",
    "result": [
      {
        "electoralDistricts": [
          {
            "election": null,
            "id": 43,
            "name": "Kanata—Carleton"
          }
        ],
        "pollDivisionIds": [
          10138964
        ],
        "postalCode": "K2S0H8",
        "streetName": "BRIGITTA",
        "streetDirectionId": null,
        "streetTypeId": "ST",
        "placeName": "KANATA",
        "streetNameDisplayText": "BRIGITTA ST, KANATA"
      },
      {
        "electoralDistricts": [
          {
            "election": null,
            "id": 43,
            "name": "Kanata—Carleton"
          }
        ],
        "pollDivisionIds": [
          10138964
        ],
        "postalCode": "K2S0H8",
        "streetName": "ROMINA",
        "streetDirectionId": null,
        "streetTypeId": "ST",
        "placeName": "KANATA",
        "streetNameDisplayText": "ROMINA ST, KANATA"
      }
    ]
  },
  {
    "postal": "K2S7Z4",
    "result": []
  },
  {
    "postal": "K2S7B1",
    "result": []
  },
  {
    "postal": "K2S7P8",
    "result": []
  },
  {
    "postal": "K2S7N0",
    "result": []
  },
  {
    "postal": "K2S3Y5",
    "result": []
  },
  {
    "postal": "K2S6K1",
    "result": []
  },
  {
    "postal": "K2S9X5",
    "result": []
  },
  {
    "postal": "K2S7S5",
    "result": []
  },
  {
    "postal": "K2S0A4",
    "result": [
      {
        "electoralDistricts": [
          {
            "election": null,
            "id": 17,
            "name": "Carleton"
          }
        ],
        "pollDivisionIds": [
          10137485
        ],
        "postalCode": "K2S0A4",
        "streetName": "LANDSWOOD",
        "streetDirectionId": null,
        "streetTypeId": "WAY",
        "placeName": "STITTSVILLE",
        "streetNameDisplayText": "LANDSWOOD WAY, STITTSVILLE"
      }
    ]
  },
  {
    "postal": "K2S4T5",
    "result": []
  },
  {
    "postal": "K2S5K1",
    "result": []
  },
  {
    "postal": "K2S0Z9",
    "result": [
      {
        "electoralDistricts": [
          {
            "election": null,
            "id": 17,
            "name": "Carleton"
          }
        ],
        "pollDivisionIds": [
          10137480
        ],
        "postalCode": "K2S0Z9",
        "streetName": "DISCOVERY",
        "streetDirectionId": null,
        "streetTypeId": "CRES",
        "placeName": "STITTSVILLE",
        "streetNameDisplayText": "DISCOVERY CRES, STITTSVILLE"
      },
      {
        "electoralDistricts": [
          {
            "election": null,
            "id": 17,
            "name": "Carleton"
          }
        ],
        "pollDivisionIds": [
          10137480
        ],
        "postalCode": "K2S0Z9",
        "streetName": "SAMANTHA EASTOP",
        "streetDirectionId": null,
        "streetTypeId": "AVE",
        "placeName": "STITTSVILLE",
        "streetNameDisplayText": "SAMANTHA EASTOP AVE, STITTSVILLE"
      }
    ]
  },
  {
    "postal": "K2S7T2",
    "result": []
  },
  {
    "postal": "K2S1L5",
    "result": [
      {
        "electoralDistricts": [
          {
            "election": null,
            "id": 17,
            "name": "Carleton"
          }
        ],
        "pollDivisionIds": [
          10137481
        ],
        "postalCode": "K2S1L5",
        "streetName": "KATHLEEN",
        "streetDirectionId": null,
        "streetTypeId": "CRES",
        "placeName": "STITTSVILLE",
        "streetNameDisplayText": "KATHLEEN CRES, STITTSVILLE"
      }
    ]
  },
  {
    "postal": "K2S3N5",
    "result": []
  },
  {
    "postal": "K2S6H4",
    "result": []
  },
  {
    "postal": "K2S5A5",
    "result": []
  },
  {
    "postal": "K2S3R9",
    "result": []
  },
  {
    "postal": "K2S7L8",
    "result": []
  },
  {
    "postal": "K2S6T6",
    "result": []
  },
  {
    "postal": "K2S7Y7",
    "result": []
  },
  {
    "postal": "K2S3M8",
    "result": []
  },
  {
    "postal": "K2S2E0",
    "result": []
  },
  {
    "postal": "K2S4B5",
    "result": []
  },
  {
    "postal": "K2S1J3",
    "result": [
      {
        "electoralDistricts": [
          {
            "election": null,
            "id": 17,
            "name": "Carleton"
          }
        ],
        "pollDivisionIds": [
          10137486
        ],
        "postalCode": "K2S1J3",
        "streetName": "CHERRY",
        "streetDirectionId": null,
        "streetTypeId": "DR",
        "placeName": "STITTSVILLE",
        "streetNameDisplayText": "CHERRY DR, STITTSVILLE"
      },
      {
        "electoralDistricts": [
          {
            "election": null,
            "id": 17,
            "name": "Carleton"
          }
        ],
        "pollDivisionIds": [
          10137486
        ],
        "postalCode": "K2S1J3",
        "streetName": "SPINDLE",
        "streetDirectionId": null,
        "streetTypeId": "WAY",
        "placeName": "STITTSVILLE",
        "streetNameDisplayText": "SPINDLE WAY, STITTSVILLE"
      },
      {
        "electoralDistricts": [
          {
            "election": null,
            "id": 17,
            "name": "Carleton"
          }
        ],
        "pollDivisionIds": [
          10137486
        ],
        "postalCode": "K2S1J3",
        "streetName": "SUNRAY",
        "streetDirectionId": null,
        "streetTypeId": "CRES",
        "placeName": "STITTSVILLE",
        "streetNameDisplayText": "SUNRAY CRES, STITTSVILLE"
      }
    ]
  },
  {
    "postal": "K2S5S6",
    "result": []
  },
  {
    "postal": "K2S8P7",
    "result": []
  },
  {
    "postal": "K2S7S7",
    "result": []
  },
  {
    "postal": "K2S4C2",
    "result": []
  },
  {
    "postal": "K2S5Y0",
    "result": []
  },
  {
    "postal": "K2S2V7",
    "result": []
  },
  {
    "postal": "K2S8P5",
    "result": []
  },
  {
    "postal": "K2S5P5",
    "result": []
  },
  {
    "postal": "K2S5Z0",
    "result": []
  },
  {
    "postal": "K2S9B0",
    "result": []
  },
  {
    "postal": "K2S1L0",
    "result": []
  },
  {
    "postal": "K2S0B5",
    "result": [
      {
        "electoralDistricts": [
          {
            "election": null,
            "id": 17,
            "name": "Carleton"
          }
        ],
        "pollDivisionIds": [
          10137480
        ],
        "postalCode": "K2S0B5",
        "streetName": "HORSESHOE",
        "streetDirectionId": null,
        "streetTypeId": "CRES",
        "placeName": "STITTSVILLE",
        "streetNameDisplayText": "HORSESHOE CRES, STITTSVILLE"
      },
      {
        "electoralDistricts": [
          {
            "election": null,
            "id": 17,
            "name": "Carleton"
          }
        ],
        "pollDivisionIds": [
          10137480
        ],
        "postalCode": "K2S0B5",
        "streetName": "STITTSVILLE MAIN",
        "streetDirectionId": null,
        "streetTypeId": "ST",
        "placeName": "STITTSVILLE",
        "streetNameDisplayText": "STITTSVILLE MAIN ST, STITTSVILLE"
      }
    ]
  },
  {
    "postal": "K2S3L2",
    "result": []
  },
  {
    "postal": "K2S3B7",
    "result": []
  },
  {
    "postal": "K2S8L1",
    "result": []
  },
  {
    "postal": "K2S5M4",
    "result": []
  },
  {
    "postal": "K2S4G9",
    "result": []
  },
  {
    "postal": "K2S0P0",
    "result": []
  },
  {
    "postal": "K2S8G2",
    "result": []
  },
  {
    "postal": "K2S1V9",
    "result": [
      {
        "electoralDistricts": [
          {
            "election": null,
            "id": 17,
            "name": "Carleton"
          }
        ],
        "pollDivisionIds": [
          10137483
        ],
        "postalCode": "K2S1V9",
        "streetName": "LAUMANN",
        "streetDirectionId": null,
        "streetTypeId": "CRT",
        "placeName": "STITTSVILLE",
        "streetNameDisplayText": "LAUMANN CRT, STITTSVILLE"
      },
      {
        "electoralDistricts": [
          {
            "election": null,
            "id": 17,
            "name": "Carleton"
          }
        ],
        "pollDivisionIds": [
          10137483
        ],
        "postalCode": "K2S1V9",
        "streetName": "WOODROW",
        "streetDirectionId": null,
        "streetTypeId": "AVE",
        "placeName": "STITTSVILLE",
        "streetNameDisplayText": "WOODROW AVE, STITTSVILLE"
      }
    ]
  },
  {
    "postal": "K2S8N8",
    "result": []
  },
  {
    "postal": "K2S6S8",
    "result": []
  },
  {
    "postal": "K2S8H2",
    "result": []
  },
  {
    "postal": "K2S5R8",
    "result": []
  },
  {
    "postal": "K2S5L4",
    "result": []
  },
  {
    "postal": "K2S9E1",
    "result": []
  },
  {
    "postal": "K2S1C4",
    "result": [
      {
        "electoralDistricts": [
          {
            "election": null,
            "id": 17,
            "name": "Carleton"
          }
        ],
        "pollDivisionIds": [
          10137484
        ],
        "postalCode": "K2S1C4",
        "streetName": "CONDUCTOR",
        "streetDirectionId": null,
        "streetTypeId": "AVE",
        "placeName": "STITTSVILLE",
        "streetNameDisplayText": "CONDUCTOR AVE, STITTSVILLE"
      },
      {
        "electoralDistricts": [
          {
            "election": null,
            "id": 17,
            "name": "Carleton"
          }
        ],
        "pollDivisionIds": [
          10137484,
          10137483
        ],
        "postalCode": "K2S1C4",
        "streetName": "HOBIN",
        "streetDirectionId": null,
        "streetTypeId": "ST",
        "placeName": "STITTSVILLE",
        "streetNameDisplayText": "HOBIN ST, STITTSVILLE"
      },
      {
        "electoralDistricts": [
          {
            "election": null,
            "id": 17,
            "name": "Carleton"
          }
        ],
        "pollDivisionIds": [
          10137484
        ],
        "postalCode": "K2S1C4",
        "streetName": "JONATHAN PACK",
        "streetDirectionId": null,
        "streetTypeId": "ST",
        "placeName": "STITTSVILLE",
        "streetNameDisplayText": "JONATHAN PACK ST, STITTSVILLE"
      },
      {
        "electoralDistricts": [
          {
            "election": null,
            "id": 17,
            "name": "Carleton"
          }
        ],
        "pollDivisionIds": [
          10137490
        ],
        "postalCode": "K2S1C4",
        "streetName": "LONGRIDGE",
        "streetDirectionId": null,
        "streetTypeId": "CRT",
        "placeName": "RICHMOND",
        "streetNameDisplayText": "LONGRIDGE CRT, RICHMOND"
      },
      {
        "electoralDistricts": [
          {
            "election": null,
            "id": 17,
            "name": "Carleton"
          }
        ],
        "pollDivisionIds": [
          10137484
        ],
        "postalCode": "K2S1C4",
        "streetName": "PULLMAN",
        "streetDirectionId": null,
        "streetTypeId": "AVE",
        "placeName": "STITTSVILLE",
        "streetNameDisplayText": "PULLMAN AVE, STITTSVILLE"
      }
    ]
  },
  {
    "postal": "K2S8W5",
    "result": []
  },
  {
    "postal": "K2S1Y4",
    "result": [
      {
        "electoralDistricts": [
          {
            "election": null,
            "id": 17,
            "name": "Carleton"
          }
        ],
        "pollDivisionIds": [
          10137482,
          10137481
        ],
        "postalCode": "K2S1Y4",
        "streetName": "CINNABAR",
        "streetDirectionId": null,
        "streetTypeId": "WAY",
        "placeName": "STITTSVILLE",
        "streetNameDisplayText": "CINNABAR WAY, STITTSVILLE"
      },
      {
        "electoralDistricts": [
          {
            "election": null,
            "id": 17,
            "name": "Carleton"
          }
        ],
        "pollDivisionIds": [
          10137481
        ],
        "postalCode": "K2S1Y4",
        "streetName": "FELDSPAR",
        "streetDirectionId": null,
        "streetTypeId": "CRES",
        "placeName": "STITTSVILLE",
        "streetNameDisplayText": "FELDSPAR CRES, STITTSVILLE"
      },
      {
        "electoralDistricts": [
          {
            "election": null,
            "id": 17,
            "name": "Carleton"
          }
        ],
        "pollDivisionIds": [
          10137481,
          10137482
        ],
        "postalCode": "K2S1Y4",
        "streetName": "GRANITE RIDGE",
        "streetDirectionId": null,
        "streetTypeId": "DR",
        "placeName": "STITTSVILLE",
        "streetNameDisplayText": "GRANITE RIDGE DR, STITTSVILLE"
      }
    ]
  },
  {
    "postal": "K2S1C0",
    "result": []
  },
  {
    "postal": "K2S2J2",
    "result": [
      {
        "electoralDistricts": [
          {
            "election": null,
            "id": 17,
            "name": "Carleton"
          }
        ],
        "pollDivisionIds": [
          10137480
        ],
        "postalCode": "K2S2J2",
        "streetName": "EAGLEHEAD",
        "streetDirectionId": null,
        "streetTypeId": "CRES",
        "placeName": "STITTSVILLE",
        "streetNameDisplayText": "EAGLEHEAD CRES, STITTSVILLE"
      },
      {
        "electoralDistricts": [
          {
            "election": null,
            "id": 17,
            "name": "Carleton"
          }
        ],
        "pollDivisionIds": [
          10137480
        ],
        "postalCode": "K2S2J2",
        "streetName": "KIMPTON",
        "streetDirectionId": null,
        "streetTypeId": "DR",
        "placeName": "STITTSVILLE",
        "streetNameDisplayText": "KIMPTON DR, STITTSVILLE"
      }
    ]
  },
  {
    "postal": "K2S2J0",
    "result": []
  },
  {
    "postal": "K2S7A3",
    "result": []
  },
  {
    "postal": "K2S8M1",
    "result": []
  },
  {
    "postal": "K2S7T9",
    "result": []
  },
  {
    "postal": "K2S6C0",
    "result": []
  },
  {
    "postal": "K2S7X1",
    "result": []
  },
  {
    "postal": "K2S0G1",
    "result": [
      {
        "electoralDistricts": [
          {
            "election": null,
            "id": 17,
            "name": "Carleton"
          }
        ],
        "pollDivisionIds": [
          10137482
        ],
        "postalCode": "K2S0G1",
        "streetName": "HELM",
        "streetDirectionId": null,
        "streetTypeId": "CIR",
        "placeName": "STITTSVILLE",
        "streetNameDisplayText": "HELM CIR, STITTSVILLE"
      }
    ]
  },
  {
    "postal": "K2S4X2",
    "result": []
  },
  {
    "postal": "K2S0N6",
    "result": [
      {
        "electoralDistricts": [
          {
            "election": null,
            "id": 17,
            "name": "Carleton"
          }
        ],
        "pollDivisionIds": [
          10137480
        ],
        "postalCode": "K2S0N6",
        "streetName": "CAMPOBELLO",
        "streetDirectionId": null,
        "streetTypeId": "DR",
        "placeName": "STITTSVILLE",
        "streetNameDisplayText": "CAMPOBELLO DR, STITTSVILLE"
      },
      {
        "electoralDistricts": [
          {
            "election": null,
            "id": 17,
            "name": "Carleton"
          }
        ],
        "pollDivisionIds": [
          10137480
        ],
        "postalCode": "K2S0N6",
        "streetName": "MALOJA",
        "streetDirectionId": null,
        "streetTypeId": "WAY",
        "placeName": "STITTSVILLE",
        "streetNameDisplayText": "MALOJA WAY, STITTSVILLE"
      }
    ]
  },
  {
    "postal": "K2S8E3",
    "result": []
  },
  {
    "postal": "K2S5S8",
    "result": []
  },
  {
    "postal": "K2S0R0",
    "result": []
  },
  {
    "postal": "K2S6J6",
    "result": []
  },
  {
    "postal": "K2S4B4",
    "result": []
  },
  {
    "postal": "K2S7E3",
    "result": []
  },
  {
    "postal": "K2S3N6",
    "result": []
  },
  {
    "postal": "K2S3X6",
    "result": []
  },
  {
    "postal": "K2S8L0",
    "result": []
  },
  {
    "postal": "K2S8N1",
    "result": []
  },
  {
    "postal": "K2S4J0",
    "result": []
  },
  {
    "postal": "K2S0X7",
    "result": [
      {
        "electoralDistricts": [
          {
            "election": null,
            "id": 17,
            "name": "Carleton"
          }
        ],
        "pollDivisionIds": [
          10137486
        ],
        "postalCode": "K2S0X7",
        "streetName": "PARADE",
        "streetDirectionId": null,
        "streetTypeId": "DR",
        "placeName": "STITTSVILLE",
        "streetNameDisplayText": "PARADE DR, STITTSVILLE"
      }
    ]
  },
  {
    "postal": "K2S6S4",
    "result": []
  },
  {
    "postal": "K2S0Z0",
    "result": []
  },
  {
    "postal": "K2S9X8",
    "result": []
  },
  {
    "postal": "K2S3H3",
    "result": []
  },
  {
    "postal": "K2S7S2",
    "result": []
  },
  {
    "postal": "K2S3T3",
    "result": []
  },
  {
    "postal": "K2S9P3",
    "result": []
  },
  {
    "postal": "K2S4H8",
    "result": []
  },
  {
    "postal": "K2S6R1",
    "result": []
  },
  {
    "postal": "K2S1S0",
    "result": []
  },
  {
    "postal": "K2S3W8",
    "result": []
  },
  {
    "postal": "K2S4S3",
    "result": []
  },
  {
    "postal": "K2S1B6",
    "result": [
      {
        "electoralDistricts": [
          {
            "election": null,
            "id": 17,
            "name": "Carleton"
          }
        ],
        "pollDivisionIds": [
          10137486
        ],
        "postalCode": "K2S1B6",
        "streetName": "BLACK'S SIDE",
        "streetDirectionId": null,
        "streetTypeId": "RD",
        "placeName": "STITTSVILLE",
        "streetNameDisplayText": "BLACK'S SIDE RD, STITTSVILLE"
      },
      {
        "electoralDistricts": [
          {
            "election": null,
            "id": 17,
            "name": "Carleton"
          }
        ],
        "pollDivisionIds": [
          10137487
        ],
        "postalCode": "K2S1B6",
        "streetName": "CONLEY",
        "streetDirectionId": null,
        "streetTypeId": "RD",
        "placeName": "STITTSVILLE",
        "streetNameDisplayText": "CONLEY RD, STITTSVILLE"
      },
      {
        "electoralDistricts": [
          {
            "election": null,
            "id": 17,
            "name": "Carleton"
          }
        ],
        "pollDivisionIds": [
          10137482
        ],
        "postalCode": "K2S1B6",
        "streetName": "FAULKNER",
        "streetDirectionId": null,
        "streetTypeId": "TRAIL",
        "placeName": "STITTSVILLE",
        "streetNameDisplayText": "FAULKNER TRAIL, STITTSVILLE"
      },
      {
        "electoralDistricts": [
          {
            "election": null,
            "id": 43,
            "name": "Kanata—Carleton"
          }
        ],
        "pollDivisionIds": [
          10138964
        ],
        "postalCode": "K2S1B6",
        "streetName": "FERNBANK",
        "streetDirectionId": null,
        "streetTypeId": "RD",
        "placeName": "KANATA",
        "streetNameDisplayText": "FERNBANK RD, KANATA"
      },
      {
        "electoralDistricts": [
          {
            "election": null,
            "id": 17,
            "name": "Carleton"
          },
          {
            "election": null,
            "id": 43,
            "name": "Kanata—Carleton"
          }
        ],
        "pollDivisionIds": [
          10137486,
          10137485,
          10137482,
          10137487,
          10138964
        ],
        "postalCode": "K2S1B6",
        "streetName": "FERNBANK",
        "streetDirectionId": null,
        "streetTypeId": "RD",
        "placeName": "STITTSVILLE",
        "streetNameDisplayText": "FERNBANK RD, STITTSVILLE"
      },
      {
        "electoralDistricts": [
          {
            "election": null,
            "id": 17,
            "name": "Carleton"
          }
        ],
        "pollDivisionIds": [
          10137486
        ],
        "postalCode": "K2S1B6",
        "streetName": "FERNBANK",
        "streetDirectionId": null,
        "streetTypeId": "RD",
        "placeName": "STTITSVILLE",
        "streetNameDisplayText": "FERNBANK RD, STTITSVILLE"
      },
      {
        "electoralDistricts": [
          {
            "election": null,
            "id": 17,
            "name": "Carleton"
          }
        ],
        "pollDivisionIds": [
          10137482,
          10137487,
          10137486
        ],
        "postalCode": "K2S1B6",
        "streetName": "FLEWELLYN",
        "streetDirectionId": null,
        "streetTypeId": "RD",
        "placeName": "STITTSVILLE",
        "streetNameDisplayText": "FLEWELLYN RD, STITTSVILLE"
      },
      {
        "electoralDistricts": [
          {
            "election": null,
            "id": 17,
            "name": "Carleton"
          }
        ],
        "pollDivisionIds": [
          10137487
        ],
        "postalCode": "K2S1B6",
        "streetName": "MUNSTER",
        "streetDirectionId": null,
        "streetTypeId": "RD",
        "placeName": "STITTSVILLE",
        "streetNameDisplayText": "MUNSTER RD, STITTSVILLE"
      }
    ]
  },
  {
    "postal": "K2S8R3",
    "result": []
  },
  {
    "postal": "K2S4V9",
    "result": []
  },
  {
    "postal": "K2S9W4",
    "result": []
  },
  {
    "postal": "K2S3T4",
    "result": []
  },
  {
    "postal": "K2S5C7",
    "result": []
  },
  {
    "postal": "K2S3Y1",
    "result": []
  },
  {
    "postal": "K2S5V0",
    "result": []
  },
  {
    "postal": "K2S8G8",
    "result": []
  },
  {
    "postal": "K2S8B1",
    "result": []
  },
  {
    "postal": "K2S4P5",
    "result": []
  },
  {
    "postal": "K2S7B2",
    "result": []
  },
  {
    "postal": "K2S0R2",
    "result": [
      {
        "electoralDistricts": [
          {
            "election": null,
            "id": 17,
            "name": "Carleton"
          }
        ],
        "pollDivisionIds": [
          10137480
        ],
        "postalCode": "K2S0R2",
        "streetName": "DENALI",
        "streetDirectionId": null,
        "streetTypeId": "WAY",
        "placeName": "STITTSVILLE",
        "streetNameDisplayText": "DENALI WAY, STITTSVILLE"
      },
      {
        "electoralDistricts": [
          {
            "election": null,
            "id": 17,
            "name": "Carleton"
          }
        ],
        "pollDivisionIds": [
          10137480
        ],
        "postalCode": "K2S0R2",
        "streetName": "WRANGLER",
        "streetDirectionId": null,
        "streetTypeId": "CIR",
        "placeName": "STITTSVILLE",
        "streetNameDisplayText": "WRANGLER CIR, STITTSVILLE"
      }
    ]
  },
  {
    "postal": "K2S4M4",
    "result": []
  },
  {
    "postal": "K2S7M4",
    "result": []
  },
  {
    "postal": "K2S9S7",
    "result": []
  },
  {
    "postal": "K2S5Z7",
    "result": []
  },
  {
    "postal": "K2S7J7",
    "result": []
  },
  {
    "postal": "K2S8R8",
    "result": []
  },
  {
    "postal": "K2S9X1",
    "result": []
  },
  {
    "postal": "K2S5M9",
    "result": []
  },
  {
    "postal": "K2S9B4",
    "result": []
  },
  {
    "postal": "K2S0L9",
    "result": [
      {
        "electoralDistricts": [
          {
            "election": null,
            "id": 17,
            "name": "Carleton"
          }
        ],
        "pollDivisionIds": [
          10137480
        ],
        "postalCode": "K2S0L9",
        "streetName": "AQUILO",
        "streetDirectionId": null,
        "streetTypeId": "CRES",
        "placeName": "STITTSVILLE",
        "streetNameDisplayText": "AQUILO CRES, STITTSVILLE"
      },
      {
        "electoralDistricts": [
          {
            "election": null,
            "id": 17,
            "name": "Carleton"
          }
        ],
        "pollDivisionIds": [
          10137480
        ],
        "postalCode": "K2S0L9",
        "streetName": "MARTINIQUE",
        "streetDirectionId": null,
        "streetTypeId": "LANE",
        "placeName": "STITTSVILLE",
        "streetNameDisplayText": "MARTINIQUE LANE, STITTSVILLE"
      },
      {
        "electoralDistricts": [
          {
            "election": null,
            "id": 17,
            "name": "Carleton"
          }
        ],
        "pollDivisionIds": [
          10137480
        ],
        "postalCode": "K2S0L9",
        "streetName": "PAR-LA-VILLE",
        "streetDirectionId": null,
        "streetTypeId": "CIR",
        "placeName": "STITTSVILLE",
        "streetNameDisplayText": "PAR-LA-VILLE CIR, STITTSVILLE"
      }
    ]
  },
  {
    "postal": "K2S9G4",
    "result": []
  },
  {
    "postal": "K2S1J4",
    "result": [
      {
        "electoralDistricts": [
          {
            "election": null,
            "id": 17,
            "name": "Carleton"
          }
        ],
        "pollDivisionIds": [
          10137486
        ],
        "postalCode": "K2S1J4",
        "streetName": "CHERRY",
        "streetDirectionId": null,
        "streetTypeId": "DR",
        "placeName": "STITTSVILLE",
        "streetNameDisplayText": "CHERRY DR, STITTSVILLE"
      },
      {
        "electoralDistricts": [
          {
            "election": null,
            "id": 17,
            "name": "Carleton"
          }
        ],
        "pollDivisionIds": [
          10137486
        ],
        "postalCode": "K2S1J4",
        "streetName": "SPINDLE",
        "streetDirectionId": null,
        "streetTypeId": "WAY",
        "placeName": "STITTSVILLE",
        "streetNameDisplayText": "SPINDLE WAY, STITTSVILLE"
      }
    ]
  },
  {
    "postal": "K2S0W6",
    "result": [
      {
        "electoralDistricts": [
          {
            "election": null,
            "id": 17,
            "name": "Carleton"
          }
        ],
        "pollDivisionIds": [
          10137481
        ],
        "postalCode": "K2S0W6",
        "streetName": "MAPLE GROVE",
        "streetDirectionId": null,
        "streetTypeId": "RD",
        "placeName": "OTTAWA",
        "streetNameDisplayText": "MAPLE GROVE RD, OTTAWA"
      },
      {
        "electoralDistricts": [
          {
            "election": null,
            "id": 17,
            "name": "Carleton"
          }
        ],
        "pollDivisionIds": [
          10137481
        ],
        "postalCode": "K2S0W6",
        "streetName": "MAPLE GROVE",
        "streetDirectionId": null,
        "streetTypeId": "RD",
        "placeName": "STITTSVILLE",
        "streetNameDisplayText": "MAPLE GROVE RD, STITTSVILLE"
      },
      {
        "electoralDistricts": [
          {
            "election": null,
            "id": 17,
            "name": "Carleton"
          }
        ],
        "pollDivisionIds": [
          10137484,
          10137481
        ],
        "postalCode": "K2S0W6",
        "streetName": "SANTOLINA",
        "streetDirectionId": null,
        "streetTypeId": "ST",
        "placeName": "STITTSVILLE",
        "streetNameDisplayText": "SANTOLINA ST, STITTSVILLE"
      }
    ]
  }
]
