[
  {
    "postal": "K1K9J6",
    "result": []
  },
  {
    "postal": "K1K9Z5",
    "result": []
  },
  {
    "postal": "K1K7H8",
    "result": []
  },
  {
    "postal": "K1K0P6",
    "result": [
      {
        "electoralDistricts": [
          {
            "election": null,
            "id": 80,
            "name": "Ottawa—Vanier"
          }
        ],
        "pollDivisionIds": [
          10140732
        ],
        "postalCode": "K1K0P6",
        "streetName": "BISHOP",
        "streetDirectionId": null,
        "streetTypeId": "PVT",
        "placeName": "OTTAWA",
        "streetNameDisplayText": "BISHOP PVT, OTTAWA"
      }
    ]
  },
  {
    "postal": "K1K0S7",
    "result": [
      {
        "electoralDistricts": [
          {
            "election": null,
            "id": 80,
            "name": "Ottawa—Vanier"
          }
        ],
        "pollDivisionIds": [
          10140732
        ],
        "postalCode": "K1K0S7",
        "streetName": "MONTREAL",
        "streetDirectionId": null,
        "streetTypeId": "RD",
        "placeName": "OTTAWA",
        "streetNameDisplayText": "MONTREAL RD, OTTAWA"
      }
    ]
  },
  {
    "postal": "K1K8B9",
    "result": []
  },
  {
    "postal": "K1K2A6",
    "result": [
      {
        "electoralDistricts": [
          {
            "election": null,
            "id": 80,
            "name": "Ottawa—Vanier"
          }
        ],
        "pollDivisionIds": [
          10140725
        ],
        "postalCode": "K1K2A6",
        "streetName": "DROUIN",
        "streetDirectionId": null,
        "streetTypeId": "AVE",
        "placeName": "OTTAWA",
        "streetNameDisplayText": "DROUIN AVE, OTTAWA"
      },
      {
        "electoralDistricts": [
          {
            "election": null,
            "id": 80,
            "name": "Ottawa—Vanier"
          }
        ],
        "pollDivisionIds": [
          10140722
        ],
        "postalCode": "K1K2A6",
        "streetName": "VANIER",
        "streetDirectionId": null,
        "streetTypeId": "PKY",
        "placeName": "VANIER",
        "streetNameDisplayText": "VANIER PKY, VANIER"
      }
    ]
  },
  {
    "postal": "K1K7V2",
    "result": []
  },
  {
    "postal": "K1K9P4",
    "result": []
  },
  {
    "postal": "K1K6G0",
    "result": []
  },
  {
    "postal": "K1K2K0",
    "result": []
  },
  {
    "postal": "K1K7N6",
    "result": []
  },
  {
    "postal": "K1K5R3",
    "result": []
  },
  {
    "postal": "K1K7K0",
    "result": []
  },
  {
    "postal": "K1K3R2",
    "result": [
      {
        "electoralDistricts": [
          {
            "election": null,
            "id": 80,
            "name": "Ottawa—Vanier"
          }
        ],
        "pollDivisionIds": [
          10140730
        ],
        "postalCode": "K1K3R2",
        "streetName": "LOLA",
        "streetDirectionId": null,
        "streetTypeId": "ST",
        "placeName": "OTTAWA",
        "streetNameDisplayText": "LOLA ST, OTTAWA"
      }
    ]
  },
  {
    "postal": "K1K0J1",
    "result": []
  },
  {
    "postal": "K1K0B0",
    "result": []
  },
  {
    "postal": "K1K5Z2",
    "result": []
  },
  {
    "postal": "K1K7P3",
    "result": []
  },
  {
    "postal": "K1K2K3",
    "result": [
      {
        "electoralDistricts": [
          {
            "election": null,
            "id": 80,
            "name": "Ottawa—Vanier"
          }
        ],
        "pollDivisionIds": [
          10140734
        ],
        "postalCode": "K1K2K3",
        "streetName": "SKYWAY",
        "streetDirectionId": null,
        "streetTypeId": "ST",
        "placeName": "OTTAWA",
        "streetNameDisplayText": "SKYWAY ST, OTTAWA"
      }
    ]
  },
  {
    "postal": "K1K7Y6",
    "result": []
  },
  {
    "postal": "K1K1L9",
    "result": [
      {
        "electoralDistricts": [
          {
            "election": null,
            "id": 80,
            "name": "Ottawa—Vanier"
          }
        ],
        "pollDivisionIds": [
          10140730
        ],
        "postalCode": "K1K1L9",
        "streetName": "DONALD",
        "streetDirectionId": null,
        "streetTypeId": "ST",
        "placeName": "OTTAWA",
        "streetNameDisplayText": "DONALD ST, OTTAWA"
      }
    ]
  },
  {
    "postal": "K1K8T0",
    "result": []
  },
  {
    "postal": "K1K3K8",
    "result": [
      {
        "electoralDistricts": [
          {
            "election": null,
            "id": 80,
            "name": "Ottawa—Vanier"
          }
        ],
        "pollDivisionIds": [
          10140729
        ],
        "postalCode": "K1K3K8",
        "streetName": "MOORVALE",
        "streetDirectionId": null,
        "streetTypeId": "ST",
        "placeName": "OTTAWA",
        "streetNameDisplayText": "MOORVALE ST, OTTAWA"
      }
    ]
  },
  {
    "postal": "K1K5W9",
    "result": []
  },
  {
    "postal": "K1K6T9",
    "result": []
  },
  {
    "postal": "K1K4H1",
    "result": [
      {
        "electoralDistricts": [
          {
            "election": null,
            "id": 80,
            "name": "Ottawa—Vanier"
          }
        ],
        "pollDivisionIds": [
          10140725
        ],
        "postalCode": "K1K4H1",
        "streetName": "LILAS",
        "streetDirectionId": null,
        "streetTypeId": "PVT",
        "placeName": "OTTAWA",
        "streetNameDisplayText": "LILAS PVT, OTTAWA"
      }
    ]
  },
  {
    "postal": "K1K7A2",
    "result": []
  },
  {
    "postal": "K1K5G0",
    "result": []
  },
  {
    "postal": "K1K8V5",
    "result": []
  },
  {
    "postal": "K1K2Y8",
    "result": [
      {
        "electoralDistricts": [
          {
            "election": null,
            "id": 80,
            "name": "Ottawa—Vanier"
          }
        ],
        "pollDivisionIds": [
          10140728
        ],
        "postalCode": "K1K2Y8",
        "streetName": "ST. LAURENT",
        "streetDirectionId": null,
        "streetTypeId": "BLVD",
        "placeName": "OTTAWA",
        "streetNameDisplayText": "ST. LAURENT BLVD, OTTAWA"
      }
    ]
  },
  {
    "postal": "K1K2B6",
    "result": [
      {
        "electoralDistricts": [
          {
            "election": null,
            "id": 80,
            "name": "Ottawa—Vanier"
          }
        ],
        "pollDivisionIds": [
          10140730,
          10140725
        ],
        "postalCode": "K1K2B6",
        "streetName": "PRESLAND",
        "streetDirectionId": null,
        "streetTypeId": "RD",
        "placeName": "OTTAWA",
        "streetNameDisplayText": "PRESLAND RD, OTTAWA"
      }
    ]
  },
  {
    "postal": "K1K4W8",
    "result": [
      {
        "electoralDistricts": [
          {
            "election": null,
            "id": 80,
            "name": "Ottawa—Vanier"
          }
        ],
        "pollDivisionIds": [
          10140733
        ],
        "postalCode": "K1K4W8",
        "streetName": "DEN HAAG",
        "streetDirectionId": null,
        "streetTypeId": "DR",
        "placeName": "OTTAWA",
        "streetNameDisplayText": "DEN HAAG DR, OTTAWA"
      }
    ]
  },
  {
    "postal": "K1K8H7",
    "result": []
  },
  {
    "postal": "K1K5P1",
    "result": []
  },
  {
    "postal": "K1K2B8",
    "result": [
      {
        "electoralDistricts": [
          {
            "election": null,
            "id": 80,
            "name": "Ottawa—Vanier"
          }
        ],
        "pollDivisionIds": [
          10140725,
          10140805
        ],
        "postalCode": "K1K2B8",
        "streetName": "PRESLAND",
        "streetDirectionId": null,
        "streetTypeId": "RD",
        "placeName": "OTTAWA",
        "streetNameDisplayText": "PRESLAND RD, OTTAWA"
      }
    ]
  },
  {
    "postal": "K1K0P2",
    "result": [
      {
        "electoralDistricts": [
          {
            "election": null,
            "id": 80,
            "name": "Ottawa—Vanier"
          }
        ],
        "pollDivisionIds": [
          10140732
        ],
        "postalCode": "K1K0P2",
        "streetName": "BARKER",
        "streetDirectionId": null,
        "streetTypeId": "PVT",
        "placeName": "OTTAWA",
        "streetNameDisplayText": "BARKER PVT, OTTAWA"
      }
    ]
  },
  {
    "postal": "K1K9M1",
    "result": []
  },
  {
    "postal": "K1K3G0",
    "result": []
  },
  {
    "postal": "K1K9Z2",
    "result": []
  },
  {
    "postal": "K1K2A0",
    "result": []
  },
  {
    "postal": "K1K6Y0",
    "result": []
  },
  {
    "postal": "K1K2Z8",
    "result": [
      {
        "electoralDistricts": [
          {
            "election": null,
            "id": 80,
            "name": "Ottawa—Vanier"
          }
        ],
        "pollDivisionIds": [
          10140727
        ],
        "postalCode": "K1K2Z8",
        "streetName": "ST. LAURENT",
        "streetDirectionId": null,
        "streetTypeId": "BLVD",
        "placeName": "OTTAWA",
        "streetNameDisplayText": "ST. LAURENT BLVD, OTTAWA"
      }
    ]
  },
  {
    "postal": "K1K7Y3",
    "result": []
  },
  {
    "postal": "K1K6Z5",
    "result": []
  },
  {
    "postal": "K1K6E0",
    "result": []
  },
  {
    "postal": "K1K9B7",
    "result": []
  },
  {
    "postal": "K1K9S5",
    "result": []
  },
  {
    "postal": "K1K3X3",
    "result": [
      {
        "electoralDistricts": [
          {
            "election": null,
            "id": 80,
            "name": "Ottawa—Vanier"
          }
        ],
        "pollDivisionIds": [
          10140732
        ],
        "postalCode": "K1K3X3",
        "streetName": "CODD'S",
        "streetDirectionId": null,
        "streetTypeId": "RD",
        "placeName": "OTTAWA",
        "streetNameDisplayText": "CODD'S RD, OTTAWA"
      },
      {
        "electoralDistricts": [
          {
            "election": null,
            "id": 80,
            "name": "Ottawa—Vanier"
          }
        ],
        "pollDivisionIds": [
          10140732
        ],
        "postalCode": "K1K3X3",
        "streetName": "MIKINAK",
        "streetDirectionId": null,
        "streetTypeId": "RD",
        "placeName": "OTTAWA",
        "streetNameDisplayText": "MIKINAK RD, OTTAWA"
      }
    ]
  },
  {
    "postal": "K1K7R5",
    "result": []
  },
  {
    "postal": "K1K2X3",
    "result": [
      {
        "electoralDistricts": [
          {
            "election": null,
            "id": 80,
            "name": "Ottawa—Vanier"
          }
        ],
        "pollDivisionIds": [
          10140728
        ],
        "postalCode": "K1K2X3",
        "streetName": "WINGHAM",
        "streetDirectionId": null,
        "streetTypeId": "PL",
        "placeName": "OTTAWA",
        "streetNameDisplayText": "WINGHAM PL, OTTAWA"
      }
    ]
  },
  {
    "postal": "K1K8Z9",
    "result": []
  },
  {
    "postal": "K1K0N4",
    "result": []
  },
  {
    "postal": "K1K1K1",
    "result": [
      {
        "electoralDistricts": [
          {
            "election": null,
            "id": 17,
            "name": "Carleton"
          }
        ],
        "pollDivisionIds": [
          10137501
        ],
        "postalCode": "K1K1K1",
        "streetName": "DERBY",
        "streetDirectionId": null,
        "streetTypeId": "ST",
        "placeName": "METCALFE",
        "streetNameDisplayText": "DERBY ST, METCALFE"
      },
      {
        "electoralDistricts": [
          {
            "election": null,
            "id": 80,
            "name": "Ottawa—Vanier"
          }
        ],
        "pollDivisionIds": [
          10140724
        ],
        "postalCode": "K1K1K1",
        "streetName": "FULLERTON",
        "streetDirectionId": null,
        "streetTypeId": "AVE",
        "placeName": "OTTAWA",
        "streetNameDisplayText": "FULLERTON AVE, OTTAWA"
      }
    ]
  },
  {
    "postal": "K1K1S3",
    "result": [
      {
        "electoralDistricts": [
          {
            "election": null,
            "id": 80,
            "name": "Ottawa—Vanier"
          }
        ],
        "pollDivisionIds": [
          10140725
        ],
        "postalCode": "K1K1S3",
        "streetName": "GLYNN",
        "streetDirectionId": null,
        "streetTypeId": "AVE",
        "placeName": "OTTAWA",
        "streetNameDisplayText": "GLYNN AVE, OTTAWA"
      }
    ]
  },
  {
    "postal": "K1K6M4",
    "result": []
  },
  {
    "postal": "K1K9A9",
    "result": []
  },
  {
    "postal": "K1K9Z9",
    "result": []
  },
  {
    "postal": "K1K6T4",
    "result": []
  },
  {
    "postal": "K1K0B2",
    "result": [
      {
        "electoralDistricts": [
          {
            "election": null,
            "id": 80,
            "name": "Ottawa—Vanier"
          }
        ],
        "pollDivisionIds": [
          10140728
        ],
        "postalCode": "K1K0B2",
        "streetName": "ARUNDEL",
        "streetDirectionId": null,
        "streetTypeId": "AVE",
        "placeName": "OTTAWA",
        "streetNameDisplayText": "ARUNDEL AVE, OTTAWA"
      }
    ]
  },
  {
    "postal": "K1K2L9",
    "result": [
      {
        "electoralDistricts": [
          {
            "election": null,
            "id": 80,
            "name": "Ottawa—Vanier"
          }
        ],
        "pollDivisionIds": [
          10140731
        ],
        "postalCode": "K1K2L9",
        "streetName": "BORTHWICK",
        "streetDirectionId": null,
        "streetTypeId": "AVE",
        "placeName": "OTTAWA",
        "streetNameDisplayText": "BORTHWICK AVE, OTTAWA"
      }
    ]
  },
  {
    "postal": "K1K8K9",
    "result": []
  },
  {
    "postal": "K1K2H9",
    "result": []
  },
  {
    "postal": "K1K3Z6",
    "result": [
      {
        "electoralDistricts": [
          {
            "election": null,
            "id": 80,
            "name": "Ottawa—Vanier"
          }
        ],
        "pollDivisionIds": [
          10140735
        ],
        "postalCode": "K1K3Z6",
        "streetName": "METZ",
        "streetDirectionId": null,
        "streetTypeId": "CRES",
        "placeName": "OTTAWA",
        "streetNameDisplayText": "METZ CRES, OTTAWA"
      }
    ]
  },
  {
    "postal": "K1K3B0",
    "result": []
  },
  {
    "postal": "K1K2H8",
    "result": []
  },
  {
    "postal": "K1K3X2",
    "result": [
      {
        "electoralDistricts": [
          {
            "election": null,
            "id": 80,
            "name": "Ottawa—Vanier"
          }
        ],
        "pollDivisionIds": [
          10140728
        ],
        "postalCode": "K1K3X2",
        "streetName": "DUNVEGAN",
        "streetDirectionId": null,
        "streetTypeId": "RD",
        "placeName": "OTTAWA",
        "streetNameDisplayText": "DUNVEGAN RD, OTTAWA"
      }
    ]
  },
  {
    "postal": "K1K2E9",
    "result": [
      {
        "electoralDistricts": [
          {
            "election": null,
            "id": 80,
            "name": "Ottawa—Vanier"
          }
        ],
        "pollDivisionIds": [
          10140733
        ],
        "postalCode": "K1K2E9",
        "streetName": "HOCHELAGA",
        "streetDirectionId": null,
        "streetTypeId": "ST",
        "placeName": "OTTAWA",
        "streetNameDisplayText": "HOCHELAGA ST, OTTAWA"
      }
    ]
  },
  {
    "postal": "K1K9P6",
    "result": []
  },
  {
    "postal": "K1K9E2",
    "result": []
  },
  {
    "postal": "K1K9H2",
    "result": []
  },
  {
    "postal": "K1K1S8",
    "result": [
      {
        "electoralDistricts": [
          {
            "election": null,
            "id": 80,
            "name": "Ottawa—Vanier"
          }
        ],
        "pollDivisionIds": [
          10140725
        ],
        "postalCode": "K1K1S8",
        "streetName": "GLYNN",
        "streetDirectionId": null,
        "streetTypeId": "AVE",
        "placeName": "OTTAWA",
        "streetNameDisplayText": "GLYNN AVE, OTTAWA"
      }
    ]
  },
  {
    "postal": "K1K3M6",
    "result": [
      {
        "electoralDistricts": [
          {
            "election": null,
            "id": 80,
            "name": "Ottawa—Vanier"
          }
        ],
        "pollDivisionIds": [
          10140726
        ],
        "postalCode": "K1K3M6",
        "streetName": "LUC",
        "streetDirectionId": null,
        "streetTypeId": "ST",
        "placeName": "OTTAWA",
        "streetNameDisplayText": "LUC ST, OTTAWA"
      }
    ]
  },
  {
    "postal": "K1K6Z8",
    "result": []
  },
  {
    "postal": "K1K4J2",
    "result": [
      {
        "electoralDistricts": [
          {
            "election": null,
            "id": 80,
            "name": "Ottawa—Vanier"
          }
        ],
        "pollDivisionIds": [
          10140727
        ],
        "postalCode": "K1K4J2",
        "streetName": "HILLSIDE",
        "streetDirectionId": null,
        "streetTypeId": "DR",
        "placeName": "OTTAWA",
        "streetNameDisplayText": "HILLSIDE DR, OTTAWA"
      }
    ]
  },
  {
    "postal": "K1K9Y1",
    "result": []
  },
  {
    "postal": "K1K8V6",
    "result": []
  },
  {
    "postal": "K1K6B2",
    "result": []
  },
  {
    "postal": "K1K1P8",
    "result": [
      {
        "electoralDistricts": [
          {
            "election": null,
            "id": 80,
            "name": "Ottawa—Vanier"
          }
        ],
        "pollDivisionIds": [
          10140725
        ],
        "postalCode": "K1K1P8",
        "streetName": "COLUMBUS",
        "streetDirectionId": null,
        "streetTypeId": "AVE",
        "placeName": "OTTAWA",
        "streetNameDisplayText": "COLUMBUS AVE, OTTAWA"
      }
    ]
  },
  {
    "postal": "K1K0V8",
    "result": [
      {
        "electoralDistricts": [
          {
            "election": null,
            "id": 80,
            "name": "Ottawa—Vanier"
          }
        ],
        "pollDivisionIds": [
          10140733
        ],
        "postalCode": "K1K0V8",
        "streetName": "BERMUDA",
        "streetDirectionId": null,
        "streetTypeId": "AVE",
        "placeName": "OTTAWA",
        "streetNameDisplayText": "BERMUDA AVE, OTTAWA"
      }
    ]
  },
  {
    "postal": "K1K4Y0",
    "result": []
  },
  {
    "postal": "K1K2T4",
    "result": [
      {
        "electoralDistricts": [
          {
            "election": null,
            "id": 80,
            "name": "Ottawa—Vanier"
          }
        ],
        "pollDivisionIds": [
          10140731
        ],
        "postalCode": "K1K2T4",
        "streetName": "RAINIER",
        "streetDirectionId": null,
        "streetTypeId": "ST",
        "placeName": "OTTAWA",
        "streetNameDisplayText": "RAINIER ST, OTTAWA"
      }
    ]
  },
  {
    "postal": "K1K2S3",
    "result": [
      {
        "electoralDistricts": [
          {
            "election": null,
            "id": 80,
            "name": "Ottawa—Vanier"
          }
        ],
        "pollDivisionIds": [
          10140731
        ],
        "postalCode": "K1K2S3",
        "streetName": "CLAUDE",
        "streetDirectionId": null,
        "streetTypeId": "ST",
        "placeName": "OTTAWA",
        "streetNameDisplayText": "CLAUDE ST, OTTAWA"
      }
    ]
  },
  {
    "postal": "K1K0K0",
    "result": []
  },
  {
    "postal": "K1K5N1",
    "result": []
  },
  {
    "postal": "K1K7T0",
    "result": []
  },
  {
    "postal": "K1K9N2",
    "result": []
  },
  {
    "postal": "K1K5L1",
    "result": []
  },
  {
    "postal": "K1K7G5",
    "result": []
  },
  {
    "postal": "K1K6K2",
    "result": []
  },
  {
    "postal": "K1K6P9",
    "result": []
  },
  {
    "postal": "K1K0E6",
    "result": [
      {
        "electoralDistricts": [
          {
            "election": null,
            "id": 80,
            "name": "Ottawa—Vanier"
          }
        ],
        "pollDivisionIds": [
          10140728
        ],
        "postalCode": "K1K0E6",
        "streetName": "BEDFORD",
        "streetDirectionId": null,
        "streetTypeId": "CRES",
        "placeName": "OTTAWA",
        "streetNameDisplayText": "BEDFORD CRES, OTTAWA"
      }
    ]
  },
  {
    "postal": "K1K8R9",
    "result": []
  },
  {
    "postal": "K1K3G9",
    "result": [
      {
        "electoralDistricts": [
          {
            "election": null,
            "id": 80,
            "name": "Ottawa—Vanier"
          }
        ],
        "pollDivisionIds": [
          10140729
        ],
        "postalCode": "K1K3G9",
        "streetName": "MORIN",
        "streetDirectionId": null,
        "streetTypeId": "ST",
        "placeName": "OTTAWA",
        "streetNameDisplayText": "MORIN ST, OTTAWA"
      }
    ]
  },
  {
    "postal": "K1K0V7",
    "result": [
      {
        "electoralDistricts": [
          {
            "election": null,
            "id": 80,
            "name": "Ottawa—Vanier"
          }
        ],
        "pollDivisionIds": [
          10140733
        ],
        "postalCode": "K1K0V7",
        "streetName": "BERMUDA",
        "streetDirectionId": null,
        "streetTypeId": "AVE",
        "placeName": "OTTAWA",
        "streetNameDisplayText": "BERMUDA AVE, OTTAWA"
      }
    ]
  },
  {
    "postal": "K1K2Z1",
    "result": [
      {
        "electoralDistricts": [
          {
            "election": null,
            "id": 80,
            "name": "Ottawa—Vanier"
          }
        ],
        "pollDivisionIds": [
          10140728
        ],
        "postalCode": "K1K2Z1",
        "streetName": "ST. LAURENT",
        "streetDirectionId": null,
        "streetTypeId": "BLVD",
        "placeName": "OTTAWA",
        "streetNameDisplayText": "ST. LAURENT BLVD, OTTAWA"
      }
    ]
  },
  {
    "postal": "K1K7N1",
    "result": []
  },
  {
    "postal": "K1K3C6",
    "result": [
      {
        "electoralDistricts": [
          {
            "election": null,
            "id": 80,
            "name": "Ottawa—Vanier"
          }
        ],
        "pollDivisionIds": [
          10140728
        ],
        "postalCode": "K1K3C6",
        "streetName": "BRAEMAR",
        "streetDirectionId": null,
        "streetTypeId": "ST",
        "placeName": "OTTAWA",
        "streetNameDisplayText": "BRAEMAR ST, OTTAWA"
      }
    ]
  },
  {
    "postal": "K1K4M1",
    "result": [
      {
        "electoralDistricts": [
          {
            "election": null,
            "id": 80,
            "name": "Ottawa—Vanier"
          }
        ],
        "pollDivisionIds": [
          10140727
        ],
        "postalCode": "K1K4M1",
        "streetName": "BRITTANY",
        "streetDirectionId": null,
        "streetTypeId": "DR",
        "placeName": "OTTAWA",
        "streetNameDisplayText": "BRITTANY DR, OTTAWA"
      }
    ]
  },
  {
    "postal": "K1K9K2",
    "result": []
  },
  {
    "postal": "K1K9S6",
    "result": []
  },
  {
    "postal": "K1K4X1",
    "result": [
      {
        "electoralDistricts": [
          {
            "election": null,
            "id": 80,
            "name": "Ottawa—Vanier"
          }
        ],
        "pollDivisionIds": [
          10140725
        ],
        "postalCode": "K1K4X1",
        "streetName": "ARCOLA",
        "streetDirectionId": null,
        "streetTypeId": "PVT",
        "placeName": "OTTAWA",
        "streetNameDisplayText": "ARCOLA PVT, OTTAWA"
      }
    ]
  },
  {
    "postal": "K1K8W2",
    "result": []
  },
  {
    "postal": "K1K7N2",
    "result": []
  },
  {
    "postal": "K1K8S3",
    "result": []
  },
  {
    "postal": "K1K4V0",
    "result": []
  },
  {
    "postal": "K1K6W4",
    "result": []
  },
  {
    "postal": "K1K5M1",
    "result": []
  },
  {
    "postal": "K1K0S4",
    "result": [
      {
        "electoralDistricts": [
          {
            "election": null,
            "id": 80,
            "name": "Ottawa—Vanier"
          }
        ],
        "pollDivisionIds": [
          10140727
        ],
        "postalCode": "K1K0S4",
        "streetName": "KRISTIN",
        "streetDirectionId": null,
        "streetTypeId": "WAY",
        "placeName": "OTTAWA",
        "streetNameDisplayText": "KRISTIN WAY, OTTAWA"
      }
    ]
  },
  {
    "postal": "K1K5X6",
    "result": []
  },
  {
    "postal": "K1K8L5",
    "result": []
  },
  {
    "postal": "K1K5M8",
    "result": []
  },
  {
    "postal": "K1K2G3",
    "result": [
      {
        "electoralDistricts": [
          {
            "election": null,
            "id": 80,
            "name": "Ottawa—Vanier"
          }
        ],
        "pollDivisionIds": [
          10140733
        ],
        "postalCode": "K1K2G3",
        "streetName": "ROANOKE",
        "streetDirectionId": null,
        "streetTypeId": "ST",
        "placeName": "OTTAWA",
        "streetNameDisplayText": "ROANOKE ST, OTTAWA"
      }
    ]
  },
  {
    "postal": "K1K8E4",
    "result": []
  },
  {
    "postal": "K1K7S9",
    "result": []
  },
  {
    "postal": "K1K1K3",
    "result": [
      {
        "electoralDistricts": [
          {
            "election": null,
            "id": 80,
            "name": "Ottawa—Vanier"
          }
        ],
        "pollDivisionIds": [
          10140724
        ],
        "postalCode": "K1K1K3",
        "streetName": "FULLERTON",
        "streetDirectionId": null,
        "streetTypeId": "AVE",
        "placeName": "OTTAWA",
        "streetNameDisplayText": "FULLERTON AVE, OTTAWA"
      }
    ]
  },
  {
    "postal": "K1K4E1",
    "result": [
      {
        "electoralDistricts": [
          {
            "election": null,
            "id": 80,
            "name": "Ottawa—Vanier"
          }
        ],
        "pollDivisionIds": [
          10140732
        ],
        "postalCode": "K1K4E1",
        "streetName": "FOXVIEW",
        "streetDirectionId": null,
        "streetTypeId": "PL",
        "placeName": "OTTAWA",
        "streetNameDisplayText": "FOXVIEW PL, OTTAWA"
      }
    ]
  },
  {
    "postal": "K1K4R2",
    "result": [
      {
        "electoralDistricts": [
          {
            "election": null,
            "id": 80,
            "name": "Ottawa—Vanier"
          }
        ],
        "pollDivisionIds": [
          10140727,
          10140776
        ],
        "postalCode": "K1K4R2",
        "streetName": "BRITTANY",
        "streetDirectionId": null,
        "streetTypeId": "DR",
        "placeName": "OTTAWA",
        "streetNameDisplayText": "BRITTANY DR, OTTAWA"
      }
    ]
  },
  {
    "postal": "K1K6T0",
    "result": []
  },
  {
    "postal": "K1K3K5",
    "result": [
      {
        "electoralDistricts": [
          {
            "election": null,
            "id": 80,
            "name": "Ottawa—Vanier"
          }
        ],
        "pollDivisionIds": [
          10140729
        ],
        "postalCode": "K1K3K5",
        "streetName": "DE L'EGLISE",
        "streetDirectionId": null,
        "streetTypeId": "RUE",
        "placeName": "OTTAWA",
        "streetNameDisplayText": "DE L'EGLISE RUE, OTTAWA"
      }
    ]
  },
  {
    "postal": "K1K3S3",
    "result": [
      {
        "electoralDistricts": [
          {
            "election": null,
            "id": 80,
            "name": "Ottawa—Vanier"
          }
        ],
        "pollDivisionIds": [
          10140725
        ],
        "postalCode": "K1K3S3",
        "streetName": "WHITTON",
        "streetDirectionId": null,
        "streetTypeId": "CRES",
        "placeName": "OTTAWA",
        "streetNameDisplayText": "WHITTON CRES, OTTAWA"
      }
    ]
  },
  {
    "postal": "K1K3L4",
    "result": [
      {
        "electoralDistricts": [
          {
            "election": null,
            "id": 80,
            "name": "Ottawa—Vanier"
          }
        ],
        "pollDivisionIds": [
          10140730
        ],
        "postalCode": "K1K3L4",
        "streetName": "FRANCES",
        "streetDirectionId": null,
        "streetTypeId": "ST",
        "placeName": "OTTAWA",
        "streetNameDisplayText": "FRANCES ST, OTTAWA"
      }
    ]
  },
  {
    "postal": "K1K9Y2",
    "result": []
  },
  {
    "postal": "K1K1E0",
    "result": []
  },
  {
    "postal": "K1K9A4",
    "result": []
  },
  {
    "postal": "K1K1L3",
    "result": [
      {
        "electoralDistricts": [
          {
            "election": null,
            "id": 80,
            "name": "Ottawa—Vanier"
          }
        ],
        "pollDivisionIds": [
          10140730
        ],
        "postalCode": "K1K1L3",
        "streetName": "DONALD",
        "streetDirectionId": null,
        "streetTypeId": "ST",
        "placeName": "OTTAWA",
        "streetNameDisplayText": "DONALD ST, OTTAWA"
      }
    ]
  },
  {
    "postal": "K1K6N1",
    "result": []
  },
  {
    "postal": "K1K6G7",
    "result": []
  },
  {
    "postal": "K1K7W1",
    "result": []
  },
  {
    "postal": "K1K4M6",
    "result": [
      {
        "electoralDistricts": [
          {
            "election": null,
            "id": 80,
            "name": "Ottawa—Vanier"
          }
        ],
        "pollDivisionIds": [
          10140725
        ],
        "postalCode": "K1K4M6",
        "streetName": "VERA",
        "streetDirectionId": null,
        "streetTypeId": "ST",
        "placeName": "OTTAWA",
        "streetNameDisplayText": "VERA ST, OTTAWA"
      }
    ]
  },
  {
    "postal": "K1K1K0",
    "result": []
  },
  {
    "postal": "K1K3E2",
    "result": [
      {
        "electoralDistricts": [
          {
            "election": null,
            "id": 80,
            "name": "Ottawa—Vanier"
          }
        ],
        "pollDivisionIds": [
          10140728
        ],
        "postalCode": "K1K3E2",
        "streetName": "AVA",
        "streetDirectionId": null,
        "streetTypeId": "RD",
        "placeName": "OTTAWA",
        "streetNameDisplayText": "AVA RD, OTTAWA"
      }
    ]
  },
  {
    "postal": "K1K5H4",
    "result": []
  },
  {
    "postal": "K1K1K7",
    "result": [
      {
        "electoralDistricts": [
          {
            "election": null,
            "id": 80,
            "name": "Ottawa—Vanier"
          }
        ],
        "pollDivisionIds": [
          10140724
        ],
        "postalCode": "K1K1K7",
        "streetName": "WOLFF",
        "streetDirectionId": null,
        "streetTypeId": "ST",
        "placeName": "OTTAWA",
        "streetNameDisplayText": "WOLFF ST, OTTAWA"
      }
    ]
  },
  {
    "postal": "K1K0H0",
    "result": []
  },
  {
    "postal": "K1K0J3",
    "result": [
      {
        "electoralDistricts": [
          {
            "election": null,
            "id": 80,
            "name": "Ottawa—Vanier"
          }
        ],
        "pollDivisionIds": [
          10140728
        ],
        "postalCode": "K1K0J3",
        "streetName": "GLASGOW",
        "streetDirectionId": null,
        "streetTypeId": "ST",
        "placeName": "OTTAWA",
        "streetNameDisplayText": "GLASGOW ST, OTTAWA"
      }
    ]
  },
  {
    "postal": "K1K1X6",
    "result": [
      {
        "electoralDistricts": [
          {
            "election": null,
            "id": 80,
            "name": "Ottawa—Vanier"
          }
        ],
        "pollDivisionIds": [
          10140725
        ],
        "postalCode": "K1K1X6",
        "streetName": "QUEEN MARY",
        "streetDirectionId": null,
        "streetTypeId": "ST",
        "placeName": "OTTAWA",
        "streetNameDisplayText": "QUEEN MARY ST, OTTAWA"
      }
    ]
  },
  {
    "postal": "K1K2Z6",
    "result": [
      {
        "electoralDistricts": [
          {
            "election": null,
            "id": 80,
            "name": "Ottawa—Vanier"
          }
        ],
        "pollDivisionIds": [
          10140727
        ],
        "postalCode": "K1K2Z6",
        "streetName": "ST LAURENT",
        "streetDirectionId": null,
        "streetTypeId": "BLVD",
        "placeName": "OTTAWA",
        "streetNameDisplayText": "ST LAURENT BLVD, OTTAWA"
      },
      {
        "electoralDistricts": [
          {
            "election": null,
            "id": 80,
            "name": "Ottawa—Vanier"
          }
        ],
        "pollDivisionIds": [
          10140727
        ],
        "postalCode": "K1K2Z6",
        "streetName": "ST. LAURENT",
        "streetDirectionId": null,
        "streetTypeId": "BLVD",
        "placeName": "OTTAWA",
        "streetNameDisplayText": "ST. LAURENT BLVD, OTTAWA"
      }
    ]
  },
  {
    "postal": "K1K4R9",
    "result": [
      {
        "electoralDistricts": [
          {
            "election": null,
            "id": 80,
            "name": "Ottawa—Vanier"
          }
        ],
        "pollDivisionIds": [
          10140729
        ],
        "postalCode": "K1K4R9",
        "streetName": "COLLEGE",
        "streetDirectionId": null,
        "streetTypeId": "CIR",
        "placeName": "OTTAWA",
        "streetNameDisplayText": "COLLEGE CIR, OTTAWA"
      }
    ]
  },
  {
    "postal": "K1K0W8",
    "result": [
      {
        "electoralDistricts": [
          {
            "election": null,
            "id": 80,
            "name": "Ottawa—Vanier"
          }
        ],
        "pollDivisionIds": [
          10140731
        ],
        "postalCode": "K1K0W8",
        "streetName": "WILSON",
        "streetDirectionId": null,
        "streetTypeId": "ST",
        "placeName": "OTTAWA",
        "streetNameDisplayText": "WILSON ST, OTTAWA"
      }
    ]
  },
  {
    "postal": "K1K1L4",
    "result": [
      {
        "electoralDistricts": [
          {
            "election": null,
            "id": 80,
            "name": "Ottawa—Vanier"
          }
        ],
        "pollDivisionIds": [
          10140730
        ],
        "postalCode": "K1K1L4",
        "streetName": "DONALD",
        "streetDirectionId": null,
        "streetTypeId": "ST",
        "placeName": "OTTAWA",
        "streetNameDisplayText": "DONALD ST, OTTAWA"
      }
    ]
  },
  {
    "postal": "K1K0C8",
    "result": [
      {
        "electoralDistricts": [
          {
            "election": null,
            "id": 80,
            "name": "Ottawa—Vanier"
          }
        ],
        "pollDivisionIds": [
          10140728
        ],
        "postalCode": "K1K0C8",
        "streetName": "BLASDELL",
        "streetDirectionId": null,
        "streetTypeId": "AVE",
        "placeName": "OTTAWA",
        "streetNameDisplayText": "BLASDELL AVE, OTTAWA"
      }
    ]
  },
  {
    "postal": "K1K9X7",
    "result": []
  },
  {
    "postal": "K1K4T1",
    "result": []
  },
  {
    "postal": "K1K0M0",
    "result": []
  },
  {
    "postal": "K1K6A2",
    "result": []
  },
  {
    "postal": "K1K9S8",
    "result": []
  },
  {
    "postal": "K1K9T4",
    "result": []
  },
  {
    "postal": "K1K9Y4",
    "result": []
  },
  {
    "postal": "K1K6G5",
    "result": []
  },
  {
    "postal": "K1K6H9",
    "result": []
  },
  {
    "postal": "K1K2P3",
    "result": [
      {
        "electoralDistricts": [
          {
            "election": null,
            "id": 80,
            "name": "Ottawa—Vanier"
          }
        ],
        "pollDivisionIds": [
          10140731
        ],
        "postalCode": "K1K2P3",
        "streetName": "TROJAN",
        "streetDirectionId": null,
        "streetTypeId": "AVE",
        "placeName": "OTTAWA",
        "streetNameDisplayText": "TROJAN AVE, OTTAWA"
      }
    ]
  },
  {
    "postal": "K1K1T6",
    "result": [
      {
        "electoralDistricts": [
          {
            "election": null,
            "id": 80,
            "name": "Ottawa—Vanier"
          }
        ],
        "pollDivisionIds": [
          10140730
        ],
        "postalCode": "K1K1T6",
        "streetName": "KING GEORGE",
        "streetDirectionId": null,
        "streetTypeId": "ST",
        "placeName": "OTTAWA",
        "streetNameDisplayText": "KING GEORGE ST, OTTAWA"
      }
    ]
  },
  {
    "postal": "K1K4P6",
    "result": []
  },
  {
    "postal": "K1K3K1",
    "result": [
      {
        "electoralDistricts": [
          {
            "election": null,
            "id": 80,
            "name": "Ottawa—Vanier"
          }
        ],
        "pollDivisionIds": [
          10140729
        ],
        "postalCode": "K1K3K1",
        "streetName": "DE L'EGLISE",
        "streetDirectionId": null,
        "streetTypeId": "RUE",
        "placeName": "OTTAWA",
        "streetNameDisplayText": "DE L'EGLISE RUE, OTTAWA"
      }
    ]
  },
  {
    "postal": "K1K6X4",
    "result": []
  },
  {
    "postal": "K1K4M8",
    "result": []
  },
  {
    "postal": "K1K2Y1",
    "result": [
      {
        "electoralDistricts": [
          {
            "election": null,
            "id": 80,
            "name": "Ottawa—Vanier"
          }
        ],
        "pollDivisionIds": [
          10140728
        ],
        "postalCode": "K1K2Y1",
        "streetName": "CAMELIA",
        "streetDirectionId": null,
        "streetTypeId": "AVE",
        "placeName": "OTTAWA",
        "streetNameDisplayText": "CAMELIA AVE, OTTAWA"
      }
    ]
  },
  {
    "postal": "K1K6M1",
    "result": []
  },
  {
    "postal": "K1K5L8",
    "result": []
  },
  {
    "postal": "K1K3P6",
    "result": [
      {
        "electoralDistricts": [
          {
            "election": null,
            "id": 80,
            "name": "Ottawa—Vanier"
          }
        ],
        "pollDivisionIds": [
          10140730
        ],
        "postalCode": "K1K3P6",
        "streetName": "LOLA",
        "streetDirectionId": null,
        "streetTypeId": "ST",
        "placeName": "OTTAWA",
        "streetNameDisplayText": "LOLA ST, OTTAWA"
      }
    ]
  },
  {
    "postal": "K1K9A5",
    "result": []
  },
  {
    "postal": "K1K7K1",
    "result": []
  },
  {
    "postal": "K1K3J4",
    "result": [
      {
        "electoralDistricts": [
          {
            "election": null,
            "id": 80,
            "name": "Ottawa—Vanier"
          }
        ],
        "pollDivisionIds": [
          10140729
        ],
        "postalCode": "K1K3J4",
        "streetName": "TELFORD",
        "streetDirectionId": null,
        "streetTypeId": "AVE",
        "placeName": "OTTAWA",
        "streetNameDisplayText": "TELFORD AVE, OTTAWA"
      }
    ]
  },
  {
    "postal": "K1K5E7",
    "result": []
  },
  {
    "postal": "K1K3A7",
    "result": []
  },
  {
    "postal": "K1K1B9",
    "result": [
      {
        "electoralDistricts": [
          {
            "election": null,
            "id": 80,
            "name": "Ottawa—Vanier"
          }
        ],
        "pollDivisionIds": [
          10140729
        ],
        "postalCode": "K1K1B9",
        "streetName": "GUY",
        "streetDirectionId": null,
        "streetTypeId": "ST",
        "placeName": "OTTAWA",
        "streetNameDisplayText": "GUY ST, OTTAWA"
      }
    ]
  },
  {
    "postal": "K1K9E8",
    "result": []
  },
  {
    "postal": "K1K1C9",
    "result": [
      {
        "electoralDistricts": [
          {
            "election": null,
            "id": 80,
            "name": "Ottawa—Vanier"
          }
        ],
        "pollDivisionIds": [
          10140734
        ],
        "postalCode": "K1K1C9",
        "streetName": "GARDENVALE",
        "streetDirectionId": null,
        "streetTypeId": "RD",
        "placeName": "OTTAWA",
        "streetNameDisplayText": "GARDENVALE RD, OTTAWA"
      }
    ]
  },
  {
    "postal": "K1K3B5",
    "result": [
      {
        "electoralDistricts": [
          {
            "election": null,
            "id": 80,
            "name": "Ottawa—Vanier"
          }
        ],
        "pollDivisionIds": [
          10140734
        ],
        "postalCode": "K1K3B5",
        "streetName": "ST. LAURENT",
        "streetDirectionId": null,
        "streetTypeId": "BLVD",
        "placeName": "OTTAWA",
        "streetNameDisplayText": "ST. LAURENT BLVD, OTTAWA"
      }
    ]
  },
  {
    "postal": "K1K8R0",
    "result": []
  },
  {
    "postal": "K1K3P2",
    "result": [
      {
        "electoralDistricts": [
          {
            "election": null,
            "id": 80,
            "name": "Ottawa—Vanier"
          }
        ],
        "pollDivisionIds": [
          10140724
        ],
        "postalCode": "K1K3P2",
        "streetName": "LOLA",
        "streetDirectionId": null,
        "streetTypeId": "ST",
        "placeName": "OTTAWA",
        "streetNameDisplayText": "LOLA ST, OTTAWA"
      }
    ]
  },
  {
    "postal": "K1K5V4",
    "result": []
  },
  {
    "postal": "K1K4H0",
    "result": []
  },
  {
    "postal": "K1K4S7",
    "result": [
      {
        "electoralDistricts": [
          {
            "election": null,
            "id": 80,
            "name": "Ottawa—Vanier"
          }
        ],
        "pollDivisionIds": [
          10140728
        ],
        "postalCode": "K1K4S7",
        "streetName": "ANJOU",
        "streetDirectionId": null,
        "streetTypeId": "PVT",
        "placeName": "OTTAWA",
        "streetNameDisplayText": "ANJOU PVT, OTTAWA"
      }
    ]
  },
  {
    "postal": "K1K6C2",
    "result": []
  },
  {
    "postal": "K1K8W3",
    "result": []
  },
  {
    "postal": "K1K4M5",
    "result": [
      {
        "electoralDistricts": [
          {
            "election": null,
            "id": 80,
            "name": "Ottawa—Vanier"
          }
        ],
        "pollDivisionIds": [
          10140772
        ],
        "postalCode": "K1K4M5",
        "streetName": "ST. LAURENT",
        "streetDirectionId": null,
        "streetTypeId": "BLVD",
        "placeName": "OTTAWA",
        "streetNameDisplayText": "ST. LAURENT BLVD, OTTAWA"
      }
    ]
  },
  {
    "postal": "K1K5T1",
    "result": []
  },
  {
    "postal": "K1K3B3",
    "result": [
      {
        "electoralDistricts": [
          {
            "election": null,
            "id": 80,
            "name": "Ottawa—Vanier"
          }
        ],
        "pollDivisionIds": [
          10140729
        ],
        "postalCode": "K1K3B3",
        "streetName": "ST. LAURENT",
        "streetDirectionId": null,
        "streetTypeId": "BLVD",
        "placeName": "OTTAWA",
        "streetNameDisplayText": "ST. LAURENT BLVD, OTTAWA"
      }
    ]
  },
  {
    "postal": "K1K6C6",
    "result": []
  },
  {
    "postal": "K1K7N8",
    "result": []
  },
  {
    "postal": "K1K2Y3",
    "result": [
      {
        "electoralDistricts": [
          {
            "election": null,
            "id": 80,
            "name": "Ottawa—Vanier"
          }
        ],
        "pollDivisionIds": [
          10140728
        ],
        "postalCode": "K1K2Y3",
        "streetName": "ST. LAURENT",
        "streetDirectionId": null,
        "streetTypeId": "BLVD",
        "placeName": "OTTAWA",
        "streetNameDisplayText": "ST. LAURENT BLVD, OTTAWA"
      }
    ]
  },
  {
    "postal": "K1K2R6",
    "result": [
      {
        "electoralDistricts": [
          {
            "election": null,
            "id": 80,
            "name": "Ottawa—Vanier"
          }
        ],
        "pollDivisionIds": [
          10140727
        ],
        "postalCode": "K1K2R6",
        "streetName": "APPLE TREE",
        "streetDirectionId": null,
        "streetTypeId": "LANE",
        "placeName": "OTTAWA",
        "streetNameDisplayText": "APPLE TREE LANE, OTTAWA"
      }
    ]
  },
  {
    "postal": "K1K7N3",
    "result": []
  },
  {
    "postal": "K1K8J2",
    "result": []
  },
  {
    "postal": "K1K6A9",
    "result": []
  },
  {
    "postal": "K1K3V2",
    "result": [
      {
        "electoralDistricts": [
          {
            "election": null,
            "id": 80,
            "name": "Ottawa—Vanier"
          }
        ],
        "pollDivisionIds": [
          10140724
        ],
        "postalCode": "K1K3V2",
        "streetName": "NORTH RIVER",
        "streetDirectionId": null,
        "streetTypeId": "RD",
        "placeName": "OTTAWA",
        "streetNameDisplayText": "NORTH RIVER RD, OTTAWA"
      }
    ]
  },
  {
    "postal": "K1K2N3",
    "result": [
      {
        "electoralDistricts": [
          {
            "election": null,
            "id": 80,
            "name": "Ottawa—Vanier"
          }
        ],
        "pollDivisionIds": [
          10140727
        ],
        "postalCode": "K1K2N3",
        "streetName": "PLUM TREE",
        "streetDirectionId": null,
        "streetTypeId": "CRES",
        "placeName": "OTTAWA",
        "streetNameDisplayText": "PLUM TREE CRES, OTTAWA"
      }
    ]
  },
  {
    "postal": "K1K1S5",
    "result": [
      {
        "electoralDistricts": [
          {
            "election": null,
            "id": 80,
            "name": "Ottawa—Vanier"
          }
        ],
        "pollDivisionIds": [
          10140725
        ],
        "postalCode": "K1K1S5",
        "streetName": "GLYNN",
        "streetDirectionId": null,
        "streetTypeId": "AVE",
        "placeName": "OTTAWA",
        "streetNameDisplayText": "GLYNN AVE, OTTAWA"
      }
    ]
  },
  {
    "postal": "K1K4T7",
    "result": [
      {
        "electoralDistricts": [
          {
            "election": null,
            "id": 80,
            "name": "Ottawa—Vanier"
          }
        ],
        "pollDivisionIds": [
          10140733
        ],
        "postalCode": "K1K4T7",
        "streetName": "GANNET",
        "streetDirectionId": null,
        "streetTypeId": "ST",
        "placeName": "OTTAWA",
        "streetNameDisplayText": "GANNET ST, OTTAWA"
      },
      {
        "electoralDistricts": [
          {
            "election": null,
            "id": 80,
            "name": "Ottawa—Vanier"
          }
        ],
        "pollDivisionIds": [
          10140733
        ],
        "postalCode": "K1K4T7",
        "streetName": "MERGANSER",
        "streetDirectionId": null,
        "streetTypeId": "ST",
        "placeName": "OTTAWA",
        "streetNameDisplayText": "MERGANSER ST, OTTAWA"
      }
    ]
  },
  {
    "postal": "K1K6Y7",
    "result": []
  },
  {
    "postal": "K1K0W7",
    "result": [
      {
        "electoralDistricts": [
          {
            "election": null,
            "id": 80,
            "name": "Ottawa—Vanier"
          }
        ],
        "pollDivisionIds": [
          10140731
        ],
        "postalCode": "K1K0W7",
        "streetName": "WILSON",
        "streetDirectionId": null,
        "streetTypeId": "ST",
        "placeName": "OTTAWA",
        "streetNameDisplayText": "WILSON ST, OTTAWA"
      }
    ]
  },
  {
    "postal": "K1K2W9",
    "result": [
      {
        "electoralDistricts": [
          {
            "election": null,
            "id": 80,
            "name": "Ottawa—Vanier"
          }
        ],
        "pollDivisionIds": [
          10140728
        ],
        "postalCode": "K1K2W9",
        "streetName": "MART",
        "streetDirectionId": null,
        "streetTypeId": "CIR",
        "placeName": "OTTAWA",
        "streetNameDisplayText": "MART CIR, OTTAWA"
      }
    ]
  },
  {
    "postal": "K1K8V0",
    "result": []
  },
  {
    "postal": "K1K0H4",
    "result": [
      {
        "electoralDistricts": [
          {
            "election": null,
            "id": 80,
            "name": "Ottawa—Vanier"
          }
        ],
        "pollDivisionIds": [
          10140728
        ],
        "postalCode": "K1K0H4",
        "streetName": "EASTBOURNE",
        "streetDirectionId": null,
        "streetTypeId": "AVE",
        "placeName": "OTTAWA",
        "streetNameDisplayText": "EASTBOURNE AVE, OTTAWA"
      }
    ]
  },
  {
    "postal": "K1K2T1",
    "result": [
      {
        "electoralDistricts": [
          {
            "election": null,
            "id": 80,
            "name": "Ottawa—Vanier"
          }
        ],
        "pollDivisionIds": [
          10140731
        ],
        "postalCode": "K1K2T1",
        "streetName": "PADDY",
        "streetDirectionId": null,
        "streetTypeId": "LANE",
        "placeName": "OTTAWA",
        "streetNameDisplayText": "PADDY LANE, OTTAWA"
      }
    ]
  },
  {
    "postal": "K1K1B1",
    "result": [
      {
        "electoralDistricts": [
          {
            "election": null,
            "id": 80,
            "name": "Ottawa—Vanier"
          }
        ],
        "pollDivisionIds": [
          10140726
        ],
        "postalCode": "K1K1B1",
        "streetName": "BLAKE",
        "streetDirectionId": null,
        "streetTypeId": "BLVD",
        "placeName": "OTTAWA",
        "streetNameDisplayText": "BLAKE BLVD, OTTAWA"
      }
    ]
  },
  {
    "postal": "K1K8B6",
    "result": []
  },
  {
    "postal": "K1K6H1",
    "result": []
  },
  {
    "postal": "K1K8T8",
    "result": []
  },
  {
    "postal": "K1K0T4",
    "result": [
      {
        "electoralDistricts": [
          {
            "election": null,
            "id": 80,
            "name": "Ottawa—Vanier"
          }
        ],
        "pollDivisionIds": [
          10140727
        ],
        "postalCode": "K1K0T4",
        "streetName": "MONTREAL",
        "streetDirectionId": null,
        "streetTypeId": "RD",
        "placeName": "OTTAWA",
        "streetNameDisplayText": "MONTREAL RD, OTTAWA"
      }
    ]
  },
  {
    "postal": "K1K2C4",
    "result": [
      {
        "electoralDistricts": [
          {
            "election": null,
            "id": 80,
            "name": "Ottawa—Vanier"
          }
        ],
        "pollDivisionIds": [
          10140730
        ],
        "postalCode": "K1K2C4",
        "streetName": "COVENTRY",
        "streetDirectionId": null,
        "streetTypeId": "RD",
        "placeName": "OTTAWA",
        "streetNameDisplayText": "COVENTRY RD, OTTAWA"
      }
    ]
  },
  {
    "postal": "K1K8N3",
    "result": []
  },
  {
    "postal": "K1K4L8",
    "result": []
  },
  {
    "postal": "K1K2B5",
    "result": [
      {
        "electoralDistricts": [
          {
            "election": null,
            "id": 80,
            "name": "Ottawa—Vanier"
          }
        ],
        "pollDivisionIds": [
          10140730
        ],
        "postalCode": "K1K2B5",
        "streetName": "PRESLAND",
        "streetDirectionId": null,
        "streetTypeId": "RD",
        "placeName": "OTTAWA",
        "streetNameDisplayText": "PRESLAND RD, OTTAWA"
      }
    ]
  },
  {
    "postal": "K1K3H1",
    "result": [
      {
        "electoralDistricts": [
          {
            "election": null,
            "id": 80,
            "name": "Ottawa—Vanier"
          }
        ],
        "pollDivisionIds": [
          10140729
        ],
        "postalCode": "K1K3H1",
        "streetName": "MAY",
        "streetDirectionId": null,
        "streetTypeId": "ST",
        "placeName": "OTTAWA",
        "streetNameDisplayText": "MAY ST, OTTAWA"
      }
    ]
  },
  {
    "postal": "K1K4Y1",
    "result": [
      {
        "electoralDistricts": [
          {
            "election": null,
            "id": 80,
            "name": "Ottawa—Vanier"
          }
        ],
        "pollDivisionIds": [
          10140728
        ],
        "postalCode": "K1K4Y1",
        "streetName": "THORNWOOD",
        "streetDirectionId": null,
        "streetTypeId": "RD",
        "placeName": "OTTAWA",
        "streetNameDisplayText": "THORNWOOD RD, OTTAWA"
      }
    ]
  },
  {
    "postal": "K1K7E2",
    "result": []
  },
  {
    "postal": "K1K2P5",
    "result": [
      {
        "electoralDistricts": [
          {
            "election": null,
            "id": 80,
            "name": "Ottawa—Vanier"
          }
        ],
        "pollDivisionIds": [
          10140731
        ],
        "postalCode": "K1K2P5",
        "streetName": "TROJAN",
        "streetDirectionId": null,
        "streetTypeId": "AVE",
        "placeName": "OTTAWA",
        "streetNameDisplayText": "TROJAN AVE, OTTAWA"
      }
    ]
  },
  {
    "postal": "K1K8R7",
    "result": []
  },
  {
    "postal": "K1K9P1",
    "result": []
  },
  {
    "postal": "K1K3B8",
    "result": [
      {
        "electoralDistricts": [
          {
            "election": null,
            "id": 80,
            "name": "Ottawa—Vanier"
          }
        ],
        "pollDivisionIds": [
          10140730
        ],
        "postalCode": "K1K3B8",
        "streetName": "ST. LAURENT",
        "streetDirectionId": null,
        "streetTypeId": "BLVD",
        "placeName": "OTTAWA",
        "streetNameDisplayText": "ST. LAURENT BLVD, OTTAWA"
      }
    ]
  },
  {
    "postal": "K1K3P7",
    "result": [
      {
        "electoralDistricts": [
          {
            "election": null,
            "id": 80,
            "name": "Ottawa—Vanier"
          }
        ],
        "pollDivisionIds": [
          10140725
        ],
        "postalCode": "K1K3P7",
        "streetName": "LOLA",
        "streetDirectionId": null,
        "streetTypeId": "ST",
        "placeName": "OTTAWA",
        "streetNameDisplayText": "LOLA ST, OTTAWA"
      }
    ]
  },
  {
    "postal": "K1K9B2",
    "result": []
  },
  {
    "postal": "K1K6Z3",
    "result": []
  },
  {
    "postal": "K1K4N5",
    "result": [
      {
        "electoralDistricts": [
          {
            "election": null,
            "id": 80,
            "name": "Ottawa—Vanier"
          }
        ],
        "pollDivisionIds": [
          10140732
        ],
        "postalCode": "K1K4N5",
        "streetName": "PROVENDER",
        "streetDirectionId": null,
        "streetTypeId": "AVE",
        "placeName": "OTTAWA",
        "streetNameDisplayText": "PROVENDER AVE, OTTAWA"
      }
    ]
  },
  {
    "postal": "K1K8T3",
    "result": []
  },
  {
    "postal": "K1K1V2",
    "result": [
      {
        "electoralDistricts": [
          {
            "election": null,
            "id": 80,
            "name": "Ottawa—Vanier"
          }
        ],
        "pollDivisionIds": [
          10140725
        ],
        "postalCode": "K1K1V2",
        "streetName": "KING GEORGE",
        "streetDirectionId": null,
        "streetTypeId": "ST",
        "placeName": "OTTAWA",
        "streetNameDisplayText": "KING GEORGE ST, OTTAWA"
      }
    ]
  },
  {
    "postal": "K1K1Y0",
    "result": []
  },
  {
    "postal": "K1K3G6",
    "result": [
      {
        "electoralDistricts": [
          {
            "election": null,
            "id": 80,
            "name": "Ottawa—Vanier"
          }
        ],
        "pollDivisionIds": [
          10140714
        ],
        "postalCode": "K1K3G6",
        "streetName": "BIRCH",
        "streetDirectionId": null,
        "streetTypeId": "AVE",
        "placeName": "ROCKCLIFFE",
        "streetNameDisplayText": "BIRCH AVE, ROCKCLIFFE"
      }
    ]
  },
  {
    "postal": "K1K3H7",
    "result": [
      {
        "electoralDistricts": [
          {
            "election": null,
            "id": 80,
            "name": "Ottawa—Vanier"
          }
        ],
        "pollDivisionIds": [
          10140730
        ],
        "postalCode": "K1K3H7",
        "streetName": "BERNARD",
        "streetDirectionId": null,
        "streetTypeId": "ST",
        "placeName": "OTTAWA",
        "streetNameDisplayText": "BERNARD ST, OTTAWA"
      }
    ]
  },
  {
    "postal": "K1K7X8",
    "result": []
  },
  {
    "postal": "K1K0C7",
    "result": [
      {
        "electoralDistricts": [
          {
            "election": null,
            "id": 80,
            "name": "Ottawa—Vanier"
          }
        ],
        "pollDivisionIds": [
          10140728
        ],
        "postalCode": "K1K0C7",
        "streetName": "BLASDELL",
        "streetDirectionId": null,
        "streetTypeId": "AVE",
        "placeName": "OTTAWA",
        "streetNameDisplayText": "BLASDELL AVE, OTTAWA"
      }
    ]
  },
  {
    "postal": "K1K0W9",
    "result": []
  },
  {
    "postal": "K1K8E6",
    "result": []
  },
  {
    "postal": "K1K9Z8",
    "result": []
  },
  {
    "postal": "K1K3P4",
    "result": [
      {
        "electoralDistricts": [
          {
            "election": null,
            "id": 80,
            "name": "Ottawa—Vanier"
          }
        ],
        "pollDivisionIds": [
          10140724
        ],
        "postalCode": "K1K3P4",
        "streetName": "LOLA",
        "streetDirectionId": null,
        "streetTypeId": "ST",
        "placeName": "OTTAWA",
        "streetNameDisplayText": "LOLA ST, OTTAWA"
      }
    ]
  },
  {
    "postal": "K1K6L8",
    "result": []
  },
  {
    "postal": "K1K2R4",
    "result": [
      {
        "electoralDistricts": [
          {
            "election": null,
            "id": 80,
            "name": "Ottawa—Vanier"
          }
        ],
        "pollDivisionIds": [
          10140727
        ],
        "postalCode": "K1K2R4",
        "streetName": "APPLE TREE",
        "streetDirectionId": null,
        "streetTypeId": "LANE",
        "placeName": "OTTAWA",
        "streetNameDisplayText": "APPLE TREE LANE, OTTAWA"
      }
    ]
  },
  {
    "postal": "K1K2W1",
    "result": []
  },
  {
    "postal": "K1K9H8",
    "result": []
  },
  {
    "postal": "K1K8X9",
    "result": []
  },
  {
    "postal": "K1K7H4",
    "result": []
  },
  {
    "postal": "K1K3J1",
    "result": [
      {
        "electoralDistricts": [
          {
            "election": null,
            "id": 80,
            "name": "Ottawa—Vanier"
          }
        ],
        "pollDivisionIds": [
          10140730
        ],
        "postalCode": "K1K3J1",
        "streetName": "BERNARD",
        "streetDirectionId": null,
        "streetTypeId": "ST",
        "placeName": "OTTAWA",
        "streetNameDisplayText": "BERNARD ST, OTTAWA"
      }
    ]
  },
  {
    "postal": "K1K1P4",
    "result": [
      {
        "electoralDistricts": [
          {
            "election": null,
            "id": 80,
            "name": "Ottawa—Vanier"
          }
        ],
        "pollDivisionIds": [
          10140725
        ],
        "postalCode": "K1K1P4",
        "streetName": "COLUMBUS",
        "streetDirectionId": null,
        "streetTypeId": "AVE",
        "placeName": "OTTAWA",
        "streetNameDisplayText": "COLUMBUS AVE, OTTAWA"
      }
    ]
  },
  {
    "postal": "K1K2A3",
    "result": [
      {
        "electoralDistricts": [
          {
            "election": null,
            "id": 80,
            "name": "Ottawa—Vanier"
          }
        ],
        "pollDivisionIds": [
          10140725
        ],
        "postalCode": "K1K2A3",
        "streetName": "PRINCE ALBERT",
        "streetDirectionId": null,
        "streetTypeId": "ST",
        "placeName": "OTTAWA",
        "streetNameDisplayText": "PRINCE ALBERT ST, OTTAWA"
      }
    ]
  },
  {
    "postal": "K1K0Z1",
    "result": [
      {
        "electoralDistricts": [
          {
            "election": null,
            "id": 80,
            "name": "Ottawa—Vanier"
          }
        ],
        "pollDivisionIds": [
          10140731
        ],
        "postalCode": "K1K0Z1",
        "streetName": "CLARKE",
        "streetDirectionId": null,
        "streetTypeId": "AVE",
        "placeName": "OTTAWA",
        "streetNameDisplayText": "CLARKE AVE, OTTAWA"
      }
    ]
  },
  {
    "postal": "K1K1C1",
    "result": [
      {
        "electoralDistricts": [
          {
            "election": null,
            "id": 80,
            "name": "Ottawa—Vanier"
          }
        ],
        "pollDivisionIds": [
          10140729
        ],
        "postalCode": "K1K1C1",
        "streetName": "GUY",
        "streetDirectionId": null,
        "streetTypeId": "ST",
        "placeName": "OTTAWA",
        "streetNameDisplayText": "GUY ST, OTTAWA"
      }
    ]
  },
  {
    "postal": "K1K0H3",
    "result": [
      {
        "electoralDistricts": [
          {
            "election": null,
            "id": 80,
            "name": "Ottawa—Vanier"
          }
        ],
        "pollDivisionIds": [
          10140728
        ],
        "postalCode": "K1K0H3",
        "streetName": "KILBARRY",
        "streetDirectionId": null,
        "streetTypeId": "CRES",
        "placeName": "OTTAWA",
        "streetNameDisplayText": "KILBARRY CRES, OTTAWA"
      }
    ]
  },
  {
    "postal": "K1K7B0",
    "result": []
  },
  {
    "postal": "K1K5K2",
    "result": []
  },
  {
    "postal": "K1K1E9",
    "result": [
      {
        "electoralDistricts": [
          {
            "election": null,
            "id": 80,
            "name": "Ottawa—Vanier"
          }
        ],
        "pollDivisionIds": [
          10140734
        ],
        "postalCode": "K1K1E9",
        "streetName": "SHANE",
        "streetDirectionId": null,
        "streetTypeId": "ST",
        "placeName": "OTTAWA",
        "streetNameDisplayText": "SHANE ST, OTTAWA"
      }
    ]
  },
  {
    "postal": "K1K9W7",
    "result": []
  },
  {
    "postal": "K1K5W6",
    "result": []
  },
  {
    "postal": "K1K6S6",
    "result": []
  },
  {
    "postal": "K1K2P8",
    "result": [
      {
        "electoralDistricts": [
          {
            "election": null,
            "id": 80,
            "name": "Ottawa—Vanier"
          }
        ],
        "pollDivisionIds": [
          10140731
        ],
        "postalCode": "K1K2P8",
        "streetName": "TROJAN",
        "streetDirectionId": null,
        "streetTypeId": "AVE",
        "placeName": "OTTAWA",
        "streetNameDisplayText": "TROJAN AVE, OTTAWA"
      }
    ]
  },
  {
    "postal": "K1K4P8",
    "result": []
  },
  {
    "postal": "K1K0V9",
    "result": [
      {
        "electoralDistricts": [
          {
            "election": null,
            "id": 80,
            "name": "Ottawa—Vanier"
          }
        ],
        "pollDivisionIds": [
          10140733
        ],
        "postalCode": "K1K0V9",
        "streetName": "BERMUDA",
        "streetDirectionId": null,
        "streetTypeId": "AVE",
        "placeName": "OTTAWA",
        "streetNameDisplayText": "BERMUDA AVE, OTTAWA"
      }
    ]
  },
  {
    "postal": "K1K5Y2",
    "result": []
  },
  {
    "postal": "K1K7Z7",
    "result": []
  },
  {
    "postal": "K1K6Y8",
    "result": []
  },
  {
    "postal": "K1K2G7",
    "result": [
      {
        "electoralDistricts": [
          {
            "election": null,
            "id": 80,
            "name": "Ottawa—Vanier"
          }
        ],
        "pollDivisionIds": [
          10140732
        ],
        "postalCode": "K1K2G7",
        "streetName": "CODD'S",
        "streetDirectionId": null,
        "streetTypeId": "RD",
        "placeName": "OTTAWA",
        "streetNameDisplayText": "CODD'S RD, OTTAWA"
      }
    ]
  },
  {
    "postal": "K1K8C1",
    "result": []
  },
  {
    "postal": "K1K5C5",
    "result": []
  },
  {
    "postal": "K1K2X8",
    "result": [
      {
        "electoralDistricts": [
          {
            "election": null,
            "id": 80,
            "name": "Ottawa—Vanier"
          }
        ],
        "pollDivisionIds": [
          10140728
        ],
        "postalCode": "K1K2X8",
        "streetName": "CAMELIA",
        "streetDirectionId": null,
        "streetTypeId": "AVE",
        "placeName": "OTTAWA",
        "streetNameDisplayText": "CAMELIA AVE, OTTAWA"
      }
    ]
  },
  {
    "postal": "K1K1W5",
    "result": [
      {
        "electoralDistricts": [
          {
            "election": null,
            "id": 80,
            "name": "Ottawa—Vanier"
          }
        ],
        "pollDivisionIds": [
          10140730
        ],
        "postalCode": "K1K1W5",
        "streetName": "QUEEN MARY",
        "streetDirectionId": null,
        "streetTypeId": "ST",
        "placeName": "OTTAWA",
        "streetNameDisplayText": "QUEEN MARY ST, OTTAWA"
      }
    ]
  },
  {
    "postal": "K1K7G0",
    "result": []
  },
  {
    "postal": "K1K8J8",
    "result": []
  },
  {
    "postal": "K1K3Y0",
    "result": []
  },
  {
    "postal": "K1K9T7",
    "result": []
  },
  {
    "postal": "K1K5P4",
    "result": []
  },
  {
    "postal": "K1K4B0",
    "result": []
  },
  {
    "postal": "K1K9N8",
    "result": []
  },
  {
    "postal": "K1K4A7",
    "result": [
      {
        "electoralDistricts": [
          {
            "election": null,
            "id": 80,
            "name": "Ottawa—Vanier"
          }
        ],
        "pollDivisionIds": [
          10140735
        ],
        "postalCode": "K1K4A7",
        "streetName": "PLUMBER",
        "streetDirectionId": null,
        "streetTypeId": "AVE",
        "placeName": "OTTAWA",
        "streetNameDisplayText": "PLUMBER AVE, OTTAWA"
      }
    ]
  },
  {
    "postal": "K1K4H9",
    "result": [
      {
        "electoralDistricts": [
          {
            "election": null,
            "id": 80,
            "name": "Ottawa—Vanier"
          }
        ],
        "pollDivisionIds": [
          10140777
        ],
        "postalCode": "K1K4H9",
        "streetName": "ST. LAURENT",
        "streetDirectionId": null,
        "streetTypeId": "BLVD",
        "placeName": "OTTAWA",
        "streetNameDisplayText": "ST. LAURENT BLVD, OTTAWA"
      }
    ]
  },
  {
    "postal": "K1K6X1",
    "result": []
  },
  {
    "postal": "K1K9Y7",
    "result": []
  },
  {
    "postal": "K1K2Y5",
    "result": []
  },
  {
    "postal": "K1K8L7",
    "result": []
  },
  {
    "postal": "K1K2A8",
    "result": [
      {
        "electoralDistricts": [
          {
            "election": null,
            "id": 80,
            "name": "Ottawa—Vanier"
          }
        ],
        "pollDivisionIds": [
          10140730
        ],
        "postalCode": "K1K2A8",
        "streetName": "HARDY",
        "streetDirectionId": null,
        "streetTypeId": "AVE",
        "placeName": "OTTAWA",
        "streetNameDisplayText": "HARDY AVE, OTTAWA"
      }
    ]
  },
  {
    "postal": "K1K2K9",
    "result": [
      {
        "electoralDistricts": [
          {
            "election": null,
            "id": 80,
            "name": "Ottawa—Vanier"
          }
        ],
        "pollDivisionIds": [
          10140731
        ],
        "postalCode": "K1K2K9",
        "streetName": "CUMMINGS",
        "streetDirectionId": null,
        "streetTypeId": "AVE",
        "placeName": "OTTAWA",
        "streetNameDisplayText": "CUMMINGS AVE, OTTAWA"
      }
    ]
  },
  {
    "postal": "K1K3E5",
    "result": [
      {
        "electoralDistricts": [
          {
            "election": null,
            "id": 80,
            "name": "Ottawa—Vanier"
          }
        ],
        "pollDivisionIds": [
          10140728
        ],
        "postalCode": "K1K3E5",
        "streetName": "MERRIMAN",
        "streetDirectionId": null,
        "streetTypeId": "AVE",
        "placeName": "OTTAWA",
        "streetNameDisplayText": "MERRIMAN AVE, OTTAWA"
      }
    ]
  },
  {
    "postal": "K1K8N6",
    "result": []
  },
  {
    "postal": "K1K8J4",
    "result": []
  },
  {
    "postal": "K1K4R7",
    "result": [
      {
        "electoralDistricts": [
          {
            "election": null,
            "id": 80,
            "name": "Ottawa—Vanier"
          }
        ],
        "pollDivisionIds": [
          10140729
        ],
        "postalCode": "K1K4R7",
        "streetName": "COLLEGE",
        "streetDirectionId": null,
        "streetTypeId": "CIR",
        "placeName": "OTTAWA",
        "streetNameDisplayText": "COLLEGE CIR, OTTAWA"
      }
    ]
  },
  {
    "postal": "K1K9K1",
    "result": []
  },
  {
    "postal": "K1K8E1",
    "result": []
  },
  {
    "postal": "K1K0R1",
    "result": [
      {
        "electoralDistricts": [
          {
            "election": null,
            "id": 80,
            "name": "Ottawa—Vanier"
          }
        ],
        "pollDivisionIds": [
          10140727
        ],
        "postalCode": "K1K0R1",
        "streetName": "CARPENTER",
        "streetDirectionId": null,
        "streetTypeId": "WAY",
        "placeName": "OTTAWA",
        "streetNameDisplayText": "CARPENTER WAY, OTTAWA"
      }
    ]
  },
  {
    "postal": "K1K4J3",
    "result": [
      {
        "electoralDistricts": [
          {
            "election": null,
            "id": 80,
            "name": "Ottawa—Vanier"
          }
        ],
        "pollDivisionIds": [
          10140727
        ],
        "postalCode": "K1K4J3",
        "streetName": "HILLSIDE",
        "streetDirectionId": null,
        "streetTypeId": "DR",
        "placeName": "OTTAWA",
        "streetNameDisplayText": "HILLSIDE DR, OTTAWA"
      }
    ]
  },
  {
    "postal": "K1K7E7",
    "result": []
  },
  {
    "postal": "K1K0J0",
    "result": []
  },
  {
    "postal": "K1K7R8",
    "result": []
  },
  {
    "postal": "K1K9X0",
    "result": []
  },
  {
    "postal": "K1K7P6",
    "result": []
  },
  {
    "postal": "K1K0R7",
    "result": [
      {
        "electoralDistricts": [
          {
            "election": null,
            "id": 80,
            "name": "Ottawa—Vanier"
          }
        ],
        "pollDivisionIds": [
          10140774
        ],
        "postalCode": "K1K0R7",
        "streetName": "BRITTANY",
        "streetDirectionId": null,
        "streetTypeId": "DR",
        "placeName": "OTTAWA",
        "streetNameDisplayText": "BRITTANY DR, OTTAWA"
      }
    ]
  },
  {
    "postal": "K1K5W1",
    "result": []
  },
  {
    "postal": "K1K0K4",
    "result": [
      {
        "electoralDistricts": [
          {
            "election": null,
            "id": 80,
            "name": "Ottawa—Vanier"
          }
        ],
        "pollDivisionIds": [
          10140728
        ],
        "postalCode": "K1K0K4",
        "streetName": "DUNLOE",
        "streetDirectionId": null,
        "streetTypeId": "AVE",
        "placeName": "OTTAWA",
        "streetNameDisplayText": "DUNLOE AVE, OTTAWA"
      }
    ]
  },
  {
    "postal": "K1K7N9",
    "result": []
  },
  {
    "postal": "K1K1N0",
    "result": []
  },
  {
    "postal": "K1K6P3",
    "result": []
  },
  {
    "postal": "K1K5A1",
    "result": []
  },
  {
    "postal": "K1K9M9",
    "result": []
  },
  {
    "postal": "K1K7T6",
    "result": []
  },
  {
    "postal": "K1K3X0",
    "result": []
  },
  {
    "postal": "K1K2T0",
    "result": []
  },
  {
    "postal": "K1K5X9",
    "result": []
  },
  {
    "postal": "K1K2R3",
    "result": [
      {
        "electoralDistricts": [
          {
            "election": null,
            "id": 80,
            "name": "Ottawa—Vanier"
          }
        ],
        "pollDivisionIds": [
          10140727
        ],
        "postalCode": "K1K2R3",
        "streetName": "APPLE TREE",
        "streetDirectionId": null,
        "streetTypeId": "LANE",
        "placeName": "OTTAWA",
        "streetNameDisplayText": "APPLE TREE LANE, OTTAWA"
      }
    ]
  },
  {
    "postal": "K1K5N2",
    "result": []
  },
  {
    "postal": "K1K4Y7",
    "result": [
      {
        "electoralDistricts": [
          {
            "election": null,
            "id": 80,
            "name": "Ottawa—Vanier"
          }
        ],
        "pollDivisionIds": [
          10140733
        ],
        "postalCode": "K1K4Y7",
        "streetName": "CARGROVE",
        "streetDirectionId": null,
        "streetTypeId": "PVT",
        "placeName": "OTTAWA",
        "streetNameDisplayText": "CARGROVE PVT, OTTAWA"
      }
    ]
  },
  {
    "postal": "K1K7M0",
    "result": []
  },
  {
    "postal": "K1K8P3",
    "result": []
  },
  {
    "postal": "K1K3N3",
    "result": [
      {
        "electoralDistricts": [
          {
            "election": null,
            "id": 80,
            "name": "Ottawa—Vanier"
          }
        ],
        "pollDivisionIds": [
          10140724
        ],
        "postalCode": "K1K3N3",
        "streetName": "BRANT",
        "streetDirectionId": null,
        "streetTypeId": "ST",
        "placeName": "OTTAWA",
        "streetNameDisplayText": "BRANT ST, OTTAWA"
      }
    ]
  },
  {
    "postal": "K1K7S3",
    "result": []
  },
  {
    "postal": "K1K3V9",
    "result": [
      {
        "electoralDistricts": [
          {
            "election": null,
            "id": 80,
            "name": "Ottawa—Vanier"
          }
        ],
        "pollDivisionIds": [
          10140725
        ],
        "postalCode": "K1K3V9",
        "streetName": "NORTH RIVER",
        "streetDirectionId": null,
        "streetTypeId": "RD",
        "placeName": "OTTAWA",
        "streetNameDisplayText": "NORTH RIVER RD, OTTAWA"
      }
    ]
  },
  {
    "postal": "K1K9N7",
    "result": []
  },
  {
    "postal": "K1K0G4",
    "result": [
      {
        "electoralDistricts": [
          {
            "election": null,
            "id": 80,
            "name": "Ottawa—Vanier"
          }
        ],
        "pollDivisionIds": [
          10140728
        ],
        "postalCode": "K1K0G4",
        "streetName": "FARNHAM",
        "streetDirectionId": null,
        "streetTypeId": "CRES",
        "placeName": "OTTAWA",
        "streetNameDisplayText": "FARNHAM CRES, OTTAWA"
      }
    ]
  },
  {
    "postal": "K1K2E2",
    "result": [
      {
        "electoralDistricts": [
          {
            "election": null,
            "id": 80,
            "name": "Ottawa—Vanier"
          }
        ],
        "pollDivisionIds": [
          10140732
        ],
        "postalCode": "K1K2E2",
        "streetName": "MYNARSKI",
        "streetDirectionId": null,
        "streetTypeId": "PVT",
        "placeName": "OTTAWA",
        "streetNameDisplayText": "MYNARSKI PVT, OTTAWA"
      }
    ]
  },
  {
    "postal": "K1K7W8",
    "result": []
  },
  {
    "postal": "K1K7M5",
    "result": []
  },
  {
    "postal": "K1K5W8",
    "result": []
  },
  {
    "postal": "K1K5E5",
    "result": []
  },
  {
    "postal": "K1K1P9",
    "result": [
      {
        "electoralDistricts": [
          {
            "election": null,
            "id": 80,
            "name": "Ottawa—Vanier"
          }
        ],
        "pollDivisionIds": [
          10140725
        ],
        "postalCode": "K1K1P9",
        "streetName": "COLUMBUS",
        "streetDirectionId": null,
        "streetTypeId": "AVE",
        "placeName": "OTTAWA",
        "streetNameDisplayText": "COLUMBUS AVE, OTTAWA"
      }
    ]
  },
  {
    "postal": "K1K8V8",
    "result": []
  },
  {
    "postal": "K1K9G8",
    "result": []
  },
  {
    "postal": "K1K8H9",
    "result": []
  },
  {
    "postal": "K1K1Z1",
    "result": [
      {
        "electoralDistricts": [
          {
            "election": null,
            "id": 80,
            "name": "Ottawa—Vanier"
          }
        ],
        "pollDivisionIds": [
          10140730
        ],
        "postalCode": "K1K1Z1",
        "streetName": "PRINCE ALBERT",
        "streetDirectionId": null,
        "streetTypeId": "ST",
        "placeName": "OTTAWA",
        "streetNameDisplayText": "PRINCE ALBERT ST, OTTAWA"
      }
    ]
  },
  {
    "postal": "K1K8M3",
    "result": []
  },
  {
    "postal": "K1K5H6",
    "result": []
  },
  {
    "postal": "K1K7W7",
    "result": []
  },
  {
    "postal": "K1K4L0",
    "result": []
  },
  {
    "postal": "K1K2N1",
    "result": [
      {
        "electoralDistricts": [
          {
            "election": null,
            "id": 80,
            "name": "Ottawa—Vanier"
          }
        ],
        "pollDivisionIds": [
          10140734
        ],
        "postalCode": "K1K2N1",
        "streetName": "BORTHWICK",
        "streetDirectionId": null,
        "streetTypeId": "AVE",
        "placeName": "OTTAWA",
        "streetNameDisplayText": "BORTHWICK AVE, OTTAWA"
      }
    ]
  },
  {
    "postal": "K1K2H4",
    "result": []
  },
  {
    "postal": "K1K5C8",
    "result": []
  },
  {
    "postal": "K1K8B0",
    "result": []
  },
  {
    "postal": "K1K1T4",
    "result": [
      {
        "electoralDistricts": [
          {
            "election": null,
            "id": 80,
            "name": "Ottawa—Vanier"
          }
        ],
        "pollDivisionIds": [
          10140730
        ],
        "postalCode": "K1K1T4",
        "streetName": "KING GEORGE",
        "streetDirectionId": null,
        "streetTypeId": "ST",
        "placeName": "OTTAWA",
        "streetNameDisplayText": "KING GEORGE ST, OTTAWA"
      }
    ]
  },
  {
    "postal": "K1K7N7",
    "result": []
  },
  {
    "postal": "K1K4L3",
    "result": [
      {
        "electoralDistricts": [
          {
            "election": null,
            "id": 80,
            "name": "Ottawa—Vanier"
          }
        ],
        "pollDivisionIds": [
          10140733
        ],
        "postalCode": "K1K4L3",
        "streetName": "MONTREAL",
        "streetDirectionId": null,
        "streetTypeId": "RD",
        "placeName": "OTTAWA",
        "streetNameDisplayText": "MONTREAL RD, OTTAWA"
      }
    ]
  },
  {
    "postal": "K1K2N2",
    "result": [
      {
        "electoralDistricts": [
          {
            "election": null,
            "id": 80,
            "name": "Ottawa—Vanier"
          }
        ],
        "pollDivisionIds": [
          10140727
        ],
        "postalCode": "K1K2N2",
        "streetName": "TRURO",
        "streetDirectionId": null,
        "streetTypeId": "ST",
        "placeName": "OTTAWA",
        "streetNameDisplayText": "TRURO ST, OTTAWA"
      }
    ]
  },
  {
    "postal": "K1K4N8",
    "result": [
      {
        "electoralDistricts": [
          {
            "election": null,
            "id": 80,
            "name": "Ottawa—Vanier"
          }
        ],
        "pollDivisionIds": [
          10140732
        ],
        "postalCode": "K1K4N8",
        "streetName": "PROVENDER",
        "streetDirectionId": null,
        "streetTypeId": "AVE",
        "placeName": "OTTAWA",
        "streetNameDisplayText": "PROVENDER AVE, OTTAWA"
      },
      {
        "electoralDistricts": [
          {
            "election": null,
            "id": 80,
            "name": "Ottawa—Vanier"
          }
        ],
        "pollDivisionIds": [
          10140732
        ],
        "postalCode": "K1K4N8",
        "streetName": "VIA VEGA",
        "streetDirectionId": null,
        "streetTypeId": "PVT",
        "placeName": "OTTAWA",
        "streetNameDisplayText": "VIA VEGA PVT, OTTAWA"
      }
    ]
  },
  {
    "postal": "K1K3M5",
    "result": [
      {
        "electoralDistricts": [
          {
            "election": null,
            "id": 80,
            "name": "Ottawa—Vanier"
          }
        ],
        "pollDivisionIds": [
          10140726
        ],
        "postalCode": "K1K3M5",
        "streetName": "LUC",
        "streetDirectionId": null,
        "streetTypeId": "ST",
        "placeName": "OTTAWA",
        "streetNameDisplayText": "LUC ST, OTTAWA"
      }
    ]
  },
  {
    "postal": "K1K6H7",
    "result": []
  },
  {
    "postal": "K1K8Y8",
    "result": []
  },
  {
    "postal": "K1K5R9",
    "result": []
  },
  {
    "postal": "K1K8G3",
    "result": []
  },
  {
    "postal": "K1K4N7",
    "result": [
      {
        "electoralDistricts": [
          {
            "election": null,
            "id": 80,
            "name": "Ottawa—Vanier"
          }
        ],
        "pollDivisionIds": [
          10140732
        ],
        "postalCode": "K1K4N7",
        "streetName": "PROVENDER",
        "streetDirectionId": null,
        "streetTypeId": "AVE",
        "placeName": "OTTAWA",
        "streetNameDisplayText": "PROVENDER AVE, OTTAWA"
      },
      {
        "electoralDistricts": [
          {
            "election": null,
            "id": 80,
            "name": "Ottawa—Vanier"
          }
        ],
        "pollDivisionIds": [
          10140732
        ],
        "postalCode": "K1K4N7",
        "streetName": "ROTHBURY",
        "streetDirectionId": null,
        "streetTypeId": "CRES",
        "placeName": "OTTAWA",
        "streetNameDisplayText": "ROTHBURY CRES, OTTAWA"
      }
    ]
  },
  {
    "postal": "K1K0B9",
    "result": [
      {
        "electoralDistricts": [
          {
            "election": null,
            "id": 80,
            "name": "Ottawa—Vanier"
          }
        ],
        "pollDivisionIds": [
          10140728
        ],
        "postalCode": "K1K0B9",
        "streetName": "BLASDELL",
        "streetDirectionId": null,
        "streetTypeId": "AVE",
        "placeName": "OTTAWA",
        "streetNameDisplayText": "BLASDELL AVE, OTTAWA"
      }
    ]
  },
  {
    "postal": "K1K9K7",
    "result": []
  },
  {
    "postal": "K1K9K9",
    "result": []
  },
  {
    "postal": "K1K3Z2",
    "result": [
      {
        "electoralDistricts": [
          {
            "election": null,
            "id": 80,
            "name": "Ottawa—Vanier"
          }
        ],
        "pollDivisionIds": [
          10140733
        ],
        "postalCode": "K1K3Z2",
        "streetName": "CHARLTON",
        "streetDirectionId": null,
        "streetTypeId": "DR",
        "placeName": "OTTAWA",
        "streetNameDisplayText": "CHARLTON DR, OTTAWA"
      }
    ]
  },
  {
    "postal": "K1K6W7",
    "result": []
  },
  {
    "postal": "K1K0P1",
    "result": [
      {
        "electoralDistricts": [
          {
            "election": null,
            "id": 80,
            "name": "Ottawa—Vanier"
          }
        ],
        "pollDivisionIds": [
          10140732
        ],
        "postalCode": "K1K0P1",
        "streetName": "BARKER",
        "streetDirectionId": null,
        "streetTypeId": "BLVD",
        "placeName": "OTTAWA",
        "streetNameDisplayText": "BARKER BLVD, OTTAWA"
      }
    ]
  },
  {
    "postal": "K1K3A0",
    "result": []
  },
  {
    "postal": "K1K8L9",
    "result": []
  },
  {
    "postal": "K1K6X0",
    "result": []
  },
  {
    "postal": "K1K3E9",
    "result": [
      {
        "electoralDistricts": [
          {
            "election": null,
            "id": 80,
            "name": "Ottawa—Vanier"
          }
        ],
        "pollDivisionIds": [
          10140728
        ],
        "postalCode": "K1K3E9",
        "streetName": "DUNVEGAN",
        "streetDirectionId": null,
        "streetTypeId": "RD",
        "placeName": "OTTAWA",
        "streetNameDisplayText": "DUNVEGAN RD, OTTAWA"
      }
    ]
  },
  {
    "postal": "K1K0S5",
    "result": [
      {
        "electoralDistricts": [
          {
            "election": null,
            "id": 80,
            "name": "Ottawa—Vanier"
          }
        ],
        "pollDivisionIds": [
          10140728
        ],
        "postalCode": "K1K0S5",
        "streetName": "EASTBOURNE",
        "streetDirectionId": null,
        "streetTypeId": "AVE",
        "placeName": "OTTAWA",
        "streetNameDisplayText": "EASTBOURNE AVE, OTTAWA"
      }
    ]
  },
  {
    "postal": "K1K1A2",
    "result": [
      {
        "electoralDistricts": [
          {
            "election": null,
            "id": 80,
            "name": "Ottawa—Vanier"
          }
        ],
        "pollDivisionIds": [
          10140729
        ],
        "postalCode": "K1K1A2",
        "streetName": "COTE",
        "streetDirectionId": null,
        "streetTypeId": "ST",
        "placeName": "OTTAWA",
        "streetNameDisplayText": "COTE ST, OTTAWA"
      }
    ]
  },
  {
    "postal": "K1K5V8",
    "result": []
  },
  {
    "postal": "K1K8C5",
    "result": []
  },
  {
    "postal": "K1K6N0",
    "result": []
  },
  {
    "postal": "K1K9E6",
    "result": []
  },
  {
    "postal": "K1K5J7",
    "result": []
  },
  {
    "postal": "K1K2R2",
    "result": [
      {
        "electoralDistricts": [
          {
            "election": null,
            "id": 80,
            "name": "Ottawa—Vanier"
          }
        ],
        "pollDivisionIds": [
          10140731
        ],
        "postalCode": "K1K2R2",
        "streetName": "TROJAN",
        "streetDirectionId": null,
        "streetTypeId": "AVE",
        "placeName": "OTTAWA",
        "streetNameDisplayText": "TROJAN AVE, OTTAWA"
      }
    ]
  },
  {
    "postal": "K1K0P5",
    "result": [
      {
        "electoralDistricts": [
          {
            "election": null,
            "id": 80,
            "name": "Ottawa—Vanier"
          }
        ],
        "pollDivisionIds": [
          10140732
        ],
        "postalCode": "K1K0P5",
        "streetName": "BISHOP",
        "streetDirectionId": null,
        "streetTypeId": "PVT",
        "placeName": "OTTAWA",
        "streetNameDisplayText": "BISHOP PVT, OTTAWA"
      }
    ]
  },
  {
    "postal": "K1K5A7",
    "result": []
  },
  {
    "postal": "K1K1G1",
    "result": [
      {
        "electoralDistricts": [
          {
            "election": null,
            "id": 80,
            "name": "Ottawa—Vanier"
          }
        ],
        "pollDivisionIds": [
          10140731
        ],
        "postalCode": "K1K1G1",
        "streetName": "DAN",
        "streetDirectionId": null,
        "streetTypeId": "AVE",
        "placeName": "OTTAWA",
        "streetNameDisplayText": "DAN AVE, OTTAWA"
      },
      {
        "electoralDistricts": [
          {
            "election": null,
            "id": 80,
            "name": "Ottawa—Vanier"
          }
        ],
        "pollDivisionIds": [
          10140731
        ],
        "postalCode": "K1K1G1",
        "streetName": "DAN",
        "streetDirectionId": null,
        "streetTypeId": "ST",
        "placeName": "OTTAWA",
        "streetNameDisplayText": "DAN ST, OTTAWA"
      }
    ]
  },
  {
    "postal": "K1K9R6",
    "result": []
  },
  {
    "postal": "K1K4Z9",
    "result": [
      {
        "electoralDistricts": [
          {
            "election": null,
            "id": 80,
            "name": "Ottawa—Vanier"
          }
        ],
        "pollDivisionIds": [
          10140732
        ],
        "postalCode": "K1K4Z9",
        "streetName": "MAKADEWA",
        "streetDirectionId": null,
        "streetTypeId": "PVT",
        "placeName": "OTTAWA",
        "streetNameDisplayText": "MAKADEWA PVT, OTTAWA"
      },
      {
        "electoralDistricts": [
          {
            "election": null,
            "id": 80,
            "name": "Ottawa—Vanier"
          }
        ],
        "pollDivisionIds": [
          10140732
        ],
        "postalCode": "K1K4Z9",
        "streetName": "MIKINAK",
        "streetDirectionId": null,
        "streetTypeId": "RD",
        "placeName": "OTTAWA",
        "streetNameDisplayText": "MIKINAK RD, OTTAWA"
      },
      {
        "electoralDistricts": [
          {
            "election": null,
            "id": 80,
            "name": "Ottawa—Vanier"
          }
        ],
        "pollDivisionIds": [
          10140732
        ],
        "postalCode": "K1K4Z9",
        "streetName": "MOSES TENNISCO",
        "streetDirectionId": null,
        "streetTypeId": "ST",
        "placeName": "OTTAWA",
        "streetNameDisplayText": "MOSES TENNISCO ST, OTTAWA"
      },
      {
        "electoralDistricts": [
          {
            "election": null,
            "id": 80,
            "name": "Ottawa—Vanier"
          }
        ],
        "pollDivisionIds": [
          10140732
        ],
        "postalCode": "K1K4Z9",
        "streetName": "OZAWA",
        "streetDirectionId": null,
        "streetTypeId": "PVT",
        "placeName": "OTTAWA",
        "streetNameDisplayText": "OZAWA PVT, OTTAWA"
      }
    ]
  },
  {
    "postal": "K1K1V5",
    "result": [
      {
        "electoralDistricts": [
          {
            "election": null,
            "id": 80,
            "name": "Ottawa—Vanier"
          }
        ],
        "pollDivisionIds": [
          10140725
        ],
        "postalCode": "K1K1V5",
        "streetName": "KING GEORGE",
        "streetDirectionId": null,
        "streetTypeId": "ST",
        "placeName": "OTTAWA",
        "streetNameDisplayText": "KING GEORGE ST, OTTAWA"
      }
    ]
  },
  {
    "postal": "K1K9Y5",
    "result": []
  },
  {
    "postal": "K1K1P2",
    "result": [
      {
        "electoralDistricts": [
          {
            "election": null,
            "id": 80,
            "name": "Ottawa—Vanier"
          }
        ],
        "pollDivisionIds": [
          10140730
        ],
        "postalCode": "K1K1P2",
        "streetName": "MONSEIGNEUR LEMIEUX",
        "streetDirectionId": null,
        "streetTypeId": "AVE",
        "placeName": "OTTAWA",
        "streetNameDisplayText": "MONSEIGNEUR LEMIEUX AVE, OTTAWA"
      }
    ]
  },
  {
    "postal": "K1K5X0",
    "result": []
  },
  {
    "postal": "K1K7B8",
    "result": []
  },
  {
    "postal": "K1K0C6",
    "result": [
      {
        "electoralDistricts": [
          {
            "election": null,
            "id": 80,
            "name": "Ottawa—Vanier"
          }
        ],
        "pollDivisionIds": [
          10140728
        ],
        "postalCode": "K1K0C6",
        "streetName": "BLASDELL",
        "streetDirectionId": null,
        "streetTypeId": "AVE",
        "placeName": "OTTAWA",
        "streetNameDisplayText": "BLASDELL AVE, OTTAWA"
      }
    ]
  },
  {
    "postal": "K1K6G1",
    "result": []
  },
  {
    "postal": "K1K3K3",
    "result": [
      {
        "electoralDistricts": [
          {
            "election": null,
            "id": 80,
            "name": "Ottawa—Vanier"
          }
        ],
        "pollDivisionIds": [
          10140729
        ],
        "postalCode": "K1K3K3",
        "streetName": "DE L'EGLISE",
        "streetDirectionId": null,
        "streetTypeId": "RUE",
        "placeName": "OTTAWA",
        "streetNameDisplayText": "DE L'EGLISE RUE, OTTAWA"
      },
      {
        "electoralDistricts": [
          {
            "election": null,
            "id": 80,
            "name": "Ottawa—Vanier"
          }
        ],
        "pollDivisionIds": [
          10140729
        ],
        "postalCode": "K1K3K3",
        "streetName": "DE L'ÉGLISE",
        "streetDirectionId": null,
        "streetTypeId": "RUE",
        "placeName": "OTTAWA",
        "streetNameDisplayText": "DE L'ÉGLISE RUE, OTTAWA"
      }
    ]
  },
  {
    "postal": "K1K9R0",
    "result": []
  },
  {
    "postal": "K1K4R8",
    "result": [
      {
        "electoralDistricts": [
          {
            "election": null,
            "id": 80,
            "name": "Ottawa—Vanier"
          }
        ],
        "pollDivisionIds": [
          10140729
        ],
        "postalCode": "K1K4R8",
        "streetName": "COLLEGE",
        "streetDirectionId": null,
        "streetTypeId": "CIR",
        "placeName": "OTTAWA",
        "streetNameDisplayText": "COLLEGE CIR, OTTAWA"
      }
    ]
  },
  {
    "postal": "K1K5P9",
    "result": []
  },
  {
    "postal": "K1K8N4",
    "result": []
  },
  {
    "postal": "K1K8H4",
    "result": []
  },
  {
    "postal": "K1K4V1",
    "result": [
      {
        "electoralDistricts": [
          {
            "election": null,
            "id": 80,
            "name": "Ottawa—Vanier"
          }
        ],
        "pollDivisionIds": [
          10140733
        ],
        "postalCode": "K1K4V1",
        "streetName": "BOREALIS",
        "streetDirectionId": null,
        "streetTypeId": "CRES",
        "placeName": "OTTAWA",
        "streetNameDisplayText": "BOREALIS CRES, OTTAWA"
      }
    ]
  },
  {
    "postal": "K1K1K5",
    "result": [
      {
        "electoralDistricts": [
          {
            "election": null,
            "id": 80,
            "name": "Ottawa—Vanier"
          }
        ],
        "pollDivisionIds": [
          10140724
        ],
        "postalCode": "K1K1K5",
        "streetName": "STEVENS",
        "streetDirectionId": null,
        "streetTypeId": "AVE",
        "placeName": "OTTAWA",
        "streetNameDisplayText": "STEVENS AVE, OTTAWA"
      }
    ]
  },
  {
    "postal": "K1K1Z5",
    "result": [
      {
        "electoralDistricts": [
          {
            "election": null,
            "id": 80,
            "name": "Ottawa—Vanier"
          }
        ],
        "pollDivisionIds": [
          10140730
        ],
        "postalCode": "K1K1Z5",
        "streetName": "PRINCE ALBERT",
        "streetDirectionId": null,
        "streetTypeId": "ST",
        "placeName": "OTTAWA",
        "streetNameDisplayText": "PRINCE ALBERT ST, OTTAWA"
      }
    ]
  },
  {
    "postal": "K1K9L9",
    "result": []
  },
  {
    "postal": "K1K5L2",
    "result": []
  },
  {
    "postal": "K1K0M2",
    "result": []
  },
  {
    "postal": "K1K1K8",
    "result": [
      {
        "electoralDistricts": [
          {
            "election": null,
            "id": 80,
            "name": "Ottawa—Vanier"
          }
        ],
        "pollDivisionIds": [
          10140724
        ],
        "postalCode": "K1K1K8",
        "streetName": "ONTARIO",
        "streetDirectionId": null,
        "streetTypeId": "ST",
        "placeName": "OTTAWA",
        "streetNameDisplayText": "ONTARIO ST, OTTAWA"
      }
    ]
  },
  {
    "postal": "K1K3M7",
    "result": [
      {
        "electoralDistricts": [
          {
            "election": null,
            "id": 80,
            "name": "Ottawa—Vanier"
          }
        ],
        "pollDivisionIds": [
          10140730
        ],
        "postalCode": "K1K3M7",
        "streetName": "PAUL-ÉMILE-LAMARCHE",
        "streetDirectionId": null,
        "streetTypeId": "AVE",
        "placeName": "OTTAWA",
        "streetNameDisplayText": "PAUL-ÉMILE-LAMARCHE AVE, OTTAWA"
      }
    ]
  },
  {
    "postal": "K1K1B2",
    "result": [
      {
        "electoralDistricts": [
          {
            "election": null,
            "id": 80,
            "name": "Ottawa—Vanier"
          }
        ],
        "pollDivisionIds": [
          10140731
        ],
        "postalCode": "K1K1B2",
        "streetName": "BURN",
        "streetDirectionId": null,
        "streetTypeId": "ST",
        "placeName": "OTTAWA",
        "streetNameDisplayText": "BURN ST, OTTAWA"
      }
    ]
  },
  {
    "postal": "K1K0H9",
    "result": [
      {
        "electoralDistricts": [
          {
            "election": null,
            "id": 80,
            "name": "Ottawa—Vanier"
          }
        ],
        "pollDivisionIds": [
          10140728
        ],
        "postalCode": "K1K0H9",
        "streetName": "EASTBOURNE",
        "streetDirectionId": null,
        "streetTypeId": "AVE",
        "placeName": "OTTAWA",
        "streetNameDisplayText": "EASTBOURNE AVE, OTTAWA"
      }
    ]
  },
  {
    "postal": "K1K8M4",
    "result": []
  },
  {
    "postal": "K1K2M5",
    "result": [
      {
        "electoralDistricts": [
          {
            "election": null,
            "id": 80,
            "name": "Ottawa—Vanier"
          }
        ],
        "pollDivisionIds": [
          10140731
        ],
        "postalCode": "K1K2M5",
        "streetName": "BORTHWICK",
        "streetDirectionId": null,
        "streetTypeId": "AVE",
        "placeName": "OTTAWA",
        "streetNameDisplayText": "BORTHWICK AVE, OTTAWA"
      }
    ]
  },
  {
    "postal": "K1K0T9",
    "result": [
      {
        "electoralDistricts": [
          {
            "election": null,
            "id": 80,
            "name": "Ottawa—Vanier"
          }
        ],
        "pollDivisionIds": [
          10140731
        ],
        "postalCode": "K1K0T9",
        "streetName": "MONTREAL",
        "streetDirectionId": null,
        "streetTypeId": "RD",
        "placeName": "OTTAWA",
        "streetNameDisplayText": "MONTREAL RD, OTTAWA"
      }
    ]
  },
  {
    "postal": "K1K3P1",
    "result": [
      {
        "electoralDistricts": [
          {
            "election": null,
            "id": 80,
            "name": "Ottawa—Vanier"
          }
        ],
        "pollDivisionIds": [
          10140730
        ],
        "postalCode": "K1K3P1",
        "streetName": "DU PÈRE-CHARLEBOIS",
        "streetDirectionId": null,
        "streetTypeId": "AVE",
        "placeName": "OTTAWA",
        "streetNameDisplayText": "DU PÈRE-CHARLEBOIS AVE, OTTAWA"
      }
    ]
  },
  {
    "postal": "K1K1R6",
    "result": [
      {
        "electoralDistricts": [
          {
            "election": null,
            "id": 80,
            "name": "Ottawa—Vanier"
          }
        ],
        "pollDivisionIds": [
          10140730
        ],
        "postalCode": "K1K1R6",
        "streetName": "VINCENT MASSEY",
        "streetDirectionId": null,
        "streetTypeId": "AVE",
        "placeName": "OTTAWA",
        "streetNameDisplayText": "VINCENT MASSEY AVE, OTTAWA"
      }
    ]
  },
  {
    "postal": "K1K9V5",
    "result": []
  },
  {
    "postal": "K1K9T0",
    "result": []
  },
  {
    "postal": "K1K0A9",
    "result": [
      {
        "electoralDistricts": [
          {
            "election": null,
            "id": 80,
            "name": "Ottawa—Vanier"
          }
        ],
        "pollDivisionIds": [
          10140728
        ],
        "postalCode": "K1K0A9",
        "streetName": "SANDRIDGE",
        "streetDirectionId": null,
        "streetTypeId": "RD",
        "placeName": "OTTAWA",
        "streetNameDisplayText": "SANDRIDGE RD, OTTAWA"
      }
    ]
  },
  {
    "postal": "K1K1M3",
    "result": [
      {
        "electoralDistricts": [
          {
            "election": null,
            "id": 80,
            "name": "Ottawa—Vanier"
          }
        ],
        "pollDivisionIds": [
          10140730
        ],
        "postalCode": "K1K1M3",
        "streetName": "DONALD",
        "streetDirectionId": null,
        "streetTypeId": "ST",
        "placeName": "OTTAWA",
        "streetNameDisplayText": "DONALD ST, OTTAWA"
      }
    ]
  },
  {
    "postal": "K1K1W8",
    "result": [
      {
        "electoralDistricts": [
          {
            "election": null,
            "id": 80,
            "name": "Ottawa—Vanier"
          }
        ],
        "pollDivisionIds": [
          10140725
        ],
        "postalCode": "K1K1W8",
        "streetName": "QUEEN MARY",
        "streetDirectionId": null,
        "streetTypeId": "ST",
        "placeName": "OTTAWA",
        "streetNameDisplayText": "QUEEN MARY ST, OTTAWA"
      }
    ]
  },
  {
    "postal": "K1K9J1",
    "result": []
  },
  {
    "postal": "K1K8N5",
    "result": []
  },
  {
    "postal": "K1K5X1",
    "result": []
  },
  {
    "postal": "K1K6S2",
    "result": []
  },
  {
    "postal": "K1K2A2",
    "result": [
      {
        "electoralDistricts": [
          {
            "election": null,
            "id": 80,
            "name": "Ottawa—Vanier"
          }
        ],
        "pollDivisionIds": [
          10140725
        ],
        "postalCode": "K1K2A2",
        "streetName": "PRINCE ALBERT",
        "streetDirectionId": null,
        "streetTypeId": "ST",
        "placeName": "OTTAWA",
        "streetNameDisplayText": "PRINCE ALBERT ST, OTTAWA"
      }
    ]
  },
  {
    "postal": "K1K6A6",
    "result": []
  },
  {
    "postal": "K1K0S3",
    "result": [
      {
        "electoralDistricts": [
          {
            "election": null,
            "id": 80,
            "name": "Ottawa—Vanier"
          }
        ],
        "pollDivisionIds": [
          10140727
        ],
        "postalCode": "K1K0S3",
        "streetName": "QUARRY",
        "streetDirectionId": null,
        "streetTypeId": "RD",
        "placeName": "OTTAWA",
        "streetNameDisplayText": "QUARRY RD, OTTAWA"
      }
    ]
  },
  {
    "postal": "K1K3E7",
    "result": [
      {
        "electoralDistricts": [
          {
            "election": null,
            "id": 80,
            "name": "Ottawa—Vanier"
          }
        ],
        "pollDivisionIds": [
          10140728
        ],
        "postalCode": "K1K3E7",
        "streetName": "DUNVEGAN",
        "streetDirectionId": null,
        "streetTypeId": "RD",
        "placeName": "OTTAWA",
        "streetNameDisplayText": "DUNVEGAN RD, OTTAWA"
      }
    ]
  },
  {
    "postal": "K1K5R7",
    "result": []
  },
  {
    "postal": "K1K3R6",
    "result": [
      {
        "electoralDistricts": [
          {
            "election": null,
            "id": 80,
            "name": "Ottawa—Vanier"
          }
        ],
        "pollDivisionIds": [
          10140724
        ],
        "postalCode": "K1K3R6",
        "streetName": "EVE",
        "streetDirectionId": null,
        "streetTypeId": "ST",
        "placeName": "OTTAWA",
        "streetNameDisplayText": "EVE ST, OTTAWA"
      }
    ]
  },
  {
    "postal": "K1K6K4",
    "result": []
  },
  {
    "postal": "K1K2W5",
    "result": []
  },
  {
    "postal": "K1K8W4",
    "result": []
  },
  {
    "postal": "K1K9C2",
    "result": []
  },
  {
    "postal": "K1K2C0",
    "result": []
  },
  {
    "postal": "K1K0E1",
    "result": [
      {
        "electoralDistricts": [
          {
            "election": null,
            "id": 80,
            "name": "Ottawa—Vanier"
          }
        ],
        "pollDivisionIds": [
          10140728
        ],
        "postalCode": "K1K0E1",
        "streetName": "JEFFREY",
        "streetDirectionId": null,
        "streetTypeId": "AVE",
        "placeName": "OTTAWA",
        "streetNameDisplayText": "JEFFREY AVE, OTTAWA"
      }
    ]
  },
  {
    "postal": "K1K1K9",
    "result": [
      {
        "electoralDistricts": [
          {
            "election": null,
            "id": 80,
            "name": "Ottawa—Vanier"
          }
        ],
        "pollDivisionIds": [
          10140724
        ],
        "postalCode": "K1K1K9",
        "streetName": "ONTARIO",
        "streetDirectionId": null,
        "streetTypeId": "ST",
        "placeName": "OTTAWA",
        "streetNameDisplayText": "ONTARIO ST, OTTAWA"
      }
    ]
  },
  {
    "postal": "K1K1G7",
    "result": [
      {
        "electoralDistricts": [
          {
            "election": null,
            "id": 80,
            "name": "Ottawa—Vanier"
          }
        ],
        "pollDivisionIds": [
          10140726
        ],
        "postalCode": "K1K1G7",
        "streetName": "MCARTHUR",
        "streetDirectionId": null,
        "streetTypeId": "AVE",
        "placeName": "OTTAWA",
        "streetNameDisplayText": "MCARTHUR AVE, OTTAWA"
      }
    ]
  },
  {
    "postal": "K1K4E9",
    "result": [
      {
        "electoralDistricts": [
          {
            "election": null,
            "id": 80,
            "name": "Ottawa—Vanier"
          }
        ],
        "pollDivisionIds": [
          10140733
        ],
        "postalCode": "K1K4E9",
        "streetName": "LAFAYETTE",
        "streetDirectionId": null,
        "streetTypeId": "PVT",
        "placeName": "OTTAWA",
        "streetNameDisplayText": "LAFAYETTE PVT, OTTAWA"
      }
    ]
  },
  {
    "postal": "K1K9P0",
    "result": []
  },
  {
    "postal": "K1K5H3",
    "result": []
  },
  {
    "postal": "K1K9X6",
    "result": []
  },
  {
    "postal": "K1K5N7",
    "result": []
  },
  {
    "postal": "K1K5A6",
    "result": []
  },
  {
    "postal": "K1K4M0",
    "result": []
  },
  {
    "postal": "K1K3V6",
    "result": [
      {
        "electoralDistricts": [
          {
            "election": null,
            "id": 80,
            "name": "Ottawa—Vanier"
          }
        ],
        "pollDivisionIds": [
          10140725
        ],
        "postalCode": "K1K3V6",
        "streetName": "NORTH RIVER",
        "streetDirectionId": null,
        "streetTypeId": "RD",
        "placeName": "OTTAWA",
        "streetNameDisplayText": "NORTH RIVER RD, OTTAWA"
      }
    ]
  },
  {
    "postal": "K1K1L7",
    "result": [
      {
        "electoralDistricts": [
          {
            "election": null,
            "id": 80,
            "name": "Ottawa—Vanier"
          }
        ],
        "pollDivisionIds": [
          10140730
        ],
        "postalCode": "K1K1L7",
        "streetName": "DONALD",
        "streetDirectionId": null,
        "streetTypeId": "ST",
        "placeName": "OTTAWA",
        "streetNameDisplayText": "DONALD ST, OTTAWA"
      }
    ]
  },
  {
    "postal": "K1K2P9",
    "result": [
      {
        "electoralDistricts": [
          {
            "election": null,
            "id": 80,
            "name": "Ottawa—Vanier"
          }
        ],
        "pollDivisionIds": [
          10140731
        ],
        "postalCode": "K1K2P9",
        "streetName": "TROJAN",
        "streetDirectionId": null,
        "streetTypeId": "AVE",
        "placeName": "OTTAWA",
        "streetNameDisplayText": "TROJAN AVE, OTTAWA"
      }
    ]
  },
  {
    "postal": "K1K5T4",
    "result": []
  },
  {
    "postal": "K1K5Z1",
    "result": []
  },
  {
    "postal": "K1K2X0",
    "result": []
  },
  {
    "postal": "K1K6Z2",
    "result": []
  },
  {
    "postal": "K1K0E0",
    "result": []
  },
  {
    "postal": "K1K3Z5",
    "result": [
      {
        "electoralDistricts": [
          {
            "election": null,
            "id": 80,
            "name": "Ottawa—Vanier"
          }
        ],
        "pollDivisionIds": [
          10140735
        ],
        "postalCode": "K1K3Z5",
        "streetName": "METZ",
        "streetDirectionId": null,
        "streetTypeId": "CRES",
        "placeName": "OTTAWA",
        "streetNameDisplayText": "METZ CRES, OTTAWA"
      }
    ]
  },
  {
    "postal": "K1K8H3",
    "result": []
  },
  {
    "postal": "K1K7S6",
    "result": []
  },
  {
    "postal": "K1K4C1",
    "result": [
      {
        "electoralDistricts": [
          {
            "election": null,
            "id": 80,
            "name": "Ottawa—Vanier"
          }
        ],
        "pollDivisionIds": [
          10140730
        ],
        "postalCode": "K1K4C1",
        "streetName": "LOLA",
        "streetDirectionId": null,
        "streetTypeId": "ST",
        "placeName": "OTTAWA",
        "streetNameDisplayText": "LOLA ST, OTTAWA"
      }
    ]
  },
  {
    "postal": "K1K3K2",
    "result": [
      {
        "electoralDistricts": [
          {
            "election": null,
            "id": 80,
            "name": "Ottawa—Vanier"
          }
        ],
        "pollDivisionIds": [
          10140726
        ],
        "postalCode": "K1K3K2",
        "streetName": "DE L'EGLISE",
        "streetDirectionId": null,
        "streetTypeId": "RUE",
        "placeName": "OTTAWA",
        "streetNameDisplayText": "DE L'EGLISE RUE, OTTAWA"
      },
      {
        "electoralDistricts": [
          {
            "election": null,
            "id": 80,
            "name": "Ottawa—Vanier"
          }
        ],
        "pollDivisionIds": [
          10140726
        ],
        "postalCode": "K1K3K2",
        "streetName": "DE L'EGLISE",
        "streetDirectionId": null,
        "streetTypeId": "ST",
        "placeName": "OTTAWA",
        "streetNameDisplayText": "DE L'EGLISE ST, OTTAWA"
      }
    ]
  },
  {
    "postal": "K1K1Y5",
    "result": [
      {
        "electoralDistricts": [
          {
            "election": null,
            "id": 80,
            "name": "Ottawa—Vanier"
          }
        ],
        "pollDivisionIds": [
          10140730
        ],
        "postalCode": "K1K1Y5",
        "streetName": "PRINCE ALBERT",
        "streetDirectionId": null,
        "streetTypeId": "ST",
        "placeName": "OTTAWA",
        "streetNameDisplayText": "PRINCE ALBERT ST, OTTAWA"
      }
    ]
  },
  {
    "postal": "K1K6P6",
    "result": []
  },
  {
    "postal": "K1K3N9",
    "result": [
      {
        "electoralDistricts": [
          {
            "election": null,
            "id": 80,
            "name": "Ottawa—Vanier"
          }
        ],
        "pollDivisionIds": [
          10140730
        ],
        "postalCode": "K1K3N9",
        "streetName": "DU PÈRE-CHARLEBOIS",
        "streetDirectionId": null,
        "streetTypeId": "AVE",
        "placeName": "OTTAWA",
        "streetNameDisplayText": "DU PÈRE-CHARLEBOIS AVE, OTTAWA"
      }
    ]
  },
  {
    "postal": "K1K3W2",
    "result": [
      {
        "electoralDistricts": [
          {
            "election": null,
            "id": 80,
            "name": "Ottawa—Vanier"
          }
        ],
        "pollDivisionIds": [
          10140725
        ],
        "postalCode": "K1K3W2",
        "streetName": "NORTH RIVER",
        "streetDirectionId": null,
        "streetTypeId": "RD",
        "placeName": "OTTAWA",
        "streetNameDisplayText": "NORTH RIVER RD, OTTAWA"
      }
    ]
  },
  {
    "postal": "K1K6H8",
    "result": []
  },
  {
    "postal": "K1K9T3",
    "result": []
  },
  {
    "postal": "K1K5L9",
    "result": []
  },
  {
    "postal": "K1K7X7",
    "result": []
  },
  {
    "postal": "K1K3J5",
    "result": [
      {
        "electoralDistricts": [
          {
            "election": null,
            "id": 80,
            "name": "Ottawa—Vanier"
          }
        ],
        "pollDivisionIds": [
          10140729
        ],
        "postalCode": "K1K3J5",
        "streetName": "TELFORD",
        "streetDirectionId": null,
        "streetTypeId": "AVE",
        "placeName": "OTTAWA",
        "streetNameDisplayText": "TELFORD AVE, OTTAWA"
      }
    ]
  },
  {
    "postal": "K1K4J5",
    "result": [
      {
        "electoralDistricts": [
          {
            "election": null,
            "id": 80,
            "name": "Ottawa—Vanier"
          }
        ],
        "pollDivisionIds": [
          10140727
        ],
        "postalCode": "K1K4J5",
        "streetName": "CLAREMONT",
        "streetDirectionId": null,
        "streetTypeId": "DR",
        "placeName": "OTTAWA",
        "streetNameDisplayText": "CLAREMONT DR, OTTAWA"
      }
    ]
  },
  {
    "postal": "K1K6J2",
    "result": []
  },
  {
    "postal": "K1K5V6",
    "result": []
  },
  {
    "postal": "K1K3N2",
    "result": [
      {
        "electoralDistricts": [
          {
            "election": null,
            "id": 80,
            "name": "Ottawa—Vanier"
          }
        ],
        "pollDivisionIds": [
          10140724
        ],
        "postalCode": "K1K3N2",
        "streetName": "BRANT",
        "streetDirectionId": null,
        "streetTypeId": "ST",
        "placeName": "OTTAWA",
        "streetNameDisplayText": "BRANT ST, OTTAWA"
      }
    ]
  },
  {
    "postal": "K1K3B1",
    "result": [
      {
        "electoralDistricts": [
          {
            "election": null,
            "id": 80,
            "name": "Ottawa—Vanier"
          }
        ],
        "pollDivisionIds": [
          10140731
        ],
        "postalCode": "K1K3B1",
        "streetName": "ST LAURENT",
        "streetDirectionId": null,
        "streetTypeId": "BLVD",
        "placeName": "OTTAWA",
        "streetNameDisplayText": "ST LAURENT BLVD, OTTAWA"
      },
      {
        "electoralDistricts": [
          {
            "election": null,
            "id": 80,
            "name": "Ottawa—Vanier"
          }
        ],
        "pollDivisionIds": [
          10140734,
          10140731
        ],
        "postalCode": "K1K3B1",
        "streetName": "ST. LAURENT",
        "streetDirectionId": null,
        "streetTypeId": "BLVD",
        "placeName": "OTTAWA",
        "streetNameDisplayText": "ST. LAURENT BLVD, OTTAWA"
      }
    ]
  },
  {
    "postal": "K1K8B5",
    "result": []
  },
  {
    "postal": "K1K0K1",
    "result": [
      {
        "electoralDistricts": [
          {
            "election": null,
            "id": 80,
            "name": "Ottawa—Vanier"
          }
        ],
        "pollDivisionIds": [
          10140728
        ],
        "postalCode": "K1K0K1",
        "streetName": "LONSDALE",
        "streetDirectionId": null,
        "streetTypeId": "RD",
        "placeName": "OTTAWA",
        "streetNameDisplayText": "LONSDALE RD, OTTAWA"
      }
    ]
  },
  {
    "postal": "K1K7M7",
    "result": []
  },
  {
    "postal": "K1K2M2",
    "result": [
      {
        "electoralDistricts": [
          {
            "election": null,
            "id": 80,
            "name": "Ottawa—Vanier"
          }
        ],
        "pollDivisionIds": [
          10140731
        ],
        "postalCode": "K1K2M2",
        "streetName": "BORTHWICK",
        "streetDirectionId": null,
        "streetTypeId": "AVE",
        "placeName": "OTTAWA",
        "streetNameDisplayText": "BORTHWICK AVE, OTTAWA"
      }
    ]
  },
  {
    "postal": "K1K9N3",
    "result": []
  },
  {
    "postal": "K1K4Y8",
    "result": [
      {
        "electoralDistricts": [
          {
            "election": null,
            "id": 80,
            "name": "Ottawa—Vanier"
          }
        ],
        "pollDivisionIds": [
          10140728
        ],
        "postalCode": "K1K4Y8",
        "streetName": "PEEL",
        "streetDirectionId": null,
        "streetTypeId": "ST",
        "placeName": "OTTAWA",
        "streetNameDisplayText": "PEEL ST, OTTAWA"
      }
    ]
  },
  {
    "postal": "K1K3V7",
    "result": [
      {
        "electoralDistricts": [
          {
            "election": null,
            "id": 80,
            "name": "Ottawa—Vanier"
          }
        ],
        "pollDivisionIds": [
          10140725
        ],
        "postalCode": "K1K3V7",
        "streetName": "NORTH RIVER",
        "streetDirectionId": null,
        "streetTypeId": "RD",
        "placeName": "OTTAWA",
        "streetNameDisplayText": "NORTH RIVER RD, OTTAWA"
      }
    ]
  },
  {
    "postal": "K1K8Z1",
    "result": []
  },
  {
    "postal": "K1K7B3",
    "result": []
  },
  {
    "postal": "K1K3A8",
    "result": [
      {
        "electoralDistricts": [
          {
            "election": null,
            "id": 80,
            "name": "Ottawa—Vanier"
          }
        ],
        "pollDivisionIds": [
          10140729
        ],
        "postalCode": "K1K3A8",
        "streetName": "ST. LAURENT",
        "streetDirectionId": null,
        "streetTypeId": "BLVD",
        "placeName": "OTTAWA",
        "streetNameDisplayText": "ST. LAURENT BLVD, OTTAWA"
      }
    ]
  },
  {
    "postal": "K1K7V5",
    "result": []
  },
  {
    "postal": "K1K2T2",
    "result": [
      {
        "electoralDistricts": [
          {
            "election": null,
            "id": 80,
            "name": "Ottawa—Vanier"
          }
        ],
        "pollDivisionIds": [
          10140731
        ],
        "postalCode": "K1K2T2",
        "streetName": "RAINIER",
        "streetDirectionId": null,
        "streetTypeId": "ST",
        "placeName": "OTTAWA",
        "streetNameDisplayText": "RAINIER ST, OTTAWA"
      }
    ]
  },
  {
    "postal": "K1K6L3",
    "result": []
  },
  {
    "postal": "K1K0L2",
    "result": []
  },
  {
    "postal": "K1K5Y8",
    "result": []
  },
  {
    "postal": "K1K0B8",
    "result": [
      {
        "electoralDistricts": [
          {
            "election": null,
            "id": 80,
            "name": "Ottawa—Vanier"
          }
        ],
        "pollDivisionIds": [
          10140728
        ],
        "postalCode": "K1K0B8",
        "streetName": "ARUNDEL",
        "streetDirectionId": null,
        "streetTypeId": "AVE",
        "placeName": "OTTAWA",
        "streetNameDisplayText": "ARUNDEL AVE, OTTAWA"
      }
    ]
  },
  {
    "postal": "K1K6R5",
    "result": []
  },
  {
    "postal": "K1K8W6",
    "result": []
  },
  {
    "postal": "K1K8G6",
    "result": []
  },
  {
    "postal": "K1K6X3",
    "result": []
  },
  {
    "postal": "K1K7R7",
    "result": []
  },
  {
    "postal": "K1K4B6",
    "result": [
      {
        "electoralDistricts": [
          {
            "election": null,
            "id": 80,
            "name": "Ottawa—Vanier"
          }
        ],
        "pollDivisionIds": [
          10140727
        ],
        "postalCode": "K1K4B6",
        "streetName": "KRISTIN",
        "streetDirectionId": null,
        "streetTypeId": "WAY",
        "placeName": "OTTAWA",
        "streetNameDisplayText": "KRISTIN WAY, OTTAWA"
      }
    ]
  },
  {
    "postal": "K1K3P9",
    "result": [
      {
        "electoralDistricts": [
          {
            "election": null,
            "id": 80,
            "name": "Ottawa—Vanier"
          }
        ],
        "pollDivisionIds": [
          10140725
        ],
        "postalCode": "K1K3P9",
        "streetName": "LOLA",
        "streetDirectionId": null,
        "streetTypeId": "ST",
        "placeName": "OTTAWA",
        "streetNameDisplayText": "LOLA ST, OTTAWA"
      }
    ]
  },
  {
    "postal": "K1K2T3",
    "result": [
      {
        "electoralDistricts": [
          {
            "election": null,
            "id": 80,
            "name": "Ottawa—Vanier"
          }
        ],
        "pollDivisionIds": [
          10140731
        ],
        "postalCode": "K1K2T3",
        "streetName": "RAINIER",
        "streetDirectionId": null,
        "streetTypeId": "ST",
        "placeName": "OTTAWA",
        "streetNameDisplayText": "RAINIER ST, OTTAWA"
      }
    ]
  },
  {
    "postal": "K1K1M4",
    "result": [
      {
        "electoralDistricts": [
          {
            "election": null,
            "id": 80,
            "name": "Ottawa—Vanier"
          }
        ],
        "pollDivisionIds": [
          10140724
        ],
        "postalCode": "K1K1M4",
        "streetName": "DONALD",
        "streetDirectionId": null,
        "streetTypeId": "ST",
        "placeName": "OTTAWA",
        "streetNameDisplayText": "DONALD ST, OTTAWA"
      }
    ]
  },
  {
    "postal": "K1K0H1",
    "result": [
      {
        "electoralDistricts": [
          {
            "election": null,
            "id": 80,
            "name": "Ottawa—Vanier"
          }
        ],
        "pollDivisionIds": [
          10140728
        ],
        "postalCode": "K1K0H1",
        "streetName": "KILBARRY",
        "streetDirectionId": null,
        "streetTypeId": "CRES",
        "placeName": "OTTAWA",
        "streetNameDisplayText": "KILBARRY CRES, OTTAWA"
      }
    ]
  },
  {
    "postal": "K1K9W3",
    "result": []
  },
  {
    "postal": "K1K6P1",
    "result": []
  },
  {
    "postal": "K1K7G2",
    "result": []
  },
  {
    "postal": "K1K4J9",
    "result": [
      {
        "electoralDistricts": [
          {
            "election": null,
            "id": 80,
            "name": "Ottawa—Vanier"
          }
        ],
        "pollDivisionIds": [
          10140725
        ],
        "postalCode": "K1K4J9",
        "streetName": "FORESTLANE",
        "streetDirectionId": null,
        "streetTypeId": "PVT",
        "placeName": "OTTAWA",
        "streetNameDisplayText": "FORESTLANE PVT, OTTAWA"
      },
      {
        "electoralDistricts": [
          {
            "election": null,
            "id": 80,
            "name": "Ottawa—Vanier"
          }
        ],
        "pollDivisionIds": [
          10140725
        ],
        "postalCode": "K1K4J9",
        "streetName": "OAKHAVEN",
        "streetDirectionId": null,
        "streetTypeId": "PVT",
        "placeName": "OTTAWA",
        "streetNameDisplayText": "OAKHAVEN PVT, OTTAWA"
      }
    ]
  },
  {
    "postal": "K1K9E4",
    "result": []
  },
  {
    "postal": "K1K8H0",
    "result": []
  },
  {
    "postal": "K1K4M7",
    "result": [
      {
        "electoralDistricts": [
          {
            "election": null,
            "id": 80,
            "name": "Ottawa—Vanier"
          }
        ],
        "pollDivisionIds": [
          10140725
        ],
        "postalCode": "K1K4M7",
        "streetName": "COVENTRY",
        "streetDirectionId": null,
        "streetTypeId": "RD",
        "placeName": "OTTAWA",
        "streetNameDisplayText": "COVENTRY RD, OTTAWA"
      }
    ]
  },
  {
    "postal": "K1K2G9",
    "result": [
      {
        "electoralDistricts": [
          {
            "election": null,
            "id": 80,
            "name": "Ottawa—Vanier"
          }
        ],
        "pollDivisionIds": [
          10140733
        ],
        "postalCode": "K1K2G9",
        "streetName": "CARSON'S",
        "streetDirectionId": null,
        "streetTypeId": "RD",
        "placeName": "OTTAWA",
        "streetNameDisplayText": "CARSON'S RD, OTTAWA"
      }
    ]
  },
  {
    "postal": "K1K8T2",
    "result": []
  },
  {
    "postal": "K1K7G7",
    "result": []
  },
  {
    "postal": "K1K4Z3",
    "result": []
  },
  {
    "postal": "K1K5B3",
    "result": []
  },
  {
    "postal": "K1K1S7",
    "result": [
      {
        "electoralDistricts": [
          {
            "election": null,
            "id": 80,
            "name": "Ottawa—Vanier"
          }
        ],
        "pollDivisionIds": [
          10140725
        ],
        "postalCode": "K1K1S7",
        "streetName": "GLYNN",
        "streetDirectionId": null,
        "streetTypeId": "AVE",
        "placeName": "OTTAWA",
        "streetNameDisplayText": "GLYNN AVE, OTTAWA"
      }
    ]
  },
  {
    "postal": "K1K2N7",
    "result": [
      {
        "electoralDistricts": [
          {
            "election": null,
            "id": 80,
            "name": "Ottawa—Vanier"
          }
        ],
        "pollDivisionIds": [
          10140727
        ],
        "postalCode": "K1K2N7",
        "streetName": "ROCKLEDGE",
        "streetDirectionId": null,
        "streetTypeId": "RD",
        "placeName": "OTTAWA",
        "streetNameDisplayText": "ROCKLEDGE RD, OTTAWA"
      }
    ]
  },
  {
    "postal": "K1K0H8",
    "result": [
      {
        "electoralDistricts": [
          {
            "election": null,
            "id": 80,
            "name": "Ottawa—Vanier"
          }
        ],
        "pollDivisionIds": [
          10140728
        ],
        "postalCode": "K1K0H8",
        "streetName": "EASTBOURNE",
        "streetDirectionId": null,
        "streetTypeId": "AVE",
        "placeName": "OTTAWA",
        "streetNameDisplayText": "EASTBOURNE AVE, OTTAWA"
      }
    ]
  },
  {
    "postal": "K1K7Z4",
    "result": []
  },
  {
    "postal": "K1K7B1",
    "result": []
  },
  {
    "postal": "K1K7P8",
    "result": []
  },
  {
    "postal": "K1K7N0",
    "result": []
  },
  {
    "postal": "K1K3Y5",
    "result": [
      {
        "electoralDistricts": [
          {
            "election": null,
            "id": 80,
            "name": "Ottawa—Vanier"
          }
        ],
        "pollDivisionIds": [
          10140733
        ],
        "postalCode": "K1K3Y5",
        "streetName": "BIRCH HILL",
        "streetDirectionId": null,
        "streetTypeId": "PVT",
        "placeName": "OTTAWA",
        "streetNameDisplayText": "BIRCH HILL PVT, OTTAWA"
      },
      {
        "electoralDistricts": [
          {
            "election": null,
            "id": 80,
            "name": "Ottawa—Vanier"
          }
        ],
        "pollDivisionIds": [
          10140733
        ],
        "postalCode": "K1K3Y5",
        "streetName": "THE ROCKERY",
        "streetDirectionId": null,
        "streetTypeId": "PVT",
        "placeName": "OTTAWA",
        "streetNameDisplayText": "THE ROCKERY PVT, OTTAWA"
      }
    ]
  },
  {
    "postal": "K1K6K1",
    "result": []
  },
  {
    "postal": "K1K9X5",
    "result": []
  },
  {
    "postal": "K1K7S5",
    "result": []
  },
  {
    "postal": "K1K0A4",
    "result": [
      {
        "electoralDistricts": [
          {
            "election": null,
            "id": 80,
            "name": "Ottawa—Vanier"
          }
        ],
        "pollDivisionIds": [
          10140728
        ],
        "postalCode": "K1K0A4",
        "streetName": "GASPE",
        "streetDirectionId": null,
        "streetTypeId": "AVE",
        "placeName": "OTTAWA",
        "streetNameDisplayText": "GASPE AVE, OTTAWA"
      }
    ]
  },
  {
    "postal": "K1K4T5",
    "result": [
      {
        "electoralDistricts": [
          {
            "election": null,
            "id": 80,
            "name": "Ottawa—Vanier"
          }
        ],
        "pollDivisionIds": [
          10140733
        ],
        "postalCode": "K1K4T5",
        "streetName": "BOREALIS",
        "streetDirectionId": null,
        "streetTypeId": "CRES",
        "placeName": "OTTAWA",
        "streetNameDisplayText": "BOREALIS CRES, OTTAWA"
      },
      {
        "electoralDistricts": [
          {
            "election": null,
            "id": 80,
            "name": "Ottawa—Vanier"
          }
        ],
        "pollDivisionIds": [
          10140733
        ],
        "postalCode": "K1K4T5",
        "streetName": "SOLACE",
        "streetDirectionId": null,
        "streetTypeId": "CRT",
        "placeName": "OTTAWA",
        "streetNameDisplayText": "SOLACE CRT, OTTAWA"
      }
    ]
  },
  {
    "postal": "K1K5K1",
    "result": []
  },
  {
    "postal": "K1K0Z9",
    "result": [
      {
        "electoralDistricts": [
          {
            "election": null,
            "id": 80,
            "name": "Ottawa—Vanier"
          }
        ],
        "pollDivisionIds": [
          10140729
        ],
        "postalCode": "K1K0Z9",
        "streetName": "COTE",
        "streetDirectionId": null,
        "streetTypeId": "ST",
        "placeName": "OTTAWA",
        "streetNameDisplayText": "COTE ST, OTTAWA"
      }
    ]
  },
  {
    "postal": "K1K7T2",
    "result": []
  },
  {
    "postal": "K1K1L5",
    "result": [
      {
        "electoralDistricts": [
          {
            "election": null,
            "id": 80,
            "name": "Ottawa—Vanier"
          }
        ],
        "pollDivisionIds": [
          10140730
        ],
        "postalCode": "K1K1L5",
        "streetName": "DONALD",
        "streetDirectionId": null,
        "streetTypeId": "ST",
        "placeName": "OTTAWA",
        "streetNameDisplayText": "DONALD ST, OTTAWA"
      }
    ]
  },
  {
    "postal": "K1K3N5",
    "result": [
      {
        "electoralDistricts": [
          {
            "election": null,
            "id": 80,
            "name": "Ottawa—Vanier"
          }
        ],
        "pollDivisionIds": [
          10140725
        ],
        "postalCode": "K1K3N5",
        "streetName": "NAUGHTON",
        "streetDirectionId": null,
        "streetTypeId": "ST",
        "placeName": "OTTAWA",
        "streetNameDisplayText": "NAUGHTON ST, OTTAWA"
      }
    ]
  },
  {
    "postal": "K1K6H4",
    "result": []
  },
  {
    "postal": "K1K5A5",
    "result": []
  },
  {
    "postal": "K1K3R9",
    "result": [
      {
        "electoralDistricts": [
          {
            "election": null,
            "id": 80,
            "name": "Ottawa—Vanier"
          }
        ],
        "pollDivisionIds": [
          10140724
        ],
        "postalCode": "K1K3R9",
        "streetName": "BEAUDRY",
        "streetDirectionId": null,
        "streetTypeId": "ST",
        "placeName": "OTTAWA",
        "streetNameDisplayText": "BEAUDRY ST, OTTAWA"
      }
    ]
  },
  {
    "postal": "K1K7L8",
    "result": []
  },
  {
    "postal": "K1K6T6",
    "result": []
  },
  {
    "postal": "K1K7Y7",
    "result": []
  },
  {
    "postal": "K1K3M8",
    "result": [
      {
        "electoralDistricts": [
          {
            "election": null,
            "id": 80,
            "name": "Ottawa—Vanier"
          }
        ],
        "pollDivisionIds": [
          10140730
        ],
        "postalCode": "K1K3M8",
        "streetName": "PAUL-ÉMILE-LAMARCHE",
        "streetDirectionId": null,
        "streetTypeId": "AVE",
        "placeName": "OTTAWA",
        "streetNameDisplayText": "PAUL-ÉMILE-LAMARCHE AVE, OTTAWA"
      }
    ]
  },
  {
    "postal": "K1K2E0",
    "result": []
  },
  {
    "postal": "K1K4B5",
    "result": [
      {
        "electoralDistricts": [
          {
            "election": null,
            "id": 80,
            "name": "Ottawa—Vanier"
          }
        ],
        "pollDivisionIds": [
          10140729
        ],
        "postalCode": "K1K4B5",
        "streetName": "MCARTHUR",
        "streetDirectionId": null,
        "streetTypeId": "AVE",
        "placeName": "OTTAWA",
        "streetNameDisplayText": "MCARTHUR AVE, OTTAWA"
      }
    ]
  },
  {
    "postal": "K1K1J3",
    "result": [
      {
        "electoralDistricts": [
          {
            "election": null,
            "id": 80,
            "name": "Ottawa—Vanier"
          }
        ],
        "pollDivisionIds": [
          10140730
        ],
        "postalCode": "K1K1J3",
        "streetName": "ALESTHER",
        "streetDirectionId": null,
        "streetTypeId": "ST",
        "placeName": "OTTAWA",
        "streetNameDisplayText": "ALESTHER ST, OTTAWA"
      }
    ]
  },
  {
    "postal": "K1K5S6",
    "result": []
  },
  {
    "postal": "K1K8P7",
    "result": []
  },
  {
    "postal": "K1K7S7",
    "result": []
  },
  {
    "postal": "K1K4C2",
    "result": [
      {
        "electoralDistricts": [
          {
            "election": null,
            "id": 80,
            "name": "Ottawa—Vanier"
          }
        ],
        "pollDivisionIds": [
          10140732
        ],
        "postalCode": "K1K4C2",
        "streetName": "LANG'S",
        "streetDirectionId": null,
        "streetTypeId": "RD",
        "placeName": "OTTAWA",
        "streetNameDisplayText": "LANG'S RD, OTTAWA"
      }
    ]
  },
  {
    "postal": "K1K5Y0",
    "result": []
  },
  {
    "postal": "K1K2V7",
    "result": [
      {
        "electoralDistricts": [
          {
            "election": null,
            "id": 80,
            "name": "Ottawa—Vanier"
          }
        ],
        "pollDivisionIds": [
          10140733
        ],
        "postalCode": "K1K2V7",
        "streetName": "DANACA",
        "streetDirectionId": null,
        "streetTypeId": "PVT",
        "placeName": "OTTAWA",
        "streetNameDisplayText": "DANACA PVT, OTTAWA"
      },
      {
        "electoralDistricts": [
          {
            "election": null,
            "id": 80,
            "name": "Ottawa—Vanier"
          }
        ],
        "pollDivisionIds": [
          10140733
        ],
        "postalCode": "K1K2V7",
        "streetName": "DEN HAAG",
        "streetDirectionId": null,
        "streetTypeId": "DR",
        "placeName": "OTTAWA",
        "streetNameDisplayText": "DEN HAAG DR, OTTAWA"
      },
      {
        "electoralDistricts": [
          {
            "election": null,
            "id": 80,
            "name": "Ottawa—Vanier"
          }
        ],
        "pollDivisionIds": [
          10140733
        ],
        "postalCode": "K1K2V7",
        "streetName": "LEBOUTILLIER",
        "streetDirectionId": null,
        "streetTypeId": "AVE",
        "placeName": "OTTAWA",
        "streetNameDisplayText": "LEBOUTILLIER AVE, OTTAWA"
      },
      {
        "electoralDistricts": [
          {
            "election": null,
            "id": 80,
            "name": "Ottawa—Vanier"
          }
        ],
        "pollDivisionIds": [
          10140733
        ],
        "postalCode": "K1K2V7",
        "streetName": "MATADOR",
        "streetDirectionId": null,
        "streetTypeId": "PVT",
        "placeName": "OTTAWA",
        "streetNameDisplayText": "MATADOR PVT, OTTAWA"
      }
    ]
  },
  {
    "postal": "K1K8P5",
    "result": []
  },
  {
    "postal": "K1K5P5",
    "result": []
  },
  {
    "postal": "K1K5Z0",
    "result": []
  },
  {
    "postal": "K1K9B0",
    "result": []
  },
  {
    "postal": "K1K1L0",
    "result": []
  },
  {
    "postal": "K1K0B5",
    "result": [
      {
        "electoralDistricts": [
          {
            "election": null,
            "id": 80,
            "name": "Ottawa—Vanier"
          }
        ],
        "pollDivisionIds": [
          10140728
        ],
        "postalCode": "K1K0B5",
        "streetName": "ARUNDEL",
        "streetDirectionId": null,
        "streetTypeId": "AVE",
        "placeName": "OTTAWA",
        "streetNameDisplayText": "ARUNDEL AVE, OTTAWA"
      }
    ]
  },
  {
    "postal": "K1K3L2",
    "result": [
      {
        "electoralDistricts": [
          {
            "election": null,
            "id": 80,
            "name": "Ottawa—Vanier"
          }
        ],
        "pollDivisionIds": [
          10140730
        ],
        "postalCode": "K1K3L2",
        "streetName": "FRANCES",
        "streetDirectionId": null,
        "streetTypeId": "ST",
        "placeName": "OTTAWA",
        "streetNameDisplayText": "FRANCES ST, OTTAWA"
      }
    ]
  },
  {
    "postal": "K1K3B7",
    "result": [
      {
        "electoralDistricts": [
          {
            "election": null,
            "id": 80,
            "name": "Ottawa—Vanier"
          }
        ],
        "pollDivisionIds": [
          10140734
        ],
        "postalCode": "K1K3B7",
        "streetName": "ST. LAURENT",
        "streetDirectionId": null,
        "streetTypeId": "BLVD",
        "placeName": "OTTAWA",
        "streetNameDisplayText": "ST. LAURENT BLVD, OTTAWA"
      }
    ]
  },
  {
    "postal": "K1K8L1",
    "result": []
  },
  {
    "postal": "K1K5M4",
    "result": []
  },
  {
    "postal": "K1K4G9",
    "result": [
      {
        "electoralDistricts": [
          {
            "election": null,
            "id": 80,
            "name": "Ottawa—Vanier"
          }
        ],
        "pollDivisionIds": [
          10140725
        ],
        "postalCode": "K1K4G9",
        "streetName": "LILAS",
        "streetDirectionId": null,
        "streetTypeId": "PVT",
        "placeName": "OTTAWA",
        "streetNameDisplayText": "LILAS PVT, OTTAWA"
      }
    ]
  },
  {
    "postal": "K1K0P0",
    "result": []
  },
  {
    "postal": "K1K8G2",
    "result": []
  },
  {
    "postal": "K1K1V9",
    "result": [
      {
        "electoralDistricts": [
          {
            "election": null,
            "id": 80,
            "name": "Ottawa—Vanier"
          }
        ],
        "pollDivisionIds": [
          10140730
        ],
        "postalCode": "K1K1V9",
        "streetName": "QUEEN MARY",
        "streetDirectionId": null,
        "streetTypeId": "ST",
        "placeName": "OTTAWA",
        "streetNameDisplayText": "QUEEN MARY ST, OTTAWA"
      }
    ]
  },
  {
    "postal": "K1K8N8",
    "result": []
  },
  {
    "postal": "K1K6S8",
    "result": []
  },
  {
    "postal": "K1K8H2",
    "result": []
  },
  {
    "postal": "K1K5R8",
    "result": []
  },
  {
    "postal": "K1K5L4",
    "result": []
  },
  {
    "postal": "K1K9E1",
    "result": []
  },
  {
    "postal": "K1K1C4",
    "result": [
      {
        "electoralDistricts": [
          {
            "election": null,
            "id": 80,
            "name": "Ottawa—Vanier"
          }
        ],
        "pollDivisionIds": [
          10140731
        ],
        "postalCode": "K1K1C4",
        "streetName": "MUTUAL",
        "streetDirectionId": null,
        "streetTypeId": "ST",
        "placeName": "OTTAWA",
        "streetNameDisplayText": "MUTUAL ST, OTTAWA"
      }
    ]
  },
  {
    "postal": "K1K8W5",
    "result": []
  },
  {
    "postal": "K1K1Y4",
    "result": [
      {
        "electoralDistricts": [
          {
            "election": null,
            "id": 80,
            "name": "Ottawa—Vanier"
          }
        ],
        "pollDivisionIds": [
          10140725
        ],
        "postalCode": "K1K1Y4",
        "streetName": "PRINDIVILLE",
        "streetDirectionId": null,
        "streetTypeId": "ST",
        "placeName": "OTTAWA",
        "streetNameDisplayText": "PRINDIVILLE ST, OTTAWA"
      }
    ]
  },
  {
    "postal": "K1K1C0",
    "result": []
  },
  {
    "postal": "K1K2J2",
    "result": []
  },
  {
    "postal": "K1K2J0",
    "result": []
  },
  {
    "postal": "K1K7A3",
    "result": []
  },
  {
    "postal": "K1K8M1",
    "result": []
  },
  {
    "postal": "K1K7T9",
    "result": []
  },
  {
    "postal": "K1K6C0",
    "result": []
  },
  {
    "postal": "K1K7X1",
    "result": []
  },
  {
    "postal": "K1K0G1",
    "result": [
      {
        "electoralDistricts": [
          {
            "election": null,
            "id": 80,
            "name": "Ottawa—Vanier"
          }
        ],
        "pollDivisionIds": [
          10140728
        ],
        "postalCode": "K1K0G1",
        "streetName": "FARNHAM",
        "streetDirectionId": null,
        "streetTypeId": "CRES",
        "placeName": "OTTAWA",
        "streetNameDisplayText": "FARNHAM CRES, OTTAWA"
      }
    ]
  },
  {
    "postal": "K1K4X2",
    "result": [
      {
        "electoralDistricts": [
          {
            "election": null,
            "id": 80,
            "name": "Ottawa—Vanier"
          }
        ],
        "pollDivisionIds": [
          10140727
        ],
        "postalCode": "K1K4X2",
        "streetName": "PONDSIDE",
        "streetDirectionId": null,
        "streetTypeId": "PVT",
        "placeName": "OTTAWA",
        "streetNameDisplayText": "PONDSIDE PVT, OTTAWA"
      }
    ]
  },
  {
    "postal": "K1K0N6",
    "result": [
      {
        "electoralDistricts": [
          {
            "election": null,
            "id": 80,
            "name": "Ottawa—Vanier"
          }
        ],
        "pollDivisionIds": [
          10140727
        ],
        "postalCode": "K1K0N6",
        "streetName": "KAREN",
        "streetDirectionId": null,
        "streetTypeId": "WAY",
        "placeName": "OTTAWA",
        "streetNameDisplayText": "KAREN WAY, OTTAWA"
      }
    ]
  },
  {
    "postal": "K1K8E3",
    "result": []
  },
  {
    "postal": "K1K5S8",
    "result": []
  },
  {
    "postal": "K1K0R0",
    "result": []
  },
  {
    "postal": "K1K6J6",
    "result": []
  },
  {
    "postal": "K1K4B4",
    "result": [
      {
        "electoralDistricts": [
          {
            "election": null,
            "id": 80,
            "name": "Ottawa—Vanier"
          }
        ],
        "pollDivisionIds": [
          10140733
        ],
        "postalCode": "K1K4B4",
        "streetName": "TEAKWOOD",
        "streetDirectionId": null,
        "streetTypeId": "CRT",
        "placeName": "OTTAWA",
        "streetNameDisplayText": "TEAKWOOD CRT, OTTAWA"
      }
    ]
  },
  {
    "postal": "K1K7E3",
    "result": []
  },
  {
    "postal": "K1K3N6",
    "result": [
      {
        "electoralDistricts": [
          {
            "election": null,
            "id": 80,
            "name": "Ottawa—Vanier"
          }
        ],
        "pollDivisionIds": [
          10140730
        ],
        "postalCode": "K1K3N6",
        "streetName": "NAUGHTON",
        "streetDirectionId": null,
        "streetTypeId": "ST",
        "placeName": "OTTAWA",
        "streetNameDisplayText": "NAUGHTON ST, OTTAWA"
      }
    ]
  },
  {
    "postal": "K1K3X6",
    "result": [
      {
        "electoralDistricts": [
          {
            "election": null,
            "id": 80,
            "name": "Ottawa—Vanier"
          }
        ],
        "pollDivisionIds": [
          10140725
        ],
        "postalCode": "K1K3X6",
        "streetName": "COVENTRY",
        "streetDirectionId": null,
        "streetTypeId": "RD",
        "placeName": "OTTAWA",
        "streetNameDisplayText": "COVENTRY RD, OTTAWA"
      }
    ]
  },
  {
    "postal": "K1K8L0",
    "result": []
  },
  {
    "postal": "K1K8N1",
    "result": []
  },
  {
    "postal": "K1K4J0",
    "result": []
  },
  {
    "postal": "K1K0X7",
    "result": [
      {
        "electoralDistricts": [
          {
            "election": null,
            "id": 80,
            "name": "Ottawa—Vanier"
          }
        ],
        "pollDivisionIds": [
          10140726
        ],
        "postalCode": "K1K0X7",
        "streetName": "REGIS",
        "streetDirectionId": null,
        "streetTypeId": "AVE",
        "placeName": "OTTAWA",
        "streetNameDisplayText": "REGIS AVE, OTTAWA"
      }
    ]
  },
  {
    "postal": "K1K6S4",
    "result": []
  },
  {
    "postal": "K1K0Z0",
    "result": []
  },
  {
    "postal": "K1K9X8",
    "result": []
  },
  {
    "postal": "K1K3H3",
    "result": [
      {
        "electoralDistricts": [
          {
            "election": null,
            "id": 80,
            "name": "Ottawa—Vanier"
          }
        ],
        "pollDivisionIds": [
          10140729
        ],
        "postalCode": "K1K3H3",
        "streetName": "MAY",
        "streetDirectionId": null,
        "streetTypeId": "ST",
        "placeName": "OTTAWA",
        "streetNameDisplayText": "MAY ST, OTTAWA"
      }
    ]
  },
  {
    "postal": "K1K7S2",
    "result": []
  },
  {
    "postal": "K1K3T3",
    "result": [
      {
        "electoralDistricts": [
          {
            "election": null,
            "id": 80,
            "name": "Ottawa—Vanier"
          }
        ],
        "pollDivisionIds": [
          10140725
        ],
        "postalCode": "K1K3T3",
        "streetName": "VERA",
        "streetDirectionId": null,
        "streetTypeId": "ST",
        "placeName": "OTTAWA",
        "streetNameDisplayText": "VERA ST, OTTAWA"
      }
    ]
  },
  {
    "postal": "K1K9P3",
    "result": []
  },
  {
    "postal": "K1K4H8",
    "result": [
      {
        "electoralDistricts": [
          {
            "election": null,
            "id": 80,
            "name": "Ottawa—Vanier"
          }
        ],
        "pollDivisionIds": [
          10140730
        ],
        "postalCode": "K1K4H8",
        "streetName": "HART",
        "streetDirectionId": null,
        "streetTypeId": "AVE",
        "placeName": "OTTAWA",
        "streetNameDisplayText": "HART AVE, OTTAWA"
      }
    ]
  },
  {
    "postal": "K1K6R1",
    "result": []
  },
  {
    "postal": "K1K1S0",
    "result": []
  },
  {
    "postal": "K1K3W8",
    "result": []
  },
  {
    "postal": "K1K4S3",
    "result": [
      {
        "electoralDistricts": [
          {
            "election": null,
            "id": 80,
            "name": "Ottawa—Vanier"
          }
        ],
        "pollDivisionIds": [
          10140725
        ],
        "postalCode": "K1K4S3",
        "streetName": "COVENTRY",
        "streetDirectionId": null,
        "streetTypeId": "RD",
        "placeName": "OTTAWA",
        "streetNameDisplayText": "COVENTRY RD, OTTAWA"
      }
    ]
  },
  {
    "postal": "K1K1B6",
    "result": [
      {
        "electoralDistricts": [
          {
            "election": null,
            "id": 80,
            "name": "Ottawa—Vanier"
          }
        ],
        "pollDivisionIds": [
          10140731
        ],
        "postalCode": "K1K1B6",
        "streetName": "BURN",
        "streetDirectionId": null,
        "streetTypeId": "ST",
        "placeName": "OTTAWA",
        "streetNameDisplayText": "BURN ST, OTTAWA"
      }
    ]
  },
  {
    "postal": "K1K8R3",
    "result": []
  },
  {
    "postal": "K1K4V9",
    "result": [
      {
        "electoralDistricts": [
          {
            "election": null,
            "id": 80,
            "name": "Ottawa—Vanier"
          }
        ],
        "pollDivisionIds": [
          10140728
        ],
        "postalCode": "K1K4V9",
        "streetName": "JARDIN",
        "streetDirectionId": null,
        "streetTypeId": "PVT",
        "placeName": "OTTAWA",
        "streetNameDisplayText": "JARDIN PVT, OTTAWA"
      }
    ]
  },
  {
    "postal": "K1K9W4",
    "result": []
  },
  {
    "postal": "K1K3T4",
    "result": [
      {
        "electoralDistricts": [
          {
            "election": null,
            "id": 80,
            "name": "Ottawa—Vanier"
          }
        ],
        "pollDivisionIds": [
          10140725
        ],
        "postalCode": "K1K3T4",
        "streetName": "MARION",
        "streetDirectionId": null,
        "streetTypeId": "AVE",
        "placeName": "OTTAWA",
        "streetNameDisplayText": "MARION AVE, OTTAWA"
      }
    ]
  },
  {
    "postal": "K1K5C7",
    "result": []
  },
  {
    "postal": "K1K3Y1",
    "result": [
      {
        "electoralDistricts": [
          {
            "election": null,
            "id": 80,
            "name": "Ottawa—Vanier"
          }
        ],
        "pollDivisionIds": [
          10140733
        ],
        "postalCode": "K1K3Y1",
        "streetName": "GULF",
        "streetDirectionId": null,
        "streetTypeId": "PL",
        "placeName": "OTTAWA",
        "streetNameDisplayText": "GULF PL, OTTAWA"
      },
      {
        "electoralDistricts": [
          {
            "election": null,
            "id": 80,
            "name": "Ottawa—Vanier"
          }
        ],
        "pollDivisionIds": [
          10140733
        ],
        "postalCode": "K1K3Y1",
        "streetName": "THE ROCKERY",
        "streetDirectionId": null,
        "streetTypeId": "PVT",
        "placeName": "OTTAWA",
        "streetNameDisplayText": "THE ROCKERY PVT, OTTAWA"
      }
    ]
  },
  {
    "postal": "K1K5V0",
    "result": []
  },
  {
    "postal": "K1K8G8",
    "result": []
  },
  {
    "postal": "K1K8B1",
    "result": []
  },
  {
    "postal": "K1K4P5",
    "result": [
      {
        "electoralDistricts": [
          {
            "election": null,
            "id": 80,
            "name": "Ottawa—Vanier"
          }
        ],
        "pollDivisionIds": [
          10140725
        ],
        "postalCode": "K1K4P5",
        "streetName": "COVENTRY",
        "streetDirectionId": null,
        "streetTypeId": "RD",
        "placeName": "OTTAWA",
        "streetNameDisplayText": "COVENTRY RD, OTTAWA"
      }
    ]
  },
  {
    "postal": "K1K7B2",
    "result": []
  },
  {
    "postal": "K1K0R2",
    "result": [
      {
        "electoralDistricts": [
          {
            "election": null,
            "id": 80,
            "name": "Ottawa—Vanier"
          }
        ],
        "pollDivisionIds": [
          10140732
        ],
        "postalCode": "K1K0R2",
        "streetName": "FAIRHAVEN",
        "streetDirectionId": null,
        "streetTypeId": "WAY",
        "placeName": "OTTAWA",
        "streetNameDisplayText": "FAIRHAVEN WAY, OTTAWA"
      }
    ]
  },
  {
    "postal": "K1K4M4",
    "result": [
      {
        "electoralDistricts": [
          {
            "election": null,
            "id": 80,
            "name": "Ottawa—Vanier"
          }
        ],
        "pollDivisionIds": [
          10140727
        ],
        "postalCode": "K1K4M4",
        "streetName": "BRITTANY",
        "streetDirectionId": null,
        "streetTypeId": "DR",
        "placeName": "OTTAWA",
        "streetNameDisplayText": "BRITTANY DR, OTTAWA"
      }
    ]
  },
  {
    "postal": "K1K7M4",
    "result": []
  },
  {
    "postal": "K1K9S7",
    "result": []
  },
  {
    "postal": "K1K5Z7",
    "result": []
  },
  {
    "postal": "K1K7J7",
    "result": []
  },
  {
    "postal": "K1K8R8",
    "result": []
  },
  {
    "postal": "K1K9X1",
    "result": []
  },
  {
    "postal": "K1K5M9",
    "result": []
  },
  {
    "postal": "K1K9B4",
    "result": []
  },
  {
    "postal": "K1K0L9",
    "result": []
  },
  {
    "postal": "K1K9G4",
    "result": []
  },
  {
    "postal": "K1K1J4",
    "result": [
      {
        "electoralDistricts": [
          {
            "election": null,
            "id": 80,
            "name": "Ottawa—Vanier"
          }
        ],
        "pollDivisionIds": [
          10140730
        ],
        "postalCode": "K1K1J4",
        "streetName": "DUNBRACK",
        "streetDirectionId": null,
        "streetTypeId": "ST",
        "placeName": "OTTAWA",
        "streetNameDisplayText": "DUNBRACK ST, OTTAWA"
      }
    ]
  },
  {
    "postal": "K1K0W6",
    "result": [
      {
        "electoralDistricts": [
          {
            "election": null,
            "id": 80,
            "name": "Ottawa—Vanier"
          }
        ],
        "pollDivisionIds": [
          10140731
        ],
        "postalCode": "K1K0W6",
        "streetName": "WILSON",
        "streetDirectionId": null,
        "streetTypeId": "ST",
        "placeName": "OTTAWA",
        "streetNameDisplayText": "WILSON ST, OTTAWA"
      }
    ]
  }
]
