[
  {
    "postal": "N3L9J6",
    "result": []
  },
  {
    "postal": "N3L9Z5",
    "result": []
  },
  {
    "postal": "N3L7H8",
    "result": []
  },
  {
    "postal": "N3L0P6",
    "result": []
  },
  {
    "postal": "N3L0S7",
    "result": []
  },
  {
    "postal": "N3L8B9",
    "result": []
  },
  {
    "postal": "N3L2A6",
    "result": [
      {
        "electoralDistricts": [
          {
            "election": null,
            "id": 13,
            "name": "Brantford—Brant"
          }
        ],
        "pollDivisionIds": [
          10137189
        ],
        "postalCode": "N3L2A6",
        "streetName": "WASHINGTON",
        "streetDirectionId": null,
        "streetTypeId": "ST",
        "placeName": "PARIS",
        "streetNameDisplayText": "WASHINGTON ST, PARIS"
      },
      {
        "electoralDistricts": [
          {
            "election": null,
            "id": 13,
            "name": "Brantford—Brant"
          }
        ],
        "pollDivisionIds": [
          10137189
        ],
        "postalCode": "N3L2A6",
        "streetName": "WASHINGTON ST.",
        "streetDirectionId": null,
        "streetTypeId": "ST",
        "placeName": "PARIS",
        "streetNameDisplayText": "WASHINGTON ST. ST, PARIS"
      }
    ]
  },
  {
    "postal": "N3L7V2",
    "result": []
  },
  {
    "postal": "N3L9P4",
    "result": []
  },
  {
    "postal": "N3L6G0",
    "result": []
  },
  {
    "postal": "N3L2K0",
    "result": []
  },
  {
    "postal": "N3L7N6",
    "result": []
  },
  {
    "postal": "N3L5R3",
    "result": []
  },
  {
    "postal": "N3L7K0",
    "result": []
  },
  {
    "postal": "N3L3R2",
    "result": [
      {
        "electoralDistricts": [
          {
            "election": null,
            "id": 13,
            "name": "Brantford—Brant"
          }
        ],
        "pollDivisionIds": [
          10137187
        ],
        "postalCode": "N3L3R2",
        "streetName": "TRILLIUM",
        "streetDirectionId": null,
        "streetTypeId": "WAY",
        "placeName": "PARIS",
        "streetNameDisplayText": "TRILLIUM WAY, PARIS"
      }
    ]
  },
  {
    "postal": "N3L0J1",
    "result": []
  },
  {
    "postal": "N3L0B0",
    "result": []
  },
  {
    "postal": "N3L5Z2",
    "result": []
  },
  {
    "postal": "N3L7P3",
    "result": []
  },
  {
    "postal": "N3L2K3",
    "result": [
      {
        "electoralDistricts": [
          {
            "election": null,
            "id": 13,
            "name": "Brantford—Brant"
          }
        ],
        "pollDivisionIds": [
          10137188
        ],
        "postalCode": "N3L2K3",
        "streetName": "WALNUT",
        "streetDirectionId": null,
        "streetTypeId": "LANE",
        "placeName": "PARIS",
        "streetNameDisplayText": "WALNUT LANE, PARIS"
      }
    ]
  },
  {
    "postal": "N3L7Y6",
    "result": []
  },
  {
    "postal": "N3L1L9",
    "result": [
      {
        "electoralDistricts": [
          {
            "election": null,
            "id": 13,
            "name": "Brantford—Brant"
          }
        ],
        "pollDivisionIds": [
          10137188
        ],
        "postalCode": "N3L1L9",
        "streetName": "WILLIAM",
        "streetDirectionId": null,
        "streetTypeId": "ST",
        "placeName": "PARIS",
        "streetNameDisplayText": "WILLIAM ST, PARIS"
      }
    ]
  },
  {
    "postal": "N3L8T0",
    "result": []
  },
  {
    "postal": "N3L3K8",
    "result": []
  },
  {
    "postal": "N3L5W9",
    "result": []
  },
  {
    "postal": "N3L6T9",
    "result": []
  },
  {
    "postal": "N3L4H1",
    "result": [
      {
        "electoralDistricts": [
          {
            "election": null,
            "id": 13,
            "name": "Brantford—Brant"
          }
        ],
        "pollDivisionIds": [
          10137189
        ],
        "postalCode": "N3L4H1",
        "streetName": "DUNDAS",
        "streetDirectionId": "W",
        "streetTypeId": "ST",
        "placeName": "PARIS",
        "streetNameDisplayText": "DUNDAS ST W, PARIS"
      },
      {
        "electoralDistricts": [
          {
            "election": null,
            "id": 13,
            "name": "Brantford—Brant"
          }
        ],
        "pollDivisionIds": [
          10137189
        ],
        "postalCode": "N3L4H1",
        "streetName": "FARRUGIE",
        "streetDirectionId": null,
        "streetTypeId": "ST",
        "placeName": "PARIS",
        "streetNameDisplayText": "FARRUGIE ST, PARIS"
      },
      {
        "electoralDistricts": [
          {
            "election": null,
            "id": 13,
            "name": "Brantford—Brant"
          }
        ],
        "pollDivisionIds": [
          10137189
        ],
        "postalCode": "N3L4H1",
        "streetName": "FREEMAN",
        "streetDirectionId": null,
        "streetTypeId": "ST",
        "placeName": "PARIS",
        "streetNameDisplayText": "FREEMAN ST, PARIS"
      }
    ]
  },
  {
    "postal": "N3L7A2",
    "result": []
  },
  {
    "postal": "N3L5G0",
    "result": []
  },
  {
    "postal": "N3L8V5",
    "result": []
  },
  {
    "postal": "N3L2Y8",
    "result": [
      {
        "electoralDistricts": [
          {
            "election": null,
            "id": 13,
            "name": "Brantford—Brant"
          }
        ],
        "pollDivisionIds": [
          10137187
        ],
        "postalCode": "N3L2Y8",
        "streetName": "BANFIELD",
        "streetDirectionId": null,
        "streetTypeId": "ST",
        "placeName": "PARIS",
        "streetNameDisplayText": "BANFIELD ST, PARIS"
      }
    ]
  },
  {
    "postal": "N3L2B6",
    "result": [
      {
        "electoralDistricts": [
          {
            "election": null,
            "id": 13,
            "name": "Brantford—Brant"
          }
        ],
        "pollDivisionIds": [
          10137189
        ],
        "postalCode": "N3L2B6",
        "streetName": "GRAND RIVER",
        "streetDirectionId": "S",
        "streetTypeId": "ST",
        "placeName": "PARIS",
        "streetNameDisplayText": "GRAND RIVER ST S, PARIS"
      }
    ]
  },
  {
    "postal": "N3L4W8",
    "result": []
  },
  {
    "postal": "N3L8H7",
    "result": []
  },
  {
    "postal": "N3L5P1",
    "result": []
  },
  {
    "postal": "N3L2B8",
    "result": [
      {
        "electoralDistricts": [
          {
            "election": null,
            "id": 13,
            "name": "Brantford—Brant"
          }
        ],
        "pollDivisionIds": [
          10137189
        ],
        "postalCode": "N3L2B8",
        "streetName": "CREEDEN",
        "streetDirectionId": null,
        "streetTypeId": "ST",
        "placeName": "PARIS",
        "streetNameDisplayText": "CREEDEN ST, PARIS"
      }
    ]
  },
  {
    "postal": "N3L0P2",
    "result": []
  },
  {
    "postal": "N3L9M1",
    "result": []
  },
  {
    "postal": "N3L3G0",
    "result": []
  },
  {
    "postal": "N3L9Z2",
    "result": []
  },
  {
    "postal": "N3L2A0",
    "result": []
  },
  {
    "postal": "N3L6Y0",
    "result": []
  },
  {
    "postal": "N3L2Z8",
    "result": [
      {
        "electoralDistricts": [
          {
            "election": null,
            "id": 13,
            "name": "Brantford—Brant"
          }
        ],
        "pollDivisionIds": [
          10137187
        ],
        "postalCode": "N3L2Z8",
        "streetName": "GOLD",
        "streetDirectionId": null,
        "streetTypeId": "ST",
        "placeName": "PARIS",
        "streetNameDisplayText": "GOLD ST, PARIS"
      }
    ]
  },
  {
    "postal": "N3L7Y3",
    "result": []
  },
  {
    "postal": "N3L6Z5",
    "result": []
  },
  {
    "postal": "N3L6E0",
    "result": []
  },
  {
    "postal": "N3L9B7",
    "result": []
  },
  {
    "postal": "N3L9S5",
    "result": []
  },
  {
    "postal": "N3L3X3",
    "result": [
      {
        "electoralDistricts": [
          {
            "election": null,
            "id": 13,
            "name": "Brantford—Brant"
          }
        ],
        "pollDivisionIds": [
          10137188
        ],
        "postalCode": "N3L3X3",
        "streetName": "HAMPTON",
        "streetDirectionId": null,
        "streetTypeId": "ST",
        "placeName": "PARIS",
        "streetNameDisplayText": "HAMPTON ST, PARIS"
      }
    ]
  },
  {
    "postal": "N3L7R5",
    "result": []
  },
  {
    "postal": "N3L2X3",
    "result": [
      {
        "electoralDistricts": [
          {
            "election": null,
            "id": 13,
            "name": "Brantford—Brant"
          }
        ],
        "pollDivisionIds": [
          10137187
        ],
        "postalCode": "N3L2X3",
        "streetName": "ST ANDREW",
        "streetDirectionId": null,
        "streetTypeId": "ST",
        "placeName": "PARIS",
        "streetNameDisplayText": "ST ANDREW ST, PARIS"
      }
    ]
  },
  {
    "postal": "N3L8Z9",
    "result": []
  },
  {
    "postal": "N3L0N4",
    "result": []
  },
  {
    "postal": "N3L1K1",
    "result": [
      {
        "electoralDistricts": [
          {
            "election": null,
            "id": 13,
            "name": "Brantford—Brant"
          }
        ],
        "pollDivisionIds": [
          10137188
        ],
        "postalCode": "N3L1K1",
        "streetName": "MECHANIC",
        "streetDirectionId": null,
        "streetTypeId": "ST",
        "placeName": "PARIS",
        "streetNameDisplayText": "MECHANIC ST, PARIS"
      }
    ]
  },
  {
    "postal": "N3L1S3",
    "result": [
      {
        "electoralDistricts": [
          {
            "election": null,
            "id": 13,
            "name": "Brantford—Brant"
          }
        ],
        "pollDivisionIds": [
          10137187
        ],
        "postalCode": "N3L1S3",
        "streetName": "WELLINGTON",
        "streetDirectionId": null,
        "streetTypeId": "ST",
        "placeName": "PARIS",
        "streetNameDisplayText": "WELLINGTON ST, PARIS"
      }
    ]
  },
  {
    "postal": "N3L6M4",
    "result": []
  },
  {
    "postal": "N3L9A9",
    "result": []
  },
  {
    "postal": "N3L9Z9",
    "result": []
  },
  {
    "postal": "N3L6T4",
    "result": []
  },
  {
    "postal": "N3L0B2",
    "result": [
      {
        "electoralDistricts": [
          {
            "election": null,
            "id": 13,
            "name": "Brantford—Brant"
          }
        ],
        "pollDivisionIds": [
          10137189
        ],
        "postalCode": "N3L0B2",
        "streetName": "POWERLINE",
        "streetDirectionId": null,
        "streetTypeId": "RD",
        "placeName": "PARIS",
        "streetNameDisplayText": "POWERLINE RD, PARIS"
      }
    ]
  },
  {
    "postal": "N3L2L9",
    "result": [
      {
        "electoralDistricts": [
          {
            "election": null,
            "id": 13,
            "name": "Brantford—Brant"
          }
        ],
        "pollDivisionIds": [
          10137188
        ],
        "postalCode": "N3L2L9",
        "streetName": "GRAND RIVER",
        "streetDirectionId": "N",
        "streetTypeId": "ST",
        "placeName": "PARIS",
        "streetNameDisplayText": "GRAND RIVER ST N, PARIS"
      }
    ]
  },
  {
    "postal": "N3L8K9",
    "result": []
  },
  {
    "postal": "N3L2H9",
    "result": [
      {
        "electoralDistricts": [
          {
            "election": null,
            "id": 13,
            "name": "Brantford—Brant"
          }
        ],
        "pollDivisionIds": [
          10137188
        ],
        "postalCode": "N3L2H9",
        "streetName": "NIMMO",
        "streetDirectionId": null,
        "streetTypeId": "ST",
        "placeName": "PARIS",
        "streetNameDisplayText": "NIMMO ST, PARIS"
      }
    ]
  },
  {
    "postal": "N3L3Z6",
    "result": []
  },
  {
    "postal": "N3L3B0",
    "result": []
  },
  {
    "postal": "N3L2H8",
    "result": [
      {
        "electoralDistricts": [
          {
            "election": null,
            "id": 13,
            "name": "Brantford—Brant"
          }
        ],
        "pollDivisionIds": [
          10137189
        ],
        "postalCode": "N3L2H8",
        "streetName": "GORT",
        "streetDirectionId": null,
        "streetTypeId": "AVE",
        "placeName": "PARIS",
        "streetNameDisplayText": "GORT AVE, PARIS"
      }
    ]
  },
  {
    "postal": "N3L3X2",
    "result": [
      {
        "electoralDistricts": [
          {
            "election": null,
            "id": 13,
            "name": "Brantford—Brant"
          }
        ],
        "pollDivisionIds": [
          10137189
        ],
        "postalCode": "N3L3X2",
        "streetName": "RACE",
        "streetDirectionId": null,
        "streetTypeId": "ST",
        "placeName": "PARIS",
        "streetNameDisplayText": "RACE ST, PARIS"
      }
    ]
  },
  {
    "postal": "N3L2E9",
    "result": [
      {
        "electoralDistricts": [
          {
            "election": null,
            "id": 13,
            "name": "Brantford—Brant"
          }
        ],
        "pollDivisionIds": [
          10137189
        ],
        "postalCode": "N3L2E9",
        "streetName": "ACRES",
        "streetDirectionId": null,
        "streetTypeId": "ST",
        "placeName": "PARIS",
        "streetNameDisplayText": "ACRES ST, PARIS"
      }
    ]
  },
  {
    "postal": "N3L9P6",
    "result": []
  },
  {
    "postal": "N3L9E2",
    "result": []
  },
  {
    "postal": "N3L9H2",
    "result": []
  },
  {
    "postal": "N3L1S8",
    "result": [
      {
        "electoralDistricts": [
          {
            "election": null,
            "id": 13,
            "name": "Brantford—Brant"
          }
        ],
        "pollDivisionIds": [
          10137187
        ],
        "postalCode": "N3L1S8",
        "streetName": "WELLINGTON",
        "streetDirectionId": null,
        "streetTypeId": "ST",
        "placeName": "PARIS",
        "streetNameDisplayText": "WELLINGTON ST, PARIS"
      }
    ]
  },
  {
    "postal": "N3L3M6",
    "result": [
      {
        "electoralDistricts": [
          {
            "election": null,
            "id": 13,
            "name": "Brantford—Brant"
          }
        ],
        "pollDivisionIds": [
          10137187
        ],
        "postalCode": "N3L3M6",
        "streetName": "TRILLIUM",
        "streetDirectionId": null,
        "streetTypeId": "WAY",
        "placeName": "PARIS",
        "streetNameDisplayText": "TRILLIUM WAY, PARIS"
      }
    ]
  },
  {
    "postal": "N3L6Z8",
    "result": []
  },
  {
    "postal": "N3L4J2",
    "result": []
  },
  {
    "postal": "N3L9Y1",
    "result": []
  },
  {
    "postal": "N3L8V6",
    "result": []
  },
  {
    "postal": "N3L6B2",
    "result": []
  },
  {
    "postal": "N3L1P8",
    "result": [
      {
        "electoralDistricts": [
          {
            "election": null,
            "id": 13,
            "name": "Brantford—Brant"
          }
        ],
        "pollDivisionIds": [
          10137187
        ],
        "postalCode": "N3L1P8",
        "streetName": "CAPRON",
        "streetDirectionId": null,
        "streetTypeId": "ST",
        "placeName": "PARIS",
        "streetNameDisplayText": "CAPRON ST, PARIS"
      }
    ]
  },
  {
    "postal": "N3L0V8",
    "result": []
  },
  {
    "postal": "N3L4Y0",
    "result": []
  },
  {
    "postal": "N3L2T4",
    "result": [
      {
        "electoralDistricts": [
          {
            "election": null,
            "id": 13,
            "name": "Brantford—Brant"
          }
        ],
        "pollDivisionIds": [
          10137187
        ],
        "postalCode": "N3L2T4",
        "streetName": "WARWICK",
        "streetDirectionId": null,
        "streetTypeId": "ST",
        "placeName": "PARIS",
        "streetNameDisplayText": "WARWICK ST, PARIS"
      }
    ]
  },
  {
    "postal": "N3L2S3",
    "result": [
      {
        "electoralDistricts": [
          {
            "election": null,
            "id": 13,
            "name": "Brantford—Brant"
          }
        ],
        "pollDivisionIds": [
          10137188
        ],
        "postalCode": "N3L2S3",
        "streetName": "BROADWAY",
        "streetDirectionId": "E",
        "streetTypeId": "ST",
        "placeName": "PARIS",
        "streetNameDisplayText": "BROADWAY ST E, PARIS"
      },
      {
        "electoralDistricts": [
          {
            "election": null,
            "id": 13,
            "name": "Brantford—Brant"
          }
        ],
        "pollDivisionIds": [
          10137188
        ],
        "postalCode": "N3L2S3",
        "streetName": "BROADWAY",
        "streetDirectionId": "W",
        "streetTypeId": "ST",
        "placeName": "PARIS",
        "streetNameDisplayText": "BROADWAY ST W, PARIS"
      }
    ]
  },
  {
    "postal": "N3L0K0",
    "result": []
  },
  {
    "postal": "N3L5N1",
    "result": []
  },
  {
    "postal": "N3L7T0",
    "result": []
  },
  {
    "postal": "N3L9N2",
    "result": []
  },
  {
    "postal": "N3L5L1",
    "result": []
  },
  {
    "postal": "N3L7G5",
    "result": []
  },
  {
    "postal": "N3L6K2",
    "result": []
  },
  {
    "postal": "N3L6P9",
    "result": []
  },
  {
    "postal": "N3L0E6",
    "result": [
      {
        "electoralDistricts": [
          {
            "election": null,
            "id": 13,
            "name": "Brantford—Brant"
          }
        ],
        "pollDivisionIds": [
          10137189
        ],
        "postalCode": "N3L0E6",
        "streetName": "LORNE CARD",
        "streetDirectionId": null,
        "streetTypeId": "DR",
        "placeName": "PARIS",
        "streetNameDisplayText": "LORNE CARD DR, PARIS"
      },
      {
        "electoralDistricts": [
          {
            "election": null,
            "id": 13,
            "name": "Brantford—Brant"
          }
        ],
        "pollDivisionIds": [
          10137189
        ],
        "postalCode": "N3L0E6",
        "streetName": "VIC CHAMBERS",
        "streetDirectionId": null,
        "streetTypeId": "PL",
        "placeName": "PARIS",
        "streetNameDisplayText": "VIC CHAMBERS PL, PARIS"
      }
    ]
  },
  {
    "postal": "N3L8R9",
    "result": []
  },
  {
    "postal": "N3L3G9",
    "result": [
      {
        "electoralDistricts": [
          {
            "election": null,
            "id": 13,
            "name": "Brantford—Brant"
          }
        ],
        "pollDivisionIds": [
          10137189
        ],
        "postalCode": "N3L3G9",
        "streetName": "RACE",
        "streetDirectionId": null,
        "streetTypeId": "ST",
        "placeName": "PARIS",
        "streetNameDisplayText": "RACE ST, PARIS"
      }
    ]
  },
  {
    "postal": "N3L0V7",
    "result": []
  },
  {
    "postal": "N3L2Z1",
    "result": [
      {
        "electoralDistricts": [
          {
            "election": null,
            "id": 13,
            "name": "Brantford—Brant"
          }
        ],
        "pollDivisionIds": [
          10137187
        ],
        "postalCode": "N3L2Z1",
        "streetName": "BANFIELD",
        "streetDirectionId": null,
        "streetTypeId": "ST",
        "placeName": "PARIS",
        "streetNameDisplayText": "BANFIELD ST, PARIS"
      }
    ]
  },
  {
    "postal": "N3L7N1",
    "result": []
  },
  {
    "postal": "N3L3C6",
    "result": [
      {
        "electoralDistricts": [
          {
            "election": null,
            "id": 13,
            "name": "Brantford—Brant"
          }
        ],
        "pollDivisionIds": [
          10137187
        ],
        "postalCode": "N3L3C6",
        "streetName": "OAK",
        "streetDirectionId": null,
        "streetTypeId": "AVE",
        "placeName": "PARIS",
        "streetNameDisplayText": "OAK AVE, PARIS"
      }
    ]
  },
  {
    "postal": "N3L4M1",
    "result": []
  },
  {
    "postal": "N3L9K2",
    "result": []
  },
  {
    "postal": "N3L9S6",
    "result": []
  },
  {
    "postal": "N3L4X1",
    "result": []
  },
  {
    "postal": "N3L8W2",
    "result": []
  },
  {
    "postal": "N3L7N2",
    "result": []
  },
  {
    "postal": "N3L8S3",
    "result": []
  },
  {
    "postal": "N3L4V0",
    "result": []
  },
  {
    "postal": "N3L6W4",
    "result": []
  },
  {
    "postal": "N3L5M1",
    "result": []
  },
  {
    "postal": "N3L0S4",
    "result": []
  },
  {
    "postal": "N3L5X6",
    "result": []
  },
  {
    "postal": "N3L8L5",
    "result": []
  },
  {
    "postal": "N3L5M8",
    "result": []
  },
  {
    "postal": "N3L2G3",
    "result": [
      {
        "electoralDistricts": [
          {
            "election": null,
            "id": 13,
            "name": "Brantford—Brant"
          }
        ],
        "pollDivisionIds": [
          10137189
        ],
        "postalCode": "N3L2G3",
        "streetName": "CHAPEL",
        "streetDirectionId": null,
        "streetTypeId": "ST",
        "placeName": "PARIS",
        "streetNameDisplayText": "CHAPEL ST, PARIS"
      }
    ]
  },
  {
    "postal": "N3L8E4",
    "result": []
  },
  {
    "postal": "N3L7S9",
    "result": []
  },
  {
    "postal": "N3L1K3",
    "result": [
      {
        "electoralDistricts": [
          {
            "election": null,
            "id": 13,
            "name": "Brantford—Brant"
          }
        ],
        "pollDivisionIds": [
          10137188
        ],
        "postalCode": "N3L1K3",
        "streetName": "MECHANIC",
        "streetDirectionId": null,
        "streetTypeId": "ST",
        "placeName": "PARIS",
        "streetNameDisplayText": "MECHANIC ST, PARIS"
      }
    ]
  },
  {
    "postal": "N3L4E1",
    "result": [
      {
        "electoralDistricts": [
          {
            "election": null,
            "id": 13,
            "name": "Brantford—Brant"
          }
        ],
        "pollDivisionIds": [
          10137187
        ],
        "postalCode": "N3L4E1",
        "streetName": "BRADBURY",
        "streetDirectionId": null,
        "streetTypeId": "CRES",
        "placeName": "PARIS",
        "streetNameDisplayText": "BRADBURY CRES, PARIS"
      },
      {
        "electoralDistricts": [
          {
            "election": null,
            "id": 13,
            "name": "Brantford—Brant"
          }
        ],
        "pollDivisionIds": [
          10137187
        ],
        "postalCode": "N3L4E1",
        "streetName": "DUNTON",
        "streetDirectionId": null,
        "streetTypeId": "LANE",
        "placeName": "PARIS",
        "streetNameDisplayText": "DUNTON LANE, PARIS"
      },
      {
        "electoralDistricts": [
          {
            "election": null,
            "id": 13,
            "name": "Brantford—Brant"
          }
        ],
        "pollDivisionIds": [
          10137187
        ],
        "postalCode": "N3L4E1",
        "streetName": "NIXON",
        "streetDirectionId": null,
        "streetTypeId": "AVE",
        "placeName": "PARIS",
        "streetNameDisplayText": "NIXON AVE, PARIS"
      }
    ]
  },
  {
    "postal": "N3L4R2",
    "result": []
  },
  {
    "postal": "N3L6T0",
    "result": []
  },
  {
    "postal": "N3L3K5",
    "result": []
  },
  {
    "postal": "N3L3S3",
    "result": [
      {
        "electoralDistricts": [
          {
            "election": null,
            "id": 13,
            "name": "Brantford—Brant"
          }
        ],
        "pollDivisionIds": [
          10137187
        ],
        "postalCode": "N3L3S3",
        "streetName": "GOLD",
        "streetDirectionId": null,
        "streetTypeId": "ST",
        "placeName": "PARIS",
        "streetNameDisplayText": "GOLD ST, PARIS"
      }
    ]
  },
  {
    "postal": "N3L3L4",
    "result": [
      {
        "electoralDistricts": [
          {
            "election": null,
            "id": 13,
            "name": "Brantford—Brant"
          }
        ],
        "pollDivisionIds": [
          10137189
        ],
        "postalCode": "N3L3L4",
        "streetName": "HILLSIDE",
        "streetDirectionId": null,
        "streetTypeId": "AVE",
        "placeName": "PARIS",
        "streetNameDisplayText": "HILLSIDE AVE, PARIS"
      }
    ]
  },
  {
    "postal": "N3L9Y2",
    "result": []
  },
  {
    "postal": "N3L1E0",
    "result": []
  },
  {
    "postal": "N3L9A4",
    "result": []
  },
  {
    "postal": "N3L1L3",
    "result": [
      {
        "electoralDistricts": [
          {
            "election": null,
            "id": 13,
            "name": "Brantford—Brant"
          }
        ],
        "pollDivisionIds": [
          10137188
        ],
        "postalCode": "N3L1L3",
        "streetName": "WILLIAM",
        "streetDirectionId": null,
        "streetTypeId": "ST",
        "placeName": "PARIS",
        "streetNameDisplayText": "WILLIAM ST, PARIS"
      }
    ]
  },
  {
    "postal": "N3L6N1",
    "result": []
  },
  {
    "postal": "N3L6G7",
    "result": []
  },
  {
    "postal": "N3L7W1",
    "result": []
  },
  {
    "postal": "N3L4M6",
    "result": []
  },
  {
    "postal": "N3L1K0",
    "result": []
  },
  {
    "postal": "N3L3E2",
    "result": [
      {
        "electoralDistricts": [
          {
            "election": null,
            "id": 82,
            "name": "Oxford"
          }
        ],
        "pollDivisionIds": [
          10140928
        ],
        "postalCode": "N3L3E2",
        "streetName": "2 TOWNSHIP",
        "streetDirectionId": null,
        "streetTypeId": "RD",
        "placeName": "PARIS",
        "streetNameDisplayText": "2 TOWNSHIP RD, PARIS"
      },
      {
        "electoralDistricts": [
          {
            "election": null,
            "id": 82,
            "name": "Oxford"
          }
        ],
        "pollDivisionIds": [
          10140928
        ],
        "postalCode": "N3L3E2",
        "streetName": "3 TOWNSHIP",
        "streetDirectionId": null,
        "streetTypeId": "RD",
        "placeName": "PARIS",
        "streetNameDisplayText": "3 TOWNSHIP RD, PARIS"
      },
      {
        "electoralDistricts": [
          {
            "election": null,
            "id": 82,
            "name": "Oxford"
          }
        ],
        "pollDivisionIds": [
          10140929
        ],
        "postalCode": "N3L3E2",
        "streetName": "6 TOWNSHIP",
        "streetDirectionId": null,
        "streetTypeId": "RD",
        "placeName": "PARIS",
        "streetNameDisplayText": "6 TOWNSHIP RD, PARIS"
      },
      {
        "electoralDistricts": [
          {
            "election": null,
            "id": 16,
            "name": "Cambridge"
          },
          {
            "election": null,
            "id": 13,
            "name": "Brantford—Brant"
          }
        ],
        "pollDivisionIds": [
          10137450,
          10137187
        ],
        "postalCode": "N3L3E2",
        "streetName": "AYR",
        "streetDirectionId": null,
        "streetTypeId": "RD",
        "placeName": "PARIS",
        "streetNameDisplayText": "AYR RD, PARIS"
      },
      {
        "electoralDistricts": [
          {
            "election": null,
            "id": 13,
            "name": "Brantford—Brant"
          }
        ],
        "pollDivisionIds": [
          10137187
        ],
        "postalCode": "N3L3E2",
        "streetName": "BRANT- OXFORD RD",
        "streetDirectionId": null,
        "streetTypeId": "RD",
        "placeName": "PARIS",
        "streetNameDisplayText": "BRANT- OXFORD RD RD, PARIS"
      },
      {
        "electoralDistricts": [
          {
            "election": null,
            "id": 82,
            "name": "Oxford"
          },
          {
            "election": null,
            "id": 16,
            "name": "Cambridge"
          },
          {
            "election": null,
            "id": 13,
            "name": "Brantford—Brant"
          }
        ],
        "pollDivisionIds": [
          10140928,
          10137450,
          10140929,
          10137187
        ],
        "postalCode": "N3L3E2",
        "streetName": "BRANT-OXFORD",
        "streetDirectionId": null,
        "streetTypeId": "RD",
        "placeName": "PARIS",
        "streetNameDisplayText": "BRANT-OXFORD RD, PARIS"
      },
      {
        "electoralDistricts": [
          {
            "election": null,
            "id": 13,
            "name": "Brantford—Brant"
          },
          {
            "election": null,
            "id": 82,
            "name": "Oxford"
          }
        ],
        "pollDivisionIds": [
          10137187,
          10140928
        ],
        "postalCode": "N3L3E2",
        "streetName": "CANNING",
        "streetDirectionId": null,
        "streetTypeId": "RD",
        "placeName": "PARIS",
        "streetNameDisplayText": "CANNING RD, PARIS"
      },
      {
        "electoralDistricts": [
          {
            "election": null,
            "id": 13,
            "name": "Brantford—Brant"
          }
        ],
        "pollDivisionIds": [
          10137187
        ],
        "postalCode": "N3L3E2",
        "streetName": "KEG",
        "streetDirectionId": null,
        "streetTypeId": "LANE",
        "placeName": "PARIS",
        "streetNameDisplayText": "KEG LANE, PARIS"
      },
      {
        "electoralDistricts": [
          {
            "election": null,
            "id": 16,
            "name": "Cambridge"
          }
        ],
        "pollDivisionIds": [
          10137448
        ],
        "postalCode": "N3L3E2",
        "streetName": "NITH",
        "streetDirectionId": null,
        "streetTypeId": "RD",
        "placeName": "AYR",
        "streetNameDisplayText": "NITH RD, AYR"
      },
      {
        "electoralDistricts": [
          {
            "election": null,
            "id": 16,
            "name": "Cambridge"
          },
          {
            "election": null,
            "id": 13,
            "name": "Brantford—Brant"
          }
        ],
        "pollDivisionIds": [
          10137450,
          10137187
        ],
        "postalCode": "N3L3E2",
        "streetName": "NITH",
        "streetDirectionId": null,
        "streetTypeId": "RD",
        "placeName": "PARIS",
        "streetNameDisplayText": "NITH RD, PARIS"
      },
      {
        "electoralDistricts": [
          {
            "election": null,
            "id": 13,
            "name": "Brantford—Brant"
          }
        ],
        "pollDivisionIds": [
          10137187
        ],
        "postalCode": "N3L3E2",
        "streetName": "PARIS LINKS",
        "streetDirectionId": null,
        "streetTypeId": "RD",
        "placeName": "PARIS",
        "streetNameDisplayText": "PARIS LINKS RD, PARIS"
      },
      {
        "electoralDistricts": [
          {
            "election": null,
            "id": 16,
            "name": "Cambridge"
          },
          {
            "election": null,
            "id": 13,
            "name": "Brantford—Brant"
          }
        ],
        "pollDivisionIds": [
          10137450,
          10137187
        ],
        "postalCode": "N3L3E2",
        "streetName": "PARIS PLAINS CHURCH",
        "streetDirectionId": null,
        "streetTypeId": "RD",
        "placeName": "PARIS",
        "streetNameDisplayText": "PARIS PLAINS CHURCH RD, PARIS"
      },
      {
        "electoralDistricts": [
          {
            "election": null,
            "id": 16,
            "name": "Cambridge"
          },
          {
            "election": null,
            "id": 13,
            "name": "Brantford—Brant"
          }
        ],
        "pollDivisionIds": [
          10137450,
          10137187
        ],
        "postalCode": "N3L3E2",
        "streetName": "PINEHURST",
        "streetDirectionId": null,
        "streetTypeId": "RD",
        "placeName": "PARIS",
        "streetNameDisplayText": "PINEHURST RD, PARIS"
      },
      {
        "electoralDistricts": [
          {
            "election": null,
            "id": 82,
            "name": "Oxford"
          }
        ],
        "pollDivisionIds": [
          10140928
        ],
        "postalCode": "N3L3E2",
        "streetName": "TOWNSHIP 2",
        "streetDirectionId": null,
        "streetTypeId": "RD",
        "placeName": "PARIS",
        "streetNameDisplayText": "TOWNSHIP 2 RD, PARIS"
      },
      {
        "electoralDistricts": [
          {
            "election": null,
            "id": 82,
            "name": "Oxford"
          }
        ],
        "pollDivisionIds": [
          10140928
        ],
        "postalCode": "N3L3E2",
        "streetName": "TOWNSHIP 3",
        "streetDirectionId": null,
        "streetTypeId": "RD",
        "placeName": "PARIS",
        "streetNameDisplayText": "TOWNSHIP 3 RD, PARIS"
      },
      {
        "electoralDistricts": [
          {
            "election": null,
            "id": 82,
            "name": "Oxford"
          }
        ],
        "pollDivisionIds": [
          10140890
        ],
        "postalCode": "N3L3E2",
        "streetName": "TOWNSHIP RD 6",
        "streetDirectionId": null,
        "streetTypeId": null,
        "placeName": "PARIS",
        "streetNameDisplayText": "TOWNSHIP RD 6, PARIS"
      },
      {
        "electoralDistricts": [
          {
            "election": null,
            "id": 82,
            "name": "Oxford"
          }
        ],
        "pollDivisionIds": [
          10140929
        ],
        "postalCode": "N3L3E2",
        "streetName": "TOWNSHIP ROAD 6",
        "streetDirectionId": null,
        "streetTypeId": null,
        "placeName": "PARIS",
        "streetNameDisplayText": "TOWNSHIP ROAD 6, PARIS"
      },
      {
        "electoralDistricts": [
          {
            "election": null,
            "id": 13,
            "name": "Brantford—Brant"
          }
        ],
        "pollDivisionIds": [
          10137187
        ],
        "postalCode": "N3L3E2",
        "streetName": "WATT'S POND",
        "streetDirectionId": null,
        "streetTypeId": "RD",
        "placeName": "PARIS",
        "streetNameDisplayText": "WATT'S POND RD, PARIS"
      },
      {
        "electoralDistricts": [
          {
            "election": null,
            "id": 16,
            "name": "Cambridge"
          }
        ],
        "pollDivisionIds": [
          10137450
        ],
        "postalCode": "N3L3E2",
        "streetName": "WEST DUMFRIES",
        "streetDirectionId": null,
        "streetTypeId": "RD",
        "placeName": "PARIS",
        "streetNameDisplayText": "WEST DUMFRIES RD, PARIS"
      },
      {
        "electoralDistricts": [
          {
            "election": null,
            "id": 13,
            "name": "Brantford—Brant"
          },
          {
            "election": null,
            "id": 16,
            "name": "Cambridge"
          }
        ],
        "pollDivisionIds": [
          10137187,
          10137186,
          10137450
        ],
        "postalCode": "N3L3E2",
        "streetName": "WEST RIVER",
        "streetDirectionId": null,
        "streetTypeId": "RD",
        "placeName": "PARIS",
        "streetNameDisplayText": "WEST RIVER RD, PARIS"
      },
      {
        "electoralDistricts": [
          {
            "election": null,
            "id": 13,
            "name": "Brantford—Brant"
          }
        ],
        "pollDivisionIds": [
          10137188
        ],
        "postalCode": "N3L3E2",
        "streetName": "WILLOW",
        "streetDirectionId": null,
        "streetTypeId": "ST",
        "placeName": "PARIS",
        "streetNameDisplayText": "WILLOW ST, PARIS"
      }
    ]
  },
  {
    "postal": "N3L5H4",
    "result": []
  },
  {
    "postal": "N3L1K7",
    "result": [
      {
        "electoralDistricts": [
          {
            "election": null,
            "id": 13,
            "name": "Brantford—Brant"
          }
        ],
        "pollDivisionIds": [
          10137188
        ],
        "postalCode": "N3L1K7",
        "streetName": "WILLIAM",
        "streetDirectionId": null,
        "streetTypeId": "ST",
        "placeName": "PARIS",
        "streetNameDisplayText": "WILLIAM ST, PARIS"
      }
    ]
  },
  {
    "postal": "N3L0H0",
    "result": []
  },
  {
    "postal": "N3L0J3",
    "result": []
  },
  {
    "postal": "N3L1X6",
    "result": [
      {
        "electoralDistricts": [
          {
            "election": null,
            "id": 13,
            "name": "Brantford—Brant"
          }
        ],
        "pollDivisionIds": [
          10137189
        ],
        "postalCode": "N3L1X6",
        "streetName": "BALL",
        "streetDirectionId": null,
        "streetTypeId": "ST",
        "placeName": "PARIS",
        "streetNameDisplayText": "BALL ST, PARIS"
      }
    ]
  },
  {
    "postal": "N3L2Z6",
    "result": [
      {
        "electoralDistricts": [
          {
            "election": null,
            "id": 13,
            "name": "Brantford—Brant"
          }
        ],
        "pollDivisionIds": [
          10137187
        ],
        "postalCode": "N3L2Z6",
        "streetName": "RAILWAY",
        "streetDirectionId": null,
        "streetTypeId": "ST",
        "placeName": "PARIS",
        "streetNameDisplayText": "RAILWAY ST, PARIS"
      }
    ]
  },
  {
    "postal": "N3L4R9",
    "result": []
  },
  {
    "postal": "N3L0W8",
    "result": []
  },
  {
    "postal": "N3L1L4",
    "result": [
      {
        "electoralDistricts": [
          {
            "election": null,
            "id": 13,
            "name": "Brantford—Brant"
          }
        ],
        "pollDivisionIds": [
          10137188
        ],
        "postalCode": "N3L1L4",
        "streetName": "WILLIAM",
        "streetDirectionId": null,
        "streetTypeId": "ST",
        "placeName": "PARIS",
        "streetNameDisplayText": "WILLIAM ST, PARIS"
      }
    ]
  },
  {
    "postal": "N3L0C8",
    "result": [
      {
        "electoralDistricts": [
          {
            "election": null,
            "id": 13,
            "name": "Brantford—Brant"
          }
        ],
        "pollDivisionIds": [
          10137188
        ],
        "postalCode": "N3L0C8",
        "streetName": "BALMORAL",
        "streetDirectionId": null,
        "streetTypeId": "ST",
        "placeName": "PARIS",
        "streetNameDisplayText": "BALMORAL ST, PARIS"
      },
      {
        "electoralDistricts": [
          {
            "election": null,
            "id": 13,
            "name": "Brantford—Brant"
          }
        ],
        "pollDivisionIds": [
          10137188
        ],
        "postalCode": "N3L0C8",
        "streetName": "HAMPTON",
        "streetDirectionId": null,
        "streetTypeId": "ST",
        "placeName": "PARIS",
        "streetNameDisplayText": "HAMPTON ST, PARIS"
      }
    ]
  },
  {
    "postal": "N3L9X7",
    "result": []
  },
  {
    "postal": "N3L4T1",
    "result": []
  },
  {
    "postal": "N3L0M0",
    "result": []
  },
  {
    "postal": "N3L6A2",
    "result": []
  },
  {
    "postal": "N3L9S8",
    "result": []
  },
  {
    "postal": "N3L9T4",
    "result": []
  },
  {
    "postal": "N3L9Y4",
    "result": []
  },
  {
    "postal": "N3L6G5",
    "result": []
  },
  {
    "postal": "N3L6H9",
    "result": []
  },
  {
    "postal": "N3L2P3",
    "result": [
      {
        "electoralDistricts": [
          {
            "election": null,
            "id": 13,
            "name": "Brantford—Brant"
          }
        ],
        "pollDivisionIds": [
          10137188
        ],
        "postalCode": "N3L2P3",
        "streetName": "RIVERVIEW",
        "streetDirectionId": null,
        "streetTypeId": "TERR",
        "placeName": "PARIS",
        "streetNameDisplayText": "RIVERVIEW TERR, PARIS"
      }
    ]
  },
  {
    "postal": "N3L1T6",
    "result": [
      {
        "electoralDistricts": [
          {
            "election": null,
            "id": 13,
            "name": "Brantford—Brant"
          }
        ],
        "pollDivisionIds": [
          10137187
        ],
        "postalCode": "N3L1T6",
        "streetName": "SILVER",
        "streetDirectionId": null,
        "streetTypeId": "ST",
        "placeName": "PARIS",
        "streetNameDisplayText": "SILVER ST, PARIS"
      }
    ]
  },
  {
    "postal": "N3L4P6",
    "result": []
  },
  {
    "postal": "N3L3K1",
    "result": [
      {
        "electoralDistricts": [
          {
            "election": null,
            "id": 13,
            "name": "Brantford—Brant"
          }
        ],
        "pollDivisionIds": [
          10137189
        ],
        "postalCode": "N3L3K1",
        "streetName": "OLD MILL",
        "streetDirectionId": null,
        "streetTypeId": "ST",
        "placeName": "PARIS",
        "streetNameDisplayText": "OLD MILL ST, PARIS"
      }
    ]
  },
  {
    "postal": "N3L6X4",
    "result": []
  },
  {
    "postal": "N3L4M8",
    "result": []
  },
  {
    "postal": "N3L2Y1",
    "result": [
      {
        "electoralDistricts": [
          {
            "election": null,
            "id": 13,
            "name": "Brantford—Brant"
          }
        ],
        "pollDivisionIds": [
          10137187
        ],
        "postalCode": "N3L2Y1",
        "streetName": "JANE",
        "streetDirectionId": null,
        "streetTypeId": "ST",
        "placeName": "PARIS",
        "streetNameDisplayText": "JANE ST, PARIS"
      }
    ]
  },
  {
    "postal": "N3L6M1",
    "result": []
  },
  {
    "postal": "N3L5L8",
    "result": []
  },
  {
    "postal": "N3L3P6",
    "result": []
  },
  {
    "postal": "N3L9A5",
    "result": []
  },
  {
    "postal": "N3L7K1",
    "result": []
  },
  {
    "postal": "N3L3J4",
    "result": [
      {
        "electoralDistricts": [
          {
            "election": null,
            "id": 13,
            "name": "Brantford—Brant"
          }
        ],
        "pollDivisionIds": [
          10137188
        ],
        "postalCode": "N3L3J4",
        "streetName": "CURTIS",
        "streetDirectionId": "S",
        "streetTypeId": "AVE",
        "placeName": "PARIS",
        "streetNameDisplayText": "CURTIS AVE S, PARIS"
      }
    ]
  },
  {
    "postal": "N3L5E7",
    "result": []
  },
  {
    "postal": "N3L3A7",
    "result": [
      {
        "electoralDistricts": [
          {
            "election": null,
            "id": 13,
            "name": "Brantford—Brant"
          }
        ],
        "pollDivisionIds": [
          10137187
        ],
        "postalCode": "N3L3A7",
        "streetName": "MARKET",
        "streetDirectionId": null,
        "streetTypeId": "ST",
        "placeName": "PARIS",
        "streetNameDisplayText": "MARKET ST, PARIS"
      }
    ]
  },
  {
    "postal": "N3L1B9",
    "result": [
      {
        "electoralDistricts": [
          {
            "election": null,
            "id": 13,
            "name": "Brantford—Brant"
          }
        ],
        "pollDivisionIds": [
          10137189
        ],
        "postalCode": "N3L1B9",
        "streetName": "CATHERINE",
        "streetDirectionId": null,
        "streetTypeId": "ST",
        "placeName": "PARIS",
        "streetNameDisplayText": "CATHERINE ST, PARIS"
      }
    ]
  },
  {
    "postal": "N3L9E8",
    "result": []
  },
  {
    "postal": "N3L1C9",
    "result": [
      {
        "electoralDistricts": [
          {
            "election": null,
            "id": 13,
            "name": "Brantford—Brant"
          }
        ],
        "pollDivisionIds": [
          10137189
        ],
        "postalCode": "N3L1C9",
        "streetName": "QUEEN",
        "streetDirectionId": null,
        "streetTypeId": "ST",
        "placeName": "PARIS",
        "streetNameDisplayText": "QUEEN ST, PARIS"
      }
    ]
  },
  {
    "postal": "N3L3B5",
    "result": [
      {
        "electoralDistricts": [
          {
            "election": null,
            "id": 13,
            "name": "Brantford—Brant"
          }
        ],
        "pollDivisionIds": [
          10137187
        ],
        "postalCode": "N3L3B5",
        "streetName": "FRANKLIN",
        "streetDirectionId": null,
        "streetTypeId": "ST",
        "placeName": "PARIS",
        "streetNameDisplayText": "FRANKLIN ST, PARIS"
      }
    ]
  },
  {
    "postal": "N3L8R0",
    "result": []
  },
  {
    "postal": "N3L3P2",
    "result": [
      {
        "electoralDistricts": [
          {
            "election": null,
            "id": 13,
            "name": "Brantford—Brant"
          }
        ],
        "pollDivisionIds": [
          10137187
        ],
        "postalCode": "N3L3P2",
        "streetName": "LARKSPUR",
        "streetDirectionId": null,
        "streetTypeId": "LANE",
        "placeName": "PARIS",
        "streetNameDisplayText": "LARKSPUR LANE, PARIS"
      }
    ]
  },
  {
    "postal": "N3L5V4",
    "result": []
  },
  {
    "postal": "N3L4H0",
    "result": []
  },
  {
    "postal": "N3L4S7",
    "result": []
  },
  {
    "postal": "N3L6C2",
    "result": []
  },
  {
    "postal": "N3L8W3",
    "result": []
  },
  {
    "postal": "N3L4M5",
    "result": []
  },
  {
    "postal": "N3L5T1",
    "result": []
  },
  {
    "postal": "N3L3B3",
    "result": [
      {
        "electoralDistricts": [
          {
            "election": null,
            "id": 13,
            "name": "Brantford—Brant"
          }
        ],
        "pollDivisionIds": [
          10137187
        ],
        "postalCode": "N3L3B3",
        "streetName": "MARKET",
        "streetDirectionId": null,
        "streetTypeId": "ST",
        "placeName": "PARIS",
        "streetNameDisplayText": "MARKET ST, PARIS"
      }
    ]
  },
  {
    "postal": "N3L6C6",
    "result": []
  },
  {
    "postal": "N3L7N8",
    "result": []
  },
  {
    "postal": "N3L2Y3",
    "result": [
      {
        "electoralDistricts": [
          {
            "election": null,
            "id": 13,
            "name": "Brantford—Brant"
          }
        ],
        "pollDivisionIds": [
          10137187
        ],
        "postalCode": "N3L2Y3",
        "streetName": "BANFIELD",
        "streetDirectionId": null,
        "streetTypeId": "ST",
        "placeName": "PARIS",
        "streetNameDisplayText": "BANFIELD ST, PARIS"
      }
    ]
  },
  {
    "postal": "N3L2R6",
    "result": [
      {
        "electoralDistricts": [
          {
            "election": null,
            "id": 13,
            "name": "Brantford—Brant"
          }
        ],
        "pollDivisionIds": [
          10137187
        ],
        "postalCode": "N3L2R6",
        "streetName": "BROADWAY",
        "streetDirectionId": "E",
        "streetTypeId": "ST",
        "placeName": "PARIS",
        "streetNameDisplayText": "BROADWAY ST E, PARIS"
      }
    ]
  },
  {
    "postal": "N3L7N3",
    "result": []
  },
  {
    "postal": "N3L8J2",
    "result": []
  },
  {
    "postal": "N3L6A9",
    "result": []
  },
  {
    "postal": "N3L3V2",
    "result": [
      {
        "electoralDistricts": [
          {
            "election": null,
            "id": 13,
            "name": "Brantford—Brant"
          }
        ],
        "pollDivisionIds": [
          10137187
        ],
        "postalCode": "N3L3V2",
        "streetName": "SPRUCE",
        "streetDirectionId": null,
        "streetTypeId": "ST",
        "placeName": "PARIS",
        "streetNameDisplayText": "SPRUCE ST, PARIS"
      }
    ]
  },
  {
    "postal": "N3L2N3",
    "result": [
      {
        "electoralDistricts": [
          {
            "election": null,
            "id": 13,
            "name": "Brantford—Brant"
          }
        ],
        "pollDivisionIds": [
          10137187
        ],
        "postalCode": "N3L2N3",
        "streetName": "GRAND RIVER",
        "streetDirectionId": "N",
        "streetTypeId": "ST",
        "placeName": "PARIS",
        "streetNameDisplayText": "GRAND RIVER ST N, PARIS"
      }
    ]
  },
  {
    "postal": "N3L1S5",
    "result": [
      {
        "electoralDistricts": [
          {
            "election": null,
            "id": 13,
            "name": "Brantford—Brant"
          }
        ],
        "pollDivisionIds": [
          10137187
        ],
        "postalCode": "N3L1S5",
        "streetName": "WELLINGTON",
        "streetDirectionId": null,
        "streetTypeId": "ST",
        "placeName": "PARIS",
        "streetNameDisplayText": "WELLINGTON ST, PARIS"
      }
    ]
  },
  {
    "postal": "N3L4T7",
    "result": []
  },
  {
    "postal": "N3L6Y7",
    "result": []
  },
  {
    "postal": "N3L0W7",
    "result": []
  },
  {
    "postal": "N3L2W9",
    "result": [
      {
        "electoralDistricts": [
          {
            "election": null,
            "id": 13,
            "name": "Brantford—Brant"
          }
        ],
        "pollDivisionIds": [
          10137187
        ],
        "postalCode": "N3L2W9",
        "streetName": "ST ANDREW",
        "streetDirectionId": null,
        "streetTypeId": "ST",
        "placeName": "PARIS",
        "streetNameDisplayText": "ST ANDREW ST, PARIS"
      }
    ]
  },
  {
    "postal": "N3L8V0",
    "result": []
  },
  {
    "postal": "N3L0H4",
    "result": [
      {
        "electoralDistricts": [
          {
            "election": null,
            "id": 13,
            "name": "Brantford—Brant"
          }
        ],
        "pollDivisionIds": [
          10137189
        ],
        "postalCode": "N3L0H4",
        "streetName": "EDGAR",
        "streetDirectionId": null,
        "streetTypeId": "PL",
        "placeName": "PARIS",
        "streetNameDisplayText": "EDGAR PL, PARIS"
      },
      {
        "electoralDistricts": [
          {
            "election": null,
            "id": 13,
            "name": "Brantford—Brant"
          }
        ],
        "pollDivisionIds": [
          10137189
        ],
        "postalCode": "N3L0H4",
        "streetName": "MASTERS",
        "streetDirectionId": null,
        "streetTypeId": "LANE",
        "placeName": "PARIS",
        "streetNameDisplayText": "MASTERS LANE, PARIS"
      },
      {
        "electoralDistricts": [
          {
            "election": null,
            "id": 13,
            "name": "Brantford—Brant"
          }
        ],
        "pollDivisionIds": [
          10137189
        ],
        "postalCode": "N3L0H4",
        "streetName": "PARKHILL",
        "streetDirectionId": null,
        "streetTypeId": "LANE",
        "placeName": "PARIS",
        "streetNameDisplayText": "PARKHILL LANE, PARIS"
      }
    ]
  },
  {
    "postal": "N3L2T1",
    "result": [
      {
        "electoralDistricts": [
          {
            "election": null,
            "id": 13,
            "name": "Brantford—Brant"
          }
        ],
        "pollDivisionIds": [
          10137187
        ],
        "postalCode": "N3L2T1",
        "streetName": "JOHN",
        "streetDirectionId": null,
        "streetTypeId": "AVE",
        "placeName": "PARIS",
        "streetNameDisplayText": "JOHN AVE, PARIS"
      },
      {
        "electoralDistricts": [
          {
            "election": null,
            "id": 13,
            "name": "Brantford—Brant"
          }
        ],
        "pollDivisionIds": [
          10137187
        ],
        "postalCode": "N3L2T1",
        "streetName": "JOHN",
        "streetDirectionId": null,
        "streetTypeId": "ST",
        "placeName": "PARIS",
        "streetNameDisplayText": "JOHN ST, PARIS"
      }
    ]
  },
  {
    "postal": "N3L1B1",
    "result": [
      {
        "electoralDistricts": [
          {
            "election": null,
            "id": 13,
            "name": "Brantford—Brant"
          }
        ],
        "pollDivisionIds": [
          10137189
        ],
        "postalCode": "N3L1B1",
        "streetName": "CATHERINE",
        "streetDirectionId": null,
        "streetTypeId": "ST",
        "placeName": "PARIS",
        "streetNameDisplayText": "CATHERINE ST, PARIS"
      }
    ]
  },
  {
    "postal": "N3L8B6",
    "result": []
  },
  {
    "postal": "N3L6H1",
    "result": []
  },
  {
    "postal": "N3L8T8",
    "result": []
  },
  {
    "postal": "N3L0T4",
    "result": []
  },
  {
    "postal": "N3L2C4",
    "result": [
      {
        "electoralDistricts": [
          {
            "election": null,
            "id": 13,
            "name": "Brantford—Brant"
          }
        ],
        "pollDivisionIds": [
          10137189
        ],
        "postalCode": "N3L2C4",
        "streetName": "BURWELL",
        "streetDirectionId": null,
        "streetTypeId": "ST",
        "placeName": "PARIS",
        "streetNameDisplayText": "BURWELL ST, PARIS"
      }
    ]
  },
  {
    "postal": "N3L8N3",
    "result": []
  },
  {
    "postal": "N3L4L8",
    "result": []
  },
  {
    "postal": "N3L2B5",
    "result": [
      {
        "electoralDistricts": [
          {
            "election": null,
            "id": 13,
            "name": "Brantford—Brant"
          }
        ],
        "pollDivisionIds": [
          10137189
        ],
        "postalCode": "N3L2B5",
        "streetName": "GRAND RIVER",
        "streetDirectionId": "S",
        "streetTypeId": "ST",
        "placeName": "PARIS",
        "streetNameDisplayText": "GRAND RIVER ST S, PARIS"
      }
    ]
  },
  {
    "postal": "N3L3H1",
    "result": [
      {
        "electoralDistricts": [
          {
            "election": null,
            "id": 13,
            "name": "Brantford—Brant"
          }
        ],
        "pollDivisionIds": [
          10137188
        ],
        "postalCode": "N3L3H1",
        "streetName": "DUNDAS",
        "streetDirectionId": "E",
        "streetTypeId": "ST",
        "placeName": "PARIS",
        "streetNameDisplayText": "DUNDAS ST E, PARIS"
      },
      {
        "electoralDistricts": [
          {
            "election": null,
            "id": 13,
            "name": "Brantford—Brant"
          }
        ],
        "pollDivisionIds": [
          10137189
        ],
        "postalCode": "N3L3H1",
        "streetName": "DUNDAS",
        "streetDirectionId": "W",
        "streetTypeId": "ST",
        "placeName": "PARIS",
        "streetNameDisplayText": "DUNDAS ST W, PARIS"
      }
    ]
  },
  {
    "postal": "N3L4Y1",
    "result": []
  },
  {
    "postal": "N3L7E2",
    "result": []
  },
  {
    "postal": "N3L2P5",
    "result": [
      {
        "electoralDistricts": [
          {
            "election": null,
            "id": 13,
            "name": "Brantford—Brant"
          }
        ],
        "pollDivisionIds": [
          10137188
        ],
        "postalCode": "N3L2P5",
        "streetName": "HORACE",
        "streetDirectionId": null,
        "streetTypeId": "DR",
        "placeName": "PARIS",
        "streetNameDisplayText": "HORACE DR, PARIS"
      }
    ]
  },
  {
    "postal": "N3L8R7",
    "result": []
  },
  {
    "postal": "N3L9P1",
    "result": []
  },
  {
    "postal": "N3L3B8",
    "result": [
      {
        "electoralDistricts": [
          {
            "election": null,
            "id": 13,
            "name": "Brantford—Brant"
          }
        ],
        "pollDivisionIds": [
          10137187
        ],
        "postalCode": "N3L3B8",
        "streetName": "FRANKLIN",
        "streetDirectionId": null,
        "streetTypeId": "ST",
        "placeName": "PARIS",
        "streetNameDisplayText": "FRANKLIN ST, PARIS"
      }
    ]
  },
  {
    "postal": "N3L3P7",
    "result": [
      {
        "electoralDistricts": [
          {
            "election": null,
            "id": 13,
            "name": "Brantford—Brant"
          }
        ],
        "pollDivisionIds": [
          10137187
        ],
        "postalCode": "N3L3P7",
        "streetName": "JASMINE",
        "streetDirectionId": null,
        "streetTypeId": "DR",
        "placeName": "PARIS",
        "streetNameDisplayText": "JASMINE DR, PARIS"
      }
    ]
  },
  {
    "postal": "N3L9B2",
    "result": []
  },
  {
    "postal": "N3L6Z3",
    "result": []
  },
  {
    "postal": "N3L4N5",
    "result": []
  },
  {
    "postal": "N3L8T3",
    "result": []
  },
  {
    "postal": "N3L1V2",
    "result": [
      {
        "electoralDistricts": [
          {
            "election": null,
            "id": 13,
            "name": "Brantford—Brant"
          }
        ],
        "pollDivisionIds": [
          10137187
        ],
        "postalCode": "N3L1V2",
        "streetName": "SILVER",
        "streetDirectionId": null,
        "streetTypeId": "ST",
        "placeName": "PARIS",
        "streetNameDisplayText": "SILVER ST, PARIS"
      }
    ]
  },
  {
    "postal": "N3L1Y0",
    "result": []
  },
  {
    "postal": "N3L3G6",
    "result": []
  },
  {
    "postal": "N3L3H7",
    "result": [
      {
        "electoralDistricts": [
          {
            "election": null,
            "id": 13,
            "name": "Brantford—Brant"
          }
        ],
        "pollDivisionIds": [
          10137188
        ],
        "postalCode": "N3L3H7",
        "streetName": "DUNDAS",
        "streetDirectionId": "E",
        "streetTypeId": "ST",
        "placeName": "PARIS",
        "streetNameDisplayText": "DUNDAS ST E, PARIS"
      }
    ]
  },
  {
    "postal": "N3L7X8",
    "result": []
  },
  {
    "postal": "N3L0C7",
    "result": [
      {
        "electoralDistricts": [
          {
            "election": null,
            "id": 13,
            "name": "Brantford—Brant"
          }
        ],
        "pollDivisionIds": [
          10137187
        ],
        "postalCode": "N3L0C7",
        "streetName": "SPRUCE",
        "streetDirectionId": null,
        "streetTypeId": "ST",
        "placeName": "PARIS",
        "streetNameDisplayText": "SPRUCE ST, PARIS"
      }
    ]
  },
  {
    "postal": "N3L0W9",
    "result": []
  },
  {
    "postal": "N3L8E6",
    "result": []
  },
  {
    "postal": "N3L9Z8",
    "result": []
  },
  {
    "postal": "N3L3P4",
    "result": [
      {
        "electoralDistricts": [
          {
            "election": null,
            "id": 13,
            "name": "Brantford—Brant"
          }
        ],
        "pollDivisionIds": [
          10137187
        ],
        "postalCode": "N3L3P4",
        "streetName": "CHARLTON",
        "streetDirectionId": null,
        "streetTypeId": "DR",
        "placeName": "PARIS",
        "streetNameDisplayText": "CHARLTON DR, PARIS"
      }
    ]
  },
  {
    "postal": "N3L6L8",
    "result": []
  },
  {
    "postal": "N3L2R4",
    "result": [
      {
        "electoralDistricts": [
          {
            "election": null,
            "id": 13,
            "name": "Brantford—Brant"
          }
        ],
        "pollDivisionIds": [
          10137188
        ],
        "postalCode": "N3L2R4",
        "streetName": "BROADWAY",
        "streetDirectionId": "E",
        "streetTypeId": "ST",
        "placeName": "PARIS",
        "streetNameDisplayText": "BROADWAY ST E, PARIS"
      }
    ]
  },
  {
    "postal": "N3L2W1",
    "result": []
  },
  {
    "postal": "N3L9H8",
    "result": []
  },
  {
    "postal": "N3L8X9",
    "result": []
  },
  {
    "postal": "N3L7H4",
    "result": []
  },
  {
    "postal": "N3L3J1",
    "result": [
      {
        "electoralDistricts": [
          {
            "election": null,
            "id": 13,
            "name": "Brantford—Brant"
          }
        ],
        "pollDivisionIds": [
          10137188
        ],
        "postalCode": "N3L3J1",
        "streetName": "PARIS",
        "streetDirectionId": null,
        "streetTypeId": "RD",
        "placeName": "PARIS",
        "streetNameDisplayText": "PARIS RD, PARIS"
      }
    ]
  },
  {
    "postal": "N3L1P4",
    "result": [
      {
        "electoralDistricts": [
          {
            "election": null,
            "id": 13,
            "name": "Brantford—Brant"
          }
        ],
        "pollDivisionIds": [
          10137188,
          10137187
        ],
        "postalCode": "N3L1P4",
        "streetName": "HOMESTEAD",
        "streetDirectionId": null,
        "streetTypeId": "RD",
        "placeName": "PARIS",
        "streetNameDisplayText": "HOMESTEAD RD, PARIS"
      }
    ]
  },
  {
    "postal": "N3L2A3",
    "result": [
      {
        "electoralDistricts": [
          {
            "election": null,
            "id": 13,
            "name": "Brantford—Brant"
          }
        ],
        "pollDivisionIds": [
          10137189
        ],
        "postalCode": "N3L2A3",
        "streetName": "WASHINGTON",
        "streetDirectionId": null,
        "streetTypeId": "ST",
        "placeName": "PARIS",
        "streetNameDisplayText": "WASHINGTON ST, PARIS"
      }
    ]
  },
  {
    "postal": "N3L0Z1",
    "result": []
  },
  {
    "postal": "N3L1C1",
    "result": [
      {
        "electoralDistricts": [
          {
            "election": null,
            "id": 13,
            "name": "Brantford—Brant"
          }
        ],
        "pollDivisionIds": [
          10137189
        ],
        "postalCode": "N3L1C1",
        "streetName": "QUEEN",
        "streetDirectionId": null,
        "streetTypeId": "ST",
        "placeName": "PARIS",
        "streetNameDisplayText": "QUEEN ST, PARIS"
      },
      {
        "electoralDistricts": [
          {
            "election": null,
            "id": 13,
            "name": "Brantford—Brant"
          }
        ],
        "pollDivisionIds": [
          10137186
        ],
        "postalCode": "N3L1C1",
        "streetName": "QUEENSTON",
        "streetDirectionId": null,
        "streetTypeId": "ST",
        "placeName": "PARIS",
        "streetNameDisplayText": "QUEENSTON ST, PARIS"
      }
    ]
  },
  {
    "postal": "N3L0H3",
    "result": [
      {
        "electoralDistricts": [
          {
            "election": null,
            "id": 13,
            "name": "Brantford—Brant"
          }
        ],
        "pollDivisionIds": [
          10137189
        ],
        "postalCode": "N3L0H3",
        "streetName": "EDGAR",
        "streetDirectionId": null,
        "streetTypeId": "PL",
        "placeName": "PARIS",
        "streetNameDisplayText": "EDGAR PL, PARIS"
      },
      {
        "electoralDistricts": [
          {
            "election": null,
            "id": 13,
            "name": "Brantford—Brant"
          }
        ],
        "pollDivisionIds": [
          10137189
        ],
        "postalCode": "N3L0H3",
        "streetName": "MASTERS",
        "streetDirectionId": null,
        "streetTypeId": "LANE",
        "placeName": "PARIS",
        "streetNameDisplayText": "MASTERS LANE, PARIS"
      },
      {
        "electoralDistricts": [
          {
            "election": null,
            "id": 13,
            "name": "Brantford—Brant"
          }
        ],
        "pollDivisionIds": [
          10137189
        ],
        "postalCode": "N3L0H3",
        "streetName": "PARKHILL",
        "streetDirectionId": null,
        "streetTypeId": "LANE",
        "placeName": "PARIS",
        "streetNameDisplayText": "PARKHILL LANE, PARIS"
      },
      {
        "electoralDistricts": [
          {
            "election": null,
            "id": 13,
            "name": "Brantford—Brant"
          }
        ],
        "pollDivisionIds": [
          10137189
        ],
        "postalCode": "N3L0H3",
        "streetName": "WHITING",
        "streetDirectionId": null,
        "streetTypeId": "DR",
        "placeName": "PARIS",
        "streetNameDisplayText": "WHITING DR, PARIS"
      }
    ]
  },
  {
    "postal": "N3L7B0",
    "result": []
  },
  {
    "postal": "N3L5K2",
    "result": []
  },
  {
    "postal": "N3L1E9",
    "result": [
      {
        "electoralDistricts": [
          {
            "election": null,
            "id": 13,
            "name": "Brantford—Brant"
          }
        ],
        "pollDivisionIds": [
          10137189
        ],
        "postalCode": "N3L1E9",
        "streetName": "DUNDAS",
        "streetDirectionId": "W",
        "streetTypeId": "ST",
        "placeName": "PARIS",
        "streetNameDisplayText": "DUNDAS ST W, PARIS"
      }
    ]
  },
  {
    "postal": "N3L9W7",
    "result": []
  },
  {
    "postal": "N3L5W6",
    "result": []
  },
  {
    "postal": "N3L6S6",
    "result": []
  },
  {
    "postal": "N3L2P8",
    "result": [
      {
        "electoralDistricts": [
          {
            "election": null,
            "id": 13,
            "name": "Brantford—Brant"
          }
        ],
        "pollDivisionIds": [
          10137188
        ],
        "postalCode": "N3L2P8",
        "streetName": "HIRAM",
        "streetDirectionId": null,
        "streetTypeId": "RD",
        "placeName": "PARIS",
        "streetNameDisplayText": "HIRAM RD, PARIS"
      }
    ]
  },
  {
    "postal": "N3L4P8",
    "result": []
  },
  {
    "postal": "N3L0V9",
    "result": []
  },
  {
    "postal": "N3L5Y2",
    "result": []
  },
  {
    "postal": "N3L7Z7",
    "result": []
  },
  {
    "postal": "N3L6Y8",
    "result": []
  },
  {
    "postal": "N3L2G7",
    "result": []
  },
  {
    "postal": "N3L8C1",
    "result": []
  },
  {
    "postal": "N3L5C5",
    "result": []
  },
  {
    "postal": "N3L2X8",
    "result": [
      {
        "electoralDistricts": [
          {
            "election": null,
            "id": 13,
            "name": "Brantford—Brant"
          }
        ],
        "pollDivisionIds": [
          10137187
        ],
        "postalCode": "N3L2X8",
        "streetName": "JANE",
        "streetDirectionId": null,
        "streetTypeId": "ST",
        "placeName": "PARIS",
        "streetNameDisplayText": "JANE ST, PARIS"
      }
    ]
  },
  {
    "postal": "N3L1W5",
    "result": [
      {
        "electoralDistricts": [
          {
            "election": null,
            "id": 13,
            "name": "Brantford—Brant"
          }
        ],
        "pollDivisionIds": [
          10137189
        ],
        "postalCode": "N3L1W5",
        "streetName": "SPENCER",
        "streetDirectionId": null,
        "streetTypeId": "ST",
        "placeName": "PARIS",
        "streetNameDisplayText": "SPENCER ST, PARIS"
      }
    ]
  },
  {
    "postal": "N3L7G0",
    "result": []
  },
  {
    "postal": "N3L8J8",
    "result": []
  },
  {
    "postal": "N3L3Y0",
    "result": []
  },
  {
    "postal": "N3L9T7",
    "result": []
  },
  {
    "postal": "N3L5P4",
    "result": []
  },
  {
    "postal": "N3L4B0",
    "result": []
  },
  {
    "postal": "N3L9N8",
    "result": []
  },
  {
    "postal": "N3L4A7",
    "result": [
      {
        "electoralDistricts": [
          {
            "election": null,
            "id": 13,
            "name": "Brantford—Brant"
          }
        ],
        "pollDivisionIds": [
          10137187
        ],
        "postalCode": "N3L4A7",
        "streetName": "ASPEN",
        "streetDirectionId": null,
        "streetTypeId": "ST",
        "placeName": "PARIS",
        "streetNameDisplayText": "ASPEN ST, PARIS"
      }
    ]
  },
  {
    "postal": "N3L4H9",
    "result": []
  },
  {
    "postal": "N3L6X1",
    "result": []
  },
  {
    "postal": "N3L9Y7",
    "result": []
  },
  {
    "postal": "N3L2Y5",
    "result": [
      {
        "electoralDistricts": [
          {
            "election": null,
            "id": 13,
            "name": "Brantford—Brant"
          }
        ],
        "pollDivisionIds": [
          10137187
        ],
        "postalCode": "N3L2Y5",
        "streetName": "BANFIELD",
        "streetDirectionId": null,
        "streetTypeId": "ST",
        "placeName": "PARIS",
        "streetNameDisplayText": "BANFIELD ST, PARIS"
      }
    ]
  },
  {
    "postal": "N3L8L7",
    "result": []
  },
  {
    "postal": "N3L2A8",
    "result": [
      {
        "electoralDistricts": [
          {
            "election": null,
            "id": 13,
            "name": "Brantford—Brant"
          }
        ],
        "pollDivisionIds": [
          10137189
        ],
        "postalCode": "N3L2A8",
        "streetName": "WASHINGTON",
        "streetDirectionId": null,
        "streetTypeId": "ST",
        "placeName": "PARIS",
        "streetNameDisplayText": "WASHINGTON ST, PARIS"
      }
    ]
  },
  {
    "postal": "N3L2K9",
    "result": [
      {
        "electoralDistricts": [
          {
            "election": null,
            "id": 13,
            "name": "Brantford—Brant"
          }
        ],
        "pollDivisionIds": [
          10137188
        ],
        "postalCode": "N3L2K9",
        "streetName": "WILLOW",
        "streetDirectionId": null,
        "streetTypeId": "ST",
        "placeName": "PARIS",
        "streetNameDisplayText": "WILLOW ST, PARIS"
      }
    ]
  },
  {
    "postal": "N3L3E5",
    "result": [
      {
        "electoralDistricts": [
          {
            "election": null,
            "id": 13,
            "name": "Brantford—Brant"
          }
        ],
        "pollDivisionIds": [
          10137186
        ],
        "postalCode": "N3L3E5",
        "streetName": "HILL TOP",
        "streetDirectionId": null,
        "streetTypeId": "LANE",
        "placeName": "ST GEORGE BRANT",
        "streetNameDisplayText": "HILL TOP LANE, ST GEORGE BRANT"
      },
      {
        "electoralDistricts": [
          {
            "election": null,
            "id": 13,
            "name": "Brantford—Brant"
          }
        ],
        "pollDivisionIds": [
          10137187
        ],
        "postalCode": "N3L3E5",
        "streetName": "RAILWAY",
        "streetDirectionId": null,
        "streetTypeId": "ST",
        "placeName": "PARIS",
        "streetNameDisplayText": "RAILWAY ST, PARIS"
      },
      {
        "electoralDistricts": [
          {
            "election": null,
            "id": 13,
            "name": "Brantford—Brant"
          }
        ],
        "pollDivisionIds": [
          10137187
        ],
        "postalCode": "N3L3E5",
        "streetName": "SCOTT",
        "streetDirectionId": null,
        "streetTypeId": "AVE",
        "placeName": "PARIS",
        "streetNameDisplayText": "SCOTT AVE, PARIS"
      }
    ]
  },
  {
    "postal": "N3L8N6",
    "result": []
  },
  {
    "postal": "N3L8J4",
    "result": []
  },
  {
    "postal": "N3L4R7",
    "result": []
  },
  {
    "postal": "N3L9K1",
    "result": []
  },
  {
    "postal": "N3L8E1",
    "result": []
  },
  {
    "postal": "N3L0R1",
    "result": []
  },
  {
    "postal": "N3L4J3",
    "result": []
  },
  {
    "postal": "N3L7E7",
    "result": []
  },
  {
    "postal": "N3L0J0",
    "result": []
  },
  {
    "postal": "N3L7R8",
    "result": []
  },
  {
    "postal": "N3L9X0",
    "result": []
  },
  {
    "postal": "N3L7P6",
    "result": []
  },
  {
    "postal": "N3L0R7",
    "result": []
  },
  {
    "postal": "N3L5W1",
    "result": []
  },
  {
    "postal": "N3L0K4",
    "result": []
  },
  {
    "postal": "N3L7N9",
    "result": []
  },
  {
    "postal": "N3L1N0",
    "result": []
  },
  {
    "postal": "N3L6P3",
    "result": []
  },
  {
    "postal": "N3L5A1",
    "result": []
  },
  {
    "postal": "N3L9M9",
    "result": []
  },
  {
    "postal": "N3L7T6",
    "result": []
  },
  {
    "postal": "N3L3X0",
    "result": []
  },
  {
    "postal": "N3L2T0",
    "result": []
  },
  {
    "postal": "N3L5X9",
    "result": []
  },
  {
    "postal": "N3L2R3",
    "result": [
      {
        "electoralDistricts": [
          {
            "election": null,
            "id": 13,
            "name": "Brantford—Brant"
          }
        ],
        "pollDivisionIds": [
          10137188
        ],
        "postalCode": "N3L2R3",
        "streetName": "BROADWAY",
        "streetDirectionId": "E",
        "streetTypeId": "ST",
        "placeName": "PARIS",
        "streetNameDisplayText": "BROADWAY ST E, PARIS"
      }
    ]
  },
  {
    "postal": "N3L5N2",
    "result": []
  },
  {
    "postal": "N3L4Y7",
    "result": []
  },
  {
    "postal": "N3L7M0",
    "result": []
  },
  {
    "postal": "N3L8P3",
    "result": []
  },
  {
    "postal": "N3L3N3",
    "result": [
      {
        "electoralDistricts": [
          {
            "election": null,
            "id": 13,
            "name": "Brantford—Brant"
          }
        ],
        "pollDivisionIds": [
          10137187
        ],
        "postalCode": "N3L3N3",
        "streetName": "MAGNOLIA",
        "streetDirectionId": null,
        "streetTypeId": "DR",
        "placeName": "PARIS",
        "streetNameDisplayText": "MAGNOLIA DR, PARIS"
      }
    ]
  },
  {
    "postal": "N3L7S3",
    "result": []
  },
  {
    "postal": "N3L3V9",
    "result": [
      {
        "electoralDistricts": [
          {
            "election": null,
            "id": 13,
            "name": "Brantford—Brant"
          }
        ],
        "pollDivisionIds": [
          10137187
        ],
        "postalCode": "N3L3V9",
        "streetName": "CHARLTON",
        "streetDirectionId": null,
        "streetTypeId": "DR",
        "placeName": "PARIS",
        "streetNameDisplayText": "CHARLTON DR, PARIS"
      }
    ]
  },
  {
    "postal": "N3L9N7",
    "result": []
  },
  {
    "postal": "N3L0G4",
    "result": [
      {
        "electoralDistricts": [
          {
            "election": null,
            "id": 13,
            "name": "Brantford—Brant"
          }
        ],
        "pollDivisionIds": [
          10137189
        ],
        "postalCode": "N3L0G4",
        "streetName": "NEWSTEAD",
        "streetDirectionId": null,
        "streetTypeId": "RD",
        "placeName": "PARIS",
        "streetNameDisplayText": "NEWSTEAD RD, PARIS"
      }
    ]
  },
  {
    "postal": "N3L2E2",
    "result": [
      {
        "electoralDistricts": [
          {
            "election": null,
            "id": 13,
            "name": "Brantford—Brant"
          }
        ],
        "pollDivisionIds": [
          10137189
        ],
        "postalCode": "N3L2E2",
        "streetName": "MAIN",
        "streetDirectionId": null,
        "streetTypeId": "ST",
        "placeName": "PARIS",
        "streetNameDisplayText": "MAIN ST, PARIS"
      }
    ]
  },
  {
    "postal": "N3L7W8",
    "result": []
  },
  {
    "postal": "N3L7M5",
    "result": []
  },
  {
    "postal": "N3L5W8",
    "result": []
  },
  {
    "postal": "N3L5E5",
    "result": []
  },
  {
    "postal": "N3L1P9",
    "result": [
      {
        "electoralDistricts": [
          {
            "election": null,
            "id": 13,
            "name": "Brantford—Brant"
          }
        ],
        "pollDivisionIds": [
          10137187
        ],
        "postalCode": "N3L1P9",
        "streetName": "CAPRON",
        "streetDirectionId": null,
        "streetTypeId": "ST",
        "placeName": "PARIS",
        "streetNameDisplayText": "CAPRON ST, PARIS"
      }
    ]
  },
  {
    "postal": "N3L8V8",
    "result": []
  },
  {
    "postal": "N3L9G8",
    "result": []
  },
  {
    "postal": "N3L8H9",
    "result": []
  },
  {
    "postal": "N3L1Z1",
    "result": [
      {
        "electoralDistricts": [
          {
            "election": null,
            "id": 13,
            "name": "Brantford—Brant"
          }
        ],
        "pollDivisionIds": [
          10137189
        ],
        "postalCode": "N3L1Z1",
        "streetName": "RACE",
        "streetDirectionId": null,
        "streetTypeId": "ST",
        "placeName": "PARIS",
        "streetNameDisplayText": "RACE ST, PARIS"
      }
    ]
  },
  {
    "postal": "N3L8M3",
    "result": []
  },
  {
    "postal": "N3L5H6",
    "result": []
  },
  {
    "postal": "N3L7W7",
    "result": []
  },
  {
    "postal": "N3L4L0",
    "result": []
  },
  {
    "postal": "N3L2N1",
    "result": [
      {
        "electoralDistricts": [
          {
            "election": null,
            "id": 13,
            "name": "Brantford—Brant"
          }
        ],
        "pollDivisionIds": [
          10137187
        ],
        "postalCode": "N3L2N1",
        "streetName": "GRAND RIVER",
        "streetDirectionId": "N",
        "streetTypeId": "ST",
        "placeName": "PARIS",
        "streetNameDisplayText": "GRAND RIVER ST N, PARIS"
      },
      {
        "electoralDistricts": [
          {
            "election": null,
            "id": 13,
            "name": "Brantford—Brant"
          }
        ],
        "pollDivisionIds": [
          10137187
        ],
        "postalCode": "N3L2N1",
        "streetName": "GRAND RIVER ST. N",
        "streetDirectionId": "N",
        "streetTypeId": "ST",
        "placeName": "PARIS",
        "streetNameDisplayText": "GRAND RIVER ST. N ST N, PARIS"
      }
    ]
  },
  {
    "postal": "N3L2H4",
    "result": [
      {
        "electoralDistricts": [
          {
            "election": null,
            "id": 13,
            "name": "Brantford—Brant"
          }
        ],
        "pollDivisionIds": [
          10137189
        ],
        "postalCode": "N3L2H4",
        "streetName": "BARKER",
        "streetDirectionId": null,
        "streetTypeId": "ST",
        "placeName": "PARIS",
        "streetNameDisplayText": "BARKER ST, PARIS"
      }
    ]
  },
  {
    "postal": "N3L5C8",
    "result": []
  },
  {
    "postal": "N3L8B0",
    "result": []
  },
  {
    "postal": "N3L1T4",
    "result": [
      {
        "electoralDistricts": [
          {
            "election": null,
            "id": 13,
            "name": "Brantford—Brant"
          }
        ],
        "pollDivisionIds": [
          10137187
        ],
        "postalCode": "N3L1T4",
        "streetName": "WELLINGTON",
        "streetDirectionId": null,
        "streetTypeId": "ST",
        "placeName": "PARIS",
        "streetNameDisplayText": "WELLINGTON ST, PARIS"
      }
    ]
  },
  {
    "postal": "N3L7N7",
    "result": []
  },
  {
    "postal": "N3L4L3",
    "result": []
  },
  {
    "postal": "N3L2N2",
    "result": [
      {
        "electoralDistricts": [
          {
            "election": null,
            "id": 13,
            "name": "Brantford—Brant"
          }
        ],
        "pollDivisionIds": [
          10137223,
          10137188
        ],
        "postalCode": "N3L2N2",
        "streetName": "GRAND RIVER",
        "streetDirectionId": "N",
        "streetTypeId": "ST",
        "placeName": "PARIS",
        "streetNameDisplayText": "GRAND RIVER ST N, PARIS"
      }
    ]
  },
  {
    "postal": "N3L4N8",
    "result": []
  },
  {
    "postal": "N3L3M5",
    "result": [
      {
        "electoralDistricts": [
          {
            "election": null,
            "id": 13,
            "name": "Brantford—Brant"
          }
        ],
        "pollDivisionIds": [
          10137187
        ],
        "postalCode": "N3L3M5",
        "streetName": "TRILLIUM",
        "streetDirectionId": null,
        "streetTypeId": "WAY",
        "placeName": "PARIS",
        "streetNameDisplayText": "TRILLIUM WAY, PARIS"
      }
    ]
  },
  {
    "postal": "N3L6H7",
    "result": []
  },
  {
    "postal": "N3L8Y8",
    "result": []
  },
  {
    "postal": "N3L5R9",
    "result": []
  },
  {
    "postal": "N3L8G3",
    "result": []
  },
  {
    "postal": "N3L4N7",
    "result": []
  },
  {
    "postal": "N3L0B9",
    "result": []
  },
  {
    "postal": "N3L9K7",
    "result": []
  },
  {
    "postal": "N3L9K9",
    "result": []
  },
  {
    "postal": "N3L3Z2",
    "result": []
  },
  {
    "postal": "N3L6W7",
    "result": []
  },
  {
    "postal": "N3L0P1",
    "result": []
  },
  {
    "postal": "N3L3A0",
    "result": []
  },
  {
    "postal": "N3L8L9",
    "result": []
  },
  {
    "postal": "N3L6X0",
    "result": []
  },
  {
    "postal": "N3L3E9",
    "result": []
  },
  {
    "postal": "N3L0S5",
    "result": []
  },
  {
    "postal": "N3L1A2",
    "result": [
      {
        "electoralDistricts": [
          {
            "election": null,
            "id": 13,
            "name": "Brantford—Brant"
          }
        ],
        "pollDivisionIds": [
          10137189
        ],
        "postalCode": "N3L1A2",
        "streetName": "ANN",
        "streetDirectionId": null,
        "streetTypeId": "ST",
        "placeName": "PARIS",
        "streetNameDisplayText": "ANN ST, PARIS"
      }
    ]
  },
  {
    "postal": "N3L5V8",
    "result": []
  },
  {
    "postal": "N3L8C5",
    "result": []
  },
  {
    "postal": "N3L6N0",
    "result": []
  },
  {
    "postal": "N3L9E6",
    "result": []
  },
  {
    "postal": "N3L5J7",
    "result": []
  },
  {
    "postal": "N3L2R2",
    "result": [
      {
        "electoralDistricts": [
          {
            "election": null,
            "id": 13,
            "name": "Brantford—Brant"
          }
        ],
        "pollDivisionIds": [
          10137188
        ],
        "postalCode": "N3L2R2",
        "streetName": "BROADWAY",
        "streetDirectionId": "E",
        "streetTypeId": "ST",
        "placeName": "PARIS",
        "streetNameDisplayText": "BROADWAY ST E, PARIS"
      }
    ]
  },
  {
    "postal": "N3L0P5",
    "result": []
  },
  {
    "postal": "N3L5A7",
    "result": []
  },
  {
    "postal": "N3L1G1",
    "result": []
  },
  {
    "postal": "N3L9R6",
    "result": []
  },
  {
    "postal": "N3L4Z9",
    "result": []
  },
  {
    "postal": "N3L1V5",
    "result": [
      {
        "electoralDistricts": [
          {
            "election": null,
            "id": 13,
            "name": "Brantford—Brant"
          }
        ],
        "pollDivisionIds": [
          10137187
        ],
        "postalCode": "N3L1V5",
        "streetName": "SILVER",
        "streetDirectionId": null,
        "streetTypeId": "ST",
        "placeName": "PARIS",
        "streetNameDisplayText": "SILVER ST, PARIS"
      }
    ]
  },
  {
    "postal": "N3L9Y5",
    "result": []
  },
  {
    "postal": "N3L1P2",
    "result": [
      {
        "electoralDistricts": [
          {
            "election": null,
            "id": 13,
            "name": "Brantford—Brant"
          }
        ],
        "pollDivisionIds": [
          10137188
        ],
        "postalCode": "N3L1P2",
        "streetName": "HAMPTON",
        "streetDirectionId": null,
        "streetTypeId": "ST",
        "placeName": "PARIS",
        "streetNameDisplayText": "HAMPTON ST, PARIS"
      }
    ]
  },
  {
    "postal": "N3L5X0",
    "result": []
  },
  {
    "postal": "N3L7B8",
    "result": []
  },
  {
    "postal": "N3L0C6",
    "result": [
      {
        "electoralDistricts": [
          {
            "election": null,
            "id": 13,
            "name": "Brantford—Brant"
          }
        ],
        "pollDivisionIds": [
          10137189
        ],
        "postalCode": "N3L0C6",
        "streetName": "WILLIAM",
        "streetDirectionId": null,
        "streetTypeId": "ST",
        "placeName": "PARIS",
        "streetNameDisplayText": "WILLIAM ST, PARIS"
      },
      {
        "electoralDistricts": [
          {
            "election": null,
            "id": 13,
            "name": "Brantford—Brant"
          }
        ],
        "pollDivisionIds": [
          10137188
        ],
        "postalCode": "N3L0C6",
        "streetName": "WILLOW",
        "streetDirectionId": null,
        "streetTypeId": "ST",
        "placeName": "PARIS",
        "streetNameDisplayText": "WILLOW ST, PARIS"
      }
    ]
  },
  {
    "postal": "N3L6G1",
    "result": []
  },
  {
    "postal": "N3L3K3",
    "result": [
      {
        "electoralDistricts": [
          {
            "election": null,
            "id": 13,
            "name": "Brantford—Brant"
          }
        ],
        "pollDivisionIds": [
          10137189
        ],
        "postalCode": "N3L3K3",
        "streetName": "LAUREL",
        "streetDirectionId": null,
        "streetTypeId": "ST",
        "placeName": "PARIS",
        "streetNameDisplayText": "LAUREL ST, PARIS"
      }
    ]
  },
  {
    "postal": "N3L9R0",
    "result": []
  },
  {
    "postal": "N3L4R8",
    "result": []
  },
  {
    "postal": "N3L5P9",
    "result": []
  },
  {
    "postal": "N3L8N4",
    "result": []
  },
  {
    "postal": "N3L8H4",
    "result": []
  },
  {
    "postal": "N3L4V1",
    "result": []
  },
  {
    "postal": "N3L1K5",
    "result": [
      {
        "electoralDistricts": [
          {
            "election": null,
            "id": 13,
            "name": "Brantford—Brant"
          }
        ],
        "pollDivisionIds": [
          10137188
        ],
        "postalCode": "N3L1K5",
        "streetName": "WILLIAM",
        "streetDirectionId": null,
        "streetTypeId": "ST",
        "placeName": "PARIS",
        "streetNameDisplayText": "WILLIAM ST, PARIS"
      }
    ]
  },
  {
    "postal": "N3L1Z5",
    "result": [
      {
        "electoralDistricts": [
          {
            "election": null,
            "id": 13,
            "name": "Brantford—Brant"
          }
        ],
        "pollDivisionIds": [
          10137189
        ],
        "postalCode": "N3L1Z5",
        "streetName": "AMELIA",
        "streetDirectionId": null,
        "streetTypeId": "ST",
        "placeName": "PARIS",
        "streetNameDisplayText": "AMELIA ST, PARIS"
      }
    ]
  },
  {
    "postal": "N3L9L9",
    "result": []
  },
  {
    "postal": "N3L5L2",
    "result": []
  },
  {
    "postal": "N3L0M2",
    "result": []
  },
  {
    "postal": "N3L1K8",
    "result": [
      {
        "electoralDistricts": [
          {
            "election": null,
            "id": 13,
            "name": "Brantford—Brant"
          }
        ],
        "pollDivisionIds": [
          10137188
        ],
        "postalCode": "N3L1K8",
        "streetName": "WILLIAM",
        "streetDirectionId": null,
        "streetTypeId": "ST",
        "placeName": "PARIS",
        "streetNameDisplayText": "WILLIAM ST, PARIS"
      }
    ]
  },
  {
    "postal": "N3L3M7",
    "result": [
      {
        "electoralDistricts": [
          {
            "election": null,
            "id": 13,
            "name": "Brantford—Brant"
          }
        ],
        "pollDivisionIds": [
          10137187
        ],
        "postalCode": "N3L3M7",
        "streetName": "CLOVER",
        "streetDirectionId": null,
        "streetTypeId": "CRT",
        "placeName": "PARIS",
        "streetNameDisplayText": "CLOVER CRT, PARIS"
      }
    ]
  },
  {
    "postal": "N3L1B2",
    "result": [
      {
        "electoralDistricts": [
          {
            "election": null,
            "id": 13,
            "name": "Brantford—Brant"
          }
        ],
        "pollDivisionIds": [
          10137189
        ],
        "postalCode": "N3L1B2",
        "streetName": "CATHERINE",
        "streetDirectionId": null,
        "streetTypeId": "ST",
        "placeName": "PARIS",
        "streetNameDisplayText": "CATHERINE ST, PARIS"
      }
    ]
  },
  {
    "postal": "N3L0H9",
    "result": []
  },
  {
    "postal": "N3L8M4",
    "result": []
  },
  {
    "postal": "N3L2M5",
    "result": [
      {
        "electoralDistricts": [
          {
            "election": null,
            "id": 13,
            "name": "Brantford—Brant"
          }
        ],
        "pollDivisionIds": [
          10137188
        ],
        "postalCode": "N3L2M5",
        "streetName": "GRAND RIVER",
        "streetDirectionId": "N",
        "streetTypeId": "ST",
        "placeName": "PARIS",
        "streetNameDisplayText": "GRAND RIVER ST N, PARIS"
      }
    ]
  },
  {
    "postal": "N3L0T9",
    "result": []
  },
  {
    "postal": "N3L3P1",
    "result": [
      {
        "electoralDistricts": [
          {
            "election": null,
            "id": 13,
            "name": "Brantford—Brant"
          }
        ],
        "pollDivisionIds": [
          10137187
        ],
        "postalCode": "N3L3P1",
        "streetName": "LARKSPUR",
        "streetDirectionId": null,
        "streetTypeId": "LANE",
        "placeName": "PARIS",
        "streetNameDisplayText": "LARKSPUR LANE, PARIS"
      }
    ]
  },
  {
    "postal": "N3L1R6",
    "result": [
      {
        "electoralDistricts": [
          {
            "election": null,
            "id": 13,
            "name": "Brantford—Brant"
          }
        ],
        "pollDivisionIds": [
          10137187
        ],
        "postalCode": "N3L1R6",
        "streetName": "SPRUCE",
        "streetDirectionId": null,
        "streetTypeId": "ST",
        "placeName": "PARIS",
        "streetNameDisplayText": "SPRUCE ST, PARIS"
      }
    ]
  },
  {
    "postal": "N3L9V5",
    "result": []
  },
  {
    "postal": "N3L9T0",
    "result": []
  },
  {
    "postal": "N3L0A9",
    "result": [
      {
        "electoralDistricts": [
          {
            "election": null,
            "id": 13,
            "name": "Brantford—Brant"
          }
        ],
        "pollDivisionIds": [
          10137189
        ],
        "postalCode": "N3L0A9",
        "streetName": "GRANDVILLE",
        "streetDirectionId": null,
        "streetTypeId": "CIR",
        "placeName": "PARIS",
        "streetNameDisplayText": "GRANDVILLE CIR, PARIS"
      }
    ]
  },
  {
    "postal": "N3L1M3",
    "result": [
      {
        "electoralDistricts": [
          {
            "election": null,
            "id": 13,
            "name": "Brantford—Brant"
          }
        ],
        "pollDivisionIds": [
          10137188
        ],
        "postalCode": "N3L1M3",
        "streetName": "SMITH",
        "streetDirectionId": "E",
        "streetTypeId": "ST",
        "placeName": "PARIS",
        "streetNameDisplayText": "SMITH ST E, PARIS"
      }
    ]
  },
  {
    "postal": "N3L1W8",
    "result": [
      {
        "electoralDistricts": [
          {
            "election": null,
            "id": 13,
            "name": "Brantford—Brant"
          }
        ],
        "pollDivisionIds": [
          10137189
        ],
        "postalCode": "N3L1W8",
        "streetName": "BALL",
        "streetDirectionId": null,
        "streetTypeId": "ST",
        "placeName": "PARIS",
        "streetNameDisplayText": "BALL ST, PARIS"
      }
    ]
  },
  {
    "postal": "N3L9J1",
    "result": []
  },
  {
    "postal": "N3L8N5",
    "result": []
  },
  {
    "postal": "N3L5X1",
    "result": []
  },
  {
    "postal": "N3L6S2",
    "result": []
  },
  {
    "postal": "N3L2A2",
    "result": [
      {
        "electoralDistricts": [
          {
            "election": null,
            "id": 13,
            "name": "Brantford—Brant"
          }
        ],
        "pollDivisionIds": [
          10137189
        ],
        "postalCode": "N3L2A2",
        "streetName": "WASHINGTON",
        "streetDirectionId": null,
        "streetTypeId": "ST",
        "placeName": "PARIS",
        "streetNameDisplayText": "WASHINGTON ST, PARIS"
      }
    ]
  },
  {
    "postal": "N3L6A6",
    "result": []
  },
  {
    "postal": "N3L0S3",
    "result": []
  },
  {
    "postal": "N3L3E7",
    "result": []
  },
  {
    "postal": "N3L5R7",
    "result": []
  },
  {
    "postal": "N3L3R6",
    "result": []
  },
  {
    "postal": "N3L6K4",
    "result": []
  },
  {
    "postal": "N3L2W5",
    "result": [
      {
        "electoralDistricts": [
          {
            "election": null,
            "id": 13,
            "name": "Brantford—Brant"
          }
        ],
        "pollDivisionIds": [
          10137187
        ],
        "postalCode": "N3L2W5",
        "streetName": "ST GEORGE",
        "streetDirectionId": null,
        "streetTypeId": "ST",
        "placeName": "PARIS",
        "streetNameDisplayText": "ST GEORGE ST, PARIS"
      }
    ]
  },
  {
    "postal": "N3L8W4",
    "result": []
  },
  {
    "postal": "N3L9C2",
    "result": []
  },
  {
    "postal": "N3L2C0",
    "result": []
  },
  {
    "postal": "N3L0E1",
    "result": [
      {
        "electoralDistricts": [
          {
            "election": null,
            "id": 13,
            "name": "Brantford—Brant"
          }
        ],
        "pollDivisionIds": [
          10137189
        ],
        "postalCode": "N3L0E1",
        "streetName": "WASHINGTON",
        "streetDirectionId": null,
        "streetTypeId": "ST",
        "placeName": "PARIS",
        "streetNameDisplayText": "WASHINGTON ST, PARIS"
      }
    ]
  },
  {
    "postal": "N3L1K9",
    "result": [
      {
        "electoralDistricts": [
          {
            "election": null,
            "id": 13,
            "name": "Brantford—Brant"
          }
        ],
        "pollDivisionIds": [
          10137188
        ],
        "postalCode": "N3L1K9",
        "streetName": "WILLIAM",
        "streetDirectionId": null,
        "streetTypeId": "ST",
        "placeName": "PARIS",
        "streetNameDisplayText": "WILLIAM ST, PARIS"
      }
    ]
  },
  {
    "postal": "N3L1G7",
    "result": [
      {
        "electoralDistricts": [
          {
            "election": null,
            "id": 13,
            "name": "Brantford—Brant"
          }
        ],
        "pollDivisionIds": [
          10137189
        ],
        "postalCode": "N3L1G7",
        "streetName": "DUNDAS",
        "streetDirectionId": "W",
        "streetTypeId": "ST",
        "placeName": "PARIS",
        "streetNameDisplayText": "DUNDAS ST W, PARIS"
      }
    ]
  },
  {
    "postal": "N3L4E9",
    "result": [
      {
        "electoralDistricts": [
          {
            "election": null,
            "id": 13,
            "name": "Brantford—Brant"
          }
        ],
        "pollDivisionIds": [
          10137189
        ],
        "postalCode": "N3L4E9",
        "streetName": "LONG",
        "streetDirectionId": null,
        "streetTypeId": "LANE",
        "placeName": "PARIS",
        "streetNameDisplayText": "LONG LANE, PARIS"
      }
    ]
  },
  {
    "postal": "N3L9P0",
    "result": []
  },
  {
    "postal": "N3L5H3",
    "result": []
  },
  {
    "postal": "N3L9X6",
    "result": []
  },
  {
    "postal": "N3L5N7",
    "result": []
  },
  {
    "postal": "N3L5A6",
    "result": []
  },
  {
    "postal": "N3L4M0",
    "result": []
  },
  {
    "postal": "N3L3V6",
    "result": [
      {
        "electoralDistricts": [
          {
            "election": null,
            "id": 13,
            "name": "Brantford—Brant"
          }
        ],
        "pollDivisionIds": [
          10137187
        ],
        "postalCode": "N3L3V6",
        "streetName": "GARDEN",
        "streetDirectionId": null,
        "streetTypeId": "CRES",
        "placeName": "PARIS",
        "streetNameDisplayText": "GARDEN CRES, PARIS"
      }
    ]
  },
  {
    "postal": "N3L1L7",
    "result": [
      {
        "electoralDistricts": [
          {
            "election": null,
            "id": 13,
            "name": "Brantford—Brant"
          }
        ],
        "pollDivisionIds": [
          10137188
        ],
        "postalCode": "N3L1L7",
        "streetName": "WILLIAM",
        "streetDirectionId": null,
        "streetTypeId": "ST",
        "placeName": "PARIS",
        "streetNameDisplayText": "WILLIAM ST, PARIS"
      }
    ]
  },
  {
    "postal": "N3L2P9",
    "result": [
      {
        "electoralDistricts": [
          {
            "election": null,
            "id": 13,
            "name": "Brantford—Brant"
          }
        ],
        "pollDivisionIds": [
          10137187
        ],
        "postalCode": "N3L2P9",
        "streetName": "BAYLY",
        "streetDirectionId": null,
        "streetTypeId": "DR",
        "placeName": "PARIS",
        "streetNameDisplayText": "BAYLY DR, PARIS"
      }
    ]
  },
  {
    "postal": "N3L5T4",
    "result": []
  },
  {
    "postal": "N3L5Z1",
    "result": []
  },
  {
    "postal": "N3L2X0",
    "result": []
  },
  {
    "postal": "N3L6Z2",
    "result": []
  },
  {
    "postal": "N3L0E0",
    "result": []
  },
  {
    "postal": "N3L3Z5",
    "result": []
  },
  {
    "postal": "N3L8H3",
    "result": []
  },
  {
    "postal": "N3L7S6",
    "result": []
  },
  {
    "postal": "N3L4C1",
    "result": [
      {
        "electoralDistricts": [
          {
            "election": null,
            "id": 13,
            "name": "Brantford—Brant"
          }
        ],
        "pollDivisionIds": [
          10137189
        ],
        "postalCode": "N3L4C1",
        "streetName": "COURT",
        "streetDirectionId": null,
        "streetTypeId": "DR",
        "placeName": "PARIS",
        "streetNameDisplayText": "COURT DR, PARIS"
      },
      {
        "electoralDistricts": [
          {
            "election": null,
            "id": 13,
            "name": "Brantford—Brant"
          }
        ],
        "pollDivisionIds": [
          10137189
        ],
        "postalCode": "N3L4C1",
        "streetName": "WESTON",
        "streetDirectionId": null,
        "streetTypeId": "ST",
        "placeName": "PARIS",
        "streetNameDisplayText": "WESTON ST, PARIS"
      }
    ]
  },
  {
    "postal": "N3L3K2",
    "result": [
      {
        "electoralDistricts": [
          {
            "election": null,
            "id": 13,
            "name": "Brantford—Brant"
          }
        ],
        "pollDivisionIds": [
          10137189
        ],
        "postalCode": "N3L3K2",
        "streetName": "LAUREL",
        "streetDirectionId": null,
        "streetTypeId": "ST",
        "placeName": "PARIS",
        "streetNameDisplayText": "LAUREL ST, PARIS"
      }
    ]
  },
  {
    "postal": "N3L1Y5",
    "result": [
      {
        "electoralDistricts": [
          {
            "election": null,
            "id": 13,
            "name": "Brantford—Brant"
          }
        ],
        "pollDivisionIds": [
          10137189
        ],
        "postalCode": "N3L1Y5",
        "streetName": "CHARLES",
        "streetDirectionId": null,
        "streetTypeId": "ST",
        "placeName": "PARIS",
        "streetNameDisplayText": "CHARLES ST, PARIS"
      }
    ]
  },
  {
    "postal": "N3L6P6",
    "result": []
  },
  {
    "postal": "N3L3N9",
    "result": [
      {
        "electoralDistricts": [
          {
            "election": null,
            "id": 13,
            "name": "Brantford—Brant"
          }
        ],
        "pollDivisionIds": [
          10137187
        ],
        "postalCode": "N3L3N9",
        "streetName": "ABELES",
        "streetDirectionId": null,
        "streetTypeId": "AVE",
        "placeName": "PARIS",
        "streetNameDisplayText": "ABELES AVE, PARIS"
      }
    ]
  },
  {
    "postal": "N3L3W2",
    "result": [
      {
        "electoralDistricts": [
          {
            "election": null,
            "id": 13,
            "name": "Brantford—Brant"
          }
        ],
        "pollDivisionIds": [
          10137187
        ],
        "postalCode": "N3L3W2",
        "streetName": "CHARLTON",
        "streetDirectionId": null,
        "streetTypeId": "DR",
        "placeName": "PARIS",
        "streetNameDisplayText": "CHARLTON DR, PARIS"
      }
    ]
  },
  {
    "postal": "N3L6H8",
    "result": []
  },
  {
    "postal": "N3L9T3",
    "result": []
  },
  {
    "postal": "N3L5L9",
    "result": []
  },
  {
    "postal": "N3L7X7",
    "result": []
  },
  {
    "postal": "N3L3J5",
    "result": []
  },
  {
    "postal": "N3L4J5",
    "result": []
  },
  {
    "postal": "N3L6J2",
    "result": []
  },
  {
    "postal": "N3L5V6",
    "result": []
  },
  {
    "postal": "N3L3N2",
    "result": [
      {
        "electoralDistricts": [
          {
            "election": null,
            "id": 13,
            "name": "Brantford—Brant"
          }
        ],
        "pollDivisionIds": [
          10137187
        ],
        "postalCode": "N3L3N2",
        "streetName": "MAGNOLIA",
        "streetDirectionId": null,
        "streetTypeId": "DR",
        "placeName": "PARIS",
        "streetNameDisplayText": "MAGNOLIA DR, PARIS"
      }
    ]
  },
  {
    "postal": "N3L3B1",
    "result": [
      {
        "electoralDistricts": [
          {
            "election": null,
            "id": 13,
            "name": "Brantford—Brant"
          }
        ],
        "pollDivisionIds": [
          10137187
        ],
        "postalCode": "N3L3B1",
        "streetName": "MARKET",
        "streetDirectionId": null,
        "streetTypeId": "ST",
        "placeName": "PARIS",
        "streetNameDisplayText": "MARKET ST, PARIS"
      }
    ]
  },
  {
    "postal": "N3L8B5",
    "result": []
  },
  {
    "postal": "N3L0K1",
    "result": []
  },
  {
    "postal": "N3L7M7",
    "result": []
  },
  {
    "postal": "N3L2M2",
    "result": [
      {
        "electoralDistricts": [
          {
            "election": null,
            "id": 42,
            "name": "Huron—Bruce"
          },
          {
            "election": null,
            "id": 13,
            "name": "Brantford—Brant"
          }
        ],
        "pollDivisionIds": [
          10138850,
          10137188
        ],
        "postalCode": "N3L2M2",
        "streetName": "GRAND RIVER",
        "streetDirectionId": "N",
        "streetTypeId": "ST",
        "placeName": "PARIS",
        "streetNameDisplayText": "GRAND RIVER ST N, PARIS"
      }
    ]
  },
  {
    "postal": "N3L9N3",
    "result": []
  },
  {
    "postal": "N3L4Y8",
    "result": []
  },
  {
    "postal": "N3L3V7",
    "result": []
  },
  {
    "postal": "N3L8Z1",
    "result": []
  },
  {
    "postal": "N3L7B3",
    "result": []
  },
  {
    "postal": "N3L3A8",
    "result": [
      {
        "electoralDistricts": [
          {
            "election": null,
            "id": 13,
            "name": "Brantford—Brant"
          }
        ],
        "pollDivisionIds": [
          10137187
        ],
        "postalCode": "N3L3A8",
        "streetName": "MARKET",
        "streetDirectionId": null,
        "streetTypeId": "ST",
        "placeName": "PARIS",
        "streetNameDisplayText": "MARKET ST, PARIS"
      }
    ]
  },
  {
    "postal": "N3L7V5",
    "result": []
  },
  {
    "postal": "N3L2T2",
    "result": [
      {
        "electoralDistricts": [
          {
            "election": null,
            "id": 13,
            "name": "Brantford—Brant"
          }
        ],
        "pollDivisionIds": [
          10137187
        ],
        "postalCode": "N3L2T2",
        "streetName": "WARWICK",
        "streetDirectionId": null,
        "streetTypeId": "ST",
        "placeName": "PARIS",
        "streetNameDisplayText": "WARWICK ST, PARIS"
      }
    ]
  },
  {
    "postal": "N3L6L3",
    "result": []
  },
  {
    "postal": "N3L0L2",
    "result": []
  },
  {
    "postal": "N3L5Y8",
    "result": []
  },
  {
    "postal": "N3L0B8",
    "result": []
  },
  {
    "postal": "N3L6R5",
    "result": []
  },
  {
    "postal": "N3L8W6",
    "result": []
  },
  {
    "postal": "N3L8G6",
    "result": []
  },
  {
    "postal": "N3L6X3",
    "result": []
  },
  {
    "postal": "N3L7R7",
    "result": []
  },
  {
    "postal": "N3L4B6",
    "result": [
      {
        "electoralDistricts": [
          {
            "election": null,
            "id": 13,
            "name": "Brantford—Brant"
          }
        ],
        "pollDivisionIds": [
          10137187
        ],
        "postalCode": "N3L4B6",
        "streetName": "GRIFFITHS",
        "streetDirectionId": null,
        "streetTypeId": "DR",
        "placeName": "PARIS",
        "streetNameDisplayText": "GRIFFITHS DR, PARIS"
      },
      {
        "electoralDistricts": [
          {
            "election": null,
            "id": 13,
            "name": "Brantford—Brant"
          }
        ],
        "pollDivisionIds": [
          10137187
        ],
        "postalCode": "N3L4B6",
        "streetName": "MACPHERSON",
        "streetDirectionId": null,
        "streetTypeId": "DR",
        "placeName": "PARIS",
        "streetNameDisplayText": "MACPHERSON DR, PARIS"
      }
    ]
  },
  {
    "postal": "N3L3P9",
    "result": [
      {
        "electoralDistricts": [
          {
            "election": null,
            "id": 13,
            "name": "Brantford—Brant"
          }
        ],
        "pollDivisionIds": [
          10137187
        ],
        "postalCode": "N3L3P9",
        "streetName": "TRILLIUM",
        "streetDirectionId": null,
        "streetTypeId": "WAY",
        "placeName": "PARIS",
        "streetNameDisplayText": "TRILLIUM WAY, PARIS"
      }
    ]
  },
  {
    "postal": "N3L2T3",
    "result": [
      {
        "electoralDistricts": [
          {
            "election": null,
            "id": 13,
            "name": "Brantford—Brant"
          }
        ],
        "pollDivisionIds": [
          10137187
        ],
        "postalCode": "N3L2T3",
        "streetName": "WARWICK",
        "streetDirectionId": null,
        "streetTypeId": "ST",
        "placeName": "PARIS",
        "streetNameDisplayText": "WARWICK ST, PARIS"
      }
    ]
  },
  {
    "postal": "N3L1M4",
    "result": [
      {
        "electoralDistricts": [
          {
            "election": null,
            "id": 13,
            "name": "Brantford—Brant"
          }
        ],
        "pollDivisionIds": [
          10137188
        ],
        "postalCode": "N3L1M4",
        "streetName": "JOSEPH BRANT",
        "streetDirectionId": null,
        "streetTypeId": "ST",
        "placeName": "PARIS",
        "streetNameDisplayText": "JOSEPH BRANT ST, PARIS"
      }
    ]
  },
  {
    "postal": "N3L0H1",
    "result": [
      {
        "electoralDistricts": [
          {
            "election": null,
            "id": 13,
            "name": "Brantford—Brant"
          }
        ],
        "pollDivisionIds": [
          10137187
        ],
        "postalCode": "N3L0H1",
        "streetName": "BARLOW",
        "streetDirectionId": null,
        "streetTypeId": "PL",
        "placeName": "PARIS",
        "streetNameDisplayText": "BARLOW PL, PARIS"
      }
    ]
  },
  {
    "postal": "N3L9W3",
    "result": []
  },
  {
    "postal": "N3L6P1",
    "result": []
  },
  {
    "postal": "N3L7G2",
    "result": []
  },
  {
    "postal": "N3L4J9",
    "result": []
  },
  {
    "postal": "N3L9E4",
    "result": []
  },
  {
    "postal": "N3L8H0",
    "result": []
  },
  {
    "postal": "N3L4M7",
    "result": []
  },
  {
    "postal": "N3L2G9",
    "result": [
      {
        "electoralDistricts": [
          {
            "election": null,
            "id": 13,
            "name": "Brantford—Brant"
          }
        ],
        "pollDivisionIds": [
          10137189
        ],
        "postalCode": "N3L2G9",
        "streetName": "KING EDWARD",
        "streetDirectionId": null,
        "streetTypeId": "ST",
        "placeName": "PARIS",
        "streetNameDisplayText": "KING EDWARD ST, PARIS"
      }
    ]
  },
  {
    "postal": "N3L8T2",
    "result": []
  },
  {
    "postal": "N3L7G7",
    "result": []
  },
  {
    "postal": "N3L4Z3",
    "result": []
  },
  {
    "postal": "N3L5B3",
    "result": []
  },
  {
    "postal": "N3L1S7",
    "result": [
      {
        "electoralDistricts": [
          {
            "election": null,
            "id": 13,
            "name": "Brantford—Brant"
          }
        ],
        "pollDivisionIds": [
          10137187
        ],
        "postalCode": "N3L1S7",
        "streetName": "WELLINGTON",
        "streetDirectionId": null,
        "streetTypeId": "ST",
        "placeName": "PARIS",
        "streetNameDisplayText": "WELLINGTON ST, PARIS"
      }
    ]
  },
  {
    "postal": "N3L2N7",
    "result": [
      {
        "electoralDistricts": [
          {
            "election": null,
            "id": 13,
            "name": "Brantford—Brant"
          }
        ],
        "pollDivisionIds": [
          10137187
        ],
        "postalCode": "N3L2N7",
        "streetName": "GRAND RIVER",
        "streetDirectionId": "N",
        "streetTypeId": "ST",
        "placeName": "PARIS",
        "streetNameDisplayText": "GRAND RIVER ST N, PARIS"
      }
    ]
  },
  {
    "postal": "N3L0H8",
    "result": []
  },
  {
    "postal": "N3L7Z4",
    "result": []
  },
  {
    "postal": "N3L7B1",
    "result": []
  },
  {
    "postal": "N3L7P8",
    "result": []
  },
  {
    "postal": "N3L7N0",
    "result": []
  },
  {
    "postal": "N3L3Y5",
    "result": []
  },
  {
    "postal": "N3L6K1",
    "result": []
  },
  {
    "postal": "N3L9X5",
    "result": []
  },
  {
    "postal": "N3L7S5",
    "result": []
  },
  {
    "postal": "N3L0A4",
    "result": [
      {
        "electoralDistricts": [
          {
            "election": null,
            "id": 13,
            "name": "Brantford—Brant"
          }
        ],
        "pollDivisionIds": [
          10137189
        ],
        "postalCode": "N3L0A4",
        "streetName": "GRANDVILLE",
        "streetDirectionId": null,
        "streetTypeId": "CIR",
        "placeName": "PARIS",
        "streetNameDisplayText": "GRANDVILLE CIR, PARIS"
      },
      {
        "electoralDistricts": [
          {
            "election": null,
            "id": 13,
            "name": "Brantford—Brant"
          }
        ],
        "pollDivisionIds": [
          10137189
        ],
        "postalCode": "N3L0A4",
        "streetName": "MARRIOTT",
        "streetDirectionId": null,
        "streetTypeId": "PL",
        "placeName": "PARIS",
        "streetNameDisplayText": "MARRIOTT PL, PARIS"
      },
      {
        "electoralDistricts": [
          {
            "election": null,
            "id": 13,
            "name": "Brantford—Brant"
          }
        ],
        "pollDivisionIds": [
          10137189
        ],
        "postalCode": "N3L0A4",
        "streetName": "SAVANNAH RIDGE",
        "streetDirectionId": null,
        "streetTypeId": "DR",
        "placeName": "PARIS",
        "streetNameDisplayText": "SAVANNAH RIDGE DR, PARIS"
      }
    ]
  },
  {
    "postal": "N3L4T5",
    "result": []
  },
  {
    "postal": "N3L5K1",
    "result": []
  },
  {
    "postal": "N3L0Z9",
    "result": []
  },
  {
    "postal": "N3L7T2",
    "result": []
  },
  {
    "postal": "N3L1L5",
    "result": [
      {
        "electoralDistricts": [
          {
            "election": null,
            "id": 13,
            "name": "Brantford—Brant"
          }
        ],
        "pollDivisionIds": [
          10137188
        ],
        "postalCode": "N3L1L5",
        "streetName": "WILLIAM",
        "streetDirectionId": null,
        "streetTypeId": "ST",
        "placeName": "PARIS",
        "streetNameDisplayText": "WILLIAM ST, PARIS"
      }
    ]
  },
  {
    "postal": "N3L3N5",
    "result": [
      {
        "electoralDistricts": [
          {
            "election": null,
            "id": 13,
            "name": "Brantford—Brant"
          }
        ],
        "pollDivisionIds": [
          10137187
        ],
        "postalCode": "N3L3N5",
        "streetName": "MAGNOLIA",
        "streetDirectionId": null,
        "streetTypeId": "DR",
        "placeName": "PARIS",
        "streetNameDisplayText": "MAGNOLIA DR, PARIS"
      }
    ]
  },
  {
    "postal": "N3L6H4",
    "result": []
  },
  {
    "postal": "N3L5A5",
    "result": []
  },
  {
    "postal": "N3L3R9",
    "result": [
      {
        "electoralDistricts": [
          {
            "election": null,
            "id": 13,
            "name": "Brantford—Brant"
          }
        ],
        "pollDivisionIds": [
          10137187
        ],
        "postalCode": "N3L3R9",
        "streetName": "PLEASANT",
        "streetDirectionId": null,
        "streetTypeId": "PL",
        "placeName": "PARIS",
        "streetNameDisplayText": "PLEASANT PL, PARIS"
      }
    ]
  },
  {
    "postal": "N3L7L8",
    "result": []
  },
  {
    "postal": "N3L6T6",
    "result": []
  },
  {
    "postal": "N3L7Y7",
    "result": []
  },
  {
    "postal": "N3L3M8",
    "result": [
      {
        "electoralDistricts": [
          {
            "election": null,
            "id": 13,
            "name": "Brantford—Brant"
          }
        ],
        "pollDivisionIds": [
          10137187
        ],
        "postalCode": "N3L3M8",
        "streetName": "MAGNOLIA",
        "streetDirectionId": null,
        "streetTypeId": "DR",
        "placeName": "PARIS",
        "streetNameDisplayText": "MAGNOLIA DR, PARIS"
      },
      {
        "electoralDistricts": [
          {
            "election": null,
            "id": 13,
            "name": "Brantford—Brant"
          }
        ],
        "pollDivisionIds": [
          10137187
        ],
        "postalCode": "N3L3M8",
        "streetName": "MAGNOLIA",
        "streetDirectionId": null,
        "streetTypeId": "ST",
        "placeName": "PARIS",
        "streetNameDisplayText": "MAGNOLIA ST, PARIS"
      }
    ]
  },
  {
    "postal": "N3L2E0",
    "result": []
  },
  {
    "postal": "N3L4B5",
    "result": [
      {
        "electoralDistricts": [
          {
            "election": null,
            "id": 13,
            "name": "Brantford—Brant"
          }
        ],
        "pollDivisionIds": [
          10137187
        ],
        "postalCode": "N3L4B5",
        "streetName": "ARMSTRONG",
        "streetDirectionId": null,
        "streetTypeId": "ST",
        "placeName": "PARIS",
        "streetNameDisplayText": "ARMSTRONG ST, PARIS"
      },
      {
        "electoralDistricts": [
          {
            "election": null,
            "id": 13,
            "name": "Brantford—Brant"
          }
        ],
        "pollDivisionIds": [
          10137187
        ],
        "postalCode": "N3L4B5",
        "streetName": "GRIFFITHS",
        "streetDirectionId": null,
        "streetTypeId": "DR",
        "placeName": "PARIS",
        "streetNameDisplayText": "GRIFFITHS DR, PARIS"
      },
      {
        "electoralDistricts": [
          {
            "election": null,
            "id": 13,
            "name": "Brantford—Brant"
          }
        ],
        "pollDivisionIds": [
          10137187
        ],
        "postalCode": "N3L4B5",
        "streetName": "MACPHERSON",
        "streetDirectionId": null,
        "streetTypeId": "DR",
        "placeName": "PARIS",
        "streetNameDisplayText": "MACPHERSON DR, PARIS"
      },
      {
        "electoralDistricts": [
          {
            "election": null,
            "id": 13,
            "name": "Brantford—Brant"
          }
        ],
        "pollDivisionIds": [
          10137187
        ],
        "postalCode": "N3L4B5",
        "streetName": "WHITLAW",
        "streetDirectionId": null,
        "streetTypeId": "WAY",
        "placeName": "PARIS",
        "streetNameDisplayText": "WHITLAW WAY, PARIS"
      }
    ]
  },
  {
    "postal": "N3L1J3",
    "result": [
      {
        "electoralDistricts": [
          {
            "election": null,
            "id": 13,
            "name": "Brantford—Brant"
          }
        ],
        "pollDivisionIds": [
          10137188
        ],
        "postalCode": "N3L1J3",
        "streetName": "BROCK",
        "streetDirectionId": null,
        "streetTypeId": "ST",
        "placeName": "PARIS",
        "streetNameDisplayText": "BROCK ST, PARIS"
      }
    ]
  },
  {
    "postal": "N3L5S6",
    "result": []
  },
  {
    "postal": "N3L8P7",
    "result": []
  },
  {
    "postal": "N3L7S7",
    "result": []
  },
  {
    "postal": "N3L4C2",
    "result": [
      {
        "electoralDistricts": [
          {
            "election": null,
            "id": 13,
            "name": "Brantford—Brant"
          }
        ],
        "pollDivisionIds": [
          10137189
        ],
        "postalCode": "N3L4C2",
        "streetName": "HANLON",
        "streetDirectionId": null,
        "streetTypeId": "PL",
        "placeName": "PARIS",
        "streetNameDisplayText": "HANLON PL, PARIS"
      },
      {
        "electoralDistricts": [
          {
            "election": null,
            "id": 13,
            "name": "Brantford—Brant"
          }
        ],
        "pollDivisionIds": [
          10137189
        ],
        "postalCode": "N3L4C2",
        "streetName": "WESTON",
        "streetDirectionId": null,
        "streetTypeId": "ST",
        "placeName": "PARIS",
        "streetNameDisplayText": "WESTON ST, PARIS"
      }
    ]
  },
  {
    "postal": "N3L5Y0",
    "result": []
  },
  {
    "postal": "N3L2V7",
    "result": [
      {
        "electoralDistricts": [
          {
            "election": null,
            "id": 13,
            "name": "Brantford—Brant"
          }
        ],
        "pollDivisionIds": [
          10137187
        ],
        "postalCode": "N3L2V7",
        "streetName": "ALEXANDER",
        "streetDirectionId": null,
        "streetTypeId": "AVE",
        "placeName": "PARIS",
        "streetNameDisplayText": "ALEXANDER AVE, PARIS"
      }
    ]
  },
  {
    "postal": "N3L8P5",
    "result": []
  },
  {
    "postal": "N3L5P5",
    "result": []
  },
  {
    "postal": "N3L5Z0",
    "result": []
  },
  {
    "postal": "N3L9B0",
    "result": []
  },
  {
    "postal": "N3L1L0",
    "result": []
  },
  {
    "postal": "N3L0B5",
    "result": []
  },
  {
    "postal": "N3L3L2",
    "result": [
      {
        "electoralDistricts": [
          {
            "election": null,
            "id": 13,
            "name": "Brantford—Brant"
          }
        ],
        "pollDivisionIds": [
          10137187
        ],
        "postalCode": "N3L3L2",
        "streetName": "FOREST",
        "streetDirectionId": null,
        "streetTypeId": "DR",
        "placeName": "PARIS",
        "streetNameDisplayText": "FOREST DR, PARIS"
      }
    ]
  },
  {
    "postal": "N3L3B7",
    "result": [
      {
        "electoralDistricts": [
          {
            "election": null,
            "id": 13,
            "name": "Brantford—Brant"
          }
        ],
        "pollDivisionIds": [
          10137187
        ],
        "postalCode": "N3L3B7",
        "streetName": "FRANKLIN",
        "streetDirectionId": null,
        "streetTypeId": "ST",
        "placeName": "PARIS",
        "streetNameDisplayText": "FRANKLIN ST, PARIS"
      }
    ]
  },
  {
    "postal": "N3L8L1",
    "result": []
  },
  {
    "postal": "N3L5M4",
    "result": []
  },
  {
    "postal": "N3L4G9",
    "result": [
      {
        "electoralDistricts": [
          {
            "election": null,
            "id": 13,
            "name": "Brantford—Brant"
          }
        ],
        "pollDivisionIds": [
          10137189
        ],
        "postalCode": "N3L4G9",
        "streetName": "COBBLESTONE",
        "streetDirectionId": null,
        "streetTypeId": "DR",
        "placeName": "PARIS",
        "streetNameDisplayText": "COBBLESTONE DR, PARIS"
      }
    ]
  },
  {
    "postal": "N3L0P0",
    "result": []
  },
  {
    "postal": "N3L8G2",
    "result": []
  },
  {
    "postal": "N3L1V9",
    "result": [
      {
        "electoralDistricts": [
          {
            "election": null,
            "id": 13,
            "name": "Brantford—Brant"
          }
        ],
        "pollDivisionIds": [
          10137187
        ],
        "postalCode": "N3L1V9",
        "streetName": "MCCAMMON",
        "streetDirectionId": null,
        "streetTypeId": "ST",
        "placeName": "PARIS",
        "streetNameDisplayText": "MCCAMMON ST, PARIS"
      }
    ]
  },
  {
    "postal": "N3L8N8",
    "result": []
  },
  {
    "postal": "N3L6S8",
    "result": []
  },
  {
    "postal": "N3L8H2",
    "result": []
  },
  {
    "postal": "N3L5R8",
    "result": []
  },
  {
    "postal": "N3L5L4",
    "result": []
  },
  {
    "postal": "N3L9E1",
    "result": []
  },
  {
    "postal": "N3L1C4",
    "result": [
      {
        "electoralDistricts": [
          {
            "election": null,
            "id": 13,
            "name": "Brantford—Brant"
          }
        ],
        "pollDivisionIds": [
          10137189
        ],
        "postalCode": "N3L1C4",
        "streetName": "QUEEN",
        "streetDirectionId": null,
        "streetTypeId": "ST",
        "placeName": "PARIS",
        "streetNameDisplayText": "QUEEN ST, PARIS"
      }
    ]
  },
  {
    "postal": "N3L8W5",
    "result": []
  },
  {
    "postal": "N3L1Y4",
    "result": [
      {
        "electoralDistricts": [
          {
            "election": null,
            "id": 13,
            "name": "Brantford—Brant"
          }
        ],
        "pollDivisionIds": [
          10137189
        ],
        "postalCode": "N3L1Y4",
        "streetName": "CHARLES",
        "streetDirectionId": null,
        "streetTypeId": "ST",
        "placeName": "PARIS",
        "streetNameDisplayText": "CHARLES ST, PARIS"
      }
    ]
  },
  {
    "postal": "N3L1C0",
    "result": []
  },
  {
    "postal": "N3L2J2",
    "result": [
      {
        "electoralDistricts": [
          {
            "election": null,
            "id": 13,
            "name": "Brantford—Brant"
          }
        ],
        "pollDivisionIds": [
          10137188
        ],
        "postalCode": "N3L2J2",
        "streetName": "MULHOLLAND",
        "streetDirectionId": null,
        "streetTypeId": "DR",
        "placeName": "PARIS",
        "streetNameDisplayText": "MULHOLLAND DR, PARIS"
      }
    ]
  },
  {
    "postal": "N3L2J0",
    "result": []
  },
  {
    "postal": "N3L7A3",
    "result": []
  },
  {
    "postal": "N3L8M1",
    "result": []
  },
  {
    "postal": "N3L7T9",
    "result": []
  },
  {
    "postal": "N3L6C0",
    "result": []
  },
  {
    "postal": "N3L7X1",
    "result": []
  },
  {
    "postal": "N3L0G1",
    "result": [
      {
        "electoralDistricts": [
          {
            "election": null,
            "id": 13,
            "name": "Brantford—Brant"
          }
        ],
        "pollDivisionIds": [
          10137189
        ],
        "postalCode": "N3L0G1",
        "streetName": "MORRIS",
        "streetDirectionId": null,
        "streetTypeId": "ST",
        "placeName": "PARIS",
        "streetNameDisplayText": "MORRIS ST, PARIS"
      }
    ]
  },
  {
    "postal": "N3L4X2",
    "result": []
  },
  {
    "postal": "N3L0N6",
    "result": []
  },
  {
    "postal": "N3L8E3",
    "result": []
  },
  {
    "postal": "N3L5S8",
    "result": []
  },
  {
    "postal": "N3L0R0",
    "result": []
  },
  {
    "postal": "N3L6J6",
    "result": []
  },
  {
    "postal": "N3L4B4",
    "result": [
      {
        "electoralDistricts": [
          {
            "election": null,
            "id": 13,
            "name": "Brantford—Brant"
          }
        ],
        "pollDivisionIds": [
          10137187
        ],
        "postalCode": "N3L4B4",
        "streetName": "ARMSTRONG",
        "streetDirectionId": null,
        "streetTypeId": "ST",
        "placeName": "PARIS",
        "streetNameDisplayText": "ARMSTRONG ST, PARIS"
      },
      {
        "electoralDistricts": [
          {
            "election": null,
            "id": 13,
            "name": "Brantford—Brant"
          }
        ],
        "pollDivisionIds": [
          10137187
        ],
        "postalCode": "N3L4B4",
        "streetName": "EMERSON",
        "streetDirectionId": null,
        "streetTypeId": "CRT",
        "placeName": "PARIS",
        "streetNameDisplayText": "EMERSON CRT, PARIS"
      }
    ]
  },
  {
    "postal": "N3L7E3",
    "result": []
  },
  {
    "postal": "N3L3N6",
    "result": [
      {
        "electoralDistricts": [
          {
            "election": null,
            "id": 13,
            "name": "Brantford—Brant"
          }
        ],
        "pollDivisionIds": [
          10137187
        ],
        "postalCode": "N3L3N6",
        "streetName": "WOODSLEE",
        "streetDirectionId": null,
        "streetTypeId": "AVE",
        "placeName": "PARIS",
        "streetNameDisplayText": "WOODSLEE AVE, PARIS"
      }
    ]
  },
  {
    "postal": "N3L3X6",
    "result": []
  },
  {
    "postal": "N3L8L0",
    "result": []
  },
  {
    "postal": "N3L8N1",
    "result": []
  },
  {
    "postal": "N3L4J0",
    "result": []
  },
  {
    "postal": "N3L0X7",
    "result": []
  },
  {
    "postal": "N3L6S4",
    "result": []
  },
  {
    "postal": "N3L0Z0",
    "result": []
  },
  {
    "postal": "N3L9X8",
    "result": []
  },
  {
    "postal": "N3L3H3",
    "result": [
      {
        "electoralDistricts": [
          {
            "election": null,
            "id": 13,
            "name": "Brantford—Brant"
          }
        ],
        "pollDivisionIds": [
          10137188
        ],
        "postalCode": "N3L3H3",
        "streetName": "DUNDAS",
        "streetDirectionId": "E",
        "streetTypeId": "ST",
        "placeName": "PARIS",
        "streetNameDisplayText": "DUNDAS ST E, PARIS"
      }
    ]
  },
  {
    "postal": "N3L7S2",
    "result": []
  },
  {
    "postal": "N3L3T3",
    "result": [
      {
        "electoralDistricts": [
          {
            "election": null,
            "id": 13,
            "name": "Brantford—Brant"
          }
        ],
        "pollDivisionIds": [
          10137187
        ],
        "postalCode": "N3L3T3",
        "streetName": "GARDEN",
        "streetDirectionId": null,
        "streetTypeId": "CRES",
        "placeName": "PARIS",
        "streetNameDisplayText": "GARDEN CRES, PARIS"
      }
    ]
  },
  {
    "postal": "N3L9P3",
    "result": []
  },
  {
    "postal": "N3L4H8",
    "result": []
  },
  {
    "postal": "N3L6R1",
    "result": []
  },
  {
    "postal": "N3L1S0",
    "result": []
  },
  {
    "postal": "N3L3W8",
    "result": []
  },
  {
    "postal": "N3L4S3",
    "result": []
  },
  {
    "postal": "N3L1B6",
    "result": [
      {
        "electoralDistricts": [
          {
            "election": null,
            "id": 13,
            "name": "Brantford—Brant"
          }
        ],
        "pollDivisionIds": [
          10137189
        ],
        "postalCode": "N3L1B6",
        "streetName": "CATHERINE",
        "streetDirectionId": null,
        "streetTypeId": "ST",
        "placeName": "PARIS",
        "streetNameDisplayText": "CATHERINE ST, PARIS"
      }
    ]
  },
  {
    "postal": "N3L8R3",
    "result": []
  },
  {
    "postal": "N3L4V9",
    "result": []
  },
  {
    "postal": "N3L9W4",
    "result": []
  },
  {
    "postal": "N3L3T4",
    "result": [
      {
        "electoralDistricts": [
          {
            "election": null,
            "id": 13,
            "name": "Brantford—Brant"
          }
        ],
        "pollDivisionIds": [
          10137187
        ],
        "postalCode": "N3L3T4",
        "streetName": "GARDEN",
        "streetDirectionId": null,
        "streetTypeId": "CRES",
        "placeName": "PARIS",
        "streetNameDisplayText": "GARDEN CRES, PARIS"
      }
    ]
  },
  {
    "postal": "N3L5C7",
    "result": []
  },
  {
    "postal": "N3L3Y1",
    "result": [
      {
        "electoralDistricts": [
          {
            "election": null,
            "id": 13,
            "name": "Brantford—Brant"
          }
        ],
        "pollDivisionIds": [
          10137187
        ],
        "postalCode": "N3L3Y1",
        "streetName": "GRAYSTONE",
        "streetDirectionId": null,
        "streetTypeId": "CRT",
        "placeName": "PARIS",
        "streetNameDisplayText": "GRAYSTONE CRT, PARIS"
      }
    ]
  },
  {
    "postal": "N3L5V0",
    "result": []
  },
  {
    "postal": "N3L8G8",
    "result": []
  },
  {
    "postal": "N3L8B1",
    "result": []
  },
  {
    "postal": "N3L4P5",
    "result": []
  },
  {
    "postal": "N3L7B2",
    "result": []
  },
  {
    "postal": "N3L0R2",
    "result": []
  },
  {
    "postal": "N3L4M4",
    "result": []
  },
  {
    "postal": "N3L7M4",
    "result": []
  },
  {
    "postal": "N3L9S7",
    "result": []
  },
  {
    "postal": "N3L5Z7",
    "result": []
  },
  {
    "postal": "N3L7J7",
    "result": []
  },
  {
    "postal": "N3L8R8",
    "result": []
  },
  {
    "postal": "N3L9X1",
    "result": []
  },
  {
    "postal": "N3L5M9",
    "result": []
  },
  {
    "postal": "N3L9B4",
    "result": []
  },
  {
    "postal": "N3L0L9",
    "result": []
  },
  {
    "postal": "N3L9G4",
    "result": []
  },
  {
    "postal": "N3L1J4",
    "result": [
      {
        "electoralDistricts": [
          {
            "election": null,
            "id": 13,
            "name": "Brantford—Brant"
          }
        ],
        "pollDivisionIds": [
          10137189
        ],
        "postalCode": "N3L1J4",
        "streetName": "BOBBY WEST",
        "streetDirectionId": null,
        "streetTypeId": "ST",
        "placeName": "PARIS",
        "streetNameDisplayText": "BOBBY WEST ST, PARIS"
      }
    ]
  },
  {
    "postal": "N3L0W6",
    "result": []
  }
]
