[
  {
    "postal": "L5B9J6",
    "result": []
  },
  {
    "postal": "L5B9Z5",
    "result": []
  },
  {
    "postal": "L5B7H8",
    "result": []
  },
  {
    "postal": "L5B0P6",
    "result": []
  },
  {
    "postal": "L5B0S7",
    "result": []
  },
  {
    "postal": "L5B8B9",
    "result": []
  },
  {
    "postal": "L5B2A6",
    "result": [
      {
        "electoralDistricts": [
          {
            "election": null,
            "id": 61,
            "name": "Mississauga East—Cooksville"
          }
        ],
        "pollDivisionIds": [
          10135454
        ],
        "postalCode": "L5B2A6",
        "streetName": "PAISLEY",
        "streetDirectionId": "W",
        "streetTypeId": "BLVD",
        "placeName": "MISSISSAUGA",
        "streetNameDisplayText": "PAISLEY BLVD W, MISSISSAUGA"
      }
    ]
  },
  {
    "postal": "L5B7V2",
    "result": []
  },
  {
    "postal": "L5B9P4",
    "result": []
  },
  {
    "postal": "L5B6G0",
    "result": []
  },
  {
    "postal": "L5B2K0",
    "result": []
  },
  {
    "postal": "L5B7N6",
    "result": []
  },
  {
    "postal": "L5B5R3",
    "result": []
  },
  {
    "postal": "L5B7K0",
    "result": []
  },
  {
    "postal": "L5B3R2",
    "result": [
      {
        "electoralDistricts": [
          {
            "election": null,
            "id": 60,
            "name": "Mississauga Centre"
          }
        ],
        "pollDivisionIds": [
          10143796
        ],
        "postalCode": "L5B3R2",
        "streetName": "BURNHAMTHORPE",
        "streetDirectionId": "W",
        "streetTypeId": "RD",
        "placeName": "MISSISSAUGA",
        "streetNameDisplayText": "BURNHAMTHORPE RD W, MISSISSAUGA"
      }
    ]
  },
  {
    "postal": "L5B0J1",
    "result": []
  },
  {
    "postal": "L5B0B0",
    "result": []
  },
  {
    "postal": "L5B5Z2",
    "result": []
  },
  {
    "postal": "L5B7P3",
    "result": []
  },
  {
    "postal": "L5B2K3",
    "result": [
      {
        "electoralDistricts": [
          {
            "election": null,
            "id": 61,
            "name": "Mississauga East—Cooksville"
          }
        ],
        "pollDivisionIds": [
          10135455
        ],
        "postalCode": "L5B2K3",
        "streetName": "LOUIS",
        "streetDirectionId": null,
        "streetTypeId": "DR",
        "placeName": "MISSISSAUGA",
        "streetNameDisplayText": "LOUIS DR, MISSISSAUGA"
      }
    ]
  },
  {
    "postal": "L5B7Y6",
    "result": []
  },
  {
    "postal": "L5B1L9",
    "result": [
      {
        "electoralDistricts": [
          {
            "election": null,
            "id": 60,
            "name": "Mississauga Centre"
          }
        ],
        "pollDivisionIds": [
          10135089
        ],
        "postalCode": "L5B1L9",
        "streetName": "ELM",
        "streetDirectionId": "W",
        "streetTypeId": "DR",
        "placeName": "MISSISSAUGA",
        "streetNameDisplayText": "ELM DR W, MISSISSAUGA"
      }
    ]
  },
  {
    "postal": "L5B8T0",
    "result": []
  },
  {
    "postal": "L5B3K8",
    "result": [
      {
        "electoralDistricts": [
          {
            "election": null,
            "id": 60,
            "name": "Mississauga Centre"
          }
        ],
        "pollDivisionIds": [
          10135089
        ],
        "postalCode": "L5B3K8",
        "streetName": "CROATIA",
        "streetDirectionId": null,
        "streetTypeId": "DR",
        "placeName": "MISSISSAUGA",
        "streetNameDisplayText": "CROATIA DR, MISSISSAUGA"
      }
    ]
  },
  {
    "postal": "L5B5W9",
    "result": []
  },
  {
    "postal": "L5B6T9",
    "result": []
  },
  {
    "postal": "L5B4H1",
    "result": [
      {
        "electoralDistricts": [
          {
            "election": null,
            "id": 61,
            "name": "Mississauga East—Cooksville"
          }
        ],
        "pollDivisionIds": [
          10135453
        ],
        "postalCode": "L5B4H1",
        "streetName": "PEARWOOD",
        "streetDirectionId": null,
        "streetTypeId": "PL",
        "placeName": "MISSISSAUGA",
        "streetNameDisplayText": "PEARWOOD PL, MISSISSAUGA"
      },
      {
        "electoralDistricts": [
          {
            "election": null,
            "id": 61,
            "name": "Mississauga East—Cooksville"
          }
        ],
        "pollDivisionIds": [
          10135453
        ],
        "postalCode": "L5B4H1",
        "streetName": "WILDGRASS",
        "streetDirectionId": null,
        "streetTypeId": "RD",
        "placeName": "MISSISSAUGA",
        "streetNameDisplayText": "WILDGRASS RD, MISSISSAUGA"
      }
    ]
  },
  {
    "postal": "L5B7A2",
    "result": []
  },
  {
    "postal": "L5B5G0",
    "result": []
  },
  {
    "postal": "L5B8V5",
    "result": []
  },
  {
    "postal": "L5B2Y8",
    "result": [
      {
        "electoralDistricts": [
          {
            "election": null,
            "id": 60,
            "name": "Mississauga Centre"
          }
        ],
        "pollDivisionIds": [
          10143796
        ],
        "postalCode": "L5B2Y8",
        "streetName": "ELORA",
        "streetDirectionId": null,
        "streetTypeId": "DR",
        "placeName": "MISSISSAUGA",
        "streetNameDisplayText": "ELORA DR, MISSISSAUGA"
      }
    ]
  },
  {
    "postal": "L5B2B6",
    "result": [
      {
        "electoralDistricts": [
          {
            "election": null,
            "id": 61,
            "name": "Mississauga East—Cooksville"
          }
        ],
        "pollDivisionIds": [
          10135454
        ],
        "postalCode": "L5B2B6",
        "streetName": "DOROTHEA",
        "streetDirectionId": null,
        "streetTypeId": "CRT",
        "placeName": "MISSISSAUGA",
        "streetNameDisplayText": "DOROTHEA CRT, MISSISSAUGA"
      }
    ]
  },
  {
    "postal": "L5B4W8",
    "result": []
  },
  {
    "postal": "L5B8H7",
    "result": []
  },
  {
    "postal": "L5B5P1",
    "result": []
  },
  {
    "postal": "L5B2B8",
    "result": [
      {
        "electoralDistricts": [
          {
            "election": null,
            "id": 63,
            "name": "Mississauga—Lakeshore"
          }
        ],
        "pollDivisionIds": [
          10139754
        ],
        "postalCode": "L5B2B8",
        "streetName": "STILLMEADOW",
        "streetDirectionId": null,
        "streetTypeId": "RD",
        "placeName": "MISSISSAUGA",
        "streetNameDisplayText": "STILLMEADOW RD, MISSISSAUGA"
      }
    ]
  },
  {
    "postal": "L5B0P2",
    "result": []
  },
  {
    "postal": "L5B9M1",
    "result": []
  },
  {
    "postal": "L5B3G0",
    "result": []
  },
  {
    "postal": "L5B9Z2",
    "result": []
  },
  {
    "postal": "L5B2A0",
    "result": []
  },
  {
    "postal": "L5B6Y0",
    "result": []
  },
  {
    "postal": "L5B2Z8",
    "result": [
      {
        "electoralDistricts": [
          {
            "election": null,
            "id": 60,
            "name": "Mississauga Centre"
          }
        ],
        "pollDivisionIds": [
          10143796
        ],
        "postalCode": "L5B2Z8",
        "streetName": "SUGARBUSH",
        "streetDirectionId": null,
        "streetTypeId": "RD",
        "placeName": "MISSISSAUGA",
        "streetNameDisplayText": "SUGARBUSH RD, MISSISSAUGA"
      }
    ]
  },
  {
    "postal": "L5B7Y3",
    "result": []
  },
  {
    "postal": "L5B6Z5",
    "result": []
  },
  {
    "postal": "L5B6E0",
    "result": []
  },
  {
    "postal": "L5B9B7",
    "result": []
  },
  {
    "postal": "L5B9S5",
    "result": []
  },
  {
    "postal": "L5B3X3",
    "result": [
      {
        "electoralDistricts": [
          {
            "election": null,
            "id": 61,
            "name": "Mississauga East—Cooksville"
          }
        ],
        "pollDivisionIds": [
          10135452
        ],
        "postalCode": "L5B3X3",
        "streetName": "FAIRVIEW",
        "streetDirectionId": "W",
        "streetTypeId": "RD",
        "placeName": "MISSISSAUGA",
        "streetNameDisplayText": "FAIRVIEW RD W, MISSISSAUGA"
      },
      {
        "electoralDistricts": [
          {
            "election": null,
            "id": 61,
            "name": "Mississauga East—Cooksville"
          }
        ],
        "pollDivisionIds": [
          10135452
        ],
        "postalCode": "L5B3X3",
        "streetName": "NANAK",
        "streetDirectionId": null,
        "streetTypeId": "RD",
        "placeName": "MISSISSAUGA",
        "streetNameDisplayText": "NANAK RD, MISSISSAUGA"
      },
      {
        "electoralDistricts": [
          {
            "election": null,
            "id": 61,
            "name": "Mississauga East—Cooksville"
          }
        ],
        "pollDivisionIds": [
          10135452
        ],
        "postalCode": "L5B3X3",
        "streetName": "PILCOM",
        "streetDirectionId": null,
        "streetTypeId": "CRES",
        "placeName": "MISSISSAUGA",
        "streetNameDisplayText": "PILCOM CRES, MISSISSAUGA"
      }
    ]
  },
  {
    "postal": "L5B7R5",
    "result": []
  },
  {
    "postal": "L5B2X3",
    "result": [
      {
        "electoralDistricts": [
          {
            "election": null,
            "id": 60,
            "name": "Mississauga Centre"
          }
        ],
        "pollDivisionIds": [
          10143796
        ],
        "postalCode": "L5B2X3",
        "streetName": "EIDERDOWN",
        "streetDirectionId": null,
        "streetTypeId": "PL",
        "placeName": "MISSISSAUGA",
        "streetNameDisplayText": "EIDERDOWN PL, MISSISSAUGA"
      }
    ]
  },
  {
    "postal": "L5B8Z9",
    "result": []
  },
  {
    "postal": "L5B0N4",
    "result": []
  },
  {
    "postal": "L5B1K1",
    "result": [
      {
        "electoralDistricts": [
          {
            "election": null,
            "id": 61,
            "name": "Mississauga East—Cooksville"
          }
        ],
        "pollDivisionIds": [
          10143912
        ],
        "postalCode": "L5B1K1",
        "streetName": "AGNES",
        "streetDirectionId": null,
        "streetTypeId": "ST",
        "placeName": "MISSISSAUGA",
        "streetNameDisplayText": "AGNES ST, MISSISSAUGA"
      }
    ]
  },
  {
    "postal": "L5B1S3",
    "result": [
      {
        "electoralDistricts": [
          {
            "election": null,
            "id": 61,
            "name": "Mississauga East—Cooksville"
          }
        ],
        "pollDivisionIds": [
          10143912
        ],
        "postalCode": "L5B1S3",
        "streetName": "CONFEDERATION",
        "streetDirectionId": null,
        "streetTypeId": "PKY",
        "placeName": "MISSISSAUGA",
        "streetNameDisplayText": "CONFEDERATION PKY, MISSISSAUGA"
      }
    ]
  },
  {
    "postal": "L5B6M4",
    "result": []
  },
  {
    "postal": "L5B9A9",
    "result": []
  },
  {
    "postal": "L5B9Z9",
    "result": []
  },
  {
    "postal": "L5B6T4",
    "result": []
  },
  {
    "postal": "L5B0B2",
    "result": [
      {
        "electoralDistricts": [
          {
            "election": null,
            "id": 61,
            "name": "Mississauga East—Cooksville"
          }
        ],
        "pollDivisionIds": [
          10135453
        ],
        "postalCode": "L5B0B2",
        "streetName": "DUNDAS",
        "streetDirectionId": "W",
        "streetTypeId": "ST",
        "placeName": "MISSISSAUGA",
        "streetNameDisplayText": "DUNDAS ST W, MISSISSAUGA"
      }
    ]
  },
  {
    "postal": "L5B2L9",
    "result": [
      {
        "electoralDistricts": [
          {
            "election": null,
            "id": 61,
            "name": "Mississauga East—Cooksville"
          }
        ],
        "pollDivisionIds": [
          10135454
        ],
        "postalCode": "L5B2L9",
        "streetName": "FENDALTON",
        "streetDirectionId": null,
        "streetTypeId": "ST",
        "placeName": "MISSISSAUGA",
        "streetNameDisplayText": "FENDALTON ST, MISSISSAUGA"
      }
    ]
  },
  {
    "postal": "L5B8K9",
    "result": []
  },
  {
    "postal": "L5B2H9",
    "result": [
      {
        "electoralDistricts": [
          {
            "election": null,
            "id": 61,
            "name": "Mississauga East—Cooksville"
          }
        ],
        "pollDivisionIds": [
          10135455
        ],
        "postalCode": "L5B2H9",
        "streetName": "CALLUM",
        "streetDirectionId": null,
        "streetTypeId": "AVE",
        "placeName": "MISSISSAUGA",
        "streetNameDisplayText": "CALLUM AVE, MISSISSAUGA"
      }
    ]
  },
  {
    "postal": "L5B3Z6",
    "result": [
      {
        "electoralDistricts": [
          {
            "election": null,
            "id": 61,
            "name": "Mississauga East—Cooksville"
          }
        ],
        "pollDivisionIds": [
          10135453
        ],
        "postalCode": "L5B3Z6",
        "streetName": "CONFEDERATION",
        "streetDirectionId": null,
        "streetTypeId": "PKY",
        "placeName": "MISSISSAUGA",
        "streetNameDisplayText": "CONFEDERATION PKY, MISSISSAUGA"
      }
    ]
  },
  {
    "postal": "L5B3B0",
    "result": []
  },
  {
    "postal": "L5B2H8",
    "result": [
      {
        "electoralDistricts": [
          {
            "election": null,
            "id": 61,
            "name": "Mississauga East—Cooksville"
          }
        ],
        "pollDivisionIds": [
          10135455
        ],
        "postalCode": "L5B2H8",
        "streetName": "CALLUM",
        "streetDirectionId": null,
        "streetTypeId": "AVE",
        "placeName": "MISSISSAUGA",
        "streetNameDisplayText": "CALLUM AVE, MISSISSAUGA"
      }
    ]
  },
  {
    "postal": "L5B3X2",
    "result": [
      {
        "electoralDistricts": [
          {
            "election": null,
            "id": 61,
            "name": "Mississauga East—Cooksville"
          }
        ],
        "pollDivisionIds": [
          10135452
        ],
        "postalCode": "L5B3X2",
        "streetName": "NANAK",
        "streetDirectionId": null,
        "streetTypeId": "CRT",
        "placeName": "MISSISSAUGA",
        "streetNameDisplayText": "NANAK CRT, MISSISSAUGA"
      },
      {
        "electoralDistricts": [
          {
            "election": null,
            "id": 61,
            "name": "Mississauga East—Cooksville"
          }
        ],
        "pollDivisionIds": [
          10135452
        ],
        "postalCode": "L5B3X2",
        "streetName": "NANAK",
        "streetDirectionId": null,
        "streetTypeId": "RD",
        "placeName": "MISSISSAUGA",
        "streetNameDisplayText": "NANAK RD, MISSISSAUGA"
      }
    ]
  },
  {
    "postal": "L5B2E9",
    "result": [
      {
        "electoralDistricts": [
          {
            "election": null,
            "id": 63,
            "name": "Mississauga—Lakeshore"
          }
        ],
        "pollDivisionIds": [
          10139754
        ],
        "postalCode": "L5B2E9",
        "streetName": "KENBARB",
        "streetDirectionId": null,
        "streetTypeId": "RD",
        "placeName": "MISSISSAUGA",
        "streetNameDisplayText": "KENBARB RD, MISSISSAUGA"
      }
    ]
  },
  {
    "postal": "L5B9P6",
    "result": []
  },
  {
    "postal": "L5B9E2",
    "result": []
  },
  {
    "postal": "L5B9H2",
    "result": []
  },
  {
    "postal": "L5B1S8",
    "result": [
      {
        "electoralDistricts": [
          {
            "election": null,
            "id": 63,
            "name": "Mississauga—Lakeshore"
          }
        ],
        "pollDivisionIds": [
          10139754
        ],
        "postalCode": "L5B1S8",
        "streetName": "GORDON",
        "streetDirectionId": null,
        "streetTypeId": "DR",
        "placeName": "MISSISSAUGA",
        "streetNameDisplayText": "GORDON DR, MISSISSAUGA"
      }
    ]
  },
  {
    "postal": "L5B3M6",
    "result": [
      {
        "electoralDistricts": [
          {
            "election": null,
            "id": 60,
            "name": "Mississauga Centre"
          }
        ],
        "pollDivisionIds": [
          10143796
        ],
        "postalCode": "L5B3M6",
        "streetName": "PARKVIEW",
        "streetDirectionId": null,
        "streetTypeId": "BLVD",
        "placeName": "MISSISSAUGA",
        "streetNameDisplayText": "PARKVIEW BLVD, MISSISSAUGA"
      }
    ]
  },
  {
    "postal": "L5B6Z8",
    "result": []
  },
  {
    "postal": "L5B4J2",
    "result": [
      {
        "electoralDistricts": [
          {
            "election": null,
            "id": 61,
            "name": "Mississauga East—Cooksville"
          }
        ],
        "pollDivisionIds": [
          10135453
        ],
        "postalCode": "L5B4J2",
        "streetName": "COTTAGE CLAY",
        "streetDirectionId": null,
        "streetTypeId": "RD",
        "placeName": "MISSISSAUGA",
        "streetNameDisplayText": "COTTAGE CLAY RD, MISSISSAUGA"
      },
      {
        "electoralDistricts": [
          {
            "election": null,
            "id": 61,
            "name": "Mississauga East—Cooksville"
          }
        ],
        "pollDivisionIds": [
          10135453
        ],
        "postalCode": "L5B4J2",
        "streetName": "COTTAGERS GREEN",
        "streetDirectionId": null,
        "streetTypeId": "DR",
        "placeName": "MISSISSAUGA",
        "streetNameDisplayText": "COTTAGERS GREEN DR, MISSISSAUGA"
      }
    ]
  },
  {
    "postal": "L5B9Y1",
    "result": []
  },
  {
    "postal": "L5B8V6",
    "result": []
  },
  {
    "postal": "L5B6B2",
    "result": []
  },
  {
    "postal": "L5B1P8",
    "result": []
  },
  {
    "postal": "L5B0V8",
    "result": []
  },
  {
    "postal": "L5B4Y0",
    "result": []
  },
  {
    "postal": "L5B2T4",
    "result": [
      {
        "electoralDistricts": [
          {
            "election": null,
            "id": 60,
            "name": "Mississauga Centre"
          }
        ],
        "pollDivisionIds": [
          10143796
        ],
        "postalCode": "L5B2T4",
        "streetName": "CITY CENTRE",
        "streetDirectionId": null,
        "streetTypeId": "DR",
        "placeName": "MISSISSAUGA",
        "streetNameDisplayText": "CITY CENTRE DR, MISSISSAUGA"
      }
    ]
  },
  {
    "postal": "L5B2S3",
    "result": [
      {
        "electoralDistricts": [
          {
            "election": null,
            "id": 61,
            "name": "Mississauga East—Cooksville"
          }
        ],
        "pollDivisionIds": [
          10135454
        ],
        "postalCode": "L5B2S3",
        "streetName": "MASON",
        "streetDirectionId": null,
        "streetTypeId": "HTS",
        "placeName": "MISSISSAUGA",
        "streetNameDisplayText": "MASON HTS, MISSISSAUGA"
      }
    ]
  },
  {
    "postal": "L5B0K0",
    "result": []
  },
  {
    "postal": "L5B5N1",
    "result": []
  },
  {
    "postal": "L5B7T0",
    "result": []
  },
  {
    "postal": "L5B9N2",
    "result": []
  },
  {
    "postal": "L5B5L1",
    "result": []
  },
  {
    "postal": "L5B7G5",
    "result": []
  },
  {
    "postal": "L5B6K2",
    "result": []
  },
  {
    "postal": "L5B6P9",
    "result": []
  },
  {
    "postal": "L5B0E6",
    "result": [
      {
        "electoralDistricts": [
          {
            "election": null,
            "id": 60,
            "name": "Mississauga Centre"
          }
        ],
        "pollDivisionIds": [
          10135138
        ],
        "postalCode": "L5B0E6",
        "streetName": "SQUARE ONE",
        "streetDirectionId": null,
        "streetTypeId": "DR",
        "placeName": "MISSISSAUGA",
        "streetNameDisplayText": "SQUARE ONE DR, MISSISSAUGA"
      }
    ]
  },
  {
    "postal": "L5B8R9",
    "result": []
  },
  {
    "postal": "L5B3G9",
    "result": [
      {
        "electoralDistricts": [
          {
            "election": null,
            "id": 61,
            "name": "Mississauga East—Cooksville"
          }
        ],
        "pollDivisionIds": [
          10135452
        ],
        "postalCode": "L5B3G9",
        "streetName": "LECH WALESA",
        "streetDirectionId": null,
        "streetTypeId": "DR",
        "placeName": "MISSISSAUGA",
        "streetNameDisplayText": "LECH WALESA DR, MISSISSAUGA"
      }
    ]
  },
  {
    "postal": "L5B0V7",
    "result": []
  },
  {
    "postal": "L5B2Z1",
    "result": [
      {
        "electoralDistricts": [
          {
            "election": null,
            "id": 60,
            "name": "Mississauga Centre"
          }
        ],
        "pollDivisionIds": [
          10143796
        ],
        "postalCode": "L5B2Z1",
        "streetName": "TEA GARDEN",
        "streetDirectionId": null,
        "streetTypeId": "CIR",
        "placeName": "MISSISSAUGA",
        "streetNameDisplayText": "TEA GARDEN CIR, MISSISSAUGA"
      }
    ]
  },
  {
    "postal": "L5B7N1",
    "result": []
  },
  {
    "postal": "L5B3C6",
    "result": []
  },
  {
    "postal": "L5B4M1",
    "result": [
      {
        "electoralDistricts": [
          {
            "election": null,
            "id": 60,
            "name": "Mississauga Centre"
          }
        ],
        "pollDivisionIds": [
          10135087,
          10135153,
          10143796
        ],
        "postalCode": "L5B4M1",
        "streetName": "ELM",
        "streetDirectionId": "W",
        "streetTypeId": "DR",
        "placeName": "MISSISSAUGA",
        "streetNameDisplayText": "ELM DR W, MISSISSAUGA"
      }
    ]
  },
  {
    "postal": "L5B9K2",
    "result": []
  },
  {
    "postal": "L5B9S6",
    "result": []
  },
  {
    "postal": "L5B4X1",
    "result": []
  },
  {
    "postal": "L5B8W2",
    "result": []
  },
  {
    "postal": "L5B7N2",
    "result": []
  },
  {
    "postal": "L5B8S3",
    "result": []
  },
  {
    "postal": "L5B4V0",
    "result": []
  },
  {
    "postal": "L5B6W4",
    "result": []
  },
  {
    "postal": "L5B5M1",
    "result": []
  },
  {
    "postal": "L5B0S4",
    "result": []
  },
  {
    "postal": "L5B5X6",
    "result": []
  },
  {
    "postal": "L5B8L5",
    "result": []
  },
  {
    "postal": "L5B5M8",
    "result": []
  },
  {
    "postal": "L5B2G3",
    "result": [
      {
        "electoralDistricts": [
          {
            "election": null,
            "id": 63,
            "name": "Mississauga—Lakeshore"
          }
        ],
        "pollDivisionIds": [
          10139754
        ],
        "postalCode": "L5B2G3",
        "streetName": "ISABELLA",
        "streetDirectionId": null,
        "streetTypeId": "AVE",
        "placeName": "MISSISSAUGA",
        "streetNameDisplayText": "ISABELLA AVE, MISSISSAUGA"
      }
    ]
  },
  {
    "postal": "L5B8E4",
    "result": []
  },
  {
    "postal": "L5B7S9",
    "result": []
  },
  {
    "postal": "L5B1K3",
    "result": [
      {
        "electoralDistricts": [
          {
            "election": null,
            "id": 61,
            "name": "Mississauga East—Cooksville"
          }
        ],
        "pollDivisionIds": [
          10135453
        ],
        "postalCode": "L5B1K3",
        "streetName": "HILLCREST",
        "streetDirectionId": null,
        "streetTypeId": "AVE",
        "placeName": "MISSISSAUGA",
        "streetNameDisplayText": "HILLCREST AVE, MISSISSAUGA"
      }
    ]
  },
  {
    "postal": "L5B4E1",
    "result": [
      {
        "electoralDistricts": [
          {
            "election": null,
            "id": 61,
            "name": "Mississauga East—Cooksville"
          }
        ],
        "pollDivisionIds": [
          10135452
        ],
        "postalCode": "L5B4E1",
        "streetName": "OLD ORCHARD PARK",
        "streetDirectionId": null,
        "streetTypeId": "DR",
        "placeName": "MISSISSAUGA",
        "streetNameDisplayText": "OLD ORCHARD PARK DR, MISSISSAUGA"
      },
      {
        "electoralDistricts": [
          {
            "election": null,
            "id": 61,
            "name": "Mississauga East—Cooksville"
          }
        ],
        "pollDivisionIds": [
          10135452
        ],
        "postalCode": "L5B4E1",
        "streetName": "OLD ORCHARD",
        "streetDirectionId": null,
        "streetTypeId": "PK",
        "placeName": "MISSISSAUGA",
        "streetNameDisplayText": "OLD ORCHARD PK, MISSISSAUGA"
      }
    ]
  },
  {
    "postal": "L5B4R2",
    "result": []
  },
  {
    "postal": "L5B6T0",
    "result": []
  },
  {
    "postal": "L5B3K5",
    "result": [
      {
        "electoralDistricts": [
          {
            "election": null,
            "id": 60,
            "name": "Mississauga Centre"
          }
        ],
        "pollDivisionIds": [
          10135089
        ],
        "postalCode": "L5B3K5",
        "streetName": "COPERNICUS",
        "streetDirectionId": null,
        "streetTypeId": "DR",
        "placeName": "MISSISSAUGA",
        "streetNameDisplayText": "COPERNICUS DR, MISSISSAUGA"
      }
    ]
  },
  {
    "postal": "L5B3S3",
    "result": [
      {
        "electoralDistricts": [
          {
            "election": null,
            "id": 61,
            "name": "Mississauga East—Cooksville"
          }
        ],
        "pollDivisionIds": [
          10135452
        ],
        "postalCode": "L5B3S3",
        "streetName": "LORETTA",
        "streetDirectionId": null,
        "streetTypeId": "CRT",
        "placeName": "MISSISSAUGA",
        "streetNameDisplayText": "LORETTA CRT, MISSISSAUGA"
      }
    ]
  },
  {
    "postal": "L5B3L4",
    "result": [
      {
        "electoralDistricts": [
          {
            "election": null,
            "id": 61,
            "name": "Mississauga East—Cooksville"
          }
        ],
        "pollDivisionIds": [
          10135449
        ],
        "postalCode": "L5B3L4",
        "streetName": "BOXMOOR",
        "streetDirectionId": null,
        "streetTypeId": "PL",
        "placeName": "MISSISSAUGA",
        "streetNameDisplayText": "BOXMOOR PL, MISSISSAUGA"
      },
      {
        "electoralDistricts": [
          {
            "election": null,
            "id": 61,
            "name": "Mississauga East—Cooksville"
          }
        ],
        "pollDivisionIds": [
          10135449
        ],
        "postalCode": "L5B3L4",
        "streetName": "CAMELOT",
        "streetDirectionId": null,
        "streetTypeId": "CRT",
        "placeName": "MISSISSAUGA",
        "streetNameDisplayText": "CAMELOT CRT, MISSISSAUGA"
      }
    ]
  },
  {
    "postal": "L5B9Y2",
    "result": []
  },
  {
    "postal": "L5B1E0",
    "result": []
  },
  {
    "postal": "L5B9A4",
    "result": []
  },
  {
    "postal": "L5B1L3",
    "result": [
      {
        "electoralDistricts": [
          {
            "election": null,
            "id": 61,
            "name": "Mississauga East—Cooksville"
          }
        ],
        "pollDivisionIds": [
          10135449
        ],
        "postalCode": "L5B1L3",
        "streetName": "CENTRAL",
        "streetDirectionId": "W",
        "streetTypeId": "PKY",
        "placeName": "MISSISSAUGA",
        "streetNameDisplayText": "CENTRAL PKY W, MISSISSAUGA"
      }
    ]
  },
  {
    "postal": "L5B6N1",
    "result": []
  },
  {
    "postal": "L5B6G7",
    "result": []
  },
  {
    "postal": "L5B7W1",
    "result": []
  },
  {
    "postal": "L5B4M6",
    "result": [
      {
        "electoralDistricts": [
          {
            "election": null,
            "id": 60,
            "name": "Mississauga Centre"
          }
        ],
        "pollDivisionIds": [
          10135089
        ],
        "postalCode": "L5B4M6",
        "streetName": "GRAND PARK",
        "streetDirectionId": null,
        "streetTypeId": "DR",
        "placeName": "MISSISSAUGA",
        "streetNameDisplayText": "GRAND PARK DR, MISSISSAUGA"
      }
    ]
  },
  {
    "postal": "L5B1K0",
    "result": []
  },
  {
    "postal": "L5B3E2",
    "result": [
      {
        "electoralDistricts": [
          {
            "election": null,
            "id": 60,
            "name": "Mississauga Centre"
          }
        ],
        "pollDivisionIds": [
          10135147
        ],
        "postalCode": "L5B3E2",
        "streetName": "ENFIELD",
        "streetDirectionId": null,
        "streetTypeId": "PL",
        "placeName": "MISSISSAUGA",
        "streetNameDisplayText": "ENFIELD PL, MISSISSAUGA"
      },
      {
        "electoralDistricts": [
          {
            "election": null,
            "id": 60,
            "name": "Mississauga Centre"
          }
        ],
        "pollDivisionIds": [
          10135089
        ],
        "postalCode": "L5B3E2",
        "streetName": "WALFORD",
        "streetDirectionId": null,
        "streetTypeId": "CRT",
        "placeName": "MISSISSAUGA",
        "streetNameDisplayText": "WALFORD CRT, MISSISSAUGA"
      }
    ]
  },
  {
    "postal": "L5B5H4",
    "result": []
  },
  {
    "postal": "L5B1K7",
    "result": [
      {
        "electoralDistricts": [
          {
            "election": null,
            "id": 61,
            "name": "Mississauga East—Cooksville"
          }
        ],
        "pollDivisionIds": [
          10135449
        ],
        "postalCode": "L5B1K7",
        "streetName": "FAIRVIEW",
        "streetDirectionId": "W",
        "streetTypeId": "RD",
        "placeName": "MISSISSAUGA",
        "streetNameDisplayText": "FAIRVIEW RD W, MISSISSAUGA"
      }
    ]
  },
  {
    "postal": "L5B0H0",
    "result": []
  },
  {
    "postal": "L5B0J3",
    "result": []
  },
  {
    "postal": "L5B1X6",
    "result": [
      {
        "electoralDistricts": [
          {
            "election": null,
            "id": 63,
            "name": "Mississauga—Lakeshore"
          }
        ],
        "pollDivisionIds": [
          10139754
        ],
        "postalCode": "L5B1X6",
        "streetName": "STILLMEADOW",
        "streetDirectionId": null,
        "streetTypeId": "RD",
        "placeName": "MISSISSAUGA",
        "streetNameDisplayText": "STILLMEADOW RD, MISSISSAUGA"
      }
    ]
  },
  {
    "postal": "L5B2Z6",
    "result": [
      {
        "electoralDistricts": [
          {
            "election": null,
            "id": 60,
            "name": "Mississauga Centre"
          }
        ],
        "pollDivisionIds": [
          10143796
        ],
        "postalCode": "L5B2Z6",
        "streetName": "PARAGON",
        "streetDirectionId": null,
        "streetTypeId": "PL",
        "placeName": "MISSISSAUGA",
        "streetNameDisplayText": "PARAGON PL, MISSISSAUGA"
      }
    ]
  },
  {
    "postal": "L5B4R9",
    "result": []
  },
  {
    "postal": "L5B0W8",
    "result": []
  },
  {
    "postal": "L5B1L4",
    "result": [
      {
        "electoralDistricts": [
          {
            "election": null,
            "id": 60,
            "name": "Mississauga Centre"
          }
        ],
        "pollDivisionIds": [
          10135089
        ],
        "postalCode": "L5B1L4",
        "streetName": "CENTRAL PKWY.",
        "streetDirectionId": "W",
        "streetTypeId": "PKY",
        "placeName": "MISSISSAUGA",
        "streetNameDisplayText": "CENTRAL PKWY. PKY W, MISSISSAUGA"
      },
      {
        "electoralDistricts": [
          {
            "election": null,
            "id": 60,
            "name": "Mississauga Centre"
          }
        ],
        "pollDivisionIds": [
          10135089
        ],
        "postalCode": "L5B1L4",
        "streetName": "CENTRAL",
        "streetDirectionId": "W",
        "streetTypeId": "PKY",
        "placeName": "MISSISSAUGA",
        "streetNameDisplayText": "CENTRAL PKY W, MISSISSAUGA"
      }
    ]
  },
  {
    "postal": "L5B0C8",
    "result": [
      {
        "electoralDistricts": [
          {
            "election": null,
            "id": 60,
            "name": "Mississauga Centre"
          }
        ],
        "pollDivisionIds": [
          10135085,
          10143797,
          10135087
        ],
        "postalCode": "L5B0C8",
        "streetName": "RATHBURN",
        "streetDirectionId": "W",
        "streetTypeId": "RD",
        "placeName": "MISSISSAUGA",
        "streetNameDisplayText": "RATHBURN RD W, MISSISSAUGA"
      },
      {
        "electoralDistricts": [
          {
            "election": null,
            "id": 60,
            "name": "Mississauga Centre"
          }
        ],
        "pollDivisionIds": [
          10135085
        ],
        "postalCode": "L5B0C8",
        "streetName": "RATHKEALE",
        "streetDirectionId": "W",
        "streetTypeId": "RD",
        "placeName": "MISSISSAUGA",
        "streetNameDisplayText": "RATHKEALE RD W, MISSISSAUGA"
      }
    ]
  },
  {
    "postal": "L5B9X7",
    "result": []
  },
  {
    "postal": "L5B4T1",
    "result": []
  },
  {
    "postal": "L5B0M0",
    "result": []
  },
  {
    "postal": "L5B6A2",
    "result": []
  },
  {
    "postal": "L5B9S8",
    "result": []
  },
  {
    "postal": "L5B9T4",
    "result": []
  },
  {
    "postal": "L5B9Y4",
    "result": []
  },
  {
    "postal": "L5B6G5",
    "result": []
  },
  {
    "postal": "L5B6H9",
    "result": []
  },
  {
    "postal": "L5B2P3",
    "result": [
      {
        "electoralDistricts": [
          {
            "election": null,
            "id": 61,
            "name": "Mississauga East—Cooksville"
          }
        ],
        "pollDivisionIds": [
          10135455
        ],
        "postalCode": "L5B2P3",
        "streetName": "CULLEN",
        "streetDirectionId": null,
        "streetTypeId": "AVE",
        "placeName": "MISSISSAUGA",
        "streetNameDisplayText": "CULLEN AVE, MISSISSAUGA"
      }
    ]
  },
  {
    "postal": "L5B1T6",
    "result": [
      {
        "electoralDistricts": [
          {
            "election": null,
            "id": 61,
            "name": "Mississauga East—Cooksville"
          }
        ],
        "pollDivisionIds": [
          10135449
        ],
        "postalCode": "L5B1T6",
        "streetName": "JOAN",
        "streetDirectionId": null,
        "streetTypeId": "DR",
        "placeName": "MISSISSAUGA",
        "streetNameDisplayText": "JOAN DR, MISSISSAUGA"
      }
    ]
  },
  {
    "postal": "L5B4P6",
    "result": [
      {
        "electoralDistricts": [
          {
            "election": null,
            "id": 61,
            "name": "Mississauga East—Cooksville"
          }
        ],
        "pollDivisionIds": [
          10135449
        ],
        "postalCode": "L5B4P6",
        "streetName": "DANIELSON",
        "streetDirectionId": null,
        "streetTypeId": "CRT",
        "placeName": "MISSISSAUGA",
        "streetNameDisplayText": "DANIELSON CRT, MISSISSAUGA"
      }
    ]
  },
  {
    "postal": "L5B3K1",
    "result": [
      {
        "electoralDistricts": [
          {
            "election": null,
            "id": 60,
            "name": "Mississauga Centre"
          }
        ],
        "pollDivisionIds": [
          10135089
        ],
        "postalCode": "L5B3K1",
        "streetName": "NABLUS",
        "streetDirectionId": null,
        "streetTypeId": "GATE",
        "placeName": "MISSISSAUGA",
        "streetNameDisplayText": "NABLUS GATE, MISSISSAUGA"
      },
      {
        "electoralDistricts": [
          {
            "election": null,
            "id": 60,
            "name": "Mississauga Centre"
          }
        ],
        "pollDivisionIds": [
          10135089
        ],
        "postalCode": "L5B3K1",
        "streetName": "RIEL",
        "streetDirectionId": null,
        "streetTypeId": "DR",
        "placeName": "MISSISSAUGA",
        "streetNameDisplayText": "RIEL DR, MISSISSAUGA"
      }
    ]
  },
  {
    "postal": "L5B6X4",
    "result": []
  },
  {
    "postal": "L5B4M8",
    "result": [
      {
        "electoralDistricts": [
          {
            "election": null,
            "id": 60,
            "name": "Mississauga Centre"
          }
        ],
        "pollDivisionIds": [
          10135140
        ],
        "postalCode": "L5B4M8",
        "streetName": "LIVING ARTS",
        "streetDirectionId": null,
        "streetTypeId": "DR",
        "placeName": "MISSISSAUGA",
        "streetNameDisplayText": "LIVING ARTS DR, MISSISSAUGA"
      }
    ]
  },
  {
    "postal": "L5B2Y1",
    "result": [
      {
        "electoralDistricts": [
          {
            "election": null,
            "id": 61,
            "name": "Mississauga East—Cooksville"
          }
        ],
        "pollDivisionIds": [
          10135455
        ],
        "postalCode": "L5B2Y1",
        "streetName": "CULLEN",
        "streetDirectionId": null,
        "streetTypeId": "AVE",
        "placeName": "MISSISSAUGA",
        "streetNameDisplayText": "CULLEN AVE, MISSISSAUGA"
      }
    ]
  },
  {
    "postal": "L5B6M1",
    "result": []
  },
  {
    "postal": "L5B5L8",
    "result": []
  },
  {
    "postal": "L5B3P6",
    "result": [
      {
        "electoralDistricts": [
          {
            "election": null,
            "id": 60,
            "name": "Mississauga Centre"
          }
        ],
        "pollDivisionIds": [
          10143796
        ],
        "postalCode": "L5B3P6",
        "streetName": "GREENPARK",
        "streetDirectionId": null,
        "streetTypeId": "CRES",
        "placeName": "MISSISSAUGA",
        "streetNameDisplayText": "GREENPARK CRES, MISSISSAUGA"
      }
    ]
  },
  {
    "postal": "L5B9A5",
    "result": []
  },
  {
    "postal": "L5B7K1",
    "result": []
  },
  {
    "postal": "L5B3J4",
    "result": [
      {
        "electoralDistricts": [
          {
            "election": null,
            "id": 60,
            "name": "Mississauga Centre"
          }
        ],
        "pollDivisionIds": [
          10135149
        ],
        "postalCode": "L5B3J4",
        "streetName": "KARIYA",
        "streetDirectionId": null,
        "streetTypeId": "DR",
        "placeName": "MISSISSAUGA",
        "streetNameDisplayText": "KARIYA DR, MISSISSAUGA"
      }
    ]
  },
  {
    "postal": "L5B5E7",
    "result": []
  },
  {
    "postal": "L5B3A7",
    "result": [
      {
        "electoralDistricts": [
          {
            "election": null,
            "id": 61,
            "name": "Mississauga East—Cooksville"
          },
          {
            "election": null,
            "id": 60,
            "name": "Mississauga Centre"
          }
        ],
        "pollDivisionIds": [
          10135425,
          10135465,
          10143796
        ],
        "postalCode": "L5B3A7",
        "streetName": "HANSON",
        "streetDirectionId": null,
        "streetTypeId": "RD",
        "placeName": "MISSISSAUGA",
        "streetNameDisplayText": "HANSON RD, MISSISSAUGA"
      }
    ]
  },
  {
    "postal": "L5B1B9",
    "result": [
      {
        "electoralDistricts": [
          {
            "election": null,
            "id": 61,
            "name": "Mississauga East—Cooksville"
          }
        ],
        "pollDivisionIds": [
          10135451,
          10135454
        ],
        "postalCode": "L5B1B9",
        "streetName": "QUEENSWAY",
        "streetDirectionId": "W",
        "streetTypeId": null,
        "placeName": "MISSISSAUGA",
        "streetNameDisplayText": "QUEENSWAY W, MISSISSAUGA"
      }
    ]
  },
  {
    "postal": "L5B9E8",
    "result": []
  },
  {
    "postal": "L5B1C9",
    "result": [
      {
        "electoralDistricts": [
          {
            "election": null,
            "id": 61,
            "name": "Mississauga East—Cooksville"
          }
        ],
        "pollDivisionIds": [
          10135451
        ],
        "postalCode": "L5B1C9",
        "streetName": "PAISLEY",
        "streetDirectionId": "W",
        "streetTypeId": "BLVD",
        "placeName": "MISSISSAUGA",
        "streetNameDisplayText": "PAISLEY BLVD W, MISSISSAUGA"
      }
    ]
  },
  {
    "postal": "L5B3B5",
    "result": []
  },
  {
    "postal": "L5B8R0",
    "result": []
  },
  {
    "postal": "L5B3P2",
    "result": [
      {
        "electoralDistricts": [
          {
            "election": null,
            "id": 60,
            "name": "Mississauga Centre"
          }
        ],
        "pollDivisionIds": [
          10143796
        ],
        "postalCode": "L5B3P2",
        "streetName": "VIA RUSSO",
        "streetDirectionId": null,
        "streetTypeId": "CRT",
        "placeName": "MISSISSAUGA",
        "streetNameDisplayText": "VIA RUSSO CRT, MISSISSAUGA"
      }
    ]
  },
  {
    "postal": "L5B5V4",
    "result": []
  },
  {
    "postal": "L5B4H0",
    "result": []
  },
  {
    "postal": "L5B4S7",
    "result": []
  },
  {
    "postal": "L5B6C2",
    "result": []
  },
  {
    "postal": "L5B8W3",
    "result": []
  },
  {
    "postal": "L5B4M5",
    "result": [
      {
        "electoralDistricts": [
          {
            "election": null,
            "id": 61,
            "name": "Mississauga East—Cooksville"
          },
          {
            "election": null,
            "id": 60,
            "name": "Mississauga Centre"
          }
        ],
        "pollDivisionIds": [
          10135475,
          10135096
        ],
        "postalCode": "L5B4M5",
        "streetName": "DUNDAS",
        "streetDirectionId": "W",
        "streetTypeId": "ST",
        "placeName": "MISSISSAUGA",
        "streetNameDisplayText": "DUNDAS ST W, MISSISSAUGA"
      }
    ]
  },
  {
    "postal": "L5B5T1",
    "result": []
  },
  {
    "postal": "L5B3B3",
    "result": []
  },
  {
    "postal": "L5B6C6",
    "result": []
  },
  {
    "postal": "L5B7N8",
    "result": []
  },
  {
    "postal": "L5B2Y3",
    "result": [
      {
        "electoralDistricts": [
          {
            "election": null,
            "id": 60,
            "name": "Mississauga Centre"
          }
        ],
        "pollDivisionIds": [
          10143796
        ],
        "postalCode": "L5B2Y3",
        "streetName": "SQUIRE",
        "streetDirectionId": null,
        "streetTypeId": "CRT",
        "placeName": "MISSISSAUGA",
        "streetNameDisplayText": "SQUIRE CRT, MISSISSAUGA"
      }
    ]
  },
  {
    "postal": "L5B2R6",
    "result": [
      {
        "electoralDistricts": [
          {
            "election": null,
            "id": 61,
            "name": "Mississauga East—Cooksville"
          }
        ],
        "pollDivisionIds": [
          10135454
        ],
        "postalCode": "L5B2R6",
        "streetName": "CYNARA",
        "streetDirectionId": null,
        "streetTypeId": "RD",
        "placeName": "MISSISSAUGA",
        "streetNameDisplayText": "CYNARA RD, MISSISSAUGA"
      }
    ]
  },
  {
    "postal": "L5B7N3",
    "result": []
  },
  {
    "postal": "L5B8J2",
    "result": []
  },
  {
    "postal": "L5B6A9",
    "result": []
  },
  {
    "postal": "L5B3V2",
    "result": [
      {
        "electoralDistricts": [
          {
            "election": null,
            "id": 60,
            "name": "Mississauga Centre"
          }
        ],
        "pollDivisionIds": [
          10135089
        ],
        "postalCode": "L5B3V2",
        "streetName": "AFRICA",
        "streetDirectionId": null,
        "streetTypeId": "CRES",
        "placeName": "MISSISSAUGA",
        "streetNameDisplayText": "AFRICA CRES, MISSISSAUGA"
      },
      {
        "electoralDistricts": [
          {
            "election": null,
            "id": 60,
            "name": "Mississauga Centre"
          }
        ],
        "pollDivisionIds": [
          10135089
        ],
        "postalCode": "L5B3V2",
        "streetName": "COMMONWEALTH",
        "streetDirectionId": null,
        "streetTypeId": "CIR",
        "placeName": "MISSISSAUGA",
        "streetNameDisplayText": "COMMONWEALTH CIR, MISSISSAUGA"
      }
    ]
  },
  {
    "postal": "L5B2N3",
    "result": [
      {
        "electoralDistricts": [
          {
            "election": null,
            "id": 61,
            "name": "Mississauga East—Cooksville"
          }
        ],
        "pollDivisionIds": [
          10135455
        ],
        "postalCode": "L5B2N3",
        "streetName": "LOUIS",
        "streetDirectionId": null,
        "streetTypeId": "DR",
        "placeName": "MISSISSAUGA",
        "streetNameDisplayText": "LOUIS DR, MISSISSAUGA"
      }
    ]
  },
  {
    "postal": "L5B1S5",
    "result": [
      {
        "electoralDistricts": [
          {
            "election": null,
            "id": 63,
            "name": "Mississauga—Lakeshore"
          }
        ],
        "pollDivisionIds": [
          10139754
        ],
        "postalCode": "L5B1S5",
        "streetName": "GORDON",
        "streetDirectionId": null,
        "streetTypeId": "DR",
        "placeName": "MISSISSAUGA",
        "streetNameDisplayText": "GORDON DR, MISSISSAUGA"
      }
    ]
  },
  {
    "postal": "L5B4T7",
    "result": []
  },
  {
    "postal": "L5B6Y7",
    "result": []
  },
  {
    "postal": "L5B0W7",
    "result": []
  },
  {
    "postal": "L5B2W9",
    "result": [
      {
        "electoralDistricts": [
          {
            "election": null,
            "id": 60,
            "name": "Mississauga Centre"
          }
        ],
        "pollDivisionIds": [
          10143796
        ],
        "postalCode": "L5B2W9",
        "streetName": "HARTFORDSHIRE",
        "streetDirectionId": null,
        "streetTypeId": "LANE",
        "placeName": "MISSISSAUGA",
        "streetNameDisplayText": "HARTFORDSHIRE LANE, MISSISSAUGA"
      }
    ]
  },
  {
    "postal": "L5B8V0",
    "result": []
  },
  {
    "postal": "L5B0H4",
    "result": [
      {
        "electoralDistricts": [
          {
            "election": null,
            "id": 60,
            "name": "Mississauga Centre"
          }
        ],
        "pollDivisionIds": [
          10135161
        ],
        "postalCode": "L5B0H4",
        "streetName": "CURRAN",
        "streetDirectionId": null,
        "streetTypeId": "PL",
        "placeName": "MISSISSAUGA",
        "streetNameDisplayText": "CURRAN PL, MISSISSAUGA"
      }
    ]
  },
  {
    "postal": "L5B2T1",
    "result": [
      {
        "electoralDistricts": [
          {
            "election": null,
            "id": 63,
            "name": "Mississauga—Lakeshore"
          }
        ],
        "pollDivisionIds": [
          10139754
        ],
        "postalCode": "L5B2T1",
        "streetName": "TAYLORS",
        "streetDirectionId": null,
        "streetTypeId": "ORCH",
        "placeName": "MISSISSAUGA",
        "streetNameDisplayText": "TAYLORS ORCH, MISSISSAUGA"
      }
    ]
  },
  {
    "postal": "L5B1B1",
    "result": [
      {
        "electoralDistricts": [
          {
            "election": null,
            "id": 63,
            "name": "Mississauga—Lakeshore"
          }
        ],
        "pollDivisionIds": [
          10139754
        ],
        "postalCode": "L5B1B1",
        "streetName": "ISABELLA",
        "streetDirectionId": null,
        "streetTypeId": "AVE",
        "placeName": "MISSISSAUGA",
        "streetNameDisplayText": "ISABELLA AVE, MISSISSAUGA"
      }
    ]
  },
  {
    "postal": "L5B8B6",
    "result": []
  },
  {
    "postal": "L5B6H1",
    "result": []
  },
  {
    "postal": "L5B8T8",
    "result": []
  },
  {
    "postal": "L5B0T4",
    "result": []
  },
  {
    "postal": "L5B2C4",
    "result": [
      {
        "electoralDistricts": [
          {
            "election": null,
            "id": 60,
            "name": "Mississauga Centre"
          }
        ],
        "pollDivisionIds": [
          10135089
        ],
        "postalCode": "L5B2C4",
        "streetName": "BURNHAMTHORPE",
        "streetDirectionId": "W",
        "streetTypeId": "RD",
        "placeName": "MISSISSAUGA",
        "streetNameDisplayText": "BURNHAMTHORPE RD W, MISSISSAUGA"
      }
    ]
  },
  {
    "postal": "L5B8N3",
    "result": []
  },
  {
    "postal": "L5B4L8",
    "result": [
      {
        "electoralDistricts": [
          {
            "election": null,
            "id": 60,
            "name": "Mississauga Centre"
          }
        ],
        "pollDivisionIds": [
          10135150
        ],
        "postalCode": "L5B4L8",
        "streetName": "ENFIELD",
        "streetDirectionId": null,
        "streetTypeId": "PL",
        "placeName": "MISSISSAUGA",
        "streetNameDisplayText": "ENFIELD PL, MISSISSAUGA"
      }
    ]
  },
  {
    "postal": "L5B2B5",
    "result": [
      {
        "electoralDistricts": [
          {
            "election": null,
            "id": 61,
            "name": "Mississauga East—Cooksville"
          }
        ],
        "pollDivisionIds": [
          10135454
        ],
        "postalCode": "L5B2B5",
        "streetName": "WHALEY",
        "streetDirectionId": null,
        "streetTypeId": "DR",
        "placeName": "MISSISSAUGA",
        "streetNameDisplayText": "WHALEY DR, MISSISSAUGA"
      }
    ]
  },
  {
    "postal": "L5B3H1",
    "result": [
      {
        "electoralDistricts": [
          {
            "election": null,
            "id": 61,
            "name": "Mississauga East—Cooksville"
          }
        ],
        "pollDivisionIds": [
          10135452
        ],
        "postalCode": "L5B3H1",
        "streetName": "LECH WALESA",
        "streetDirectionId": null,
        "streetTypeId": "DR",
        "placeName": "MISSISSAUGA",
        "streetNameDisplayText": "LECH WALESA DR, MISSISSAUGA"
      }
    ]
  },
  {
    "postal": "L5B4Y1",
    "result": []
  },
  {
    "postal": "L5B7E2",
    "result": []
  },
  {
    "postal": "L5B2P5",
    "result": []
  },
  {
    "postal": "L5B8R7",
    "result": []
  },
  {
    "postal": "L5B9P1",
    "result": []
  },
  {
    "postal": "L5B3B8",
    "result": []
  },
  {
    "postal": "L5B3P7",
    "result": [
      {
        "electoralDistricts": [
          {
            "election": null,
            "id": 60,
            "name": "Mississauga Centre"
          }
        ],
        "pollDivisionIds": [
          10143796
        ],
        "postalCode": "L5B3P7",
        "streetName": "GREENPARK",
        "streetDirectionId": null,
        "streetTypeId": "CRES",
        "placeName": "MISSISSAUGA",
        "streetNameDisplayText": "GREENPARK CRES, MISSISSAUGA"
      },
      {
        "electoralDistricts": [
          {
            "election": null,
            "id": 60,
            "name": "Mississauga Centre"
          }
        ],
        "pollDivisionIds": [
          10143796
        ],
        "postalCode": "L5B3P7",
        "streetName": "HAZINEH",
        "streetDirectionId": null,
        "streetTypeId": "CRT",
        "placeName": "MISSISSAUGA",
        "streetNameDisplayText": "HAZINEH CRT, MISSISSAUGA"
      }
    ]
  },
  {
    "postal": "L5B9B2",
    "result": []
  },
  {
    "postal": "L5B6Z3",
    "result": []
  },
  {
    "postal": "L5B4N5",
    "result": [
      {
        "electoralDistricts": [
          {
            "election": null,
            "id": 61,
            "name": "Mississauga East—Cooksville"
          }
        ],
        "pollDivisionIds": [
          10135453
        ],
        "postalCode": "L5B4N5",
        "streetName": "BREAKWATER",
        "streetDirectionId": null,
        "streetTypeId": "CRT",
        "placeName": "MISSISSAUGA",
        "streetNameDisplayText": "BREAKWATER CRT, MISSISSAUGA"
      },
      {
        "electoralDistricts": [
          {
            "election": null,
            "id": 60,
            "name": "Mississauga Centre"
          }
        ],
        "pollDivisionIds": [
          10135104
        ],
        "postalCode": "L5B4N5",
        "streetName": "BREAKWATER CRT.",
        "streetDirectionId": null,
        "streetTypeId": null,
        "placeName": "MISSISSAUGA",
        "streetNameDisplayText": "BREAKWATER CRT., MISSISSAUGA"
      }
    ]
  },
  {
    "postal": "L5B8T3",
    "result": []
  },
  {
    "postal": "L5B1V2",
    "result": [
      {
        "electoralDistricts": [
          {
            "election": null,
            "id": 61,
            "name": "Mississauga East—Cooksville"
          }
        ],
        "pollDivisionIds": [
          10143912
        ],
        "postalCode": "L5B1V2",
        "streetName": "ARGYLE",
        "streetDirectionId": null,
        "streetTypeId": "RD",
        "placeName": "MISSISSAUGA",
        "streetNameDisplayText": "ARGYLE RD, MISSISSAUGA"
      }
    ]
  },
  {
    "postal": "L5B1Y0",
    "result": []
  },
  {
    "postal": "L5B3G6",
    "result": [
      {
        "electoralDistricts": [
          {
            "election": null,
            "id": 61,
            "name": "Mississauga East—Cooksville"
          }
        ],
        "pollDivisionIds": [
          10135452
        ],
        "postalCode": "L5B3G6",
        "streetName": "DRAGON",
        "streetDirectionId": null,
        "streetTypeId": "DR",
        "placeName": "MISSISSAUGA",
        "streetNameDisplayText": "DRAGON DR, MISSISSAUGA"
      }
    ]
  },
  {
    "postal": "L5B3H7",
    "result": [
      {
        "electoralDistricts": [
          {
            "election": null,
            "id": 61,
            "name": "Mississauga East—Cooksville"
          }
        ],
        "pollDivisionIds": [
          10135452
        ],
        "postalCode": "L5B3H7",
        "streetName": "LECH WALESA",
        "streetDirectionId": null,
        "streetTypeId": "DR",
        "placeName": "MISSISSAUGA",
        "streetNameDisplayText": "LECH WALESA DR, MISSISSAUGA"
      }
    ]
  },
  {
    "postal": "L5B7X8",
    "result": []
  },
  {
    "postal": "L5B0C7",
    "result": [
      {
        "electoralDistricts": [
          {
            "election": null,
            "id": 60,
            "name": "Mississauga Centre"
          }
        ],
        "pollDivisionIds": [
          10143796
        ],
        "postalCode": "L5B0C7",
        "streetName": "PRINCE OF WALES",
        "streetDirectionId": null,
        "streetTypeId": "DR",
        "placeName": "MISSISSAUGA",
        "streetNameDisplayText": "PRINCE OF WALES DR, MISSISSAUGA"
      }
    ]
  },
  {
    "postal": "L5B0W9",
    "result": []
  },
  {
    "postal": "L5B8E6",
    "result": []
  },
  {
    "postal": "L5B9Z8",
    "result": []
  },
  {
    "postal": "L5B3P4",
    "result": [
      {
        "electoralDistricts": [
          {
            "election": null,
            "id": 60,
            "name": "Mississauga Centre"
          }
        ],
        "pollDivisionIds": [
          10143796
        ],
        "postalCode": "L5B3P4",
        "streetName": "ELORA",
        "streetDirectionId": null,
        "streetTypeId": "DR",
        "placeName": "MISSISSAUGA",
        "streetNameDisplayText": "ELORA DR, MISSISSAUGA"
      },
      {
        "electoralDistricts": [
          {
            "election": null,
            "id": 60,
            "name": "Mississauga Centre"
          }
        ],
        "pollDivisionIds": [
          10143796
        ],
        "postalCode": "L5B3P4",
        "streetName": "GREENPARK",
        "streetDirectionId": null,
        "streetTypeId": "CRES",
        "placeName": "MISSISSAUGA",
        "streetNameDisplayText": "GREENPARK CRES, MISSISSAUGA"
      }
    ]
  },
  {
    "postal": "L5B6L8",
    "result": []
  },
  {
    "postal": "L5B2R4",
    "result": [
      {
        "electoralDistricts": [
          {
            "election": null,
            "id": 61,
            "name": "Mississauga East—Cooksville"
          }
        ],
        "pollDivisionIds": [
          10135455
        ],
        "postalCode": "L5B2R4",
        "streetName": "CHILSWORTHY",
        "streetDirectionId": null,
        "streetTypeId": "AVE",
        "placeName": "MISSISSAUGA",
        "streetNameDisplayText": "CHILSWORTHY AVE, MISSISSAUGA"
      }
    ]
  },
  {
    "postal": "L5B2W1",
    "result": [
      {
        "electoralDistricts": [
          {
            "election": null,
            "id": 60,
            "name": "Mississauga Centre"
          }
        ],
        "pollDivisionIds": [
          10143796
        ],
        "postalCode": "L5B2W1",
        "streetName": "PAVILLION",
        "streetDirectionId": null,
        "streetTypeId": "CRT",
        "placeName": "MISSISSAUGA",
        "streetNameDisplayText": "PAVILLION CRT, MISSISSAUGA"
      }
    ]
  },
  {
    "postal": "L5B9H8",
    "result": []
  },
  {
    "postal": "L5B8X9",
    "result": []
  },
  {
    "postal": "L5B7H4",
    "result": []
  },
  {
    "postal": "L5B3J1",
    "result": [
      {
        "electoralDistricts": [
          {
            "election": null,
            "id": 60,
            "name": "Mississauga Centre"
          }
        ],
        "pollDivisionIds": [
          10135089
        ],
        "postalCode": "L5B3J1",
        "streetName": "BURNHAMTHORPE",
        "streetDirectionId": "W",
        "streetTypeId": "RD",
        "placeName": "MISSISSAUGA",
        "streetNameDisplayText": "BURNHAMTHORPE RD W, MISSISSAUGA"
      }
    ]
  },
  {
    "postal": "L5B1P4",
    "result": [
      {
        "electoralDistricts": [
          {
            "election": null,
            "id": 63,
            "name": "Mississauga—Lakeshore"
          }
        ],
        "pollDivisionIds": [
          10139754
        ],
        "postalCode": "L5B1P4",
        "streetName": "GRANGE",
        "streetDirectionId": null,
        "streetTypeId": "DR",
        "placeName": "MISSISSAUGA",
        "streetNameDisplayText": "GRANGE DR, MISSISSAUGA"
      }
    ]
  },
  {
    "postal": "L5B2A3",
    "result": [
      {
        "electoralDistricts": [
          {
            "election": null,
            "id": 61,
            "name": "Mississauga East—Cooksville"
          }
        ],
        "pollDivisionIds": [
          10135454
        ],
        "postalCode": "L5B2A3",
        "streetName": "LOUIS",
        "streetDirectionId": null,
        "streetTypeId": "DR",
        "placeName": "MISSISSAUGA",
        "streetNameDisplayText": "LOUIS DR, MISSISSAUGA"
      }
    ]
  },
  {
    "postal": "L5B0Z1",
    "result": []
  },
  {
    "postal": "L5B1C1",
    "result": []
  },
  {
    "postal": "L5B0H3",
    "result": []
  },
  {
    "postal": "L5B7B0",
    "result": []
  },
  {
    "postal": "L5B5K2",
    "result": []
  },
  {
    "postal": "L5B1E9",
    "result": [
      {
        "electoralDistricts": [
          {
            "election": null,
            "id": 61,
            "name": "Mississauga East—Cooksville"
          }
        ],
        "pollDivisionIds": [
          10143912
        ],
        "postalCode": "L5B1E9",
        "streetName": "FLORADALE",
        "streetDirectionId": null,
        "streetTypeId": "DR",
        "placeName": "MISSISSAUGA",
        "streetNameDisplayText": "FLORADALE DR, MISSISSAUGA"
      }
    ]
  },
  {
    "postal": "L5B9W7",
    "result": []
  },
  {
    "postal": "L5B5W6",
    "result": []
  },
  {
    "postal": "L5B6S6",
    "result": []
  },
  {
    "postal": "L5B2P8",
    "result": [
      {
        "electoralDistricts": [
          {
            "election": null,
            "id": 63,
            "name": "Mississauga—Lakeshore"
          }
        ],
        "pollDivisionIds": [
          10139756
        ],
        "postalCode": "L5B2P8",
        "streetName": "CULVER",
        "streetDirectionId": null,
        "streetTypeId": "WAY",
        "placeName": "MISSISSAUGA",
        "streetNameDisplayText": "CULVER WAY, MISSISSAUGA"
      }
    ]
  },
  {
    "postal": "L5B4P8",
    "result": [
      {
        "electoralDistricts": [
          {
            "election": null,
            "id": 60,
            "name": "Mississauga Centre"
          }
        ],
        "pollDivisionIds": [
          10135140
        ],
        "postalCode": "L5B4P8",
        "streetName": "CITY CENTRE",
        "streetDirectionId": null,
        "streetTypeId": "DR",
        "placeName": "MISSISSAUGA",
        "streetNameDisplayText": "CITY CENTRE DR, MISSISSAUGA"
      }
    ]
  },
  {
    "postal": "L5B0V9",
    "result": []
  },
  {
    "postal": "L5B5Y2",
    "result": []
  },
  {
    "postal": "L5B7Z7",
    "result": []
  },
  {
    "postal": "L5B6Y8",
    "result": []
  },
  {
    "postal": "L5B2G7",
    "result": []
  },
  {
    "postal": "L5B8C1",
    "result": []
  },
  {
    "postal": "L5B5C5",
    "result": []
  },
  {
    "postal": "L5B2X8",
    "result": [
      {
        "electoralDistricts": [
          {
            "election": null,
            "id": 60,
            "name": "Mississauga Centre"
          }
        ],
        "pollDivisionIds": [
          10143796
        ],
        "postalCode": "L5B2X8",
        "streetName": "TEA GARDEN",
        "streetDirectionId": null,
        "streetTypeId": "CIR",
        "placeName": "MISSISSAUGA",
        "streetNameDisplayText": "TEA GARDEN CIR, MISSISSAUGA"
      }
    ]
  },
  {
    "postal": "L5B1W5",
    "result": [
      {
        "electoralDistricts": [
          {
            "election": null,
            "id": 61,
            "name": "Mississauga East—Cooksville"
          }
        ],
        "pollDivisionIds": [
          10135451,
          10135454
        ],
        "postalCode": "L5B1W5",
        "streetName": "GOODISON",
        "streetDirectionId": null,
        "streetTypeId": "AVE",
        "placeName": "MISSISSAUGA",
        "streetNameDisplayText": "GOODISON AVE, MISSISSAUGA"
      }
    ]
  },
  {
    "postal": "L5B7G0",
    "result": []
  },
  {
    "postal": "L5B8J8",
    "result": []
  },
  {
    "postal": "L5B3Y0",
    "result": []
  },
  {
    "postal": "L5B9T7",
    "result": []
  },
  {
    "postal": "L5B5P4",
    "result": []
  },
  {
    "postal": "L5B4B0",
    "result": []
  },
  {
    "postal": "L5B9N8",
    "result": []
  },
  {
    "postal": "L5B4A7",
    "result": []
  },
  {
    "postal": "L5B4H9",
    "result": [
      {
        "electoralDistricts": [
          {
            "election": null,
            "id": 61,
            "name": "Mississauga East—Cooksville"
          }
        ],
        "pollDivisionIds": [
          10135453
        ],
        "postalCode": "L5B4H9",
        "streetName": "CLAYMEADOW",
        "streetDirectionId": null,
        "streetTypeId": "AVE",
        "placeName": "MISSISSAUGA",
        "streetNameDisplayText": "CLAYMEADOW AVE, MISSISSAUGA"
      }
    ]
  },
  {
    "postal": "L5B6X1",
    "result": []
  },
  {
    "postal": "L5B9Y7",
    "result": []
  },
  {
    "postal": "L5B2Y5",
    "result": [
      {
        "electoralDistricts": [
          {
            "election": null,
            "id": 60,
            "name": "Mississauga Centre"
          }
        ],
        "pollDivisionIds": [
          10143796
        ],
        "postalCode": "L5B2Y5",
        "streetName": "MARIPOSE",
        "streetDirectionId": null,
        "streetTypeId": "LANE",
        "placeName": "MISSISSAUGA",
        "streetNameDisplayText": "MARIPOSE LANE, MISSISSAUGA"
      }
    ]
  },
  {
    "postal": "L5B8L7",
    "result": []
  },
  {
    "postal": "L5B2A8",
    "result": [
      {
        "electoralDistricts": [
          {
            "election": null,
            "id": 61,
            "name": "Mississauga East—Cooksville"
          }
        ],
        "pollDivisionIds": [
          10135454
        ],
        "postalCode": "L5B2A8",
        "streetName": "STILLMEADOW",
        "streetDirectionId": null,
        "streetTypeId": "RD",
        "placeName": "MISSISSAUGA",
        "streetNameDisplayText": "STILLMEADOW RD, MISSISSAUGA"
      }
    ]
  },
  {
    "postal": "L5B2K9",
    "result": [
      {
        "electoralDistricts": [
          {
            "election": null,
            "id": 61,
            "name": "Mississauga East—Cooksville"
          }
        ],
        "pollDivisionIds": [
          10135455
        ],
        "postalCode": "L5B2K9",
        "streetName": "KINGSBERRY",
        "streetDirectionId": null,
        "streetTypeId": "CRES",
        "placeName": "MISSISSAUGA",
        "streetNameDisplayText": "KINGSBERRY CRES, MISSISSAUGA"
      }
    ]
  },
  {
    "postal": "L5B3E5",
    "result": [
      {
        "electoralDistricts": [
          {
            "election": null,
            "id": 61,
            "name": "Mississauga East—Cooksville"
          }
        ],
        "pollDivisionIds": [
          10143912
        ],
        "postalCode": "L5B3E5",
        "streetName": "CONSULATE",
        "streetDirectionId": null,
        "streetTypeId": "RD",
        "placeName": "MISSISSAUGA",
        "streetNameDisplayText": "CONSULATE RD, MISSISSAUGA"
      }
    ]
  },
  {
    "postal": "L5B8N6",
    "result": []
  },
  {
    "postal": "L5B8J4",
    "result": []
  },
  {
    "postal": "L5B4R7",
    "result": []
  },
  {
    "postal": "L5B9K1",
    "result": []
  },
  {
    "postal": "L5B8E1",
    "result": []
  },
  {
    "postal": "L5B0R1",
    "result": []
  },
  {
    "postal": "L5B4J3",
    "result": [
      {
        "electoralDistricts": [
          {
            "election": null,
            "id": 61,
            "name": "Mississauga East—Cooksville"
          }
        ],
        "pollDivisionIds": [
          10135453
        ],
        "postalCode": "L5B4J3",
        "streetName": "CLAYHILL",
        "streetDirectionId": null,
        "streetTypeId": "RD",
        "placeName": "MISSISSAUGA",
        "streetNameDisplayText": "CLAYHILL RD, MISSISSAUGA"
      },
      {
        "electoralDistricts": [
          {
            "election": null,
            "id": 61,
            "name": "Mississauga East—Cooksville"
          }
        ],
        "pollDivisionIds": [
          10135453
        ],
        "postalCode": "L5B4J3",
        "streetName": "COTTAGERS GREEN",
        "streetDirectionId": null,
        "streetTypeId": "DR",
        "placeName": "MISSISSAUGA",
        "streetNameDisplayText": "COTTAGERS GREEN DR, MISSISSAUGA"
      },
      {
        "electoralDistricts": [
          {
            "election": null,
            "id": 61,
            "name": "Mississauga East—Cooksville"
          }
        ],
        "pollDivisionIds": [
          10135453
        ],
        "postalCode": "L5B4J3",
        "streetName": "HILLCREST",
        "streetDirectionId": null,
        "streetTypeId": "AVE",
        "placeName": "MISSISSAUGA",
        "streetNameDisplayText": "HILLCREST AVE, MISSISSAUGA"
      }
    ]
  },
  {
    "postal": "L5B7E7",
    "result": []
  },
  {
    "postal": "L5B0J0",
    "result": []
  },
  {
    "postal": "L5B7R8",
    "result": []
  },
  {
    "postal": "L5B9X0",
    "result": []
  },
  {
    "postal": "L5B7P6",
    "result": []
  },
  {
    "postal": "L5B0R7",
    "result": []
  },
  {
    "postal": "L5B5W1",
    "result": []
  },
  {
    "postal": "L5B0K4",
    "result": [
      {
        "electoralDistricts": [
          {
            "election": null,
            "id": 60,
            "name": "Mississauga Centre"
          }
        ],
        "pollDivisionIds": [
          10135174
        ],
        "postalCode": "L5B0K4",
        "streetName": "GRAND PARK",
        "streetDirectionId": null,
        "streetTypeId": "DR",
        "placeName": "MISSISSAUGA",
        "streetNameDisplayText": "GRAND PARK DR, MISSISSAUGA"
      }
    ]
  },
  {
    "postal": "L5B7N9",
    "result": []
  },
  {
    "postal": "L5B1N0",
    "result": []
  },
  {
    "postal": "L5B6P3",
    "result": []
  },
  {
    "postal": "L5B5A1",
    "result": []
  },
  {
    "postal": "L5B9M9",
    "result": []
  },
  {
    "postal": "L5B7T6",
    "result": []
  },
  {
    "postal": "L5B3X0",
    "result": []
  },
  {
    "postal": "L5B2T0",
    "result": []
  },
  {
    "postal": "L5B5X9",
    "result": []
  },
  {
    "postal": "L5B2R3",
    "result": [
      {
        "electoralDistricts": [
          {
            "election": null,
            "id": 61,
            "name": "Mississauga East—Cooksville"
          }
        ],
        "pollDivisionIds": [
          10135455
        ],
        "postalCode": "L5B2R3",
        "streetName": "CHILSWORTHY",
        "streetDirectionId": null,
        "streetTypeId": "AVE",
        "placeName": "MISSISSAUGA",
        "streetNameDisplayText": "CHILSWORTHY AVE, MISSISSAUGA"
      }
    ]
  },
  {
    "postal": "L5B5N2",
    "result": []
  },
  {
    "postal": "L5B4Y7",
    "result": []
  },
  {
    "postal": "L5B7M0",
    "result": []
  },
  {
    "postal": "L5B8P3",
    "result": []
  },
  {
    "postal": "L5B3N3",
    "result": [
      {
        "electoralDistricts": [
          {
            "election": null,
            "id": 60,
            "name": "Mississauga Centre"
          }
        ],
        "pollDivisionIds": [
          10143796
        ],
        "postalCode": "L5B3N3",
        "streetName": "PARKVIEW",
        "streetDirectionId": null,
        "streetTypeId": "BLVD",
        "placeName": "MISSISSAUGA",
        "streetNameDisplayText": "PARKVIEW BLVD, MISSISSAUGA"
      },
      {
        "electoralDistricts": [
          {
            "election": null,
            "id": 60,
            "name": "Mississauga Centre"
          }
        ],
        "pollDivisionIds": [
          10143796
        ],
        "postalCode": "L5B3N3",
        "streetName": "WALLENBERG",
        "streetDirectionId": null,
        "streetTypeId": "CRES",
        "placeName": "MISSISSAUGA",
        "streetNameDisplayText": "WALLENBERG CRES, MISSISSAUGA"
      }
    ]
  },
  {
    "postal": "L5B7S3",
    "result": []
  },
  {
    "postal": "L5B3V9",
    "result": [
      {
        "electoralDistricts": [
          {
            "election": null,
            "id": 60,
            "name": "Mississauga Centre"
          }
        ],
        "pollDivisionIds": [
          10135089
        ],
        "postalCode": "L5B3V9",
        "streetName": "COMMONWEALTH",
        "streetDirectionId": null,
        "streetTypeId": "CIR",
        "placeName": "MISSISSAUGA",
        "streetNameDisplayText": "COMMONWEALTH CIR, MISSISSAUGA"
      },
      {
        "electoralDistricts": [
          {
            "election": null,
            "id": 61,
            "name": "Mississauga East—Cooksville"
          }
        ],
        "pollDivisionIds": [
          10135454
        ],
        "postalCode": "L5B3V9",
        "streetName": "CRYSTALBURN",
        "streetDirectionId": null,
        "streetTypeId": "AVE",
        "placeName": "MISSISSAUGA",
        "streetNameDisplayText": "CRYSTALBURN AVE, MISSISSAUGA"
      }
    ]
  },
  {
    "postal": "L5B9N7",
    "result": []
  },
  {
    "postal": "L5B0G4",
    "result": [
      {
        "electoralDistricts": [
          {
            "election": null,
            "id": 60,
            "name": "Mississauga Centre"
          }
        ],
        "pollDivisionIds": [
          10135161
        ],
        "postalCode": "L5B0G4",
        "streetName": "CONFEDERATION",
        "streetDirectionId": null,
        "streetTypeId": "PKY",
        "placeName": "MISSISSAUGA",
        "streetNameDisplayText": "CONFEDERATION PKY, MISSISSAUGA"
      }
    ]
  },
  {
    "postal": "L5B2E2",
    "result": [
      {
        "electoralDistricts": [
          {
            "election": null,
            "id": 61,
            "name": "Mississauga East—Cooksville"
          }
        ],
        "pollDivisionIds": [
          10135449
        ],
        "postalCode": "L5B2E2",
        "streetName": "SURBRAY",
        "streetDirectionId": null,
        "streetTypeId": "GROVE",
        "placeName": "MISSISSAUGA",
        "streetNameDisplayText": "SURBRAY GROVE, MISSISSAUGA"
      }
    ]
  },
  {
    "postal": "L5B7W8",
    "result": []
  },
  {
    "postal": "L5B7M5",
    "result": []
  },
  {
    "postal": "L5B5W8",
    "result": []
  },
  {
    "postal": "L5B5E5",
    "result": []
  },
  {
    "postal": "L5B1P9",
    "result": []
  },
  {
    "postal": "L5B8V8",
    "result": []
  },
  {
    "postal": "L5B9G8",
    "result": []
  },
  {
    "postal": "L5B8H9",
    "result": []
  },
  {
    "postal": "L5B1Z1",
    "result": [
      {
        "electoralDistricts": [
          {
            "election": null,
            "id": 61,
            "name": "Mississauga East—Cooksville"
          }
        ],
        "pollDivisionIds": [
          10135451
        ],
        "postalCode": "L5B1Z1",
        "streetName": "LOUIS",
        "streetDirectionId": null,
        "streetTypeId": "DR",
        "placeName": "MISSISSAUGA",
        "streetNameDisplayText": "LOUIS DR, MISSISSAUGA"
      }
    ]
  },
  {
    "postal": "L5B8M3",
    "result": []
  },
  {
    "postal": "L5B5H6",
    "result": []
  },
  {
    "postal": "L5B7W7",
    "result": []
  },
  {
    "postal": "L5B4L0",
    "result": []
  },
  {
    "postal": "L5B2N1",
    "result": [
      {
        "electoralDistricts": [
          {
            "election": null,
            "id": 61,
            "name": "Mississauga East—Cooksville"
          }
        ],
        "pollDivisionIds": [
          10135455
        ],
        "postalCode": "L5B2N1",
        "streetName": "LOUIS",
        "streetDirectionId": null,
        "streetTypeId": "DR",
        "placeName": "MISSISSAUGA",
        "streetNameDisplayText": "LOUIS DR, MISSISSAUGA"
      }
    ]
  },
  {
    "postal": "L5B2H4",
    "result": [
      {
        "electoralDistricts": [
          {
            "election": null,
            "id": 61,
            "name": "Mississauga East—Cooksville"
          }
        ],
        "pollDivisionIds": [
          10143912
        ],
        "postalCode": "L5B2H4",
        "streetName": "AGNES",
        "streetDirectionId": null,
        "streetTypeId": "ST",
        "placeName": "MISSISSAUGA",
        "streetNameDisplayText": "AGNES ST, MISSISSAUGA"
      }
    ]
  },
  {
    "postal": "L5B5C8",
    "result": []
  },
  {
    "postal": "L5B8B0",
    "result": []
  },
  {
    "postal": "L5B1T4",
    "result": [
      {
        "electoralDistricts": [
          {
            "election": null,
            "id": 61,
            "name": "Mississauga East—Cooksville"
          }
        ],
        "pollDivisionIds": [
          10135449
        ],
        "postalCode": "L5B1T4",
        "streetName": "JOAN",
        "streetDirectionId": null,
        "streetTypeId": "DR",
        "placeName": "MISSISSAUGA",
        "streetNameDisplayText": "JOAN DR, MISSISSAUGA"
      }
    ]
  },
  {
    "postal": "L5B7N7",
    "result": []
  },
  {
    "postal": "L5B4L3",
    "result": [
      {
        "electoralDistricts": [
          {
            "election": null,
            "id": 61,
            "name": "Mississauga East—Cooksville"
          }
        ],
        "pollDivisionIds": [
          10135453
        ],
        "postalCode": "L5B4L3",
        "streetName": "HILLCREST",
        "streetDirectionId": null,
        "streetTypeId": "AVE",
        "placeName": "MISSISSAUGA",
        "streetNameDisplayText": "HILLCREST AVE, MISSISSAUGA"
      }
    ]
  },
  {
    "postal": "L5B2N2",
    "result": [
      {
        "electoralDistricts": [
          {
            "election": null,
            "id": 61,
            "name": "Mississauga East—Cooksville"
          }
        ],
        "pollDivisionIds": [
          10135455
        ],
        "postalCode": "L5B2N2",
        "streetName": "LOUIS",
        "streetDirectionId": null,
        "streetTypeId": "DR",
        "placeName": "MISSISSAUGA",
        "streetNameDisplayText": "LOUIS DR, MISSISSAUGA"
      }
    ]
  },
  {
    "postal": "L5B4N8",
    "result": [
      {
        "electoralDistricts": [
          {
            "election": null,
            "id": 61,
            "name": "Mississauga East—Cooksville"
          }
        ],
        "pollDivisionIds": [
          10135453
        ],
        "postalCode": "L5B4N8",
        "streetName": "BREAKWATER",
        "streetDirectionId": null,
        "streetTypeId": "CRT",
        "placeName": "MISSISSAUGA",
        "streetNameDisplayText": "BREAKWATER CRT, MISSISSAUGA"
      }
    ]
  },
  {
    "postal": "L5B3M5",
    "result": [
      {
        "electoralDistricts": [
          {
            "election": null,
            "id": 60,
            "name": "Mississauga Centre"
          }
        ],
        "pollDivisionIds": [
          10143796
        ],
        "postalCode": "L5B3M5",
        "streetName": "TURNBRIDGE",
        "streetDirectionId": null,
        "streetTypeId": "RD",
        "placeName": "MISSISSAUGA",
        "streetNameDisplayText": "TURNBRIDGE RD, MISSISSAUGA"
      },
      {
        "electoralDistricts": [
          {
            "election": null,
            "id": 60,
            "name": "Mississauga Centre"
          }
        ],
        "pollDivisionIds": [
          10143796
        ],
        "postalCode": "L5B3M5",
        "streetName": "WALLENBERG",
        "streetDirectionId": null,
        "streetTypeId": "CRES",
        "placeName": "MISSISSAUGA",
        "streetNameDisplayText": "WALLENBERG CRES, MISSISSAUGA"
      }
    ]
  },
  {
    "postal": "L5B6H7",
    "result": []
  },
  {
    "postal": "L5B8Y8",
    "result": []
  },
  {
    "postal": "L5B5R9",
    "result": []
  },
  {
    "postal": "L5B8G3",
    "result": []
  },
  {
    "postal": "L5B4N7",
    "result": [
      {
        "electoralDistricts": [
          {
            "election": null,
            "id": 61,
            "name": "Mississauga East—Cooksville"
          }
        ],
        "pollDivisionIds": [
          10135453
        ],
        "postalCode": "L5B4N7",
        "streetName": "BREAKWATER",
        "streetDirectionId": null,
        "streetTypeId": "CRT",
        "placeName": "MISSISSAUGA",
        "streetNameDisplayText": "BREAKWATER CRT, MISSISSAUGA"
      }
    ]
  },
  {
    "postal": "L5B0B9",
    "result": [
      {
        "electoralDistricts": [
          {
            "election": null,
            "id": 60,
            "name": "Mississauga Centre"
          }
        ],
        "pollDivisionIds": [
          10135156
        ],
        "postalCode": "L5B0B9",
        "streetName": "HURONTARIO",
        "streetDirectionId": null,
        "streetTypeId": "ST",
        "placeName": "MISSISSAUGA",
        "streetNameDisplayText": "HURONTARIO ST, MISSISSAUGA"
      }
    ]
  },
  {
    "postal": "L5B9K7",
    "result": []
  },
  {
    "postal": "L5B9K9",
    "result": []
  },
  {
    "postal": "L5B3Z2",
    "result": [
      {
        "electoralDistricts": [
          {
            "election": null,
            "id": 61,
            "name": "Mississauga East—Cooksville"
          },
          {
            "election": null,
            "id": 60,
            "name": "Mississauga Centre"
          }
        ],
        "pollDivisionIds": [
          10135471,
          10135091
        ],
        "postalCode": "L5B3Z2",
        "streetName": "HILLCREST",
        "streetDirectionId": null,
        "streetTypeId": "AVE",
        "placeName": "MISSISSAUGA",
        "streetNameDisplayText": "HILLCREST AVE, MISSISSAUGA"
      }
    ]
  },
  {
    "postal": "L5B6W7",
    "result": []
  },
  {
    "postal": "L5B0P1",
    "result": []
  },
  {
    "postal": "L5B3A0",
    "result": []
  },
  {
    "postal": "L5B8L9",
    "result": []
  },
  {
    "postal": "L5B6X0",
    "result": []
  },
  {
    "postal": "L5B3E9",
    "result": [
      {
        "electoralDistricts": [
          {
            "election": null,
            "id": 61,
            "name": "Mississauga East—Cooksville"
          }
        ],
        "pollDivisionIds": [
          10135449
        ],
        "postalCode": "L5B3E9",
        "streetName": "FAIRVIEW",
        "streetDirectionId": "W",
        "streetTypeId": "RD",
        "placeName": "MISSISSAUGA",
        "streetNameDisplayText": "FAIRVIEW RD W, MISSISSAUGA"
      }
    ]
  },
  {
    "postal": "L5B0S5",
    "result": []
  },
  {
    "postal": "L5B1A2",
    "result": [
      {
        "electoralDistricts": [
          {
            "election": null,
            "id": 63,
            "name": "Mississauga—Lakeshore"
          }
        ],
        "pollDivisionIds": [
          10139754
        ],
        "postalCode": "L5B1A2",
        "streetName": "PREMIUM",
        "streetDirectionId": null,
        "streetTypeId": "WAY",
        "placeName": "MISSISSAUGA",
        "streetNameDisplayText": "PREMIUM WAY, MISSISSAUGA"
      }
    ]
  },
  {
    "postal": "L5B5V8",
    "result": []
  },
  {
    "postal": "L5B8C5",
    "result": []
  },
  {
    "postal": "L5B6N0",
    "result": []
  },
  {
    "postal": "L5B9E6",
    "result": []
  },
  {
    "postal": "L5B5J7",
    "result": []
  },
  {
    "postal": "L5B2R2",
    "result": [
      {
        "electoralDistricts": [
          {
            "election": null,
            "id": 61,
            "name": "Mississauga East—Cooksville"
          }
        ],
        "pollDivisionIds": [
          10135455
        ],
        "postalCode": "L5B2R2",
        "streetName": "CHILSWORTHY",
        "streetDirectionId": null,
        "streetTypeId": "AVE",
        "placeName": "MISSISSAUGA",
        "streetNameDisplayText": "CHILSWORTHY AVE, MISSISSAUGA"
      }
    ]
  },
  {
    "postal": "L5B0P5",
    "result": []
  },
  {
    "postal": "L5B5A7",
    "result": []
  },
  {
    "postal": "L5B1G1",
    "result": [
      {
        "electoralDistricts": [
          {
            "election": null,
            "id": 61,
            "name": "Mississauga East—Cooksville"
          }
        ],
        "pollDivisionIds": [
          10143912
        ],
        "postalCode": "L5B1G1",
        "streetName": "FLORADALE",
        "streetDirectionId": null,
        "streetTypeId": "DR",
        "placeName": "MISSISSAUGA",
        "streetNameDisplayText": "FLORADALE DR, MISSISSAUGA"
      }
    ]
  },
  {
    "postal": "L5B9R6",
    "result": []
  },
  {
    "postal": "L5B4Z9",
    "result": []
  },
  {
    "postal": "L5B1V5",
    "result": [
      {
        "electoralDistricts": [
          {
            "election": null,
            "id": 61,
            "name": "Mississauga East—Cooksville"
          }
        ],
        "pollDivisionIds": [
          10135453
        ],
        "postalCode": "L5B1V5",
        "streetName": "PARKERHILL",
        "streetDirectionId": null,
        "streetTypeId": "RD",
        "placeName": "MISSISSAUGA",
        "streetNameDisplayText": "PARKERHILL RD, MISSISSAUGA"
      }
    ]
  },
  {
    "postal": "L5B9Y5",
    "result": []
  },
  {
    "postal": "L5B1P2",
    "result": [
      {
        "electoralDistricts": [
          {
            "election": null,
            "id": 60,
            "name": "Mississauga Centre"
          }
        ],
        "pollDivisionIds": [
          10135089
        ],
        "postalCode": "L5B1P2",
        "streetName": "HURONTARIO",
        "streetDirectionId": null,
        "streetTypeId": "ST",
        "placeName": "MISSISSAUGA",
        "streetNameDisplayText": "HURONTARIO ST, MISSISSAUGA"
      }
    ]
  },
  {
    "postal": "L5B5X0",
    "result": []
  },
  {
    "postal": "L5B7B8",
    "result": []
  },
  {
    "postal": "L5B0C6",
    "result": [
      {
        "electoralDistricts": [
          {
            "election": null,
            "id": 60,
            "name": "Mississauga Centre"
          }
        ],
        "pollDivisionIds": [
          10143796
        ],
        "postalCode": "L5B0C6",
        "streetName": "PRINCE OF WALES",
        "streetDirectionId": null,
        "streetTypeId": "DR",
        "placeName": "MISSISSAUGA",
        "streetNameDisplayText": "PRINCE OF WALES DR, MISSISSAUGA"
      }
    ]
  },
  {
    "postal": "L5B6G1",
    "result": []
  },
  {
    "postal": "L5B3K3",
    "result": [
      {
        "electoralDistricts": [
          {
            "election": null,
            "id": 60,
            "name": "Mississauga Centre"
          }
        ],
        "pollDivisionIds": [
          10135089
        ],
        "postalCode": "L5B3K3",
        "streetName": "RIEL",
        "streetDirectionId": null,
        "streetTypeId": "DR",
        "placeName": "MISSISSAUGA",
        "streetNameDisplayText": "RIEL DR, MISSISSAUGA"
      }
    ]
  },
  {
    "postal": "L5B9R0",
    "result": []
  },
  {
    "postal": "L5B4R8",
    "result": []
  },
  {
    "postal": "L5B5P9",
    "result": []
  },
  {
    "postal": "L5B8N4",
    "result": []
  },
  {
    "postal": "L5B8H4",
    "result": []
  },
  {
    "postal": "L5B4V1",
    "result": []
  },
  {
    "postal": "L5B1K5",
    "result": [
      {
        "electoralDistricts": [
          {
            "election": null,
            "id": 61,
            "name": "Mississauga East—Cooksville"
          }
        ],
        "pollDivisionIds": [
          10143912
        ],
        "postalCode": "L5B1K5",
        "streetName": "HILLCREST",
        "streetDirectionId": null,
        "streetTypeId": "AVE",
        "placeName": "MISSISSAUGA",
        "streetNameDisplayText": "HILLCREST AVE, MISSISSAUGA"
      }
    ]
  },
  {
    "postal": "L5B1Z5",
    "result": [
      {
        "electoralDistricts": [
          {
            "election": null,
            "id": 61,
            "name": "Mississauga East—Cooksville"
          }
        ],
        "pollDivisionIds": [
          10135454
        ],
        "postalCode": "L5B1Z5",
        "streetName": "GARETH",
        "streetDirectionId": null,
        "streetTypeId": "RD",
        "placeName": "MISSISSAUGA",
        "streetNameDisplayText": "GARETH RD, MISSISSAUGA"
      }
    ]
  },
  {
    "postal": "L5B9L9",
    "result": []
  },
  {
    "postal": "L5B5L2",
    "result": []
  },
  {
    "postal": "L5B0M2",
    "result": []
  },
  {
    "postal": "L5B1K8",
    "result": [
      {
        "electoralDistricts": [
          {
            "election": null,
            "id": 61,
            "name": "Mississauga East—Cooksville"
          }
        ],
        "pollDivisionIds": [
          10135449
        ],
        "postalCode": "L5B1K8",
        "streetName": "FAIRVIEW",
        "streetDirectionId": "W",
        "streetTypeId": "RD",
        "placeName": "MISSISSAUGA",
        "streetNameDisplayText": "FAIRVIEW RD W, MISSISSAUGA"
      }
    ]
  },
  {
    "postal": "L5B3M7",
    "result": [
      {
        "electoralDistricts": [
          {
            "election": null,
            "id": 60,
            "name": "Mississauga Centre"
          }
        ],
        "pollDivisionIds": [
          10143796
        ],
        "postalCode": "L5B3M7",
        "streetName": "PARKVIEW",
        "streetDirectionId": null,
        "streetTypeId": "BLVD",
        "placeName": "MISSISSAUGA",
        "streetNameDisplayText": "PARKVIEW BLVD, MISSISSAUGA"
      },
      {
        "electoralDistricts": [
          {
            "election": null,
            "id": 60,
            "name": "Mississauga Centre"
          }
        ],
        "pollDivisionIds": [
          10143796
        ],
        "postalCode": "L5B3M7",
        "streetName": "WALLENBERG",
        "streetDirectionId": null,
        "streetTypeId": "CRES",
        "placeName": "MISSISSAUGA",
        "streetNameDisplayText": "WALLENBERG CRES, MISSISSAUGA"
      }
    ]
  },
  {
    "postal": "L5B1B2",
    "result": [
      {
        "electoralDistricts": [
          {
            "election": null,
            "id": 63,
            "name": "Mississauga—Lakeshore"
          }
        ],
        "pollDivisionIds": [
          10139754
        ],
        "postalCode": "L5B1B2",
        "streetName": "ISABELLA",
        "streetDirectionId": null,
        "streetTypeId": "AVE",
        "placeName": "MISSISSAUGA",
        "streetNameDisplayText": "ISABELLA AVE, MISSISSAUGA"
      }
    ]
  },
  {
    "postal": "L5B0H9",
    "result": [
      {
        "electoralDistricts": [
          {
            "election": null,
            "id": 60,
            "name": "Mississauga Centre"
          }
        ],
        "pollDivisionIds": [
          10135089
        ],
        "postalCode": "L5B0H9",
        "streetName": "BURNHAMTHORPE",
        "streetDirectionId": "W",
        "streetTypeId": "RD",
        "placeName": "MISSISSAUGA",
        "streetNameDisplayText": "BURNHAMTHORPE RD W, MISSISSAUGA"
      }
    ]
  },
  {
    "postal": "L5B8M4",
    "result": []
  },
  {
    "postal": "L5B2M5",
    "result": [
      {
        "electoralDistricts": [
          {
            "election": null,
            "id": 61,
            "name": "Mississauga East—Cooksville"
          }
        ],
        "pollDivisionIds": [
          10135454
        ],
        "postalCode": "L5B2M5",
        "streetName": "CRYSTALBURN",
        "streetDirectionId": null,
        "streetTypeId": "AVE",
        "placeName": "MISSISSAUGA",
        "streetNameDisplayText": "CRYSTALBURN AVE, MISSISSAUGA"
      }
    ]
  },
  {
    "postal": "L5B0T9",
    "result": []
  },
  {
    "postal": "L5B3P1",
    "result": [
      {
        "electoralDistricts": [
          {
            "election": null,
            "id": 60,
            "name": "Mississauga Centre"
          }
        ],
        "pollDivisionIds": [
          10143796
        ],
        "postalCode": "L5B3P1",
        "streetName": "ELORA",
        "streetDirectionId": null,
        "streetTypeId": "DR",
        "placeName": "MISSISSAUGA",
        "streetNameDisplayText": "ELORA DR, MISSISSAUGA"
      },
      {
        "electoralDistricts": [
          {
            "election": null,
            "id": 60,
            "name": "Mississauga Centre"
          }
        ],
        "pollDivisionIds": [
          10143796
        ],
        "postalCode": "L5B3P1",
        "streetName": "VIA RUSSO",
        "streetDirectionId": null,
        "streetTypeId": "CRT",
        "placeName": "MISSISSAUGA",
        "streetNameDisplayText": "VIA RUSSO CRT, MISSISSAUGA"
      }
    ]
  },
  {
    "postal": "L5B1R6",
    "result": [
      {
        "electoralDistricts": [
          {
            "election": null,
            "id": 61,
            "name": "Mississauga East—Cooksville"
          }
        ],
        "pollDivisionIds": [
          10135451
        ],
        "postalCode": "L5B1R6",
        "streetName": "CONFEDERATION",
        "streetDirectionId": null,
        "streetTypeId": "PKY",
        "placeName": "MISSISSAUGA",
        "streetNameDisplayText": "CONFEDERATION PKY, MISSISSAUGA"
      }
    ]
  },
  {
    "postal": "L5B9V5",
    "result": []
  },
  {
    "postal": "L5B9T0",
    "result": []
  },
  {
    "postal": "L5B0A9",
    "result": [
      {
        "electoralDistricts": [
          {
            "election": null,
            "id": 61,
            "name": "Mississauga East—Cooksville"
          }
        ],
        "pollDivisionIds": [
          10135453
        ],
        "postalCode": "L5B0A9",
        "streetName": "SHORELINE",
        "streetDirectionId": null,
        "streetTypeId": "CIR",
        "placeName": "MISSISSAUGA",
        "streetNameDisplayText": "SHORELINE CIR, MISSISSAUGA"
      },
      {
        "electoralDistricts": [
          {
            "election": null,
            "id": 61,
            "name": "Mississauga East—Cooksville"
          }
        ],
        "pollDivisionIds": [
          10135453
        ],
        "postalCode": "L5B0A9",
        "streetName": "SHORELINE",
        "streetDirectionId": null,
        "streetTypeId": "DR",
        "placeName": "MISSISSAUGA",
        "streetNameDisplayText": "SHORELINE DR, MISSISSAUGA"
      }
    ]
  },
  {
    "postal": "L5B1M3",
    "result": [
      {
        "electoralDistricts": [
          {
            "election": null,
            "id": 60,
            "name": "Mississauga Centre"
          }
        ],
        "pollDivisionIds": [
          10143796
        ],
        "postalCode": "L5B1M3",
        "streetName": "CITY CENTRE",
        "streetDirectionId": null,
        "streetTypeId": "DR",
        "placeName": "MISSISSAUGA",
        "streetNameDisplayText": "CITY CENTRE DR, MISSISSAUGA"
      }
    ]
  },
  {
    "postal": "L5B1W8",
    "result": [
      {
        "electoralDistricts": [
          {
            "election": null,
            "id": 63,
            "name": "Mississauga—Lakeshore"
          }
        ],
        "pollDivisionIds": [
          10139754
        ],
        "postalCode": "L5B1W8",
        "streetName": "LYNCHMERE",
        "streetDirectionId": null,
        "streetTypeId": "AVE",
        "placeName": "MISSISSAUGA",
        "streetNameDisplayText": "LYNCHMERE AVE, MISSISSAUGA"
      }
    ]
  },
  {
    "postal": "L5B9J1",
    "result": []
  },
  {
    "postal": "L5B8N5",
    "result": []
  },
  {
    "postal": "L5B5X1",
    "result": []
  },
  {
    "postal": "L5B6S2",
    "result": []
  },
  {
    "postal": "L5B2A2",
    "result": [
      {
        "electoralDistricts": [
          {
            "election": null,
            "id": 61,
            "name": "Mississauga East—Cooksville"
          }
        ],
        "pollDivisionIds": [
          10135454
        ],
        "postalCode": "L5B2A2",
        "streetName": "LOUIS",
        "streetDirectionId": null,
        "streetTypeId": "DR",
        "placeName": "MISSISSAUGA",
        "streetNameDisplayText": "LOUIS DR, MISSISSAUGA"
      }
    ]
  },
  {
    "postal": "L5B6A6",
    "result": []
  },
  {
    "postal": "L5B0S3",
    "result": []
  },
  {
    "postal": "L5B3E7",
    "result": [
      {
        "electoralDistricts": [
          {
            "election": null,
            "id": 61,
            "name": "Mississauga East—Cooksville"
          }
        ],
        "pollDivisionIds": [
          10143912
        ],
        "postalCode": "L5B3E7",
        "streetName": "CONSULATE",
        "streetDirectionId": null,
        "streetTypeId": "RD",
        "placeName": "MISSISSAUGA",
        "streetNameDisplayText": "CONSULATE RD, MISSISSAUGA"
      },
      {
        "electoralDistricts": [
          {
            "election": null,
            "id": 61,
            "name": "Mississauga East—Cooksville"
          }
        ],
        "pollDivisionIds": [
          10143912
        ],
        "postalCode": "L5B3E7",
        "streetName": "PRESIDENT",
        "streetDirectionId": null,
        "streetTypeId": "BLVD",
        "placeName": "MISSISSAUGA",
        "streetNameDisplayText": "PRESIDENT BLVD, MISSISSAUGA"
      }
    ]
  },
  {
    "postal": "L5B5R7",
    "result": []
  },
  {
    "postal": "L5B3R6",
    "result": [
      {
        "electoralDistricts": [
          {
            "election": null,
            "id": 60,
            "name": "Mississauga Centre"
          }
        ],
        "pollDivisionIds": [
          10135089
        ],
        "postalCode": "L5B3R6",
        "streetName": "RIEL",
        "streetDirectionId": null,
        "streetTypeId": "DR",
        "placeName": "MISSISSAUGA",
        "streetNameDisplayText": "RIEL DR, MISSISSAUGA"
      }
    ]
  },
  {
    "postal": "L5B6K4",
    "result": []
  },
  {
    "postal": "L5B2W5",
    "result": [
      {
        "electoralDistricts": [
          {
            "election": null,
            "id": 60,
            "name": "Mississauga Centre"
          }
        ],
        "pollDivisionIds": [
          10143796
        ],
        "postalCode": "L5B2W5",
        "streetName": "TEA GARDEN",
        "streetDirectionId": null,
        "streetTypeId": "CIR",
        "placeName": "MISSISSAUGA",
        "streetNameDisplayText": "TEA GARDEN CIR, MISSISSAUGA"
      }
    ]
  },
  {
    "postal": "L5B8W4",
    "result": []
  },
  {
    "postal": "L5B9C2",
    "result": []
  },
  {
    "postal": "L5B2C0",
    "result": []
  },
  {
    "postal": "L5B0E1",
    "result": [
      {
        "electoralDistricts": [
          {
            "election": null,
            "id": 60,
            "name": "Mississauga Centre"
          }
        ],
        "pollDivisionIds": [
          10135163
        ],
        "postalCode": "L5B0E1",
        "streetName": "BURNHAMTHORPE",
        "streetDirectionId": "W",
        "streetTypeId": "RD",
        "placeName": "MISSISSAUGA",
        "streetNameDisplayText": "BURNHAMTHORPE RD W, MISSISSAUGA"
      }
    ]
  },
  {
    "postal": "L5B1K9",
    "result": [
      {
        "electoralDistricts": [
          {
            "election": null,
            "id": 61,
            "name": "Mississauga East—Cooksville"
          }
        ],
        "pollDivisionIds": [
          10135449
        ],
        "postalCode": "L5B1K9",
        "streetName": "FAIRVIEW",
        "streetDirectionId": "W",
        "streetTypeId": "RD",
        "placeName": "MISSISSAUGA",
        "streetNameDisplayText": "FAIRVIEW RD W, MISSISSAUGA"
      }
    ]
  },
  {
    "postal": "L5B1G7",
    "result": [
      {
        "electoralDistricts": [
          {
            "election": null,
            "id": 61,
            "name": "Mississauga East—Cooksville"
          }
        ],
        "pollDivisionIds": [
          10143912
        ],
        "postalCode": "L5B1G7",
        "streetName": "DUNBAR",
        "streetDirectionId": null,
        "streetTypeId": "RD",
        "placeName": "MISSISSAUGA",
        "streetNameDisplayText": "DUNBAR RD, MISSISSAUGA"
      }
    ]
  },
  {
    "postal": "L5B4E9",
    "result": [
      {
        "electoralDistricts": [
          {
            "election": null,
            "id": 61,
            "name": "Mississauga East—Cooksville"
          }
        ],
        "pollDivisionIds": [
          10135452
        ],
        "postalCode": "L5B4E9",
        "streetName": "GANDHI",
        "streetDirectionId": null,
        "streetTypeId": "WAY",
        "placeName": "MISSISSAUGA",
        "streetNameDisplayText": "GANDHI WAY, MISSISSAUGA"
      },
      {
        "electoralDistricts": [
          {
            "election": null,
            "id": 61,
            "name": "Mississauga East—Cooksville"
          }
        ],
        "pollDivisionIds": [
          10135452
        ],
        "postalCode": "L5B4E9",
        "streetName": "SUMMER PARK",
        "streetDirectionId": null,
        "streetTypeId": "CRES",
        "placeName": "MISSISSAUGA",
        "streetNameDisplayText": "SUMMER PARK CRES, MISSISSAUGA"
      }
    ]
  },
  {
    "postal": "L5B9P0",
    "result": []
  },
  {
    "postal": "L5B5H3",
    "result": []
  },
  {
    "postal": "L5B9X6",
    "result": []
  },
  {
    "postal": "L5B5N7",
    "result": []
  },
  {
    "postal": "L5B5A6",
    "result": []
  },
  {
    "postal": "L5B4M0",
    "result": []
  },
  {
    "postal": "L5B3V6",
    "result": [
      {
        "electoralDistricts": [
          {
            "election": null,
            "id": 60,
            "name": "Mississauga Centre"
          }
        ],
        "pollDivisionIds": [
          10135089
        ],
        "postalCode": "L5B3V6",
        "streetName": "COMMONWEALTH",
        "streetDirectionId": null,
        "streetTypeId": "CIR",
        "placeName": "MISSISSAUGA",
        "streetNameDisplayText": "COMMONWEALTH CIR, MISSISSAUGA"
      }
    ]
  },
  {
    "postal": "L5B1L7",
    "result": []
  },
  {
    "postal": "L5B2P9",
    "result": [
      {
        "electoralDistricts": [
          {
            "election": null,
            "id": 63,
            "name": "Mississauga—Lakeshore"
          }
        ],
        "pollDivisionIds": [
          10139756
        ],
        "postalCode": "L5B2P9",
        "streetName": "CULVER",
        "streetDirectionId": null,
        "streetTypeId": "WAY",
        "placeName": "MISSISSAUGA",
        "streetNameDisplayText": "CULVER WAY, MISSISSAUGA"
      }
    ]
  },
  {
    "postal": "L5B5T4",
    "result": []
  },
  {
    "postal": "L5B5Z1",
    "result": []
  },
  {
    "postal": "L5B2X0",
    "result": []
  },
  {
    "postal": "L5B6Z2",
    "result": []
  },
  {
    "postal": "L5B0E0",
    "result": []
  },
  {
    "postal": "L5B3Z5",
    "result": []
  },
  {
    "postal": "L5B8H3",
    "result": []
  },
  {
    "postal": "L5B7S6",
    "result": []
  },
  {
    "postal": "L5B4C1",
    "result": [
      {
        "electoralDistricts": [
          {
            "election": null,
            "id": 60,
            "name": "Mississauga Centre"
          }
        ],
        "pollDivisionIds": [
          10143796
        ],
        "postalCode": "L5B4C1",
        "streetName": "RATHBURN",
        "streetDirectionId": "W",
        "streetTypeId": "RD",
        "placeName": "MISSISSAUGA",
        "streetNameDisplayText": "RATHBURN RD W, MISSISSAUGA"
      }
    ]
  },
  {
    "postal": "L5B3K2",
    "result": [
      {
        "electoralDistricts": [
          {
            "election": null,
            "id": 60,
            "name": "Mississauga Centre"
          }
        ],
        "pollDivisionIds": [
          10135089
        ],
        "postalCode": "L5B3K2",
        "streetName": "RIEL",
        "streetDirectionId": null,
        "streetTypeId": "DR",
        "placeName": "MISSISSAUGA",
        "streetNameDisplayText": "RIEL DR, MISSISSAUGA"
      }
    ]
  },
  {
    "postal": "L5B1Y5",
    "result": [
      {
        "electoralDistricts": [
          {
            "election": null,
            "id": 63,
            "name": "Mississauga—Lakeshore"
          }
        ],
        "pollDivisionIds": [
          10139754
        ],
        "postalCode": "L5B1Y5",
        "streetName": "DICKSON PARK",
        "streetDirectionId": null,
        "streetTypeId": "CRES",
        "placeName": "MISSISSAUGA",
        "streetNameDisplayText": "DICKSON PARK CRES, MISSISSAUGA"
      }
    ]
  },
  {
    "postal": "L5B6P6",
    "result": []
  },
  {
    "postal": "L5B3N9",
    "result": [
      {
        "electoralDistricts": [
          {
            "election": null,
            "id": 60,
            "name": "Mississauga Centre"
          }
        ],
        "pollDivisionIds": [
          10143796
        ],
        "postalCode": "L5B3N9",
        "streetName": "ELORA",
        "streetDirectionId": null,
        "streetTypeId": "DR",
        "placeName": "MISSISSAUGA",
        "streetNameDisplayText": "ELORA DR, MISSISSAUGA"
      }
    ]
  },
  {
    "postal": "L5B3W2",
    "result": [
      {
        "electoralDistricts": [
          {
            "election": null,
            "id": 60,
            "name": "Mississauga Centre"
          }
        ],
        "pollDivisionIds": [
          10135089
        ],
        "postalCode": "L5B3W2",
        "streetName": "COMMONWEALTH",
        "streetDirectionId": null,
        "streetTypeId": "CIR",
        "placeName": "MISSISSAUGA",
        "streetNameDisplayText": "COMMONWEALTH CIR, MISSISSAUGA"
      },
      {
        "electoralDistricts": [
          {
            "election": null,
            "id": 60,
            "name": "Mississauga Centre"
          }
        ],
        "pollDivisionIds": [
          10135089
        ],
        "postalCode": "L5B3W2",
        "streetName": "MALAGA",
        "streetDirectionId": null,
        "streetTypeId": "RD",
        "placeName": "MISSISSAUGA",
        "streetNameDisplayText": "MALAGA RD, MISSISSAUGA"
      },
      {
        "electoralDistricts": [
          {
            "election": null,
            "id": 60,
            "name": "Mississauga Centre"
          }
        ],
        "pollDivisionIds": [
          10135089
        ],
        "postalCode": "L5B3W2",
        "streetName": "REDMOND",
        "streetDirectionId": null,
        "streetTypeId": "RD",
        "placeName": "MISSISSAUGA",
        "streetNameDisplayText": "REDMOND RD, MISSISSAUGA"
      }
    ]
  },
  {
    "postal": "L5B6H8",
    "result": []
  },
  {
    "postal": "L5B9T3",
    "result": []
  },
  {
    "postal": "L5B5L9",
    "result": []
  },
  {
    "postal": "L5B7X7",
    "result": []
  },
  {
    "postal": "L5B3J5",
    "result": [
      {
        "electoralDistricts": [
          {
            "election": null,
            "id": 60,
            "name": "Mississauga Centre"
          }
        ],
        "pollDivisionIds": [
          10135089
        ],
        "postalCode": "L5B3J5",
        "streetName": "CENTRAL",
        "streetDirectionId": "W",
        "streetTypeId": "PKY",
        "placeName": "MISSISSAUGA",
        "streetNameDisplayText": "CENTRAL PKY W, MISSISSAUGA"
      },
      {
        "electoralDistricts": [
          {
            "election": null,
            "id": 60,
            "name": "Mississauga Centre"
          }
        ],
        "pollDivisionIds": [
          10135089
        ],
        "postalCode": "L5B3J5",
        "streetName": "MACEDONIA",
        "streetDirectionId": null,
        "streetTypeId": "CRES",
        "placeName": "MISSISSAUGA",
        "streetNameDisplayText": "MACEDONIA CRES, MISSISSAUGA"
      }
    ]
  },
  {
    "postal": "L5B4J5",
    "result": [
      {
        "electoralDistricts": [
          {
            "election": null,
            "id": 61,
            "name": "Mississauga East—Cooksville"
          }
        ],
        "pollDivisionIds": [
          10135453
        ],
        "postalCode": "L5B4J5",
        "streetName": "WHEATSTONE",
        "streetDirectionId": null,
        "streetTypeId": "AVE",
        "placeName": "MISSISSAUGA",
        "streetNameDisplayText": "WHEATSTONE AVE, MISSISSAUGA"
      },
      {
        "electoralDistricts": [
          {
            "election": null,
            "id": 61,
            "name": "Mississauga East—Cooksville"
          }
        ],
        "pollDivisionIds": [
          10135453
        ],
        "postalCode": "L5B4J5",
        "streetName": "WILDGRASS",
        "streetDirectionId": null,
        "streetTypeId": "RD",
        "placeName": "MISSISSAUGA",
        "streetNameDisplayText": "WILDGRASS RD, MISSISSAUGA"
      }
    ]
  },
  {
    "postal": "L5B6J2",
    "result": []
  },
  {
    "postal": "L5B5V6",
    "result": []
  },
  {
    "postal": "L5B3N2",
    "result": [
      {
        "electoralDistricts": [
          {
            "election": null,
            "id": 60,
            "name": "Mississauga Centre"
          }
        ],
        "pollDivisionIds": [
          10143796
        ],
        "postalCode": "L5B3N2",
        "streetName": "PARKVIEW",
        "streetDirectionId": null,
        "streetTypeId": "BLVD",
        "placeName": "MISSISSAUGA",
        "streetNameDisplayText": "PARKVIEW BLVD, MISSISSAUGA"
      }
    ]
  },
  {
    "postal": "L5B3B1",
    "result": []
  },
  {
    "postal": "L5B8B5",
    "result": []
  },
  {
    "postal": "L5B0K1",
    "result": []
  },
  {
    "postal": "L5B7M7",
    "result": []
  },
  {
    "postal": "L5B2M2",
    "result": [
      {
        "electoralDistricts": [
          {
            "election": null,
            "id": 61,
            "name": "Mississauga East—Cooksville"
          }
        ],
        "pollDivisionIds": [
          10135455
        ],
        "postalCode": "L5B2M2",
        "streetName": "PAISLEY",
        "streetDirectionId": "W",
        "streetTypeId": "BLVD",
        "placeName": "MISSISSAUGA",
        "streetNameDisplayText": "PAISLEY BLVD W, MISSISSAUGA"
      }
    ]
  },
  {
    "postal": "L5B9N3",
    "result": []
  },
  {
    "postal": "L5B4Y8",
    "result": []
  },
  {
    "postal": "L5B3V7",
    "result": [
      {
        "electoralDistricts": [
          {
            "election": null,
            "id": 60,
            "name": "Mississauga Centre"
          }
        ],
        "pollDivisionIds": [
          10135089
        ],
        "postalCode": "L5B3V7",
        "streetName": "COMMONWEALTH",
        "streetDirectionId": null,
        "streetTypeId": "CIR",
        "placeName": "MISSISSAUGA",
        "streetNameDisplayText": "COMMONWEALTH CIR, MISSISSAUGA"
      }
    ]
  },
  {
    "postal": "L5B8Z1",
    "result": []
  },
  {
    "postal": "L5B7B3",
    "result": []
  },
  {
    "postal": "L5B3A8",
    "result": [
      {
        "electoralDistricts": [
          {
            "election": null,
            "id": 63,
            "name": "Mississauga—Lakeshore"
          }
        ],
        "pollDivisionIds": [
          10139754
        ],
        "postalCode": "L5B3A8",
        "streetName": "QUEENSWAY",
        "streetDirectionId": "W",
        "streetTypeId": null,
        "placeName": "MISSISSAUGA",
        "streetNameDisplayText": "QUEENSWAY W, MISSISSAUGA"
      }
    ]
  },
  {
    "postal": "L5B7V5",
    "result": []
  },
  {
    "postal": "L5B2T2",
    "result": []
  },
  {
    "postal": "L5B6L3",
    "result": []
  },
  {
    "postal": "L5B0L2",
    "result": []
  },
  {
    "postal": "L5B5Y8",
    "result": []
  },
  {
    "postal": "L5B0B8",
    "result": [
      {
        "electoralDistricts": [
          {
            "election": null,
            "id": 61,
            "name": "Mississauga East—Cooksville"
          }
        ],
        "pollDivisionIds": [
          10135453
        ],
        "postalCode": "L5B0B8",
        "streetName": "NEIGHBOURHOOD",
        "streetDirectionId": null,
        "streetTypeId": "CIR",
        "placeName": "MISSISSAUGA",
        "streetNameDisplayText": "NEIGHBOURHOOD CIR, MISSISSAUGA"
      },
      {
        "electoralDistricts": [
          {
            "election": null,
            "id": 61,
            "name": "Mississauga East—Cooksville"
          }
        ],
        "pollDivisionIds": [
          10135453
        ],
        "postalCode": "L5B0B8",
        "streetName": "SHORELINE",
        "streetDirectionId": null,
        "streetTypeId": "DR",
        "placeName": "MISSISSAUGA",
        "streetNameDisplayText": "SHORELINE DR, MISSISSAUGA"
      }
    ]
  },
  {
    "postal": "L5B6R5",
    "result": []
  },
  {
    "postal": "L5B8W6",
    "result": []
  },
  {
    "postal": "L5B8G6",
    "result": []
  },
  {
    "postal": "L5B6X3",
    "result": []
  },
  {
    "postal": "L5B7R7",
    "result": []
  },
  {
    "postal": "L5B4B6",
    "result": [
      {
        "electoralDistricts": [
          {
            "election": null,
            "id": 61,
            "name": "Mississauga East—Cooksville"
          }
        ],
        "pollDivisionIds": [
          10135449
        ],
        "postalCode": "L5B4B6",
        "streetName": "HANSON",
        "streetDirectionId": null,
        "streetTypeId": "RD",
        "placeName": "MISSISSAUGA",
        "streetNameDisplayText": "HANSON RD, MISSISSAUGA"
      }
    ]
  },
  {
    "postal": "L5B3P9",
    "result": []
  },
  {
    "postal": "L5B2T3",
    "result": [
      {
        "electoralDistricts": [
          {
            "election": null,
            "id": 63,
            "name": "Mississauga—Lakeshore"
          }
        ],
        "pollDivisionIds": [
          10139754
        ],
        "postalCode": "L5B2T3",
        "streetName": "TAYLORS",
        "streetDirectionId": null,
        "streetTypeId": "ORCH",
        "placeName": "MISSISSAUGA",
        "streetNameDisplayText": "TAYLORS ORCH, MISSISSAUGA"
      }
    ]
  },
  {
    "postal": "L5B1M4",
    "result": []
  },
  {
    "postal": "L5B0H1",
    "result": []
  },
  {
    "postal": "L5B9W3",
    "result": []
  },
  {
    "postal": "L5B6P1",
    "result": []
  },
  {
    "postal": "L5B7G2",
    "result": []
  },
  {
    "postal": "L5B4J9",
    "result": [
      {
        "electoralDistricts": [
          {
            "election": null,
            "id": 61,
            "name": "Mississauga East—Cooksville"
          }
        ],
        "pollDivisionIds": [
          10135453
        ],
        "postalCode": "L5B4J9",
        "streetName": "ELMCREEK",
        "streetDirectionId": null,
        "streetTypeId": "RD",
        "placeName": "MISSISSAUGA",
        "streetNameDisplayText": "ELMCREEK RD, MISSISSAUGA"
      },
      {
        "electoralDistricts": [
          {
            "election": null,
            "id": 61,
            "name": "Mississauga East—Cooksville"
          }
        ],
        "pollDivisionIds": [
          10135453
        ],
        "postalCode": "L5B4J9",
        "streetName": "SHORELINE",
        "streetDirectionId": null,
        "streetTypeId": "DR",
        "placeName": "MISSISSAUGA",
        "streetNameDisplayText": "SHORELINE DR, MISSISSAUGA"
      }
    ]
  },
  {
    "postal": "L5B9E4",
    "result": []
  },
  {
    "postal": "L5B8H0",
    "result": []
  },
  {
    "postal": "L5B4M7",
    "result": [
      {
        "electoralDistricts": [
          {
            "election": null,
            "id": 60,
            "name": "Mississauga Centre"
          }
        ],
        "pollDivisionIds": [
          10135169,
          10135087
        ],
        "postalCode": "L5B4M7",
        "streetName": "DUKE OF YORK",
        "streetDirectionId": null,
        "streetTypeId": "BLVD",
        "placeName": "MISSISSAUGA",
        "streetNameDisplayText": "DUKE OF YORK BLVD, MISSISSAUGA"
      }
    ]
  },
  {
    "postal": "L5B2G9",
    "result": [
      {
        "electoralDistricts": [
          {
            "election": null,
            "id": 63,
            "name": "Mississauga—Lakeshore"
          }
        ],
        "pollDivisionIds": [
          10139754
        ],
        "postalCode": "L5B2G9",
        "streetName": "NETHARA",
        "streetDirectionId": null,
        "streetTypeId": "CRT",
        "placeName": "MISSISSAUGA",
        "streetNameDisplayText": "NETHARA CRT, MISSISSAUGA"
      }
    ]
  },
  {
    "postal": "L5B8T2",
    "result": []
  },
  {
    "postal": "L5B7G7",
    "result": []
  },
  {
    "postal": "L5B4Z3",
    "result": []
  },
  {
    "postal": "L5B5B3",
    "result": []
  },
  {
    "postal": "L5B1S7",
    "result": [
      {
        "electoralDistricts": [
          {
            "election": null,
            "id": 63,
            "name": "Mississauga—Lakeshore"
          }
        ],
        "pollDivisionIds": [
          10139754
        ],
        "postalCode": "L5B1S7",
        "streetName": "GORDON",
        "streetDirectionId": null,
        "streetTypeId": "DR",
        "placeName": "MISSISSAUGA",
        "streetNameDisplayText": "GORDON DR, MISSISSAUGA"
      }
    ]
  },
  {
    "postal": "L5B2N7",
    "result": [
      {
        "electoralDistricts": [
          {
            "election": null,
            "id": 61,
            "name": "Mississauga East—Cooksville"
          }
        ],
        "pollDivisionIds": [
          10135454
        ],
        "postalCode": "L5B2N7",
        "streetName": "CRYSTALBURN",
        "streetDirectionId": null,
        "streetTypeId": "AVE",
        "placeName": "MISSISSAUGA",
        "streetNameDisplayText": "CRYSTALBURN AVE, MISSISSAUGA"
      }
    ]
  },
  {
    "postal": "L5B0H8",
    "result": [
      {
        "electoralDistricts": [
          {
            "election": null,
            "id": 60,
            "name": "Mississauga Centre"
          }
        ],
        "pollDivisionIds": [
          10135095,
          10135173
        ],
        "postalCode": "L5B0H8",
        "streetName": "GRAND PARK",
        "streetDirectionId": null,
        "streetTypeId": "DR",
        "placeName": "MISSISSAUGA",
        "streetNameDisplayText": "GRAND PARK DR, MISSISSAUGA"
      }
    ]
  },
  {
    "postal": "L5B7Z4",
    "result": []
  },
  {
    "postal": "L5B7B1",
    "result": []
  },
  {
    "postal": "L5B7P8",
    "result": []
  },
  {
    "postal": "L5B7N0",
    "result": []
  },
  {
    "postal": "L5B3Y5",
    "result": [
      {
        "electoralDistricts": [
          {
            "election": null,
            "id": 60,
            "name": "Mississauga Centre"
          }
        ],
        "pollDivisionIds": [
          10135089
        ],
        "postalCode": "L5B3Y5",
        "streetName": "BURNHAMTHORPE",
        "streetDirectionId": "W",
        "streetTypeId": "RD",
        "placeName": "MISSISSAUGA",
        "streetNameDisplayText": "BURNHAMTHORPE RD W, MISSISSAUGA"
      }
    ]
  },
  {
    "postal": "L5B6K1",
    "result": []
  },
  {
    "postal": "L5B9X5",
    "result": []
  },
  {
    "postal": "L5B7S5",
    "result": []
  },
  {
    "postal": "L5B0A4",
    "result": [
      {
        "electoralDistricts": [
          {
            "election": null,
            "id": 60,
            "name": "Mississauga Centre"
          }
        ],
        "pollDivisionIds": [
          10135089
        ],
        "postalCode": "L5B0A4",
        "streetName": "HURONTARIO",
        "streetDirectionId": null,
        "streetTypeId": "ST",
        "placeName": "MISSISSAUGA",
        "streetNameDisplayText": "HURONTARIO ST, MISSISSAUGA"
      }
    ]
  },
  {
    "postal": "L5B4T5",
    "result": []
  },
  {
    "postal": "L5B5K1",
    "result": []
  },
  {
    "postal": "L5B0Z9",
    "result": []
  },
  {
    "postal": "L5B7T2",
    "result": []
  },
  {
    "postal": "L5B1L5",
    "result": [
      {
        "electoralDistricts": [
          {
            "election": null,
            "id": 61,
            "name": "Mississauga East—Cooksville"
          }
        ],
        "pollDivisionIds": [
          10135449
        ],
        "postalCode": "L5B1L5",
        "streetName": "CENTRAL",
        "streetDirectionId": "W",
        "streetTypeId": "PKY",
        "placeName": "MISSISSAUGA",
        "streetNameDisplayText": "CENTRAL PKY W, MISSISSAUGA"
      }
    ]
  },
  {
    "postal": "L5B3N5",
    "result": [
      {
        "electoralDistricts": [
          {
            "election": null,
            "id": 60,
            "name": "Mississauga Centre"
          }
        ],
        "pollDivisionIds": [
          10143796
        ],
        "postalCode": "L5B3N5",
        "streetName": "HAZINEH",
        "streetDirectionId": null,
        "streetTypeId": "CRT",
        "placeName": "MISSISSAUGA",
        "streetNameDisplayText": "HAZINEH CRT, MISSISSAUGA"
      }
    ]
  },
  {
    "postal": "L5B6H4",
    "result": []
  },
  {
    "postal": "L5B5A5",
    "result": []
  },
  {
    "postal": "L5B3R9",
    "result": [
      {
        "electoralDistricts": [
          {
            "election": null,
            "id": 60,
            "name": "Mississauga Centre"
          }
        ],
        "pollDivisionIds": [
          10135089
        ],
        "postalCode": "L5B3R9",
        "streetName": "MACEDONIA",
        "streetDirectionId": null,
        "streetTypeId": "CRES",
        "placeName": "MISSISSAUGA",
        "streetNameDisplayText": "MACEDONIA CRES, MISSISSAUGA"
      },
      {
        "electoralDistricts": [
          {
            "election": null,
            "id": 60,
            "name": "Mississauga Centre"
          }
        ],
        "pollDivisionIds": [
          10135089
        ],
        "postalCode": "L5B3R9",
        "streetName": "RIEL",
        "streetDirectionId": null,
        "streetTypeId": "DR",
        "placeName": "MISSISSAUGA",
        "streetNameDisplayText": "RIEL DR, MISSISSAUGA"
      }
    ]
  },
  {
    "postal": "L5B7L8",
    "result": []
  },
  {
    "postal": "L5B6T6",
    "result": []
  },
  {
    "postal": "L5B7Y7",
    "result": []
  },
  {
    "postal": "L5B3M8",
    "result": [
      {
        "electoralDistricts": [
          {
            "election": null,
            "id": 60,
            "name": "Mississauga Centre"
          }
        ],
        "pollDivisionIds": [
          10143796
        ],
        "postalCode": "L5B3M8",
        "streetName": "WALLENBERG",
        "streetDirectionId": null,
        "streetTypeId": "CRES",
        "placeName": "MISSISSAUGA",
        "streetNameDisplayText": "WALLENBERG CRES, MISSISSAUGA"
      }
    ]
  },
  {
    "postal": "L5B2E0",
    "result": []
  },
  {
    "postal": "L5B4B5",
    "result": [
      {
        "electoralDistricts": [
          {
            "election": null,
            "id": 61,
            "name": "Mississauga East—Cooksville"
          }
        ],
        "pollDivisionIds": [
          10143912
        ],
        "postalCode": "L5B4B5",
        "streetName": "RUGBY",
        "streetDirectionId": null,
        "streetTypeId": "RD",
        "placeName": "MISSISSAUGA",
        "streetNameDisplayText": "RUGBY RD, MISSISSAUGA"
      }
    ]
  },
  {
    "postal": "L5B1J3",
    "result": []
  },
  {
    "postal": "L5B5S6",
    "result": []
  },
  {
    "postal": "L5B8P7",
    "result": []
  },
  {
    "postal": "L5B7S7",
    "result": []
  },
  {
    "postal": "L5B4C2",
    "result": [
      {
        "electoralDistricts": [
          {
            "election": null,
            "id": 61,
            "name": "Mississauga East—Cooksville"
          }
        ],
        "pollDivisionIds": [
          10135449
        ],
        "postalCode": "L5B4C2",
        "streetName": "COSSACK",
        "streetDirectionId": null,
        "streetTypeId": "CRT",
        "placeName": "MISSISSAUGA",
        "streetNameDisplayText": "COSSACK CRT, MISSISSAUGA"
      }
    ]
  },
  {
    "postal": "L5B5Y0",
    "result": []
  },
  {
    "postal": "L5B2V7",
    "result": [
      {
        "electoralDistricts": [
          {
            "election": null,
            "id": 60,
            "name": "Mississauga Centre"
          }
        ],
        "pollDivisionIds": [
          10143796
        ],
        "postalCode": "L5B2V7",
        "streetName": "LIONS",
        "streetDirectionId": null,
        "streetTypeId": "GATE",
        "placeName": "MISSISSAUGA",
        "streetNameDisplayText": "LIONS GATE, MISSISSAUGA"
      }
    ]
  },
  {
    "postal": "L5B8P5",
    "result": []
  },
  {
    "postal": "L5B5P5",
    "result": []
  },
  {
    "postal": "L5B5Z0",
    "result": []
  },
  {
    "postal": "L5B9B0",
    "result": []
  },
  {
    "postal": "L5B1L0",
    "result": []
  },
  {
    "postal": "L5B0B5",
    "result": [
      {
        "electoralDistricts": [
          {
            "election": null,
            "id": 61,
            "name": "Mississauga East—Cooksville"
          }
        ],
        "pollDivisionIds": [
          10135453
        ],
        "postalCode": "L5B0B5",
        "streetName": "DUNDAS",
        "streetDirectionId": "W",
        "streetTypeId": "ST",
        "placeName": "MISSISSAUGA",
        "streetNameDisplayText": "DUNDAS ST W, MISSISSAUGA"
      }
    ]
  },
  {
    "postal": "L5B3L2",
    "result": [
      {
        "electoralDistricts": [
          {
            "election": null,
            "id": 60,
            "name": "Mississauga Centre"
          }
        ],
        "pollDivisionIds": [
          10135089
        ],
        "postalCode": "L5B3L2",
        "streetName": "COPERNICUS",
        "streetDirectionId": null,
        "streetTypeId": "DR",
        "placeName": "MISSISSAUGA",
        "streetNameDisplayText": "COPERNICUS DR, MISSISSAUGA"
      }
    ]
  },
  {
    "postal": "L5B3B7",
    "result": []
  },
  {
    "postal": "L5B8L1",
    "result": []
  },
  {
    "postal": "L5B5M4",
    "result": []
  },
  {
    "postal": "L5B4G9",
    "result": [
      {
        "electoralDistricts": [
          {
            "election": null,
            "id": 61,
            "name": "Mississauga East—Cooksville"
          }
        ],
        "pollDivisionIds": [
          10135453
        ],
        "postalCode": "L5B4G9",
        "streetName": "PEARWOOD",
        "streetDirectionId": null,
        "streetTypeId": "PL",
        "placeName": "MISSISSAUGA",
        "streetNameDisplayText": "PEARWOOD PL, MISSISSAUGA"
      },
      {
        "electoralDistricts": [
          {
            "election": null,
            "id": 61,
            "name": "Mississauga East—Cooksville"
          }
        ],
        "pollDivisionIds": [
          10135453
        ],
        "postalCode": "L5B4G9",
        "streetName": "WILDGRASS",
        "streetDirectionId": null,
        "streetTypeId": "RD",
        "placeName": "MISSISSAUGA",
        "streetNameDisplayText": "WILDGRASS RD, MISSISSAUGA"
      }
    ]
  },
  {
    "postal": "L5B0P0",
    "result": []
  },
  {
    "postal": "L5B8G2",
    "result": []
  },
  {
    "postal": "L5B1V9",
    "result": [
      {
        "electoralDistricts": [
          {
            "election": null,
            "id": 60,
            "name": "Mississauga Centre"
          },
          {
            "election": null,
            "id": 61,
            "name": "Mississauga East—Cooksville"
          }
        ],
        "pollDivisionIds": [
          10135089,
          10135449
        ],
        "postalCode": "L5B1V9",
        "streetName": "PALGRAVE",
        "streetDirectionId": null,
        "streetTypeId": "RD",
        "placeName": "MISSISSAUGA",
        "streetNameDisplayText": "PALGRAVE RD, MISSISSAUGA"
      }
    ]
  },
  {
    "postal": "L5B8N8",
    "result": []
  },
  {
    "postal": "L5B6S8",
    "result": []
  },
  {
    "postal": "L5B8H2",
    "result": []
  },
  {
    "postal": "L5B5R8",
    "result": []
  },
  {
    "postal": "L5B5L4",
    "result": []
  },
  {
    "postal": "L5B9E1",
    "result": []
  },
  {
    "postal": "L5B1C4",
    "result": [
      {
        "electoralDistricts": [
          {
            "election": null,
            "id": 61,
            "name": "Mississauga East—Cooksville"
          }
        ],
        "pollDivisionIds": [
          10135454
        ],
        "postalCode": "L5B1C4",
        "streetName": "ANTIGUA",
        "streetDirectionId": null,
        "streetTypeId": "RD",
        "placeName": "MISSISSAUGA",
        "streetNameDisplayText": "ANTIGUA RD, MISSISSAUGA"
      }
    ]
  },
  {
    "postal": "L5B8W5",
    "result": []
  },
  {
    "postal": "L5B1Y4",
    "result": [
      {
        "electoralDistricts": [
          {
            "election": null,
            "id": 63,
            "name": "Mississauga—Lakeshore"
          }
        ],
        "pollDivisionIds": [
          10139754
        ],
        "postalCode": "L5B1Y4",
        "streetName": "DICKSON PARK",
        "streetDirectionId": null,
        "streetTypeId": "CRES",
        "placeName": "MISSISSAUGA",
        "streetNameDisplayText": "DICKSON PARK CRES, MISSISSAUGA"
      }
    ]
  },
  {
    "postal": "L5B1C0",
    "result": []
  },
  {
    "postal": "L5B2J2",
    "result": [
      {
        "electoralDistricts": [
          {
            "election": null,
            "id": 61,
            "name": "Mississauga East—Cooksville"
          }
        ],
        "pollDivisionIds": [
          10135455
        ],
        "postalCode": "L5B2J2",
        "streetName": "FERGO",
        "streetDirectionId": null,
        "streetTypeId": "AVE",
        "placeName": "MISSISSAUGA",
        "streetNameDisplayText": "FERGO AVE, MISSISSAUGA"
      }
    ]
  },
  {
    "postal": "L5B2J0",
    "result": []
  },
  {
    "postal": "L5B7A3",
    "result": []
  },
  {
    "postal": "L5B8M1",
    "result": []
  },
  {
    "postal": "L5B7T9",
    "result": []
  },
  {
    "postal": "L5B6C0",
    "result": []
  },
  {
    "postal": "L5B7X1",
    "result": []
  },
  {
    "postal": "L5B0G1",
    "result": []
  },
  {
    "postal": "L5B4X2",
    "result": []
  },
  {
    "postal": "L5B0N6",
    "result": []
  },
  {
    "postal": "L5B8E3",
    "result": []
  },
  {
    "postal": "L5B5S8",
    "result": []
  },
  {
    "postal": "L5B0R0",
    "result": []
  },
  {
    "postal": "L5B6J6",
    "result": []
  },
  {
    "postal": "L5B4B4",
    "result": [
      {
        "electoralDistricts": [
          {
            "election": null,
            "id": 61,
            "name": "Mississauga East—Cooksville"
          }
        ],
        "pollDivisionIds": [
          10143912
        ],
        "postalCode": "L5B4B4",
        "streetName": "RUGBY",
        "streetDirectionId": null,
        "streetTypeId": "RD",
        "placeName": "MISSISSAUGA",
        "streetNameDisplayText": "RUGBY RD, MISSISSAUGA"
      }
    ]
  },
  {
    "postal": "L5B7E3",
    "result": []
  },
  {
    "postal": "L5B3N6",
    "result": [
      {
        "electoralDistricts": [
          {
            "election": null,
            "id": 60,
            "name": "Mississauga Centre"
          }
        ],
        "pollDivisionIds": [
          10143796
        ],
        "postalCode": "L5B3N6",
        "streetName": "HAZINEH",
        "streetDirectionId": null,
        "streetTypeId": "CRT",
        "placeName": "MISSISSAUGA",
        "streetNameDisplayText": "HAZINEH CRT, MISSISSAUGA"
      }
    ]
  },
  {
    "postal": "L5B3X6",
    "result": [
      {
        "electoralDistricts": [
          {
            "election": null,
            "id": 61,
            "name": "Mississauga East—Cooksville"
          }
        ],
        "pollDivisionIds": [
          10135452
        ],
        "postalCode": "L5B3X6",
        "streetName": "FAIRVIEW",
        "streetDirectionId": "W",
        "streetTypeId": "RD",
        "placeName": "MISSISSAUGA",
        "streetNameDisplayText": "FAIRVIEW RD W, MISSISSAUGA"
      },
      {
        "electoralDistricts": [
          {
            "election": null,
            "id": 61,
            "name": "Mississauga East—Cooksville"
          }
        ],
        "pollDivisionIds": [
          10135452
        ],
        "postalCode": "L5B3X6",
        "streetName": "LUZON",
        "streetDirectionId": null,
        "streetTypeId": "CRES",
        "placeName": "MISSISSAUGA",
        "streetNameDisplayText": "LUZON CRES, MISSISSAUGA"
      },
      {
        "electoralDistricts": [
          {
            "election": null,
            "id": 61,
            "name": "Mississauga East—Cooksville"
          }
        ],
        "pollDivisionIds": [
          10135452
        ],
        "postalCode": "L5B3X6",
        "streetName": "PILCOM",
        "streetDirectionId": null,
        "streetTypeId": "CRES",
        "placeName": "MISSISSAUGA",
        "streetNameDisplayText": "PILCOM CRES, MISSISSAUGA"
      }
    ]
  },
  {
    "postal": "L5B8L0",
    "result": []
  },
  {
    "postal": "L5B8N1",
    "result": []
  },
  {
    "postal": "L5B4J0",
    "result": []
  },
  {
    "postal": "L5B0X7",
    "result": []
  },
  {
    "postal": "L5B6S4",
    "result": []
  },
  {
    "postal": "L5B0Z0",
    "result": []
  },
  {
    "postal": "L5B9X8",
    "result": []
  },
  {
    "postal": "L5B3H3",
    "result": [
      {
        "electoralDistricts": [
          {
            "election": null,
            "id": 61,
            "name": "Mississauga East—Cooksville"
          }
        ],
        "pollDivisionIds": [
          10135452
        ],
        "postalCode": "L5B3H3",
        "streetName": "LECH WALESA",
        "streetDirectionId": null,
        "streetTypeId": "DR",
        "placeName": "MISSISSAUGA",
        "streetNameDisplayText": "LECH WALESA DR, MISSISSAUGA"
      }
    ]
  },
  {
    "postal": "L5B7S2",
    "result": []
  },
  {
    "postal": "L5B3T3",
    "result": [
      {
        "electoralDistricts": [
          {
            "election": null,
            "id": 60,
            "name": "Mississauga Centre"
          }
        ],
        "pollDivisionIds": [
          10135089
        ],
        "postalCode": "L5B3T3",
        "streetName": "SHIPKA",
        "streetDirectionId": null,
        "streetTypeId": "CRT",
        "placeName": "MISSISSAUGA",
        "streetNameDisplayText": "SHIPKA CRT, MISSISSAUGA"
      }
    ]
  },
  {
    "postal": "L5B9P3",
    "result": []
  },
  {
    "postal": "L5B4H8",
    "result": [
      {
        "electoralDistricts": [
          {
            "election": null,
            "id": 61,
            "name": "Mississauga East—Cooksville"
          }
        ],
        "pollDivisionIds": [
          10135453
        ],
        "postalCode": "L5B4H8",
        "streetName": "WILDGRASS",
        "streetDirectionId": null,
        "streetTypeId": "RD",
        "placeName": "MISSISSAUGA",
        "streetNameDisplayText": "WILDGRASS RD, MISSISSAUGA"
      }
    ]
  },
  {
    "postal": "L5B6R1",
    "result": []
  },
  {
    "postal": "L5B1S0",
    "result": []
  },
  {
    "postal": "L5B3W8",
    "result": [
      {
        "electoralDistricts": [
          {
            "election": null,
            "id": 61,
            "name": "Mississauga East—Cooksville"
          }
        ],
        "pollDivisionIds": [
          10135452
        ],
        "postalCode": "L5B3W8",
        "streetName": "LUZON",
        "streetDirectionId": null,
        "streetTypeId": "CRES",
        "placeName": "MISSISSAUGA",
        "streetNameDisplayText": "LUZON CRES, MISSISSAUGA"
      }
    ]
  },
  {
    "postal": "L5B4S3",
    "result": []
  },
  {
    "postal": "L5B1B6",
    "result": [
      {
        "electoralDistricts": [
          {
            "election": null,
            "id": 61,
            "name": "Mississauga East—Cooksville"
          }
        ],
        "pollDivisionIds": [
          10135451
        ],
        "postalCode": "L5B1B6",
        "streetName": "QUEENSWAY",
        "streetDirectionId": "W",
        "streetTypeId": null,
        "placeName": "MISSISSAUGA",
        "streetNameDisplayText": "QUEENSWAY W, MISSISSAUGA"
      }
    ]
  },
  {
    "postal": "L5B8R3",
    "result": []
  },
  {
    "postal": "L5B4V9",
    "result": []
  },
  {
    "postal": "L5B9W4",
    "result": []
  },
  {
    "postal": "L5B3T4",
    "result": [
      {
        "electoralDistricts": [
          {
            "election": null,
            "id": 60,
            "name": "Mississauga Centre"
          }
        ],
        "pollDivisionIds": [
          10135089
        ],
        "postalCode": "L5B3T4",
        "streetName": "SHIPKA",
        "streetDirectionId": null,
        "streetTypeId": "CRT",
        "placeName": "MISSISSAUGA",
        "streetNameDisplayText": "SHIPKA CRT, MISSISSAUGA"
      }
    ]
  },
  {
    "postal": "L5B5C7",
    "result": []
  },
  {
    "postal": "L5B3Y1",
    "result": [
      {
        "electoralDistricts": [
          {
            "election": null,
            "id": 60,
            "name": "Mississauga Centre"
          }
        ],
        "pollDivisionIds": [
          10135137
        ],
        "postalCode": "L5B3Y1",
        "streetName": "RATHBURN",
        "streetDirectionId": "W",
        "streetTypeId": "RD",
        "placeName": "MISSISSAUGA",
        "streetNameDisplayText": "RATHBURN RD W, MISSISSAUGA"
      }
    ]
  },
  {
    "postal": "L5B5V0",
    "result": []
  },
  {
    "postal": "L5B8G8",
    "result": []
  },
  {
    "postal": "L5B8B1",
    "result": []
  },
  {
    "postal": "L5B4P5",
    "result": [
      {
        "electoralDistricts": [
          {
            "election": null,
            "id": 60,
            "name": "Mississauga Centre"
          }
        ],
        "pollDivisionIds": [
          10135141
        ],
        "postalCode": "L5B4P5",
        "streetName": "DUKE OF YORK",
        "streetDirectionId": null,
        "streetTypeId": "BLVD",
        "placeName": "MISSISSAUGA",
        "streetNameDisplayText": "DUKE OF YORK BLVD, MISSISSAUGA"
      }
    ]
  },
  {
    "postal": "L5B7B2",
    "result": []
  },
  {
    "postal": "L5B0R2",
    "result": []
  },
  {
    "postal": "L5B4M4",
    "result": [
      {
        "electoralDistricts": [
          {
            "election": null,
            "id": 61,
            "name": "Mississauga East—Cooksville"
          }
        ],
        "pollDivisionIds": [
          10143912
        ],
        "postalCode": "L5B4M4",
        "streetName": "HURONTARIO",
        "streetDirectionId": null,
        "streetTypeId": "ST",
        "placeName": "MISSISSAUGA",
        "streetNameDisplayText": "HURONTARIO ST, MISSISSAUGA"
      }
    ]
  },
  {
    "postal": "L5B7M4",
    "result": []
  },
  {
    "postal": "L5B9S7",
    "result": []
  },
  {
    "postal": "L5B5Z7",
    "result": []
  },
  {
    "postal": "L5B7J7",
    "result": []
  },
  {
    "postal": "L5B8R8",
    "result": []
  },
  {
    "postal": "L5B9X1",
    "result": []
  },
  {
    "postal": "L5B5M9",
    "result": []
  },
  {
    "postal": "L5B9B4",
    "result": []
  },
  {
    "postal": "L5B0L9",
    "result": []
  },
  {
    "postal": "L5B9G4",
    "result": []
  },
  {
    "postal": "L5B1J4",
    "result": []
  },
  {
    "postal": "L5B0W6",
    "result": []
  }
]
