[
  {
    "postal": "K7R9J6",
    "result": []
  },
  {
    "postal": "K7R9Z5",
    "result": []
  },
  {
    "postal": "K7R7H8",
    "result": []
  },
  {
    "postal": "K7R0P6",
    "result": []
  },
  {
    "postal": "K7R0S7",
    "result": []
  },
  {
    "postal": "K7R8B9",
    "result": []
  },
  {
    "postal": "K7R2A6",
    "result": [
      {
        "electoralDistricts": [
          {
            "election": null,
            "id": 40,
            "name": "Hastings—Lennox and Addington"
          }
        ],
        "pollDivisionIds": [
          10138769
        ],
        "postalCode": "K7R2A6",
        "streetName": "DUNDAS",
        "streetDirectionId": "W",
        "streetTypeId": "ST",
        "placeName": "NAPANEE",
        "streetNameDisplayText": "DUNDAS ST W, NAPANEE"
      }
    ]
  },
  {
    "postal": "K7R7V2",
    "result": []
  },
  {
    "postal": "K7R9P4",
    "result": []
  },
  {
    "postal": "K7R6G0",
    "result": []
  },
  {
    "postal": "K7R2K0",
    "result": []
  },
  {
    "postal": "K7R7N6",
    "result": []
  },
  {
    "postal": "K7R5R3",
    "result": []
  },
  {
    "postal": "K7R7K0",
    "result": []
  },
  {
    "postal": "K7R3R2",
    "result": [
      {
        "electoralDistricts": [
          {
            "election": null,
            "id": 40,
            "name": "Hastings—Lennox and Addington"
          }
        ],
        "pollDivisionIds": [
          10138780,
          10138769
        ],
        "postalCode": "K7R3R2",
        "streetName": "WINCHESTER",
        "streetDirectionId": null,
        "streetTypeId": "DR",
        "placeName": "NAPANEE",
        "streetNameDisplayText": "WINCHESTER DR, NAPANEE"
      }
    ]
  },
  {
    "postal": "K7R0J1",
    "result": []
  },
  {
    "postal": "K7R0B0",
    "result": []
  },
  {
    "postal": "K7R5Z2",
    "result": []
  },
  {
    "postal": "K7R7P3",
    "result": []
  },
  {
    "postal": "K7R2K3",
    "result": [
      {
        "electoralDistricts": [
          {
            "election": null,
            "id": 40,
            "name": "Hastings—Lennox and Addington"
          }
        ],
        "pollDivisionIds": [
          10138769
        ],
        "postalCode": "K7R2K3",
        "streetName": "ISABELLA",
        "streetDirectionId": "W",
        "streetTypeId": "ST",
        "placeName": "NAPANEE",
        "streetNameDisplayText": "ISABELLA ST W, NAPANEE"
      }
    ]
  },
  {
    "postal": "K7R7Y6",
    "result": []
  },
  {
    "postal": "K7R1L9",
    "result": [
      {
        "electoralDistricts": [
          {
            "election": null,
            "id": 40,
            "name": "Hastings—Lennox and Addington"
          }
        ],
        "pollDivisionIds": [
          10138769
        ],
        "postalCode": "K7R1L9",
        "streetName": "ISABELLA",
        "streetDirectionId": "E",
        "streetTypeId": "ST",
        "placeName": "NAPANEE",
        "streetNameDisplayText": "ISABELLA ST E, NAPANEE"
      }
    ]
  },
  {
    "postal": "K7R8T0",
    "result": []
  },
  {
    "postal": "K7R3K8",
    "result": [
      {
        "electoralDistricts": [
          {
            "election": null,
            "id": 40,
            "name": "Hastings—Lennox and Addington"
          }
        ],
        "pollDivisionIds": [
          10138780
        ],
        "postalCode": "K7R3K8",
        "streetName": "ABRAMS RD RR3",
        "streetDirectionId": null,
        "streetTypeId": "RD",
        "placeName": "NAPANEE",
        "streetNameDisplayText": "ABRAMS RD RR3 RD, NAPANEE"
      },
      {
        "electoralDistricts": [
          {
            "election": null,
            "id": 40,
            "name": "Hastings—Lennox and Addington"
          }
        ],
        "pollDivisionIds": [
          10138780
        ],
        "postalCode": "K7R3K8",
        "streetName": "ABRAMS",
        "streetDirectionId": null,
        "streetTypeId": "RD",
        "placeName": "NAPANEE",
        "streetNameDisplayText": "ABRAMS RD, NAPANEE"
      },
      {
        "electoralDistricts": [
          {
            "election": null,
            "id": 40,
            "name": "Hastings—Lennox and Addington"
          }
        ],
        "pollDivisionIds": [
          10138780
        ],
        "postalCode": "K7R3K8",
        "streetName": "BAYVIEW",
        "streetDirectionId": null,
        "streetTypeId": "DR",
        "placeName": "NAPANEE",
        "streetNameDisplayText": "BAYVIEW DR, NAPANEE"
      },
      {
        "electoralDistricts": [
          {
            "election": null,
            "id": 40,
            "name": "Hastings—Lennox and Addington"
          }
        ],
        "pollDivisionIds": [
          10138781
        ],
        "postalCode": "K7R3K8",
        "streetName": "COUNTY 8",
        "streetDirectionId": null,
        "streetTypeId": "RD",
        "placeName": "NAPANEE",
        "streetNameDisplayText": "COUNTY 8 RD, NAPANEE"
      },
      {
        "electoralDistricts": [
          {
            "election": null,
            "id": 40,
            "name": "Hastings—Lennox and Addington"
          }
        ],
        "pollDivisionIds": [
          10138780
        ],
        "postalCode": "K7R3K8",
        "streetName": "COUNTY 9",
        "streetDirectionId": null,
        "streetTypeId": "RD",
        "placeName": "NAPANEE",
        "streetNameDisplayText": "COUNTY 9 RD, NAPANEE"
      },
      {
        "electoralDistricts": [
          {
            "election": null,
            "id": 40,
            "name": "Hastings—Lennox and Addington"
          }
        ],
        "pollDivisionIds": [
          10138780
        ],
        "postalCode": "K7R3K8",
        "streetName": "COUNTY RD 9",
        "streetDirectionId": null,
        "streetTypeId": null,
        "placeName": "NAPANEE",
        "streetNameDisplayText": "COUNTY RD 9, NAPANEE"
      },
      {
        "electoralDistricts": [
          {
            "election": null,
            "id": 40,
            "name": "Hastings—Lennox and Addington"
          }
        ],
        "pollDivisionIds": [
          10138780
        ],
        "postalCode": "K7R3K8",
        "streetName": "COUNTY RD. 9",
        "streetDirectionId": null,
        "streetTypeId": null,
        "placeName": "NAPANEE",
        "streetNameDisplayText": "COUNTY RD. 9, NAPANEE"
      },
      {
        "electoralDistricts": [
          {
            "election": null,
            "id": 40,
            "name": "Hastings—Lennox and Addington"
          }
        ],
        "pollDivisionIds": [
          10138782,
          10138780,
          10138784
        ],
        "postalCode": "K7R3K8",
        "streetName": "COUNTY ROAD 8",
        "streetDirectionId": null,
        "streetTypeId": null,
        "placeName": "NAPANEE",
        "streetNameDisplayText": "COUNTY ROAD 8, NAPANEE"
      },
      {
        "electoralDistricts": [
          {
            "election": null,
            "id": 40,
            "name": "Hastings—Lennox and Addington"
          }
        ],
        "pollDivisionIds": [
          10138780
        ],
        "postalCode": "K7R3K8",
        "streetName": "COUNTY ROAD 9",
        "streetDirectionId": null,
        "streetTypeId": null,
        "placeName": "NAPANEE",
        "streetNameDisplayText": "COUNTY ROAD 9, NAPANEE"
      },
      {
        "electoralDistricts": [
          {
            "election": null,
            "id": 40,
            "name": "Hastings—Lennox and Addington"
          }
        ],
        "pollDivisionIds": [
          10138780
        ],
        "postalCode": "K7R3K8",
        "streetName": "CUTHILL",
        "streetDirectionId": null,
        "streetTypeId": "LANE",
        "placeName": "NAPANEE",
        "streetNameDisplayText": "CUTHILL LANE, NAPANEE"
      },
      {
        "electoralDistricts": [
          {
            "election": null,
            "id": 40,
            "name": "Hastings—Lennox and Addington"
          }
        ],
        "pollDivisionIds": [
          10138780
        ],
        "postalCode": "K7R3K8",
        "streetName": "ELLIOTS",
        "streetDirectionId": null,
        "streetTypeId": "LANE",
        "placeName": "NAPANEE",
        "streetNameDisplayText": "ELLIOTS LANE, NAPANEE"
      },
      {
        "electoralDistricts": [
          {
            "election": null,
            "id": 40,
            "name": "Hastings—Lennox and Addington"
          }
        ],
        "pollDivisionIds": [
          10138780
        ],
        "postalCode": "K7R3K8",
        "streetName": "FITCHETT",
        "streetDirectionId": null,
        "streetTypeId": "RD",
        "placeName": "NAPANEE",
        "streetNameDisplayText": "FITCHETT RD, NAPANEE"
      },
      {
        "electoralDistricts": [
          {
            "election": null,
            "id": 40,
            "name": "Hastings—Lennox and Addington"
          }
        ],
        "pollDivisionIds": [
          10138780,
          10138769
        ],
        "postalCode": "K7R3K8",
        "streetName": "HAMBLY",
        "streetDirectionId": null,
        "streetTypeId": "RD",
        "placeName": "NAPANEE",
        "streetNameDisplayText": "HAMBLY RD, NAPANEE"
      },
      {
        "electoralDistricts": [
          {
            "election": null,
            "id": 40,
            "name": "Hastings—Lennox and Addington"
          }
        ],
        "pollDivisionIds": [
          10138721
        ],
        "postalCode": "K7R3K8",
        "streetName": "HAMBLY RD.",
        "streetDirectionId": null,
        "streetTypeId": "ST",
        "placeName": "NAPANEE",
        "streetNameDisplayText": "HAMBLY RD. ST, NAPANEE"
      },
      {
        "electoralDistricts": [
          {
            "election": null,
            "id": 40,
            "name": "Hastings—Lennox and Addington"
          }
        ],
        "pollDivisionIds": [
          10138780
        ],
        "postalCode": "K7R3K8",
        "streetName": "HAMLEY",
        "streetDirectionId": null,
        "streetTypeId": "RD",
        "placeName": "NAPANEE",
        "streetNameDisplayText": "HAMLEY RD, NAPANEE"
      },
      {
        "electoralDistricts": [
          {
            "election": null,
            "id": 40,
            "name": "Hastings—Lennox and Addington"
          }
        ],
        "pollDivisionIds": [
          10138780
        ],
        "postalCode": "K7R3K8",
        "streetName": "HICKORY",
        "streetDirectionId": null,
        "streetTypeId": "LANE",
        "placeName": "NAPANEE",
        "streetNameDisplayText": "HICKORY LANE, NAPANEE"
      },
      {
        "electoralDistricts": [
          {
            "election": null,
            "id": 40,
            "name": "Hastings—Lennox and Addington"
          }
        ],
        "pollDivisionIds": [
          10138780
        ],
        "postalCode": "K7R3K8",
        "streetName": "HOLLANDS",
        "streetDirectionId": null,
        "streetTypeId": "RD",
        "placeName": "NAPANEE",
        "streetNameDisplayText": "HOLLANDS RD, NAPANEE"
      },
      {
        "electoralDistricts": [
          {
            "election": null,
            "id": 40,
            "name": "Hastings—Lennox and Addington"
          }
        ],
        "pollDivisionIds": [
          10138780
        ],
        "postalCode": "K7R3K8",
        "streetName": "HOLLAND'S",
        "streetDirectionId": null,
        "streetTypeId": "RD",
        "placeName": "NAPANEE",
        "streetNameDisplayText": "HOLLAND'S RD, NAPANEE"
      },
      {
        "electoralDistricts": [
          {
            "election": null,
            "id": 40,
            "name": "Hastings—Lennox and Addington"
          }
        ],
        "pollDivisionIds": [
          10138780
        ],
        "postalCode": "K7R3K8",
        "streetName": "HUFF",
        "streetDirectionId": null,
        "streetTypeId": "RD",
        "placeName": "NAPANEE",
        "streetNameDisplayText": "HUFF RD, NAPANEE"
      },
      {
        "electoralDistricts": [
          {
            "election": null,
            "id": 40,
            "name": "Hastings—Lennox and Addington"
          }
        ],
        "pollDivisionIds": [
          10138780
        ],
        "postalCode": "K7R3K8",
        "streetName": "HUFF'S",
        "streetDirectionId": null,
        "streetTypeId": "RD",
        "placeName": "NAPANEE",
        "streetNameDisplayText": "HUFF'S RD, NAPANEE"
      },
      {
        "electoralDistricts": [
          {
            "election": null,
            "id": 40,
            "name": "Hastings—Lennox and Addington"
          }
        ],
        "pollDivisionIds": [
          10138780
        ],
        "postalCode": "K7R3K8",
        "streetName": "LASHER'S",
        "streetDirectionId": null,
        "streetTypeId": "RD",
        "placeName": "NAPANEE",
        "streetNameDisplayText": "LASHER'S RD, NAPANEE"
      },
      {
        "electoralDistricts": [
          {
            "election": null,
            "id": 40,
            "name": "Hastings—Lennox and Addington"
          }
        ],
        "pollDivisionIds": [
          10138780
        ],
        "postalCode": "K7R3K8",
        "streetName": "LITTLE CREEK",
        "streetDirectionId": null,
        "streetTypeId": "RD",
        "placeName": "NAPANEE",
        "streetNameDisplayText": "LITTLE CREEK RD, NAPANEE"
      },
      {
        "electoralDistricts": [
          {
            "election": null,
            "id": 40,
            "name": "Hastings—Lennox and Addington"
          }
        ],
        "pollDivisionIds": [
          10138777
        ],
        "postalCode": "K7R3K8",
        "streetName": "NEWBURGH",
        "streetDirectionId": null,
        "streetTypeId": "RD",
        "placeName": "NAPANEE",
        "streetNameDisplayText": "NEWBURGH RD, NAPANEE"
      },
      {
        "electoralDistricts": [
          {
            "election": null,
            "id": 40,
            "name": "Hastings—Lennox and Addington"
          }
        ],
        "pollDivisionIds": [
          10138780
        ],
        "postalCode": "K7R3K8",
        "streetName": "OLD COUNTY RD 9",
        "streetDirectionId": null,
        "streetTypeId": null,
        "placeName": "NAPANEE",
        "streetNameDisplayText": "OLD COUNTY RD 9, NAPANEE"
      },
      {
        "electoralDistricts": [
          {
            "election": null,
            "id": 40,
            "name": "Hastings—Lennox and Addington"
          }
        ],
        "pollDivisionIds": [
          10138780
        ],
        "postalCode": "K7R3K8",
        "streetName": "RIVER RD RR3",
        "streetDirectionId": null,
        "streetTypeId": null,
        "placeName": "NAPANEE",
        "streetNameDisplayText": "RIVER RD RR3, NAPANEE"
      },
      {
        "electoralDistricts": [
          {
            "election": null,
            "id": 40,
            "name": "Hastings—Lennox and Addington"
          }
        ],
        "pollDivisionIds": [
          10138721,
          10138780
        ],
        "postalCode": "K7R3K8",
        "streetName": "RIVER",
        "streetDirectionId": null,
        "streetTypeId": "RD",
        "placeName": "NAPANEE",
        "streetNameDisplayText": "RIVER RD, NAPANEE"
      },
      {
        "electoralDistricts": [
          {
            "election": null,
            "id": 40,
            "name": "Hastings—Lennox and Addington"
          }
        ],
        "pollDivisionIds": [
          10138780
        ],
        "postalCode": "K7R3K8",
        "streetName": "RIVER RD",
        "streetDirectionId": null,
        "streetTypeId": null,
        "placeName": "NAPANEE",
        "streetNameDisplayText": "RIVER RD, NAPANEE"
      },
      {
        "electoralDistricts": [
          {
            "election": null,
            "id": 40,
            "name": "Hastings—Lennox and Addington"
          }
        ],
        "pollDivisionIds": [
          10138780
        ],
        "postalCode": "K7R3K8",
        "streetName": "SAN SOUCI",
        "streetDirectionId": null,
        "streetTypeId": "RD",
        "placeName": "NAPANEE",
        "streetNameDisplayText": "SAN SOUCI RD, NAPANEE"
      },
      {
        "electoralDistricts": [
          {
            "election": null,
            "id": 40,
            "name": "Hastings—Lennox and Addington"
          }
        ],
        "pollDivisionIds": [
          10138780
        ],
        "postalCode": "K7R3K8",
        "streetName": "SANS SOUCI RD RR3",
        "streetDirectionId": null,
        "streetTypeId": "RD",
        "placeName": "NAPANEE",
        "streetNameDisplayText": "SANS SOUCI RD RR3 RD, NAPANEE"
      },
      {
        "electoralDistricts": [
          {
            "election": null,
            "id": 40,
            "name": "Hastings—Lennox and Addington"
          }
        ],
        "pollDivisionIds": [
          10138780
        ],
        "postalCode": "K7R3K8",
        "streetName": "SANS SOUCI",
        "streetDirectionId": null,
        "streetTypeId": "RD",
        "placeName": "NAPANEE",
        "streetNameDisplayText": "SANS SOUCI RD, NAPANEE"
      },
      {
        "electoralDistricts": [
          {
            "election": null,
            "id": 40,
            "name": "Hastings—Lennox and Addington"
          }
        ],
        "pollDivisionIds": [
          10138780
        ],
        "postalCode": "K7R3K8",
        "streetName": "SHERMAN POINT RD",
        "streetDirectionId": null,
        "streetTypeId": "RD",
        "placeName": "NAPANEE",
        "streetNameDisplayText": "SHERMAN POINT RD RD, NAPANEE"
      },
      {
        "electoralDistricts": [
          {
            "election": null,
            "id": 40,
            "name": "Hastings—Lennox and Addington"
          }
        ],
        "pollDivisionIds": [
          10138780
        ],
        "postalCode": "K7R3K8",
        "streetName": "SHERMAN'S POINT",
        "streetDirectionId": null,
        "streetTypeId": "RD",
        "placeName": "NAPANEE",
        "streetNameDisplayText": "SHERMAN'S POINT RD, NAPANEE"
      },
      {
        "electoralDistricts": [
          {
            "election": null,
            "id": 40,
            "name": "Hastings—Lennox and Addington"
          }
        ],
        "pollDivisionIds": [
          10138780
        ],
        "postalCode": "K7R3K8",
        "streetName": "TANY-BYRN",
        "streetDirectionId": null,
        "streetTypeId": "RD",
        "placeName": "NAPANEE",
        "streetNameDisplayText": "TANY-BYRN RD, NAPANEE"
      },
      {
        "electoralDistricts": [
          {
            "election": null,
            "id": 40,
            "name": "Hastings—Lennox and Addington"
          }
        ],
        "pollDivisionIds": [
          10138780
        ],
        "postalCode": "K7R3K8",
        "streetName": "WATER COMBE",
        "streetDirectionId": null,
        "streetTypeId": "RD",
        "placeName": "NAPANEE",
        "streetNameDisplayText": "WATER COMBE RD, NAPANEE"
      }
    ]
  },
  {
    "postal": "K7R5W9",
    "result": []
  },
  {
    "postal": "K7R6T9",
    "result": []
  },
  {
    "postal": "K7R4H1",
    "result": []
  },
  {
    "postal": "K7R7A2",
    "result": []
  },
  {
    "postal": "K7R5G0",
    "result": []
  },
  {
    "postal": "K7R8V5",
    "result": []
  },
  {
    "postal": "K7R2Y8",
    "result": [
      {
        "electoralDistricts": [
          {
            "election": null,
            "id": 40,
            "name": "Hastings—Lennox and Addington"
          }
        ],
        "pollDivisionIds": [
          10138780,
          10138769
        ],
        "postalCode": "K7R2Y8",
        "streetName": "YORK",
        "streetDirectionId": null,
        "streetTypeId": "ST",
        "placeName": "NAPANEE",
        "streetNameDisplayText": "YORK ST, NAPANEE"
      }
    ]
  },
  {
    "postal": "K7R2B6",
    "result": [
      {
        "electoralDistricts": [
          {
            "election": null,
            "id": 40,
            "name": "Hastings—Lennox and Addington"
          }
        ],
        "pollDivisionIds": [
          10138769
        ],
        "postalCode": "K7R2B6",
        "streetName": "DUNDAS",
        "streetDirectionId": "W",
        "streetTypeId": "ST",
        "placeName": "NAPANEE",
        "streetNameDisplayText": "DUNDAS ST W, NAPANEE"
      },
      {
        "electoralDistricts": [
          {
            "election": null,
            "id": 40,
            "name": "Hastings—Lennox and Addington"
          }
        ],
        "pollDivisionIds": [
          10138721
        ],
        "postalCode": "K7R2B6",
        "streetName": "DUNDAS ST.",
        "streetDirectionId": "W",
        "streetTypeId": "ST",
        "placeName": "NAPANEE",
        "streetNameDisplayText": "DUNDAS ST. ST W, NAPANEE"
      }
    ]
  },
  {
    "postal": "K7R4W8",
    "result": []
  },
  {
    "postal": "K7R8H7",
    "result": []
  },
  {
    "postal": "K7R5P1",
    "result": []
  },
  {
    "postal": "K7R2B8",
    "result": [
      {
        "electoralDistricts": [
          {
            "election": null,
            "id": 40,
            "name": "Hastings—Lennox and Addington"
          }
        ],
        "pollDivisionIds": [
          10138769
        ],
        "postalCode": "K7R2B8",
        "streetName": "DUNDAS",
        "streetDirectionId": "W",
        "streetTypeId": "ST",
        "placeName": "NAPANEE",
        "streetNameDisplayText": "DUNDAS ST W, NAPANEE"
      }
    ]
  },
  {
    "postal": "K7R0P2",
    "result": []
  },
  {
    "postal": "K7R9M1",
    "result": []
  },
  {
    "postal": "K7R3G0",
    "result": []
  },
  {
    "postal": "K7R9Z2",
    "result": []
  },
  {
    "postal": "K7R2A0",
    "result": []
  },
  {
    "postal": "K7R6Y0",
    "result": []
  },
  {
    "postal": "K7R2Z8",
    "result": [
      {
        "electoralDistricts": [
          {
            "election": null,
            "id": 40,
            "name": "Hastings—Lennox and Addington"
          }
        ],
        "pollDivisionIds": [
          10138769
        ],
        "postalCode": "K7R2Z8",
        "streetName": "RUSSELL",
        "streetDirectionId": null,
        "streetTypeId": "ST",
        "placeName": "NAPANEE",
        "streetNameDisplayText": "RUSSELL ST, NAPANEE"
      }
    ]
  },
  {
    "postal": "K7R7Y3",
    "result": []
  },
  {
    "postal": "K7R6Z5",
    "result": []
  },
  {
    "postal": "K7R6E0",
    "result": []
  },
  {
    "postal": "K7R9B7",
    "result": []
  },
  {
    "postal": "K7R9S5",
    "result": []
  },
  {
    "postal": "K7R3X3",
    "result": [
      {
        "electoralDistricts": [
          {
            "election": null,
            "id": 40,
            "name": "Hastings—Lennox and Addington"
          }
        ],
        "pollDivisionIds": [
          10138780
        ],
        "postalCode": "K7R3X3",
        "streetName": "CENTRE",
        "streetDirectionId": "S",
        "streetTypeId": "ST",
        "placeName": "NAPANEE",
        "streetNameDisplayText": "CENTRE ST S, NAPANEE"
      }
    ]
  },
  {
    "postal": "K7R7R5",
    "result": []
  },
  {
    "postal": "K7R2X3",
    "result": [
      {
        "electoralDistricts": [
          {
            "election": null,
            "id": 40,
            "name": "Hastings—Lennox and Addington"
          }
        ],
        "pollDivisionIds": [
          10138769
        ],
        "postalCode": "K7R2X3",
        "streetName": "RAGLAN",
        "streetDirectionId": null,
        "streetTypeId": "ST",
        "placeName": "NAPANEE",
        "streetNameDisplayText": "RAGLAN ST, NAPANEE"
      }
    ]
  },
  {
    "postal": "K7R8Z9",
    "result": []
  },
  {
    "postal": "K7R0N4",
    "result": []
  },
  {
    "postal": "K7R1K1",
    "result": [
      {
        "electoralDistricts": [
          {
            "election": null,
            "id": 40,
            "name": "Hastings—Lennox and Addington"
          }
        ],
        "pollDivisionIds": [
          10138769
        ],
        "postalCode": "K7R1K1",
        "streetName": "BRIDGE",
        "streetDirectionId": "E",
        "streetTypeId": "ST",
        "placeName": "NAPANEE",
        "streetNameDisplayText": "BRIDGE ST E, NAPANEE"
      }
    ]
  },
  {
    "postal": "K7R1S3",
    "result": [
      {
        "electoralDistricts": [
          {
            "election": null,
            "id": 40,
            "name": "Hastings—Lennox and Addington"
          }
        ],
        "pollDivisionIds": [
          10138769
        ],
        "postalCode": "K7R1S3",
        "streetName": "EAST",
        "streetDirectionId": null,
        "streetTypeId": "ST",
        "placeName": "NAPANEE",
        "streetNameDisplayText": "EAST ST, NAPANEE"
      }
    ]
  },
  {
    "postal": "K7R6M4",
    "result": []
  },
  {
    "postal": "K7R9A9",
    "result": []
  },
  {
    "postal": "K7R9Z9",
    "result": []
  },
  {
    "postal": "K7R6T4",
    "result": []
  },
  {
    "postal": "K7R0B2",
    "result": []
  },
  {
    "postal": "K7R2L9",
    "result": []
  },
  {
    "postal": "K7R8K9",
    "result": []
  },
  {
    "postal": "K7R2H9",
    "result": [
      {
        "electoralDistricts": [
          {
            "election": null,
            "id": 40,
            "name": "Hastings—Lennox and Addington"
          }
        ],
        "pollDivisionIds": [
          10138769
        ],
        "postalCode": "K7R2H9",
        "streetName": "THOMAS",
        "streetDirectionId": "W",
        "streetTypeId": "ST",
        "placeName": "NAPANEE",
        "streetNameDisplayText": "THOMAS ST W, NAPANEE"
      }
    ]
  },
  {
    "postal": "K7R3Z6",
    "result": [
      {
        "electoralDistricts": [
          {
            "election": null,
            "id": 40,
            "name": "Hastings—Lennox and Addington"
          }
        ],
        "pollDivisionIds": [
          10138777
        ],
        "postalCode": "K7R3Z6",
        "streetName": "ADVANCE",
        "streetDirectionId": null,
        "streetTypeId": "AVE",
        "placeName": "NAPANEE",
        "streetNameDisplayText": "ADVANCE AVE, NAPANEE"
      }
    ]
  },
  {
    "postal": "K7R3B0",
    "result": []
  },
  {
    "postal": "K7R2H8",
    "result": [
      {
        "electoralDistricts": [
          {
            "election": null,
            "id": 40,
            "name": "Hastings—Lennox and Addington"
          }
        ],
        "pollDivisionIds": [
          10138769
        ],
        "postalCode": "K7R2H8",
        "streetName": "THOMAS",
        "streetDirectionId": "W",
        "streetTypeId": "ST",
        "placeName": "NAPANEE",
        "streetNameDisplayText": "THOMAS ST W, NAPANEE"
      }
    ]
  },
  {
    "postal": "K7R3X2",
    "result": [
      {
        "electoralDistricts": [
          {
            "election": null,
            "id": 40,
            "name": "Hastings—Lennox and Addington"
          }
        ],
        "pollDivisionIds": [
          10138769
        ],
        "postalCode": "K7R3X2",
        "streetName": "BEVERLY",
        "streetDirectionId": null,
        "streetTypeId": "ST",
        "placeName": "NAPANEE",
        "streetNameDisplayText": "BEVERLY ST, NAPANEE"
      }
    ]
  },
  {
    "postal": "K7R2E9",
    "result": [
      {
        "electoralDistricts": [
          {
            "election": null,
            "id": 40,
            "name": "Hastings—Lennox and Addington"
          }
        ],
        "pollDivisionIds": [
          10138769
        ],
        "postalCode": "K7R2E9",
        "streetName": "BRIDGE",
        "streetDirectionId": "W",
        "streetTypeId": "ST",
        "placeName": "NAPANEE",
        "streetNameDisplayText": "BRIDGE ST W, NAPANEE"
      }
    ]
  },
  {
    "postal": "K7R9P6",
    "result": []
  },
  {
    "postal": "K7R9E2",
    "result": []
  },
  {
    "postal": "K7R9H2",
    "result": []
  },
  {
    "postal": "K7R1S8",
    "result": [
      {
        "electoralDistricts": [
          {
            "election": null,
            "id": 40,
            "name": "Hastings—Lennox and Addington"
          }
        ],
        "pollDivisionIds": [
          10138769
        ],
        "postalCode": "K7R1S8",
        "streetName": "EAST",
        "streetDirectionId": null,
        "streetTypeId": "ST",
        "placeName": "NAPANEE",
        "streetNameDisplayText": "EAST ST, NAPANEE"
      }
    ]
  },
  {
    "postal": "K7R3M6",
    "result": []
  },
  {
    "postal": "K7R6Z8",
    "result": []
  },
  {
    "postal": "K7R4J2",
    "result": []
  },
  {
    "postal": "K7R9Y1",
    "result": []
  },
  {
    "postal": "K7R8V6",
    "result": []
  },
  {
    "postal": "K7R6B2",
    "result": []
  },
  {
    "postal": "K7R1P8",
    "result": [
      {
        "electoralDistricts": [
          {
            "election": null,
            "id": 40,
            "name": "Hastings—Lennox and Addington"
          }
        ],
        "pollDivisionIds": [
          10138777
        ],
        "postalCode": "K7R1P8",
        "streetName": "CENTRE",
        "streetDirectionId": "N",
        "streetTypeId": "ST",
        "placeName": "NAPANEE",
        "streetNameDisplayText": "CENTRE ST N, NAPANEE"
      }
    ]
  },
  {
    "postal": "K7R0V8",
    "result": []
  },
  {
    "postal": "K7R4Y0",
    "result": []
  },
  {
    "postal": "K7R2T4",
    "result": [
      {
        "electoralDistricts": [
          {
            "election": null,
            "id": 40,
            "name": "Hastings—Lennox and Addington"
          }
        ],
        "pollDivisionIds": [
          10138769
        ],
        "postalCode": "K7R2T4",
        "streetName": "RICHARD",
        "streetDirectionId": null,
        "streetTypeId": "ST",
        "placeName": "NAPANEE",
        "streetNameDisplayText": "RICHARD ST, NAPANEE"
      }
    ]
  },
  {
    "postal": "K7R2S3",
    "result": [
      {
        "electoralDistricts": [
          {
            "election": null,
            "id": 40,
            "name": "Hastings—Lennox and Addington"
          }
        ],
        "pollDivisionIds": [
          10138769
        ],
        "postalCode": "K7R2S3",
        "streetName": "ROBINSON",
        "streetDirectionId": null,
        "streetTypeId": "ST",
        "placeName": "NAPANEE",
        "streetNameDisplayText": "ROBINSON ST, NAPANEE"
      }
    ]
  },
  {
    "postal": "K7R0K0",
    "result": []
  },
  {
    "postal": "K7R5N1",
    "result": []
  },
  {
    "postal": "K7R7T0",
    "result": []
  },
  {
    "postal": "K7R9N2",
    "result": []
  },
  {
    "postal": "K7R5L1",
    "result": []
  },
  {
    "postal": "K7R7G5",
    "result": []
  },
  {
    "postal": "K7R6K2",
    "result": []
  },
  {
    "postal": "K7R6P9",
    "result": []
  },
  {
    "postal": "K7R0E6",
    "result": []
  },
  {
    "postal": "K7R8R9",
    "result": []
  },
  {
    "postal": "K7R3G9",
    "result": [
      {
        "electoralDistricts": [
          {
            "election": null,
            "id": 40,
            "name": "Hastings—Lennox and Addington"
          }
        ],
        "pollDivisionIds": [
          10138780
        ],
        "postalCode": "K7R3G9",
        "streetName": "RIVER",
        "streetDirectionId": null,
        "streetTypeId": "RD",
        "placeName": "NAPANEE",
        "streetNameDisplayText": "RIVER RD, NAPANEE"
      }
    ]
  },
  {
    "postal": "K7R0V7",
    "result": []
  },
  {
    "postal": "K7R2Z1",
    "result": [
      {
        "electoralDistricts": [
          {
            "election": null,
            "id": 40,
            "name": "Hastings—Lennox and Addington"
          }
        ],
        "pollDivisionIds": [
          10138769
        ],
        "postalCode": "K7R2Z1",
        "streetName": "HESSFORD",
        "streetDirectionId": null,
        "streetTypeId": "ST",
        "placeName": "NAPANEE",
        "streetNameDisplayText": "HESSFORD ST, NAPANEE"
      }
    ]
  },
  {
    "postal": "K7R7N1",
    "result": []
  },
  {
    "postal": "K7R3C6",
    "result": [
      {
        "electoralDistricts": [
          {
            "election": null,
            "id": 40,
            "name": "Hastings—Lennox and Addington"
          }
        ],
        "pollDivisionIds": [
          10138780
        ],
        "postalCode": "K7R3C6",
        "streetName": "ORIGINAL",
        "streetDirectionId": null,
        "streetTypeId": "RD",
        "placeName": "NAPANEE",
        "streetNameDisplayText": "ORIGINAL RD, NAPANEE"
      }
    ]
  },
  {
    "postal": "K7R4M1",
    "result": []
  },
  {
    "postal": "K7R9K2",
    "result": []
  },
  {
    "postal": "K7R9S6",
    "result": []
  },
  {
    "postal": "K7R4X1",
    "result": []
  },
  {
    "postal": "K7R8W2",
    "result": []
  },
  {
    "postal": "K7R7N2",
    "result": []
  },
  {
    "postal": "K7R8S3",
    "result": []
  },
  {
    "postal": "K7R4V0",
    "result": []
  },
  {
    "postal": "K7R6W4",
    "result": []
  },
  {
    "postal": "K7R5M1",
    "result": []
  },
  {
    "postal": "K7R0S4",
    "result": []
  },
  {
    "postal": "K7R5X6",
    "result": []
  },
  {
    "postal": "K7R8L5",
    "result": []
  },
  {
    "postal": "K7R5M8",
    "result": []
  },
  {
    "postal": "K7R2G3",
    "result": [
      {
        "electoralDistricts": [
          {
            "election": null,
            "id": 40,
            "name": "Hastings—Lennox and Addington"
          }
        ],
        "pollDivisionIds": [
          10138769
        ],
        "postalCode": "K7R2G3",
        "streetName": "BEVERLY",
        "streetDirectionId": "W",
        "streetTypeId": "ST",
        "placeName": "NAPANEE",
        "streetNameDisplayText": "BEVERLY ST W, NAPANEE"
      },
      {
        "electoralDistricts": [
          {
            "election": null,
            "id": 40,
            "name": "Hastings—Lennox and Addington"
          }
        ],
        "pollDivisionIds": [
          10138769
        ],
        "postalCode": "K7R2G3",
        "streetName": "BRIDGE",
        "streetDirectionId": "W",
        "streetTypeId": "ST",
        "placeName": "NAPANEE",
        "streetNameDisplayText": "BRIDGE ST W, NAPANEE"
      }
    ]
  },
  {
    "postal": "K7R8E4",
    "result": []
  },
  {
    "postal": "K7R7S9",
    "result": []
  },
  {
    "postal": "K7R1K3",
    "result": [
      {
        "electoralDistricts": [
          {
            "election": null,
            "id": 40,
            "name": "Hastings—Lennox and Addington"
          }
        ],
        "pollDivisionIds": [
          10138769
        ],
        "postalCode": "K7R1K3",
        "streetName": "BRIDGE",
        "streetDirectionId": "E",
        "streetTypeId": "ST",
        "placeName": "NAPANEE",
        "streetNameDisplayText": "BRIDGE ST E, NAPANEE"
      }
    ]
  },
  {
    "postal": "K7R4E1",
    "result": []
  },
  {
    "postal": "K7R4R2",
    "result": []
  },
  {
    "postal": "K7R6T0",
    "result": []
  },
  {
    "postal": "K7R3K5",
    "result": [
      {
        "electoralDistricts": [
          {
            "election": null,
            "id": 40,
            "name": "Hastings—Lennox and Addington"
          }
        ],
        "pollDivisionIds": [
          10138780
        ],
        "postalCode": "K7R3K5",
        "streetName": "EDGEWOOD",
        "streetDirectionId": null,
        "streetTypeId": "DR",
        "placeName": "NAPANEE",
        "streetNameDisplayText": "EDGEWOOD DR, NAPANEE"
      }
    ]
  },
  {
    "postal": "K7R3S3",
    "result": [
      {
        "electoralDistricts": [
          {
            "election": null,
            "id": 40,
            "name": "Hastings—Lennox and Addington"
          }
        ],
        "pollDivisionIds": [
          10138777
        ],
        "postalCode": "K7R3S3",
        "streetName": "RICHMOND",
        "streetDirectionId": null,
        "streetTypeId": "BLVD",
        "placeName": "NAPANEE",
        "streetNameDisplayText": "RICHMOND BLVD, NAPANEE"
      }
    ]
  },
  {
    "postal": "K7R3L4",
    "result": [
      {
        "electoralDistricts": [
          {
            "election": null,
            "id": 40,
            "name": "Hastings—Lennox and Addington"
          }
        ],
        "pollDivisionIds": [
          10138777
        ],
        "postalCode": "K7R3L4",
        "streetName": "COUNTY 1",
        "streetDirectionId": "W",
        "streetTypeId": "RD",
        "placeName": "NAPANEE",
        "streetNameDisplayText": "COUNTY 1 RD W, NAPANEE"
      },
      {
        "electoralDistricts": [
          {
            "election": null,
            "id": 40,
            "name": "Hastings—Lennox and Addington"
          }
        ],
        "pollDivisionIds": [
          10138767
        ],
        "postalCode": "K7R3L4",
        "streetName": "COUNTY RD 41",
        "streetDirectionId": null,
        "streetTypeId": null,
        "placeName": "NAPANEE",
        "streetNameDisplayText": "COUNTY RD 41, NAPANEE"
      }
    ]
  },
  {
    "postal": "K7R9Y2",
    "result": []
  },
  {
    "postal": "K7R1E0",
    "result": []
  },
  {
    "postal": "K7R9A4",
    "result": []
  },
  {
    "postal": "K7R1L3",
    "result": [
      {
        "electoralDistricts": [
          {
            "election": null,
            "id": 40,
            "name": "Hastings—Lennox and Addington"
          }
        ],
        "pollDivisionIds": [
          10138769
        ],
        "postalCode": "K7R1L3",
        "streetName": "THOMAS",
        "streetDirectionId": "E",
        "streetTypeId": "ST",
        "placeName": "NAPANEE",
        "streetNameDisplayText": "THOMAS ST E, NAPANEE"
      }
    ]
  },
  {
    "postal": "K7R6N1",
    "result": []
  },
  {
    "postal": "K7R6G7",
    "result": []
  },
  {
    "postal": "K7R7W1",
    "result": []
  },
  {
    "postal": "K7R4M6",
    "result": []
  },
  {
    "postal": "K7R1K0",
    "result": []
  },
  {
    "postal": "K7R3E2",
    "result": [
      {
        "electoralDistricts": [
          {
            "election": null,
            "id": 40,
            "name": "Hastings—Lennox and Addington"
          }
        ],
        "pollDivisionIds": [
          10138780
        ],
        "postalCode": "K7R3E2",
        "streetName": "BLAKE",
        "streetDirectionId": null,
        "streetTypeId": "ST",
        "placeName": "NAPANEE",
        "streetNameDisplayText": "BLAKE ST, NAPANEE"
      }
    ]
  },
  {
    "postal": "K7R5H4",
    "result": []
  },
  {
    "postal": "K7R1K7",
    "result": [
      {
        "electoralDistricts": [
          {
            "election": null,
            "id": 40,
            "name": "Hastings—Lennox and Addington"
          }
        ],
        "pollDivisionIds": [
          10138769
        ],
        "postalCode": "K7R1K7",
        "streetName": "THOMAS",
        "streetDirectionId": "E",
        "streetTypeId": "ST",
        "placeName": "NAPANEE",
        "streetNameDisplayText": "THOMAS ST E, NAPANEE"
      }
    ]
  },
  {
    "postal": "K7R0H0",
    "result": []
  },
  {
    "postal": "K7R0J3",
    "result": []
  },
  {
    "postal": "K7R1X6",
    "result": [
      {
        "electoralDistricts": [
          {
            "election": null,
            "id": 40,
            "name": "Hastings—Lennox and Addington"
          }
        ],
        "pollDivisionIds": [
          10138769
        ],
        "postalCode": "K7R1X6",
        "streetName": "MILL",
        "streetDirectionId": "W",
        "streetTypeId": "ST",
        "placeName": "NAPANEE",
        "streetNameDisplayText": "MILL ST W, NAPANEE"
      }
    ]
  },
  {
    "postal": "K7R2Z6",
    "result": [
      {
        "electoralDistricts": [
          {
            "election": null,
            "id": 40,
            "name": "Hastings—Lennox and Addington"
          }
        ],
        "pollDivisionIds": [
          10138769
        ],
        "postalCode": "K7R2Z6",
        "streetName": "SLASH",
        "streetDirectionId": null,
        "streetTypeId": "RD",
        "placeName": "NAPANEE",
        "streetNameDisplayText": "SLASH RD, NAPANEE"
      }
    ]
  },
  {
    "postal": "K7R4R9",
    "result": []
  },
  {
    "postal": "K7R0W8",
    "result": []
  },
  {
    "postal": "K7R1L4",
    "result": [
      {
        "electoralDistricts": [
          {
            "election": null,
            "id": 40,
            "name": "Hastings—Lennox and Addington"
          }
        ],
        "pollDivisionIds": [
          10138771
        ],
        "postalCode": "K7R1L4",
        "streetName": "THOMAS",
        "streetDirectionId": "E",
        "streetTypeId": "ST",
        "placeName": "NAPANEE",
        "streetNameDisplayText": "THOMAS ST E, NAPANEE"
      }
    ]
  },
  {
    "postal": "K7R0C8",
    "result": [
      {
        "electoralDistricts": [
          {
            "election": null,
            "id": 40,
            "name": "Hastings—Lennox and Addington"
          }
        ],
        "pollDivisionIds": [
          10138777
        ],
        "postalCode": "K7R0C8",
        "streetName": "HERITAGE PARK",
        "streetDirectionId": null,
        "streetTypeId": "DR",
        "placeName": "NAPANEE",
        "streetNameDisplayText": "HERITAGE PARK DR, NAPANEE"
      }
    ]
  },
  {
    "postal": "K7R9X7",
    "result": []
  },
  {
    "postal": "K7R4T1",
    "result": []
  },
  {
    "postal": "K7R0M0",
    "result": []
  },
  {
    "postal": "K7R6A2",
    "result": []
  },
  {
    "postal": "K7R9S8",
    "result": []
  },
  {
    "postal": "K7R9T4",
    "result": []
  },
  {
    "postal": "K7R9Y4",
    "result": []
  },
  {
    "postal": "K7R6G5",
    "result": []
  },
  {
    "postal": "K7R6H9",
    "result": []
  },
  {
    "postal": "K7R2P3",
    "result": [
      {
        "electoralDistricts": [
          {
            "election": null,
            "id": 40,
            "name": "Hastings—Lennox and Addington"
          }
        ],
        "pollDivisionIds": [
          10138769
        ],
        "postalCode": "K7R2P3",
        "streetName": "WEST",
        "streetDirectionId": null,
        "streetTypeId": "ST",
        "placeName": "NAPANEE",
        "streetNameDisplayText": "WEST ST, NAPANEE"
      }
    ]
  },
  {
    "postal": "K7R1T6",
    "result": [
      {
        "electoralDistricts": [
          {
            "election": null,
            "id": 40,
            "name": "Hastings—Lennox and Addington"
          }
        ],
        "pollDivisionIds": [
          10138769
        ],
        "postalCode": "K7R1T6",
        "streetName": "ADELPHI",
        "streetDirectionId": null,
        "streetTypeId": "ST",
        "placeName": "NAPANEE",
        "streetNameDisplayText": "ADELPHI ST, NAPANEE"
      }
    ]
  },
  {
    "postal": "K7R4P6",
    "result": []
  },
  {
    "postal": "K7R3K1",
    "result": [
      {
        "electoralDistricts": [
          {
            "election": null,
            "id": 40,
            "name": "Hastings—Lennox and Addington"
          }
        ],
        "pollDivisionIds": [
          10138780
        ],
        "postalCode": "K7R3K1",
        "streetName": "SOUTHCREST",
        "streetDirectionId": null,
        "streetTypeId": "DR",
        "placeName": "NAPANEE",
        "streetNameDisplayText": "SOUTHCREST DR, NAPANEE"
      }
    ]
  },
  {
    "postal": "K7R6X4",
    "result": []
  },
  {
    "postal": "K7R4M8",
    "result": []
  },
  {
    "postal": "K7R2Y1",
    "result": [
      {
        "electoralDistricts": [
          {
            "election": null,
            "id": 40,
            "name": "Hastings—Lennox and Addington"
          }
        ],
        "pollDivisionIds": [
          10138769
        ],
        "postalCode": "K7R2Y1",
        "streetName": "SIMCOE",
        "streetDirectionId": null,
        "streetTypeId": "ST",
        "placeName": "NAPANEE",
        "streetNameDisplayText": "SIMCOE ST, NAPANEE"
      }
    ]
  },
  {
    "postal": "K7R6M1",
    "result": []
  },
  {
    "postal": "K7R5L8",
    "result": []
  },
  {
    "postal": "K7R3P6",
    "result": [
      {
        "electoralDistricts": [
          {
            "election": null,
            "id": 40,
            "name": "Hastings—Lennox and Addington"
          }
        ],
        "pollDivisionIds": [
          10138782
        ],
        "postalCode": "K7R3P6",
        "streetName": "COUNTY 8",
        "streetDirectionId": null,
        "streetTypeId": "RD",
        "placeName": "NAPANEE",
        "streetNameDisplayText": "COUNTY 8 RD, NAPANEE"
      },
      {
        "electoralDistricts": [
          {
            "election": null,
            "id": 40,
            "name": "Hastings—Lennox and Addington"
          }
        ],
        "pollDivisionIds": [
          10138780
        ],
        "postalCode": "K7R3P6",
        "streetName": "MCCABE",
        "streetDirectionId": null,
        "streetTypeId": "ST",
        "placeName": "NAPANEE",
        "streetNameDisplayText": "MCCABE ST, NAPANEE"
      }
    ]
  },
  {
    "postal": "K7R9A5",
    "result": []
  },
  {
    "postal": "K7R7K1",
    "result": []
  },
  {
    "postal": "K7R3J4",
    "result": [
      {
        "electoralDistricts": [
          {
            "election": null,
            "id": 40,
            "name": "Hastings—Lennox and Addington"
          }
        ],
        "pollDivisionIds": [
          10138780
        ],
        "postalCode": "K7R3J4",
        "streetName": "SARAH",
        "streetDirectionId": null,
        "streetTypeId": "ST",
        "placeName": "NAPANEE",
        "streetNameDisplayText": "SARAH ST, NAPANEE"
      }
    ]
  },
  {
    "postal": "K7R5E7",
    "result": []
  },
  {
    "postal": "K7R3A7",
    "result": [
      {
        "electoralDistricts": [
          {
            "election": null,
            "id": 40,
            "name": "Hastings—Lennox and Addington"
          }
        ],
        "pollDivisionIds": [
          10138780
        ],
        "postalCode": "K7R3A7",
        "streetName": "ONTARIO",
        "streetDirectionId": null,
        "streetTypeId": "ST",
        "placeName": "NAPANEE",
        "streetNameDisplayText": "ONTARIO ST, NAPANEE"
      },
      {
        "electoralDistricts": [
          {
            "election": null,
            "id": 40,
            "name": "Hastings—Lennox and Addington"
          }
        ],
        "pollDivisionIds": [
          10138780
        ],
        "postalCode": "K7R3A7",
        "streetName": "PALACE",
        "streetDirectionId": null,
        "streetTypeId": "RD",
        "placeName": "NAPANEE",
        "streetNameDisplayText": "PALACE RD, NAPANEE"
      }
    ]
  },
  {
    "postal": "K7R1B9",
    "result": [
      {
        "electoralDistricts": [
          {
            "election": null,
            "id": 40,
            "name": "Hastings—Lennox and Addington"
          }
        ],
        "pollDivisionIds": [
          10138777
        ],
        "postalCode": "K7R1B9",
        "streetName": "KING",
        "streetDirectionId": null,
        "streetTypeId": "ST",
        "placeName": "NAPANEE",
        "streetNameDisplayText": "KING ST, NAPANEE"
      }
    ]
  },
  {
    "postal": "K7R9E8",
    "result": []
  },
  {
    "postal": "K7R1C9",
    "result": [
      {
        "electoralDistricts": [
          {
            "election": null,
            "id": 40,
            "name": "Hastings—Lennox and Addington"
          }
        ],
        "pollDivisionIds": [
          10138721,
          10138777
        ],
        "postalCode": "K7R1C9",
        "streetName": "NEWBURGH",
        "streetDirectionId": null,
        "streetTypeId": "RD",
        "placeName": "NAPANEE",
        "streetNameDisplayText": "NEWBURGH RD, NAPANEE"
      }
    ]
  },
  {
    "postal": "K7R3B5",
    "result": [
      {
        "electoralDistricts": [
          {
            "election": null,
            "id": 40,
            "name": "Hastings—Lennox and Addington"
          }
        ],
        "pollDivisionIds": [
          10138780
        ],
        "postalCode": "K7R3B5",
        "streetName": "PALACE",
        "streetDirectionId": null,
        "streetTypeId": "RD",
        "placeName": "NAPANEE",
        "streetNameDisplayText": "PALACE RD, NAPANEE"
      }
    ]
  },
  {
    "postal": "K7R8R0",
    "result": []
  },
  {
    "postal": "K7R3P2",
    "result": [
      {
        "electoralDistricts": [
          {
            "election": null,
            "id": 40,
            "name": "Hastings—Lennox and Addington"
          }
        ],
        "pollDivisionIds": [
          10138769
        ],
        "postalCode": "K7R3P2",
        "streetName": "RAGLAN",
        "streetDirectionId": null,
        "streetTypeId": "ST",
        "placeName": "NAPANEE",
        "streetNameDisplayText": "RAGLAN ST, NAPANEE"
      }
    ]
  },
  {
    "postal": "K7R5V4",
    "result": []
  },
  {
    "postal": "K7R4H0",
    "result": []
  },
  {
    "postal": "K7R4S7",
    "result": []
  },
  {
    "postal": "K7R6C2",
    "result": []
  },
  {
    "postal": "K7R8W3",
    "result": []
  },
  {
    "postal": "K7R4M5",
    "result": []
  },
  {
    "postal": "K7R5T1",
    "result": []
  },
  {
    "postal": "K7R3B3",
    "result": [
      {
        "electoralDistricts": [
          {
            "election": null,
            "id": 40,
            "name": "Hastings—Lennox and Addington"
          }
        ],
        "pollDivisionIds": [
          10138780
        ],
        "postalCode": "K7R3B3",
        "streetName": "PALACE",
        "streetDirectionId": null,
        "streetTypeId": "RD",
        "placeName": "NAPANEE",
        "streetNameDisplayText": "PALACE RD, NAPANEE"
      }
    ]
  },
  {
    "postal": "K7R6C6",
    "result": []
  },
  {
    "postal": "K7R7N8",
    "result": []
  },
  {
    "postal": "K7R2Y3",
    "result": [
      {
        "electoralDistricts": [
          {
            "election": null,
            "id": 40,
            "name": "Hastings—Lennox and Addington"
          }
        ],
        "pollDivisionIds": [
          10138769
        ],
        "postalCode": "K7R2Y3",
        "streetName": "SIMCOE",
        "streetDirectionId": null,
        "streetTypeId": "ST",
        "placeName": "NAPANEE",
        "streetNameDisplayText": "SIMCOE ST, NAPANEE"
      }
    ]
  },
  {
    "postal": "K7R2R6",
    "result": [
      {
        "electoralDistricts": [
          {
            "election": null,
            "id": 40,
            "name": "Hastings—Lennox and Addington"
          }
        ],
        "pollDivisionIds": [
          10138769
        ],
        "postalCode": "K7R2R6",
        "streetName": "BELLEVILLE",
        "streetDirectionId": null,
        "streetTypeId": "RD",
        "placeName": "NAPANEE",
        "streetNameDisplayText": "BELLEVILLE RD, NAPANEE"
      }
    ]
  },
  {
    "postal": "K7R7N3",
    "result": []
  },
  {
    "postal": "K7R8J2",
    "result": []
  },
  {
    "postal": "K7R6A9",
    "result": []
  },
  {
    "postal": "K7R3V2",
    "result": [
      {
        "electoralDistricts": [
          {
            "election": null,
            "id": 40,
            "name": "Hastings—Lennox and Addington"
          }
        ],
        "pollDivisionIds": [
          10138769
        ],
        "postalCode": "K7R3V2",
        "streetName": "REID",
        "streetDirectionId": null,
        "streetTypeId": "ST",
        "placeName": "NAPANEE",
        "streetNameDisplayText": "REID ST, NAPANEE"
      }
    ]
  },
  {
    "postal": "K7R2N3",
    "result": [
      {
        "electoralDistricts": [
          {
            "election": null,
            "id": 40,
            "name": "Hastings—Lennox and Addington"
          }
        ],
        "pollDivisionIds": [
          10138769
        ],
        "postalCode": "K7R2N3",
        "streetName": "ROBERT",
        "streetDirectionId": null,
        "streetTypeId": "ST",
        "placeName": "NAPANEE",
        "streetNameDisplayText": "ROBERT ST, NAPANEE"
      }
    ]
  },
  {
    "postal": "K7R1S5",
    "result": [
      {
        "electoralDistricts": [
          {
            "election": null,
            "id": 40,
            "name": "Hastings—Lennox and Addington"
          }
        ],
        "pollDivisionIds": [
          10138769
        ],
        "postalCode": "K7R1S5",
        "streetName": "EAST",
        "streetDirectionId": null,
        "streetTypeId": "ST",
        "placeName": "NAPANEE",
        "streetNameDisplayText": "EAST ST, NAPANEE"
      }
    ]
  },
  {
    "postal": "K7R4T7",
    "result": []
  },
  {
    "postal": "K7R6Y7",
    "result": []
  },
  {
    "postal": "K7R0W7",
    "result": []
  },
  {
    "postal": "K7R2W9",
    "result": [
      {
        "electoralDistricts": [
          {
            "election": null,
            "id": 40,
            "name": "Hastings—Lennox and Addington"
          }
        ],
        "pollDivisionIds": [
          10138769
        ],
        "postalCode": "K7R2W9",
        "streetName": "RAGLAN",
        "streetDirectionId": null,
        "streetTypeId": "ST",
        "placeName": "NAPANEE",
        "streetNameDisplayText": "RAGLAN ST, NAPANEE"
      }
    ]
  },
  {
    "postal": "K7R8V0",
    "result": []
  },
  {
    "postal": "K7R0H4",
    "result": []
  },
  {
    "postal": "K7R2T1",
    "result": [
      {
        "electoralDistricts": [
          {
            "election": null,
            "id": 40,
            "name": "Hastings—Lennox and Addington"
          }
        ],
        "pollDivisionIds": [
          10138769
        ],
        "postalCode": "K7R2T1",
        "streetName": "RICHARD",
        "streetDirectionId": null,
        "streetTypeId": "ST",
        "placeName": "NAPANEE",
        "streetNameDisplayText": "RICHARD ST, NAPANEE"
      }
    ]
  },
  {
    "postal": "K7R1B1",
    "result": [
      {
        "electoralDistricts": [
          {
            "election": null,
            "id": 40,
            "name": "Hastings—Lennox and Addington"
          }
        ],
        "pollDivisionIds": [
          10138780
        ],
        "postalCode": "K7R1B1",
        "streetName": "COUNTY RD 2",
        "streetDirectionId": null,
        "streetTypeId": null,
        "placeName": "NAPANEE",
        "streetNameDisplayText": "COUNTY RD 2, NAPANEE"
      },
      {
        "electoralDistricts": [
          {
            "election": null,
            "id": 40,
            "name": "Hastings—Lennox and Addington"
          }
        ],
        "pollDivisionIds": [
          10138780
        ],
        "postalCode": "K7R1B1",
        "streetName": "COUNTY ROAD 2",
        "streetDirectionId": null,
        "streetTypeId": null,
        "placeName": "NAPANEE",
        "streetNameDisplayText": "COUNTY ROAD 2, NAPANEE"
      }
    ]
  },
  {
    "postal": "K7R8B6",
    "result": []
  },
  {
    "postal": "K7R6H1",
    "result": []
  },
  {
    "postal": "K7R8T8",
    "result": []
  },
  {
    "postal": "K7R0T4",
    "result": []
  },
  {
    "postal": "K7R2C4",
    "result": [
      {
        "electoralDistricts": [
          {
            "election": null,
            "id": 40,
            "name": "Hastings—Lennox and Addington"
          }
        ],
        "pollDivisionIds": [
          10138769
        ],
        "postalCode": "K7R2C4",
        "streetName": "BRIDGE",
        "streetDirectionId": "W",
        "streetTypeId": "ST",
        "placeName": "NAPANEE",
        "streetNameDisplayText": "BRIDGE ST W, NAPANEE"
      }
    ]
  },
  {
    "postal": "K7R8N3",
    "result": []
  },
  {
    "postal": "K7R4L8",
    "result": []
  },
  {
    "postal": "K7R2B5",
    "result": [
      {
        "electoralDistricts": [
          {
            "election": null,
            "id": 40,
            "name": "Hastings—Lennox and Addington"
          }
        ],
        "pollDivisionIds": [
          10138769
        ],
        "postalCode": "K7R2B5",
        "streetName": "DUNDAS",
        "streetDirectionId": "W",
        "streetTypeId": "ST",
        "placeName": "NAPANEE",
        "streetNameDisplayText": "DUNDAS ST W, NAPANEE"
      }
    ]
  },
  {
    "postal": "K7R3H1",
    "result": [
      {
        "electoralDistricts": [
          {
            "election": null,
            "id": 40,
            "name": "Hastings—Lennox and Addington"
          }
        ],
        "pollDivisionIds": [
          10138777
        ],
        "postalCode": "K7R3H1",
        "streetName": "COUNTY ROAD 1",
        "streetDirectionId": "W",
        "streetTypeId": null,
        "placeName": "NAPANEE",
        "streetNameDisplayText": "COUNTY ROAD 1 W, NAPANEE"
      },
      {
        "electoralDistricts": [
          {
            "election": null,
            "id": 40,
            "name": "Hastings—Lennox and Addington"
          }
        ],
        "pollDivisionIds": [
          10138780
        ],
        "postalCode": "K7R3H1",
        "streetName": "RIVER",
        "streetDirectionId": null,
        "streetTypeId": "RD",
        "placeName": "NAPANEE",
        "streetNameDisplayText": "RIVER RD, NAPANEE"
      }
    ]
  },
  {
    "postal": "K7R4Y1",
    "result": []
  },
  {
    "postal": "K7R7E2",
    "result": []
  },
  {
    "postal": "K7R2P5",
    "result": [
      {
        "electoralDistricts": [
          {
            "election": null,
            "id": 40,
            "name": "Hastings—Lennox and Addington"
          }
        ],
        "pollDivisionIds": [
          10138769
        ],
        "postalCode": "K7R2P5",
        "streetName": "WEST",
        "streetDirectionId": null,
        "streetTypeId": "ST",
        "placeName": "NAPANEE",
        "streetNameDisplayText": "WEST ST, NAPANEE"
      }
    ]
  },
  {
    "postal": "K7R8R7",
    "result": []
  },
  {
    "postal": "K7R9P1",
    "result": []
  },
  {
    "postal": "K7R3B8",
    "result": [
      {
        "electoralDistricts": [
          {
            "election": null,
            "id": 40,
            "name": "Hastings—Lennox and Addington"
          }
        ],
        "pollDivisionIds": [
          10138780
        ],
        "postalCode": "K7R3B8",
        "streetName": "YEOMANS",
        "streetDirectionId": null,
        "streetTypeId": "ST",
        "placeName": "NAPANEE",
        "streetNameDisplayText": "YEOMANS ST, NAPANEE"
      }
    ]
  },
  {
    "postal": "K7R3P7",
    "result": [
      {
        "electoralDistricts": [
          {
            "election": null,
            "id": 40,
            "name": "Hastings—Lennox and Addington"
          }
        ],
        "pollDivisionIds": [
          10138777
        ],
        "postalCode": "K7R3P7",
        "streetName": "QUEEN",
        "streetDirectionId": null,
        "streetTypeId": "ST",
        "placeName": "NAPANEE",
        "streetNameDisplayText": "QUEEN ST, NAPANEE"
      }
    ]
  },
  {
    "postal": "K7R9B2",
    "result": []
  },
  {
    "postal": "K7R6Z3",
    "result": []
  },
  {
    "postal": "K7R4N5",
    "result": []
  },
  {
    "postal": "K7R8T3",
    "result": []
  },
  {
    "postal": "K7R1V2",
    "result": [
      {
        "electoralDistricts": [
          {
            "election": null,
            "id": 40,
            "name": "Hastings—Lennox and Addington"
          }
        ],
        "pollDivisionIds": [
          10138769
        ],
        "postalCode": "K7R1V2",
        "streetName": "FRONT",
        "streetDirectionId": null,
        "streetTypeId": "ST",
        "placeName": "NAPANEE",
        "streetNameDisplayText": "FRONT ST, NAPANEE"
      }
    ]
  },
  {
    "postal": "K7R1Y0",
    "result": []
  },
  {
    "postal": "K7R3G6",
    "result": [
      {
        "electoralDistricts": [
          {
            "election": null,
            "id": 40,
            "name": "Hastings—Lennox and Addington"
          }
        ],
        "pollDivisionIds": [
          10138780
        ],
        "postalCode": "K7R3G6",
        "streetName": "BRIGGS",
        "streetDirectionId": null,
        "streetTypeId": "ST",
        "placeName": "NAPANEE",
        "streetNameDisplayText": "BRIGGS ST, NAPANEE"
      }
    ]
  },
  {
    "postal": "K7R3H7",
    "result": [
      {
        "electoralDistricts": [
          {
            "election": null,
            "id": 40,
            "name": "Hastings—Lennox and Addington"
          }
        ],
        "pollDivisionIds": [
          10138780
        ],
        "postalCode": "K7R3H7",
        "streetName": "ALFRED",
        "streetDirectionId": null,
        "streetTypeId": "ST",
        "placeName": "NAPANEE",
        "streetNameDisplayText": "ALFRED ST, NAPANEE"
      }
    ]
  },
  {
    "postal": "K7R7X8",
    "result": []
  },
  {
    "postal": "K7R0C7",
    "result": []
  },
  {
    "postal": "K7R0W9",
    "result": []
  },
  {
    "postal": "K7R8E6",
    "result": []
  },
  {
    "postal": "K7R9Z8",
    "result": []
  },
  {
    "postal": "K7R3P4",
    "result": [
      {
        "electoralDistricts": [
          {
            "election": null,
            "id": 40,
            "name": "Hastings—Lennox and Addington"
          }
        ],
        "pollDivisionIds": [
          10138769
        ],
        "postalCode": "K7R3P4",
        "streetName": "YORK",
        "streetDirectionId": null,
        "streetTypeId": "ST",
        "placeName": "NAPANEE",
        "streetNameDisplayText": "YORK ST, NAPANEE"
      }
    ]
  },
  {
    "postal": "K7R6L8",
    "result": []
  },
  {
    "postal": "K7R2R4",
    "result": [
      {
        "electoralDistricts": [
          {
            "election": null,
            "id": 40,
            "name": "Hastings—Lennox and Addington"
          }
        ],
        "pollDivisionIds": [
          10138769
        ],
        "postalCode": "K7R2R4",
        "streetName": "BELLEVILLE",
        "streetDirectionId": null,
        "streetTypeId": "RD",
        "placeName": "NAPANEE",
        "streetNameDisplayText": "BELLEVILLE RD, NAPANEE"
      }
    ]
  },
  {
    "postal": "K7R2W1",
    "result": [
      {
        "electoralDistricts": [
          {
            "election": null,
            "id": 40,
            "name": "Hastings—Lennox and Addington"
          }
        ],
        "pollDivisionIds": [
          10138769
        ],
        "postalCode": "K7R2W1",
        "streetName": "UNION",
        "streetDirectionId": null,
        "streetTypeId": "ST",
        "placeName": "NAPANEE",
        "streetNameDisplayText": "UNION ST, NAPANEE"
      }
    ]
  },
  {
    "postal": "K7R9H8",
    "result": []
  },
  {
    "postal": "K7R8X9",
    "result": []
  },
  {
    "postal": "K7R7H4",
    "result": []
  },
  {
    "postal": "K7R3J1",
    "result": [
      {
        "electoralDistricts": [
          {
            "election": null,
            "id": 40,
            "name": "Hastings—Lennox and Addington"
          }
        ],
        "pollDivisionIds": [
          10138780,
          10138721
        ],
        "postalCode": "K7R3J1",
        "streetName": "ALFRED",
        "streetDirectionId": null,
        "streetTypeId": "ST",
        "placeName": "NAPANEE",
        "streetNameDisplayText": "ALFRED ST, NAPANEE"
      }
    ]
  },
  {
    "postal": "K7R1P4",
    "result": []
  },
  {
    "postal": "K7R2A3",
    "result": [
      {
        "electoralDistricts": [
          {
            "election": null,
            "id": 40,
            "name": "Hastings—Lennox and Addington"
          }
        ],
        "pollDivisionIds": [
          10138769
        ],
        "postalCode": "K7R2A3",
        "streetName": "DUNDAS",
        "streetDirectionId": "W",
        "streetTypeId": "ST",
        "placeName": "NAPANEE",
        "streetNameDisplayText": "DUNDAS ST W, NAPANEE"
      }
    ]
  },
  {
    "postal": "K7R0Z1",
    "result": []
  },
  {
    "postal": "K7R1C1",
    "result": [
      {
        "electoralDistricts": [
          {
            "election": null,
            "id": 40,
            "name": "Hastings—Lennox and Addington"
          }
        ],
        "pollDivisionIds": [
          10138777
        ],
        "postalCode": "K7R1C1",
        "streetName": "QUEEN",
        "streetDirectionId": null,
        "streetTypeId": "ST",
        "placeName": "NAPANEE",
        "streetNameDisplayText": "QUEEN ST, NAPANEE"
      }
    ]
  },
  {
    "postal": "K7R0H3",
    "result": []
  },
  {
    "postal": "K7R7B0",
    "result": []
  },
  {
    "postal": "K7R5K2",
    "result": []
  },
  {
    "postal": "K7R1E9",
    "result": [
      {
        "electoralDistricts": [
          {
            "election": null,
            "id": 40,
            "name": "Hastings—Lennox and Addington"
          }
        ],
        "pollDivisionIds": [
          10138777
        ],
        "postalCode": "K7R1E9",
        "streetName": "CAMDEN",
        "streetDirectionId": null,
        "streetTypeId": "RD",
        "placeName": "NAPANEE",
        "streetNameDisplayText": "CAMDEN RD, NAPANEE"
      }
    ]
  },
  {
    "postal": "K7R9W7",
    "result": []
  },
  {
    "postal": "K7R5W6",
    "result": []
  },
  {
    "postal": "K7R6S6",
    "result": []
  },
  {
    "postal": "K7R2P8",
    "result": [
      {
        "electoralDistricts": [
          {
            "election": null,
            "id": 40,
            "name": "Hastings—Lennox and Addington"
          }
        ],
        "pollDivisionIds": [
          10138769
        ],
        "postalCode": "K7R2P8",
        "streetName": "WEST",
        "streetDirectionId": null,
        "streetTypeId": "ST",
        "placeName": "NAPANEE",
        "streetNameDisplayText": "WEST ST, NAPANEE"
      }
    ]
  },
  {
    "postal": "K7R4P8",
    "result": []
  },
  {
    "postal": "K7R0V9",
    "result": []
  },
  {
    "postal": "K7R5Y2",
    "result": []
  },
  {
    "postal": "K7R7Z7",
    "result": []
  },
  {
    "postal": "K7R6Y8",
    "result": []
  },
  {
    "postal": "K7R2G7",
    "result": [
      {
        "electoralDistricts": [
          {
            "election": null,
            "id": 40,
            "name": "Hastings—Lennox and Addington"
          }
        ],
        "pollDivisionIds": [
          10138769
        ],
        "postalCode": "K7R2G7",
        "streetName": "THOMAS",
        "streetDirectionId": "W",
        "streetTypeId": "ST",
        "placeName": "NAPANEE",
        "streetNameDisplayText": "THOMAS ST W, NAPANEE"
      }
    ]
  },
  {
    "postal": "K7R8C1",
    "result": []
  },
  {
    "postal": "K7R5C5",
    "result": []
  },
  {
    "postal": "K7R2X8",
    "result": [
      {
        "electoralDistricts": [
          {
            "election": null,
            "id": 40,
            "name": "Hastings—Lennox and Addington"
          }
        ],
        "pollDivisionIds": [
          10138769
        ],
        "postalCode": "K7R2X8",
        "streetName": "SIMCOE",
        "streetDirectionId": null,
        "streetTypeId": "ST",
        "placeName": "NAPANEE",
        "streetNameDisplayText": "SIMCOE ST, NAPANEE"
      }
    ]
  },
  {
    "postal": "K7R1W5",
    "result": [
      {
        "electoralDistricts": [
          {
            "election": null,
            "id": 40,
            "name": "Hastings—Lennox and Addington"
          }
        ],
        "pollDivisionIds": [
          10138769
        ],
        "postalCode": "K7R1W5",
        "streetName": "WATER",
        "streetDirectionId": "W",
        "streetTypeId": "ST",
        "placeName": "NAPANEE",
        "streetNameDisplayText": "WATER ST W, NAPANEE"
      }
    ]
  },
  {
    "postal": "K7R7G0",
    "result": []
  },
  {
    "postal": "K7R8J8",
    "result": []
  },
  {
    "postal": "K7R3Y0",
    "result": []
  },
  {
    "postal": "K7R9T7",
    "result": []
  },
  {
    "postal": "K7R5P4",
    "result": []
  },
  {
    "postal": "K7R4B0",
    "result": []
  },
  {
    "postal": "K7R9N8",
    "result": []
  },
  {
    "postal": "K7R4A7",
    "result": [
      {
        "electoralDistricts": [
          {
            "election": null,
            "id": 40,
            "name": "Hastings—Lennox and Addington"
          }
        ],
        "pollDivisionIds": [
          10138777
        ],
        "postalCode": "K7R4A7",
        "streetName": "ADVANCE",
        "streetDirectionId": null,
        "streetTypeId": "AVE",
        "placeName": "NAPANEE",
        "streetNameDisplayText": "ADVANCE AVE, NAPANEE"
      }
    ]
  },
  {
    "postal": "K7R4H9",
    "result": []
  },
  {
    "postal": "K7R6X1",
    "result": []
  },
  {
    "postal": "K7R9Y7",
    "result": []
  },
  {
    "postal": "K7R2Y5",
    "result": [
      {
        "electoralDistricts": [
          {
            "election": null,
            "id": 40,
            "name": "Hastings—Lennox and Addington"
          }
        ],
        "pollDivisionIds": [
          10138769
        ],
        "postalCode": "K7R2Y5",
        "streetName": "SIMCOE",
        "streetDirectionId": null,
        "streetTypeId": "ST",
        "placeName": "NAPANEE",
        "streetNameDisplayText": "SIMCOE ST, NAPANEE"
      }
    ]
  },
  {
    "postal": "K7R8L7",
    "result": []
  },
  {
    "postal": "K7R2A8",
    "result": [
      {
        "electoralDistricts": [
          {
            "election": null,
            "id": 40,
            "name": "Hastings—Lennox and Addington"
          }
        ],
        "pollDivisionIds": [
          10138769
        ],
        "postalCode": "K7R2A8",
        "streetName": "DUNDAS",
        "streetDirectionId": "W",
        "streetTypeId": "ST",
        "placeName": "NAPANEE",
        "streetNameDisplayText": "DUNDAS ST W, NAPANEE"
      }
    ]
  },
  {
    "postal": "K7R2K9",
    "result": [
      {
        "electoralDistricts": [
          {
            "election": null,
            "id": 40,
            "name": "Hastings—Lennox and Addington"
          }
        ],
        "pollDivisionIds": [
          10138769
        ],
        "postalCode": "K7R2K9",
        "streetName": "FIRST",
        "streetDirectionId": null,
        "streetTypeId": "AVE",
        "placeName": "NAPANEE",
        "streetNameDisplayText": "FIRST AVE, NAPANEE"
      }
    ]
  },
  {
    "postal": "K7R3E5",
    "result": [
      {
        "electoralDistricts": [
          {
            "election": null,
            "id": 40,
            "name": "Hastings—Lennox and Addington"
          }
        ],
        "pollDivisionIds": [
          10138780
        ],
        "postalCode": "K7R3E5",
        "streetName": "CENTRE",
        "streetDirectionId": "S",
        "streetTypeId": "ST",
        "placeName": "NAPANEE",
        "streetNameDisplayText": "CENTRE ST S, NAPANEE"
      }
    ]
  },
  {
    "postal": "K7R8N6",
    "result": []
  },
  {
    "postal": "K7R8J4",
    "result": []
  },
  {
    "postal": "K7R4R7",
    "result": []
  },
  {
    "postal": "K7R9K1",
    "result": []
  },
  {
    "postal": "K7R8E1",
    "result": []
  },
  {
    "postal": "K7R0R1",
    "result": []
  },
  {
    "postal": "K7R4J3",
    "result": []
  },
  {
    "postal": "K7R7E7",
    "result": []
  },
  {
    "postal": "K7R0J0",
    "result": []
  },
  {
    "postal": "K7R7R8",
    "result": []
  },
  {
    "postal": "K7R9X0",
    "result": []
  },
  {
    "postal": "K7R7P6",
    "result": []
  },
  {
    "postal": "K7R0R7",
    "result": []
  },
  {
    "postal": "K7R5W1",
    "result": []
  },
  {
    "postal": "K7R0K4",
    "result": []
  },
  {
    "postal": "K7R7N9",
    "result": []
  },
  {
    "postal": "K7R1N0",
    "result": []
  },
  {
    "postal": "K7R6P3",
    "result": []
  },
  {
    "postal": "K7R5A1",
    "result": []
  },
  {
    "postal": "K7R9M9",
    "result": []
  },
  {
    "postal": "K7R7T6",
    "result": []
  },
  {
    "postal": "K7R3X0",
    "result": []
  },
  {
    "postal": "K7R2T0",
    "result": []
  },
  {
    "postal": "K7R5X9",
    "result": []
  },
  {
    "postal": "K7R2R3",
    "result": [
      {
        "electoralDistricts": [
          {
            "election": null,
            "id": 40,
            "name": "Hastings—Lennox and Addington"
          }
        ],
        "pollDivisionIds": [
          10138769
        ],
        "postalCode": "K7R2R3",
        "streetName": "BELLEVILLE",
        "streetDirectionId": null,
        "streetTypeId": "RD",
        "placeName": "NAPANEE",
        "streetNameDisplayText": "BELLEVILLE RD, NAPANEE"
      }
    ]
  },
  {
    "postal": "K7R5N2",
    "result": []
  },
  {
    "postal": "K7R4Y7",
    "result": []
  },
  {
    "postal": "K7R7M0",
    "result": []
  },
  {
    "postal": "K7R8P3",
    "result": []
  },
  {
    "postal": "K7R3N3",
    "result": [
      {
        "electoralDistricts": [
          {
            "election": null,
            "id": 40,
            "name": "Hastings—Lennox and Addington"
          }
        ],
        "pollDivisionIds": [
          10138780
        ],
        "postalCode": "K7R3N3",
        "streetName": "KENT",
        "streetDirectionId": null,
        "streetTypeId": "AVE",
        "placeName": "NAPANEE",
        "streetNameDisplayText": "KENT AVE, NAPANEE"
      }
    ]
  },
  {
    "postal": "K7R7S3",
    "result": []
  },
  {
    "postal": "K7R3V9",
    "result": [
      {
        "electoralDistricts": [
          {
            "election": null,
            "id": 40,
            "name": "Hastings—Lennox and Addington"
          }
        ],
        "pollDivisionIds": [
          10138780
        ],
        "postalCode": "K7R3V9",
        "streetName": "CARDIFF",
        "streetDirectionId": null,
        "streetTypeId": "LANE",
        "placeName": "NAPANEE",
        "streetNameDisplayText": "CARDIFF LANE, NAPANEE"
      }
    ]
  },
  {
    "postal": "K7R9N7",
    "result": []
  },
  {
    "postal": "K7R0G4",
    "result": []
  },
  {
    "postal": "K7R2E2",
    "result": [
      {
        "electoralDistricts": [
          {
            "election": null,
            "id": 40,
            "name": "Hastings—Lennox and Addington"
          }
        ],
        "pollDivisionIds": [
          10138769
        ],
        "postalCode": "K7R2E2",
        "streetName": "BRIDGE",
        "streetDirectionId": "W",
        "streetTypeId": "ST",
        "placeName": "NAPANEE",
        "streetNameDisplayText": "BRIDGE ST W, NAPANEE"
      }
    ]
  },
  {
    "postal": "K7R7W8",
    "result": []
  },
  {
    "postal": "K7R7M5",
    "result": []
  },
  {
    "postal": "K7R5W8",
    "result": []
  },
  {
    "postal": "K7R5E5",
    "result": []
  },
  {
    "postal": "K7R1P9",
    "result": [
      {
        "electoralDistricts": [
          {
            "election": null,
            "id": 40,
            "name": "Hastings—Lennox and Addington"
          }
        ],
        "pollDivisionIds": [
          10138780
        ],
        "postalCode": "K7R1P9",
        "streetName": "JOHN",
        "streetDirectionId": null,
        "streetTypeId": "ST",
        "placeName": "NAPANEE",
        "streetNameDisplayText": "JOHN ST, NAPANEE"
      }
    ]
  },
  {
    "postal": "K7R8V8",
    "result": []
  },
  {
    "postal": "K7R9G8",
    "result": []
  },
  {
    "postal": "K7R8H9",
    "result": []
  },
  {
    "postal": "K7R1Z1",
    "result": [
      {
        "electoralDistricts": [
          {
            "election": null,
            "id": 40,
            "name": "Hastings—Lennox and Addington"
          }
        ],
        "pollDivisionIds": [
          10138769
        ],
        "postalCode": "K7R1Z1",
        "streetName": "MILL",
        "streetDirectionId": "W",
        "streetTypeId": "ST",
        "placeName": "NAPANEE",
        "streetNameDisplayText": "MILL ST W, NAPANEE"
      }
    ]
  },
  {
    "postal": "K7R8M3",
    "result": []
  },
  {
    "postal": "K7R5H6",
    "result": []
  },
  {
    "postal": "K7R7W7",
    "result": []
  },
  {
    "postal": "K7R4L0",
    "result": []
  },
  {
    "postal": "K7R2N1",
    "result": [
      {
        "electoralDistricts": [
          {
            "election": null,
            "id": 40,
            "name": "Hastings—Lennox and Addington"
          }
        ],
        "pollDivisionIds": [
          10138769
        ],
        "postalCode": "K7R2N1",
        "streetName": "ROBERT",
        "streetDirectionId": null,
        "streetTypeId": "ST",
        "placeName": "NAPANEE",
        "streetNameDisplayText": "ROBERT ST, NAPANEE"
      }
    ]
  },
  {
    "postal": "K7R2H4",
    "result": [
      {
        "electoralDistricts": [
          {
            "election": null,
            "id": 40,
            "name": "Hastings—Lennox and Addington"
          }
        ],
        "pollDivisionIds": [
          10138777,
          10138769
        ],
        "postalCode": "K7R2H4",
        "streetName": "THOMAS",
        "streetDirectionId": "W",
        "streetTypeId": "ST",
        "placeName": "NAPANEE",
        "streetNameDisplayText": "THOMAS ST W, NAPANEE"
      }
    ]
  },
  {
    "postal": "K7R5C8",
    "result": []
  },
  {
    "postal": "K7R8B0",
    "result": []
  },
  {
    "postal": "K7R1T4",
    "result": [
      {
        "electoralDistricts": [
          {
            "election": null,
            "id": 40,
            "name": "Hastings—Lennox and Addington"
          }
        ],
        "pollDivisionIds": [
          10138769
        ],
        "postalCode": "K7R1T4",
        "streetName": "ADELPHI",
        "streetDirectionId": null,
        "streetTypeId": "ST",
        "placeName": "NAPANEE",
        "streetNameDisplayText": "ADELPHI ST, NAPANEE"
      }
    ]
  },
  {
    "postal": "K7R7N7",
    "result": []
  },
  {
    "postal": "K7R4L3",
    "result": []
  },
  {
    "postal": "K7R2N2",
    "result": [
      {
        "electoralDistricts": [
          {
            "election": null,
            "id": 40,
            "name": "Hastings—Lennox and Addington"
          }
        ],
        "pollDivisionIds": [
          10138769
        ],
        "postalCode": "K7R2N2",
        "streetName": "ROBERT",
        "streetDirectionId": null,
        "streetTypeId": "ST",
        "placeName": "NAPANEE",
        "streetNameDisplayText": "ROBERT ST, NAPANEE"
      }
    ]
  },
  {
    "postal": "K7R4N8",
    "result": []
  },
  {
    "postal": "K7R3M5",
    "result": []
  },
  {
    "postal": "K7R6H7",
    "result": []
  },
  {
    "postal": "K7R8Y8",
    "result": []
  },
  {
    "postal": "K7R5R9",
    "result": []
  },
  {
    "postal": "K7R8G3",
    "result": []
  },
  {
    "postal": "K7R4N7",
    "result": []
  },
  {
    "postal": "K7R0B9",
    "result": [
      {
        "electoralDistricts": [
          {
            "election": null,
            "id": 40,
            "name": "Hastings—Lennox and Addington"
          }
        ],
        "pollDivisionIds": [
          10138769
        ],
        "postalCode": "K7R0B9",
        "streetName": "STAIKOS",
        "streetDirectionId": null,
        "streetTypeId": "CRT",
        "placeName": "NAPANEE",
        "streetNameDisplayText": "STAIKOS CRT, NAPANEE"
      }
    ]
  },
  {
    "postal": "K7R9K7",
    "result": []
  },
  {
    "postal": "K7R9K9",
    "result": []
  },
  {
    "postal": "K7R3Z2",
    "result": [
      {
        "electoralDistricts": [
          {
            "election": null,
            "id": 40,
            "name": "Hastings—Lennox and Addington"
          }
        ],
        "pollDivisionIds": [
          10138777
        ],
        "postalCode": "K7R3Z2",
        "streetName": "INDUSTRIAL",
        "streetDirectionId": null,
        "streetTypeId": "BLVD",
        "placeName": "NAPANEE",
        "streetNameDisplayText": "INDUSTRIAL BLVD, NAPANEE"
      }
    ]
  },
  {
    "postal": "K7R6W7",
    "result": []
  },
  {
    "postal": "K7R0P1",
    "result": []
  },
  {
    "postal": "K7R3A0",
    "result": []
  },
  {
    "postal": "K7R8L9",
    "result": []
  },
  {
    "postal": "K7R6X0",
    "result": []
  },
  {
    "postal": "K7R3E9",
    "result": [
      {
        "electoralDistricts": [
          {
            "election": null,
            "id": 40,
            "name": "Hastings—Lennox and Addington"
          }
        ],
        "pollDivisionIds": [
          10138780
        ],
        "postalCode": "K7R3E9",
        "streetName": "JAMES",
        "streetDirectionId": null,
        "streetTypeId": "ST",
        "placeName": "NAPANEE",
        "streetNameDisplayText": "JAMES ST, NAPANEE"
      }
    ]
  },
  {
    "postal": "K7R0S5",
    "result": []
  },
  {
    "postal": "K7R1A2",
    "result": [
      {
        "electoralDistricts": [
          {
            "election": null,
            "id": 40,
            "name": "Hastings—Lennox and Addington"
          }
        ],
        "pollDivisionIds": [
          10138780
        ],
        "postalCode": "K7R1A2",
        "streetName": "PALACE",
        "streetDirectionId": null,
        "streetTypeId": "RD",
        "placeName": "NAPANEE",
        "streetNameDisplayText": "PALACE RD, NAPANEE"
      }
    ]
  },
  {
    "postal": "K7R5V8",
    "result": []
  },
  {
    "postal": "K7R8C5",
    "result": []
  },
  {
    "postal": "K7R6N0",
    "result": []
  },
  {
    "postal": "K7R9E6",
    "result": []
  },
  {
    "postal": "K7R5J7",
    "result": []
  },
  {
    "postal": "K7R2R2",
    "result": [
      {
        "electoralDistricts": [
          {
            "election": null,
            "id": 40,
            "name": "Hastings—Lennox and Addington"
          }
        ],
        "pollDivisionIds": [
          10138769
        ],
        "postalCode": "K7R2R2",
        "streetName": "BELLEVILLE",
        "streetDirectionId": null,
        "streetTypeId": "RD",
        "placeName": "NAPANEE",
        "streetNameDisplayText": "BELLEVILLE RD, NAPANEE"
      }
    ]
  },
  {
    "postal": "K7R0P5",
    "result": []
  },
  {
    "postal": "K7R5A7",
    "result": []
  },
  {
    "postal": "K7R1G1",
    "result": [
      {
        "electoralDistricts": [
          {
            "election": null,
            "id": 40,
            "name": "Hastings—Lennox and Addington"
          }
        ],
        "pollDivisionIds": [
          10138777
        ],
        "postalCode": "K7R1G1",
        "streetName": "CAMDEN",
        "streetDirectionId": null,
        "streetTypeId": "RD",
        "placeName": "NAPANEE",
        "streetNameDisplayText": "CAMDEN RD, NAPANEE"
      }
    ]
  },
  {
    "postal": "K7R9R6",
    "result": []
  },
  {
    "postal": "K7R4Z9",
    "result": []
  },
  {
    "postal": "K7R1V5",
    "result": [
      {
        "electoralDistricts": [
          {
            "election": null,
            "id": 40,
            "name": "Hastings—Lennox and Addington"
          }
        ],
        "pollDivisionIds": [
          10138769
        ],
        "postalCode": "K7R1V5",
        "streetName": "WATER",
        "streetDirectionId": "W",
        "streetTypeId": "ST",
        "placeName": "NAPANEE",
        "streetNameDisplayText": "WATER ST W, NAPANEE"
      }
    ]
  },
  {
    "postal": "K7R9Y5",
    "result": []
  },
  {
    "postal": "K7R1P2",
    "result": [
      {
        "electoralDistricts": [
          {
            "election": null,
            "id": 40,
            "name": "Hastings—Lennox and Addington"
          }
        ],
        "pollDivisionIds": [
          10138721,
          10138769
        ],
        "postalCode": "K7R1P2",
        "streetName": "CENTRE",
        "streetDirectionId": "N",
        "streetTypeId": "ST",
        "placeName": "NAPANEE",
        "streetNameDisplayText": "CENTRE ST N, NAPANEE"
      }
    ]
  },
  {
    "postal": "K7R5X0",
    "result": []
  },
  {
    "postal": "K7R7B8",
    "result": []
  },
  {
    "postal": "K7R0C6",
    "result": []
  },
  {
    "postal": "K7R6G1",
    "result": []
  },
  {
    "postal": "K7R3K3",
    "result": [
      {
        "electoralDistricts": [
          {
            "election": null,
            "id": 40,
            "name": "Hastings—Lennox and Addington"
          }
        ],
        "pollDivisionIds": [
          10138780
        ],
        "postalCode": "K7R3K3",
        "streetName": "EDGEWOOD",
        "streetDirectionId": null,
        "streetTypeId": "DR",
        "placeName": "NAPANEE",
        "streetNameDisplayText": "EDGEWOOD DR, NAPANEE"
      }
    ]
  },
  {
    "postal": "K7R9R0",
    "result": []
  },
  {
    "postal": "K7R4R8",
    "result": []
  },
  {
    "postal": "K7R5P9",
    "result": []
  },
  {
    "postal": "K7R8N4",
    "result": []
  },
  {
    "postal": "K7R8H4",
    "result": []
  },
  {
    "postal": "K7R4V1",
    "result": []
  },
  {
    "postal": "K7R1K5",
    "result": [
      {
        "electoralDistricts": [
          {
            "election": null,
            "id": 40,
            "name": "Hastings—Lennox and Addington"
          }
        ],
        "pollDivisionIds": [
          10138769
        ],
        "postalCode": "K7R1K5",
        "streetName": "THOMAS",
        "streetDirectionId": "E",
        "streetTypeId": "ST",
        "placeName": "NAPANEE",
        "streetNameDisplayText": "THOMAS ST E, NAPANEE"
      }
    ]
  },
  {
    "postal": "K7R1Z5",
    "result": [
      {
        "electoralDistricts": [
          {
            "election": null,
            "id": 40,
            "name": "Hastings—Lennox and Addington"
          }
        ],
        "pollDivisionIds": [
          10138769
        ],
        "postalCode": "K7R1Z5",
        "streetName": "DUNDAS",
        "streetDirectionId": "W",
        "streetTypeId": "ST",
        "placeName": "NAPANEE",
        "streetNameDisplayText": "DUNDAS ST W, NAPANEE"
      }
    ]
  },
  {
    "postal": "K7R9L9",
    "result": []
  },
  {
    "postal": "K7R5L2",
    "result": []
  },
  {
    "postal": "K7R0M2",
    "result": []
  },
  {
    "postal": "K7R1K8",
    "result": [
      {
        "electoralDistricts": [
          {
            "election": null,
            "id": 40,
            "name": "Hastings—Lennox and Addington"
          }
        ],
        "pollDivisionIds": [
          10138769
        ],
        "postalCode": "K7R1K8",
        "streetName": "THOMAS",
        "streetDirectionId": "E",
        "streetTypeId": "ST",
        "placeName": "NAPANEE",
        "streetNameDisplayText": "THOMAS ST E, NAPANEE"
      }
    ]
  },
  {
    "postal": "K7R3M7",
    "result": [
      {
        "electoralDistricts": [
          {
            "election": null,
            "id": 40,
            "name": "Hastings—Lennox and Addington"
          }
        ],
        "pollDivisionIds": [
          10138769
        ],
        "postalCode": "K7R3M7",
        "streetName": "BELLEVILLE",
        "streetDirectionId": null,
        "streetTypeId": "RD",
        "placeName": "NAPANEE",
        "streetNameDisplayText": "BELLEVILLE RD, NAPANEE"
      }
    ]
  },
  {
    "postal": "K7R1B2",
    "result": [
      {
        "electoralDistricts": [
          {
            "election": null,
            "id": 40,
            "name": "Hastings—Lennox and Addington"
          }
        ],
        "pollDivisionIds": [
          10138780
        ],
        "postalCode": "K7R1B2",
        "streetName": "HILLSIDE",
        "streetDirectionId": null,
        "streetTypeId": "AVE",
        "placeName": "NAPANEE",
        "streetNameDisplayText": "HILLSIDE AVE, NAPANEE"
      }
    ]
  },
  {
    "postal": "K7R0H9",
    "result": []
  },
  {
    "postal": "K7R8M4",
    "result": []
  },
  {
    "postal": "K7R2M5",
    "result": [
      {
        "electoralDistricts": [
          {
            "election": null,
            "id": 40,
            "name": "Hastings—Lennox and Addington"
          }
        ],
        "pollDivisionIds": [
          10138769
        ],
        "postalCode": "K7R2M5",
        "streetName": "ROBERT",
        "streetDirectionId": null,
        "streetTypeId": "ST",
        "placeName": "NAPANEE",
        "streetNameDisplayText": "ROBERT ST, NAPANEE"
      }
    ]
  },
  {
    "postal": "K7R0T9",
    "result": []
  },
  {
    "postal": "K7R3P1",
    "result": [
      {
        "electoralDistricts": [
          {
            "election": null,
            "id": 40,
            "name": "Hastings—Lennox and Addington"
          }
        ],
        "pollDivisionIds": [
          10138777
        ],
        "postalCode": "K7R3P1",
        "streetName": "CHURCH",
        "streetDirectionId": null,
        "streetTypeId": "ST",
        "placeName": "NAPANEE",
        "streetNameDisplayText": "CHURCH ST, NAPANEE"
      }
    ]
  },
  {
    "postal": "K7R1R6",
    "result": [
      {
        "electoralDistricts": [
          {
            "election": null,
            "id": 40,
            "name": "Hastings—Lennox and Addington"
          }
        ],
        "pollDivisionIds": [
          10138769
        ],
        "postalCode": "K7R1R6",
        "streetName": "JOHN",
        "streetDirectionId": null,
        "streetTypeId": "ST",
        "placeName": "NAPANEE",
        "streetNameDisplayText": "JOHN ST, NAPANEE"
      }
    ]
  },
  {
    "postal": "K7R9V5",
    "result": []
  },
  {
    "postal": "K7R9T0",
    "result": []
  },
  {
    "postal": "K7R0A9",
    "result": []
  },
  {
    "postal": "K7R1M3",
    "result": [
      {
        "electoralDistricts": [
          {
            "election": null,
            "id": 40,
            "name": "Hastings—Lennox and Addington"
          }
        ],
        "pollDivisionIds": [
          10138769
        ],
        "postalCode": "K7R1M3",
        "streetName": "ISABELLA",
        "streetDirectionId": "E",
        "streetTypeId": "ST",
        "placeName": "NAPANEE",
        "streetNameDisplayText": "ISABELLA ST E, NAPANEE"
      }
    ]
  },
  {
    "postal": "K7R1W8",
    "result": [
      {
        "electoralDistricts": [
          {
            "election": null,
            "id": 40,
            "name": "Hastings—Lennox and Addington"
          }
        ],
        "pollDivisionIds": [
          10138769
        ],
        "postalCode": "K7R1W8",
        "streetName": "WATER",
        "streetDirectionId": "W",
        "streetTypeId": "ST",
        "placeName": "NAPANEE",
        "streetNameDisplayText": "WATER ST W, NAPANEE"
      }
    ]
  },
  {
    "postal": "K7R9J1",
    "result": []
  },
  {
    "postal": "K7R8N5",
    "result": []
  },
  {
    "postal": "K7R5X1",
    "result": []
  },
  {
    "postal": "K7R6S2",
    "result": []
  },
  {
    "postal": "K7R2A2",
    "result": [
      {
        "electoralDistricts": [
          {
            "election": null,
            "id": 40,
            "name": "Hastings—Lennox and Addington"
          }
        ],
        "pollDivisionIds": [
          10138769
        ],
        "postalCode": "K7R2A2",
        "streetName": "DUNDAS",
        "streetDirectionId": "W",
        "streetTypeId": "ST",
        "placeName": "NAPANEE",
        "streetNameDisplayText": "DUNDAS ST W, NAPANEE"
      }
    ]
  },
  {
    "postal": "K7R6A6",
    "result": []
  },
  {
    "postal": "K7R0S3",
    "result": []
  },
  {
    "postal": "K7R3E7",
    "result": [
      {
        "electoralDistricts": [
          {
            "election": null,
            "id": 40,
            "name": "Hastings—Lennox and Addington"
          }
        ],
        "pollDivisionIds": [
          10138780
        ],
        "postalCode": "K7R3E7",
        "streetName": "COUNTY 8",
        "streetDirectionId": null,
        "streetTypeId": "RD",
        "placeName": "NAPANEE",
        "streetNameDisplayText": "COUNTY 8 RD, NAPANEE"
      },
      {
        "electoralDistricts": [
          {
            "election": null,
            "id": 40,
            "name": "Hastings—Lennox and Addington"
          }
        ],
        "pollDivisionIds": [
          10138780
        ],
        "postalCode": "K7R3E7",
        "streetName": "COUNTY RD 8",
        "streetDirectionId": null,
        "streetTypeId": null,
        "placeName": "NAPANEE",
        "streetNameDisplayText": "COUNTY RD 8, NAPANEE"
      },
      {
        "electoralDistricts": [
          {
            "election": null,
            "id": 40,
            "name": "Hastings—Lennox and Addington"
          }
        ],
        "pollDivisionIds": [
          10138780
        ],
        "postalCode": "K7R3E7",
        "streetName": "COUNTY ROAD 8",
        "streetDirectionId": null,
        "streetTypeId": null,
        "placeName": "NAPANEE",
        "streetNameDisplayText": "COUNTY ROAD 8, NAPANEE"
      }
    ]
  },
  {
    "postal": "K7R5R7",
    "result": []
  },
  {
    "postal": "K7R3R6",
    "result": [
      {
        "electoralDistricts": [
          {
            "election": null,
            "id": 40,
            "name": "Hastings—Lennox and Addington"
          }
        ],
        "pollDivisionIds": [
          10138769
        ],
        "postalCode": "K7R3R6",
        "streetName": "SPLINTER",
        "streetDirectionId": null,
        "streetTypeId": "DR",
        "placeName": "NAPANEE",
        "streetNameDisplayText": "SPLINTER DR, NAPANEE"
      }
    ]
  },
  {
    "postal": "K7R6K4",
    "result": []
  },
  {
    "postal": "K7R2W5",
    "result": [
      {
        "electoralDistricts": [
          {
            "election": null,
            "id": 40,
            "name": "Hastings—Lennox and Addington"
          }
        ],
        "pollDivisionIds": [
          10138769
        ],
        "postalCode": "K7R2W5",
        "streetName": "UNION",
        "streetDirectionId": null,
        "streetTypeId": "ST",
        "placeName": "NAPANEE",
        "streetNameDisplayText": "UNION ST, NAPANEE"
      }
    ]
  },
  {
    "postal": "K7R8W4",
    "result": []
  },
  {
    "postal": "K7R9C2",
    "result": []
  },
  {
    "postal": "K7R2C0",
    "result": []
  },
  {
    "postal": "K7R0E1",
    "result": []
  },
  {
    "postal": "K7R1K9",
    "result": [
      {
        "electoralDistricts": [
          {
            "election": null,
            "id": 40,
            "name": "Hastings—Lennox and Addington"
          }
        ],
        "pollDivisionIds": [
          10138769
        ],
        "postalCode": "K7R1K9",
        "streetName": "THOMAS",
        "streetDirectionId": "E",
        "streetTypeId": "ST",
        "placeName": "NAPANEE",
        "streetNameDisplayText": "THOMAS ST E, NAPANEE"
      }
    ]
  },
  {
    "postal": "K7R1G7",
    "result": [
      {
        "electoralDistricts": [
          {
            "election": null,
            "id": 40,
            "name": "Hastings—Lennox and Addington"
          }
        ],
        "pollDivisionIds": [
          10138777
        ],
        "postalCode": "K7R1G7",
        "streetName": "BARRETT",
        "streetDirectionId": null,
        "streetTypeId": "BLVD",
        "placeName": "NAPANEE",
        "streetNameDisplayText": "BARRETT BLVD, NAPANEE"
      }
    ]
  },
  {
    "postal": "K7R4E9",
    "result": []
  },
  {
    "postal": "K7R9P0",
    "result": []
  },
  {
    "postal": "K7R5H3",
    "result": []
  },
  {
    "postal": "K7R9X6",
    "result": []
  },
  {
    "postal": "K7R5N7",
    "result": []
  },
  {
    "postal": "K7R5A6",
    "result": []
  },
  {
    "postal": "K7R4M0",
    "result": []
  },
  {
    "postal": "K7R3V6",
    "result": []
  },
  {
    "postal": "K7R1L7",
    "result": [
      {
        "electoralDistricts": [
          {
            "election": null,
            "id": 40,
            "name": "Hastings—Lennox and Addington"
          }
        ],
        "pollDivisionIds": [
          10138769
        ],
        "postalCode": "K7R1L7",
        "streetName": "GRAHAM",
        "streetDirectionId": "E",
        "streetTypeId": "ST",
        "placeName": "NAPANEE",
        "streetNameDisplayText": "GRAHAM ST E, NAPANEE"
      }
    ]
  },
  {
    "postal": "K7R2P9",
    "result": [
      {
        "electoralDistricts": [
          {
            "election": null,
            "id": 40,
            "name": "Hastings—Lennox and Addington"
          }
        ],
        "pollDivisionIds": [
          10138769
        ],
        "postalCode": "K7R2P9",
        "streetName": "WEST",
        "streetDirectionId": null,
        "streetTypeId": "ST",
        "placeName": "NAPANEE",
        "streetNameDisplayText": "WEST ST, NAPANEE"
      }
    ]
  },
  {
    "postal": "K7R5T4",
    "result": []
  },
  {
    "postal": "K7R5Z1",
    "result": []
  },
  {
    "postal": "K7R2X0",
    "result": []
  },
  {
    "postal": "K7R6Z2",
    "result": []
  },
  {
    "postal": "K7R0E0",
    "result": []
  },
  {
    "postal": "K7R3Z5",
    "result": [
      {
        "electoralDistricts": [
          {
            "election": null,
            "id": 40,
            "name": "Hastings—Lennox and Addington"
          }
        ],
        "pollDivisionIds": [
          10138777
        ],
        "postalCode": "K7R3Z5",
        "streetName": "ADVANCE",
        "streetDirectionId": null,
        "streetTypeId": "AVE",
        "placeName": "NAPANEE",
        "streetNameDisplayText": "ADVANCE AVE, NAPANEE"
      }
    ]
  },
  {
    "postal": "K7R8H3",
    "result": []
  },
  {
    "postal": "K7R7S6",
    "result": []
  },
  {
    "postal": "K7R4C1",
    "result": [
      {
        "electoralDistricts": [
          {
            "election": null,
            "id": 40,
            "name": "Hastings—Lennox and Addington"
          }
        ],
        "pollDivisionIds": [
          10138769
        ],
        "postalCode": "K7R4C1",
        "streetName": "DUNDAS",
        "streetDirectionId": "W",
        "streetTypeId": "ST",
        "placeName": "NAPANEE",
        "streetNameDisplayText": "DUNDAS ST W, NAPANEE"
      }
    ]
  },
  {
    "postal": "K7R3K2",
    "result": [
      {
        "electoralDistricts": [
          {
            "election": null,
            "id": 40,
            "name": "Hastings—Lennox and Addington"
          }
        ],
        "pollDivisionIds": [
          10138780
        ],
        "postalCode": "K7R3K2",
        "streetName": "SOUTHCREST",
        "streetDirectionId": null,
        "streetTypeId": "DR",
        "placeName": "NAPANEE",
        "streetNameDisplayText": "SOUTHCREST DR, NAPANEE"
      }
    ]
  },
  {
    "postal": "K7R1Y5",
    "result": [
      {
        "electoralDistricts": [
          {
            "election": null,
            "id": 40,
            "name": "Hastings—Lennox and Addington"
          }
        ],
        "pollDivisionIds": [
          10138769
        ],
        "postalCode": "K7R1Y5",
        "streetName": "MILL",
        "streetDirectionId": "W",
        "streetTypeId": "ST",
        "placeName": "NAPANEE",
        "streetNameDisplayText": "MILL ST W, NAPANEE"
      }
    ]
  },
  {
    "postal": "K7R6P6",
    "result": []
  },
  {
    "postal": "K7R3N9",
    "result": [
      {
        "electoralDistricts": [
          {
            "election": null,
            "id": 40,
            "name": "Hastings—Lennox and Addington"
          }
        ],
        "pollDivisionIds": [
          10138769
        ],
        "postalCode": "K7R3N9",
        "streetName": "THOMAS",
        "streetDirectionId": "W",
        "streetTypeId": "ST",
        "placeName": "NAPANEE",
        "streetNameDisplayText": "THOMAS ST W, NAPANEE"
      }
    ]
  },
  {
    "postal": "K7R3W2",
    "result": [
      {
        "electoralDistricts": [
          {
            "election": null,
            "id": 40,
            "name": "Hastings—Lennox and Addington"
          }
        ],
        "pollDivisionIds": [
          10138769
        ],
        "postalCode": "K7R3W2",
        "streetName": "SHORELINE",
        "streetDirectionId": null,
        "streetTypeId": "CRES",
        "placeName": "NAPANEE",
        "streetNameDisplayText": "SHORELINE CRES, NAPANEE"
      }
    ]
  },
  {
    "postal": "K7R6H8",
    "result": []
  },
  {
    "postal": "K7R9T3",
    "result": []
  },
  {
    "postal": "K7R5L9",
    "result": []
  },
  {
    "postal": "K7R7X7",
    "result": []
  },
  {
    "postal": "K7R3J5",
    "result": [
      {
        "electoralDistricts": [
          {
            "election": null,
            "id": 40,
            "name": "Hastings—Lennox and Addington"
          }
        ],
        "pollDivisionIds": [
          10138780
        ],
        "postalCode": "K7R3J5",
        "streetName": "SARAH",
        "streetDirectionId": null,
        "streetTypeId": "ST",
        "placeName": "NAPANEE",
        "streetNameDisplayText": "SARAH ST, NAPANEE"
      }
    ]
  },
  {
    "postal": "K7R4J5",
    "result": []
  },
  {
    "postal": "K7R6J2",
    "result": []
  },
  {
    "postal": "K7R5V6",
    "result": []
  },
  {
    "postal": "K7R3N2",
    "result": [
      {
        "electoralDistricts": [
          {
            "election": null,
            "id": 40,
            "name": "Hastings—Lennox and Addington"
          }
        ],
        "pollDivisionIds": [
          10138780
        ],
        "postalCode": "K7R3N2",
        "streetName": "PALACE",
        "streetDirectionId": null,
        "streetTypeId": "RD",
        "placeName": "NAPANEE",
        "streetNameDisplayText": "PALACE RD, NAPANEE"
      }
    ]
  },
  {
    "postal": "K7R3B1",
    "result": [
      {
        "electoralDistricts": [
          {
            "election": null,
            "id": 40,
            "name": "Hastings—Lennox and Addington"
          }
        ],
        "pollDivisionIds": [
          10138780
        ],
        "postalCode": "K7R3B1",
        "streetName": "PALACE",
        "streetDirectionId": null,
        "streetTypeId": "RD",
        "placeName": "NAPANEE",
        "streetNameDisplayText": "PALACE RD, NAPANEE"
      }
    ]
  },
  {
    "postal": "K7R8B5",
    "result": []
  },
  {
    "postal": "K7R0K1",
    "result": []
  },
  {
    "postal": "K7R7M7",
    "result": []
  },
  {
    "postal": "K7R2M2",
    "result": [
      {
        "electoralDistricts": [
          {
            "election": null,
            "id": 40,
            "name": "Hastings—Lennox and Addington"
          }
        ],
        "pollDivisionIds": [
          10138769
        ],
        "postalCode": "K7R2M2",
        "streetName": "ROBERT",
        "streetDirectionId": null,
        "streetTypeId": "ST",
        "placeName": "NAPANEE",
        "streetNameDisplayText": "ROBERT ST, NAPANEE"
      }
    ]
  },
  {
    "postal": "K7R9N3",
    "result": []
  },
  {
    "postal": "K7R4Y8",
    "result": []
  },
  {
    "postal": "K7R3V7",
    "result": []
  },
  {
    "postal": "K7R8Z1",
    "result": []
  },
  {
    "postal": "K7R7B3",
    "result": []
  },
  {
    "postal": "K7R3A8",
    "result": [
      {
        "electoralDistricts": [
          {
            "election": null,
            "id": 40,
            "name": "Hastings—Lennox and Addington"
          }
        ],
        "pollDivisionIds": [
          10138780
        ],
        "postalCode": "K7R3A8",
        "streetName": "PALACE",
        "streetDirectionId": "E",
        "streetTypeId": "RD",
        "placeName": "NAPANEE",
        "streetNameDisplayText": "PALACE RD E, NAPANEE"
      }
    ]
  },
  {
    "postal": "K7R7V5",
    "result": []
  },
  {
    "postal": "K7R2T2",
    "result": [
      {
        "electoralDistricts": [
          {
            "election": null,
            "id": 40,
            "name": "Hastings—Lennox and Addington"
          }
        ],
        "pollDivisionIds": [
          10138769
        ],
        "postalCode": "K7R2T2",
        "streetName": "RICHARD",
        "streetDirectionId": null,
        "streetTypeId": "ST",
        "placeName": "NAPANEE",
        "streetNameDisplayText": "RICHARD ST, NAPANEE"
      }
    ]
  },
  {
    "postal": "K7R6L3",
    "result": []
  },
  {
    "postal": "K7R0L2",
    "result": []
  },
  {
    "postal": "K7R5Y8",
    "result": []
  },
  {
    "postal": "K7R0B8",
    "result": [
      {
        "electoralDistricts": [
          {
            "election": null,
            "id": 40,
            "name": "Hastings—Lennox and Addington"
          }
        ],
        "pollDivisionIds": [
          10138780
        ],
        "postalCode": "K7R0B8",
        "streetName": "COUNTY 8",
        "streetDirectionId": null,
        "streetTypeId": "RD",
        "placeName": "NAPANEE",
        "streetNameDisplayText": "COUNTY 8 RD, NAPANEE"
      },
      {
        "electoralDistricts": [
          {
            "election": null,
            "id": 40,
            "name": "Hastings—Lennox and Addington"
          }
        ],
        "pollDivisionIds": [
          10138780
        ],
        "postalCode": "K7R0B8",
        "streetName": "COUNTY RD 8",
        "streetDirectionId": null,
        "streetTypeId": null,
        "placeName": "NAPANEE",
        "streetNameDisplayText": "COUNTY RD 8, NAPANEE"
      }
    ]
  },
  {
    "postal": "K7R6R5",
    "result": []
  },
  {
    "postal": "K7R8W6",
    "result": []
  },
  {
    "postal": "K7R8G6",
    "result": []
  },
  {
    "postal": "K7R6X3",
    "result": []
  },
  {
    "postal": "K7R7R7",
    "result": []
  },
  {
    "postal": "K7R4B6",
    "result": []
  },
  {
    "postal": "K7R3P9",
    "result": [
      {
        "electoralDistricts": [
          {
            "election": null,
            "id": 40,
            "name": "Hastings—Lennox and Addington"
          }
        ],
        "pollDivisionIds": [
          10138769
        ],
        "postalCode": "K7R3P9",
        "streetName": "WINCHESTER",
        "streetDirectionId": null,
        "streetTypeId": "DR",
        "placeName": "NAPANEE",
        "streetNameDisplayText": "WINCHESTER DR, NAPANEE"
      }
    ]
  },
  {
    "postal": "K7R2T3",
    "result": [
      {
        "electoralDistricts": [
          {
            "election": null,
            "id": 40,
            "name": "Hastings—Lennox and Addington"
          }
        ],
        "pollDivisionIds": [
          10138769
        ],
        "postalCode": "K7R2T3",
        "streetName": "RICHARD",
        "streetDirectionId": null,
        "streetTypeId": "ST",
        "placeName": "NAPANEE",
        "streetNameDisplayText": "RICHARD ST, NAPANEE"
      }
    ]
  },
  {
    "postal": "K7R1M4",
    "result": [
      {
        "electoralDistricts": [
          {
            "election": null,
            "id": 40,
            "name": "Hastings—Lennox and Addington"
          }
        ],
        "pollDivisionIds": [
          10138769
        ],
        "postalCode": "K7R1M4",
        "streetName": "DAIRY",
        "streetDirectionId": null,
        "streetTypeId": "AVE",
        "placeName": "NAPANEE",
        "streetNameDisplayText": "DAIRY AVE, NAPANEE"
      }
    ]
  },
  {
    "postal": "K7R0H1",
    "result": []
  },
  {
    "postal": "K7R9W3",
    "result": []
  },
  {
    "postal": "K7R6P1",
    "result": []
  },
  {
    "postal": "K7R7G2",
    "result": []
  },
  {
    "postal": "K7R4J9",
    "result": []
  },
  {
    "postal": "K7R9E4",
    "result": []
  },
  {
    "postal": "K7R8H0",
    "result": []
  },
  {
    "postal": "K7R4M7",
    "result": []
  },
  {
    "postal": "K7R2G9",
    "result": [
      {
        "electoralDistricts": [
          {
            "election": null,
            "id": 40,
            "name": "Hastings—Lennox and Addington"
          }
        ],
        "pollDivisionIds": [
          10138769
        ],
        "postalCode": "K7R2G9",
        "streetName": "THOMAS",
        "streetDirectionId": "W",
        "streetTypeId": "ST",
        "placeName": "NAPANEE",
        "streetNameDisplayText": "THOMAS ST W, NAPANEE"
      }
    ]
  },
  {
    "postal": "K7R8T2",
    "result": []
  },
  {
    "postal": "K7R7G7",
    "result": []
  },
  {
    "postal": "K7R4Z3",
    "result": []
  },
  {
    "postal": "K7R5B3",
    "result": []
  },
  {
    "postal": "K7R1S7",
    "result": [
      {
        "electoralDistricts": [
          {
            "election": null,
            "id": 40,
            "name": "Hastings—Lennox and Addington"
          }
        ],
        "pollDivisionIds": [
          10138769
        ],
        "postalCode": "K7R1S7",
        "streetName": "EAST",
        "streetDirectionId": null,
        "streetTypeId": "ST",
        "placeName": "NAPANEE",
        "streetNameDisplayText": "EAST ST, NAPANEE"
      }
    ]
  },
  {
    "postal": "K7R2N7",
    "result": [
      {
        "electoralDistricts": [
          {
            "election": null,
            "id": 40,
            "name": "Hastings—Lennox and Addington"
          }
        ],
        "pollDivisionIds": [
          10138769
        ],
        "postalCode": "K7R2N7",
        "streetName": "WEST",
        "streetDirectionId": null,
        "streetTypeId": "ST",
        "placeName": "NAPANEE",
        "streetNameDisplayText": "WEST ST, NAPANEE"
      }
    ]
  },
  {
    "postal": "K7R0H8",
    "result": []
  },
  {
    "postal": "K7R7Z4",
    "result": []
  },
  {
    "postal": "K7R7B1",
    "result": []
  },
  {
    "postal": "K7R7P8",
    "result": []
  },
  {
    "postal": "K7R7N0",
    "result": []
  },
  {
    "postal": "K7R3Y5",
    "result": [
      {
        "electoralDistricts": [
          {
            "election": null,
            "id": 40,
            "name": "Hastings—Lennox and Addington"
          }
        ],
        "pollDivisionIds": [
          10138777,
          10138769
        ],
        "postalCode": "K7R3Y5",
        "streetName": "ADVANCE",
        "streetDirectionId": null,
        "streetTypeId": "AVE",
        "placeName": "NAPANEE",
        "streetNameDisplayText": "ADVANCE AVE, NAPANEE"
      }
    ]
  },
  {
    "postal": "K7R6K1",
    "result": []
  },
  {
    "postal": "K7R9X5",
    "result": []
  },
  {
    "postal": "K7R7S5",
    "result": []
  },
  {
    "postal": "K7R0A4",
    "result": [
      {
        "electoralDistricts": [
          {
            "election": null,
            "id": 40,
            "name": "Hastings—Lennox and Addington"
          }
        ],
        "pollDivisionIds": [
          10138769
        ],
        "postalCode": "K7R0A4",
        "streetName": "BRIDGE",
        "streetDirectionId": "W",
        "streetTypeId": "ST",
        "placeName": "NAPANEE",
        "streetNameDisplayText": "BRIDGE ST W, NAPANEE"
      },
      {
        "electoralDistricts": [
          {
            "election": null,
            "id": 40,
            "name": "Hastings—Lennox and Addington"
          }
        ],
        "pollDivisionIds": [
          10138758
        ],
        "postalCode": "K7R0A4",
        "streetName": "JOHNSON",
        "streetDirectionId": null,
        "streetTypeId": "ST",
        "placeName": "CAMDEN EAST",
        "streetNameDisplayText": "JOHNSON ST, CAMDEN EAST"
      }
    ]
  },
  {
    "postal": "K7R4T5",
    "result": []
  },
  {
    "postal": "K7R5K1",
    "result": []
  },
  {
    "postal": "K7R0Z9",
    "result": []
  },
  {
    "postal": "K7R7T2",
    "result": []
  },
  {
    "postal": "K7R1L5",
    "result": [
      {
        "electoralDistricts": [
          {
            "election": null,
            "id": 40,
            "name": "Hastings—Lennox and Addington"
          }
        ],
        "pollDivisionIds": [
          10138769
        ],
        "postalCode": "K7R1L5",
        "streetName": "GRAHAM",
        "streetDirectionId": "E",
        "streetTypeId": "ST",
        "placeName": "NAPANEE",
        "streetNameDisplayText": "GRAHAM ST E, NAPANEE"
      }
    ]
  },
  {
    "postal": "K7R3N5",
    "result": [
      {
        "electoralDistricts": [
          {
            "election": null,
            "id": 40,
            "name": "Hastings—Lennox and Addington"
          }
        ],
        "pollDivisionIds": [
          10138769
        ],
        "postalCode": "K7R3N5",
        "streetName": "HESSFORD",
        "streetDirectionId": null,
        "streetTypeId": "ST",
        "placeName": "NAPANEE",
        "streetNameDisplayText": "HESSFORD ST, NAPANEE"
      }
    ]
  },
  {
    "postal": "K7R6H4",
    "result": []
  },
  {
    "postal": "K7R5A5",
    "result": []
  },
  {
    "postal": "K7R3R9",
    "result": [
      {
        "electoralDistricts": [
          {
            "election": null,
            "id": 40,
            "name": "Hastings—Lennox and Addington"
          }
        ],
        "pollDivisionIds": [
          10138769
        ],
        "postalCode": "K7R3R9",
        "streetName": "NAPIER",
        "streetDirectionId": null,
        "streetTypeId": "ST",
        "placeName": "NAPANEE",
        "streetNameDisplayText": "NAPIER ST, NAPANEE"
      }
    ]
  },
  {
    "postal": "K7R7L8",
    "result": []
  },
  {
    "postal": "K7R6T6",
    "result": []
  },
  {
    "postal": "K7R7Y7",
    "result": []
  },
  {
    "postal": "K7R3M8",
    "result": []
  },
  {
    "postal": "K7R2E0",
    "result": []
  },
  {
    "postal": "K7R4B5",
    "result": [
      {
        "electoralDistricts": [
          {
            "election": null,
            "id": 40,
            "name": "Hastings—Lennox and Addington"
          }
        ],
        "pollDivisionIds": [
          10138793
        ],
        "postalCode": "K7R4B5",
        "streetName": "DUNDAS",
        "streetDirectionId": "W",
        "streetTypeId": "ST",
        "placeName": "NAPANEE",
        "streetNameDisplayText": "DUNDAS ST W, NAPANEE"
      }
    ]
  },
  {
    "postal": "K7R1J3",
    "result": [
      {
        "electoralDistricts": [
          {
            "election": null,
            "id": 40,
            "name": "Hastings—Lennox and Addington"
          }
        ],
        "pollDivisionIds": [
          10138769
        ],
        "postalCode": "K7R1J3",
        "streetName": "MARKET",
        "streetDirectionId": null,
        "streetTypeId": "SQ",
        "placeName": "NAPANEE",
        "streetNameDisplayText": "MARKET SQ, NAPANEE"
      }
    ]
  },
  {
    "postal": "K7R5S6",
    "result": []
  },
  {
    "postal": "K7R8P7",
    "result": []
  },
  {
    "postal": "K7R7S7",
    "result": []
  },
  {
    "postal": "K7R4C2",
    "result": []
  },
  {
    "postal": "K7R5Y0",
    "result": []
  },
  {
    "postal": "K7R2V7",
    "result": [
      {
        "electoralDistricts": [
          {
            "election": null,
            "id": 40,
            "name": "Hastings—Lennox and Addington"
          }
        ],
        "pollDivisionIds": [
          10138769
        ],
        "postalCode": "K7R2V7",
        "streetName": "UNION",
        "streetDirectionId": null,
        "streetTypeId": "ST",
        "placeName": "NAPANEE",
        "streetNameDisplayText": "UNION ST, NAPANEE"
      }
    ]
  },
  {
    "postal": "K7R8P5",
    "result": []
  },
  {
    "postal": "K7R5P5",
    "result": []
  },
  {
    "postal": "K7R5Z0",
    "result": []
  },
  {
    "postal": "K7R9B0",
    "result": []
  },
  {
    "postal": "K7R1L0",
    "result": []
  },
  {
    "postal": "K7R0B5",
    "result": [
      {
        "electoralDistricts": [
          {
            "election": null,
            "id": 40,
            "name": "Hastings—Lennox and Addington"
          }
        ],
        "pollDivisionIds": [
          10138780,
          10138769
        ],
        "postalCode": "K7R0B5",
        "streetName": "KANVERS",
        "streetDirectionId": null,
        "streetTypeId": "WAY",
        "placeName": "NAPANEE",
        "streetNameDisplayText": "KANVERS WAY, NAPANEE"
      }
    ]
  },
  {
    "postal": "K7R3L2",
    "result": [
      {
        "electoralDistricts": [
          {
            "election": null,
            "id": 40,
            "name": "Hastings—Lennox and Addington"
          }
        ],
        "pollDivisionIds": [
          10138770
        ],
        "postalCode": "K7R3L2",
        "streetName": "41",
        "streetDirectionId": null,
        "streetTypeId": "HWY",
        "placeName": "NAPANEE",
        "streetNameDisplayText": "41 HWY, NAPANEE"
      },
      {
        "electoralDistricts": [
          {
            "election": null,
            "id": 40,
            "name": "Hastings—Lennox and Addington"
          }
        ],
        "pollDivisionIds": [
          10138770,
          10138758
        ],
        "postalCode": "K7R3L2",
        "streetName": "COUNTY 1",
        "streetDirectionId": "E",
        "streetTypeId": "RD",
        "placeName": "NAPANEE",
        "streetNameDisplayText": "COUNTY 1 RD E, NAPANEE"
      },
      {
        "electoralDistricts": [
          {
            "election": null,
            "id": 40,
            "name": "Hastings—Lennox and Addington"
          }
        ],
        "pollDivisionIds": [
          10138777
        ],
        "postalCode": "K7R3L2",
        "streetName": "COUNTY 1",
        "streetDirectionId": "W",
        "streetTypeId": "RD",
        "placeName": "NAPANEE",
        "streetNameDisplayText": "COUNTY 1 RD W, NAPANEE"
      },
      {
        "electoralDistricts": [
          {
            "election": null,
            "id": 40,
            "name": "Hastings—Lennox and Addington"
          }
        ],
        "pollDivisionIds": [
          10138758
        ],
        "postalCode": "K7R3L2",
        "streetName": "COUNTY 1",
        "streetDirectionId": null,
        "streetTypeId": "RD",
        "placeName": "NAPANEE",
        "streetNameDisplayText": "COUNTY 1 RD, NAPANEE"
      },
      {
        "electoralDistricts": [
          {
            "election": null,
            "id": 40,
            "name": "Hastings—Lennox and Addington"
          }
        ],
        "pollDivisionIds": [
          10138758
        ],
        "postalCode": "K7R3L2",
        "streetName": "COUNTY 11",
        "streetDirectionId": null,
        "streetTypeId": "RD",
        "placeName": "NAPANEE",
        "streetNameDisplayText": "COUNTY 11 RD, NAPANEE"
      },
      {
        "electoralDistricts": [
          {
            "election": null,
            "id": 40,
            "name": "Hastings—Lennox and Addington"
          }
        ],
        "pollDivisionIds": [
          10138758
        ],
        "postalCode": "K7R3L2",
        "streetName": "COUNTY 11",
        "streetDirectionId": null,
        "streetTypeId": "RD",
        "placeName": "SELBY",
        "streetNameDisplayText": "COUNTY 11 RD, SELBY"
      },
      {
        "electoralDistricts": [
          {
            "election": null,
            "id": 40,
            "name": "Hastings—Lennox and Addington"
          }
        ],
        "pollDivisionIds": [
          10138758
        ],
        "postalCode": "K7R3L2",
        "streetName": "COUNTY 16",
        "streetDirectionId": null,
        "streetTypeId": "RD",
        "placeName": "NAPANEE",
        "streetNameDisplayText": "COUNTY 16 RD, NAPANEE"
      },
      {
        "electoralDistricts": [
          {
            "election": null,
            "id": 40,
            "name": "Hastings—Lennox and Addington"
          }
        ],
        "pollDivisionIds": [
          10138758
        ],
        "postalCode": "K7R3L2",
        "streetName": "COUNTY 17",
        "streetDirectionId": null,
        "streetTypeId": "RD",
        "placeName": "NAPANEE",
        "streetNameDisplayText": "COUNTY 17 RD, NAPANEE"
      },
      {
        "electoralDistricts": [
          {
            "election": null,
            "id": 40,
            "name": "Hastings—Lennox and Addington"
          }
        ],
        "pollDivisionIds": [
          10138758
        ],
        "postalCode": "K7R3L2",
        "streetName": "COUNTY 17",
        "streetDirectionId": null,
        "streetTypeId": "RD",
        "placeName": "NEWBURGH",
        "streetNameDisplayText": "COUNTY 17 RD, NEWBURGH"
      },
      {
        "electoralDistricts": [
          {
            "election": null,
            "id": 40,
            "name": "Hastings—Lennox and Addington"
          }
        ],
        "pollDivisionIds": [
          10138758
        ],
        "postalCode": "K7R3L2",
        "streetName": "COUNTY 4",
        "streetDirectionId": null,
        "streetTypeId": "RD",
        "placeName": "CAMDEN EAST",
        "streetNameDisplayText": "COUNTY 4 RD, CAMDEN EAST"
      },
      {
        "electoralDistricts": [
          {
            "election": null,
            "id": 40,
            "name": "Hastings—Lennox and Addington"
          }
        ],
        "pollDivisionIds": [
          10138759
        ],
        "postalCode": "K7R3L2",
        "streetName": "COUNTY 4",
        "streetDirectionId": null,
        "streetTypeId": "RD",
        "placeName": "YARKER",
        "streetNameDisplayText": "COUNTY 4 RD, YARKER"
      },
      {
        "electoralDistricts": [
          {
            "election": null,
            "id": 40,
            "name": "Hastings—Lennox and Addington"
          }
        ],
        "pollDivisionIds": [
          10138770,
          10138767
        ],
        "postalCode": "K7R3L2",
        "streetName": "COUNTY 41",
        "streetDirectionId": null,
        "streetTypeId": "RD",
        "placeName": "NAPANEE",
        "streetNameDisplayText": "COUNTY 41 RD, NAPANEE"
      },
      {
        "electoralDistricts": [
          {
            "election": null,
            "id": 40,
            "name": "Hastings—Lennox and Addington"
          }
        ],
        "pollDivisionIds": [
          10138777,
          10138758
        ],
        "postalCode": "K7R3L2",
        "streetName": "COUNTY RD 1",
        "streetDirectionId": "E",
        "streetTypeId": null,
        "placeName": "NAPANEE",
        "streetNameDisplayText": "COUNTY RD 1 E, NAPANEE"
      },
      {
        "electoralDistricts": [
          {
            "election": null,
            "id": 40,
            "name": "Hastings—Lennox and Addington"
          }
        ],
        "pollDivisionIds": [
          10138758,
          10138777
        ],
        "postalCode": "K7R3L2",
        "streetName": "COUNTY RD 1",
        "streetDirectionId": null,
        "streetTypeId": null,
        "placeName": "NAPANEE",
        "streetNameDisplayText": "COUNTY RD 1, NAPANEE"
      },
      {
        "electoralDistricts": [
          {
            "election": null,
            "id": 40,
            "name": "Hastings—Lennox and Addington"
          }
        ],
        "pollDivisionIds": [
          10138758
        ],
        "postalCode": "K7R3L2",
        "streetName": "COUNTY RD 11",
        "streetDirectionId": null,
        "streetTypeId": null,
        "placeName": "NAPANEE",
        "streetNameDisplayText": "COUNTY RD 11, NAPANEE"
      },
      {
        "electoralDistricts": [
          {
            "election": null,
            "id": 40,
            "name": "Hastings—Lennox and Addington"
          }
        ],
        "pollDivisionIds": [
          10138758
        ],
        "postalCode": "K7R3L2",
        "streetName": "COUNTY RD 17",
        "streetDirectionId": null,
        "streetTypeId": null,
        "placeName": "NAPANEE",
        "streetNameDisplayText": "COUNTY RD 17, NAPANEE"
      },
      {
        "electoralDistricts": [
          {
            "election": null,
            "id": 40,
            "name": "Hastings—Lennox and Addington"
          }
        ],
        "pollDivisionIds": [
          10138758
        ],
        "postalCode": "K7R3L2",
        "streetName": "COUNTY RD 18",
        "streetDirectionId": null,
        "streetTypeId": null,
        "placeName": "NAPANEE",
        "streetNameDisplayText": "COUNTY RD 18, NAPANEE"
      },
      {
        "electoralDistricts": [
          {
            "election": null,
            "id": 40,
            "name": "Hastings—Lennox and Addington"
          }
        ],
        "pollDivisionIds": [
          10138773
        ],
        "postalCode": "K7R3L2",
        "streetName": "COUNTY RD 4",
        "streetDirectionId": null,
        "streetTypeId": null,
        "placeName": "NAPANEE",
        "streetNameDisplayText": "COUNTY RD 4, NAPANEE"
      },
      {
        "electoralDistricts": [
          {
            "election": null,
            "id": 40,
            "name": "Hastings—Lennox and Addington"
          }
        ],
        "pollDivisionIds": [
          10138767,
          10138770
        ],
        "postalCode": "K7R3L2",
        "streetName": "COUNTY RD 41",
        "streetDirectionId": null,
        "streetTypeId": null,
        "placeName": "NAPANEE",
        "streetNameDisplayText": "COUNTY RD 41, NAPANEE"
      },
      {
        "electoralDistricts": [
          {
            "election": null,
            "id": 40,
            "name": "Hastings—Lennox and Addington"
          }
        ],
        "pollDivisionIds": [
          10138758
        ],
        "postalCode": "K7R3L2",
        "streetName": "COUNTY",
        "streetDirectionId": "E",
        "streetTypeId": "RD",
        "placeName": "NAPANEE",
        "streetNameDisplayText": "COUNTY RD E, NAPANEE"
      },
      {
        "electoralDistricts": [
          {
            "election": null,
            "id": 40,
            "name": "Hastings—Lennox and Addington"
          }
        ],
        "pollDivisionIds": [
          10138770,
          10138758,
          10138780,
          10138777
        ],
        "postalCode": "K7R3L2",
        "streetName": "COUNTY ROAD 1",
        "streetDirectionId": "E",
        "streetTypeId": null,
        "placeName": "NAPANEE",
        "streetNameDisplayText": "COUNTY ROAD 1 E, NAPANEE"
      },
      {
        "electoralDistricts": [
          {
            "election": null,
            "id": 40,
            "name": "Hastings—Lennox and Addington"
          }
        ],
        "pollDivisionIds": [
          10138777
        ],
        "postalCode": "K7R3L2",
        "streetName": "COUNTY ROAD 1",
        "streetDirectionId": "W",
        "streetTypeId": null,
        "placeName": "NAPANEE",
        "streetNameDisplayText": "COUNTY ROAD 1 W, NAPANEE"
      },
      {
        "electoralDistricts": [
          {
            "election": null,
            "id": 40,
            "name": "Hastings—Lennox and Addington"
          }
        ],
        "pollDivisionIds": [
          10138758
        ],
        "postalCode": "K7R3L2",
        "streetName": "COUNTY ROAD 11",
        "streetDirectionId": null,
        "streetTypeId": null,
        "placeName": "NAPANEE",
        "streetNameDisplayText": "COUNTY ROAD 11, NAPANEE"
      },
      {
        "electoralDistricts": [
          {
            "election": null,
            "id": 40,
            "name": "Hastings—Lennox and Addington"
          }
        ],
        "pollDivisionIds": [
          10138758
        ],
        "postalCode": "K7R3L2",
        "streetName": "COUNTY ROAD 11",
        "streetDirectionId": null,
        "streetTypeId": null,
        "placeName": "SELBY",
        "streetNameDisplayText": "COUNTY ROAD 11, SELBY"
      },
      {
        "electoralDistricts": [
          {
            "election": null,
            "id": 40,
            "name": "Hastings—Lennox and Addington"
          }
        ],
        "pollDivisionIds": [
          10138759,
          10138758
        ],
        "postalCode": "K7R3L2",
        "streetName": "COUNTY ROAD 17",
        "streetDirectionId": null,
        "streetTypeId": null,
        "placeName": "NAPANEE",
        "streetNameDisplayText": "COUNTY ROAD 17, NAPANEE"
      },
      {
        "electoralDistricts": [
          {
            "election": null,
            "id": 40,
            "name": "Hastings—Lennox and Addington"
          }
        ],
        "pollDivisionIds": [
          10138758
        ],
        "postalCode": "K7R3L2",
        "streetName": "COUNTY ROAD 17",
        "streetDirectionId": null,
        "streetTypeId": null,
        "placeName": "NEWBURGH",
        "streetNameDisplayText": "COUNTY ROAD 17, NEWBURGH"
      },
      {
        "electoralDistricts": [
          {
            "election": null,
            "id": 40,
            "name": "Hastings—Lennox and Addington"
          }
        ],
        "pollDivisionIds": [
          10138767
        ],
        "postalCode": "K7R3L2",
        "streetName": "DENISON",
        "streetDirectionId": null,
        "streetTypeId": "RD",
        "placeName": "NAPANEE",
        "streetNameDisplayText": "DENISON RD, NAPANEE"
      },
      {
        "electoralDistricts": [
          {
            "election": null,
            "id": 40,
            "name": "Hastings—Lennox and Addington"
          }
        ],
        "pollDivisionIds": [
          10138759
        ],
        "postalCode": "K7R3L2",
        "streetName": "DOYLE",
        "streetDirectionId": null,
        "streetTypeId": "RD",
        "placeName": "NAPANEE",
        "streetNameDisplayText": "DOYLE RD, NAPANEE"
      },
      {
        "electoralDistricts": [
          {
            "election": null,
            "id": 40,
            "name": "Hastings—Lennox and Addington"
          }
        ],
        "pollDivisionIds": [
          10138758
        ],
        "postalCode": "K7R3L2",
        "streetName": "FINLAY",
        "streetDirectionId": null,
        "streetTypeId": "ST",
        "placeName": "NAPANEE",
        "streetNameDisplayText": "FINLAY ST, NAPANEE"
      },
      {
        "electoralDistricts": [
          {
            "election": null,
            "id": 40,
            "name": "Hastings—Lennox and Addington"
          }
        ],
        "pollDivisionIds": [
          10138770
        ],
        "postalCode": "K7R3L2",
        "streetName": "FRISK",
        "streetDirectionId": null,
        "streetTypeId": "RD",
        "placeName": "NAPANEE",
        "streetNameDisplayText": "FRISK RD, NAPANEE"
      },
      {
        "electoralDistricts": [
          {
            "election": null,
            "id": 40,
            "name": "Hastings—Lennox and Addington"
          }
        ],
        "pollDivisionIds": [
          10138770,
          10138767
        ],
        "postalCode": "K7R3L2",
        "streetName": "GEROW",
        "streetDirectionId": null,
        "streetTypeId": "RD",
        "placeName": "NAPANEE",
        "streetNameDisplayText": "GEROW RD, NAPANEE"
      },
      {
        "electoralDistricts": [
          {
            "election": null,
            "id": 40,
            "name": "Hastings—Lennox and Addington"
          }
        ],
        "pollDivisionIds": [
          10138767,
          10138770
        ],
        "postalCode": "K7R3L2",
        "streetName": "GOODYEAR",
        "streetDirectionId": null,
        "streetTypeId": "RD",
        "placeName": "NAPANEE",
        "streetNameDisplayText": "GOODYEAR RD, NAPANEE"
      },
      {
        "electoralDistricts": [
          {
            "election": null,
            "id": 40,
            "name": "Hastings—Lennox and Addington"
          }
        ],
        "pollDivisionIds": [
          10138758
        ],
        "postalCode": "K7R3L2",
        "streetName": "HOOPER",
        "streetDirectionId": null,
        "streetTypeId": "RD",
        "placeName": "NAPANEE",
        "streetNameDisplayText": "HOOPER RD, NAPANEE"
      },
      {
        "electoralDistricts": [
          {
            "election": null,
            "id": 40,
            "name": "Hastings—Lennox and Addington"
          }
        ],
        "pollDivisionIds": [
          10138770
        ],
        "postalCode": "K7R3L2",
        "streetName": "HURON",
        "streetDirectionId": null,
        "streetTypeId": "ST",
        "placeName": "NAPANEE",
        "streetNameDisplayText": "HURON ST, NAPANEE"
      },
      {
        "electoralDistricts": [
          {
            "election": null,
            "id": 40,
            "name": "Hastings—Lennox and Addington"
          }
        ],
        "pollDivisionIds": [
          10138770
        ],
        "postalCode": "K7R3L2",
        "streetName": "KIMMETT'S",
        "streetDirectionId": null,
        "streetTypeId": "SIDERD",
        "placeName": "NAPANEE",
        "streetNameDisplayText": "KIMMETT'S SIDERD, NAPANEE"
      },
      {
        "electoralDistricts": [
          {
            "election": null,
            "id": 40,
            "name": "Hastings—Lennox and Addington"
          }
        ],
        "pollDivisionIds": [
          10138770
        ],
        "postalCode": "K7R3L2",
        "streetName": "MAPLE",
        "streetDirectionId": null,
        "streetTypeId": "ST",
        "placeName": "NAPANEE",
        "streetNameDisplayText": "MAPLE ST, NAPANEE"
      },
      {
        "electoralDistricts": [
          {
            "election": null,
            "id": 40,
            "name": "Hastings—Lennox and Addington"
          }
        ],
        "pollDivisionIds": [
          10138757,
          10138758
        ],
        "postalCode": "K7R3L2",
        "streetName": "MCKEOWN DRIVE",
        "streetDirectionId": null,
        "streetTypeId": "RD",
        "placeName": "NAPANEE",
        "streetNameDisplayText": "MCKEOWN DRIVE RD, NAPANEE"
      },
      {
        "electoralDistricts": [
          {
            "election": null,
            "id": 40,
            "name": "Hastings—Lennox and Addington"
          }
        ],
        "pollDivisionIds": [
          10138758
        ],
        "postalCode": "K7R3L2",
        "streetName": "NEWBURGH",
        "streetDirectionId": null,
        "streetTypeId": "RD",
        "placeName": "NAPANEE",
        "streetNameDisplayText": "NEWBURGH RD, NAPANEE"
      },
      {
        "electoralDistricts": [
          {
            "election": null,
            "id": 40,
            "name": "Hastings—Lennox and Addington"
          }
        ],
        "pollDivisionIds": [
          10138770
        ],
        "postalCode": "K7R3L2",
        "streetName": "PARKVIEW",
        "streetDirectionId": null,
        "streetTypeId": "HILL",
        "placeName": "NAPANEE",
        "streetNameDisplayText": "PARKVIEW HILL, NAPANEE"
      },
      {
        "electoralDistricts": [
          {
            "election": null,
            "id": 40,
            "name": "Hastings—Lennox and Addington"
          }
        ],
        "pollDivisionIds": [
          10138770
        ],
        "postalCode": "K7R3L2",
        "streetName": "SOUTHWOOD",
        "streetDirectionId": null,
        "streetTypeId": "CRES",
        "placeName": "NAPANEE",
        "streetNameDisplayText": "SOUTHWOOD CRES, NAPANEE"
      },
      {
        "electoralDistricts": [
          {
            "election": null,
            "id": 40,
            "name": "Hastings—Lennox and Addington"
          }
        ],
        "pollDivisionIds": [
          10138770
        ],
        "postalCode": "K7R3L2",
        "streetName": "VANLUVEN",
        "streetDirectionId": null,
        "streetTypeId": "RD",
        "placeName": "NAPANEE",
        "streetNameDisplayText": "VANLUVEN RD, NAPANEE"
      }
    ]
  },
  {
    "postal": "K7R3B7",
    "result": [
      {
        "electoralDistricts": [
          {
            "election": null,
            "id": 40,
            "name": "Hastings—Lennox and Addington"
          }
        ],
        "pollDivisionIds": [
          10138780
        ],
        "postalCode": "K7R3B7",
        "streetName": "YEOMANS",
        "streetDirectionId": null,
        "streetTypeId": "ST",
        "placeName": "NAPANEE",
        "streetNameDisplayText": "YEOMANS ST, NAPANEE"
      }
    ]
  },
  {
    "postal": "K7R8L1",
    "result": []
  },
  {
    "postal": "K7R5M4",
    "result": []
  },
  {
    "postal": "K7R4G9",
    "result": []
  },
  {
    "postal": "K7R0P0",
    "result": []
  },
  {
    "postal": "K7R8G2",
    "result": []
  },
  {
    "postal": "K7R1V9",
    "result": [
      {
        "electoralDistricts": [
          {
            "election": null,
            "id": 40,
            "name": "Hastings—Lennox and Addington"
          }
        ],
        "pollDivisionIds": [
          10138769
        ],
        "postalCode": "K7R1V9",
        "streetName": "WATER",
        "streetDirectionId": "W",
        "streetTypeId": "ST",
        "placeName": "NAPANEE",
        "streetNameDisplayText": "WATER ST W, NAPANEE"
      }
    ]
  },
  {
    "postal": "K7R8N8",
    "result": []
  },
  {
    "postal": "K7R6S8",
    "result": []
  },
  {
    "postal": "K7R8H2",
    "result": []
  },
  {
    "postal": "K7R5R8",
    "result": []
  },
  {
    "postal": "K7R5L4",
    "result": []
  },
  {
    "postal": "K7R9E1",
    "result": []
  },
  {
    "postal": "K7R1C4",
    "result": [
      {
        "electoralDistricts": [
          {
            "election": null,
            "id": 40,
            "name": "Hastings—Lennox and Addington"
          }
        ],
        "pollDivisionIds": [
          10138777
        ],
        "postalCode": "K7R1C4",
        "streetName": "CHURCH",
        "streetDirectionId": null,
        "streetTypeId": "ST",
        "placeName": "NAPANEE",
        "streetNameDisplayText": "CHURCH ST, NAPANEE"
      },
      {
        "electoralDistricts": [
          {
            "election": null,
            "id": 40,
            "name": "Hastings—Lennox and Addington"
          }
        ],
        "pollDivisionIds": [
          10138777
        ],
        "postalCode": "K7R1C4",
        "streetName": "CHURCH ST. WEST",
        "streetDirectionId": null,
        "streetTypeId": "ST",
        "placeName": "NAPANEE",
        "streetNameDisplayText": "CHURCH ST. WEST ST, NAPANEE"
      },
      {
        "electoralDistricts": [
          {
            "election": null,
            "id": 40,
            "name": "Hastings—Lennox and Addington"
          }
        ],
        "pollDivisionIds": [
          10138777
        ],
        "postalCode": "K7R1C4",
        "streetName": "CROUSE",
        "streetDirectionId": null,
        "streetTypeId": "ST",
        "placeName": "NAPANEE",
        "streetNameDisplayText": "CROUSE ST, NAPANEE"
      }
    ]
  },
  {
    "postal": "K7R8W5",
    "result": []
  },
  {
    "postal": "K7R1Y4",
    "result": [
      {
        "electoralDistricts": [
          {
            "election": null,
            "id": 40,
            "name": "Hastings—Lennox and Addington"
          }
        ],
        "pollDivisionIds": [
          10138769
        ],
        "postalCode": "K7R1Y4",
        "streetName": "MILL",
        "streetDirectionId": "W",
        "streetTypeId": "ST",
        "placeName": "NAPANEE",
        "streetNameDisplayText": "MILL ST W, NAPANEE"
      }
    ]
  },
  {
    "postal": "K7R1C0",
    "result": []
  },
  {
    "postal": "K7R2J2",
    "result": [
      {
        "electoralDistricts": [
          {
            "election": null,
            "id": 40,
            "name": "Hastings—Lennox and Addington"
          }
        ],
        "pollDivisionIds": [
          10138769
        ],
        "postalCode": "K7R2J2",
        "streetName": "SECOND",
        "streetDirectionId": null,
        "streetTypeId": "AVE",
        "placeName": "NAPANEE",
        "streetNameDisplayText": "SECOND AVE, NAPANEE"
      }
    ]
  },
  {
    "postal": "K7R2J0",
    "result": []
  },
  {
    "postal": "K7R7A3",
    "result": []
  },
  {
    "postal": "K7R8M1",
    "result": []
  },
  {
    "postal": "K7R7T9",
    "result": []
  },
  {
    "postal": "K7R6C0",
    "result": []
  },
  {
    "postal": "K7R7X1",
    "result": []
  },
  {
    "postal": "K7R0G1",
    "result": []
  },
  {
    "postal": "K7R4X2",
    "result": []
  },
  {
    "postal": "K7R0N6",
    "result": []
  },
  {
    "postal": "K7R8E3",
    "result": []
  },
  {
    "postal": "K7R5S8",
    "result": []
  },
  {
    "postal": "K7R0R0",
    "result": []
  },
  {
    "postal": "K7R6J6",
    "result": []
  },
  {
    "postal": "K7R4B4",
    "result": [
      {
        "electoralDistricts": [
          {
            "election": null,
            "id": 40,
            "name": "Hastings—Lennox and Addington"
          }
        ],
        "pollDivisionIds": [
          10138769
        ],
        "postalCode": "K7R4B4",
        "streetName": "BRIDGE",
        "streetDirectionId": "W",
        "streetTypeId": "ST",
        "placeName": "NAPANEE",
        "streetNameDisplayText": "BRIDGE ST W, NAPANEE"
      }
    ]
  },
  {
    "postal": "K7R7E3",
    "result": []
  },
  {
    "postal": "K7R3N6",
    "result": [
      {
        "electoralDistricts": [
          {
            "election": null,
            "id": 40,
            "name": "Hastings—Lennox and Addington"
          }
        ],
        "pollDivisionIds": [
          10138769
        ],
        "postalCode": "K7R3N6",
        "streetName": "MILL",
        "streetDirectionId": "W",
        "streetTypeId": "ST",
        "placeName": "NAPANEE",
        "streetNameDisplayText": "MILL ST W, NAPANEE"
      }
    ]
  },
  {
    "postal": "K7R3X6",
    "result": [
      {
        "electoralDistricts": [
          {
            "election": null,
            "id": 40,
            "name": "Hastings—Lennox and Addington"
          }
        ],
        "pollDivisionIds": [
          10138769
        ],
        "postalCode": "K7R3X6",
        "streetName": "BEVERLY",
        "streetDirectionId": null,
        "streetTypeId": "ST",
        "placeName": "NAPANEE",
        "streetNameDisplayText": "BEVERLY ST, NAPANEE"
      },
      {
        "electoralDistricts": [
          {
            "election": null,
            "id": 40,
            "name": "Hastings—Lennox and Addington"
          }
        ],
        "pollDivisionIds": [
          10138769,
          10138721
        ],
        "postalCode": "K7R3X6",
        "streetName": "KANVERS",
        "streetDirectionId": null,
        "streetTypeId": "WAY",
        "placeName": "NAPANEE",
        "streetNameDisplayText": "KANVERS WAY, NAPANEE"
      }
    ]
  },
  {
    "postal": "K7R8L0",
    "result": []
  },
  {
    "postal": "K7R8N1",
    "result": []
  },
  {
    "postal": "K7R4J0",
    "result": []
  },
  {
    "postal": "K7R0X7",
    "result": []
  },
  {
    "postal": "K7R6S4",
    "result": []
  },
  {
    "postal": "K7R0Z0",
    "result": []
  },
  {
    "postal": "K7R9X8",
    "result": []
  },
  {
    "postal": "K7R3H3",
    "result": [
      {
        "electoralDistricts": [
          {
            "election": null,
            "id": 40,
            "name": "Hastings—Lennox and Addington"
          }
        ],
        "pollDivisionIds": [
          10138780
        ],
        "postalCode": "K7R3H3",
        "streetName": "RIVER",
        "streetDirectionId": null,
        "streetTypeId": "RD",
        "placeName": "NAPANEE",
        "streetNameDisplayText": "RIVER RD, NAPANEE"
      }
    ]
  },
  {
    "postal": "K7R7S2",
    "result": []
  },
  {
    "postal": "K7R3T3",
    "result": [
      {
        "electoralDistricts": [
          {
            "election": null,
            "id": 40,
            "name": "Hastings—Lennox and Addington"
          }
        ],
        "pollDivisionIds": [
          10138769
        ],
        "postalCode": "K7R3T3",
        "streetName": "BAKER",
        "streetDirectionId": null,
        "streetTypeId": "ST",
        "placeName": "NAPANEE",
        "streetNameDisplayText": "BAKER ST, NAPANEE"
      }
    ]
  },
  {
    "postal": "K7R9P3",
    "result": []
  },
  {
    "postal": "K7R4H8",
    "result": []
  },
  {
    "postal": "K7R6R1",
    "result": []
  },
  {
    "postal": "K7R1S0",
    "result": []
  },
  {
    "postal": "K7R3W8",
    "result": [
      {
        "electoralDistricts": [
          {
            "election": null,
            "id": 40,
            "name": "Hastings—Lennox and Addington"
          }
        ],
        "pollDivisionIds": [
          10138769
        ],
        "postalCode": "K7R3W8",
        "streetName": "ANGUS",
        "streetDirectionId": null,
        "streetTypeId": "DR",
        "placeName": "NAPANEE",
        "streetNameDisplayText": "ANGUS DR, NAPANEE"
      }
    ]
  },
  {
    "postal": "K7R4S3",
    "result": []
  },
  {
    "postal": "K7R1B6",
    "result": [
      {
        "electoralDistricts": [
          {
            "election": null,
            "id": 40,
            "name": "Hastings—Lennox and Addington"
          }
        ],
        "pollDivisionIds": [
          10138777
        ],
        "postalCode": "K7R1B6",
        "streetName": "KING",
        "streetDirectionId": null,
        "streetTypeId": "ST",
        "placeName": "NAPANEE",
        "streetNameDisplayText": "KING ST, NAPANEE"
      }
    ]
  },
  {
    "postal": "K7R8R3",
    "result": []
  },
  {
    "postal": "K7R4V9",
    "result": []
  },
  {
    "postal": "K7R9W4",
    "result": []
  },
  {
    "postal": "K7R3T4",
    "result": [
      {
        "electoralDistricts": [
          {
            "election": null,
            "id": 40,
            "name": "Hastings—Lennox and Addington"
          }
        ],
        "pollDivisionIds": [
          10138777
        ],
        "postalCode": "K7R3T4",
        "streetName": "QUEEN",
        "streetDirectionId": null,
        "streetTypeId": "ST",
        "placeName": "NAPANEE",
        "streetNameDisplayText": "QUEEN ST, NAPANEE"
      }
    ]
  },
  {
    "postal": "K7R5C7",
    "result": []
  },
  {
    "postal": "K7R3Y1",
    "result": [
      {
        "electoralDistricts": [
          {
            "election": null,
            "id": 40,
            "name": "Hastings—Lennox and Addington"
          }
        ],
        "pollDivisionIds": [
          10138777
        ],
        "postalCode": "K7R3Y1",
        "streetName": "GINGER",
        "streetDirectionId": null,
        "streetTypeId": "ST",
        "placeName": "NAPANEE",
        "streetNameDisplayText": "GINGER ST, NAPANEE"
      },
      {
        "electoralDistricts": [
          {
            "election": null,
            "id": 40,
            "name": "Hastings—Lennox and Addington"
          }
        ],
        "pollDivisionIds": [
          10138777
        ],
        "postalCode": "K7R3Y1",
        "streetName": "HERITAGE PARK",
        "streetDirectionId": null,
        "streetTypeId": "DR",
        "placeName": "NAPANEE",
        "streetNameDisplayText": "HERITAGE PARK DR, NAPANEE"
      },
      {
        "electoralDistricts": [
          {
            "election": null,
            "id": 40,
            "name": "Hastings—Lennox and Addington"
          }
        ],
        "pollDivisionIds": [
          10138777
        ],
        "postalCode": "K7R3Y1",
        "streetName": "ROSE",
        "streetDirectionId": null,
        "streetTypeId": "CRT",
        "placeName": "NAPANEE",
        "streetNameDisplayText": "ROSE CRT, NAPANEE"
      }
    ]
  },
  {
    "postal": "K7R5V0",
    "result": []
  },
  {
    "postal": "K7R8G8",
    "result": []
  },
  {
    "postal": "K7R8B1",
    "result": []
  },
  {
    "postal": "K7R4P5",
    "result": []
  },
  {
    "postal": "K7R7B2",
    "result": []
  },
  {
    "postal": "K7R0R2",
    "result": []
  },
  {
    "postal": "K7R4M4",
    "result": []
  },
  {
    "postal": "K7R7M4",
    "result": []
  },
  {
    "postal": "K7R9S7",
    "result": []
  },
  {
    "postal": "K7R5Z7",
    "result": []
  },
  {
    "postal": "K7R7J7",
    "result": []
  },
  {
    "postal": "K7R8R8",
    "result": []
  },
  {
    "postal": "K7R9X1",
    "result": []
  },
  {
    "postal": "K7R5M9",
    "result": []
  },
  {
    "postal": "K7R9B4",
    "result": []
  },
  {
    "postal": "K7R0L9",
    "result": []
  },
  {
    "postal": "K7R9G4",
    "result": []
  },
  {
    "postal": "K7R1J4",
    "result": [
      {
        "electoralDistricts": [
          {
            "election": null,
            "id": 40,
            "name": "Hastings—Lennox and Addington"
          }
        ],
        "pollDivisionIds": [
          10138769
        ],
        "postalCode": "K7R1J4",
        "streetName": "MARKET",
        "streetDirectionId": null,
        "streetTypeId": "SQ",
        "placeName": "NAPANEE",
        "streetNameDisplayText": "MARKET SQ, NAPANEE"
      }
    ]
  },
  {
    "postal": "K7R0W6",
    "result": []
  }
]
