[
  {
    "postal": "L6E9J6",
    "result": []
  },
  {
    "postal": "L6E9Z5",
    "result": []
  },
  {
    "postal": "L6E7H8",
    "result": []
  },
  {
    "postal": "L6E0P6",
    "result": [
      {
        "electoralDistricts": [
          {
            "election": null,
            "id": 58,
            "name": "Markham—Unionville"
          }
        ],
        "pollDivisionIds": [
          10139669
        ],
        "postalCode": "L6E0P6",
        "streetName": "BEGONIA",
        "streetDirectionId": null,
        "streetTypeId": "ST",
        "placeName": "MARKHAM",
        "streetNameDisplayText": "BEGONIA ST, MARKHAM"
      },
      {
        "electoralDistricts": [
          {
            "election": null,
            "id": 58,
            "name": "Markham—Unionville"
          }
        ],
        "pollDivisionIds": [
          10139669
        ],
        "postalCode": "L6E0P6",
        "streetName": "HYACINTH",
        "streetDirectionId": null,
        "streetTypeId": "ST",
        "placeName": "MARKHAM",
        "streetNameDisplayText": "HYACINTH ST, MARKHAM"
      }
    ]
  },
  {
    "postal": "L6E0S7",
    "result": [
      {
        "electoralDistricts": [
          {
            "election": null,
            "id": 56,
            "name": "Markham—Stouffville"
          }
        ],
        "pollDivisionIds": [
          10134346
        ],
        "postalCode": "L6E0S7",
        "streetName": "ROUGEVIEW PARK",
        "streetDirectionId": null,
        "streetTypeId": "CRES",
        "placeName": "MARKHAM",
        "streetNameDisplayText": "ROUGEVIEW PARK CRES, MARKHAM"
      },
      {
        "electoralDistricts": [
          {
            "election": null,
            "id": 58,
            "name": "Markham—Unionville"
          },
          {
            "election": null,
            "id": 56,
            "name": "Markham—Stouffville"
          }
        ],
        "pollDivisionIds": [
          10139668,
          10134346
        ],
        "postalCode": "L6E0S7",
        "streetName": "SHARBOT",
        "streetDirectionId": null,
        "streetTypeId": "LANE",
        "placeName": "MARKHAM",
        "streetNameDisplayText": "SHARBOT LANE, MARKHAM"
      }
    ]
  },
  {
    "postal": "L6E8B9",
    "result": []
  },
  {
    "postal": "L6E2A6",
    "result": [
      {
        "electoralDistricts": [
          {
            "election": null,
            "id": 58,
            "name": "Markham—Unionville"
          }
        ],
        "pollDivisionIds": [
          10139673
        ],
        "postalCode": "L6E2A6",
        "streetName": "EDWARD JEFFREYS",
        "streetDirectionId": null,
        "streetTypeId": "AVE",
        "placeName": "MARKHAM",
        "streetNameDisplayText": "EDWARD JEFFREYS AVE, MARKHAM"
      },
      {
        "electoralDistricts": [
          {
            "election": null,
            "id": 58,
            "name": "Markham—Unionville"
          }
        ],
        "pollDivisionIds": [
          10139673
        ],
        "postalCode": "L6E2A6",
        "streetName": "MONK HOUSE",
        "streetDirectionId": null,
        "streetTypeId": "RD",
        "placeName": "MARKHAM",
        "streetNameDisplayText": "MONK HOUSE RD, MARKHAM"
      },
      {
        "electoralDistricts": [
          {
            "election": null,
            "id": 58,
            "name": "Markham—Unionville"
          }
        ],
        "pollDivisionIds": [
          10139673
        ],
        "postalCode": "L6E2A6",
        "streetName": "MONKHOUSE",
        "streetDirectionId": null,
        "streetTypeId": "RD",
        "placeName": "MARKHAM",
        "streetNameDisplayText": "MONKHOUSE RD, MARKHAM"
      }
    ]
  },
  {
    "postal": "L6E7V2",
    "result": []
  },
  {
    "postal": "L6E9P4",
    "result": []
  },
  {
    "postal": "L6E6G0",
    "result": []
  },
  {
    "postal": "L6E2K0",
    "result": []
  },
  {
    "postal": "L6E7N6",
    "result": []
  },
  {
    "postal": "L6E5R3",
    "result": []
  },
  {
    "postal": "L6E7K0",
    "result": []
  },
  {
    "postal": "L6E3R2",
    "result": []
  },
  {
    "postal": "L6E0J1",
    "result": []
  },
  {
    "postal": "L6E0B0",
    "result": []
  },
  {
    "postal": "L6E5Z2",
    "result": []
  },
  {
    "postal": "L6E7P3",
    "result": []
  },
  {
    "postal": "L6E2K3",
    "result": []
  },
  {
    "postal": "L6E7Y6",
    "result": []
  },
  {
    "postal": "L6E1L9",
    "result": [
      {
        "electoralDistricts": [
          {
            "election": null,
            "id": 56,
            "name": "Markham—Stouffville"
          }
        ],
        "pollDivisionIds": [
          10134346
        ],
        "postalCode": "L6E1L9",
        "streetName": "DELRAY",
        "streetDirectionId": null,
        "streetTypeId": "DR",
        "placeName": "MARKHAM",
        "streetNameDisplayText": "DELRAY DR, MARKHAM"
      },
      {
        "electoralDistricts": [
          {
            "election": null,
            "id": 56,
            "name": "Markham—Stouffville"
          }
        ],
        "pollDivisionIds": [
          10134346
        ],
        "postalCode": "L6E1L9",
        "streetName": "GOLDENWOOD",
        "streetDirectionId": null,
        "streetTypeId": "CRES",
        "placeName": "MARKHAM",
        "streetNameDisplayText": "GOLDENWOOD CRES, MARKHAM"
      },
      {
        "electoralDistricts": [
          {
            "election": null,
            "id": 56,
            "name": "Markham—Stouffville"
          }
        ],
        "pollDivisionIds": [
          10134346
        ],
        "postalCode": "L6E1L9",
        "streetName": "ORCHARD VIEW",
        "streetDirectionId": null,
        "streetTypeId": "RD",
        "placeName": "MARKHAM",
        "streetNameDisplayText": "ORCHARD VIEW RD, MARKHAM"
      }
    ]
  },
  {
    "postal": "L6E8T0",
    "result": []
  },
  {
    "postal": "L6E3K8",
    "result": []
  },
  {
    "postal": "L6E5W9",
    "result": []
  },
  {
    "postal": "L6E6T9",
    "result": []
  },
  {
    "postal": "L6E4H1",
    "result": []
  },
  {
    "postal": "L6E7A2",
    "result": []
  },
  {
    "postal": "L6E5G0",
    "result": []
  },
  {
    "postal": "L6E8V5",
    "result": []
  },
  {
    "postal": "L6E2Y8",
    "result": []
  },
  {
    "postal": "L6E2B6",
    "result": [
      {
        "electoralDistricts": [
          {
            "election": null,
            "id": 58,
            "name": "Markham—Unionville"
          }
        ],
        "pollDivisionIds": [
          10139672,
          10139663
        ],
        "postalCode": "L6E2B6",
        "streetName": "KELLY",
        "streetDirectionId": null,
        "streetTypeId": "CRES",
        "placeName": "MARKHAM",
        "streetNameDisplayText": "KELLY CRES, MARKHAM"
      },
      {
        "electoralDistricts": [
          {
            "election": null,
            "id": 58,
            "name": "Markham—Unionville"
          }
        ],
        "pollDivisionIds": [
          10139672
        ],
        "postalCode": "L6E2B6",
        "streetName": "TIDEWATER",
        "streetDirectionId": null,
        "streetTypeId": "ST",
        "placeName": "MARKHAM",
        "streetNameDisplayText": "TIDEWATER ST, MARKHAM"
      }
    ]
  },
  {
    "postal": "L6E4W8",
    "result": []
  },
  {
    "postal": "L6E8H7",
    "result": []
  },
  {
    "postal": "L6E5P1",
    "result": []
  },
  {
    "postal": "L6E2B8",
    "result": [
      {
        "electoralDistricts": [
          {
            "election": null,
            "id": 58,
            "name": "Markham—Unionville"
          }
        ],
        "pollDivisionIds": [
          10139672
        ],
        "postalCode": "L6E2B8",
        "streetName": "STORYBOOK",
        "streetDirectionId": null,
        "streetTypeId": "CRES",
        "placeName": "MARKHAM",
        "streetNameDisplayText": "STORYBOOK CRES, MARKHAM"
      }
    ]
  },
  {
    "postal": "L6E0P2",
    "result": [
      {
        "electoralDistricts": [
          {
            "election": null,
            "id": 58,
            "name": "Markham—Unionville"
          }
        ],
        "pollDivisionIds": [
          10139672
        ],
        "postalCode": "L6E0P2",
        "streetName": "CAROLINA ROSE",
        "streetDirectionId": null,
        "streetTypeId": "CRES",
        "placeName": "MARKHAM",
        "streetNameDisplayText": "CAROLINA ROSE CRES, MARKHAM"
      },
      {
        "electoralDistricts": [
          {
            "election": null,
            "id": 58,
            "name": "Markham—Unionville"
          }
        ],
        "pollDivisionIds": [
          10139672
        ],
        "postalCode": "L6E0P2",
        "streetName": "THIMBLEWEED",
        "streetDirectionId": null,
        "streetTypeId": "ST",
        "placeName": "MARKHAM",
        "streetNameDisplayText": "THIMBLEWEED ST, MARKHAM"
      }
    ]
  },
  {
    "postal": "L6E9M1",
    "result": []
  },
  {
    "postal": "L6E3G0",
    "result": []
  },
  {
    "postal": "L6E9Z2",
    "result": []
  },
  {
    "postal": "L6E2A0",
    "result": []
  },
  {
    "postal": "L6E6Y0",
    "result": []
  },
  {
    "postal": "L6E2Z8",
    "result": []
  },
  {
    "postal": "L6E7Y3",
    "result": []
  },
  {
    "postal": "L6E6Z5",
    "result": []
  },
  {
    "postal": "L6E6E0",
    "result": []
  },
  {
    "postal": "L6E9B7",
    "result": []
  },
  {
    "postal": "L6E9S5",
    "result": []
  },
  {
    "postal": "L6E3X3",
    "result": []
  },
  {
    "postal": "L6E7R5",
    "result": []
  },
  {
    "postal": "L6E2X3",
    "result": []
  },
  {
    "postal": "L6E8Z9",
    "result": []
  },
  {
    "postal": "L6E0N4",
    "result": [
      {
        "electoralDistricts": [
          {
            "election": null,
            "id": 58,
            "name": "Markham—Unionville"
          }
        ],
        "pollDivisionIds": [
          10139669
        ],
        "postalCode": "L6E0N4",
        "streetName": "CASTLEMORE",
        "streetDirectionId": null,
        "streetTypeId": "AVE",
        "placeName": "MARKHAM",
        "streetNameDisplayText": "CASTLEMORE AVE, MARKHAM"
      },
      {
        "electoralDistricts": [
          {
            "election": null,
            "id": 58,
            "name": "Markham—Unionville"
          }
        ],
        "pollDivisionIds": [
          10139669
        ],
        "postalCode": "L6E0N4",
        "streetName": "FURROW",
        "streetDirectionId": null,
        "streetTypeId": "ST",
        "placeName": "MARKHAM",
        "streetNameDisplayText": "FURROW ST, MARKHAM"
      }
    ]
  },
  {
    "postal": "L6E1K1",
    "result": [
      {
        "electoralDistricts": [
          {
            "election": null,
            "id": 56,
            "name": "Markham—Stouffville"
          }
        ],
        "pollDivisionIds": [
          10134347
        ],
        "postalCode": "L6E1K1",
        "streetName": "OUTLOOK TERRACE",
        "streetDirectionId": null,
        "streetTypeId": "DR",
        "placeName": "MARKHAM",
        "streetNameDisplayText": "OUTLOOK TERRACE DR, MARKHAM"
      },
      {
        "electoralDistricts": [
          {
            "election": null,
            "id": 56,
            "name": "Markham—Stouffville"
          }
        ],
        "pollDivisionIds": [
          10134347
        ],
        "postalCode": "L6E1K1",
        "streetName": "TRELAWNY",
        "streetDirectionId": null,
        "streetTypeId": "RD",
        "placeName": "MARKHAM",
        "streetNameDisplayText": "TRELAWNY RD, MARKHAM"
      },
      {
        "electoralDistricts": [
          {
            "election": null,
            "id": 56,
            "name": "Markham—Stouffville"
          }
        ],
        "pollDivisionIds": [
          10134347
        ],
        "postalCode": "L6E1K1",
        "streetName": "VICTORIA WOOD",
        "streetDirectionId": null,
        "streetTypeId": "AVE",
        "placeName": "MARKHAM",
        "streetNameDisplayText": "VICTORIA WOOD AVE, MARKHAM"
      }
    ]
  },
  {
    "postal": "L6E1S3",
    "result": [
      {
        "electoralDistricts": [
          {
            "election": null,
            "id": 56,
            "name": "Markham—Stouffville"
          }
        ],
        "pollDivisionIds": [
          10134348
        ],
        "postalCode": "L6E1S3",
        "streetName": "CORNERSTONE",
        "streetDirectionId": null,
        "streetTypeId": "RD",
        "placeName": "MARKHAM",
        "streetNameDisplayText": "CORNERSTONE RD, MARKHAM"
      },
      {
        "electoralDistricts": [
          {
            "election": null,
            "id": 56,
            "name": "Markham—Stouffville"
          }
        ],
        "pollDivisionIds": [
          10134348
        ],
        "postalCode": "L6E1S3",
        "streetName": "PARK PLACE",
        "streetDirectionId": null,
        "streetTypeId": "DR",
        "placeName": "MARKHAM",
        "streetNameDisplayText": "PARK PLACE DR, MARKHAM"
      },
      {
        "electoralDistricts": [
          {
            "election": null,
            "id": 56,
            "name": "Markham—Stouffville"
          }
        ],
        "pollDivisionIds": [
          10134348
        ],
        "postalCode": "L6E1S3",
        "streetName": "ROYAL CROWN",
        "streetDirectionId": null,
        "streetTypeId": "RD",
        "placeName": "MARKHAM",
        "streetNameDisplayText": "ROYAL CROWN RD, MARKHAM"
      }
    ]
  },
  {
    "postal": "L6E6M4",
    "result": []
  },
  {
    "postal": "L6E9A9",
    "result": []
  },
  {
    "postal": "L6E9Z9",
    "result": []
  },
  {
    "postal": "L6E6T4",
    "result": []
  },
  {
    "postal": "L6E0B2",
    "result": [
      {
        "electoralDistricts": [
          {
            "election": null,
            "id": 56,
            "name": "Markham—Stouffville"
          }
        ],
        "pollDivisionIds": [
          10134346
        ],
        "postalCode": "L6E0B2",
        "streetName": "NEELEY",
        "streetDirectionId": null,
        "streetTypeId": "RD",
        "placeName": "MARKHAM",
        "streetNameDisplayText": "NEELEY RD, MARKHAM"
      },
      {
        "electoralDistricts": [
          {
            "election": null,
            "id": 56,
            "name": "Markham—Stouffville"
          }
        ],
        "pollDivisionIds": [
          10134346
        ],
        "postalCode": "L6E0B2",
        "streetName": "PAMGREY",
        "streetDirectionId": null,
        "streetTypeId": "RD",
        "placeName": "MARKHAM",
        "streetNameDisplayText": "PAMGREY RD, MARKHAM"
      }
    ]
  },
  {
    "postal": "L6E2L9",
    "result": []
  },
  {
    "postal": "L6E8K9",
    "result": []
  },
  {
    "postal": "L6E2H9",
    "result": []
  },
  {
    "postal": "L6E3Z6",
    "result": []
  },
  {
    "postal": "L6E3B0",
    "result": []
  },
  {
    "postal": "L6E2H8",
    "result": [
      {
        "electoralDistricts": [
          {
            "election": null,
            "id": 58,
            "name": "Markham—Unionville"
          }
        ],
        "pollDivisionIds": [
          10139669
        ],
        "postalCode": "L6E2H8",
        "streetName": "FLORELLE",
        "streetDirectionId": null,
        "streetTypeId": "DR",
        "placeName": "MARKHAM",
        "streetNameDisplayText": "FLORELLE DR, MARKHAM"
      }
    ]
  },
  {
    "postal": "L6E3X2",
    "result": []
  },
  {
    "postal": "L6E2E9",
    "result": [
      {
        "electoralDistricts": [
          {
            "election": null,
            "id": 56,
            "name": "Markham—Stouffville"
          }
        ],
        "pollDivisionIds": [
          10134346
        ],
        "postalCode": "L6E2E9",
        "streetName": "ALFRED PATERSON",
        "streetDirectionId": null,
        "streetTypeId": "DR",
        "placeName": "MARKHAM",
        "streetNameDisplayText": "ALFRED PATERSON DR, MARKHAM"
      },
      {
        "electoralDistricts": [
          {
            "election": null,
            "id": 56,
            "name": "Markham—Stouffville"
          }
        ],
        "pollDivisionIds": [
          10134346
        ],
        "postalCode": "L6E2E9",
        "streetName": "AMOS",
        "streetDirectionId": null,
        "streetTypeId": "CRT",
        "placeName": "MARKHAM",
        "streetNameDisplayText": "AMOS CRT, MARKHAM"
      },
      {
        "electoralDistricts": [
          {
            "election": null,
            "id": 56,
            "name": "Markham—Stouffville"
          }
        ],
        "pollDivisionIds": [
          10134346
        ],
        "postalCode": "L6E2E9",
        "streetName": "CHESWICK",
        "streetDirectionId": null,
        "streetTypeId": "CRT",
        "placeName": "MARKHAM",
        "streetNameDisplayText": "CHESWICK CRT, MARKHAM"
      }
    ]
  },
  {
    "postal": "L6E9P6",
    "result": []
  },
  {
    "postal": "L6E9E2",
    "result": []
  },
  {
    "postal": "L6E9H2",
    "result": []
  },
  {
    "postal": "L6E1S8",
    "result": [
      {
        "electoralDistricts": [
          {
            "election": null,
            "id": 56,
            "name": "Markham—Stouffville"
          }
        ],
        "pollDivisionIds": [
          10134347
        ],
        "postalCode": "L6E1S8",
        "streetName": "GREEN HOLLOW",
        "streetDirectionId": null,
        "streetTypeId": "CRT",
        "placeName": "MARKHAM",
        "streetNameDisplayText": "GREEN HOLLOW CRT, MARKHAM"
      }
    ]
  },
  {
    "postal": "L6E3M6",
    "result": []
  },
  {
    "postal": "L6E6Z8",
    "result": []
  },
  {
    "postal": "L6E4J2",
    "result": []
  },
  {
    "postal": "L6E9Y1",
    "result": []
  },
  {
    "postal": "L6E8V6",
    "result": []
  },
  {
    "postal": "L6E6B2",
    "result": []
  },
  {
    "postal": "L6E1P8",
    "result": [
      {
        "electoralDistricts": [
          {
            "election": null,
            "id": 58,
            "name": "Markham—Unionville"
          }
        ],
        "pollDivisionIds": [
          10139668
        ],
        "postalCode": "L6E1P8",
        "streetName": "BUR OAK",
        "streetDirectionId": null,
        "streetTypeId": "AVE",
        "placeName": "MARKHAM",
        "streetNameDisplayText": "BUR OAK AVE, MARKHAM"
      },
      {
        "electoralDistricts": [
          {
            "election": null,
            "id": 58,
            "name": "Markham—Unionville"
          },
          {
            "election": null,
            "id": 56,
            "name": "Markham—Stouffville"
          }
        ],
        "pollDivisionIds": [
          10139668,
          10134337
        ],
        "postalCode": "L6E1P8",
        "streetName": "ROY RAINEY",
        "streetDirectionId": null,
        "streetTypeId": "AVE",
        "placeName": "MARKHAM",
        "streetNameDisplayText": "ROY RAINEY AVE, MARKHAM"
      }
    ]
  },
  {
    "postal": "L6E0V8",
    "result": []
  },
  {
    "postal": "L6E4Y0",
    "result": []
  },
  {
    "postal": "L6E2T4",
    "result": []
  },
  {
    "postal": "L6E2S3",
    "result": []
  },
  {
    "postal": "L6E0K0",
    "result": []
  },
  {
    "postal": "L6E5N1",
    "result": []
  },
  {
    "postal": "L6E7T0",
    "result": []
  },
  {
    "postal": "L6E9N2",
    "result": []
  },
  {
    "postal": "L6E5L1",
    "result": []
  },
  {
    "postal": "L6E7G5",
    "result": []
  },
  {
    "postal": "L6E6K2",
    "result": []
  },
  {
    "postal": "L6E6P9",
    "result": []
  },
  {
    "postal": "L6E0E6",
    "result": []
  },
  {
    "postal": "L6E8R9",
    "result": []
  },
  {
    "postal": "L6E3G9",
    "result": []
  },
  {
    "postal": "L6E0V7",
    "result": []
  },
  {
    "postal": "L6E2Z1",
    "result": []
  },
  {
    "postal": "L6E7N1",
    "result": []
  },
  {
    "postal": "L6E3C6",
    "result": []
  },
  {
    "postal": "L6E4M1",
    "result": []
  },
  {
    "postal": "L6E9K2",
    "result": []
  },
  {
    "postal": "L6E9S6",
    "result": []
  },
  {
    "postal": "L6E4X1",
    "result": []
  },
  {
    "postal": "L6E8W2",
    "result": []
  },
  {
    "postal": "L6E7N2",
    "result": []
  },
  {
    "postal": "L6E8S3",
    "result": []
  },
  {
    "postal": "L6E4V0",
    "result": []
  },
  {
    "postal": "L6E6W4",
    "result": []
  },
  {
    "postal": "L6E5M1",
    "result": []
  },
  {
    "postal": "L6E0S4",
    "result": [
      {
        "electoralDistricts": [
          {
            "election": null,
            "id": 58,
            "name": "Markham—Unionville"
          }
        ],
        "pollDivisionIds": [
          10139669
        ],
        "postalCode": "L6E0S4",
        "streetName": "FRED MCLAREN",
        "streetDirectionId": null,
        "streetTypeId": "BLVD",
        "placeName": "MARKHAM",
        "streetNameDisplayText": "FRED MCLAREN BLVD, MARKHAM"
      },
      {
        "electoralDistricts": [
          {
            "election": null,
            "id": 58,
            "name": "Markham—Unionville"
          }
        ],
        "pollDivisionIds": [
          10139669
        ],
        "postalCode": "L6E0S4",
        "streetName": "GREENSPIRE",
        "streetDirectionId": null,
        "streetTypeId": "AVE",
        "placeName": "MARKHAM",
        "streetNameDisplayText": "GREENSPIRE AVE, MARKHAM"
      },
      {
        "electoralDistricts": [
          {
            "election": null,
            "id": 58,
            "name": "Markham—Unionville"
          }
        ],
        "pollDivisionIds": [
          10139669
        ],
        "postalCode": "L6E0S4",
        "streetName": "HERMITAGE",
        "streetDirectionId": null,
        "streetTypeId": "BLVD",
        "placeName": "MARKHAM",
        "streetNameDisplayText": "HERMITAGE BLVD, MARKHAM"
      }
    ]
  },
  {
    "postal": "L6E5X6",
    "result": []
  },
  {
    "postal": "L6E8L5",
    "result": []
  },
  {
    "postal": "L6E5M8",
    "result": []
  },
  {
    "postal": "L6E2G3",
    "result": [
      {
        "electoralDistricts": [
          {
            "election": null,
            "id": 56,
            "name": "Markham—Stouffville"
          }
        ],
        "pollDivisionIds": [
          10134346
        ],
        "postalCode": "L6E2G3",
        "streetName": "APPLEVIEW",
        "streetDirectionId": null,
        "streetTypeId": "RD",
        "placeName": "MARKHAM",
        "streetNameDisplayText": "APPLEVIEW RD, MARKHAM"
      }
    ]
  },
  {
    "postal": "L6E8E4",
    "result": []
  },
  {
    "postal": "L6E7S9",
    "result": []
  },
  {
    "postal": "L6E1K3",
    "result": [
      {
        "electoralDistricts": [
          {
            "election": null,
            "id": 56,
            "name": "Markham—Stouffville"
          }
        ],
        "pollDivisionIds": [
          10134347
        ],
        "postalCode": "L6E1K3",
        "streetName": "VICTORIA WOOD",
        "streetDirectionId": null,
        "streetTypeId": "AVE",
        "placeName": "MARKHAM",
        "streetNameDisplayText": "VICTORIA WOOD AVE, MARKHAM"
      }
    ]
  },
  {
    "postal": "L6E4E1",
    "result": []
  },
  {
    "postal": "L6E4R2",
    "result": []
  },
  {
    "postal": "L6E6T0",
    "result": []
  },
  {
    "postal": "L6E3K5",
    "result": []
  },
  {
    "postal": "L6E3S3",
    "result": []
  },
  {
    "postal": "L6E3L4",
    "result": []
  },
  {
    "postal": "L6E9Y2",
    "result": []
  },
  {
    "postal": "L6E1E0",
    "result": []
  },
  {
    "postal": "L6E9A4",
    "result": []
  },
  {
    "postal": "L6E1L3",
    "result": [
      {
        "electoralDistricts": [
          {
            "election": null,
            "id": 56,
            "name": "Markham—Stouffville"
          }
        ],
        "pollDivisionIds": [
          10134347
        ],
        "postalCode": "L6E1L3",
        "streetName": "CLOVER",
        "streetDirectionId": null,
        "streetTypeId": "ST",
        "placeName": "MARKHAM",
        "streetNameDisplayText": "CLOVER ST, MARKHAM"
      },
      {
        "electoralDistricts": [
          {
            "election": null,
            "id": 56,
            "name": "Markham—Stouffville"
          }
        ],
        "pollDivisionIds": [
          10134347,
          10134346
        ],
        "postalCode": "L6E1L3",
        "streetName": "ORCHARD VIEW",
        "streetDirectionId": null,
        "streetTypeId": "RD",
        "placeName": "MARKHAM",
        "streetNameDisplayText": "ORCHARD VIEW RD, MARKHAM"
      },
      {
        "electoralDistricts": [
          {
            "election": null,
            "id": 56,
            "name": "Markham—Stouffville"
          }
        ],
        "pollDivisionIds": [
          10134347,
          10134346
        ],
        "postalCode": "L6E1L3",
        "streetName": "SAFFRON",
        "streetDirectionId": null,
        "streetTypeId": "ST",
        "placeName": "MARKHAM",
        "streetNameDisplayText": "SAFFRON ST, MARKHAM"
      }
    ]
  },
  {
    "postal": "L6E6N1",
    "result": []
  },
  {
    "postal": "L6E6G7",
    "result": []
  },
  {
    "postal": "L6E7W1",
    "result": []
  },
  {
    "postal": "L6E4M6",
    "result": []
  },
  {
    "postal": "L6E1K0",
    "result": []
  },
  {
    "postal": "L6E3E2",
    "result": []
  },
  {
    "postal": "L6E5H4",
    "result": []
  },
  {
    "postal": "L6E1K7",
    "result": [
      {
        "electoralDistricts": [
          {
            "election": null,
            "id": 56,
            "name": "Markham—Stouffville"
          }
        ],
        "pollDivisionIds": [
          10134347
        ],
        "postalCode": "L6E1K7",
        "streetName": "BUR OAK",
        "streetDirectionId": null,
        "streetTypeId": "AVE",
        "placeName": "MARKHAM",
        "streetNameDisplayText": "BUR OAK AVE, MARKHAM"
      },
      {
        "electoralDistricts": [
          {
            "election": null,
            "id": 56,
            "name": "Markham—Stouffville"
          }
        ],
        "pollDivisionIds": [
          10134347
        ],
        "postalCode": "L6E1K7",
        "streetName": "GREEN HOLLOW",
        "streetDirectionId": null,
        "streetTypeId": "CRT",
        "placeName": "MARKHAM",
        "streetNameDisplayText": "GREEN HOLLOW CRT, MARKHAM"
      },
      {
        "electoralDistricts": [
          {
            "election": null,
            "id": 56,
            "name": "Markham—Stouffville"
          }
        ],
        "pollDivisionIds": [
          10134347
        ],
        "postalCode": "L6E1K7",
        "streetName": "MAYBREEZE",
        "streetDirectionId": null,
        "streetTypeId": "RD",
        "placeName": "MARKHAM",
        "streetNameDisplayText": "MAYBREEZE RD, MARKHAM"
      }
    ]
  },
  {
    "postal": "L6E0H0",
    "result": []
  },
  {
    "postal": "L6E0J3",
    "result": [
      {
        "electoralDistricts": [
          {
            "election": null,
            "id": 58,
            "name": "Markham—Unionville"
          }
        ],
        "pollDivisionIds": [
          10139672
        ],
        "postalCode": "L6E0J3",
        "streetName": "ALEXANDER LAWRIE",
        "streetDirectionId": null,
        "streetTypeId": "AVE",
        "placeName": "MARKHAM",
        "streetNameDisplayText": "ALEXANDER LAWRIE AVE, MARKHAM"
      },
      {
        "electoralDistricts": [
          {
            "election": null,
            "id": 58,
            "name": "Markham—Unionville"
          }
        ],
        "pollDivisionIds": [
          10139672
        ],
        "postalCode": "L6E0J3",
        "streetName": "CHOKECHERRY",
        "streetDirectionId": null,
        "streetTypeId": "CRES",
        "placeName": "MARKHAM",
        "streetNameDisplayText": "CHOKECHERRY CRES, MARKHAM"
      }
    ]
  },
  {
    "postal": "L6E1X6",
    "result": [
      {
        "electoralDistricts": [
          {
            "election": null,
            "id": 56,
            "name": "Markham—Stouffville"
          }
        ],
        "pollDivisionIds": [
          10134346
        ],
        "postalCode": "L6E1X6",
        "streetName": "BUR OAK",
        "streetDirectionId": null,
        "streetTypeId": "AVE",
        "placeName": "MARKHAM",
        "streetNameDisplayText": "BUR OAK AVE, MARKHAM"
      },
      {
        "electoralDistricts": [
          {
            "election": null,
            "id": 56,
            "name": "Markham—Stouffville"
          }
        ],
        "pollDivisionIds": [
          10134346
        ],
        "postalCode": "L6E1X6",
        "streetName": "NEELEY",
        "streetDirectionId": null,
        "streetTypeId": "RD",
        "placeName": "MARKHAM",
        "streetNameDisplayText": "NEELEY RD, MARKHAM"
      },
      {
        "electoralDistricts": [
          {
            "election": null,
            "id": 56,
            "name": "Markham—Stouffville"
          }
        ],
        "pollDivisionIds": [
          10134346
        ],
        "postalCode": "L6E1X6",
        "streetName": "STALMASTER",
        "streetDirectionId": null,
        "streetTypeId": "RD",
        "placeName": "MARKHAM",
        "streetNameDisplayText": "STALMASTER RD, MARKHAM"
      }
    ]
  },
  {
    "postal": "L6E2Z6",
    "result": []
  },
  {
    "postal": "L6E4R9",
    "result": []
  },
  {
    "postal": "L6E0W8",
    "result": []
  },
  {
    "postal": "L6E1L4",
    "result": [
      {
        "electoralDistricts": [
          {
            "election": null,
            "id": 56,
            "name": "Markham—Stouffville"
          }
        ],
        "pollDivisionIds": [
          10134347
        ],
        "postalCode": "L6E1L4",
        "streetName": "AMBERCROFT",
        "streetDirectionId": null,
        "streetTypeId": "ST",
        "placeName": "MARKHAM",
        "streetNameDisplayText": "AMBERCROFT ST, MARKHAM"
      },
      {
        "electoralDistricts": [
          {
            "election": null,
            "id": 56,
            "name": "Markham—Stouffville"
          }
        ],
        "pollDivisionIds": [
          10134347
        ],
        "postalCode": "L6E1L4",
        "streetName": "BUR OAK",
        "streetDirectionId": null,
        "streetTypeId": "AVE",
        "placeName": "MARKHAM",
        "streetNameDisplayText": "BUR OAK AVE, MARKHAM"
      }
    ]
  },
  {
    "postal": "L6E0C8",
    "result": [
      {
        "electoralDistricts": [
          {
            "election": null,
            "id": 58,
            "name": "Markham—Unionville"
          }
        ],
        "pollDivisionIds": [
          10139672
        ],
        "postalCode": "L6E0C8",
        "streetName": "TODMAN",
        "streetDirectionId": null,
        "streetTypeId": "LANE",
        "placeName": "MARKHAM",
        "streetNameDisplayText": "TODMAN LANE, MARKHAM"
      }
    ]
  },
  {
    "postal": "L6E9X7",
    "result": []
  },
  {
    "postal": "L6E4T1",
    "result": []
  },
  {
    "postal": "L6E0M0",
    "result": []
  },
  {
    "postal": "L6E6A2",
    "result": []
  },
  {
    "postal": "L6E9S8",
    "result": []
  },
  {
    "postal": "L6E9T4",
    "result": []
  },
  {
    "postal": "L6E9Y4",
    "result": []
  },
  {
    "postal": "L6E6G5",
    "result": []
  },
  {
    "postal": "L6E6H9",
    "result": []
  },
  {
    "postal": "L6E2P3",
    "result": []
  },
  {
    "postal": "L6E1T6",
    "result": [
      {
        "electoralDistricts": [
          {
            "election": null,
            "id": 58,
            "name": "Markham—Unionville"
          }
        ],
        "pollDivisionIds": [
          10139669
        ],
        "postalCode": "L6E1T6",
        "streetName": "KINDY",
        "streetDirectionId": null,
        "streetTypeId": "ST",
        "placeName": "MARKHAM",
        "streetNameDisplayText": "KINDY ST, MARKHAM"
      },
      {
        "electoralDistricts": [
          {
            "election": null,
            "id": 58,
            "name": "Markham—Unionville"
          }
        ],
        "pollDivisionIds": [
          10139669
        ],
        "postalCode": "L6E1T6",
        "streetName": "MINGAY",
        "streetDirectionId": null,
        "streetTypeId": "AVE",
        "placeName": "MARKHAM",
        "streetNameDisplayText": "MINGAY AVE, MARKHAM"
      }
    ]
  },
  {
    "postal": "L6E4P6",
    "result": []
  },
  {
    "postal": "L6E3K1",
    "result": []
  },
  {
    "postal": "L6E6X4",
    "result": []
  },
  {
    "postal": "L6E4M8",
    "result": []
  },
  {
    "postal": "L6E2Y1",
    "result": []
  },
  {
    "postal": "L6E6M1",
    "result": []
  },
  {
    "postal": "L6E5L8",
    "result": []
  },
  {
    "postal": "L6E3P6",
    "result": []
  },
  {
    "postal": "L6E9A5",
    "result": []
  },
  {
    "postal": "L6E7K1",
    "result": []
  },
  {
    "postal": "L6E3J4",
    "result": []
  },
  {
    "postal": "L6E5E7",
    "result": []
  },
  {
    "postal": "L6E3A7",
    "result": []
  },
  {
    "postal": "L6E1B9",
    "result": [
      {
        "electoralDistricts": [
          {
            "election": null,
            "id": 56,
            "name": "Markham—Stouffville"
          }
        ],
        "pollDivisionIds": [
          10134349
        ],
        "postalCode": "L6E1B9",
        "streetName": "THE BOARDWALK",
        "streetDirectionId": null,
        "streetTypeId": "WAY",
        "placeName": "MARKHAM",
        "streetNameDisplayText": "THE BOARDWALK WAY, MARKHAM"
      }
    ]
  },
  {
    "postal": "L6E9E8",
    "result": []
  },
  {
    "postal": "L6E1C9",
    "result": [
      {
        "electoralDistricts": [
          {
            "election": null,
            "id": 58,
            "name": "Markham—Unionville"
          }
        ],
        "pollDivisionIds": [
          10139672
        ],
        "postalCode": "L6E1C9",
        "streetName": "COUNTRY RIDGE",
        "streetDirectionId": null,
        "streetTypeId": "DR",
        "placeName": "MARKHAM",
        "streetNameDisplayText": "COUNTRY RIDGE DR, MARKHAM"
      },
      {
        "electoralDistricts": [
          {
            "election": null,
            "id": 58,
            "name": "Markham—Unionville"
          }
        ],
        "pollDivisionIds": [
          10139672
        ],
        "postalCode": "L6E1C9",
        "streetName": "DOGWOOD",
        "streetDirectionId": null,
        "streetTypeId": "ST",
        "placeName": "MARKHAM",
        "streetNameDisplayText": "DOGWOOD ST, MARKHAM"
      },
      {
        "electoralDistricts": [
          {
            "election": null,
            "id": 58,
            "name": "Markham—Unionville"
          }
        ],
        "pollDivisionIds": [
          10139672
        ],
        "postalCode": "L6E1C9",
        "streetName": "HOLLYHOCK",
        "streetDirectionId": null,
        "streetTypeId": "ST",
        "placeName": "MARKHAM",
        "streetNameDisplayText": "HOLLYHOCK ST, MARKHAM"
      },
      {
        "electoralDistricts": [
          {
            "election": null,
            "id": 58,
            "name": "Markham—Unionville"
          }
        ],
        "pollDivisionIds": [
          10139672
        ],
        "postalCode": "L6E1C9",
        "streetName": "SETTLERS' RIDGE",
        "streetDirectionId": null,
        "streetTypeId": "ST",
        "placeName": "MARKHAM",
        "streetNameDisplayText": "SETTLERS' RIDGE ST, MARKHAM"
      },
      {
        "electoralDistricts": [
          {
            "election": null,
            "id": 58,
            "name": "Markham—Unionville"
          }
        ],
        "pollDivisionIds": [
          10139672
        ],
        "postalCode": "L6E1C9",
        "streetName": "SETTLER'S RIDGE",
        "streetDirectionId": null,
        "streetTypeId": "ST",
        "placeName": "MARKHAM",
        "streetNameDisplayText": "SETTLER'S RIDGE ST, MARKHAM"
      }
    ]
  },
  {
    "postal": "L6E3B5",
    "result": []
  },
  {
    "postal": "L6E8R0",
    "result": []
  },
  {
    "postal": "L6E3P2",
    "result": []
  },
  {
    "postal": "L6E5V4",
    "result": []
  },
  {
    "postal": "L6E4H0",
    "result": []
  },
  {
    "postal": "L6E4S7",
    "result": []
  },
  {
    "postal": "L6E6C2",
    "result": []
  },
  {
    "postal": "L6E8W3",
    "result": []
  },
  {
    "postal": "L6E4M5",
    "result": []
  },
  {
    "postal": "L6E5T1",
    "result": []
  },
  {
    "postal": "L6E3B3",
    "result": []
  },
  {
    "postal": "L6E6C6",
    "result": []
  },
  {
    "postal": "L6E7N8",
    "result": []
  },
  {
    "postal": "L6E2Y3",
    "result": []
  },
  {
    "postal": "L6E2R6",
    "result": []
  },
  {
    "postal": "L6E7N3",
    "result": []
  },
  {
    "postal": "L6E8J2",
    "result": []
  },
  {
    "postal": "L6E6A9",
    "result": []
  },
  {
    "postal": "L6E3V2",
    "result": []
  },
  {
    "postal": "L6E2N3",
    "result": []
  },
  {
    "postal": "L6E1S5",
    "result": [
      {
        "electoralDistricts": [
          {
            "election": null,
            "id": 56,
            "name": "Markham—Stouffville"
          }
        ],
        "pollDivisionIds": [
          10134348
        ],
        "postalCode": "L6E1S5",
        "streetName": "BLOOMSBURY",
        "streetDirectionId": null,
        "streetTypeId": "RD",
        "placeName": "MARKHAM",
        "streetNameDisplayText": "BLOOMSBURY RD, MARKHAM"
      },
      {
        "electoralDistricts": [
          {
            "election": null,
            "id": 56,
            "name": "Markham—Stouffville"
          }
        ],
        "pollDivisionIds": [
          10134348
        ],
        "postalCode": "L6E1S5",
        "streetName": "NORTHSIDE",
        "streetDirectionId": null,
        "streetTypeId": "RD",
        "placeName": "MARKHAM",
        "streetNameDisplayText": "NORTHSIDE RD, MARKHAM"
      },
      {
        "electoralDistricts": [
          {
            "election": null,
            "id": 56,
            "name": "Markham—Stouffville"
          }
        ],
        "pollDivisionIds": [
          10134348
        ],
        "postalCode": "L6E1S5",
        "streetName": "ROYAL CROWN",
        "streetDirectionId": null,
        "streetTypeId": "RD",
        "placeName": "MARKHAM",
        "streetNameDisplayText": "ROYAL CROWN RD, MARKHAM"
      }
    ]
  },
  {
    "postal": "L6E4T7",
    "result": []
  },
  {
    "postal": "L6E6Y7",
    "result": []
  },
  {
    "postal": "L6E0W7",
    "result": []
  },
  {
    "postal": "L6E2W9",
    "result": []
  },
  {
    "postal": "L6E8V0",
    "result": []
  },
  {
    "postal": "L6E0H4",
    "result": [
      {
        "electoralDistricts": [
          {
            "election": null,
            "id": 56,
            "name": "Markham—Stouffville"
          }
        ],
        "pollDivisionIds": [
          10134346
        ],
        "postalCode": "L6E0H4",
        "streetName": "CORNFLOWER",
        "streetDirectionId": null,
        "streetTypeId": "ST",
        "placeName": "MARKHAM",
        "streetNameDisplayText": "CORNFLOWER ST, MARKHAM"
      },
      {
        "electoralDistricts": [
          {
            "election": null,
            "id": 56,
            "name": "Markham—Stouffville"
          }
        ],
        "pollDivisionIds": [
          10134346
        ],
        "postalCode": "L6E0H4",
        "streetName": "DARREN HILL",
        "streetDirectionId": null,
        "streetTypeId": "TRAIL",
        "placeName": "MARKHAM",
        "streetNameDisplayText": "DARREN HILL TRAIL, MARKHAM"
      },
      {
        "electoralDistricts": [
          {
            "election": null,
            "id": 56,
            "name": "Markham—Stouffville"
          }
        ],
        "pollDivisionIds": [
          10134346
        ],
        "postalCode": "L6E0H4",
        "streetName": "WILLIAMSON",
        "streetDirectionId": null,
        "streetTypeId": "RD",
        "placeName": "MARKHAM",
        "streetNameDisplayText": "WILLIAMSON RD, MARKHAM"
      }
    ]
  },
  {
    "postal": "L6E2T1",
    "result": []
  },
  {
    "postal": "L6E1B1",
    "result": [
      {
        "electoralDistricts": [
          {
            "election": null,
            "id": 56,
            "name": "Markham—Stouffville"
          }
        ],
        "pollDivisionIds": [
          10134348
        ],
        "postalCode": "L6E1B1",
        "streetName": "48",
        "streetDirectionId": null,
        "streetTypeId": "HWY",
        "placeName": "MARKHAM",
        "streetNameDisplayText": "48 HWY, MARKHAM"
      }
    ]
  },
  {
    "postal": "L6E8B6",
    "result": []
  },
  {
    "postal": "L6E6H1",
    "result": []
  },
  {
    "postal": "L6E8T8",
    "result": []
  },
  {
    "postal": "L6E0T4",
    "result": [
      {
        "electoralDistricts": [
          {
            "election": null,
            "id": 56,
            "name": "Markham—Stouffville"
          },
          {
            "election": null,
            "id": 58,
            "name": "Markham—Unionville"
          }
        ],
        "pollDivisionIds": [
          10134353,
          10139673
        ],
        "postalCode": "L6E0T4",
        "streetName": "MARKHAM",
        "streetDirectionId": null,
        "streetTypeId": "RD",
        "placeName": "MARKHAM",
        "streetNameDisplayText": "MARKHAM RD, MARKHAM"
      }
    ]
  },
  {
    "postal": "L6E2C4",
    "result": [
      {
        "electoralDistricts": [
          {
            "election": null,
            "id": 58,
            "name": "Markham—Unionville"
          }
        ],
        "pollDivisionIds": [
          10139669
        ],
        "postalCode": "L6E2C4",
        "streetName": "EVERSHOT",
        "streetDirectionId": null,
        "streetTypeId": "CRES",
        "placeName": "MARKHAM",
        "streetNameDisplayText": "EVERSHOT CRES, MARKHAM"
      },
      {
        "electoralDistricts": [
          {
            "election": null,
            "id": 58,
            "name": "Markham—Unionville"
          }
        ],
        "pollDivisionIds": [
          10139669
        ],
        "postalCode": "L6E2C4",
        "streetName": "HAMMERSLY",
        "streetDirectionId": null,
        "streetTypeId": "BLVD",
        "placeName": "MARKHAM",
        "streetNameDisplayText": "HAMMERSLY BLVD, MARKHAM"
      },
      {
        "electoralDistricts": [
          {
            "election": null,
            "id": 58,
            "name": "Markham—Unionville"
          }
        ],
        "pollDivisionIds": [
          10139669
        ],
        "postalCode": "L6E2C4",
        "streetName": "RALPH CHALMERS",
        "streetDirectionId": null,
        "streetTypeId": "AVE",
        "placeName": "MARKHAM",
        "streetNameDisplayText": "RALPH CHALMERS AVE, MARKHAM"
      }
    ]
  },
  {
    "postal": "L6E8N3",
    "result": []
  },
  {
    "postal": "L6E4L8",
    "result": []
  },
  {
    "postal": "L6E2B5",
    "result": [
      {
        "electoralDistricts": [
          {
            "election": null,
            "id": 58,
            "name": "Markham—Unionville"
          }
        ],
        "pollDivisionIds": [
          10139672
        ],
        "postalCode": "L6E2B5",
        "streetName": "ROY RAINEY",
        "streetDirectionId": null,
        "streetTypeId": "AVE",
        "placeName": "MARKHAM",
        "streetNameDisplayText": "ROY RAINEY AVE, MARKHAM"
      },
      {
        "electoralDistricts": [
          {
            "election": null,
            "id": 58,
            "name": "Markham—Unionville"
          }
        ],
        "pollDivisionIds": [
          10139672
        ],
        "postalCode": "L6E2B5",
        "streetName": "TIDEWATER",
        "streetDirectionId": null,
        "streetTypeId": "ST",
        "placeName": "MARKHAM",
        "streetNameDisplayText": "TIDEWATER ST, MARKHAM"
      }
    ]
  },
  {
    "postal": "L6E3H1",
    "result": []
  },
  {
    "postal": "L6E4Y1",
    "result": []
  },
  {
    "postal": "L6E7E2",
    "result": []
  },
  {
    "postal": "L6E2P5",
    "result": []
  },
  {
    "postal": "L6E8R7",
    "result": []
  },
  {
    "postal": "L6E9P1",
    "result": []
  },
  {
    "postal": "L6E3B8",
    "result": []
  },
  {
    "postal": "L6E3P7",
    "result": []
  },
  {
    "postal": "L6E9B2",
    "result": []
  },
  {
    "postal": "L6E6Z3",
    "result": []
  },
  {
    "postal": "L6E4N5",
    "result": []
  },
  {
    "postal": "L6E8T3",
    "result": []
  },
  {
    "postal": "L6E1V2",
    "result": [
      {
        "electoralDistricts": [
          {
            "election": null,
            "id": 56,
            "name": "Markham—Stouffville"
          }
        ],
        "pollDivisionIds": [
          10134348
        ],
        "postalCode": "L6E1V2",
        "streetName": "MAPLE RIDGE",
        "streetDirectionId": null,
        "streetTypeId": "CRES",
        "placeName": "MARKHAM",
        "streetNameDisplayText": "MAPLE RIDGE CRES, MARKHAM"
      },
      {
        "electoralDistricts": [
          {
            "election": null,
            "id": 56,
            "name": "Markham—Stouffville"
          }
        ],
        "pollDivisionIds": [
          10134348
        ],
        "postalCode": "L6E1V2",
        "streetName": "WILLOW TRAIL",
        "streetDirectionId": null,
        "streetTypeId": "RD",
        "placeName": "MARKHAM",
        "streetNameDisplayText": "WILLOW TRAIL RD, MARKHAM"
      }
    ]
  },
  {
    "postal": "L6E1Y0",
    "result": []
  },
  {
    "postal": "L6E3G6",
    "result": []
  },
  {
    "postal": "L6E3H7",
    "result": []
  },
  {
    "postal": "L6E7X8",
    "result": []
  },
  {
    "postal": "L6E0C7",
    "result": [
      {
        "electoralDistricts": [
          {
            "election": null,
            "id": 56,
            "name": "Markham—Stouffville"
          }
        ],
        "pollDivisionIds": [
          10134347
        ],
        "postalCode": "L6E0C7",
        "streetName": "GREENSBOROUGH VILLAGE",
        "streetDirectionId": null,
        "streetTypeId": "CIR",
        "placeName": "MARKHAM",
        "streetNameDisplayText": "GREENSBOROUGH VILLAGE CIR, MARKHAM"
      }
    ]
  },
  {
    "postal": "L6E0W9",
    "result": []
  },
  {
    "postal": "L6E8E6",
    "result": []
  },
  {
    "postal": "L6E9Z8",
    "result": []
  },
  {
    "postal": "L6E3P4",
    "result": []
  },
  {
    "postal": "L6E6L8",
    "result": []
  },
  {
    "postal": "L6E2R4",
    "result": []
  },
  {
    "postal": "L6E2W1",
    "result": []
  },
  {
    "postal": "L6E9H8",
    "result": []
  },
  {
    "postal": "L6E8X9",
    "result": []
  },
  {
    "postal": "L6E7H4",
    "result": []
  },
  {
    "postal": "L6E3J1",
    "result": []
  },
  {
    "postal": "L6E1P4",
    "result": [
      {
        "electoralDistricts": [
          {
            "election": null,
            "id": 58,
            "name": "Markham—Unionville"
          }
        ],
        "pollDivisionIds": [
          10139668
        ],
        "postalCode": "L6E1P4",
        "streetName": "LAMPTON",
        "streetDirectionId": null,
        "streetTypeId": "CRES",
        "placeName": "MARKHAM",
        "streetNameDisplayText": "LAMPTON CRES, MARKHAM"
      },
      {
        "electoralDistricts": [
          {
            "election": null,
            "id": 58,
            "name": "Markham—Unionville"
          }
        ],
        "pollDivisionIds": [
          10139668
        ],
        "postalCode": "L6E1P4",
        "streetName": "OMEGA",
        "streetDirectionId": null,
        "streetTypeId": "ST",
        "placeName": "MARKHAM",
        "streetNameDisplayText": "OMEGA ST, MARKHAM"
      },
      {
        "electoralDistricts": [
          {
            "election": null,
            "id": 58,
            "name": "Markham—Unionville"
          }
        ],
        "pollDivisionIds": [
          10139668
        ],
        "postalCode": "L6E1P4",
        "streetName": "VECCHIA",
        "streetDirectionId": null,
        "streetTypeId": "ST",
        "placeName": "MARKHAM",
        "streetNameDisplayText": "VECCHIA ST, MARKHAM"
      }
    ]
  },
  {
    "postal": "L6E2A3",
    "result": [
      {
        "electoralDistricts": [
          {
            "election": null,
            "id": 58,
            "name": "Markham—Unionville"
          }
        ],
        "pollDivisionIds": [
          10139673
        ],
        "postalCode": "L6E2A3",
        "streetName": "EDWARD JEFFREYS",
        "streetDirectionId": null,
        "streetTypeId": "AVE",
        "placeName": "MARKHAM",
        "streetNameDisplayText": "EDWARD JEFFREYS AVE, MARKHAM"
      },
      {
        "electoralDistricts": [
          {
            "election": null,
            "id": 58,
            "name": "Markham—Unionville"
          }
        ],
        "pollDivisionIds": [
          10139673
        ],
        "postalCode": "L6E2A3",
        "streetName": "EVERETT",
        "streetDirectionId": null,
        "streetTypeId": "ST",
        "placeName": "MARKHAM",
        "streetNameDisplayText": "EVERETT ST, MARKHAM"
      },
      {
        "electoralDistricts": [
          {
            "election": null,
            "id": 58,
            "name": "Markham—Unionville"
          }
        ],
        "pollDivisionIds": [
          10139673
        ],
        "postalCode": "L6E2A3",
        "streetName": "FRED MCLAREN",
        "streetDirectionId": null,
        "streetTypeId": "BLVD",
        "placeName": "MARKHAM",
        "streetNameDisplayText": "FRED MCLAREN BLVD, MARKHAM"
      },
      {
        "electoralDistricts": [
          {
            "election": null,
            "id": 58,
            "name": "Markham—Unionville"
          }
        ],
        "pollDivisionIds": [
          10139673
        ],
        "postalCode": "L6E2A3",
        "streetName": "HAWKSBURY",
        "streetDirectionId": null,
        "streetTypeId": "RD",
        "placeName": "MARKHAM",
        "streetNameDisplayText": "HAWKSBURY RD, MARKHAM"
      }
    ]
  },
  {
    "postal": "L6E0Z1",
    "result": []
  },
  {
    "postal": "L6E1C1",
    "result": []
  },
  {
    "postal": "L6E0H3",
    "result": [
      {
        "electoralDistricts": [
          {
            "election": null,
            "id": 56,
            "name": "Markham—Stouffville"
          }
        ],
        "pollDivisionIds": [
          10134346
        ],
        "postalCode": "L6E0H3",
        "streetName": "ARBOUR",
        "streetDirectionId": null,
        "streetTypeId": "DR",
        "placeName": "MARKHAM",
        "streetNameDisplayText": "ARBOUR DR, MARKHAM"
      },
      {
        "electoralDistricts": [
          {
            "election": null,
            "id": 56,
            "name": "Markham—Stouffville"
          }
        ],
        "pollDivisionIds": [
          10134346
        ],
        "postalCode": "L6E0H3",
        "streetName": "STONEY CREEK",
        "streetDirectionId": null,
        "streetTypeId": "DR",
        "placeName": "MARKHAM",
        "streetNameDisplayText": "STONEY CREEK DR, MARKHAM"
      }
    ]
  },
  {
    "postal": "L6E7B0",
    "result": []
  },
  {
    "postal": "L6E5K2",
    "result": []
  },
  {
    "postal": "L6E1E9",
    "result": [
      {
        "electoralDistricts": [
          {
            "election": null,
            "id": 58,
            "name": "Markham—Unionville"
          }
        ],
        "pollDivisionIds": [
          10139672
        ],
        "postalCode": "L6E1E9",
        "streetName": "FOREST MANOR",
        "streetDirectionId": null,
        "streetTypeId": "PL",
        "placeName": "MARKHAM",
        "streetNameDisplayText": "FOREST MANOR PL, MARKHAM"
      },
      {
        "electoralDistricts": [
          {
            "election": null,
            "id": 58,
            "name": "Markham—Unionville"
          }
        ],
        "pollDivisionIds": [
          10139672
        ],
        "postalCode": "L6E1E9",
        "streetName": "GOLDEN MEADOW",
        "streetDirectionId": null,
        "streetTypeId": "DR",
        "placeName": "MARKHAM",
        "streetNameDisplayText": "GOLDEN MEADOW DR, MARKHAM"
      },
      {
        "electoralDistricts": [
          {
            "election": null,
            "id": 58,
            "name": "Markham—Unionville"
          }
        ],
        "pollDivisionIds": [
          10139662
        ],
        "postalCode": "L6E1E9",
        "streetName": "MONK HOUSE",
        "streetDirectionId": null,
        "streetTypeId": "RD",
        "placeName": "MARKHAM",
        "streetNameDisplayText": "MONK HOUSE RD, MARKHAM"
      },
      {
        "electoralDistricts": [
          {
            "election": null,
            "id": 58,
            "name": "Markham—Unionville"
          }
        ],
        "pollDivisionIds": [
          10139672
        ],
        "postalCode": "L6E1E9",
        "streetName": "MONKHOUSE",
        "streetDirectionId": null,
        "streetTypeId": "RD",
        "placeName": "MARKHAM",
        "streetNameDisplayText": "MONKHOUSE RD, MARKHAM"
      },
      {
        "electoralDistricts": [
          {
            "election": null,
            "id": 58,
            "name": "Markham—Unionville"
          }
        ],
        "pollDivisionIds": [
          10139672
        ],
        "postalCode": "L6E1E9",
        "streetName": "TRANTER",
        "streetDirectionId": null,
        "streetTypeId": "PL",
        "placeName": "MARKHAM",
        "streetNameDisplayText": "TRANTER PL, MARKHAM"
      }
    ]
  },
  {
    "postal": "L6E9W7",
    "result": []
  },
  {
    "postal": "L6E5W6",
    "result": []
  },
  {
    "postal": "L6E6S6",
    "result": []
  },
  {
    "postal": "L6E2P8",
    "result": []
  },
  {
    "postal": "L6E4P8",
    "result": []
  },
  {
    "postal": "L6E0V9",
    "result": []
  },
  {
    "postal": "L6E5Y2",
    "result": []
  },
  {
    "postal": "L6E7Z7",
    "result": []
  },
  {
    "postal": "L6E6Y8",
    "result": []
  },
  {
    "postal": "L6E2G7",
    "result": [
      {
        "electoralDistricts": [
          {
            "election": null,
            "id": 58,
            "name": "Markham—Unionville"
          }
        ],
        "pollDivisionIds": [
          10139672
        ],
        "postalCode": "L6E2G7",
        "streetName": "TIDEWATER",
        "streetDirectionId": null,
        "streetTypeId": "ST",
        "placeName": "MARKHAM",
        "streetNameDisplayText": "TIDEWATER ST, MARKHAM"
      }
    ]
  },
  {
    "postal": "L6E8C1",
    "result": []
  },
  {
    "postal": "L6E5C5",
    "result": []
  },
  {
    "postal": "L6E2X8",
    "result": []
  },
  {
    "postal": "L6E1W5",
    "result": [
      {
        "electoralDistricts": [
          {
            "election": null,
            "id": 56,
            "name": "Markham—Stouffville"
          }
        ],
        "pollDivisionIds": [
          10134348
        ],
        "postalCode": "L6E1W5",
        "streetName": "BUR OAK",
        "streetDirectionId": null,
        "streetTypeId": "AVE",
        "placeName": "MARKHAM",
        "streetNameDisplayText": "BUR OAK AVE, MARKHAM"
      },
      {
        "electoralDistricts": [
          {
            "election": null,
            "id": 56,
            "name": "Markham—Stouffville"
          }
        ],
        "pollDivisionIds": [
          10134348
        ],
        "postalCode": "L6E1W5",
        "streetName": "RACHETT",
        "streetDirectionId": null,
        "streetTypeId": "RD",
        "placeName": "MARKHAM",
        "streetNameDisplayText": "RACHETT RD, MARKHAM"
      }
    ]
  },
  {
    "postal": "L6E7G0",
    "result": []
  },
  {
    "postal": "L6E8J8",
    "result": []
  },
  {
    "postal": "L6E3Y0",
    "result": []
  },
  {
    "postal": "L6E9T7",
    "result": []
  },
  {
    "postal": "L6E5P4",
    "result": []
  },
  {
    "postal": "L6E4B0",
    "result": []
  },
  {
    "postal": "L6E9N8",
    "result": []
  },
  {
    "postal": "L6E4A7",
    "result": []
  },
  {
    "postal": "L6E4H9",
    "result": []
  },
  {
    "postal": "L6E6X1",
    "result": []
  },
  {
    "postal": "L6E9Y7",
    "result": []
  },
  {
    "postal": "L6E2Y5",
    "result": []
  },
  {
    "postal": "L6E8L7",
    "result": []
  },
  {
    "postal": "L6E2A8",
    "result": [
      {
        "electoralDistricts": [
          {
            "election": null,
            "id": 56,
            "name": "Markham—Stouffville"
          }
        ],
        "pollDivisionIds": [
          10134346
        ],
        "postalCode": "L6E2A8",
        "streetName": "ANJAC",
        "streetDirectionId": null,
        "streetTypeId": "CRES",
        "placeName": "MARKHAM",
        "streetNameDisplayText": "ANJAC CRES, MARKHAM"
      },
      {
        "electoralDistricts": [
          {
            "election": null,
            "id": 56,
            "name": "Markham—Stouffville"
          }
        ],
        "pollDivisionIds": [
          10134346
        ],
        "postalCode": "L6E2A8",
        "streetName": "JENMAT",
        "streetDirectionId": null,
        "streetTypeId": "DR",
        "placeName": "MARKHAM",
        "streetNameDisplayText": "JENMAT DR, MARKHAM"
      }
    ]
  },
  {
    "postal": "L6E2K9",
    "result": []
  },
  {
    "postal": "L6E3E5",
    "result": []
  },
  {
    "postal": "L6E8N6",
    "result": []
  },
  {
    "postal": "L6E8J4",
    "result": []
  },
  {
    "postal": "L6E4R7",
    "result": []
  },
  {
    "postal": "L6E9K1",
    "result": []
  },
  {
    "postal": "L6E8E1",
    "result": []
  },
  {
    "postal": "L6E0R1",
    "result": [
      {
        "electoralDistricts": [
          {
            "election": null,
            "id": 56,
            "name": "Markham—Stouffville"
          }
        ],
        "pollDivisionIds": [
          10134346
        ],
        "postalCode": "L6E0R1",
        "streetName": "DELRAY",
        "streetDirectionId": null,
        "streetTypeId": "DR",
        "placeName": "MARKHAM",
        "streetNameDisplayText": "DELRAY DR, MARKHAM"
      },
      {
        "electoralDistricts": [
          {
            "election": null,
            "id": 56,
            "name": "Markham—Stouffville"
          }
        ],
        "pollDivisionIds": [
          10134346
        ],
        "postalCode": "L6E0R1",
        "streetName": "FIMCO",
        "streetDirectionId": null,
        "streetTypeId": "CRES",
        "placeName": "MARKHAM",
        "streetNameDisplayText": "FIMCO CRES, MARKHAM"
      },
      {
        "electoralDistricts": [
          {
            "election": null,
            "id": 56,
            "name": "Markham—Stouffville"
          }
        ],
        "pollDivisionIds": [
          10134346
        ],
        "postalCode": "L6E0R1",
        "streetName": "GADANI",
        "streetDirectionId": null,
        "streetTypeId": "DR",
        "placeName": "MARKHAM",
        "streetNameDisplayText": "GADANI DR, MARKHAM"
      }
    ]
  },
  {
    "postal": "L6E4J3",
    "result": []
  },
  {
    "postal": "L6E7E7",
    "result": []
  },
  {
    "postal": "L6E0J0",
    "result": []
  },
  {
    "postal": "L6E7R8",
    "result": []
  },
  {
    "postal": "L6E9X0",
    "result": []
  },
  {
    "postal": "L6E7P6",
    "result": []
  },
  {
    "postal": "L6E0R7",
    "result": [
      {
        "electoralDistricts": [
          {
            "election": null,
            "id": 56,
            "name": "Markham—Stouffville"
          }
        ],
        "pollDivisionIds": [
          10134346
        ],
        "postalCode": "L6E0R7",
        "streetName": "DUNDAS",
        "streetDirectionId": null,
        "streetTypeId": "WAY",
        "placeName": "MARKHAM",
        "streetNameDisplayText": "DUNDAS WAY, MARKHAM"
      }
    ]
  },
  {
    "postal": "L6E5W1",
    "result": []
  },
  {
    "postal": "L6E0K4",
    "result": [
      {
        "electoralDistricts": [
          {
            "election": null,
            "id": 56,
            "name": "Markham—Stouffville"
          }
        ],
        "pollDivisionIds": [
          10134346
        ],
        "postalCode": "L6E0K4",
        "streetName": "ARBOUR",
        "streetDirectionId": null,
        "streetTypeId": "DR",
        "placeName": "MARKHAM",
        "streetNameDisplayText": "ARBOUR DR, MARKHAM"
      },
      {
        "electoralDistricts": [
          {
            "election": null,
            "id": 56,
            "name": "Markham—Stouffville"
          }
        ],
        "pollDivisionIds": [
          10134346
        ],
        "postalCode": "L6E0K4",
        "streetName": "STONEY CREEK",
        "streetDirectionId": null,
        "streetTypeId": "DR",
        "placeName": "MARKHAM",
        "streetNameDisplayText": "STONEY CREEK DR, MARKHAM"
      },
      {
        "electoralDistricts": [
          {
            "election": null,
            "id": 56,
            "name": "Markham—Stouffville"
          }
        ],
        "pollDivisionIds": [
          10134346
        ],
        "postalCode": "L6E0K4",
        "streetName": "WILLIAMSON",
        "streetDirectionId": null,
        "streetTypeId": "RD",
        "placeName": "MARKHAM",
        "streetNameDisplayText": "WILLIAMSON RD, MARKHAM"
      }
    ]
  },
  {
    "postal": "L6E7N9",
    "result": []
  },
  {
    "postal": "L6E1N0",
    "result": []
  },
  {
    "postal": "L6E6P3",
    "result": []
  },
  {
    "postal": "L6E5A1",
    "result": []
  },
  {
    "postal": "L6E9M9",
    "result": []
  },
  {
    "postal": "L6E7T6",
    "result": []
  },
  {
    "postal": "L6E3X0",
    "result": []
  },
  {
    "postal": "L6E2T0",
    "result": []
  },
  {
    "postal": "L6E5X9",
    "result": []
  },
  {
    "postal": "L6E2R3",
    "result": []
  },
  {
    "postal": "L6E5N2",
    "result": []
  },
  {
    "postal": "L6E4Y7",
    "result": []
  },
  {
    "postal": "L6E7M0",
    "result": []
  },
  {
    "postal": "L6E8P3",
    "result": []
  },
  {
    "postal": "L6E3N3",
    "result": []
  },
  {
    "postal": "L6E7S3",
    "result": []
  },
  {
    "postal": "L6E3V9",
    "result": []
  },
  {
    "postal": "L6E9N7",
    "result": []
  },
  {
    "postal": "L6E0G4",
    "result": [
      {
        "electoralDistricts": [
          {
            "election": null,
            "id": 58,
            "name": "Markham—Unionville"
          }
        ],
        "pollDivisionIds": [
          10139669
        ],
        "postalCode": "L6E0G4",
        "streetName": "FRED MCLAREN",
        "streetDirectionId": null,
        "streetTypeId": "BLVD",
        "placeName": "MARKHAM",
        "streetNameDisplayText": "FRED MCLAREN BLVD, MARKHAM"
      },
      {
        "electoralDistricts": [
          {
            "election": null,
            "id": 58,
            "name": "Markham—Unionville"
          }
        ],
        "pollDivisionIds": [
          10139669
        ],
        "postalCode": "L6E0G4",
        "streetName": "FURROW",
        "streetDirectionId": null,
        "streetTypeId": "ST",
        "placeName": "MARKHAM",
        "streetNameDisplayText": "FURROW ST, MARKHAM"
      },
      {
        "electoralDistricts": [
          {
            "election": null,
            "id": 58,
            "name": "Markham—Unionville"
          }
        ],
        "pollDivisionIds": [
          10139669
        ],
        "postalCode": "L6E0G4",
        "streetName": "TITUS",
        "streetDirectionId": null,
        "streetTypeId": "ST",
        "placeName": "MARKHAM",
        "streetNameDisplayText": "TITUS ST, MARKHAM"
      },
      {
        "electoralDistricts": [
          {
            "election": null,
            "id": 58,
            "name": "Markham—Unionville"
          }
        ],
        "pollDivisionIds": [
          10139669
        ],
        "postalCode": "L6E0G4",
        "streetName": "WILLOW",
        "streetDirectionId": null,
        "streetTypeId": "ST",
        "placeName": "MARKHAM",
        "streetNameDisplayText": "WILLOW ST, MARKHAM"
      }
    ]
  },
  {
    "postal": "L6E2E2",
    "result": [
      {
        "electoralDistricts": [
          {
            "election": null,
            "id": 58,
            "name": "Markham—Unionville"
          }
        ],
        "pollDivisionIds": [
          10139669
        ],
        "postalCode": "L6E2E2",
        "streetName": "HAMMERSLY",
        "streetDirectionId": null,
        "streetTypeId": "BLVD",
        "placeName": "MARKHAM",
        "streetNameDisplayText": "HAMMERSLY BLVD, MARKHAM"
      },
      {
        "electoralDistricts": [
          {
            "election": null,
            "id": 58,
            "name": "Markham—Unionville"
          }
        ],
        "pollDivisionIds": [
          10139669
        ],
        "postalCode": "L6E2E2",
        "streetName": "KENTLAND",
        "streetDirectionId": null,
        "streetTypeId": "ST",
        "placeName": "MARKHAM",
        "streetNameDisplayText": "KENTLAND ST, MARKHAM"
      }
    ]
  },
  {
    "postal": "L6E7W8",
    "result": []
  },
  {
    "postal": "L6E7M5",
    "result": []
  },
  {
    "postal": "L6E5W8",
    "result": []
  },
  {
    "postal": "L6E5E5",
    "result": []
  },
  {
    "postal": "L6E1P9",
    "result": [
      {
        "electoralDistricts": [
          {
            "election": null,
            "id": 58,
            "name": "Markham—Unionville"
          }
        ],
        "pollDivisionIds": [
          10139668
        ],
        "postalCode": "L6E1P9",
        "streetName": "BUR OAK",
        "streetDirectionId": null,
        "streetTypeId": "AVE",
        "placeName": "MARKHAM",
        "streetNameDisplayText": "BUR OAK AVE, MARKHAM"
      },
      {
        "electoralDistricts": [
          {
            "election": null,
            "id": 58,
            "name": "Markham—Unionville"
          }
        ],
        "pollDivisionIds": [
          10139668
        ],
        "postalCode": "L6E1P9",
        "streetName": "OMEGA",
        "streetDirectionId": null,
        "streetTypeId": "ST",
        "placeName": "MARKHAM",
        "streetNameDisplayText": "OMEGA ST, MARKHAM"
      }
    ]
  },
  {
    "postal": "L6E8V8",
    "result": []
  },
  {
    "postal": "L6E9G8",
    "result": []
  },
  {
    "postal": "L6E8H9",
    "result": []
  },
  {
    "postal": "L6E1Z1",
    "result": [
      {
        "electoralDistricts": [
          {
            "election": null,
            "id": 56,
            "name": "Markham—Stouffville"
          }
        ],
        "pollDivisionIds": [
          10134346
        ],
        "postalCode": "L6E1Z1",
        "streetName": "GREENSBOROUGH VILLAGE",
        "streetDirectionId": null,
        "streetTypeId": "CIR",
        "placeName": "MARKHAM",
        "streetNameDisplayText": "GREENSBOROUGH VILLAGE CIR, MARKHAM"
      },
      {
        "electoralDistricts": [
          {
            "election": null,
            "id": 56,
            "name": "Markham—Stouffville"
          }
        ],
        "pollDivisionIds": [
          10134346
        ],
        "postalCode": "L6E1Z1",
        "streetName": "RAINBOW VALLEY",
        "streetDirectionId": null,
        "streetTypeId": "CRES",
        "placeName": "MARKHAM",
        "streetNameDisplayText": "RAINBOW VALLEY CRES, MARKHAM"
      },
      {
        "electoralDistricts": [
          {
            "election": null,
            "id": 56,
            "name": "Markham—Stouffville"
          }
        ],
        "pollDivisionIds": [
          10134346
        ],
        "postalCode": "L6E1Z1",
        "streetName": "SAFFRON",
        "streetDirectionId": null,
        "streetTypeId": "ST",
        "placeName": "MARKHAM",
        "streetNameDisplayText": "SAFFRON ST, MARKHAM"
      }
    ]
  },
  {
    "postal": "L6E8M3",
    "result": []
  },
  {
    "postal": "L6E5H6",
    "result": []
  },
  {
    "postal": "L6E7W7",
    "result": []
  },
  {
    "postal": "L6E4L0",
    "result": []
  },
  {
    "postal": "L6E2N1",
    "result": []
  },
  {
    "postal": "L6E2H4",
    "result": []
  },
  {
    "postal": "L6E5C8",
    "result": []
  },
  {
    "postal": "L6E8B0",
    "result": []
  },
  {
    "postal": "L6E1T4",
    "result": [
      {
        "electoralDistricts": [
          {
            "election": null,
            "id": 57,
            "name": "Markham—Thornhill"
          },
          {
            "election": null,
            "id": 58,
            "name": "Markham—Unionville"
          }
        ],
        "pollDivisionIds": [
          10143183,
          10139669
        ],
        "postalCode": "L6E1T4",
        "streetName": "STOTTS",
        "streetDirectionId": null,
        "streetTypeId": "CRES",
        "placeName": "MARKHAM",
        "streetNameDisplayText": "STOTTS CRES, MARKHAM"
      }
    ]
  },
  {
    "postal": "L6E7N7",
    "result": []
  },
  {
    "postal": "L6E4L3",
    "result": []
  },
  {
    "postal": "L6E2N2",
    "result": []
  },
  {
    "postal": "L6E4N8",
    "result": []
  },
  {
    "postal": "L6E3M5",
    "result": []
  },
  {
    "postal": "L6E6H7",
    "result": []
  },
  {
    "postal": "L6E8Y8",
    "result": []
  },
  {
    "postal": "L6E5R9",
    "result": []
  },
  {
    "postal": "L6E8G3",
    "result": []
  },
  {
    "postal": "L6E4N7",
    "result": []
  },
  {
    "postal": "L6E0B9",
    "result": [
      {
        "electoralDistricts": [
          {
            "election": null,
            "id": 56,
            "name": "Markham—Stouffville"
          }
        ],
        "pollDivisionIds": [
          10134347
        ],
        "postalCode": "L6E0B9",
        "streetName": "BUR OAK",
        "streetDirectionId": null,
        "streetTypeId": "AVE",
        "placeName": "MARKHAM",
        "streetNameDisplayText": "BUR OAK AVE, MARKHAM"
      },
      {
        "electoralDistricts": [
          {
            "election": null,
            "id": 56,
            "name": "Markham—Stouffville"
          }
        ],
        "pollDivisionIds": [
          10134347
        ],
        "postalCode": "L6E0B9",
        "streetName": "CHANCERY",
        "streetDirectionId": null,
        "streetTypeId": "RD",
        "placeName": "MARKHAM",
        "streetNameDisplayText": "CHANCERY RD, MARKHAM"
      }
    ]
  },
  {
    "postal": "L6E9K7",
    "result": []
  },
  {
    "postal": "L6E9K9",
    "result": []
  },
  {
    "postal": "L6E3Z2",
    "result": []
  },
  {
    "postal": "L6E6W7",
    "result": []
  },
  {
    "postal": "L6E0P1",
    "result": [
      {
        "electoralDistricts": [
          {
            "election": null,
            "id": 58,
            "name": "Markham—Unionville"
          }
        ],
        "pollDivisionIds": [
          10139672
        ],
        "postalCode": "L6E0P1",
        "streetName": "MARIA",
        "streetDirectionId": null,
        "streetTypeId": "RD",
        "placeName": "MARKHAM",
        "streetNameDisplayText": "MARIA RD, MARKHAM"
      }
    ]
  },
  {
    "postal": "L6E3A0",
    "result": []
  },
  {
    "postal": "L6E8L9",
    "result": []
  },
  {
    "postal": "L6E6X0",
    "result": []
  },
  {
    "postal": "L6E3E9",
    "result": []
  },
  {
    "postal": "L6E0S5",
    "result": [
      {
        "electoralDistricts": [
          {
            "election": null,
            "id": 58,
            "name": "Markham—Unionville"
          }
        ],
        "pollDivisionIds": [
          10139673
        ],
        "postalCode": "L6E0S5",
        "streetName": "MARKHAM",
        "streetDirectionId": null,
        "streetTypeId": "RD",
        "placeName": "MARKHAM",
        "streetNameDisplayText": "MARKHAM RD, MARKHAM"
      }
    ]
  },
  {
    "postal": "L6E1A2",
    "result": [
      {
        "electoralDistricts": [
          {
            "election": null,
            "id": 56,
            "name": "Markham—Stouffville"
          }
        ],
        "pollDivisionIds": [
          10134348
        ],
        "postalCode": "L6E1A2",
        "streetName": "MARKHAM",
        "streetDirectionId": null,
        "streetTypeId": "RD",
        "placeName": "MARKHAM",
        "streetNameDisplayText": "MARKHAM RD, MARKHAM"
      }
    ]
  },
  {
    "postal": "L6E5V8",
    "result": []
  },
  {
    "postal": "L6E8C5",
    "result": []
  },
  {
    "postal": "L6E6N0",
    "result": []
  },
  {
    "postal": "L6E9E6",
    "result": []
  },
  {
    "postal": "L6E5J7",
    "result": []
  },
  {
    "postal": "L6E2R2",
    "result": []
  },
  {
    "postal": "L6E0P5",
    "result": [
      {
        "electoralDistricts": [
          {
            "election": null,
            "id": 58,
            "name": "Markham—Unionville"
          }
        ],
        "pollDivisionIds": [
          10139669
        ],
        "postalCode": "L6E0P5",
        "streetName": "CASTLEMORE",
        "streetDirectionId": null,
        "streetTypeId": "AVE",
        "placeName": "MARKHAM",
        "streetNameDisplayText": "CASTLEMORE AVE, MARKHAM"
      },
      {
        "electoralDistricts": [
          {
            "election": null,
            "id": 58,
            "name": "Markham—Unionville"
          }
        ],
        "pollDivisionIds": [
          10139669
        ],
        "postalCode": "L6E0P5",
        "streetName": "HYACINTH",
        "streetDirectionId": null,
        "streetTypeId": "ST",
        "placeName": "MARKHAM",
        "streetNameDisplayText": "HYACINTH ST, MARKHAM"
      }
    ]
  },
  {
    "postal": "L6E5A7",
    "result": []
  },
  {
    "postal": "L6E1G1",
    "result": [
      {
        "electoralDistricts": [
          {
            "election": null,
            "id": 58,
            "name": "Markham—Unionville"
          }
        ],
        "pollDivisionIds": [
          10139672
        ],
        "postalCode": "L6E1G1",
        "streetName": "EDWARD JEFFREYS",
        "streetDirectionId": null,
        "streetTypeId": "AVE",
        "placeName": "MARKHAM",
        "streetNameDisplayText": "EDWARD JEFFREYS AVE, MARKHAM"
      },
      {
        "electoralDistricts": [
          {
            "election": null,
            "id": 58,
            "name": "Markham—Unionville"
          }
        ],
        "pollDivisionIds": [
          10139672
        ],
        "postalCode": "L6E1G1",
        "streetName": "HOLLYHOCK",
        "streetDirectionId": null,
        "streetTypeId": "ST",
        "placeName": "MARKHAM",
        "streetNameDisplayText": "HOLLYHOCK ST, MARKHAM"
      }
    ]
  },
  {
    "postal": "L6E9R6",
    "result": []
  },
  {
    "postal": "L6E4Z9",
    "result": []
  },
  {
    "postal": "L6E1V5",
    "result": [
      {
        "electoralDistricts": [
          {
            "election": null,
            "id": 58,
            "name": "Markham—Unionville"
          }
        ],
        "pollDivisionIds": [
          10139673
        ],
        "postalCode": "L6E1V5",
        "streetName": "EDWARD JEFFREYS",
        "streetDirectionId": null,
        "streetTypeId": "AVE",
        "placeName": "MARKHAM",
        "streetNameDisplayText": "EDWARD JEFFREYS AVE, MARKHAM"
      },
      {
        "electoralDistricts": [
          {
            "election": null,
            "id": 58,
            "name": "Markham—Unionville"
          }
        ],
        "pollDivisionIds": [
          10139673
        ],
        "postalCode": "L6E1V5",
        "streetName": "MONKHOUSE",
        "streetDirectionId": null,
        "streetTypeId": "RD",
        "placeName": "MARKHAM",
        "streetNameDisplayText": "MONKHOUSE RD, MARKHAM"
      },
      {
        "electoralDistricts": [
          {
            "election": null,
            "id": 58,
            "name": "Markham—Unionville"
          }
        ],
        "pollDivisionIds": [
          10139673
        ],
        "postalCode": "L6E1V5",
        "streetName": "SPENCER",
        "streetDirectionId": null,
        "streetTypeId": "AVE",
        "placeName": "MARKHAM",
        "streetNameDisplayText": "SPENCER AVE, MARKHAM"
      }
    ]
  },
  {
    "postal": "L6E9Y5",
    "result": []
  },
  {
    "postal": "L6E1P2",
    "result": [
      {
        "electoralDistricts": [
          {
            "election": null,
            "id": 58,
            "name": "Markham—Unionville"
          }
        ],
        "pollDivisionIds": [
          10139668
        ],
        "postalCode": "L6E1P2",
        "streetName": "CASTLEMORE",
        "streetDirectionId": null,
        "streetTypeId": "AVE",
        "placeName": "MARKHAM",
        "streetNameDisplayText": "CASTLEMORE AVE, MARKHAM"
      },
      {
        "electoralDistricts": [
          {
            "election": null,
            "id": 58,
            "name": "Markham—Unionville"
          }
        ],
        "pollDivisionIds": [
          10139668
        ],
        "postalCode": "L6E1P2",
        "streetName": "OMEGA",
        "streetDirectionId": null,
        "streetTypeId": "ST",
        "placeName": "MARKHAM",
        "streetNameDisplayText": "OMEGA ST, MARKHAM"
      }
    ]
  },
  {
    "postal": "L6E5X0",
    "result": []
  },
  {
    "postal": "L6E7B8",
    "result": []
  },
  {
    "postal": "L6E0C6",
    "result": [
      {
        "electoralDistricts": [
          {
            "election": null,
            "id": 56,
            "name": "Markham—Stouffville"
          }
        ],
        "pollDivisionIds": [
          10134349,
          10134347
        ],
        "postalCode": "L6E0C6",
        "streetName": "BUR OAK",
        "streetDirectionId": null,
        "streetTypeId": "AVE",
        "placeName": "MARKHAM",
        "streetNameDisplayText": "BUR OAK AVE, MARKHAM"
      }
    ]
  },
  {
    "postal": "L6E6G1",
    "result": []
  },
  {
    "postal": "L6E3K3",
    "result": []
  },
  {
    "postal": "L6E9R0",
    "result": []
  },
  {
    "postal": "L6E4R8",
    "result": []
  },
  {
    "postal": "L6E5P9",
    "result": []
  },
  {
    "postal": "L6E8N4",
    "result": []
  },
  {
    "postal": "L6E8H4",
    "result": []
  },
  {
    "postal": "L6E4V1",
    "result": []
  },
  {
    "postal": "L6E1K5",
    "result": [
      {
        "electoralDistricts": [
          {
            "election": null,
            "id": 56,
            "name": "Markham—Stouffville"
          }
        ],
        "pollDivisionIds": [
          10134347
        ],
        "postalCode": "L6E1K5",
        "streetName": "CHASSER",
        "streetDirectionId": null,
        "streetTypeId": "DR",
        "placeName": "MARKHAM",
        "streetNameDisplayText": "CHASSER DR, MARKHAM"
      },
      {
        "electoralDistricts": [
          {
            "election": null,
            "id": 56,
            "name": "Markham—Stouffville"
          }
        ],
        "pollDivisionIds": [
          10134347
        ],
        "postalCode": "L6E1K5",
        "streetName": "DONHAVEN",
        "streetDirectionId": null,
        "streetTypeId": "RD",
        "placeName": "MARKHAM",
        "streetNameDisplayText": "DONHAVEN RD, MARKHAM"
      }
    ]
  },
  {
    "postal": "L6E1Z5",
    "result": [
      {
        "electoralDistricts": [
          {
            "election": null,
            "id": 56,
            "name": "Markham—Stouffville"
          }
        ],
        "pollDivisionIds": [
          10134348
        ],
        "postalCode": "L6E1Z5",
        "streetName": "MIRAMAR",
        "streetDirectionId": null,
        "streetTypeId": "DR",
        "placeName": "MARKHAM",
        "streetNameDisplayText": "MIRAMAR DR, MARKHAM"
      },
      {
        "electoralDistricts": [
          {
            "election": null,
            "id": 56,
            "name": "Markham—Stouffville"
          }
        ],
        "pollDivisionIds": [
          10134348
        ],
        "postalCode": "L6E1Z5",
        "streetName": "NORTHSIDE",
        "streetDirectionId": null,
        "streetTypeId": "RD",
        "placeName": "MARKHAM",
        "streetNameDisplayText": "NORTHSIDE RD, MARKHAM"
      },
      {
        "electoralDistricts": [
          {
            "election": null,
            "id": 56,
            "name": "Markham—Stouffville"
          }
        ],
        "pollDivisionIds": [
          10134348
        ],
        "postalCode": "L6E1Z5",
        "streetName": "PARK PLACE",
        "streetDirectionId": null,
        "streetTypeId": "DR",
        "placeName": "MARKHAM",
        "streetNameDisplayText": "PARK PLACE DR, MARKHAM"
      },
      {
        "electoralDistricts": [
          {
            "election": null,
            "id": 56,
            "name": "Markham—Stouffville"
          }
        ],
        "pollDivisionIds": [
          10134348
        ],
        "postalCode": "L6E1Z5",
        "streetName": "SWAN PARK",
        "streetDirectionId": null,
        "streetTypeId": "RD",
        "placeName": "MARKHAM",
        "streetNameDisplayText": "SWAN PARK RD, MARKHAM"
      }
    ]
  },
  {
    "postal": "L6E9L9",
    "result": []
  },
  {
    "postal": "L6E5L2",
    "result": []
  },
  {
    "postal": "L6E0M2",
    "result": [
      {
        "electoralDistricts": [
          {
            "election": null,
            "id": 56,
            "name": "Markham—Stouffville"
          }
        ],
        "pollDivisionIds": [
          10134346
        ],
        "postalCode": "L6E0M2",
        "streetName": "DARREN HILL",
        "streetDirectionId": null,
        "streetTypeId": "TRAIL",
        "placeName": "MARKHAM",
        "streetNameDisplayText": "DARREN HILL TRAIL, MARKHAM"
      },
      {
        "electoralDistricts": [
          {
            "election": null,
            "id": 56,
            "name": "Markham—Stouffville"
          }
        ],
        "pollDivisionIds": [
          10134346
        ],
        "postalCode": "L6E0M2",
        "streetName": "DESJARDIN",
        "streetDirectionId": null,
        "streetTypeId": "DR",
        "placeName": "MARKHAM",
        "streetNameDisplayText": "DESJARDIN DR, MARKHAM"
      },
      {
        "electoralDistricts": [
          {
            "election": null,
            "id": 56,
            "name": "Markham—Stouffville"
          }
        ],
        "pollDivisionIds": [
          10134346
        ],
        "postalCode": "L6E0M2",
        "streetName": "SCHEEL",
        "streetDirectionId": null,
        "streetTypeId": "DR",
        "placeName": "MARKHAM",
        "streetNameDisplayText": "SCHEEL DR, MARKHAM"
      },
      {
        "electoralDistricts": [
          {
            "election": null,
            "id": 56,
            "name": "Markham—Stouffville"
          }
        ],
        "pollDivisionIds": [
          10134346
        ],
        "postalCode": "L6E0M2",
        "streetName": "SEDORE",
        "streetDirectionId": null,
        "streetTypeId": "ST",
        "placeName": "MARKHAM",
        "streetNameDisplayText": "SEDORE ST, MARKHAM"
      }
    ]
  },
  {
    "postal": "L6E1K8",
    "result": [
      {
        "electoralDistricts": [
          {
            "election": null,
            "id": 56,
            "name": "Markham—Stouffville"
          }
        ],
        "pollDivisionIds": [
          10134347
        ],
        "postalCode": "L6E1K8",
        "streetName": "ALFRED PATERSON",
        "streetDirectionId": null,
        "streetTypeId": "DR",
        "placeName": "MARKHAM",
        "streetNameDisplayText": "ALFRED PATERSON DR, MARKHAM"
      },
      {
        "electoralDistricts": [
          {
            "election": null,
            "id": 56,
            "name": "Markham—Stouffville"
          }
        ],
        "pollDivisionIds": [
          10134347
        ],
        "postalCode": "L6E1K8",
        "streetName": "AMBERCROFT",
        "streetDirectionId": null,
        "streetTypeId": "ST",
        "placeName": "MARKHAM",
        "streetNameDisplayText": "AMBERCROFT ST, MARKHAM"
      },
      {
        "electoralDistricts": [
          {
            "election": null,
            "id": 56,
            "name": "Markham—Stouffville"
          }
        ],
        "pollDivisionIds": [
          10134347
        ],
        "postalCode": "L6E1K8",
        "streetName": "MAYBREEZE",
        "streetDirectionId": null,
        "streetTypeId": "RD",
        "placeName": "MARKHAM",
        "streetNameDisplayText": "MAYBREEZE RD, MARKHAM"
      },
      {
        "electoralDistricts": [
          {
            "election": null,
            "id": 56,
            "name": "Markham—Stouffville"
          }
        ],
        "pollDivisionIds": [
          10134347
        ],
        "postalCode": "L6E1K8",
        "streetName": "WYNDEMERE",
        "streetDirectionId": null,
        "streetTypeId": "CRT",
        "placeName": "MARKHAM",
        "streetNameDisplayText": "WYNDEMERE CRT, MARKHAM"
      }
    ]
  },
  {
    "postal": "L6E3M7",
    "result": []
  },
  {
    "postal": "L6E1B2",
    "result": []
  },
  {
    "postal": "L6E0H9",
    "result": [
      {
        "electoralDistricts": [
          {
            "election": null,
            "id": 56,
            "name": "Markham—Stouffville"
          }
        ],
        "pollDivisionIds": [
          10134348
        ],
        "postalCode": "L6E0H9",
        "streetName": "48",
        "streetDirectionId": null,
        "streetTypeId": "HWY",
        "placeName": "MARKHAM",
        "streetNameDisplayText": "48 HWY, MARKHAM"
      },
      {
        "electoralDistricts": [
          {
            "election": null,
            "id": 56,
            "name": "Markham—Stouffville"
          }
        ],
        "pollDivisionIds": [
          10134348
        ],
        "postalCode": "L6E0H9",
        "streetName": "MARKHAM",
        "streetDirectionId": null,
        "streetTypeId": "RD",
        "placeName": "MARKHAM",
        "streetNameDisplayText": "MARKHAM RD, MARKHAM"
      }
    ]
  },
  {
    "postal": "L6E8M4",
    "result": []
  },
  {
    "postal": "L6E2M5",
    "result": []
  },
  {
    "postal": "L6E0T9",
    "result": [
      {
        "electoralDistricts": [
          {
            "election": null,
            "id": 58,
            "name": "Markham—Unionville"
          }
        ],
        "pollDivisionIds": [
          10139673
        ],
        "postalCode": "L6E0T9",
        "streetName": "MARKHAM",
        "streetDirectionId": null,
        "streetTypeId": "RD",
        "placeName": "MARKHAM",
        "streetNameDisplayText": "MARKHAM RD, MARKHAM"
      }
    ]
  },
  {
    "postal": "L6E3P1",
    "result": []
  },
  {
    "postal": "L6E1R6",
    "result": [
      {
        "electoralDistricts": [
          {
            "election": null,
            "id": 56,
            "name": "Markham—Stouffville"
          }
        ],
        "pollDivisionIds": [
          10134348
        ],
        "postalCode": "L6E1R6",
        "streetName": "SUNBURST",
        "streetDirectionId": null,
        "streetTypeId": "CRES",
        "placeName": "MARKHAM",
        "streetNameDisplayText": "SUNBURST CRES, MARKHAM"
      }
    ]
  },
  {
    "postal": "L6E9V5",
    "result": []
  },
  {
    "postal": "L6E9T0",
    "result": []
  },
  {
    "postal": "L6E0A9",
    "result": []
  },
  {
    "postal": "L6E1M3",
    "result": [
      {
        "electoralDistricts": [
          {
            "election": null,
            "id": 56,
            "name": "Markham—Stouffville"
          }
        ],
        "pollDivisionIds": [
          10134346
        ],
        "postalCode": "L6E1M3",
        "streetName": "BUR OAK",
        "streetDirectionId": null,
        "streetTypeId": "AVE",
        "placeName": "MARKHAM",
        "streetNameDisplayText": "BUR OAK AVE, MARKHAM"
      },
      {
        "electoralDistricts": [
          {
            "election": null,
            "id": 56,
            "name": "Markham—Stouffville"
          }
        ],
        "pollDivisionIds": [
          10134346
        ],
        "postalCode": "L6E1M3",
        "streetName": "GOLDENWOOD",
        "streetDirectionId": null,
        "streetTypeId": "CRES",
        "placeName": "MARKHAM",
        "streetNameDisplayText": "GOLDENWOOD CRES, MARKHAM"
      },
      {
        "electoralDistricts": [
          {
            "election": null,
            "id": 56,
            "name": "Markham—Stouffville"
          }
        ],
        "pollDivisionIds": [
          10134346
        ],
        "postalCode": "L6E1M3",
        "streetName": "SAFFRON",
        "streetDirectionId": null,
        "streetTypeId": "ST",
        "placeName": "MARKHAM",
        "streetNameDisplayText": "SAFFRON ST, MARKHAM"
      }
    ]
  },
  {
    "postal": "L6E1W8",
    "result": [
      {
        "electoralDistricts": [
          {
            "election": null,
            "id": 58,
            "name": "Markham—Unionville"
          }
        ],
        "pollDivisionIds": [
          10139672
        ],
        "postalCode": "L6E1W8",
        "streetName": "BUR OAK",
        "streetDirectionId": null,
        "streetTypeId": "AVE",
        "placeName": "MARKHAM",
        "streetNameDisplayText": "BUR OAK AVE, MARKHAM"
      }
    ]
  },
  {
    "postal": "L6E9J1",
    "result": []
  },
  {
    "postal": "L6E8N5",
    "result": []
  },
  {
    "postal": "L6E5X1",
    "result": []
  },
  {
    "postal": "L6E6S2",
    "result": []
  },
  {
    "postal": "L6E2A2",
    "result": [
      {
        "electoralDistricts": [
          {
            "election": null,
            "id": 56,
            "name": "Markham—Stouffville"
          }
        ],
        "pollDivisionIds": [
          10134349
        ],
        "postalCode": "L6E2A2",
        "streetName": "ALTHORP",
        "streetDirectionId": null,
        "streetTypeId": "WAY",
        "placeName": "MARKHAM",
        "streetNameDisplayText": "ALTHORP WAY, MARKHAM"
      },
      {
        "electoralDistricts": [
          {
            "election": null,
            "id": 56,
            "name": "Markham—Stouffville"
          }
        ],
        "pollDivisionIds": [
          10134349,
          10134347
        ],
        "postalCode": "L6E2A2",
        "streetName": "AUGUSTA DRIVE",
        "streetDirectionId": null,
        "streetTypeId": "WAY",
        "placeName": "MARKHAM",
        "streetNameDisplayText": "AUGUSTA DRIVE WAY, MARKHAM"
      },
      {
        "electoralDistricts": [
          {
            "election": null,
            "id": 56,
            "name": "Markham—Stouffville"
          }
        ],
        "pollDivisionIds": [
          10134349
        ],
        "postalCode": "L6E2A2",
        "streetName": "BELLE TERRE",
        "streetDirectionId": null,
        "streetTypeId": "WAY",
        "placeName": "MARKHAM",
        "streetNameDisplayText": "BELLE TERRE WAY, MARKHAM"
      },
      {
        "electoralDistricts": [
          {
            "election": null,
            "id": 56,
            "name": "Markham—Stouffville"
          }
        ],
        "pollDivisionIds": [
          10134349
        ],
        "postalCode": "L6E2A2",
        "streetName": "LONGMONT",
        "streetDirectionId": null,
        "streetTypeId": "WAY",
        "placeName": "MARKHAM",
        "streetNameDisplayText": "LONGMONT WAY, MARKHAM"
      },
      {
        "electoralDistricts": [
          {
            "election": null,
            "id": 56,
            "name": "Markham—Stouffville"
          }
        ],
        "pollDivisionIds": [
          10134349
        ],
        "postalCode": "L6E2A2",
        "streetName": "LOUISBOURG",
        "streetDirectionId": null,
        "streetTypeId": "WAY",
        "placeName": "MARKHAM",
        "streetNameDisplayText": "LOUISBOURG WAY, MARKHAM"
      },
      {
        "electoralDistricts": [
          {
            "election": null,
            "id": 56,
            "name": "Markham—Stouffville"
          }
        ],
        "pollDivisionIds": [
          10134349
        ],
        "postalCode": "L6E2A2",
        "streetName": "WAVE HILL",
        "streetDirectionId": null,
        "streetTypeId": "WAY",
        "placeName": "MARKHAM",
        "streetNameDisplayText": "WAVE HILL WAY, MARKHAM"
      }
    ]
  },
  {
    "postal": "L6E6A6",
    "result": []
  },
  {
    "postal": "L6E0S3",
    "result": [
      {
        "electoralDistricts": [
          {
            "election": null,
            "id": 58,
            "name": "Markham—Unionville"
          }
        ],
        "pollDivisionIds": [
          10139669
        ],
        "postalCode": "L6E0S3",
        "streetName": "MEMON",
        "streetDirectionId": null,
        "streetTypeId": "PLACE",
        "placeName": "MARKHAM",
        "streetNameDisplayText": "MEMON PLACE, MARKHAM"
      }
    ]
  },
  {
    "postal": "L6E3E7",
    "result": []
  },
  {
    "postal": "L6E5R7",
    "result": []
  },
  {
    "postal": "L6E3R6",
    "result": []
  },
  {
    "postal": "L6E6K4",
    "result": []
  },
  {
    "postal": "L6E2W5",
    "result": []
  },
  {
    "postal": "L6E8W4",
    "result": []
  },
  {
    "postal": "L6E9C2",
    "result": []
  },
  {
    "postal": "L6E2C0",
    "result": []
  },
  {
    "postal": "L6E0E1",
    "result": [
      {
        "electoralDistricts": [
          {
            "election": null,
            "id": 58,
            "name": "Markham—Unionville"
          }
        ],
        "pollDivisionIds": [
          10139669
        ],
        "postalCode": "L6E0E1",
        "streetName": "BUR OAK",
        "streetDirectionId": null,
        "streetTypeId": "AVE",
        "placeName": "MARKHAM",
        "streetNameDisplayText": "BUR OAK AVE, MARKHAM"
      }
    ]
  },
  {
    "postal": "L6E1K9",
    "result": [
      {
        "electoralDistricts": [
          {
            "election": null,
            "id": 56,
            "name": "Markham—Stouffville"
          }
        ],
        "pollDivisionIds": [
          10134347
        ],
        "postalCode": "L6E1K9",
        "streetName": "ALFRED PATERSON",
        "streetDirectionId": null,
        "streetTypeId": "DR",
        "placeName": "MARKHAM",
        "streetNameDisplayText": "ALFRED PATERSON DR, MARKHAM"
      },
      {
        "electoralDistricts": [
          {
            "election": null,
            "id": 56,
            "name": "Markham—Stouffville"
          }
        ],
        "pollDivisionIds": [
          10134347
        ],
        "postalCode": "L6E1K9",
        "streetName": "MISTY",
        "streetDirectionId": null,
        "streetTypeId": "CRT",
        "placeName": "MARKHAM",
        "streetNameDisplayText": "MISTY CRT, MARKHAM"
      }
    ]
  },
  {
    "postal": "L6E1G7",
    "result": [
      {
        "electoralDistricts": [
          {
            "election": null,
            "id": 58,
            "name": "Markham—Unionville"
          }
        ],
        "pollDivisionIds": [
          10139672
        ],
        "postalCode": "L6E1G7",
        "streetName": "BAINTREE",
        "streetDirectionId": null,
        "streetTypeId": "ST",
        "placeName": "MARKHAM",
        "streetNameDisplayText": "BAINTREE ST, MARKHAM"
      },
      {
        "electoralDistricts": [
          {
            "election": null,
            "id": 58,
            "name": "Markham—Unionville"
          }
        ],
        "pollDivisionIds": [
          10139672
        ],
        "postalCode": "L6E1G7",
        "streetName": "BERN",
        "streetDirectionId": null,
        "streetTypeId": "ST",
        "placeName": "MARKHAM",
        "streetNameDisplayText": "BERN ST, MARKHAM"
      },
      {
        "electoralDistricts": [
          {
            "election": null,
            "id": 58,
            "name": "Markham—Unionville"
          }
        ],
        "pollDivisionIds": [
          10139672
        ],
        "postalCode": "L6E1G7",
        "streetName": "ROY RAINEY",
        "streetDirectionId": null,
        "streetTypeId": "AVE",
        "placeName": "MARKHAM",
        "streetNameDisplayText": "ROY RAINEY AVE, MARKHAM"
      }
    ]
  },
  {
    "postal": "L6E4E9",
    "result": []
  },
  {
    "postal": "L6E9P0",
    "result": []
  },
  {
    "postal": "L6E5H3",
    "result": []
  },
  {
    "postal": "L6E9X6",
    "result": []
  },
  {
    "postal": "L6E5N7",
    "result": []
  },
  {
    "postal": "L6E5A6",
    "result": []
  },
  {
    "postal": "L6E4M0",
    "result": []
  },
  {
    "postal": "L6E3V6",
    "result": []
  },
  {
    "postal": "L6E1L7",
    "result": [
      {
        "electoralDistricts": [
          {
            "election": null,
            "id": 56,
            "name": "Markham—Stouffville"
          }
        ],
        "pollDivisionIds": [
          10134347
        ],
        "postalCode": "L6E1L7",
        "streetName": "BUR OAK",
        "streetDirectionId": null,
        "streetTypeId": "AVE",
        "placeName": "MARKHAM",
        "streetNameDisplayText": "BUR OAK AVE, MARKHAM"
      },
      {
        "electoralDistricts": [
          {
            "election": null,
            "id": 56,
            "name": "Markham—Stouffville"
          }
        ],
        "pollDivisionIds": [
          10134347
        ],
        "postalCode": "L6E1L7",
        "streetName": "SAFFRON",
        "streetDirectionId": null,
        "streetTypeId": "ST",
        "placeName": "MARKHAM",
        "streetNameDisplayText": "SAFFRON ST, MARKHAM"
      }
    ]
  },
  {
    "postal": "L6E2P9",
    "result": []
  },
  {
    "postal": "L6E5T4",
    "result": []
  },
  {
    "postal": "L6E5Z1",
    "result": []
  },
  {
    "postal": "L6E2X0",
    "result": []
  },
  {
    "postal": "L6E6Z2",
    "result": []
  },
  {
    "postal": "L6E0E0",
    "result": []
  },
  {
    "postal": "L6E3Z5",
    "result": []
  },
  {
    "postal": "L6E8H3",
    "result": []
  },
  {
    "postal": "L6E7S6",
    "result": []
  },
  {
    "postal": "L6E4C1",
    "result": []
  },
  {
    "postal": "L6E3K2",
    "result": []
  },
  {
    "postal": "L6E1Y5",
    "result": [
      {
        "electoralDistricts": [
          {
            "election": null,
            "id": 56,
            "name": "Markham—Stouffville"
          }
        ],
        "pollDivisionIds": [
          10134346
        ],
        "postalCode": "L6E1Y5",
        "streetName": "GORDON WEEDEN",
        "streetDirectionId": null,
        "streetTypeId": "RD",
        "placeName": "MARKHAM",
        "streetNameDisplayText": "GORDON WEEDEN RD, MARKHAM"
      },
      {
        "electoralDistricts": [
          {
            "election": null,
            "id": 56,
            "name": "Markham—Stouffville"
          }
        ],
        "pollDivisionIds": [
          10134346
        ],
        "postalCode": "L6E1Y5",
        "streetName": "SAFFRON",
        "streetDirectionId": null,
        "streetTypeId": "ST",
        "placeName": "MARKHAM",
        "streetNameDisplayText": "SAFFRON ST, MARKHAM"
      }
    ]
  },
  {
    "postal": "L6E6P6",
    "result": []
  },
  {
    "postal": "L6E3N9",
    "result": []
  },
  {
    "postal": "L6E3W2",
    "result": []
  },
  {
    "postal": "L6E6H8",
    "result": []
  },
  {
    "postal": "L6E9T3",
    "result": []
  },
  {
    "postal": "L6E5L9",
    "result": []
  },
  {
    "postal": "L6E7X7",
    "result": []
  },
  {
    "postal": "L6E3J5",
    "result": []
  },
  {
    "postal": "L6E4J5",
    "result": []
  },
  {
    "postal": "L6E6J2",
    "result": []
  },
  {
    "postal": "L6E5V6",
    "result": []
  },
  {
    "postal": "L6E3N2",
    "result": []
  },
  {
    "postal": "L6E3B1",
    "result": []
  },
  {
    "postal": "L6E8B5",
    "result": []
  },
  {
    "postal": "L6E0K1",
    "result": [
      {
        "electoralDistricts": [
          {
            "election": null,
            "id": 58,
            "name": "Markham—Unionville"
          }
        ],
        "pollDivisionIds": [
          10139672
        ],
        "postalCode": "L6E0K1",
        "streetName": "KELLY",
        "streetDirectionId": null,
        "streetTypeId": "CRES",
        "placeName": "MARKHAM",
        "streetNameDisplayText": "KELLY CRES, MARKHAM"
      }
    ]
  },
  {
    "postal": "L6E7M7",
    "result": []
  },
  {
    "postal": "L6E2M2",
    "result": []
  },
  {
    "postal": "L6E9N3",
    "result": []
  },
  {
    "postal": "L6E4Y8",
    "result": []
  },
  {
    "postal": "L6E3V7",
    "result": []
  },
  {
    "postal": "L6E8Z1",
    "result": []
  },
  {
    "postal": "L6E7B3",
    "result": []
  },
  {
    "postal": "L6E3A8",
    "result": []
  },
  {
    "postal": "L6E7V5",
    "result": []
  },
  {
    "postal": "L6E2T2",
    "result": []
  },
  {
    "postal": "L6E6L3",
    "result": []
  },
  {
    "postal": "L6E0L2",
    "result": [
      {
        "electoralDistricts": [
          {
            "election": null,
            "id": 58,
            "name": "Markham—Unionville"
          }
        ],
        "pollDivisionIds": [
          10139673
        ],
        "postalCode": "L6E0L2",
        "streetName": "BUR OAK",
        "streetDirectionId": null,
        "streetTypeId": "AVE",
        "placeName": "MARKHAM",
        "streetNameDisplayText": "BUR OAK AVE, MARKHAM"
      },
      {
        "electoralDistricts": [
          {
            "election": null,
            "id": 58,
            "name": "Markham—Unionville"
          }
        ],
        "pollDivisionIds": [
          10139673
        ],
        "postalCode": "L6E0L2",
        "streetName": "KENTLAND",
        "streetDirectionId": null,
        "streetTypeId": "ST",
        "placeName": "MARKHAM",
        "streetNameDisplayText": "KENTLAND ST, MARKHAM"
      }
    ]
  },
  {
    "postal": "L6E5Y8",
    "result": []
  },
  {
    "postal": "L6E0B8",
    "result": [
      {
        "electoralDistricts": [
          {
            "election": null,
            "id": 56,
            "name": "Markham—Stouffville"
          }
        ],
        "pollDivisionIds": [
          10134347
        ],
        "postalCode": "L6E0B8",
        "streetName": "BUR OAK",
        "streetDirectionId": null,
        "streetTypeId": "AVE",
        "placeName": "MARKHAM",
        "streetNameDisplayText": "BUR OAK AVE, MARKHAM"
      }
    ]
  },
  {
    "postal": "L6E6R5",
    "result": []
  },
  {
    "postal": "L6E8W6",
    "result": []
  },
  {
    "postal": "L6E8G6",
    "result": []
  },
  {
    "postal": "L6E6X3",
    "result": []
  },
  {
    "postal": "L6E7R7",
    "result": []
  },
  {
    "postal": "L6E4B6",
    "result": []
  },
  {
    "postal": "L6E3P9",
    "result": []
  },
  {
    "postal": "L6E2T3",
    "result": []
  },
  {
    "postal": "L6E1M4",
    "result": [
      {
        "electoralDistricts": [
          {
            "election": null,
            "id": 56,
            "name": "Markham—Stouffville"
          }
        ],
        "pollDivisionIds": [
          10134346
        ],
        "postalCode": "L6E1M4",
        "streetName": "BUR OAK",
        "streetDirectionId": null,
        "streetTypeId": "AVE",
        "placeName": "MARKHAM",
        "streetNameDisplayText": "BUR OAK AVE, MARKHAM"
      },
      {
        "electoralDistricts": [
          {
            "election": null,
            "id": 56,
            "name": "Markham—Stouffville"
          }
        ],
        "pollDivisionIds": [
          10134346
        ],
        "postalCode": "L6E1M4",
        "streetName": "GREENBOROUGH VILLAGE",
        "streetDirectionId": null,
        "streetTypeId": "CIR",
        "placeName": "MARKHAM",
        "streetNameDisplayText": "GREENBOROUGH VILLAGE CIR, MARKHAM"
      },
      {
        "electoralDistricts": [
          {
            "election": null,
            "id": 56,
            "name": "Markham—Stouffville"
          }
        ],
        "pollDivisionIds": [
          10134346
        ],
        "postalCode": "L6E1M4",
        "streetName": "GREENSBOROUGH VILLAGE",
        "streetDirectionId": null,
        "streetTypeId": "CIR",
        "placeName": "MARKHAM",
        "streetNameDisplayText": "GREENSBOROUGH VILLAGE CIR, MARKHAM"
      }
    ]
  },
  {
    "postal": "L6E0H1",
    "result": [
      {
        "electoralDistricts": [
          {
            "election": null,
            "id": 56,
            "name": "Markham—Stouffville"
          }
        ],
        "pollDivisionIds": [
          10134346
        ],
        "postalCode": "L6E0H1",
        "streetName": "CASTLEMORE",
        "streetDirectionId": null,
        "streetTypeId": "AVE",
        "placeName": "MARKHAM",
        "streetNameDisplayText": "CASTLEMORE AVE, MARKHAM"
      },
      {
        "electoralDistricts": [
          {
            "election": null,
            "id": 56,
            "name": "Markham—Stouffville"
          }
        ],
        "pollDivisionIds": [
          10134346
        ],
        "postalCode": "L6E0H1",
        "streetName": "DARREN HILL",
        "streetDirectionId": null,
        "streetTypeId": "TRAIL",
        "placeName": "MARKHAM",
        "streetNameDisplayText": "DARREN HILL TRAIL, MARKHAM"
      }
    ]
  },
  {
    "postal": "L6E9W3",
    "result": []
  },
  {
    "postal": "L6E6P1",
    "result": []
  },
  {
    "postal": "L6E7G2",
    "result": []
  },
  {
    "postal": "L6E4J9",
    "result": []
  },
  {
    "postal": "L6E9E4",
    "result": []
  },
  {
    "postal": "L6E8H0",
    "result": []
  },
  {
    "postal": "L6E4M7",
    "result": []
  },
  {
    "postal": "L6E2G9",
    "result": [
      {
        "electoralDistricts": [
          {
            "election": null,
            "id": 58,
            "name": "Markham—Unionville"
          }
        ],
        "pollDivisionIds": [
          10139672
        ],
        "postalCode": "L6E2G9",
        "streetName": "ARMANDO",
        "streetDirectionId": null,
        "streetTypeId": "DR",
        "placeName": "MARKHAM",
        "streetNameDisplayText": "ARMANDO DR, MARKHAM"
      },
      {
        "electoralDistricts": [
          {
            "election": null,
            "id": 58,
            "name": "Markham—Unionville"
          }
        ],
        "pollDivisionIds": [
          10139672
        ],
        "postalCode": "L6E2G9",
        "streetName": "BARNSTONE",
        "streetDirectionId": null,
        "streetTypeId": "DR",
        "placeName": "MARKHAM",
        "streetNameDisplayText": "BARNSTONE DR, MARKHAM"
      },
      {
        "electoralDistricts": [
          {
            "election": null,
            "id": 58,
            "name": "Markham—Unionville"
          }
        ],
        "pollDivisionIds": [
          10139672
        ],
        "postalCode": "L6E2G9",
        "streetName": "MARIA",
        "streetDirectionId": null,
        "streetTypeId": "RD",
        "placeName": "MARKHAM",
        "streetNameDisplayText": "MARIA RD, MARKHAM"
      }
    ]
  },
  {
    "postal": "L6E8T2",
    "result": []
  },
  {
    "postal": "L6E7G7",
    "result": []
  },
  {
    "postal": "L6E4Z3",
    "result": []
  },
  {
    "postal": "L6E5B3",
    "result": []
  },
  {
    "postal": "L6E1S7",
    "result": [
      {
        "electoralDistricts": [
          {
            "election": null,
            "id": 56,
            "name": "Markham—Stouffville"
          }
        ],
        "pollDivisionIds": [
          10134347
        ],
        "postalCode": "L6E1S7",
        "streetName": "CHASSER",
        "streetDirectionId": null,
        "streetTypeId": "DR",
        "placeName": "MARKHAM",
        "streetNameDisplayText": "CHASSER DR, MARKHAM"
      },
      {
        "electoralDistricts": [
          {
            "election": null,
            "id": 56,
            "name": "Markham—Stouffville"
          }
        ],
        "pollDivisionIds": [
          10134347
        ],
        "postalCode": "L6E1S7",
        "streetName": "DONHAVEN",
        "streetDirectionId": null,
        "streetTypeId": "RD",
        "placeName": "MARKHAM",
        "streetNameDisplayText": "DONHAVEN RD, MARKHAM"
      }
    ]
  },
  {
    "postal": "L6E2N7",
    "result": []
  },
  {
    "postal": "L6E0H8",
    "result": [
      {
        "electoralDistricts": [
          {
            "election": null,
            "id": 58,
            "name": "Markham—Unionville"
          }
        ],
        "pollDivisionIds": [
          10139669
        ],
        "postalCode": "L6E0H8",
        "streetName": "BUR OAK",
        "streetDirectionId": null,
        "streetTypeId": "AVE",
        "placeName": "MARKHAM",
        "streetNameDisplayText": "BUR OAK AVE, MARKHAM"
      }
    ]
  },
  {
    "postal": "L6E7Z4",
    "result": []
  },
  {
    "postal": "L6E7B1",
    "result": []
  },
  {
    "postal": "L6E7P8",
    "result": []
  },
  {
    "postal": "L6E7N0",
    "result": []
  },
  {
    "postal": "L6E3Y5",
    "result": []
  },
  {
    "postal": "L6E6K1",
    "result": []
  },
  {
    "postal": "L6E9X5",
    "result": []
  },
  {
    "postal": "L6E7S5",
    "result": []
  },
  {
    "postal": "L6E0A4",
    "result": [
      {
        "electoralDistricts": [
          {
            "election": null,
            "id": 56,
            "name": "Markham—Stouffville"
          }
        ],
        "pollDivisionIds": [
          10134346
        ],
        "postalCode": "L6E0A4",
        "streetName": "SOLACE",
        "streetDirectionId": null,
        "streetTypeId": "RD",
        "placeName": "MARKHAM",
        "streetNameDisplayText": "SOLACE RD, MARKHAM"
      },
      {
        "electoralDistricts": [
          {
            "election": null,
            "id": 56,
            "name": "Markham—Stouffville"
          }
        ],
        "pollDivisionIds": [
          10134346
        ],
        "postalCode": "L6E0A4",
        "streetName": "STALMASTER",
        "streetDirectionId": null,
        "streetTypeId": "RD",
        "placeName": "MARKHAM",
        "streetNameDisplayText": "STALMASTER RD, MARKHAM"
      }
    ]
  },
  {
    "postal": "L6E4T5",
    "result": []
  },
  {
    "postal": "L6E5K1",
    "result": []
  },
  {
    "postal": "L6E0Z9",
    "result": []
  },
  {
    "postal": "L6E7T2",
    "result": []
  },
  {
    "postal": "L6E1L5",
    "result": [
      {
        "electoralDistricts": [
          {
            "election": null,
            "id": 56,
            "name": "Markham—Stouffville"
          }
        ],
        "pollDivisionIds": [
          10134347
        ],
        "postalCode": "L6E1L5",
        "streetName": "ALFRED PATERSON",
        "streetDirectionId": null,
        "streetTypeId": "DR",
        "placeName": "MARKHAM",
        "streetNameDisplayText": "ALFRED PATERSON DR, MARKHAM"
      },
      {
        "electoralDistricts": [
          {
            "election": null,
            "id": 56,
            "name": "Markham—Stouffville"
          }
        ],
        "pollDivisionIds": [
          10134347
        ],
        "postalCode": "L6E1L5",
        "streetName": "BUR OAK",
        "streetDirectionId": null,
        "streetTypeId": "AVE",
        "placeName": "MARKHAM",
        "streetNameDisplayText": "BUR OAK AVE, MARKHAM"
      }
    ]
  },
  {
    "postal": "L6E3N5",
    "result": []
  },
  {
    "postal": "L6E6H4",
    "result": []
  },
  {
    "postal": "L6E5A5",
    "result": []
  },
  {
    "postal": "L6E3R9",
    "result": []
  },
  {
    "postal": "L6E7L8",
    "result": []
  },
  {
    "postal": "L6E6T6",
    "result": []
  },
  {
    "postal": "L6E7Y7",
    "result": []
  },
  {
    "postal": "L6E3M8",
    "result": []
  },
  {
    "postal": "L6E2E0",
    "result": []
  },
  {
    "postal": "L6E4B5",
    "result": []
  },
  {
    "postal": "L6E1J3",
    "result": [
      {
        "electoralDistricts": [
          {
            "election": null,
            "id": 58,
            "name": "Markham—Unionville"
          }
        ],
        "pollDivisionIds": [
          10139668
        ],
        "postalCode": "L6E1J3",
        "streetName": "BUR OAK",
        "streetDirectionId": null,
        "streetTypeId": "AVE",
        "placeName": "MARKHAM",
        "streetNameDisplayText": "BUR OAK AVE, MARKHAM"
      },
      {
        "electoralDistricts": [
          {
            "election": null,
            "id": 58,
            "name": "Markham—Unionville"
          }
        ],
        "pollDivisionIds": [
          10139668
        ],
        "postalCode": "L6E1J3",
        "streetName": "DAVIDOFF",
        "streetDirectionId": null,
        "streetTypeId": "ST",
        "placeName": "MARKHAM",
        "streetNameDisplayText": "DAVIDOFF ST, MARKHAM"
      },
      {
        "electoralDistricts": [
          {
            "election": null,
            "id": 58,
            "name": "Markham—Unionville"
          }
        ],
        "pollDivisionIds": [
          10139668
        ],
        "postalCode": "L6E1J3",
        "streetName": "FRED MCLAREN",
        "streetDirectionId": null,
        "streetTypeId": "BLVD",
        "placeName": "MARKHAM",
        "streetNameDisplayText": "FRED MCLAREN BLVD, MARKHAM"
      },
      {
        "electoralDistricts": [
          {
            "election": null,
            "id": 58,
            "name": "Markham—Unionville"
          }
        ],
        "pollDivisionIds": [
          10139668
        ],
        "postalCode": "L6E1J3",
        "streetName": "LAMPTON",
        "streetDirectionId": null,
        "streetTypeId": "CRES",
        "placeName": "MARKHAM",
        "streetNameDisplayText": "LAMPTON CRES, MARKHAM"
      },
      {
        "electoralDistricts": [
          {
            "election": null,
            "id": 58,
            "name": "Markham—Unionville"
          }
        ],
        "pollDivisionIds": [
          10139668
        ],
        "postalCode": "L6E1J3",
        "streetName": "MOSCAN",
        "streetDirectionId": null,
        "streetTypeId": "ST",
        "placeName": "MARKHAM",
        "streetNameDisplayText": "MOSCAN ST, MARKHAM"
      }
    ]
  },
  {
    "postal": "L6E5S6",
    "result": []
  },
  {
    "postal": "L6E8P7",
    "result": []
  },
  {
    "postal": "L6E7S7",
    "result": []
  },
  {
    "postal": "L6E4C2",
    "result": []
  },
  {
    "postal": "L6E5Y0",
    "result": []
  },
  {
    "postal": "L6E2V7",
    "result": []
  },
  {
    "postal": "L6E8P5",
    "result": []
  },
  {
    "postal": "L6E5P5",
    "result": []
  },
  {
    "postal": "L6E5Z0",
    "result": []
  },
  {
    "postal": "L6E9B0",
    "result": []
  },
  {
    "postal": "L6E1L0",
    "result": []
  },
  {
    "postal": "L6E0B5",
    "result": [
      {
        "electoralDistricts": [
          {
            "election": null,
            "id": 56,
            "name": "Markham—Stouffville"
          }
        ],
        "pollDivisionIds": [
          10134346
        ],
        "postalCode": "L6E0B5",
        "streetName": "48 1",
        "streetDirectionId": null,
        "streetTypeId": "HWY",
        "placeName": "MARKHAM",
        "streetNameDisplayText": "48 1 HWY, MARKHAM"
      },
      {
        "electoralDistricts": [
          {
            "election": null,
            "id": 56,
            "name": "Markham—Stouffville"
          }
        ],
        "pollDivisionIds": [
          10134346
        ],
        "postalCode": "L6E0B5",
        "streetName": "48 10",
        "streetDirectionId": null,
        "streetTypeId": "HWY",
        "placeName": "MARKHAM",
        "streetNameDisplayText": "48 10 HWY, MARKHAM"
      },
      {
        "electoralDistricts": [
          {
            "election": null,
            "id": 56,
            "name": "Markham—Stouffville"
          }
        ],
        "pollDivisionIds": [
          10134346
        ],
        "postalCode": "L6E0B5",
        "streetName": "48 202",
        "streetDirectionId": null,
        "streetTypeId": "HWY",
        "placeName": "MARKHAM",
        "streetNameDisplayText": "48 202 HWY, MARKHAM"
      },
      {
        "electoralDistricts": [
          {
            "election": null,
            "id": 56,
            "name": "Markham—Stouffville"
          }
        ],
        "pollDivisionIds": [
          10134346
        ],
        "postalCode": "L6E0B5",
        "streetName": "48 203",
        "streetDirectionId": null,
        "streetTypeId": "HWY",
        "placeName": "MARKHAM",
        "streetNameDisplayText": "48 203 HWY, MARKHAM"
      },
      {
        "electoralDistricts": [
          {
            "election": null,
            "id": 56,
            "name": "Markham—Stouffville"
          }
        ],
        "pollDivisionIds": [
          10134346
        ],
        "postalCode": "L6E0B5",
        "streetName": "48 204",
        "streetDirectionId": null,
        "streetTypeId": "HWY",
        "placeName": "MARKHAM",
        "streetNameDisplayText": "48 204 HWY, MARKHAM"
      },
      {
        "electoralDistricts": [
          {
            "election": null,
            "id": 56,
            "name": "Markham—Stouffville"
          }
        ],
        "pollDivisionIds": [
          10134346
        ],
        "postalCode": "L6E0B5",
        "streetName": "48 205",
        "streetDirectionId": null,
        "streetTypeId": "HWY",
        "placeName": "MARKHAM",
        "streetNameDisplayText": "48 205 HWY, MARKHAM"
      },
      {
        "electoralDistricts": [
          {
            "election": null,
            "id": 56,
            "name": "Markham—Stouffville"
          }
        ],
        "pollDivisionIds": [
          10134346
        ],
        "postalCode": "L6E0B5",
        "streetName": "48 206",
        "streetDirectionId": null,
        "streetTypeId": "HWY",
        "placeName": "MARKHAM",
        "streetNameDisplayText": "48 206 HWY, MARKHAM"
      },
      {
        "electoralDistricts": [
          {
            "election": null,
            "id": 56,
            "name": "Markham—Stouffville"
          }
        ],
        "pollDivisionIds": [
          10134346
        ],
        "postalCode": "L6E0B5",
        "streetName": "48 207",
        "streetDirectionId": null,
        "streetTypeId": "HWY",
        "placeName": "MARKHAM",
        "streetNameDisplayText": "48 207 HWY, MARKHAM"
      },
      {
        "electoralDistricts": [
          {
            "election": null,
            "id": 56,
            "name": "Markham—Stouffville"
          }
        ],
        "pollDivisionIds": [
          10134346
        ],
        "postalCode": "L6E0B5",
        "streetName": "48 209",
        "streetDirectionId": null,
        "streetTypeId": "HWY",
        "placeName": "MARKHAM",
        "streetNameDisplayText": "48 209 HWY, MARKHAM"
      },
      {
        "electoralDistricts": [
          {
            "election": null,
            "id": 56,
            "name": "Markham—Stouffville"
          }
        ],
        "pollDivisionIds": [
          10134346
        ],
        "postalCode": "L6E0B5",
        "streetName": "48 210",
        "streetDirectionId": null,
        "streetTypeId": "HWY",
        "placeName": "MARKHAM",
        "streetNameDisplayText": "48 210 HWY, MARKHAM"
      },
      {
        "electoralDistricts": [
          {
            "election": null,
            "id": 56,
            "name": "Markham—Stouffville"
          }
        ],
        "pollDivisionIds": [
          10134346
        ],
        "postalCode": "L6E0B5",
        "streetName": "48 211",
        "streetDirectionId": null,
        "streetTypeId": "HWY",
        "placeName": "MARKHAM",
        "streetNameDisplayText": "48 211 HWY, MARKHAM"
      },
      {
        "electoralDistricts": [
          {
            "election": null,
            "id": 56,
            "name": "Markham—Stouffville"
          }
        ],
        "pollDivisionIds": [
          10134346
        ],
        "postalCode": "L6E0B5",
        "streetName": "48 212",
        "streetDirectionId": null,
        "streetTypeId": "HWY",
        "placeName": "MARKHAM",
        "streetNameDisplayText": "48 212 HWY, MARKHAM"
      },
      {
        "electoralDistricts": [
          {
            "election": null,
            "id": 56,
            "name": "Markham—Stouffville"
          }
        ],
        "pollDivisionIds": [
          10134346
        ],
        "postalCode": "L6E0B5",
        "streetName": "48 4",
        "streetDirectionId": null,
        "streetTypeId": "HWY",
        "placeName": "MARKHAM",
        "streetNameDisplayText": "48 4 HWY, MARKHAM"
      },
      {
        "electoralDistricts": [
          {
            "election": null,
            "id": 56,
            "name": "Markham—Stouffville"
          }
        ],
        "pollDivisionIds": [
          10134346
        ],
        "postalCode": "L6E0B5",
        "streetName": "48 5",
        "streetDirectionId": null,
        "streetTypeId": "HWY",
        "placeName": "MARKHAM",
        "streetNameDisplayText": "48 5 HWY, MARKHAM"
      },
      {
        "electoralDistricts": [
          {
            "election": null,
            "id": 56,
            "name": "Markham—Stouffville"
          }
        ],
        "pollDivisionIds": [
          10134346
        ],
        "postalCode": "L6E0B5",
        "streetName": "48 8",
        "streetDirectionId": null,
        "streetTypeId": "HWY",
        "placeName": "MARKHAM",
        "streetNameDisplayText": "48 8 HWY, MARKHAM"
      },
      {
        "electoralDistricts": [
          {
            "election": null,
            "id": 56,
            "name": "Markham—Stouffville"
          }
        ],
        "pollDivisionIds": [
          10134346
        ],
        "postalCode": "L6E0B5",
        "streetName": "48",
        "streetDirectionId": null,
        "streetTypeId": "HWY",
        "placeName": "MARKHAM",
        "streetNameDisplayText": "48 HWY, MARKHAM"
      },
      {
        "electoralDistricts": [
          {
            "election": null,
            "id": 56,
            "name": "Markham—Stouffville"
          }
        ],
        "pollDivisionIds": [
          10134346
        ],
        "postalCode": "L6E0B5",
        "streetName": "HIGHWAY 48",
        "streetDirectionId": null,
        "streetTypeId": "RD",
        "placeName": "MARKHAM",
        "streetNameDisplayText": "HIGHWAY 48 RD, MARKHAM"
      }
    ]
  },
  {
    "postal": "L6E3L2",
    "result": []
  },
  {
    "postal": "L6E3B7",
    "result": []
  },
  {
    "postal": "L6E8L1",
    "result": []
  },
  {
    "postal": "L6E5M4",
    "result": []
  },
  {
    "postal": "L6E4G9",
    "result": []
  },
  {
    "postal": "L6E0P0",
    "result": []
  },
  {
    "postal": "L6E8G2",
    "result": []
  },
  {
    "postal": "L6E1V9",
    "result": [
      {
        "electoralDistricts": [
          {
            "election": null,
            "id": 58,
            "name": "Markham—Unionville"
          }
        ],
        "pollDivisionIds": [
          10139673
        ],
        "postalCode": "L6E1V9",
        "streetName": "SCOTT BROWN",
        "streetDirectionId": null,
        "streetTypeId": "ST",
        "placeName": "MARKHAM",
        "streetNameDisplayText": "SCOTT BROWN ST, MARKHAM"
      },
      {
        "electoralDistricts": [
          {
            "election": null,
            "id": 58,
            "name": "Markham—Unionville"
          }
        ],
        "pollDivisionIds": [
          10139673
        ],
        "postalCode": "L6E1V9",
        "streetName": "SHOULTZ",
        "streetDirectionId": null,
        "streetTypeId": "ST",
        "placeName": "MARKHAM",
        "streetNameDisplayText": "SHOULTZ ST, MARKHAM"
      },
      {
        "electoralDistricts": [
          {
            "election": null,
            "id": 58,
            "name": "Markham—Unionville"
          }
        ],
        "pollDivisionIds": [
          10139673
        ],
        "postalCode": "L6E1V9",
        "streetName": "SPENCER",
        "streetDirectionId": null,
        "streetTypeId": "AVE",
        "placeName": "MARKHAM",
        "streetNameDisplayText": "SPENCER AVE, MARKHAM"
      }
    ]
  },
  {
    "postal": "L6E8N8",
    "result": []
  },
  {
    "postal": "L6E6S8",
    "result": []
  },
  {
    "postal": "L6E8H2",
    "result": []
  },
  {
    "postal": "L6E5R8",
    "result": []
  },
  {
    "postal": "L6E5L4",
    "result": []
  },
  {
    "postal": "L6E9E1",
    "result": []
  },
  {
    "postal": "L6E1C4",
    "result": [
      {
        "electoralDistricts": [
          {
            "election": null,
            "id": 58,
            "name": "Markham—Unionville"
          }
        ],
        "pollDivisionIds": [
          10139672
        ],
        "postalCode": "L6E1C4",
        "streetName": "COUNTRY RIDGE",
        "streetDirectionId": null,
        "streetTypeId": "DR",
        "placeName": "MARKHAM",
        "streetNameDisplayText": "COUNTRY RIDGE DR, MARKHAM"
      },
      {
        "electoralDistricts": [
          {
            "election": null,
            "id": 58,
            "name": "Markham—Unionville"
          }
        ],
        "pollDivisionIds": [
          10139672
        ],
        "postalCode": "L6E1C4",
        "streetName": "SETTLERS' RIDGE",
        "streetDirectionId": null,
        "streetTypeId": "ST",
        "placeName": "MARKHAM",
        "streetNameDisplayText": "SETTLERS' RIDGE ST, MARKHAM"
      },
      {
        "electoralDistricts": [
          {
            "election": null,
            "id": 58,
            "name": "Markham—Unionville"
          }
        ],
        "pollDivisionIds": [
          10139672
        ],
        "postalCode": "L6E1C4",
        "streetName": "SETTLER'S RIDGE",
        "streetDirectionId": null,
        "streetTypeId": "ST",
        "placeName": "MARKHAM",
        "streetNameDisplayText": "SETTLER'S RIDGE ST, MARKHAM"
      }
    ]
  },
  {
    "postal": "L6E8W5",
    "result": []
  },
  {
    "postal": "L6E1Y4",
    "result": [
      {
        "electoralDistricts": [
          {
            "election": null,
            "id": 56,
            "name": "Markham—Stouffville"
          }
        ],
        "pollDivisionIds": [
          10134346
        ],
        "postalCode": "L6E1Y4",
        "streetName": "APPLEVIEW",
        "streetDirectionId": null,
        "streetTypeId": "RD",
        "placeName": "MARKHAM",
        "streetNameDisplayText": "APPLEVIEW RD, MARKHAM"
      },
      {
        "electoralDistricts": [
          {
            "election": null,
            "id": 56,
            "name": "Markham—Stouffville"
          }
        ],
        "pollDivisionIds": [
          10134346
        ],
        "postalCode": "L6E1Y4",
        "streetName": "SAFFRON",
        "streetDirectionId": null,
        "streetTypeId": "ST",
        "placeName": "MARKHAM",
        "streetNameDisplayText": "SAFFRON ST, MARKHAM"
      }
    ]
  },
  {
    "postal": "L6E1C0",
    "result": []
  },
  {
    "postal": "L6E2J2",
    "result": []
  },
  {
    "postal": "L6E2J0",
    "result": []
  },
  {
    "postal": "L6E7A3",
    "result": []
  },
  {
    "postal": "L6E8M1",
    "result": []
  },
  {
    "postal": "L6E7T9",
    "result": []
  },
  {
    "postal": "L6E6C0",
    "result": []
  },
  {
    "postal": "L6E7X1",
    "result": []
  },
  {
    "postal": "L6E0G1",
    "result": []
  },
  {
    "postal": "L6E4X2",
    "result": []
  },
  {
    "postal": "L6E0N6",
    "result": [
      {
        "electoralDistricts": [
          {
            "election": null,
            "id": 58,
            "name": "Markham—Unionville"
          }
        ],
        "pollDivisionIds": [
          10139669,
          10139673
        ],
        "postalCode": "L6E0N6",
        "streetName": "MARKHAM",
        "streetDirectionId": null,
        "streetTypeId": "RD",
        "placeName": "MARKHAM",
        "streetNameDisplayText": "MARKHAM RD, MARKHAM"
      }
    ]
  },
  {
    "postal": "L6E8E3",
    "result": []
  },
  {
    "postal": "L6E5S8",
    "result": []
  },
  {
    "postal": "L6E0R0",
    "result": []
  },
  {
    "postal": "L6E6J6",
    "result": []
  },
  {
    "postal": "L6E4B4",
    "result": []
  },
  {
    "postal": "L6E7E3",
    "result": []
  },
  {
    "postal": "L6E3N6",
    "result": []
  },
  {
    "postal": "L6E3X6",
    "result": []
  },
  {
    "postal": "L6E8L0",
    "result": []
  },
  {
    "postal": "L6E8N1",
    "result": []
  },
  {
    "postal": "L6E4J0",
    "result": []
  },
  {
    "postal": "L6E0X7",
    "result": []
  },
  {
    "postal": "L6E6S4",
    "result": []
  },
  {
    "postal": "L6E0Z0",
    "result": []
  },
  {
    "postal": "L6E9X8",
    "result": []
  },
  {
    "postal": "L6E3H3",
    "result": []
  },
  {
    "postal": "L6E7S2",
    "result": []
  },
  {
    "postal": "L6E3T3",
    "result": []
  },
  {
    "postal": "L6E9P3",
    "result": []
  },
  {
    "postal": "L6E4H8",
    "result": []
  },
  {
    "postal": "L6E6R1",
    "result": []
  },
  {
    "postal": "L6E1S0",
    "result": []
  },
  {
    "postal": "L6E3W8",
    "result": []
  },
  {
    "postal": "L6E4S3",
    "result": []
  },
  {
    "postal": "L6E1B6",
    "result": [
      {
        "electoralDistricts": [
          {
            "election": null,
            "id": 56,
            "name": "Markham—Stouffville"
          }
        ],
        "pollDivisionIds": [
          10134349
        ],
        "postalCode": "L6E1B6",
        "streetName": "THE BOARDWALK",
        "streetDirectionId": null,
        "streetTypeId": "WAY",
        "placeName": "MARKHAM",
        "streetNameDisplayText": "THE BOARDWALK WAY, MARKHAM"
      }
    ]
  },
  {
    "postal": "L6E8R3",
    "result": []
  },
  {
    "postal": "L6E4V9",
    "result": []
  },
  {
    "postal": "L6E9W4",
    "result": []
  },
  {
    "postal": "L6E3T4",
    "result": []
  },
  {
    "postal": "L6E5C7",
    "result": []
  },
  {
    "postal": "L6E3Y1",
    "result": []
  },
  {
    "postal": "L6E5V0",
    "result": []
  },
  {
    "postal": "L6E8G8",
    "result": []
  },
  {
    "postal": "L6E8B1",
    "result": []
  },
  {
    "postal": "L6E4P5",
    "result": []
  },
  {
    "postal": "L6E7B2",
    "result": []
  },
  {
    "postal": "L6E0R2",
    "result": [
      {
        "electoralDistricts": [
          {
            "election": null,
            "id": 56,
            "name": "Markham—Stouffville"
          }
        ],
        "pollDivisionIds": [
          10134346
        ],
        "postalCode": "L6E0R2",
        "streetName": "DELRAY",
        "streetDirectionId": null,
        "streetTypeId": "DR",
        "placeName": "MARKHAM",
        "streetNameDisplayText": "DELRAY DR, MARKHAM"
      },
      {
        "electoralDistricts": [
          {
            "election": null,
            "id": 56,
            "name": "Markham—Stouffville"
          }
        ],
        "pollDivisionIds": [
          10134346
        ],
        "postalCode": "L6E0R2",
        "streetName": "FIMCO",
        "streetDirectionId": null,
        "streetTypeId": "CRES",
        "placeName": "MARKHAM",
        "streetNameDisplayText": "FIMCO CRES, MARKHAM"
      },
      {
        "electoralDistricts": [
          {
            "election": null,
            "id": 56,
            "name": "Markham—Stouffville"
          }
        ],
        "pollDivisionIds": [
          10134346
        ],
        "postalCode": "L6E0R2",
        "streetName": "GADANI",
        "streetDirectionId": null,
        "streetTypeId": "DR",
        "placeName": "MARKHAM",
        "streetNameDisplayText": "GADANI DR, MARKHAM"
      }
    ]
  },
  {
    "postal": "L6E4M4",
    "result": []
  },
  {
    "postal": "L6E7M4",
    "result": []
  },
  {
    "postal": "L6E9S7",
    "result": []
  },
  {
    "postal": "L6E5Z7",
    "result": []
  },
  {
    "postal": "L6E7J7",
    "result": []
  },
  {
    "postal": "L6E8R8",
    "result": []
  },
  {
    "postal": "L6E9X1",
    "result": []
  },
  {
    "postal": "L6E5M9",
    "result": []
  },
  {
    "postal": "L6E9B4",
    "result": []
  },
  {
    "postal": "L6E0L9",
    "result": [
      {
        "electoralDistricts": [
          {
            "election": null,
            "id": 58,
            "name": "Markham—Unionville"
          }
        ],
        "pollDivisionIds": [
          10139672
        ],
        "postalCode": "L6E0L9",
        "streetName": "BARNSTONE",
        "streetDirectionId": null,
        "streetTypeId": "DR",
        "placeName": "MARKHAM",
        "streetNameDisplayText": "BARNSTONE DR, MARKHAM"
      },
      {
        "electoralDistricts": [
          {
            "election": null,
            "id": 58,
            "name": "Markham—Unionville"
          }
        ],
        "pollDivisionIds": [
          10139672
        ],
        "postalCode": "L6E0L9",
        "streetName": "MARIA",
        "streetDirectionId": null,
        "streetTypeId": "RD",
        "placeName": "MARKHAM",
        "streetNameDisplayText": "MARIA RD, MARKHAM"
      }
    ]
  },
  {
    "postal": "L6E9G4",
    "result": []
  },
  {
    "postal": "L6E1J4",
    "result": [
      {
        "electoralDistricts": [
          {
            "election": null,
            "id": 58,
            "name": "Markham—Unionville"
          }
        ],
        "pollDivisionIds": [
          10139668
        ],
        "postalCode": "L6E1J4",
        "streetName": "LACONDA",
        "streetDirectionId": null,
        "streetTypeId": "ST",
        "placeName": "MARKHAM",
        "streetNameDisplayText": "LACONDA ST, MARKHAM"
      },
      {
        "electoralDistricts": [
          {
            "election": null,
            "id": 58,
            "name": "Markham—Unionville"
          }
        ],
        "pollDivisionIds": [
          10139668
        ],
        "postalCode": "L6E1J4",
        "streetName": "LAMPTON",
        "streetDirectionId": null,
        "streetTypeId": "CRES",
        "placeName": "MARKHAM",
        "streetNameDisplayText": "LAMPTON CRES, MARKHAM"
      }
    ]
  },
  {
    "postal": "L6E0W6",
    "result": []
  }
]
