[
  {
    "postal": "N5W9J6",
    "result": []
  },
  {
    "postal": "N5W9Z5",
    "result": []
  },
  {
    "postal": "N5W7H8",
    "result": []
  },
  {
    "postal": "N5W0P6",
    "result": []
  },
  {
    "postal": "N5W0S7",
    "result": []
  },
  {
    "postal": "N5W8B9",
    "result": []
  },
  {
    "postal": "N5W2A6",
    "result": [
      {
        "electoralDistricts": [
          {
            "election": null,
            "id": 53,
            "name": "London—Fanshawe"
          }
        ],
        "pollDivisionIds": [
          10139564
        ],
        "postalCode": "N5W2A6",
        "streetName": "ROYAL",
        "streetDirectionId": null,
        "streetTypeId": "CRES",
        "placeName": "LONDON",
        "streetNameDisplayText": "ROYAL CRES, LONDON"
      }
    ]
  },
  {
    "postal": "N5W7V2",
    "result": []
  },
  {
    "postal": "N5W9P4",
    "result": []
  },
  {
    "postal": "N5W6G0",
    "result": []
  },
  {
    "postal": "N5W2K0",
    "result": []
  },
  {
    "postal": "N5W7N6",
    "result": []
  },
  {
    "postal": "N5W5R3",
    "result": [
      {
        "electoralDistricts": [
          {
            "election": null,
            "id": 53,
            "name": "London—Fanshawe"
          }
        ],
        "pollDivisionIds": [
          10139561
        ],
        "postalCode": "N5W5R3",
        "streetName": "HIGHBURY",
        "streetDirectionId": "N",
        "streetTypeId": "AVE",
        "placeName": "LONDON",
        "streetNameDisplayText": "HIGHBURY AVE N, LONDON"
      }
    ]
  },
  {
    "postal": "N5W7K0",
    "result": []
  },
  {
    "postal": "N5W3R2",
    "result": [
      {
        "electoralDistricts": [
          {
            "election": null,
            "id": 54,
            "name": "London North Centre"
          }
        ],
        "pollDivisionIds": [
          10135387
        ],
        "postalCode": "N5W3R2",
        "streetName": "LYLE",
        "streetDirectionId": null,
        "streetTypeId": "ST",
        "placeName": "LONDON",
        "streetNameDisplayText": "LYLE ST, LONDON"
      }
    ]
  },
  {
    "postal": "N5W0J1",
    "result": []
  },
  {
    "postal": "N5W0B0",
    "result": []
  },
  {
    "postal": "N5W5Z2",
    "result": [
      {
        "electoralDistricts": [
          {
            "election": null,
            "id": 53,
            "name": "London—Fanshawe"
          }
        ],
        "pollDivisionIds": [
          10139566
        ],
        "postalCode": "N5W5Z2",
        "streetName": "DANIELLE",
        "streetDirectionId": null,
        "streetTypeId": "CRES",
        "placeName": "LONDON",
        "streetNameDisplayText": "DANIELLE CRES, LONDON"
      },
      {
        "electoralDistricts": [
          {
            "election": null,
            "id": 53,
            "name": "London—Fanshawe"
          }
        ],
        "pollDivisionIds": [
          10139566
        ],
        "postalCode": "N5W5Z2",
        "streetName": "DANIELLE",
        "streetDirectionId": null,
        "streetTypeId": "LANE",
        "placeName": "LONDON",
        "streetNameDisplayText": "DANIELLE LANE, LONDON"
      },
      {
        "electoralDistricts": [
          {
            "election": null,
            "id": 53,
            "name": "London—Fanshawe"
          }
        ],
        "pollDivisionIds": [
          10139566
        ],
        "postalCode": "N5W5Z2",
        "streetName": "RIVER RUN",
        "streetDirectionId": null,
        "streetTypeId": "TERR",
        "placeName": "LONDON",
        "streetNameDisplayText": "RIVER RUN TERR, LONDON"
      }
    ]
  },
  {
    "postal": "N5W7P3",
    "result": []
  },
  {
    "postal": "N5W2K3",
    "result": [
      {
        "electoralDistricts": [
          {
            "election": null,
            "id": 53,
            "name": "London—Fanshawe"
          }
        ],
        "pollDivisionIds": [
          10139564
        ],
        "postalCode": "N5W2K3",
        "streetName": "MONTAGUE",
        "streetDirectionId": null,
        "streetTypeId": "PL",
        "placeName": "LONDON",
        "streetNameDisplayText": "MONTAGUE PL, LONDON"
      }
    ]
  },
  {
    "postal": "N5W7Y6",
    "result": []
  },
  {
    "postal": "N5W1L9",
    "result": [
      {
        "electoralDistricts": [
          {
            "election": null,
            "id": 53,
            "name": "London—Fanshawe"
          }
        ],
        "pollDivisionIds": [
          10139567
        ],
        "postalCode": "N5W1L9",
        "streetName": "FAIRMONT",
        "streetDirectionId": null,
        "streetTypeId": "AVE",
        "placeName": "LONDON",
        "streetNameDisplayText": "FAIRMONT AVE, LONDON"
      }
    ]
  },
  {
    "postal": "N5W8T0",
    "result": []
  },
  {
    "postal": "N5W3K8",
    "result": [
      {
        "electoralDistricts": [
          {
            "election": null,
            "id": 54,
            "name": "London North Centre"
          }
        ],
        "pollDivisionIds": [
          10135381,
          10135376
        ],
        "postalCode": "N5W3K8",
        "streetName": "LORNE",
        "streetDirectionId": null,
        "streetTypeId": "AVE",
        "placeName": "LONDON",
        "streetNameDisplayText": "LORNE AVE, LONDON"
      },
      {
        "electoralDistricts": [
          {
            "election": null,
            "id": 54,
            "name": "London North Centre"
          }
        ],
        "pollDivisionIds": [
          10135381
        ],
        "postalCode": "N5W3K8",
        "streetName": "LORNE",
        "streetDirectionId": null,
        "streetTypeId": "AVE",
        "placeName": "LONDON,ON",
        "streetNameDisplayText": "LORNE AVE, LONDON,ON"
      }
    ]
  },
  {
    "postal": "N5W5W9",
    "result": [
      {
        "electoralDistricts": [
          {
            "election": null,
            "id": 53,
            "name": "London—Fanshawe"
          }
        ],
        "pollDivisionIds": [
          10139566
        ],
        "postalCode": "N5W5W9",
        "streetName": "HAMILTON",
        "streetDirectionId": null,
        "streetTypeId": "RD",
        "placeName": "LONDON",
        "streetNameDisplayText": "HAMILTON RD, LONDON"
      }
    ]
  },
  {
    "postal": "N5W6T9",
    "result": []
  },
  {
    "postal": "N5W4H1",
    "result": [
      {
        "electoralDistricts": [
          {
            "election": null,
            "id": 54,
            "name": "London North Centre"
          }
        ],
        "pollDivisionIds": [
          10135382
        ],
        "postalCode": "N5W4H1",
        "streetName": "FELLNER",
        "streetDirectionId": null,
        "streetTypeId": "AVE",
        "placeName": "LONDON",
        "streetNameDisplayText": "FELLNER AVE, LONDON"
      }
    ]
  },
  {
    "postal": "N5W7A2",
    "result": []
  },
  {
    "postal": "N5W5G0",
    "result": []
  },
  {
    "postal": "N5W8V5",
    "result": []
  },
  {
    "postal": "N5W2Y8",
    "result": [
      {
        "electoralDistricts": [
          {
            "election": null,
            "id": 54,
            "name": "London North Centre"
          }
        ],
        "pollDivisionIds": [
          10135379
        ],
        "postalCode": "N5W2Y8",
        "streetName": "ADELAIDE",
        "streetDirectionId": null,
        "streetTypeId": "ST",
        "placeName": "LONDON",
        "streetNameDisplayText": "ADELAIDE ST, LONDON"
      },
      {
        "electoralDistricts": [
          {
            "election": null,
            "id": 54,
            "name": "London North Centre"
          }
        ],
        "pollDivisionIds": [
          10135387
        ],
        "postalCode": "N5W2Y8",
        "streetName": "DUNDAS",
        "streetDirectionId": null,
        "streetTypeId": "ST",
        "placeName": "LONDON",
        "streetNameDisplayText": "DUNDAS ST, LONDON"
      }
    ]
  },
  {
    "postal": "N5W2B6",
    "result": [
      {
        "electoralDistricts": [
          {
            "election": null,
            "id": 54,
            "name": "London North Centre"
          }
        ],
        "pollDivisionIds": [
          10135382
        ],
        "postalCode": "N5W2B6",
        "streetName": "BRYDGES",
        "streetDirectionId": null,
        "streetTypeId": "ST",
        "placeName": "LONDON",
        "streetNameDisplayText": "BRYDGES ST, LONDON"
      }
    ]
  },
  {
    "postal": "N5W4W8",
    "result": [
      {
        "electoralDistricts": [
          {
            "election": null,
            "id": 53,
            "name": "London—Fanshawe"
          }
        ],
        "pollDivisionIds": [
          10139564
        ],
        "postalCode": "N5W4W8",
        "streetName": "DAWN",
        "streetDirectionId": null,
        "streetTypeId": "DR",
        "placeName": "LONDON",
        "streetNameDisplayText": "DAWN DR, LONDON"
      }
    ]
  },
  {
    "postal": "N5W8H7",
    "result": []
  },
  {
    "postal": "N5W5P1",
    "result": [
      {
        "electoralDistricts": [
          {
            "election": null,
            "id": 53,
            "name": "London—Fanshawe"
          }
        ],
        "pollDivisionIds": [
          10139567
        ],
        "postalCode": "N5W5P1",
        "streetName": "NORLAN",
        "streetDirectionId": null,
        "streetTypeId": "AVE",
        "placeName": "LONDON",
        "streetNameDisplayText": "NORLAN AVE, LONDON"
      }
    ]
  },
  {
    "postal": "N5W2B8",
    "result": [
      {
        "electoralDistricts": [
          {
            "election": null,
            "id": 54,
            "name": "London North Centre"
          }
        ],
        "pollDivisionIds": [
          10135382
        ],
        "postalCode": "N5W2B8",
        "streetName": "BRYDGES",
        "streetDirectionId": null,
        "streetTypeId": "ST",
        "placeName": "LONDON",
        "streetNameDisplayText": "BRYDGES ST, LONDON"
      }
    ]
  },
  {
    "postal": "N5W0P2",
    "result": []
  },
  {
    "postal": "N5W9M1",
    "result": []
  },
  {
    "postal": "N5W3G0",
    "result": []
  },
  {
    "postal": "N5W9Z2",
    "result": []
  },
  {
    "postal": "N5W2A0",
    "result": []
  },
  {
    "postal": "N5W6Y0",
    "result": []
  },
  {
    "postal": "N5W2Z8",
    "result": [
      {
        "electoralDistricts": [
          {
            "election": null,
            "id": 54,
            "name": "London North Centre"
          }
        ],
        "pollDivisionIds": [
          10135381
        ],
        "postalCode": "N5W2Z8",
        "streetName": "DUNDAS",
        "streetDirectionId": null,
        "streetTypeId": "ST",
        "placeName": "LONDON",
        "streetNameDisplayText": "DUNDAS ST, LONDON"
      }
    ]
  },
  {
    "postal": "N5W7Y3",
    "result": []
  },
  {
    "postal": "N5W6Z5",
    "result": []
  },
  {
    "postal": "N5W6E0",
    "result": []
  },
  {
    "postal": "N5W9B7",
    "result": []
  },
  {
    "postal": "N5W9S5",
    "result": []
  },
  {
    "postal": "N5W3X3",
    "result": [
      {
        "electoralDistricts": [
          {
            "election": null,
            "id": 54,
            "name": "London North Centre"
          }
        ],
        "pollDivisionIds": [
          10135381
        ],
        "postalCode": "N5W3X3",
        "streetName": "ONTARIO",
        "streetDirectionId": null,
        "streetTypeId": "ST",
        "placeName": "LONDON",
        "streetNameDisplayText": "ONTARIO ST, LONDON"
      }
    ]
  },
  {
    "postal": "N5W7R5",
    "result": []
  },
  {
    "postal": "N5W2X3",
    "result": [
      {
        "electoralDistricts": [
          {
            "election": null,
            "id": 54,
            "name": "London North Centre"
          }
        ],
        "pollDivisionIds": [
          10135387
        ],
        "postalCode": "N5W2X3",
        "streetName": "KING",
        "streetDirectionId": null,
        "streetTypeId": "ST",
        "placeName": "LONDON",
        "streetNameDisplayText": "KING ST, LONDON"
      }
    ]
  },
  {
    "postal": "N5W8Z9",
    "result": []
  },
  {
    "postal": "N5W0N4",
    "result": []
  },
  {
    "postal": "N5W1K1",
    "result": [
      {
        "electoralDistricts": [
          {
            "election": null,
            "id": 53,
            "name": "London—Fanshawe"
          }
        ],
        "pollDivisionIds": [
          10139567
        ],
        "postalCode": "N5W1K1",
        "streetName": "JASPER",
        "streetDirectionId": null,
        "streetTypeId": "CRES",
        "placeName": "LONDON",
        "streetNameDisplayText": "JASPER CRES, LONDON"
      }
    ]
  },
  {
    "postal": "N5W1S3",
    "result": [
      {
        "electoralDistricts": [
          {
            "election": null,
            "id": 53,
            "name": "London—Fanshawe"
          }
        ],
        "pollDivisionIds": [
          10139567
        ],
        "postalCode": "N5W1S3",
        "streetName": "MONTEBELLO",
        "streetDirectionId": null,
        "streetTypeId": "DR",
        "placeName": "LONDON",
        "streetNameDisplayText": "MONTEBELLO DR, LONDON"
      }
    ]
  },
  {
    "postal": "N5W6M4",
    "result": []
  },
  {
    "postal": "N5W9A9",
    "result": []
  },
  {
    "postal": "N5W9Z9",
    "result": []
  },
  {
    "postal": "N5W6T4",
    "result": []
  },
  {
    "postal": "N5W0B2",
    "result": []
  },
  {
    "postal": "N5W2L9",
    "result": [
      {
        "electoralDistricts": [
          {
            "election": null,
            "id": 54,
            "name": "London North Centre"
          }
        ],
        "pollDivisionIds": [
          10135382
        ],
        "postalCode": "N5W2L9",
        "streetName": "FRANCES",
        "streetDirectionId": null,
        "streetTypeId": "ST",
        "placeName": "LONDON",
        "streetNameDisplayText": "FRANCES ST, LONDON"
      }
    ]
  },
  {
    "postal": "N5W8K9",
    "result": []
  },
  {
    "postal": "N5W2H9",
    "result": [
      {
        "electoralDistricts": [
          {
            "election": null,
            "id": 53,
            "name": "London—Fanshawe"
          }
        ],
        "pollDivisionIds": [
          10139564
        ],
        "postalCode": "N5W2H9",
        "streetName": "GRAYDON",
        "streetDirectionId": null,
        "streetTypeId": "ST",
        "placeName": "LONDON",
        "streetNameDisplayText": "GRAYDON ST, LONDON"
      }
    ]
  },
  {
    "postal": "N5W3Z6",
    "result": [
      {
        "electoralDistricts": [
          {
            "election": null,
            "id": 54,
            "name": "London North Centre"
          }
        ],
        "pollDivisionIds": [
          10135382
        ],
        "postalCode": "N5W3Z6",
        "streetName": "EGERTON",
        "streetDirectionId": null,
        "streetTypeId": "ST",
        "placeName": "LONDON",
        "streetNameDisplayText": "EGERTON ST, LONDON"
      }
    ]
  },
  {
    "postal": "N5W3B0",
    "result": []
  },
  {
    "postal": "N5W2H8",
    "result": [
      {
        "electoralDistricts": [
          {
            "election": null,
            "id": 53,
            "name": "London—Fanshawe"
          }
        ],
        "pollDivisionIds": [
          10139564
        ],
        "postalCode": "N5W2H8",
        "streetName": "GRAYDON",
        "streetDirectionId": null,
        "streetTypeId": "ST",
        "placeName": "LONDON",
        "streetNameDisplayText": "GRAYDON ST, LONDON"
      }
    ]
  },
  {
    "postal": "N5W3X2",
    "result": [
      {
        "electoralDistricts": [
          {
            "election": null,
            "id": 54,
            "name": "London North Centre"
          }
        ],
        "pollDivisionIds": [
          10135381
        ],
        "postalCode": "N5W3X2",
        "streetName": "ONTARIO",
        "streetDirectionId": null,
        "streetTypeId": "ST",
        "placeName": "LONDON",
        "streetNameDisplayText": "ONTARIO ST, LONDON"
      }
    ]
  },
  {
    "postal": "N5W2E9",
    "result": [
      {
        "electoralDistricts": [
          {
            "election": null,
            "id": 54,
            "name": "London North Centre"
          }
        ],
        "pollDivisionIds": [
          10135382
        ],
        "postalCode": "N5W2E9",
        "streetName": "LANGMUIR",
        "streetDirectionId": null,
        "streetTypeId": "AVE",
        "placeName": "LONDON",
        "streetNameDisplayText": "LANGMUIR AVE, LONDON"
      }
    ]
  },
  {
    "postal": "N5W9P6",
    "result": []
  },
  {
    "postal": "N5W9E2",
    "result": []
  },
  {
    "postal": "N5W9H2",
    "result": []
  },
  {
    "postal": "N5W1S8",
    "result": [
      {
        "electoralDistricts": [
          {
            "election": null,
            "id": 53,
            "name": "London—Fanshawe"
          }
        ],
        "pollDivisionIds": [
          10139567
        ],
        "postalCode": "N5W1S8",
        "streetName": "ELDORADO",
        "streetDirectionId": null,
        "streetTypeId": "AVE",
        "placeName": "LONDON",
        "streetNameDisplayText": "ELDORADO AVE, LONDON"
      }
    ]
  },
  {
    "postal": "N5W3M6",
    "result": [
      {
        "electoralDistricts": [
          {
            "election": null,
            "id": 54,
            "name": "London North Centre"
          }
        ],
        "pollDivisionIds": [
          10135344,
          10135381
        ],
        "postalCode": "N5W3M6",
        "streetName": "PRINCESS",
        "streetDirectionId": null,
        "streetTypeId": "AVE",
        "placeName": "LONDON",
        "streetNameDisplayText": "PRINCESS AVE, LONDON"
      }
    ]
  },
  {
    "postal": "N5W6Z8",
    "result": []
  },
  {
    "postal": "N5W4J2",
    "result": [
      {
        "electoralDistricts": [
          {
            "election": null,
            "id": 54,
            "name": "London North Centre"
          }
        ],
        "pollDivisionIds": [
          10135382
        ],
        "postalCode": "N5W4J2",
        "streetName": "OAKLAND",
        "streetDirectionId": null,
        "streetTypeId": "AVE",
        "placeName": "LONDON",
        "streetNameDisplayText": "OAKLAND AVE, LONDON"
      }
    ]
  },
  {
    "postal": "N5W9Y1",
    "result": []
  },
  {
    "postal": "N5W8V6",
    "result": []
  },
  {
    "postal": "N5W6B2",
    "result": []
  },
  {
    "postal": "N5W1P8",
    "result": [
      {
        "electoralDistricts": [
          {
            "election": null,
            "id": 53,
            "name": "London—Fanshawe"
          }
        ],
        "pollDivisionIds": [
          10139567
        ],
        "postalCode": "N5W1P8",
        "streetName": "STRATHCONA",
        "streetDirectionId": null,
        "streetTypeId": "DR",
        "placeName": "LONDON",
        "streetNameDisplayText": "STRATHCONA DR, LONDON"
      }
    ]
  },
  {
    "postal": "N5W0V8",
    "result": []
  },
  {
    "postal": "N5W4Y0",
    "result": []
  },
  {
    "postal": "N5W2T4",
    "result": [
      {
        "electoralDistricts": [
          {
            "election": null,
            "id": 54,
            "name": "London North Centre"
          }
        ],
        "pollDivisionIds": [
          10135382
        ],
        "postalCode": "N5W2T4",
        "streetName": "YORK",
        "streetDirectionId": null,
        "streetTypeId": "ST",
        "placeName": "LONDON",
        "streetNameDisplayText": "YORK ST, LONDON"
      },
      {
        "electoralDistricts": [
          {
            "election": null,
            "id": 54,
            "name": "London North Centre"
          }
        ],
        "pollDivisionIds": [
          10135382
        ],
        "postalCode": "N5W2T4",
        "streetName": "YORK",
        "streetDirectionId": null,
        "streetTypeId": "ST",
        "placeName": "LONDON,ON",
        "streetNameDisplayText": "YORK ST, LONDON,ON"
      }
    ]
  },
  {
    "postal": "N5W2S3",
    "result": [
      {
        "electoralDistricts": [
          {
            "election": null,
            "id": 53,
            "name": "London—Fanshawe"
          }
        ],
        "pollDivisionIds": [
          10139562
        ],
        "postalCode": "N5W2S3",
        "streetName": "DUMONT",
        "streetDirectionId": null,
        "streetTypeId": "ST",
        "placeName": "LONDON",
        "streetNameDisplayText": "DUMONT ST, LONDON"
      }
    ]
  },
  {
    "postal": "N5W0K0",
    "result": []
  },
  {
    "postal": "N5W5N1",
    "result": [
      {
        "electoralDistricts": [
          {
            "election": null,
            "id": 54,
            "name": "London North Centre"
          }
        ],
        "pollDivisionIds": [
          10135382
        ],
        "postalCode": "N5W5N1",
        "streetName": "MCCORMICK",
        "streetDirectionId": null,
        "streetTypeId": "BLVD",
        "placeName": "LONDON",
        "streetNameDisplayText": "MCCORMICK BLVD, LONDON"
      }
    ]
  },
  {
    "postal": "N5W7T0",
    "result": []
  },
  {
    "postal": "N5W9N2",
    "result": []
  },
  {
    "postal": "N5W5L1",
    "result": [
      {
        "electoralDistricts": [
          {
            "election": null,
            "id": 54,
            "name": "London North Centre"
          }
        ],
        "pollDivisionIds": [
          10135381
        ],
        "postalCode": "N5W5L1",
        "streetName": "ELIAS",
        "streetDirectionId": null,
        "streetTypeId": "ST",
        "placeName": "LONDON",
        "streetNameDisplayText": "ELIAS ST, LONDON"
      }
    ]
  },
  {
    "postal": "N5W7G5",
    "result": []
  },
  {
    "postal": "N5W6K2",
    "result": []
  },
  {
    "postal": "N5W6P9",
    "result": []
  },
  {
    "postal": "N5W0E6",
    "result": []
  },
  {
    "postal": "N5W8R9",
    "result": []
  },
  {
    "postal": "N5W3G9",
    "result": [
      {
        "electoralDistricts": [
          {
            "election": null,
            "id": 53,
            "name": "London—Fanshawe"
          }
        ],
        "pollDivisionIds": [
          10139562
        ],
        "postalCode": "N5W3G9",
        "streetName": "AVALON",
        "streetDirectionId": null,
        "streetTypeId": "ST",
        "placeName": "LONDON",
        "streetNameDisplayText": "AVALON ST, LONDON"
      }
    ]
  },
  {
    "postal": "N5W0V7",
    "result": []
  },
  {
    "postal": "N5W2Z1",
    "result": [
      {
        "electoralDistricts": [
          {
            "election": null,
            "id": 54,
            "name": "London North Centre"
          }
        ],
        "pollDivisionIds": [
          10135385,
          10135389,
          10135387
        ],
        "postalCode": "N5W2Z1",
        "streetName": "DUNDAS",
        "streetDirectionId": null,
        "streetTypeId": "ST",
        "placeName": "LONDON",
        "streetNameDisplayText": "DUNDAS ST, LONDON"
      }
    ]
  },
  {
    "postal": "N5W7N1",
    "result": []
  },
  {
    "postal": "N5W3C6",
    "result": [
      {
        "electoralDistricts": [
          {
            "election": null,
            "id": 53,
            "name": "London—Fanshawe"
          }
        ],
        "pollDivisionIds": [
          10139562
        ],
        "postalCode": "N5W3C6",
        "streetName": "DUNDAS",
        "streetDirectionId": null,
        "streetTypeId": "ST",
        "placeName": "LONDON",
        "streetNameDisplayText": "DUNDAS ST, LONDON"
      }
    ]
  },
  {
    "postal": "N5W4M1",
    "result": [
      {
        "electoralDistricts": [
          {
            "election": null,
            "id": 53,
            "name": "London—Fanshawe"
          }
        ],
        "pollDivisionIds": [
          10139564
        ],
        "postalCode": "N5W4M1",
        "streetName": "CORNISH",
        "streetDirectionId": null,
        "streetTypeId": "ST",
        "placeName": "LONDON",
        "streetNameDisplayText": "CORNISH ST, LONDON"
      }
    ]
  },
  {
    "postal": "N5W9K2",
    "result": []
  },
  {
    "postal": "N5W9S6",
    "result": []
  },
  {
    "postal": "N5W4X1",
    "result": [
      {
        "electoralDistricts": [
          {
            "election": null,
            "id": 53,
            "name": "London—Fanshawe"
          }
        ],
        "pollDivisionIds": [
          10139564
        ],
        "postalCode": "N5W4X1",
        "streetName": "DAWN",
        "streetDirectionId": null,
        "streetTypeId": "DR",
        "placeName": "LONDON",
        "streetNameDisplayText": "DAWN DR, LONDON"
      }
    ]
  },
  {
    "postal": "N5W8W2",
    "result": []
  },
  {
    "postal": "N5W7N2",
    "result": []
  },
  {
    "postal": "N5W8S3",
    "result": []
  },
  {
    "postal": "N5W4V0",
    "result": []
  },
  {
    "postal": "N5W6W4",
    "result": []
  },
  {
    "postal": "N5W5M1",
    "result": []
  },
  {
    "postal": "N5W0S4",
    "result": []
  },
  {
    "postal": "N5W5X6",
    "result": [
      {
        "electoralDistricts": [
          {
            "election": null,
            "id": 53,
            "name": "London—Fanshawe"
          }
        ],
        "pollDivisionIds": [
          10139566
        ],
        "postalCode": "N5W5X6",
        "streetName": "CLASSIC",
        "streetDirectionId": null,
        "streetTypeId": "DR",
        "placeName": "LONDON",
        "streetNameDisplayText": "CLASSIC DR, LONDON"
      }
    ]
  },
  {
    "postal": "N5W8L5",
    "result": []
  },
  {
    "postal": "N5W5M8",
    "result": [
      {
        "electoralDistricts": [
          {
            "election": null,
            "id": 53,
            "name": "London—Fanshawe"
          }
        ],
        "pollDivisionIds": [
          10139562
        ],
        "postalCode": "N5W5M8",
        "streetName": "WAVELL",
        "streetDirectionId": null,
        "streetTypeId": "ST",
        "placeName": "LONDON",
        "streetNameDisplayText": "WAVELL ST, LONDON"
      }
    ]
  },
  {
    "postal": "N5W2G3",
    "result": [
      {
        "electoralDistricts": [
          {
            "election": null,
            "id": 54,
            "name": "London North Centre"
          }
        ],
        "pollDivisionIds": [
          10135382
        ],
        "postalCode": "N5W2G3",
        "streetName": "LANGMUIR",
        "streetDirectionId": null,
        "streetTypeId": "AVE",
        "placeName": "LONDON",
        "streetNameDisplayText": "LANGMUIR AVE, LONDON"
      }
    ]
  },
  {
    "postal": "N5W8E4",
    "result": []
  },
  {
    "postal": "N5W7S9",
    "result": []
  },
  {
    "postal": "N5W1K3",
    "result": []
  },
  {
    "postal": "N5W4E1",
    "result": [
      {
        "electoralDistricts": [
          {
            "election": null,
            "id": 54,
            "name": "London North Centre"
          }
        ],
        "pollDivisionIds": [
          10135382
        ],
        "postalCode": "N5W4E1",
        "streetName": "ASHLAND",
        "streetDirectionId": null,
        "streetTypeId": "AVE",
        "placeName": "LONDON",
        "streetNameDisplayText": "ASHLAND AVE, LONDON"
      }
    ]
  },
  {
    "postal": "N5W4R2",
    "result": [
      {
        "electoralDistricts": [
          {
            "election": null,
            "id": 53,
            "name": "London—Fanshawe"
          }
        ],
        "pollDivisionIds": [
          10139562
        ],
        "postalCode": "N5W4R2",
        "streetName": "SASKATOON",
        "streetDirectionId": null,
        "streetTypeId": "ST",
        "placeName": "LONDON",
        "streetNameDisplayText": "SASKATOON ST, LONDON"
      }
    ]
  },
  {
    "postal": "N5W6T0",
    "result": []
  },
  {
    "postal": "N5W3K5",
    "result": [
      {
        "electoralDistricts": [
          {
            "election": null,
            "id": 54,
            "name": "London North Centre"
          }
        ],
        "pollDivisionIds": [
          10135376
        ],
        "postalCode": "N5W3K5",
        "streetName": "LORNE",
        "streetDirectionId": null,
        "streetTypeId": "AVE",
        "placeName": "LONDON",
        "streetNameDisplayText": "LORNE AVE, LONDON"
      }
    ]
  },
  {
    "postal": "N5W3S3",
    "result": [
      {
        "electoralDistricts": [
          {
            "election": null,
            "id": 54,
            "name": "London North Centre"
          }
        ],
        "pollDivisionIds": [
          10135387,
          10135376
        ],
        "postalCode": "N5W3S3",
        "streetName": "ELIZABETH",
        "streetDirectionId": null,
        "streetTypeId": "ST",
        "placeName": "LONDON",
        "streetNameDisplayText": "ELIZABETH ST, LONDON"
      }
    ]
  },
  {
    "postal": "N5W3L4",
    "result": [
      {
        "electoralDistricts": [
          {
            "election": null,
            "id": 54,
            "name": "London North Centre"
          }
        ],
        "pollDivisionIds": [
          10135381
        ],
        "postalCode": "N5W3L4",
        "streetName": "LORNE",
        "streetDirectionId": null,
        "streetTypeId": "AVE",
        "placeName": "LONDON",
        "streetNameDisplayText": "LORNE AVE, LONDON"
      }
    ]
  },
  {
    "postal": "N5W9Y2",
    "result": []
  },
  {
    "postal": "N5W1E0",
    "result": []
  },
  {
    "postal": "N5W9A4",
    "result": []
  },
  {
    "postal": "N5W1L3",
    "result": [
      {
        "electoralDistricts": [
          {
            "election": null,
            "id": 53,
            "name": "London—Fanshawe"
          }
        ],
        "pollDivisionIds": [
          10139567
        ],
        "postalCode": "N5W1L3",
        "streetName": "TWEEDSMUIR",
        "streetDirectionId": null,
        "streetTypeId": "AVE",
        "placeName": "LONDON",
        "streetNameDisplayText": "TWEEDSMUIR AVE, LONDON"
      }
    ]
  },
  {
    "postal": "N5W6N1",
    "result": []
  },
  {
    "postal": "N5W6G7",
    "result": [
      {
        "electoralDistricts": [
          {
            "election": null,
            "id": 53,
            "name": "London—Fanshawe"
          }
        ],
        "pollDivisionIds": [
          10139566
        ],
        "postalCode": "N5W6G7",
        "streetName": "SCANLAN",
        "streetDirectionId": null,
        "streetTypeId": "ST",
        "placeName": "LONDON",
        "streetNameDisplayText": "SCANLAN ST, LONDON"
      }
    ]
  },
  {
    "postal": "N5W7W1",
    "result": []
  },
  {
    "postal": "N5W4M6",
    "result": [
      {
        "electoralDistricts": [
          {
            "election": null,
            "id": 53,
            "name": "London—Fanshawe"
          }
        ],
        "pollDivisionIds": [
          10139564
        ],
        "postalCode": "N5W4M6",
        "streetName": "CRONYN",
        "streetDirectionId": null,
        "streetTypeId": "CRES",
        "placeName": "LONDON",
        "streetNameDisplayText": "CRONYN CRES, LONDON"
      }
    ]
  },
  {
    "postal": "N5W1K0",
    "result": []
  },
  {
    "postal": "N5W3E2",
    "result": [
      {
        "electoralDistricts": [
          {
            "election": null,
            "id": 53,
            "name": "London—Fanshawe"
          }
        ],
        "pollDivisionIds": [
          10139562
        ],
        "postalCode": "N5W3E2",
        "streetName": "DUNDAS",
        "streetDirectionId": null,
        "streetTypeId": "ST",
        "placeName": "LONDON",
        "streetNameDisplayText": "DUNDAS ST, LONDON"
      }
    ]
  },
  {
    "postal": "N5W5H4",
    "result": []
  },
  {
    "postal": "N5W1K7",
    "result": [
      {
        "electoralDistricts": [
          {
            "election": null,
            "id": 53,
            "name": "London—Fanshawe"
          }
        ],
        "pollDivisionIds": [
          10139567
        ],
        "postalCode": "N5W1K7",
        "streetName": "TWEEDSMUIR",
        "streetDirectionId": null,
        "streetTypeId": "AVE",
        "placeName": "LONDON",
        "streetNameDisplayText": "TWEEDSMUIR AVE, LONDON"
      }
    ]
  },
  {
    "postal": "N5W0H0",
    "result": []
  },
  {
    "postal": "N5W0J3",
    "result": []
  },
  {
    "postal": "N5W1X6",
    "result": [
      {
        "electoralDistricts": [
          {
            "election": null,
            "id": 53,
            "name": "London—Fanshawe"
          }
        ],
        "pollDivisionIds": [
          10139564
        ],
        "postalCode": "N5W1X6",
        "streetName": "TRAFALGAR",
        "streetDirectionId": null,
        "streetTypeId": "ST",
        "placeName": "LONDON",
        "streetNameDisplayText": "TRAFALGAR ST, LONDON"
      }
    ]
  },
  {
    "postal": "N5W2Z6",
    "result": [
      {
        "electoralDistricts": [
          {
            "election": null,
            "id": 54,
            "name": "London North Centre"
          }
        ],
        "pollDivisionIds": [
          10135387
        ],
        "postalCode": "N5W2Z6",
        "streetName": "DUNDAS",
        "streetDirectionId": null,
        "streetTypeId": "ST",
        "placeName": "LONDON",
        "streetNameDisplayText": "DUNDAS ST, LONDON"
      }
    ]
  },
  {
    "postal": "N5W4R9",
    "result": [
      {
        "electoralDistricts": [
          {
            "election": null,
            "id": 53,
            "name": "London—Fanshawe"
          }
        ],
        "pollDivisionIds": [
          10139564
        ],
        "postalCode": "N5W4R9",
        "streetName": "VANCOUVER",
        "streetDirectionId": null,
        "streetTypeId": "ST",
        "placeName": "LONDON",
        "streetNameDisplayText": "VANCOUVER ST, LONDON"
      }
    ]
  },
  {
    "postal": "N5W0W8",
    "result": []
  },
  {
    "postal": "N5W1L4",
    "result": [
      {
        "electoralDistricts": [
          {
            "election": null,
            "id": 53,
            "name": "London—Fanshawe"
          }
        ],
        "pollDivisionIds": [
          10139567
        ],
        "postalCode": "N5W1L4",
        "streetName": "TWEEDSMUIR",
        "streetDirectionId": null,
        "streetTypeId": "AVE",
        "placeName": "LONDON",
        "streetNameDisplayText": "TWEEDSMUIR AVE, LONDON"
      }
    ]
  },
  {
    "postal": "N5W0C8",
    "result": []
  },
  {
    "postal": "N5W9X7",
    "result": []
  },
  {
    "postal": "N5W4T1",
    "result": [
      {
        "electoralDistricts": [
          {
            "election": null,
            "id": 53,
            "name": "London—Fanshawe"
          }
        ],
        "pollDivisionIds": [
          10139562
        ],
        "postalCode": "N5W4T1",
        "streetName": "SECOND",
        "streetDirectionId": null,
        "streetTypeId": "ST",
        "placeName": "LONDON",
        "streetNameDisplayText": "SECOND ST, LONDON"
      }
    ]
  },
  {
    "postal": "N5W0M0",
    "result": []
  },
  {
    "postal": "N5W6A2",
    "result": [
      {
        "electoralDistricts": [
          {
            "election": null,
            "id": 53,
            "name": "London—Fanshawe"
          }
        ],
        "pollDivisionIds": [
          10139562
        ],
        "postalCode": "N5W6A2",
        "streetName": "SASKATOON",
        "streetDirectionId": null,
        "streetTypeId": "ST",
        "placeName": "LONDON",
        "streetNameDisplayText": "SASKATOON ST, LONDON"
      }
    ]
  },
  {
    "postal": "N5W9S8",
    "result": []
  },
  {
    "postal": "N5W9T4",
    "result": []
  },
  {
    "postal": "N5W9Y4",
    "result": []
  },
  {
    "postal": "N5W6G5",
    "result": [
      {
        "electoralDistricts": [
          {
            "election": null,
            "id": 53,
            "name": "London—Fanshawe"
          }
        ],
        "pollDivisionIds": [
          10139566
        ],
        "postalCode": "N5W6G5",
        "streetName": "LOGGERS",
        "streetDirectionId": null,
        "streetTypeId": "GROVE",
        "placeName": "LONDON",
        "streetNameDisplayText": "LOGGERS GROVE, LONDON"
      }
    ]
  },
  {
    "postal": "N5W6H9",
    "result": []
  },
  {
    "postal": "N5W2P3",
    "result": [
      {
        "electoralDistricts": [
          {
            "election": null,
            "id": 53,
            "name": "London—Fanshawe"
          }
        ],
        "pollDivisionIds": [
          10139562
        ],
        "postalCode": "N5W2P3",
        "streetName": "HAIG",
        "streetDirectionId": null,
        "streetTypeId": "ST",
        "placeName": "LONDON",
        "streetNameDisplayText": "HAIG ST, LONDON"
      }
    ]
  },
  {
    "postal": "N5W1T6",
    "result": [
      {
        "electoralDistricts": [
          {
            "election": null,
            "id": 53,
            "name": "London—Fanshawe"
          }
        ],
        "pollDivisionIds": [
          10139567
        ],
        "postalCode": "N5W1T6",
        "streetName": "COLDSTREAM",
        "streetDirectionId": null,
        "streetTypeId": "CRES",
        "placeName": "LONDON",
        "streetNameDisplayText": "COLDSTREAM CRES, LONDON"
      }
    ]
  },
  {
    "postal": "N5W4P6",
    "result": [
      {
        "electoralDistricts": [
          {
            "election": null,
            "id": 53,
            "name": "London—Fanshawe"
          }
        ],
        "pollDivisionIds": [
          10139561
        ],
        "postalCode": "N5W4P6",
        "streetName": "BURDICK",
        "streetDirectionId": null,
        "streetTypeId": "PL",
        "placeName": "LONDON",
        "streetNameDisplayText": "BURDICK PL, LONDON"
      }
    ]
  },
  {
    "postal": "N5W3K1",
    "result": [
      {
        "electoralDistricts": [
          {
            "election": null,
            "id": 54,
            "name": "London North Centre"
          }
        ],
        "pollDivisionIds": [
          10135381
        ],
        "postalCode": "N5W3K1",
        "streetName": "DUFFERIN",
        "streetDirectionId": null,
        "streetTypeId": "AVE",
        "placeName": "LONDON",
        "streetNameDisplayText": "DUFFERIN AVE, LONDON"
      }
    ]
  },
  {
    "postal": "N5W6X4",
    "result": []
  },
  {
    "postal": "N5W4M8",
    "result": [
      {
        "electoralDistricts": [
          {
            "election": null,
            "id": 53,
            "name": "London—Fanshawe"
          }
        ],
        "pollDivisionIds": [
          10139564
        ],
        "postalCode": "N5W4M8",
        "streetName": "THORNE",
        "streetDirectionId": null,
        "streetTypeId": "AVE",
        "placeName": "LONDON",
        "streetNameDisplayText": "THORNE AVE, LONDON"
      }
    ]
  },
  {
    "postal": "N5W2Y1",
    "result": [
      {
        "electoralDistricts": [
          {
            "election": null,
            "id": 54,
            "name": "London North Centre"
          }
        ],
        "pollDivisionIds": [
          10135382
        ],
        "postalCode": "N5W2Y1",
        "streetName": "KING",
        "streetDirectionId": null,
        "streetTypeId": "ST",
        "placeName": "LONDON",
        "streetNameDisplayText": "KING ST, LONDON"
      }
    ]
  },
  {
    "postal": "N5W6M1",
    "result": []
  },
  {
    "postal": "N5W5L8",
    "result": [
      {
        "electoralDistricts": [
          {
            "election": null,
            "id": 53,
            "name": "London—Fanshawe"
          }
        ],
        "pollDivisionIds": [
          10139566
        ],
        "postalCode": "N5W5L8",
        "streetName": "BRAESYDE",
        "streetDirectionId": null,
        "streetTypeId": "AVE",
        "placeName": "LONDON",
        "streetNameDisplayText": "BRAESYDE AVE, LONDON"
      }
    ]
  },
  {
    "postal": "N5W3P6",
    "result": [
      {
        "electoralDistricts": [
          {
            "election": null,
            "id": 54,
            "name": "London North Centre"
          }
        ],
        "pollDivisionIds": [
          10135381,
          10135382
        ],
        "postalCode": "N5W3P6",
        "streetName": "ELIAS",
        "streetDirectionId": null,
        "streetTypeId": "ST",
        "placeName": "LONDON",
        "streetNameDisplayText": "ELIAS ST, LONDON"
      }
    ]
  },
  {
    "postal": "N5W9A5",
    "result": []
  },
  {
    "postal": "N5W7K1",
    "result": []
  },
  {
    "postal": "N5W3J4",
    "result": [
      {
        "electoralDistricts": [
          {
            "election": null,
            "id": 54,
            "name": "London North Centre"
          }
        ],
        "pollDivisionIds": [
          10135382
        ],
        "postalCode": "N5W3J4",
        "streetName": "SPARTON",
        "streetDirectionId": null,
        "streetTypeId": "ST",
        "placeName": "LONDON",
        "streetNameDisplayText": "SPARTON ST, LONDON"
      }
    ]
  },
  {
    "postal": "N5W5E7",
    "result": [
      {
        "electoralDistricts": [
          {
            "election": null,
            "id": 53,
            "name": "London—Fanshawe"
          }
        ],
        "pollDivisionIds": [
          10139564
        ],
        "postalCode": "N5W5E7",
        "streetName": "CLARKE",
        "streetDirectionId": null,
        "streetTypeId": "RD",
        "placeName": "LONDON",
        "streetNameDisplayText": "CLARKE RD, LONDON"
      }
    ]
  },
  {
    "postal": "N5W3A7",
    "result": [
      {
        "electoralDistricts": [
          {
            "election": null,
            "id": 54,
            "name": "London North Centre"
          }
        ],
        "pollDivisionIds": [
          10135381
        ],
        "postalCode": "N5W3A7",
        "streetName": "DUNDAS",
        "streetDirectionId": null,
        "streetTypeId": "ST",
        "placeName": "LONDON",
        "streetNameDisplayText": "DUNDAS ST, LONDON"
      }
    ]
  },
  {
    "postal": "N5W1B9",
    "result": [
      {
        "electoralDistricts": [
          {
            "election": null,
            "id": 53,
            "name": "London—Fanshawe"
          }
        ],
        "pollDivisionIds": [
          10139567
        ],
        "postalCode": "N5W1B9",
        "streetName": "FEREN",
        "streetDirectionId": null,
        "streetTypeId": "AVE",
        "placeName": "LONDON",
        "streetNameDisplayText": "FEREN AVE, LONDON"
      }
    ]
  },
  {
    "postal": "N5W9E8",
    "result": []
  },
  {
    "postal": "N5W1C9",
    "result": [
      {
        "electoralDistricts": [
          {
            "election": null,
            "id": 53,
            "name": "London—Fanshawe"
          }
        ],
        "pollDivisionIds": [
          10139567
        ],
        "postalCode": "N5W1C9",
        "streetName": "MAGEE",
        "streetDirectionId": null,
        "streetTypeId": "PL",
        "placeName": "LONDON",
        "streetNameDisplayText": "MAGEE PL, LONDON"
      }
    ]
  },
  {
    "postal": "N5W3B5",
    "result": [
      {
        "electoralDistricts": [
          {
            "election": null,
            "id": 53,
            "name": "London—Fanshawe"
          }
        ],
        "pollDivisionIds": [
          10139561
        ],
        "postalCode": "N5W3B5",
        "streetName": "DUNDAS",
        "streetDirectionId": null,
        "streetTypeId": "ST",
        "placeName": "LONDON",
        "streetNameDisplayText": "DUNDAS ST, LONDON"
      }
    ]
  },
  {
    "postal": "N5W8R0",
    "result": []
  },
  {
    "postal": "N5W3P2",
    "result": [
      {
        "electoralDistricts": [
          {
            "election": null,
            "id": 54,
            "name": "London North Centre"
          }
        ],
        "pollDivisionIds": [
          10135381
        ],
        "postalCode": "N5W3P2",
        "streetName": "ELIAS",
        "streetDirectionId": null,
        "streetTypeId": "ST",
        "placeName": "LONDON",
        "streetNameDisplayText": "ELIAS ST, LONDON"
      },
      {
        "electoralDistricts": [
          {
            "election": null,
            "id": 54,
            "name": "London North Centre"
          }
        ],
        "pollDivisionIds": [
          10135344
        ],
        "postalCode": "N5W3P2",
        "streetName": "ELIAS",
        "streetDirectionId": null,
        "streetTypeId": "ST",
        "placeName": "LONDON,ON",
        "streetNameDisplayText": "ELIAS ST, LONDON,ON"
      }
    ]
  },
  {
    "postal": "N5W5V4",
    "result": [
      {
        "electoralDistricts": [
          {
            "election": null,
            "id": 53,
            "name": "London—Fanshawe"
          }
        ],
        "pollDivisionIds": [
          10139566
        ],
        "postalCode": "N5W5V4",
        "streetName": "FARMBROOK",
        "streetDirectionId": null,
        "streetTypeId": "RD",
        "placeName": "LONDON",
        "streetNameDisplayText": "FARMBROOK RD, LONDON"
      }
    ]
  },
  {
    "postal": "N5W4H0",
    "result": []
  },
  {
    "postal": "N5W4S7",
    "result": [
      {
        "electoralDistricts": [
          {
            "election": null,
            "id": 53,
            "name": "London—Fanshawe"
          }
        ],
        "pollDivisionIds": [
          10139562
        ],
        "postalCode": "N5W4S7",
        "streetName": "VANCOUVER",
        "streetDirectionId": null,
        "streetTypeId": "ST",
        "placeName": "LONDON",
        "streetNameDisplayText": "VANCOUVER ST, LONDON"
      }
    ]
  },
  {
    "postal": "N5W6C2",
    "result": [
      {
        "electoralDistricts": [
          {
            "election": null,
            "id": 53,
            "name": "London—Fanshawe"
          }
        ],
        "pollDivisionIds": [
          10139566
        ],
        "postalCode": "N5W6C2",
        "streetName": "RIVER",
        "streetDirectionId": null,
        "streetTypeId": "RD",
        "placeName": "LONDON",
        "streetNameDisplayText": "RIVER RD, LONDON"
      }
    ]
  },
  {
    "postal": "N5W8W3",
    "result": []
  },
  {
    "postal": "N5W4M5",
    "result": [
      {
        "electoralDistricts": [
          {
            "election": null,
            "id": 54,
            "name": "London North Centre"
          }
        ],
        "pollDivisionIds": [
          10135382
        ],
        "postalCode": "N5W4M5",
        "streetName": "OAKLAND",
        "streetDirectionId": null,
        "streetTypeId": "AVE",
        "placeName": "LONDON",
        "streetNameDisplayText": "OAKLAND AVE, LONDON"
      }
    ]
  },
  {
    "postal": "N5W5T1",
    "result": []
  },
  {
    "postal": "N5W3B3",
    "result": [
      {
        "electoralDistricts": [
          {
            "election": null,
            "id": 54,
            "name": "London North Centre"
          }
        ],
        "pollDivisionIds": [
          10135382
        ],
        "postalCode": "N5W3B3",
        "streetName": "DUNDAS",
        "streetDirectionId": null,
        "streetTypeId": "ST",
        "placeName": "LONDON",
        "streetNameDisplayText": "DUNDAS ST, LONDON"
      }
    ]
  },
  {
    "postal": "N5W6C6",
    "result": [
      {
        "electoralDistricts": [
          {
            "election": null,
            "id": 53,
            "name": "London—Fanshawe"
          }
        ],
        "pollDivisionIds": [
          10139566
        ],
        "postalCode": "N5W6C6",
        "streetName": "MCMILLAN",
        "streetDirectionId": null,
        "streetTypeId": "ST",
        "placeName": "LONDON",
        "streetNameDisplayText": "MCMILLAN ST, LONDON"
      }
    ]
  },
  {
    "postal": "N5W7N8",
    "result": []
  },
  {
    "postal": "N5W2Y3",
    "result": [
      {
        "electoralDistricts": [
          {
            "election": null,
            "id": 54,
            "name": "London North Centre"
          }
        ],
        "pollDivisionIds": [
          10135382
        ],
        "postalCode": "N5W2Y3",
        "streetName": "KING",
        "streetDirectionId": null,
        "streetTypeId": "ST",
        "placeName": "LONDON",
        "streetNameDisplayText": "KING ST, LONDON"
      }
    ]
  },
  {
    "postal": "N5W2R6",
    "result": [
      {
        "electoralDistricts": [
          {
            "election": null,
            "id": 53,
            "name": "London—Fanshawe"
          }
        ],
        "pollDivisionIds": [
          10139562
        ],
        "postalCode": "N5W2R6",
        "streetName": "HILTON",
        "streetDirectionId": null,
        "streetTypeId": "AVE",
        "placeName": "LONDON",
        "streetNameDisplayText": "HILTON AVE, LONDON"
      }
    ]
  },
  {
    "postal": "N5W7N3",
    "result": []
  },
  {
    "postal": "N5W8J2",
    "result": []
  },
  {
    "postal": "N5W6A9",
    "result": [
      {
        "electoralDistricts": [
          {
            "election": null,
            "id": 53,
            "name": "London—Fanshawe"
          }
        ],
        "pollDivisionIds": [
          10139562
        ],
        "postalCode": "N5W6A9",
        "streetName": "CLARKE",
        "streetDirectionId": null,
        "streetTypeId": "RD",
        "placeName": "LONDON",
        "streetNameDisplayText": "CLARKE RD, LONDON"
      }
    ]
  },
  {
    "postal": "N5W3V2",
    "result": [
      {
        "electoralDistricts": [
          {
            "election": null,
            "id": 54,
            "name": "London North Centre"
          }
        ],
        "pollDivisionIds": [
          10135376
        ],
        "postalCode": "N5W3V2",
        "streetName": "ENGLISH",
        "streetDirectionId": null,
        "streetTypeId": "ST",
        "placeName": "LONDON",
        "streetNameDisplayText": "ENGLISH ST, LONDON"
      }
    ]
  },
  {
    "postal": "N5W2N3",
    "result": [
      {
        "electoralDistricts": [
          {
            "election": null,
            "id": 54,
            "name": "London North Centre"
          }
        ],
        "pollDivisionIds": [
          10135382
        ],
        "postalCode": "N5W2N3",
        "streetName": "FLORENCE",
        "streetDirectionId": null,
        "streetTypeId": "ST",
        "placeName": "LONDON",
        "streetNameDisplayText": "FLORENCE ST, LONDON"
      }
    ]
  },
  {
    "postal": "N5W1S5",
    "result": [
      {
        "electoralDistricts": [
          {
            "election": null,
            "id": 53,
            "name": "London—Fanshawe"
          }
        ],
        "pollDivisionIds": [
          10139567
        ],
        "postalCode": "N5W1S5",
        "streetName": "ELDORADO",
        "streetDirectionId": null,
        "streetTypeId": "AVE",
        "placeName": "LONDON",
        "streetNameDisplayText": "ELDORADO AVE, LONDON"
      }
    ]
  },
  {
    "postal": "N5W4T7",
    "result": [
      {
        "electoralDistricts": [
          {
            "election": null,
            "id": 53,
            "name": "London—Fanshawe"
          }
        ],
        "pollDivisionIds": [
          10139562
        ],
        "postalCode": "N5W4T7",
        "streetName": "LOVERAGE",
        "streetDirectionId": null,
        "streetTypeId": "ST",
        "placeName": "LONDON",
        "streetNameDisplayText": "LOVERAGE ST, LONDON"
      }
    ]
  },
  {
    "postal": "N5W6Y7",
    "result": []
  },
  {
    "postal": "N5W0W7",
    "result": []
  },
  {
    "postal": "N5W2W9",
    "result": [
      {
        "electoralDistricts": [
          {
            "election": null,
            "id": 54,
            "name": "London North Centre"
          }
        ],
        "pollDivisionIds": [
          10135387
        ],
        "postalCode": "N5W2W9",
        "streetName": "KING",
        "streetDirectionId": null,
        "streetTypeId": "ST",
        "placeName": "LONDON",
        "streetNameDisplayText": "KING ST, LONDON"
      }
    ]
  },
  {
    "postal": "N5W8V0",
    "result": []
  },
  {
    "postal": "N5W0H4",
    "result": []
  },
  {
    "postal": "N5W2T1",
    "result": []
  },
  {
    "postal": "N5W1B1",
    "result": [
      {
        "electoralDistricts": [
          {
            "election": null,
            "id": 53,
            "name": "London—Fanshawe"
          }
        ],
        "pollDivisionIds": [
          10139571,
          10139566,
          10139567
        ],
        "postalCode": "N5W1B1",
        "streetName": "HAMILTON",
        "streetDirectionId": null,
        "streetTypeId": "RD",
        "placeName": "LONDON",
        "streetNameDisplayText": "HAMILTON RD, LONDON"
      }
    ]
  },
  {
    "postal": "N5W8B6",
    "result": []
  },
  {
    "postal": "N5W6H1",
    "result": [
      {
        "electoralDistricts": [
          {
            "election": null,
            "id": 53,
            "name": "London—Fanshawe"
          }
        ],
        "pollDivisionIds": [
          10139557
        ],
        "postalCode": "N5W6H1",
        "streetName": "CLARKE",
        "streetDirectionId": null,
        "streetTypeId": "RD",
        "placeName": "LONDON",
        "streetNameDisplayText": "CLARKE RD, LONDON"
      }
    ]
  },
  {
    "postal": "N5W8T8",
    "result": []
  },
  {
    "postal": "N5W0T4",
    "result": []
  },
  {
    "postal": "N5W2C4",
    "result": [
      {
        "electoralDistricts": [
          {
            "election": null,
            "id": 53,
            "name": "London—Fanshawe"
          }
        ],
        "pollDivisionIds": [
          10139564
        ],
        "postalCode": "N5W2C4",
        "streetName": "BRYDGES",
        "streetDirectionId": null,
        "streetTypeId": "ST",
        "placeName": "LONDON",
        "streetNameDisplayText": "BRYDGES ST, LONDON"
      }
    ]
  },
  {
    "postal": "N5W8N3",
    "result": []
  },
  {
    "postal": "N5W4L8",
    "result": [
      {
        "electoralDistricts": [
          {
            "election": null,
            "id": 53,
            "name": "London—Fanshawe"
          }
        ],
        "pollDivisionIds": [
          10139564
        ],
        "postalCode": "N5W4L8",
        "streetName": "GRAHAM",
        "streetDirectionId": null,
        "streetTypeId": "CRES",
        "placeName": "LONDON",
        "streetNameDisplayText": "GRAHAM CRES, LONDON"
      }
    ]
  },
  {
    "postal": "N5W2B5",
    "result": [
      {
        "electoralDistricts": [
          {
            "election": null,
            "id": 54,
            "name": "London North Centre"
          }
        ],
        "pollDivisionIds": [
          10135382
        ],
        "postalCode": "N5W2B5",
        "streetName": "BRYDGES",
        "streetDirectionId": null,
        "streetTypeId": "ST",
        "placeName": "LONDON",
        "streetNameDisplayText": "BRYDGES ST, LONDON"
      }
    ]
  },
  {
    "postal": "N5W3H1",
    "result": [
      {
        "electoralDistricts": [
          {
            "election": null,
            "id": 54,
            "name": "London North Centre"
          }
        ],
        "pollDivisionIds": [
          10135387
        ],
        "postalCode": "N5W3H1",
        "streetName": "QUEENS",
        "streetDirectionId": null,
        "streetTypeId": "AVE",
        "placeName": "LONDON",
        "streetNameDisplayText": "QUEENS AVE, LONDON"
      }
    ]
  },
  {
    "postal": "N5W4Y1",
    "result": [
      {
        "electoralDistricts": [
          {
            "election": null,
            "id": 53,
            "name": "London—Fanshawe"
          }
        ],
        "pollDivisionIds": [
          10139562
        ],
        "postalCode": "N5W4Y1",
        "streetName": "EDMONTON",
        "streetDirectionId": null,
        "streetTypeId": "ST",
        "placeName": "LONDON",
        "streetNameDisplayText": "EDMONTON ST, LONDON"
      }
    ]
  },
  {
    "postal": "N5W7E2",
    "result": []
  },
  {
    "postal": "N5W2P5",
    "result": [
      {
        "electoralDistricts": [
          {
            "election": null,
            "id": 53,
            "name": "London—Fanshawe"
          }
        ],
        "pollDivisionIds": [
          10139561
        ],
        "postalCode": "N5W2P5",
        "streetName": "DOULTON",
        "streetDirectionId": null,
        "streetTypeId": "ST",
        "placeName": "LONDON",
        "streetNameDisplayText": "DOULTON ST, LONDON"
      }
    ]
  },
  {
    "postal": "N5W8R7",
    "result": []
  },
  {
    "postal": "N5W9P1",
    "result": []
  },
  {
    "postal": "N5W3B8",
    "result": [
      {
        "electoralDistricts": [
          {
            "election": null,
            "id": 53,
            "name": "London—Fanshawe"
          }
        ],
        "pollDivisionIds": [
          10139561,
          10139569
        ],
        "postalCode": "N5W3B8",
        "streetName": "DUNDAS",
        "streetDirectionId": null,
        "streetTypeId": "ST",
        "placeName": "LONDON",
        "streetNameDisplayText": "DUNDAS ST, LONDON"
      }
    ]
  },
  {
    "postal": "N5W3P7",
    "result": [
      {
        "electoralDistricts": [
          {
            "election": null,
            "id": 54,
            "name": "London North Centre"
          }
        ],
        "pollDivisionIds": [
          10135376
        ],
        "postalCode": "N5W3P7",
        "streetName": "CENTRAL",
        "streetDirectionId": null,
        "streetTypeId": "AVE",
        "placeName": "LONDON",
        "streetNameDisplayText": "CENTRAL AVE, LONDON"
      }
    ]
  },
  {
    "postal": "N5W9B2",
    "result": []
  },
  {
    "postal": "N5W6Z3",
    "result": []
  },
  {
    "postal": "N5W4N5",
    "result": [
      {
        "electoralDistricts": [
          {
            "election": null,
            "id": 53,
            "name": "London—Fanshawe"
          }
        ],
        "pollDivisionIds": [
          10139561
        ],
        "postalCode": "N5W4N5",
        "streetName": "SPRUCE",
        "streetDirectionId": null,
        "streetTypeId": "ST",
        "placeName": "LONDON",
        "streetNameDisplayText": "SPRUCE ST, LONDON"
      }
    ]
  },
  {
    "postal": "N5W8T3",
    "result": []
  },
  {
    "postal": "N5W1V2",
    "result": [
      {
        "electoralDistricts": [
          {
            "election": null,
            "id": 53,
            "name": "London—Fanshawe"
          }
        ],
        "pollDivisionIds": [
          10139566
        ],
        "postalCode": "N5W1V2",
        "streetName": "BRAESYDE",
        "streetDirectionId": null,
        "streetTypeId": "AVE",
        "placeName": "LONDON",
        "streetNameDisplayText": "BRAESYDE AVE, LONDON"
      }
    ]
  },
  {
    "postal": "N5W1Y0",
    "result": []
  },
  {
    "postal": "N5W3G6",
    "result": [
      {
        "electoralDistricts": [
          {
            "election": null,
            "id": 53,
            "name": "London—Fanshawe"
          }
        ],
        "pollDivisionIds": [
          10139561
        ],
        "postalCode": "N5W3G6",
        "streetName": "LEONARD",
        "streetDirectionId": null,
        "streetTypeId": "ST",
        "placeName": "LONDON",
        "streetNameDisplayText": "LEONARD ST, LONDON"
      }
    ]
  },
  {
    "postal": "N5W3H7",
    "result": [
      {
        "electoralDistricts": [
          {
            "election": null,
            "id": 54,
            "name": "London North Centre"
          }
        ],
        "pollDivisionIds": [
          10135381
        ],
        "postalCode": "N5W3H7",
        "streetName": "QUEENS",
        "streetDirectionId": null,
        "streetTypeId": "AVE",
        "placeName": "LONDON",
        "streetNameDisplayText": "QUEENS AVE, LONDON"
      }
    ]
  },
  {
    "postal": "N5W7X8",
    "result": []
  },
  {
    "postal": "N5W0C7",
    "result": []
  },
  {
    "postal": "N5W0W9",
    "result": []
  },
  {
    "postal": "N5W8E6",
    "result": []
  },
  {
    "postal": "N5W9Z8",
    "result": []
  },
  {
    "postal": "N5W3P4",
    "result": [
      {
        "electoralDistricts": [
          {
            "election": null,
            "id": 54,
            "name": "London North Centre"
          }
        ],
        "pollDivisionIds": [
          10135381
        ],
        "postalCode": "N5W3P4",
        "streetName": "ELIAS",
        "streetDirectionId": null,
        "streetTypeId": "ST",
        "placeName": "LONDON",
        "streetNameDisplayText": "ELIAS ST, LONDON"
      }
    ]
  },
  {
    "postal": "N5W6L8",
    "result": []
  },
  {
    "postal": "N5W2R4",
    "result": [
      {
        "electoralDistricts": [
          {
            "election": null,
            "id": 53,
            "name": "London—Fanshawe"
          }
        ],
        "pollDivisionIds": [
          10139561,
          10139562
        ],
        "postalCode": "N5W2R4",
        "streetName": "BORDEN",
        "streetDirectionId": null,
        "streetTypeId": "ST",
        "placeName": "LONDON",
        "streetNameDisplayText": "BORDEN ST, LONDON"
      }
    ]
  },
  {
    "postal": "N5W2W1",
    "result": [
      {
        "electoralDistricts": [
          {
            "election": null,
            "id": 53,
            "name": "London—Fanshawe"
          }
        ],
        "pollDivisionIds": [
          10139564
        ],
        "postalCode": "N5W2W1",
        "streetName": "BRYDGES",
        "streetDirectionId": null,
        "streetTypeId": "ST",
        "placeName": "LONDON",
        "streetNameDisplayText": "BRYDGES ST, LONDON"
      }
    ]
  },
  {
    "postal": "N5W9H8",
    "result": []
  },
  {
    "postal": "N5W8X9",
    "result": []
  },
  {
    "postal": "N5W7H4",
    "result": []
  },
  {
    "postal": "N5W3J1",
    "result": [
      {
        "electoralDistricts": [
          {
            "election": null,
            "id": 54,
            "name": "London North Centre"
          }
        ],
        "pollDivisionIds": [
          10135382
        ],
        "postalCode": "N5W3J1",
        "streetName": "OSBORNE",
        "streetDirectionId": null,
        "streetTypeId": "ST",
        "placeName": "LONDON",
        "streetNameDisplayText": "OSBORNE ST, LONDON"
      }
    ]
  },
  {
    "postal": "N5W1P4",
    "result": [
      {
        "electoralDistricts": [
          {
            "election": null,
            "id": 53,
            "name": "London—Fanshawe"
          }
        ],
        "pollDivisionIds": [
          10139567
        ],
        "postalCode": "N5W1P4",
        "streetName": "CORNERBROOK",
        "streetDirectionId": null,
        "streetTypeId": "AVE",
        "placeName": "LONDON",
        "streetNameDisplayText": "CORNERBROOK AVE, LONDON"
      }
    ]
  },
  {
    "postal": "N5W2A3",
    "result": [
      {
        "electoralDistricts": [
          {
            "election": null,
            "id": 53,
            "name": "London—Fanshawe"
          }
        ],
        "pollDivisionIds": [
          10139564
        ],
        "postalCode": "N5W2A3",
        "streetName": "MOFFATT",
        "streetDirectionId": null,
        "streetTypeId": "AVE",
        "placeName": "LONDON",
        "streetNameDisplayText": "MOFFATT AVE, LONDON"
      }
    ]
  },
  {
    "postal": "N5W0Z1",
    "result": []
  },
  {
    "postal": "N5W1C1",
    "result": [
      {
        "electoralDistricts": [
          {
            "election": null,
            "id": 53,
            "name": "London—Fanshawe"
          }
        ],
        "pollDivisionIds": [
          10139567
        ],
        "postalCode": "N5W1C1",
        "streetName": "FEREN",
        "streetDirectionId": null,
        "streetTypeId": "AVE",
        "placeName": "LONDON",
        "streetNameDisplayText": "FEREN AVE, LONDON"
      }
    ]
  },
  {
    "postal": "N5W0H3",
    "result": []
  },
  {
    "postal": "N5W7B0",
    "result": []
  },
  {
    "postal": "N5W5K2",
    "result": []
  },
  {
    "postal": "N5W1E9",
    "result": [
      {
        "electoralDistricts": [
          {
            "election": null,
            "id": 53,
            "name": "London—Fanshawe"
          }
        ],
        "pollDivisionIds": [
          10139567
        ],
        "postalCode": "N5W1E9",
        "streetName": "HALE",
        "streetDirectionId": null,
        "streetTypeId": "ST",
        "placeName": "LONDON",
        "streetNameDisplayText": "HALE ST, LONDON"
      }
    ]
  },
  {
    "postal": "N5W9W7",
    "result": []
  },
  {
    "postal": "N5W5W6",
    "result": [
      {
        "electoralDistricts": [
          {
            "election": null,
            "id": 53,
            "name": "London—Fanshawe"
          }
        ],
        "pollDivisionIds": [
          10139566
        ],
        "postalCode": "N5W5W6",
        "streetName": "CLARKE",
        "streetDirectionId": null,
        "streetTypeId": "RD",
        "placeName": "LONDON",
        "streetNameDisplayText": "CLARKE RD, LONDON"
      }
    ]
  },
  {
    "postal": "N5W6S6",
    "result": []
  },
  {
    "postal": "N5W2P8",
    "result": [
      {
        "electoralDistricts": [
          {
            "election": null,
            "id": 53,
            "name": "London—Fanshawe"
          }
        ],
        "pollDivisionIds": [
          10139561
        ],
        "postalCode": "N5W2P8",
        "streetName": "DOULTON",
        "streetDirectionId": null,
        "streetTypeId": "ST",
        "placeName": "LONDON",
        "streetNameDisplayText": "DOULTON ST, LONDON"
      }
    ]
  },
  {
    "postal": "N5W4P8",
    "result": [
      {
        "electoralDistricts": [
          {
            "election": null,
            "id": 53,
            "name": "London—Fanshawe"
          }
        ],
        "pollDivisionIds": [
          10139561
        ],
        "postalCode": "N5W4P8",
        "streetName": "THIEL",
        "streetDirectionId": null,
        "streetTypeId": "ST",
        "placeName": "LONDON",
        "streetNameDisplayText": "THIEL ST, LONDON"
      }
    ]
  },
  {
    "postal": "N5W0V9",
    "result": []
  },
  {
    "postal": "N5W5Y2",
    "result": [
      {
        "electoralDistricts": [
          {
            "election": null,
            "id": 53,
            "name": "London—Fanshawe"
          }
        ],
        "pollDivisionIds": [
          10139566
        ],
        "postalCode": "N5W5Y2",
        "streetName": "CLARKE",
        "streetDirectionId": null,
        "streetTypeId": "RD",
        "placeName": "LONDON",
        "streetNameDisplayText": "CLARKE RD, LONDON"
      }
    ]
  },
  {
    "postal": "N5W7Z7",
    "result": []
  },
  {
    "postal": "N5W6Y8",
    "result": []
  },
  {
    "postal": "N5W2G7",
    "result": []
  },
  {
    "postal": "N5W8C1",
    "result": []
  },
  {
    "postal": "N5W5C5",
    "result": [
      {
        "electoralDistricts": [
          {
            "election": null,
            "id": 53,
            "name": "London—Fanshawe"
          }
        ],
        "pollDivisionIds": [
          10139562
        ],
        "postalCode": "N5W5C5",
        "streetName": "EDGEWORTH",
        "streetDirectionId": null,
        "streetTypeId": "AVE",
        "placeName": "LONDON",
        "streetNameDisplayText": "EDGEWORTH AVE, LONDON"
      }
    ]
  },
  {
    "postal": "N5W2X8",
    "result": [
      {
        "electoralDistricts": [
          {
            "election": null,
            "id": 54,
            "name": "London North Centre"
          }
        ],
        "pollDivisionIds": [
          10135382
        ],
        "postalCode": "N5W2X8",
        "streetName": "KING",
        "streetDirectionId": null,
        "streetTypeId": "ST",
        "placeName": "LONDON",
        "streetNameDisplayText": "KING ST, LONDON"
      }
    ]
  },
  {
    "postal": "N5W1W5",
    "result": [
      {
        "electoralDistricts": [
          {
            "election": null,
            "id": 53,
            "name": "London—Fanshawe"
          }
        ],
        "pollDivisionIds": [
          10139567
        ],
        "postalCode": "N5W1W5",
        "streetName": "TRAFALGAR",
        "streetDirectionId": null,
        "streetTypeId": "ST",
        "placeName": "LONDON",
        "streetNameDisplayText": "TRAFALGAR ST, LONDON"
      }
    ]
  },
  {
    "postal": "N5W7G0",
    "result": []
  },
  {
    "postal": "N5W8J8",
    "result": []
  },
  {
    "postal": "N5W3Y0",
    "result": []
  },
  {
    "postal": "N5W9T7",
    "result": []
  },
  {
    "postal": "N5W5P4",
    "result": [
      {
        "electoralDistricts": [
          {
            "election": null,
            "id": 53,
            "name": "London—Fanshawe"
          }
        ],
        "pollDivisionIds": [
          10139562
        ],
        "postalCode": "N5W5P4",
        "streetName": "CHURCHILL",
        "streetDirectionId": null,
        "streetTypeId": "AVE",
        "placeName": "LONDON",
        "streetNameDisplayText": "CHURCHILL AVE, LONDON"
      }
    ]
  },
  {
    "postal": "N5W4B0",
    "result": []
  },
  {
    "postal": "N5W9N8",
    "result": []
  },
  {
    "postal": "N5W4A7",
    "result": [
      {
        "electoralDistricts": [
          {
            "election": null,
            "id": 54,
            "name": "London North Centre"
          }
        ],
        "pollDivisionIds": [
          10135382
        ],
        "postalCode": "N5W4A7",
        "streetName": "DOUGLAS",
        "streetDirectionId": null,
        "streetTypeId": "CRT",
        "placeName": "LONDON",
        "streetNameDisplayText": "DOUGLAS CRT, LONDON"
      }
    ]
  },
  {
    "postal": "N5W4H9",
    "result": [
      {
        "electoralDistricts": [
          {
            "election": null,
            "id": 54,
            "name": "London North Centre"
          }
        ],
        "pollDivisionIds": [
          10135382
        ],
        "postalCode": "N5W4H9",
        "streetName": "OAKLAND",
        "streetDirectionId": null,
        "streetTypeId": "AVE",
        "placeName": "LONDON",
        "streetNameDisplayText": "OAKLAND AVE, LONDON"
      }
    ]
  },
  {
    "postal": "N5W6X1",
    "result": []
  },
  {
    "postal": "N5W9Y7",
    "result": []
  },
  {
    "postal": "N5W2Y5",
    "result": [
      {
        "electoralDistricts": [
          {
            "election": null,
            "id": 54,
            "name": "London North Centre"
          }
        ],
        "pollDivisionIds": [
          10135382
        ],
        "postalCode": "N5W2Y5",
        "streetName": "KING",
        "streetDirectionId": null,
        "streetTypeId": "ST",
        "placeName": "LONDON",
        "streetNameDisplayText": "KING ST, LONDON"
      }
    ]
  },
  {
    "postal": "N5W8L7",
    "result": []
  },
  {
    "postal": "N5W2A8",
    "result": [
      {
        "electoralDistricts": [
          {
            "election": null,
            "id": 53,
            "name": "London—Fanshawe"
          }
        ],
        "pollDivisionIds": [
          10139564
        ],
        "postalCode": "N5W2A8",
        "streetName": "ROYAL",
        "streetDirectionId": null,
        "streetTypeId": "CRES",
        "placeName": "LONDON",
        "streetNameDisplayText": "ROYAL CRES, LONDON"
      }
    ]
  },
  {
    "postal": "N5W2K9",
    "result": [
      {
        "electoralDistricts": [
          {
            "election": null,
            "id": 53,
            "name": "London—Fanshawe"
          }
        ],
        "pollDivisionIds": [
          10139562
        ],
        "postalCode": "N5W2K9",
        "streetName": "CHURCHILL",
        "streetDirectionId": null,
        "streetTypeId": "AVE",
        "placeName": "LONDON",
        "streetNameDisplayText": "CHURCHILL AVE, LONDON"
      }
    ]
  },
  {
    "postal": "N5W3E5",
    "result": [
      {
        "electoralDistricts": [
          {
            "election": null,
            "id": 53,
            "name": "London—Fanshawe"
          }
        ],
        "pollDivisionIds": [
          10139562
        ],
        "postalCode": "N5W3E5",
        "streetName": "DUNDAS",
        "streetDirectionId": null,
        "streetTypeId": "ST",
        "placeName": "LONDON",
        "streetNameDisplayText": "DUNDAS ST, LONDON"
      }
    ]
  },
  {
    "postal": "N5W8N6",
    "result": []
  },
  {
    "postal": "N5W8J4",
    "result": []
  },
  {
    "postal": "N5W4R7",
    "result": [
      {
        "electoralDistricts": [
          {
            "election": null,
            "id": 53,
            "name": "London—Fanshawe"
          }
        ],
        "pollDivisionIds": [
          10139564
        ],
        "postalCode": "N5W4R7",
        "streetName": "VANCOUVER",
        "streetDirectionId": null,
        "streetTypeId": "ST",
        "placeName": "LONDON",
        "streetNameDisplayText": "VANCOUVER ST, LONDON"
      }
    ]
  },
  {
    "postal": "N5W9K1",
    "result": []
  },
  {
    "postal": "N5W8E1",
    "result": []
  },
  {
    "postal": "N5W0R1",
    "result": []
  },
  {
    "postal": "N5W4J3",
    "result": [
      {
        "electoralDistricts": [
          {
            "election": null,
            "id": 54,
            "name": "London North Centre"
          }
        ],
        "pollDivisionIds": [
          10135382
        ],
        "postalCode": "N5W4J3",
        "streetName": "OAKLAND",
        "streetDirectionId": null,
        "streetTypeId": "AVE",
        "placeName": "LONDON",
        "streetNameDisplayText": "OAKLAND AVE, LONDON"
      }
    ]
  },
  {
    "postal": "N5W7E7",
    "result": []
  },
  {
    "postal": "N5W0J0",
    "result": []
  },
  {
    "postal": "N5W7R8",
    "result": []
  },
  {
    "postal": "N5W9X0",
    "result": []
  },
  {
    "postal": "N5W7P6",
    "result": []
  },
  {
    "postal": "N5W0R7",
    "result": []
  },
  {
    "postal": "N5W5W1",
    "result": [
      {
        "electoralDistricts": [
          {
            "election": null,
            "id": 53,
            "name": "London—Fanshawe"
          }
        ],
        "pollDivisionIds": [
          10139565
        ],
        "postalCode": "N5W5W1",
        "streetName": "CLARKE",
        "streetDirectionId": null,
        "streetTypeId": "RD",
        "placeName": "LONDON",
        "streetNameDisplayText": "CLARKE RD, LONDON"
      }
    ]
  },
  {
    "postal": "N5W0K4",
    "result": []
  },
  {
    "postal": "N5W7N9",
    "result": []
  },
  {
    "postal": "N5W1N0",
    "result": []
  },
  {
    "postal": "N5W6P3",
    "result": []
  },
  {
    "postal": "N5W5A1",
    "result": [
      {
        "electoralDistricts": [
          {
            "election": null,
            "id": 53,
            "name": "London—Fanshawe"
          }
        ],
        "pollDivisionIds": [
          10139564
        ],
        "postalCode": "N5W5A1",
        "streetName": "GODDARD",
        "streetDirectionId": null,
        "streetTypeId": "BLVD",
        "placeName": "LONDON",
        "streetNameDisplayText": "GODDARD BLVD, LONDON"
      }
    ]
  },
  {
    "postal": "N5W9M9",
    "result": []
  },
  {
    "postal": "N5W7T6",
    "result": []
  },
  {
    "postal": "N5W3X0",
    "result": []
  },
  {
    "postal": "N5W2T0",
    "result": []
  },
  {
    "postal": "N5W5X9",
    "result": [
      {
        "electoralDistricts": [
          {
            "election": null,
            "id": 53,
            "name": "London—Fanshawe"
          }
        ],
        "pollDivisionIds": [
          10139566
        ],
        "postalCode": "N5W5X9",
        "streetName": "CLASSIC",
        "streetDirectionId": null,
        "streetTypeId": "DR",
        "placeName": "LONDON",
        "streetNameDisplayText": "CLASSIC DR, LONDON"
      }
    ]
  },
  {
    "postal": "N5W2R3",
    "result": [
      {
        "electoralDistricts": [
          {
            "election": null,
            "id": 53,
            "name": "London—Fanshawe"
          }
        ],
        "pollDivisionIds": [
          10139562
        ],
        "postalCode": "N5W2R3",
        "streetName": "BORDEN",
        "streetDirectionId": null,
        "streetTypeId": "ST",
        "placeName": "LONDON",
        "streetNameDisplayText": "BORDEN ST, LONDON"
      }
    ]
  },
  {
    "postal": "N5W5N2",
    "result": []
  },
  {
    "postal": "N5W4Y7",
    "result": [
      {
        "electoralDistricts": [
          {
            "election": null,
            "id": 53,
            "name": "London—Fanshawe"
          }
        ],
        "pollDivisionIds": [
          10139562
        ],
        "postalCode": "N5W4Y7",
        "streetName": "EDMONTON",
        "streetDirectionId": null,
        "streetTypeId": "ST",
        "placeName": "LONDON",
        "streetNameDisplayText": "EDMONTON ST, LONDON"
      }
    ]
  },
  {
    "postal": "N5W7M0",
    "result": []
  },
  {
    "postal": "N5W8P3",
    "result": []
  },
  {
    "postal": "N5W3N3",
    "result": [
      {
        "electoralDistricts": [
          {
            "election": null,
            "id": 54,
            "name": "London North Centre"
          }
        ],
        "pollDivisionIds": [
          10135382
        ],
        "postalCode": "N5W3N3",
        "streetName": "PRINCESS",
        "streetDirectionId": null,
        "streetTypeId": "AVE",
        "placeName": "LONDON",
        "streetNameDisplayText": "PRINCESS AVE, LONDON"
      }
    ]
  },
  {
    "postal": "N5W7S3",
    "result": []
  },
  {
    "postal": "N5W3V9",
    "result": [
      {
        "electoralDistricts": [
          {
            "election": null,
            "id": 54,
            "name": "London North Centre"
          }
        ],
        "pollDivisionIds": [
          10135382
        ],
        "postalCode": "N5W3V9",
        "streetName": "RECTORY",
        "streetDirectionId": null,
        "streetTypeId": "ST",
        "placeName": "LONDON",
        "streetNameDisplayText": "RECTORY ST, LONDON"
      }
    ]
  },
  {
    "postal": "N5W9N7",
    "result": []
  },
  {
    "postal": "N5W0G4",
    "result": []
  },
  {
    "postal": "N5W2E2",
    "result": [
      {
        "electoralDistricts": [
          {
            "election": null,
            "id": 53,
            "name": "London—Fanshawe"
          }
        ],
        "pollDivisionIds": [
          10139564
        ],
        "postalCode": "N5W2E2",
        "streetName": "WAVELL",
        "streetDirectionId": null,
        "streetTypeId": "ST",
        "placeName": "LONDON",
        "streetNameDisplayText": "WAVELL ST, LONDON"
      }
    ]
  },
  {
    "postal": "N5W7W8",
    "result": []
  },
  {
    "postal": "N5W7M5",
    "result": []
  },
  {
    "postal": "N5W5W8",
    "result": [
      {
        "electoralDistricts": [
          {
            "election": null,
            "id": 53,
            "name": "London—Fanshawe"
          }
        ],
        "pollDivisionIds": [
          10139566
        ],
        "postalCode": "N5W5W8",
        "streetName": "HAMILTON",
        "streetDirectionId": null,
        "streetTypeId": "RD",
        "placeName": "LONDON",
        "streetNameDisplayText": "HAMILTON RD, LONDON"
      }
    ]
  },
  {
    "postal": "N5W5E5",
    "result": [
      {
        "electoralDistricts": [
          {
            "election": null,
            "id": 53,
            "name": "London—Fanshawe"
          }
        ],
        "pollDivisionIds": [
          10139564
        ],
        "postalCode": "N5W5E5",
        "streetName": "CLARKE",
        "streetDirectionId": null,
        "streetTypeId": "RD",
        "placeName": "LONDON",
        "streetNameDisplayText": "CLARKE RD, LONDON"
      }
    ]
  },
  {
    "postal": "N5W1P9",
    "result": [
      {
        "electoralDistricts": [
          {
            "election": null,
            "id": 53,
            "name": "London—Fanshawe"
          }
        ],
        "pollDivisionIds": [
          10139567
        ],
        "postalCode": "N5W1P9",
        "streetName": "STRATHCONA",
        "streetDirectionId": null,
        "streetTypeId": "DR",
        "placeName": "LONDON",
        "streetNameDisplayText": "STRATHCONA DR, LONDON"
      }
    ]
  },
  {
    "postal": "N5W8V8",
    "result": []
  },
  {
    "postal": "N5W9G8",
    "result": []
  },
  {
    "postal": "N5W8H9",
    "result": []
  },
  {
    "postal": "N5W1Z1",
    "result": [
      {
        "electoralDistricts": [
          {
            "election": null,
            "id": 53,
            "name": "London—Fanshawe"
          }
        ],
        "pollDivisionIds": [
          10139564
        ],
        "postalCode": "N5W1Z1",
        "streetName": "WHITEHALL",
        "streetDirectionId": null,
        "streetTypeId": "DR",
        "placeName": "LONDON",
        "streetNameDisplayText": "WHITEHALL DR, LONDON"
      }
    ]
  },
  {
    "postal": "N5W8M3",
    "result": []
  },
  {
    "postal": "N5W5H6",
    "result": []
  },
  {
    "postal": "N5W7W7",
    "result": []
  },
  {
    "postal": "N5W4L0",
    "result": []
  },
  {
    "postal": "N5W2N1",
    "result": [
      {
        "electoralDistricts": [
          {
            "election": null,
            "id": 54,
            "name": "London North Centre"
          }
        ],
        "pollDivisionIds": [
          10135382
        ],
        "postalCode": "N5W2N1",
        "streetName": "FLORENCE",
        "streetDirectionId": null,
        "streetTypeId": "ST",
        "placeName": "LONDON",
        "streetNameDisplayText": "FLORENCE ST, LONDON"
      }
    ]
  },
  {
    "postal": "N5W2H4",
    "result": [
      {
        "electoralDistricts": [
          {
            "election": null,
            "id": 54,
            "name": "London North Centre"
          }
        ],
        "pollDivisionIds": [
          10135382
        ],
        "postalCode": "N5W2H4",
        "streetName": "WILTON",
        "streetDirectionId": null,
        "streetTypeId": "AVE",
        "placeName": "LONDON",
        "streetNameDisplayText": "WILTON AVE, LONDON"
      }
    ]
  },
  {
    "postal": "N5W5C8",
    "result": [
      {
        "electoralDistricts": [
          {
            "election": null,
            "id": 53,
            "name": "London—Fanshawe"
          }
        ],
        "pollDivisionIds": [
          10139562
        ],
        "postalCode": "N5W5C8",
        "streetName": "PATERSON",
        "streetDirectionId": null,
        "streetTypeId": "AVE",
        "placeName": "LONDON",
        "streetNameDisplayText": "PATERSON AVE, LONDON"
      }
    ]
  },
  {
    "postal": "N5W8B0",
    "result": []
  },
  {
    "postal": "N5W1T4",
    "result": [
      {
        "electoralDistricts": [
          {
            "election": null,
            "id": 53,
            "name": "London—Fanshawe"
          }
        ],
        "pollDivisionIds": [
          10139567
        ],
        "postalCode": "N5W1T4",
        "streetName": "MARBENOR",
        "streetDirectionId": null,
        "streetTypeId": "CRES",
        "placeName": "LONDON",
        "streetNameDisplayText": "MARBENOR CRES, LONDON"
      }
    ]
  },
  {
    "postal": "N5W7N7",
    "result": []
  },
  {
    "postal": "N5W4L3",
    "result": []
  },
  {
    "postal": "N5W2N2",
    "result": [
      {
        "electoralDistricts": [
          {
            "election": null,
            "id": 54,
            "name": "London North Centre"
          }
        ],
        "pollDivisionIds": [
          10135382
        ],
        "postalCode": "N5W2N2",
        "streetName": "FLORENCE",
        "streetDirectionId": null,
        "streetTypeId": "ST",
        "placeName": "LONDON",
        "streetNameDisplayText": "FLORENCE ST, LONDON"
      }
    ]
  },
  {
    "postal": "N5W4N8",
    "result": [
      {
        "electoralDistricts": [
          {
            "election": null,
            "id": 53,
            "name": "London—Fanshawe"
          }
        ],
        "pollDivisionIds": [
          10139561
        ],
        "postalCode": "N5W4N8",
        "streetName": "SPRUCE",
        "streetDirectionId": null,
        "streetTypeId": "ST",
        "placeName": "LONDON",
        "streetNameDisplayText": "SPRUCE ST, LONDON"
      }
    ]
  },
  {
    "postal": "N5W3M5",
    "result": [
      {
        "electoralDistricts": [
          {
            "election": null,
            "id": 54,
            "name": "London North Centre"
          }
        ],
        "pollDivisionIds": [
          10135381
        ],
        "postalCode": "N5W3M5",
        "streetName": "PRINCESS",
        "streetDirectionId": null,
        "streetTypeId": "AVE",
        "placeName": "LONDON",
        "streetNameDisplayText": "PRINCESS AVE, LONDON"
      },
      {
        "electoralDistricts": [
          {
            "election": null,
            "id": 54,
            "name": "London North Centre"
          }
        ],
        "pollDivisionIds": [
          10135381
        ],
        "postalCode": "N5W3M5",
        "streetName": "PRINCESS",
        "streetDirectionId": null,
        "streetTypeId": "AVE",
        "placeName": "LONDON,ON",
        "streetNameDisplayText": "PRINCESS AVE, LONDON,ON"
      }
    ]
  },
  {
    "postal": "N5W6H7",
    "result": []
  },
  {
    "postal": "N5W8Y8",
    "result": []
  },
  {
    "postal": "N5W5R9",
    "result": []
  },
  {
    "postal": "N5W8G3",
    "result": []
  },
  {
    "postal": "N5W4N7",
    "result": [
      {
        "electoralDistricts": [
          {
            "election": null,
            "id": 53,
            "name": "London—Fanshawe"
          }
        ],
        "pollDivisionIds": [
          10139561
        ],
        "postalCode": "N5W4N7",
        "streetName": "SPRUCE",
        "streetDirectionId": null,
        "streetTypeId": "ST",
        "placeName": "LONDON",
        "streetNameDisplayText": "SPRUCE ST, LONDON"
      }
    ]
  },
  {
    "postal": "N5W0B9",
    "result": [
      {
        "electoralDistricts": [
          {
            "election": null,
            "id": 54,
            "name": "London North Centre"
          }
        ],
        "pollDivisionIds": [
          10135387
        ],
        "postalCode": "N5W0B9",
        "streetName": "LYLE",
        "streetDirectionId": null,
        "streetTypeId": "ST",
        "placeName": "LONDON",
        "streetNameDisplayText": "LYLE ST, LONDON"
      }
    ]
  },
  {
    "postal": "N5W9K7",
    "result": []
  },
  {
    "postal": "N5W9K9",
    "result": []
  },
  {
    "postal": "N5W3Z2",
    "result": [
      {
        "electoralDistricts": [
          {
            "election": null,
            "id": 54,
            "name": "London North Centre"
          }
        ],
        "pollDivisionIds": [
          10135381
        ],
        "postalCode": "N5W3Z2",
        "streetName": "QUEBEC",
        "streetDirectionId": null,
        "streetTypeId": "ST",
        "placeName": "LONDON",
        "streetNameDisplayText": "QUEBEC ST, LONDON"
      }
    ]
  },
  {
    "postal": "N5W6W7",
    "result": []
  },
  {
    "postal": "N5W0P1",
    "result": []
  },
  {
    "postal": "N5W3A0",
    "result": []
  },
  {
    "postal": "N5W8L9",
    "result": []
  },
  {
    "postal": "N5W6X0",
    "result": []
  },
  {
    "postal": "N5W3E9",
    "result": [
      {
        "electoralDistricts": [
          {
            "election": null,
            "id": 53,
            "name": "London—Fanshawe"
          }
        ],
        "pollDivisionIds": [
          10139562
        ],
        "postalCode": "N5W3E9",
        "streetName": "DUNDAS",
        "streetDirectionId": null,
        "streetTypeId": "ST",
        "placeName": "LONDON",
        "streetNameDisplayText": "DUNDAS ST, LONDON"
      }
    ]
  },
  {
    "postal": "N5W0S5",
    "result": []
  },
  {
    "postal": "N5W1A2",
    "result": [
      {
        "electoralDistricts": [
          {
            "election": null,
            "id": 53,
            "name": "London—Fanshawe"
          }
        ],
        "pollDivisionIds": [
          10139567
        ],
        "postalCode": "N5W1A2",
        "streetName": "HAMILTON",
        "streetDirectionId": null,
        "streetTypeId": "RD",
        "placeName": "LONDON",
        "streetNameDisplayText": "HAMILTON RD, LONDON"
      }
    ]
  },
  {
    "postal": "N5W5V8",
    "result": [
      {
        "electoralDistricts": [
          {
            "election": null,
            "id": 53,
            "name": "London—Fanshawe"
          }
        ],
        "pollDivisionIds": [
          10139566
        ],
        "postalCode": "N5W5V8",
        "streetName": "CLASSIC",
        "streetDirectionId": null,
        "streetTypeId": "DR",
        "placeName": "LONDON",
        "streetNameDisplayText": "CLASSIC DR, LONDON"
      }
    ]
  },
  {
    "postal": "N5W8C5",
    "result": []
  },
  {
    "postal": "N5W6N0",
    "result": []
  },
  {
    "postal": "N5W9E6",
    "result": []
  },
  {
    "postal": "N5W5J7",
    "result": []
  },
  {
    "postal": "N5W2R2",
    "result": [
      {
        "electoralDistricts": [
          {
            "election": null,
            "id": 53,
            "name": "London—Fanshawe"
          }
        ],
        "pollDivisionIds": [
          10139562
        ],
        "postalCode": "N5W2R2",
        "streetName": "BORDEN",
        "streetDirectionId": null,
        "streetTypeId": "ST",
        "placeName": "LONDON",
        "streetNameDisplayText": "BORDEN ST, LONDON"
      }
    ]
  },
  {
    "postal": "N5W0P5",
    "result": []
  },
  {
    "postal": "N5W5A7",
    "result": [
      {
        "electoralDistricts": [
          {
            "election": null,
            "id": 53,
            "name": "London—Fanshawe"
          }
        ],
        "pollDivisionIds": [
          10139562
        ],
        "postalCode": "N5W5A7",
        "streetName": "BEATRICE",
        "streetDirectionId": null,
        "streetTypeId": "ST",
        "placeName": "LONDON",
        "streetNameDisplayText": "BEATRICE ST, LONDON"
      }
    ]
  },
  {
    "postal": "N5W1G1",
    "result": [
      {
        "electoralDistricts": [
          {
            "election": null,
            "id": 53,
            "name": "London—Fanshawe"
          }
        ],
        "pollDivisionIds": [
          10139568,
          10139567
        ],
        "postalCode": "N5W1G1",
        "streetName": "HALE",
        "streetDirectionId": null,
        "streetTypeId": "ST",
        "placeName": "LONDON",
        "streetNameDisplayText": "HALE ST, LONDON"
      }
    ]
  },
  {
    "postal": "N5W9R6",
    "result": []
  },
  {
    "postal": "N5W4Z9",
    "result": [
      {
        "electoralDistricts": [
          {
            "election": null,
            "id": 53,
            "name": "London—Fanshawe"
          }
        ],
        "pollDivisionIds": [
          10139564
        ],
        "postalCode": "N5W4Z9",
        "streetName": "GODDARD",
        "streetDirectionId": null,
        "streetTypeId": "BLVD",
        "placeName": "LONDON",
        "streetNameDisplayText": "GODDARD BLVD, LONDON"
      }
    ]
  },
  {
    "postal": "N5W1V5",
    "result": [
      {
        "electoralDistricts": [
          {
            "election": null,
            "id": 53,
            "name": "London—Fanshawe"
          }
        ],
        "pollDivisionIds": [
          10139566
        ],
        "postalCode": "N5W1V5",
        "streetName": "BRAESYDE",
        "streetDirectionId": null,
        "streetTypeId": "AVE",
        "placeName": "LONDON",
        "streetNameDisplayText": "BRAESYDE AVE, LONDON"
      }
    ]
  },
  {
    "postal": "N5W9Y5",
    "result": []
  },
  {
    "postal": "N5W1P2",
    "result": [
      {
        "electoralDistricts": [
          {
            "election": null,
            "id": 53,
            "name": "London—Fanshawe"
          }
        ],
        "pollDivisionIds": [
          10139567
        ],
        "postalCode": "N5W1P2",
        "streetName": "LAURENTIAN",
        "streetDirectionId": "N",
        "streetTypeId": "DR",
        "placeName": "LONDON",
        "streetNameDisplayText": "LAURENTIAN DR N, LONDON"
      }
    ]
  },
  {
    "postal": "N5W5X0",
    "result": []
  },
  {
    "postal": "N5W7B8",
    "result": []
  },
  {
    "postal": "N5W0C6",
    "result": []
  },
  {
    "postal": "N5W6G1",
    "result": [
      {
        "electoralDistricts": [
          {
            "election": null,
            "id": 53,
            "name": "London—Fanshawe"
          }
        ],
        "pollDivisionIds": [
          10139566
        ],
        "postalCode": "N5W6G1",
        "streetName": "CRIMSON",
        "streetDirectionId": null,
        "streetTypeId": "CRES",
        "placeName": "LONDON",
        "streetNameDisplayText": "CRIMSON CRES, LONDON"
      }
    ]
  },
  {
    "postal": "N5W3K3",
    "result": [
      {
        "electoralDistricts": [
          {
            "election": null,
            "id": 54,
            "name": "London North Centre"
          }
        ],
        "pollDivisionIds": [
          10135381
        ],
        "postalCode": "N5W3K3",
        "streetName": "DUFFERIN",
        "streetDirectionId": null,
        "streetTypeId": "AVE",
        "placeName": "LONDON",
        "streetNameDisplayText": "DUFFERIN AVE, LONDON"
      }
    ]
  },
  {
    "postal": "N5W9R0",
    "result": []
  },
  {
    "postal": "N5W4R8",
    "result": [
      {
        "electoralDistricts": [
          {
            "election": null,
            "id": 53,
            "name": "London—Fanshawe"
          }
        ],
        "pollDivisionIds": [
          10139564
        ],
        "postalCode": "N5W4R8",
        "streetName": "VANCOUVER",
        "streetDirectionId": null,
        "streetTypeId": "ST",
        "placeName": "LONDON",
        "streetNameDisplayText": "VANCOUVER ST, LONDON"
      }
    ]
  },
  {
    "postal": "N5W5P9",
    "result": [
      {
        "electoralDistricts": [
          {
            "election": null,
            "id": 53,
            "name": "London—Fanshawe"
          }
        ],
        "pollDivisionIds": [
          10139564
        ],
        "postalCode": "N5W5P9",
        "streetName": "MOFFATT",
        "streetDirectionId": null,
        "streetTypeId": "AVE",
        "placeName": "LONDON",
        "streetNameDisplayText": "MOFFATT AVE, LONDON"
      }
    ]
  },
  {
    "postal": "N5W8N4",
    "result": []
  },
  {
    "postal": "N5W8H4",
    "result": []
  },
  {
    "postal": "N5W4V1",
    "result": [
      {
        "electoralDistricts": [
          {
            "election": null,
            "id": 53,
            "name": "London—Fanshawe"
          }
        ],
        "pollDivisionIds": [
          10139562
        ],
        "postalCode": "N5W4V1",
        "streetName": "WINNIPEG",
        "streetDirectionId": null,
        "streetTypeId": "BLVD",
        "placeName": "LONDON",
        "streetNameDisplayText": "WINNIPEG BLVD, LONDON"
      }
    ]
  },
  {
    "postal": "N5W1K5",
    "result": [
      {
        "electoralDistricts": [
          {
            "election": null,
            "id": 53,
            "name": "London—Fanshawe"
          }
        ],
        "pollDivisionIds": [
          10139567
        ],
        "postalCode": "N5W1K5",
        "streetName": "TWEEDSMUIR",
        "streetDirectionId": null,
        "streetTypeId": "AVE",
        "placeName": "LONDON",
        "streetNameDisplayText": "TWEEDSMUIR AVE, LONDON"
      }
    ]
  },
  {
    "postal": "N5W1Z5",
    "result": [
      {
        "electoralDistricts": [
          {
            "election": null,
            "id": 53,
            "name": "London—Fanshawe"
          }
        ],
        "pollDivisionIds": [
          10139564
        ],
        "postalCode": "N5W1Z5",
        "streetName": "GLASS",
        "streetDirectionId": null,
        "streetTypeId": "AVE",
        "placeName": "LONDON",
        "streetNameDisplayText": "GLASS AVE, LONDON"
      }
    ]
  },
  {
    "postal": "N5W9L9",
    "result": []
  },
  {
    "postal": "N5W5L2",
    "result": [
      {
        "electoralDistricts": [
          {
            "election": null,
            "id": 53,
            "name": "London—Fanshawe"
          }
        ],
        "pollDivisionIds": [
          10139564
        ],
        "postalCode": "N5W5L2",
        "streetName": "HIGHBURY",
        "streetDirectionId": "N",
        "streetTypeId": "AVE",
        "placeName": "LONDON",
        "streetNameDisplayText": "HIGHBURY AVE N, LONDON"
      }
    ]
  },
  {
    "postal": "N5W0M2",
    "result": []
  },
  {
    "postal": "N5W1K8",
    "result": [
      {
        "electoralDistricts": [
          {
            "election": null,
            "id": 53,
            "name": "London—Fanshawe"
          }
        ],
        "pollDivisionIds": [
          10139567
        ],
        "postalCode": "N5W1K8",
        "streetName": "TWEEDSMUIR",
        "streetDirectionId": null,
        "streetTypeId": "AVE",
        "placeName": "LONDON",
        "streetNameDisplayText": "TWEEDSMUIR AVE, LONDON"
      }
    ]
  },
  {
    "postal": "N5W3M7",
    "result": [
      {
        "electoralDistricts": [
          {
            "election": null,
            "id": 54,
            "name": "London North Centre"
          }
        ],
        "pollDivisionIds": [
          10135381
        ],
        "postalCode": "N5W3M7",
        "streetName": "PRINCESS",
        "streetDirectionId": null,
        "streetTypeId": "AVE",
        "placeName": "LONDON",
        "streetNameDisplayText": "PRINCESS AVE, LONDON"
      }
    ]
  },
  {
    "postal": "N5W1B2",
    "result": [
      {
        "electoralDistricts": [
          {
            "election": null,
            "id": 53,
            "name": "London—Fanshawe"
          }
        ],
        "pollDivisionIds": [
          10139566
        ],
        "postalCode": "N5W1B2",
        "streetName": "HAMILTON",
        "streetDirectionId": null,
        "streetTypeId": "RD",
        "placeName": "LONDON",
        "streetNameDisplayText": "HAMILTON RD, LONDON"
      }
    ]
  },
  {
    "postal": "N5W0H9",
    "result": []
  },
  {
    "postal": "N5W8M4",
    "result": []
  },
  {
    "postal": "N5W2M5",
    "result": [
      {
        "electoralDistricts": [
          {
            "election": null,
            "id": 53,
            "name": "London—Fanshawe"
          }
        ],
        "pollDivisionIds": [
          10139564
        ],
        "postalCode": "N5W2M5",
        "streetName": "EASTMAN",
        "streetDirectionId": null,
        "streetTypeId": "AVE",
        "placeName": "LONDON",
        "streetNameDisplayText": "EASTMAN AVE, LONDON"
      },
      {
        "electoralDistricts": [
          {
            "election": null,
            "id": 54,
            "name": "London North Centre"
          }
        ],
        "pollDivisionIds": [
          10135377
        ],
        "postalCode": "N5W2M5",
        "streetName": "PRINCESS",
        "streetDirectionId": null,
        "streetTypeId": "AVE",
        "placeName": "LONDON,ON",
        "streetNameDisplayText": "PRINCESS AVE, LONDON,ON"
      }
    ]
  },
  {
    "postal": "N5W0T9",
    "result": []
  },
  {
    "postal": "N5W3P1",
    "result": [
      {
        "electoralDistricts": [
          {
            "election": null,
            "id": 54,
            "name": "London North Centre"
          }
        ],
        "pollDivisionIds": [
          10135381
        ],
        "postalCode": "N5W3P1",
        "streetName": "ELIAS",
        "streetDirectionId": null,
        "streetTypeId": "ST",
        "placeName": "LONDON",
        "streetNameDisplayText": "ELIAS ST, LONDON"
      }
    ]
  },
  {
    "postal": "N5W1R6",
    "result": [
      {
        "electoralDistricts": [
          {
            "election": null,
            "id": 53,
            "name": "London—Fanshawe"
          }
        ],
        "pollDivisionIds": [
          10139567
        ],
        "postalCode": "N5W1R6",
        "streetName": "NIAGARA",
        "streetDirectionId": null,
        "streetTypeId": "ST",
        "placeName": "LONDON",
        "streetNameDisplayText": "NIAGARA ST, LONDON"
      }
    ]
  },
  {
    "postal": "N5W9V5",
    "result": []
  },
  {
    "postal": "N5W9T0",
    "result": []
  },
  {
    "postal": "N5W0A9",
    "result": [
      {
        "electoralDistricts": [
          {
            "election": null,
            "id": 54,
            "name": "London North Centre"
          }
        ],
        "pollDivisionIds": [
          10135387
        ],
        "postalCode": "N5W0A9",
        "streetName": "MARSHALL",
        "streetDirectionId": null,
        "streetTypeId": "ST",
        "placeName": "LONDON",
        "streetNameDisplayText": "MARSHALL ST, LONDON"
      }
    ]
  },
  {
    "postal": "N5W1M3",
    "result": [
      {
        "electoralDistricts": [
          {
            "election": null,
            "id": 53,
            "name": "London—Fanshawe"
          }
        ],
        "pollDivisionIds": [
          10139567
        ],
        "postalCode": "N5W1M3",
        "streetName": "MANITOULIN",
        "streetDirectionId": null,
        "streetTypeId": "DR",
        "placeName": "LONDON",
        "streetNameDisplayText": "MANITOULIN DR, LONDON"
      }
    ]
  },
  {
    "postal": "N5W1W8",
    "result": [
      {
        "electoralDistricts": [
          {
            "election": null,
            "id": 53,
            "name": "London—Fanshawe"
          }
        ],
        "pollDivisionIds": [
          10139564
        ],
        "postalCode": "N5W1W8",
        "streetName": "TRAFALGAR",
        "streetDirectionId": null,
        "streetTypeId": "ST",
        "placeName": "LONDON",
        "streetNameDisplayText": "TRAFALGAR ST, LONDON"
      }
    ]
  },
  {
    "postal": "N5W9J1",
    "result": []
  },
  {
    "postal": "N5W8N5",
    "result": []
  },
  {
    "postal": "N5W5X1",
    "result": [
      {
        "electoralDistricts": [
          {
            "election": null,
            "id": 53,
            "name": "London—Fanshawe"
          }
        ],
        "pollDivisionIds": [
          10139566
        ],
        "postalCode": "N5W5X1",
        "streetName": "CLASSIC",
        "streetDirectionId": null,
        "streetTypeId": "DR",
        "placeName": "LONDON",
        "streetNameDisplayText": "CLASSIC DR, LONDON"
      }
    ]
  },
  {
    "postal": "N5W6S2",
    "result": []
  },
  {
    "postal": "N5W2A2",
    "result": [
      {
        "electoralDistricts": [
          {
            "election": null,
            "id": 53,
            "name": "London—Fanshawe"
          }
        ],
        "pollDivisionIds": [
          10139564
        ],
        "postalCode": "N5W2A2",
        "streetName": "MOFFATT",
        "streetDirectionId": null,
        "streetTypeId": "AVE",
        "placeName": "LONDON",
        "streetNameDisplayText": "MOFFATT AVE, LONDON"
      }
    ]
  },
  {
    "postal": "N5W6A6",
    "result": [
      {
        "electoralDistricts": [
          {
            "election": null,
            "id": 53,
            "name": "London—Fanshawe"
          }
        ],
        "pollDivisionIds": [
          10139562
        ],
        "postalCode": "N5W6A6",
        "streetName": "WHITNEY",
        "streetDirectionId": null,
        "streetTypeId": "ST",
        "placeName": "LONDON",
        "streetNameDisplayText": "WHITNEY ST, LONDON"
      }
    ]
  },
  {
    "postal": "N5W0S3",
    "result": []
  },
  {
    "postal": "N5W3E7",
    "result": [
      {
        "electoralDistricts": [
          {
            "election": null,
            "id": 53,
            "name": "London—Fanshawe"
          }
        ],
        "pollDivisionIds": [
          10139562
        ],
        "postalCode": "N5W3E7",
        "streetName": "DUNDAS",
        "streetDirectionId": null,
        "streetTypeId": "ST",
        "placeName": "LONDON",
        "streetNameDisplayText": "DUNDAS ST, LONDON"
      }
    ]
  },
  {
    "postal": "N5W5R7",
    "result": []
  },
  {
    "postal": "N5W3R6",
    "result": [
      {
        "electoralDistricts": [
          {
            "election": null,
            "id": 54,
            "name": "London North Centre"
          }
        ],
        "pollDivisionIds": [
          10135387
        ],
        "postalCode": "N5W3R6",
        "streetName": "LYLE",
        "streetDirectionId": null,
        "streetTypeId": "ST",
        "placeName": "LONDON",
        "streetNameDisplayText": "LYLE ST, LONDON"
      }
    ]
  },
  {
    "postal": "N5W6K4",
    "result": []
  },
  {
    "postal": "N5W2W5",
    "result": [
      {
        "electoralDistricts": [
          {
            "election": null,
            "id": 53,
            "name": "London—Fanshawe"
          }
        ],
        "pollDivisionIds": [
          10139562
        ],
        "postalCode": "N5W2W5",
        "streetName": "WHITNEY",
        "streetDirectionId": null,
        "streetTypeId": "ST",
        "placeName": "LONDON",
        "streetNameDisplayText": "WHITNEY ST, LONDON"
      }
    ]
  },
  {
    "postal": "N5W8W4",
    "result": []
  },
  {
    "postal": "N5W9C2",
    "result": []
  },
  {
    "postal": "N5W2C0",
    "result": []
  },
  {
    "postal": "N5W0E1",
    "result": []
  },
  {
    "postal": "N5W1K9",
    "result": [
      {
        "electoralDistricts": [
          {
            "election": null,
            "id": 53,
            "name": "London—Fanshawe"
          }
        ],
        "pollDivisionIds": [
          10139567
        ],
        "postalCode": "N5W1K9",
        "streetName": "TWEEDSMUIR",
        "streetDirectionId": null,
        "streetTypeId": "AVE",
        "placeName": "LONDON",
        "streetNameDisplayText": "TWEEDSMUIR AVE, LONDON"
      }
    ]
  },
  {
    "postal": "N5W1G7",
    "result": [
      {
        "electoralDistricts": [
          {
            "election": null,
            "id": 53,
            "name": "London—Fanshawe"
          }
        ],
        "pollDivisionIds": [
          10139564
        ],
        "postalCode": "N5W1G7",
        "streetName": "HALE",
        "streetDirectionId": null,
        "streetTypeId": "ST",
        "placeName": "LONDON",
        "streetNameDisplayText": "HALE ST, LONDON"
      }
    ]
  },
  {
    "postal": "N5W4E9",
    "result": [
      {
        "electoralDistricts": [
          {
            "election": null,
            "id": 54,
            "name": "London North Centre"
          }
        ],
        "pollDivisionIds": [
          10135382
        ],
        "postalCode": "N5W4E9",
        "streetName": "ASHLAND",
        "streetDirectionId": null,
        "streetTypeId": "AVE",
        "placeName": "LONDON",
        "streetNameDisplayText": "ASHLAND AVE, LONDON"
      }
    ]
  },
  {
    "postal": "N5W9P0",
    "result": []
  },
  {
    "postal": "N5W5H3",
    "result": []
  },
  {
    "postal": "N5W9X6",
    "result": []
  },
  {
    "postal": "N5W5N7",
    "result": []
  },
  {
    "postal": "N5W5A6",
    "result": [
      {
        "electoralDistricts": [
          {
            "election": null,
            "id": 53,
            "name": "London—Fanshawe"
          }
        ],
        "pollDivisionIds": [
          10139564
        ],
        "postalCode": "N5W5A6",
        "streetName": "MERLIN",
        "streetDirectionId": null,
        "streetTypeId": "CRES",
        "placeName": "LONDON",
        "streetNameDisplayText": "MERLIN CRES, LONDON"
      }
    ]
  },
  {
    "postal": "N5W4M0",
    "result": []
  },
  {
    "postal": "N5W3V6",
    "result": [
      {
        "electoralDistricts": [
          {
            "election": null,
            "id": 54,
            "name": "London North Centre"
          }
        ],
        "pollDivisionIds": [
          10135377,
          10135387
        ],
        "postalCode": "N5W3V6",
        "streetName": "QUEENS",
        "streetDirectionId": null,
        "streetTypeId": "PL",
        "placeName": "LONDON",
        "streetNameDisplayText": "QUEENS PL, LONDON"
      }
    ]
  },
  {
    "postal": "N5W1L7",
    "result": [
      {
        "electoralDistricts": [
          {
            "election": null,
            "id": 53,
            "name": "London—Fanshawe"
          }
        ],
        "pollDivisionIds": [
          10139567
        ],
        "postalCode": "N5W1L7",
        "streetName": "TWEEDSMUIR",
        "streetDirectionId": null,
        "streetTypeId": "AVE",
        "placeName": "LONDON",
        "streetNameDisplayText": "TWEEDSMUIR AVE, LONDON"
      }
    ]
  },
  {
    "postal": "N5W2P9",
    "result": [
      {
        "electoralDistricts": [
          {
            "election": null,
            "id": 53,
            "name": "London—Fanshawe"
          }
        ],
        "pollDivisionIds": [
          10139561
        ],
        "postalCode": "N5W2P9",
        "streetName": "BORDEN",
        "streetDirectionId": null,
        "streetTypeId": "ST",
        "placeName": "LONDON",
        "streetNameDisplayText": "BORDEN ST, LONDON"
      }
    ]
  },
  {
    "postal": "N5W5T4",
    "result": [
      {
        "electoralDistricts": [
          {
            "election": null,
            "id": 53,
            "name": "London—Fanshawe"
          }
        ],
        "pollDivisionIds": [
          10139566
        ],
        "postalCode": "N5W5T4",
        "streetName": "CLASSIC",
        "streetDirectionId": null,
        "streetTypeId": "DR",
        "placeName": "LONDON",
        "streetNameDisplayText": "CLASSIC DR, LONDON"
      }
    ]
  },
  {
    "postal": "N5W5Z1",
    "result": [
      {
        "electoralDistricts": [
          {
            "election": null,
            "id": 53,
            "name": "London—Fanshawe"
          }
        ],
        "pollDivisionIds": [
          10139566
        ],
        "postalCode": "N5W5Z1",
        "streetName": "DANIELLE",
        "streetDirectionId": null,
        "streetTypeId": "CRES",
        "placeName": "LONDON",
        "streetNameDisplayText": "DANIELLE CRES, LONDON"
      },
      {
        "electoralDistricts": [
          {
            "election": null,
            "id": 53,
            "name": "London—Fanshawe"
          }
        ],
        "pollDivisionIds": [
          10139566
        ],
        "postalCode": "N5W5Z1",
        "streetName": "RIVER RUN",
        "streetDirectionId": null,
        "streetTypeId": "TERR",
        "placeName": "LONDON",
        "streetNameDisplayText": "RIVER RUN TERR, LONDON"
      }
    ]
  },
  {
    "postal": "N5W2X0",
    "result": []
  },
  {
    "postal": "N5W6Z2",
    "result": []
  },
  {
    "postal": "N5W0E0",
    "result": []
  },
  {
    "postal": "N5W3Z5",
    "result": [
      {
        "electoralDistricts": [
          {
            "election": null,
            "id": 54,
            "name": "London North Centre"
          }
        ],
        "pollDivisionIds": [
          10135382
        ],
        "postalCode": "N5W3Z5",
        "streetName": "EGERTON",
        "streetDirectionId": null,
        "streetTypeId": "ST",
        "placeName": "LONDON",
        "streetNameDisplayText": "EGERTON ST, LONDON"
      }
    ]
  },
  {
    "postal": "N5W8H3",
    "result": []
  },
  {
    "postal": "N5W7S6",
    "result": []
  },
  {
    "postal": "N5W4C1",
    "result": [
      {
        "electoralDistricts": [
          {
            "election": null,
            "id": 54,
            "name": "London North Centre"
          }
        ],
        "pollDivisionIds": [
          10135382
        ],
        "postalCode": "N5W4C1",
        "streetName": "CHILDERS",
        "streetDirectionId": null,
        "streetTypeId": "ST",
        "placeName": "LONDON",
        "streetNameDisplayText": "CHILDERS ST, LONDON"
      }
    ]
  },
  {
    "postal": "N5W3K2",
    "result": [
      {
        "electoralDistricts": [
          {
            "election": null,
            "id": 54,
            "name": "London North Centre"
          }
        ],
        "pollDivisionIds": [
          10135381
        ],
        "postalCode": "N5W3K2",
        "streetName": "DUFFERIN",
        "streetDirectionId": null,
        "streetTypeId": "AVE",
        "placeName": "LONDON",
        "streetNameDisplayText": "DUFFERIN AVE, LONDON"
      }
    ]
  },
  {
    "postal": "N5W1Y5",
    "result": [
      {
        "electoralDistricts": [
          {
            "election": null,
            "id": 53,
            "name": "London—Fanshawe"
          }
        ],
        "pollDivisionIds": [
          10139564
        ],
        "postalCode": "N5W1Y5",
        "streetName": "STEVENSON",
        "streetDirectionId": null,
        "streetTypeId": "AVE",
        "placeName": "LONDON",
        "streetNameDisplayText": "STEVENSON AVE, LONDON"
      }
    ]
  },
  {
    "postal": "N5W6P6",
    "result": []
  },
  {
    "postal": "N5W3N9",
    "result": [
      {
        "electoralDistricts": [
          {
            "election": null,
            "id": 54,
            "name": "London North Centre"
          }
        ],
        "pollDivisionIds": [
          10135381
        ],
        "postalCode": "N5W3N9",
        "streetName": "ELIAS",
        "streetDirectionId": null,
        "streetTypeId": "ST",
        "placeName": "LONDON",
        "streetNameDisplayText": "ELIAS ST, LONDON"
      }
    ]
  },
  {
    "postal": "N5W3W2",
    "result": []
  },
  {
    "postal": "N5W6H8",
    "result": []
  },
  {
    "postal": "N5W9T3",
    "result": []
  },
  {
    "postal": "N5W5L9",
    "result": [
      {
        "electoralDistricts": [
          {
            "election": null,
            "id": 53,
            "name": "London—Fanshawe"
          }
        ],
        "pollDivisionIds": [
          10139567
        ],
        "postalCode": "N5W5L9",
        "streetName": "MONTEBELLO",
        "streetDirectionId": null,
        "streetTypeId": "DR",
        "placeName": "LONDON",
        "streetNameDisplayText": "MONTEBELLO DR, LONDON"
      }
    ]
  },
  {
    "postal": "N5W7X7",
    "result": []
  },
  {
    "postal": "N5W3J5",
    "result": [
      {
        "electoralDistricts": [
          {
            "election": null,
            "id": 54,
            "name": "London North Centre"
          }
        ],
        "pollDivisionIds": [
          10135382
        ],
        "postalCode": "N5W3J5",
        "streetName": "GLEESON",
        "streetDirectionId": null,
        "streetTypeId": "ST",
        "placeName": "LONDON",
        "streetNameDisplayText": "GLEESON ST, LONDON"
      }
    ]
  },
  {
    "postal": "N5W4J5",
    "result": [
      {
        "electoralDistricts": [
          {
            "election": null,
            "id": 54,
            "name": "London North Centre"
          }
        ],
        "pollDivisionIds": [
          10135382
        ],
        "postalCode": "N5W4J5",
        "streetName": "OAKLAND",
        "streetDirectionId": null,
        "streetTypeId": "AVE",
        "placeName": "LONDON",
        "streetNameDisplayText": "OAKLAND AVE, LONDON"
      }
    ]
  },
  {
    "postal": "N5W6J2",
    "result": []
  },
  {
    "postal": "N5W5V6",
    "result": [
      {
        "electoralDistricts": [
          {
            "election": null,
            "id": 53,
            "name": "London—Fanshawe"
          }
        ],
        "pollDivisionIds": [
          10139566
        ],
        "postalCode": "N5W5V6",
        "streetName": "CLASSIC",
        "streetDirectionId": null,
        "streetTypeId": "DR",
        "placeName": "LONDON",
        "streetNameDisplayText": "CLASSIC DR, LONDON"
      }
    ]
  },
  {
    "postal": "N5W3N2",
    "result": []
  },
  {
    "postal": "N5W3B1",
    "result": [
      {
        "electoralDistricts": [
          {
            "election": null,
            "id": 53,
            "name": "London—Fanshawe"
          }
        ],
        "pollDivisionIds": [
          10139557
        ],
        "postalCode": "N5W3B1",
        "streetName": "DUNDAS",
        "streetDirectionId": "E",
        "streetTypeId": "ST",
        "placeName": "LONDON",
        "streetNameDisplayText": "DUNDAS ST E, LONDON"
      },
      {
        "electoralDistricts": [
          {
            "election": null,
            "id": 54,
            "name": "London North Centre"
          }
        ],
        "pollDivisionIds": [
          10135382
        ],
        "postalCode": "N5W3B1",
        "streetName": "DUNDAS",
        "streetDirectionId": null,
        "streetTypeId": "ST",
        "placeName": "LONDON",
        "streetNameDisplayText": "DUNDAS ST, LONDON"
      }
    ]
  },
  {
    "postal": "N5W8B5",
    "result": []
  },
  {
    "postal": "N5W0K1",
    "result": []
  },
  {
    "postal": "N5W7M7",
    "result": []
  },
  {
    "postal": "N5W2M2",
    "result": [
      {
        "electoralDistricts": [
          {
            "election": null,
            "id": 53,
            "name": "London—Fanshawe"
          }
        ],
        "pollDivisionIds": [
          10139564
        ],
        "postalCode": "N5W2M2",
        "streetName": "EASTMAN",
        "streetDirectionId": null,
        "streetTypeId": "AVE",
        "placeName": "LONDON",
        "streetNameDisplayText": "EASTMAN AVE, LONDON"
      }
    ]
  },
  {
    "postal": "N5W9N3",
    "result": []
  },
  {
    "postal": "N5W4Y8",
    "result": [
      {
        "electoralDistricts": [
          {
            "election": null,
            "id": 53,
            "name": "London—Fanshawe"
          }
        ],
        "pollDivisionIds": [
          10139562
        ],
        "postalCode": "N5W4Y8",
        "streetName": "KATHLEEN",
        "streetDirectionId": null,
        "streetTypeId": "AVE",
        "placeName": "LONDON",
        "streetNameDisplayText": "KATHLEEN AVE, LONDON"
      }
    ]
  },
  {
    "postal": "N5W3V7",
    "result": [
      {
        "electoralDistricts": [
          {
            "election": null,
            "id": 54,
            "name": "London North Centre"
          }
        ],
        "pollDivisionIds": [
          10135387
        ],
        "postalCode": "N5W3V7",
        "streetName": "QUEENS",
        "streetDirectionId": null,
        "streetTypeId": "PL",
        "placeName": "LONDON",
        "streetNameDisplayText": "QUEENS PL, LONDON"
      }
    ]
  },
  {
    "postal": "N5W8Z1",
    "result": []
  },
  {
    "postal": "N5W7B3",
    "result": []
  },
  {
    "postal": "N5W3A8",
    "result": [
      {
        "electoralDistricts": [
          {
            "election": null,
            "id": 54,
            "name": "London North Centre"
          }
        ],
        "pollDivisionIds": [
          10135382
        ],
        "postalCode": "N5W3A8",
        "streetName": "DUNDAS",
        "streetDirectionId": "E",
        "streetTypeId": "ST",
        "placeName": "LONDON",
        "streetNameDisplayText": "DUNDAS ST E, LONDON"
      },
      {
        "electoralDistricts": [
          {
            "election": null,
            "id": 54,
            "name": "London North Centre"
          }
        ],
        "pollDivisionIds": [
          10135382
        ],
        "postalCode": "N5W3A8",
        "streetName": "DUNDAS",
        "streetDirectionId": null,
        "streetTypeId": "ST",
        "placeName": "LONDON",
        "streetNameDisplayText": "DUNDAS ST, LONDON"
      }
    ]
  },
  {
    "postal": "N5W7V5",
    "result": []
  },
  {
    "postal": "N5W2T2",
    "result": []
  },
  {
    "postal": "N5W6L3",
    "result": []
  },
  {
    "postal": "N5W0L2",
    "result": []
  },
  {
    "postal": "N5W5Y8",
    "result": [
      {
        "electoralDistricts": [
          {
            "election": null,
            "id": 54,
            "name": "London North Centre"
          }
        ],
        "pollDivisionIds": [
          10135387
        ],
        "postalCode": "N5W5Y8",
        "streetName": "YORK",
        "streetDirectionId": null,
        "streetTypeId": "ST",
        "placeName": "LONDON",
        "streetNameDisplayText": "YORK ST, LONDON"
      }
    ]
  },
  {
    "postal": "N5W0B8",
    "result": []
  },
  {
    "postal": "N5W6R5",
    "result": []
  },
  {
    "postal": "N5W8W6",
    "result": []
  },
  {
    "postal": "N5W8G6",
    "result": []
  },
  {
    "postal": "N5W6X3",
    "result": []
  },
  {
    "postal": "N5W7R7",
    "result": []
  },
  {
    "postal": "N5W4B6",
    "result": [
      {
        "electoralDistricts": [
          {
            "election": null,
            "id": 54,
            "name": "London North Centre"
          }
        ],
        "pollDivisionIds": [
          10135382
        ],
        "postalCode": "N5W4B6",
        "streetName": "SWINYARD",
        "streetDirectionId": null,
        "streetTypeId": "ST",
        "placeName": "LONDON",
        "streetNameDisplayText": "SWINYARD ST, LONDON"
      }
    ]
  },
  {
    "postal": "N5W3P9",
    "result": [
      {
        "electoralDistricts": [
          {
            "election": null,
            "id": 54,
            "name": "London North Centre"
          }
        ],
        "pollDivisionIds": [
          10135376
        ],
        "postalCode": "N5W3P9",
        "streetName": "CENTRAL",
        "streetDirectionId": null,
        "streetTypeId": "AVE",
        "placeName": "LONDON",
        "streetNameDisplayText": "CENTRAL AVE, LONDON"
      }
    ]
  },
  {
    "postal": "N5W2T3",
    "result": []
  },
  {
    "postal": "N5W1M4",
    "result": [
      {
        "electoralDistricts": [
          {
            "election": null,
            "id": 53,
            "name": "London—Fanshawe"
          }
        ],
        "pollDivisionIds": [
          10139567
        ],
        "postalCode": "N5W1M4",
        "streetName": "MANITOULIN",
        "streetDirectionId": null,
        "streetTypeId": "DR",
        "placeName": "LONDON",
        "streetNameDisplayText": "MANITOULIN DR, LONDON"
      }
    ]
  },
  {
    "postal": "N5W0H1",
    "result": []
  },
  {
    "postal": "N5W9W3",
    "result": []
  },
  {
    "postal": "N5W6P1",
    "result": []
  },
  {
    "postal": "N5W7G2",
    "result": []
  },
  {
    "postal": "N5W4J9",
    "result": [
      {
        "electoralDistricts": [
          {
            "election": null,
            "id": 54,
            "name": "London North Centre"
          }
        ],
        "pollDivisionIds": [
          10135382
        ],
        "postalCode": "N5W4J9",
        "streetName": "OAKLAND",
        "streetDirectionId": null,
        "streetTypeId": "AVE",
        "placeName": "LONDON",
        "streetNameDisplayText": "OAKLAND AVE, LONDON"
      }
    ]
  },
  {
    "postal": "N5W9E4",
    "result": []
  },
  {
    "postal": "N5W8H0",
    "result": []
  },
  {
    "postal": "N5W4M7",
    "result": [
      {
        "electoralDistricts": [
          {
            "election": null,
            "id": 53,
            "name": "London—Fanshawe"
          }
        ],
        "pollDivisionIds": [
          10139564
        ],
        "postalCode": "N5W4M7",
        "streetName": "CRONYN",
        "streetDirectionId": null,
        "streetTypeId": "CRES",
        "placeName": "LONDON",
        "streetNameDisplayText": "CRONYN CRES, LONDON"
      }
    ]
  },
  {
    "postal": "N5W2G9",
    "result": [
      {
        "electoralDistricts": [
          {
            "election": null,
            "id": 54,
            "name": "London North Centre"
          }
        ],
        "pollDivisionIds": [
          10135382
        ],
        "postalCode": "N5W2G9",
        "streetName": "WILTON",
        "streetDirectionId": null,
        "streetTypeId": "AVE",
        "placeName": "LONDON",
        "streetNameDisplayText": "WILTON AVE, LONDON"
      }
    ]
  },
  {
    "postal": "N5W8T2",
    "result": []
  },
  {
    "postal": "N5W7G7",
    "result": []
  },
  {
    "postal": "N5W4Z3",
    "result": [
      {
        "electoralDistricts": [
          {
            "election": null,
            "id": 53,
            "name": "London—Fanshawe"
          }
        ],
        "pollDivisionIds": [
          10139564
        ],
        "postalCode": "N5W4Z3",
        "streetName": "ATKINSON",
        "streetDirectionId": null,
        "streetTypeId": "BLVD",
        "placeName": "LONDON",
        "streetNameDisplayText": "ATKINSON BLVD, LONDON"
      }
    ]
  },
  {
    "postal": "N5W5B3",
    "result": [
      {
        "electoralDistricts": [
          {
            "election": null,
            "id": 53,
            "name": "London—Fanshawe"
          }
        ],
        "pollDivisionIds": [
          10139562
        ],
        "postalCode": "N5W5B3",
        "streetName": "AVONDALE",
        "streetDirectionId": null,
        "streetTypeId": "RD",
        "placeName": "LONDON",
        "streetNameDisplayText": "AVONDALE RD, LONDON"
      }
    ]
  },
  {
    "postal": "N5W1S7",
    "result": [
      {
        "electoralDistricts": [
          {
            "election": null,
            "id": 53,
            "name": "London—Fanshawe"
          }
        ],
        "pollDivisionIds": [
          10139567
        ],
        "postalCode": "N5W1S7",
        "streetName": "ELDORADO",
        "streetDirectionId": null,
        "streetTypeId": "AVE",
        "placeName": "LONDON",
        "streetNameDisplayText": "ELDORADO AVE, LONDON"
      }
    ]
  },
  {
    "postal": "N5W2N7",
    "result": [
      {
        "electoralDistricts": [
          {
            "election": null,
            "id": 54,
            "name": "London North Centre"
          }
        ],
        "pollDivisionIds": [
          10135382
        ],
        "postalCode": "N5W2N7",
        "streetName": "FLORENCE",
        "streetDirectionId": null,
        "streetTypeId": "ST",
        "placeName": "LONDON",
        "streetNameDisplayText": "FLORENCE ST, LONDON"
      }
    ]
  },
  {
    "postal": "N5W0H8",
    "result": []
  },
  {
    "postal": "N5W7Z4",
    "result": []
  },
  {
    "postal": "N5W7B1",
    "result": []
  },
  {
    "postal": "N5W7P8",
    "result": []
  },
  {
    "postal": "N5W7N0",
    "result": []
  },
  {
    "postal": "N5W3Y5",
    "result": [
      {
        "electoralDistricts": [
          {
            "election": null,
            "id": 54,
            "name": "London North Centre"
          }
        ],
        "pollDivisionIds": [
          10135381
        ],
        "postalCode": "N5W3Y5",
        "streetName": "QUEBEC",
        "streetDirectionId": null,
        "streetTypeId": "ST",
        "placeName": "LONDON",
        "streetNameDisplayText": "QUEBEC ST, LONDON"
      }
    ]
  },
  {
    "postal": "N5W6K1",
    "result": []
  },
  {
    "postal": "N5W9X5",
    "result": []
  },
  {
    "postal": "N5W7S5",
    "result": []
  },
  {
    "postal": "N5W0A4",
    "result": [
      {
        "electoralDistricts": [
          {
            "election": null,
            "id": 53,
            "name": "London—Fanshawe"
          }
        ],
        "pollDivisionIds": [
          10139566
        ],
        "postalCode": "N5W0A4",
        "streetName": "FREDERICK",
        "streetDirectionId": null,
        "streetTypeId": "CRES",
        "placeName": "LONDON",
        "streetNameDisplayText": "FREDERICK CRES, LONDON"
      }
    ]
  },
  {
    "postal": "N5W4T5",
    "result": [
      {
        "electoralDistricts": [
          {
            "election": null,
            "id": 53,
            "name": "London—Fanshawe"
          }
        ],
        "pollDivisionIds": [
          10139562
        ],
        "postalCode": "N5W4T5",
        "streetName": "SAUL",
        "streetDirectionId": null,
        "streetTypeId": "ST",
        "placeName": "LONDON",
        "streetNameDisplayText": "SAUL ST, LONDON"
      }
    ]
  },
  {
    "postal": "N5W5K1",
    "result": []
  },
  {
    "postal": "N5W0Z9",
    "result": []
  },
  {
    "postal": "N5W7T2",
    "result": []
  },
  {
    "postal": "N5W1L5",
    "result": [
      {
        "electoralDistricts": [
          {
            "election": null,
            "id": 53,
            "name": "London—Fanshawe"
          }
        ],
        "pollDivisionIds": [
          10139567
        ],
        "postalCode": "N5W1L5",
        "streetName": "TWEEDSMUIR",
        "streetDirectionId": null,
        "streetTypeId": "AVE",
        "placeName": "LONDON",
        "streetNameDisplayText": "TWEEDSMUIR AVE, LONDON"
      }
    ]
  },
  {
    "postal": "N5W3N5",
    "result": [
      {
        "electoralDistricts": [
          {
            "election": null,
            "id": 54,
            "name": "London North Centre"
          }
        ],
        "pollDivisionIds": [
          10135376
        ],
        "postalCode": "N5W3N5",
        "streetName": "ELIAS",
        "streetDirectionId": null,
        "streetTypeId": "ST",
        "placeName": "LONDON",
        "streetNameDisplayText": "ELIAS ST, LONDON"
      }
    ]
  },
  {
    "postal": "N5W6H4",
    "result": []
  },
  {
    "postal": "N5W5A5",
    "result": [
      {
        "electoralDistricts": [
          {
            "election": null,
            "id": 53,
            "name": "London—Fanshawe"
          }
        ],
        "pollDivisionIds": [
          10139564
        ],
        "postalCode": "N5W5A5",
        "streetName": "MERLIN",
        "streetDirectionId": null,
        "streetTypeId": "CRES",
        "placeName": "LONDON",
        "streetNameDisplayText": "MERLIN CRES, LONDON"
      }
    ]
  },
  {
    "postal": "N5W3R9",
    "result": [
      {
        "electoralDistricts": [
          {
            "election": null,
            "id": 54,
            "name": "London North Centre"
          }
        ],
        "pollDivisionIds": [
          10135387
        ],
        "postalCode": "N5W3R9",
        "streetName": "ELIZABETH",
        "streetDirectionId": null,
        "streetTypeId": "ST",
        "placeName": "LONDON",
        "streetNameDisplayText": "ELIZABETH ST, LONDON"
      }
    ]
  },
  {
    "postal": "N5W7L8",
    "result": []
  },
  {
    "postal": "N5W6T6",
    "result": []
  },
  {
    "postal": "N5W7Y7",
    "result": []
  },
  {
    "postal": "N5W3M8",
    "result": [
      {
        "electoralDistricts": [
          {
            "election": null,
            "id": 54,
            "name": "London North Centre"
          }
        ],
        "pollDivisionIds": [
          10135381,
          10135344
        ],
        "postalCode": "N5W3M8",
        "streetName": "PRINCESS",
        "streetDirectionId": null,
        "streetTypeId": "AVE",
        "placeName": "LONDON",
        "streetNameDisplayText": "PRINCESS AVE, LONDON"
      }
    ]
  },
  {
    "postal": "N5W2E0",
    "result": []
  },
  {
    "postal": "N5W4B5",
    "result": [
      {
        "electoralDistricts": [
          {
            "election": null,
            "id": 54,
            "name": "London North Centre"
          }
        ],
        "pollDivisionIds": [
          10135381
        ],
        "postalCode": "N5W4B5",
        "streetName": "BURBROOK",
        "streetDirectionId": null,
        "streetTypeId": "PL",
        "placeName": "LONDON",
        "streetNameDisplayText": "BURBROOK PL, LONDON"
      }
    ]
  },
  {
    "postal": "N5W1J3",
    "result": [
      {
        "electoralDistricts": [
          {
            "election": null,
            "id": 53,
            "name": "London—Fanshawe"
          }
        ],
        "pollDivisionIds": [
          10139567
        ],
        "postalCode": "N5W1J3",
        "streetName": "FAIRWAY",
        "streetDirectionId": null,
        "streetTypeId": "AVE",
        "placeName": "LONDON",
        "streetNameDisplayText": "FAIRWAY AVE, LONDON"
      }
    ]
  },
  {
    "postal": "N5W5S6",
    "result": []
  },
  {
    "postal": "N5W8P7",
    "result": []
  },
  {
    "postal": "N5W7S7",
    "result": []
  },
  {
    "postal": "N5W4C2",
    "result": [
      {
        "electoralDistricts": [
          {
            "election": null,
            "id": 54,
            "name": "London North Centre"
          }
        ],
        "pollDivisionIds": [
          10135382
        ],
        "postalCode": "N5W4C2",
        "streetName": "ELEANOR",
        "streetDirectionId": null,
        "streetTypeId": "ST",
        "placeName": "LONDON",
        "streetNameDisplayText": "ELEANOR ST, LONDON"
      }
    ]
  },
  {
    "postal": "N5W5Y0",
    "result": []
  },
  {
    "postal": "N5W2V7",
    "result": [
      {
        "electoralDistricts": [
          {
            "election": null,
            "id": 53,
            "name": "London—Fanshawe"
          }
        ],
        "pollDivisionIds": [
          10139561
        ],
        "postalCode": "N5W2V7",
        "streetName": "BURSLEM",
        "streetDirectionId": null,
        "streetTypeId": "ST",
        "placeName": "LONDON",
        "streetNameDisplayText": "BURSLEM ST, LONDON"
      }
    ]
  },
  {
    "postal": "N5W8P5",
    "result": []
  },
  {
    "postal": "N5W5P5",
    "result": [
      {
        "electoralDistricts": [
          {
            "election": null,
            "id": 53,
            "name": "London—Fanshawe"
          }
        ],
        "pollDivisionIds": [
          10139563
        ],
        "postalCode": "N5W5P5",
        "streetName": "CLARKE",
        "streetDirectionId": null,
        "streetTypeId": "RD",
        "placeName": "LONDON",
        "streetNameDisplayText": "CLARKE RD, LONDON"
      }
    ]
  },
  {
    "postal": "N5W5Z0",
    "result": []
  },
  {
    "postal": "N5W9B0",
    "result": []
  },
  {
    "postal": "N5W1L0",
    "result": []
  },
  {
    "postal": "N5W0B5",
    "result": [
      {
        "electoralDistricts": [
          {
            "election": null,
            "id": 54,
            "name": "London North Centre"
          }
        ],
        "pollDivisionIds": [
          10135381
        ],
        "postalCode": "N5W0B5",
        "streetName": "PRINCESS",
        "streetDirectionId": null,
        "streetTypeId": "AVE",
        "placeName": "LONDON",
        "streetNameDisplayText": "PRINCESS AVE, LONDON"
      }
    ]
  },
  {
    "postal": "N5W3L2",
    "result": [
      {
        "electoralDistricts": [
          {
            "election": null,
            "id": 54,
            "name": "London North Centre"
          }
        ],
        "pollDivisionIds": [
          10135381
        ],
        "postalCode": "N5W3L2",
        "streetName": "LORNE",
        "streetDirectionId": null,
        "streetTypeId": "AVE",
        "placeName": "LONDON",
        "streetNameDisplayText": "LORNE AVE, LONDON"
      }
    ]
  },
  {
    "postal": "N5W3B7",
    "result": [
      {
        "electoralDistricts": [
          {
            "election": null,
            "id": 53,
            "name": "London—Fanshawe"
          }
        ],
        "pollDivisionIds": [
          10139561
        ],
        "postalCode": "N5W3B7",
        "streetName": "DUNDAS",
        "streetDirectionId": null,
        "streetTypeId": "ST",
        "placeName": "LONDON",
        "streetNameDisplayText": "DUNDAS ST, LONDON"
      }
    ]
  },
  {
    "postal": "N5W8L1",
    "result": []
  },
  {
    "postal": "N5W5M4",
    "result": [
      {
        "electoralDistricts": [
          {
            "election": null,
            "id": 53,
            "name": "London—Fanshawe"
          }
        ],
        "pollDivisionIds": [
          10139567
        ],
        "postalCode": "N5W5M4",
        "streetName": "TWEEDSMUIR",
        "streetDirectionId": null,
        "streetTypeId": "AVE",
        "placeName": "LONDON",
        "streetNameDisplayText": "TWEEDSMUIR AVE, LONDON"
      }
    ]
  },
  {
    "postal": "N5W4G9",
    "result": [
      {
        "electoralDistricts": [
          {
            "election": null,
            "id": 54,
            "name": "London North Centre"
          }
        ],
        "pollDivisionIds": [
          10135382
        ],
        "postalCode": "N5W4G9",
        "streetName": "ASHLAND",
        "streetDirectionId": null,
        "streetTypeId": "AVE",
        "placeName": "LONDON",
        "streetNameDisplayText": "ASHLAND AVE, LONDON"
      }
    ]
  },
  {
    "postal": "N5W0P0",
    "result": []
  },
  {
    "postal": "N5W8G2",
    "result": []
  },
  {
    "postal": "N5W1V9",
    "result": [
      {
        "electoralDistricts": [
          {
            "election": null,
            "id": 53,
            "name": "London—Fanshawe"
          }
        ],
        "pollDivisionIds": [
          10139566
        ],
        "postalCode": "N5W1V9",
        "streetName": "SELKIRK",
        "streetDirectionId": null,
        "streetTypeId": "ST",
        "placeName": "LONDON",
        "streetNameDisplayText": "SELKIRK ST, LONDON"
      }
    ]
  },
  {
    "postal": "N5W8N8",
    "result": []
  },
  {
    "postal": "N5W6S8",
    "result": []
  },
  {
    "postal": "N5W8H2",
    "result": []
  },
  {
    "postal": "N5W5R8",
    "result": []
  },
  {
    "postal": "N5W5L4",
    "result": [
      {
        "electoralDistricts": [
          {
            "election": null,
            "id": 53,
            "name": "London—Fanshawe"
          }
        ],
        "pollDivisionIds": [
          10139566
        ],
        "postalCode": "N5W5L4",
        "streetName": "FIRESTONE",
        "streetDirectionId": null,
        "streetTypeId": "BLVD",
        "placeName": "LONDON",
        "streetNameDisplayText": "FIRESTONE BLVD, LONDON"
      }
    ]
  },
  {
    "postal": "N5W9E1",
    "result": []
  },
  {
    "postal": "N5W1C4",
    "result": [
      {
        "electoralDistricts": [
          {
            "election": null,
            "id": 53,
            "name": "London—Fanshawe"
          }
        ],
        "pollDivisionIds": [
          10139567
        ],
        "postalCode": "N5W1C4",
        "streetName": "MAGEE",
        "streetDirectionId": null,
        "streetTypeId": "ST",
        "placeName": "LONDON",
        "streetNameDisplayText": "MAGEE ST, LONDON"
      }
    ]
  },
  {
    "postal": "N5W8W5",
    "result": []
  },
  {
    "postal": "N5W1Y4",
    "result": [
      {
        "electoralDistricts": [
          {
            "election": null,
            "id": 53,
            "name": "London—Fanshawe"
          }
        ],
        "pollDivisionIds": [
          10139564
        ],
        "postalCode": "N5W1Y4",
        "streetName": "STEVENSON",
        "streetDirectionId": null,
        "streetTypeId": "AVE",
        "placeName": "LONDON",
        "streetNameDisplayText": "STEVENSON AVE, LONDON"
      }
    ]
  },
  {
    "postal": "N5W1C0",
    "result": []
  },
  {
    "postal": "N5W2J2",
    "result": [
      {
        "electoralDistricts": [
          {
            "election": null,
            "id": 53,
            "name": "London—Fanshawe"
          }
        ],
        "pollDivisionIds": [
          10139564
        ],
        "postalCode": "N5W2J2",
        "streetName": "PRITCHARD",
        "streetDirectionId": null,
        "streetTypeId": "PL",
        "placeName": "LONDON",
        "streetNameDisplayText": "PRITCHARD PL, LONDON"
      }
    ]
  },
  {
    "postal": "N5W2J0",
    "result": []
  },
  {
    "postal": "N5W7A3",
    "result": []
  },
  {
    "postal": "N5W8M1",
    "result": []
  },
  {
    "postal": "N5W7T9",
    "result": []
  },
  {
    "postal": "N5W6C0",
    "result": []
  },
  {
    "postal": "N5W7X1",
    "result": []
  },
  {
    "postal": "N5W0G1",
    "result": []
  },
  {
    "postal": "N5W4X2",
    "result": [
      {
        "electoralDistricts": [
          {
            "election": null,
            "id": 53,
            "name": "London—Fanshawe"
          }
        ],
        "pollDivisionIds": [
          10139564
        ],
        "postalCode": "N5W4X2",
        "streetName": "DAWN",
        "streetDirectionId": null,
        "streetTypeId": "DR",
        "placeName": "LONDON",
        "streetNameDisplayText": "DAWN DR, LONDON"
      }
    ]
  },
  {
    "postal": "N5W0N6",
    "result": []
  },
  {
    "postal": "N5W8E3",
    "result": []
  },
  {
    "postal": "N5W5S8",
    "result": []
  },
  {
    "postal": "N5W0R0",
    "result": []
  },
  {
    "postal": "N5W6J6",
    "result": []
  },
  {
    "postal": "N5W4B4",
    "result": [
      {
        "electoralDistricts": [
          {
            "election": null,
            "id": 54,
            "name": "London North Centre"
          }
        ],
        "pollDivisionIds": [
          10135381,
          10135364
        ],
        "postalCode": "N5W4B4",
        "streetName": "DORINDA",
        "streetDirectionId": null,
        "streetTypeId": "ST",
        "placeName": "LONDON",
        "streetNameDisplayText": "DORINDA ST, LONDON"
      }
    ]
  },
  {
    "postal": "N5W7E3",
    "result": []
  },
  {
    "postal": "N5W3N6",
    "result": [
      {
        "electoralDistricts": [
          {
            "election": null,
            "id": 54,
            "name": "London North Centre"
          }
        ],
        "pollDivisionIds": [
          10135376
        ],
        "postalCode": "N5W3N6",
        "streetName": "ELIAS",
        "streetDirectionId": null,
        "streetTypeId": "ST",
        "placeName": "LONDON",
        "streetNameDisplayText": "ELIAS ST, LONDON"
      }
    ]
  },
  {
    "postal": "N5W3X6",
    "result": [
      {
        "electoralDistricts": [
          {
            "election": null,
            "id": 54,
            "name": "London North Centre"
          }
        ],
        "pollDivisionIds": [
          10135381
        ],
        "postalCode": "N5W3X6",
        "streetName": "ONTARIO",
        "streetDirectionId": null,
        "streetTypeId": "ST",
        "placeName": "LONDON",
        "streetNameDisplayText": "ONTARIO ST, LONDON"
      }
    ]
  },
  {
    "postal": "N5W8L0",
    "result": []
  },
  {
    "postal": "N5W8N1",
    "result": []
  },
  {
    "postal": "N5W4J0",
    "result": []
  },
  {
    "postal": "N5W0X7",
    "result": []
  },
  {
    "postal": "N5W6S4",
    "result": []
  },
  {
    "postal": "N5W0Z0",
    "result": []
  },
  {
    "postal": "N5W9X8",
    "result": []
  },
  {
    "postal": "N5W3H3",
    "result": [
      {
        "electoralDistricts": [
          {
            "election": null,
            "id": 54,
            "name": "London North Centre"
          }
        ],
        "pollDivisionIds": [
          10135387
        ],
        "postalCode": "N5W3H3",
        "streetName": "QUEENS",
        "streetDirectionId": null,
        "streetTypeId": "AVE",
        "placeName": "LONDON",
        "streetNameDisplayText": "QUEENS AVE, LONDON"
      }
    ]
  },
  {
    "postal": "N5W7S2",
    "result": []
  },
  {
    "postal": "N5W3T3",
    "result": [
      {
        "electoralDistricts": [
          {
            "election": null,
            "id": 54,
            "name": "London North Centre"
          }
        ],
        "pollDivisionIds": [
          10135387
        ],
        "postalCode": "N5W3T3",
        "streetName": "HEWITT",
        "streetDirectionId": null,
        "streetTypeId": "ST",
        "placeName": "LONDON",
        "streetNameDisplayText": "HEWITT ST, LONDON"
      }
    ]
  },
  {
    "postal": "N5W9P3",
    "result": []
  },
  {
    "postal": "N5W4H8",
    "result": [
      {
        "electoralDistricts": [
          {
            "election": null,
            "id": 54,
            "name": "London North Centre"
          }
        ],
        "pollDivisionIds": [
          10135382
        ],
        "postalCode": "N5W4H8",
        "streetName": "OAKLAND",
        "streetDirectionId": null,
        "streetTypeId": "AVE",
        "placeName": "LONDON",
        "streetNameDisplayText": "OAKLAND AVE, LONDON"
      }
    ]
  },
  {
    "postal": "N5W6R1",
    "result": []
  },
  {
    "postal": "N5W1S0",
    "result": []
  },
  {
    "postal": "N5W3W8",
    "result": [
      {
        "electoralDistricts": [
          {
            "election": null,
            "id": 54,
            "name": "London North Centre"
          }
        ],
        "pollDivisionIds": [
          10135381
        ],
        "postalCode": "N5W3W8",
        "streetName": "ONTARIO",
        "streetDirectionId": null,
        "streetTypeId": "ST",
        "placeName": "LONDON",
        "streetNameDisplayText": "ONTARIO ST, LONDON"
      }
    ]
  },
  {
    "postal": "N5W4S3",
    "result": [
      {
        "electoralDistricts": [
          {
            "election": null,
            "id": 53,
            "name": "London—Fanshawe"
          }
        ],
        "pollDivisionIds": [
          10139562
        ],
        "postalCode": "N5W4S3",
        "streetName": "VANCOUVER",
        "streetDirectionId": null,
        "streetTypeId": "ST",
        "placeName": "LONDON",
        "streetNameDisplayText": "VANCOUVER ST, LONDON"
      }
    ]
  },
  {
    "postal": "N5W1B6",
    "result": [
      {
        "electoralDistricts": [
          {
            "election": null,
            "id": 53,
            "name": "London—Fanshawe"
          }
        ],
        "pollDivisionIds": [
          10139567
        ],
        "postalCode": "N5W1B6",
        "streetName": "MEADOWLILY",
        "streetDirectionId": "N",
        "streetTypeId": "RD",
        "placeName": "LONDON",
        "streetNameDisplayText": "MEADOWLILY RD N, LONDON"
      }
    ]
  },
  {
    "postal": "N5W8R3",
    "result": []
  },
  {
    "postal": "N5W4V9",
    "result": [
      {
        "electoralDistricts": [
          {
            "election": null,
            "id": 53,
            "name": "London—Fanshawe"
          }
        ],
        "pollDivisionIds": [
          10139564
        ],
        "postalCode": "N5W4V9",
        "streetName": "RAINBOW",
        "streetDirectionId": null,
        "streetTypeId": "AVE",
        "placeName": "LONDON",
        "streetNameDisplayText": "RAINBOW AVE, LONDON"
      }
    ]
  },
  {
    "postal": "N5W9W4",
    "result": []
  },
  {
    "postal": "N5W3T4",
    "result": [
      {
        "electoralDistricts": [
          {
            "election": null,
            "id": 54,
            "name": "London North Centre"
          }
        ],
        "pollDivisionIds": [
          10135387,
          10135381
        ],
        "postalCode": "N5W3T4",
        "streetName": "ENGLISH",
        "streetDirectionId": null,
        "streetTypeId": "ST",
        "placeName": "LONDON",
        "streetNameDisplayText": "ENGLISH ST, LONDON"
      }
    ]
  },
  {
    "postal": "N5W5C7",
    "result": [
      {
        "electoralDistricts": [
          {
            "election": null,
            "id": 53,
            "name": "London—Fanshawe"
          }
        ],
        "pollDivisionIds": [
          10139562
        ],
        "postalCode": "N5W5C7",
        "streetName": "PATERSON",
        "streetDirectionId": null,
        "streetTypeId": "AVE",
        "placeName": "LONDON",
        "streetNameDisplayText": "PATERSON AVE, LONDON"
      }
    ]
  },
  {
    "postal": "N5W3Y1",
    "result": [
      {
        "electoralDistricts": [
          {
            "election": null,
            "id": 54,
            "name": "London North Centre"
          }
        ],
        "pollDivisionIds": [
          10135381
        ],
        "postalCode": "N5W3Y1",
        "streetName": "ONTARIO",
        "streetDirectionId": null,
        "streetTypeId": "ST",
        "placeName": "LONDON",
        "streetNameDisplayText": "ONTARIO ST, LONDON"
      }
    ]
  },
  {
    "postal": "N5W5V0",
    "result": []
  },
  {
    "postal": "N5W8G8",
    "result": []
  },
  {
    "postal": "N5W8B1",
    "result": []
  },
  {
    "postal": "N5W4P5",
    "result": [
      {
        "electoralDistricts": [
          {
            "election": null,
            "id": 53,
            "name": "London—Fanshawe"
          }
        ],
        "pollDivisionIds": [
          10139561
        ],
        "postalCode": "N5W4P5",
        "streetName": "BURDICK",
        "streetDirectionId": null,
        "streetTypeId": "PL",
        "placeName": "LONDON",
        "streetNameDisplayText": "BURDICK PL, LONDON"
      }
    ]
  },
  {
    "postal": "N5W7B2",
    "result": []
  },
  {
    "postal": "N5W0R2",
    "result": []
  },
  {
    "postal": "N5W4M4",
    "result": [
      {
        "electoralDistricts": [
          {
            "election": null,
            "id": 53,
            "name": "London—Fanshawe"
          }
        ],
        "pollDivisionIds": [
          10139564
        ],
        "postalCode": "N5W4M4",
        "streetName": "CORNISH",
        "streetDirectionId": null,
        "streetTypeId": "ST",
        "placeName": "LONDON",
        "streetNameDisplayText": "CORNISH ST, LONDON"
      }
    ]
  },
  {
    "postal": "N5W7M4",
    "result": []
  },
  {
    "postal": "N5W9S7",
    "result": []
  },
  {
    "postal": "N5W5Z7",
    "result": [
      {
        "electoralDistricts": [
          {
            "election": null,
            "id": 53,
            "name": "London—Fanshawe"
          }
        ],
        "pollDivisionIds": [
          10139566
        ],
        "postalCode": "N5W5Z7",
        "streetName": "WOODFERN",
        "streetDirectionId": null,
        "streetTypeId": "RD",
        "placeName": "LONDON",
        "streetNameDisplayText": "WOODFERN RD, LONDON"
      }
    ]
  },
  {
    "postal": "N5W7J7",
    "result": []
  },
  {
    "postal": "N5W8R8",
    "result": []
  },
  {
    "postal": "N5W9X1",
    "result": []
  },
  {
    "postal": "N5W5M9",
    "result": [
      {
        "electoralDistricts": [
          {
            "election": null,
            "id": 53,
            "name": "London—Fanshawe"
          }
        ],
        "pollDivisionIds": [
          10139566
        ],
        "postalCode": "N5W5M9",
        "streetName": "CLARKE",
        "streetDirectionId": null,
        "streetTypeId": "RD",
        "placeName": "LONDON",
        "streetNameDisplayText": "CLARKE RD, LONDON"
      }
    ]
  },
  {
    "postal": "N5W9B4",
    "result": []
  },
  {
    "postal": "N5W0L9",
    "result": []
  },
  {
    "postal": "N5W9G4",
    "result": []
  },
  {
    "postal": "N5W1J4",
    "result": [
      {
        "electoralDistricts": [
          {
            "election": null,
            "id": 53,
            "name": "London—Fanshawe"
          }
        ],
        "pollDivisionIds": [
          10139567
        ],
        "postalCode": "N5W1J4",
        "streetName": "ELLSWORTH",
        "streetDirectionId": null,
        "streetTypeId": "CRES",
        "placeName": "LONDON",
        "streetNameDisplayText": "ELLSWORTH CRES, LONDON"
      }
    ]
  },
  {
    "postal": "N5W0W6",
    "result": []
  }
]
