[
  {
    "postal": "L2A9J6",
    "result": []
  },
  {
    "postal": "L2A9Z5",
    "result": []
  },
  {
    "postal": "L2A7H8",
    "result": []
  },
  {
    "postal": "L2A0P6",
    "result": []
  },
  {
    "postal": "L2A0S7",
    "result": []
  },
  {
    "postal": "L2A8B9",
    "result": []
  },
  {
    "postal": "L2A2A6",
    "result": [
      {
        "electoralDistricts": [
          {
            "election": null,
            "id": 69,
            "name": "Niagara Falls"
          }
        ],
        "pollDivisionIds": [
          10140017
        ],
        "postalCode": "L2A2A6",
        "streetName": "MURRAY",
        "streetDirectionId": null,
        "streetTypeId": "ST",
        "placeName": "FORT ERIE",
        "streetNameDisplayText": "MURRAY ST, FORT ERIE"
      }
    ]
  },
  {
    "postal": "L2A7V2",
    "result": []
  },
  {
    "postal": "L2A9P4",
    "result": []
  },
  {
    "postal": "L2A6G0",
    "result": []
  },
  {
    "postal": "L2A2K0",
    "result": []
  },
  {
    "postal": "L2A7N6",
    "result": []
  },
  {
    "postal": "L2A5R3",
    "result": [
      {
        "electoralDistricts": [
          {
            "election": null,
            "id": 69,
            "name": "Niagara Falls"
          }
        ],
        "pollDivisionIds": [
          10143905
        ],
        "postalCode": "L2A5R3",
        "streetName": "ROCKWOOD",
        "streetDirectionId": null,
        "streetTypeId": "DR",
        "placeName": "FORT ERIE",
        "streetNameDisplayText": "ROCKWOOD DR, FORT ERIE"
      }
    ]
  },
  {
    "postal": "L2A7K0",
    "result": []
  },
  {
    "postal": "L2A3R2",
    "result": [
      {
        "electoralDistricts": [
          {
            "election": null,
            "id": 69,
            "name": "Niagara Falls"
          }
        ],
        "pollDivisionIds": [
          10140017
        ],
        "postalCode": "L2A3R2",
        "streetName": "HIGH",
        "streetDirectionId": null,
        "streetTypeId": "ST",
        "placeName": "FORT ERIE",
        "streetNameDisplayText": "HIGH ST, FORT ERIE"
      }
    ]
  },
  {
    "postal": "L2A0J1",
    "result": []
  },
  {
    "postal": "L2A0B0",
    "result": []
  },
  {
    "postal": "L2A5Z2",
    "result": [
      {
        "electoralDistricts": [
          {
            "election": null,
            "id": 69,
            "name": "Niagara Falls"
          }
        ],
        "pollDivisionIds": [
          10140012
        ],
        "postalCode": "L2A5Z2",
        "streetName": "DODDS",
        "streetDirectionId": null,
        "streetTypeId": "CRT",
        "placeName": "FORT ERIE",
        "streetNameDisplayText": "DODDS CRT, FORT ERIE"
      }
    ]
  },
  {
    "postal": "L2A7P3",
    "result": []
  },
  {
    "postal": "L2A2K3",
    "result": [
      {
        "electoralDistricts": [
          {
            "election": null,
            "id": 69,
            "name": "Niagara Falls"
          }
        ],
        "pollDivisionIds": [
          10140015
        ],
        "postalCode": "L2A2K3",
        "streetName": "HENRIETTA",
        "streetDirectionId": null,
        "streetTypeId": "ST",
        "placeName": "FORT ERIE",
        "streetNameDisplayText": "HENRIETTA ST, FORT ERIE"
      }
    ]
  },
  {
    "postal": "L2A7Y6",
    "result": []
  },
  {
    "postal": "L2A1L9",
    "result": [
      {
        "electoralDistricts": [
          {
            "election": null,
            "id": 69,
            "name": "Niagara Falls"
          }
        ],
        "pollDivisionIds": [
          10140021
        ],
        "postalCode": "L2A1L9",
        "streetName": "ALBANY",
        "streetDirectionId": null,
        "streetTypeId": "ST",
        "placeName": "FORT ERIE",
        "streetNameDisplayText": "ALBANY ST, FORT ERIE"
      }
    ]
  },
  {
    "postal": "L2A8T0",
    "result": []
  },
  {
    "postal": "L2A3K8",
    "result": [
      {
        "electoralDistricts": [
          {
            "election": null,
            "id": 69,
            "name": "Niagara Falls"
          }
        ],
        "pollDivisionIds": [
          10140014
        ],
        "postalCode": "L2A3K8",
        "streetName": "ARCHANGE",
        "streetDirectionId": null,
        "streetTypeId": "ST",
        "placeName": "FORT ERIE",
        "streetNameDisplayText": "ARCHANGE ST, FORT ERIE"
      }
    ]
  },
  {
    "postal": "L2A5W9",
    "result": [
      {
        "electoralDistricts": [
          {
            "election": null,
            "id": 69,
            "name": "Niagara Falls"
          }
        ],
        "pollDivisionIds": [
          10140016
        ],
        "postalCode": "L2A5W9",
        "streetName": "HIGH",
        "streetDirectionId": null,
        "streetTypeId": "ST",
        "placeName": "FORT ERIE",
        "streetNameDisplayText": "HIGH ST, FORT ERIE"
      }
    ]
  },
  {
    "postal": "L2A6T9",
    "result": []
  },
  {
    "postal": "L2A4H1",
    "result": [
      {
        "electoralDistricts": [
          {
            "election": null,
            "id": 69,
            "name": "Niagara Falls"
          }
        ],
        "pollDivisionIds": [
          10140012
        ],
        "postalCode": "L2A4H1",
        "streetName": "CROOKS",
        "streetDirectionId": null,
        "streetTypeId": "ST",
        "placeName": "FORT ERIE",
        "streetNameDisplayText": "CROOKS ST, FORT ERIE"
      }
    ]
  },
  {
    "postal": "L2A7A2",
    "result": []
  },
  {
    "postal": "L2A5G0",
    "result": []
  },
  {
    "postal": "L2A8V5",
    "result": []
  },
  {
    "postal": "L2A2Y8",
    "result": [
      {
        "electoralDistricts": [
          {
            "election": null,
            "id": 69,
            "name": "Niagara Falls"
          }
        ],
        "pollDivisionIds": [
          10140012
        ],
        "postalCode": "L2A2Y8",
        "streetName": "BOWEN",
        "streetDirectionId": null,
        "streetTypeId": "RD",
        "placeName": "FORT ERIE",
        "streetNameDisplayText": "BOWEN RD, FORT ERIE"
      }
    ]
  },
  {
    "postal": "L2A2B6",
    "result": [
      {
        "electoralDistricts": [
          {
            "election": null,
            "id": 69,
            "name": "Niagara Falls"
          }
        ],
        "pollDivisionIds": [
          10140015
        ],
        "postalCode": "L2A2B6",
        "streetName": "MURRAY",
        "streetDirectionId": null,
        "streetTypeId": "ST",
        "placeName": "FORT ERIE",
        "streetNameDisplayText": "MURRAY ST, FORT ERIE"
      }
    ]
  },
  {
    "postal": "L2A4W8",
    "result": [
      {
        "electoralDistricts": [
          {
            "election": null,
            "id": 69,
            "name": "Niagara Falls"
          }
        ],
        "pollDivisionIds": [
          10143905
        ],
        "postalCode": "L2A4W8",
        "streetName": "LAKEVIEW",
        "streetDirectionId": null,
        "streetTypeId": "RD",
        "placeName": "FORT ERIE",
        "streetNameDisplayText": "LAKEVIEW RD, FORT ERIE"
      }
    ]
  },
  {
    "postal": "L2A8H7",
    "result": []
  },
  {
    "postal": "L2A5P1",
    "result": [
      {
        "electoralDistricts": [
          {
            "election": null,
            "id": 69,
            "name": "Niagara Falls"
          }
        ],
        "pollDivisionIds": [
          10143905
        ],
        "postalCode": "L2A5P1",
        "streetName": "GARRISON",
        "streetDirectionId": null,
        "streetTypeId": "RD",
        "placeName": "FORT ERIE",
        "streetNameDisplayText": "GARRISON RD, FORT ERIE"
      }
    ]
  },
  {
    "postal": "L2A2B8",
    "result": [
      {
        "electoralDistricts": [
          {
            "election": null,
            "id": 69,
            "name": "Niagara Falls"
          }
        ],
        "pollDivisionIds": [
          10140015
        ],
        "postalCode": "L2A2B8",
        "streetName": "TORRANCE",
        "streetDirectionId": null,
        "streetTypeId": "ST",
        "placeName": "FORT ERIE",
        "streetNameDisplayText": "TORRANCE ST, FORT ERIE"
      }
    ]
  },
  {
    "postal": "L2A0P2",
    "result": []
  },
  {
    "postal": "L2A9M1",
    "result": []
  },
  {
    "postal": "L2A3G0",
    "result": []
  },
  {
    "postal": "L2A9Z2",
    "result": []
  },
  {
    "postal": "L2A2A0",
    "result": []
  },
  {
    "postal": "L2A6Y0",
    "result": []
  },
  {
    "postal": "L2A2Z8",
    "result": [
      {
        "electoralDistricts": [
          {
            "election": null,
            "id": 69,
            "name": "Niagara Falls"
          }
        ],
        "pollDivisionIds": [
          10143905
        ],
        "postalCode": "L2A2Z8",
        "streetName": "EMERSON",
        "streetDirectionId": null,
        "streetTypeId": "AVE",
        "placeName": "FORT ERIE",
        "streetNameDisplayText": "EMERSON AVE, FORT ERIE"
      }
    ]
  },
  {
    "postal": "L2A7Y3",
    "result": []
  },
  {
    "postal": "L2A6Z5",
    "result": []
  },
  {
    "postal": "L2A6E0",
    "result": []
  },
  {
    "postal": "L2A9B7",
    "result": []
  },
  {
    "postal": "L2A9S5",
    "result": []
  },
  {
    "postal": "L2A3X3",
    "result": [
      {
        "electoralDistricts": [
          {
            "election": null,
            "id": 69,
            "name": "Niagara Falls"
          }
        ],
        "pollDivisionIds": [
          10140014
        ],
        "postalCode": "L2A3X3",
        "streetName": "DOUGLAS",
        "streetDirectionId": null,
        "streetTypeId": "ST",
        "placeName": "FORT ERIE",
        "streetNameDisplayText": "DOUGLAS ST, FORT ERIE"
      },
      {
        "electoralDistricts": [
          {
            "election": null,
            "id": 69,
            "name": "Niagara Falls"
          }
        ],
        "pollDivisionIds": [
          10140014
        ],
        "postalCode": "L2A3X3",
        "streetName": "FINDLAY",
        "streetDirectionId": null,
        "streetTypeId": "CRES",
        "placeName": "FORT ERIE",
        "streetNameDisplayText": "FINDLAY CRES, FORT ERIE"
      }
    ]
  },
  {
    "postal": "L2A7R5",
    "result": []
  },
  {
    "postal": "L2A2X3",
    "result": [
      {
        "electoralDistricts": [
          {
            "election": null,
            "id": 69,
            "name": "Niagara Falls"
          }
        ],
        "pollDivisionIds": [
          10140012
        ],
        "postalCode": "L2A2X3",
        "streetName": "BROCK",
        "streetDirectionId": null,
        "streetTypeId": "ST",
        "placeName": "FORT ERIE",
        "streetNameDisplayText": "BROCK ST, FORT ERIE"
      }
    ]
  },
  {
    "postal": "L2A8Z9",
    "result": []
  },
  {
    "postal": "L2A0N4",
    "result": []
  },
  {
    "postal": "L2A1K1",
    "result": []
  },
  {
    "postal": "L2A1S3",
    "result": [
      {
        "electoralDistricts": [
          {
            "election": null,
            "id": 69,
            "name": "Niagara Falls"
          }
        ],
        "pollDivisionIds": [
          10140014
        ],
        "postalCode": "L2A1S3",
        "streetName": "WALDEN",
        "streetDirectionId": null,
        "streetTypeId": "BLVD",
        "placeName": "FORT ERIE",
        "streetNameDisplayText": "WALDEN BLVD, FORT ERIE"
      }
    ]
  },
  {
    "postal": "L2A6M4",
    "result": []
  },
  {
    "postal": "L2A9A9",
    "result": []
  },
  {
    "postal": "L2A9Z9",
    "result": []
  },
  {
    "postal": "L2A6T4",
    "result": [
      {
        "electoralDistricts": [
          {
            "election": null,
            "id": 69,
            "name": "Niagara Falls"
          }
        ],
        "pollDivisionIds": [
          10140012
        ],
        "postalCode": "L2A6T4",
        "streetName": "CENTRAL",
        "streetDirectionId": null,
        "streetTypeId": "AVE",
        "placeName": "FORT ERIE",
        "streetNameDisplayText": "CENTRAL AVE, FORT ERIE"
      }
    ]
  },
  {
    "postal": "L2A0B2",
    "result": [
      {
        "electoralDistricts": [
          {
            "election": null,
            "id": 69,
            "name": "Niagara Falls"
          }
        ],
        "pollDivisionIds": [
          10140012
        ],
        "postalCode": "L2A0B2",
        "streetName": "JARVIS",
        "streetDirectionId": null,
        "streetTypeId": "ST",
        "placeName": "FORT ERIE",
        "streetNameDisplayText": "JARVIS ST, FORT ERIE"
      }
    ]
  },
  {
    "postal": "L2A2L9",
    "result": [
      {
        "electoralDistricts": [
          {
            "election": null,
            "id": 69,
            "name": "Niagara Falls"
          }
        ],
        "pollDivisionIds": [
          10140016
        ],
        "postalCode": "L2A2L9",
        "streetName": "GILMORE",
        "streetDirectionId": null,
        "streetTypeId": "RD",
        "placeName": "FORT ERIE",
        "streetNameDisplayText": "GILMORE RD, FORT ERIE"
      }
    ]
  },
  {
    "postal": "L2A8K9",
    "result": []
  },
  {
    "postal": "L2A2H9",
    "result": [
      {
        "electoralDistricts": [
          {
            "election": null,
            "id": 69,
            "name": "Niagara Falls"
          }
        ],
        "pollDivisionIds": [
          10140015
        ],
        "postalCode": "L2A2H9",
        "streetName": "CATHERINE",
        "streetDirectionId": null,
        "streetTypeId": "ST",
        "placeName": "FORT ERIE",
        "streetNameDisplayText": "CATHERINE ST, FORT ERIE"
      }
    ]
  },
  {
    "postal": "L2A3Z6",
    "result": [
      {
        "electoralDistricts": [
          {
            "election": null,
            "id": 69,
            "name": "Niagara Falls"
          }
        ],
        "pollDivisionIds": [
          10140014
        ],
        "postalCode": "L2A3Z6",
        "streetName": "KING",
        "streetDirectionId": null,
        "streetTypeId": "ST",
        "placeName": "FORT ERIE",
        "streetNameDisplayText": "KING ST, FORT ERIE"
      }
    ]
  },
  {
    "postal": "L2A3B0",
    "result": []
  },
  {
    "postal": "L2A2H8",
    "result": [
      {
        "electoralDistricts": [
          {
            "election": null,
            "id": 69,
            "name": "Niagara Falls"
          }
        ],
        "pollDivisionIds": [
          10140015
        ],
        "postalCode": "L2A2H8",
        "streetName": "CATHERINE",
        "streetDirectionId": null,
        "streetTypeId": "ST",
        "placeName": "FORT ERIE",
        "streetNameDisplayText": "CATHERINE ST, FORT ERIE"
      }
    ]
  },
  {
    "postal": "L2A3X2",
    "result": [
      {
        "electoralDistricts": [
          {
            "election": null,
            "id": 69,
            "name": "Niagara Falls"
          }
        ],
        "pollDivisionIds": [
          10140015
        ],
        "postalCode": "L2A3X2",
        "streetName": "DOUGLAS",
        "streetDirectionId": null,
        "streetTypeId": "ST",
        "placeName": "FORT ERIE",
        "streetNameDisplayText": "DOUGLAS ST, FORT ERIE"
      }
    ]
  },
  {
    "postal": "L2A2E9",
    "result": [
      {
        "electoralDistricts": [
          {
            "election": null,
            "id": 69,
            "name": "Niagara Falls"
          }
        ],
        "pollDivisionIds": [
          10140015
        ],
        "postalCode": "L2A2E9",
        "streetName": "LAVINIA",
        "streetDirectionId": null,
        "streetTypeId": "ST",
        "placeName": "FORT ERIE",
        "streetNameDisplayText": "LAVINIA ST, FORT ERIE"
      }
    ]
  },
  {
    "postal": "L2A9P6",
    "result": []
  },
  {
    "postal": "L2A9E2",
    "result": []
  },
  {
    "postal": "L2A9H2",
    "result": []
  },
  {
    "postal": "L2A1S8",
    "result": []
  },
  {
    "postal": "L2A3M6",
    "result": [
      {
        "electoralDistricts": [
          {
            "election": null,
            "id": 69,
            "name": "Niagara Falls"
          }
        ],
        "pollDivisionIds": [
          10140014
        ],
        "postalCode": "L2A3M6",
        "streetName": "GODERICH",
        "streetDirectionId": null,
        "streetTypeId": "ST",
        "placeName": "FORT ERIE",
        "streetNameDisplayText": "GODERICH ST, FORT ERIE"
      }
    ]
  },
  {
    "postal": "L2A6Z8",
    "result": []
  },
  {
    "postal": "L2A4J2",
    "result": [
      {
        "electoralDistricts": [
          {
            "election": null,
            "id": 69,
            "name": "Niagara Falls"
          }
        ],
        "pollDivisionIds": [
          10140021
        ],
        "postalCode": "L2A4J2",
        "streetName": "ARTHUR",
        "streetDirectionId": null,
        "streetTypeId": "ST",
        "placeName": "FORT ERIE",
        "streetNameDisplayText": "ARTHUR ST, FORT ERIE"
      }
    ]
  },
  {
    "postal": "L2A9Y1",
    "result": []
  },
  {
    "postal": "L2A8V6",
    "result": []
  },
  {
    "postal": "L2A6B2",
    "result": [
      {
        "electoralDistricts": [
          {
            "election": null,
            "id": 69,
            "name": "Niagara Falls"
          }
        ],
        "pollDivisionIds": [
          10140014
        ],
        "postalCode": "L2A6B2",
        "streetName": "OAKES",
        "streetDirectionId": null,
        "streetTypeId": "DR",
        "placeName": "FORT ERIE",
        "streetNameDisplayText": "OAKES DR, FORT ERIE"
      }
    ]
  },
  {
    "postal": "L2A1P8",
    "result": [
      {
        "electoralDistricts": [
          {
            "election": null,
            "id": 69,
            "name": "Niagara Falls"
          }
        ],
        "pollDivisionIds": [
          10143905
        ],
        "postalCode": "L2A1P8",
        "streetName": "GARRISON",
        "streetDirectionId": null,
        "streetTypeId": "RD",
        "placeName": "FORT ERIE",
        "streetNameDisplayText": "GARRISON RD, FORT ERIE"
      }
    ]
  },
  {
    "postal": "L2A0V8",
    "result": []
  },
  {
    "postal": "L2A4Y0",
    "result": []
  },
  {
    "postal": "L2A2T4",
    "result": [
      {
        "electoralDistricts": [
          {
            "election": null,
            "id": 69,
            "name": "Niagara Falls"
          }
        ],
        "pollDivisionIds": [
          10140012
        ],
        "postalCode": "L2A2T4",
        "streetName": "DUFFERIN",
        "streetDirectionId": null,
        "streetTypeId": "ST",
        "placeName": "FORT ERIE",
        "streetNameDisplayText": "DUFFERIN ST, FORT ERIE"
      }
    ]
  },
  {
    "postal": "L2A2S3",
    "result": [
      {
        "electoralDistricts": [
          {
            "election": null,
            "id": 69,
            "name": "Niagara Falls"
          }
        ],
        "pollDivisionIds": [
          10140012
        ],
        "postalCode": "L2A2S3",
        "streetName": "JARVIS",
        "streetDirectionId": null,
        "streetTypeId": "ST",
        "placeName": "FORT ERIE",
        "streetNameDisplayText": "JARVIS ST, FORT ERIE"
      }
    ]
  },
  {
    "postal": "L2A0K0",
    "result": []
  },
  {
    "postal": "L2A5N1",
    "result": []
  },
  {
    "postal": "L2A7T0",
    "result": []
  },
  {
    "postal": "L2A9N2",
    "result": []
  },
  {
    "postal": "L2A5L1",
    "result": [
      {
        "electoralDistricts": [
          {
            "election": null,
            "id": 69,
            "name": "Niagara Falls"
          }
        ],
        "pollDivisionIds": [
          10140021
        ],
        "postalCode": "L2A5L1",
        "streetName": "ALBERT",
        "streetDirectionId": null,
        "streetTypeId": "ST",
        "placeName": "FORT ERIE",
        "streetNameDisplayText": "ALBERT ST, FORT ERIE"
      }
    ]
  },
  {
    "postal": "L2A7G5",
    "result": []
  },
  {
    "postal": "L2A6K2",
    "result": []
  },
  {
    "postal": "L2A6P9",
    "result": []
  },
  {
    "postal": "L2A0E6",
    "result": []
  },
  {
    "postal": "L2A8R9",
    "result": []
  },
  {
    "postal": "L2A3G9",
    "result": [
      {
        "electoralDistricts": [
          {
            "election": null,
            "id": 69,
            "name": "Niagara Falls"
          }
        ],
        "pollDivisionIds": [
          10140016
        ],
        "postalCode": "L2A3G9",
        "streetName": "NIAGARA",
        "streetDirectionId": null,
        "streetTypeId": "BLVD",
        "placeName": "FORT ERIE",
        "streetNameDisplayText": "NIAGARA BLVD, FORT ERIE"
      }
    ]
  },
  {
    "postal": "L2A0V7",
    "result": []
  },
  {
    "postal": "L2A2Z1",
    "result": [
      {
        "electoralDistricts": [
          {
            "election": null,
            "id": 69,
            "name": "Niagara Falls"
          }
        ],
        "pollDivisionIds": [
          10140012
        ],
        "postalCode": "L2A2Z1",
        "streetName": "BOWEN",
        "streetDirectionId": null,
        "streetTypeId": "RD",
        "placeName": "FORT ERIE",
        "streetNameDisplayText": "BOWEN RD, FORT ERIE"
      }
    ]
  },
  {
    "postal": "L2A7N1",
    "result": []
  },
  {
    "postal": "L2A3C6",
    "result": []
  },
  {
    "postal": "L2A4M1",
    "result": [
      {
        "electoralDistricts": [
          {
            "election": null,
            "id": 69,
            "name": "Niagara Falls"
          }
        ],
        "pollDivisionIds": [
          10140021
        ],
        "postalCode": "L2A4M1",
        "streetName": "ROSE",
        "streetDirectionId": null,
        "streetTypeId": "AVE",
        "placeName": "FORT ERIE",
        "streetNameDisplayText": "ROSE AVE, FORT ERIE"
      }
    ]
  },
  {
    "postal": "L2A9K2",
    "result": []
  },
  {
    "postal": "L2A9S6",
    "result": []
  },
  {
    "postal": "L2A4X1",
    "result": [
      {
        "electoralDistricts": [
          {
            "election": null,
            "id": 69,
            "name": "Niagara Falls"
          }
        ],
        "pollDivisionIds": [
          10143905
        ],
        "postalCode": "L2A4X1",
        "streetName": "LAKEVIEW",
        "streetDirectionId": null,
        "streetTypeId": "RD",
        "placeName": "FORT ERIE",
        "streetNameDisplayText": "LAKEVIEW RD, FORT ERIE"
      }
    ]
  },
  {
    "postal": "L2A8W2",
    "result": []
  },
  {
    "postal": "L2A7N2",
    "result": []
  },
  {
    "postal": "L2A8S3",
    "result": []
  },
  {
    "postal": "L2A4V0",
    "result": []
  },
  {
    "postal": "L2A6W4",
    "result": []
  },
  {
    "postal": "L2A5M1",
    "result": [
      {
        "electoralDistricts": [
          {
            "election": null,
            "id": 69,
            "name": "Niagara Falls"
          }
        ],
        "pollDivisionIds": [
          10140021
        ],
        "postalCode": "L2A5M1",
        "streetName": "LILLIAN",
        "streetDirectionId": null,
        "streetTypeId": "PL",
        "placeName": "FORT ERIE",
        "streetNameDisplayText": "LILLIAN PL, FORT ERIE"
      }
    ]
  },
  {
    "postal": "L2A0S4",
    "result": []
  },
  {
    "postal": "L2A5X6",
    "result": [
      {
        "electoralDistricts": [
          {
            "election": null,
            "id": 69,
            "name": "Niagara Falls"
          }
        ],
        "pollDivisionIds": [
          10143905
        ],
        "postalCode": "L2A5X6",
        "streetName": "CRESCENT",
        "streetDirectionId": null,
        "streetTypeId": "RD",
        "placeName": "FORT ERIE",
        "streetNameDisplayText": "CRESCENT RD, FORT ERIE"
      }
    ]
  },
  {
    "postal": "L2A8L5",
    "result": []
  },
  {
    "postal": "L2A5M8",
    "result": []
  },
  {
    "postal": "L2A2G3",
    "result": [
      {
        "electoralDistricts": [
          {
            "election": null,
            "id": 69,
            "name": "Niagara Falls"
          }
        ],
        "pollDivisionIds": [
          10140015
        ],
        "postalCode": "L2A2G3",
        "streetName": "LAVINIA",
        "streetDirectionId": null,
        "streetTypeId": "ST",
        "placeName": "FORT ERIE",
        "streetNameDisplayText": "LAVINIA ST, FORT ERIE"
      }
    ]
  },
  {
    "postal": "L2A8E4",
    "result": []
  },
  {
    "postal": "L2A7S9",
    "result": []
  },
  {
    "postal": "L2A1K3",
    "result": [
      {
        "electoralDistricts": [
          {
            "election": null,
            "id": 69,
            "name": "Niagara Falls"
          }
        ],
        "pollDivisionIds": [
          10140021
        ],
        "postalCode": "L2A1K3",
        "streetName": "QUEENSTON",
        "streetDirectionId": null,
        "streetTypeId": "BLVD",
        "placeName": "FORT ERIE",
        "streetNameDisplayText": "QUEENSTON BLVD, FORT ERIE"
      }
    ]
  },
  {
    "postal": "L2A4E1",
    "result": [
      {
        "electoralDistricts": [
          {
            "election": null,
            "id": 69,
            "name": "Niagara Falls"
          }
        ],
        "pollDivisionIds": [
          10140015
        ],
        "postalCode": "L2A4E1",
        "streetName": "ELLEN",
        "streetDirectionId": null,
        "streetTypeId": "ST",
        "placeName": "FORT ERIE",
        "streetNameDisplayText": "ELLEN ST, FORT ERIE"
      }
    ]
  },
  {
    "postal": "L2A4R2",
    "result": [
      {
        "electoralDistricts": [
          {
            "election": null,
            "id": 69,
            "name": "Niagara Falls"
          }
        ],
        "pollDivisionIds": [
          10143905
        ],
        "postalCode": "L2A4R2",
        "streetName": "CRESCENT",
        "streetDirectionId": null,
        "streetTypeId": "RD",
        "placeName": "FORT ERIE",
        "streetNameDisplayText": "CRESCENT RD, FORT ERIE"
      }
    ]
  },
  {
    "postal": "L2A6T0",
    "result": []
  },
  {
    "postal": "L2A3K5",
    "result": [
      {
        "electoralDistricts": [
          {
            "election": null,
            "id": 69,
            "name": "Niagara Falls"
          }
        ],
        "pollDivisionIds": [
          10140014
        ],
        "postalCode": "L2A3K5",
        "streetName": "ARCHANGE",
        "streetDirectionId": null,
        "streetTypeId": "ST",
        "placeName": "FORT ERIE",
        "streetNameDisplayText": "ARCHANGE ST, FORT ERIE"
      }
    ]
  },
  {
    "postal": "L2A3S3",
    "result": []
  },
  {
    "postal": "L2A3L4",
    "result": [
      {
        "electoralDistricts": [
          {
            "election": null,
            "id": 69,
            "name": "Niagara Falls"
          }
        ],
        "pollDivisionIds": [
          10140016
        ],
        "postalCode": "L2A3L4",
        "streetName": "BATTERY",
        "streetDirectionId": null,
        "streetTypeId": "ST",
        "placeName": "FORT ERIE",
        "streetNameDisplayText": "BATTERY ST, FORT ERIE"
      }
    ]
  },
  {
    "postal": "L2A9Y2",
    "result": []
  },
  {
    "postal": "L2A1E0",
    "result": []
  },
  {
    "postal": "L2A9A4",
    "result": []
  },
  {
    "postal": "L2A1L3",
    "result": [
      {
        "electoralDistricts": [
          {
            "election": null,
            "id": 69,
            "name": "Niagara Falls"
          }
        ],
        "pollDivisionIds": [
          10140021
        ],
        "postalCode": "L2A1L3",
        "streetName": "DRUMMOND",
        "streetDirectionId": null,
        "streetTypeId": "CRES",
        "placeName": "FORT ERIE",
        "streetNameDisplayText": "DRUMMOND CRES, FORT ERIE"
      }
    ]
  },
  {
    "postal": "L2A6N1",
    "result": []
  },
  {
    "postal": "L2A6G7",
    "result": [
      {
        "electoralDistricts": [
          {
            "election": null,
            "id": 69,
            "name": "Niagara Falls"
          }
        ],
        "pollDivisionIds": [
          10140021
        ],
        "postalCode": "L2A6G7",
        "streetName": "COLETTE",
        "streetDirectionId": null,
        "streetTypeId": "RD",
        "placeName": "FORT ERIE",
        "streetNameDisplayText": "COLETTE RD, FORT ERIE"
      },
      {
        "electoralDistricts": [
          {
            "election": null,
            "id": 69,
            "name": "Niagara Falls"
          }
        ],
        "pollDivisionIds": [
          10140021
        ],
        "postalCode": "L2A6G7",
        "streetName": "EVA",
        "streetDirectionId": null,
        "streetTypeId": "RD",
        "placeName": "FORT ERIE",
        "streetNameDisplayText": "EVA RD, FORT ERIE"
      }
    ]
  },
  {
    "postal": "L2A7W1",
    "result": []
  },
  {
    "postal": "L2A4M6",
    "result": [
      {
        "electoralDistricts": [
          {
            "election": null,
            "id": 69,
            "name": "Niagara Falls"
          }
        ],
        "pollDivisionIds": [
          10140021
        ],
        "postalCode": "L2A4M6",
        "streetName": "KRAFT",
        "streetDirectionId": null,
        "streetTypeId": "RD",
        "placeName": "FORT ERIE",
        "streetNameDisplayText": "KRAFT RD, FORT ERIE"
      }
    ]
  },
  {
    "postal": "L2A1K0",
    "result": []
  },
  {
    "postal": "L2A3E2",
    "result": []
  },
  {
    "postal": "L2A5H4",
    "result": [
      {
        "electoralDistricts": [
          {
            "election": null,
            "id": 69,
            "name": "Niagara Falls"
          }
        ],
        "pollDivisionIds": [
          10143905
        ],
        "postalCode": "L2A5H4",
        "streetName": "RUBY",
        "streetDirectionId": null,
        "streetTypeId": "AVE",
        "placeName": "FORT ERIE",
        "streetNameDisplayText": "RUBY AVE, FORT ERIE"
      }
    ]
  },
  {
    "postal": "L2A1K7",
    "result": [
      {
        "electoralDistricts": [
          {
            "election": null,
            "id": 69,
            "name": "Niagara Falls"
          }
        ],
        "pollDivisionIds": [
          10140021
        ],
        "postalCode": "L2A1K7",
        "streetName": "QUEENSTON",
        "streetDirectionId": null,
        "streetTypeId": "BLVD",
        "placeName": "FORT ERIE",
        "streetNameDisplayText": "QUEENSTON BLVD, FORT ERIE"
      }
    ]
  },
  {
    "postal": "L2A0H0",
    "result": []
  },
  {
    "postal": "L2A0J3",
    "result": []
  },
  {
    "postal": "L2A1X6",
    "result": [
      {
        "electoralDistricts": [
          {
            "election": null,
            "id": 69,
            "name": "Niagara Falls"
          }
        ],
        "pollDivisionIds": [
          10140017
        ],
        "postalCode": "L2A1X6",
        "streetName": "BERTIE",
        "streetDirectionId": null,
        "streetTypeId": "ST",
        "placeName": "FORT ERIE",
        "streetNameDisplayText": "BERTIE ST, FORT ERIE"
      }
    ]
  },
  {
    "postal": "L2A2Z6",
    "result": [
      {
        "electoralDistricts": [
          {
            "election": null,
            "id": 69,
            "name": "Niagara Falls"
          }
        ],
        "pollDivisionIds": [
          10140012
        ],
        "postalCode": "L2A2Z6",
        "streetName": "LINDBERGH",
        "streetDirectionId": null,
        "streetTypeId": "DR",
        "placeName": "FORT ERIE",
        "streetNameDisplayText": "LINDBERGH DR, FORT ERIE"
      }
    ]
  },
  {
    "postal": "L2A4R9",
    "result": [
      {
        "electoralDistricts": [
          {
            "election": null,
            "id": 69,
            "name": "Niagara Falls"
          }
        ],
        "pollDivisionIds": [
          10143905
        ],
        "postalCode": "L2A4R9",
        "streetName": "FAIRVIEW",
        "streetDirectionId": null,
        "streetTypeId": "RD",
        "placeName": "FORT ERIE",
        "streetNameDisplayText": "FAIRVIEW RD, FORT ERIE"
      }
    ]
  },
  {
    "postal": "L2A0W8",
    "result": []
  },
  {
    "postal": "L2A1L4",
    "result": [
      {
        "electoralDistricts": [
          {
            "election": null,
            "id": 69,
            "name": "Niagara Falls"
          }
        ],
        "pollDivisionIds": [
          10140021
        ],
        "postalCode": "L2A1L4",
        "streetName": "DRUMMOND",
        "streetDirectionId": null,
        "streetTypeId": "CRES",
        "placeName": "FORT ERIE",
        "streetNameDisplayText": "DRUMMOND CRES, FORT ERIE"
      }
    ]
  },
  {
    "postal": "L2A0C8",
    "result": []
  },
  {
    "postal": "L2A9X7",
    "result": []
  },
  {
    "postal": "L2A4T1",
    "result": [
      {
        "electoralDistricts": [
          {
            "election": null,
            "id": 69,
            "name": "Niagara Falls"
          }
        ],
        "pollDivisionIds": [
          10143905
        ],
        "postalCode": "L2A4T1",
        "streetName": "FAIRVIEW",
        "streetDirectionId": null,
        "streetTypeId": "RD",
        "placeName": "FORT ERIE",
        "streetNameDisplayText": "FAIRVIEW RD, FORT ERIE"
      }
    ]
  },
  {
    "postal": "L2A0M0",
    "result": []
  },
  {
    "postal": "L2A6A2",
    "result": [
      {
        "electoralDistricts": [
          {
            "election": null,
            "id": 69,
            "name": "Niagara Falls"
          }
        ],
        "pollDivisionIds": [
          10143905
        ],
        "postalCode": "L2A6A2",
        "streetName": "LAKEHURST",
        "streetDirectionId": null,
        "streetTypeId": "LANE",
        "placeName": "FORT ERIE",
        "streetNameDisplayText": "LAKEHURST LANE, FORT ERIE"
      }
    ]
  },
  {
    "postal": "L2A9S8",
    "result": []
  },
  {
    "postal": "L2A9T4",
    "result": []
  },
  {
    "postal": "L2A9Y4",
    "result": []
  },
  {
    "postal": "L2A6G5",
    "result": [
      {
        "electoralDistricts": [
          {
            "election": null,
            "id": 69,
            "name": "Niagara Falls"
          }
        ],
        "pollDivisionIds": [
          10140021
        ],
        "postalCode": "L2A6G5",
        "streetName": "GEORGE",
        "streetDirectionId": null,
        "streetTypeId": "RD",
        "placeName": "FORT ERIE",
        "streetNameDisplayText": "GEORGE RD, FORT ERIE"
      }
    ]
  },
  {
    "postal": "L2A6H9",
    "result": []
  },
  {
    "postal": "L2A2P3",
    "result": [
      {
        "electoralDistricts": [
          {
            "election": null,
            "id": 69,
            "name": "Niagara Falls"
          }
        ],
        "pollDivisionIds": [
          10140012
        ],
        "postalCode": "L2A2P3",
        "streetName": "BOWDEN",
        "streetDirectionId": null,
        "streetTypeId": "ST",
        "placeName": "FORT ERIE",
        "streetNameDisplayText": "BOWDEN ST, FORT ERIE"
      }
    ]
  },
  {
    "postal": "L2A1T6",
    "result": [
      {
        "electoralDistricts": [
          {
            "election": null,
            "id": 69,
            "name": "Niagara Falls"
          }
        ],
        "pollDivisionIds": [
          10139967
        ],
        "postalCode": "L2A1T6",
        "streetName": "LUNDY'S",
        "streetDirectionId": null,
        "streetTypeId": "LANE",
        "placeName": "NIAGARA FALLS ONT",
        "streetNameDisplayText": "LUNDY'S LANE, NIAGARA FALLS ONT"
      },
      {
        "electoralDistricts": [
          {
            "election": null,
            "id": 69,
            "name": "Niagara Falls"
          }
        ],
        "pollDivisionIds": [
          10140017
        ],
        "postalCode": "L2A1T6",
        "streetName": "QUEEN",
        "streetDirectionId": null,
        "streetTypeId": "ST",
        "placeName": "FORT ERIE",
        "streetNameDisplayText": "QUEEN ST, FORT ERIE"
      }
    ]
  },
  {
    "postal": "L2A4P6",
    "result": [
      {
        "electoralDistricts": [
          {
            "election": null,
            "id": 69,
            "name": "Niagara Falls"
          }
        ],
        "pollDivisionIds": [
          10143905
        ],
        "postalCode": "L2A4P6",
        "streetName": "CRESCENT",
        "streetDirectionId": null,
        "streetTypeId": "RD",
        "placeName": "FORT ERIE",
        "streetNameDisplayText": "CRESCENT RD, FORT ERIE"
      }
    ]
  },
  {
    "postal": "L2A3K1",
    "result": [
      {
        "electoralDistricts": [
          {
            "election": null,
            "id": 69,
            "name": "Niagara Falls"
          }
        ],
        "pollDivisionIds": [
          10140017
        ],
        "postalCode": "L2A3K1",
        "streetName": "WATERLOO",
        "streetDirectionId": null,
        "streetTypeId": "ST",
        "placeName": "FORT ERIE",
        "streetNameDisplayText": "WATERLOO ST, FORT ERIE"
      }
    ]
  },
  {
    "postal": "L2A6X4",
    "result": []
  },
  {
    "postal": "L2A4M8",
    "result": [
      {
        "electoralDistricts": [
          {
            "election": null,
            "id": 69,
            "name": "Niagara Falls"
          }
        ],
        "pollDivisionIds": [
          10140021
        ],
        "postalCode": "L2A4M8",
        "streetName": "KRAFT",
        "streetDirectionId": null,
        "streetTypeId": "LANE",
        "placeName": "FORT ERIE",
        "streetNameDisplayText": "KRAFT LANE, FORT ERIE"
      },
      {
        "electoralDistricts": [
          {
            "election": null,
            "id": 69,
            "name": "Niagara Falls"
          }
        ],
        "pollDivisionIds": [
          10140021,
          10143905
        ],
        "postalCode": "L2A4M8",
        "streetName": "KRAFT",
        "streetDirectionId": null,
        "streetTypeId": "RD",
        "placeName": "FORT ERIE",
        "streetNameDisplayText": "KRAFT RD, FORT ERIE"
      }
    ]
  },
  {
    "postal": "L2A2Y1",
    "result": [
      {
        "electoralDistricts": [
          {
            "election": null,
            "id": 69,
            "name": "Niagara Falls"
          }
        ],
        "pollDivisionIds": [
          10140012
        ],
        "postalCode": "L2A2Y1",
        "streetName": "HIGHLAND",
        "streetDirectionId": null,
        "streetTypeId": "AVE",
        "placeName": "FORT ERIE",
        "streetNameDisplayText": "HIGHLAND AVE, FORT ERIE"
      }
    ]
  },
  {
    "postal": "L2A6M1",
    "result": []
  },
  {
    "postal": "L2A5L8",
    "result": [
      {
        "electoralDistricts": [
          {
            "election": null,
            "id": 69,
            "name": "Niagara Falls"
          }
        ],
        "pollDivisionIds": [
          10140021
        ],
        "postalCode": "L2A5L8",
        "streetName": "WINDSOR",
        "streetDirectionId": null,
        "streetTypeId": "AVE",
        "placeName": "FORT ERIE",
        "streetNameDisplayText": "WINDSOR AVE, FORT ERIE"
      }
    ]
  },
  {
    "postal": "L2A3P6",
    "result": [
      {
        "electoralDistricts": [
          {
            "election": null,
            "id": 69,
            "name": "Niagara Falls"
          }
        ],
        "pollDivisionIds": [
          10140016
        ],
        "postalCode": "L2A3P6",
        "streetName": "HIGH",
        "streetDirectionId": null,
        "streetTypeId": "ST",
        "placeName": "FORT ERIE",
        "streetNameDisplayText": "HIGH ST, FORT ERIE"
      }
    ]
  },
  {
    "postal": "L2A9A5",
    "result": []
  },
  {
    "postal": "L2A7K1",
    "result": []
  },
  {
    "postal": "L2A3J4",
    "result": [
      {
        "electoralDistricts": [
          {
            "election": null,
            "id": 69,
            "name": "Niagara Falls"
          }
        ],
        "pollDivisionIds": [
          10140012
        ],
        "postalCode": "L2A3J4",
        "streetName": "KEE",
        "streetDirectionId": null,
        "streetTypeId": "LANE",
        "placeName": "FORT ERIE",
        "streetNameDisplayText": "KEE LANE, FORT ERIE"
      }
    ]
  },
  {
    "postal": "L2A5E7",
    "result": [
      {
        "electoralDistricts": [
          {
            "election": null,
            "id": 69,
            "name": "Niagara Falls"
          }
        ],
        "pollDivisionIds": [
          10143905
        ],
        "postalCode": "L2A5E7",
        "streetName": "SCOTT",
        "streetDirectionId": null,
        "streetTypeId": "AVE",
        "placeName": "FORT ERIE",
        "streetNameDisplayText": "SCOTT AVE, FORT ERIE"
      }
    ]
  },
  {
    "postal": "L2A3A7",
    "result": [
      {
        "electoralDistricts": [
          {
            "election": null,
            "id": 69,
            "name": "Niagara Falls"
          }
        ],
        "pollDivisionIds": [
          10143905
        ],
        "postalCode": "L2A3A7",
        "streetName": "ENGLEWOOD",
        "streetDirectionId": null,
        "streetTypeId": "AVE",
        "placeName": "FORT ERIE",
        "streetNameDisplayText": "ENGLEWOOD AVE, FORT ERIE"
      }
    ]
  },
  {
    "postal": "L2A1B9",
    "result": [
      {
        "electoralDistricts": [
          {
            "election": null,
            "id": 69,
            "name": "Niagara Falls"
          }
        ],
        "pollDivisionIds": [
          10140021
        ],
        "postalCode": "L2A1B9",
        "streetName": "LAKESHORE",
        "streetDirectionId": null,
        "streetTypeId": "RD",
        "placeName": "FORT ERIE",
        "streetNameDisplayText": "LAKESHORE RD, FORT ERIE"
      }
    ]
  },
  {
    "postal": "L2A9E8",
    "result": []
  },
  {
    "postal": "L2A1C9",
    "result": [
      {
        "electoralDistricts": [
          {
            "election": null,
            "id": 69,
            "name": "Niagara Falls"
          }
        ],
        "pollDivisionIds": [
          10140021
        ],
        "postalCode": "L2A1C9",
        "streetName": "AVENUE A",
        "streetDirectionId": null,
        "streetTypeId": "AVE",
        "placeName": "FORT ERIE",
        "streetNameDisplayText": "AVENUE A AVE, FORT ERIE"
      }
    ]
  },
  {
    "postal": "L2A3B5",
    "result": [
      {
        "electoralDistricts": [
          {
            "election": null,
            "id": 69,
            "name": "Niagara Falls"
          }
        ],
        "pollDivisionIds": [
          10143905
        ],
        "postalCode": "L2A3B5",
        "streetName": "HOLLYWOOD",
        "streetDirectionId": null,
        "streetTypeId": "ST",
        "placeName": "FORT ERIE",
        "streetNameDisplayText": "HOLLYWOOD ST, FORT ERIE"
      }
    ]
  },
  {
    "postal": "L2A8R0",
    "result": []
  },
  {
    "postal": "L2A3P2",
    "result": [
      {
        "electoralDistricts": [
          {
            "election": null,
            "id": 69,
            "name": "Niagara Falls"
          }
        ],
        "pollDivisionIds": [
          10140012
        ],
        "postalCode": "L2A3P2",
        "streetName": "KLAUCK",
        "streetDirectionId": null,
        "streetTypeId": "ST",
        "placeName": "FORT ERIE",
        "streetNameDisplayText": "KLAUCK ST, FORT ERIE"
      }
    ]
  },
  {
    "postal": "L2A5V4",
    "result": [
      {
        "electoralDistricts": [
          {
            "election": null,
            "id": 69,
            "name": "Niagara Falls"
          }
        ],
        "pollDivisionIds": [
          10143905
        ],
        "postalCode": "L2A5V4",
        "streetName": "DAYTONA",
        "streetDirectionId": null,
        "streetTypeId": "DR",
        "placeName": "FORT ERIE",
        "streetNameDisplayText": "DAYTONA DR, FORT ERIE"
      }
    ]
  },
  {
    "postal": "L2A4H0",
    "result": []
  },
  {
    "postal": "L2A4S7",
    "result": [
      {
        "electoralDistricts": [
          {
            "election": null,
            "id": 69,
            "name": "Niagara Falls"
          }
        ],
        "pollDivisionIds": [
          10143905
        ],
        "postalCode": "L2A4S7",
        "streetName": "FAIRVIEW",
        "streetDirectionId": null,
        "streetTypeId": "RD",
        "placeName": "FORT ERIE",
        "streetNameDisplayText": "FAIRVIEW RD, FORT ERIE"
      }
    ]
  },
  {
    "postal": "L2A6C2",
    "result": [
      {
        "electoralDistricts": [
          {
            "election": null,
            "id": 69,
            "name": "Niagara Falls"
          }
        ],
        "pollDivisionIds": [
          10143905
        ],
        "postalCode": "L2A6C2",
        "streetName": "HOLLYWOOD",
        "streetDirectionId": null,
        "streetTypeId": "ST",
        "placeName": "FORT ERIE",
        "streetNameDisplayText": "HOLLYWOOD ST, FORT ERIE"
      }
    ]
  },
  {
    "postal": "L2A8W3",
    "result": []
  },
  {
    "postal": "L2A4M5",
    "result": [
      {
        "electoralDistricts": [
          {
            "election": null,
            "id": 69,
            "name": "Niagara Falls"
          }
        ],
        "pollDivisionIds": [
          10140021
        ],
        "postalCode": "L2A4M5",
        "streetName": "KRAFT",
        "streetDirectionId": null,
        "streetTypeId": "RD",
        "placeName": "FORT ERIE",
        "streetNameDisplayText": "KRAFT RD, FORT ERIE"
      }
    ]
  },
  {
    "postal": "L2A5T1",
    "result": [
      {
        "electoralDistricts": [
          {
            "election": null,
            "id": 69,
            "name": "Niagara Falls"
          }
        ],
        "pollDivisionIds": [
          10143905
        ],
        "postalCode": "L2A5T1",
        "streetName": "SCOTT",
        "streetDirectionId": null,
        "streetTypeId": "AVE",
        "placeName": "FORT ERIE",
        "streetNameDisplayText": "SCOTT AVE, FORT ERIE"
      }
    ]
  },
  {
    "postal": "L2A3B3",
    "result": [
      {
        "electoralDistricts": [
          {
            "election": null,
            "id": 69,
            "name": "Niagara Falls"
          }
        ],
        "pollDivisionIds": [
          10143905
        ],
        "postalCode": "L2A3B3",
        "streetName": "HOLLYWOOD",
        "streetDirectionId": null,
        "streetTypeId": "ST",
        "placeName": "FORT ERIE",
        "streetNameDisplayText": "HOLLYWOOD ST, FORT ERIE"
      }
    ]
  },
  {
    "postal": "L2A6C6",
    "result": [
      {
        "electoralDistricts": [
          {
            "election": null,
            "id": 69,
            "name": "Niagara Falls"
          }
        ],
        "pollDivisionIds": [
          10140021
        ],
        "postalCode": "L2A6C6",
        "streetName": "ALBANY",
        "streetDirectionId": null,
        "streetTypeId": "ST",
        "placeName": "FORT ERIE",
        "streetNameDisplayText": "ALBANY ST, FORT ERIE"
      }
    ]
  },
  {
    "postal": "L2A7N8",
    "result": []
  },
  {
    "postal": "L2A2Y3",
    "result": [
      {
        "electoralDistricts": [
          {
            "election": null,
            "id": 69,
            "name": "Niagara Falls"
          }
        ],
        "pollDivisionIds": [
          10140012
        ],
        "postalCode": "L2A2Y3",
        "streetName": "HIGHLAND",
        "streetDirectionId": null,
        "streetTypeId": "AVE",
        "placeName": "FORT ERIE",
        "streetNameDisplayText": "HIGHLAND AVE, FORT ERIE"
      }
    ]
  },
  {
    "postal": "L2A2R6",
    "result": []
  },
  {
    "postal": "L2A7N3",
    "result": []
  },
  {
    "postal": "L2A8J2",
    "result": []
  },
  {
    "postal": "L2A6A9",
    "result": [
      {
        "electoralDistricts": [
          {
            "election": null,
            "id": 69,
            "name": "Niagara Falls"
          }
        ],
        "pollDivisionIds": [
          10140014
        ],
        "postalCode": "L2A6A9",
        "streetName": "OAKES",
        "streetDirectionId": null,
        "streetTypeId": "DR",
        "placeName": "FORT ERIE",
        "streetNameDisplayText": "OAKES DR, FORT ERIE"
      },
      {
        "electoralDistricts": [
          {
            "election": null,
            "id": 69,
            "name": "Niagara Falls"
          }
        ],
        "pollDivisionIds": [
          10140014
        ],
        "postalCode": "L2A6A9",
        "streetName": "TENTH",
        "streetDirectionId": null,
        "streetTypeId": "ST",
        "placeName": "FORT ERIE",
        "streetNameDisplayText": "TENTH ST, FORT ERIE"
      }
    ]
  },
  {
    "postal": "L2A3V2",
    "result": [
      {
        "electoralDistricts": [
          {
            "election": null,
            "id": 69,
            "name": "Niagara Falls"
          }
        ],
        "pollDivisionIds": [
          10140012
        ],
        "postalCode": "L2A3V2",
        "streetName": "CENTRAL",
        "streetDirectionId": null,
        "streetTypeId": "AVE",
        "placeName": "FORT ERIE",
        "streetNameDisplayText": "CENTRAL AVE, FORT ERIE"
      }
    ]
  },
  {
    "postal": "L2A2N3",
    "result": [
      {
        "electoralDistricts": [
          {
            "election": null,
            "id": 69,
            "name": "Niagara Falls"
          }
        ],
        "pollDivisionIds": [
          10140012
        ],
        "postalCode": "L2A2N3",
        "streetName": "WOOD",
        "streetDirectionId": null,
        "streetTypeId": "ST",
        "placeName": "FORT ERIE",
        "streetNameDisplayText": "WOOD ST, FORT ERIE"
      }
    ]
  },
  {
    "postal": "L2A1S5",
    "result": []
  },
  {
    "postal": "L2A4T7",
    "result": [
      {
        "electoralDistricts": [
          {
            "election": null,
            "id": 69,
            "name": "Niagara Falls"
          }
        ],
        "pollDivisionIds": [
          10143905
        ],
        "postalCode": "L2A4T7",
        "streetName": "GRANDVIEW",
        "streetDirectionId": null,
        "streetTypeId": "RD",
        "placeName": "FORT ERIE",
        "streetNameDisplayText": "GRANDVIEW RD, FORT ERIE"
      }
    ]
  },
  {
    "postal": "L2A6Y7",
    "result": []
  },
  {
    "postal": "L2A0W7",
    "result": []
  },
  {
    "postal": "L2A2W9",
    "result": [
      {
        "electoralDistricts": [
          {
            "election": null,
            "id": 69,
            "name": "Niagara Falls"
          }
        ],
        "pollDivisionIds": [
          10140012
        ],
        "postalCode": "L2A2W9",
        "streetName": "EMERICK",
        "streetDirectionId": null,
        "streetTypeId": "AVE",
        "placeName": "FORT ERIE",
        "streetNameDisplayText": "EMERICK AVE, FORT ERIE"
      }
    ]
  },
  {
    "postal": "L2A8V0",
    "result": []
  },
  {
    "postal": "L2A0H4",
    "result": []
  },
  {
    "postal": "L2A2T1",
    "result": [
      {
        "electoralDistricts": [
          {
            "election": null,
            "id": 69,
            "name": "Niagara Falls"
          }
        ],
        "pollDivisionIds": [
          10140012
        ],
        "postalCode": "L2A2T1",
        "streetName": "JARVIS",
        "streetDirectionId": null,
        "streetTypeId": "ST",
        "placeName": "FORT ERIE",
        "streetNameDisplayText": "JARVIS ST, FORT ERIE"
      }
    ]
  },
  {
    "postal": "L2A1B1",
    "result": [
      {
        "electoralDistricts": [
          {
            "election": null,
            "id": 69,
            "name": "Niagara Falls"
          }
        ],
        "pollDivisionIds": [
          10140021
        ],
        "postalCode": "L2A1B1",
        "streetName": "LAKESHORE",
        "streetDirectionId": null,
        "streetTypeId": "RD",
        "placeName": "FORT ERIE",
        "streetNameDisplayText": "LAKESHORE RD, FORT ERIE"
      }
    ]
  },
  {
    "postal": "L2A8B6",
    "result": []
  },
  {
    "postal": "L2A6H1",
    "result": [
      {
        "electoralDistricts": [
          {
            "election": null,
            "id": 69,
            "name": "Niagara Falls"
          }
        ],
        "pollDivisionIds": [
          10140021
        ],
        "postalCode": "L2A6H1",
        "streetName": "GEORGE",
        "streetDirectionId": null,
        "streetTypeId": "RD",
        "placeName": "FORT ERIE",
        "streetNameDisplayText": "GEORGE RD, FORT ERIE"
      }
    ]
  },
  {
    "postal": "L2A8T8",
    "result": []
  },
  {
    "postal": "L2A0T4",
    "result": []
  },
  {
    "postal": "L2A2C4",
    "result": [
      {
        "electoralDistricts": [
          {
            "election": null,
            "id": 69,
            "name": "Niagara Falls"
          }
        ],
        "pollDivisionIds": [
          10140016
        ],
        "postalCode": "L2A2C4",
        "streetName": "LAVINIA",
        "streetDirectionId": null,
        "streetTypeId": "ST",
        "placeName": "FORT ERIE",
        "streetNameDisplayText": "LAVINIA ST, FORT ERIE"
      }
    ]
  },
  {
    "postal": "L2A8N3",
    "result": []
  },
  {
    "postal": "L2A4L8",
    "result": [
      {
        "electoralDistricts": [
          {
            "election": null,
            "id": 69,
            "name": "Niagara Falls"
          }
        ],
        "pollDivisionIds": [
          10140021
        ],
        "postalCode": "L2A4L8",
        "streetName": "BEACHVIEW",
        "streetDirectionId": null,
        "streetTypeId": "AVE",
        "placeName": "FORT ERIE",
        "streetNameDisplayText": "BEACHVIEW AVE, FORT ERIE"
      }
    ]
  },
  {
    "postal": "L2A2B5",
    "result": [
      {
        "electoralDistricts": [
          {
            "election": null,
            "id": 69,
            "name": "Niagara Falls"
          }
        ],
        "pollDivisionIds": [
          10140015
        ],
        "postalCode": "L2A2B5",
        "streetName": "MURRAY",
        "streetDirectionId": null,
        "streetTypeId": "ST",
        "placeName": "FORT ERIE",
        "streetNameDisplayText": "MURRAY ST, FORT ERIE"
      }
    ]
  },
  {
    "postal": "L2A3H1",
    "result": [
      {
        "electoralDistricts": [
          {
            "election": null,
            "id": 69,
            "name": "Niagara Falls"
          }
        ],
        "pollDivisionIds": [
          10140016
        ],
        "postalCode": "L2A3H1",
        "streetName": "NIAGARA",
        "streetDirectionId": null,
        "streetTypeId": "BLVD",
        "placeName": "FORT ERIE",
        "streetNameDisplayText": "NIAGARA BLVD, FORT ERIE"
      }
    ]
  },
  {
    "postal": "L2A4Y1",
    "result": [
      {
        "electoralDistricts": [
          {
            "election": null,
            "id": 69,
            "name": "Niagara Falls"
          }
        ],
        "pollDivisionIds": [
          10143905
        ],
        "postalCode": "L2A4Y1",
        "streetName": "LAKESIDE",
        "streetDirectionId": null,
        "streetTypeId": "RD",
        "placeName": "FORT ERIE",
        "streetNameDisplayText": "LAKESIDE RD, FORT ERIE"
      }
    ]
  },
  {
    "postal": "L2A7E2",
    "result": []
  },
  {
    "postal": "L2A2P5",
    "result": [
      {
        "electoralDistricts": [
          {
            "election": null,
            "id": 69,
            "name": "Niagara Falls"
          }
        ],
        "pollDivisionIds": [
          10140012
        ],
        "postalCode": "L2A2P5",
        "streetName": "BOWDEN",
        "streetDirectionId": null,
        "streetTypeId": "ST",
        "placeName": "FORT ERIE",
        "streetNameDisplayText": "BOWDEN ST, FORT ERIE"
      }
    ]
  },
  {
    "postal": "L2A8R7",
    "result": []
  },
  {
    "postal": "L2A9P1",
    "result": []
  },
  {
    "postal": "L2A3B8",
    "result": [
      {
        "electoralDistricts": [
          {
            "election": null,
            "id": 69,
            "name": "Niagara Falls"
          }
        ],
        "pollDivisionIds": [
          10143905
        ],
        "postalCode": "L2A3B8",
        "streetName": "PHILLIPS",
        "streetDirectionId": null,
        "streetTypeId": "ST",
        "placeName": "FORT ERIE",
        "streetNameDisplayText": "PHILLIPS ST, FORT ERIE"
      }
    ]
  },
  {
    "postal": "L2A3P7",
    "result": [
      {
        "electoralDistricts": [
          {
            "election": null,
            "id": 69,
            "name": "Niagara Falls"
          }
        ],
        "pollDivisionIds": [
          10140016
        ],
        "postalCode": "L2A3P7",
        "streetName": "HIGH",
        "streetDirectionId": null,
        "streetTypeId": "ST",
        "placeName": "FORT ERIE",
        "streetNameDisplayText": "HIGH ST, FORT ERIE"
      }
    ]
  },
  {
    "postal": "L2A9B2",
    "result": []
  },
  {
    "postal": "L2A6Z3",
    "result": []
  },
  {
    "postal": "L2A4N5",
    "result": [
      {
        "electoralDistricts": [
          {
            "election": null,
            "id": 69,
            "name": "Niagara Falls"
          }
        ],
        "pollDivisionIds": [
          10140014
        ],
        "postalCode": "L2A4N5",
        "streetName": "SPEARS",
        "streetDirectionId": null,
        "streetTypeId": "RD",
        "placeName": "FORT ERIE",
        "streetNameDisplayText": "SPEARS RD, FORT ERIE"
      }
    ]
  },
  {
    "postal": "L2A8T3",
    "result": []
  },
  {
    "postal": "L2A1V2",
    "result": []
  },
  {
    "postal": "L2A1Y0",
    "result": []
  },
  {
    "postal": "L2A3G6",
    "result": [
      {
        "electoralDistricts": [
          {
            "election": null,
            "id": 69,
            "name": "Niagara Falls"
          }
        ],
        "pollDivisionIds": [
          10140017
        ],
        "postalCode": "L2A3G6",
        "streetName": "NIAGARA",
        "streetDirectionId": null,
        "streetTypeId": "BLVD",
        "placeName": "FORT ERIE",
        "streetNameDisplayText": "NIAGARA BLVD, FORT ERIE"
      }
    ]
  },
  {
    "postal": "L2A3H7",
    "result": [
      {
        "electoralDistricts": [
          {
            "election": null,
            "id": 69,
            "name": "Niagara Falls"
          }
        ],
        "pollDivisionIds": [
          10140012
        ],
        "postalCode": "L2A3H7",
        "streetName": "NIAGARA",
        "streetDirectionId": null,
        "streetTypeId": "BLVD",
        "placeName": "FORT ERIE",
        "streetNameDisplayText": "NIAGARA BLVD, FORT ERIE"
      },
      {
        "electoralDistricts": [
          {
            "election": null,
            "id": 69,
            "name": "Niagara Falls"
          }
        ],
        "pollDivisionIds": [
          10140012
        ],
        "postalCode": "L2A3H7",
        "streetName": "NIAGARA",
        "streetDirectionId": null,
        "streetTypeId": "PKY",
        "placeName": "FORT ERIE",
        "streetNameDisplayText": "NIAGARA PKY, FORT ERIE"
      }
    ]
  },
  {
    "postal": "L2A7X8",
    "result": []
  },
  {
    "postal": "L2A0C7",
    "result": []
  },
  {
    "postal": "L2A0W9",
    "result": []
  },
  {
    "postal": "L2A8E6",
    "result": []
  },
  {
    "postal": "L2A9Z8",
    "result": []
  },
  {
    "postal": "L2A3P4",
    "result": []
  },
  {
    "postal": "L2A6L8",
    "result": []
  },
  {
    "postal": "L2A2R4",
    "result": []
  },
  {
    "postal": "L2A2W1",
    "result": [
      {
        "electoralDistricts": [
          {
            "election": null,
            "id": 69,
            "name": "Niagara Falls"
          }
        ],
        "pollDivisionIds": [
          10140012
        ],
        "postalCode": "L2A2W1",
        "streetName": "PHIPPS",
        "streetDirectionId": null,
        "streetTypeId": "ST",
        "placeName": "FORT ERIE",
        "streetNameDisplayText": "PHIPPS ST, FORT ERIE"
      }
    ]
  },
  {
    "postal": "L2A9H8",
    "result": []
  },
  {
    "postal": "L2A8X9",
    "result": []
  },
  {
    "postal": "L2A7H4",
    "result": []
  },
  {
    "postal": "L2A3J1",
    "result": [
      {
        "electoralDistricts": [
          {
            "election": null,
            "id": 69,
            "name": "Niagara Falls"
          }
        ],
        "pollDivisionIds": [
          10140012
        ],
        "postalCode": "L2A3J1",
        "streetName": "NIAGARA",
        "streetDirectionId": null,
        "streetTypeId": "BLVD",
        "placeName": "FORT ERIE",
        "streetNameDisplayText": "NIAGARA BLVD, FORT ERIE"
      }
    ]
  },
  {
    "postal": "L2A1P4",
    "result": [
      {
        "electoralDistricts": [
          {
            "election": null,
            "id": 69,
            "name": "Niagara Falls"
          }
        ],
        "pollDivisionIds": [
          10143905
        ],
        "postalCode": "L2A1P4",
        "streetName": "GARRISON",
        "streetDirectionId": null,
        "streetTypeId": "RD",
        "placeName": "FORT ERIE",
        "streetNameDisplayText": "GARRISON RD, FORT ERIE"
      }
    ]
  },
  {
    "postal": "L2A2A3",
    "result": [
      {
        "electoralDistricts": [
          {
            "election": null,
            "id": 69,
            "name": "Niagara Falls"
          }
        ],
        "pollDivisionIds": [
          10140017
        ],
        "postalCode": "L2A2A3",
        "streetName": "MURRAY",
        "streetDirectionId": null,
        "streetTypeId": "ST",
        "placeName": "FORT ERIE",
        "streetNameDisplayText": "MURRAY ST, FORT ERIE"
      }
    ]
  },
  {
    "postal": "L2A0Z1",
    "result": []
  },
  {
    "postal": "L2A1C1",
    "result": [
      {
        "electoralDistricts": [
          {
            "election": null,
            "id": 69,
            "name": "Niagara Falls"
          }
        ],
        "pollDivisionIds": [
          10140021
        ],
        "postalCode": "L2A1C1",
        "streetName": "LAKESHORE",
        "streetDirectionId": null,
        "streetTypeId": "RD",
        "placeName": "FORT ERIE",
        "streetNameDisplayText": "LAKESHORE RD, FORT ERIE"
      }
    ]
  },
  {
    "postal": "L2A0H3",
    "result": []
  },
  {
    "postal": "L2A7B0",
    "result": []
  },
  {
    "postal": "L2A5K2",
    "result": [
      {
        "electoralDistricts": [
          {
            "election": null,
            "id": 69,
            "name": "Niagara Falls"
          }
        ],
        "pollDivisionIds": [
          10140021
        ],
        "postalCode": "L2A5K2",
        "streetName": "EDWARD",
        "streetDirectionId": null,
        "streetTypeId": "AVE",
        "placeName": "FORT ERIE",
        "streetNameDisplayText": "EDWARD AVE, FORT ERIE"
      }
    ]
  },
  {
    "postal": "L2A1E9",
    "result": [
      {
        "electoralDistricts": [
          {
            "election": null,
            "id": 69,
            "name": "Niagara Falls"
          }
        ],
        "pollDivisionIds": [
          10140021
        ],
        "postalCode": "L2A1E9",
        "streetName": "DOMINION",
        "streetDirectionId": null,
        "streetTypeId": "RD",
        "placeName": "FORT ERIE",
        "streetNameDisplayText": "DOMINION RD, FORT ERIE"
      }
    ]
  },
  {
    "postal": "L2A9W7",
    "result": []
  },
  {
    "postal": "L2A5W6",
    "result": [
      {
        "electoralDistricts": [
          {
            "election": null,
            "id": 69,
            "name": "Niagara Falls"
          }
        ],
        "pollDivisionIds": [
          10140016
        ],
        "postalCode": "L2A5W6",
        "streetName": "CATHERINE",
        "streetDirectionId": null,
        "streetTypeId": "ST",
        "placeName": "FORT ERIE",
        "streetNameDisplayText": "CATHERINE ST, FORT ERIE"
      }
    ]
  },
  {
    "postal": "L2A6S6",
    "result": [
      {
        "electoralDistricts": [
          {
            "election": null,
            "id": 69,
            "name": "Niagara Falls"
          }
        ],
        "pollDivisionIds": [
          10140014
        ],
        "postalCode": "L2A6S6",
        "streetName": "BERTIE",
        "streetDirectionId": null,
        "streetTypeId": "ST",
        "placeName": "FORT ERIE",
        "streetNameDisplayText": "BERTIE ST, FORT ERIE"
      }
    ]
  },
  {
    "postal": "L2A2P8",
    "result": [
      {
        "electoralDistricts": [
          {
            "election": null,
            "id": 69,
            "name": "Niagara Falls"
          }
        ],
        "pollDivisionIds": [
          10140012
        ],
        "postalCode": "L2A2P8",
        "streetName": "LEWIS",
        "streetDirectionId": null,
        "streetTypeId": "ST",
        "placeName": "FORT ERIE",
        "streetNameDisplayText": "LEWIS ST, FORT ERIE"
      }
    ]
  },
  {
    "postal": "L2A4P8",
    "result": [
      {
        "electoralDistricts": [
          {
            "election": null,
            "id": 69,
            "name": "Niagara Falls"
          }
        ],
        "pollDivisionIds": [
          10143905
        ],
        "postalCode": "L2A4P8",
        "streetName": "CRESCENT",
        "streetDirectionId": null,
        "streetTypeId": "RD",
        "placeName": "FORT ERIE",
        "streetNameDisplayText": "CRESCENT RD, FORT ERIE"
      }
    ]
  },
  {
    "postal": "L2A0V9",
    "result": []
  },
  {
    "postal": "L2A5Y2",
    "result": [
      {
        "electoralDistricts": [
          {
            "election": null,
            "id": 69,
            "name": "Niagara Falls"
          }
        ],
        "pollDivisionIds": [
          10140014
        ],
        "postalCode": "L2A5Y2",
        "streetName": "BERTIE",
        "streetDirectionId": null,
        "streetTypeId": "ST",
        "placeName": "FORT ERIE",
        "streetNameDisplayText": "BERTIE ST, FORT ERIE"
      }
    ]
  },
  {
    "postal": "L2A7Z7",
    "result": []
  },
  {
    "postal": "L2A6Y8",
    "result": []
  },
  {
    "postal": "L2A2G7",
    "result": [
      {
        "electoralDistricts": [
          {
            "election": null,
            "id": 69,
            "name": "Niagara Falls"
          }
        ],
        "pollDivisionIds": [
          10140016
        ],
        "postalCode": "L2A2G7",
        "streetName": "CATHERINE",
        "streetDirectionId": null,
        "streetTypeId": "ST",
        "placeName": "FORT ERIE",
        "streetNameDisplayText": "CATHERINE ST, FORT ERIE"
      }
    ]
  },
  {
    "postal": "L2A8C1",
    "result": []
  },
  {
    "postal": "L2A5C5",
    "result": [
      {
        "electoralDistricts": [
          {
            "election": null,
            "id": 69,
            "name": "Niagara Falls"
          }
        ],
        "pollDivisionIds": [
          10143905
        ],
        "postalCode": "L2A5C5",
        "streetName": "FERNDALE",
        "streetDirectionId": null,
        "streetTypeId": "AVE",
        "placeName": "FORT ERIE",
        "streetNameDisplayText": "FERNDALE AVE, FORT ERIE"
      }
    ]
  },
  {
    "postal": "L2A2X8",
    "result": [
      {
        "electoralDistricts": [
          {
            "election": null,
            "id": 69,
            "name": "Niagara Falls"
          }
        ],
        "pollDivisionIds": [
          10140012
        ],
        "postalCode": "L2A2X8",
        "streetName": "HIGHLAND",
        "streetDirectionId": null,
        "streetTypeId": "AVE",
        "placeName": "FORT ERIE",
        "streetNameDisplayText": "HIGHLAND AVE, FORT ERIE"
      }
    ]
  },
  {
    "postal": "L2A1W5",
    "result": [
      {
        "electoralDistricts": [
          {
            "election": null,
            "id": 69,
            "name": "Niagara Falls"
          }
        ],
        "pollDivisionIds": [
          10140014
        ],
        "postalCode": "L2A1W5",
        "streetName": "HAGEY",
        "streetDirectionId": null,
        "streetTypeId": "AVE",
        "placeName": "FORT ERIE",
        "streetNameDisplayText": "HAGEY AVE, FORT ERIE"
      }
    ]
  },
  {
    "postal": "L2A7G0",
    "result": []
  },
  {
    "postal": "L2A8J8",
    "result": []
  },
  {
    "postal": "L2A3Y0",
    "result": []
  },
  {
    "postal": "L2A9T7",
    "result": []
  },
  {
    "postal": "L2A5P4",
    "result": [
      {
        "electoralDistricts": [
          {
            "election": null,
            "id": 69,
            "name": "Niagara Falls"
          }
        ],
        "pollDivisionIds": [
          10143905
        ],
        "postalCode": "L2A5P4",
        "streetName": "KENNEDY",
        "streetDirectionId": null,
        "streetTypeId": "DR",
        "placeName": "FORT ERIE",
        "streetNameDisplayText": "KENNEDY DR, FORT ERIE"
      }
    ]
  },
  {
    "postal": "L2A4B0",
    "result": []
  },
  {
    "postal": "L2A9N8",
    "result": []
  },
  {
    "postal": "L2A4A7",
    "result": [
      {
        "electoralDistricts": [
          {
            "election": null,
            "id": 69,
            "name": "Niagara Falls"
          }
        ],
        "pollDivisionIds": [
          10140012
        ],
        "postalCode": "L2A4A7",
        "streetName": "ROBINSON",
        "streetDirectionId": null,
        "streetTypeId": "ST",
        "placeName": "FORT ERIE",
        "streetNameDisplayText": "ROBINSON ST, FORT ERIE"
      }
    ]
  },
  {
    "postal": "L2A4H9",
    "result": []
  },
  {
    "postal": "L2A6X1",
    "result": []
  },
  {
    "postal": "L2A9Y7",
    "result": []
  },
  {
    "postal": "L2A2Y5",
    "result": [
      {
        "electoralDistricts": [
          {
            "election": null,
            "id": 69,
            "name": "Niagara Falls"
          }
        ],
        "pollDivisionIds": [
          10140012
        ],
        "postalCode": "L2A2Y5",
        "streetName": "BOWEN",
        "streetDirectionId": null,
        "streetTypeId": "RD",
        "placeName": "FORT ERIE",
        "streetNameDisplayText": "BOWEN RD, FORT ERIE"
      }
    ]
  },
  {
    "postal": "L2A8L7",
    "result": []
  },
  {
    "postal": "L2A2A8",
    "result": [
      {
        "electoralDistricts": [
          {
            "election": null,
            "id": 69,
            "name": "Niagara Falls"
          }
        ],
        "pollDivisionIds": [
          10140017
        ],
        "postalCode": "L2A2A8",
        "streetName": "MURRAY",
        "streetDirectionId": null,
        "streetTypeId": "ST",
        "placeName": "FORT ERIE",
        "streetNameDisplayText": "MURRAY ST, FORT ERIE"
      }
    ]
  },
  {
    "postal": "L2A2K9",
    "result": [
      {
        "electoralDistricts": [
          {
            "election": null,
            "id": 69,
            "name": "Niagara Falls"
          }
        ],
        "pollDivisionIds": [
          10140014
        ],
        "postalCode": "L2A2K9",
        "streetName": "SMITH",
        "streetDirectionId": null,
        "streetTypeId": "ST",
        "placeName": "FORT ERIE",
        "streetNameDisplayText": "SMITH ST, FORT ERIE"
      }
    ]
  },
  {
    "postal": "L2A3E5",
    "result": [
      {
        "electoralDistricts": [
          {
            "election": null,
            "id": 69,
            "name": "Niagara Falls"
          }
        ],
        "pollDivisionIds": [
          10143905
        ],
        "postalCode": "L2A3E5",
        "streetName": "ORCHARD",
        "streetDirectionId": null,
        "streetTypeId": "AVE",
        "placeName": "FORT ERIE",
        "streetNameDisplayText": "ORCHARD AVE, FORT ERIE"
      }
    ]
  },
  {
    "postal": "L2A8N6",
    "result": []
  },
  {
    "postal": "L2A8J4",
    "result": []
  },
  {
    "postal": "L2A4R7",
    "result": [
      {
        "electoralDistricts": [
          {
            "election": null,
            "id": 69,
            "name": "Niagara Falls"
          }
        ],
        "pollDivisionIds": [
          10143905
        ],
        "postalCode": "L2A4R7",
        "streetName": "CRESCENT",
        "streetDirectionId": null,
        "streetTypeId": "RD",
        "placeName": "FORT ERIE",
        "streetNameDisplayText": "CRESCENT RD, FORT ERIE"
      }
    ]
  },
  {
    "postal": "L2A9K1",
    "result": []
  },
  {
    "postal": "L2A8E1",
    "result": []
  },
  {
    "postal": "L2A0R1",
    "result": []
  },
  {
    "postal": "L2A4J3",
    "result": [
      {
        "electoralDistricts": [
          {
            "election": null,
            "id": 69,
            "name": "Niagara Falls"
          }
        ],
        "pollDivisionIds": [
          10140014
        ],
        "postalCode": "L2A4J3",
        "streetName": "DIPIETRO",
        "streetDirectionId": null,
        "streetTypeId": "ST",
        "placeName": "FORT ERIE",
        "streetNameDisplayText": "DIPIETRO ST, FORT ERIE"
      }
    ]
  },
  {
    "postal": "L2A7E7",
    "result": []
  },
  {
    "postal": "L2A0J0",
    "result": []
  },
  {
    "postal": "L2A7R8",
    "result": []
  },
  {
    "postal": "L2A9X0",
    "result": []
  },
  {
    "postal": "L2A7P6",
    "result": []
  },
  {
    "postal": "L2A0R7",
    "result": []
  },
  {
    "postal": "L2A5W1",
    "result": [
      {
        "electoralDistricts": [
          {
            "election": null,
            "id": 69,
            "name": "Niagara Falls"
          }
        ],
        "pollDivisionIds": [
          10143905
        ],
        "postalCode": "L2A5W1",
        "streetName": "LAKEHURST",
        "streetDirectionId": null,
        "streetTypeId": "AVE",
        "placeName": "FORT ERIE",
        "streetNameDisplayText": "LAKEHURST AVE, FORT ERIE"
      }
    ]
  },
  {
    "postal": "L2A0K4",
    "result": []
  },
  {
    "postal": "L2A7N9",
    "result": []
  },
  {
    "postal": "L2A1N0",
    "result": []
  },
  {
    "postal": "L2A6P3",
    "result": []
  },
  {
    "postal": "L2A5A1",
    "result": [
      {
        "electoralDistricts": [
          {
            "election": null,
            "id": 69,
            "name": "Niagara Falls"
          }
        ],
        "pollDivisionIds": [
          10143905
        ],
        "postalCode": "L2A5A1",
        "streetName": "DAYTONA",
        "streetDirectionId": null,
        "streetTypeId": "DR",
        "placeName": "FORT ERIE",
        "streetNameDisplayText": "DAYTONA DR, FORT ERIE"
      }
    ]
  },
  {
    "postal": "L2A9M9",
    "result": []
  },
  {
    "postal": "L2A7T6",
    "result": []
  },
  {
    "postal": "L2A3X0",
    "result": []
  },
  {
    "postal": "L2A2T0",
    "result": []
  },
  {
    "postal": "L2A5X9",
    "result": [
      {
        "electoralDistricts": [
          {
            "election": null,
            "id": 69,
            "name": "Niagara Falls"
          }
        ],
        "pollDivisionIds": [
          10143905
        ],
        "postalCode": "L2A5X9",
        "streetName": "ORCHARD",
        "streetDirectionId": null,
        "streetTypeId": "AVE",
        "placeName": "FORT ERIE",
        "streetNameDisplayText": "ORCHARD AVE, FORT ERIE"
      }
    ]
  },
  {
    "postal": "L2A2R3",
    "result": []
  },
  {
    "postal": "L2A5N2",
    "result": [
      {
        "electoralDistricts": [
          {
            "election": null,
            "id": 69,
            "name": "Niagara Falls"
          }
        ],
        "pollDivisionIds": [
          10140012
        ],
        "postalCode": "L2A5N2",
        "streetName": "COMMERCE",
        "streetDirectionId": null,
        "streetTypeId": "PKY",
        "placeName": "FORT ERIE",
        "streetNameDisplayText": "COMMERCE PKY, FORT ERIE"
      }
    ]
  },
  {
    "postal": "L2A4Y7",
    "result": [
      {
        "electoralDistricts": [
          {
            "election": null,
            "id": 69,
            "name": "Niagara Falls"
          }
        ],
        "pollDivisionIds": [
          10143905
        ],
        "postalCode": "L2A4Y7",
        "streetName": "DAYTONA",
        "streetDirectionId": null,
        "streetTypeId": "DR",
        "placeName": "FORT ERIE",
        "streetNameDisplayText": "DAYTONA DR, FORT ERIE"
      }
    ]
  },
  {
    "postal": "L2A7M0",
    "result": []
  },
  {
    "postal": "L2A8P3",
    "result": []
  },
  {
    "postal": "L2A3N3",
    "result": []
  },
  {
    "postal": "L2A7S3",
    "result": []
  },
  {
    "postal": "L2A3V9",
    "result": [
      {
        "electoralDistricts": [
          {
            "election": null,
            "id": 69,
            "name": "Niagara Falls"
          }
        ],
        "pollDivisionIds": [
          10140012
        ],
        "postalCode": "L2A3V9",
        "streetName": "CENTRAL",
        "streetDirectionId": null,
        "streetTypeId": "AVE",
        "placeName": "FORT ERIE",
        "streetNameDisplayText": "CENTRAL AVE, FORT ERIE"
      }
    ]
  },
  {
    "postal": "L2A9N7",
    "result": []
  },
  {
    "postal": "L2A0G4",
    "result": []
  },
  {
    "postal": "L2A2E2",
    "result": [
      {
        "electoralDistricts": [
          {
            "election": null,
            "id": 69,
            "name": "Niagara Falls"
          }
        ],
        "pollDivisionIds": [
          10140017
        ],
        "postalCode": "L2A2E2",
        "streetName": "LAVINIA",
        "streetDirectionId": null,
        "streetTypeId": "ST",
        "placeName": "FORT ERIE",
        "streetNameDisplayText": "LAVINIA ST, FORT ERIE"
      }
    ]
  },
  {
    "postal": "L2A7W8",
    "result": []
  },
  {
    "postal": "L2A7M5",
    "result": []
  },
  {
    "postal": "L2A5W8",
    "result": [
      {
        "electoralDistricts": [
          {
            "election": null,
            "id": 69,
            "name": "Niagara Falls"
          }
        ],
        "pollDivisionIds": [
          10140016,
          10140012
        ],
        "postalCode": "L2A5W8",
        "streetName": "HIGH",
        "streetDirectionId": null,
        "streetTypeId": "ST",
        "placeName": "FORT ERIE",
        "streetNameDisplayText": "HIGH ST, FORT ERIE"
      }
    ]
  },
  {
    "postal": "L2A5E5",
    "result": [
      {
        "electoralDistricts": [
          {
            "election": null,
            "id": 69,
            "name": "Niagara Falls"
          }
        ],
        "pollDivisionIds": [
          10143905
        ],
        "postalCode": "L2A5E5",
        "streetName": "SCOTT",
        "streetDirectionId": null,
        "streetTypeId": "AVE",
        "placeName": "FORT ERIE",
        "streetNameDisplayText": "SCOTT AVE, FORT ERIE"
      }
    ]
  },
  {
    "postal": "L2A1P9",
    "result": [
      {
        "electoralDistricts": [
          {
            "election": null,
            "id": 69,
            "name": "Niagara Falls"
          }
        ],
        "pollDivisionIds": [
          10140014
        ],
        "postalCode": "L2A1P9",
        "streetName": "QUEENSBURY",
        "streetDirectionId": null,
        "streetTypeId": "RD",
        "placeName": "FORT ERIE",
        "streetNameDisplayText": "QUEENSBURY RD, FORT ERIE"
      }
    ]
  },
  {
    "postal": "L2A8V8",
    "result": []
  },
  {
    "postal": "L2A9G8",
    "result": []
  },
  {
    "postal": "L2A8H9",
    "result": []
  },
  {
    "postal": "L2A1Z1",
    "result": [
      {
        "electoralDistricts": [
          {
            "election": null,
            "id": 69,
            "name": "Niagara Falls"
          }
        ],
        "pollDivisionIds": [
          10140014
        ],
        "postalCode": "L2A1Z1",
        "streetName": "BERTIE",
        "streetDirectionId": null,
        "streetTypeId": "ST",
        "placeName": "FORT ERIE",
        "streetNameDisplayText": "BERTIE ST, FORT ERIE"
      }
    ]
  },
  {
    "postal": "L2A8M3",
    "result": []
  },
  {
    "postal": "L2A5H6",
    "result": [
      {
        "electoralDistricts": [
          {
            "election": null,
            "id": 69,
            "name": "Niagara Falls"
          }
        ],
        "pollDivisionIds": [
          10140021
        ],
        "postalCode": "L2A5H6",
        "streetName": "RADFORD",
        "streetDirectionId": null,
        "streetTypeId": "AVE",
        "placeName": "FORT ERIE",
        "streetNameDisplayText": "RADFORD AVE, FORT ERIE"
      }
    ]
  },
  {
    "postal": "L2A7W7",
    "result": []
  },
  {
    "postal": "L2A4L0",
    "result": []
  },
  {
    "postal": "L2A2N1",
    "result": [
      {
        "electoralDistricts": [
          {
            "election": null,
            "id": 69,
            "name": "Niagara Falls"
          }
        ],
        "pollDivisionIds": [
          10140012
        ],
        "postalCode": "L2A2N1",
        "streetName": "GILMORE",
        "streetDirectionId": null,
        "streetTypeId": "RD",
        "placeName": "FORT ERIE",
        "streetNameDisplayText": "GILMORE RD, FORT ERIE"
      }
    ]
  },
  {
    "postal": "L2A2H4",
    "result": [
      {
        "electoralDistricts": [
          {
            "election": null,
            "id": 69,
            "name": "Niagara Falls"
          }
        ],
        "pollDivisionIds": [
          10140016
        ],
        "postalCode": "L2A2H4",
        "streetName": "CATHERINE",
        "streetDirectionId": null,
        "streetTypeId": "ST",
        "placeName": "FORT ERIE",
        "streetNameDisplayText": "CATHERINE ST, FORT ERIE"
      }
    ]
  },
  {
    "postal": "L2A5C8",
    "result": [
      {
        "electoralDistricts": [
          {
            "election": null,
            "id": 69,
            "name": "Niagara Falls"
          }
        ],
        "pollDivisionIds": [
          10143905
        ],
        "postalCode": "L2A5C8",
        "streetName": "FERNDALE",
        "streetDirectionId": null,
        "streetTypeId": "AVE",
        "placeName": "FORT ERIE",
        "streetNameDisplayText": "FERNDALE AVE, FORT ERIE"
      }
    ]
  },
  {
    "postal": "L2A8B0",
    "result": []
  },
  {
    "postal": "L2A1T4",
    "result": []
  },
  {
    "postal": "L2A7N7",
    "result": []
  },
  {
    "postal": "L2A4L3",
    "result": [
      {
        "electoralDistricts": [
          {
            "election": null,
            "id": 69,
            "name": "Niagara Falls"
          }
        ],
        "pollDivisionIds": [
          10140021
        ],
        "postalCode": "L2A4L3",
        "streetName": "LEASK",
        "streetDirectionId": null,
        "streetTypeId": "AVE",
        "placeName": "FORT ERIE",
        "streetNameDisplayText": "LEASK AVE, FORT ERIE"
      }
    ]
  },
  {
    "postal": "L2A2N2",
    "result": [
      {
        "electoralDistricts": [
          {
            "election": null,
            "id": 69,
            "name": "Niagara Falls"
          }
        ],
        "pollDivisionIds": [
          10140012
        ],
        "postalCode": "L2A2N2",
        "streetName": "WOOD",
        "streetDirectionId": null,
        "streetTypeId": "ST",
        "placeName": "FORT ERIE",
        "streetNameDisplayText": "WOOD ST, FORT ERIE"
      }
    ]
  },
  {
    "postal": "L2A4N8",
    "result": [
      {
        "electoralDistricts": [
          {
            "election": null,
            "id": 69,
            "name": "Niagara Falls"
          }
        ],
        "pollDivisionIds": [
          10140014
        ],
        "postalCode": "L2A4N8",
        "streetName": "BENNER",
        "streetDirectionId": null,
        "streetTypeId": "AVE",
        "placeName": "FORT ERIE",
        "streetNameDisplayText": "BENNER AVE, FORT ERIE"
      }
    ]
  },
  {
    "postal": "L2A3M5",
    "result": [
      {
        "electoralDistricts": [
          {
            "election": null,
            "id": 69,
            "name": "Niagara Falls"
          }
        ],
        "pollDivisionIds": [
          10140014
        ],
        "postalCode": "L2A3M5",
        "streetName": "GODERICH",
        "streetDirectionId": null,
        "streetTypeId": "ST",
        "placeName": "FORT ERIE",
        "streetNameDisplayText": "GODERICH ST, FORT ERIE"
      }
    ]
  },
  {
    "postal": "L2A6H7",
    "result": []
  },
  {
    "postal": "L2A8Y8",
    "result": []
  },
  {
    "postal": "L2A5R9",
    "result": [
      {
        "electoralDistricts": [
          {
            "election": null,
            "id": 69,
            "name": "Niagara Falls"
          }
        ],
        "pollDivisionIds": [
          10140014
        ],
        "postalCode": "L2A5R9",
        "streetName": "BERTIE",
        "streetDirectionId": null,
        "streetTypeId": "ST",
        "placeName": "FORT ERIE",
        "streetNameDisplayText": "BERTIE ST, FORT ERIE"
      }
    ]
  },
  {
    "postal": "L2A8G3",
    "result": []
  },
  {
    "postal": "L2A4N7",
    "result": [
      {
        "electoralDistricts": [
          {
            "election": null,
            "id": 69,
            "name": "Niagara Falls"
          }
        ],
        "pollDivisionIds": [
          10140014
        ],
        "postalCode": "L2A4N7",
        "streetName": "BENNER",
        "streetDirectionId": null,
        "streetTypeId": "AVE",
        "placeName": "FORT ERIE",
        "streetNameDisplayText": "BENNER AVE, FORT ERIE"
      }
    ]
  },
  {
    "postal": "L2A0B9",
    "result": [
      {
        "electoralDistricts": [
          {
            "election": null,
            "id": 69,
            "name": "Niagara Falls"
          }
        ],
        "pollDivisionIds": [
          10140014
        ],
        "postalCode": "L2A0B9",
        "streetName": "KERBY",
        "streetDirectionId": null,
        "streetTypeId": "ST",
        "placeName": "FORT ERIE",
        "streetNameDisplayText": "KERBY ST, FORT ERIE"
      },
      {
        "electoralDistricts": [
          {
            "election": null,
            "id": 69,
            "name": "Niagara Falls"
          }
        ],
        "pollDivisionIds": [
          10143905
        ],
        "postalCode": "L2A0B9",
        "streetName": "KERBY ST.",
        "streetDirectionId": null,
        "streetTypeId": "ST",
        "placeName": "FORT ERIE",
        "streetNameDisplayText": "KERBY ST. ST, FORT ERIE"
      },
      {
        "electoralDistricts": [
          {
            "election": null,
            "id": 69,
            "name": "Niagara Falls"
          }
        ],
        "pollDivisionIds": [
          10140014
        ],
        "postalCode": "L2A0B9",
        "streetName": "MEADOWOOD",
        "streetDirectionId": null,
        "streetTypeId": "ST",
        "placeName": "FORT ERIE",
        "streetNameDisplayText": "MEADOWOOD ST, FORT ERIE"
      }
    ]
  },
  {
    "postal": "L2A9K7",
    "result": []
  },
  {
    "postal": "L2A9K9",
    "result": []
  },
  {
    "postal": "L2A3Z2",
    "result": []
  },
  {
    "postal": "L2A6W7",
    "result": []
  },
  {
    "postal": "L2A0P1",
    "result": []
  },
  {
    "postal": "L2A3A0",
    "result": []
  },
  {
    "postal": "L2A8L9",
    "result": []
  },
  {
    "postal": "L2A6X0",
    "result": []
  },
  {
    "postal": "L2A3E9",
    "result": [
      {
        "electoralDistricts": [
          {
            "election": null,
            "id": 69,
            "name": "Niagara Falls"
          }
        ],
        "pollDivisionIds": [
          10140014
        ],
        "postalCode": "L2A3E9",
        "streetName": "FLORENCE",
        "streetDirectionId": null,
        "streetTypeId": "DR",
        "placeName": "FORT ERIE",
        "streetNameDisplayText": "FLORENCE DR, FORT ERIE"
      }
    ]
  },
  {
    "postal": "L2A0S5",
    "result": []
  },
  {
    "postal": "L2A1A2",
    "result": [
      {
        "electoralDistricts": [
          {
            "election": null,
            "id": 69,
            "name": "Niagara Falls"
          }
        ],
        "pollDivisionIds": [
          10140021
        ],
        "postalCode": "L2A1A2",
        "streetName": "EDGEMERE",
        "streetDirectionId": null,
        "streetTypeId": "RD",
        "placeName": "FORT ERIE",
        "streetNameDisplayText": "EDGEMERE RD, FORT ERIE"
      }
    ]
  },
  {
    "postal": "L2A5V8",
    "result": [
      {
        "electoralDistricts": [
          {
            "election": null,
            "id": 69,
            "name": "Niagara Falls"
          }
        ],
        "pollDivisionIds": [
          10140014
        ],
        "postalCode": "L2A5V8",
        "streetName": "ROSS",
        "streetDirectionId": null,
        "streetTypeId": "AVE",
        "placeName": "FORT ERIE",
        "streetNameDisplayText": "ROSS AVE, FORT ERIE"
      }
    ]
  },
  {
    "postal": "L2A8C5",
    "result": []
  },
  {
    "postal": "L2A6N0",
    "result": []
  },
  {
    "postal": "L2A9E6",
    "result": []
  },
  {
    "postal": "L2A5J7",
    "result": [
      {
        "electoralDistricts": [
          {
            "election": null,
            "id": 69,
            "name": "Niagara Falls"
          }
        ],
        "pollDivisionIds": [
          10140021
        ],
        "postalCode": "L2A5J7",
        "streetName": "JOSEPH",
        "streetDirectionId": null,
        "streetTypeId": "ST",
        "placeName": "FORT ERIE",
        "streetNameDisplayText": "JOSEPH ST, FORT ERIE"
      }
    ]
  },
  {
    "postal": "L2A2R2",
    "result": [
      {
        "electoralDistricts": [
          {
            "election": null,
            "id": 69,
            "name": "Niagara Falls"
          }
        ],
        "pollDivisionIds": [
          10140012
        ],
        "postalCode": "L2A2R2",
        "streetName": "LEWIS",
        "streetDirectionId": null,
        "streetTypeId": "ST",
        "placeName": "FORT ERIE",
        "streetNameDisplayText": "LEWIS ST, FORT ERIE"
      }
    ]
  },
  {
    "postal": "L2A0P5",
    "result": []
  },
  {
    "postal": "L2A5A7",
    "result": [
      {
        "electoralDistricts": [
          {
            "election": null,
            "id": 69,
            "name": "Niagara Falls"
          }
        ],
        "pollDivisionIds": [
          10143905
        ],
        "postalCode": "L2A5A7",
        "streetName": "PARKDALE",
        "streetDirectionId": null,
        "streetTypeId": "AVE",
        "placeName": "FORT ERIE",
        "streetNameDisplayText": "PARKDALE AVE, FORT ERIE"
      }
    ]
  },
  {
    "postal": "L2A1G1",
    "result": [
      {
        "electoralDistricts": [
          {
            "election": null,
            "id": 69,
            "name": "Niagara Falls"
          }
        ],
        "pollDivisionIds": [
          10140021
        ],
        "postalCode": "L2A1G1",
        "streetName": "DOMINION",
        "streetDirectionId": null,
        "streetTypeId": "RD",
        "placeName": "FORT ERIE",
        "streetNameDisplayText": "DOMINION RD, FORT ERIE"
      }
    ]
  },
  {
    "postal": "L2A9R6",
    "result": []
  },
  {
    "postal": "L2A4Z9",
    "result": [
      {
        "electoralDistricts": [
          {
            "election": null,
            "id": 69,
            "name": "Niagara Falls"
          }
        ],
        "pollDivisionIds": [
          10143905
        ],
        "postalCode": "L2A4Z9",
        "streetName": "DAYTONA",
        "streetDirectionId": null,
        "streetTypeId": "DR",
        "placeName": "FORT ERIE",
        "streetNameDisplayText": "DAYTONA DR, FORT ERIE"
      }
    ]
  },
  {
    "postal": "L2A1V5",
    "result": []
  },
  {
    "postal": "L2A9Y5",
    "result": []
  },
  {
    "postal": "L2A1P2",
    "result": [
      {
        "electoralDistricts": [
          {
            "election": null,
            "id": 69,
            "name": "Niagara Falls"
          }
        ],
        "pollDivisionIds": [
          10143905
        ],
        "postalCode": "L2A1P2",
        "streetName": "GARRISON",
        "streetDirectionId": null,
        "streetTypeId": "RD",
        "placeName": "FORT ERIE",
        "streetNameDisplayText": "GARRISON RD, FORT ERIE"
      }
    ]
  },
  {
    "postal": "L2A5X0",
    "result": []
  },
  {
    "postal": "L2A7B8",
    "result": []
  },
  {
    "postal": "L2A0C6",
    "result": []
  },
  {
    "postal": "L2A6G1",
    "result": [
      {
        "electoralDistricts": [
          {
            "election": null,
            "id": 69,
            "name": "Niagara Falls"
          }
        ],
        "pollDivisionIds": [
          10140014
        ],
        "postalCode": "L2A6G1",
        "streetName": "HOSPITALITY",
        "streetDirectionId": null,
        "streetTypeId": "DR",
        "placeName": "FORT ERIE",
        "streetNameDisplayText": "HOSPITALITY DR, FORT ERIE"
      }
    ]
  },
  {
    "postal": "L2A3K3",
    "result": [
      {
        "electoralDistricts": [
          {
            "election": null,
            "id": 69,
            "name": "Niagara Falls"
          }
        ],
        "pollDivisionIds": [
          10140017
        ],
        "postalCode": "L2A3K3",
        "streetName": "WATERLOO",
        "streetDirectionId": null,
        "streetTypeId": "ST",
        "placeName": "FORT ERIE",
        "streetNameDisplayText": "WATERLOO ST, FORT ERIE"
      }
    ]
  },
  {
    "postal": "L2A9R0",
    "result": []
  },
  {
    "postal": "L2A4R8",
    "result": [
      {
        "electoralDistricts": [
          {
            "election": null,
            "id": 69,
            "name": "Niagara Falls"
          }
        ],
        "pollDivisionIds": [
          10143905
        ],
        "postalCode": "L2A4R8",
        "streetName": "FAIRVIEW",
        "streetDirectionId": null,
        "streetTypeId": "RD",
        "placeName": "FORT ERIE",
        "streetNameDisplayText": "FAIRVIEW RD, FORT ERIE"
      }
    ]
  },
  {
    "postal": "L2A5P9",
    "result": [
      {
        "electoralDistricts": [
          {
            "election": null,
            "id": 69,
            "name": "Niagara Falls"
          }
        ],
        "pollDivisionIds": [
          10143905
        ],
        "postalCode": "L2A5P9",
        "streetName": "POUND",
        "streetDirectionId": null,
        "streetTypeId": "AVE",
        "placeName": "FORT ERIE",
        "streetNameDisplayText": "POUND AVE, FORT ERIE"
      }
    ]
  },
  {
    "postal": "L2A8N4",
    "result": []
  },
  {
    "postal": "L2A8H4",
    "result": []
  },
  {
    "postal": "L2A4V1",
    "result": [
      {
        "electoralDistricts": [
          {
            "election": null,
            "id": 69,
            "name": "Niagara Falls"
          }
        ],
        "pollDivisionIds": [
          10143905
        ],
        "postalCode": "L2A4V1",
        "streetName": "GRANDVIEW",
        "streetDirectionId": null,
        "streetTypeId": "RD",
        "placeName": "FORT ERIE",
        "streetNameDisplayText": "GRANDVIEW RD, FORT ERIE"
      }
    ]
  },
  {
    "postal": "L2A1K5",
    "result": [
      {
        "electoralDistricts": [
          {
            "election": null,
            "id": 69,
            "name": "Niagara Falls"
          }
        ],
        "pollDivisionIds": [
          10140021
        ],
        "postalCode": "L2A1K5",
        "streetName": "QUEENSTON",
        "streetDirectionId": null,
        "streetTypeId": "BLVD",
        "placeName": "FORT ERIE",
        "streetNameDisplayText": "QUEENSTON BLVD, FORT ERIE"
      }
    ]
  },
  {
    "postal": "L2A1Z5",
    "result": [
      {
        "electoralDistricts": [
          {
            "election": null,
            "id": 69,
            "name": "Niagara Falls"
          }
        ],
        "pollDivisionIds": [
          10140015
        ],
        "postalCode": "L2A1Z5",
        "streetName": "BERTIE",
        "streetDirectionId": null,
        "streetTypeId": "ST",
        "placeName": "FORT ERIE",
        "streetNameDisplayText": "BERTIE ST, FORT ERIE"
      }
    ]
  },
  {
    "postal": "L2A9L9",
    "result": []
  },
  {
    "postal": "L2A5L2",
    "result": [
      {
        "electoralDistricts": [
          {
            "election": null,
            "id": 69,
            "name": "Niagara Falls"
          }
        ],
        "pollDivisionIds": [
          10140021
        ],
        "postalCode": "L2A5L2",
        "streetName": "ALBERT",
        "streetDirectionId": null,
        "streetTypeId": "ST",
        "placeName": "FORT ERIE",
        "streetNameDisplayText": "ALBERT ST, FORT ERIE"
      }
    ]
  },
  {
    "postal": "L2A0M2",
    "result": []
  },
  {
    "postal": "L2A1K8",
    "result": [
      {
        "electoralDistricts": [
          {
            "election": null,
            "id": 69,
            "name": "Niagara Falls"
          }
        ],
        "pollDivisionIds": [
          10140021
        ],
        "postalCode": "L2A1K8",
        "streetName": "QUEENSTON",
        "streetDirectionId": null,
        "streetTypeId": "BLVD",
        "placeName": "FORT ERIE",
        "streetNameDisplayText": "QUEENSTON BLVD, FORT ERIE"
      }
    ]
  },
  {
    "postal": "L2A3M7",
    "result": []
  },
  {
    "postal": "L2A1B2",
    "result": [
      {
        "electoralDistricts": [
          {
            "election": null,
            "id": 69,
            "name": "Niagara Falls"
          }
        ],
        "pollDivisionIds": [
          10140021
        ],
        "postalCode": "L2A1B2",
        "streetName": "LAKESHORE",
        "streetDirectionId": null,
        "streetTypeId": "RD",
        "placeName": "FORT ERIE",
        "streetNameDisplayText": "LAKESHORE RD, FORT ERIE"
      }
    ]
  },
  {
    "postal": "L2A0H9",
    "result": []
  },
  {
    "postal": "L2A8M4",
    "result": []
  },
  {
    "postal": "L2A2M5",
    "result": [
      {
        "electoralDistricts": [
          {
            "election": null,
            "id": 69,
            "name": "Niagara Falls"
          }
        ],
        "pollDivisionIds": [
          10140012
        ],
        "postalCode": "L2A2M5",
        "streetName": "GILMORE",
        "streetDirectionId": null,
        "streetTypeId": "RD",
        "placeName": "FORT ERIE",
        "streetNameDisplayText": "GILMORE RD, FORT ERIE"
      }
    ]
  },
  {
    "postal": "L2A0T9",
    "result": []
  },
  {
    "postal": "L2A3P1",
    "result": [
      {
        "electoralDistricts": [
          {
            "election": null,
            "id": 69,
            "name": "Niagara Falls"
          }
        ],
        "pollDivisionIds": [
          10140012
        ],
        "postalCode": "L2A3P1",
        "streetName": "TAIT",
        "streetDirectionId": null,
        "streetTypeId": "AVE",
        "placeName": "FORT ERIE",
        "streetNameDisplayText": "TAIT AVE, FORT ERIE"
      }
    ]
  },
  {
    "postal": "L2A1R6",
    "result": [
      {
        "electoralDistricts": [
          {
            "election": null,
            "id": 69,
            "name": "Niagara Falls"
          }
        ],
        "pollDivisionIds": [
          10140014
        ],
        "postalCode": "L2A1R6",
        "streetName": "WALDEN",
        "streetDirectionId": null,
        "streetTypeId": "BLVD",
        "placeName": "FORT ERIE",
        "streetNameDisplayText": "WALDEN BLVD, FORT ERIE"
      }
    ]
  },
  {
    "postal": "L2A9V5",
    "result": []
  },
  {
    "postal": "L2A9T0",
    "result": []
  },
  {
    "postal": "L2A0A9",
    "result": [
      {
        "electoralDistricts": [
          {
            "election": null,
            "id": 69,
            "name": "Niagara Falls"
          }
        ],
        "pollDivisionIds": [
          10143905
        ],
        "postalCode": "L2A0A9",
        "streetName": "PARKSIDE",
        "streetDirectionId": null,
        "streetTypeId": "AVE",
        "placeName": "FORT ERIE",
        "streetNameDisplayText": "PARKSIDE AVE, FORT ERIE"
      }
    ]
  },
  {
    "postal": "L2A1M3",
    "result": [
      {
        "electoralDistricts": [
          {
            "election": null,
            "id": 69,
            "name": "Niagara Falls"
          }
        ],
        "pollDivisionIds": [
          10140021,
          10140014
        ],
        "postalCode": "L2A1M3",
        "streetName": "GARRISON",
        "streetDirectionId": null,
        "streetTypeId": "RD",
        "placeName": "FORT ERIE",
        "streetNameDisplayText": "GARRISON RD, FORT ERIE"
      }
    ]
  },
  {
    "postal": "L2A1W8",
    "result": [
      {
        "electoralDistricts": [
          {
            "election": null,
            "id": 69,
            "name": "Niagara Falls"
          }
        ],
        "pollDivisionIds": [
          10140017
        ],
        "postalCode": "L2A1W8",
        "streetName": "FORSYTHE",
        "streetDirectionId": null,
        "streetTypeId": "ST",
        "placeName": "FORT ERIE",
        "streetNameDisplayText": "FORSYTHE ST, FORT ERIE"
      }
    ]
  },
  {
    "postal": "L2A9J1",
    "result": []
  },
  {
    "postal": "L2A8N5",
    "result": []
  },
  {
    "postal": "L2A5X1",
    "result": [
      {
        "electoralDistricts": [
          {
            "election": null,
            "id": 69,
            "name": "Niagara Falls"
          }
        ],
        "pollDivisionIds": [
          10140014
        ],
        "postalCode": "L2A5X1",
        "streetName": "HOSPITAL",
        "streetDirectionId": null,
        "streetTypeId": "DR",
        "placeName": "FORT ERIE",
        "streetNameDisplayText": "HOSPITAL DR, FORT ERIE"
      }
    ]
  },
  {
    "postal": "L2A6S2",
    "result": []
  },
  {
    "postal": "L2A2A2",
    "result": [
      {
        "electoralDistricts": [
          {
            "election": null,
            "id": 69,
            "name": "Niagara Falls"
          }
        ],
        "pollDivisionIds": [
          10140017
        ],
        "postalCode": "L2A2A2",
        "streetName": "MURRAY",
        "streetDirectionId": null,
        "streetTypeId": "ST",
        "placeName": "FORT ERIE",
        "streetNameDisplayText": "MURRAY ST, FORT ERIE"
      }
    ]
  },
  {
    "postal": "L2A6A6",
    "result": [
      {
        "electoralDistricts": [
          {
            "election": null,
            "id": 69,
            "name": "Niagara Falls"
          }
        ],
        "pollDivisionIds": [
          10140014
        ],
        "postalCode": "L2A6A6",
        "streetName": "ARDMORE",
        "streetDirectionId": null,
        "streetTypeId": "PL",
        "placeName": "FORT ERIE",
        "streetNameDisplayText": "ARDMORE PL, FORT ERIE"
      }
    ]
  },
  {
    "postal": "L2A0S3",
    "result": []
  },
  {
    "postal": "L2A3E7",
    "result": [
      {
        "electoralDistricts": [
          {
            "election": null,
            "id": 69,
            "name": "Niagara Falls"
          }
        ],
        "pollDivisionIds": [
          10143905
        ],
        "postalCode": "L2A3E7",
        "streetName": "ORCHARD",
        "streetDirectionId": null,
        "streetTypeId": "AVE",
        "placeName": "FORT ERIE",
        "streetNameDisplayText": "ORCHARD AVE, FORT ERIE"
      }
    ]
  },
  {
    "postal": "L2A5R7",
    "result": [
      {
        "electoralDistricts": [
          {
            "election": null,
            "id": 69,
            "name": "Niagara Falls"
          }
        ],
        "pollDivisionIds": [
          10140014
        ],
        "postalCode": "L2A5R7",
        "streetName": "ARDMORE",
        "streetDirectionId": null,
        "streetTypeId": "PL",
        "placeName": "FORT ERIE",
        "streetNameDisplayText": "ARDMORE PL, FORT ERIE"
      }
    ]
  },
  {
    "postal": "L2A3R6",
    "result": [
      {
        "electoralDistricts": [
          {
            "election": null,
            "id": 69,
            "name": "Niagara Falls"
          }
        ],
        "pollDivisionIds": [
          10140017
        ],
        "postalCode": "L2A3R6",
        "streetName": "NORTH",
        "streetDirectionId": null,
        "streetTypeId": "ST",
        "placeName": "FORT ERIE",
        "streetNameDisplayText": "NORTH ST, FORT ERIE"
      }
    ]
  },
  {
    "postal": "L2A6K4",
    "result": []
  },
  {
    "postal": "L2A2W5",
    "result": [
      {
        "electoralDistricts": [
          {
            "election": null,
            "id": 69,
            "name": "Niagara Falls"
          }
        ],
        "pollDivisionIds": [
          10140012
        ],
        "postalCode": "L2A2W5",
        "streetName": "EMERICK",
        "streetDirectionId": null,
        "streetTypeId": "AVE",
        "placeName": "FORT ERIE",
        "streetNameDisplayText": "EMERICK AVE, FORT ERIE"
      }
    ]
  },
  {
    "postal": "L2A8W4",
    "result": []
  },
  {
    "postal": "L2A9C2",
    "result": []
  },
  {
    "postal": "L2A2C0",
    "result": []
  },
  {
    "postal": "L2A0E1",
    "result": []
  },
  {
    "postal": "L2A1K9",
    "result": [
      {
        "electoralDistricts": [
          {
            "election": null,
            "id": 69,
            "name": "Niagara Falls"
          }
        ],
        "pollDivisionIds": [
          10140021
        ],
        "postalCode": "L2A1K9",
        "streetName": "QUEENSTON",
        "streetDirectionId": null,
        "streetTypeId": "BLVD",
        "placeName": "FORT ERIE",
        "streetNameDisplayText": "QUEENSTON BLVD, FORT ERIE"
      }
    ]
  },
  {
    "postal": "L2A1G7",
    "result": [
      {
        "electoralDistricts": [
          {
            "election": null,
            "id": 69,
            "name": "Niagara Falls"
          }
        ],
        "pollDivisionIds": [
          10140021
        ],
        "postalCode": "L2A1G7",
        "streetName": "DOMINION",
        "streetDirectionId": null,
        "streetTypeId": "RD",
        "placeName": "FORT ERIE",
        "streetNameDisplayText": "DOMINION RD, FORT ERIE"
      }
    ]
  },
  {
    "postal": "L2A4E9",
    "result": [
      {
        "electoralDistricts": [
          {
            "election": null,
            "id": 69,
            "name": "Niagara Falls"
          }
        ],
        "pollDivisionIds": [
          10140012
        ],
        "postalCode": "L2A4E9",
        "streetName": "JESSIE",
        "streetDirectionId": null,
        "streetTypeId": "ST",
        "placeName": "FORT ERIE",
        "streetNameDisplayText": "JESSIE ST, FORT ERIE"
      }
    ]
  },
  {
    "postal": "L2A9P0",
    "result": []
  },
  {
    "postal": "L2A5H3",
    "result": [
      {
        "electoralDistricts": [
          {
            "election": null,
            "id": 69,
            "name": "Niagara Falls"
          }
        ],
        "pollDivisionIds": [
          10143905
        ],
        "postalCode": "L2A5H3",
        "streetName": "BUFFALO",
        "streetDirectionId": null,
        "streetTypeId": "RD",
        "placeName": "FORT ERIE",
        "streetNameDisplayText": "BUFFALO RD, FORT ERIE"
      }
    ]
  },
  {
    "postal": "L2A9X6",
    "result": []
  },
  {
    "postal": "L2A5N7",
    "result": []
  },
  {
    "postal": "L2A5A6",
    "result": [
      {
        "electoralDistricts": [
          {
            "election": null,
            "id": 69,
            "name": "Niagara Falls"
          }
        ],
        "pollDivisionIds": [
          10143905
        ],
        "postalCode": "L2A5A6",
        "streetName": "PARKDALE",
        "streetDirectionId": null,
        "streetTypeId": "AVE",
        "placeName": "FORT ERIE",
        "streetNameDisplayText": "PARKDALE AVE, FORT ERIE"
      }
    ]
  },
  {
    "postal": "L2A4M0",
    "result": []
  },
  {
    "postal": "L2A3V6",
    "result": [
      {
        "electoralDistricts": [
          {
            "election": null,
            "id": 69,
            "name": "Niagara Falls"
          }
        ],
        "pollDivisionIds": [
          10140012
        ],
        "postalCode": "L2A3V6",
        "streetName": "CENTRAL",
        "streetDirectionId": null,
        "streetTypeId": "AVE",
        "placeName": "FORT ERIE",
        "streetNameDisplayText": "CENTRAL AVE, FORT ERIE"
      }
    ]
  },
  {
    "postal": "L2A1L7",
    "result": [
      {
        "electoralDistricts": [
          {
            "election": null,
            "id": 69,
            "name": "Niagara Falls"
          }
        ],
        "pollDivisionIds": [
          10140021
        ],
        "postalCode": "L2A1L7",
        "streetName": "ALBANY",
        "streetDirectionId": null,
        "streetTypeId": "ST",
        "placeName": "FORT ERIE",
        "streetNameDisplayText": "ALBANY ST, FORT ERIE"
      }
    ]
  },
  {
    "postal": "L2A2P9",
    "result": [
      {
        "electoralDistricts": [
          {
            "election": null,
            "id": 69,
            "name": "Niagara Falls"
          }
        ],
        "pollDivisionIds": [
          10140012
        ],
        "postalCode": "L2A2P9",
        "streetName": "LEWIS",
        "streetDirectionId": null,
        "streetTypeId": "ST",
        "placeName": "FORT ERIE",
        "streetNameDisplayText": "LEWIS ST, FORT ERIE"
      }
    ]
  },
  {
    "postal": "L2A5T4",
    "result": [
      {
        "electoralDistricts": [
          {
            "election": null,
            "id": 69,
            "name": "Niagara Falls"
          }
        ],
        "pollDivisionIds": [
          10140021
        ],
        "postalCode": "L2A5T4",
        "streetName": "ALBERT",
        "streetDirectionId": null,
        "streetTypeId": "ST",
        "placeName": "FORT ERIE",
        "streetNameDisplayText": "ALBERT ST, FORT ERIE"
      }
    ]
  },
  {
    "postal": "L2A5Z1",
    "result": [
      {
        "electoralDistricts": [
          {
            "election": null,
            "id": 69,
            "name": "Niagara Falls"
          }
        ],
        "pollDivisionIds": [
          10143905
        ],
        "postalCode": "L2A5Z1",
        "streetName": "EVELYN",
        "streetDirectionId": null,
        "streetTypeId": "AVE",
        "placeName": "FORT ERIE",
        "streetNameDisplayText": "EVELYN AVE, FORT ERIE"
      }
    ]
  },
  {
    "postal": "L2A2X0",
    "result": []
  },
  {
    "postal": "L2A6Z2",
    "result": []
  },
  {
    "postal": "L2A0E0",
    "result": []
  },
  {
    "postal": "L2A3Z5",
    "result": []
  },
  {
    "postal": "L2A8H3",
    "result": []
  },
  {
    "postal": "L2A7S6",
    "result": []
  },
  {
    "postal": "L2A4C1",
    "result": [
      {
        "electoralDistricts": [
          {
            "election": null,
            "id": 69,
            "name": "Niagara Falls"
          }
        ],
        "pollDivisionIds": [
          10140012
        ],
        "postalCode": "L2A4C1",
        "streetName": "RUSSELL",
        "streetDirectionId": null,
        "streetTypeId": "ST",
        "placeName": "FORT ERIE",
        "streetNameDisplayText": "RUSSELL ST, FORT ERIE"
      }
    ]
  },
  {
    "postal": "L2A3K2",
    "result": [
      {
        "electoralDistricts": [
          {
            "election": null,
            "id": 69,
            "name": "Niagara Falls"
          }
        ],
        "pollDivisionIds": [
          10140017
        ],
        "postalCode": "L2A3K2",
        "streetName": "WATERLOO",
        "streetDirectionId": null,
        "streetTypeId": "ST",
        "placeName": "FORT ERIE",
        "streetNameDisplayText": "WATERLOO ST, FORT ERIE"
      }
    ]
  },
  {
    "postal": "L2A1Y5",
    "result": [
      {
        "electoralDistricts": [
          {
            "election": null,
            "id": 69,
            "name": "Niagara Falls"
          }
        ],
        "pollDivisionIds": [
          10140017
        ],
        "postalCode": "L2A1Y5",
        "streetName": "BERTIE",
        "streetDirectionId": null,
        "streetTypeId": "ST",
        "placeName": "FORT ERIE",
        "streetNameDisplayText": "BERTIE ST, FORT ERIE"
      }
    ]
  },
  {
    "postal": "L2A6P6",
    "result": []
  },
  {
    "postal": "L2A3N9",
    "result": [
      {
        "electoralDistricts": [
          {
            "election": null,
            "id": 69,
            "name": "Niagara Falls"
          }
        ],
        "pollDivisionIds": [
          10140012
        ],
        "postalCode": "L2A3N9",
        "streetName": "TAIT",
        "streetDirectionId": null,
        "streetTypeId": "AVE",
        "placeName": "FORT ERIE",
        "streetNameDisplayText": "TAIT AVE, FORT ERIE"
      }
    ]
  },
  {
    "postal": "L2A3W2",
    "result": []
  },
  {
    "postal": "L2A6H8",
    "result": []
  },
  {
    "postal": "L2A9T3",
    "result": []
  },
  {
    "postal": "L2A5L9",
    "result": [
      {
        "electoralDistricts": [
          {
            "election": null,
            "id": 69,
            "name": "Niagara Falls"
          }
        ],
        "pollDivisionIds": [
          10140021
        ],
        "postalCode": "L2A5L9",
        "streetName": "WINDSOR",
        "streetDirectionId": null,
        "streetTypeId": "AVE",
        "placeName": "FORT ERIE",
        "streetNameDisplayText": "WINDSOR AVE, FORT ERIE"
      }
    ]
  },
  {
    "postal": "L2A7X7",
    "result": []
  },
  {
    "postal": "L2A3J5",
    "result": [
      {
        "electoralDistricts": [
          {
            "election": null,
            "id": 69,
            "name": "Niagara Falls"
          }
        ],
        "pollDivisionIds": [
          10140016
        ],
        "postalCode": "L2A3J5",
        "streetName": "WATERLOO",
        "streetDirectionId": null,
        "streetTypeId": "ST",
        "placeName": "FORT ERIE",
        "streetNameDisplayText": "WATERLOO ST, FORT ERIE"
      }
    ]
  },
  {
    "postal": "L2A4J5",
    "result": []
  },
  {
    "postal": "L2A6J2",
    "result": []
  },
  {
    "postal": "L2A5V6",
    "result": []
  },
  {
    "postal": "L2A3N2",
    "result": [
      {
        "electoralDistricts": [
          {
            "election": null,
            "id": 69,
            "name": "Niagara Falls"
          }
        ],
        "pollDivisionIds": [
          10140016
        ],
        "postalCode": "L2A3N2",
        "streetName": "STANTON",
        "streetDirectionId": null,
        "streetTypeId": "ST",
        "placeName": "FORT ERIE",
        "streetNameDisplayText": "STANTON ST, FORT ERIE"
      }
    ]
  },
  {
    "postal": "L2A3B1",
    "result": [
      {
        "electoralDistricts": [
          {
            "election": null,
            "id": 69,
            "name": "Niagara Falls"
          }
        ],
        "pollDivisionIds": [
          10143905
        ],
        "postalCode": "L2A3B1",
        "streetName": "PARKSIDE",
        "streetDirectionId": null,
        "streetTypeId": "AVE",
        "placeName": "FORT ERIE",
        "streetNameDisplayText": "PARKSIDE AVE, FORT ERIE"
      }
    ]
  },
  {
    "postal": "L2A8B5",
    "result": []
  },
  {
    "postal": "L2A0K1",
    "result": []
  },
  {
    "postal": "L2A7M7",
    "result": []
  },
  {
    "postal": "L2A2M2",
    "result": [
      {
        "electoralDistricts": [
          {
            "election": null,
            "id": 69,
            "name": "Niagara Falls"
          }
        ],
        "pollDivisionIds": [
          10140014,
          10140015
        ],
        "postalCode": "L2A2M2",
        "streetName": "GILMORE",
        "streetDirectionId": null,
        "streetTypeId": "RD",
        "placeName": "FORT ERIE",
        "streetNameDisplayText": "GILMORE RD, FORT ERIE"
      }
    ]
  },
  {
    "postal": "L2A9N3",
    "result": []
  },
  {
    "postal": "L2A4Y8",
    "result": [
      {
        "electoralDistricts": [
          {
            "election": null,
            "id": 69,
            "name": "Niagara Falls"
          }
        ],
        "pollDivisionIds": [
          10143905
        ],
        "postalCode": "L2A4Y8",
        "streetName": "DAYTONA",
        "streetDirectionId": null,
        "streetTypeId": "DR",
        "placeName": "FORT ERIE",
        "streetNameDisplayText": "DAYTONA DR, FORT ERIE"
      }
    ]
  },
  {
    "postal": "L2A3V7",
    "result": [
      {
        "electoralDistricts": [
          {
            "election": null,
            "id": 69,
            "name": "Niagara Falls"
          }
        ],
        "pollDivisionIds": [
          10140012
        ],
        "postalCode": "L2A3V7",
        "streetName": "CENTRAL",
        "streetDirectionId": null,
        "streetTypeId": "AVE",
        "placeName": "FORT ERIE",
        "streetNameDisplayText": "CENTRAL AVE, FORT ERIE"
      }
    ]
  },
  {
    "postal": "L2A8Z1",
    "result": []
  },
  {
    "postal": "L2A7B3",
    "result": []
  },
  {
    "postal": "L2A3A8",
    "result": [
      {
        "electoralDistricts": [
          {
            "election": null,
            "id": 69,
            "name": "Niagara Falls"
          }
        ],
        "pollDivisionIds": [
          10143905
        ],
        "postalCode": "L2A3A8",
        "streetName": "ENGLEWOOD",
        "streetDirectionId": null,
        "streetTypeId": "AVE",
        "placeName": "FORT ERIE",
        "streetNameDisplayText": "ENGLEWOOD AVE, FORT ERIE"
      }
    ]
  },
  {
    "postal": "L2A7V5",
    "result": []
  },
  {
    "postal": "L2A2T2",
    "result": []
  },
  {
    "postal": "L2A6L3",
    "result": []
  },
  {
    "postal": "L2A0L2",
    "result": []
  },
  {
    "postal": "L2A5Y8",
    "result": []
  },
  {
    "postal": "L2A0B8",
    "result": []
  },
  {
    "postal": "L2A6R5",
    "result": [
      {
        "electoralDistricts": [
          {
            "election": null,
            "id": 69,
            "name": "Niagara Falls"
          }
        ],
        "pollDivisionIds": [
          10143905
        ],
        "postalCode": "L2A6R5",
        "streetName": "WOODSIDE",
        "streetDirectionId": null,
        "streetTypeId": "CRT",
        "placeName": "FORT ERIE",
        "streetNameDisplayText": "WOODSIDE CRT, FORT ERIE"
      }
    ]
  },
  {
    "postal": "L2A8W6",
    "result": []
  },
  {
    "postal": "L2A8G6",
    "result": []
  },
  {
    "postal": "L2A6X3",
    "result": []
  },
  {
    "postal": "L2A7R7",
    "result": []
  },
  {
    "postal": "L2A4B6",
    "result": [
      {
        "electoralDistricts": [
          {
            "election": null,
            "id": 69,
            "name": "Niagara Falls"
          }
        ],
        "pollDivisionIds": [
          10140014
        ],
        "postalCode": "L2A4B6",
        "streetName": "MATHER",
        "streetDirectionId": null,
        "streetTypeId": "BLVD",
        "placeName": "FORT ERIE",
        "streetNameDisplayText": "MATHER BLVD, FORT ERIE"
      }
    ]
  },
  {
    "postal": "L2A3P9",
    "result": [
      {
        "electoralDistricts": [
          {
            "election": null,
            "id": 69,
            "name": "Niagara Falls"
          }
        ],
        "pollDivisionIds": [
          10140017
        ],
        "postalCode": "L2A3P9",
        "streetName": "HIGH",
        "streetDirectionId": null,
        "streetTypeId": "ST",
        "placeName": "FORT ERIE",
        "streetNameDisplayText": "HIGH ST, FORT ERIE"
      }
    ]
  },
  {
    "postal": "L2A2T3",
    "result": []
  },
  {
    "postal": "L2A1M4",
    "result": [
      {
        "electoralDistricts": [
          {
            "election": null,
            "id": 69,
            "name": "Niagara Falls"
          }
        ],
        "pollDivisionIds": [
          10140021
        ],
        "postalCode": "L2A1M4",
        "streetName": "GARRISON",
        "streetDirectionId": null,
        "streetTypeId": "RD",
        "placeName": "FORT ERIE",
        "streetNameDisplayText": "GARRISON RD, FORT ERIE"
      }
    ]
  },
  {
    "postal": "L2A0H1",
    "result": []
  },
  {
    "postal": "L2A9W3",
    "result": []
  },
  {
    "postal": "L2A6P1",
    "result": []
  },
  {
    "postal": "L2A7G2",
    "result": []
  },
  {
    "postal": "L2A4J9",
    "result": [
      {
        "electoralDistricts": [
          {
            "election": null,
            "id": 69,
            "name": "Niagara Falls"
          }
        ],
        "pollDivisionIds": [
          10140021
        ],
        "postalCode": "L2A4J9",
        "streetName": "HELENA",
        "streetDirectionId": null,
        "streetTypeId": "ST",
        "placeName": "FORT ERIE",
        "streetNameDisplayText": "HELENA ST, FORT ERIE"
      }
    ]
  },
  {
    "postal": "L2A9E4",
    "result": []
  },
  {
    "postal": "L2A8H0",
    "result": []
  },
  {
    "postal": "L2A4M7",
    "result": [
      {
        "electoralDistricts": [
          {
            "election": null,
            "id": 69,
            "name": "Niagara Falls"
          }
        ],
        "pollDivisionIds": [
          10143905
        ],
        "postalCode": "L2A4M7",
        "streetName": "KRAFT",
        "streetDirectionId": null,
        "streetTypeId": "RD",
        "placeName": "FORT ERIE",
        "streetNameDisplayText": "KRAFT RD, FORT ERIE"
      }
    ]
  },
  {
    "postal": "L2A2G9",
    "result": [
      {
        "electoralDistricts": [
          {
            "election": null,
            "id": 69,
            "name": "Niagara Falls"
          }
        ],
        "pollDivisionIds": [
          10140016
        ],
        "postalCode": "L2A2G9",
        "streetName": "CATHERINE",
        "streetDirectionId": null,
        "streetTypeId": "ST",
        "placeName": "FORT ERIE",
        "streetNameDisplayText": "CATHERINE ST, FORT ERIE"
      }
    ]
  },
  {
    "postal": "L2A8T2",
    "result": []
  },
  {
    "postal": "L2A7G7",
    "result": []
  },
  {
    "postal": "L2A4Z3",
    "result": [
      {
        "electoralDistricts": [
          {
            "election": null,
            "id": 69,
            "name": "Niagara Falls"
          }
        ],
        "pollDivisionIds": [
          10143905
        ],
        "postalCode": "L2A4Z3",
        "streetName": "DAYTONA",
        "streetDirectionId": null,
        "streetTypeId": "DR",
        "placeName": "FORT ERIE",
        "streetNameDisplayText": "DAYTONA DR, FORT ERIE"
      }
    ]
  },
  {
    "postal": "L2A5B3",
    "result": [
      {
        "electoralDistricts": [
          {
            "election": null,
            "id": 69,
            "name": "Niagara Falls"
          }
        ],
        "pollDivisionIds": [
          10143905
        ],
        "postalCode": "L2A5B3",
        "streetName": "PARKDALE",
        "streetDirectionId": null,
        "streetTypeId": "AVE",
        "placeName": "FORT ERIE",
        "streetNameDisplayText": "PARKDALE AVE, FORT ERIE"
      }
    ]
  },
  {
    "postal": "L2A1S7",
    "result": []
  },
  {
    "postal": "L2A2N7",
    "result": [
      {
        "electoralDistricts": [
          {
            "election": null,
            "id": 69,
            "name": "Niagara Falls"
          }
        ],
        "pollDivisionIds": [
          10140012
        ],
        "postalCode": "L2A2N7",
        "streetName": "WINTEMUTE",
        "streetDirectionId": null,
        "streetTypeId": "ST",
        "placeName": "FORT ERIE",
        "streetNameDisplayText": "WINTEMUTE ST, FORT ERIE"
      }
    ]
  },
  {
    "postal": "L2A0H8",
    "result": []
  },
  {
    "postal": "L2A7Z4",
    "result": []
  },
  {
    "postal": "L2A7B1",
    "result": []
  },
  {
    "postal": "L2A7P8",
    "result": []
  },
  {
    "postal": "L2A7N0",
    "result": []
  },
  {
    "postal": "L2A3Y5",
    "result": [
      {
        "electoralDistricts": [
          {
            "election": null,
            "id": 69,
            "name": "Niagara Falls"
          }
        ],
        "pollDivisionIds": [
          10140015
        ],
        "postalCode": "L2A3Y5",
        "streetName": "ABERDEEN",
        "streetDirectionId": null,
        "streetTypeId": "ST",
        "placeName": "FORT ERIE",
        "streetNameDisplayText": "ABERDEEN ST, FORT ERIE"
      }
    ]
  },
  {
    "postal": "L2A6K1",
    "result": []
  },
  {
    "postal": "L2A9X5",
    "result": []
  },
  {
    "postal": "L2A7S5",
    "result": []
  },
  {
    "postal": "L2A0A4",
    "result": []
  },
  {
    "postal": "L2A4T5",
    "result": [
      {
        "electoralDistricts": [
          {
            "election": null,
            "id": 69,
            "name": "Niagara Falls"
          }
        ],
        "pollDivisionIds": [
          10143905
        ],
        "postalCode": "L2A4T5",
        "streetName": "GRANDVIEW",
        "streetDirectionId": null,
        "streetTypeId": "RD",
        "placeName": "FORT ERIE",
        "streetNameDisplayText": "GRANDVIEW RD, FORT ERIE"
      }
    ]
  },
  {
    "postal": "L2A5K1",
    "result": [
      {
        "electoralDistricts": [
          {
            "election": null,
            "id": 69,
            "name": "Niagara Falls"
          }
        ],
        "pollDivisionIds": [
          10140021
        ],
        "postalCode": "L2A5K1",
        "streetName": "EDWARD",
        "streetDirectionId": null,
        "streetTypeId": "AVE",
        "placeName": "FORT ERIE",
        "streetNameDisplayText": "EDWARD AVE, FORT ERIE"
      }
    ]
  },
  {
    "postal": "L2A0Z9",
    "result": []
  },
  {
    "postal": "L2A7T2",
    "result": []
  },
  {
    "postal": "L2A1L5",
    "result": [
      {
        "electoralDistricts": [
          {
            "election": null,
            "id": 69,
            "name": "Niagara Falls"
          }
        ],
        "pollDivisionIds": [
          10140021
        ],
        "postalCode": "L2A1L5",
        "streetName": "DRUMMOND",
        "streetDirectionId": null,
        "streetTypeId": "CRES",
        "placeName": "FORT ERIE",
        "streetNameDisplayText": "DRUMMOND CRES, FORT ERIE"
      }
    ]
  },
  {
    "postal": "L2A3N5",
    "result": [
      {
        "electoralDistricts": [
          {
            "election": null,
            "id": 69,
            "name": "Niagara Falls"
          }
        ],
        "pollDivisionIds": [
          10140017
        ],
        "postalCode": "L2A3N5",
        "streetName": "STANTON",
        "streetDirectionId": null,
        "streetTypeId": "ST",
        "placeName": "FORT ERIE",
        "streetNameDisplayText": "STANTON ST, FORT ERIE"
      }
    ]
  },
  {
    "postal": "L2A6H4",
    "result": [
      {
        "electoralDistricts": [
          {
            "election": null,
            "id": 69,
            "name": "Niagara Falls"
          }
        ],
        "pollDivisionIds": [
          10140021
        ],
        "postalCode": "L2A6H4",
        "streetName": "ALBANY",
        "streetDirectionId": null,
        "streetTypeId": "ST",
        "placeName": "FORT ERIE",
        "streetNameDisplayText": "ALBANY ST, FORT ERIE"
      }
    ]
  },
  {
    "postal": "L2A5A5",
    "result": [
      {
        "electoralDistricts": [
          {
            "election": null,
            "id": 69,
            "name": "Niagara Falls"
          }
        ],
        "pollDivisionIds": [
          10143905
        ],
        "postalCode": "L2A5A5",
        "streetName": "PARKDALE",
        "streetDirectionId": null,
        "streetTypeId": "AVE",
        "placeName": "FORT ERIE",
        "streetNameDisplayText": "PARKDALE AVE, FORT ERIE"
      }
    ]
  },
  {
    "postal": "L2A3R9",
    "result": [
      {
        "electoralDistricts": [
          {
            "election": null,
            "id": 69,
            "name": "Niagara Falls"
          }
        ],
        "pollDivisionIds": [
          10140014
        ],
        "postalCode": "L2A3R9",
        "streetName": "NORTH",
        "streetDirectionId": null,
        "streetTypeId": "ST",
        "placeName": "FORT ERIE",
        "streetNameDisplayText": "NORTH ST, FORT ERIE"
      }
    ]
  },
  {
    "postal": "L2A7L8",
    "result": []
  },
  {
    "postal": "L2A6T6",
    "result": [
      {
        "electoralDistricts": [
          {
            "election": null,
            "id": 69,
            "name": "Niagara Falls"
          }
        ],
        "pollDivisionIds": [
          10140021
        ],
        "postalCode": "L2A6T6",
        "streetName": "JASMINE",
        "streetDirectionId": null,
        "streetTypeId": "CRT",
        "placeName": "FORT ERIE",
        "streetNameDisplayText": "JASMINE CRT, FORT ERIE"
      },
      {
        "electoralDistricts": [
          {
            "election": null,
            "id": 69,
            "name": "Niagara Falls"
          }
        ],
        "pollDivisionIds": [
          10140021
        ],
        "postalCode": "L2A6T6",
        "streetName": "JORDYN",
        "streetDirectionId": null,
        "streetTypeId": "DR",
        "placeName": "FORT ERIE",
        "streetNameDisplayText": "JORDYN DR, FORT ERIE"
      }
    ]
  },
  {
    "postal": "L2A7Y7",
    "result": []
  },
  {
    "postal": "L2A3M8",
    "result": []
  },
  {
    "postal": "L2A2E0",
    "result": []
  },
  {
    "postal": "L2A4B5",
    "result": [
      {
        "electoralDistricts": [
          {
            "election": null,
            "id": 69,
            "name": "Niagara Falls"
          }
        ],
        "pollDivisionIds": [
          10140014
        ],
        "postalCode": "L2A4B5",
        "streetName": "MATHER",
        "streetDirectionId": null,
        "streetTypeId": "BLVD",
        "placeName": "FORT ERIE",
        "streetNameDisplayText": "MATHER BLVD, FORT ERIE"
      }
    ]
  },
  {
    "postal": "L2A1J3",
    "result": [
      {
        "electoralDistricts": [
          {
            "election": null,
            "id": 69,
            "name": "Niagara Falls"
          }
        ],
        "pollDivisionIds": [
          10143905
        ],
        "postalCode": "L2A1J3",
        "streetName": "DOMINION",
        "streetDirectionId": null,
        "streetTypeId": "RD",
        "placeName": "FORT ERIE",
        "streetNameDisplayText": "DOMINION RD, FORT ERIE"
      }
    ]
  },
  {
    "postal": "L2A5S6",
    "result": [
      {
        "electoralDistricts": [
          {
            "election": null,
            "id": 69,
            "name": "Niagara Falls"
          }
        ],
        "pollDivisionIds": [
          10140021
        ],
        "postalCode": "L2A5S6",
        "streetName": "GARRISON",
        "streetDirectionId": null,
        "streetTypeId": "RD",
        "placeName": "FORT ERIE",
        "streetNameDisplayText": "GARRISON RD, FORT ERIE"
      }
    ]
  },
  {
    "postal": "L2A8P7",
    "result": []
  },
  {
    "postal": "L2A7S7",
    "result": []
  },
  {
    "postal": "L2A4C2",
    "result": [
      {
        "electoralDistricts": [
          {
            "election": null,
            "id": 69,
            "name": "Niagara Falls"
          }
        ],
        "pollDivisionIds": [
          10140012
        ],
        "postalCode": "L2A4C2",
        "streetName": "RUSSELL",
        "streetDirectionId": null,
        "streetTypeId": "ST",
        "placeName": "FORT ERIE",
        "streetNameDisplayText": "RUSSELL ST, FORT ERIE"
      }
    ]
  },
  {
    "postal": "L2A5Y0",
    "result": []
  },
  {
    "postal": "L2A2V7",
    "result": [
      {
        "electoralDistricts": [
          {
            "election": null,
            "id": 69,
            "name": "Niagara Falls"
          }
        ],
        "pollDivisionIds": [
          10140012
        ],
        "postalCode": "L2A2V7",
        "streetName": "PHIPPS",
        "streetDirectionId": null,
        "streetTypeId": "ST",
        "placeName": "FORT ERIE",
        "streetNameDisplayText": "PHIPPS ST, FORT ERIE"
      }
    ]
  },
  {
    "postal": "L2A8P5",
    "result": []
  },
  {
    "postal": "L2A5P5",
    "result": [
      {
        "electoralDistricts": [
          {
            "election": null,
            "id": 69,
            "name": "Niagara Falls"
          }
        ],
        "pollDivisionIds": [
          10143905
        ],
        "postalCode": "L2A5P5",
        "streetName": "KENNEDY",
        "streetDirectionId": null,
        "streetTypeId": "DR",
        "placeName": "FORT ERIE",
        "streetNameDisplayText": "KENNEDY DR, FORT ERIE"
      }
    ]
  },
  {
    "postal": "L2A5Z0",
    "result": []
  },
  {
    "postal": "L2A9B0",
    "result": []
  },
  {
    "postal": "L2A1L0",
    "result": []
  },
  {
    "postal": "L2A0B5",
    "result": []
  },
  {
    "postal": "L2A3L2",
    "result": []
  },
  {
    "postal": "L2A3B7",
    "result": [
      {
        "electoralDistricts": [
          {
            "election": null,
            "id": 69,
            "name": "Niagara Falls"
          }
        ],
        "pollDivisionIds": [
          10143905
        ],
        "postalCode": "L2A3B7",
        "streetName": "PHILLIPS",
        "streetDirectionId": null,
        "streetTypeId": "ST",
        "placeName": "FORT ERIE",
        "streetNameDisplayText": "PHILLIPS ST, FORT ERIE"
      }
    ]
  },
  {
    "postal": "L2A8L1",
    "result": []
  },
  {
    "postal": "L2A5M4",
    "result": [
      {
        "electoralDistricts": [
          {
            "election": null,
            "id": 69,
            "name": "Niagara Falls"
          }
        ],
        "pollDivisionIds": [
          10140012
        ],
        "postalCode": "L2A5M4",
        "streetName": "ANGER",
        "streetDirectionId": null,
        "streetTypeId": "AVE",
        "placeName": "FORT ERIE",
        "streetNameDisplayText": "ANGER AVE, FORT ERIE"
      },
      {
        "electoralDistricts": [
          {
            "election": null,
            "id": 69,
            "name": "Niagara Falls"
          }
        ],
        "pollDivisionIds": [
          10143905
        ],
        "postalCode": "L2A5M4",
        "streetName": "BARNHART",
        "streetDirectionId": null,
        "streetTypeId": "ST",
        "placeName": "FORT ERIE",
        "streetNameDisplayText": "BARNHART ST, FORT ERIE"
      },
      {
        "electoralDistricts": [
          {
            "election": null,
            "id": 69,
            "name": "Niagara Falls"
          }
        ],
        "pollDivisionIds": [
          10143905
        ],
        "postalCode": "L2A5M4",
        "streetName": "BERTIE BAY",
        "streetDirectionId": null,
        "streetTypeId": "RD",
        "placeName": "FORT ERIE",
        "streetNameDisplayText": "BERTIE BAY RD, FORT ERIE"
      },
      {
        "electoralDistricts": [
          {
            "election": null,
            "id": 69,
            "name": "Niagara Falls"
          }
        ],
        "pollDivisionIds": [
          10143905
        ],
        "postalCode": "L2A5M4",
        "streetName": "BERTIE",
        "streetDirectionId": null,
        "streetTypeId": "ST",
        "placeName": "FORT ERIE",
        "streetNameDisplayText": "BERTIE ST, FORT ERIE"
      },
      {
        "electoralDistricts": [
          {
            "election": null,
            "id": 69,
            "name": "Niagara Falls"
          }
        ],
        "pollDivisionIds": [
          10143905
        ],
        "postalCode": "L2A5M4",
        "streetName": "BIDWELL",
        "streetDirectionId": null,
        "streetTypeId": "PKY",
        "placeName": "FORT ERIE",
        "streetNameDisplayText": "BIDWELL PKY, FORT ERIE"
      },
      {
        "electoralDistricts": [
          {
            "election": null,
            "id": 69,
            "name": "Niagara Falls"
          }
        ],
        "pollDivisionIds": [
          10143905
        ],
        "postalCode": "L2A5M4",
        "streetName": "BIRD",
        "streetDirectionId": null,
        "streetTypeId": "AVE",
        "placeName": "FORT ERIE",
        "streetNameDisplayText": "BIRD AVE, FORT ERIE"
      },
      {
        "electoralDistricts": [
          {
            "election": null,
            "id": 69,
            "name": "Niagara Falls"
          }
        ],
        "pollDivisionIds": [
          10140011,
          10143905,
          10140012,
          10140013
        ],
        "postalCode": "L2A5M4",
        "streetName": "BOWEN",
        "streetDirectionId": null,
        "streetTypeId": "RD",
        "placeName": "FORT ERIE",
        "streetNameDisplayText": "BOWEN RD, FORT ERIE"
      },
      {
        "electoralDistricts": [
          {
            "election": null,
            "id": 69,
            "name": "Niagara Falls"
          }
        ],
        "pollDivisionIds": [
          10143905
        ],
        "postalCode": "L2A5M4",
        "streetName": "BRANTFORD",
        "streetDirectionId": null,
        "streetTypeId": "AVE",
        "placeName": "FORT ERIE",
        "streetNameDisplayText": "BRANTFORD AVE, FORT ERIE"
      },
      {
        "electoralDistricts": [
          {
            "election": null,
            "id": 69,
            "name": "Niagara Falls"
          }
        ],
        "pollDivisionIds": [
          10143905,
          10140013,
          10140012
        ],
        "postalCode": "L2A5M4",
        "streetName": "BRIDGE",
        "streetDirectionId": null,
        "streetTypeId": "ST",
        "placeName": "FORT ERIE",
        "streetNameDisplayText": "BRIDGE ST, FORT ERIE"
      },
      {
        "electoralDistricts": [
          {
            "election": null,
            "id": 69,
            "name": "Niagara Falls"
          }
        ],
        "pollDivisionIds": [
          10140011,
          10140012
        ],
        "postalCode": "L2A5M4",
        "streetName": "CAIRNS",
        "streetDirectionId": null,
        "streetTypeId": "CRES",
        "placeName": "FORT ERIE",
        "streetNameDisplayText": "CAIRNS CRES, FORT ERIE"
      },
      {
        "electoralDistricts": [
          {
            "election": null,
            "id": 69,
            "name": "Niagara Falls"
          }
        ],
        "pollDivisionIds": [
          10143905
        ],
        "postalCode": "L2A5M4",
        "streetName": "CHAPIN",
        "streetDirectionId": null,
        "streetTypeId": "PKY",
        "placeName": "FORT ERIE",
        "streetNameDisplayText": "CHAPIN PKY, FORT ERIE"
      },
      {
        "electoralDistricts": [
          {
            "election": null,
            "id": 69,
            "name": "Niagara Falls"
          }
        ],
        "pollDivisionIds": [
          10143905
        ],
        "postalCode": "L2A5M4",
        "streetName": "CHATHAM",
        "streetDirectionId": null,
        "streetTypeId": "RD",
        "placeName": "FORT ERIE",
        "streetNameDisplayText": "CHATHAM RD, FORT ERIE"
      },
      {
        "electoralDistricts": [
          {
            "election": null,
            "id": 69,
            "name": "Niagara Falls"
          }
        ],
        "pollDivisionIds": [
          10140011
        ],
        "postalCode": "L2A5M4",
        "streetName": "COLLEGE",
        "streetDirectionId": null,
        "streetTypeId": "RD",
        "placeName": "FORT ERIE",
        "streetNameDisplayText": "COLLEGE RD, FORT ERIE"
      },
      {
        "electoralDistricts": [
          {
            "election": null,
            "id": 69,
            "name": "Niagara Falls"
          }
        ],
        "pollDivisionIds": [
          10140012
        ],
        "postalCode": "L2A5M4",
        "streetName": "COMMERCE",
        "streetDirectionId": null,
        "streetTypeId": "PKY",
        "placeName": "FORT ERIE",
        "streetNameDisplayText": "COMMERCE PKY, FORT ERIE"
      },
      {
        "electoralDistricts": [
          {
            "election": null,
            "id": 69,
            "name": "Niagara Falls"
          }
        ],
        "pollDivisionIds": [
          10140013
        ],
        "postalCode": "L2A5M4",
        "streetName": "CURTIS",
        "streetDirectionId": null,
        "streetTypeId": "RD",
        "placeName": "FORT ERIE",
        "streetNameDisplayText": "CURTIS RD, FORT ERIE"
      },
      {
        "electoralDistricts": [
          {
            "election": null,
            "id": 69,
            "name": "Niagara Falls"
          }
        ],
        "pollDivisionIds": [
          10143905
        ],
        "postalCode": "L2A5M4",
        "streetName": "DELAWARE",
        "streetDirectionId": null,
        "streetTypeId": "AVE",
        "placeName": "FORT ERIE",
        "streetNameDisplayText": "DELAWARE AVE, FORT ERIE"
      },
      {
        "electoralDistricts": [
          {
            "election": null,
            "id": 69,
            "name": "Niagara Falls"
          }
        ],
        "pollDivisionIds": [
          10143905
        ],
        "postalCode": "L2A5M4",
        "streetName": "DOMINION",
        "streetDirectionId": null,
        "streetTypeId": "RD",
        "placeName": "FORT ERIE",
        "streetNameDisplayText": "DOMINION RD, FORT ERIE"
      },
      {
        "electoralDistricts": [
          {
            "election": null,
            "id": 69,
            "name": "Niagara Falls"
          }
        ],
        "pollDivisionIds": [
          10143905
        ],
        "postalCode": "L2A5M4",
        "streetName": "DOVER",
        "streetDirectionId": null,
        "streetTypeId": "RD",
        "placeName": "FORT ERIE",
        "streetNameDisplayText": "DOVER RD, FORT ERIE"
      },
      {
        "electoralDistricts": [
          {
            "election": null,
            "id": 69,
            "name": "Niagara Falls"
          }
        ],
        "pollDivisionIds": [
          10140011
        ],
        "postalCode": "L2A5M4",
        "streetName": "EAGLE",
        "streetDirectionId": null,
        "streetTypeId": "ST",
        "placeName": "FORT ERIE",
        "streetNameDisplayText": "EAGLE ST, FORT ERIE"
      },
      {
        "electoralDistricts": [
          {
            "election": null,
            "id": 69,
            "name": "Niagara Falls"
          }
        ],
        "pollDivisionIds": [
          10140012
        ],
        "postalCode": "L2A5M4",
        "streetName": "EATON",
        "streetDirectionId": null,
        "streetTypeId": "AVE",
        "placeName": "FORT ERIE",
        "streetNameDisplayText": "EATON AVE, FORT ERIE"
      },
      {
        "electoralDistricts": [
          {
            "election": null,
            "id": 69,
            "name": "Niagara Falls"
          }
        ],
        "pollDivisionIds": [
          10143905
        ],
        "postalCode": "L2A5M4",
        "streetName": "ELLSWORTH",
        "streetDirectionId": null,
        "streetTypeId": "RD",
        "placeName": "FORT ERIE",
        "streetNameDisplayText": "ELLSWORTH RD, FORT ERIE"
      },
      {
        "electoralDistricts": [
          {
            "election": null,
            "id": 69,
            "name": "Niagara Falls"
          }
        ],
        "pollDivisionIds": [
          10143905
        ],
        "postalCode": "L2A5M4",
        "streetName": "FERRY",
        "streetDirectionId": null,
        "streetTypeId": "ST",
        "placeName": "FORT ERIE",
        "streetNameDisplayText": "FERRY ST, FORT ERIE"
      },
      {
        "electoralDistricts": [
          {
            "election": null,
            "id": 69,
            "name": "Niagara Falls"
          }
        ],
        "pollDivisionIds": [
          10140012
        ],
        "postalCode": "L2A5M4",
        "streetName": "FRENCHMAN'S",
        "streetDirectionId": null,
        "streetTypeId": "LANE",
        "placeName": "FORT ERIE",
        "streetNameDisplayText": "FRENCHMAN'S LANE, FORT ERIE"
      },
      {
        "electoralDistricts": [
          {
            "election": null,
            "id": 69,
            "name": "Niagara Falls"
          }
        ],
        "pollDivisionIds": [
          10143905
        ],
        "postalCode": "L2A5M4",
        "streetName": "FRONTENAC",
        "streetDirectionId": null,
        "streetTypeId": "RD",
        "placeName": "FORT ERIE",
        "streetNameDisplayText": "FRONTENAC RD, FORT ERIE"
      },
      {
        "electoralDistricts": [
          {
            "election": null,
            "id": 69,
            "name": "Niagara Falls"
          }
        ],
        "pollDivisionIds": [
          10143905
        ],
        "postalCode": "L2A5M4",
        "streetName": "FRONTENAC",
        "streetDirectionId": null,
        "streetTypeId": "ST",
        "placeName": "FORT ERIE",
        "streetNameDisplayText": "FRONTENAC ST, FORT ERIE"
      },
      {
        "electoralDistricts": [
          {
            "election": null,
            "id": 69,
            "name": "Niagara Falls"
          }
        ],
        "pollDivisionIds": [
          10143905,
          10140018
        ],
        "postalCode": "L2A5M4",
        "streetName": "GARRISON",
        "streetDirectionId": null,
        "streetTypeId": "RD",
        "placeName": "FORT ERIE",
        "streetNameDisplayText": "GARRISON RD, FORT ERIE"
      },
      {
        "electoralDistricts": [
          {
            "election": null,
            "id": 69,
            "name": "Niagara Falls"
          }
        ],
        "pollDivisionIds": [
          10143905,
          10140014,
          10140012
        ],
        "postalCode": "L2A5M4",
        "streetName": "GILMORE",
        "streetDirectionId": null,
        "streetTypeId": "RD",
        "placeName": "FORT ERIE",
        "streetNameDisplayText": "GILMORE RD, FORT ERIE"
      },
      {
        "electoralDistricts": [
          {
            "election": null,
            "id": 69,
            "name": "Niagara Falls"
          }
        ],
        "pollDivisionIds": [
          10140012
        ],
        "postalCode": "L2A5M4",
        "streetName": "GRACEFIELD",
        "streetDirectionId": null,
        "streetTypeId": "AVE",
        "placeName": "FORT ERIE",
        "streetNameDisplayText": "GRACEFIELD AVE, FORT ERIE"
      },
      {
        "electoralDistricts": [
          {
            "election": null,
            "id": 69,
            "name": "Niagara Falls"
          }
        ],
        "pollDivisionIds": [
          10140012
        ],
        "postalCode": "L2A5M4",
        "streetName": "GRAPE",
        "streetDirectionId": null,
        "streetTypeId": "ST",
        "placeName": "FORT ERIE",
        "streetNameDisplayText": "GRAPE ST, FORT ERIE"
      },
      {
        "electoralDistricts": [
          {
            "election": null,
            "id": 69,
            "name": "Niagara Falls"
          }
        ],
        "pollDivisionIds": [
          10143905
        ],
        "postalCode": "L2A5M4",
        "streetName": "GRAYSON",
        "streetDirectionId": null,
        "streetTypeId": "AVE",
        "placeName": "FORT ERIE",
        "streetNameDisplayText": "GRAYSON AVE, FORT ERIE"
      },
      {
        "electoralDistricts": [
          {
            "election": null,
            "id": 69,
            "name": "Niagara Falls"
          }
        ],
        "pollDivisionIds": [
          10140012
        ],
        "postalCode": "L2A5M4",
        "streetName": "HOUCK",
        "streetDirectionId": null,
        "streetTypeId": "CRES",
        "placeName": "FORT ERIE",
        "streetNameDisplayText": "HOUCK CRES, FORT ERIE"
      },
      {
        "electoralDistricts": [
          {
            "election": null,
            "id": 69,
            "name": "Niagara Falls"
          }
        ],
        "pollDivisionIds": [
          10140012
        ],
        "postalCode": "L2A5M4",
        "streetName": "INDUSTRIAL",
        "streetDirectionId": null,
        "streetTypeId": "DR",
        "placeName": "FORT ERIE",
        "streetNameDisplayText": "INDUSTRIAL DR, FORT ERIE"
      },
      {
        "electoralDistricts": [
          {
            "election": null,
            "id": 69,
            "name": "Niagara Falls"
          }
        ],
        "pollDivisionIds": [
          10143905
        ],
        "postalCode": "L2A5M4",
        "streetName": "JEWSON",
        "streetDirectionId": null,
        "streetTypeId": "RD",
        "placeName": "FORT ERIE",
        "streetNameDisplayText": "JEWSON RD, FORT ERIE"
      },
      {
        "electoralDistricts": [
          {
            "election": null,
            "id": 69,
            "name": "Niagara Falls"
          }
        ],
        "pollDivisionIds": [
          10140012
        ],
        "postalCode": "L2A5M4",
        "streetName": "KENWOOD",
        "streetDirectionId": null,
        "streetTypeId": "ST",
        "placeName": "FORT ERIE",
        "streetNameDisplayText": "KENWOOD ST, FORT ERIE"
      },
      {
        "electoralDistricts": [
          {
            "election": null,
            "id": 69,
            "name": "Niagara Falls"
          }
        ],
        "pollDivisionIds": [
          10143905
        ],
        "postalCode": "L2A5M4",
        "streetName": "KINGSTON",
        "streetDirectionId": null,
        "streetTypeId": "RD",
        "placeName": "FORT ERIE",
        "streetNameDisplayText": "KINGSTON RD, FORT ERIE"
      },
      {
        "electoralDistricts": [
          {
            "election": null,
            "id": 69,
            "name": "Niagara Falls"
          }
        ],
        "pollDivisionIds": [
          10140013,
          10143905
        ],
        "postalCode": "L2A5M4",
        "streetName": "LAUR",
        "streetDirectionId": null,
        "streetTypeId": "RD",
        "placeName": "FORT ERIE",
        "streetNameDisplayText": "LAUR RD, FORT ERIE"
      },
      {
        "electoralDistricts": [
          {
            "election": null,
            "id": 69,
            "name": "Niagara Falls"
          }
        ],
        "pollDivisionIds": [
          10140012
        ],
        "postalCode": "L2A5M4",
        "streetName": "LEMCKE",
        "streetDirectionId": null,
        "streetTypeId": "ST",
        "placeName": "FORT ERIE",
        "streetNameDisplayText": "LEMCKE ST, FORT ERIE"
      },
      {
        "electoralDistricts": [
          {
            "election": null,
            "id": 69,
            "name": "Niagara Falls"
          }
        ],
        "pollDivisionIds": [
          10143905
        ],
        "postalCode": "L2A5M4",
        "streetName": "MACDONALD",
        "streetDirectionId": null,
        "streetTypeId": "DR",
        "placeName": "FORT ERIE",
        "streetNameDisplayText": "MACDONALD DR, FORT ERIE"
      },
      {
        "electoralDistricts": [
          {
            "election": null,
            "id": 69,
            "name": "Niagara Falls"
          }
        ],
        "pollDivisionIds": [
          10140012
        ],
        "postalCode": "L2A5M4",
        "streetName": "MACKENZIE",
        "streetDirectionId": null,
        "streetTypeId": "ST",
        "placeName": "FORT ERIE",
        "streetNameDisplayText": "MACKENZIE ST, FORT ERIE"
      },
      {
        "electoralDistricts": [
          {
            "election": null,
            "id": 69,
            "name": "Niagara Falls"
          }
        ],
        "pollDivisionIds": [
          10140011,
          10140012
        ],
        "postalCode": "L2A5M4",
        "streetName": "MILLER",
        "streetDirectionId": null,
        "streetTypeId": "AVE",
        "placeName": "FORT ERIE",
        "streetNameDisplayText": "MILLER AVE, FORT ERIE"
      },
      {
        "electoralDistricts": [
          {
            "election": null,
            "id": 69,
            "name": "Niagara Falls"
          }
        ],
        "pollDivisionIds": [
          10140012
        ],
        "postalCode": "L2A5M4",
        "streetName": "NIAGARA",
        "streetDirectionId": null,
        "streetTypeId": "BLVD",
        "placeName": "FORT ERIE",
        "streetNameDisplayText": "NIAGARA BLVD, FORT ERIE"
      },
      {
        "electoralDistricts": [
          {
            "election": null,
            "id": 69,
            "name": "Niagara Falls"
          }
        ],
        "pollDivisionIds": [
          10140012
        ],
        "postalCode": "L2A5M4",
        "streetName": "NIAGARA",
        "streetDirectionId": null,
        "streetTypeId": "PKY",
        "placeName": "FORT ERIE",
        "streetNameDisplayText": "NIAGARA PKY, FORT ERIE"
      },
      {
        "electoralDistricts": [
          {
            "election": null,
            "id": 69,
            "name": "Niagara Falls"
          }
        ],
        "pollDivisionIds": [
          10140012
        ],
        "postalCode": "L2A5M4",
        "streetName": "NIAGARA RIVER PKW",
        "streetDirectionId": null,
        "streetTypeId": "PKY",
        "placeName": "FORT ERIE",
        "streetNameDisplayText": "NIAGARA RIVER PKW PKY, FORT ERIE"
      },
      {
        "electoralDistricts": [
          {
            "election": null,
            "id": 69,
            "name": "Niagara Falls"
          }
        ],
        "pollDivisionIds": [
          10140012
        ],
        "postalCode": "L2A5M4",
        "streetName": "NIAGARA RIVER PKWY",
        "streetDirectionId": null,
        "streetTypeId": "PKY",
        "placeName": "FORT ERIE",
        "streetNameDisplayText": "NIAGARA RIVER PKWY PKY, FORT ERIE"
      },
      {
        "electoralDistricts": [
          {
            "election": null,
            "id": 69,
            "name": "Niagara Falls"
          }
        ],
        "pollDivisionIds": [
          10140012,
          10140011
        ],
        "postalCode": "L2A5M4",
        "streetName": "NIAGARA RIVER",
        "streetDirectionId": null,
        "streetTypeId": "PKY",
        "placeName": "FORT ERIE",
        "streetNameDisplayText": "NIAGARA RIVER PKY, FORT ERIE"
      },
      {
        "electoralDistricts": [
          {
            "election": null,
            "id": 69,
            "name": "Niagara Falls"
          }
        ],
        "pollDivisionIds": [
          10143905
        ],
        "postalCode": "L2A5M4",
        "streetName": "NIGH",
        "streetDirectionId": null,
        "streetTypeId": "RD",
        "placeName": "FORT ERIE",
        "streetNameDisplayText": "NIGH RD, FORT ERIE"
      },
      {
        "electoralDistricts": [
          {
            "election": null,
            "id": 69,
            "name": "Niagara Falls"
          }
        ],
        "pollDivisionIds": [
          10140012
        ],
        "postalCode": "L2A5M4",
        "streetName": "NORRIS",
        "streetDirectionId": null,
        "streetTypeId": "AVE",
        "placeName": "FORT ERIE",
        "streetNameDisplayText": "NORRIS AVE, FORT ERIE"
      },
      {
        "electoralDistricts": [
          {
            "election": null,
            "id": 69,
            "name": "Niagara Falls"
          }
        ],
        "pollDivisionIds": [
          10140012
        ],
        "postalCode": "L2A5M4",
        "streetName": "NORRIS",
        "streetDirectionId": null,
        "streetTypeId": "ST",
        "placeName": "FORT ERIE",
        "streetNameDisplayText": "NORRIS ST, FORT ERIE"
      },
      {
        "electoralDistricts": [
          {
            "election": null,
            "id": 69,
            "name": "Niagara Falls"
          }
        ],
        "pollDivisionIds": [
          10143905
        ],
        "postalCode": "L2A5M4",
        "streetName": "ONTARIO",
        "streetDirectionId": null,
        "streetTypeId": "DR",
        "placeName": "FORT ERIE",
        "streetNameDisplayText": "ONTARIO DR, FORT ERIE"
      },
      {
        "electoralDistricts": [
          {
            "election": null,
            "id": 69,
            "name": "Niagara Falls"
          }
        ],
        "pollDivisionIds": [
          10140014,
          10140012,
          10143905
        ],
        "postalCode": "L2A5M4",
        "streetName": "PETTIT",
        "streetDirectionId": null,
        "streetTypeId": "RD",
        "placeName": "FORT ERIE",
        "streetNameDisplayText": "PETTIT RD, FORT ERIE"
      },
      {
        "electoralDistricts": [
          {
            "election": null,
            "id": 69,
            "name": "Niagara Falls"
          }
        ],
        "pollDivisionIds": [
          10143905
        ],
        "postalCode": "L2A5M4",
        "streetName": "POUND",
        "streetDirectionId": null,
        "streetTypeId": "AVE",
        "placeName": "FORT ERIE",
        "streetNameDisplayText": "POUND AVE, FORT ERIE"
      },
      {
        "electoralDistricts": [
          {
            "election": null,
            "id": 69,
            "name": "Niagara Falls"
          }
        ],
        "pollDivisionIds": [
          10143905
        ],
        "postalCode": "L2A5M4",
        "streetName": "REBECCA",
        "streetDirectionId": null,
        "streetTypeId": "ST",
        "placeName": "FORT ERIE",
        "streetNameDisplayText": "REBECCA ST, FORT ERIE"
      },
      {
        "electoralDistricts": [
          {
            "election": null,
            "id": 69,
            "name": "Niagara Falls"
          }
        ],
        "pollDivisionIds": [
          10143905
        ],
        "postalCode": "L2A5M4",
        "streetName": "RICHMOND",
        "streetDirectionId": null,
        "streetTypeId": "AVE",
        "placeName": "FORT ERIE",
        "streetNameDisplayText": "RICHMOND AVE, FORT ERIE"
      },
      {
        "electoralDistricts": [
          {
            "election": null,
            "id": 69,
            "name": "Niagara Falls"
          }
        ],
        "pollDivisionIds": [
          10143905
        ],
        "postalCode": "L2A5M4",
        "streetName": "ROSE HILL",
        "streetDirectionId": null,
        "streetTypeId": "RD",
        "placeName": "FORT ERIE",
        "streetNameDisplayText": "ROSE HILL RD, FORT ERIE"
      },
      {
        "electoralDistricts": [
          {
            "election": null,
            "id": 69,
            "name": "Niagara Falls"
          }
        ],
        "pollDivisionIds": [
          10143905
        ],
        "postalCode": "L2A5M4",
        "streetName": "ROSEHILL",
        "streetDirectionId": null,
        "streetTypeId": "RD",
        "placeName": "FORT ERIE",
        "streetNameDisplayText": "ROSEHILL RD, FORT ERIE"
      },
      {
        "electoralDistricts": [
          {
            "election": null,
            "id": 69,
            "name": "Niagara Falls"
          }
        ],
        "pollDivisionIds": [
          10143905
        ],
        "postalCode": "L2A5M4",
        "streetName": "ROYAL YORK",
        "streetDirectionId": null,
        "streetTypeId": "RD",
        "placeName": "FORT ERIE",
        "streetNameDisplayText": "ROYAL YORK RD, FORT ERIE"
      },
      {
        "electoralDistricts": [
          {
            "election": null,
            "id": 69,
            "name": "Niagara Falls"
          }
        ],
        "pollDivisionIds": [
          10140014
        ],
        "postalCode": "L2A5M4",
        "streetName": "SPEARS",
        "streetDirectionId": null,
        "streetTypeId": "RD",
        "placeName": "FORT ERIE",
        "streetNameDisplayText": "SPEARS RD, FORT ERIE"
      },
      {
        "electoralDistricts": [
          {
            "election": null,
            "id": 69,
            "name": "Niagara Falls"
          }
        ],
        "pollDivisionIds": [
          10143905,
          10140018
        ],
        "postalCode": "L2A5M4",
        "streetName": "STONEMILL",
        "streetDirectionId": null,
        "streetTypeId": "RD",
        "placeName": "FORT ERIE",
        "streetNameDisplayText": "STONEMILL RD, FORT ERIE"
      },
      {
        "electoralDistricts": [
          {
            "election": null,
            "id": 69,
            "name": "Niagara Falls"
          }
        ],
        "pollDivisionIds": [
          10143905,
          10140012,
          10140011
        ],
        "postalCode": "L2A5M4",
        "streetName": "SUNSET",
        "streetDirectionId": null,
        "streetTypeId": "DR",
        "placeName": "FORT ERIE",
        "streetNameDisplayText": "SUNSET DR, FORT ERIE"
      },
      {
        "electoralDistricts": [
          {
            "election": null,
            "id": 69,
            "name": "Niagara Falls"
          }
        ],
        "pollDivisionIds": [
          10140012
        ],
        "postalCode": "L2A5M4",
        "streetName": "SUTHERLAND",
        "streetDirectionId": null,
        "streetTypeId": "DR",
        "placeName": "FORT ERIE",
        "streetNameDisplayText": "SUTHERLAND DR, FORT ERIE"
      },
      {
        "electoralDistricts": [
          {
            "election": null,
            "id": 69,
            "name": "Niagara Falls"
          }
        ],
        "pollDivisionIds": [
          10140014,
          10140012
        ],
        "postalCode": "L2A5M4",
        "streetName": "THOMPSON",
        "streetDirectionId": null,
        "streetTypeId": "RD",
        "placeName": "FORT ERIE",
        "streetNameDisplayText": "THOMPSON RD, FORT ERIE"
      },
      {
        "electoralDistricts": [
          {
            "election": null,
            "id": 69,
            "name": "Niagara Falls"
          }
        ],
        "pollDivisionIds": [
          10140012
        ],
        "postalCode": "L2A5M4",
        "streetName": "WEST",
        "streetDirectionId": null,
        "streetTypeId": "AVE",
        "placeName": "FORT ERIE",
        "streetNameDisplayText": "WEST AVE, FORT ERIE"
      }
    ]
  },
  {
    "postal": "L2A4G9",
    "result": [
      {
        "electoralDistricts": [
          {
            "election": null,
            "id": 69,
            "name": "Niagara Falls"
          }
        ],
        "pollDivisionIds": [
          10140014
        ],
        "postalCode": "L2A4G9",
        "streetName": "CONCESSION",
        "streetDirectionId": null,
        "streetTypeId": "RD",
        "placeName": "FORT ERIE",
        "streetNameDisplayText": "CONCESSION RD, FORT ERIE"
      }
    ]
  },
  {
    "postal": "L2A0P0",
    "result": []
  },
  {
    "postal": "L2A8G2",
    "result": []
  },
  {
    "postal": "L2A1V9",
    "result": [
      {
        "electoralDistricts": [
          {
            "election": null,
            "id": 69,
            "name": "Niagara Falls"
          }
        ],
        "pollDivisionIds": [
          10140014
        ],
        "postalCode": "L2A1V9",
        "streetName": "PRINCESS",
        "streetDirectionId": null,
        "streetTypeId": "ST",
        "placeName": "FORT ERIE",
        "streetNameDisplayText": "PRINCESS ST, FORT ERIE"
      }
    ]
  },
  {
    "postal": "L2A8N8",
    "result": []
  },
  {
    "postal": "L2A6S8",
    "result": []
  },
  {
    "postal": "L2A8H2",
    "result": []
  },
  {
    "postal": "L2A5R8",
    "result": []
  },
  {
    "postal": "L2A5L4",
    "result": [
      {
        "electoralDistricts": [
          {
            "election": null,
            "id": 69,
            "name": "Niagara Falls"
          }
        ],
        "pollDivisionIds": [
          10140021
        ],
        "postalCode": "L2A5L4",
        "streetName": "ALBERT",
        "streetDirectionId": null,
        "streetTypeId": "ST",
        "placeName": "FORT ERIE",
        "streetNameDisplayText": "ALBERT ST, FORT ERIE"
      }
    ]
  },
  {
    "postal": "L2A9E1",
    "result": []
  },
  {
    "postal": "L2A1C4",
    "result": [
      {
        "electoralDistricts": [
          {
            "election": null,
            "id": 69,
            "name": "Niagara Falls"
          }
        ],
        "pollDivisionIds": [
          10140021
        ],
        "postalCode": "L2A1C4",
        "streetName": "KEEL",
        "streetDirectionId": null,
        "streetTypeId": "ST",
        "placeName": "FORT ERIE",
        "streetNameDisplayText": "KEEL ST, FORT ERIE"
      }
    ]
  },
  {
    "postal": "L2A8W5",
    "result": []
  },
  {
    "postal": "L2A1Y4",
    "result": [
      {
        "electoralDistricts": [
          {
            "election": null,
            "id": 69,
            "name": "Niagara Falls"
          }
        ],
        "pollDivisionIds": [
          10140014
        ],
        "postalCode": "L2A1Y4",
        "streetName": "BERTIE",
        "streetDirectionId": null,
        "streetTypeId": "ST",
        "placeName": "FORT ERIE",
        "streetNameDisplayText": "BERTIE ST, FORT ERIE"
      }
    ]
  },
  {
    "postal": "L2A1C0",
    "result": []
  },
  {
    "postal": "L2A2J2",
    "result": [
      {
        "electoralDistricts": [
          {
            "election": null,
            "id": 69,
            "name": "Niagara Falls"
          }
        ],
        "pollDivisionIds": [
          10140015
        ],
        "postalCode": "L2A2J2",
        "streetName": "CATHERINE",
        "streetDirectionId": null,
        "streetTypeId": "ST",
        "placeName": "FORT ERIE",
        "streetNameDisplayText": "CATHERINE ST, FORT ERIE"
      }
    ]
  },
  {
    "postal": "L2A2J0",
    "result": []
  },
  {
    "postal": "L2A7A3",
    "result": []
  },
  {
    "postal": "L2A8M1",
    "result": []
  },
  {
    "postal": "L2A7T9",
    "result": []
  },
  {
    "postal": "L2A6C0",
    "result": []
  },
  {
    "postal": "L2A7X1",
    "result": []
  },
  {
    "postal": "L2A0G1",
    "result": []
  },
  {
    "postal": "L2A4X2",
    "result": [
      {
        "electoralDistricts": [
          {
            "election": null,
            "id": 69,
            "name": "Niagara Falls"
          }
        ],
        "pollDivisionIds": [
          10143905
        ],
        "postalCode": "L2A4X2",
        "streetName": "LAKEVIEW",
        "streetDirectionId": null,
        "streetTypeId": "RD",
        "placeName": "FORT ERIE",
        "streetNameDisplayText": "LAKEVIEW RD, FORT ERIE"
      }
    ]
  },
  {
    "postal": "L2A0N6",
    "result": []
  },
  {
    "postal": "L2A8E3",
    "result": []
  },
  {
    "postal": "L2A5S8",
    "result": [
      {
        "electoralDistricts": [
          {
            "election": null,
            "id": 69,
            "name": "Niagara Falls"
          }
        ],
        "pollDivisionIds": [
          10143905
        ],
        "postalCode": "L2A5S8",
        "streetName": "FERNDALE",
        "streetDirectionId": null,
        "streetTypeId": "AVE",
        "placeName": "FORT ERIE",
        "streetNameDisplayText": "FERNDALE AVE, FORT ERIE"
      }
    ]
  },
  {
    "postal": "L2A0R0",
    "result": []
  },
  {
    "postal": "L2A6J6",
    "result": []
  },
  {
    "postal": "L2A4B4",
    "result": [
      {
        "electoralDistricts": [
          {
            "election": null,
            "id": 69,
            "name": "Niagara Falls"
          }
        ],
        "pollDivisionIds": [
          10140014
        ],
        "postalCode": "L2A4B4",
        "streetName": "MATHER",
        "streetDirectionId": null,
        "streetTypeId": "BLVD",
        "placeName": "FORT ERIE",
        "streetNameDisplayText": "MATHER BLVD, FORT ERIE"
      },
      {
        "electoralDistricts": [
          {
            "election": null,
            "id": 69,
            "name": "Niagara Falls"
          }
        ],
        "pollDivisionIds": [
          10140014
        ],
        "postalCode": "L2A4B4",
        "streetName": "QUEENSBURY",
        "streetDirectionId": null,
        "streetTypeId": "RD",
        "placeName": "FORT ERIE",
        "streetNameDisplayText": "QUEENSBURY RD, FORT ERIE"
      }
    ]
  },
  {
    "postal": "L2A7E3",
    "result": []
  },
  {
    "postal": "L2A3N6",
    "result": [
      {
        "electoralDistricts": [
          {
            "election": null,
            "id": 69,
            "name": "Niagara Falls"
          }
        ],
        "pollDivisionIds": [
          10140017
        ],
        "postalCode": "L2A3N6",
        "streetName": "STANTON",
        "streetDirectionId": null,
        "streetTypeId": "ST",
        "placeName": "FORT ERIE",
        "streetNameDisplayText": "STANTON ST, FORT ERIE"
      }
    ]
  },
  {
    "postal": "L2A3X6",
    "result": [
      {
        "electoralDistricts": [
          {
            "election": null,
            "id": 69,
            "name": "Niagara Falls"
          }
        ],
        "pollDivisionIds": [
          10140014
        ],
        "postalCode": "L2A3X6",
        "streetName": "DOUGLAS",
        "streetDirectionId": null,
        "streetTypeId": "ST",
        "placeName": "FORT ERIE",
        "streetNameDisplayText": "DOUGLAS ST, FORT ERIE"
      }
    ]
  },
  {
    "postal": "L2A8L0",
    "result": []
  },
  {
    "postal": "L2A8N1",
    "result": []
  },
  {
    "postal": "L2A4J0",
    "result": []
  },
  {
    "postal": "L2A0X7",
    "result": []
  },
  {
    "postal": "L2A6S4",
    "result": []
  },
  {
    "postal": "L2A0Z0",
    "result": []
  },
  {
    "postal": "L2A9X8",
    "result": []
  },
  {
    "postal": "L2A3H3",
    "result": [
      {
        "electoralDistricts": [
          {
            "election": null,
            "id": 69,
            "name": "Niagara Falls"
          }
        ],
        "pollDivisionIds": [
          10140012
        ],
        "postalCode": "L2A3H3",
        "streetName": "NIAGARA",
        "streetDirectionId": null,
        "streetTypeId": "BLVD",
        "placeName": "FORT ERIE",
        "streetNameDisplayText": "NIAGARA BLVD, FORT ERIE"
      }
    ]
  },
  {
    "postal": "L2A7S2",
    "result": []
  },
  {
    "postal": "L2A3T3",
    "result": [
      {
        "electoralDistricts": [
          {
            "election": null,
            "id": 69,
            "name": "Niagara Falls"
          }
        ],
        "pollDivisionIds": [
          10140016
        ],
        "postalCode": "L2A3T3",
        "streetName": "CENTRAL",
        "streetDirectionId": null,
        "streetTypeId": "AVE",
        "placeName": "FORT ERIE",
        "streetNameDisplayText": "CENTRAL AVE, FORT ERIE"
      }
    ]
  },
  {
    "postal": "L2A9P3",
    "result": []
  },
  {
    "postal": "L2A4H8",
    "result": [
      {
        "electoralDistricts": [
          {
            "election": null,
            "id": 69,
            "name": "Niagara Falls"
          }
        ],
        "pollDivisionIds": [
          10140012
        ],
        "postalCode": "L2A4H8",
        "streetName": "DUNLOP",
        "streetDirectionId": null,
        "streetTypeId": "ST",
        "placeName": "FORT ERIE",
        "streetNameDisplayText": "DUNLOP ST, FORT ERIE"
      }
    ]
  },
  {
    "postal": "L2A6R1",
    "result": []
  },
  {
    "postal": "L2A1S0",
    "result": []
  },
  {
    "postal": "L2A3W8",
    "result": [
      {
        "electoralDistricts": [
          {
            "election": null,
            "id": 69,
            "name": "Niagara Falls"
          }
        ],
        "pollDivisionIds": [
          10140015
        ],
        "postalCode": "L2A3W8",
        "streetName": "DOUGLAS",
        "streetDirectionId": null,
        "streetTypeId": "ST",
        "placeName": "FORT ERIE",
        "streetNameDisplayText": "DOUGLAS ST, FORT ERIE"
      }
    ]
  },
  {
    "postal": "L2A4S3",
    "result": [
      {
        "electoralDistricts": [
          {
            "election": null,
            "id": 69,
            "name": "Niagara Falls"
          }
        ],
        "pollDivisionIds": [
          10143905
        ],
        "postalCode": "L2A4S3",
        "streetName": "FAIRVIEW",
        "streetDirectionId": null,
        "streetTypeId": "RD",
        "placeName": "FORT ERIE",
        "streetNameDisplayText": "FAIRVIEW RD, FORT ERIE"
      }
    ]
  },
  {
    "postal": "L2A1B6",
    "result": [
      {
        "electoralDistricts": [
          {
            "election": null,
            "id": 69,
            "name": "Niagara Falls"
          }
        ],
        "pollDivisionIds": [
          10140021
        ],
        "postalCode": "L2A1B6",
        "streetName": "LAKESHORE",
        "streetDirectionId": null,
        "streetTypeId": "RD",
        "placeName": "FORT ERIE",
        "streetNameDisplayText": "LAKESHORE RD, FORT ERIE"
      }
    ]
  },
  {
    "postal": "L2A8R3",
    "result": []
  },
  {
    "postal": "L2A4V9",
    "result": [
      {
        "electoralDistricts": [
          {
            "election": null,
            "id": 69,
            "name": "Niagara Falls"
          }
        ],
        "pollDivisionIds": [
          10143905
        ],
        "postalCode": "L2A4V9",
        "streetName": "LAKEVIEW",
        "streetDirectionId": null,
        "streetTypeId": "RD",
        "placeName": "FORT ERIE",
        "streetNameDisplayText": "LAKEVIEW RD, FORT ERIE"
      }
    ]
  },
  {
    "postal": "L2A9W4",
    "result": []
  },
  {
    "postal": "L2A3T4",
    "result": [
      {
        "electoralDistricts": [
          {
            "election": null,
            "id": 69,
            "name": "Niagara Falls"
          }
        ],
        "pollDivisionIds": [
          10140015
        ],
        "postalCode": "L2A3T4",
        "streetName": "CENTRAL",
        "streetDirectionId": null,
        "streetTypeId": "AVE",
        "placeName": "FORT ERIE",
        "streetNameDisplayText": "CENTRAL AVE, FORT ERIE"
      }
    ]
  },
  {
    "postal": "L2A5C7",
    "result": [
      {
        "electoralDistricts": [
          {
            "election": null,
            "id": 69,
            "name": "Niagara Falls"
          }
        ],
        "pollDivisionIds": [
          10143905
        ],
        "postalCode": "L2A5C7",
        "streetName": "FERNDALE",
        "streetDirectionId": null,
        "streetTypeId": "AVE",
        "placeName": "FORT ERIE",
        "streetNameDisplayText": "FERNDALE AVE, FORT ERIE"
      }
    ]
  },
  {
    "postal": "L2A3Y1",
    "result": [
      {
        "electoralDistricts": [
          {
            "election": null,
            "id": 69,
            "name": "Niagara Falls"
          }
        ],
        "pollDivisionIds": [
          10140015
        ],
        "postalCode": "L2A3Y1",
        "streetName": "PHYLLIS",
        "streetDirectionId": null,
        "streetTypeId": "ST",
        "placeName": "FORT ERIE",
        "streetNameDisplayText": "PHYLLIS ST, FORT ERIE"
      }
    ]
  },
  {
    "postal": "L2A5V0",
    "result": []
  },
  {
    "postal": "L2A8G8",
    "result": []
  },
  {
    "postal": "L2A8B1",
    "result": []
  },
  {
    "postal": "L2A4P5",
    "result": [
      {
        "electoralDistricts": [
          {
            "election": null,
            "id": 69,
            "name": "Niagara Falls"
          }
        ],
        "pollDivisionIds": [
          10143905
        ],
        "postalCode": "L2A4P5",
        "streetName": "CRESCENT",
        "streetDirectionId": null,
        "streetTypeId": "RD",
        "placeName": "FORT ERIE",
        "streetNameDisplayText": "CRESCENT RD, FORT ERIE"
      }
    ]
  },
  {
    "postal": "L2A7B2",
    "result": []
  },
  {
    "postal": "L2A0R2",
    "result": []
  },
  {
    "postal": "L2A4M4",
    "result": [
      {
        "electoralDistricts": [
          {
            "election": null,
            "id": 69,
            "name": "Niagara Falls"
          }
        ],
        "pollDivisionIds": [
          10140021
        ],
        "postalCode": "L2A4M4",
        "streetName": "KRAFT",
        "streetDirectionId": null,
        "streetTypeId": "RD",
        "placeName": "FORT ERIE",
        "streetNameDisplayText": "KRAFT RD, FORT ERIE"
      }
    ]
  },
  {
    "postal": "L2A7M4",
    "result": []
  },
  {
    "postal": "L2A9S7",
    "result": []
  },
  {
    "postal": "L2A5Z7",
    "result": [
      {
        "electoralDistricts": [
          {
            "election": null,
            "id": 69,
            "name": "Niagara Falls"
          }
        ],
        "pollDivisionIds": [
          10140021
        ],
        "postalCode": "L2A5Z7",
        "streetName": "HELENA",
        "streetDirectionId": null,
        "streetTypeId": "ST",
        "placeName": "FORT ERIE",
        "streetNameDisplayText": "HELENA ST, FORT ERIE"
      }
    ]
  },
  {
    "postal": "L2A7J7",
    "result": []
  },
  {
    "postal": "L2A8R8",
    "result": []
  },
  {
    "postal": "L2A9X1",
    "result": []
  },
  {
    "postal": "L2A5M9",
    "result": []
  },
  {
    "postal": "L2A9B4",
    "result": []
  },
  {
    "postal": "L2A0L9",
    "result": []
  },
  {
    "postal": "L2A9G4",
    "result": []
  },
  {
    "postal": "L2A1J4",
    "result": [
      {
        "electoralDistricts": [
          {
            "election": null,
            "id": 69,
            "name": "Niagara Falls"
          }
        ],
        "pollDivisionIds": [
          10143905
        ],
        "postalCode": "L2A1J4",
        "streetName": "DOMINION",
        "streetDirectionId": null,
        "streetTypeId": "RD",
        "placeName": "FORT ERIE",
        "streetNameDisplayText": "DOMINION RD, FORT ERIE"
      }
    ]
  },
  {
    "postal": "L2A0W6",
    "result": []
  }
]
