[
  {
    "postal": "L1B9J6",
    "result": []
  },
  {
    "postal": "L1B9Z5",
    "result": []
  },
  {
    "postal": "L1B7H8",
    "result": []
  },
  {
    "postal": "L1B0P6",
    "result": []
  },
  {
    "postal": "L1B0S7",
    "result": [
      {
        "electoralDistricts": [
          {
            "election": null,
            "id": 73,
            "name": "Northumberland—Peterborough South"
          }
        ],
        "pollDivisionIds": [
          10140291
        ],
        "postalCode": "L1B0S7",
        "streetName": "MORGANS",
        "streetDirectionId": null,
        "streetTypeId": "RD",
        "placeName": "NEWCASTLE",
        "streetNameDisplayText": "MORGANS RD, NEWCASTLE"
      }
    ]
  },
  {
    "postal": "L1B8B9",
    "result": []
  },
  {
    "postal": "L1B2A6",
    "result": []
  },
  {
    "postal": "L1B7V2",
    "result": []
  },
  {
    "postal": "L1B9P4",
    "result": []
  },
  {
    "postal": "L1B6G0",
    "result": []
  },
  {
    "postal": "L1B2K0",
    "result": []
  },
  {
    "postal": "L1B7N6",
    "result": []
  },
  {
    "postal": "L1B5R3",
    "result": []
  },
  {
    "postal": "L1B7K0",
    "result": []
  },
  {
    "postal": "L1B3R2",
    "result": []
  },
  {
    "postal": "L1B0J1",
    "result": [
      {
        "electoralDistricts": [
          {
            "election": null,
            "id": 73,
            "name": "Northumberland—Peterborough South"
          }
        ],
        "pollDivisionIds": [
          10140287
        ],
        "postalCode": "L1B0J1",
        "streetName": "MILL",
        "streetDirectionId": "S",
        "streetTypeId": "ST",
        "placeName": "NEWCASTLE",
        "streetNameDisplayText": "MILL ST S, NEWCASTLE"
      }
    ]
  },
  {
    "postal": "L1B0B0",
    "result": []
  },
  {
    "postal": "L1B5Z2",
    "result": []
  },
  {
    "postal": "L1B7P3",
    "result": []
  },
  {
    "postal": "L1B2K3",
    "result": []
  },
  {
    "postal": "L1B7Y6",
    "result": []
  },
  {
    "postal": "L1B1L9",
    "result": [
      {
        "electoralDistricts": [
          {
            "election": null,
            "id": 73,
            "name": "Northumberland—Peterborough South"
          }
        ],
        "pollDivisionIds": [
          10140291
        ],
        "postalCode": "L1B1L9",
        "streetName": "# 2",
        "streetDirectionId": null,
        "streetTypeId": "HWY",
        "placeName": "NEWCASTLE",
        "streetNameDisplayText": "# 2 HWY, NEWCASTLE"
      },
      {
        "electoralDistricts": [
          {
            "election": null,
            "id": 73,
            "name": "Northumberland—Peterborough South"
          }
        ],
        "pollDivisionIds": [
          10140290,
          10140291,
          10140287
        ],
        "postalCode": "L1B1L9",
        "streetName": "2",
        "streetDirectionId": null,
        "streetTypeId": "HWY",
        "placeName": "NEWCASTLE",
        "streetNameDisplayText": "2 HWY, NEWCASTLE"
      },
      {
        "electoralDistricts": [
          {
            "election": null,
            "id": 73,
            "name": "Northumberland—Peterborough South"
          }
        ],
        "pollDivisionIds": [
          10140290
        ],
        "postalCode": "L1B1L9",
        "streetName": "35+115",
        "streetDirectionId": null,
        "streetTypeId": "HWY",
        "placeName": "NEWCASTLE",
        "streetNameDisplayText": "35+115 HWY, NEWCASTLE"
      },
      {
        "electoralDistricts": [
          {
            "election": null,
            "id": 73,
            "name": "Northumberland—Peterborough South"
          }
        ],
        "pollDivisionIds": [
          10140290
        ],
        "postalCode": "L1B1L9",
        "streetName": "35+115",
        "streetDirectionId": null,
        "streetTypeId": "HWY",
        "placeName": "ORONO",
        "streetNameDisplayText": "35+115 HWY, ORONO"
      },
      {
        "electoralDistricts": [
          {
            "election": null,
            "id": 73,
            "name": "Northumberland—Peterborough South"
          }
        ],
        "pollDivisionIds": [
          10140286
        ],
        "postalCode": "L1B1L9",
        "streetName": "BELLAMY",
        "streetDirectionId": null,
        "streetTypeId": "RD",
        "placeName": "NEWCASTLE",
        "streetNameDisplayText": "BELLAMY RD, NEWCASTLE"
      },
      {
        "electoralDistricts": [
          {
            "election": null,
            "id": 73,
            "name": "Northumberland—Peterborough South"
          }
        ],
        "pollDivisionIds": [
          10140286
        ],
        "postalCode": "L1B1L9",
        "streetName": "BOULTON",
        "streetDirectionId": null,
        "streetTypeId": "ST",
        "placeName": "NEWCASTLE",
        "streetNameDisplayText": "BOULTON ST, NEWCASTLE"
      },
      {
        "electoralDistricts": [
          {
            "election": null,
            "id": 73,
            "name": "Northumberland—Peterborough South"
          }
        ],
        "pollDivisionIds": [
          10140291
        ],
        "postalCode": "L1B1L9",
        "streetName": "BROWNSVILLE",
        "streetDirectionId": null,
        "streetTypeId": "RD",
        "placeName": "NEWCASTLE",
        "streetNameDisplayText": "BROWNSVILLE RD, NEWCASTLE"
      },
      {
        "electoralDistricts": [
          {
            "election": null,
            "id": 73,
            "name": "Northumberland—Peterborough South"
          }
        ],
        "pollDivisionIds": [
          10140294
        ],
        "postalCode": "L1B1L9",
        "streetName": "COBBLEDICK",
        "streetDirectionId": null,
        "streetTypeId": "ST",
        "placeName": "ORONO",
        "streetNameDisplayText": "COBBLEDICK ST, ORONO"
      },
      {
        "electoralDistricts": [
          {
            "election": null,
            "id": 73,
            "name": "Northumberland—Peterborough South"
          }
        ],
        "pollDivisionIds": [
          10140286
        ],
        "postalCode": "L1B1L9",
        "streetName": "CONCESSION 1",
        "streetDirectionId": null,
        "streetTypeId": "RD",
        "placeName": "NEWCASTLE",
        "streetNameDisplayText": "CONCESSION 1 RD, NEWCASTLE"
      },
      {
        "electoralDistricts": [
          {
            "election": null,
            "id": 73,
            "name": "Northumberland—Peterborough South"
          }
        ],
        "pollDivisionIds": [
          10140292
        ],
        "postalCode": "L1B1L9",
        "streetName": "CONCESSION 1",
        "streetDirectionId": null,
        "streetTypeId": "RD",
        "placeName": "NEWTONVILLE",
        "streetNameDisplayText": "CONCESSION 1 RD, NEWTONVILLE"
      },
      {
        "electoralDistricts": [
          {
            "election": null,
            "id": 73,
            "name": "Northumberland—Peterborough South"
          }
        ],
        "pollDivisionIds": [
          10140286
        ],
        "postalCode": "L1B1L9",
        "streetName": "CONCESSION 1",
        "streetDirectionId": null,
        "streetTypeId": null,
        "placeName": "NEWCASTLE",
        "streetNameDisplayText": "CONCESSION 1, NEWCASTLE"
      },
      {
        "electoralDistricts": [
          {
            "election": null,
            "id": 24,
            "name": "Durham"
          }
        ],
        "pollDivisionIds": [
          10137835
        ],
        "postalCode": "L1B1L9",
        "streetName": "CONCESSION 10",
        "streetDirectionId": null,
        "streetTypeId": "RD",
        "placeName": "HAMPTON",
        "streetNameDisplayText": "CONCESSION 10 RD, HAMPTON"
      },
      {
        "electoralDistricts": [
          {
            "election": null,
            "id": 73,
            "name": "Northumberland—Peterborough South"
          }
        ],
        "pollDivisionIds": [
          10140298
        ],
        "postalCode": "L1B1L9",
        "streetName": "CONCESSION 10",
        "streetDirectionId": null,
        "streetTypeId": "RD",
        "placeName": "ORONO",
        "streetNameDisplayText": "CONCESSION 10 RD, ORONO"
      },
      {
        "electoralDistricts": [
          {
            "election": null,
            "id": 73,
            "name": "Northumberland—Peterborough South"
          }
        ],
        "pollDivisionIds": [
          10140291
        ],
        "postalCode": "L1B1L9",
        "streetName": "CONCESSION 2",
        "streetDirectionId": null,
        "streetTypeId": "RD",
        "placeName": "NEWCASTLE",
        "streetNameDisplayText": "CONCESSION 2 RD, NEWCASTLE"
      },
      {
        "electoralDistricts": [
          {
            "election": null,
            "id": 73,
            "name": "Northumberland—Peterborough South"
          }
        ],
        "pollDivisionIds": [
          10140291,
          10140290
        ],
        "postalCode": "L1B1L9",
        "streetName": "CONCESSION 3",
        "streetDirectionId": null,
        "streetTypeId": "RD",
        "placeName": "NEWCASTLE",
        "streetNameDisplayText": "CONCESSION 3 RD, NEWCASTLE"
      },
      {
        "electoralDistricts": [
          {
            "election": null,
            "id": 73,
            "name": "Northumberland—Peterborough South"
          }
        ],
        "pollDivisionIds": [
          10140292
        ],
        "postalCode": "L1B1L9",
        "streetName": "CONCESSION 3",
        "streetDirectionId": null,
        "streetTypeId": "RD",
        "placeName": "NEWTONVILLE",
        "streetNameDisplayText": "CONCESSION 3 RD, NEWTONVILLE"
      },
      {
        "electoralDistricts": [
          {
            "election": null,
            "id": 73,
            "name": "Northumberland—Peterborough South"
          }
        ],
        "pollDivisionIds": [
          10140290
        ],
        "postalCode": "L1B1L9",
        "streetName": "CONCESSION 3",
        "streetDirectionId": null,
        "streetTypeId": null,
        "placeName": "NEWCASTLE",
        "streetNameDisplayText": "CONCESSION 3, NEWCASTLE"
      },
      {
        "electoralDistricts": [
          {
            "election": null,
            "id": 24,
            "name": "Durham"
          }
        ],
        "pollDivisionIds": [
          10137860,
          10137836
        ],
        "postalCode": "L1B1L9",
        "streetName": "CONCESSION 4",
        "streetDirectionId": null,
        "streetTypeId": "RD",
        "placeName": "BOWMANVILLE",
        "streetNameDisplayText": "CONCESSION 4 RD, BOWMANVILLE"
      },
      {
        "electoralDistricts": [
          {
            "election": null,
            "id": 73,
            "name": "Northumberland—Peterborough South"
          }
        ],
        "pollDivisionIds": [
          10140292
        ],
        "postalCode": "L1B1L9",
        "streetName": "CONCESSION 4",
        "streetDirectionId": null,
        "streetTypeId": "RD",
        "placeName": "NEWTONVILLE",
        "streetNameDisplayText": "CONCESSION 4 RD, NEWTONVILLE"
      },
      {
        "electoralDistricts": [
          {
            "election": null,
            "id": 73,
            "name": "Northumberland—Peterborough South"
          }
        ],
        "pollDivisionIds": [
          10140293,
          10140291,
          10140292,
          10140290
        ],
        "postalCode": "L1B1L9",
        "streetName": "CONCESSION 4",
        "streetDirectionId": null,
        "streetTypeId": "RD",
        "placeName": "ORONO",
        "streetNameDisplayText": "CONCESSION 4 RD, ORONO"
      },
      {
        "electoralDistricts": [
          {
            "election": null,
            "id": 73,
            "name": "Northumberland—Peterborough South"
          }
        ],
        "pollDivisionIds": [
          10140292
        ],
        "postalCode": "L1B1L9",
        "streetName": "CONCESSION 5",
        "streetDirectionId": null,
        "streetTypeId": "RD",
        "placeName": "NEWTONVILLE",
        "streetNameDisplayText": "CONCESSION 5 RD, NEWTONVILLE"
      },
      {
        "electoralDistricts": [
          {
            "election": null,
            "id": 73,
            "name": "Northumberland—Peterborough South"
          }
        ],
        "pollDivisionIds": [
          10140292,
          10140294,
          10140293,
          10140297
        ],
        "postalCode": "L1B1L9",
        "streetName": "CONCESSION 5",
        "streetDirectionId": null,
        "streetTypeId": "RD",
        "placeName": "ORONO",
        "streetNameDisplayText": "CONCESSION 5 RD, ORONO"
      },
      {
        "electoralDistricts": [
          {
            "election": null,
            "id": 24,
            "name": "Durham"
          }
        ],
        "pollDivisionIds": [
          10137836,
          10137834
        ],
        "postalCode": "L1B1L9",
        "streetName": "CONCESSION 6",
        "streetDirectionId": null,
        "streetTypeId": "RD",
        "placeName": "BOWMANVILLE",
        "streetNameDisplayText": "CONCESSION 6 RD, BOWMANVILLE"
      },
      {
        "electoralDistricts": [
          {
            "election": null,
            "id": 24,
            "name": "Durham"
          }
        ],
        "pollDivisionIds": [
          10137834
        ],
        "postalCode": "L1B1L9",
        "streetName": "CONCESSION 6",
        "streetDirectionId": null,
        "streetTypeId": "RD",
        "placeName": "HAMPTON",
        "streetNameDisplayText": "CONCESSION 6 RD, HAMPTON"
      },
      {
        "electoralDistricts": [
          {
            "election": null,
            "id": 73,
            "name": "Northumberland—Peterborough South"
          }
        ],
        "pollDivisionIds": [
          10140297,
          10140293,
          10140292
        ],
        "postalCode": "L1B1L9",
        "streetName": "CONCESSION 6",
        "streetDirectionId": null,
        "streetTypeId": "RD",
        "placeName": "KENDAL",
        "streetNameDisplayText": "CONCESSION 6 RD, KENDAL"
      },
      {
        "electoralDistricts": [
          {
            "election": null,
            "id": 73,
            "name": "Northumberland—Peterborough South"
          }
        ],
        "pollDivisionIds": [
          10140292
        ],
        "postalCode": "L1B1L9",
        "streetName": "CONCESSION 6",
        "streetDirectionId": null,
        "streetTypeId": "RD",
        "placeName": "NEWTONVILLE",
        "streetNameDisplayText": "CONCESSION 6 RD, NEWTONVILLE"
      },
      {
        "electoralDistricts": [
          {
            "election": null,
            "id": 73,
            "name": "Northumberland—Peterborough South"
          }
        ],
        "pollDivisionIds": [
          10140297,
          10140294,
          10140293,
          10140292
        ],
        "postalCode": "L1B1L9",
        "streetName": "CONCESSION 6",
        "streetDirectionId": null,
        "streetTypeId": "RD",
        "placeName": "ORONO",
        "streetNameDisplayText": "CONCESSION 6 RD, ORONO"
      },
      {
        "electoralDistricts": [
          {
            "election": null,
            "id": 24,
            "name": "Durham"
          }
        ],
        "pollDivisionIds": [
          10137835
        ],
        "postalCode": "L1B1L9",
        "streetName": "CONCESSION 7",
        "streetDirectionId": null,
        "streetTypeId": "RD",
        "placeName": "BOWMANVILLE",
        "streetNameDisplayText": "CONCESSION 7 RD, BOWMANVILLE"
      },
      {
        "electoralDistricts": [
          {
            "election": null,
            "id": 73,
            "name": "Northumberland—Peterborough South"
          }
        ],
        "pollDivisionIds": [
          10140298,
          10140297
        ],
        "postalCode": "L1B1L9",
        "streetName": "CONCESSION 7",
        "streetDirectionId": null,
        "streetTypeId": "RD",
        "placeName": "ORONO",
        "streetNameDisplayText": "CONCESSION 7 RD, ORONO"
      },
      {
        "electoralDistricts": [
          {
            "election": null,
            "id": 24,
            "name": "Durham"
          }
        ],
        "pollDivisionIds": [
          10137835
        ],
        "postalCode": "L1B1L9",
        "streetName": "CONCESSION 8",
        "streetDirectionId": null,
        "streetTypeId": "RD",
        "placeName": "BOWMANVILLE",
        "streetNameDisplayText": "CONCESSION 8 RD, BOWMANVILLE"
      },
      {
        "electoralDistricts": [
          {
            "election": null,
            "id": 73,
            "name": "Northumberland—Peterborough South"
          }
        ],
        "pollDivisionIds": [
          10140292
        ],
        "postalCode": "L1B1L9",
        "streetName": "CONCESSION 8",
        "streetDirectionId": null,
        "streetTypeId": "RD",
        "placeName": "KENDAL",
        "streetNameDisplayText": "CONCESSION 8 RD, KENDAL"
      },
      {
        "electoralDistricts": [
          {
            "election": null,
            "id": 73,
            "name": "Northumberland—Peterborough South"
          }
        ],
        "pollDivisionIds": [
          10140292,
          10140298
        ],
        "postalCode": "L1B1L9",
        "streetName": "CONCESSION 8",
        "streetDirectionId": null,
        "streetTypeId": "RD",
        "placeName": "ORONO",
        "streetNameDisplayText": "CONCESSION 8 RD, ORONO"
      },
      {
        "electoralDistricts": [
          {
            "election": null,
            "id": 24,
            "name": "Durham"
          }
        ],
        "pollDivisionIds": [
          10137835
        ],
        "postalCode": "L1B1L9",
        "streetName": "CONCESSION 9",
        "streetDirectionId": null,
        "streetTypeId": "RD",
        "placeName": "BLACKSTOCK",
        "streetNameDisplayText": "CONCESSION 9 RD, BLACKSTOCK"
      },
      {
        "electoralDistricts": [
          {
            "election": null,
            "id": 73,
            "name": "Northumberland—Peterborough South"
          }
        ],
        "pollDivisionIds": [
          10140287
        ],
        "postalCode": "L1B1L9",
        "streetName": "CONCESSION ROAD 3",
        "streetDirectionId": null,
        "streetTypeId": null,
        "placeName": "NEWCASTLE",
        "streetNameDisplayText": "CONCESSION ROAD 3, NEWCASTLE"
      },
      {
        "electoralDistricts": [
          {
            "election": null,
            "id": 73,
            "name": "Northumberland—Peterborough South"
          }
        ],
        "pollDivisionIds": [
          10140291
        ],
        "postalCode": "L1B1L9",
        "streetName": "COWANVILLE",
        "streetDirectionId": null,
        "streetTypeId": "RD",
        "placeName": "NEWCASTLE",
        "streetNameDisplayText": "COWANVILLE RD, NEWCASTLE"
      },
      {
        "electoralDistricts": [
          {
            "election": null,
            "id": 73,
            "name": "Northumberland—Peterborough South"
          }
        ],
        "pollDivisionIds": [
          10140285
        ],
        "postalCode": "L1B1L9",
        "streetName": "EAST TOWNLINE",
        "streetDirectionId": null,
        "streetTypeId": "RD",
        "placeName": "NEWCASTLE",
        "streetNameDisplayText": "EAST TOWNLINE RD, NEWCASTLE"
      },
      {
        "electoralDistricts": [
          {
            "election": null,
            "id": 73,
            "name": "Northumberland—Peterborough South"
          }
        ],
        "pollDivisionIds": [
          10140286
        ],
        "postalCode": "L1B1L9",
        "streetName": "ELLIOTT",
        "streetDirectionId": null,
        "streetTypeId": "RD",
        "placeName": "NEWCASTLE",
        "streetNameDisplayText": "ELLIOTT RD, NEWCASTLE"
      },
      {
        "electoralDistricts": [
          {
            "election": null,
            "id": 73,
            "name": "Northumberland—Peterborough South"
          }
        ],
        "pollDivisionIds": [
          10140291
        ],
        "postalCode": "L1B1L9",
        "streetName": "GOLF COURSE",
        "streetDirectionId": null,
        "streetTypeId": "RD",
        "placeName": "NEWCASTLE",
        "streetNameDisplayText": "GOLF COURSE RD, NEWCASTLE"
      },
      {
        "electoralDistricts": [
          {
            "election": null,
            "id": 73,
            "name": "Northumberland—Peterborough South"
          }
        ],
        "pollDivisionIds": [
          10140292,
          10140290,
          10140291
        ],
        "postalCode": "L1B1L9",
        "streetName": "HWY 2",
        "streetDirectionId": null,
        "streetTypeId": null,
        "placeName": "NEWCASTLE",
        "streetNameDisplayText": "HWY 2, NEWCASTLE"
      },
      {
        "electoralDistricts": [
          {
            "election": null,
            "id": 73,
            "name": "Northumberland—Peterborough South"
          }
        ],
        "pollDivisionIds": [
          10140285,
          10140286
        ],
        "postalCode": "L1B1L9",
        "streetName": "LAKESHORE",
        "streetDirectionId": null,
        "streetTypeId": "RD",
        "placeName": "NEWCASTLE",
        "streetNameDisplayText": "LAKESHORE RD, NEWCASTLE"
      },
      {
        "electoralDistricts": [
          {
            "election": null,
            "id": 73,
            "name": "Northumberland—Peterborough South"
          }
        ],
        "pollDivisionIds": [
          10140286
        ],
        "postalCode": "L1B1L9",
        "streetName": "LANCASTER",
        "streetDirectionId": null,
        "streetTypeId": "RD",
        "placeName": "NEWCASTLE",
        "streetNameDisplayText": "LANCASTER RD, NEWCASTLE"
      },
      {
        "electoralDistricts": [
          {
            "election": null,
            "id": 73,
            "name": "Northumberland—Peterborough South"
          }
        ],
        "pollDivisionIds": [
          10140287
        ],
        "postalCode": "L1B1L9",
        "streetName": "LOVEKIN",
        "streetDirectionId": null,
        "streetTypeId": "RD",
        "placeName": "NEWCASTLE",
        "streetNameDisplayText": "LOVEKIN RD, NEWCASTLE"
      },
      {
        "electoralDistricts": [
          {
            "election": null,
            "id": 73,
            "name": "Northumberland—Peterborough South"
          }
        ],
        "pollDivisionIds": [
          10140285
        ],
        "postalCode": "L1B1L9",
        "streetName": "MARYDALE PARK",
        "streetDirectionId": null,
        "streetTypeId": "RD",
        "placeName": "NEWCASTLE",
        "streetNameDisplayText": "MARYDALE PARK RD, NEWCASTLE"
      },
      {
        "electoralDistricts": [
          {
            "election": null,
            "id": 73,
            "name": "Northumberland—Peterborough South"
          }
        ],
        "pollDivisionIds": [
          10140292
        ],
        "postalCode": "L1B1L9",
        "streetName": "MCMILLAN",
        "streetDirectionId": null,
        "streetTypeId": "RD",
        "placeName": "KENDAL",
        "streetNameDisplayText": "MCMILLAN RD, KENDAL"
      },
      {
        "electoralDistricts": [
          {
            "election": null,
            "id": 73,
            "name": "Northumberland—Peterborough South"
          }
        ],
        "pollDivisionIds": [
          10140290
        ],
        "postalCode": "L1B1L9",
        "streetName": "MOFFAT",
        "streetDirectionId": null,
        "streetTypeId": "RD",
        "placeName": "NEWCASTLE",
        "streetNameDisplayText": "MOFFAT RD, NEWCASTLE"
      },
      {
        "electoralDistricts": [
          {
            "election": null,
            "id": 73,
            "name": "Northumberland—Peterborough South"
          }
        ],
        "pollDivisionIds": [
          10140286
        ],
        "postalCode": "L1B1L9",
        "streetName": "MORGANS",
        "streetDirectionId": null,
        "streetTypeId": "RD",
        "placeName": "NEWCASTLE",
        "streetNameDisplayText": "MORGANS RD, NEWCASTLE"
      },
      {
        "electoralDistricts": [
          {
            "election": null,
            "id": 73,
            "name": "Northumberland—Peterborough South"
          }
        ],
        "pollDivisionIds": [
          10140292,
          10140291
        ],
        "postalCode": "L1B1L9",
        "streetName": "MORGANS",
        "streetDirectionId": null,
        "streetTypeId": "RD",
        "placeName": "ORONO",
        "streetNameDisplayText": "MORGANS RD, ORONO"
      },
      {
        "electoralDistricts": [
          {
            "election": null,
            "id": 73,
            "name": "Northumberland—Peterborough South"
          }
        ],
        "pollDivisionIds": [
          10140286
        ],
        "postalCode": "L1B1L9",
        "streetName": "NEWTONVILLE",
        "streetDirectionId": null,
        "streetTypeId": "RD",
        "placeName": "NEWCASTLE",
        "streetNameDisplayText": "NEWTONVILLE RD, NEWCASTLE"
      },
      {
        "electoralDistricts": [
          {
            "election": null,
            "id": 73,
            "name": "Northumberland—Peterborough South"
          }
        ],
        "pollDivisionIds": [
          10140286
        ],
        "postalCode": "L1B1L9",
        "streetName": "NICHOLLS",
        "streetDirectionId": null,
        "streetTypeId": "RD",
        "placeName": "NEWCASTLE",
        "streetNameDisplayText": "NICHOLLS RD, NEWCASTLE"
      },
      {
        "electoralDistricts": [
          {
            "election": null,
            "id": 73,
            "name": "Northumberland—Peterborough South"
          }
        ],
        "pollDivisionIds": [
          10140290
        ],
        "postalCode": "L1B1L9",
        "streetName": "NORTH",
        "streetDirectionId": null,
        "streetTypeId": "ST",
        "placeName": "NEWCASTLE",
        "streetNameDisplayText": "NORTH ST, NEWCASTLE"
      },
      {
        "electoralDistricts": [
          {
            "election": null,
            "id": 73,
            "name": "Northumberland—Peterborough South"
          }
        ],
        "pollDivisionIds": [
          10140294
        ],
        "postalCode": "L1B1L9",
        "streetName": "PARK",
        "streetDirectionId": null,
        "streetTypeId": "ST",
        "placeName": "ORONO",
        "streetNameDisplayText": "PARK ST, ORONO"
      },
      {
        "electoralDistricts": [
          {
            "election": null,
            "id": 73,
            "name": "Northumberland—Peterborough South"
          }
        ],
        "pollDivisionIds": [
          10140290
        ],
        "postalCode": "L1B1L9",
        "streetName": "REG RD 17",
        "streetDirectionId": null,
        "streetTypeId": null,
        "placeName": "NEWCASTLE",
        "streetNameDisplayText": "REG RD 17, NEWCASTLE"
      },
      {
        "electoralDistricts": [
          {
            "election": null,
            "id": 73,
            "name": "Northumberland—Peterborough South"
          }
        ],
        "pollDivisionIds": [
          10140290
        ],
        "postalCode": "L1B1L9",
        "streetName": "REGIONAL 42",
        "streetDirectionId": null,
        "streetTypeId": "RD",
        "placeName": "NEWCASTLE",
        "streetNameDisplayText": "REGIONAL 42 RD, NEWCASTLE"
      },
      {
        "electoralDistricts": [
          {
            "election": null,
            "id": 73,
            "name": "Northumberland—Peterborough South"
          }
        ],
        "pollDivisionIds": [
          10140225
        ],
        "postalCode": "L1B1L9",
        "streetName": "REGIONAL",
        "streetDirectionId": null,
        "streetTypeId": "RD",
        "placeName": "NEWCASTLE",
        "streetNameDisplayText": "REGIONAL RD, NEWCASTLE"
      },
      {
        "electoralDistricts": [
          {
            "election": null,
            "id": 73,
            "name": "Northumberland—Peterborough South"
          }
        ],
        "pollDivisionIds": [
          10140290
        ],
        "postalCode": "L1B1L9",
        "streetName": "REGIONAL ROAD 17",
        "streetDirectionId": null,
        "streetTypeId": null,
        "placeName": "NEWCASTLE",
        "streetNameDisplayText": "REGIONAL ROAD 17, NEWCASTLE"
      },
      {
        "electoralDistricts": [
          {
            "election": null,
            "id": 73,
            "name": "Northumberland—Peterborough South"
          }
        ],
        "pollDivisionIds": [
          10140286
        ],
        "postalCode": "L1B1L9",
        "streetName": "REGIONAL ROAD 18",
        "streetDirectionId": null,
        "streetTypeId": null,
        "placeName": "NEWCASTLE",
        "streetNameDisplayText": "REGIONAL ROAD 18, NEWCASTLE"
      },
      {
        "electoralDistricts": [
          {
            "election": null,
            "id": 73,
            "name": "Northumberland—Peterborough South"
          }
        ],
        "pollDivisionIds": [
          10140292
        ],
        "postalCode": "L1B1L9",
        "streetName": "REID",
        "streetDirectionId": null,
        "streetTypeId": "RD",
        "placeName": "NEWTONVILLE",
        "streetNameDisplayText": "REID RD, NEWTONVILLE"
      },
      {
        "electoralDistricts": [
          {
            "election": null,
            "id": 73,
            "name": "Northumberland—Peterborough South"
          }
        ],
        "pollDivisionIds": [
          10140286
        ],
        "postalCode": "L1B1L9",
        "streetName": "RILEY",
        "streetDirectionId": null,
        "streetTypeId": "RD",
        "placeName": "NEWCASTLE",
        "streetNameDisplayText": "RILEY RD, NEWCASTLE"
      },
      {
        "electoralDistricts": [
          {
            "election": null,
            "id": 73,
            "name": "Northumberland—Peterborough South"
          }
        ],
        "pollDivisionIds": [
          10140292
        ],
        "postalCode": "L1B1L9",
        "streetName": "STAPLETON",
        "streetDirectionId": null,
        "streetTypeId": "RD",
        "placeName": "NEWCASTLE",
        "streetNameDisplayText": "STAPLETON RD, NEWCASTLE"
      },
      {
        "electoralDistricts": [
          {
            "election": null,
            "id": 73,
            "name": "Northumberland—Peterborough South"
          }
        ],
        "pollDivisionIds": [
          10140291,
          10140286
        ],
        "postalCode": "L1B1L9",
        "streetName": "STEPHENSON",
        "streetDirectionId": null,
        "streetTypeId": "RD",
        "placeName": "NEWCASTLE",
        "streetNameDisplayText": "STEPHENSON RD, NEWCASTLE"
      },
      {
        "electoralDistricts": [
          {
            "election": null,
            "id": 73,
            "name": "Northumberland—Peterborough South"
          }
        ],
        "pollDivisionIds": [
          10140279,
          10140285
        ],
        "postalCode": "L1B1L9",
        "streetName": "TOWNLINE",
        "streetDirectionId": "E",
        "streetTypeId": "RD",
        "placeName": "NEWCASTLE",
        "streetNameDisplayText": "TOWNLINE RD E, NEWCASTLE"
      }
    ]
  },
  {
    "postal": "L1B8T0",
    "result": []
  },
  {
    "postal": "L1B3K8",
    "result": []
  },
  {
    "postal": "L1B5W9",
    "result": []
  },
  {
    "postal": "L1B6T9",
    "result": []
  },
  {
    "postal": "L1B4H1",
    "result": []
  },
  {
    "postal": "L1B7A2",
    "result": []
  },
  {
    "postal": "L1B5G0",
    "result": []
  },
  {
    "postal": "L1B8V5",
    "result": []
  },
  {
    "postal": "L1B2Y8",
    "result": []
  },
  {
    "postal": "L1B2B6",
    "result": []
  },
  {
    "postal": "L1B4W8",
    "result": []
  },
  {
    "postal": "L1B8H7",
    "result": []
  },
  {
    "postal": "L1B5P1",
    "result": []
  },
  {
    "postal": "L1B2B8",
    "result": []
  },
  {
    "postal": "L1B0P2",
    "result": []
  },
  {
    "postal": "L1B9M1",
    "result": []
  },
  {
    "postal": "L1B3G0",
    "result": []
  },
  {
    "postal": "L1B9Z2",
    "result": []
  },
  {
    "postal": "L1B2A0",
    "result": []
  },
  {
    "postal": "L1B6Y0",
    "result": []
  },
  {
    "postal": "L1B2Z8",
    "result": []
  },
  {
    "postal": "L1B7Y3",
    "result": []
  },
  {
    "postal": "L1B6Z5",
    "result": []
  },
  {
    "postal": "L1B6E0",
    "result": []
  },
  {
    "postal": "L1B9B7",
    "result": []
  },
  {
    "postal": "L1B9S5",
    "result": []
  },
  {
    "postal": "L1B3X3",
    "result": []
  },
  {
    "postal": "L1B7R5",
    "result": []
  },
  {
    "postal": "L1B2X3",
    "result": []
  },
  {
    "postal": "L1B8Z9",
    "result": []
  },
  {
    "postal": "L1B0N4",
    "result": [
      {
        "electoralDistricts": [
          {
            "election": null,
            "id": 73,
            "name": "Northumberland—Peterborough South"
          }
        ],
        "pollDivisionIds": [
          10140291
        ],
        "postalCode": "L1B0N4",
        "streetName": "COWANVILLE",
        "streetDirectionId": null,
        "streetTypeId": "RD",
        "placeName": "NEWCASTLE",
        "streetNameDisplayText": "COWANVILLE RD, NEWCASTLE"
      }
    ]
  },
  {
    "postal": "L1B1K1",
    "result": [
      {
        "electoralDistricts": [
          {
            "election": null,
            "id": 73,
            "name": "Northumberland—Peterborough South"
          }
        ],
        "pollDivisionIds": [
          10140289
        ],
        "postalCode": "L1B1K1",
        "streetName": "ANDREW",
        "streetDirectionId": null,
        "streetTypeId": "ST",
        "placeName": "NEWCASTLE",
        "streetNameDisplayText": "ANDREW ST, NEWCASTLE"
      }
    ]
  },
  {
    "postal": "L1B1S3",
    "result": []
  },
  {
    "postal": "L1B6M4",
    "result": []
  },
  {
    "postal": "L1B9A9",
    "result": []
  },
  {
    "postal": "L1B9Z9",
    "result": []
  },
  {
    "postal": "L1B6T4",
    "result": []
  },
  {
    "postal": "L1B0B2",
    "result": [
      {
        "electoralDistricts": [
          {
            "election": null,
            "id": 24,
            "name": "Durham"
          }
        ],
        "pollDivisionIds": [
          10137861
        ],
        "postalCode": "L1B0B2",
        "streetName": "HEATHERLEA",
        "streetDirectionId": null,
        "streetTypeId": "DR",
        "placeName": "NEWCASTLE",
        "streetNameDisplayText": "HEATHERLEA DR, NEWCASTLE"
      },
      {
        "electoralDistricts": [
          {
            "election": null,
            "id": 24,
            "name": "Durham"
          }
        ],
        "pollDivisionIds": [
          10137861
        ],
        "postalCode": "L1B0B2",
        "streetName": "HINKLEY",
        "streetDirectionId": null,
        "streetTypeId": "TRAIL",
        "placeName": "NEWCASTLE",
        "streetNameDisplayText": "HINKLEY TRAIL, NEWCASTLE"
      },
      {
        "electoralDistricts": [
          {
            "election": null,
            "id": 24,
            "name": "Durham"
          }
        ],
        "pollDivisionIds": [
          10137861
        ],
        "postalCode": "L1B0B2",
        "streetName": "KISSINGBRIDGE",
        "streetDirectionId": null,
        "streetTypeId": "LANE",
        "placeName": "NEWCASTLE",
        "streetNameDisplayText": "KISSINGBRIDGE LANE, NEWCASTLE"
      },
      {
        "electoralDistricts": [
          {
            "election": null,
            "id": 24,
            "name": "Durham"
          }
        ],
        "pollDivisionIds": [
          10137861
        ],
        "postalCode": "L1B0B2",
        "streetName": "PARK PLACE",
        "streetDirectionId": null,
        "streetTypeId": "LANE",
        "placeName": "NEWCASTLE",
        "streetNameDisplayText": "PARK PLACE LANE, NEWCASTLE"
      }
    ]
  },
  {
    "postal": "L1B2L9",
    "result": []
  },
  {
    "postal": "L1B8K9",
    "result": []
  },
  {
    "postal": "L1B2H9",
    "result": []
  },
  {
    "postal": "L1B3Z6",
    "result": []
  },
  {
    "postal": "L1B3B0",
    "result": []
  },
  {
    "postal": "L1B2H8",
    "result": []
  },
  {
    "postal": "L1B3X2",
    "result": []
  },
  {
    "postal": "L1B2E9",
    "result": []
  },
  {
    "postal": "L1B9P6",
    "result": []
  },
  {
    "postal": "L1B9E2",
    "result": []
  },
  {
    "postal": "L1B9H2",
    "result": []
  },
  {
    "postal": "L1B1S8",
    "result": []
  },
  {
    "postal": "L1B3M6",
    "result": []
  },
  {
    "postal": "L1B6Z8",
    "result": []
  },
  {
    "postal": "L1B4J2",
    "result": []
  },
  {
    "postal": "L1B9Y1",
    "result": []
  },
  {
    "postal": "L1B8V6",
    "result": []
  },
  {
    "postal": "L1B6B2",
    "result": []
  },
  {
    "postal": "L1B1P8",
    "result": [
      {
        "electoralDistricts": [
          {
            "election": null,
            "id": 73,
            "name": "Northumberland—Peterborough South"
          }
        ],
        "pollDivisionIds": [
          10140286
        ],
        "postalCode": "L1B1P8",
        "streetName": "LAKING",
        "streetDirectionId": null,
        "streetTypeId": "DR",
        "placeName": "NEWCASTLE",
        "streetNameDisplayText": "LAKING DR, NEWCASTLE"
      },
      {
        "electoralDistricts": [
          {
            "election": null,
            "id": 73,
            "name": "Northumberland—Peterborough South"
          }
        ],
        "pollDivisionIds": [
          10140286
        ],
        "postalCode": "L1B1P8",
        "streetName": "RAFTON",
        "streetDirectionId": null,
        "streetTypeId": "ST",
        "placeName": "NEWCASTLE",
        "streetNameDisplayText": "RAFTON ST, NEWCASTLE"
      }
    ]
  },
  {
    "postal": "L1B0V8",
    "result": []
  },
  {
    "postal": "L1B4Y0",
    "result": []
  },
  {
    "postal": "L1B2T4",
    "result": []
  },
  {
    "postal": "L1B2S3",
    "result": []
  },
  {
    "postal": "L1B0K0",
    "result": []
  },
  {
    "postal": "L1B5N1",
    "result": []
  },
  {
    "postal": "L1B7T0",
    "result": []
  },
  {
    "postal": "L1B9N2",
    "result": []
  },
  {
    "postal": "L1B5L1",
    "result": []
  },
  {
    "postal": "L1B7G5",
    "result": []
  },
  {
    "postal": "L1B6K2",
    "result": []
  },
  {
    "postal": "L1B6P9",
    "result": []
  },
  {
    "postal": "L1B0E6",
    "result": [
      {
        "electoralDistricts": [
          {
            "election": null,
            "id": 73,
            "name": "Northumberland—Peterborough South"
          }
        ],
        "pollDivisionIds": [
          10140286
        ],
        "postalCode": "L1B0E6",
        "streetName": "STEPHENSON",
        "streetDirectionId": null,
        "streetTypeId": "RD",
        "placeName": "NEWCASTLE",
        "streetNameDisplayText": "STEPHENSON RD, NEWCASTLE"
      }
    ]
  },
  {
    "postal": "L1B8R9",
    "result": []
  },
  {
    "postal": "L1B3G9",
    "result": []
  },
  {
    "postal": "L1B0V7",
    "result": []
  },
  {
    "postal": "L1B2Z1",
    "result": []
  },
  {
    "postal": "L1B7N1",
    "result": []
  },
  {
    "postal": "L1B3C6",
    "result": []
  },
  {
    "postal": "L1B4M1",
    "result": []
  },
  {
    "postal": "L1B9K2",
    "result": []
  },
  {
    "postal": "L1B9S6",
    "result": []
  },
  {
    "postal": "L1B4X1",
    "result": []
  },
  {
    "postal": "L1B8W2",
    "result": []
  },
  {
    "postal": "L1B7N2",
    "result": []
  },
  {
    "postal": "L1B8S3",
    "result": []
  },
  {
    "postal": "L1B4V0",
    "result": []
  },
  {
    "postal": "L1B6W4",
    "result": []
  },
  {
    "postal": "L1B5M1",
    "result": []
  },
  {
    "postal": "L1B0S4",
    "result": [
      {
        "electoralDistricts": [
          {
            "election": null,
            "id": 73,
            "name": "Northumberland—Peterborough South"
          }
        ],
        "pollDivisionIds": [
          10140290
        ],
        "postalCode": "L1B0S4",
        "streetName": "MOFFAT",
        "streetDirectionId": null,
        "streetTypeId": "RD",
        "placeName": "NEWCASTLE",
        "streetNameDisplayText": "MOFFAT RD, NEWCASTLE"
      }
    ]
  },
  {
    "postal": "L1B5X6",
    "result": []
  },
  {
    "postal": "L1B8L5",
    "result": []
  },
  {
    "postal": "L1B5M8",
    "result": []
  },
  {
    "postal": "L1B2G3",
    "result": []
  },
  {
    "postal": "L1B8E4",
    "result": []
  },
  {
    "postal": "L1B7S9",
    "result": []
  },
  {
    "postal": "L1B1K3",
    "result": [
      {
        "electoralDistricts": [
          {
            "election": null,
            "id": 73,
            "name": "Northumberland—Peterborough South"
          }
        ],
        "pollDivisionIds": [
          10140289
        ],
        "postalCode": "L1B1K3",
        "streetName": "ANDREW",
        "streetDirectionId": null,
        "streetTypeId": "ST",
        "placeName": "NEWCASTLE",
        "streetNameDisplayText": "ANDREW ST, NEWCASTLE"
      }
    ]
  },
  {
    "postal": "L1B4E1",
    "result": []
  },
  {
    "postal": "L1B4R2",
    "result": []
  },
  {
    "postal": "L1B6T0",
    "result": []
  },
  {
    "postal": "L1B3K5",
    "result": []
  },
  {
    "postal": "L1B3S3",
    "result": []
  },
  {
    "postal": "L1B3L4",
    "result": []
  },
  {
    "postal": "L1B9Y2",
    "result": []
  },
  {
    "postal": "L1B1E0",
    "result": []
  },
  {
    "postal": "L1B9A4",
    "result": []
  },
  {
    "postal": "L1B1L3",
    "result": [
      {
        "electoralDistricts": [
          {
            "election": null,
            "id": 73,
            "name": "Northumberland—Peterborough South"
          }
        ],
        "pollDivisionIds": [
          10140287
        ],
        "postalCode": "L1B1L3",
        "streetName": "KING",
        "streetDirectionId": "W",
        "streetTypeId": "AVE",
        "placeName": "NEWCASTLE",
        "streetNameDisplayText": "KING AVE W, NEWCASTLE"
      }
    ]
  },
  {
    "postal": "L1B6N1",
    "result": []
  },
  {
    "postal": "L1B6G7",
    "result": []
  },
  {
    "postal": "L1B7W1",
    "result": []
  },
  {
    "postal": "L1B4M6",
    "result": []
  },
  {
    "postal": "L1B1K0",
    "result": []
  },
  {
    "postal": "L1B3E2",
    "result": []
  },
  {
    "postal": "L1B5H4",
    "result": []
  },
  {
    "postal": "L1B1K7",
    "result": [
      {
        "electoralDistricts": [
          {
            "election": null,
            "id": 73,
            "name": "Northumberland—Peterborough South"
          }
        ],
        "pollDivisionIds": [
          10140286
        ],
        "postalCode": "L1B1K7",
        "streetName": "KING",
        "streetDirectionId": "E",
        "streetTypeId": "AVE",
        "placeName": "BOWMANVILLE",
        "streetNameDisplayText": "KING AVE E, BOWMANVILLE"
      },
      {
        "electoralDistricts": [
          {
            "election": null,
            "id": 73,
            "name": "Northumberland—Peterborough South"
          }
        ],
        "pollDivisionIds": [
          10140286
        ],
        "postalCode": "L1B1K7",
        "streetName": "KING",
        "streetDirectionId": "E",
        "streetTypeId": "AVE",
        "placeName": "NEWCASTLE",
        "streetNameDisplayText": "KING AVE E, NEWCASTLE"
      }
    ]
  },
  {
    "postal": "L1B0H0",
    "result": []
  },
  {
    "postal": "L1B0J3",
    "result": [
      {
        "electoralDistricts": [
          {
            "election": null,
            "id": 73,
            "name": "Northumberland—Peterborough South"
          }
        ],
        "pollDivisionIds": [
          10140286
        ],
        "postalCode": "L1B0J3",
        "streetName": "ELLIOTT",
        "streetDirectionId": null,
        "streetTypeId": "RD",
        "placeName": "NEWCASTLE",
        "streetNameDisplayText": "ELLIOTT RD, NEWCASTLE"
      }
    ]
  },
  {
    "postal": "L1B1X6",
    "result": []
  },
  {
    "postal": "L1B2Z6",
    "result": []
  },
  {
    "postal": "L1B4R9",
    "result": []
  },
  {
    "postal": "L1B0W8",
    "result": []
  },
  {
    "postal": "L1B1L4",
    "result": [
      {
        "electoralDistricts": [
          {
            "election": null,
            "id": 73,
            "name": "Northumberland—Peterborough South"
          }
        ],
        "pollDivisionIds": [
          10140287
        ],
        "postalCode": "L1B1L4",
        "streetName": "MILL",
        "streetDirectionId": "N",
        "streetTypeId": "ST",
        "placeName": "NEWCASTLE",
        "streetNameDisplayText": "MILL ST N, NEWCASTLE"
      }
    ]
  },
  {
    "postal": "L1B0C8",
    "result": [
      {
        "electoralDistricts": [
          {
            "election": null,
            "id": 73,
            "name": "Northumberland—Peterborough South"
          }
        ],
        "pollDivisionIds": [
          10140287
        ],
        "postalCode": "L1B0C8",
        "streetName": "ERSKINE",
        "streetDirectionId": null,
        "streetTypeId": "DR",
        "placeName": "NEWCASTLE",
        "streetNameDisplayText": "ERSKINE DR, NEWCASTLE"
      },
      {
        "electoralDistricts": [
          {
            "election": null,
            "id": 73,
            "name": "Northumberland—Peterborough South"
          }
        ],
        "pollDivisionIds": [
          10140287
        ],
        "postalCode": "L1B0C8",
        "streetName": "THOMAS WOODLOCK",
        "streetDirectionId": null,
        "streetTypeId": "ST",
        "placeName": "NEWCASTLE",
        "streetNameDisplayText": "THOMAS WOODLOCK ST, NEWCASTLE"
      }
    ]
  },
  {
    "postal": "L1B9X7",
    "result": []
  },
  {
    "postal": "L1B4T1",
    "result": []
  },
  {
    "postal": "L1B0M0",
    "result": []
  },
  {
    "postal": "L1B6A2",
    "result": []
  },
  {
    "postal": "L1B9S8",
    "result": []
  },
  {
    "postal": "L1B9T4",
    "result": []
  },
  {
    "postal": "L1B9Y4",
    "result": []
  },
  {
    "postal": "L1B6G5",
    "result": []
  },
  {
    "postal": "L1B6H9",
    "result": []
  },
  {
    "postal": "L1B2P3",
    "result": []
  },
  {
    "postal": "L1B1T6",
    "result": []
  },
  {
    "postal": "L1B4P6",
    "result": []
  },
  {
    "postal": "L1B3K1",
    "result": []
  },
  {
    "postal": "L1B6X4",
    "result": []
  },
  {
    "postal": "L1B4M8",
    "result": []
  },
  {
    "postal": "L1B2Y1",
    "result": []
  },
  {
    "postal": "L1B6M1",
    "result": []
  },
  {
    "postal": "L1B5L8",
    "result": []
  },
  {
    "postal": "L1B3P6",
    "result": []
  },
  {
    "postal": "L1B9A5",
    "result": []
  },
  {
    "postal": "L1B7K1",
    "result": []
  },
  {
    "postal": "L1B3J4",
    "result": []
  },
  {
    "postal": "L1B5E7",
    "result": []
  },
  {
    "postal": "L1B3A7",
    "result": []
  },
  {
    "postal": "L1B1B9",
    "result": [
      {
        "electoralDistricts": [
          {
            "election": null,
            "id": 24,
            "name": "Durham"
          }
        ],
        "pollDivisionIds": [
          10137861
        ],
        "postalCode": "L1B1B9",
        "streetName": "BLUFFS",
        "streetDirectionId": null,
        "streetTypeId": "RD",
        "placeName": "NEWCASTLE",
        "streetNameDisplayText": "BLUFFS RD, NEWCASTLE"
      },
      {
        "electoralDistricts": [
          {
            "election": null,
            "id": 24,
            "name": "Durham"
          }
        ],
        "pollDivisionIds": [
          10137861
        ],
        "postalCode": "L1B1B9",
        "streetName": "CENTRE",
        "streetDirectionId": null,
        "streetTypeId": "CRT",
        "placeName": "NEWCASTLE",
        "streetNameDisplayText": "CENTRE CRT, NEWCASTLE"
      },
      {
        "electoralDistricts": [
          {
            "election": null,
            "id": 73,
            "name": "Northumberland—Peterborough South"
          }
        ],
        "pollDivisionIds": [
          10140294
        ],
        "postalCode": "L1B1B9",
        "streetName": "CENTREVIEW",
        "streetDirectionId": null,
        "streetTypeId": "ST",
        "placeName": "ORONO",
        "streetNameDisplayText": "CENTREVIEW ST, ORONO"
      },
      {
        "electoralDistricts": [
          {
            "election": null,
            "id": 24,
            "name": "Durham"
          }
        ],
        "pollDivisionIds": [
          10137861
        ],
        "postalCode": "L1B1B9",
        "streetName": "KAWARTHA",
        "streetDirectionId": null,
        "streetTypeId": "RD",
        "placeName": "NEWCASTLE",
        "streetNameDisplayText": "KAWARTHA RD, NEWCASTLE"
      },
      {
        "electoralDistricts": [
          {
            "election": null,
            "id": 24,
            "name": "Durham"
          }
        ],
        "pollDivisionIds": [
          10137861
        ],
        "postalCode": "L1B1B9",
        "streetName": "PINERIDGE",
        "streetDirectionId": null,
        "streetTypeId": "CRES",
        "placeName": "NEWCASTLE",
        "streetNameDisplayText": "PINERIDGE CRES, NEWCASTLE"
      },
      {
        "electoralDistricts": [
          {
            "election": null,
            "id": 24,
            "name": "Durham"
          }
        ],
        "pollDivisionIds": [
          10137861
        ],
        "postalCode": "L1B1B9",
        "streetName": "PINERIDGE",
        "streetDirectionId": null,
        "streetTypeId": "CRT",
        "placeName": "NEWCASTLE",
        "streetNameDisplayText": "PINERIDGE CRT, NEWCASTLE"
      },
      {
        "electoralDistricts": [
          {
            "election": null,
            "id": 24,
            "name": "Durham"
          }
        ],
        "pollDivisionIds": [
          10137861
        ],
        "postalCode": "L1B1B9",
        "streetName": "THE COVE",
        "streetDirectionId": null,
        "streetTypeId": "RD",
        "placeName": "NEWCASTLE",
        "streetNameDisplayText": "THE COVE RD, NEWCASTLE"
      },
      {
        "electoralDistricts": [
          {
            "election": null,
            "id": 24,
            "name": "Durham"
          }
        ],
        "pollDivisionIds": [
          10137861
        ],
        "postalCode": "L1B1B9",
        "streetName": "WHEELHOUSE",
        "streetDirectionId": null,
        "streetTypeId": "DR",
        "placeName": "NEWCASTLE",
        "streetNameDisplayText": "WHEELHOUSE DR, NEWCASTLE"
      },
      {
        "electoralDistricts": [
          {
            "election": null,
            "id": 24,
            "name": "Durham"
          }
        ],
        "pollDivisionIds": [
          10137861
        ],
        "postalCode": "L1B1B9",
        "streetName": "WILMOT",
        "streetDirectionId": null,
        "streetTypeId": "TRAIL",
        "placeName": "NEWCASTLE",
        "streetNameDisplayText": "WILMOT TRAIL, NEWCASTLE"
      }
    ]
  },
  {
    "postal": "L1B9E8",
    "result": []
  },
  {
    "postal": "L1B1C9",
    "result": [
      {
        "electoralDistricts": [
          {
            "election": null,
            "id": 73,
            "name": "Northumberland—Peterborough South"
          }
        ],
        "pollDivisionIds": [
          10140287
        ],
        "postalCode": "L1B1C9",
        "streetName": "LAKEVIEW",
        "streetDirectionId": null,
        "streetTypeId": "RD",
        "placeName": "NEWCASTLE",
        "streetNameDisplayText": "LAKEVIEW RD, NEWCASTLE"
      },
      {
        "electoralDistricts": [
          {
            "election": null,
            "id": 73,
            "name": "Northumberland—Peterborough South"
          }
        ],
        "pollDivisionIds": [
          10140287
        ],
        "postalCode": "L1B1C9",
        "streetName": "SUNSET",
        "streetDirectionId": null,
        "streetTypeId": "BLVD",
        "placeName": "NEWCASTLE",
        "streetNameDisplayText": "SUNSET BLVD, NEWCASTLE"
      }
    ]
  },
  {
    "postal": "L1B3B5",
    "result": []
  },
  {
    "postal": "L1B8R0",
    "result": []
  },
  {
    "postal": "L1B3P2",
    "result": []
  },
  {
    "postal": "L1B5V4",
    "result": []
  },
  {
    "postal": "L1B4H0",
    "result": []
  },
  {
    "postal": "L1B4S7",
    "result": []
  },
  {
    "postal": "L1B6C2",
    "result": []
  },
  {
    "postal": "L1B8W3",
    "result": []
  },
  {
    "postal": "L1B4M5",
    "result": []
  },
  {
    "postal": "L1B5T1",
    "result": []
  },
  {
    "postal": "L1B3B3",
    "result": []
  },
  {
    "postal": "L1B6C6",
    "result": []
  },
  {
    "postal": "L1B7N8",
    "result": []
  },
  {
    "postal": "L1B2Y3",
    "result": []
  },
  {
    "postal": "L1B2R6",
    "result": []
  },
  {
    "postal": "L1B7N3",
    "result": []
  },
  {
    "postal": "L1B8J2",
    "result": []
  },
  {
    "postal": "L1B6A9",
    "result": []
  },
  {
    "postal": "L1B3V2",
    "result": []
  },
  {
    "postal": "L1B2N3",
    "result": []
  },
  {
    "postal": "L1B1S5",
    "result": []
  },
  {
    "postal": "L1B4T7",
    "result": []
  },
  {
    "postal": "L1B6Y7",
    "result": []
  },
  {
    "postal": "L1B0W7",
    "result": []
  },
  {
    "postal": "L1B2W9",
    "result": []
  },
  {
    "postal": "L1B8V0",
    "result": []
  },
  {
    "postal": "L1B0H4",
    "result": [
      {
        "electoralDistricts": [
          {
            "election": null,
            "id": 73,
            "name": "Northumberland—Peterborough South"
          }
        ],
        "pollDivisionIds": [
          10140286
        ],
        "postalCode": "L1B0H4",
        "streetName": "METCALF",
        "streetDirectionId": null,
        "streetTypeId": "ST",
        "placeName": "NEWCASTLE",
        "streetNameDisplayText": "METCALF ST, NEWCASTLE"
      }
    ]
  },
  {
    "postal": "L1B2T1",
    "result": []
  },
  {
    "postal": "L1B1B1",
    "result": [
      {
        "electoralDistricts": [
          {
            "election": null,
            "id": 24,
            "name": "Durham"
          }
        ],
        "pollDivisionIds": [
          10137861
        ],
        "postalCode": "L1B1B1",
        "streetName": "CANOE",
        "streetDirectionId": null,
        "streetTypeId": "CRT",
        "placeName": "NEWCASTLE",
        "streetNameDisplayText": "CANOE CRT, NEWCASTLE"
      },
      {
        "electoralDistricts": [
          {
            "election": null,
            "id": 24,
            "name": "Durham"
          }
        ],
        "pollDivisionIds": [
          10137861
        ],
        "postalCode": "L1B1B1",
        "streetName": "EIGHTH HOLE",
        "streetDirectionId": null,
        "streetTypeId": "CRT",
        "placeName": "NEWCASTLE",
        "streetNameDisplayText": "EIGHTH HOLE CRT, NEWCASTLE"
      },
      {
        "electoralDistricts": [
          {
            "election": null,
            "id": 24,
            "name": "Durham"
          }
        ],
        "pollDivisionIds": [
          10137861
        ],
        "postalCode": "L1B1B1",
        "streetName": "FAIRWAY",
        "streetDirectionId": null,
        "streetTypeId": "DR",
        "placeName": "NEWCASTLE",
        "streetNameDisplayText": "FAIRWAY DR, NEWCASTLE"
      },
      {
        "electoralDistricts": [
          {
            "election": null,
            "id": 24,
            "name": "Durham"
          }
        ],
        "pollDivisionIds": [
          10137861
        ],
        "postalCode": "L1B1B1",
        "streetName": "THE COVE",
        "streetDirectionId": null,
        "streetTypeId": "RD",
        "placeName": "NEWCASTLE",
        "streetNameDisplayText": "THE COVE RD, NEWCASTLE"
      }
    ]
  },
  {
    "postal": "L1B8B6",
    "result": []
  },
  {
    "postal": "L1B6H1",
    "result": []
  },
  {
    "postal": "L1B8T8",
    "result": []
  },
  {
    "postal": "L1B0T4",
    "result": [
      {
        "electoralDistricts": [
          {
            "election": null,
            "id": 73,
            "name": "Northumberland—Peterborough South"
          }
        ],
        "pollDivisionIds": [
          10140291
        ],
        "postalCode": "L1B0T4",
        "streetName": "MORGANS",
        "streetDirectionId": null,
        "streetTypeId": "RD",
        "placeName": "NEWCASTLE",
        "streetNameDisplayText": "MORGANS RD, NEWCASTLE"
      }
    ]
  },
  {
    "postal": "L1B2C4",
    "result": []
  },
  {
    "postal": "L1B8N3",
    "result": []
  },
  {
    "postal": "L1B4L8",
    "result": []
  },
  {
    "postal": "L1B2B5",
    "result": []
  },
  {
    "postal": "L1B3H1",
    "result": []
  },
  {
    "postal": "L1B4Y1",
    "result": []
  },
  {
    "postal": "L1B7E2",
    "result": []
  },
  {
    "postal": "L1B2P5",
    "result": []
  },
  {
    "postal": "L1B8R7",
    "result": []
  },
  {
    "postal": "L1B9P1",
    "result": []
  },
  {
    "postal": "L1B3B8",
    "result": []
  },
  {
    "postal": "L1B3P7",
    "result": []
  },
  {
    "postal": "L1B9B2",
    "result": []
  },
  {
    "postal": "L1B6Z3",
    "result": []
  },
  {
    "postal": "L1B4N5",
    "result": []
  },
  {
    "postal": "L1B8T3",
    "result": []
  },
  {
    "postal": "L1B1V2",
    "result": []
  },
  {
    "postal": "L1B1Y0",
    "result": []
  },
  {
    "postal": "L1B3G6",
    "result": []
  },
  {
    "postal": "L1B3H7",
    "result": []
  },
  {
    "postal": "L1B7X8",
    "result": []
  },
  {
    "postal": "L1B0C7",
    "result": [
      {
        "electoralDistricts": [
          {
            "election": null,
            "id": 73,
            "name": "Northumberland—Peterborough South"
          }
        ],
        "pollDivisionIds": [
          10140287
        ],
        "postalCode": "L1B0C7",
        "streetName": "ERSKINE",
        "streetDirectionId": null,
        "streetTypeId": "DR",
        "placeName": "NEWCASTLE",
        "streetNameDisplayText": "ERSKINE DR, NEWCASTLE"
      },
      {
        "electoralDistricts": [
          {
            "election": null,
            "id": 73,
            "name": "Northumberland—Peterborough South"
          }
        ],
        "pollDivisionIds": [
          10140287
        ],
        "postalCode": "L1B0C7",
        "streetName": "THOMAS WOODLOCK",
        "streetDirectionId": null,
        "streetTypeId": "ST",
        "placeName": "NEWCASTLE",
        "streetNameDisplayText": "THOMAS WOODLOCK ST, NEWCASTLE"
      }
    ]
  },
  {
    "postal": "L1B0W9",
    "result": []
  },
  {
    "postal": "L1B8E6",
    "result": []
  },
  {
    "postal": "L1B9Z8",
    "result": []
  },
  {
    "postal": "L1B3P4",
    "result": []
  },
  {
    "postal": "L1B6L8",
    "result": []
  },
  {
    "postal": "L1B2R4",
    "result": []
  },
  {
    "postal": "L1B2W1",
    "result": []
  },
  {
    "postal": "L1B9H8",
    "result": []
  },
  {
    "postal": "L1B8X9",
    "result": []
  },
  {
    "postal": "L1B7H4",
    "result": []
  },
  {
    "postal": "L1B3J1",
    "result": []
  },
  {
    "postal": "L1B1P4",
    "result": [
      {
        "electoralDistricts": [
          {
            "election": null,
            "id": 24,
            "name": "Durham"
          }
        ],
        "pollDivisionIds": [
          10137861
        ],
        "postalCode": "L1B1P4",
        "streetName": "GARDEN MANOR",
        "streetDirectionId": "W",
        "streetTypeId": "PL",
        "placeName": "NEWCASTLE",
        "streetNameDisplayText": "GARDEN MANOR PL W, NEWCASTLE"
      },
      {
        "electoralDistricts": [
          {
            "election": null,
            "id": 24,
            "name": "Durham"
          }
        ],
        "pollDivisionIds": [
          10137861
        ],
        "postalCode": "L1B1P4",
        "streetName": "GARDEN MANOR",
        "streetDirectionId": null,
        "streetTypeId": "PL",
        "placeName": "NEWCASTLE",
        "streetNameDisplayText": "GARDEN MANOR PL, NEWCASTLE"
      },
      {
        "electoralDistricts": [
          {
            "election": null,
            "id": 24,
            "name": "Durham"
          }
        ],
        "pollDivisionIds": [
          10137861
        ],
        "postalCode": "L1B1P4",
        "streetName": "HINKLEY",
        "streetDirectionId": null,
        "streetTypeId": "TRAIL",
        "placeName": "NEWCASTLE",
        "streetNameDisplayText": "HINKLEY TRAIL, NEWCASTLE"
      },
      {
        "electoralDistricts": [
          {
            "election": null,
            "id": 24,
            "name": "Durham"
          }
        ],
        "pollDivisionIds": [
          10137861
        ],
        "postalCode": "L1B1P4",
        "streetName": "TWILLINGATE",
        "streetDirectionId": null,
        "streetTypeId": "LANE",
        "placeName": "NEWCASTLE",
        "streetNameDisplayText": "TWILLINGATE LANE, NEWCASTLE"
      }
    ]
  },
  {
    "postal": "L1B2A3",
    "result": []
  },
  {
    "postal": "L1B0Z1",
    "result": []
  },
  {
    "postal": "L1B1C1",
    "result": [
      {
        "electoralDistricts": [
          {
            "election": null,
            "id": 73,
            "name": "Northumberland—Peterborough South"
          }
        ],
        "pollDivisionIds": [
          10140287
        ],
        "postalCode": "L1B1C1",
        "streetName": "BALDWIN",
        "streetDirectionId": null,
        "streetTypeId": "ST",
        "placeName": "NEWCASTLE",
        "streetNameDisplayText": "BALDWIN ST, NEWCASTLE"
      },
      {
        "electoralDistricts": [
          {
            "election": null,
            "id": 73,
            "name": "Northumberland—Peterborough South"
          }
        ],
        "pollDivisionIds": [
          10140287
        ],
        "postalCode": "L1B1C1",
        "streetName": "CATHERWOOD",
        "streetDirectionId": null,
        "streetTypeId": "LANE",
        "placeName": "NEWCASTLE",
        "streetNameDisplayText": "CATHERWOOD LANE, NEWCASTLE"
      },
      {
        "electoralDistricts": [
          {
            "election": null,
            "id": 73,
            "name": "Northumberland—Peterborough South"
          }
        ],
        "pollDivisionIds": [
          10140287
        ],
        "postalCode": "L1B1C1",
        "streetName": "CATHERWOOD",
        "streetDirectionId": null,
        "streetTypeId": "ST",
        "placeName": "NEWCASTLE",
        "streetNameDisplayText": "CATHERWOOD ST, NEWCASTLE"
      },
      {
        "electoralDistricts": [
          {
            "election": null,
            "id": 73,
            "name": "Northumberland—Peterborough South"
          }
        ],
        "pollDivisionIds": [
          10140287
        ],
        "postalCode": "L1B1C1",
        "streetName": "CLARKE",
        "streetDirectionId": null,
        "streetTypeId": "ST",
        "placeName": "NEWCASTLE",
        "streetNameDisplayText": "CLARKE ST, NEWCASTLE"
      },
      {
        "electoralDistricts": [
          {
            "election": null,
            "id": 73,
            "name": "Northumberland—Peterborough South"
          }
        ],
        "pollDivisionIds": [
          10140287,
          10140286
        ],
        "postalCode": "L1B1C1",
        "streetName": "MILL",
        "streetDirectionId": "S",
        "streetTypeId": "ST",
        "placeName": "NEWCASTLE",
        "streetNameDisplayText": "MILL ST S, NEWCASTLE"
      }
    ]
  },
  {
    "postal": "L1B0H3",
    "result": [
      {
        "electoralDistricts": [
          {
            "election": null,
            "id": 73,
            "name": "Northumberland—Peterborough South"
          }
        ],
        "pollDivisionIds": [
          10140286
        ],
        "postalCode": "L1B0H3",
        "streetName": "LAKESHORE",
        "streetDirectionId": null,
        "streetTypeId": "RD",
        "placeName": "NEWCASTLE",
        "streetNameDisplayText": "LAKESHORE RD, NEWCASTLE"
      }
    ]
  },
  {
    "postal": "L1B7B0",
    "result": []
  },
  {
    "postal": "L1B5K2",
    "result": []
  },
  {
    "postal": "L1B1E9",
    "result": [
      {
        "electoralDistricts": [
          {
            "election": null,
            "id": 73,
            "name": "Northumberland—Peterborough South"
          }
        ],
        "pollDivisionIds": [
          10140287
        ],
        "postalCode": "L1B1E9",
        "streetName": "EDWARD",
        "streetDirectionId": "W",
        "streetTypeId": "ST",
        "placeName": "NEWCASTLE",
        "streetNameDisplayText": "EDWARD ST W, NEWCASTLE"
      },
      {
        "electoralDistricts": [
          {
            "election": null,
            "id": 73,
            "name": "Northumberland—Peterborough South"
          }
        ],
        "pollDivisionIds": [
          10140287
        ],
        "postalCode": "L1B1E9",
        "streetName": "STANFORD",
        "streetDirectionId": null,
        "streetTypeId": "CRES",
        "placeName": "NEWCASTLE",
        "streetNameDisplayText": "STANFORD CRES, NEWCASTLE"
      }
    ]
  },
  {
    "postal": "L1B9W7",
    "result": []
  },
  {
    "postal": "L1B5W6",
    "result": []
  },
  {
    "postal": "L1B6S6",
    "result": []
  },
  {
    "postal": "L1B2P8",
    "result": []
  },
  {
    "postal": "L1B4P8",
    "result": []
  },
  {
    "postal": "L1B0V9",
    "result": []
  },
  {
    "postal": "L1B5Y2",
    "result": []
  },
  {
    "postal": "L1B7Z7",
    "result": []
  },
  {
    "postal": "L1B6Y8",
    "result": []
  },
  {
    "postal": "L1B2G7",
    "result": []
  },
  {
    "postal": "L1B8C1",
    "result": []
  },
  {
    "postal": "L1B5C5",
    "result": []
  },
  {
    "postal": "L1B2X8",
    "result": []
  },
  {
    "postal": "L1B1W5",
    "result": []
  },
  {
    "postal": "L1B7G0",
    "result": []
  },
  {
    "postal": "L1B8J8",
    "result": []
  },
  {
    "postal": "L1B3Y0",
    "result": []
  },
  {
    "postal": "L1B9T7",
    "result": []
  },
  {
    "postal": "L1B5P4",
    "result": []
  },
  {
    "postal": "L1B4B0",
    "result": []
  },
  {
    "postal": "L1B9N8",
    "result": []
  },
  {
    "postal": "L1B4A7",
    "result": []
  },
  {
    "postal": "L1B4H9",
    "result": []
  },
  {
    "postal": "L1B6X1",
    "result": []
  },
  {
    "postal": "L1B9Y7",
    "result": []
  },
  {
    "postal": "L1B2Y5",
    "result": []
  },
  {
    "postal": "L1B8L7",
    "result": []
  },
  {
    "postal": "L1B2A8",
    "result": []
  },
  {
    "postal": "L1B2K9",
    "result": []
  },
  {
    "postal": "L1B3E5",
    "result": []
  },
  {
    "postal": "L1B8N6",
    "result": []
  },
  {
    "postal": "L1B8J4",
    "result": []
  },
  {
    "postal": "L1B4R7",
    "result": []
  },
  {
    "postal": "L1B9K1",
    "result": []
  },
  {
    "postal": "L1B8E1",
    "result": []
  },
  {
    "postal": "L1B0R1",
    "result": [
      {
        "electoralDistricts": [
          {
            "election": null,
            "id": 73,
            "name": "Northumberland—Peterborough South"
          }
        ],
        "pollDivisionIds": [
          10140287
        ],
        "postalCode": "L1B0R1",
        "streetName": "CONCESSION RD 3",
        "streetDirectionId": null,
        "streetTypeId": null,
        "placeName": "NEWCASTLE",
        "streetNameDisplayText": "CONCESSION RD 3, NEWCASTLE"
      }
    ]
  },
  {
    "postal": "L1B4J3",
    "result": []
  },
  {
    "postal": "L1B7E7",
    "result": []
  },
  {
    "postal": "L1B0J0",
    "result": []
  },
  {
    "postal": "L1B7R8",
    "result": []
  },
  {
    "postal": "L1B9X0",
    "result": []
  },
  {
    "postal": "L1B7P6",
    "result": []
  },
  {
    "postal": "L1B0R7",
    "result": []
  },
  {
    "postal": "L1B5W1",
    "result": []
  },
  {
    "postal": "L1B0K4",
    "result": [
      {
        "electoralDistricts": [
          {
            "election": null,
            "id": 73,
            "name": "Northumberland—Peterborough South"
          }
        ],
        "pollDivisionIds": [
          10140286
        ],
        "postalCode": "L1B0K4",
        "streetName": "BOULTON",
        "streetDirectionId": null,
        "streetTypeId": "ST",
        "placeName": "NEWCASTLE",
        "streetNameDisplayText": "BOULTON ST, NEWCASTLE"
      }
    ]
  },
  {
    "postal": "L1B7N9",
    "result": []
  },
  {
    "postal": "L1B1N0",
    "result": []
  },
  {
    "postal": "L1B6P3",
    "result": []
  },
  {
    "postal": "L1B5A1",
    "result": []
  },
  {
    "postal": "L1B9M9",
    "result": []
  },
  {
    "postal": "L1B7T6",
    "result": []
  },
  {
    "postal": "L1B3X0",
    "result": []
  },
  {
    "postal": "L1B2T0",
    "result": []
  },
  {
    "postal": "L1B5X9",
    "result": []
  },
  {
    "postal": "L1B2R3",
    "result": []
  },
  {
    "postal": "L1B5N2",
    "result": []
  },
  {
    "postal": "L1B4Y7",
    "result": []
  },
  {
    "postal": "L1B7M0",
    "result": []
  },
  {
    "postal": "L1B8P3",
    "result": []
  },
  {
    "postal": "L1B3N3",
    "result": []
  },
  {
    "postal": "L1B7S3",
    "result": []
  },
  {
    "postal": "L1B3V9",
    "result": []
  },
  {
    "postal": "L1B9N7",
    "result": []
  },
  {
    "postal": "L1B0G4",
    "result": [
      {
        "electoralDistricts": [
          {
            "election": null,
            "id": 73,
            "name": "Northumberland—Peterborough South"
          }
        ],
        "pollDivisionIds": [
          10140286
        ],
        "postalCode": "L1B0G4",
        "streetName": "NEWTONVILLE",
        "streetDirectionId": null,
        "streetTypeId": "RD",
        "placeName": "NEWCASTLE",
        "streetNameDisplayText": "NEWTONVILLE RD, NEWCASTLE"
      }
    ]
  },
  {
    "postal": "L1B2E2",
    "result": []
  },
  {
    "postal": "L1B7W8",
    "result": []
  },
  {
    "postal": "L1B7M5",
    "result": []
  },
  {
    "postal": "L1B5W8",
    "result": []
  },
  {
    "postal": "L1B5E5",
    "result": []
  },
  {
    "postal": "L1B1P9",
    "result": [
      {
        "electoralDistricts": [
          {
            "election": null,
            "id": 73,
            "name": "Northumberland—Peterborough South"
          }
        ],
        "pollDivisionIds": [
          10140286
        ],
        "postalCode": "L1B1P9",
        "streetName": "HARMER",
        "streetDirectionId": null,
        "streetTypeId": "DR",
        "placeName": "NEWCASTLE",
        "streetNameDisplayText": "HARMER DR, NEWCASTLE"
      },
      {
        "electoralDistricts": [
          {
            "election": null,
            "id": 73,
            "name": "Northumberland—Peterborough South"
          }
        ],
        "pollDivisionIds": [
          10140286
        ],
        "postalCode": "L1B1P9",
        "streetName": "LAKING",
        "streetDirectionId": null,
        "streetTypeId": "DR",
        "placeName": "NEWCASTLE",
        "streetNameDisplayText": "LAKING DR, NEWCASTLE"
      },
      {
        "electoralDistricts": [
          {
            "election": null,
            "id": 73,
            "name": "Northumberland—Peterborough South"
          }
        ],
        "pollDivisionIds": [
          10140286
        ],
        "postalCode": "L1B1P9",
        "streetName": "RAFTON",
        "streetDirectionId": null,
        "streetTypeId": "ST",
        "placeName": "NEWCASTLE",
        "streetNameDisplayText": "RAFTON ST, NEWCASTLE"
      }
    ]
  },
  {
    "postal": "L1B8V8",
    "result": []
  },
  {
    "postal": "L1B9G8",
    "result": []
  },
  {
    "postal": "L1B8H9",
    "result": []
  },
  {
    "postal": "L1B1Z1",
    "result": []
  },
  {
    "postal": "L1B8M3",
    "result": []
  },
  {
    "postal": "L1B5H6",
    "result": []
  },
  {
    "postal": "L1B7W7",
    "result": []
  },
  {
    "postal": "L1B4L0",
    "result": []
  },
  {
    "postal": "L1B2N1",
    "result": []
  },
  {
    "postal": "L1B2H4",
    "result": []
  },
  {
    "postal": "L1B5C8",
    "result": []
  },
  {
    "postal": "L1B8B0",
    "result": []
  },
  {
    "postal": "L1B1T4",
    "result": []
  },
  {
    "postal": "L1B7N7",
    "result": []
  },
  {
    "postal": "L1B4L3",
    "result": []
  },
  {
    "postal": "L1B2N2",
    "result": []
  },
  {
    "postal": "L1B4N8",
    "result": []
  },
  {
    "postal": "L1B3M5",
    "result": []
  },
  {
    "postal": "L1B6H7",
    "result": []
  },
  {
    "postal": "L1B8Y8",
    "result": []
  },
  {
    "postal": "L1B5R9",
    "result": []
  },
  {
    "postal": "L1B8G3",
    "result": []
  },
  {
    "postal": "L1B4N7",
    "result": []
  },
  {
    "postal": "L1B0B9",
    "result": [
      {
        "electoralDistricts": [
          {
            "election": null,
            "id": 73,
            "name": "Northumberland—Peterborough South"
          }
        ],
        "pollDivisionIds": [
          10140287
        ],
        "postalCode": "L1B0B9",
        "streetName": "KEATING",
        "streetDirectionId": null,
        "streetTypeId": "DR",
        "placeName": "NEWCASTLE",
        "streetNameDisplayText": "KEATING DR, NEWCASTLE"
      },
      {
        "electoralDistricts": [
          {
            "election": null,
            "id": 73,
            "name": "Northumberland—Peterborough South"
          }
        ],
        "pollDivisionIds": [
          10140287
        ],
        "postalCode": "L1B0B9",
        "streetName": "MILLIGAN",
        "streetDirectionId": null,
        "streetTypeId": "ST",
        "placeName": "NEWCASTLE",
        "streetNameDisplayText": "MILLIGAN ST, NEWCASTLE"
      }
    ]
  },
  {
    "postal": "L1B9K7",
    "result": []
  },
  {
    "postal": "L1B9K9",
    "result": []
  },
  {
    "postal": "L1B3Z2",
    "result": []
  },
  {
    "postal": "L1B6W7",
    "result": []
  },
  {
    "postal": "L1B0P1",
    "result": []
  },
  {
    "postal": "L1B3A0",
    "result": []
  },
  {
    "postal": "L1B8L9",
    "result": []
  },
  {
    "postal": "L1B6X0",
    "result": []
  },
  {
    "postal": "L1B3E9",
    "result": []
  },
  {
    "postal": "L1B0S5",
    "result": [
      {
        "electoralDistricts": [
          {
            "election": null,
            "id": 73,
            "name": "Northumberland—Peterborough South"
          }
        ],
        "pollDivisionIds": [
          10140286
        ],
        "postalCode": "L1B0S5",
        "streetName": "MORGANS",
        "streetDirectionId": null,
        "streetTypeId": "RD",
        "placeName": "NEWCASTLE",
        "streetNameDisplayText": "MORGANS RD, NEWCASTLE"
      }
    ]
  },
  {
    "postal": "L1B1A2",
    "result": [
      {
        "electoralDistricts": [
          {
            "election": null,
            "id": 24,
            "name": "Durham"
          }
        ],
        "pollDivisionIds": [
          10137861
        ],
        "postalCode": "L1B1A2",
        "streetName": "BLUFFS",
        "streetDirectionId": null,
        "streetTypeId": "RD",
        "placeName": "NEWCASTLE",
        "streetNameDisplayText": "BLUFFS RD, NEWCASTLE"
      },
      {
        "electoralDistricts": [
          {
            "election": null,
            "id": 24,
            "name": "Durham"
          }
        ],
        "pollDivisionIds": [
          10137861
        ],
        "postalCode": "L1B1A2",
        "streetName": "HURON",
        "streetDirectionId": null,
        "streetTypeId": "CRT",
        "placeName": "NEWCASTLE",
        "streetNameDisplayText": "HURON CRT, NEWCASTLE"
      },
      {
        "electoralDistricts": [
          {
            "election": null,
            "id": 24,
            "name": "Durham"
          }
        ],
        "pollDivisionIds": [
          10137861
        ],
        "postalCode": "L1B1A2",
        "streetName": "NIAGARA TRAIL",
        "streetDirectionId": null,
        "streetTypeId": "TRAIL",
        "placeName": "NEWCASTLE",
        "streetNameDisplayText": "NIAGARA TRAIL TRAIL, NEWCASTLE"
      },
      {
        "electoralDistricts": [
          {
            "election": null,
            "id": 24,
            "name": "Durham"
          }
        ],
        "pollDivisionIds": [
          10137861
        ],
        "postalCode": "L1B1A2",
        "streetName": "NIAGARA",
        "streetDirectionId": null,
        "streetTypeId": "TRAIL",
        "placeName": "NEWCASTLE",
        "streetNameDisplayText": "NIAGARA TRAIL, NEWCASTLE"
      }
    ]
  },
  {
    "postal": "L1B5V8",
    "result": []
  },
  {
    "postal": "L1B8C5",
    "result": []
  },
  {
    "postal": "L1B6N0",
    "result": []
  },
  {
    "postal": "L1B9E6",
    "result": []
  },
  {
    "postal": "L1B5J7",
    "result": []
  },
  {
    "postal": "L1B2R2",
    "result": []
  },
  {
    "postal": "L1B0P5",
    "result": []
  },
  {
    "postal": "L1B5A7",
    "result": []
  },
  {
    "postal": "L1B1G1",
    "result": [
      {
        "electoralDistricts": [
          {
            "election": null,
            "id": 73,
            "name": "Northumberland—Peterborough South"
          }
        ],
        "pollDivisionIds": [
          10140287
        ],
        "postalCode": "L1B1G1",
        "streetName": "EDWARD",
        "streetDirectionId": "W",
        "streetTypeId": "ST",
        "placeName": "NEWCASTLE",
        "streetNameDisplayText": "EDWARD ST W, NEWCASTLE"
      },
      {
        "electoralDistricts": [
          {
            "election": null,
            "id": 73,
            "name": "Northumberland—Peterborough South"
          }
        ],
        "pollDivisionIds": [
          10140287
        ],
        "postalCode": "L1B1G1",
        "streetName": "FOSTER CREEK",
        "streetDirectionId": null,
        "streetTypeId": "DR",
        "placeName": "NEWCASTLE",
        "streetNameDisplayText": "FOSTER CREEK DR, NEWCASTLE"
      },
      {
        "electoralDistricts": [
          {
            "election": null,
            "id": 73,
            "name": "Northumberland—Peterborough South"
          }
        ],
        "pollDivisionIds": [
          10140287
        ],
        "postalCode": "L1B1G1",
        "streetName": "STANFORD",
        "streetDirectionId": null,
        "streetTypeId": "CRES",
        "placeName": "NEWCASTLE",
        "streetNameDisplayText": "STANFORD CRES, NEWCASTLE"
      }
    ]
  },
  {
    "postal": "L1B9R6",
    "result": []
  },
  {
    "postal": "L1B4Z9",
    "result": []
  },
  {
    "postal": "L1B1V5",
    "result": []
  },
  {
    "postal": "L1B9Y5",
    "result": []
  },
  {
    "postal": "L1B1P2",
    "result": [
      {
        "electoralDistricts": [
          {
            "election": null,
            "id": 24,
            "name": "Durham"
          }
        ],
        "pollDivisionIds": [
          10137861
        ],
        "postalCode": "L1B1P2",
        "streetName": "BIRCH TREE",
        "streetDirectionId": null,
        "streetTypeId": "LANE",
        "placeName": "NEWCASTLE",
        "streetNameDisplayText": "BIRCH TREE LANE, NEWCASTLE"
      },
      {
        "electoralDistricts": [
          {
            "election": null,
            "id": 24,
            "name": "Durham"
          }
        ],
        "pollDivisionIds": [
          10137861
        ],
        "postalCode": "L1B1P2",
        "streetName": "CLIFF",
        "streetDirectionId": null,
        "streetTypeId": "DR",
        "placeName": "NEWCASTLE",
        "streetNameDisplayText": "CLIFF DR, NEWCASTLE"
      },
      {
        "electoralDistricts": [
          {
            "election": null,
            "id": 24,
            "name": "Durham"
          }
        ],
        "pollDivisionIds": [
          10137861
        ],
        "postalCode": "L1B1P2",
        "streetName": "HINKLEY",
        "streetDirectionId": null,
        "streetTypeId": "TRAIL",
        "placeName": "NEWCASTLE",
        "streetNameDisplayText": "HINKLEY TRAIL, NEWCASTLE"
      }
    ]
  },
  {
    "postal": "L1B5X0",
    "result": []
  },
  {
    "postal": "L1B7B8",
    "result": []
  },
  {
    "postal": "L1B0C6",
    "result": [
      {
        "electoralDistricts": [
          {
            "election": null,
            "id": 73,
            "name": "Northumberland—Peterborough South"
          }
        ],
        "pollDivisionIds": [
          10140287
        ],
        "postalCode": "L1B0C6",
        "streetName": "GRADY",
        "streetDirectionId": null,
        "streetTypeId": "DR",
        "placeName": "NEWCASTLE",
        "streetNameDisplayText": "GRADY DR, NEWCASTLE"
      },
      {
        "electoralDistricts": [
          {
            "election": null,
            "id": 73,
            "name": "Northumberland—Peterborough South"
          }
        ],
        "pollDivisionIds": [
          10140287
        ],
        "postalCode": "L1B0C6",
        "streetName": "RUDELL",
        "streetDirectionId": null,
        "streetTypeId": "RD",
        "placeName": "NEWCASTLE",
        "streetNameDisplayText": "RUDELL RD, NEWCASTLE"
      }
    ]
  },
  {
    "postal": "L1B6G1",
    "result": []
  },
  {
    "postal": "L1B3K3",
    "result": []
  },
  {
    "postal": "L1B9R0",
    "result": []
  },
  {
    "postal": "L1B4R8",
    "result": []
  },
  {
    "postal": "L1B5P9",
    "result": []
  },
  {
    "postal": "L1B8N4",
    "result": []
  },
  {
    "postal": "L1B8H4",
    "result": []
  },
  {
    "postal": "L1B4V1",
    "result": []
  },
  {
    "postal": "L1B1K5",
    "result": [
      {
        "electoralDistricts": [
          {
            "election": null,
            "id": 73,
            "name": "Northumberland—Peterborough South"
          }
        ],
        "pollDivisionIds": [
          10140289
        ],
        "postalCode": "L1B1K5",
        "streetName": "ARTHUR",
        "streetDirectionId": null,
        "streetTypeId": "ST",
        "placeName": "NEWCASTLE",
        "streetNameDisplayText": "ARTHUR ST, NEWCASTLE"
      },
      {
        "electoralDistricts": [
          {
            "election": null,
            "id": 73,
            "name": "Northumberland—Peterborough South"
          }
        ],
        "pollDivisionIds": [
          10140289
        ],
        "postalCode": "L1B1K5",
        "streetName": "MCNAIR",
        "streetDirectionId": null,
        "streetTypeId": "ST",
        "placeName": "NEWCASTLE",
        "streetNameDisplayText": "MCNAIR ST, NEWCASTLE"
      },
      {
        "electoralDistricts": [
          {
            "election": null,
            "id": 73,
            "name": "Northumberland—Peterborough South"
          }
        ],
        "pollDivisionIds": [
          10140289
        ],
        "postalCode": "L1B1K5",
        "streetName": "RESNIK",
        "streetDirectionId": null,
        "streetTypeId": "DR",
        "placeName": "NEWCASTLE",
        "streetNameDisplayText": "RESNIK DR, NEWCASTLE"
      }
    ]
  },
  {
    "postal": "L1B1Z5",
    "result": []
  },
  {
    "postal": "L1B9L9",
    "result": []
  },
  {
    "postal": "L1B5L2",
    "result": []
  },
  {
    "postal": "L1B0M2",
    "result": []
  },
  {
    "postal": "L1B1K8",
    "result": [
      {
        "electoralDistricts": [
          {
            "election": null,
            "id": 73,
            "name": "Northumberland—Peterborough South"
          }
        ],
        "pollDivisionIds": [
          10140286,
          10140289
        ],
        "postalCode": "L1B1K8",
        "streetName": "KING",
        "streetDirectionId": "E",
        "streetTypeId": "AVE",
        "placeName": "NEWCASTLE",
        "streetNameDisplayText": "KING AVE E, NEWCASTLE"
      }
    ]
  },
  {
    "postal": "L1B3M7",
    "result": []
  },
  {
    "postal": "L1B1B2",
    "result": [
      {
        "electoralDistricts": [
          {
            "election": null,
            "id": 24,
            "name": "Durham"
          }
        ],
        "pollDivisionIds": [
          10137861
        ],
        "postalCode": "L1B1B2",
        "streetName": "FAIRWAY",
        "streetDirectionId": null,
        "streetTypeId": "DR",
        "placeName": "NEWCASTLE",
        "streetNameDisplayText": "FAIRWAY DR, NEWCASTLE"
      },
      {
        "electoralDistricts": [
          {
            "election": null,
            "id": 24,
            "name": "Durham"
          }
        ],
        "pollDivisionIds": [
          10137861
        ],
        "postalCode": "L1B1B2",
        "streetName": "THE COVE",
        "streetDirectionId": null,
        "streetTypeId": "RD",
        "placeName": "NEWCASTLE",
        "streetNameDisplayText": "THE COVE RD, NEWCASTLE"
      },
      {
        "electoralDistricts": [
          {
            "election": null,
            "id": 24,
            "name": "Durham"
          }
        ],
        "pollDivisionIds": [
          10137861
        ],
        "postalCode": "L1B1B2",
        "streetName": "WILMOT",
        "streetDirectionId": null,
        "streetTypeId": "TRAIL",
        "placeName": "NEWCASTLE",
        "streetNameDisplayText": "WILMOT TRAIL, NEWCASTLE"
      }
    ]
  },
  {
    "postal": "L1B0H9",
    "result": [
      {
        "electoralDistricts": [
          {
            "election": null,
            "id": 73,
            "name": "Northumberland—Peterborough South"
          }
        ],
        "pollDivisionIds": [
          10140287
        ],
        "postalCode": "L1B0H9",
        "streetName": "MILL",
        "streetDirectionId": "S",
        "streetTypeId": "ST",
        "placeName": "NEWCASTLE",
        "streetNameDisplayText": "MILL ST S, NEWCASTLE"
      }
    ]
  },
  {
    "postal": "L1B8M4",
    "result": []
  },
  {
    "postal": "L1B2M5",
    "result": []
  },
  {
    "postal": "L1B0T9",
    "result": []
  },
  {
    "postal": "L1B3P1",
    "result": []
  },
  {
    "postal": "L1B1R6",
    "result": [
      {
        "electoralDistricts": [
          {
            "election": null,
            "id": 73,
            "name": "Northumberland—Peterborough South"
          }
        ],
        "pollDivisionIds": [
          10140287
        ],
        "postalCode": "L1B1R6",
        "streetName": "HODNETT",
        "streetDirectionId": null,
        "streetTypeId": "CRES",
        "placeName": "NEWCASTLE",
        "streetNameDisplayText": "HODNETT CRES, NEWCASTLE"
      },
      {
        "electoralDistricts": [
          {
            "election": null,
            "id": 73,
            "name": "Northumberland—Peterborough South"
          }
        ],
        "pollDivisionIds": [
          10140287
        ],
        "postalCode": "L1B1R6",
        "streetName": "MILLIGAN",
        "streetDirectionId": null,
        "streetTypeId": "ST",
        "placeName": "NEWCASTLE",
        "streetNameDisplayText": "MILLIGAN ST, NEWCASTLE"
      }
    ]
  },
  {
    "postal": "L1B9V5",
    "result": []
  },
  {
    "postal": "L1B9T0",
    "result": []
  },
  {
    "postal": "L1B0A9",
    "result": [
      {
        "electoralDistricts": [
          {
            "election": null,
            "id": 73,
            "name": "Northumberland—Peterborough South"
          }
        ],
        "pollDivisionIds": [
          10140287
        ],
        "postalCode": "L1B0A9",
        "streetName": "DOUG WALTON",
        "streetDirectionId": null,
        "streetTypeId": "LANE",
        "placeName": "NEWCASTLE",
        "streetNameDisplayText": "DOUG WALTON LANE, NEWCASTLE"
      },
      {
        "electoralDistricts": [
          {
            "election": null,
            "id": 73,
            "name": "Northumberland—Peterborough South"
          }
        ],
        "pollDivisionIds": [
          10140287
        ],
        "postalCode": "L1B0A9",
        "streetName": "LAKEBREEZE",
        "streetDirectionId": null,
        "streetTypeId": "DR",
        "placeName": "NEWCASTLE",
        "streetNameDisplayText": "LAKEBREEZE DR, NEWCASTLE"
      }
    ]
  },
  {
    "postal": "L1B1M3",
    "result": [
      {
        "electoralDistricts": [
          {
            "election": null,
            "id": 73,
            "name": "Northumberland—Peterborough South"
          }
        ],
        "pollDivisionIds": [
          10140291
        ],
        "postalCode": "L1B1M3",
        "streetName": "GOLF COURSE",
        "streetDirectionId": null,
        "streetTypeId": "RD",
        "placeName": "NEWCASTLE",
        "streetNameDisplayText": "GOLF COURSE RD, NEWCASTLE"
      },
      {
        "electoralDistricts": [
          {
            "election": null,
            "id": 73,
            "name": "Northumberland—Peterborough South"
          }
        ],
        "pollDivisionIds": [
          10140295
        ],
        "postalCode": "L1B1M3",
        "streetName": "MILL",
        "streetDirectionId": null,
        "streetTypeId": "ST",
        "placeName": "ORONO",
        "streetNameDisplayText": "MILL ST, ORONO"
      }
    ]
  },
  {
    "postal": "L1B1W8",
    "result": []
  },
  {
    "postal": "L1B9J1",
    "result": []
  },
  {
    "postal": "L1B8N5",
    "result": []
  },
  {
    "postal": "L1B5X1",
    "result": []
  },
  {
    "postal": "L1B6S2",
    "result": []
  },
  {
    "postal": "L1B2A2",
    "result": []
  },
  {
    "postal": "L1B6A6",
    "result": []
  },
  {
    "postal": "L1B0S3",
    "result": [
      {
        "electoralDistricts": [
          {
            "election": null,
            "id": 73,
            "name": "Northumberland—Peterborough South"
          }
        ],
        "pollDivisionIds": [
          10140290
        ],
        "postalCode": "L1B0S3",
        "streetName": "MOFFAT",
        "streetDirectionId": null,
        "streetTypeId": "RD",
        "placeName": "NEWCASTLE",
        "streetNameDisplayText": "MOFFAT RD, NEWCASTLE"
      }
    ]
  },
  {
    "postal": "L1B3E7",
    "result": []
  },
  {
    "postal": "L1B5R7",
    "result": []
  },
  {
    "postal": "L1B3R6",
    "result": []
  },
  {
    "postal": "L1B6K4",
    "result": []
  },
  {
    "postal": "L1B2W5",
    "result": []
  },
  {
    "postal": "L1B8W4",
    "result": []
  },
  {
    "postal": "L1B9C2",
    "result": []
  },
  {
    "postal": "L1B2C0",
    "result": []
  },
  {
    "postal": "L1B0E1",
    "result": [
      {
        "electoralDistricts": [
          {
            "election": null,
            "id": 73,
            "name": "Northumberland—Peterborough South"
          }
        ],
        "pollDivisionIds": [
          10140287
        ],
        "postalCode": "L1B0E1",
        "streetName": "PEDWELL",
        "streetDirectionId": null,
        "streetTypeId": "ST",
        "placeName": "NEWCASTLE",
        "streetNameDisplayText": "PEDWELL ST, NEWCASTLE"
      }
    ]
  },
  {
    "postal": "L1B1K9",
    "result": [
      {
        "electoralDistricts": [
          {
            "election": null,
            "id": 73,
            "name": "Northumberland—Peterborough South"
          }
        ],
        "pollDivisionIds": [
          10140287
        ],
        "postalCode": "L1B1K9",
        "streetName": "KING",
        "streetDirectionId": "W",
        "streetTypeId": "AVE",
        "placeName": "NEWCASTLE",
        "streetNameDisplayText": "KING AVE W, NEWCASTLE"
      }
    ]
  },
  {
    "postal": "L1B1G7",
    "result": [
      {
        "electoralDistricts": [
          {
            "election": null,
            "id": 73,
            "name": "Northumberland—Peterborough South"
          }
        ],
        "pollDivisionIds": [
          10140287
        ],
        "postalCode": "L1B1G7",
        "streetName": "RUTHERFORD",
        "streetDirectionId": null,
        "streetTypeId": "DR",
        "placeName": "NEWCASTLE",
        "streetNameDisplayText": "RUTHERFORD DR, NEWCASTLE"
      }
    ]
  },
  {
    "postal": "L1B4E9",
    "result": []
  },
  {
    "postal": "L1B9P0",
    "result": []
  },
  {
    "postal": "L1B5H3",
    "result": []
  },
  {
    "postal": "L1B9X6",
    "result": []
  },
  {
    "postal": "L1B5N7",
    "result": []
  },
  {
    "postal": "L1B5A6",
    "result": []
  },
  {
    "postal": "L1B4M0",
    "result": []
  },
  {
    "postal": "L1B3V6",
    "result": []
  },
  {
    "postal": "L1B1L7",
    "result": [
      {
        "electoralDistricts": [
          {
            "election": null,
            "id": 24,
            "name": "Durham"
          }
        ],
        "pollDivisionIds": [
          10137861
        ],
        "postalCode": "L1B1L7",
        "streetName": "KING",
        "streetDirectionId": null,
        "streetTypeId": "CRT",
        "placeName": "NEWCASTLE",
        "streetNameDisplayText": "KING CRT, NEWCASTLE"
      }
    ]
  },
  {
    "postal": "L1B2P9",
    "result": []
  },
  {
    "postal": "L1B5T4",
    "result": []
  },
  {
    "postal": "L1B5Z1",
    "result": []
  },
  {
    "postal": "L1B2X0",
    "result": []
  },
  {
    "postal": "L1B6Z2",
    "result": []
  },
  {
    "postal": "L1B0E0",
    "result": []
  },
  {
    "postal": "L1B3Z5",
    "result": []
  },
  {
    "postal": "L1B8H3",
    "result": []
  },
  {
    "postal": "L1B7S6",
    "result": []
  },
  {
    "postal": "L1B4C1",
    "result": []
  },
  {
    "postal": "L1B3K2",
    "result": []
  },
  {
    "postal": "L1B1Y5",
    "result": []
  },
  {
    "postal": "L1B6P6",
    "result": []
  },
  {
    "postal": "L1B3N9",
    "result": []
  },
  {
    "postal": "L1B3W2",
    "result": []
  },
  {
    "postal": "L1B6H8",
    "result": []
  },
  {
    "postal": "L1B9T3",
    "result": []
  },
  {
    "postal": "L1B5L9",
    "result": []
  },
  {
    "postal": "L1B7X7",
    "result": []
  },
  {
    "postal": "L1B3J5",
    "result": []
  },
  {
    "postal": "L1B4J5",
    "result": []
  },
  {
    "postal": "L1B6J2",
    "result": []
  },
  {
    "postal": "L1B5V6",
    "result": []
  },
  {
    "postal": "L1B3N2",
    "result": []
  },
  {
    "postal": "L1B3B1",
    "result": []
  },
  {
    "postal": "L1B8B5",
    "result": []
  },
  {
    "postal": "L1B0K1",
    "result": [
      {
        "electoralDistricts": [
          {
            "election": null,
            "id": 73,
            "name": "Northumberland—Peterborough South"
          }
        ],
        "pollDivisionIds": [
          10140286
        ],
        "postalCode": "L1B0K1",
        "streetName": "RILEY",
        "streetDirectionId": null,
        "streetTypeId": "RD",
        "placeName": "NEWCASTLE",
        "streetNameDisplayText": "RILEY RD, NEWCASTLE"
      }
    ]
  },
  {
    "postal": "L1B7M7",
    "result": []
  },
  {
    "postal": "L1B2M2",
    "result": []
  },
  {
    "postal": "L1B9N3",
    "result": []
  },
  {
    "postal": "L1B4Y8",
    "result": []
  },
  {
    "postal": "L1B3V7",
    "result": []
  },
  {
    "postal": "L1B8Z1",
    "result": []
  },
  {
    "postal": "L1B7B3",
    "result": []
  },
  {
    "postal": "L1B3A8",
    "result": []
  },
  {
    "postal": "L1B7V5",
    "result": []
  },
  {
    "postal": "L1B2T2",
    "result": []
  },
  {
    "postal": "L1B6L3",
    "result": []
  },
  {
    "postal": "L1B0L2",
    "result": [
      {
        "electoralDistricts": [
          {
            "election": null,
            "id": 73,
            "name": "Northumberland—Peterborough South"
          }
        ],
        "pollDivisionIds": [
          10140292
        ],
        "postalCode": "L1B0L2",
        "streetName": "NODEN",
        "streetDirectionId": null,
        "streetTypeId": "CRES",
        "placeName": "NEWCASTLE",
        "streetNameDisplayText": "NODEN CRES, NEWCASTLE"
      },
      {
        "electoralDistricts": [
          {
            "election": null,
            "id": 73,
            "name": "Northumberland—Peterborough South"
          }
        ],
        "pollDivisionIds": [
          10140287
        ],
        "postalCode": "L1B0L2",
        "streetName": "NODEN",
        "streetDirectionId": null,
        "streetTypeId": "CRT",
        "placeName": "NEWCASTLE",
        "streetNameDisplayText": "NODEN CRT, NEWCASTLE"
      },
      {
        "electoralDistricts": [
          {
            "election": null,
            "id": 73,
            "name": "Northumberland—Peterborough South"
          }
        ],
        "pollDivisionIds": [
          10140287
        ],
        "postalCode": "L1B0L2",
        "streetName": "WHITEHAND",
        "streetDirectionId": null,
        "streetTypeId": "DR",
        "placeName": "NEWCASTLE",
        "streetNameDisplayText": "WHITEHAND DR, NEWCASTLE"
      }
    ]
  },
  {
    "postal": "L1B5Y8",
    "result": []
  },
  {
    "postal": "L1B0B8",
    "result": [
      {
        "electoralDistricts": [
          {
            "election": null,
            "id": 73,
            "name": "Northumberland—Peterborough South"
          }
        ],
        "pollDivisionIds": [
          10140287
        ],
        "postalCode": "L1B0B8",
        "streetName": "SHIPWAY",
        "streetDirectionId": null,
        "streetTypeId": "AVE",
        "placeName": "NEWCASTLE",
        "streetNameDisplayText": "SHIPWAY AVE, NEWCASTLE"
      }
    ]
  },
  {
    "postal": "L1B6R5",
    "result": []
  },
  {
    "postal": "L1B8W6",
    "result": []
  },
  {
    "postal": "L1B8G6",
    "result": []
  },
  {
    "postal": "L1B6X3",
    "result": []
  },
  {
    "postal": "L1B7R7",
    "result": []
  },
  {
    "postal": "L1B4B6",
    "result": []
  },
  {
    "postal": "L1B3P9",
    "result": []
  },
  {
    "postal": "L1B2T3",
    "result": []
  },
  {
    "postal": "L1B1M4",
    "result": [
      {
        "electoralDistricts": [
          {
            "election": null,
            "id": 73,
            "name": "Northumberland—Peterborough South"
          }
        ],
        "pollDivisionIds": [
          10140286
        ],
        "postalCode": "L1B1M4",
        "streetName": "CUTLER",
        "streetDirectionId": null,
        "streetTypeId": "DR",
        "placeName": "NEWCASTLE",
        "streetNameDisplayText": "CUTLER DR, NEWCASTLE"
      },
      {
        "electoralDistricts": [
          {
            "election": null,
            "id": 73,
            "name": "Northumberland—Peterborough South"
          }
        ],
        "pollDivisionIds": [
          10140286
        ],
        "postalCode": "L1B1M4",
        "streetName": "EDWARD",
        "streetDirectionId": "E",
        "streetTypeId": "ST",
        "placeName": "NEWCASTLE",
        "streetNameDisplayText": "EDWARD ST E, NEWCASTLE"
      }
    ]
  },
  {
    "postal": "L1B0H1",
    "result": [
      {
        "electoralDistricts": [
          {
            "election": null,
            "id": 73,
            "name": "Northumberland—Peterborough South"
          }
        ],
        "pollDivisionIds": [
          10140286
        ],
        "postalCode": "L1B0H1",
        "streetName": "LAKESHORE",
        "streetDirectionId": null,
        "streetTypeId": "RD",
        "placeName": "NEWCASTLE",
        "streetNameDisplayText": "LAKESHORE RD, NEWCASTLE"
      }
    ]
  },
  {
    "postal": "L1B9W3",
    "result": []
  },
  {
    "postal": "L1B6P1",
    "result": []
  },
  {
    "postal": "L1B7G2",
    "result": []
  },
  {
    "postal": "L1B4J9",
    "result": []
  },
  {
    "postal": "L1B9E4",
    "result": []
  },
  {
    "postal": "L1B8H0",
    "result": []
  },
  {
    "postal": "L1B4M7",
    "result": []
  },
  {
    "postal": "L1B2G9",
    "result": []
  },
  {
    "postal": "L1B8T2",
    "result": []
  },
  {
    "postal": "L1B7G7",
    "result": []
  },
  {
    "postal": "L1B4Z3",
    "result": []
  },
  {
    "postal": "L1B5B3",
    "result": []
  },
  {
    "postal": "L1B1S7",
    "result": []
  },
  {
    "postal": "L1B2N7",
    "result": []
  },
  {
    "postal": "L1B0H8",
    "result": [
      {
        "electoralDistricts": [
          {
            "election": null,
            "id": 73,
            "name": "Northumberland—Peterborough South"
          }
        ],
        "pollDivisionIds": [
          10140286
        ],
        "postalCode": "L1B0H8",
        "streetName": "MILL",
        "streetDirectionId": "S",
        "streetTypeId": "ST",
        "placeName": "NEWCASTLE",
        "streetNameDisplayText": "MILL ST S, NEWCASTLE"
      }
    ]
  },
  {
    "postal": "L1B7Z4",
    "result": []
  },
  {
    "postal": "L1B7B1",
    "result": []
  },
  {
    "postal": "L1B7P8",
    "result": []
  },
  {
    "postal": "L1B7N0",
    "result": []
  },
  {
    "postal": "L1B3Y5",
    "result": []
  },
  {
    "postal": "L1B6K1",
    "result": []
  },
  {
    "postal": "L1B9X5",
    "result": []
  },
  {
    "postal": "L1B7S5",
    "result": []
  },
  {
    "postal": "L1B0A4",
    "result": [
      {
        "electoralDistricts": [
          {
            "election": null,
            "id": 73,
            "name": "Northumberland—Peterborough South"
          }
        ],
        "pollDivisionIds": [
          10140287
        ],
        "postalCode": "L1B0A4",
        "streetName": "LAKEBREEZE",
        "streetDirectionId": null,
        "streetTypeId": "DR",
        "placeName": "NEWCASTLE",
        "streetNameDisplayText": "LAKEBREEZE DR, NEWCASTLE"
      }
    ]
  },
  {
    "postal": "L1B4T5",
    "result": []
  },
  {
    "postal": "L1B5K1",
    "result": []
  },
  {
    "postal": "L1B0Z9",
    "result": []
  },
  {
    "postal": "L1B7T2",
    "result": []
  },
  {
    "postal": "L1B1L5",
    "result": [
      {
        "electoralDistricts": [
          {
            "election": null,
            "id": 73,
            "name": "Northumberland—Peterborough South"
          }
        ],
        "pollDivisionIds": [
          10140286
        ],
        "postalCode": "L1B1L5",
        "streetName": "KING",
        "streetDirectionId": "E",
        "streetTypeId": "AVE",
        "placeName": "NEWCASTLE",
        "streetNameDisplayText": "KING AVE E, NEWCASTLE"
      }
    ]
  },
  {
    "postal": "L1B3N5",
    "result": []
  },
  {
    "postal": "L1B6H4",
    "result": []
  },
  {
    "postal": "L1B5A5",
    "result": []
  },
  {
    "postal": "L1B3R9",
    "result": []
  },
  {
    "postal": "L1B7L8",
    "result": []
  },
  {
    "postal": "L1B6T6",
    "result": []
  },
  {
    "postal": "L1B7Y7",
    "result": []
  },
  {
    "postal": "L1B3M8",
    "result": []
  },
  {
    "postal": "L1B2E0",
    "result": []
  },
  {
    "postal": "L1B4B5",
    "result": []
  },
  {
    "postal": "L1B1J3",
    "result": [
      {
        "electoralDistricts": [
          {
            "election": null,
            "id": 73,
            "name": "Northumberland—Peterborough South"
          }
        ],
        "pollDivisionIds": [
          10140288
        ],
        "postalCode": "L1B1J3",
        "streetName": "ANDREW",
        "streetDirectionId": null,
        "streetTypeId": "ST",
        "placeName": "NEWCASTLE",
        "streetNameDisplayText": "ANDREW ST, NEWCASTLE"
      },
      {
        "electoralDistricts": [
          {
            "election": null,
            "id": 73,
            "name": "Northumberland—Peterborough South"
          }
        ],
        "pollDivisionIds": [
          10140288
        ],
        "postalCode": "L1B1J3",
        "streetName": "BEAVER",
        "streetDirectionId": "N",
        "streetTypeId": "ST",
        "placeName": "NEWCASTLE",
        "streetNameDisplayText": "BEAVER ST N, NEWCASTLE"
      },
      {
        "electoralDistricts": [
          {
            "election": null,
            "id": 73,
            "name": "Northumberland—Peterborough South"
          }
        ],
        "pollDivisionIds": [
          10140287,
          10140288
        ],
        "postalCode": "L1B1J3",
        "streetName": "MILL",
        "streetDirectionId": "N",
        "streetTypeId": "ST",
        "placeName": "NEWCASTLE",
        "streetNameDisplayText": "MILL ST N, NEWCASTLE"
      }
    ]
  },
  {
    "postal": "L1B5S6",
    "result": []
  },
  {
    "postal": "L1B8P7",
    "result": []
  },
  {
    "postal": "L1B7S7",
    "result": []
  },
  {
    "postal": "L1B4C2",
    "result": []
  },
  {
    "postal": "L1B5Y0",
    "result": []
  },
  {
    "postal": "L1B2V7",
    "result": []
  },
  {
    "postal": "L1B8P5",
    "result": []
  },
  {
    "postal": "L1B5P5",
    "result": []
  },
  {
    "postal": "L1B5Z0",
    "result": []
  },
  {
    "postal": "L1B9B0",
    "result": []
  },
  {
    "postal": "L1B1L0",
    "result": []
  },
  {
    "postal": "L1B0B5",
    "result": [
      {
        "electoralDistricts": [
          {
            "election": null,
            "id": 73,
            "name": "Northumberland—Peterborough South"
          }
        ],
        "pollDivisionIds": [
          10140287
        ],
        "postalCode": "L1B0B5",
        "streetName": "ALLDREAD",
        "streetDirectionId": null,
        "streetTypeId": "CRES",
        "placeName": "NEWCASTLE",
        "streetNameDisplayText": "ALLDREAD CRES, NEWCASTLE"
      },
      {
        "electoralDistricts": [
          {
            "election": null,
            "id": 73,
            "name": "Northumberland—Peterborough South"
          }
        ],
        "pollDivisionIds": [
          10140287
        ],
        "postalCode": "L1B0B5",
        "streetName": "MILLIGAN",
        "streetDirectionId": null,
        "streetTypeId": "ST",
        "placeName": "NEWCASTLE",
        "streetNameDisplayText": "MILLIGAN ST, NEWCASTLE"
      }
    ]
  },
  {
    "postal": "L1B3L2",
    "result": []
  },
  {
    "postal": "L1B3B7",
    "result": []
  },
  {
    "postal": "L1B8L1",
    "result": []
  },
  {
    "postal": "L1B5M4",
    "result": []
  },
  {
    "postal": "L1B4G9",
    "result": []
  },
  {
    "postal": "L1B0P0",
    "result": []
  },
  {
    "postal": "L1B8G2",
    "result": []
  },
  {
    "postal": "L1B1V9",
    "result": []
  },
  {
    "postal": "L1B8N8",
    "result": []
  },
  {
    "postal": "L1B6S8",
    "result": []
  },
  {
    "postal": "L1B8H2",
    "result": []
  },
  {
    "postal": "L1B5R8",
    "result": []
  },
  {
    "postal": "L1B5L4",
    "result": []
  },
  {
    "postal": "L1B9E1",
    "result": []
  },
  {
    "postal": "L1B1C4",
    "result": [
      {
        "electoralDistricts": [
          {
            "election": null,
            "id": 73,
            "name": "Northumberland—Peterborough South"
          }
        ],
        "pollDivisionIds": [
          10140286
        ],
        "postalCode": "L1B1C4",
        "streetName": "BEAVER",
        "streetDirectionId": "S",
        "streetTypeId": "ST",
        "placeName": "NEWCASTLE",
        "streetNameDisplayText": "BEAVER ST S, NEWCASTLE"
      },
      {
        "electoralDistricts": [
          {
            "election": null,
            "id": 73,
            "name": "Northumberland—Peterborough South"
          }
        ],
        "pollDivisionIds": [
          10140286
        ],
        "postalCode": "L1B1C4",
        "streetName": "CAROLINE",
        "streetDirectionId": "E",
        "streetTypeId": "ST",
        "placeName": "NEWCASTLE",
        "streetNameDisplayText": "CAROLINE ST E, NEWCASTLE"
      },
      {
        "electoralDistricts": [
          {
            "election": null,
            "id": 73,
            "name": "Northumberland—Peterborough South"
          }
        ],
        "pollDivisionIds": [
          10140286
        ],
        "postalCode": "L1B1C4",
        "streetName": "EDWARD",
        "streetDirectionId": "E",
        "streetTypeId": "ST",
        "placeName": "NEWCASTLE",
        "streetNameDisplayText": "EDWARD ST E, NEWCASTLE"
      },
      {
        "electoralDistricts": [
          {
            "election": null,
            "id": 73,
            "name": "Northumberland—Peterborough South"
          }
        ],
        "pollDivisionIds": [
          10140286
        ],
        "postalCode": "L1B1C4",
        "streetName": "MILL",
        "streetDirectionId": "S",
        "streetTypeId": "ST",
        "placeName": "NEWCASTLE",
        "streetNameDisplayText": "MILL ST S, NEWCASTLE"
      }
    ]
  },
  {
    "postal": "L1B8W5",
    "result": []
  },
  {
    "postal": "L1B1Y4",
    "result": []
  },
  {
    "postal": "L1B1C0",
    "result": []
  },
  {
    "postal": "L1B2J2",
    "result": []
  },
  {
    "postal": "L1B2J0",
    "result": []
  },
  {
    "postal": "L1B7A3",
    "result": []
  },
  {
    "postal": "L1B8M1",
    "result": []
  },
  {
    "postal": "L1B7T9",
    "result": []
  },
  {
    "postal": "L1B6C0",
    "result": []
  },
  {
    "postal": "L1B7X1",
    "result": []
  },
  {
    "postal": "L1B0G1",
    "result": []
  },
  {
    "postal": "L1B4X2",
    "result": []
  },
  {
    "postal": "L1B0N6",
    "result": [
      {
        "electoralDistricts": [
          {
            "election": null,
            "id": 73,
            "name": "Northumberland—Peterborough South"
          }
        ],
        "pollDivisionIds": [
          10140286
        ],
        "postalCode": "L1B0N6",
        "streetName": "FARROW",
        "streetDirectionId": null,
        "streetTypeId": "AVE",
        "placeName": "NEWCASTLE",
        "streetNameDisplayText": "FARROW AVE, NEWCASTLE"
      }
    ]
  },
  {
    "postal": "L1B8E3",
    "result": []
  },
  {
    "postal": "L1B5S8",
    "result": []
  },
  {
    "postal": "L1B0R0",
    "result": []
  },
  {
    "postal": "L1B6J6",
    "result": []
  },
  {
    "postal": "L1B4B4",
    "result": []
  },
  {
    "postal": "L1B7E3",
    "result": []
  },
  {
    "postal": "L1B3N6",
    "result": []
  },
  {
    "postal": "L1B3X6",
    "result": []
  },
  {
    "postal": "L1B8L0",
    "result": []
  },
  {
    "postal": "L1B8N1",
    "result": []
  },
  {
    "postal": "L1B4J0",
    "result": []
  },
  {
    "postal": "L1B0X7",
    "result": []
  },
  {
    "postal": "L1B6S4",
    "result": []
  },
  {
    "postal": "L1B0Z0",
    "result": []
  },
  {
    "postal": "L1B9X8",
    "result": []
  },
  {
    "postal": "L1B3H3",
    "result": []
  },
  {
    "postal": "L1B7S2",
    "result": []
  },
  {
    "postal": "L1B3T3",
    "result": []
  },
  {
    "postal": "L1B9P3",
    "result": []
  },
  {
    "postal": "L1B4H8",
    "result": []
  },
  {
    "postal": "L1B6R1",
    "result": []
  },
  {
    "postal": "L1B1S0",
    "result": []
  },
  {
    "postal": "L1B3W8",
    "result": []
  },
  {
    "postal": "L1B4S3",
    "result": []
  },
  {
    "postal": "L1B1B6",
    "result": [
      {
        "electoralDistricts": [
          {
            "election": null,
            "id": 24,
            "name": "Durham"
          }
        ],
        "pollDivisionIds": [
          10137861
        ],
        "postalCode": "L1B1B6",
        "streetName": "FAIRWAY",
        "streetDirectionId": null,
        "streetTypeId": "DR",
        "placeName": "NEWCASTLE",
        "streetNameDisplayText": "FAIRWAY DR, NEWCASTLE"
      },
      {
        "electoralDistricts": [
          {
            "election": null,
            "id": 24,
            "name": "Durham"
          }
        ],
        "pollDivisionIds": [
          10137861
        ],
        "postalCode": "L1B1B6",
        "streetName": "THE COVE",
        "streetDirectionId": null,
        "streetTypeId": "RD",
        "placeName": "NEWCASTLE",
        "streetNameDisplayText": "THE COVE RD, NEWCASTLE"
      }
    ]
  },
  {
    "postal": "L1B8R3",
    "result": []
  },
  {
    "postal": "L1B4V9",
    "result": []
  },
  {
    "postal": "L1B9W4",
    "result": []
  },
  {
    "postal": "L1B3T4",
    "result": []
  },
  {
    "postal": "L1B5C7",
    "result": []
  },
  {
    "postal": "L1B3Y1",
    "result": []
  },
  {
    "postal": "L1B5V0",
    "result": []
  },
  {
    "postal": "L1B8G8",
    "result": []
  },
  {
    "postal": "L1B8B1",
    "result": []
  },
  {
    "postal": "L1B4P5",
    "result": []
  },
  {
    "postal": "L1B7B2",
    "result": []
  },
  {
    "postal": "L1B0R2",
    "result": []
  },
  {
    "postal": "L1B4M4",
    "result": []
  },
  {
    "postal": "L1B7M4",
    "result": []
  },
  {
    "postal": "L1B9S7",
    "result": []
  },
  {
    "postal": "L1B5Z7",
    "result": []
  },
  {
    "postal": "L1B7J7",
    "result": []
  },
  {
    "postal": "L1B8R8",
    "result": []
  },
  {
    "postal": "L1B9X1",
    "result": []
  },
  {
    "postal": "L1B5M9",
    "result": []
  },
  {
    "postal": "L1B9B4",
    "result": []
  },
  {
    "postal": "L1B0L9",
    "result": [
      {
        "electoralDistricts": [
          {
            "election": null,
            "id": 73,
            "name": "Northumberland—Peterborough South"
          }
        ],
        "pollDivisionIds": [
          10140290
        ],
        "postalCode": "L1B0L9",
        "streetName": "BROWVIEW",
        "streetDirectionId": null,
        "streetTypeId": "RD",
        "placeName": "NEWCASTLE",
        "streetNameDisplayText": "BROWVIEW RD, NEWCASTLE"
      }
    ]
  },
  {
    "postal": "L1B9G4",
    "result": []
  },
  {
    "postal": "L1B1J4",
    "result": [
      {
        "electoralDistricts": [
          {
            "election": null,
            "id": 73,
            "name": "Northumberland—Peterborough South"
          }
        ],
        "pollDivisionIds": [
          10140288
        ],
        "postalCode": "L1B1J4",
        "streetName": "BEAVER",
        "streetDirectionId": "N",
        "streetTypeId": "ST",
        "placeName": "NEWCASTLE",
        "streetNameDisplayText": "BEAVER ST N, NEWCASTLE"
      },
      {
        "electoralDistricts": [
          {
            "election": null,
            "id": 73,
            "name": "Northumberland—Peterborough South"
          }
        ],
        "pollDivisionIds": [
          10140288
        ],
        "postalCode": "L1B1J4",
        "streetName": "GEORGE",
        "streetDirectionId": "E",
        "streetTypeId": "ST",
        "placeName": "NEWCASTLE",
        "streetNameDisplayText": "GEORGE ST E, NEWCASTLE"
      },
      {
        "electoralDistricts": [
          {
            "election": null,
            "id": 73,
            "name": "Northumberland—Peterborough South"
          }
        ],
        "pollDivisionIds": [
          10140288
        ],
        "postalCode": "L1B1J4",
        "streetName": "SYLVIA",
        "streetDirectionId": null,
        "streetTypeId": "CRT",
        "placeName": "NEWCASTLE",
        "streetNameDisplayText": "SYLVIA CRT, NEWCASTLE"
      }
    ]
  },
  {
    "postal": "L1B0W6",
    "result": []
  }
]
