[
  {
    "postal": "P9N9J6",
    "result": []
  },
  {
    "postal": "P9N9Z5",
    "result": []
  },
  {
    "postal": "P9N7H8",
    "result": []
  },
  {
    "postal": "P9N0P6",
    "result": []
  },
  {
    "postal": "P9N0S7",
    "result": []
  },
  {
    "postal": "P9N8B9",
    "result": []
  },
  {
    "postal": "P9N2A6",
    "result": [
      {
        "electoralDistricts": [
          {
            "election": null,
            "id": 44,
            "name": "Kenora—Rainy River"
          }
        ],
        "pollDivisionIds": [
          10139029
        ],
        "postalCode": "P9N2A6",
        "streetName": "5TH",
        "streetDirectionId": "S",
        "streetTypeId": "AVE",
        "placeName": "KENORA",
        "streetNameDisplayText": "5TH AVE S, KENORA"
      },
      {
        "electoralDistricts": [
          {
            "election": null,
            "id": 44,
            "name": "Kenora—Rainy River"
          }
        ],
        "pollDivisionIds": [
          10139029
        ],
        "postalCode": "P9N2A6",
        "streetName": "FIFTH",
        "streetDirectionId": "S",
        "streetTypeId": "AVE",
        "placeName": "KENORA",
        "streetNameDisplayText": "FIFTH AVE S, KENORA"
      }
    ]
  },
  {
    "postal": "P9N7V2",
    "result": []
  },
  {
    "postal": "P9N9P4",
    "result": []
  },
  {
    "postal": "P9N6G0",
    "result": []
  },
  {
    "postal": "P9N2K0",
    "result": []
  },
  {
    "postal": "P9N7N6",
    "result": []
  },
  {
    "postal": "P9N5R3",
    "result": []
  },
  {
    "postal": "P9N7K0",
    "result": []
  },
  {
    "postal": "P9N3R2",
    "result": [
      {
        "electoralDistricts": [
          {
            "election": null,
            "id": 44,
            "name": "Kenora—Rainy River"
          }
        ],
        "pollDivisionIds": [
          10138992
        ],
        "postalCode": "P9N3R2",
        "streetName": "PETER",
        "streetDirectionId": null,
        "streetTypeId": "ST",
        "placeName": "KENORA",
        "streetNameDisplayText": "PETER ST, KENORA"
      }
    ]
  },
  {
    "postal": "P9N0J1",
    "result": []
  },
  {
    "postal": "P9N0B0",
    "result": []
  },
  {
    "postal": "P9N5Z2",
    "result": []
  },
  {
    "postal": "P9N7P3",
    "result": []
  },
  {
    "postal": "P9N2K3",
    "result": [
      {
        "electoralDistricts": [
          {
            "election": null,
            "id": 44,
            "name": "Kenora—Rainy River"
          }
        ],
        "pollDivisionIds": [
          10139003
        ],
        "postalCode": "P9N2K3",
        "streetName": "PEARL",
        "streetDirectionId": null,
        "streetTypeId": "AVE",
        "placeName": "KENORA",
        "streetNameDisplayText": "PEARL AVE, KENORA"
      }
    ]
  },
  {
    "postal": "P9N7Y6",
    "result": []
  },
  {
    "postal": "P9N1L9",
    "result": [
      {
        "electoralDistricts": [
          {
            "election": null,
            "id": 44,
            "name": "Kenora—Rainy River"
          }
        ],
        "pollDivisionIds": [
          10139003
        ],
        "postalCode": "P9N1L9",
        "streetName": "17",
        "streetDirectionId": "E",
        "streetTypeId": "HWY",
        "placeName": "KENORA",
        "streetNameDisplayText": "17 HWY E, KENORA"
      },
      {
        "electoralDistricts": [
          {
            "election": null,
            "id": 44,
            "name": "Kenora—Rainy River"
          }
        ],
        "pollDivisionIds": [
          10139003
        ],
        "postalCode": "P9N1L9",
        "streetName": "HIGHWAY 17",
        "streetDirectionId": "E",
        "streetTypeId": null,
        "placeName": "KENORA",
        "streetNameDisplayText": "HIGHWAY 17 E, KENORA"
      },
      {
        "electoralDistricts": [
          {
            "election": null,
            "id": 44,
            "name": "Kenora—Rainy River"
          }
        ],
        "pollDivisionIds": [
          10139003
        ],
        "postalCode": "P9N1L9",
        "streetName": "HWY 17",
        "streetDirectionId": "E",
        "streetTypeId": null,
        "placeName": "KENORA",
        "streetNameDisplayText": "HWY 17 E, KENORA"
      }
    ]
  },
  {
    "postal": "P9N8T0",
    "result": []
  },
  {
    "postal": "P9N3K8",
    "result": [
      {
        "electoralDistricts": [
          {
            "election": null,
            "id": 44,
            "name": "Kenora—Rainy River"
          }
        ],
        "pollDivisionIds": [
          10138994
        ],
        "postalCode": "P9N3K8",
        "streetName": "ELEVENTH",
        "streetDirectionId": "N",
        "streetTypeId": "AVE",
        "placeName": "KENORA",
        "streetNameDisplayText": "ELEVENTH AVE N, KENORA"
      }
    ]
  },
  {
    "postal": "P9N5W9",
    "result": []
  },
  {
    "postal": "P9N6T9",
    "result": []
  },
  {
    "postal": "P9N4H1",
    "result": []
  },
  {
    "postal": "P9N7A2",
    "result": []
  },
  {
    "postal": "P9N5G0",
    "result": []
  },
  {
    "postal": "P9N8V5",
    "result": []
  },
  {
    "postal": "P9N2Y8",
    "result": [
      {
        "electoralDistricts": [
          {
            "election": null,
            "id": 44,
            "name": "Kenora—Rainy River"
          }
        ],
        "pollDivisionIds": [
          10138996
        ],
        "postalCode": "P9N2Y8",
        "streetName": "HEENAN",
        "streetDirectionId": null,
        "streetTypeId": "PL",
        "placeName": "KENORA",
        "streetNameDisplayText": "HEENAN PL, KENORA"
      }
    ]
  },
  {
    "postal": "P9N2B6",
    "result": [
      {
        "electoralDistricts": [
          {
            "election": null,
            "id": 44,
            "name": "Kenora—Rainy River"
          }
        ],
        "pollDivisionIds": [
          10139001
        ],
        "postalCode": "P9N2B6",
        "streetName": "SIXTH",
        "streetDirectionId": "S",
        "streetTypeId": "AVE",
        "placeName": "KENORA",
        "streetNameDisplayText": "SIXTH AVE S, KENORA"
      }
    ]
  },
  {
    "postal": "P9N4W8",
    "result": []
  },
  {
    "postal": "P9N8H7",
    "result": []
  },
  {
    "postal": "P9N5P1",
    "result": []
  },
  {
    "postal": "P9N2B8",
    "result": []
  },
  {
    "postal": "P9N0P2",
    "result": []
  },
  {
    "postal": "P9N9M1",
    "result": []
  },
  {
    "postal": "P9N3G0",
    "result": []
  },
  {
    "postal": "P9N9Z2",
    "result": []
  },
  {
    "postal": "P9N2A0",
    "result": []
  },
  {
    "postal": "P9N6Y0",
    "result": []
  },
  {
    "postal": "P9N2Z8",
    "result": [
      {
        "electoralDistricts": [
          {
            "election": null,
            "id": 44,
            "name": "Kenora—Rainy River"
          }
        ],
        "pollDivisionIds": [
          10138991
        ],
        "postalCode": "P9N2Z8",
        "streetName": "REGINA",
        "streetDirectionId": null,
        "streetTypeId": "AVE",
        "placeName": "KENORA",
        "streetNameDisplayText": "REGINA AVE, KENORA"
      }
    ]
  },
  {
    "postal": "P9N7Y3",
    "result": []
  },
  {
    "postal": "P9N6Z5",
    "result": []
  },
  {
    "postal": "P9N6E0",
    "result": []
  },
  {
    "postal": "P9N9B7",
    "result": []
  },
  {
    "postal": "P9N9S5",
    "result": []
  },
  {
    "postal": "P9N3X3",
    "result": [
      {
        "electoralDistricts": [
          {
            "election": null,
            "id": 44,
            "name": "Kenora—Rainy River"
          }
        ],
        "pollDivisionIds": [
          10139008
        ],
        "postalCode": "P9N3X3",
        "streetName": "17",
        "streetDirectionId": "E",
        "streetTypeId": "HWY",
        "placeName": "KENORA",
        "streetNameDisplayText": "17 HWY E, KENORA"
      },
      {
        "electoralDistricts": [
          {
            "election": null,
            "id": 44,
            "name": "Kenora—Rainy River"
          }
        ],
        "pollDivisionIds": [
          10139009
        ],
        "postalCode": "P9N3X3",
        "streetName": "1ST PORTAGE",
        "streetDirectionId": null,
        "streetTypeId": "RD",
        "placeName": "KENORA",
        "streetNameDisplayText": "1ST PORTAGE RD, KENORA"
      },
      {
        "electoralDistricts": [
          {
            "election": null,
            "id": 44,
            "name": "Kenora—Rainy River"
          }
        ],
        "pollDivisionIds": [
          10139010
        ],
        "postalCode": "P9N3X3",
        "streetName": "71",
        "streetDirectionId": null,
        "streetTypeId": "HWY",
        "placeName": "KENORA",
        "streetNameDisplayText": "71 HWY, KENORA"
      },
      {
        "electoralDistricts": [
          {
            "election": null,
            "id": 44,
            "name": "Kenora—Rainy River"
          }
        ],
        "pollDivisionIds": [
          10138990
        ],
        "postalCode": "P9N3X3",
        "streetName": "DARLINGTON",
        "streetDirectionId": null,
        "streetTypeId": "DR",
        "placeName": "KENORA",
        "streetNameDisplayText": "DARLINGTON DR, KENORA"
      },
      {
        "electoralDistricts": [
          {
            "election": null,
            "id": 44,
            "name": "Kenora—Rainy River"
          }
        ],
        "pollDivisionIds": [
          10139009
        ],
        "postalCode": "P9N3X3",
        "streetName": "FIRST PORTAGE",
        "streetDirectionId": null,
        "streetTypeId": "RD",
        "placeName": "KENORA",
        "streetNameDisplayText": "FIRST PORTAGE RD, KENORA"
      },
      {
        "electoralDistricts": [
          {
            "election": null,
            "id": 44,
            "name": "Kenora—Rainy River"
          }
        ],
        "pollDivisionIds": [
          10139009
        ],
        "postalCode": "P9N3X3",
        "streetName": "GORDON",
        "streetDirectionId": null,
        "streetTypeId": "DR",
        "placeName": "KENORA",
        "streetNameDisplayText": "GORDON DR, KENORA"
      },
      {
        "electoralDistricts": [
          {
            "election": null,
            "id": 44,
            "name": "Kenora—Rainy River"
          }
        ],
        "pollDivisionIds": [
          10139009
        ],
        "postalCode": "P9N3X3",
        "streetName": "KAKEWAY",
        "streetDirectionId": null,
        "streetTypeId": "DR",
        "placeName": "KENORA",
        "streetNameDisplayText": "KAKEWAY DR, KENORA"
      },
      {
        "electoralDistricts": [
          {
            "election": null,
            "id": 44,
            "name": "Kenora—Rainy River"
          }
        ],
        "pollDivisionIds": [
          10139005
        ],
        "postalCode": "P9N3X3",
        "streetName": "LORETTA",
        "streetDirectionId": null,
        "streetTypeId": "LANE",
        "placeName": "KENORA",
        "streetNameDisplayText": "LORETTA LANE, KENORA"
      },
      {
        "electoralDistricts": [
          {
            "election": null,
            "id": 44,
            "name": "Kenora—Rainy River"
          }
        ],
        "pollDivisionIds": [
          10138991
        ],
        "postalCode": "P9N3X3",
        "streetName": "MILLER RAPIDS",
        "streetDirectionId": null,
        "streetTypeId": "RD",
        "placeName": "KENORA",
        "streetNameDisplayText": "MILLER RAPIDS RD, KENORA"
      },
      {
        "electoralDistricts": [
          {
            "election": null,
            "id": 44,
            "name": "Kenora—Rainy River"
          }
        ],
        "pollDivisionIds": [
          10139009
        ],
        "postalCode": "P9N3X3",
        "streetName": "RAT PORTAGE",
        "streetDirectionId": null,
        "streetTypeId": "RD",
        "placeName": "KENORA",
        "streetNameDisplayText": "RAT PORTAGE RD, KENORA"
      },
      {
        "electoralDistricts": [
          {
            "election": null,
            "id": 44,
            "name": "Kenora—Rainy River"
          }
        ],
        "pollDivisionIds": [
          10138985
        ],
        "postalCode": "P9N3X3",
        "streetName": "RIVERSIDE",
        "streetDirectionId": null,
        "streetTypeId": "DR",
        "placeName": "KENORA",
        "streetNameDisplayText": "RIVERSIDE DR, KENORA"
      },
      {
        "electoralDistricts": [
          {
            "election": null,
            "id": 44,
            "name": "Kenora—Rainy River"
          }
        ],
        "pollDivisionIds": [
          10139009
        ],
        "postalCode": "P9N3X3",
        "streetName": "SECOND PORTAGE",
        "streetDirectionId": null,
        "streetTypeId": null,
        "placeName": "KENORA",
        "streetNameDisplayText": "SECOND PORTAGE, KENORA"
      },
      {
        "electoralDistricts": [
          {
            "election": null,
            "id": 44,
            "name": "Kenora—Rainy River"
          }
        ],
        "pollDivisionIds": [
          10139010
        ],
        "postalCode": "P9N3X3",
        "streetName": "STORM BAY",
        "streetDirectionId": null,
        "streetTypeId": "RD",
        "placeName": "LONGBOW LAKE",
        "streetNameDisplayText": "STORM BAY RD, LONGBOW LAKE"
      }
    ]
  },
  {
    "postal": "P9N7R5",
    "result": []
  },
  {
    "postal": "P9N2X3",
    "result": [
      {
        "electoralDistricts": [
          {
            "election": null,
            "id": 44,
            "name": "Kenora—Rainy River"
          }
        ],
        "pollDivisionIds": [
          10138996
        ],
        "postalCode": "P9N2X3",
        "streetName": "VALLEY",
        "streetDirectionId": null,
        "streetTypeId": "DR",
        "placeName": "KENORA",
        "streetNameDisplayText": "VALLEY DR, KENORA"
      }
    ]
  },
  {
    "postal": "P9N8Z9",
    "result": []
  },
  {
    "postal": "P9N0N4",
    "result": []
  },
  {
    "postal": "P9N1K1",
    "result": [
      {
        "electoralDistricts": [
          {
            "election": null,
            "id": 44,
            "name": "Kenora—Rainy River"
          }
        ],
        "pollDivisionIds": [
          10139003
        ],
        "postalCode": "P9N1K1",
        "streetName": "RIVER",
        "streetDirectionId": null,
        "streetTypeId": "DR",
        "placeName": "KENORA",
        "streetNameDisplayText": "RIVER DR, KENORA"
      }
    ]
  },
  {
    "postal": "P9N1S3",
    "result": [
      {
        "electoralDistricts": [
          {
            "election": null,
            "id": 44,
            "name": "Kenora—Rainy River"
          }
        ],
        "pollDivisionIds": [
          10139003
        ],
        "postalCode": "P9N1S3",
        "streetName": "NINTH",
        "streetDirectionId": "S",
        "streetTypeId": "ST",
        "placeName": "KENORA",
        "streetNameDisplayText": "NINTH ST S, KENORA"
      }
    ]
  },
  {
    "postal": "P9N6M4",
    "result": []
  },
  {
    "postal": "P9N9A9",
    "result": []
  },
  {
    "postal": "P9N9Z9",
    "result": []
  },
  {
    "postal": "P9N6T4",
    "result": []
  },
  {
    "postal": "P9N0B2",
    "result": [
      {
        "electoralDistricts": [
          {
            "election": null,
            "id": 44,
            "name": "Kenora—Rainy River"
          }
        ],
        "pollDivisionIds": [
          10139002
        ],
        "postalCode": "P9N0B2",
        "streetName": "PUMP",
        "streetDirectionId": null,
        "streetTypeId": "AVE",
        "placeName": "KENORA",
        "streetNameDisplayText": "PUMP AVE, KENORA"
      },
      {
        "electoralDistricts": [
          {
            "election": null,
            "id": 44,
            "name": "Kenora—Rainy River"
          }
        ],
        "pollDivisionIds": [
          10139002
        ],
        "postalCode": "P9N0B2",
        "streetName": "RAILWAY",
        "streetDirectionId": null,
        "streetTypeId": "ST",
        "placeName": "KENORA",
        "streetNameDisplayText": "RAILWAY ST, KENORA"
      }
    ]
  },
  {
    "postal": "P9N2L9",
    "result": [
      {
        "electoralDistricts": [
          {
            "election": null,
            "id": 44,
            "name": "Kenora—Rainy River"
          }
        ],
        "pollDivisionIds": [
          10138991
        ],
        "postalCode": "P9N2L9",
        "streetName": "THIRD",
        "streetDirectionId": "N",
        "streetTypeId": "ST",
        "placeName": "KENORA",
        "streetNameDisplayText": "THIRD ST N, KENORA"
      }
    ]
  },
  {
    "postal": "P9N8K9",
    "result": []
  },
  {
    "postal": "P9N2H9",
    "result": [
      {
        "electoralDistricts": [
          {
            "election": null,
            "id": 44,
            "name": "Kenora—Rainy River"
          }
        ],
        "pollDivisionIds": [
          10139001
        ],
        "postalCode": "P9N2H9",
        "streetName": "NINTH",
        "streetDirectionId": "S",
        "streetTypeId": "AVE",
        "placeName": "KENORA",
        "streetNameDisplayText": "NINTH AVE S, KENORA"
      }
    ]
  },
  {
    "postal": "P9N3Z6",
    "result": [
      {
        "electoralDistricts": [
          {
            "election": null,
            "id": 44,
            "name": "Kenora—Rainy River"
          }
        ],
        "pollDivisionIds": [
          10138998
        ],
        "postalCode": "P9N3Z6",
        "streetName": "EIGHTH",
        "streetDirectionId": "N",
        "streetTypeId": "ST",
        "placeName": "KENORA",
        "streetNameDisplayText": "EIGHTH ST N, KENORA"
      }
    ]
  },
  {
    "postal": "P9N3B0",
    "result": []
  },
  {
    "postal": "P9N2H8",
    "result": [
      {
        "electoralDistricts": [
          {
            "election": null,
            "id": 44,
            "name": "Kenora—Rainy River"
          }
        ],
        "pollDivisionIds": [
          10139002
        ],
        "postalCode": "P9N2H8",
        "streetName": "NINTH",
        "streetDirectionId": "S",
        "streetTypeId": "AVE",
        "placeName": "KENORA",
        "streetNameDisplayText": "NINTH AVE S, KENORA"
      }
    ]
  },
  {
    "postal": "P9N3X2",
    "result": [
      {
        "electoralDistricts": [
          {
            "election": null,
            "id": 44,
            "name": "Kenora—Rainy River"
          }
        ],
        "pollDivisionIds": [
          10138992
        ],
        "postalCode": "P9N3X2",
        "streetName": "MAIN",
        "streetDirectionId": "S",
        "streetTypeId": "ST",
        "placeName": "KENORA",
        "streetNameDisplayText": "MAIN ST S, KENORA"
      }
    ]
  },
  {
    "postal": "P9N2E9",
    "result": [
      {
        "electoralDistricts": [
          {
            "election": null,
            "id": 44,
            "name": "Kenora—Rainy River"
          }
        ],
        "pollDivisionIds": [
          10139003
        ],
        "postalCode": "P9N2E9",
        "streetName": "SEVENTH",
        "streetDirectionId": "S",
        "streetTypeId": "AVE",
        "placeName": "KENORA",
        "streetNameDisplayText": "SEVENTH AVE S, KENORA"
      }
    ]
  },
  {
    "postal": "P9N9P6",
    "result": []
  },
  {
    "postal": "P9N9E2",
    "result": []
  },
  {
    "postal": "P9N9H2",
    "result": []
  },
  {
    "postal": "P9N1S8",
    "result": [
      {
        "electoralDistricts": [
          {
            "election": null,
            "id": 44,
            "name": "Kenora—Rainy River"
          }
        ],
        "pollDivisionIds": [
          10138992
        ],
        "postalCode": "P9N1S8",
        "streetName": "MAIN",
        "streetDirectionId": "S",
        "streetTypeId": "ST",
        "placeName": "KENORA",
        "streetNameDisplayText": "MAIN ST S, KENORA"
      }
    ]
  },
  {
    "postal": "P9N3M6",
    "result": [
      {
        "electoralDistricts": [
          {
            "election": null,
            "id": 44,
            "name": "Kenora—Rainy River"
          }
        ],
        "pollDivisionIds": [
          10138998
        ],
        "postalCode": "P9N3M6",
        "streetName": "FIFTEENTH",
        "streetDirectionId": "N",
        "streetTypeId": "AVE",
        "placeName": "KENORA",
        "streetNameDisplayText": "FIFTEENTH AVE N, KENORA"
      }
    ]
  },
  {
    "postal": "P9N6Z8",
    "result": []
  },
  {
    "postal": "P9N4J2",
    "result": [
      {
        "electoralDistricts": [
          {
            "election": null,
            "id": 44,
            "name": "Kenora—Rainy River"
          }
        ],
        "pollDivisionIds": [
          10139028
        ],
        "postalCode": "P9N4J2",
        "streetName": "ROBERTSON",
        "streetDirectionId": null,
        "streetTypeId": "ST",
        "placeName": "KENORA",
        "streetNameDisplayText": "ROBERTSON ST, KENORA"
      }
    ]
  },
  {
    "postal": "P9N9Y1",
    "result": []
  },
  {
    "postal": "P9N8V6",
    "result": []
  },
  {
    "postal": "P9N6B2",
    "result": []
  },
  {
    "postal": "P9N1P8",
    "result": [
      {
        "electoralDistricts": [
          {
            "election": null,
            "id": 44,
            "name": "Kenora—Rainy River"
          }
        ],
        "pollDivisionIds": [
          10139028
        ],
        "postalCode": "P9N1P8",
        "streetName": "SEVENTH",
        "streetDirectionId": "S",
        "streetTypeId": "ST",
        "placeName": "KENORA",
        "streetNameDisplayText": "SEVENTH ST S, KENORA"
      }
    ]
  },
  {
    "postal": "P9N0V8",
    "result": []
  },
  {
    "postal": "P9N4Y0",
    "result": []
  },
  {
    "postal": "P9N2T4",
    "result": [
      {
        "electoralDistricts": [
          {
            "election": null,
            "id": 44,
            "name": "Kenora—Rainy River"
          }
        ],
        "pollDivisionIds": [
          10138998
        ],
        "postalCode": "P9N2T4",
        "streetName": "9TH",
        "streetDirectionId": "N",
        "streetTypeId": "ST",
        "placeName": "KENORA",
        "streetNameDisplayText": "9TH ST N, KENORA"
      },
      {
        "electoralDistricts": [
          {
            "election": null,
            "id": 44,
            "name": "Kenora—Rainy River"
          }
        ],
        "pollDivisionIds": [
          10138998
        ],
        "postalCode": "P9N2T4",
        "streetName": "NINTH",
        "streetDirectionId": "N",
        "streetTypeId": "ST",
        "placeName": "KENORA",
        "streetNameDisplayText": "NINTH ST N, KENORA"
      }
    ]
  },
  {
    "postal": "P9N2S3",
    "result": [
      {
        "electoralDistricts": [
          {
            "election": null,
            "id": 44,
            "name": "Kenora—Rainy River"
          }
        ],
        "pollDivisionIds": [
          10138998
        ],
        "postalCode": "P9N2S3",
        "streetName": "EIGHTH",
        "streetDirectionId": "N",
        "streetTypeId": "ST",
        "placeName": "KENORA",
        "streetNameDisplayText": "EIGHTH ST N, KENORA"
      }
    ]
  },
  {
    "postal": "P9N0K0",
    "result": []
  },
  {
    "postal": "P9N5N1",
    "result": []
  },
  {
    "postal": "P9N7T0",
    "result": []
  },
  {
    "postal": "P9N9N2",
    "result": []
  },
  {
    "postal": "P9N5L1",
    "result": []
  },
  {
    "postal": "P9N7G5",
    "result": []
  },
  {
    "postal": "P9N6K2",
    "result": []
  },
  {
    "postal": "P9N6P9",
    "result": []
  },
  {
    "postal": "P9N0E6",
    "result": [
      {
        "electoralDistricts": [
          {
            "election": null,
            "id": 44,
            "name": "Kenora—Rainy River"
          }
        ],
        "pollDivisionIds": [
          10139005
        ],
        "postalCode": "P9N0E6",
        "streetName": "HANEY",
        "streetDirectionId": null,
        "streetTypeId": "RD",
        "placeName": "KENORA",
        "streetNameDisplayText": "HANEY RD, KENORA"
      },
      {
        "electoralDistricts": [
          {
            "election": null,
            "id": 44,
            "name": "Kenora—Rainy River"
          }
        ],
        "pollDivisionIds": [
          10138988
        ],
        "postalCode": "P9N0E6",
        "streetName": "REDDITT",
        "streetDirectionId": null,
        "streetTypeId": "RD",
        "placeName": "KENORA",
        "streetNameDisplayText": "REDDITT RD, KENORA"
      },
      {
        "electoralDistricts": [
          {
            "election": null,
            "id": 44,
            "name": "Kenora—Rainy River"
          }
        ],
        "pollDivisionIds": [
          10138988
        ],
        "postalCode": "P9N0E6",
        "streetName": "SNOW",
        "streetDirectionId": null,
        "streetTypeId": "DR",
        "placeName": "KENORA",
        "streetNameDisplayText": "SNOW DR, KENORA"
      },
      {
        "electoralDistricts": [
          {
            "election": null,
            "id": 44,
            "name": "Kenora—Rainy River"
          }
        ],
        "pollDivisionIds": [
          10138988
        ],
        "postalCode": "P9N0E6",
        "streetName": "SNOW",
        "streetDirectionId": null,
        "streetTypeId": "PL",
        "placeName": "KENORA",
        "streetNameDisplayText": "SNOW PL, KENORA"
      }
    ]
  },
  {
    "postal": "P9N8R9",
    "result": []
  },
  {
    "postal": "P9N3G9",
    "result": [
      {
        "electoralDistricts": [
          {
            "election": null,
            "id": 44,
            "name": "Kenora—Rainy River"
          }
        ],
        "pollDivisionIds": [
          10138991
        ],
        "postalCode": "P9N3G9",
        "streetName": "MATHESON",
        "streetDirectionId": "N",
        "streetTypeId": "ST",
        "placeName": "KENORA",
        "streetNameDisplayText": "MATHESON ST N, KENORA"
      }
    ]
  },
  {
    "postal": "P9N0V7",
    "result": []
  },
  {
    "postal": "P9N2Z1",
    "result": []
  },
  {
    "postal": "P9N7N1",
    "result": []
  },
  {
    "postal": "P9N3C6",
    "result": [
      {
        "electoralDistricts": [
          {
            "election": null,
            "id": 44,
            "name": "Kenora—Rainy River"
          }
        ],
        "pollDivisionIds": [
          10138991
        ],
        "postalCode": "P9N3C6",
        "streetName": "MELLICK",
        "streetDirectionId": null,
        "streetTypeId": "AVE",
        "placeName": "KENORA",
        "streetNameDisplayText": "MELLICK AVE, KENORA"
      }
    ]
  },
  {
    "postal": "P9N4M1",
    "result": [
      {
        "electoralDistricts": [
          {
            "election": null,
            "id": 44,
            "name": "Kenora—Rainy River"
          }
        ],
        "pollDivisionIds": [
          10138993
        ],
        "postalCode": "P9N4M1",
        "streetName": "RABBIT LAKE",
        "streetDirectionId": null,
        "streetTypeId": "RD",
        "placeName": "KENORA",
        "streetNameDisplayText": "RABBIT LAKE RD, KENORA"
      }
    ]
  },
  {
    "postal": "P9N9K2",
    "result": []
  },
  {
    "postal": "P9N9S6",
    "result": []
  },
  {
    "postal": "P9N4X1",
    "result": []
  },
  {
    "postal": "P9N8W2",
    "result": []
  },
  {
    "postal": "P9N7N2",
    "result": []
  },
  {
    "postal": "P9N8S3",
    "result": []
  },
  {
    "postal": "P9N4V0",
    "result": []
  },
  {
    "postal": "P9N6W4",
    "result": []
  },
  {
    "postal": "P9N5M1",
    "result": []
  },
  {
    "postal": "P9N0S4",
    "result": []
  },
  {
    "postal": "P9N5X6",
    "result": []
  },
  {
    "postal": "P9N8L5",
    "result": []
  },
  {
    "postal": "P9N5M8",
    "result": []
  },
  {
    "postal": "P9N2G3",
    "result": [
      {
        "electoralDistricts": [
          {
            "election": null,
            "id": 44,
            "name": "Kenora—Rainy River"
          }
        ],
        "pollDivisionIds": [
          10139003
        ],
        "postalCode": "P9N2G3",
        "streetName": "SEVENTH",
        "streetDirectionId": "S",
        "streetTypeId": "AVE",
        "placeName": "KENORA",
        "streetNameDisplayText": "SEVENTH AVE S, KENORA"
      },
      {
        "electoralDistricts": [
          {
            "election": null,
            "id": 44,
            "name": "Kenora—Rainy River"
          }
        ],
        "pollDivisionIds": [
          10138985
        ],
        "postalCode": "P9N2G3",
        "streetName": "SEVENTH",
        "streetDirectionId": "S",
        "streetTypeId": "ST",
        "placeName": "KENORA",
        "streetNameDisplayText": "SEVENTH ST S, KENORA"
      }
    ]
  },
  {
    "postal": "P9N8E4",
    "result": []
  },
  {
    "postal": "P9N7S9",
    "result": []
  },
  {
    "postal": "P9N1K3",
    "result": [
      {
        "electoralDistricts": [
          {
            "election": null,
            "id": 44,
            "name": "Kenora—Rainy River"
          }
        ],
        "pollDivisionIds": [
          10139003
        ],
        "postalCode": "P9N1K3",
        "streetName": "RIVER",
        "streetDirectionId": null,
        "streetTypeId": "DR",
        "placeName": "KENORA",
        "streetNameDisplayText": "RIVER DR, KENORA"
      }
    ]
  },
  {
    "postal": "P9N4E1",
    "result": [
      {
        "electoralDistricts": [
          {
            "election": null,
            "id": 44,
            "name": "Kenora—Rainy River"
          }
        ],
        "pollDivisionIds": [
          10138991
        ],
        "postalCode": "P9N4E1",
        "streetName": "HOUGHTON",
        "streetDirectionId": null,
        "streetTypeId": "RD",
        "placeName": "KENORA",
        "streetNameDisplayText": "HOUGHTON RD, KENORA"
      }
    ]
  },
  {
    "postal": "P9N4R2",
    "result": [
      {
        "electoralDistricts": [
          {
            "election": null,
            "id": 44,
            "name": "Kenora—Rainy River"
          }
        ],
        "pollDivisionIds": [
          10139017,
          10139005
        ],
        "postalCode": "P9N4R2",
        "streetName": "SCHOOL",
        "streetDirectionId": null,
        "streetTypeId": "RD",
        "placeName": "KENORA",
        "streetNameDisplayText": "SCHOOL RD, KENORA"
      }
    ]
  },
  {
    "postal": "P9N6T0",
    "result": []
  },
  {
    "postal": "P9N3K5",
    "result": [
      {
        "electoralDistricts": [
          {
            "election": null,
            "id": 44,
            "name": "Kenora—Rainy River"
          }
        ],
        "pollDivisionIds": [
          10138995
        ],
        "postalCode": "P9N3K5",
        "streetName": "MINTO",
        "streetDirectionId": null,
        "streetTypeId": "DR",
        "placeName": "KENORA",
        "streetNameDisplayText": "MINTO DR, KENORA"
      }
    ]
  },
  {
    "postal": "P9N3S3",
    "result": [
      {
        "electoralDistricts": [
          {
            "election": null,
            "id": 44,
            "name": "Kenora—Rainy River"
          }
        ],
        "pollDivisionIds": [
          10138990
        ],
        "postalCode": "P9N3S3",
        "streetName": "KAY",
        "streetDirectionId": "W",
        "streetTypeId": "ST",
        "placeName": "KENORA",
        "streetNameDisplayText": "KAY ST W, KENORA"
      }
    ]
  },
  {
    "postal": "P9N3L4",
    "result": [
      {
        "electoralDistricts": [
          {
            "election": null,
            "id": 44,
            "name": "Kenora—Rainy River"
          }
        ],
        "pollDivisionIds": [
          10138994
        ],
        "postalCode": "P9N3L4",
        "streetName": "TWELFTH",
        "streetDirectionId": "N",
        "streetTypeId": "AVE",
        "placeName": "KENORA",
        "streetNameDisplayText": "TWELFTH AVE N, KENORA"
      }
    ]
  },
  {
    "postal": "P9N9Y2",
    "result": []
  },
  {
    "postal": "P9N1E0",
    "result": []
  },
  {
    "postal": "P9N9A4",
    "result": []
  },
  {
    "postal": "P9N1L3",
    "result": [
      {
        "electoralDistricts": [
          {
            "election": null,
            "id": 44,
            "name": "Kenora—Rainy River"
          }
        ],
        "pollDivisionIds": [
          10139029
        ],
        "postalCode": "P9N1L3",
        "streetName": "FIFTH",
        "streetDirectionId": "S",
        "streetTypeId": "ST",
        "placeName": "KENORA",
        "streetNameDisplayText": "FIFTH ST S, KENORA"
      }
    ]
  },
  {
    "postal": "P9N6N1",
    "result": []
  },
  {
    "postal": "P9N6G7",
    "result": []
  },
  {
    "postal": "P9N7W1",
    "result": []
  },
  {
    "postal": "P9N4M6",
    "result": [
      {
        "electoralDistricts": [
          {
            "election": null,
            "id": 44,
            "name": "Kenora—Rainy River"
          }
        ],
        "pollDivisionIds": [
          10138993
        ],
        "postalCode": "P9N4M6",
        "streetName": "RABBIT LAKE",
        "streetDirectionId": null,
        "streetTypeId": "RD",
        "placeName": "KENORA",
        "streetNameDisplayText": "RABBIT LAKE RD, KENORA"
      }
    ]
  },
  {
    "postal": "P9N1K0",
    "result": []
  },
  {
    "postal": "P9N3E2",
    "result": [
      {
        "electoralDistricts": [
          {
            "election": null,
            "id": 44,
            "name": "Kenora—Rainy River"
          }
        ],
        "pollDivisionIds": [
          10138991
        ],
        "postalCode": "P9N3E2",
        "streetName": "MAIN",
        "streetDirectionId": "N",
        "streetTypeId": "ST",
        "placeName": "KENORA",
        "streetNameDisplayText": "MAIN ST N, KENORA"
      }
    ]
  },
  {
    "postal": "P9N5H4",
    "result": []
  },
  {
    "postal": "P9N1K7",
    "result": [
      {
        "electoralDistricts": [
          {
            "election": null,
            "id": 44,
            "name": "Kenora—Rainy River"
          }
        ],
        "pollDivisionIds": [
          10139003
        ],
        "postalCode": "P9N1K7",
        "streetName": "4TH",
        "streetDirectionId": "S",
        "streetTypeId": "ST",
        "placeName": "KENORA",
        "streetNameDisplayText": "4TH ST S, KENORA"
      },
      {
        "electoralDistricts": [
          {
            "election": null,
            "id": 44,
            "name": "Kenora—Rainy River"
          }
        ],
        "pollDivisionIds": [
          10139003
        ],
        "postalCode": "P9N1K7",
        "streetName": "FOURTH",
        "streetDirectionId": "S",
        "streetTypeId": "ST",
        "placeName": "KENORA",
        "streetNameDisplayText": "FOURTH ST S, KENORA"
      },
      {
        "electoralDistricts": [
          {
            "election": null,
            "id": 44,
            "name": "Kenora—Rainy River"
          }
        ],
        "pollDivisionIds": [
          10139003
        ],
        "postalCode": "P9N1K7",
        "streetName": "RIVER",
        "streetDirectionId": null,
        "streetTypeId": "DR",
        "placeName": "KENORA",
        "streetNameDisplayText": "RIVER DR, KENORA"
      }
    ]
  },
  {
    "postal": "P9N0H0",
    "result": []
  },
  {
    "postal": "P9N0J3",
    "result": []
  },
  {
    "postal": "P9N1X6",
    "result": [
      {
        "electoralDistricts": [
          {
            "election": null,
            "id": 44,
            "name": "Kenora—Rainy River"
          }
        ],
        "pollDivisionIds": [
          10139028
        ],
        "postalCode": "P9N1X6",
        "streetName": "SECOND",
        "streetDirectionId": "S",
        "streetTypeId": "AVE",
        "placeName": "KENORA",
        "streetNameDisplayText": "SECOND AVE S, KENORA"
      }
    ]
  },
  {
    "postal": "P9N2Z6",
    "result": [
      {
        "electoralDistricts": [
          {
            "election": null,
            "id": 44,
            "name": "Kenora—Rainy River"
          }
        ],
        "pollDivisionIds": [
          10138991
        ],
        "postalCode": "P9N2Z6",
        "streetName": "REGINA",
        "streetDirectionId": null,
        "streetTypeId": "AVE",
        "placeName": "KENORA",
        "streetNameDisplayText": "REGINA AVE, KENORA"
      }
    ]
  },
  {
    "postal": "P9N4R9",
    "result": []
  },
  {
    "postal": "P9N0W8",
    "result": []
  },
  {
    "postal": "P9N1L4",
    "result": [
      {
        "electoralDistricts": [
          {
            "election": null,
            "id": 44,
            "name": "Kenora—Rainy River"
          }
        ],
        "pollDivisionIds": [
          10139029
        ],
        "postalCode": "P9N1L4",
        "streetName": "FIFTH",
        "streetDirectionId": "S",
        "streetTypeId": "ST",
        "placeName": "KENORA",
        "streetNameDisplayText": "FIFTH ST S, KENORA"
      }
    ]
  },
  {
    "postal": "P9N0C8",
    "result": [
      {
        "electoralDistricts": [
          {
            "election": null,
            "id": 44,
            "name": "Kenora—Rainy River"
          }
        ],
        "pollDivisionIds": [
          10138991
        ],
        "postalCode": "P9N0C8",
        "streetName": "MELLICK",
        "streetDirectionId": null,
        "streetTypeId": "AVE",
        "placeName": "KENORA",
        "streetNameDisplayText": "MELLICK AVE, KENORA"
      },
      {
        "electoralDistricts": [
          {
            "election": null,
            "id": 44,
            "name": "Kenora—Rainy River"
          }
        ],
        "pollDivisionIds": [
          10139005
        ],
        "postalCode": "P9N0C8",
        "streetName": "MELLICK",
        "streetDirectionId": "E",
        "streetTypeId": "RD",
        "placeName": "KENORA",
        "streetNameDisplayText": "MELLICK RD E, KENORA"
      }
    ]
  },
  {
    "postal": "P9N9X7",
    "result": []
  },
  {
    "postal": "P9N4T1",
    "result": [
      {
        "electoralDistricts": [
          {
            "election": null,
            "id": 44,
            "name": "Kenora—Rainy River"
          }
        ],
        "pollDivisionIds": [
          10139029
        ],
        "postalCode": "P9N4T1",
        "streetName": "CONEY",
        "streetDirectionId": null,
        "streetTypeId": "ISLAND",
        "placeName": "KENORA",
        "streetNameDisplayText": "CONEY ISLAND, KENORA"
      }
    ]
  },
  {
    "postal": "P9N0M0",
    "result": []
  },
  {
    "postal": "P9N6A2",
    "result": []
  },
  {
    "postal": "P9N9S8",
    "result": []
  },
  {
    "postal": "P9N9T4",
    "result": []
  },
  {
    "postal": "P9N9Y4",
    "result": []
  },
  {
    "postal": "P9N6G5",
    "result": []
  },
  {
    "postal": "P9N6H9",
    "result": []
  },
  {
    "postal": "P9N2P3",
    "result": [
      {
        "electoralDistricts": [
          {
            "election": null,
            "id": 44,
            "name": "Kenora—Rainy River"
          }
        ],
        "pollDivisionIds": [
          10138997
        ],
        "postalCode": "P9N2P3",
        "streetName": "FIFTH",
        "streetDirectionId": "N",
        "streetTypeId": "ST",
        "placeName": "KENORA",
        "streetNameDisplayText": "FIFTH ST N, KENORA"
      }
    ]
  },
  {
    "postal": "P9N1T6",
    "result": [
      {
        "electoralDistricts": [
          {
            "election": null,
            "id": 44,
            "name": "Kenora—Rainy River"
          }
        ],
        "pollDivisionIds": [
          10138992
        ],
        "postalCode": "P9N1T6",
        "streetName": "MATHESON",
        "streetDirectionId": "S",
        "streetTypeId": "ST",
        "placeName": "KENORA",
        "streetNameDisplayText": "MATHESON ST S, KENORA"
      }
    ]
  },
  {
    "postal": "P9N4P6",
    "result": []
  },
  {
    "postal": "P9N3K1",
    "result": [
      {
        "electoralDistricts": [
          {
            "election": null,
            "id": 44,
            "name": "Kenora—Rainy River"
          }
        ],
        "pollDivisionIds": [
          10138994,
          10138995
        ],
        "postalCode": "P9N3K1",
        "streetName": "MINTO",
        "streetDirectionId": null,
        "streetTypeId": "AVE",
        "placeName": "KENORA",
        "streetNameDisplayText": "MINTO AVE, KENORA"
      }
    ]
  },
  {
    "postal": "P9N6X4",
    "result": []
  },
  {
    "postal": "P9N4M8",
    "result": []
  },
  {
    "postal": "P9N2Y1",
    "result": [
      {
        "electoralDistricts": [
          {
            "election": null,
            "id": 44,
            "name": "Kenora—Rainy River"
          }
        ],
        "pollDivisionIds": [
          10138995
        ],
        "postalCode": "P9N2Y1",
        "streetName": "HILLSIDE",
        "streetDirectionId": null,
        "streetTypeId": "CRES",
        "placeName": "KENORA",
        "streetNameDisplayText": "HILLSIDE CRES, KENORA"
      }
    ]
  },
  {
    "postal": "P9N6M1",
    "result": []
  },
  {
    "postal": "P9N5L8",
    "result": []
  },
  {
    "postal": "P9N3P6",
    "result": [
      {
        "electoralDistricts": [
          {
            "election": null,
            "id": 44,
            "name": "Kenora—Rainy River"
          }
        ],
        "pollDivisionIds": [
          10138992
        ],
        "postalCode": "P9N3P6",
        "streetName": "LAKEVIEW",
        "streetDirectionId": null,
        "streetTypeId": "DR",
        "placeName": "KENORA",
        "streetNameDisplayText": "LAKEVIEW DR, KENORA"
      }
    ]
  },
  {
    "postal": "P9N9A5",
    "result": []
  },
  {
    "postal": "P9N7K1",
    "result": []
  },
  {
    "postal": "P9N3J4",
    "result": [
      {
        "electoralDistricts": [
          {
            "election": null,
            "id": 44,
            "name": "Kenora—Rainy River"
          }
        ],
        "pollDivisionIds": [
          10138997
        ],
        "postalCode": "P9N3J4",
        "streetName": "EIGHTH",
        "streetDirectionId": "N",
        "streetTypeId": "AVE",
        "placeName": "KENORA",
        "streetNameDisplayText": "EIGHTH AVE N, KENORA"
      }
    ]
  },
  {
    "postal": "P9N5E7",
    "result": []
  },
  {
    "postal": "P9N3A7",
    "result": [
      {
        "electoralDistricts": [
          {
            "election": null,
            "id": 44,
            "name": "Kenora—Rainy River"
          }
        ],
        "pollDivisionIds": [
          10138991
        ],
        "postalCode": "P9N3A7",
        "streetName": "MIKADO",
        "streetDirectionId": null,
        "streetTypeId": "AVE",
        "placeName": "KENORA",
        "streetNameDisplayText": "MIKADO AVE, KENORA"
      }
    ]
  },
  {
    "postal": "P9N1B9",
    "result": [
      {
        "electoralDistricts": [
          {
            "election": null,
            "id": 44,
            "name": "Kenora—Rainy River"
          }
        ],
        "pollDivisionIds": [
          10139002
        ],
        "postalCode": "P9N1B9",
        "streetName": "PARK",
        "streetDirectionId": null,
        "streetTypeId": "ST",
        "placeName": "KENORA",
        "streetNameDisplayText": "PARK ST, KENORA"
      }
    ]
  },
  {
    "postal": "P9N9E8",
    "result": []
  },
  {
    "postal": "P9N1C9",
    "result": [
      {
        "electoralDistricts": [
          {
            "election": null,
            "id": 44,
            "name": "Kenora—Rainy River"
          }
        ],
        "pollDivisionIds": [
          10139000
        ],
        "postalCode": "P9N1C9",
        "streetName": "1ST",
        "streetDirectionId": "S",
        "streetTypeId": "ST",
        "placeName": "KENORA",
        "streetNameDisplayText": "1ST ST S, KENORA"
      },
      {
        "electoralDistricts": [
          {
            "election": null,
            "id": 44,
            "name": "Kenora—Rainy River"
          }
        ],
        "pollDivisionIds": [
          10139000
        ],
        "postalCode": "P9N1C9",
        "streetName": "FIRST",
        "streetDirectionId": "S",
        "streetTypeId": "ST",
        "placeName": "KENORA",
        "streetNameDisplayText": "FIRST ST S, KENORA"
      }
    ]
  },
  {
    "postal": "P9N3B5",
    "result": [
      {
        "electoralDistricts": [
          {
            "election": null,
            "id": 44,
            "name": "Kenora—Rainy River"
          }
        ],
        "pollDivisionIds": [
          10138991
        ],
        "postalCode": "P9N3B5",
        "streetName": "RUPERT",
        "streetDirectionId": null,
        "streetTypeId": "RD",
        "placeName": "KENORA",
        "streetNameDisplayText": "RUPERT RD, KENORA"
      }
    ]
  },
  {
    "postal": "P9N8R0",
    "result": []
  },
  {
    "postal": "P9N3P2",
    "result": [
      {
        "electoralDistricts": [
          {
            "election": null,
            "id": 44,
            "name": "Kenora—Rainy River"
          }
        ],
        "pollDivisionIds": [
          10138990
        ],
        "postalCode": "P9N3P2",
        "streetName": "MINNESOTA",
        "streetDirectionId": null,
        "streetTypeId": "ST",
        "placeName": "KENORA",
        "streetNameDisplayText": "MINNESOTA ST, KENORA"
      }
    ]
  },
  {
    "postal": "P9N5V4",
    "result": []
  },
  {
    "postal": "P9N4H0",
    "result": []
  },
  {
    "postal": "P9N4S7",
    "result": []
  },
  {
    "postal": "P9N6C2",
    "result": []
  },
  {
    "postal": "P9N8W3",
    "result": []
  },
  {
    "postal": "P9N4M5",
    "result": [
      {
        "electoralDistricts": [
          {
            "election": null,
            "id": 44,
            "name": "Kenora—Rainy River"
          }
        ],
        "pollDivisionIds": [
          10138993
        ],
        "postalCode": "P9N4M5",
        "streetName": "RABBIT LAKE",
        "streetDirectionId": null,
        "streetTypeId": "RD",
        "placeName": "KENORA",
        "streetNameDisplayText": "RABBIT LAKE RD, KENORA"
      }
    ]
  },
  {
    "postal": "P9N5T1",
    "result": []
  },
  {
    "postal": "P9N3B3",
    "result": [
      {
        "electoralDistricts": [
          {
            "election": null,
            "id": 44,
            "name": "Kenora—Rainy River"
          }
        ],
        "pollDivisionIds": [
          10138991
        ],
        "postalCode": "P9N3B3",
        "streetName": "TROJAN",
        "streetDirectionId": null,
        "streetTypeId": "ST",
        "placeName": "KENORA",
        "streetNameDisplayText": "TROJAN ST, KENORA"
      }
    ]
  },
  {
    "postal": "P9N6C6",
    "result": []
  },
  {
    "postal": "P9N7N8",
    "result": []
  },
  {
    "postal": "P9N2Y3",
    "result": [
      {
        "electoralDistricts": [
          {
            "election": null,
            "id": 44,
            "name": "Kenora—Rainy River"
          }
        ],
        "pollDivisionIds": [
          10138991
        ],
        "postalCode": "P9N2Y3",
        "streetName": "ELEVENTH",
        "streetDirectionId": "N",
        "streetTypeId": "ST",
        "placeName": "KENORA",
        "streetNameDisplayText": "ELEVENTH ST N, KENORA"
      }
    ]
  },
  {
    "postal": "P9N2R6",
    "result": [
      {
        "electoralDistricts": [
          {
            "election": null,
            "id": 44,
            "name": "Kenora—Rainy River"
          }
        ],
        "pollDivisionIds": [
          10138998
        ],
        "postalCode": "P9N2R6",
        "streetName": "EIGHTH",
        "streetDirectionId": "N",
        "streetTypeId": "ST",
        "placeName": "KENORA",
        "streetNameDisplayText": "EIGHTH ST N, KENORA"
      }
    ]
  },
  {
    "postal": "P9N7N3",
    "result": []
  },
  {
    "postal": "P9N8J2",
    "result": []
  },
  {
    "postal": "P9N6A9",
    "result": []
  },
  {
    "postal": "P9N3V2",
    "result": [
      {
        "electoralDistricts": [
          {
            "election": null,
            "id": 44,
            "name": "Kenora—Rainy River"
          }
        ],
        "pollDivisionIds": [
          10138992
        ],
        "postalCode": "P9N3V2",
        "streetName": "NASH",
        "streetDirectionId": null,
        "streetTypeId": "ST",
        "placeName": "KENORA",
        "streetNameDisplayText": "NASH ST, KENORA"
      }
    ]
  },
  {
    "postal": "P9N2N3",
    "result": [
      {
        "electoralDistricts": [
          {
            "election": null,
            "id": 44,
            "name": "Kenora—Rainy River"
          }
        ],
        "pollDivisionIds": [
          10138997
        ],
        "postalCode": "P9N2N3",
        "streetName": "FOURTH",
        "streetDirectionId": "N",
        "streetTypeId": "ST",
        "placeName": "KENORA",
        "streetNameDisplayText": "FOURTH ST N, KENORA"
      }
    ]
  },
  {
    "postal": "P9N1S5",
    "result": [
      {
        "electoralDistricts": [
          {
            "election": null,
            "id": 44,
            "name": "Kenora—Rainy River"
          }
        ],
        "pollDivisionIds": [
          10138992
        ],
        "postalCode": "P9N1S5",
        "streetName": "WATER",
        "streetDirectionId": null,
        "streetTypeId": "ST",
        "placeName": "KENORA",
        "streetNameDisplayText": "WATER ST, KENORA"
      }
    ]
  },
  {
    "postal": "P9N4T7",
    "result": []
  },
  {
    "postal": "P9N6Y7",
    "result": []
  },
  {
    "postal": "P9N0W7",
    "result": []
  },
  {
    "postal": "P9N2W9",
    "result": [
      {
        "electoralDistricts": [
          {
            "election": null,
            "id": 44,
            "name": "Kenora—Rainy River"
          }
        ],
        "pollDivisionIds": [
          10138996
        ],
        "postalCode": "P9N2W9",
        "streetName": "VALLEY",
        "streetDirectionId": null,
        "streetTypeId": "DR",
        "placeName": "KENORA",
        "streetNameDisplayText": "VALLEY DR, KENORA"
      }
    ]
  },
  {
    "postal": "P9N8V0",
    "result": []
  },
  {
    "postal": "P9N0H4",
    "result": [
      {
        "electoralDistricts": [
          {
            "election": null,
            "id": 44,
            "name": "Kenora—Rainy River"
          }
        ],
        "pollDivisionIds": [
          10139006
        ],
        "postalCode": "P9N0H4",
        "streetName": "BARKMAN",
        "streetDirectionId": null,
        "streetTypeId": "CLOSE",
        "placeName": "KENORA",
        "streetNameDisplayText": "BARKMAN CLOSE, KENORA"
      },
      {
        "electoralDistricts": [
          {
            "election": null,
            "id": 44,
            "name": "Kenora—Rainy River"
          }
        ],
        "pollDivisionIds": [
          10139006
        ],
        "postalCode": "P9N0H4",
        "streetName": "HOMESTAKE",
        "streetDirectionId": null,
        "streetTypeId": "RD",
        "placeName": "KENORA",
        "streetNameDisplayText": "HOMESTAKE RD, KENORA"
      },
      {
        "electoralDistricts": [
          {
            "election": null,
            "id": 44,
            "name": "Kenora—Rainy River"
          }
        ],
        "pollDivisionIds": [
          10139006
        ],
        "postalCode": "P9N0H4",
        "streetName": "SEITLER",
        "streetDirectionId": null,
        "streetTypeId": "DR",
        "placeName": "KENORA",
        "streetNameDisplayText": "SEITLER DR, KENORA"
      },
      {
        "electoralDistricts": [
          {
            "election": null,
            "id": 44,
            "name": "Kenora—Rainy River"
          }
        ],
        "pollDivisionIds": [
          10139006,
          10139008
        ],
        "postalCode": "P9N0H4",
        "streetName": "TRANSMITTER",
        "streetDirectionId": null,
        "streetTypeId": "RD",
        "placeName": "KENORA",
        "streetNameDisplayText": "TRANSMITTER RD, KENORA"
      }
    ]
  },
  {
    "postal": "P9N2T1",
    "result": []
  },
  {
    "postal": "P9N1B1",
    "result": []
  },
  {
    "postal": "P9N8B6",
    "result": []
  },
  {
    "postal": "P9N6H1",
    "result": []
  },
  {
    "postal": "P9N8T8",
    "result": []
  },
  {
    "postal": "P9N0T4",
    "result": []
  },
  {
    "postal": "P9N2C4",
    "result": [
      {
        "electoralDistricts": [
          {
            "election": null,
            "id": 44,
            "name": "Kenora—Rainy River"
          }
        ],
        "pollDivisionIds": [
          10139003
        ],
        "postalCode": "P9N2C4",
        "streetName": "SIXTH",
        "streetDirectionId": "S",
        "streetTypeId": "AVE",
        "placeName": "KENORA",
        "streetNameDisplayText": "SIXTH AVE S, KENORA"
      },
      {
        "electoralDistricts": [
          {
            "election": null,
            "id": 44,
            "name": "Kenora—Rainy River"
          }
        ],
        "pollDivisionIds": [
          10138985
        ],
        "postalCode": "P9N2C4",
        "streetName": "SIXTH",
        "streetDirectionId": "S",
        "streetTypeId": "ST",
        "placeName": "KENORA",
        "streetNameDisplayText": "SIXTH ST S, KENORA"
      }
    ]
  },
  {
    "postal": "P9N8N3",
    "result": []
  },
  {
    "postal": "P9N4L8",
    "result": [
      {
        "electoralDistricts": [
          {
            "election": null,
            "id": 44,
            "name": "Kenora—Rainy River"
          }
        ],
        "pollDivisionIds": [
          10138993
        ],
        "postalCode": "P9N4L8",
        "streetName": "RABBIT LAKE",
        "streetDirectionId": null,
        "streetTypeId": "RD",
        "placeName": "KENORA",
        "streetNameDisplayText": "RABBIT LAKE RD, KENORA"
      }
    ]
  },
  {
    "postal": "P9N2B5",
    "result": [
      {
        "electoralDistricts": [
          {
            "election": null,
            "id": 44,
            "name": "Kenora—Rainy River"
          }
        ],
        "pollDivisionIds": [
          10139000
        ],
        "postalCode": "P9N2B5",
        "streetName": "SIXTH",
        "streetDirectionId": "S",
        "streetTypeId": "AVE",
        "placeName": "KENORA",
        "streetNameDisplayText": "SIXTH AVE S, KENORA"
      }
    ]
  },
  {
    "postal": "P9N3H1",
    "result": [
      {
        "electoralDistricts": [
          {
            "election": null,
            "id": 44,
            "name": "Kenora—Rainy River"
          }
        ],
        "pollDivisionIds": [
          10138991
        ],
        "postalCode": "P9N3H1",
        "streetName": "SCRAMBLE",
        "streetDirectionId": null,
        "streetTypeId": "AVE",
        "placeName": "KENORA",
        "streetNameDisplayText": "SCRAMBLE AVE, KENORA"
      }
    ]
  },
  {
    "postal": "P9N4Y1",
    "result": []
  },
  {
    "postal": "P9N7E2",
    "result": []
  },
  {
    "postal": "P9N2P5",
    "result": [
      {
        "electoralDistricts": [
          {
            "election": null,
            "id": 44,
            "name": "Kenora—Rainy River"
          }
        ],
        "pollDivisionIds": [
          10138997
        ],
        "postalCode": "P9N2P5",
        "streetName": "SIXTH",
        "streetDirectionId": "N",
        "streetTypeId": "ST",
        "placeName": "KENORA",
        "streetNameDisplayText": "SIXTH ST N, KENORA"
      }
    ]
  },
  {
    "postal": "P9N8R7",
    "result": []
  },
  {
    "postal": "P9N9P1",
    "result": []
  },
  {
    "postal": "P9N3B8",
    "result": [
      {
        "electoralDistricts": [
          {
            "election": null,
            "id": 44,
            "name": "Kenora—Rainy River"
          }
        ],
        "pollDivisionIds": [
          10138991
        ],
        "postalCode": "P9N3B8",
        "streetName": "RUPERT",
        "streetDirectionId": null,
        "streetTypeId": "RD",
        "placeName": "KENORA",
        "streetNameDisplayText": "RUPERT RD, KENORA"
      }
    ]
  },
  {
    "postal": "P9N3P7",
    "result": [
      {
        "electoralDistricts": [
          {
            "election": null,
            "id": 44,
            "name": "Kenora—Rainy River"
          }
        ],
        "pollDivisionIds": [
          10138990,
          10138992
        ],
        "postalCode": "P9N3P7",
        "streetName": "LAKEVIEW",
        "streetDirectionId": null,
        "streetTypeId": "DR",
        "placeName": "KENORA",
        "streetNameDisplayText": "LAKEVIEW DR, KENORA"
      }
    ]
  },
  {
    "postal": "P9N9B2",
    "result": []
  },
  {
    "postal": "P9N6Z3",
    "result": []
  },
  {
    "postal": "P9N4N5",
    "result": [
      {
        "electoralDistricts": [
          {
            "election": null,
            "id": 44,
            "name": "Kenora—Rainy River"
          }
        ],
        "pollDivisionIds": [
          10139005
        ],
        "postalCode": "P9N4N5",
        "streetName": "COKER",
        "streetDirectionId": null,
        "streetTypeId": "RD",
        "placeName": "KENORA",
        "streetNameDisplayText": "COKER RD, KENORA"
      },
      {
        "electoralDistricts": [
          {
            "election": null,
            "id": 44,
            "name": "Kenora—Rainy River"
          }
        ],
        "pollDivisionIds": [
          10139005
        ],
        "postalCode": "P9N4N5",
        "streetName": "WYDER",
        "streetDirectionId": null,
        "streetTypeId": "RD",
        "placeName": "KENORA",
        "streetNameDisplayText": "WYDER RD, KENORA"
      }
    ]
  },
  {
    "postal": "P9N8T3",
    "result": []
  },
  {
    "postal": "P9N1V2",
    "result": [
      {
        "electoralDistricts": [
          {
            "election": null,
            "id": 44,
            "name": "Kenora—Rainy River"
          }
        ],
        "pollDivisionIds": [
          10138999
        ],
        "postalCode": "P9N1V2",
        "streetName": "MATHESON",
        "streetDirectionId": "S",
        "streetTypeId": "ST",
        "placeName": "KENORA",
        "streetNameDisplayText": "MATHESON ST S, KENORA"
      }
    ]
  },
  {
    "postal": "P9N1Y0",
    "result": []
  },
  {
    "postal": "P9N3G6",
    "result": [
      {
        "electoralDistricts": [
          {
            "election": null,
            "id": 44,
            "name": "Kenora—Rainy River"
          }
        ],
        "pollDivisionIds": [
          10138991
        ],
        "postalCode": "P9N3G6",
        "streetName": "MATHESON",
        "streetDirectionId": "N",
        "streetTypeId": "ST",
        "placeName": "KENORA",
        "streetNameDisplayText": "MATHESON ST N, KENORA"
      }
    ]
  },
  {
    "postal": "P9N3H7",
    "result": [
      {
        "electoralDistricts": [
          {
            "election": null,
            "id": 44,
            "name": "Kenora—Rainy River"
          }
        ],
        "pollDivisionIds": [
          10138997,
          10138991
        ],
        "postalCode": "P9N3H7",
        "streetName": "FOURTH",
        "streetDirectionId": "N",
        "streetTypeId": "AVE",
        "placeName": "KENORA",
        "streetNameDisplayText": "FOURTH AVE N, KENORA"
      }
    ]
  },
  {
    "postal": "P9N7X8",
    "result": []
  },
  {
    "postal": "P9N0C7",
    "result": [
      {
        "electoralDistricts": [
          {
            "election": null,
            "id": 44,
            "name": "Kenora—Rainy River"
          }
        ],
        "pollDivisionIds": [
          10138991
        ],
        "postalCode": "P9N0C7",
        "streetName": "BARSKYS",
        "streetDirectionId": null,
        "streetTypeId": "CRES",
        "placeName": "KENORA",
        "streetNameDisplayText": "BARSKYS CRES, KENORA"
      }
    ]
  },
  {
    "postal": "P9N0W9",
    "result": []
  },
  {
    "postal": "P9N8E6",
    "result": []
  },
  {
    "postal": "P9N9Z8",
    "result": []
  },
  {
    "postal": "P9N3P4",
    "result": []
  },
  {
    "postal": "P9N6L8",
    "result": []
  },
  {
    "postal": "P9N2R4",
    "result": [
      {
        "electoralDistricts": [
          {
            "election": null,
            "id": 44,
            "name": "Kenora—Rainy River"
          }
        ],
        "pollDivisionIds": [
          10138997
        ],
        "postalCode": "P9N2R4",
        "streetName": "SEVENTH",
        "streetDirectionId": "N",
        "streetTypeId": "ST",
        "placeName": "KENORA",
        "streetNameDisplayText": "SEVENTH ST N, KENORA"
      }
    ]
  },
  {
    "postal": "P9N2W1",
    "result": [
      {
        "electoralDistricts": [
          {
            "election": null,
            "id": 44,
            "name": "Kenora—Rainy River"
          }
        ],
        "pollDivisionIds": [
          10138995,
          10138994
        ],
        "postalCode": "P9N2W1",
        "streetName": "VALLEY",
        "streetDirectionId": null,
        "streetTypeId": "DR",
        "placeName": "KENORA",
        "streetNameDisplayText": "VALLEY DR, KENORA"
      }
    ]
  },
  {
    "postal": "P9N9H8",
    "result": []
  },
  {
    "postal": "P9N8X9",
    "result": []
  },
  {
    "postal": "P9N7H4",
    "result": []
  },
  {
    "postal": "P9N3J1",
    "result": [
      {
        "electoralDistricts": [
          {
            "election": null,
            "id": 44,
            "name": "Kenora—Rainy River"
          }
        ],
        "pollDivisionIds": [
          10138997
        ],
        "postalCode": "P9N3J1",
        "streetName": "SEVENTH",
        "streetDirectionId": "N",
        "streetTypeId": "AVE",
        "placeName": "KENORA",
        "streetNameDisplayText": "SEVENTH AVE N, KENORA"
      }
    ]
  },
  {
    "postal": "P9N1P4",
    "result": [
      {
        "electoralDistricts": [
          {
            "election": null,
            "id": 44,
            "name": "Kenora—Rainy River"
          }
        ],
        "pollDivisionIds": [
          10139029
        ],
        "postalCode": "P9N1P4",
        "streetName": "SEVENTH",
        "streetDirectionId": "S",
        "streetTypeId": "ST",
        "placeName": "KENORA",
        "streetNameDisplayText": "SEVENTH ST S, KENORA"
      }
    ]
  },
  {
    "postal": "P9N2A3",
    "result": [
      {
        "electoralDistricts": [
          {
            "election": null,
            "id": 44,
            "name": "Kenora—Rainy River"
          }
        ],
        "pollDivisionIds": [
          10139000
        ],
        "postalCode": "P9N2A3",
        "streetName": "FIFTH",
        "streetDirectionId": "S",
        "streetTypeId": "AVE",
        "placeName": "KENORA",
        "streetNameDisplayText": "FIFTH AVE S, KENORA"
      }
    ]
  },
  {
    "postal": "P9N0Z1",
    "result": []
  },
  {
    "postal": "P9N1C1",
    "result": [
      {
        "electoralDistricts": [
          {
            "election": null,
            "id": 44,
            "name": "Kenora—Rainy River"
          }
        ],
        "pollDivisionIds": [
          10139002
        ],
        "postalCode": "P9N1C1",
        "streetName": "PARK",
        "streetDirectionId": null,
        "streetTypeId": "ST",
        "placeName": "KENORA",
        "streetNameDisplayText": "PARK ST, KENORA"
      }
    ]
  },
  {
    "postal": "P9N0H3",
    "result": [
      {
        "electoralDistricts": [
          {
            "election": null,
            "id": 44,
            "name": "Kenora—Rainy River"
          }
        ],
        "pollDivisionIds": [
          10138991
        ],
        "postalCode": "P9N0H3",
        "streetName": "VETERANS",
        "streetDirectionId": null,
        "streetTypeId": "DR",
        "placeName": "KENORA",
        "streetNameDisplayText": "VETERANS DR, KENORA"
      }
    ]
  },
  {
    "postal": "P9N7B0",
    "result": []
  },
  {
    "postal": "P9N5K2",
    "result": []
  },
  {
    "postal": "P9N1E9",
    "result": []
  },
  {
    "postal": "P9N9W7",
    "result": []
  },
  {
    "postal": "P9N5W6",
    "result": []
  },
  {
    "postal": "P9N6S6",
    "result": []
  },
  {
    "postal": "P9N2P8",
    "result": [
      {
        "electoralDistricts": [
          {
            "election": null,
            "id": 44,
            "name": "Kenora—Rainy River"
          }
        ],
        "pollDivisionIds": [
          10138998
        ],
        "postalCode": "P9N2P8",
        "streetName": "SIXTH",
        "streetDirectionId": "N",
        "streetTypeId": "ST",
        "placeName": "KENORA",
        "streetNameDisplayText": "SIXTH ST N, KENORA"
      }
    ]
  },
  {
    "postal": "P9N4P8",
    "result": []
  },
  {
    "postal": "P9N0V9",
    "result": []
  },
  {
    "postal": "P9N5Y2",
    "result": []
  },
  {
    "postal": "P9N7Z7",
    "result": []
  },
  {
    "postal": "P9N6Y8",
    "result": []
  },
  {
    "postal": "P9N2G7",
    "result": []
  },
  {
    "postal": "P9N8C1",
    "result": []
  },
  {
    "postal": "P9N5C5",
    "result": []
  },
  {
    "postal": "P9N2X8",
    "result": [
      {
        "electoralDistricts": [
          {
            "election": null,
            "id": 44,
            "name": "Kenora—Rainy River"
          }
        ],
        "pollDivisionIds": [
          10138996
        ],
        "postalCode": "P9N2X8",
        "streetName": "DREWRY",
        "streetDirectionId": null,
        "streetTypeId": "DR",
        "placeName": "KENORA",
        "streetNameDisplayText": "DREWRY DR, KENORA"
      }
    ]
  },
  {
    "postal": "P9N1W5",
    "result": [
      {
        "electoralDistricts": [
          {
            "election": null,
            "id": 44,
            "name": "Kenora—Rainy River"
          }
        ],
        "pollDivisionIds": [
          10139029
        ],
        "postalCode": "P9N1W5",
        "streetName": "1ST",
        "streetDirectionId": "S",
        "streetTypeId": "AVE",
        "placeName": "KENORA",
        "streetNameDisplayText": "1ST AVE S, KENORA"
      },
      {
        "electoralDistricts": [
          {
            "election": null,
            "id": 44,
            "name": "Kenora—Rainy River"
          }
        ],
        "pollDivisionIds": [
          10139029
        ],
        "postalCode": "P9N1W5",
        "streetName": "FIRST",
        "streetDirectionId": "S",
        "streetTypeId": "AVE",
        "placeName": "KENORA",
        "streetNameDisplayText": "FIRST AVE S, KENORA"
      }
    ]
  },
  {
    "postal": "P9N7G0",
    "result": []
  },
  {
    "postal": "P9N8J8",
    "result": []
  },
  {
    "postal": "P9N3Y0",
    "result": []
  },
  {
    "postal": "P9N9T7",
    "result": []
  },
  {
    "postal": "P9N5P4",
    "result": []
  },
  {
    "postal": "P9N4B0",
    "result": []
  },
  {
    "postal": "P9N9N8",
    "result": []
  },
  {
    "postal": "P9N4A7",
    "result": []
  },
  {
    "postal": "P9N4H9",
    "result": [
      {
        "electoralDistricts": [
          {
            "election": null,
            "id": 44,
            "name": "Kenora—Rainy River"
          }
        ],
        "pollDivisionIds": [
          10138998
        ],
        "postalCode": "P9N4H9",
        "streetName": "9TH",
        "streetDirectionId": "N",
        "streetTypeId": "ST",
        "placeName": "KENORA",
        "streetNameDisplayText": "9TH ST N, KENORA"
      },
      {
        "electoralDistricts": [
          {
            "election": null,
            "id": 44,
            "name": "Kenora—Rainy River"
          }
        ],
        "pollDivisionIds": [
          10138998
        ],
        "postalCode": "P9N4H9",
        "streetName": "NINTH",
        "streetDirectionId": "N",
        "streetTypeId": "ST",
        "placeName": "KENORA",
        "streetNameDisplayText": "NINTH ST N, KENORA"
      },
      {
        "electoralDistricts": [
          {
            "election": null,
            "id": 44,
            "name": "Kenora—Rainy River"
          }
        ],
        "pollDivisionIds": [
          10138998
        ],
        "postalCode": "P9N4H9",
        "streetName": "SUNRISE",
        "streetDirectionId": null,
        "streetTypeId": "PL",
        "placeName": "KENORA",
        "streetNameDisplayText": "SUNRISE PL, KENORA"
      },
      {
        "electoralDistricts": [
          {
            "election": null,
            "id": 44,
            "name": "Kenora—Rainy River"
          }
        ],
        "pollDivisionIds": [
          10138998
        ],
        "postalCode": "P9N4H9",
        "streetName": "SUNSET",
        "streetDirectionId": null,
        "streetTypeId": "PL",
        "placeName": "KENORA",
        "streetNameDisplayText": "SUNSET PL, KENORA"
      }
    ]
  },
  {
    "postal": "P9N6X1",
    "result": []
  },
  {
    "postal": "P9N9Y7",
    "result": []
  },
  {
    "postal": "P9N2Y5",
    "result": [
      {
        "electoralDistricts": [
          {
            "election": null,
            "id": 44,
            "name": "Kenora—Rainy River"
          }
        ],
        "pollDivisionIds": [
          10139016
        ],
        "postalCode": "P9N2Y5",
        "streetName": "PARKER POINT",
        "streetDirectionId": null,
        "streetTypeId": "LOOP",
        "placeName": "DRYDEN",
        "streetNameDisplayText": "PARKER POINT LOOP, DRYDEN"
      },
      {
        "electoralDistricts": [
          {
            "election": null,
            "id": 44,
            "name": "Kenora—Rainy River"
          }
        ],
        "pollDivisionIds": [
          10138991
        ],
        "postalCode": "P9N2Y5",
        "streetName": "TWELFTH",
        "streetDirectionId": "N",
        "streetTypeId": "ST",
        "placeName": "KENORA",
        "streetNameDisplayText": "TWELFTH ST N, KENORA"
      }
    ]
  },
  {
    "postal": "P9N8L7",
    "result": []
  },
  {
    "postal": "P9N2A8",
    "result": [
      {
        "electoralDistricts": [
          {
            "election": null,
            "id": 44,
            "name": "Kenora—Rainy River"
          }
        ],
        "pollDivisionIds": [
          10139003
        ],
        "postalCode": "P9N2A8",
        "streetName": "FIFTH",
        "streetDirectionId": "S",
        "streetTypeId": "AVE",
        "placeName": "KENORA",
        "streetNameDisplayText": "FIFTH AVE S, KENORA"
      }
    ]
  },
  {
    "postal": "P9N2K9",
    "result": [
      {
        "electoralDistricts": [
          {
            "election": null,
            "id": 44,
            "name": "Kenora—Rainy River"
          }
        ],
        "pollDivisionIds": [
          10138991
        ],
        "postalCode": "P9N2K9",
        "streetName": "SECOND",
        "streetDirectionId": "N",
        "streetTypeId": "ST",
        "placeName": "KENORA",
        "streetNameDisplayText": "SECOND ST N, KENORA"
      }
    ]
  },
  {
    "postal": "P9N3E5",
    "result": [
      {
        "electoralDistricts": [
          {
            "election": null,
            "id": 44,
            "name": "Kenora—Rainy River"
          },
          {
            "election": null,
            "id": 124,
            "name": "Mushkegowuk—James Bay"
          }
        ],
        "pollDivisionIds": [
          10138991,
          10143061
        ],
        "postalCode": "P9N3E5",
        "streetName": "MAIN RIDEOUT",
        "streetDirectionId": null,
        "streetTypeId": "ST",
        "placeName": "KENORA",
        "streetNameDisplayText": "MAIN RIDEOUT ST, KENORA"
      },
      {
        "electoralDistricts": [
          {
            "election": null,
            "id": 44,
            "name": "Kenora—Rainy River"
          }
        ],
        "pollDivisionIds": [
          10139025
        ],
        "postalCode": "P9N3E5",
        "streetName": "MAIN",
        "streetDirectionId": "S",
        "streetTypeId": "ST",
        "placeName": "KENORA",
        "streetNameDisplayText": "MAIN ST S, KENORA"
      },
      {
        "electoralDistricts": [
          {
            "election": null,
            "id": 44,
            "name": "Kenora—Rainy River"
          },
          {
            "election": null,
            "id": 124,
            "name": "Mushkegowuk—James Bay"
          },
          {
            "election": null,
            "id": 123,
            "name": "Kiiwetinoong"
          }
        ],
        "pollDivisionIds": [
          10139011,
          10138991,
          10143061,
          10143041
        ],
        "postalCode": "P9N3E5",
        "streetName": "MAIN",
        "streetDirectionId": null,
        "streetTypeId": "ST",
        "placeName": "KENORA",
        "streetNameDisplayText": "MAIN ST, KENORA"
      }
    ]
  },
  {
    "postal": "P9N8N6",
    "result": []
  },
  {
    "postal": "P9N8J4",
    "result": []
  },
  {
    "postal": "P9N4R7",
    "result": []
  },
  {
    "postal": "P9N9K1",
    "result": []
  },
  {
    "postal": "P9N8E1",
    "result": []
  },
  {
    "postal": "P9N0R1",
    "result": []
  },
  {
    "postal": "P9N4J3",
    "result": [
      {
        "electoralDistricts": [
          {
            "election": null,
            "id": 44,
            "name": "Kenora—Rainy River"
          }
        ],
        "pollDivisionIds": [
          10139028
        ],
        "postalCode": "P9N4J3",
        "streetName": "ROBERTSON",
        "streetDirectionId": null,
        "streetTypeId": "ST",
        "placeName": "KENORA",
        "streetNameDisplayText": "ROBERTSON ST, KENORA"
      }
    ]
  },
  {
    "postal": "P9N7E7",
    "result": []
  },
  {
    "postal": "P9N0J0",
    "result": []
  },
  {
    "postal": "P9N7R8",
    "result": []
  },
  {
    "postal": "P9N9X0",
    "result": []
  },
  {
    "postal": "P9N7P6",
    "result": []
  },
  {
    "postal": "P9N0R7",
    "result": []
  },
  {
    "postal": "P9N5W1",
    "result": []
  },
  {
    "postal": "P9N0K4",
    "result": []
  },
  {
    "postal": "P9N7N9",
    "result": []
  },
  {
    "postal": "P9N1N0",
    "result": []
  },
  {
    "postal": "P9N6P3",
    "result": []
  },
  {
    "postal": "P9N5A1",
    "result": []
  },
  {
    "postal": "P9N9M9",
    "result": []
  },
  {
    "postal": "P9N7T6",
    "result": []
  },
  {
    "postal": "P9N3X0",
    "result": []
  },
  {
    "postal": "P9N2T0",
    "result": []
  },
  {
    "postal": "P9N5X9",
    "result": []
  },
  {
    "postal": "P9N2R3",
    "result": [
      {
        "electoralDistricts": [
          {
            "election": null,
            "id": 44,
            "name": "Kenora—Rainy River"
          }
        ],
        "pollDivisionIds": [
          10138998
        ],
        "postalCode": "P9N2R3",
        "streetName": "SIXTH",
        "streetDirectionId": "N",
        "streetTypeId": "ST",
        "placeName": "KENORA",
        "streetNameDisplayText": "SIXTH ST N, KENORA"
      }
    ]
  },
  {
    "postal": "P9N5N2",
    "result": []
  },
  {
    "postal": "P9N4Y7",
    "result": []
  },
  {
    "postal": "P9N7M0",
    "result": []
  },
  {
    "postal": "P9N8P3",
    "result": []
  },
  {
    "postal": "P9N3N3",
    "result": [
      {
        "electoralDistricts": [
          {
            "election": null,
            "id": 44,
            "name": "Kenora—Rainy River"
          }
        ],
        "pollDivisionIds": [
          10138998
        ],
        "postalCode": "P9N3N3",
        "streetName": "SEVENTEENTH",
        "streetDirectionId": "N",
        "streetTypeId": "AVE",
        "placeName": "KENORA",
        "streetNameDisplayText": "SEVENTEENTH AVE N, KENORA"
      }
    ]
  },
  {
    "postal": "P9N7S3",
    "result": []
  },
  {
    "postal": "P9N3V9",
    "result": []
  },
  {
    "postal": "P9N9N7",
    "result": []
  },
  {
    "postal": "P9N0G4",
    "result": [
      {
        "electoralDistricts": [
          {
            "election": null,
            "id": 44,
            "name": "Kenora—Rainy River"
          }
        ],
        "pollDivisionIds": [
          10139008
        ],
        "postalCode": "P9N0G4",
        "streetName": "B TRANSMITTER",
        "streetDirectionId": null,
        "streetTypeId": "RD",
        "placeName": "KENORA",
        "streetNameDisplayText": "B TRANSMITTER RD, KENORA"
      },
      {
        "electoralDistricts": [
          {
            "election": null,
            "id": 44,
            "name": "Kenora—Rainy River"
          }
        ],
        "pollDivisionIds": [
          10139008
        ],
        "postalCode": "P9N0G4",
        "streetName": "TRANSMITTER",
        "streetDirectionId": null,
        "streetTypeId": "RD",
        "placeName": "KENORA",
        "streetNameDisplayText": "TRANSMITTER RD, KENORA"
      }
    ]
  },
  {
    "postal": "P9N2E2",
    "result": [
      {
        "electoralDistricts": [
          {
            "election": null,
            "id": 44,
            "name": "Kenora—Rainy River"
          }
        ],
        "pollDivisionIds": [
          10139001
        ],
        "postalCode": "P9N2E2",
        "streetName": "SEVENTH",
        "streetDirectionId": "S",
        "streetTypeId": "AVE",
        "placeName": "KENORA",
        "streetNameDisplayText": "SEVENTH AVE S, KENORA"
      }
    ]
  },
  {
    "postal": "P9N7W8",
    "result": []
  },
  {
    "postal": "P9N7M5",
    "result": []
  },
  {
    "postal": "P9N5W8",
    "result": []
  },
  {
    "postal": "P9N5E5",
    "result": []
  },
  {
    "postal": "P9N1P9",
    "result": [
      {
        "electoralDistricts": [
          {
            "election": null,
            "id": 44,
            "name": "Kenora—Rainy River"
          }
        ],
        "pollDivisionIds": [
          10139028
        ],
        "postalCode": "P9N1P9",
        "streetName": "SEVENTH",
        "streetDirectionId": "S",
        "streetTypeId": "ST",
        "placeName": "KENORA",
        "streetNameDisplayText": "SEVENTH ST S, KENORA"
      }
    ]
  },
  {
    "postal": "P9N8V8",
    "result": []
  },
  {
    "postal": "P9N9G8",
    "result": []
  },
  {
    "postal": "P9N8H9",
    "result": []
  },
  {
    "postal": "P9N1Z1",
    "result": [
      {
        "electoralDistricts": [
          {
            "election": null,
            "id": 44,
            "name": "Kenora—Rainy River"
          }
        ],
        "pollDivisionIds": [
          10138999
        ],
        "postalCode": "P9N1Z1",
        "streetName": "FOURTH",
        "streetDirectionId": "S",
        "streetTypeId": "AVE",
        "placeName": "KENORA",
        "streetNameDisplayText": "FOURTH AVE S, KENORA"
      }
    ]
  },
  {
    "postal": "P9N8M3",
    "result": []
  },
  {
    "postal": "P9N5H6",
    "result": []
  },
  {
    "postal": "P9N7W7",
    "result": []
  },
  {
    "postal": "P9N4L0",
    "result": []
  },
  {
    "postal": "P9N2N1",
    "result": [
      {
        "electoralDistricts": [
          {
            "election": null,
            "id": 44,
            "name": "Kenora—Rainy River"
          }
        ],
        "pollDivisionIds": [
          10138991
        ],
        "postalCode": "P9N2N1",
        "streetName": "FOURTH",
        "streetDirectionId": "N",
        "streetTypeId": "ST",
        "placeName": "KENORA",
        "streetNameDisplayText": "FOURTH ST N, KENORA"
      }
    ]
  },
  {
    "postal": "P9N2H4",
    "result": [
      {
        "electoralDistricts": [
          {
            "election": null,
            "id": 44,
            "name": "Kenora—Rainy River"
          }
        ],
        "pollDivisionIds": [
          10139001
        ],
        "postalCode": "P9N2H4",
        "streetName": "EIGHTH",
        "streetDirectionId": "S",
        "streetTypeId": "AVE",
        "placeName": "KENORA",
        "streetNameDisplayText": "EIGHTH AVE S, KENORA"
      }
    ]
  },
  {
    "postal": "P9N5C8",
    "result": []
  },
  {
    "postal": "P9N8B0",
    "result": []
  },
  {
    "postal": "P9N1T4",
    "result": [
      {
        "electoralDistricts": [
          {
            "election": null,
            "id": 44,
            "name": "Kenora—Rainy River"
          }
        ],
        "pollDivisionIds": [
          10138985,
          10138992
        ],
        "postalCode": "P9N1T4",
        "streetName": "MAIN",
        "streetDirectionId": "S",
        "streetTypeId": "ST",
        "placeName": "KENORA",
        "streetNameDisplayText": "MAIN ST S, KENORA"
      }
    ]
  },
  {
    "postal": "P9N7N7",
    "result": []
  },
  {
    "postal": "P9N4L3",
    "result": [
      {
        "electoralDistricts": [
          {
            "election": null,
            "id": 44,
            "name": "Kenora—Rainy River"
          }
        ],
        "pollDivisionIds": [
          10138988
        ],
        "postalCode": "P9N4L3",
        "streetName": "EAGLE BAY",
        "streetDirectionId": null,
        "streetTypeId": "RD",
        "placeName": "KENORA",
        "streetNameDisplayText": "EAGLE BAY RD, KENORA"
      }
    ]
  },
  {
    "postal": "P9N2N2",
    "result": [
      {
        "electoralDistricts": [
          {
            "election": null,
            "id": 44,
            "name": "Kenora—Rainy River"
          }
        ],
        "pollDivisionIds": [
          10138997
        ],
        "postalCode": "P9N2N2",
        "streetName": "FOURTH",
        "streetDirectionId": "N",
        "streetTypeId": "ST",
        "placeName": "KENORA",
        "streetNameDisplayText": "FOURTH ST N, KENORA"
      }
    ]
  },
  {
    "postal": "P9N4N8",
    "result": [
      {
        "electoralDistricts": [
          {
            "election": null,
            "id": 44,
            "name": "Kenora—Rainy River"
          }
        ],
        "pollDivisionIds": [
          10139005
        ],
        "postalCode": "P9N4N8",
        "streetName": "ESSEX",
        "streetDirectionId": null,
        "streetTypeId": "RD",
        "placeName": "KENORA",
        "streetNameDisplayText": "ESSEX RD, KENORA"
      }
    ]
  },
  {
    "postal": "P9N3M5",
    "result": [
      {
        "electoralDistricts": [
          {
            "election": null,
            "id": 44,
            "name": "Kenora—Rainy River"
          }
        ],
        "pollDivisionIds": [
          10138998
        ],
        "postalCode": "P9N3M5",
        "streetName": "FIFTEENTH",
        "streetDirectionId": "N",
        "streetTypeId": "AVE",
        "placeName": "KENORA",
        "streetNameDisplayText": "FIFTEENTH AVE N, KENORA"
      }
    ]
  },
  {
    "postal": "P9N6H7",
    "result": []
  },
  {
    "postal": "P9N8Y8",
    "result": []
  },
  {
    "postal": "P9N5R9",
    "result": []
  },
  {
    "postal": "P9N8G3",
    "result": []
  },
  {
    "postal": "P9N4N7",
    "result": [
      {
        "electoralDistricts": [
          {
            "election": null,
            "id": 44,
            "name": "Kenora—Rainy River"
          }
        ],
        "pollDivisionIds": [
          10139005
        ],
        "postalCode": "P9N4N7",
        "streetName": "AUBE",
        "streetDirectionId": null,
        "streetTypeId": "DR",
        "placeName": "KENORA",
        "streetNameDisplayText": "AUBE DR, KENORA"
      },
      {
        "electoralDistricts": [
          {
            "election": null,
            "id": 44,
            "name": "Kenora—Rainy River"
          }
        ],
        "pollDivisionIds": [
          10139005
        ],
        "postalCode": "P9N4N7",
        "streetName": "EAST MELICK",
        "streetDirectionId": null,
        "streetTypeId": "RD",
        "placeName": "KENORA",
        "streetNameDisplayText": "EAST MELICK RD, KENORA"
      },
      {
        "electoralDistricts": [
          {
            "election": null,
            "id": 44,
            "name": "Kenora—Rainy River"
          }
        ],
        "pollDivisionIds": [
          10139005
        ],
        "postalCode": "P9N4N7",
        "streetName": "EAST MELLICK",
        "streetDirectionId": null,
        "streetTypeId": "RD",
        "placeName": "KENORA",
        "streetNameDisplayText": "EAST MELLICK RD, KENORA"
      }
    ]
  },
  {
    "postal": "P9N0B9",
    "result": [
      {
        "electoralDistricts": [
          {
            "election": null,
            "id": 44,
            "name": "Kenora—Rainy River"
          }
        ],
        "pollDivisionIds": [
          10138991
        ],
        "postalCode": "P9N0B9",
        "streetName": "ANDYS CAMP",
        "streetDirectionId": null,
        "streetTypeId": "RD",
        "placeName": "KENORA",
        "streetNameDisplayText": "ANDYS CAMP RD, KENORA"
      },
      {
        "electoralDistricts": [
          {
            "election": null,
            "id": 44,
            "name": "Kenora—Rainy River"
          }
        ],
        "pollDivisionIds": [
          10138991
        ],
        "postalCode": "P9N0B9",
        "streetName": "BROWN",
        "streetDirectionId": null,
        "streetTypeId": "RD",
        "placeName": "KENORA",
        "streetNameDisplayText": "BROWN RD, KENORA"
      },
      {
        "electoralDistricts": [
          {
            "election": null,
            "id": 44,
            "name": "Kenora—Rainy River"
          }
        ],
        "pollDivisionIds": [
          10138991
        ],
        "postalCode": "P9N0B9",
        "streetName": "GREENWOOD",
        "streetDirectionId": null,
        "streetTypeId": "DR",
        "placeName": "KENORA",
        "streetNameDisplayText": "GREENWOOD DR, KENORA"
      },
      {
        "electoralDistricts": [
          {
            "election": null,
            "id": 44,
            "name": "Kenora—Rainy River"
          }
        ],
        "pollDivisionIds": [
          10138991
        ],
        "postalCode": "P9N0B9",
        "streetName": "MARINA",
        "streetDirectionId": null,
        "streetTypeId": "RD",
        "placeName": "KENORA",
        "streetNameDisplayText": "MARINA RD, KENORA"
      },
      {
        "electoralDistricts": [
          {
            "election": null,
            "id": 44,
            "name": "Kenora—Rainy River"
          }
        ],
        "pollDivisionIds": [
          10138991
        ],
        "postalCode": "P9N0B9",
        "streetName": "VETERANS",
        "streetDirectionId": null,
        "streetTypeId": "DR",
        "placeName": "KENORA",
        "streetNameDisplayText": "VETERANS DR, KENORA"
      },
      {
        "electoralDistricts": [
          {
            "election": null,
            "id": 44,
            "name": "Kenora—Rainy River"
          }
        ],
        "pollDivisionIds": [
          10138991
        ],
        "postalCode": "P9N0B9",
        "streetName": "VILLENEUVE",
        "streetDirectionId": "N",
        "streetTypeId": "RD",
        "placeName": "KENORA",
        "streetNameDisplayText": "VILLENEUVE RD N, KENORA"
      },
      {
        "electoralDistricts": [
          {
            "election": null,
            "id": 44,
            "name": "Kenora—Rainy River"
          }
        ],
        "pollDivisionIds": [
          10138991
        ],
        "postalCode": "P9N0B9",
        "streetName": "VILLENEUVE",
        "streetDirectionId": "S",
        "streetTypeId": "RD",
        "placeName": "KENORA",
        "streetNameDisplayText": "VILLENEUVE RD S, KENORA"
      },
      {
        "electoralDistricts": [
          {
            "election": null,
            "id": 44,
            "name": "Kenora—Rainy River"
          }
        ],
        "pollDivisionIds": [
          10138991
        ],
        "postalCode": "P9N0B9",
        "streetName": "VILLENEUVE",
        "streetDirectionId": null,
        "streetTypeId": "RD",
        "placeName": "KENORA",
        "streetNameDisplayText": "VILLENEUVE RD, KENORA"
      },
      {
        "electoralDistricts": [
          {
            "election": null,
            "id": 44,
            "name": "Kenora—Rainy River"
          }
        ],
        "pollDivisionIds": [
          10138991
        ],
        "postalCode": "P9N0B9",
        "streetName": "WINNIPEG RIVER",
        "streetDirectionId": null,
        "streetTypeId": "DR",
        "placeName": "KENORA",
        "streetNameDisplayText": "WINNIPEG RIVER DR, KENORA"
      }
    ]
  },
  {
    "postal": "P9N9K7",
    "result": []
  },
  {
    "postal": "P9N9K9",
    "result": []
  },
  {
    "postal": "P9N3Z2",
    "result": [
      {
        "electoralDistricts": [
          {
            "election": null,
            "id": 44,
            "name": "Kenora—Rainy River"
          }
        ],
        "pollDivisionIds": [
          10138995
        ],
        "postalCode": "P9N3Z2",
        "streetName": "MINTO",
        "streetDirectionId": null,
        "streetTypeId": "BAY",
        "placeName": "KENORA",
        "streetNameDisplayText": "MINTO BAY, KENORA"
      }
    ]
  },
  {
    "postal": "P9N6W7",
    "result": []
  },
  {
    "postal": "P9N0P1",
    "result": []
  },
  {
    "postal": "P9N3A0",
    "result": []
  },
  {
    "postal": "P9N8L9",
    "result": []
  },
  {
    "postal": "P9N6X0",
    "result": []
  },
  {
    "postal": "P9N3E9",
    "result": [
      {
        "electoralDistricts": [
          {
            "election": null,
            "id": 44,
            "name": "Kenora—Rainy River"
          }
        ],
        "pollDivisionIds": [
          10138991
        ],
        "postalCode": "P9N3E9",
        "streetName": "MAIN RIDEOUT",
        "streetDirectionId": null,
        "streetTypeId": "ST",
        "placeName": "KENORA",
        "streetNameDisplayText": "MAIN RIDEOUT ST, KENORA"
      }
    ]
  },
  {
    "postal": "P9N0S5",
    "result": []
  },
  {
    "postal": "P9N1A2",
    "result": [
      {
        "electoralDistricts": [
          {
            "election": null,
            "id": 44,
            "name": "Kenora—Rainy River"
          }
        ],
        "pollDivisionIds": [
          10139000
        ],
        "postalCode": "P9N1A2",
        "streetName": "PARK",
        "streetDirectionId": null,
        "streetTypeId": "ST",
        "placeName": "KENORA",
        "streetNameDisplayText": "PARK ST, KENORA"
      }
    ]
  },
  {
    "postal": "P9N5V8",
    "result": []
  },
  {
    "postal": "P9N8C5",
    "result": []
  },
  {
    "postal": "P9N6N0",
    "result": []
  },
  {
    "postal": "P9N9E6",
    "result": []
  },
  {
    "postal": "P9N5J7",
    "result": []
  },
  {
    "postal": "P9N2R2",
    "result": [
      {
        "electoralDistricts": [
          {
            "election": null,
            "id": 44,
            "name": "Kenora—Rainy River"
          }
        ],
        "pollDivisionIds": [
          10138998
        ],
        "postalCode": "P9N2R2",
        "streetName": "SIXTH",
        "streetDirectionId": "N",
        "streetTypeId": "ST",
        "placeName": "KENORA",
        "streetNameDisplayText": "SIXTH ST N, KENORA"
      }
    ]
  },
  {
    "postal": "P9N0P5",
    "result": []
  },
  {
    "postal": "P9N5A7",
    "result": []
  },
  {
    "postal": "P9N1G1",
    "result": [
      {
        "electoralDistricts": [
          {
            "election": null,
            "id": 44,
            "name": "Kenora—Rainy River"
          }
        ],
        "pollDivisionIds": [
          10138999,
          10138992
        ],
        "postalCode": "P9N1G1",
        "streetName": "2ND",
        "streetDirectionId": "S",
        "streetTypeId": "ST",
        "placeName": "KENORA",
        "streetNameDisplayText": "2ND ST S, KENORA"
      },
      {
        "electoralDistricts": [
          {
            "election": null,
            "id": 44,
            "name": "Kenora—Rainy River"
          }
        ],
        "pollDivisionIds": [
          10138999,
          10138992
        ],
        "postalCode": "P9N1G1",
        "streetName": "SECOND",
        "streetDirectionId": "S",
        "streetTypeId": "ST",
        "placeName": "KENORA",
        "streetNameDisplayText": "SECOND ST S, KENORA"
      }
    ]
  },
  {
    "postal": "P9N9R6",
    "result": []
  },
  {
    "postal": "P9N4Z9",
    "result": []
  },
  {
    "postal": "P9N1V5",
    "result": [
      {
        "electoralDistricts": [
          {
            "election": null,
            "id": 44,
            "name": "Kenora—Rainy River"
          }
        ],
        "pollDivisionIds": [
          10139000
        ],
        "postalCode": "P9N1V5",
        "streetName": "CHIPMAN",
        "streetDirectionId": null,
        "streetTypeId": "ST",
        "placeName": "KENORA",
        "streetNameDisplayText": "CHIPMAN ST, KENORA"
      }
    ]
  },
  {
    "postal": "P9N9Y5",
    "result": []
  },
  {
    "postal": "P9N1P2",
    "result": [
      {
        "electoralDistricts": [
          {
            "election": null,
            "id": 44,
            "name": "Kenora—Rainy River"
          }
        ],
        "pollDivisionIds": [
          10139029
        ],
        "postalCode": "P9N1P2",
        "streetName": "MACHIN",
        "streetDirectionId": null,
        "streetTypeId": "DR",
        "placeName": "KENORA",
        "streetNameDisplayText": "MACHIN DR, KENORA"
      }
    ]
  },
  {
    "postal": "P9N5X0",
    "result": []
  },
  {
    "postal": "P9N7B8",
    "result": []
  },
  {
    "postal": "P9N0C6",
    "result": [
      {
        "electoralDistricts": [
          {
            "election": null,
            "id": 44,
            "name": "Kenora—Rainy River"
          }
        ],
        "pollDivisionIds": [
          10138991
        ],
        "postalCode": "P9N0C6",
        "streetName": "ANDERSON",
        "streetDirectionId": null,
        "streetTypeId": "RD",
        "placeName": "KENORA",
        "streetNameDisplayText": "ANDERSON RD, KENORA"
      },
      {
        "electoralDistricts": [
          {
            "election": null,
            "id": 44,
            "name": "Kenora—Rainy River"
          }
        ],
        "pollDivisionIds": [
          10138991
        ],
        "postalCode": "P9N0C6",
        "streetName": "JOHNSON LANDING",
        "streetDirectionId": "N",
        "streetTypeId": "RD",
        "placeName": "KENORA",
        "streetNameDisplayText": "JOHNSON LANDING RD N, KENORA"
      },
      {
        "electoralDistricts": [
          {
            "election": null,
            "id": 44,
            "name": "Kenora—Rainy River"
          }
        ],
        "pollDivisionIds": [
          10138991
        ],
        "postalCode": "P9N0C6",
        "streetName": "JOHNSON LANDING",
        "streetDirectionId": null,
        "streetTypeId": "RD",
        "placeName": "KENORA",
        "streetNameDisplayText": "JOHNSON LANDING RD, KENORA"
      }
    ]
  },
  {
    "postal": "P9N6G1",
    "result": []
  },
  {
    "postal": "P9N3K3",
    "result": [
      {
        "electoralDistricts": [
          {
            "election": null,
            "id": 44,
            "name": "Kenora—Rainy River"
          }
        ],
        "pollDivisionIds": [
          10138995
        ],
        "postalCode": "P9N3K3",
        "streetName": "MINTO",
        "streetDirectionId": null,
        "streetTypeId": "CRES",
        "placeName": "KENORA",
        "streetNameDisplayText": "MINTO CRES, KENORA"
      }
    ]
  },
  {
    "postal": "P9N9R0",
    "result": []
  },
  {
    "postal": "P9N4R8",
    "result": []
  },
  {
    "postal": "P9N5P9",
    "result": []
  },
  {
    "postal": "P9N8N4",
    "result": []
  },
  {
    "postal": "P9N8H4",
    "result": []
  },
  {
    "postal": "P9N4V1",
    "result": []
  },
  {
    "postal": "P9N1K5",
    "result": [
      {
        "electoralDistricts": [
          {
            "election": null,
            "id": 44,
            "name": "Kenora—Rainy River"
          }
        ],
        "pollDivisionIds": [
          10139003
        ],
        "postalCode": "P9N1K5",
        "streetName": "RIVER",
        "streetDirectionId": null,
        "streetTypeId": "DR",
        "placeName": "KENORA",
        "streetNameDisplayText": "RIVER DR, KENORA"
      }
    ]
  },
  {
    "postal": "P9N1Z5",
    "result": [
      {
        "electoralDistricts": [
          {
            "election": null,
            "id": 44,
            "name": "Kenora—Rainy River"
          }
        ],
        "pollDivisionIds": [
          10139003
        ],
        "postalCode": "P9N1Z5",
        "streetName": "FOURTH",
        "streetDirectionId": "S",
        "streetTypeId": "AVE",
        "placeName": "KENORA",
        "streetNameDisplayText": "FOURTH AVE S, KENORA"
      }
    ]
  },
  {
    "postal": "P9N9L9",
    "result": []
  },
  {
    "postal": "P9N5L2",
    "result": []
  },
  {
    "postal": "P9N0M2",
    "result": []
  },
  {
    "postal": "P9N1K8",
    "result": [
      {
        "electoralDistricts": [
          {
            "election": null,
            "id": 44,
            "name": "Kenora—Rainy River"
          }
        ],
        "pollDivisionIds": [
          10139003
        ],
        "postalCode": "P9N1K8",
        "streetName": "4TH",
        "streetDirectionId": "S",
        "streetTypeId": "ST",
        "placeName": "KENORA",
        "streetNameDisplayText": "4TH ST S, KENORA"
      },
      {
        "electoralDistricts": [
          {
            "election": null,
            "id": 44,
            "name": "Kenora—Rainy River"
          }
        ],
        "pollDivisionIds": [
          10139003
        ],
        "postalCode": "P9N1K8",
        "streetName": "FOURTH",
        "streetDirectionId": "S",
        "streetTypeId": "ST",
        "placeName": "KENORA",
        "streetNameDisplayText": "FOURTH ST S, KENORA"
      }
    ]
  },
  {
    "postal": "P9N3M7",
    "result": [
      {
        "electoralDistricts": [
          {
            "election": null,
            "id": 44,
            "name": "Kenora—Rainy River"
          }
        ],
        "pollDivisionIds": [
          10138998
        ],
        "postalCode": "P9N3M7",
        "streetName": "FIFTEENTH",
        "streetDirectionId": "N",
        "streetTypeId": "AVE",
        "placeName": "KENORA",
        "streetNameDisplayText": "FIFTEENTH AVE N, KENORA"
      }
    ]
  },
  {
    "postal": "P9N1B2",
    "result": [
      {
        "electoralDistricts": [
          {
            "election": null,
            "id": 44,
            "name": "Kenora—Rainy River"
          }
        ],
        "pollDivisionIds": [
          10139001
        ],
        "postalCode": "P9N1B2",
        "streetName": "PARK",
        "streetDirectionId": null,
        "streetTypeId": "ST",
        "placeName": "KENORA",
        "streetNameDisplayText": "PARK ST, KENORA"
      }
    ]
  },
  {
    "postal": "P9N0H9",
    "result": []
  },
  {
    "postal": "P9N8M4",
    "result": []
  },
  {
    "postal": "P9N2M5",
    "result": [
      {
        "electoralDistricts": [
          {
            "election": null,
            "id": 44,
            "name": "Kenora—Rainy River"
          }
        ],
        "pollDivisionIds": [
          10138991
        ],
        "postalCode": "P9N2M5",
        "streetName": "FOURTH",
        "streetDirectionId": "N",
        "streetTypeId": "ST",
        "placeName": "KENORA",
        "streetNameDisplayText": "FOURTH ST N, KENORA"
      }
    ]
  },
  {
    "postal": "P9N0T9",
    "result": []
  },
  {
    "postal": "P9N3P1",
    "result": [
      {
        "electoralDistricts": [
          {
            "election": null,
            "id": 44,
            "name": "Kenora—Rainy River"
          }
        ],
        "pollDivisionIds": [
          10138990
        ],
        "postalCode": "P9N3P1",
        "streetName": "MINNESOTA",
        "streetDirectionId": null,
        "streetTypeId": "ST",
        "placeName": "KENORA",
        "streetNameDisplayText": "MINNESOTA ST, KENORA"
      }
    ]
  },
  {
    "postal": "P9N1R6",
    "result": [
      {
        "electoralDistricts": [
          {
            "election": null,
            "id": 44,
            "name": "Kenora—Rainy River"
          }
        ],
        "pollDivisionIds": [
          10139003
        ],
        "postalCode": "P9N1R6",
        "streetName": "8TH",
        "streetDirectionId": "S",
        "streetTypeId": "ST",
        "placeName": "KENORA",
        "streetNameDisplayText": "8TH ST S, KENORA"
      },
      {
        "electoralDistricts": [
          {
            "election": null,
            "id": 44,
            "name": "Kenora—Rainy River"
          }
        ],
        "pollDivisionIds": [
          10139003
        ],
        "postalCode": "P9N1R6",
        "streetName": "EIGHTH",
        "streetDirectionId": "S",
        "streetTypeId": "ST",
        "placeName": "KENORA",
        "streetNameDisplayText": "EIGHTH ST S, KENORA"
      }
    ]
  },
  {
    "postal": "P9N9V5",
    "result": []
  },
  {
    "postal": "P9N9T0",
    "result": []
  },
  {
    "postal": "P9N0A9",
    "result": [
      {
        "electoralDistricts": [
          {
            "election": null,
            "id": 44,
            "name": "Kenora—Rainy River"
          }
        ],
        "pollDivisionIds": [
          10139023,
          10139006
        ],
        "postalCode": "P9N0A9",
        "streetName": "AIRPORT",
        "streetDirectionId": null,
        "streetTypeId": "RD",
        "placeName": "KENORA",
        "streetNameDisplayText": "AIRPORT RD, KENORA"
      },
      {
        "electoralDistricts": [
          {
            "election": null,
            "id": 44,
            "name": "Kenora—Rainy River"
          }
        ],
        "pollDivisionIds": [
          10139006
        ],
        "postalCode": "P9N0A9",
        "streetName": "MILLER",
        "streetDirectionId": null,
        "streetTypeId": "RD",
        "placeName": "KENORA",
        "streetNameDisplayText": "MILLER RD, KENORA"
      },
      {
        "electoralDistricts": [
          {
            "election": null,
            "id": 44,
            "name": "Kenora—Rainy River"
          }
        ],
        "pollDivisionIds": [
          10139006
        ],
        "postalCode": "P9N0A9",
        "streetName": "STRECKER",
        "streetDirectionId": null,
        "streetTypeId": "RD",
        "placeName": "KENORA",
        "streetNameDisplayText": "STRECKER RD, KENORA"
      }
    ]
  },
  {
    "postal": "P9N1M3",
    "result": [
      {
        "electoralDistricts": [
          {
            "election": null,
            "id": 44,
            "name": "Kenora—Rainy River"
          }
        ],
        "pollDivisionIds": [
          10139008
        ],
        "postalCode": "P9N1M3",
        "streetName": "17",
        "streetDirectionId": "E",
        "streetTypeId": "HWY",
        "placeName": "KENORA",
        "streetNameDisplayText": "17 HWY E, KENORA"
      }
    ]
  },
  {
    "postal": "P9N1W8",
    "result": [
      {
        "electoralDistricts": [
          {
            "election": null,
            "id": 44,
            "name": "Kenora—Rainy River"
          }
        ],
        "pollDivisionIds": [
          10139028
        ],
        "postalCode": "P9N1W8",
        "streetName": "FIRST",
        "streetDirectionId": "S",
        "streetTypeId": "AVE",
        "placeName": "KENORA",
        "streetNameDisplayText": "FIRST AVE S, KENORA"
      }
    ]
  },
  {
    "postal": "P9N9J1",
    "result": []
  },
  {
    "postal": "P9N8N5",
    "result": []
  },
  {
    "postal": "P9N5X1",
    "result": []
  },
  {
    "postal": "P9N6S2",
    "result": []
  },
  {
    "postal": "P9N2A2",
    "result": [
      {
        "electoralDistricts": [
          {
            "election": null,
            "id": 44,
            "name": "Kenora—Rainy River"
          }
        ],
        "pollDivisionIds": [
          10139000
        ],
        "postalCode": "P9N2A2",
        "streetName": "FIFTH",
        "streetDirectionId": "S",
        "streetTypeId": "AVE",
        "placeName": "KENORA",
        "streetNameDisplayText": "FIFTH AVE S, KENORA"
      }
    ]
  },
  {
    "postal": "P9N6A6",
    "result": []
  },
  {
    "postal": "P9N0S3",
    "result": []
  },
  {
    "postal": "P9N3E7",
    "result": [
      {
        "electoralDistricts": [
          {
            "election": null,
            "id": 44,
            "name": "Kenora—Rainy River"
          }
        ],
        "pollDivisionIds": [
          10138991
        ],
        "postalCode": "P9N3E7",
        "streetName": "MAIN RIDEOUT",
        "streetDirectionId": null,
        "streetTypeId": "ST",
        "placeName": "KENORA",
        "streetNameDisplayText": "MAIN RIDEOUT ST, KENORA"
      },
      {
        "electoralDistricts": [
          {
            "election": null,
            "id": 44,
            "name": "Kenora—Rainy River"
          }
        ],
        "pollDivisionIds": [
          10138991
        ],
        "postalCode": "P9N3E7",
        "streetName": "MAIN",
        "streetDirectionId": null,
        "streetTypeId": "ST",
        "placeName": "KENORA",
        "streetNameDisplayText": "MAIN ST, KENORA"
      }
    ]
  },
  {
    "postal": "P9N5R7",
    "result": []
  },
  {
    "postal": "P9N3R6",
    "result": [
      {
        "electoralDistricts": [
          {
            "election": null,
            "id": 44,
            "name": "Kenora—Rainy River"
          }
        ],
        "pollDivisionIds": [
          10138990
        ],
        "postalCode": "P9N3R6",
        "streetName": "DAVIES",
        "streetDirectionId": null,
        "streetTypeId": "ST",
        "placeName": "KENORA",
        "streetNameDisplayText": "DAVIES ST, KENORA"
      }
    ]
  },
  {
    "postal": "P9N6K4",
    "result": []
  },
  {
    "postal": "P9N2W5",
    "result": [
      {
        "electoralDistricts": [
          {
            "election": null,
            "id": 44,
            "name": "Kenora—Rainy River"
          }
        ],
        "pollDivisionIds": [
          10138994
        ],
        "postalCode": "P9N2W5",
        "streetName": "VALLEY",
        "streetDirectionId": null,
        "streetTypeId": "DR",
        "placeName": "KENORA",
        "streetNameDisplayText": "VALLEY DR, KENORA"
      }
    ]
  },
  {
    "postal": "P9N8W4",
    "result": []
  },
  {
    "postal": "P9N9C2",
    "result": []
  },
  {
    "postal": "P9N2C0",
    "result": []
  },
  {
    "postal": "P9N0E1",
    "result": [
      {
        "electoralDistricts": [
          {
            "election": null,
            "id": 44,
            "name": "Kenora—Rainy River"
          }
        ],
        "pollDivisionIds": [
          10138991
        ],
        "postalCode": "P9N0E1",
        "streetName": "REDDITT",
        "streetDirectionId": null,
        "streetTypeId": "RD",
        "placeName": "KENORA",
        "streetNameDisplayText": "REDDITT RD, KENORA"
      }
    ]
  },
  {
    "postal": "P9N1K9",
    "result": [
      {
        "electoralDistricts": [
          {
            "election": null,
            "id": 44,
            "name": "Kenora—Rainy River"
          }
        ],
        "pollDivisionIds": [
          10139029
        ],
        "postalCode": "P9N1K9",
        "streetName": "FIFTH",
        "streetDirectionId": "S",
        "streetTypeId": "ST",
        "placeName": "KENORA",
        "streetNameDisplayText": "FIFTH ST S, KENORA"
      }
    ]
  },
  {
    "postal": "P9N1G7",
    "result": [
      {
        "electoralDistricts": [
          {
            "election": null,
            "id": 44,
            "name": "Kenora—Rainy River"
          }
        ],
        "pollDivisionIds": [
          10139000
        ],
        "postalCode": "P9N1G7",
        "streetName": "SECOND",
        "streetDirectionId": "S",
        "streetTypeId": "ST",
        "placeName": "KENORA",
        "streetNameDisplayText": "SECOND ST S, KENORA"
      }
    ]
  },
  {
    "postal": "P9N4E9",
    "result": [
      {
        "electoralDistricts": [
          {
            "election": null,
            "id": 44,
            "name": "Kenora—Rainy River"
          }
        ],
        "pollDivisionIds": [
          10138999
        ],
        "postalCode": "P9N4E9",
        "streetName": "FIRST",
        "streetDirectionId": "S",
        "streetTypeId": "AVE",
        "placeName": "KENORA",
        "streetNameDisplayText": "FIRST AVE S, KENORA"
      }
    ]
  },
  {
    "postal": "P9N9P0",
    "result": []
  },
  {
    "postal": "P9N5H3",
    "result": []
  },
  {
    "postal": "P9N9X6",
    "result": []
  },
  {
    "postal": "P9N5N7",
    "result": []
  },
  {
    "postal": "P9N5A6",
    "result": []
  },
  {
    "postal": "P9N4M0",
    "result": []
  },
  {
    "postal": "P9N3V6",
    "result": []
  },
  {
    "postal": "P9N1L7",
    "result": [
      {
        "electoralDistricts": [
          {
            "election": null,
            "id": 44,
            "name": "Kenora—Rainy River"
          }
        ],
        "pollDivisionIds": [
          10139003
        ],
        "postalCode": "P9N1L7",
        "streetName": "FIFTH",
        "streetDirectionId": "S",
        "streetTypeId": "ST",
        "placeName": "KENORA",
        "streetNameDisplayText": "FIFTH ST S, KENORA"
      }
    ]
  },
  {
    "postal": "P9N2P9",
    "result": [
      {
        "electoralDistricts": [
          {
            "election": null,
            "id": 44,
            "name": "Kenora—Rainy River"
          }
        ],
        "pollDivisionIds": [
          10138998
        ],
        "postalCode": "P9N2P9",
        "streetName": "SIXTH",
        "streetDirectionId": "N",
        "streetTypeId": "ST",
        "placeName": "KENORA",
        "streetNameDisplayText": "SIXTH ST N, KENORA"
      }
    ]
  },
  {
    "postal": "P9N5T4",
    "result": []
  },
  {
    "postal": "P9N5Z1",
    "result": []
  },
  {
    "postal": "P9N2X0",
    "result": []
  },
  {
    "postal": "P9N6Z2",
    "result": []
  },
  {
    "postal": "P9N0E0",
    "result": []
  },
  {
    "postal": "P9N3Z5",
    "result": []
  },
  {
    "postal": "P9N8H3",
    "result": []
  },
  {
    "postal": "P9N7S6",
    "result": []
  },
  {
    "postal": "P9N4C1",
    "result": [
      {
        "electoralDistricts": [
          {
            "election": null,
            "id": 44,
            "name": "Kenora—Rainy River"
          }
        ],
        "pollDivisionIds": [
          10138994
        ],
        "postalCode": "P9N4C1",
        "streetName": "VALLEY",
        "streetDirectionId": null,
        "streetTypeId": "DR",
        "placeName": "KENORA",
        "streetNameDisplayText": "VALLEY DR, KENORA"
      }
    ]
  },
  {
    "postal": "P9N3K2",
    "result": [
      {
        "electoralDistricts": [
          {
            "election": null,
            "id": 44,
            "name": "Kenora—Rainy River"
          }
        ],
        "pollDivisionIds": [
          10138995
        ],
        "postalCode": "P9N3K2",
        "streetName": "MINTO",
        "streetDirectionId": null,
        "streetTypeId": "CRES",
        "placeName": "KENORA",
        "streetNameDisplayText": "MINTO CRES, KENORA"
      }
    ]
  },
  {
    "postal": "P9N1Y5",
    "result": [
      {
        "electoralDistricts": [
          {
            "election": null,
            "id": 44,
            "name": "Kenora—Rainy River"
          }
        ],
        "pollDivisionIds": [
          10139028
        ],
        "postalCode": "P9N1Y5",
        "streetName": "THIRD",
        "streetDirectionId": "S",
        "streetTypeId": "AVE",
        "placeName": "KENORA",
        "streetNameDisplayText": "THIRD AVE S, KENORA"
      }
    ]
  },
  {
    "postal": "P9N6P6",
    "result": []
  },
  {
    "postal": "P9N3N9",
    "result": []
  },
  {
    "postal": "P9N3W2",
    "result": [
      {
        "electoralDistricts": [
          {
            "election": null,
            "id": 44,
            "name": "Kenora—Rainy River"
          }
        ],
        "pollDivisionIds": [
          10138990
        ],
        "postalCode": "P9N3W2",
        "streetName": "PARSONS",
        "streetDirectionId": null,
        "streetTypeId": "ST",
        "placeName": "KENORA",
        "streetNameDisplayText": "PARSONS ST, KENORA"
      }
    ]
  },
  {
    "postal": "P9N6H8",
    "result": []
  },
  {
    "postal": "P9N9T3",
    "result": []
  },
  {
    "postal": "P9N5L9",
    "result": []
  },
  {
    "postal": "P9N7X7",
    "result": []
  },
  {
    "postal": "P9N3J5",
    "result": [
      {
        "electoralDistricts": [
          {
            "election": null,
            "id": 44,
            "name": "Kenora—Rainy River"
          }
        ],
        "pollDivisionIds": [
          10138997
        ],
        "postalCode": "P9N3J5",
        "streetName": "EIGHTH",
        "streetDirectionId": "N",
        "streetTypeId": "AVE",
        "placeName": "KENORA",
        "streetNameDisplayText": "EIGHTH AVE N, KENORA"
      }
    ]
  },
  {
    "postal": "P9N4J5",
    "result": [
      {
        "electoralDistricts": [
          {
            "election": null,
            "id": 44,
            "name": "Kenora—Rainy River"
          }
        ],
        "pollDivisionIds": [
          10139028
        ],
        "postalCode": "P9N4J5",
        "streetName": "ROBERTSON",
        "streetDirectionId": null,
        "streetTypeId": "ST",
        "placeName": "KENORA",
        "streetNameDisplayText": "ROBERTSON ST, KENORA"
      }
    ]
  },
  {
    "postal": "P9N6J2",
    "result": []
  },
  {
    "postal": "P9N5V6",
    "result": []
  },
  {
    "postal": "P9N3N2",
    "result": [
      {
        "electoralDistricts": [
          {
            "election": null,
            "id": 44,
            "name": "Kenora—Rainy River"
          }
        ],
        "pollDivisionIds": [
          10138998
        ],
        "postalCode": "P9N3N2",
        "streetName": "SIXTEENTH",
        "streetDirectionId": "N",
        "streetTypeId": "AVE",
        "placeName": "KENORA",
        "streetNameDisplayText": "SIXTEENTH AVE N, KENORA"
      }
    ]
  },
  {
    "postal": "P9N3B1",
    "result": [
      {
        "electoralDistricts": [
          {
            "election": null,
            "id": 44,
            "name": "Kenora—Rainy River"
          }
        ],
        "pollDivisionIds": [
          10138991
        ],
        "postalCode": "P9N3B1",
        "streetName": "MIKADO",
        "streetDirectionId": null,
        "streetTypeId": "AVE",
        "placeName": "KENORA",
        "streetNameDisplayText": "MIKADO AVE, KENORA"
      }
    ]
  },
  {
    "postal": "P9N8B5",
    "result": []
  },
  {
    "postal": "P9N0K1",
    "result": []
  },
  {
    "postal": "P9N7M7",
    "result": []
  },
  {
    "postal": "P9N2M2",
    "result": [
      {
        "electoralDistricts": [
          {
            "election": null,
            "id": 44,
            "name": "Kenora—Rainy River"
          }
        ],
        "pollDivisionIds": [
          10138997
        ],
        "postalCode": "P9N2M2",
        "streetName": "THIRD",
        "streetDirectionId": "N",
        "streetTypeId": "ST",
        "placeName": "KENORA",
        "streetNameDisplayText": "THIRD ST N, KENORA"
      }
    ]
  },
  {
    "postal": "P9N9N3",
    "result": []
  },
  {
    "postal": "P9N4Y8",
    "result": []
  },
  {
    "postal": "P9N3V7",
    "result": [
      {
        "electoralDistricts": [
          {
            "election": null,
            "id": 44,
            "name": "Kenora—Rainy River"
          }
        ],
        "pollDivisionIds": [
          10138990
        ],
        "postalCode": "P9N3V7",
        "streetName": "PARSONS",
        "streetDirectionId": null,
        "streetTypeId": "ST",
        "placeName": "KENORA",
        "streetNameDisplayText": "PARSONS ST, KENORA"
      }
    ]
  },
  {
    "postal": "P9N8Z1",
    "result": []
  },
  {
    "postal": "P9N7B3",
    "result": []
  },
  {
    "postal": "P9N3A8",
    "result": [
      {
        "electoralDistricts": [
          {
            "election": null,
            "id": 44,
            "name": "Kenora—Rainy River"
          }
        ],
        "pollDivisionIds": [
          10138991
        ],
        "postalCode": "P9N3A8",
        "streetName": "MIKADO",
        "streetDirectionId": null,
        "streetTypeId": "AVE",
        "placeName": "KENORA",
        "streetNameDisplayText": "MIKADO AVE, KENORA"
      }
    ]
  },
  {
    "postal": "P9N7V5",
    "result": []
  },
  {
    "postal": "P9N2T2",
    "result": [
      {
        "electoralDistricts": [
          {
            "election": null,
            "id": 44,
            "name": "Kenora—Rainy River"
          }
        ],
        "pollDivisionIds": [
          10138998,
          10138991,
          10138994
        ],
        "postalCode": "P9N2T2",
        "streetName": "NINTH",
        "streetDirectionId": "N",
        "streetTypeId": "ST",
        "placeName": "KENORA",
        "streetNameDisplayText": "NINTH ST N, KENORA"
      }
    ]
  },
  {
    "postal": "P9N6L3",
    "result": []
  },
  {
    "postal": "P9N0L2",
    "result": []
  },
  {
    "postal": "P9N5Y8",
    "result": []
  },
  {
    "postal": "P9N0B8",
    "result": [
      {
        "electoralDistricts": [
          {
            "election": null,
            "id": 44,
            "name": "Kenora—Rainy River"
          }
        ],
        "pollDivisionIds": [
          10138988
        ],
        "postalCode": "P9N0B8",
        "streetName": "CARLTON",
        "streetDirectionId": null,
        "streetTypeId": "RD",
        "placeName": "KENORA",
        "streetNameDisplayText": "CARLTON RD, KENORA"
      },
      {
        "electoralDistricts": [
          {
            "election": null,
            "id": 44,
            "name": "Kenora—Rainy River"
          }
        ],
        "pollDivisionIds": [
          10138988
        ],
        "postalCode": "P9N0B8",
        "streetName": "GOSS",
        "streetDirectionId": null,
        "streetTypeId": "RD",
        "placeName": "KENORA",
        "streetNameDisplayText": "GOSS RD, KENORA"
      },
      {
        "electoralDistricts": [
          {
            "election": null,
            "id": 44,
            "name": "Kenora—Rainy River"
          }
        ],
        "pollDivisionIds": [
          10138988
        ],
        "postalCode": "P9N0B8",
        "streetName": "SILVER GHOST",
        "streetDirectionId": null,
        "streetTypeId": "DR",
        "placeName": "KENORA",
        "streetNameDisplayText": "SILVER GHOST DR, KENORA"
      },
      {
        "electoralDistricts": [
          {
            "election": null,
            "id": 44,
            "name": "Kenora—Rainy River"
          }
        ],
        "pollDivisionIds": [
          10138988
        ],
        "postalCode": "P9N0B8",
        "streetName": "WRAITH",
        "streetDirectionId": null,
        "streetTypeId": "CLOSE",
        "placeName": "KENORA",
        "streetNameDisplayText": "WRAITH CLOSE, KENORA"
      }
    ]
  },
  {
    "postal": "P9N6R5",
    "result": []
  },
  {
    "postal": "P9N8W6",
    "result": []
  },
  {
    "postal": "P9N8G6",
    "result": []
  },
  {
    "postal": "P9N6X3",
    "result": []
  },
  {
    "postal": "P9N7R7",
    "result": []
  },
  {
    "postal": "P9N4B6",
    "result": []
  },
  {
    "postal": "P9N3P9",
    "result": [
      {
        "electoralDistricts": [
          {
            "election": null,
            "id": 44,
            "name": "Kenora—Rainy River"
          }
        ],
        "pollDivisionIds": [
          10138990
        ],
        "postalCode": "P9N3P9",
        "streetName": "JOSEPH",
        "streetDirectionId": null,
        "streetTypeId": "ST",
        "placeName": "KENORA",
        "streetNameDisplayText": "JOSEPH ST, KENORA"
      }
    ]
  },
  {
    "postal": "P9N2T3",
    "result": [
      {
        "electoralDistricts": [
          {
            "election": null,
            "id": 44,
            "name": "Kenora—Rainy River"
          }
        ],
        "pollDivisionIds": [
          10138994
        ],
        "postalCode": "P9N2T3",
        "streetName": "NINTH",
        "streetDirectionId": "N",
        "streetTypeId": "ST",
        "placeName": "KENORA",
        "streetNameDisplayText": "NINTH ST N, KENORA"
      }
    ]
  },
  {
    "postal": "P9N1M4",
    "result": [
      {
        "electoralDistricts": [
          {
            "election": null,
            "id": 44,
            "name": "Kenora—Rainy River"
          }
        ],
        "pollDivisionIds": [
          10139003
        ],
        "postalCode": "P9N1M4",
        "streetName": "AGUR",
        "streetDirectionId": null,
        "streetTypeId": "ST",
        "placeName": "KENORA",
        "streetNameDisplayText": "AGUR ST, KENORA"
      }
    ]
  },
  {
    "postal": "P9N0H1",
    "result": [
      {
        "electoralDistricts": [
          {
            "election": null,
            "id": 44,
            "name": "Kenora—Rainy River"
          }
        ],
        "pollDivisionIds": [
          10139008,
          10139002
        ],
        "postalCode": "P9N0H1",
        "streetName": "HERBACZ",
        "streetDirectionId": null,
        "streetTypeId": "RD",
        "placeName": "KENORA",
        "streetNameDisplayText": "HERBACZ RD, KENORA"
      }
    ]
  },
  {
    "postal": "P9N9W3",
    "result": []
  },
  {
    "postal": "P9N6P1",
    "result": []
  },
  {
    "postal": "P9N7G2",
    "result": []
  },
  {
    "postal": "P9N4J9",
    "result": [
      {
        "electoralDistricts": [
          {
            "election": null,
            "id": 44,
            "name": "Kenora—Rainy River"
          }
        ],
        "pollDivisionIds": [
          10138988
        ],
        "postalCode": "P9N4J9",
        "streetName": "ANDERSON BRANCH",
        "streetDirectionId": null,
        "streetTypeId": "RD",
        "placeName": "KENORA",
        "streetNameDisplayText": "ANDERSON BRANCH RD, KENORA"
      },
      {
        "electoralDistricts": [
          {
            "election": null,
            "id": 44,
            "name": "Kenora—Rainy River"
          }
        ],
        "pollDivisionIds": [
          10138988,
          10138991
        ],
        "postalCode": "P9N4J9",
        "streetName": "ANDERSON",
        "streetDirectionId": null,
        "streetTypeId": "RD",
        "placeName": "KENORA",
        "streetNameDisplayText": "ANDERSON RD, KENORA"
      },
      {
        "electoralDistricts": [
          {
            "election": null,
            "id": 44,
            "name": "Kenora—Rainy River"
          }
        ],
        "pollDivisionIds": [
          10138988,
          10138991
        ],
        "postalCode": "P9N4J9",
        "streetName": "MCGREGOR",
        "streetDirectionId": null,
        "streetTypeId": "RD",
        "placeName": "KENORA",
        "streetNameDisplayText": "MCGREGOR RD, KENORA"
      }
    ]
  },
  {
    "postal": "P9N9E4",
    "result": []
  },
  {
    "postal": "P9N8H0",
    "result": []
  },
  {
    "postal": "P9N4M7",
    "result": [
      {
        "electoralDistricts": [
          {
            "election": null,
            "id": 44,
            "name": "Kenora—Rainy River"
          }
        ],
        "pollDivisionIds": [
          10138993
        ],
        "postalCode": "P9N4M7",
        "streetName": "RABBIT LAKE",
        "streetDirectionId": null,
        "streetTypeId": "RD",
        "placeName": "KEEWATIN",
        "streetNameDisplayText": "RABBIT LAKE RD, KEEWATIN"
      },
      {
        "electoralDistricts": [
          {
            "election": null,
            "id": 44,
            "name": "Kenora—Rainy River"
          }
        ],
        "pollDivisionIds": [
          10138993,
          10139006
        ],
        "postalCode": "P9N4M7",
        "streetName": "RABBIT LAKE",
        "streetDirectionId": null,
        "streetTypeId": "RD",
        "placeName": "KENORA",
        "streetNameDisplayText": "RABBIT LAKE RD, KENORA"
      }
    ]
  },
  {
    "postal": "P9N2G9",
    "result": [
      {
        "electoralDistricts": [
          {
            "election": null,
            "id": 44,
            "name": "Kenora—Rainy River"
          }
        ],
        "pollDivisionIds": [
          10139002
        ],
        "postalCode": "P9N2G9",
        "streetName": "EIGHTH",
        "streetDirectionId": "S",
        "streetTypeId": "AVE",
        "placeName": "KENORA",
        "streetNameDisplayText": "EIGHTH AVE S, KENORA"
      }
    ]
  },
  {
    "postal": "P9N8T2",
    "result": []
  },
  {
    "postal": "P9N7G7",
    "result": []
  },
  {
    "postal": "P9N4Z3",
    "result": []
  },
  {
    "postal": "P9N5B3",
    "result": []
  },
  {
    "postal": "P9N1S7",
    "result": [
      {
        "electoralDistricts": [
          {
            "election": null,
            "id": 44,
            "name": "Kenora—Rainy River"
          },
          {
            "election": null,
            "id": 123,
            "name": "Kiiwetinoong"
          }
        ],
        "pollDivisionIds": [
          10139025,
          10138992,
          10143041
        ],
        "postalCode": "P9N1S7",
        "streetName": "MAIN",
        "streetDirectionId": "S",
        "streetTypeId": "ST",
        "placeName": "KENORA",
        "streetNameDisplayText": "MAIN ST S, KENORA"
      }
    ]
  },
  {
    "postal": "P9N2N7",
    "result": [
      {
        "electoralDistricts": [
          {
            "election": null,
            "id": 44,
            "name": "Kenora—Rainy River"
          }
        ],
        "pollDivisionIds": [
          10138991
        ],
        "postalCode": "P9N2N7",
        "streetName": "FIFTH",
        "streetDirectionId": "N",
        "streetTypeId": "ST",
        "placeName": "KENORA",
        "streetNameDisplayText": "FIFTH ST N, KENORA"
      }
    ]
  },
  {
    "postal": "P9N0H8",
    "result": []
  },
  {
    "postal": "P9N7Z4",
    "result": []
  },
  {
    "postal": "P9N7B1",
    "result": []
  },
  {
    "postal": "P9N7P8",
    "result": []
  },
  {
    "postal": "P9N7N0",
    "result": []
  },
  {
    "postal": "P9N3Y5",
    "result": [
      {
        "electoralDistricts": [
          {
            "election": null,
            "id": 44,
            "name": "Kenora—Rainy River"
          }
        ],
        "pollDivisionIds": [
          10138991
        ],
        "postalCode": "P9N3Y5",
        "streetName": "VETERANS",
        "streetDirectionId": null,
        "streetTypeId": "DR",
        "placeName": "KENORA",
        "streetNameDisplayText": "VETERANS DR, KENORA"
      }
    ]
  },
  {
    "postal": "P9N6K1",
    "result": []
  },
  {
    "postal": "P9N9X5",
    "result": []
  },
  {
    "postal": "P9N7S5",
    "result": []
  },
  {
    "postal": "P9N0A4",
    "result": [
      {
        "electoralDistricts": [
          {
            "election": null,
            "id": 44,
            "name": "Kenora—Rainy River"
          }
        ],
        "pollDivisionIds": [
          10139006
        ],
        "postalCode": "P9N0A4",
        "streetName": "AIRPORT",
        "streetDirectionId": null,
        "streetTypeId": "RD",
        "placeName": "KENORA",
        "streetNameDisplayText": "AIRPORT RD, KENORA"
      },
      {
        "electoralDistricts": [
          {
            "election": null,
            "id": 44,
            "name": "Kenora—Rainy River"
          }
        ],
        "pollDivisionIds": [
          10139006
        ],
        "postalCode": "P9N0A4",
        "streetName": "ZIMMERMAN",
        "streetDirectionId": null,
        "streetTypeId": "DR",
        "placeName": "KENORA",
        "streetNameDisplayText": "ZIMMERMAN DR, KENORA"
      }
    ]
  },
  {
    "postal": "P9N4T5",
    "result": []
  },
  {
    "postal": "P9N5K1",
    "result": []
  },
  {
    "postal": "P9N0Z9",
    "result": []
  },
  {
    "postal": "P9N7T2",
    "result": []
  },
  {
    "postal": "P9N1L5",
    "result": [
      {
        "electoralDistricts": [
          {
            "election": null,
            "id": 44,
            "name": "Kenora—Rainy River"
          }
        ],
        "pollDivisionIds": [
          10139029
        ],
        "postalCode": "P9N1L5",
        "streetName": "FIFTH",
        "streetDirectionId": "S",
        "streetTypeId": "ST",
        "placeName": "KENORA",
        "streetNameDisplayText": "FIFTH ST S, KENORA"
      }
    ]
  },
  {
    "postal": "P9N3N5",
    "result": [
      {
        "electoralDistricts": [
          {
            "election": null,
            "id": 44,
            "name": "Kenora—Rainy River"
          }
        ],
        "pollDivisionIds": [
          10138996
        ],
        "postalCode": "P9N3N5",
        "streetName": "GUNNE",
        "streetDirectionId": null,
        "streetTypeId": "CRES",
        "placeName": "KENORA",
        "streetNameDisplayText": "GUNNE CRES, KENORA"
      }
    ]
  },
  {
    "postal": "P9N6H4",
    "result": []
  },
  {
    "postal": "P9N5A5",
    "result": []
  },
  {
    "postal": "P9N3R9",
    "result": [
      {
        "electoralDistricts": [
          {
            "election": null,
            "id": 44,
            "name": "Kenora—Rainy River"
          }
        ],
        "pollDivisionIds": [
          10138990
        ],
        "postalCode": "P9N3R9",
        "streetName": "PATERSON",
        "streetDirectionId": null,
        "streetTypeId": "ST",
        "placeName": "KENORA",
        "streetNameDisplayText": "PATERSON ST, KENORA"
      }
    ]
  },
  {
    "postal": "P9N7L8",
    "result": []
  },
  {
    "postal": "P9N6T6",
    "result": []
  },
  {
    "postal": "P9N7Y7",
    "result": []
  },
  {
    "postal": "P9N3M8",
    "result": [
      {
        "electoralDistricts": [
          {
            "election": null,
            "id": 44,
            "name": "Kenora—Rainy River"
          }
        ],
        "pollDivisionIds": [
          10138996
        ],
        "postalCode": "P9N3M8",
        "streetName": "SEEGMILLER",
        "streetDirectionId": null,
        "streetTypeId": "AVE",
        "placeName": "KENORA",
        "streetNameDisplayText": "SEEGMILLER AVE, KENORA"
      }
    ]
  },
  {
    "postal": "P9N2E0",
    "result": []
  },
  {
    "postal": "P9N4B5",
    "result": [
      {
        "electoralDistricts": [
          {
            "election": null,
            "id": 44,
            "name": "Kenora—Rainy River"
          }
        ],
        "pollDivisionIds": [
          10139003
        ],
        "postalCode": "P9N4B5",
        "streetName": "GLEN CAMERON",
        "streetDirectionId": null,
        "streetTypeId": "DR",
        "placeName": "KENORA",
        "streetNameDisplayText": "GLEN CAMERON DR, KENORA"
      },
      {
        "electoralDistricts": [
          {
            "election": null,
            "id": 44,
            "name": "Kenora—Rainy River"
          }
        ],
        "pollDivisionIds": [
          10139008
        ],
        "postalCode": "P9N4B5",
        "streetName": "HILLY LAKE",
        "streetDirectionId": null,
        "streetTypeId": "RD",
        "placeName": "KENORA",
        "streetNameDisplayText": "HILLY LAKE RD, KENORA"
      }
    ]
  },
  {
    "postal": "P9N1J3",
    "result": [
      {
        "electoralDistricts": [
          {
            "election": null,
            "id": 44,
            "name": "Kenora—Rainy River"
          }
        ],
        "pollDivisionIds": [
          10139000
        ],
        "postalCode": "P9N1J3",
        "streetName": "THIRD",
        "streetDirectionId": "S",
        "streetTypeId": "ST",
        "placeName": "KENORA",
        "streetNameDisplayText": "THIRD ST S, KENORA"
      }
    ]
  },
  {
    "postal": "P9N5S6",
    "result": []
  },
  {
    "postal": "P9N8P7",
    "result": []
  },
  {
    "postal": "P9N7S7",
    "result": []
  },
  {
    "postal": "P9N4C2",
    "result": [
      {
        "electoralDistricts": [
          {
            "election": null,
            "id": 44,
            "name": "Kenora—Rainy River"
          }
        ],
        "pollDivisionIds": [
          10138991
        ],
        "postalCode": "P9N4C2",
        "streetName": "AMETHYST",
        "streetDirectionId": null,
        "streetTypeId": "ST",
        "placeName": "KENORA",
        "streetNameDisplayText": "AMETHYST ST, KENORA"
      }
    ]
  },
  {
    "postal": "P9N5Y0",
    "result": []
  },
  {
    "postal": "P9N2V7",
    "result": [
      {
        "electoralDistricts": [
          {
            "election": null,
            "id": 44,
            "name": "Kenora—Rainy River"
          }
        ],
        "pollDivisionIds": [
          10138991
        ],
        "postalCode": "P9N2V7",
        "streetName": "TENTH",
        "streetDirectionId": "N",
        "streetTypeId": "ST",
        "placeName": "KENORA",
        "streetNameDisplayText": "TENTH ST N, KENORA"
      }
    ]
  },
  {
    "postal": "P9N8P5",
    "result": []
  },
  {
    "postal": "P9N5P5",
    "result": []
  },
  {
    "postal": "P9N5Z0",
    "result": []
  },
  {
    "postal": "P9N9B0",
    "result": []
  },
  {
    "postal": "P9N1L0",
    "result": []
  },
  {
    "postal": "P9N0B5",
    "result": [
      {
        "electoralDistricts": [
          {
            "election": null,
            "id": 44,
            "name": "Kenora—Rainy River"
          }
        ],
        "pollDivisionIds": [
          10138998,
          10139008
        ],
        "postalCode": "P9N0B5",
        "streetName": "RAILWAY",
        "streetDirectionId": null,
        "streetTypeId": "ST",
        "placeName": "KENORA",
        "streetNameDisplayText": "RAILWAY ST, KENORA"
      }
    ]
  },
  {
    "postal": "P9N3L2",
    "result": [
      {
        "electoralDistricts": [
          {
            "election": null,
            "id": 44,
            "name": "Kenora—Rainy River"
          }
        ],
        "pollDivisionIds": [
          10138994
        ],
        "postalCode": "P9N3L2",
        "streetName": "TWELFTH",
        "streetDirectionId": "N",
        "streetTypeId": "AVE",
        "placeName": "KENORA",
        "streetNameDisplayText": "TWELFTH AVE N, KENORA"
      }
    ]
  },
  {
    "postal": "P9N3B7",
    "result": [
      {
        "electoralDistricts": [
          {
            "election": null,
            "id": 44,
            "name": "Kenora—Rainy River"
          }
        ],
        "pollDivisionIds": [
          10138991
        ],
        "postalCode": "P9N3B7",
        "streetName": "RUPERT",
        "streetDirectionId": null,
        "streetTypeId": "RD",
        "placeName": "KENORA",
        "streetNameDisplayText": "RUPERT RD, KENORA"
      }
    ]
  },
  {
    "postal": "P9N8L1",
    "result": []
  },
  {
    "postal": "P9N5M4",
    "result": []
  },
  {
    "postal": "P9N4G9",
    "result": [
      {
        "electoralDistricts": [
          {
            "election": null,
            "id": 44,
            "name": "Kenora—Rainy River"
          }
        ],
        "pollDivisionIds": [
          10139003
        ],
        "postalCode": "P9N4G9",
        "streetName": "2ND",
        "streetDirectionId": "E",
        "streetTypeId": "AVE",
        "placeName": "KENORA",
        "streetNameDisplayText": "2ND AVE E, KENORA"
      },
      {
        "electoralDistricts": [
          {
            "election": null,
            "id": 44,
            "name": "Kenora—Rainy River"
          }
        ],
        "pollDivisionIds": [
          10139003
        ],
        "postalCode": "P9N4G9",
        "streetName": "ROCKY HEIGHTS",
        "streetDirectionId": null,
        "streetTypeId": "RD",
        "placeName": "KENORA",
        "streetNameDisplayText": "ROCKY HEIGHTS RD, KENORA"
      },
      {
        "electoralDistricts": [
          {
            "election": null,
            "id": 44,
            "name": "Kenora—Rainy River"
          }
        ],
        "pollDivisionIds": [
          10139003
        ],
        "postalCode": "P9N4G9",
        "streetName": "SECOND",
        "streetDirectionId": "E",
        "streetTypeId": "AVE",
        "placeName": "KENORA",
        "streetNameDisplayText": "SECOND AVE E, KENORA"
      }
    ]
  },
  {
    "postal": "P9N0P0",
    "result": []
  },
  {
    "postal": "P9N8G2",
    "result": []
  },
  {
    "postal": "P9N1V9",
    "result": [
      {
        "electoralDistricts": [
          {
            "election": null,
            "id": 44,
            "name": "Kenora—Rainy River"
          }
        ],
        "pollDivisionIds": [
          10139029
        ],
        "postalCode": "P9N1V9",
        "streetName": "LAKESHORE",
        "streetDirectionId": null,
        "streetTypeId": "DR",
        "placeName": "KENORA",
        "streetNameDisplayText": "LAKESHORE DR, KENORA"
      }
    ]
  },
  {
    "postal": "P9N8N8",
    "result": []
  },
  {
    "postal": "P9N6S8",
    "result": []
  },
  {
    "postal": "P9N8H2",
    "result": []
  },
  {
    "postal": "P9N5R8",
    "result": []
  },
  {
    "postal": "P9N5L4",
    "result": []
  },
  {
    "postal": "P9N9E1",
    "result": []
  },
  {
    "postal": "P9N1C4",
    "result": [
      {
        "electoralDistricts": [
          {
            "election": null,
            "id": 44,
            "name": "Kenora—Rainy River"
          }
        ],
        "pollDivisionIds": [
          10139000
        ],
        "postalCode": "P9N1C4",
        "streetName": "1ST",
        "streetDirectionId": "S",
        "streetTypeId": "ST",
        "placeName": "KENORA",
        "streetNameDisplayText": "1ST ST S, KENORA"
      },
      {
        "electoralDistricts": [
          {
            "election": null,
            "id": 44,
            "name": "Kenora—Rainy River"
          }
        ],
        "pollDivisionIds": [
          10138992
        ],
        "postalCode": "P9N1C4",
        "streetName": "FIRST",
        "streetDirectionId": "S",
        "streetTypeId": "ST",
        "placeName": "KENORA",
        "streetNameDisplayText": "FIRST ST S, KENORA"
      }
    ]
  },
  {
    "postal": "P9N8W5",
    "result": []
  },
  {
    "postal": "P9N1Y4",
    "result": [
      {
        "electoralDistricts": [
          {
            "election": null,
            "id": 44,
            "name": "Kenora—Rainy River"
          }
        ],
        "pollDivisionIds": [
          10139003
        ],
        "postalCode": "P9N1Y4",
        "streetName": "THIRD",
        "streetDirectionId": "S",
        "streetTypeId": "AVE",
        "placeName": "KENORA",
        "streetNameDisplayText": "THIRD AVE S, KENORA"
      }
    ]
  },
  {
    "postal": "P9N1C0",
    "result": []
  },
  {
    "postal": "P9N2J2",
    "result": [
      {
        "electoralDistricts": [
          {
            "election": null,
            "id": 44,
            "name": "Kenora—Rainy River"
          }
        ],
        "pollDivisionIds": [
          10139002
        ],
        "postalCode": "P9N2J2",
        "streetName": "NINTH",
        "streetDirectionId": "S",
        "streetTypeId": "AVE",
        "placeName": "KENORA",
        "streetNameDisplayText": "NINTH AVE S, KENORA"
      }
    ]
  },
  {
    "postal": "P9N2J0",
    "result": []
  },
  {
    "postal": "P9N7A3",
    "result": []
  },
  {
    "postal": "P9N8M1",
    "result": []
  },
  {
    "postal": "P9N7T9",
    "result": []
  },
  {
    "postal": "P9N6C0",
    "result": []
  },
  {
    "postal": "P9N7X1",
    "result": []
  },
  {
    "postal": "P9N0G1",
    "result": [
      {
        "electoralDistricts": [
          {
            "election": null,
            "id": 44,
            "name": "Kenora—Rainy River"
          }
        ],
        "pollDivisionIds": [
          10139002
        ],
        "postalCode": "P9N0G1",
        "streetName": "SWEENEY",
        "streetDirectionId": null,
        "streetTypeId": "RD",
        "placeName": "KENORA",
        "streetNameDisplayText": "SWEENEY RD, KENORA"
      }
    ]
  },
  {
    "postal": "P9N4X2",
    "result": []
  },
  {
    "postal": "P9N0N6",
    "result": []
  },
  {
    "postal": "P9N8E3",
    "result": []
  },
  {
    "postal": "P9N5S8",
    "result": []
  },
  {
    "postal": "P9N0R0",
    "result": []
  },
  {
    "postal": "P9N6J6",
    "result": []
  },
  {
    "postal": "P9N4B4",
    "result": [
      {
        "electoralDistricts": [
          {
            "election": null,
            "id": 44,
            "name": "Kenora—Rainy River"
          }
        ],
        "pollDivisionIds": [
          10139001
        ],
        "postalCode": "P9N4B4",
        "streetName": "PARK",
        "streetDirectionId": null,
        "streetTypeId": "ST",
        "placeName": "KENORA",
        "streetNameDisplayText": "PARK ST, KENORA"
      }
    ]
  },
  {
    "postal": "P9N7E3",
    "result": []
  },
  {
    "postal": "P9N3N6",
    "result": [
      {
        "electoralDistricts": [
          {
            "election": null,
            "id": 44,
            "name": "Kenora—Rainy River"
          }
        ],
        "pollDivisionIds": [
          10138996
        ],
        "postalCode": "P9N3N6",
        "streetName": "GUNNE",
        "streetDirectionId": null,
        "streetTypeId": "CRES",
        "placeName": "KENORA",
        "streetNameDisplayText": "GUNNE CRES, KENORA"
      }
    ]
  },
  {
    "postal": "P9N3X6",
    "result": [
      {
        "electoralDistricts": [
          {
            "election": null,
            "id": 44,
            "name": "Kenora—Rainy River"
          }
        ],
        "pollDivisionIds": [
          10139009
        ],
        "postalCode": "P9N3X6",
        "streetName": "BALD INDIAN BAY",
        "streetDirectionId": null,
        "streetTypeId": "RD",
        "placeName": "KENORA",
        "streetNameDisplayText": "BALD INDIAN BAY RD, KENORA"
      },
      {
        "electoralDistricts": [
          {
            "election": null,
            "id": 44,
            "name": "Kenora—Rainy River"
          }
        ],
        "pollDivisionIds": [
          10139009
        ],
        "postalCode": "P9N3X6",
        "streetName": "SKEAD",
        "streetDirectionId": null,
        "streetTypeId": "LANE",
        "placeName": "KENORA",
        "streetNameDisplayText": "SKEAD LANE, KENORA"
      },
      {
        "electoralDistricts": [
          {
            "election": null,
            "id": 44,
            "name": "Kenora—Rainy River"
          }
        ],
        "pollDivisionIds": [
          10139010
        ],
        "postalCode": "P9N3X6",
        "streetName": "STORM BAY",
        "streetDirectionId": null,
        "streetTypeId": "RD",
        "placeName": "KENORA",
        "streetNameDisplayText": "STORM BAY RD, KENORA"
      }
    ]
  },
  {
    "postal": "P9N8L0",
    "result": []
  },
  {
    "postal": "P9N8N1",
    "result": []
  },
  {
    "postal": "P9N4J0",
    "result": []
  },
  {
    "postal": "P9N0X7",
    "result": []
  },
  {
    "postal": "P9N6S4",
    "result": []
  },
  {
    "postal": "P9N0Z0",
    "result": []
  },
  {
    "postal": "P9N9X8",
    "result": []
  },
  {
    "postal": "P9N3H3",
    "result": [
      {
        "electoralDistricts": [
          {
            "election": null,
            "id": 44,
            "name": "Kenora—Rainy River"
          }
        ],
        "pollDivisionIds": [
          10138991
        ],
        "postalCode": "P9N3H3",
        "streetName": "SCRAMBLE",
        "streetDirectionId": null,
        "streetTypeId": "AVE",
        "placeName": "KENORA",
        "streetNameDisplayText": "SCRAMBLE AVE, KENORA"
      }
    ]
  },
  {
    "postal": "P9N7S2",
    "result": []
  },
  {
    "postal": "P9N3T3",
    "result": [
      {
        "electoralDistricts": [
          {
            "election": null,
            "id": 44,
            "name": "Kenora—Rainy River"
          }
        ],
        "pollDivisionIds": [
          10138990
        ],
        "postalCode": "P9N3T3",
        "streetName": "NORMAN",
        "streetDirectionId": null,
        "streetTypeId": "DR",
        "placeName": "KENORA",
        "streetNameDisplayText": "NORMAN DR, KENORA"
      }
    ]
  },
  {
    "postal": "P9N9P3",
    "result": []
  },
  {
    "postal": "P9N4H8",
    "result": []
  },
  {
    "postal": "P9N6R1",
    "result": []
  },
  {
    "postal": "P9N1S0",
    "result": []
  },
  {
    "postal": "P9N3W8",
    "result": [
      {
        "electoralDistricts": [
          {
            "election": null,
            "id": 44,
            "name": "Kenora—Rainy River"
          }
        ],
        "pollDivisionIds": [
          10139010,
          10139003,
          10139008,
          10139002
        ],
        "postalCode": "P9N3W8",
        "streetName": "17",
        "streetDirectionId": "E",
        "streetTypeId": "HWY",
        "placeName": "KENORA",
        "streetNameDisplayText": "17 HWY E, KENORA"
      },
      {
        "electoralDistricts": [
          {
            "election": null,
            "id": 44,
            "name": "Kenora—Rainy River"
          }
        ],
        "pollDivisionIds": [
          10139008
        ],
        "postalCode": "P9N3W8",
        "streetName": "17",
        "streetDirectionId": null,
        "streetTypeId": "HWY",
        "placeName": "KENORA",
        "streetNameDisplayText": "17 HWY, KENORA"
      },
      {
        "electoralDistricts": [
          {
            "election": null,
            "id": 44,
            "name": "Kenora—Rainy River"
          }
        ],
        "pollDivisionIds": [
          10139010
        ],
        "postalCode": "P9N3W8",
        "streetName": "71 HWY",
        "streetDirectionId": null,
        "streetTypeId": null,
        "placeName": "KENORA",
        "streetNameDisplayText": "71 HWY, KENORA"
      },
      {
        "electoralDistricts": [
          {
            "election": null,
            "id": 44,
            "name": "Kenora—Rainy River"
          }
        ],
        "pollDivisionIds": [
          10139010
        ],
        "postalCode": "P9N3W8",
        "streetName": "BIG STONE BAY",
        "streetDirectionId": null,
        "streetTypeId": "RD",
        "placeName": "LONGBOW LAKE",
        "streetNameDisplayText": "BIG STONE BAY RD, LONGBOW LAKE"
      },
      {
        "electoralDistricts": [
          {
            "election": null,
            "id": 44,
            "name": "Kenora—Rainy River"
          }
        ],
        "pollDivisionIds": [
          10139010,
          10139008
        ],
        "postalCode": "P9N3W8",
        "streetName": "BIGSTONE BAY",
        "streetDirectionId": null,
        "streetTypeId": "RD",
        "placeName": "KENORA",
        "streetNameDisplayText": "BIGSTONE BAY RD, KENORA"
      },
      {
        "electoralDistricts": [
          {
            "election": null,
            "id": 44,
            "name": "Kenora—Rainy River"
          }
        ],
        "pollDivisionIds": [
          10139005
        ],
        "postalCode": "P9N3W8",
        "streetName": "CITIZENS",
        "streetDirectionId": null,
        "streetTypeId": "DR",
        "placeName": "KENORA",
        "streetNameDisplayText": "CITIZENS DR, KENORA"
      },
      {
        "electoralDistricts": [
          {
            "election": null,
            "id": 44,
            "name": "Kenora—Rainy River"
          }
        ],
        "pollDivisionIds": [
          10138998
        ],
        "postalCode": "P9N3W8",
        "streetName": "CLARENCE",
        "streetDirectionId": null,
        "streetTypeId": "ST",
        "placeName": "KENORA",
        "streetNameDisplayText": "CLARENCE ST, KENORA"
      },
      {
        "electoralDistricts": [
          {
            "election": null,
            "id": 44,
            "name": "Kenora—Rainy River"
          }
        ],
        "pollDivisionIds": [
          10138998
        ],
        "postalCode": "P9N3W8",
        "streetName": "GERALD",
        "streetDirectionId": null,
        "streetTypeId": "ST",
        "placeName": "KENORA",
        "streetNameDisplayText": "GERALD ST, KENORA"
      },
      {
        "electoralDistricts": [
          {
            "election": null,
            "id": 44,
            "name": "Kenora—Rainy River"
          }
        ],
        "pollDivisionIds": [
          10139003
        ],
        "postalCode": "P9N3W8",
        "streetName": "GLEN CAMERON",
        "streetDirectionId": null,
        "streetTypeId": "DR",
        "placeName": "KENORA",
        "streetNameDisplayText": "GLEN CAMERON DR, KENORA"
      },
      {
        "electoralDistricts": [
          {
            "election": null,
            "id": 44,
            "name": "Kenora—Rainy River"
          }
        ],
        "pollDivisionIds": [
          10139002
        ],
        "postalCode": "P9N3W8",
        "streetName": "GOULD",
        "streetDirectionId": null,
        "streetTypeId": "RD",
        "placeName": "KENORA",
        "streetNameDisplayText": "GOULD RD, KENORA"
      },
      {
        "electoralDistricts": [
          {
            "election": null,
            "id": 44,
            "name": "Kenora—Rainy River"
          }
        ],
        "pollDivisionIds": [
          10139008
        ],
        "postalCode": "P9N3W8",
        "streetName": "HILLY LAKE",
        "streetDirectionId": null,
        "streetTypeId": "RD",
        "placeName": "KENORA",
        "streetNameDisplayText": "HILLY LAKE RD, KENORA"
      },
      {
        "electoralDistricts": [
          {
            "election": null,
            "id": 44,
            "name": "Kenora—Rainy River"
          }
        ],
        "pollDivisionIds": [
          10139006
        ],
        "postalCode": "P9N3W8",
        "streetName": "HOMESTAKE",
        "streetDirectionId": null,
        "streetTypeId": "RD",
        "placeName": "KENORA",
        "streetNameDisplayText": "HOMESTAKE RD, KENORA"
      },
      {
        "electoralDistricts": [
          {
            "election": null,
            "id": 44,
            "name": "Kenora—Rainy River"
          }
        ],
        "pollDivisionIds": [
          10139008,
          10139010
        ],
        "postalCode": "P9N3W8",
        "streetName": "HWY 17",
        "streetDirectionId": "E",
        "streetTypeId": null,
        "placeName": "KENORA",
        "streetNameDisplayText": "HWY 17 E, KENORA"
      },
      {
        "electoralDistricts": [
          {
            "election": null,
            "id": 44,
            "name": "Kenora—Rainy River"
          }
        ],
        "pollDivisionIds": [
          10139008
        ],
        "postalCode": "P9N3W8",
        "streetName": "JONES",
        "streetDirectionId": null,
        "streetTypeId": "RD",
        "placeName": "KENORA",
        "streetNameDisplayText": "JONES RD, KENORA"
      },
      {
        "electoralDistricts": [
          {
            "election": null,
            "id": 44,
            "name": "Kenora—Rainy River"
          }
        ],
        "pollDivisionIds": [
          10139005
        ],
        "postalCode": "P9N3W8",
        "streetName": "LOON BAY",
        "streetDirectionId": null,
        "streetTypeId": "RD",
        "placeName": "KENORA",
        "streetNameDisplayText": "LOON BAY RD, KENORA"
      },
      {
        "electoralDistricts": [
          {
            "election": null,
            "id": 44,
            "name": "Kenora—Rainy River"
          }
        ],
        "pollDivisionIds": [
          10139008
        ],
        "postalCode": "P9N3W8",
        "streetName": "MATHESON BAY",
        "streetDirectionId": null,
        "streetTypeId": "RD",
        "placeName": "KENORA",
        "streetNameDisplayText": "MATHESON BAY RD, KENORA"
      },
      {
        "electoralDistricts": [
          {
            "election": null,
            "id": 44,
            "name": "Kenora—Rainy River"
          }
        ],
        "pollDivisionIds": [
          10139008
        ],
        "postalCode": "P9N3W8",
        "streetName": "MOORES",
        "streetDirectionId": null,
        "streetTypeId": "RD",
        "placeName": "KENORA",
        "streetNameDisplayText": "MOORES RD, KENORA"
      },
      {
        "electoralDistricts": [
          {
            "election": null,
            "id": 44,
            "name": "Kenora—Rainy River"
          }
        ],
        "pollDivisionIds": [
          10139008
        ],
        "postalCode": "P9N3W8",
        "streetName": "MOORE'S",
        "streetDirectionId": null,
        "streetTypeId": "RD",
        "placeName": "KENORA",
        "streetNameDisplayText": "MOORE'S RD, KENORA"
      },
      {
        "electoralDistricts": [
          {
            "election": null,
            "id": 44,
            "name": "Kenora—Rainy River"
          }
        ],
        "pollDivisionIds": [
          10139008
        ],
        "postalCode": "P9N3W8",
        "streetName": "OLD BIGSTONE BAY",
        "streetDirectionId": null,
        "streetTypeId": "RD",
        "placeName": "KENORA",
        "streetNameDisplayText": "OLD BIGSTONE BAY RD, KENORA"
      },
      {
        "electoralDistricts": [
          {
            "election": null,
            "id": 44,
            "name": "Kenora—Rainy River"
          }
        ],
        "pollDivisionIds": [
          10139008
        ],
        "postalCode": "P9N3W8",
        "streetName": "PARMETER",
        "streetDirectionId": null,
        "streetTypeId": "RD",
        "placeName": "KENORA",
        "streetNameDisplayText": "PARMETER RD, KENORA"
      },
      {
        "electoralDistricts": [
          {
            "election": null,
            "id": 44,
            "name": "Kenora—Rainy River"
          }
        ],
        "pollDivisionIds": [
          10138991
        ],
        "postalCode": "P9N3W8",
        "streetName": "RABBIT LAKE",
        "streetDirectionId": null,
        "streetTypeId": "RD",
        "placeName": "KENORA",
        "streetNameDisplayText": "RABBIT LAKE RD, KENORA"
      },
      {
        "electoralDistricts": [
          {
            "election": null,
            "id": 44,
            "name": "Kenora—Rainy River"
          }
        ],
        "pollDivisionIds": [
          10138998
        ],
        "postalCode": "P9N3W8",
        "streetName": "ROUND LAKE",
        "streetDirectionId": null,
        "streetTypeId": "RIDGE",
        "placeName": "KENORA",
        "streetNameDisplayText": "ROUND LAKE RIDGE, KENORA"
      },
      {
        "electoralDistricts": [
          {
            "election": null,
            "id": 44,
            "name": "Kenora—Rainy River"
          }
        ],
        "pollDivisionIds": [
          10139008
        ],
        "postalCode": "P9N3W8",
        "streetName": "SINCLAIR",
        "streetDirectionId": null,
        "streetTypeId": "RD",
        "placeName": "KENORA",
        "streetNameDisplayText": "SINCLAIR RD, KENORA"
      },
      {
        "electoralDistricts": [
          {
            "election": null,
            "id": 44,
            "name": "Kenora—Rainy River"
          }
        ],
        "pollDivisionIds": [
          10139010
        ],
        "postalCode": "P9N3W8",
        "streetName": "STONE",
        "streetDirectionId": null,
        "streetTypeId": "RD",
        "placeName": "KENORA",
        "streetNameDisplayText": "STONE RD, KENORA"
      },
      {
        "electoralDistricts": [
          {
            "election": null,
            "id": 44,
            "name": "Kenora—Rainy River"
          }
        ],
        "pollDivisionIds": [
          10139010
        ],
        "postalCode": "P9N3W8",
        "streetName": "STORM BAY",
        "streetDirectionId": null,
        "streetTypeId": "RD",
        "placeName": "KENORA",
        "streetNameDisplayText": "STORM BAY RD, KENORA"
      },
      {
        "electoralDistricts": [
          {
            "election": null,
            "id": 44,
            "name": "Kenora—Rainy River"
          }
        ],
        "pollDivisionIds": [
          10139008
        ],
        "postalCode": "P9N3W8",
        "streetName": "TAILLEAU",
        "streetDirectionId": null,
        "streetTypeId": "RD",
        "placeName": "KENORA",
        "streetNameDisplayText": "TAILLEAU RD, KENORA"
      },
      {
        "electoralDistricts": [
          {
            "election": null,
            "id": 44,
            "name": "Kenora—Rainy River"
          }
        ],
        "pollDivisionIds": [
          10139008
        ],
        "postalCode": "P9N3W8",
        "streetName": "TAILLIEU",
        "streetDirectionId": null,
        "streetTypeId": "RD",
        "placeName": "KENORA",
        "streetNameDisplayText": "TAILLIEU RD, KENORA"
      },
      {
        "electoralDistricts": [
          {
            "election": null,
            "id": 44,
            "name": "Kenora—Rainy River"
          }
        ],
        "pollDivisionIds": [
          10139008
        ],
        "postalCode": "P9N3W8",
        "streetName": "TRANSMITTER",
        "streetDirectionId": null,
        "streetTypeId": "RD",
        "placeName": "KENORA",
        "streetNameDisplayText": "TRANSMITTER RD, KENORA"
      },
      {
        "electoralDistricts": [
          {
            "election": null,
            "id": 44,
            "name": "Kenora—Rainy River"
          }
        ],
        "pollDivisionIds": [
          10139008
        ],
        "postalCode": "P9N3W8",
        "streetName": "WHITEHEAD",
        "streetDirectionId": null,
        "streetTypeId": "RD",
        "placeName": "KENORA",
        "streetNameDisplayText": "WHITEHEAD RD, KENORA"
      }
    ]
  },
  {
    "postal": "P9N4S3",
    "result": []
  },
  {
    "postal": "P9N1B6",
    "result": [
      {
        "electoralDistricts": [
          {
            "election": null,
            "id": 44,
            "name": "Kenora—Rainy River"
          }
        ],
        "pollDivisionIds": [
          10139002,
          10139001
        ],
        "postalCode": "P9N1B6",
        "streetName": "PARK",
        "streetDirectionId": null,
        "streetTypeId": "ST",
        "placeName": "KENORA",
        "streetNameDisplayText": "PARK ST, KENORA"
      }
    ]
  },
  {
    "postal": "P9N8R3",
    "result": []
  },
  {
    "postal": "P9N4V9",
    "result": []
  },
  {
    "postal": "P9N9W4",
    "result": []
  },
  {
    "postal": "P9N3T4",
    "result": [
      {
        "electoralDistricts": [
          {
            "election": null,
            "id": 44,
            "name": "Kenora—Rainy River"
          }
        ],
        "pollDivisionIds": [
          10138990
        ],
        "postalCode": "P9N3T4",
        "streetName": "NORMAN",
        "streetDirectionId": null,
        "streetTypeId": "DR",
        "placeName": "KENORA",
        "streetNameDisplayText": "NORMAN DR, KENORA"
      }
    ]
  },
  {
    "postal": "P9N5C7",
    "result": []
  },
  {
    "postal": "P9N3Y1",
    "result": []
  },
  {
    "postal": "P9N5V0",
    "result": []
  },
  {
    "postal": "P9N8G8",
    "result": []
  },
  {
    "postal": "P9N8B1",
    "result": []
  },
  {
    "postal": "P9N4P5",
    "result": [
      {
        "electoralDistricts": [
          {
            "election": null,
            "id": 44,
            "name": "Kenora—Rainy River"
          }
        ],
        "pollDivisionIds": [
          10139005
        ],
        "postalCode": "P9N4P5",
        "streetName": "COKER",
        "streetDirectionId": null,
        "streetTypeId": "RD",
        "placeName": "KENORA",
        "streetNameDisplayText": "COKER RD, KENORA"
      }
    ]
  },
  {
    "postal": "P9N7B2",
    "result": []
  },
  {
    "postal": "P9N0R2",
    "result": []
  },
  {
    "postal": "P9N4M4",
    "result": [
      {
        "electoralDistricts": [
          {
            "election": null,
            "id": 44,
            "name": "Kenora—Rainy River"
          }
        ],
        "pollDivisionIds": [
          10138991,
          10138993
        ],
        "postalCode": "P9N4M4",
        "streetName": "RABBIT LAKE",
        "streetDirectionId": null,
        "streetTypeId": "RD",
        "placeName": "KENORA",
        "streetNameDisplayText": "RABBIT LAKE RD, KENORA"
      },
      {
        "electoralDistricts": [
          {
            "election": null,
            "id": 44,
            "name": "Kenora—Rainy River"
          }
        ],
        "pollDivisionIds": [
          10138993
        ],
        "postalCode": "P9N4M4",
        "streetName": "UNIVERSAL",
        "streetDirectionId": null,
        "streetTypeId": "DR",
        "placeName": "KENORA",
        "streetNameDisplayText": "UNIVERSAL DR, KENORA"
      }
    ]
  },
  {
    "postal": "P9N7M4",
    "result": []
  },
  {
    "postal": "P9N9S7",
    "result": []
  },
  {
    "postal": "P9N5Z7",
    "result": []
  },
  {
    "postal": "P9N7J7",
    "result": []
  },
  {
    "postal": "P9N8R8",
    "result": []
  },
  {
    "postal": "P9N9X1",
    "result": []
  },
  {
    "postal": "P9N5M9",
    "result": []
  },
  {
    "postal": "P9N9B4",
    "result": []
  },
  {
    "postal": "P9N0L9",
    "result": []
  },
  {
    "postal": "P9N9G4",
    "result": []
  },
  {
    "postal": "P9N1J4",
    "result": [
      {
        "electoralDistricts": [
          {
            "election": null,
            "id": 44,
            "name": "Kenora—Rainy River"
          }
        ],
        "pollDivisionIds": [
          10139000
        ],
        "postalCode": "P9N1J4",
        "streetName": "3RD",
        "streetDirectionId": "S",
        "streetTypeId": "ST",
        "placeName": "KENORA",
        "streetNameDisplayText": "3RD ST S, KENORA"
      },
      {
        "electoralDistricts": [
          {
            "election": null,
            "id": 44,
            "name": "Kenora—Rainy River"
          }
        ],
        "pollDivisionIds": [
          10139000
        ],
        "postalCode": "P9N1J4",
        "streetName": "THIRD",
        "streetDirectionId": "S",
        "streetTypeId": "ST",
        "placeName": "KENORA",
        "streetNameDisplayText": "THIRD ST S, KENORA"
      }
    ]
  },
  {
    "postal": "P9N0W6",
    "result": []
  }
]
