[
  {
    "postal": "L3S9J6",
    "result": []
  },
  {
    "postal": "L3S9Z5",
    "result": []
  },
  {
    "postal": "L3S7H8",
    "result": []
  },
  {
    "postal": "L3S0P6",
    "result": []
  },
  {
    "postal": "L3S0S7",
    "result": []
  },
  {
    "postal": "L3S8B9",
    "result": []
  },
  {
    "postal": "L3S2A6",
    "result": [
      {
        "electoralDistricts": [
          {
            "election": null,
            "id": 57,
            "name": "Markham—Thornhill"
          }
        ],
        "pollDivisionIds": [
          10143187
        ],
        "postalCode": "L3S2A6",
        "streetName": "MILES FARM",
        "streetDirectionId": null,
        "streetTypeId": "RD",
        "placeName": "MARKHAM",
        "streetNameDisplayText": "MILES FARM RD, MARKHAM"
      },
      {
        "electoralDistricts": [
          {
            "election": null,
            "id": 57,
            "name": "Markham—Thornhill"
          }
        ],
        "pollDivisionIds": [
          10143187
        ],
        "postalCode": "L3S2A6",
        "streetName": "MILES' FARM",
        "streetDirectionId": null,
        "streetTypeId": "RD",
        "placeName": "MARKHAM",
        "streetNameDisplayText": "MILES' FARM RD, MARKHAM"
      },
      {
        "electoralDistricts": [
          {
            "election": null,
            "id": 57,
            "name": "Markham—Thornhill"
          }
        ],
        "pollDivisionIds": [
          10143187
        ],
        "postalCode": "L3S2A6",
        "streetName": "NORN",
        "streetDirectionId": null,
        "streetTypeId": "CRES",
        "placeName": "MARKHAM",
        "streetNameDisplayText": "NORN CRES, MARKHAM"
      }
    ]
  },
  {
    "postal": "L3S7V2",
    "result": []
  },
  {
    "postal": "L3S9P4",
    "result": []
  },
  {
    "postal": "L3S6G0",
    "result": []
  },
  {
    "postal": "L3S2K0",
    "result": []
  },
  {
    "postal": "L3S7N6",
    "result": []
  },
  {
    "postal": "L3S5R3",
    "result": []
  },
  {
    "postal": "L3S7K0",
    "result": []
  },
  {
    "postal": "L3S3R2",
    "result": [
      {
        "electoralDistricts": [
          {
            "election": null,
            "id": 57,
            "name": "Markham—Thornhill"
          }
        ],
        "pollDivisionIds": [
          10143192
        ],
        "postalCode": "L3S3R2",
        "streetName": "BRETTON",
        "streetDirectionId": null,
        "streetTypeId": "CIR",
        "placeName": "MARKHAM",
        "streetNameDisplayText": "BRETTON CIR, MARKHAM"
      }
    ]
  },
  {
    "postal": "L3S0J1",
    "result": []
  },
  {
    "postal": "L3S0B0",
    "result": []
  },
  {
    "postal": "L3S5Z2",
    "result": []
  },
  {
    "postal": "L3S7P3",
    "result": []
  },
  {
    "postal": "L3S2K3",
    "result": [
      {
        "electoralDistricts": [
          {
            "election": null,
            "id": 57,
            "name": "Markham—Thornhill"
          }
        ],
        "pollDivisionIds": [
          10143186
        ],
        "postalCode": "L3S2K3",
        "streetName": "WILLIAM HONEY",
        "streetDirectionId": null,
        "streetTypeId": "CRES",
        "placeName": "MARKHAM",
        "streetNameDisplayText": "WILLIAM HONEY CRES, MARKHAM"
      }
    ]
  },
  {
    "postal": "L3S7Y6",
    "result": []
  },
  {
    "postal": "L3S1L9",
    "result": [
      {
        "electoralDistricts": [
          {
            "election": null,
            "id": 57,
            "name": "Markham—Thornhill"
          }
        ],
        "pollDivisionIds": [
          10143182
        ],
        "postalCode": "L3S1L9",
        "streetName": "PETTIGREW",
        "streetDirectionId": null,
        "streetTypeId": "CRT",
        "placeName": "MARKHAM",
        "streetNameDisplayText": "PETTIGREW CRT, MARKHAM"
      }
    ]
  },
  {
    "postal": "L3S8T0",
    "result": []
  },
  {
    "postal": "L3S3K8",
    "result": [
      {
        "electoralDistricts": [
          {
            "election": null,
            "id": 57,
            "name": "Markham—Thornhill"
          }
        ],
        "pollDivisionIds": [
          10143189,
          10143184
        ],
        "postalCode": "L3S3K8",
        "streetName": "14TH",
        "streetDirectionId": null,
        "streetTypeId": "AVE",
        "placeName": "MARKHAM",
        "streetNameDisplayText": "14TH AVE, MARKHAM"
      }
    ]
  },
  {
    "postal": "L3S5W9",
    "result": []
  },
  {
    "postal": "L3S6T9",
    "result": []
  },
  {
    "postal": "L3S4H1",
    "result": [
      {
        "electoralDistricts": [
          {
            "election": null,
            "id": 57,
            "name": "Markham—Thornhill"
          }
        ],
        "pollDivisionIds": [
          10143189
        ],
        "postalCode": "L3S4H1",
        "streetName": "APOLLO",
        "streetDirectionId": null,
        "streetTypeId": "RD",
        "placeName": "MARKHAM",
        "streetNameDisplayText": "APOLLO RD, MARKHAM"
      },
      {
        "electoralDistricts": [
          {
            "election": null,
            "id": 57,
            "name": "Markham—Thornhill"
          }
        ],
        "pollDivisionIds": [
          10143189
        ],
        "postalCode": "L3S4H1",
        "streetName": "STELLA",
        "streetDirectionId": null,
        "streetTypeId": "DR",
        "placeName": "MARKHAM",
        "streetNameDisplayText": "STELLA DR, MARKHAM"
      }
    ]
  },
  {
    "postal": "L3S7A2",
    "result": []
  },
  {
    "postal": "L3S5G0",
    "result": []
  },
  {
    "postal": "L3S8V5",
    "result": []
  },
  {
    "postal": "L3S2Y8",
    "result": [
      {
        "electoralDistricts": [
          {
            "election": null,
            "id": 57,
            "name": "Markham—Thornhill"
          }
        ],
        "pollDivisionIds": [
          10143190
        ],
        "postalCode": "L3S2Y8",
        "streetName": "MARY PEARSON",
        "streetDirectionId": null,
        "streetTypeId": "DR",
        "placeName": "MARKHAM",
        "streetNameDisplayText": "MARY PEARSON DR, MARKHAM"
      }
    ]
  },
  {
    "postal": "L3S2B6",
    "result": [
      {
        "electoralDistricts": [
          {
            "election": null,
            "id": 57,
            "name": "Markham—Thornhill"
          }
        ],
        "pollDivisionIds": [
          10143187
        ],
        "postalCode": "L3S2B6",
        "streetName": "CHARLES ALFRED",
        "streetDirectionId": null,
        "streetTypeId": "CRES",
        "placeName": "MARKHAM",
        "streetNameDisplayText": "CHARLES ALFRED CRES, MARKHAM"
      }
    ]
  },
  {
    "postal": "L3S4W8",
    "result": []
  },
  {
    "postal": "L3S8H7",
    "result": []
  },
  {
    "postal": "L3S5P1",
    "result": []
  },
  {
    "postal": "L3S2B8",
    "result": [
      {
        "electoralDistricts": [
          {
            "election": null,
            "id": 57,
            "name": "Markham—Thornhill"
          }
        ],
        "pollDivisionIds": [
          10143187
        ],
        "postalCode": "L3S2B8",
        "streetName": "CHARLES ALFRED",
        "streetDirectionId": null,
        "streetTypeId": "CRES",
        "placeName": "MARKHAM",
        "streetNameDisplayText": "CHARLES ALFRED CRES, MARKHAM"
      }
    ]
  },
  {
    "postal": "L3S0P2",
    "result": []
  },
  {
    "postal": "L3S9M1",
    "result": []
  },
  {
    "postal": "L3S3G0",
    "result": []
  },
  {
    "postal": "L3S9Z2",
    "result": []
  },
  {
    "postal": "L3S2A0",
    "result": []
  },
  {
    "postal": "L3S6Y0",
    "result": []
  },
  {
    "postal": "L3S2Z8",
    "result": [
      {
        "electoralDistricts": [
          {
            "election": null,
            "id": 57,
            "name": "Markham—Thornhill"
          }
        ],
        "pollDivisionIds": [
          10143190
        ],
        "postalCode": "L3S2Z8",
        "streetName": "FAIRTY",
        "streetDirectionId": null,
        "streetTypeId": "DR",
        "placeName": "MARKHAM",
        "streetNameDisplayText": "FAIRTY DR, MARKHAM"
      },
      {
        "electoralDistricts": [
          {
            "election": null,
            "id": 57,
            "name": "Markham—Thornhill"
          }
        ],
        "pollDivisionIds": [
          10143190
        ],
        "postalCode": "L3S2Z8",
        "streetName": "TAPLANE",
        "streetDirectionId": null,
        "streetTypeId": "DR",
        "placeName": "MARKHAM",
        "streetNameDisplayText": "TAPLANE DR, MARKHAM"
      }
    ]
  },
  {
    "postal": "L3S7Y3",
    "result": []
  },
  {
    "postal": "L3S6Z5",
    "result": []
  },
  {
    "postal": "L3S6E0",
    "result": []
  },
  {
    "postal": "L3S9B7",
    "result": []
  },
  {
    "postal": "L3S9S5",
    "result": []
  },
  {
    "postal": "L3S3X3",
    "result": [
      {
        "electoralDistricts": [
          {
            "election": null,
            "id": 57,
            "name": "Markham—Thornhill"
          }
        ],
        "pollDivisionIds": [
          10143188
        ],
        "postalCode": "L3S3X3",
        "streetName": "FONDA",
        "streetDirectionId": null,
        "streetTypeId": "RD",
        "placeName": "MARKHAM",
        "streetNameDisplayText": "FONDA RD, MARKHAM"
      },
      {
        "electoralDistricts": [
          {
            "election": null,
            "id": 57,
            "name": "Markham—Thornhill"
          }
        ],
        "pollDivisionIds": [
          10143188
        ],
        "postalCode": "L3S3X3",
        "streetName": "MINDY",
        "streetDirectionId": null,
        "streetTypeId": "CRES",
        "placeName": "MARKHAM",
        "streetNameDisplayText": "MINDY CRES, MARKHAM"
      }
    ]
  },
  {
    "postal": "L3S7R5",
    "result": []
  },
  {
    "postal": "L3S2X3",
    "result": [
      {
        "electoralDistricts": [
          {
            "election": null,
            "id": 57,
            "name": "Markham—Thornhill"
          }
        ],
        "pollDivisionIds": [
          10143181
        ],
        "postalCode": "L3S2X3",
        "streetName": "STATHER",
        "streetDirectionId": null,
        "streetTypeId": "CRES",
        "placeName": "MARKHAM",
        "streetNameDisplayText": "STATHER CRES, MARKHAM"
      }
    ]
  },
  {
    "postal": "L3S8Z9",
    "result": []
  },
  {
    "postal": "L3S0N4",
    "result": []
  },
  {
    "postal": "L3S1K1",
    "result": [
      {
        "electoralDistricts": [
          {
            "election": null,
            "id": 57,
            "name": "Markham—Thornhill"
          }
        ],
        "pollDivisionIds": [
          10143181
        ],
        "postalCode": "L3S1K1",
        "streetName": "GALBRAITH",
        "streetDirectionId": null,
        "streetTypeId": "CRES",
        "placeName": "MARKHAM",
        "streetNameDisplayText": "GALBRAITH CRES, MARKHAM"
      }
    ]
  },
  {
    "postal": "L3S1S3",
    "result": [
      {
        "electoralDistricts": [
          {
            "election": null,
            "id": 57,
            "name": "Markham—Thornhill"
          }
        ],
        "pollDivisionIds": [
          10143183
        ],
        "postalCode": "L3S1S3",
        "streetName": "BECKWITH",
        "streetDirectionId": null,
        "streetTypeId": "CRES",
        "placeName": "MARKHAM",
        "streetNameDisplayText": "BECKWITH CRES, MARKHAM"
      }
    ]
  },
  {
    "postal": "L3S6M4",
    "result": []
  },
  {
    "postal": "L3S9A9",
    "result": []
  },
  {
    "postal": "L3S9Z9",
    "result": []
  },
  {
    "postal": "L3S6T4",
    "result": []
  },
  {
    "postal": "L3S0B2",
    "result": [
      {
        "electoralDistricts": [
          {
            "election": null,
            "id": 56,
            "name": "Markham—Stouffville"
          }
        ],
        "pollDivisionIds": [
          10134358
        ],
        "postalCode": "L3S0B2",
        "streetName": "ROUGE BANK",
        "streetDirectionId": null,
        "streetTypeId": "DR",
        "placeName": "MARKHAM",
        "streetNameDisplayText": "ROUGE BANK DR, MARKHAM"
      },
      {
        "electoralDistricts": [
          {
            "election": null,
            "id": 56,
            "name": "Markham—Stouffville"
          }
        ],
        "pollDivisionIds": [
          10134358
        ],
        "postalCode": "L3S0B2",
        "streetName": "WHITE BLUFF",
        "streetDirectionId": null,
        "streetTypeId": "LANE",
        "placeName": "MARKHAM",
        "streetNameDisplayText": "WHITE BLUFF LANE, MARKHAM"
      }
    ]
  },
  {
    "postal": "L3S2L9",
    "result": [
      {
        "electoralDistricts": [
          {
            "election": null,
            "id": 57,
            "name": "Markham—Thornhill"
          }
        ],
        "pollDivisionIds": [
          10143186,
          10143187
        ],
        "postalCode": "L3S2L9",
        "streetName": "COLERAINE",
        "streetDirectionId": null,
        "streetTypeId": "AVE",
        "placeName": "MARKHAM",
        "streetNameDisplayText": "COLERAINE AVE, MARKHAM"
      },
      {
        "electoralDistricts": [
          {
            "election": null,
            "id": 57,
            "name": "Markham—Thornhill"
          }
        ],
        "pollDivisionIds": [
          10143187,
          10143186
        ],
        "postalCode": "L3S2L9",
        "streetName": "GOODWOOD",
        "streetDirectionId": null,
        "streetTypeId": "DR",
        "placeName": "MARKHAM",
        "streetNameDisplayText": "GOODWOOD DR, MARKHAM"
      }
    ]
  },
  {
    "postal": "L3S8K9",
    "result": []
  },
  {
    "postal": "L3S2H9",
    "result": [
      {
        "electoralDistricts": [
          {
            "election": null,
            "id": 57,
            "name": "Markham—Thornhill"
          }
        ],
        "pollDivisionIds": [
          10143186
        ],
        "postalCode": "L3S2H9",
        "streetName": "CHLOE",
        "streetDirectionId": null,
        "streetTypeId": "CRES",
        "placeName": "MARKHAM",
        "streetNameDisplayText": "CHLOE CRES, MARKHAM"
      }
    ]
  },
  {
    "postal": "L3S3Z6",
    "result": [
      {
        "electoralDistricts": [
          {
            "election": null,
            "id": 57,
            "name": "Markham—Thornhill"
          }
        ],
        "pollDivisionIds": [
          10143180
        ],
        "postalCode": "L3S3Z6",
        "streetName": "ASHGROVE",
        "streetDirectionId": null,
        "streetTypeId": "RD",
        "placeName": "MARKHAM",
        "streetNameDisplayText": "ASHGROVE RD, MARKHAM"
      },
      {
        "electoralDistricts": [
          {
            "election": null,
            "id": 57,
            "name": "Markham—Thornhill"
          }
        ],
        "pollDivisionIds": [
          10143180
        ],
        "postalCode": "L3S3Z6",
        "streetName": "HEPBURN",
        "streetDirectionId": null,
        "streetTypeId": "ST",
        "placeName": "MARKHAM",
        "streetNameDisplayText": "HEPBURN ST, MARKHAM"
      }
    ]
  },
  {
    "postal": "L3S3B0",
    "result": []
  },
  {
    "postal": "L3S2H8",
    "result": [
      {
        "electoralDistricts": [
          {
            "election": null,
            "id": 57,
            "name": "Markham—Thornhill"
          }
        ],
        "pollDivisionIds": [
          10143186
        ],
        "postalCode": "L3S2H8",
        "streetName": "CHLOE",
        "streetDirectionId": null,
        "streetTypeId": "CRES",
        "placeName": "MARKHAM",
        "streetNameDisplayText": "CHLOE CRES, MARKHAM"
      }
    ]
  },
  {
    "postal": "L3S3X2",
    "result": [
      {
        "electoralDistricts": [
          {
            "election": null,
            "id": 57,
            "name": "Markham—Thornhill"
          }
        ],
        "pollDivisionIds": [
          10143188
        ],
        "postalCode": "L3S3X2",
        "streetName": "CONNERY",
        "streetDirectionId": null,
        "streetTypeId": "CRES",
        "placeName": "MARKHAM",
        "streetNameDisplayText": "CONNERY CRES, MARKHAM"
      },
      {
        "electoralDistricts": [
          {
            "election": null,
            "id": 57,
            "name": "Markham—Thornhill"
          }
        ],
        "pollDivisionIds": [
          10143188
        ],
        "postalCode": "L3S3X2",
        "streetName": "FONDA",
        "streetDirectionId": null,
        "streetTypeId": "RD",
        "placeName": "MARKHAM",
        "streetNameDisplayText": "FONDA RD, MARKHAM"
      },
      {
        "electoralDistricts": [
          {
            "election": null,
            "id": 57,
            "name": "Markham—Thornhill"
          }
        ],
        "pollDivisionIds": [
          10143188
        ],
        "postalCode": "L3S3X2",
        "streetName": "GOLDEN",
        "streetDirectionId": null,
        "streetTypeId": "AVE",
        "placeName": "MARKHAM",
        "streetNameDisplayText": "GOLDEN AVE, MARKHAM"
      }
    ]
  },
  {
    "postal": "L3S2E9",
    "result": [
      {
        "electoralDistricts": [
          {
            "election": null,
            "id": 57,
            "name": "Markham—Thornhill"
          }
        ],
        "pollDivisionIds": [
          10143187
        ],
        "postalCode": "L3S2E9",
        "streetName": "CIMMARON",
        "streetDirectionId": null,
        "streetTypeId": "ST",
        "placeName": "MARKHAM",
        "streetNameDisplayText": "CIMMARON ST, MARKHAM"
      }
    ]
  },
  {
    "postal": "L3S9P6",
    "result": []
  },
  {
    "postal": "L3S9E2",
    "result": []
  },
  {
    "postal": "L3S9H2",
    "result": []
  },
  {
    "postal": "L3S1S8",
    "result": [
      {
        "electoralDistricts": [
          {
            "election": null,
            "id": 57,
            "name": "Markham—Thornhill"
          }
        ],
        "pollDivisionIds": [
          10143183
        ],
        "postalCode": "L3S1S8",
        "streetName": "DAIRIS",
        "streetDirectionId": null,
        "streetTypeId": "CRES",
        "placeName": "MARKHAM",
        "streetNameDisplayText": "DAIRIS CRES, MARKHAM"
      }
    ]
  },
  {
    "postal": "L3S3M6",
    "result": [
      {
        "electoralDistricts": [
          {
            "election": null,
            "id": 57,
            "name": "Markham—Thornhill"
          }
        ],
        "pollDivisionIds": [
          10143185
        ],
        "postalCode": "L3S3M6",
        "streetName": "MARLEY",
        "streetDirectionId": null,
        "streetTypeId": "CRT",
        "placeName": "MARKHAM",
        "streetNameDisplayText": "MARLEY CRT, MARKHAM"
      }
    ]
  },
  {
    "postal": "L3S6Z8",
    "result": []
  },
  {
    "postal": "L3S4J2",
    "result": [
      {
        "electoralDistricts": [
          {
            "election": null,
            "id": 57,
            "name": "Markham—Thornhill"
          }
        ],
        "pollDivisionIds": [
          10143184
        ],
        "postalCode": "L3S4J2",
        "streetName": "CONSTANTIA",
        "streetDirectionId": null,
        "streetTypeId": "ST",
        "placeName": "MARKHAM",
        "streetNameDisplayText": "CONSTANTIA ST, MARKHAM"
      },
      {
        "electoralDistricts": [
          {
            "election": null,
            "id": 57,
            "name": "Markham—Thornhill"
          }
        ],
        "pollDivisionIds": [
          10143184
        ],
        "postalCode": "L3S4J2",
        "streetName": "FEATHERSTONE",
        "streetDirectionId": null,
        "streetTypeId": "AVE",
        "placeName": "MARKHAM",
        "streetNameDisplayText": "FEATHERSTONE AVE, MARKHAM"
      },
      {
        "electoralDistricts": [
          {
            "election": null,
            "id": 57,
            "name": "Markham—Thornhill"
          }
        ],
        "pollDivisionIds": [
          10143184
        ],
        "postalCode": "L3S4J2",
        "streetName": "SUMMERLEA",
        "streetDirectionId": null,
        "streetTypeId": "ST",
        "placeName": "MARKHAM",
        "streetNameDisplayText": "SUMMERLEA ST, MARKHAM"
      }
    ]
  },
  {
    "postal": "L3S9Y1",
    "result": []
  },
  {
    "postal": "L3S8V6",
    "result": []
  },
  {
    "postal": "L3S6B2",
    "result": []
  },
  {
    "postal": "L3S1P8",
    "result": [
      {
        "electoralDistricts": [
          {
            "election": null,
            "id": 57,
            "name": "Markham—Thornhill"
          }
        ],
        "pollDivisionIds": [
          10143183
        ],
        "postalCode": "L3S1P8",
        "streetName": "HILLCROFT",
        "streetDirectionId": null,
        "streetTypeId": "DR",
        "placeName": "MARKHAM",
        "streetNameDisplayText": "HILLCROFT DR, MARKHAM"
      }
    ]
  },
  {
    "postal": "L3S0V8",
    "result": []
  },
  {
    "postal": "L3S4Y0",
    "result": []
  },
  {
    "postal": "L3S2T4",
    "result": [
      {
        "electoralDistricts": [
          {
            "election": null,
            "id": 57,
            "name": "Markham—Thornhill"
          }
        ],
        "pollDivisionIds": [
          10143185
        ],
        "postalCode": "L3S2T4",
        "streetName": "WALFORD",
        "streetDirectionId": null,
        "streetTypeId": "RD",
        "placeName": "MARKHAM",
        "streetNameDisplayText": "WALFORD RD, MARKHAM"
      }
    ]
  },
  {
    "postal": "L3S2S3",
    "result": [
      {
        "electoralDistricts": [
          {
            "election": null,
            "id": 57,
            "name": "Markham—Thornhill"
          }
        ],
        "pollDivisionIds": [
          10143185
        ],
        "postalCode": "L3S2S3",
        "streetName": "DEWBERRY",
        "streetDirectionId": null,
        "streetTypeId": "DR",
        "placeName": "MARKHAM",
        "streetNameDisplayText": "DEWBERRY DR, MARKHAM"
      },
      {
        "electoralDistricts": [
          {
            "election": null,
            "id": 57,
            "name": "Markham—Thornhill"
          }
        ],
        "pollDivisionIds": [
          10143185
        ],
        "postalCode": "L3S2S3",
        "streetName": "FEATHERSTONE",
        "streetDirectionId": null,
        "streetTypeId": "AVE",
        "placeName": "MARKHAM",
        "streetNameDisplayText": "FEATHERSTONE AVE, MARKHAM"
      }
    ]
  },
  {
    "postal": "L3S0K0",
    "result": []
  },
  {
    "postal": "L3S5N1",
    "result": []
  },
  {
    "postal": "L3S7T0",
    "result": []
  },
  {
    "postal": "L3S9N2",
    "result": []
  },
  {
    "postal": "L3S5L1",
    "result": []
  },
  {
    "postal": "L3S7G5",
    "result": []
  },
  {
    "postal": "L3S6K2",
    "result": []
  },
  {
    "postal": "L3S6P9",
    "result": []
  },
  {
    "postal": "L3S0E6",
    "result": []
  },
  {
    "postal": "L3S8R9",
    "result": []
  },
  {
    "postal": "L3S3G9",
    "result": [
      {
        "electoralDistricts": [
          {
            "election": null,
            "id": 57,
            "name": "Markham—Thornhill"
          }
        ],
        "pollDivisionIds": [
          10143190
        ],
        "postalCode": "L3S3G9",
        "streetName": "DOROTHY BRITTON D",
        "streetDirectionId": null,
        "streetTypeId": "DR",
        "placeName": "MARKHAM",
        "streetNameDisplayText": "DOROTHY BRITTON D DR, MARKHAM"
      },
      {
        "electoralDistricts": [
          {
            "election": null,
            "id": 57,
            "name": "Markham—Thornhill"
          }
        ],
        "pollDivisionIds": [
          10143190
        ],
        "postalCode": "L3S3G9",
        "streetName": "DOROTHY BRITTON",
        "streetDirectionId": null,
        "streetTypeId": "DR",
        "placeName": "MARKHAM",
        "streetNameDisplayText": "DOROTHY BRITTON DR, MARKHAM"
      },
      {
        "electoralDistricts": [
          {
            "election": null,
            "id": 57,
            "name": "Markham—Thornhill"
          }
        ],
        "pollDivisionIds": [
          10143190
        ],
        "postalCode": "L3S3G9",
        "streetName": "JOYCEDALE",
        "streetDirectionId": null,
        "streetTypeId": "ST",
        "placeName": "MARKHAM",
        "streetNameDisplayText": "JOYCEDALE ST, MARKHAM"
      }
    ]
  },
  {
    "postal": "L3S0V7",
    "result": []
  },
  {
    "postal": "L3S2Z1",
    "result": [
      {
        "electoralDistricts": [
          {
            "election": null,
            "id": 57,
            "name": "Markham—Thornhill"
          }
        ],
        "pollDivisionIds": [
          10143190
        ],
        "postalCode": "L3S2Z1",
        "streetName": "NORMAN ROSS",
        "streetDirectionId": null,
        "streetTypeId": "DR",
        "placeName": "MARKHAM",
        "streetNameDisplayText": "NORMAN ROSS DR, MARKHAM"
      }
    ]
  },
  {
    "postal": "L3S7N1",
    "result": []
  },
  {
    "postal": "L3S3C6",
    "result": [
      {
        "electoralDistricts": [
          {
            "election": null,
            "id": 57,
            "name": "Markham—Thornhill"
          }
        ],
        "pollDivisionIds": [
          10143190
        ],
        "postalCode": "L3S3C6",
        "streetName": "DEENA",
        "streetDirectionId": null,
        "streetTypeId": "PL",
        "placeName": "MARKHAM",
        "streetNameDisplayText": "DEENA PL, MARKHAM"
      },
      {
        "electoralDistricts": [
          {
            "election": null,
            "id": 57,
            "name": "Markham—Thornhill"
          }
        ],
        "pollDivisionIds": [
          10143190
        ],
        "postalCode": "L3S3C6",
        "streetName": "ELSON",
        "streetDirectionId": null,
        "streetTypeId": "ST",
        "placeName": "MARKHAM",
        "streetNameDisplayText": "ELSON ST, MARKHAM"
      },
      {
        "electoralDistricts": [
          {
            "election": null,
            "id": 57,
            "name": "Markham—Thornhill"
          }
        ],
        "pollDivisionIds": [
          10143190
        ],
        "postalCode": "L3S3C6",
        "streetName": "IVAN DANIELS",
        "streetDirectionId": null,
        "streetTypeId": "DR",
        "placeName": "MARKHAM",
        "streetNameDisplayText": "IVAN DANIELS DR, MARKHAM"
      }
    ]
  },
  {
    "postal": "L3S4M1",
    "result": []
  },
  {
    "postal": "L3S9K2",
    "result": []
  },
  {
    "postal": "L3S9S6",
    "result": []
  },
  {
    "postal": "L3S4X1",
    "result": []
  },
  {
    "postal": "L3S8W2",
    "result": []
  },
  {
    "postal": "L3S7N2",
    "result": []
  },
  {
    "postal": "L3S8S3",
    "result": []
  },
  {
    "postal": "L3S4V0",
    "result": []
  },
  {
    "postal": "L3S6W4",
    "result": []
  },
  {
    "postal": "L3S5M1",
    "result": []
  },
  {
    "postal": "L3S0S4",
    "result": []
  },
  {
    "postal": "L3S5X6",
    "result": []
  },
  {
    "postal": "L3S8L5",
    "result": []
  },
  {
    "postal": "L3S5M8",
    "result": []
  },
  {
    "postal": "L3S2G3",
    "result": [
      {
        "electoralDistricts": [
          {
            "election": null,
            "id": 57,
            "name": "Markham—Thornhill"
          }
        ],
        "pollDivisionIds": [
          10143187
        ],
        "postalCode": "L3S2G3",
        "streetName": "CIMMARON",
        "streetDirectionId": null,
        "streetTypeId": "ST",
        "placeName": "MARKHAM",
        "streetNameDisplayText": "CIMMARON ST, MARKHAM"
      }
    ]
  },
  {
    "postal": "L3S8E4",
    "result": []
  },
  {
    "postal": "L3S7S9",
    "result": []
  },
  {
    "postal": "L3S1K3",
    "result": [
      {
        "electoralDistricts": [
          {
            "election": null,
            "id": 57,
            "name": "Markham—Thornhill"
          }
        ],
        "pollDivisionIds": [
          10143182
        ],
        "postalCode": "L3S1K3",
        "streetName": "PETTIGREW",
        "streetDirectionId": null,
        "streetTypeId": "CRT",
        "placeName": "MARKHAM",
        "streetNameDisplayText": "PETTIGREW CRT, MARKHAM"
      }
    ]
  },
  {
    "postal": "L3S4E1",
    "result": [
      {
        "electoralDistricts": [
          {
            "election": null,
            "id": 57,
            "name": "Markham—Thornhill"
          }
        ],
        "pollDivisionIds": [
          10143182
        ],
        "postalCode": "L3S4E1",
        "streetName": "BELFORD",
        "streetDirectionId": null,
        "streetTypeId": "CRES",
        "placeName": "MARKHAM",
        "streetNameDisplayText": "BELFORD CRES, MARKHAM"
      },
      {
        "electoralDistricts": [
          {
            "election": null,
            "id": 57,
            "name": "Markham—Thornhill"
          }
        ],
        "pollDivisionIds": [
          10143182
        ],
        "postalCode": "L3S4E1",
        "streetName": "INGRAM",
        "streetDirectionId": null,
        "streetTypeId": "RD",
        "placeName": "MARKHAM",
        "streetNameDisplayText": "INGRAM RD, MARKHAM"
      }
    ]
  },
  {
    "postal": "L3S4R2",
    "result": [
      {
        "electoralDistricts": [
          {
            "election": null,
            "id": 57,
            "name": "Markham—Thornhill"
          }
        ],
        "pollDivisionIds": [
          10143180
        ],
        "postalCode": "L3S4R2",
        "streetName": "REDKEY",
        "streetDirectionId": null,
        "streetTypeId": "DR",
        "placeName": "MARKHAM",
        "streetNameDisplayText": "REDKEY DR, MARKHAM"
      },
      {
        "electoralDistricts": [
          {
            "election": null,
            "id": 57,
            "name": "Markham—Thornhill"
          }
        ],
        "pollDivisionIds": [
          10143180
        ],
        "postalCode": "L3S4R2",
        "streetName": "TORMINA",
        "streetDirectionId": null,
        "streetTypeId": "CRT",
        "placeName": "MARKHAM",
        "streetNameDisplayText": "TORMINA CRT, MARKHAM"
      }
    ]
  },
  {
    "postal": "L3S6T0",
    "result": []
  },
  {
    "postal": "L3S3K5",
    "result": [
      {
        "electoralDistricts": [
          {
            "election": null,
            "id": 57,
            "name": "Markham—Thornhill"
          }
        ],
        "pollDivisionIds": [
          10143189,
          10143184
        ],
        "postalCode": "L3S3K5",
        "streetName": "14TH",
        "streetDirectionId": null,
        "streetTypeId": "AVE",
        "placeName": "MARKHAM",
        "streetNameDisplayText": "14TH AVE, MARKHAM"
      }
    ]
  },
  {
    "postal": "L3S3S3",
    "result": [
      {
        "electoralDistricts": [
          {
            "election": null,
            "id": 57,
            "name": "Markham—Thornhill"
          }
        ],
        "pollDivisionIds": [
          10143181
        ],
        "postalCode": "L3S3S3",
        "streetName": "RANDALL",
        "streetDirectionId": null,
        "streetTypeId": "AVE",
        "placeName": "MARKHAM",
        "streetNameDisplayText": "RANDALL AVE, MARKHAM"
      },
      {
        "electoralDistricts": [
          {
            "election": null,
            "id": 57,
            "name": "Markham—Thornhill"
          }
        ],
        "pollDivisionIds": [
          10143181
        ],
        "postalCode": "L3S3S3",
        "streetName": "TOWNLEY",
        "streetDirectionId": null,
        "streetTypeId": "AVE",
        "placeName": "MARKHAM",
        "streetNameDisplayText": "TOWNLEY AVE, MARKHAM"
      }
    ]
  },
  {
    "postal": "L3S3L4",
    "result": []
  },
  {
    "postal": "L3S9Y2",
    "result": []
  },
  {
    "postal": "L3S1E0",
    "result": []
  },
  {
    "postal": "L3S9A4",
    "result": []
  },
  {
    "postal": "L3S1L3",
    "result": [
      {
        "electoralDistricts": [
          {
            "election": null,
            "id": 57,
            "name": "Markham—Thornhill"
          }
        ],
        "pollDivisionIds": [
          10143181
        ],
        "postalCode": "L3S1L3",
        "streetName": "SORRELL",
        "streetDirectionId": null,
        "streetTypeId": "CRES",
        "placeName": "MARKHAM",
        "streetNameDisplayText": "SORRELL CRES, MARKHAM"
      }
    ]
  },
  {
    "postal": "L3S6N1",
    "result": []
  },
  {
    "postal": "L3S6G7",
    "result": []
  },
  {
    "postal": "L3S7W1",
    "result": []
  },
  {
    "postal": "L3S4M6",
    "result": [
      {
        "electoralDistricts": [
          {
            "election": null,
            "id": 57,
            "name": "Markham—Thornhill"
          }
        ],
        "pollDivisionIds": [
          10143192
        ],
        "postalCode": "L3S4M6",
        "streetName": "TREELINE",
        "streetDirectionId": null,
        "streetTypeId": "CRT",
        "placeName": "MARKHAM",
        "streetNameDisplayText": "TREELINE CRT, MARKHAM"
      }
    ]
  },
  {
    "postal": "L3S1K0",
    "result": []
  },
  {
    "postal": "L3S3E2",
    "result": [
      {
        "electoralDistricts": [
          {
            "election": null,
            "id": 57,
            "name": "Markham—Thornhill"
          }
        ],
        "pollDivisionIds": [
          10143190
        ],
        "postalCode": "L3S3E2",
        "streetName": "OLIVEWOOD",
        "streetDirectionId": null,
        "streetTypeId": "DR",
        "placeName": "MARKHAM",
        "streetNameDisplayText": "OLIVEWOOD DR, MARKHAM"
      }
    ]
  },
  {
    "postal": "L3S5H4",
    "result": []
  },
  {
    "postal": "L3S1K7",
    "result": [
      {
        "electoralDistricts": [
          {
            "election": null,
            "id": 57,
            "name": "Markham—Thornhill"
          }
        ],
        "pollDivisionIds": [
          10143181
        ],
        "postalCode": "L3S1K7",
        "streetName": "CARTMEL",
        "streetDirectionId": null,
        "streetTypeId": "DR",
        "placeName": "MARKHAM",
        "streetNameDisplayText": "CARTMEL DR, MARKHAM"
      }
    ]
  },
  {
    "postal": "L3S0H0",
    "result": []
  },
  {
    "postal": "L3S0J3",
    "result": []
  },
  {
    "postal": "L3S1X6",
    "result": [
      {
        "electoralDistricts": [
          {
            "election": null,
            "id": 57,
            "name": "Markham—Thornhill"
          }
        ],
        "pollDivisionIds": [
          10143181
        ],
        "postalCode": "L3S1X6",
        "streetName": "HARNESS",
        "streetDirectionId": null,
        "streetTypeId": "CIR",
        "placeName": "MARKHAM",
        "streetNameDisplayText": "HARNESS CIR, MARKHAM"
      }
    ]
  },
  {
    "postal": "L3S2Z6",
    "result": [
      {
        "electoralDistricts": [
          {
            "election": null,
            "id": 57,
            "name": "Markham—Thornhill"
          }
        ],
        "pollDivisionIds": [
          10143190
        ],
        "postalCode": "L3S2Z6",
        "streetName": "MARY PEARSON",
        "streetDirectionId": null,
        "streetTypeId": "DR",
        "placeName": "MARKHAM",
        "streetNameDisplayText": "MARY PEARSON DR, MARKHAM"
      }
    ]
  },
  {
    "postal": "L3S4R9",
    "result": [
      {
        "electoralDistricts": [
          {
            "election": null,
            "id": 57,
            "name": "Markham—Thornhill"
          }
        ],
        "pollDivisionIds": [
          10143189
        ],
        "postalCode": "L3S4R9",
        "streetName": "EASTVALE",
        "streetDirectionId": null,
        "streetTypeId": "DR",
        "placeName": "MARKHAM",
        "streetNameDisplayText": "EASTVALE DR, MARKHAM"
      },
      {
        "electoralDistricts": [
          {
            "election": null,
            "id": 57,
            "name": "Markham—Thornhill"
          }
        ],
        "pollDivisionIds": [
          10143189
        ],
        "postalCode": "L3S4R9",
        "streetName": "ELSON",
        "streetDirectionId": null,
        "streetTypeId": "ST",
        "placeName": "MARKHAM",
        "streetNameDisplayText": "ELSON ST, MARKHAM"
      }
    ]
  },
  {
    "postal": "L3S0W8",
    "result": []
  },
  {
    "postal": "L3S1L4",
    "result": [
      {
        "electoralDistricts": [
          {
            "election": null,
            "id": 57,
            "name": "Markham—Thornhill"
          }
        ],
        "pollDivisionIds": [
          10143181
        ],
        "postalCode": "L3S1L4",
        "streetName": "SORRELL",
        "streetDirectionId": null,
        "streetTypeId": "CRES",
        "placeName": "MARKHAM",
        "streetNameDisplayText": "SORRELL CRES, MARKHAM"
      }
    ]
  },
  {
    "postal": "L3S0C8",
    "result": [
      {
        "electoralDistricts": [
          {
            "election": null,
            "id": 57,
            "name": "Markham—Thornhill"
          }
        ],
        "pollDivisionIds": [
          10143189
        ],
        "postalCode": "L3S0C8",
        "streetName": "CASTLE ROCK",
        "streetDirectionId": null,
        "streetTypeId": "CRT",
        "placeName": "MARKHAM",
        "streetNameDisplayText": "CASTLE ROCK CRT, MARKHAM"
      },
      {
        "electoralDistricts": [
          {
            "election": null,
            "id": 57,
            "name": "Markham—Thornhill"
          }
        ],
        "pollDivisionIds": [
          10143189
        ],
        "postalCode": "L3S0C8",
        "streetName": "ELSON",
        "streetDirectionId": null,
        "streetTypeId": "ST",
        "placeName": "MARKHAM",
        "streetNameDisplayText": "ELSON ST, MARKHAM"
      }
    ]
  },
  {
    "postal": "L3S9X7",
    "result": []
  },
  {
    "postal": "L3S4T1",
    "result": [
      {
        "electoralDistricts": [
          {
            "election": null,
            "id": 57,
            "name": "Markham—Thornhill"
          }
        ],
        "pollDivisionIds": [
          10143189
        ],
        "postalCode": "L3S4T1",
        "streetName": "MARKHAM",
        "streetDirectionId": null,
        "streetTypeId": "RD",
        "placeName": "MARKHAM",
        "streetNameDisplayText": "MARKHAM RD, MARKHAM"
      }
    ]
  },
  {
    "postal": "L3S0M0",
    "result": []
  },
  {
    "postal": "L3S6A2",
    "result": []
  },
  {
    "postal": "L3S9S8",
    "result": []
  },
  {
    "postal": "L3S9T4",
    "result": []
  },
  {
    "postal": "L3S9Y4",
    "result": []
  },
  {
    "postal": "L3S6G5",
    "result": []
  },
  {
    "postal": "L3S6H9",
    "result": []
  },
  {
    "postal": "L3S2P3",
    "result": [
      {
        "electoralDistricts": [
          {
            "election": null,
            "id": 57,
            "name": "Markham—Thornhill"
          }
        ],
        "pollDivisionIds": [
          10143186
        ],
        "postalCode": "L3S2P3",
        "streetName": "ROSSETER",
        "streetDirectionId": null,
        "streetTypeId": "RD",
        "placeName": "MARKHAM",
        "streetNameDisplayText": "ROSSETER RD, MARKHAM"
      }
    ]
  },
  {
    "postal": "L3S1T6",
    "result": [
      {
        "electoralDistricts": [
          {
            "election": null,
            "id": 57,
            "name": "Markham—Thornhill"
          }
        ],
        "pollDivisionIds": [
          10143183
        ],
        "postalCode": "L3S1T6",
        "streetName": "HAINSWORTH",
        "streetDirectionId": null,
        "streetTypeId": "CRT",
        "placeName": "MARKHAM",
        "streetNameDisplayText": "HAINSWORTH CRT, MARKHAM"
      }
    ]
  },
  {
    "postal": "L3S4P6",
    "result": [
      {
        "electoralDistricts": [
          {
            "election": null,
            "id": 57,
            "name": "Markham—Thornhill"
          }
        ],
        "pollDivisionIds": [
          10143189
        ],
        "postalCode": "L3S4P6",
        "streetName": "HIGHGLEN",
        "streetDirectionId": null,
        "streetTypeId": "AVE",
        "placeName": "MARKHAM",
        "streetNameDisplayText": "HIGHGLEN AVE, MARKHAM"
      }
    ]
  },
  {
    "postal": "L3S3K1",
    "result": [
      {
        "electoralDistricts": [
          {
            "election": null,
            "id": 57,
            "name": "Markham—Thornhill"
          }
        ],
        "pollDivisionIds": [
          10143188
        ],
        "postalCode": "L3S3K1",
        "streetName": "MARKHAM",
        "streetDirectionId": null,
        "streetTypeId": "RD",
        "placeName": "MARKHAM",
        "streetNameDisplayText": "MARKHAM RD, MARKHAM"
      }
    ]
  },
  {
    "postal": "L3S6X4",
    "result": []
  },
  {
    "postal": "L3S4M8",
    "result": [
      {
        "electoralDistricts": [
          {
            "election": null,
            "id": 57,
            "name": "Markham—Thornhill"
          }
        ],
        "pollDivisionIds": [
          10143183
        ],
        "postalCode": "L3S4M8",
        "streetName": "CARTMEL",
        "streetDirectionId": null,
        "streetTypeId": "DR",
        "placeName": "MARKHAM",
        "streetNameDisplayText": "CARTMEL DR, MARKHAM"
      },
      {
        "electoralDistricts": [
          {
            "election": null,
            "id": 57,
            "name": "Markham—Thornhill"
          }
        ],
        "pollDivisionIds": [
          10143183
        ],
        "postalCode": "L3S4M8",
        "streetName": "MEDLEY",
        "streetDirectionId": null,
        "streetTypeId": "CRES",
        "placeName": "MARKHAM",
        "streetNameDisplayText": "MEDLEY CRES, MARKHAM"
      },
      {
        "electoralDistricts": [
          {
            "election": null,
            "id": 57,
            "name": "Markham—Thornhill"
          }
        ],
        "pollDivisionIds": [
          10143183
        ],
        "postalCode": "L3S4M8",
        "streetName": "WORTHING",
        "streetDirectionId": null,
        "streetTypeId": "AVE",
        "placeName": "MARKHAM",
        "streetNameDisplayText": "WORTHING AVE, MARKHAM"
      }
    ]
  },
  {
    "postal": "L3S2Y1",
    "result": [
      {
        "electoralDistricts": [
          {
            "election": null,
            "id": 57,
            "name": "Markham—Thornhill"
          }
        ],
        "pollDivisionIds": [
          10143180,
          10143181
        ],
        "postalCode": "L3S2Y1",
        "streetName": "TOWNLEY",
        "streetDirectionId": null,
        "streetTypeId": "AVE",
        "placeName": "MARKHAM",
        "streetNameDisplayText": "TOWNLEY AVE, MARKHAM"
      }
    ]
  },
  {
    "postal": "L3S6M1",
    "result": []
  },
  {
    "postal": "L3S5L8",
    "result": []
  },
  {
    "postal": "L3S3P6",
    "result": [
      {
        "electoralDistricts": [
          {
            "election": null,
            "id": 57,
            "name": "Markham—Thornhill"
          }
        ],
        "pollDivisionIds": [
          10143192
        ],
        "postalCode": "L3S3P6",
        "streetName": "BOXWOOD",
        "streetDirectionId": null,
        "streetTypeId": "CRES",
        "placeName": "MARKHAM",
        "streetNameDisplayText": "BOXWOOD CRES, MARKHAM"
      },
      {
        "electoralDistricts": [
          {
            "election": null,
            "id": 57,
            "name": "Markham—Thornhill"
          }
        ],
        "pollDivisionIds": [
          10143192
        ],
        "postalCode": "L3S3P6",
        "streetName": "HAVELOCK",
        "streetDirectionId": null,
        "streetTypeId": "GATE",
        "placeName": "MARKHAM",
        "streetNameDisplayText": "HAVELOCK GATE, MARKHAM"
      }
    ]
  },
  {
    "postal": "L3S9A5",
    "result": []
  },
  {
    "postal": "L3S7K1",
    "result": []
  },
  {
    "postal": "L3S3J4",
    "result": [
      {
        "electoralDistricts": [
          {
            "election": null,
            "id": 56,
            "name": "Markham—Stouffville"
          },
          {
            "election": null,
            "id": 57,
            "name": "Markham—Thornhill"
          }
        ],
        "pollDivisionIds": [
          10134354,
          10143180
        ],
        "postalCode": "L3S3J4",
        "streetName": "MCCOWAN",
        "streetDirectionId": null,
        "streetTypeId": "RD",
        "placeName": "MARKHAM",
        "streetNameDisplayText": "MCCOWAN RD, MARKHAM"
      }
    ]
  },
  {
    "postal": "L3S5E7",
    "result": []
  },
  {
    "postal": "L3S3A7",
    "result": [
      {
        "electoralDistricts": [
          {
            "election": null,
            "id": 57,
            "name": "Markham—Thornhill"
          }
        ],
        "pollDivisionIds": [
          10143190
        ],
        "postalCode": "L3S3A7",
        "streetName": "ERLA",
        "streetDirectionId": null,
        "streetTypeId": "CRT",
        "placeName": "MARKHAM",
        "streetNameDisplayText": "ERLA CRT, MARKHAM"
      }
    ]
  },
  {
    "postal": "L3S1B9",
    "result": []
  },
  {
    "postal": "L3S9E8",
    "result": []
  },
  {
    "postal": "L3S1C9",
    "result": [
      {
        "electoralDistricts": [
          {
            "election": null,
            "id": 57,
            "name": "Markham—Thornhill"
          }
        ],
        "pollDivisionIds": [
          10143181
        ],
        "postalCode": "L3S1C9",
        "streetName": "STATHER",
        "streetDirectionId": null,
        "streetTypeId": "CRES",
        "placeName": "MARKHAM",
        "streetNameDisplayText": "STATHER CRES, MARKHAM"
      },
      {
        "electoralDistricts": [
          {
            "election": null,
            "id": 57,
            "name": "Markham—Thornhill"
          }
        ],
        "pollDivisionIds": [
          10143181
        ],
        "postalCode": "L3S1C9",
        "streetName": "TOWNLEY",
        "streetDirectionId": null,
        "streetTypeId": "AVE",
        "placeName": "MARKHAM",
        "streetNameDisplayText": "TOWNLEY AVE, MARKHAM"
      }
    ]
  },
  {
    "postal": "L3S3B5",
    "result": [
      {
        "electoralDistricts": [
          {
            "election": null,
            "id": 57,
            "name": "Markham—Thornhill"
          }
        ],
        "pollDivisionIds": [
          10143190
        ],
        "postalCode": "L3S3B5",
        "streetName": "ELSON",
        "streetDirectionId": null,
        "streetTypeId": "ST",
        "placeName": "MARKHAM",
        "streetNameDisplayText": "ELSON ST, MARKHAM"
      }
    ]
  },
  {
    "postal": "L3S8R0",
    "result": []
  },
  {
    "postal": "L3S3P2",
    "result": [
      {
        "electoralDistricts": [
          {
            "election": null,
            "id": 57,
            "name": "Markham—Thornhill"
          }
        ],
        "pollDivisionIds": [
          10143182
        ],
        "postalCode": "L3S3P2",
        "streetName": "DEVONSHIRE",
        "streetDirectionId": null,
        "streetTypeId": "AVE",
        "placeName": "MARKHAM",
        "streetNameDisplayText": "DEVONSHIRE AVE, MARKHAM"
      },
      {
        "electoralDistricts": [
          {
            "election": null,
            "id": 57,
            "name": "Markham—Thornhill"
          }
        ],
        "pollDivisionIds": [
          10143182
        ],
        "postalCode": "L3S3P2",
        "streetName": "KENBOROUGH",
        "streetDirectionId": null,
        "streetTypeId": "CRT",
        "placeName": "MARKHAM",
        "streetNameDisplayText": "KENBOROUGH CRT, MARKHAM"
      }
    ]
  },
  {
    "postal": "L3S5V4",
    "result": []
  },
  {
    "postal": "L3S4H0",
    "result": []
  },
  {
    "postal": "L3S4S7",
    "result": [
      {
        "electoralDistricts": [
          {
            "election": null,
            "id": 57,
            "name": "Markham—Thornhill"
          }
        ],
        "pollDivisionIds": [
          10143189
        ],
        "postalCode": "L3S4S7",
        "streetName": "EASTVALE",
        "streetDirectionId": null,
        "streetTypeId": "DR",
        "placeName": "MARKHAM",
        "streetNameDisplayText": "EASTVALE DR, MARKHAM"
      },
      {
        "electoralDistricts": [
          {
            "election": null,
            "id": 57,
            "name": "Markham—Thornhill"
          }
        ],
        "pollDivisionIds": [
          10143189
        ],
        "postalCode": "L3S4S7",
        "streetName": "TARA",
        "streetDirectionId": null,
        "streetTypeId": "CRES",
        "placeName": "MARKHAM",
        "streetNameDisplayText": "TARA CRES, MARKHAM"
      }
    ]
  },
  {
    "postal": "L3S6C2",
    "result": []
  },
  {
    "postal": "L3S8W3",
    "result": []
  },
  {
    "postal": "L3S4M5",
    "result": [
      {
        "electoralDistricts": [
          {
            "election": null,
            "id": 57,
            "name": "Markham—Thornhill"
          }
        ],
        "pollDivisionIds": [
          10143180
        ],
        "postalCode": "L3S4M5",
        "streetName": "HEPBURN",
        "streetDirectionId": null,
        "streetTypeId": "ST",
        "placeName": "MARKHAM",
        "streetNameDisplayText": "HEPBURN ST, MARKHAM"
      }
    ]
  },
  {
    "postal": "L3S5T1",
    "result": []
  },
  {
    "postal": "L3S3B3",
    "result": [
      {
        "electoralDistricts": [
          {
            "election": null,
            "id": 57,
            "name": "Markham—Thornhill"
          }
        ],
        "pollDivisionIds": [
          10143190
        ],
        "postalCode": "L3S3B3",
        "streetName": "ERLA",
        "streetDirectionId": null,
        "streetTypeId": "CRT",
        "placeName": "MARKHAM",
        "streetNameDisplayText": "ERLA CRT, MARKHAM"
      }
    ]
  },
  {
    "postal": "L3S6C6",
    "result": []
  },
  {
    "postal": "L3S7N8",
    "result": []
  },
  {
    "postal": "L3S2Y3",
    "result": [
      {
        "electoralDistricts": [
          {
            "election": null,
            "id": 57,
            "name": "Markham—Thornhill"
          }
        ],
        "pollDivisionIds": [
          10143181
        ],
        "postalCode": "L3S2Y3",
        "streetName": "KYLA",
        "streetDirectionId": null,
        "streetTypeId": "CRES",
        "placeName": "MARKHAM",
        "streetNameDisplayText": "KYLA CRES, MARKHAM"
      }
    ]
  },
  {
    "postal": "L3S2R6",
    "result": [
      {
        "electoralDistricts": [
          {
            "election": null,
            "id": 57,
            "name": "Markham—Thornhill"
          }
        ],
        "pollDivisionIds": [
          10143185
        ],
        "postalCode": "L3S2R6",
        "streetName": "BAYLAWN",
        "streetDirectionId": null,
        "streetTypeId": "DR",
        "placeName": "MARKHAM",
        "streetNameDisplayText": "BAYLAWN DR, MARKHAM"
      },
      {
        "electoralDistricts": [
          {
            "election": null,
            "id": 57,
            "name": "Markham—Thornhill"
          }
        ],
        "pollDivisionIds": [
          10143185
        ],
        "postalCode": "L3S2R6",
        "streetName": "DEWBERRY",
        "streetDirectionId": null,
        "streetTypeId": "DR",
        "placeName": "MARKHAM",
        "streetNameDisplayText": "DEWBERRY DR, MARKHAM"
      }
    ]
  },
  {
    "postal": "L3S7N3",
    "result": []
  },
  {
    "postal": "L3S8J2",
    "result": []
  },
  {
    "postal": "L3S6A9",
    "result": []
  },
  {
    "postal": "L3S3V2",
    "result": [
      {
        "electoralDistricts": [
          {
            "election": null,
            "id": 57,
            "name": "Markham—Thornhill"
          }
        ],
        "pollDivisionIds": [
          10143192
        ],
        "postalCode": "L3S3V2",
        "streetName": "NORBURY",
        "streetDirectionId": null,
        "streetTypeId": "DR",
        "placeName": "MARKHAM",
        "streetNameDisplayText": "NORBURY DR, MARKHAM"
      },
      {
        "electoralDistricts": [
          {
            "election": null,
            "id": 57,
            "name": "Markham—Thornhill"
          }
        ],
        "pollDivisionIds": [
          10143192
        ],
        "postalCode": "L3S3V2",
        "streetName": "SONG BIRD",
        "streetDirectionId": null,
        "streetTypeId": "DR",
        "placeName": "MARKHAM",
        "streetNameDisplayText": "SONG BIRD DR, MARKHAM"
      }
    ]
  },
  {
    "postal": "L3S2N3",
    "result": [
      {
        "electoralDistricts": [
          {
            "election": null,
            "id": 57,
            "name": "Markham—Thornhill"
          }
        ],
        "pollDivisionIds": [
          10143186
        ],
        "postalCode": "L3S2N3",
        "streetName": "COPPARD",
        "streetDirectionId": null,
        "streetTypeId": "AVE",
        "placeName": "MARKHAM",
        "streetNameDisplayText": "COPPARD AVE, MARKHAM"
      }
    ]
  },
  {
    "postal": "L3S1S5",
    "result": [
      {
        "electoralDistricts": [
          {
            "election": null,
            "id": 57,
            "name": "Markham—Thornhill"
          }
        ],
        "pollDivisionIds": [
          10143183
        ],
        "postalCode": "L3S1S5",
        "streetName": "DAIRIS",
        "streetDirectionId": null,
        "streetTypeId": "CRES",
        "placeName": "MARKHAM",
        "streetNameDisplayText": "DAIRIS CRES, MARKHAM"
      }
    ]
  },
  {
    "postal": "L3S4T7",
    "result": []
  },
  {
    "postal": "L3S6Y7",
    "result": []
  },
  {
    "postal": "L3S0W7",
    "result": []
  },
  {
    "postal": "L3S2W9",
    "result": [
      {
        "electoralDistricts": [
          {
            "election": null,
            "id": 57,
            "name": "Markham—Thornhill"
          }
        ],
        "pollDivisionIds": [
          10143181
        ],
        "postalCode": "L3S2W9",
        "streetName": "STATHER",
        "streetDirectionId": null,
        "streetTypeId": "CRES",
        "placeName": "MARKHAM",
        "streetNameDisplayText": "STATHER CRES, MARKHAM"
      }
    ]
  },
  {
    "postal": "L3S8V0",
    "result": []
  },
  {
    "postal": "L3S0H4",
    "result": []
  },
  {
    "postal": "L3S2T1",
    "result": [
      {
        "electoralDistricts": [
          {
            "election": null,
            "id": 57,
            "name": "Markham—Thornhill"
          }
        ],
        "pollDivisionIds": [
          10143185
        ],
        "postalCode": "L3S2T1",
        "streetName": "WALFORD",
        "streetDirectionId": null,
        "streetTypeId": "RD",
        "placeName": "MARKHAM",
        "streetNameDisplayText": "WALFORD RD, MARKHAM"
      }
    ]
  },
  {
    "postal": "L3S1B1",
    "result": []
  },
  {
    "postal": "L3S8B6",
    "result": []
  },
  {
    "postal": "L3S6H1",
    "result": []
  },
  {
    "postal": "L3S8T8",
    "result": []
  },
  {
    "postal": "L3S0T4",
    "result": []
  },
  {
    "postal": "L3S2C4",
    "result": [
      {
        "electoralDistricts": [
          {
            "election": null,
            "id": 57,
            "name": "Markham—Thornhill"
          }
        ],
        "pollDivisionIds": [
          10143187
        ],
        "postalCode": "L3S2C4",
        "streetName": "ELSON",
        "streetDirectionId": null,
        "streetTypeId": "ST",
        "placeName": "MARKHAM",
        "streetNameDisplayText": "ELSON ST, MARKHAM"
      },
      {
        "electoralDistricts": [
          {
            "election": null,
            "id": 57,
            "name": "Markham—Thornhill"
          }
        ],
        "pollDivisionIds": [
          10143187
        ],
        "postalCode": "L3S2C4",
        "streetName": "MILES FARM",
        "streetDirectionId": null,
        "streetTypeId": "RD",
        "placeName": "MARKHAM",
        "streetNameDisplayText": "MILES FARM RD, MARKHAM"
      }
    ]
  },
  {
    "postal": "L3S8N3",
    "result": []
  },
  {
    "postal": "L3S4L8",
    "result": []
  },
  {
    "postal": "L3S2B5",
    "result": [
      {
        "electoralDistricts": [
          {
            "election": null,
            "id": 57,
            "name": "Markham—Thornhill"
          }
        ],
        "pollDivisionIds": [
          10143187
        ],
        "postalCode": "L3S2B5",
        "streetName": "CHARLES ALFRED",
        "streetDirectionId": null,
        "streetTypeId": "CRES",
        "placeName": "MARKHAM",
        "streetNameDisplayText": "CHARLES ALFRED CRES, MARKHAM"
      }
    ]
  },
  {
    "postal": "L3S3H1",
    "result": [
      {
        "electoralDistricts": [
          {
            "election": null,
            "id": 57,
            "name": "Markham—Thornhill"
          }
        ],
        "pollDivisionIds": [
          10143180
        ],
        "postalCode": "L3S3H1",
        "streetName": "CORNELL",
        "streetDirectionId": null,
        "streetTypeId": "CRES",
        "placeName": "MARKHAM",
        "streetNameDisplayText": "CORNELL CRES, MARKHAM"
      },
      {
        "electoralDistricts": [
          {
            "election": null,
            "id": 57,
            "name": "Markham—Thornhill"
          }
        ],
        "pollDivisionIds": [
          10143180
        ],
        "postalCode": "L3S3H1",
        "streetName": "HIGHGLEN",
        "streetDirectionId": null,
        "streetTypeId": "AVE",
        "placeName": "MARKHAM",
        "streetNameDisplayText": "HIGHGLEN AVE, MARKHAM"
      }
    ]
  },
  {
    "postal": "L3S4Y1",
    "result": []
  },
  {
    "postal": "L3S7E2",
    "result": []
  },
  {
    "postal": "L3S2P5",
    "result": [
      {
        "electoralDistricts": [
          {
            "election": null,
            "id": 57,
            "name": "Markham—Thornhill"
          }
        ],
        "pollDivisionIds": [
          10143186
        ],
        "postalCode": "L3S2P5",
        "streetName": "ROSSETER",
        "streetDirectionId": null,
        "streetTypeId": "RD",
        "placeName": "MARKHAM",
        "streetNameDisplayText": "ROSSETER RD, MARKHAM"
      },
      {
        "electoralDistricts": [
          {
            "election": null,
            "id": 57,
            "name": "Markham—Thornhill"
          }
        ],
        "pollDivisionIds": [
          10143186
        ],
        "postalCode": "L3S2P5",
        "streetName": "TERROSA",
        "streetDirectionId": null,
        "streetTypeId": "RD",
        "placeName": "MARKHAM",
        "streetNameDisplayText": "TERROSA RD, MARKHAM"
      }
    ]
  },
  {
    "postal": "L3S8R7",
    "result": []
  },
  {
    "postal": "L3S9P1",
    "result": []
  },
  {
    "postal": "L3S3B8",
    "result": [
      {
        "electoralDistricts": [
          {
            "election": null,
            "id": 57,
            "name": "Markham—Thornhill"
          }
        ],
        "pollDivisionIds": [
          10143190
        ],
        "postalCode": "L3S3B8",
        "streetName": "COXWORTH",
        "streetDirectionId": null,
        "streetTypeId": "AVE",
        "placeName": "MARKHAM",
        "streetNameDisplayText": "COXWORTH AVE, MARKHAM"
      },
      {
        "electoralDistricts": [
          {
            "election": null,
            "id": 57,
            "name": "Markham—Thornhill"
          }
        ],
        "pollDivisionIds": [
          10143190
        ],
        "postalCode": "L3S3B8",
        "streetName": "HERRICK",
        "streetDirectionId": null,
        "streetTypeId": "PL",
        "placeName": "MARKHAM",
        "streetNameDisplayText": "HERRICK PL, MARKHAM"
      }
    ]
  },
  {
    "postal": "L3S3P7",
    "result": [
      {
        "electoralDistricts": [
          {
            "election": null,
            "id": 57,
            "name": "Markham—Thornhill"
          }
        ],
        "pollDivisionIds": [
          10143192
        ],
        "postalCode": "L3S3P7",
        "streetName": "BLUEBELL",
        "streetDirectionId": null,
        "streetTypeId": "DR",
        "placeName": "MARKHAM",
        "streetNameDisplayText": "BLUEBELL DR, MARKHAM"
      },
      {
        "electoralDistricts": [
          {
            "election": null,
            "id": 57,
            "name": "Markham—Thornhill"
          }
        ],
        "pollDivisionIds": [
          10143192
        ],
        "postalCode": "L3S3P7",
        "streetName": "BOXWOOD",
        "streetDirectionId": null,
        "streetTypeId": "CRES",
        "placeName": "MARKHAM",
        "streetNameDisplayText": "BOXWOOD CRES, MARKHAM"
      }
    ]
  },
  {
    "postal": "L3S9B2",
    "result": []
  },
  {
    "postal": "L3S6Z3",
    "result": []
  },
  {
    "postal": "L3S4N5",
    "result": [
      {
        "electoralDistricts": [
          {
            "election": null,
            "id": 57,
            "name": "Markham—Thornhill"
          }
        ],
        "pollDivisionIds": [
          10143189
        ],
        "postalCode": "L3S4N5",
        "streetName": "HIGHGLEN",
        "streetDirectionId": null,
        "streetTypeId": "AVE",
        "placeName": "MARKHAM",
        "streetNameDisplayText": "HIGHGLEN AVE, MARKHAM"
      }
    ]
  },
  {
    "postal": "L3S8T3",
    "result": []
  },
  {
    "postal": "L3S1V2",
    "result": [
      {
        "electoralDistricts": [
          {
            "election": null,
            "id": 57,
            "name": "Markham—Thornhill"
          }
        ],
        "pollDivisionIds": [
          10143183
        ],
        "postalCode": "L3S1V2",
        "streetName": "CHASE",
        "streetDirectionId": null,
        "streetTypeId": "CRT",
        "placeName": "MARKHAM",
        "streetNameDisplayText": "CHASE CRT, MARKHAM"
      },
      {
        "electoralDistricts": [
          {
            "election": null,
            "id": 57,
            "name": "Markham—Thornhill"
          }
        ],
        "pollDivisionIds": [
          10143183
        ],
        "postalCode": "L3S1V2",
        "streetName": "DAIRIS",
        "streetDirectionId": null,
        "streetTypeId": "CRES",
        "placeName": "MARKHAM",
        "streetNameDisplayText": "DAIRIS CRES, MARKHAM"
      }
    ]
  },
  {
    "postal": "L3S1Y0",
    "result": []
  },
  {
    "postal": "L3S3G6",
    "result": [
      {
        "electoralDistricts": [
          {
            "election": null,
            "id": 57,
            "name": "Markham—Thornhill"
          }
        ],
        "pollDivisionIds": [
          10143185
        ],
        "postalCode": "L3S3G6",
        "streetName": "LAGUNA",
        "streetDirectionId": null,
        "streetTypeId": "CRES",
        "placeName": "MARKHAM",
        "streetNameDisplayText": "LAGUNA CRES, MARKHAM"
      }
    ]
  },
  {
    "postal": "L3S3H7",
    "result": [
      {
        "electoralDistricts": [
          {
            "election": null,
            "id": 57,
            "name": "Markham—Thornhill"
          }
        ],
        "pollDivisionIds": [
          10143180
        ],
        "postalCode": "L3S3H7",
        "streetName": "SPRINGFIELD",
        "streetDirectionId": null,
        "streetTypeId": "DR",
        "placeName": "MARKHAM",
        "streetNameDisplayText": "SPRINGFIELD DR, MARKHAM"
      }
    ]
  },
  {
    "postal": "L3S7X8",
    "result": []
  },
  {
    "postal": "L3S0C7",
    "result": [
      {
        "electoralDistricts": [
          {
            "election": null,
            "id": 57,
            "name": "Markham—Thornhill"
          }
        ],
        "pollDivisionIds": [
          10143192
        ],
        "postalCode": "L3S0C7",
        "streetName": "KARL WILLIAMS",
        "streetDirectionId": null,
        "streetTypeId": "LANE",
        "placeName": "MARKHAM",
        "streetNameDisplayText": "KARL WILLIAMS LANE, MARKHAM"
      }
    ]
  },
  {
    "postal": "L3S0W9",
    "result": []
  },
  {
    "postal": "L3S8E6",
    "result": []
  },
  {
    "postal": "L3S9Z8",
    "result": []
  },
  {
    "postal": "L3S3P4",
    "result": [
      {
        "electoralDistricts": [
          {
            "election": null,
            "id": 57,
            "name": "Markham—Thornhill"
          }
        ],
        "pollDivisionIds": [
          10143182
        ],
        "postalCode": "L3S3P4",
        "streetName": "KENBOROUGH",
        "streetDirectionId": null,
        "streetTypeId": "CRT",
        "placeName": "MARKHAM",
        "streetNameDisplayText": "KENBOROUGH CRT, MARKHAM"
      }
    ]
  },
  {
    "postal": "L3S6L8",
    "result": []
  },
  {
    "postal": "L3S2R4",
    "result": [
      {
        "electoralDistricts": [
          {
            "election": null,
            "id": 57,
            "name": "Markham—Thornhill"
          }
        ],
        "pollDivisionIds": [
          10143186
        ],
        "postalCode": "L3S2R4",
        "streetName": "LAVRON",
        "streetDirectionId": null,
        "streetTypeId": "CRT",
        "placeName": "MARKHAM",
        "streetNameDisplayText": "LAVRON CRT, MARKHAM"
      }
    ]
  },
  {
    "postal": "L3S2W1",
    "result": [
      {
        "electoralDistricts": [
          {
            "election": null,
            "id": 57,
            "name": "Markham—Thornhill"
          }
        ],
        "pollDivisionIds": [
          10143180
        ],
        "postalCode": "L3S2W1",
        "streetName": "GRANT'S",
        "streetDirectionId": null,
        "streetTypeId": "PL",
        "placeName": "MARKHAM",
        "streetNameDisplayText": "GRANT'S PL, MARKHAM"
      }
    ]
  },
  {
    "postal": "L3S9H8",
    "result": []
  },
  {
    "postal": "L3S8X9",
    "result": []
  },
  {
    "postal": "L3S7H4",
    "result": []
  },
  {
    "postal": "L3S3J1",
    "result": [
      {
        "electoralDistricts": [
          {
            "election": null,
            "id": 57,
            "name": "Markham—Thornhill"
          }
        ],
        "pollDivisionIds": [
          10143189
        ],
        "postalCode": "L3S3J1",
        "streetName": "CANFIELD",
        "streetDirectionId": null,
        "streetTypeId": "DR",
        "placeName": "MARKHAM",
        "streetNameDisplayText": "CANFIELD DR, MARKHAM"
      },
      {
        "electoralDistricts": [
          {
            "election": null,
            "id": 57,
            "name": "Markham—Thornhill"
          }
        ],
        "pollDivisionIds": [
          10143189
        ],
        "postalCode": "L3S3J1",
        "streetName": "TRAVAIL",
        "streetDirectionId": null,
        "streetTypeId": "RD",
        "placeName": "MARKHAM",
        "streetNameDisplayText": "TRAVAIL RD, MARKHAM"
      }
    ]
  },
  {
    "postal": "L3S1P4",
    "result": [
      {
        "electoralDistricts": [
          {
            "election": null,
            "id": 57,
            "name": "Markham—Thornhill"
          }
        ],
        "pollDivisionIds": [
          10143183
        ],
        "postalCode": "L3S1P4",
        "streetName": "WOODHALL",
        "streetDirectionId": null,
        "streetTypeId": "RD",
        "placeName": "MARKHAM",
        "streetNameDisplayText": "WOODHALL RD, MARKHAM"
      }
    ]
  },
  {
    "postal": "L3S2A3",
    "result": [
      {
        "electoralDistricts": [
          {
            "election": null,
            "id": 57,
            "name": "Markham—Thornhill"
          }
        ],
        "pollDivisionIds": [
          10143187
        ],
        "postalCode": "L3S2A3",
        "streetName": "NORN",
        "streetDirectionId": null,
        "streetTypeId": "CRES",
        "placeName": "MARKHAM",
        "streetNameDisplayText": "NORN CRES, MARKHAM"
      }
    ]
  },
  {
    "postal": "L3S0Z1",
    "result": []
  },
  {
    "postal": "L3S1C1",
    "result": [
      {
        "electoralDistricts": [
          {
            "election": null,
            "id": 57,
            "name": "Markham—Thornhill"
          }
        ],
        "pollDivisionIds": [
          10143181
        ],
        "postalCode": "L3S1C1",
        "streetName": "RANDALL",
        "streetDirectionId": null,
        "streetTypeId": "AVE",
        "placeName": "MARKHAM",
        "streetNameDisplayText": "RANDALL AVE, MARKHAM"
      },
      {
        "electoralDistricts": [
          {
            "election": null,
            "id": 57,
            "name": "Markham—Thornhill"
          }
        ],
        "pollDivisionIds": [
          10143181
        ],
        "postalCode": "L3S1C1",
        "streetName": "STATHER",
        "streetDirectionId": null,
        "streetTypeId": "CRES",
        "placeName": "MARKHAM",
        "streetNameDisplayText": "STATHER CRES, MARKHAM"
      }
    ]
  },
  {
    "postal": "L3S0H3",
    "result": []
  },
  {
    "postal": "L3S7B0",
    "result": []
  },
  {
    "postal": "L3S5K2",
    "result": []
  },
  {
    "postal": "L3S1E9",
    "result": [
      {
        "electoralDistricts": [
          {
            "election": null,
            "id": 57,
            "name": "Markham—Thornhill"
          }
        ],
        "pollDivisionIds": [
          10143181
        ],
        "postalCode": "L3S1E9",
        "streetName": "DENISON",
        "streetDirectionId": null,
        "streetTypeId": "ST",
        "placeName": "MARKHAM",
        "streetNameDisplayText": "DENISON ST, MARKHAM"
      },
      {
        "electoralDistricts": [
          {
            "election": null,
            "id": 57,
            "name": "Markham—Thornhill"
          }
        ],
        "pollDivisionIds": [
          10143181
        ],
        "postalCode": "L3S1E9",
        "streetName": "HILLCROFT",
        "streetDirectionId": null,
        "streetTypeId": "DR",
        "placeName": "MARKHAM",
        "streetNameDisplayText": "HILLCROFT DR, MARKHAM"
      }
    ]
  },
  {
    "postal": "L3S9W7",
    "result": []
  },
  {
    "postal": "L3S5W6",
    "result": []
  },
  {
    "postal": "L3S6S6",
    "result": []
  },
  {
    "postal": "L3S2P8",
    "result": [
      {
        "electoralDistricts": [
          {
            "election": null,
            "id": 57,
            "name": "Markham—Thornhill"
          }
        ],
        "pollDivisionIds": [
          10143186
        ],
        "postalCode": "L3S2P8",
        "streetName": "TERROSA",
        "streetDirectionId": null,
        "streetTypeId": "RD",
        "placeName": "MARKHAM",
        "streetNameDisplayText": "TERROSA RD, MARKHAM"
      }
    ]
  },
  {
    "postal": "L3S4P8",
    "result": [
      {
        "electoralDistricts": [
          {
            "election": null,
            "id": 57,
            "name": "Markham—Thornhill"
          }
        ],
        "pollDivisionIds": [
          10143183
        ],
        "postalCode": "L3S4P8",
        "streetName": "CARTMEL",
        "streetDirectionId": null,
        "streetTypeId": "DR",
        "placeName": "MARKHAM",
        "streetNameDisplayText": "CARTMEL DR, MARKHAM"
      },
      {
        "electoralDistricts": [
          {
            "election": null,
            "id": 57,
            "name": "Markham—Thornhill"
          }
        ],
        "pollDivisionIds": [
          10143183
        ],
        "postalCode": "L3S4P8",
        "streetName": "CASHMERE",
        "streetDirectionId": null,
        "streetTypeId": "CRES",
        "placeName": "MARKHAM",
        "streetNameDisplayText": "CASHMERE CRES, MARKHAM"
      }
    ]
  },
  {
    "postal": "L3S0V9",
    "result": []
  },
  {
    "postal": "L3S5Y2",
    "result": []
  },
  {
    "postal": "L3S7Z7",
    "result": []
  },
  {
    "postal": "L3S6Y8",
    "result": []
  },
  {
    "postal": "L3S2G7",
    "result": [
      {
        "electoralDistricts": [
          {
            "election": null,
            "id": 57,
            "name": "Markham—Thornhill"
          }
        ],
        "pollDivisionIds": [
          10143187
        ],
        "postalCode": "L3S2G7",
        "streetName": "CIMMARON",
        "streetDirectionId": null,
        "streetTypeId": "ST",
        "placeName": "MARKHAM",
        "streetNameDisplayText": "CIMMARON ST, MARKHAM"
      }
    ]
  },
  {
    "postal": "L3S8C1",
    "result": []
  },
  {
    "postal": "L3S5C5",
    "result": []
  },
  {
    "postal": "L3S2X8",
    "result": [
      {
        "electoralDistricts": [
          {
            "election": null,
            "id": 57,
            "name": "Markham—Thornhill"
          }
        ],
        "pollDivisionIds": [
          10143181
        ],
        "postalCode": "L3S2X8",
        "streetName": "KYLA",
        "streetDirectionId": null,
        "streetTypeId": "CRES",
        "placeName": "MARKHAM",
        "streetNameDisplayText": "KYLA CRES, MARKHAM"
      }
    ]
  },
  {
    "postal": "L3S1W5",
    "result": [
      {
        "electoralDistricts": [
          {
            "election": null,
            "id": 57,
            "name": "Markham—Thornhill"
          }
        ],
        "pollDivisionIds": [
          10143181
        ],
        "postalCode": "L3S1W5",
        "streetName": "PAGE",
        "streetDirectionId": null,
        "streetTypeId": "CRES",
        "placeName": "MARKHAM",
        "streetNameDisplayText": "PAGE CRES, MARKHAM"
      }
    ]
  },
  {
    "postal": "L3S7G0",
    "result": []
  },
  {
    "postal": "L3S8J8",
    "result": []
  },
  {
    "postal": "L3S3Y0",
    "result": []
  },
  {
    "postal": "L3S9T7",
    "result": []
  },
  {
    "postal": "L3S5P4",
    "result": []
  },
  {
    "postal": "L3S4B0",
    "result": []
  },
  {
    "postal": "L3S9N8",
    "result": []
  },
  {
    "postal": "L3S4A7",
    "result": [
      {
        "electoralDistricts": [
          {
            "election": null,
            "id": 56,
            "name": "Markham—Stouffville"
          }
        ],
        "pollDivisionIds": [
          10134358
        ],
        "postalCode": "L3S4A7",
        "streetName": "BLACK WALNUT",
        "streetDirectionId": null,
        "streetTypeId": "DR",
        "placeName": "MARKHAM",
        "streetNameDisplayText": "BLACK WALNUT DR, MARKHAM"
      },
      {
        "electoralDistricts": [
          {
            "election": null,
            "id": 56,
            "name": "Markham—Stouffville"
          }
        ],
        "pollDivisionIds": [
          10134358
        ],
        "postalCode": "L3S4A7",
        "streetName": "WHITE CEDAR",
        "streetDirectionId": null,
        "streetTypeId": "DR",
        "placeName": "MARKHAM",
        "streetNameDisplayText": "WHITE CEDAR DR, MARKHAM"
      }
    ]
  },
  {
    "postal": "L3S4H9",
    "result": [
      {
        "electoralDistricts": [
          {
            "election": null,
            "id": 57,
            "name": "Markham—Thornhill"
          }
        ],
        "pollDivisionIds": [
          10143184
        ],
        "postalCode": "L3S4H9",
        "streetName": "CLIFTON",
        "streetDirectionId": null,
        "streetTypeId": "CRT",
        "placeName": "MARKHAM",
        "streetNameDisplayText": "CLIFTON CRT, MARKHAM"
      },
      {
        "electoralDistricts": [
          {
            "election": null,
            "id": 57,
            "name": "Markham—Thornhill"
          }
        ],
        "pollDivisionIds": [
          10143184,
          10126708
        ],
        "postalCode": "L3S4H9",
        "streetName": "NESSIE",
        "streetDirectionId": null,
        "streetTypeId": "ST",
        "placeName": "MARKHAM",
        "streetNameDisplayText": "NESSIE ST, MARKHAM"
      }
    ]
  },
  {
    "postal": "L3S6X1",
    "result": []
  },
  {
    "postal": "L3S9Y7",
    "result": []
  },
  {
    "postal": "L3S2Y5",
    "result": [
      {
        "electoralDistricts": [
          {
            "election": null,
            "id": 57,
            "name": "Markham—Thornhill"
          }
        ],
        "pollDivisionIds": [
          10143190
        ],
        "postalCode": "L3S2Y5",
        "streetName": "MARY PEARSON",
        "streetDirectionId": null,
        "streetTypeId": "DR",
        "placeName": "MARKHAM",
        "streetNameDisplayText": "MARY PEARSON DR, MARKHAM"
      }
    ]
  },
  {
    "postal": "L3S8L7",
    "result": []
  },
  {
    "postal": "L3S2A8",
    "result": [
      {
        "electoralDistricts": [
          {
            "election": null,
            "id": 57,
            "name": "Markham—Thornhill"
          }
        ],
        "pollDivisionIds": [
          10143187
        ],
        "postalCode": "L3S2A8",
        "streetName": "NORN",
        "streetDirectionId": null,
        "streetTypeId": "CRES",
        "placeName": "MARKHAM",
        "streetNameDisplayText": "NORN CRES, MARKHAM"
      }
    ]
  },
  {
    "postal": "L3S2K9",
    "result": [
      {
        "electoralDistricts": [
          {
            "election": null,
            "id": 57,
            "name": "Markham—Thornhill"
          }
        ],
        "pollDivisionIds": [
          10143186
        ],
        "postalCode": "L3S2K9",
        "streetName": "GOODWOOD",
        "streetDirectionId": null,
        "streetTypeId": "DR",
        "placeName": "MARKHAM",
        "streetNameDisplayText": "GOODWOOD DR, MARKHAM"
      }
    ]
  },
  {
    "postal": "L3S3E5",
    "result": [
      {
        "electoralDistricts": [
          {
            "election": null,
            "id": 57,
            "name": "Markham—Thornhill"
          }
        ],
        "pollDivisionIds": [
          10143190
        ],
        "postalCode": "L3S3E5",
        "streetName": "DOROTHY BRITTON D",
        "streetDirectionId": null,
        "streetTypeId": "DR",
        "placeName": "MARKHAM",
        "streetNameDisplayText": "DOROTHY BRITTON D DR, MARKHAM"
      },
      {
        "electoralDistricts": [
          {
            "election": null,
            "id": 57,
            "name": "Markham—Thornhill"
          }
        ],
        "pollDivisionIds": [
          10143190
        ],
        "postalCode": "L3S3E5",
        "streetName": "DOROTHY BRITTON",
        "streetDirectionId": null,
        "streetTypeId": "DR",
        "placeName": "MARKHAM",
        "streetNameDisplayText": "DOROTHY BRITTON DR, MARKHAM"
      },
      {
        "electoralDistricts": [
          {
            "election": null,
            "id": 57,
            "name": "Markham—Thornhill"
          }
        ],
        "pollDivisionIds": [
          10143190
        ],
        "postalCode": "L3S3E5",
        "streetName": "ELSON",
        "streetDirectionId": null,
        "streetTypeId": "ST",
        "placeName": "MARKHAM",
        "streetNameDisplayText": "ELSON ST, MARKHAM"
      },
      {
        "electoralDistricts": [
          {
            "election": null,
            "id": 57,
            "name": "Markham—Thornhill"
          }
        ],
        "pollDivisionIds": [
          10143190
        ],
        "postalCode": "L3S3E5",
        "streetName": "TRACEY LYNNE",
        "streetDirectionId": null,
        "streetTypeId": "CRT",
        "placeName": "MARKHAM",
        "streetNameDisplayText": "TRACEY LYNNE CRT, MARKHAM"
      }
    ]
  },
  {
    "postal": "L3S8N6",
    "result": []
  },
  {
    "postal": "L3S8J4",
    "result": []
  },
  {
    "postal": "L3S4R7",
    "result": [
      {
        "electoralDistricts": [
          {
            "election": null,
            "id": 57,
            "name": "Markham—Thornhill"
          }
        ],
        "pollDivisionIds": [
          10143180
        ],
        "postalCode": "L3S4R7",
        "streetName": "REDKEY",
        "streetDirectionId": null,
        "streetTypeId": "DR",
        "placeName": "MARKHAM",
        "streetNameDisplayText": "REDKEY DR, MARKHAM"
      }
    ]
  },
  {
    "postal": "L3S9K1",
    "result": []
  },
  {
    "postal": "L3S8E1",
    "result": []
  },
  {
    "postal": "L3S0R1",
    "result": []
  },
  {
    "postal": "L3S4J3",
    "result": [
      {
        "electoralDistricts": [
          {
            "election": null,
            "id": 57,
            "name": "Markham—Thornhill"
          }
        ],
        "pollDivisionIds": [
          10143184
        ],
        "postalCode": "L3S4J3",
        "streetName": "FEATHERSTONE",
        "streetDirectionId": null,
        "streetTypeId": "AVE",
        "placeName": "MARKHAM",
        "streetNameDisplayText": "FEATHERSTONE AVE, MARKHAM"
      },
      {
        "electoralDistricts": [
          {
            "election": null,
            "id": 57,
            "name": "Markham—Thornhill"
          }
        ],
        "pollDivisionIds": [
          10143184
        ],
        "postalCode": "L3S4J3",
        "streetName": "HIGHGLEN",
        "streetDirectionId": null,
        "streetTypeId": "AVE",
        "placeName": "MARKHAM",
        "streetNameDisplayText": "HIGHGLEN AVE, MARKHAM"
      }
    ]
  },
  {
    "postal": "L3S7E7",
    "result": []
  },
  {
    "postal": "L3S0J0",
    "result": []
  },
  {
    "postal": "L3S7R8",
    "result": []
  },
  {
    "postal": "L3S9X0",
    "result": []
  },
  {
    "postal": "L3S7P6",
    "result": []
  },
  {
    "postal": "L3S0R7",
    "result": []
  },
  {
    "postal": "L3S5W1",
    "result": []
  },
  {
    "postal": "L3S0K4",
    "result": []
  },
  {
    "postal": "L3S7N9",
    "result": []
  },
  {
    "postal": "L3S1N0",
    "result": []
  },
  {
    "postal": "L3S6P3",
    "result": []
  },
  {
    "postal": "L3S5A1",
    "result": []
  },
  {
    "postal": "L3S9M9",
    "result": []
  },
  {
    "postal": "L3S7T6",
    "result": []
  },
  {
    "postal": "L3S3X0",
    "result": []
  },
  {
    "postal": "L3S2T0",
    "result": []
  },
  {
    "postal": "L3S5X9",
    "result": []
  },
  {
    "postal": "L3S2R3",
    "result": [
      {
        "electoralDistricts": [
          {
            "election": null,
            "id": 57,
            "name": "Markham—Thornhill"
          }
        ],
        "pollDivisionIds": [
          10143186
        ],
        "postalCode": "L3S2R3",
        "streetName": "COPPARD",
        "streetDirectionId": null,
        "streetTypeId": "AVE",
        "placeName": "MARKHAM",
        "streetNameDisplayText": "COPPARD AVE, MARKHAM"
      },
      {
        "electoralDistricts": [
          {
            "election": null,
            "id": 57,
            "name": "Markham—Thornhill"
          }
        ],
        "pollDivisionIds": [
          10143186
        ],
        "postalCode": "L3S2R3",
        "streetName": "LAVRON",
        "streetDirectionId": null,
        "streetTypeId": "CRT",
        "placeName": "MARKHAM",
        "streetNameDisplayText": "LAVRON CRT, MARKHAM"
      }
    ]
  },
  {
    "postal": "L3S5N2",
    "result": []
  },
  {
    "postal": "L3S4Y7",
    "result": []
  },
  {
    "postal": "L3S7M0",
    "result": []
  },
  {
    "postal": "L3S8P3",
    "result": []
  },
  {
    "postal": "L3S3N3",
    "result": [
      {
        "electoralDistricts": [
          {
            "election": null,
            "id": 57,
            "name": "Markham—Thornhill"
          }
        ],
        "pollDivisionIds": [
          10143190
        ],
        "postalCode": "L3S3N3",
        "streetName": "MARYDALE",
        "streetDirectionId": null,
        "streetTypeId": "AVE",
        "placeName": "MARKHAM",
        "streetNameDisplayText": "MARYDALE AVE, MARKHAM"
      }
    ]
  },
  {
    "postal": "L3S7S3",
    "result": []
  },
  {
    "postal": "L3S3V9",
    "result": [
      {
        "electoralDistricts": [
          {
            "election": null,
            "id": 57,
            "name": "Markham—Thornhill"
          }
        ],
        "pollDivisionIds": [
          10143188
        ],
        "postalCode": "L3S3V9",
        "streetName": "DOUBTFIRE",
        "streetDirectionId": null,
        "streetTypeId": "CRES",
        "placeName": "MARKHAM",
        "streetNameDisplayText": "DOUBTFIRE CRES, MARKHAM"
      },
      {
        "electoralDistricts": [
          {
            "election": null,
            "id": 57,
            "name": "Markham—Thornhill"
          }
        ],
        "pollDivisionIds": [
          10143188
        ],
        "postalCode": "L3S3V9",
        "streetName": "GOLDEN",
        "streetDirectionId": null,
        "streetTypeId": "AVE",
        "placeName": "MARKHAM",
        "streetNameDisplayText": "GOLDEN AVE, MARKHAM"
      }
    ]
  },
  {
    "postal": "L3S9N7",
    "result": []
  },
  {
    "postal": "L3S0G4",
    "result": []
  },
  {
    "postal": "L3S2E2",
    "result": [
      {
        "electoralDistricts": [
          {
            "election": null,
            "id": 57,
            "name": "Markham—Thornhill"
          }
        ],
        "pollDivisionIds": [
          10143187
        ],
        "postalCode": "L3S2E2",
        "streetName": "DOUGLAS HAIG",
        "streetDirectionId": null,
        "streetTypeId": "DR",
        "placeName": "MARKHAM",
        "streetNameDisplayText": "DOUGLAS HAIG DR, MARKHAM"
      }
    ]
  },
  {
    "postal": "L3S7W8",
    "result": []
  },
  {
    "postal": "L3S7M5",
    "result": []
  },
  {
    "postal": "L3S5W8",
    "result": []
  },
  {
    "postal": "L3S5E5",
    "result": []
  },
  {
    "postal": "L3S1P9",
    "result": [
      {
        "electoralDistricts": [
          {
            "election": null,
            "id": 57,
            "name": "Markham—Thornhill"
          }
        ],
        "pollDivisionIds": [
          10143183
        ],
        "postalCode": "L3S1P9",
        "streetName": "HILLCROFT",
        "streetDirectionId": null,
        "streetTypeId": "DR",
        "placeName": "MARKHAM",
        "streetNameDisplayText": "HILLCROFT DR, MARKHAM"
      }
    ]
  },
  {
    "postal": "L3S8V8",
    "result": []
  },
  {
    "postal": "L3S9G8",
    "result": []
  },
  {
    "postal": "L3S8H9",
    "result": []
  },
  {
    "postal": "L3S1Z1",
    "result": [
      {
        "electoralDistricts": [
          {
            "election": null,
            "id": 57,
            "name": "Markham—Thornhill"
          }
        ],
        "pollDivisionIds": [
          10143187
        ],
        "postalCode": "L3S1Z1",
        "streetName": "DOUGLAS HAIG",
        "streetDirectionId": null,
        "streetTypeId": "DR",
        "placeName": "MARKHAM",
        "streetNameDisplayText": "DOUGLAS HAIG DR, MARKHAM"
      }
    ]
  },
  {
    "postal": "L3S8M3",
    "result": []
  },
  {
    "postal": "L3S5H6",
    "result": []
  },
  {
    "postal": "L3S7W7",
    "result": []
  },
  {
    "postal": "L3S4L0",
    "result": []
  },
  {
    "postal": "L3S2N1",
    "result": [
      {
        "electoralDistricts": [
          {
            "election": null,
            "id": 57,
            "name": "Markham—Thornhill"
          }
        ],
        "pollDivisionIds": [
          10143186
        ],
        "postalCode": "L3S2N1",
        "streetName": "ROSSETER",
        "streetDirectionId": null,
        "streetTypeId": "RD",
        "placeName": "MARKHAM",
        "streetNameDisplayText": "ROSSETER RD, MARKHAM"
      },
      {
        "electoralDistricts": [
          {
            "election": null,
            "id": 57,
            "name": "Markham—Thornhill"
          }
        ],
        "pollDivisionIds": [
          10143186
        ],
        "postalCode": "L3S2N1",
        "streetName": "TERROSA",
        "streetDirectionId": null,
        "streetTypeId": "RD",
        "placeName": "MARKHAM",
        "streetNameDisplayText": "TERROSA RD, MARKHAM"
      }
    ]
  },
  {
    "postal": "L3S2H4",
    "result": [
      {
        "electoralDistricts": [
          {
            "election": null,
            "id": 57,
            "name": "Markham—Thornhill"
          }
        ],
        "pollDivisionIds": [
          10143186
        ],
        "postalCode": "L3S2H4",
        "streetName": "CHLOE",
        "streetDirectionId": null,
        "streetTypeId": "CRES",
        "placeName": "MARKHAM",
        "streetNameDisplayText": "CHLOE CRES, MARKHAM"
      },
      {
        "electoralDistricts": [
          {
            "election": null,
            "id": 57,
            "name": "Markham—Thornhill"
          }
        ],
        "pollDivisionIds": [
          10143186
        ],
        "postalCode": "L3S2H4",
        "streetName": "FEATHERSTONE",
        "streetDirectionId": null,
        "streetTypeId": "AVE",
        "placeName": "MARKHAM",
        "streetNameDisplayText": "FEATHERSTONE AVE, MARKHAM"
      }
    ]
  },
  {
    "postal": "L3S5C8",
    "result": []
  },
  {
    "postal": "L3S8B0",
    "result": []
  },
  {
    "postal": "L3S1T4",
    "result": [
      {
        "electoralDistricts": [
          {
            "election": null,
            "id": 57,
            "name": "Markham—Thornhill"
          }
        ],
        "pollDivisionIds": [
          10143183
        ],
        "postalCode": "L3S1T4",
        "streetName": "DAIRIS",
        "streetDirectionId": null,
        "streetTypeId": "CRES",
        "placeName": "MARKHAM",
        "streetNameDisplayText": "DAIRIS CRES, MARKHAM"
      }
    ]
  },
  {
    "postal": "L3S7N7",
    "result": []
  },
  {
    "postal": "L3S4L3",
    "result": [
      {
        "electoralDistricts": [
          {
            "election": null,
            "id": 56,
            "name": "Markham—Stouffville"
          }
        ],
        "pollDivisionIds": [
          10134358
        ],
        "postalCode": "L3S4L3",
        "streetName": "ROUGE BANK",
        "streetDirectionId": null,
        "streetTypeId": "DR",
        "placeName": "MARKHAM",
        "streetNameDisplayText": "ROUGE BANK DR, MARKHAM"
      },
      {
        "electoralDistricts": [
          {
            "election": null,
            "id": 56,
            "name": "Markham—Stouffville"
          }
        ],
        "pollDivisionIds": [
          10134358
        ],
        "postalCode": "L3S4L3",
        "streetName": "RUSSELL JARVIS",
        "streetDirectionId": null,
        "streetTypeId": "DR",
        "placeName": "MARKHAM",
        "streetNameDisplayText": "RUSSELL JARVIS DR, MARKHAM"
      }
    ]
  },
  {
    "postal": "L3S2N2",
    "result": [
      {
        "electoralDistricts": [
          {
            "election": null,
            "id": 57,
            "name": "Markham—Thornhill"
          }
        ],
        "pollDivisionIds": [
          10143186
        ],
        "postalCode": "L3S2N2",
        "streetName": "TERROSA",
        "streetDirectionId": null,
        "streetTypeId": "RD",
        "placeName": "MARKHAM",
        "streetNameDisplayText": "TERROSA RD, MARKHAM"
      }
    ]
  },
  {
    "postal": "L3S4N8",
    "result": [
      {
        "electoralDistricts": [
          {
            "election": null,
            "id": 57,
            "name": "Markham—Thornhill"
          }
        ],
        "pollDivisionIds": [
          10143189
        ],
        "postalCode": "L3S4N8",
        "streetName": "EASTVALE",
        "streetDirectionId": null,
        "streetTypeId": "DR",
        "placeName": "MARKHAM",
        "streetNameDisplayText": "EASTVALE DR, MARKHAM"
      },
      {
        "electoralDistricts": [
          {
            "election": null,
            "id": 57,
            "name": "Markham—Thornhill"
          }
        ],
        "pollDivisionIds": [
          10143189
        ],
        "postalCode": "L3S4N8",
        "streetName": "FERNCLIFFE",
        "streetDirectionId": null,
        "streetTypeId": "CRES",
        "placeName": "MARKHAM",
        "streetNameDisplayText": "FERNCLIFFE CRES, MARKHAM"
      }
    ]
  },
  {
    "postal": "L3S3M5",
    "result": [
      {
        "electoralDistricts": [
          {
            "election": null,
            "id": 57,
            "name": "Markham—Thornhill"
          }
        ],
        "pollDivisionIds": [
          10143185
        ],
        "postalCode": "L3S3M5",
        "streetName": "CLARION",
        "streetDirectionId": null,
        "streetTypeId": "CRES",
        "placeName": "MARKHAM",
        "streetNameDisplayText": "CLARION CRES, MARKHAM"
      }
    ]
  },
  {
    "postal": "L3S6H7",
    "result": []
  },
  {
    "postal": "L3S8Y8",
    "result": []
  },
  {
    "postal": "L3S5R9",
    "result": []
  },
  {
    "postal": "L3S8G3",
    "result": []
  },
  {
    "postal": "L3S4N7",
    "result": [
      {
        "electoralDistricts": [
          {
            "election": null,
            "id": 57,
            "name": "Markham—Thornhill"
          }
        ],
        "pollDivisionIds": [
          10143189
        ],
        "postalCode": "L3S4N7",
        "streetName": "EASTVALE",
        "streetDirectionId": null,
        "streetTypeId": "DR",
        "placeName": "MARKHAM",
        "streetNameDisplayText": "EASTVALE DR, MARKHAM"
      },
      {
        "electoralDistricts": [
          {
            "election": null,
            "id": 57,
            "name": "Markham—Thornhill"
          }
        ],
        "pollDivisionIds": [
          10143189
        ],
        "postalCode": "L3S4N7",
        "streetName": "FERNCLIFFE",
        "streetDirectionId": null,
        "streetTypeId": "CRES",
        "placeName": "MARKHAM",
        "streetNameDisplayText": "FERNCLIFFE CRES, MARKHAM"
      }
    ]
  },
  {
    "postal": "L3S0B9",
    "result": [
      {
        "electoralDistricts": [
          {
            "election": null,
            "id": 57,
            "name": "Markham—Thornhill"
          }
        ],
        "pollDivisionIds": [
          10143188
        ],
        "postalCode": "L3S0B9",
        "streetName": "KINCAID",
        "streetDirectionId": null,
        "streetTypeId": "LANE",
        "placeName": "MARKHAM",
        "streetNameDisplayText": "KINCAID LANE, MARKHAM"
      }
    ]
  },
  {
    "postal": "L3S9K7",
    "result": []
  },
  {
    "postal": "L3S9K9",
    "result": []
  },
  {
    "postal": "L3S3Z2",
    "result": [
      {
        "electoralDistricts": [
          {
            "election": null,
            "id": 57,
            "name": "Markham—Thornhill"
          }
        ],
        "pollDivisionIds": [
          10143184
        ],
        "postalCode": "L3S3Z2",
        "streetName": "MACKLIN",
        "streetDirectionId": null,
        "streetTypeId": "ST",
        "placeName": "MARKHAM",
        "streetNameDisplayText": "MACKLIN ST, MARKHAM"
      },
      {
        "electoralDistricts": [
          {
            "election": null,
            "id": 57,
            "name": "Markham—Thornhill"
          }
        ],
        "pollDivisionIds": [
          10143184
        ],
        "postalCode": "L3S3Z2",
        "streetName": "WALDEN",
        "streetDirectionId": null,
        "streetTypeId": "ST",
        "placeName": "MARKHAM",
        "streetNameDisplayText": "WALDEN ST, MARKHAM"
      }
    ]
  },
  {
    "postal": "L3S6W7",
    "result": []
  },
  {
    "postal": "L3S0P1",
    "result": []
  },
  {
    "postal": "L3S3A0",
    "result": []
  },
  {
    "postal": "L3S8L9",
    "result": []
  },
  {
    "postal": "L3S6X0",
    "result": []
  },
  {
    "postal": "L3S3E9",
    "result": [
      {
        "electoralDistricts": [
          {
            "election": null,
            "id": 57,
            "name": "Markham—Thornhill"
          }
        ],
        "pollDivisionIds": [
          10143190
        ],
        "postalCode": "L3S3E9",
        "streetName": "MARY PEARSON",
        "streetDirectionId": null,
        "streetTypeId": "DR",
        "placeName": "MARKHAM",
        "streetNameDisplayText": "MARY PEARSON DR, MARKHAM"
      }
    ]
  },
  {
    "postal": "L3S0S5",
    "result": []
  },
  {
    "postal": "L3S1A2",
    "result": []
  },
  {
    "postal": "L3S5V8",
    "result": []
  },
  {
    "postal": "L3S8C5",
    "result": []
  },
  {
    "postal": "L3S6N0",
    "result": []
  },
  {
    "postal": "L3S9E6",
    "result": []
  },
  {
    "postal": "L3S5J7",
    "result": []
  },
  {
    "postal": "L3S2R2",
    "result": [
      {
        "electoralDistricts": [
          {
            "election": null,
            "id": 57,
            "name": "Markham—Thornhill"
          }
        ],
        "pollDivisionIds": [
          10143186
        ],
        "postalCode": "L3S2R2",
        "streetName": "COPPARD",
        "streetDirectionId": null,
        "streetTypeId": "AVE",
        "placeName": "MARKHAM",
        "streetNameDisplayText": "COPPARD AVE, MARKHAM"
      }
    ]
  },
  {
    "postal": "L3S0P5",
    "result": []
  },
  {
    "postal": "L3S5A7",
    "result": []
  },
  {
    "postal": "L3S1G1",
    "result": [
      {
        "electoralDistricts": [
          {
            "election": null,
            "id": 57,
            "name": "Markham—Thornhill"
          }
        ],
        "pollDivisionIds": [
          10143181
        ],
        "postalCode": "L3S1G1",
        "streetName": "HILLCROFT",
        "streetDirectionId": null,
        "streetTypeId": "DR",
        "placeName": "MARKHAM",
        "streetNameDisplayText": "HILLCROFT DR, MARKHAM"
      },
      {
        "electoralDistricts": [
          {
            "election": null,
            "id": 57,
            "name": "Markham—Thornhill"
          }
        ],
        "pollDivisionIds": [
          10143181
        ],
        "postalCode": "L3S1G1",
        "streetName": "TIMBERS",
        "streetDirectionId": null,
        "streetTypeId": "CIR",
        "placeName": "MARKHAM",
        "streetNameDisplayText": "TIMBERS CIR, MARKHAM"
      }
    ]
  },
  {
    "postal": "L3S9R6",
    "result": []
  },
  {
    "postal": "L3S4Z9",
    "result": []
  },
  {
    "postal": "L3S1V5",
    "result": [
      {
        "electoralDistricts": [
          {
            "election": null,
            "id": 57,
            "name": "Markham—Thornhill"
          }
        ],
        "pollDivisionIds": [
          10143183
        ],
        "postalCode": "L3S1V5",
        "streetName": "CHASE",
        "streetDirectionId": null,
        "streetTypeId": "CRT",
        "placeName": "MARKHAM",
        "streetNameDisplayText": "CHASE CRT, MARKHAM"
      }
    ]
  },
  {
    "postal": "L3S9Y5",
    "result": []
  },
  {
    "postal": "L3S1P2",
    "result": [
      {
        "electoralDistricts": [
          {
            "election": null,
            "id": 57,
            "name": "Markham—Thornhill"
          }
        ],
        "pollDivisionIds": [
          10143183
        ],
        "postalCode": "L3S1P2",
        "streetName": "WINDHILL",
        "streetDirectionId": null,
        "streetTypeId": "RD",
        "placeName": "MARKHAM",
        "streetNameDisplayText": "WINDHILL RD, MARKHAM"
      }
    ]
  },
  {
    "postal": "L3S5X0",
    "result": []
  },
  {
    "postal": "L3S7B8",
    "result": []
  },
  {
    "postal": "L3S0C6",
    "result": []
  },
  {
    "postal": "L3S6G1",
    "result": []
  },
  {
    "postal": "L3S3K3",
    "result": [
      {
        "electoralDistricts": [
          {
            "election": null,
            "id": 57,
            "name": "Markham—Thornhill"
          }
        ],
        "pollDivisionIds": [
          10143180
        ],
        "postalCode": "L3S3K3",
        "streetName": "14TH",
        "streetDirectionId": null,
        "streetTypeId": "AVE",
        "placeName": "MARKHAM",
        "streetNameDisplayText": "14TH AVE, MARKHAM"
      }
    ]
  },
  {
    "postal": "L3S9R0",
    "result": []
  },
  {
    "postal": "L3S4R8",
    "result": [
      {
        "electoralDistricts": [
          {
            "election": null,
            "id": 57,
            "name": "Markham—Thornhill"
          }
        ],
        "pollDivisionIds": [
          10143189
        ],
        "postalCode": "L3S4R8",
        "streetName": "ELSON",
        "streetDirectionId": null,
        "streetTypeId": "ST",
        "placeName": "MARKHAM",
        "streetNameDisplayText": "ELSON ST, MARKHAM"
      },
      {
        "electoralDistricts": [
          {
            "election": null,
            "id": 57,
            "name": "Markham—Thornhill"
          }
        ],
        "pollDivisionIds": [
          10143189
        ],
        "postalCode": "L3S4R8",
        "streetName": "GUINEVERE",
        "streetDirectionId": null,
        "streetTypeId": "RD",
        "placeName": "MARKHAM",
        "streetNameDisplayText": "GUINEVERE RD, MARKHAM"
      }
    ]
  },
  {
    "postal": "L3S5P9",
    "result": []
  },
  {
    "postal": "L3S8N4",
    "result": []
  },
  {
    "postal": "L3S8H4",
    "result": []
  },
  {
    "postal": "L3S4V1",
    "result": [
      {
        "electoralDistricts": [
          {
            "election": null,
            "id": 57,
            "name": "Markham—Thornhill"
          }
        ],
        "pollDivisionIds": [
          10143189
        ],
        "postalCode": "L3S4V1",
        "streetName": "BETHANY",
        "streetDirectionId": null,
        "streetTypeId": "ST",
        "placeName": "MARKHAM",
        "streetNameDisplayText": "BETHANY ST, MARKHAM"
      },
      {
        "electoralDistricts": [
          {
            "election": null,
            "id": 57,
            "name": "Markham—Thornhill"
          }
        ],
        "pollDivisionIds": [
          10143189
        ],
        "postalCode": "L3S4V1",
        "streetName": "ELSON",
        "streetDirectionId": null,
        "streetTypeId": "ST",
        "placeName": "MARKHAM",
        "streetNameDisplayText": "ELSON ST, MARKHAM"
      },
      {
        "electoralDistricts": [
          {
            "election": null,
            "id": 57,
            "name": "Markham—Thornhill"
          }
        ],
        "pollDivisionIds": [
          10143189
        ],
        "postalCode": "L3S4V1",
        "streetName": "GUINEVERE",
        "streetDirectionId": null,
        "streetTypeId": "RD",
        "placeName": "MARKHAM",
        "streetNameDisplayText": "GUINEVERE RD, MARKHAM"
      },
      {
        "electoralDistricts": [
          {
            "election": null,
            "id": 57,
            "name": "Markham—Thornhill"
          }
        ],
        "pollDivisionIds": [
          10143189
        ],
        "postalCode": "L3S4V1",
        "streetName": "LAHORE",
        "streetDirectionId": null,
        "streetTypeId": "RD",
        "placeName": "MARKHAM",
        "streetNameDisplayText": "LAHORE RD, MARKHAM"
      }
    ]
  },
  {
    "postal": "L3S1K5",
    "result": [
      {
        "electoralDistricts": [
          {
            "election": null,
            "id": 57,
            "name": "Markham—Thornhill"
          }
        ],
        "pollDivisionIds": [
          10143181
        ],
        "postalCode": "L3S1K5",
        "streetName": "RANDALL",
        "streetDirectionId": null,
        "streetTypeId": "AVE",
        "placeName": "MARKHAM",
        "streetNameDisplayText": "RANDALL AVE, MARKHAM"
      }
    ]
  },
  {
    "postal": "L3S1Z5",
    "result": [
      {
        "electoralDistricts": [
          {
            "election": null,
            "id": 57,
            "name": "Markham—Thornhill"
          }
        ],
        "pollDivisionIds": [
          10143187
        ],
        "postalCode": "L3S1Z5",
        "streetName": "DOUGLAS HAIG",
        "streetDirectionId": null,
        "streetTypeId": "DR",
        "placeName": "MARKHAM",
        "streetNameDisplayText": "DOUGLAS HAIG DR, MARKHAM"
      },
      {
        "electoralDistricts": [
          {
            "election": null,
            "id": 57,
            "name": "Markham—Thornhill"
          }
        ],
        "pollDivisionIds": [
          10143187
        ],
        "postalCode": "L3S1Z5",
        "streetName": "KAREN MILES",
        "streetDirectionId": null,
        "streetTypeId": "CRES",
        "placeName": "MARKHAM",
        "streetNameDisplayText": "KAREN MILES CRES, MARKHAM"
      }
    ]
  },
  {
    "postal": "L3S9L9",
    "result": []
  },
  {
    "postal": "L3S5L2",
    "result": []
  },
  {
    "postal": "L3S0M2",
    "result": []
  },
  {
    "postal": "L3S1K8",
    "result": [
      {
        "electoralDistricts": [
          {
            "election": null,
            "id": 57,
            "name": "Markham—Thornhill"
          }
        ],
        "pollDivisionIds": [
          10143181
        ],
        "postalCode": "L3S1K8",
        "streetName": "CARTMEL",
        "streetDirectionId": null,
        "streetTypeId": "DR",
        "placeName": "MARKHAM",
        "streetNameDisplayText": "CARTMEL DR, MARKHAM"
      },
      {
        "electoralDistricts": [
          {
            "election": null,
            "id": 57,
            "name": "Markham—Thornhill"
          }
        ],
        "pollDivisionIds": [
          10143181
        ],
        "postalCode": "L3S1K8",
        "streetName": "SORRELL",
        "streetDirectionId": null,
        "streetTypeId": "CRES",
        "placeName": "MARKHAM",
        "streetNameDisplayText": "SORRELL CRES, MARKHAM"
      }
    ]
  },
  {
    "postal": "L3S3M7",
    "result": [
      {
        "electoralDistricts": [
          {
            "election": null,
            "id": 57,
            "name": "Markham—Thornhill"
          }
        ],
        "pollDivisionIds": [
          10143185
        ],
        "postalCode": "L3S3M7",
        "streetName": "FEATHERSTONE",
        "streetDirectionId": null,
        "streetTypeId": "AVE",
        "placeName": "MARKHAM",
        "streetNameDisplayText": "FEATHERSTONE AVE, MARKHAM"
      },
      {
        "electoralDistricts": [
          {
            "election": null,
            "id": 57,
            "name": "Markham—Thornhill"
          }
        ],
        "pollDivisionIds": [
          10143185
        ],
        "postalCode": "L3S3M7",
        "streetName": "MARLEY",
        "streetDirectionId": null,
        "streetTypeId": "CRT",
        "placeName": "MARKHAM",
        "streetNameDisplayText": "MARLEY CRT, MARKHAM"
      }
    ]
  },
  {
    "postal": "L3S1B2",
    "result": []
  },
  {
    "postal": "L3S0H9",
    "result": []
  },
  {
    "postal": "L3S8M4",
    "result": []
  },
  {
    "postal": "L3S2M5",
    "result": [
      {
        "electoralDistricts": [
          {
            "election": null,
            "id": 57,
            "name": "Markham—Thornhill"
          }
        ],
        "pollDivisionIds": [
          10143186
        ],
        "postalCode": "L3S2M5",
        "streetName": "COPPARD",
        "streetDirectionId": null,
        "streetTypeId": "AVE",
        "placeName": "MARKHAM",
        "streetNameDisplayText": "COPPARD AVE, MARKHAM"
      },
      {
        "electoralDistricts": [
          {
            "election": null,
            "id": 57,
            "name": "Markham—Thornhill"
          }
        ],
        "pollDivisionIds": [
          10143186
        ],
        "postalCode": "L3S2M5",
        "streetName": "TERROSA",
        "streetDirectionId": null,
        "streetTypeId": "RD",
        "placeName": "MARKHAM",
        "streetNameDisplayText": "TERROSA RD, MARKHAM"
      }
    ]
  },
  {
    "postal": "L3S0T9",
    "result": []
  },
  {
    "postal": "L3S3P1",
    "result": [
      {
        "electoralDistricts": [
          {
            "election": null,
            "id": 57,
            "name": "Markham—Thornhill"
          }
        ],
        "pollDivisionIds": [
          10143185
        ],
        "postalCode": "L3S3P1",
        "streetName": "COPPARD",
        "streetDirectionId": null,
        "streetTypeId": "AVE",
        "placeName": "MARKHAM",
        "streetNameDisplayText": "COPPARD AVE, MARKHAM"
      },
      {
        "electoralDistricts": [
          {
            "election": null,
            "id": 57,
            "name": "Markham—Thornhill"
          }
        ],
        "pollDivisionIds": [
          10143184,
          10143185
        ],
        "postalCode": "L3S3P1",
        "streetName": "HIGHGLEN",
        "streetDirectionId": null,
        "streetTypeId": "AVE",
        "placeName": "MARKHAM",
        "streetNameDisplayText": "HIGHGLEN AVE, MARKHAM"
      }
    ]
  },
  {
    "postal": "L3S1R6",
    "result": [
      {
        "electoralDistricts": [
          {
            "election": null,
            "id": 57,
            "name": "Markham—Thornhill"
          }
        ],
        "pollDivisionIds": [
          10143183
        ],
        "postalCode": "L3S1R6",
        "streetName": "HILLCROFT",
        "streetDirectionId": null,
        "streetTypeId": "DR",
        "placeName": "MARKHAM",
        "streetNameDisplayText": "HILLCROFT DR, MARKHAM"
      }
    ]
  },
  {
    "postal": "L3S9V5",
    "result": []
  },
  {
    "postal": "L3S9T0",
    "result": []
  },
  {
    "postal": "L3S0A9",
    "result": [
      {
        "electoralDistricts": [
          {
            "election": null,
            "id": 57,
            "name": "Markham—Thornhill"
          }
        ],
        "pollDivisionIds": [
          10143189
        ],
        "postalCode": "L3S0A9",
        "streetName": "KIRKHAM",
        "streetDirectionId": null,
        "streetTypeId": "DR",
        "placeName": "MARKHAM",
        "streetNameDisplayText": "KIRKHAM DR, MARKHAM"
      }
    ]
  },
  {
    "postal": "L3S1M3",
    "result": [
      {
        "electoralDistricts": [
          {
            "election": null,
            "id": 57,
            "name": "Markham—Thornhill"
          }
        ],
        "pollDivisionIds": [
          10143182
        ],
        "postalCode": "L3S1M3",
        "streetName": "DOLSON",
        "streetDirectionId": null,
        "streetTypeId": "CRT",
        "placeName": "MARKHAM",
        "streetNameDisplayText": "DOLSON CRT, MARKHAM"
      }
    ]
  },
  {
    "postal": "L3S1W8",
    "result": [
      {
        "electoralDistricts": [
          {
            "election": null,
            "id": 57,
            "name": "Markham—Thornhill"
          }
        ],
        "pollDivisionIds": [
          10143181
        ],
        "postalCode": "L3S1W8",
        "streetName": "NEELAND",
        "streetDirectionId": null,
        "streetTypeId": "RD",
        "placeName": "MARKHAM",
        "streetNameDisplayText": "NEELAND RD, MARKHAM"
      }
    ]
  },
  {
    "postal": "L3S9J1",
    "result": []
  },
  {
    "postal": "L3S8N5",
    "result": []
  },
  {
    "postal": "L3S5X1",
    "result": []
  },
  {
    "postal": "L3S6S2",
    "result": []
  },
  {
    "postal": "L3S2A2",
    "result": [
      {
        "electoralDistricts": [
          {
            "election": null,
            "id": 57,
            "name": "Markham—Thornhill"
          }
        ],
        "pollDivisionIds": [
          10143187
        ],
        "postalCode": "L3S2A2",
        "streetName": "NORN",
        "streetDirectionId": null,
        "streetTypeId": "CRES",
        "placeName": "MARKHAM",
        "streetNameDisplayText": "NORN CRES, MARKHAM"
      }
    ]
  },
  {
    "postal": "L3S6A6",
    "result": []
  },
  {
    "postal": "L3S0S3",
    "result": []
  },
  {
    "postal": "L3S3E7",
    "result": [
      {
        "electoralDistricts": [
          {
            "election": null,
            "id": 57,
            "name": "Markham—Thornhill"
          }
        ],
        "pollDivisionIds": [
          10143190
        ],
        "postalCode": "L3S3E7",
        "streetName": "ELSON",
        "streetDirectionId": null,
        "streetTypeId": "ST",
        "placeName": "MARKHAM",
        "streetNameDisplayText": "ELSON ST, MARKHAM"
      },
      {
        "electoralDistricts": [
          {
            "election": null,
            "id": 57,
            "name": "Markham—Thornhill"
          }
        ],
        "pollDivisionIds": [
          10143190
        ],
        "postalCode": "L3S3E7",
        "streetName": "MARY PEARSON",
        "streetDirectionId": null,
        "streetTypeId": "DR",
        "placeName": "MARKHAM",
        "streetNameDisplayText": "MARY PEARSON DR, MARKHAM"
      },
      {
        "electoralDistricts": [
          {
            "election": null,
            "id": 57,
            "name": "Markham—Thornhill"
          }
        ],
        "pollDivisionIds": [
          10143190
        ],
        "postalCode": "L3S3E7",
        "streetName": "NORMAN ROSS",
        "streetDirectionId": null,
        "streetTypeId": "DR",
        "placeName": "MARKHAM",
        "streetNameDisplayText": "NORMAN ROSS DR, MARKHAM"
      }
    ]
  },
  {
    "postal": "L3S5R7",
    "result": []
  },
  {
    "postal": "L3S3R6",
    "result": [
      {
        "electoralDistricts": [
          {
            "election": null,
            "id": 57,
            "name": "Markham—Thornhill"
          }
        ],
        "pollDivisionIds": [
          10143183
        ],
        "postalCode": "L3S3R6",
        "streetName": "GILLINGHAM",
        "streetDirectionId": null,
        "streetTypeId": "AVE",
        "placeName": "MARKHAM",
        "streetNameDisplayText": "GILLINGHAM AVE, MARKHAM"
      },
      {
        "electoralDistricts": [
          {
            "election": null,
            "id": 57,
            "name": "Markham—Thornhill"
          }
        ],
        "pollDivisionIds": [
          10143183
        ],
        "postalCode": "L3S3R6",
        "streetName": "HERTFORD",
        "streetDirectionId": null,
        "streetTypeId": "CRES",
        "placeName": "MARKHAM",
        "streetNameDisplayText": "HERTFORD CRES, MARKHAM"
      }
    ]
  },
  {
    "postal": "L3S6K4",
    "result": []
  },
  {
    "postal": "L3S2W5",
    "result": [
      {
        "electoralDistricts": [
          {
            "election": null,
            "id": 57,
            "name": "Markham—Thornhill"
          }
        ],
        "pollDivisionIds": [
          10143180
        ],
        "postalCode": "L3S2W5",
        "streetName": "CANNING",
        "streetDirectionId": null,
        "streetTypeId": "CRT",
        "placeName": "MARKHAM",
        "streetNameDisplayText": "CANNING CRT, MARKHAM"
      },
      {
        "electoralDistricts": [
          {
            "election": null,
            "id": 57,
            "name": "Markham—Thornhill"
          }
        ],
        "pollDivisionIds": [
          10143180
        ],
        "postalCode": "L3S2W5",
        "streetName": "EDGECOMBE",
        "streetDirectionId": null,
        "streetTypeId": "CRT",
        "placeName": "MARKHAM",
        "streetNameDisplayText": "EDGECOMBE CRT, MARKHAM"
      }
    ]
  },
  {
    "postal": "L3S8W4",
    "result": []
  },
  {
    "postal": "L3S9C2",
    "result": []
  },
  {
    "postal": "L3S2C0",
    "result": []
  },
  {
    "postal": "L3S0E1",
    "result": [
      {
        "electoralDistricts": [
          {
            "election": null,
            "id": 57,
            "name": "Markham—Thornhill"
          }
        ],
        "pollDivisionIds": [
          10143189
        ],
        "postalCode": "L3S0E1",
        "streetName": "NEW DELHI",
        "streetDirectionId": null,
        "streetTypeId": "DR",
        "placeName": "MARKHAM",
        "streetNameDisplayText": "NEW DELHI DR, MARKHAM"
      }
    ]
  },
  {
    "postal": "L3S1K9",
    "result": [
      {
        "electoralDistricts": [
          {
            "election": null,
            "id": 57,
            "name": "Markham—Thornhill"
          }
        ],
        "pollDivisionIds": [
          10143181
        ],
        "postalCode": "L3S1K9",
        "streetName": "SORRELL",
        "streetDirectionId": null,
        "streetTypeId": "CRES",
        "placeName": "MARKHAM",
        "streetNameDisplayText": "SORRELL CRES, MARKHAM"
      }
    ]
  },
  {
    "postal": "L3S1G7",
    "result": [
      {
        "electoralDistricts": [
          {
            "election": null,
            "id": 57,
            "name": "Markham—Thornhill"
          }
        ],
        "pollDivisionIds": [
          10143182
        ],
        "postalCode": "L3S1G7",
        "streetName": "JAFFRAY",
        "streetDirectionId": null,
        "streetTypeId": "RD",
        "placeName": "MARKHAM",
        "streetNameDisplayText": "JAFFRAY RD, MARKHAM"
      }
    ]
  },
  {
    "postal": "L3S4E9",
    "result": [
      {
        "electoralDistricts": [
          {
            "election": null,
            "id": 56,
            "name": "Markham—Stouffville"
          }
        ],
        "pollDivisionIds": [
          10134358
        ],
        "postalCode": "L3S4E9",
        "streetName": "LITTLELEAF",
        "streetDirectionId": null,
        "streetTypeId": "CRES",
        "placeName": "MARKHAM",
        "streetNameDisplayText": "LITTLELEAF CRES, MARKHAM"
      },
      {
        "electoralDistricts": [
          {
            "election": null,
            "id": 56,
            "name": "Markham—Stouffville"
          }
        ],
        "pollDivisionIds": [
          10134358
        ],
        "postalCode": "L3S4E9",
        "streetName": "PURPLE FINCH",
        "streetDirectionId": null,
        "streetTypeId": "RD",
        "placeName": "MARKHAM",
        "streetNameDisplayText": "PURPLE FINCH RD, MARKHAM"
      },
      {
        "electoralDistricts": [
          {
            "election": null,
            "id": 56,
            "name": "Markham—Stouffville"
          }
        ],
        "pollDivisionIds": [
          10134358
        ],
        "postalCode": "L3S4E9",
        "streetName": "RUSSELL JARVIS",
        "streetDirectionId": null,
        "streetTypeId": "DR",
        "placeName": "MARKHAM",
        "streetNameDisplayText": "RUSSELL JARVIS DR, MARKHAM"
      }
    ]
  },
  {
    "postal": "L3S9P0",
    "result": []
  },
  {
    "postal": "L3S5H3",
    "result": []
  },
  {
    "postal": "L3S9X6",
    "result": []
  },
  {
    "postal": "L3S5N7",
    "result": []
  },
  {
    "postal": "L3S5A6",
    "result": []
  },
  {
    "postal": "L3S4M0",
    "result": []
  },
  {
    "postal": "L3S3V6",
    "result": [
      {
        "electoralDistricts": [
          {
            "election": null,
            "id": 57,
            "name": "Markham—Thornhill"
          }
        ],
        "pollDivisionIds": [
          10143188
        ],
        "postalCode": "L3S3V6",
        "streetName": "DOUBTFIRE",
        "streetDirectionId": null,
        "streetTypeId": "CRES",
        "placeName": "MARKHAM",
        "streetNameDisplayText": "DOUBTFIRE CRES, MARKHAM"
      }
    ]
  },
  {
    "postal": "L3S1L7",
    "result": [
      {
        "electoralDistricts": [
          {
            "election": null,
            "id": 57,
            "name": "Markham—Thornhill"
          }
        ],
        "pollDivisionIds": [
          10143182
        ],
        "postalCode": "L3S1L7",
        "streetName": "PETTIGREW",
        "streetDirectionId": null,
        "streetTypeId": "CRT",
        "placeName": "MARKHAM",
        "streetNameDisplayText": "PETTIGREW CRT, MARKHAM"
      }
    ]
  },
  {
    "postal": "L3S2P9",
    "result": [
      {
        "electoralDistricts": [
          {
            "election": null,
            "id": 57,
            "name": "Markham—Thornhill"
          }
        ],
        "pollDivisionIds": [
          10143186
        ],
        "postalCode": "L3S2P9",
        "streetName": "DENISON",
        "streetDirectionId": null,
        "streetTypeId": "ST",
        "placeName": "MARKHAM",
        "streetNameDisplayText": "DENISON ST, MARKHAM"
      },
      {
        "electoralDistricts": [
          {
            "election": null,
            "id": 57,
            "name": "Markham—Thornhill"
          }
        ],
        "pollDivisionIds": [
          10143186
        ],
        "postalCode": "L3S2P9",
        "streetName": "TERROSA",
        "streetDirectionId": null,
        "streetTypeId": "RD",
        "placeName": "MARKHAM",
        "streetNameDisplayText": "TERROSA RD, MARKHAM"
      }
    ]
  },
  {
    "postal": "L3S5T4",
    "result": []
  },
  {
    "postal": "L3S5Z1",
    "result": []
  },
  {
    "postal": "L3S2X0",
    "result": []
  },
  {
    "postal": "L3S6Z2",
    "result": []
  },
  {
    "postal": "L3S0E0",
    "result": []
  },
  {
    "postal": "L3S3Z5",
    "result": [
      {
        "electoralDistricts": [
          {
            "election": null,
            "id": 57,
            "name": "Markham—Thornhill"
          }
        ],
        "pollDivisionIds": [
          10143180
        ],
        "postalCode": "L3S3Z5",
        "streetName": "HEPBURN",
        "streetDirectionId": null,
        "streetTypeId": "ST",
        "placeName": "MARKHAM",
        "streetNameDisplayText": "HEPBURN ST, MARKHAM"
      },
      {
        "electoralDistricts": [
          {
            "election": null,
            "id": 57,
            "name": "Markham—Thornhill"
          }
        ],
        "pollDivisionIds": [
          10143180
        ],
        "postalCode": "L3S3Z5",
        "streetName": "HOAKE",
        "streetDirectionId": null,
        "streetTypeId": "RD",
        "placeName": "MARKHAM",
        "streetNameDisplayText": "HOAKE RD, MARKHAM"
      }
    ]
  },
  {
    "postal": "L3S8H3",
    "result": []
  },
  {
    "postal": "L3S7S6",
    "result": []
  },
  {
    "postal": "L3S4C1",
    "result": [
      {
        "electoralDistricts": [
          {
            "election": null,
            "id": 56,
            "name": "Markham—Stouffville"
          }
        ],
        "pollDivisionIds": [
          10134358
        ],
        "postalCode": "L3S4C1",
        "streetName": "BLACK WALNUT",
        "streetDirectionId": null,
        "streetTypeId": "DR",
        "placeName": "MARKHAM",
        "streetNameDisplayText": "BLACK WALNUT DR, MARKHAM"
      },
      {
        "electoralDistricts": [
          {
            "election": null,
            "id": 56,
            "name": "Markham—Stouffville"
          }
        ],
        "pollDivisionIds": [
          10134358
        ],
        "postalCode": "L3S4C1",
        "streetName": "TROUT LILY",
        "streetDirectionId": null,
        "streetTypeId": "AVE",
        "placeName": "MARKHAM",
        "streetNameDisplayText": "TROUT LILY AVE, MARKHAM"
      }
    ]
  },
  {
    "postal": "L3S3K2",
    "result": [
      {
        "electoralDistricts": [
          {
            "election": null,
            "id": 57,
            "name": "Markham—Thornhill"
          }
        ],
        "pollDivisionIds": [
          10143177
        ],
        "postalCode": "L3S3K2",
        "streetName": "14",
        "streetDirectionId": null,
        "streetTypeId": "AVE",
        "placeName": "MARKHAM",
        "streetNameDisplayText": "14 AVE, MARKHAM"
      },
      {
        "electoralDistricts": [
          {
            "election": null,
            "id": 57,
            "name": "Markham—Thornhill"
          }
        ],
        "pollDivisionIds": [
          10143177
        ],
        "postalCode": "L3S3K2",
        "streetName": "14TH",
        "streetDirectionId": null,
        "streetTypeId": "AVE",
        "placeName": "MARKHAM",
        "streetNameDisplayText": "14TH AVE, MARKHAM"
      }
    ]
  },
  {
    "postal": "L3S1Y5",
    "result": []
  },
  {
    "postal": "L3S6P6",
    "result": []
  },
  {
    "postal": "L3S3N9",
    "result": [
      {
        "electoralDistricts": [
          {
            "election": null,
            "id": 57,
            "name": "Markham—Thornhill"
          }
        ],
        "pollDivisionIds": [
          10143190
        ],
        "postalCode": "L3S3N9",
        "streetName": "MARYDALE",
        "streetDirectionId": null,
        "streetTypeId": "AVE",
        "placeName": "MARKHAM",
        "streetNameDisplayText": "MARYDALE AVE, MARKHAM"
      }
    ]
  },
  {
    "postal": "L3S3W2",
    "result": [
      {
        "electoralDistricts": [
          {
            "election": null,
            "id": 57,
            "name": "Markham—Thornhill"
          }
        ],
        "pollDivisionIds": [
          10143180
        ],
        "postalCode": "L3S3W2",
        "streetName": "HEPBURN",
        "streetDirectionId": null,
        "streetTypeId": "ST",
        "placeName": "MARKHAM",
        "streetNameDisplayText": "HEPBURN ST, MARKHAM"
      },
      {
        "electoralDistricts": [
          {
            "election": null,
            "id": 57,
            "name": "Markham—Thornhill"
          }
        ],
        "pollDivisionIds": [
          10143180
        ],
        "postalCode": "L3S3W2",
        "streetName": "HIGHGLEN",
        "streetDirectionId": null,
        "streetTypeId": "AVE",
        "placeName": "MARKHAM",
        "streetNameDisplayText": "HIGHGLEN AVE, MARKHAM"
      },
      {
        "electoralDistricts": [
          {
            "election": null,
            "id": 57,
            "name": "Markham—Thornhill"
          }
        ],
        "pollDivisionIds": [
          10143180
        ],
        "postalCode": "L3S3W2",
        "streetName": "QUEUE",
        "streetDirectionId": null,
        "streetTypeId": "RD",
        "placeName": "MARKHAM",
        "streetNameDisplayText": "QUEUE RD, MARKHAM"
      }
    ]
  },
  {
    "postal": "L3S6H8",
    "result": []
  },
  {
    "postal": "L3S9T3",
    "result": []
  },
  {
    "postal": "L3S5L9",
    "result": []
  },
  {
    "postal": "L3S7X7",
    "result": []
  },
  {
    "postal": "L3S3J5",
    "result": [
      {
        "electoralDistricts": [
          {
            "election": null,
            "id": 56,
            "name": "Markham—Stouffville"
          },
          {
            "election": null,
            "id": 57,
            "name": "Markham—Thornhill"
          }
        ],
        "pollDivisionIds": [
          10134361,
          10143189
        ],
        "postalCode": "L3S3J5",
        "streetName": "STEELES",
        "streetDirectionId": "E",
        "streetTypeId": "AVE",
        "placeName": "MARKHAM",
        "streetNameDisplayText": "STEELES AVE E, MARKHAM"
      }
    ]
  },
  {
    "postal": "L3S4J5",
    "result": [
      {
        "electoralDistricts": [
          {
            "election": null,
            "id": 57,
            "name": "Markham—Thornhill"
          }
        ],
        "pollDivisionIds": [
          10143184
        ],
        "postalCode": "L3S4J5",
        "streetName": "QUANTUM",
        "streetDirectionId": null,
        "streetTypeId": "ST",
        "placeName": "MARKHAM",
        "streetNameDisplayText": "QUANTUM ST, MARKHAM"
      }
    ]
  },
  {
    "postal": "L3S6J2",
    "result": []
  },
  {
    "postal": "L3S5V6",
    "result": []
  },
  {
    "postal": "L3S3N2",
    "result": [
      {
        "electoralDistricts": [
          {
            "election": null,
            "id": 57,
            "name": "Markham—Thornhill"
          }
        ],
        "pollDivisionIds": [
          10143190
        ],
        "postalCode": "L3S3N2",
        "streetName": "BEULAH",
        "streetDirectionId": null,
        "streetTypeId": "DR",
        "placeName": "MARKHAM",
        "streetNameDisplayText": "BEULAH DR, MARKHAM"
      }
    ]
  },
  {
    "postal": "L3S3B1",
    "result": [
      {
        "electoralDistricts": [
          {
            "election": null,
            "id": 57,
            "name": "Markham—Thornhill"
          }
        ],
        "pollDivisionIds": [
          10143177
        ],
        "postalCode": "L3S3B1",
        "streetName": "BECKENRIDGE",
        "streetDirectionId": null,
        "streetTypeId": "DR",
        "placeName": "MARKHAM",
        "streetNameDisplayText": "BECKENRIDGE DR, MARKHAM"
      }
    ]
  },
  {
    "postal": "L3S8B5",
    "result": []
  },
  {
    "postal": "L3S0K1",
    "result": []
  },
  {
    "postal": "L3S7M7",
    "result": []
  },
  {
    "postal": "L3S2M2",
    "result": [
      {
        "electoralDistricts": [
          {
            "election": null,
            "id": 57,
            "name": "Markham—Thornhill"
          }
        ],
        "pollDivisionIds": [
          10143186
        ],
        "postalCode": "L3S2M2",
        "streetName": "WILLIAM HONEY",
        "streetDirectionId": null,
        "streetTypeId": "CRES",
        "placeName": "MARKHAM",
        "streetNameDisplayText": "WILLIAM HONEY CRES, MARKHAM"
      }
    ]
  },
  {
    "postal": "L3S9N3",
    "result": []
  },
  {
    "postal": "L3S4Y8",
    "result": []
  },
  {
    "postal": "L3S3V7",
    "result": [
      {
        "electoralDistricts": [
          {
            "election": null,
            "id": 57,
            "name": "Markham—Thornhill"
          }
        ],
        "pollDivisionIds": [
          10143188
        ],
        "postalCode": "L3S3V7",
        "streetName": "DOUBTFIRE",
        "streetDirectionId": null,
        "streetTypeId": "CRES",
        "placeName": "MARKHAM",
        "streetNameDisplayText": "DOUBTFIRE CRES, MARKHAM"
      }
    ]
  },
  {
    "postal": "L3S8Z1",
    "result": []
  },
  {
    "postal": "L3S7B3",
    "result": []
  },
  {
    "postal": "L3S3A8",
    "result": [
      {
        "electoralDistricts": [
          {
            "election": null,
            "id": 57,
            "name": "Markham—Thornhill"
          }
        ],
        "pollDivisionIds": [
          10143190
        ],
        "postalCode": "L3S3A8",
        "streetName": "ERLA",
        "streetDirectionId": null,
        "streetTypeId": "CRT",
        "placeName": "MARKHAM",
        "streetNameDisplayText": "ERLA CRT, MARKHAM"
      },
      {
        "electoralDistricts": [
          {
            "election": null,
            "id": 57,
            "name": "Markham—Thornhill"
          }
        ],
        "pollDivisionIds": [
          10143190
        ],
        "postalCode": "L3S3A8",
        "streetName": "FAIRTY",
        "streetDirectionId": null,
        "streetTypeId": "DR",
        "placeName": "MARKHAM",
        "streetNameDisplayText": "FAIRTY DR, MARKHAM"
      }
    ]
  },
  {
    "postal": "L3S7V5",
    "result": []
  },
  {
    "postal": "L3S2T2",
    "result": []
  },
  {
    "postal": "L3S6L3",
    "result": []
  },
  {
    "postal": "L3S0L2",
    "result": []
  },
  {
    "postal": "L3S5Y8",
    "result": []
  },
  {
    "postal": "L3S0B8",
    "result": [
      {
        "electoralDistricts": [
          {
            "election": null,
            "id": 57,
            "name": "Markham—Thornhill"
          }
        ],
        "pollDivisionIds": [
          10143188
        ],
        "postalCode": "L3S0B8",
        "streetName": "COLELUKE",
        "streetDirectionId": null,
        "streetTypeId": "LANE",
        "placeName": "MARKHAM",
        "streetNameDisplayText": "COLELUKE LANE, MARKHAM"
      },
      {
        "electoralDistricts": [
          {
            "election": null,
            "id": 57,
            "name": "Markham—Thornhill"
          }
        ],
        "pollDivisionIds": [
          10143188
        ],
        "postalCode": "L3S0B8",
        "streetName": "KINCAID",
        "streetDirectionId": null,
        "streetTypeId": "LANE",
        "placeName": "MARKHAM",
        "streetNameDisplayText": "KINCAID LANE, MARKHAM"
      }
    ]
  },
  {
    "postal": "L3S6R5",
    "result": []
  },
  {
    "postal": "L3S8W6",
    "result": []
  },
  {
    "postal": "L3S8G6",
    "result": []
  },
  {
    "postal": "L3S6X3",
    "result": []
  },
  {
    "postal": "L3S7R7",
    "result": []
  },
  {
    "postal": "L3S4B6",
    "result": [
      {
        "electoralDistricts": [
          {
            "election": null,
            "id": 56,
            "name": "Markham—Stouffville"
          }
        ],
        "pollDivisionIds": [
          10134358
        ],
        "postalCode": "L3S4B6",
        "streetName": "LEGACY",
        "streetDirectionId": null,
        "streetTypeId": "DR",
        "placeName": "MARKHAM",
        "streetNameDisplayText": "LEGACY DR, MARKHAM"
      },
      {
        "electoralDistricts": [
          {
            "election": null,
            "id": 56,
            "name": "Markham—Stouffville"
          }
        ],
        "pollDivisionIds": [
          10134358
        ],
        "postalCode": "L3S4B6",
        "streetName": "RED ASH",
        "streetDirectionId": null,
        "streetTypeId": "DR",
        "placeName": "MARKHAM",
        "streetNameDisplayText": "RED ASH DR, MARKHAM"
      },
      {
        "electoralDistricts": [
          {
            "election": null,
            "id": 56,
            "name": "Markham—Stouffville"
          }
        ],
        "pollDivisionIds": [
          10134358
        ],
        "postalCode": "L3S4B6",
        "streetName": "ROUGE BANK",
        "streetDirectionId": null,
        "streetTypeId": "DR",
        "placeName": "MARKHAM",
        "streetNameDisplayText": "ROUGE BANK DR, MARKHAM"
      },
      {
        "electoralDistricts": [
          {
            "election": null,
            "id": 56,
            "name": "Markham—Stouffville"
          }
        ],
        "pollDivisionIds": [
          10134358
        ],
        "postalCode": "L3S4B6",
        "streetName": "WHITE CEDAR",
        "streetDirectionId": null,
        "streetTypeId": "DR",
        "placeName": "MARKHAM",
        "streetNameDisplayText": "WHITE CEDAR DR, MARKHAM"
      }
    ]
  },
  {
    "postal": "L3S3P9",
    "result": [
      {
        "electoralDistricts": [
          {
            "election": null,
            "id": 57,
            "name": "Markham—Thornhill"
          }
        ],
        "pollDivisionIds": [
          10143192
        ],
        "postalCode": "L3S3P9",
        "streetName": "BOXWOOD",
        "streetDirectionId": null,
        "streetTypeId": "CRES",
        "placeName": "MARKHAM",
        "streetNameDisplayText": "BOXWOOD CRES, MARKHAM"
      },
      {
        "electoralDistricts": [
          {
            "election": null,
            "id": 57,
            "name": "Markham—Thornhill"
          }
        ],
        "pollDivisionIds": [
          10143192
        ],
        "postalCode": "L3S3P9",
        "streetName": "BRETTON",
        "streetDirectionId": null,
        "streetTypeId": "CIR",
        "placeName": "MARKHAM",
        "streetNameDisplayText": "BRETTON CIR, MARKHAM"
      }
    ]
  },
  {
    "postal": "L3S2T3",
    "result": [
      {
        "electoralDistricts": [
          {
            "election": null,
            "id": 57,
            "name": "Markham—Thornhill"
          }
        ],
        "pollDivisionIds": [
          10143185
        ],
        "postalCode": "L3S2T3",
        "streetName": "WALFORD",
        "streetDirectionId": null,
        "streetTypeId": "RD",
        "placeName": "MARKHAM",
        "streetNameDisplayText": "WALFORD RD, MARKHAM"
      }
    ]
  },
  {
    "postal": "L3S1M4",
    "result": [
      {
        "electoralDistricts": [
          {
            "election": null,
            "id": 57,
            "name": "Markham—Thornhill"
          }
        ],
        "pollDivisionIds": [
          10143183
        ],
        "postalCode": "L3S1M4",
        "streetName": "WINDHILL",
        "streetDirectionId": null,
        "streetTypeId": "RD",
        "placeName": "MARKHAM",
        "streetNameDisplayText": "WINDHILL RD, MARKHAM"
      },
      {
        "electoralDistricts": [
          {
            "election": null,
            "id": 57,
            "name": "Markham—Thornhill"
          }
        ],
        "pollDivisionIds": [
          10143183
        ],
        "postalCode": "L3S1M4",
        "streetName": "WOODHALL",
        "streetDirectionId": null,
        "streetTypeId": "RD",
        "placeName": "MARKHAM",
        "streetNameDisplayText": "WOODHALL RD, MARKHAM"
      }
    ]
  },
  {
    "postal": "L3S0H1",
    "result": []
  },
  {
    "postal": "L3S9W3",
    "result": []
  },
  {
    "postal": "L3S6P1",
    "result": []
  },
  {
    "postal": "L3S7G2",
    "result": []
  },
  {
    "postal": "L3S4J9",
    "result": [
      {
        "electoralDistricts": [
          {
            "election": null,
            "id": 57,
            "name": "Markham—Thornhill"
          }
        ],
        "pollDivisionIds": [
          10143182,
          10143183
        ],
        "postalCode": "L3S4J9",
        "streetName": "INGRAM",
        "streetDirectionId": null,
        "streetTypeId": "RD",
        "placeName": "MARKHAM",
        "streetNameDisplayText": "INGRAM RD, MARKHAM"
      },
      {
        "electoralDistricts": [
          {
            "election": null,
            "id": 57,
            "name": "Markham—Thornhill"
          }
        ],
        "pollDivisionIds": [
          10143182
        ],
        "postalCode": "L3S4J9",
        "streetName": "WORTHING",
        "streetDirectionId": null,
        "streetTypeId": "AVE",
        "placeName": "MARKHAM",
        "streetNameDisplayText": "WORTHING AVE, MARKHAM"
      }
    ]
  },
  {
    "postal": "L3S9E4",
    "result": []
  },
  {
    "postal": "L3S8H0",
    "result": []
  },
  {
    "postal": "L3S4M7",
    "result": [
      {
        "electoralDistricts": [
          {
            "election": null,
            "id": 57,
            "name": "Markham—Thornhill"
          }
        ],
        "pollDivisionIds": [
          10143190
        ],
        "postalCode": "L3S4M7",
        "streetName": "MARKHAM",
        "streetDirectionId": null,
        "streetTypeId": "RD",
        "placeName": "MARKHAM",
        "streetNameDisplayText": "MARKHAM RD, MARKHAM"
      }
    ]
  },
  {
    "postal": "L3S2G9",
    "result": [
      {
        "electoralDistricts": [
          {
            "election": null,
            "id": 57,
            "name": "Markham—Thornhill"
          }
        ],
        "pollDivisionIds": [
          10143187
        ],
        "postalCode": "L3S2G9",
        "streetName": "CIMMARON",
        "streetDirectionId": null,
        "streetTypeId": "ST",
        "placeName": "MARKHAM",
        "streetNameDisplayText": "CIMMARON ST, MARKHAM"
      }
    ]
  },
  {
    "postal": "L3S8T2",
    "result": []
  },
  {
    "postal": "L3S7G7",
    "result": []
  },
  {
    "postal": "L3S4Z3",
    "result": []
  },
  {
    "postal": "L3S5B3",
    "result": []
  },
  {
    "postal": "L3S1S7",
    "result": [
      {
        "electoralDistricts": [
          {
            "election": null,
            "id": 57,
            "name": "Markham—Thornhill"
          }
        ],
        "pollDivisionIds": [
          10143183
        ],
        "postalCode": "L3S1S7",
        "streetName": "DAIRIS",
        "streetDirectionId": null,
        "streetTypeId": "CRES",
        "placeName": "MARKHAM",
        "streetNameDisplayText": "DAIRIS CRES, MARKHAM"
      },
      {
        "electoralDistricts": [
          {
            "election": null,
            "id": 57,
            "name": "Markham—Thornhill"
          }
        ],
        "pollDivisionIds": [
          10143183
        ],
        "postalCode": "L3S1S7",
        "streetName": "WILCLAY",
        "streetDirectionId": null,
        "streetTypeId": "AVE",
        "placeName": "MARKHAM",
        "streetNameDisplayText": "WILCLAY AVE, MARKHAM"
      }
    ]
  },
  {
    "postal": "L3S2N7",
    "result": [
      {
        "electoralDistricts": [
          {
            "election": null,
            "id": 57,
            "name": "Markham—Thornhill"
          }
        ],
        "pollDivisionIds": [
          10143186
        ],
        "postalCode": "L3S2N7",
        "streetName": "DELLANO",
        "streetDirectionId": null,
        "streetTypeId": "ST",
        "placeName": "MARKHAM",
        "streetNameDisplayText": "DELLANO ST, MARKHAM"
      }
    ]
  },
  {
    "postal": "L3S0H8",
    "result": []
  },
  {
    "postal": "L3S7Z4",
    "result": []
  },
  {
    "postal": "L3S7B1",
    "result": []
  },
  {
    "postal": "L3S7P8",
    "result": []
  },
  {
    "postal": "L3S7N0",
    "result": []
  },
  {
    "postal": "L3S3Y5",
    "result": [
      {
        "electoralDistricts": [
          {
            "election": null,
            "id": 57,
            "name": "Markham—Thornhill"
          }
        ],
        "pollDivisionIds": [
          10143188
        ],
        "postalCode": "L3S3Y5",
        "streetName": "SOPHIA",
        "streetDirectionId": null,
        "streetTypeId": "RD",
        "placeName": "MARKHAM",
        "streetNameDisplayText": "SOPHIA RD, MARKHAM"
      }
    ]
  },
  {
    "postal": "L3S6K1",
    "result": []
  },
  {
    "postal": "L3S9X5",
    "result": []
  },
  {
    "postal": "L3S7S5",
    "result": []
  },
  {
    "postal": "L3S0A4",
    "result": [
      {
        "electoralDistricts": [
          {
            "election": null,
            "id": 57,
            "name": "Markham—Thornhill"
          }
        ],
        "pollDivisionIds": [
          10143189
        ],
        "postalCode": "L3S0A4",
        "streetName": "JACK MONKMAN",
        "streetDirectionId": null,
        "streetTypeId": "CRES",
        "placeName": "MARKHAM",
        "streetNameDisplayText": "JACK MONKMAN CRES, MARKHAM"
      }
    ]
  },
  {
    "postal": "L3S4T5",
    "result": [
      {
        "electoralDistricts": [
          {
            "election": null,
            "id": 57,
            "name": "Markham—Thornhill"
          }
        ],
        "pollDivisionIds": [
          10143186
        ],
        "postalCode": "L3S4T5",
        "streetName": "DENISON",
        "streetDirectionId": null,
        "streetTypeId": "ST",
        "placeName": "MARKHAM",
        "streetNameDisplayText": "DENISON ST, MARKHAM"
      },
      {
        "electoralDistricts": [
          {
            "election": null,
            "id": 57,
            "name": "Markham—Thornhill"
          }
        ],
        "pollDivisionIds": [
          10143186
        ],
        "postalCode": "L3S4T5",
        "streetName": "KUBA",
        "streetDirectionId": null,
        "streetTypeId": "WAY",
        "placeName": "MARKHAM",
        "streetNameDisplayText": "KUBA WAY, MARKHAM"
      },
      {
        "electoralDistricts": [
          {
            "election": null,
            "id": 57,
            "name": "Markham—Thornhill"
          }
        ],
        "pollDivisionIds": [
          10143186
        ],
        "postalCode": "L3S4T5",
        "streetName": "RED SEA",
        "streetDirectionId": null,
        "streetTypeId": "WAY",
        "placeName": "MARKHAM",
        "streetNameDisplayText": "RED SEA WAY, MARKHAM"
      }
    ]
  },
  {
    "postal": "L3S5K1",
    "result": []
  },
  {
    "postal": "L3S0Z9",
    "result": []
  },
  {
    "postal": "L3S7T2",
    "result": []
  },
  {
    "postal": "L3S1L5",
    "result": [
      {
        "electoralDistricts": [
          {
            "election": null,
            "id": 57,
            "name": "Markham—Thornhill"
          }
        ],
        "pollDivisionIds": [
          10143181
        ],
        "postalCode": "L3S1L5",
        "streetName": "SORRELL",
        "streetDirectionId": null,
        "streetTypeId": "CRES",
        "placeName": "MARKHAM",
        "streetNameDisplayText": "SORRELL CRES, MARKHAM"
      }
    ]
  },
  {
    "postal": "L3S3N5",
    "result": [
      {
        "electoralDistricts": [
          {
            "election": null,
            "id": 57,
            "name": "Markham—Thornhill"
          }
        ],
        "pollDivisionIds": [
          10143190
        ],
        "postalCode": "L3S3N5",
        "streetName": "LAIRD",
        "streetDirectionId": null,
        "streetTypeId": "DR",
        "placeName": "MARKHAM",
        "streetNameDisplayText": "LAIRD DR, MARKHAM"
      }
    ]
  },
  {
    "postal": "L3S6H4",
    "result": []
  },
  {
    "postal": "L3S5A5",
    "result": []
  },
  {
    "postal": "L3S3R9",
    "result": [
      {
        "electoralDistricts": [
          {
            "election": null,
            "id": 57,
            "name": "Markham—Thornhill"
          }
        ],
        "pollDivisionIds": [
          10143180
        ],
        "postalCode": "L3S3R9",
        "streetName": "TILLIE",
        "streetDirectionId": null,
        "streetTypeId": "SQ",
        "placeName": "MARKHAM",
        "streetNameDisplayText": "TILLIE SQ, MARKHAM"
      }
    ]
  },
  {
    "postal": "L3S7L8",
    "result": []
  },
  {
    "postal": "L3S6T6",
    "result": []
  },
  {
    "postal": "L3S7Y7",
    "result": []
  },
  {
    "postal": "L3S3M8",
    "result": [
      {
        "electoralDistricts": [
          {
            "election": null,
            "id": 57,
            "name": "Markham—Thornhill"
          }
        ],
        "pollDivisionIds": [
          10143185
        ],
        "postalCode": "L3S3M8",
        "streetName": "CLARION",
        "streetDirectionId": null,
        "streetTypeId": "CRES",
        "placeName": "MARKHAM",
        "streetNameDisplayText": "CLARION CRES, MARKHAM"
      },
      {
        "electoralDistricts": [
          {
            "election": null,
            "id": 57,
            "name": "Markham—Thornhill"
          }
        ],
        "pollDivisionIds": [
          10143185
        ],
        "postalCode": "L3S3M8",
        "streetName": "COPPARD",
        "streetDirectionId": null,
        "streetTypeId": "AVE",
        "placeName": "MARKHAM",
        "streetNameDisplayText": "COPPARD AVE, MARKHAM"
      }
    ]
  },
  {
    "postal": "L3S2E0",
    "result": []
  },
  {
    "postal": "L3S4B5",
    "result": [
      {
        "electoralDistricts": [
          {
            "election": null,
            "id": 56,
            "name": "Markham—Stouffville"
          }
        ],
        "pollDivisionIds": [
          10134358
        ],
        "postalCode": "L3S4B5",
        "streetName": "LEGACY",
        "streetDirectionId": null,
        "streetTypeId": "DR",
        "placeName": "MARKHAM",
        "streetNameDisplayText": "LEGACY DR, MARKHAM"
      },
      {
        "electoralDistricts": [
          {
            "election": null,
            "id": 56,
            "name": "Markham—Stouffville"
          }
        ],
        "pollDivisionIds": [
          10134358
        ],
        "postalCode": "L3S4B5",
        "streetName": "WHITE CEDAR",
        "streetDirectionId": null,
        "streetTypeId": "DR",
        "placeName": "MARKHAM",
        "streetNameDisplayText": "WHITE CEDAR DR, MARKHAM"
      }
    ]
  },
  {
    "postal": "L3S1J3",
    "result": [
      {
        "electoralDistricts": [
          {
            "election": null,
            "id": 57,
            "name": "Markham—Thornhill"
          }
        ],
        "pollDivisionIds": [
          10143181
        ],
        "postalCode": "L3S1J3",
        "streetName": "GALBRAITH",
        "streetDirectionId": null,
        "streetTypeId": "CRES",
        "placeName": "MARKHAM",
        "streetNameDisplayText": "GALBRAITH CRES, MARKHAM"
      }
    ]
  },
  {
    "postal": "L3S5S6",
    "result": []
  },
  {
    "postal": "L3S8P7",
    "result": []
  },
  {
    "postal": "L3S7S7",
    "result": []
  },
  {
    "postal": "L3S4C2",
    "result": [
      {
        "electoralDistricts": [
          {
            "election": null,
            "id": 56,
            "name": "Markham—Stouffville"
          }
        ],
        "pollDivisionIds": [
          10134358
        ],
        "postalCode": "L3S4C2",
        "streetName": "BLACK WALNUT",
        "streetDirectionId": null,
        "streetTypeId": "DR",
        "placeName": "MARKHAM",
        "streetNameDisplayText": "BLACK WALNUT DR, MARKHAM"
      },
      {
        "electoralDistricts": [
          {
            "election": null,
            "id": 56,
            "name": "Markham—Stouffville"
          }
        ],
        "pollDivisionIds": [
          10134358
        ],
        "postalCode": "L3S4C2",
        "streetName": "LADY FERN",
        "streetDirectionId": null,
        "streetTypeId": "DR",
        "placeName": "MARKHAM",
        "streetNameDisplayText": "LADY FERN DR, MARKHAM"
      },
      {
        "electoralDistricts": [
          {
            "election": null,
            "id": 56,
            "name": "Markham—Stouffville"
          }
        ],
        "pollDivisionIds": [
          10134358
        ],
        "postalCode": "L3S4C2",
        "streetName": "SILVERFLOWER",
        "streetDirectionId": null,
        "streetTypeId": "AVE",
        "placeName": "MARKHAM",
        "streetNameDisplayText": "SILVERFLOWER AVE, MARKHAM"
      }
    ]
  },
  {
    "postal": "L3S5Y0",
    "result": []
  },
  {
    "postal": "L3S2V7",
    "result": [
      {
        "electoralDistricts": [
          {
            "election": null,
            "id": 57,
            "name": "Markham—Thornhill"
          }
        ],
        "pollDivisionIds": [
          10143177
        ],
        "postalCode": "L3S2V7",
        "streetName": "BECKENRIDGE",
        "streetDirectionId": null,
        "streetTypeId": "DR",
        "placeName": "MARKHAM",
        "streetNameDisplayText": "BECKENRIDGE DR, MARKHAM"
      }
    ]
  },
  {
    "postal": "L3S8P5",
    "result": []
  },
  {
    "postal": "L3S5P5",
    "result": []
  },
  {
    "postal": "L3S5Z0",
    "result": []
  },
  {
    "postal": "L3S9B0",
    "result": []
  },
  {
    "postal": "L3S1L0",
    "result": []
  },
  {
    "postal": "L3S0B5",
    "result": [
      {
        "electoralDistricts": [
          {
            "election": null,
            "id": 57,
            "name": "Markham—Thornhill"
          }
        ],
        "pollDivisionIds": [
          10143189
        ],
        "postalCode": "L3S0B5",
        "streetName": "KARACHI",
        "streetDirectionId": null,
        "streetTypeId": "DR",
        "placeName": "MARKHAM",
        "streetNameDisplayText": "KARACHI DR, MARKHAM"
      },
      {
        "electoralDistricts": [
          {
            "election": null,
            "id": 57,
            "name": "Markham—Thornhill"
          }
        ],
        "pollDivisionIds": [
          10143189
        ],
        "postalCode": "L3S0B5",
        "streetName": "MARKHAM",
        "streetDirectionId": null,
        "streetTypeId": "RD",
        "placeName": "MARKHAM",
        "streetNameDisplayText": "MARKHAM RD, MARKHAM"
      },
      {
        "electoralDistricts": [
          {
            "election": null,
            "id": 57,
            "name": "Markham—Thornhill"
          }
        ],
        "pollDivisionIds": [
          10143189
        ],
        "postalCode": "L3S0B5",
        "streetName": "NEW DELHI",
        "streetDirectionId": null,
        "streetTypeId": "DR",
        "placeName": "MARKHAM",
        "streetNameDisplayText": "NEW DELHI DR, MARKHAM"
      }
    ]
  },
  {
    "postal": "L3S3L2",
    "result": [
      {
        "electoralDistricts": [
          {
            "election": null,
            "id": 57,
            "name": "Markham—Thornhill"
          }
        ],
        "pollDivisionIds": [
          10143181
        ],
        "postalCode": "L3S3L2",
        "streetName": "KYLA",
        "streetDirectionId": null,
        "streetTypeId": "CRES",
        "placeName": "MARKHAM",
        "streetNameDisplayText": "KYLA CRES, MARKHAM"
      }
    ]
  },
  {
    "postal": "L3S3B7",
    "result": [
      {
        "electoralDistricts": [
          {
            "election": null,
            "id": 57,
            "name": "Markham—Thornhill"
          }
        ],
        "pollDivisionIds": [
          10143190
        ],
        "postalCode": "L3S3B7",
        "streetName": "STOREY",
        "streetDirectionId": null,
        "streetTypeId": "PL",
        "placeName": "MARKHAM",
        "streetNameDisplayText": "STOREY PL, MARKHAM"
      }
    ]
  },
  {
    "postal": "L3S8L1",
    "result": []
  },
  {
    "postal": "L3S5M4",
    "result": []
  },
  {
    "postal": "L3S4G9",
    "result": [
      {
        "electoralDistricts": [
          {
            "election": null,
            "id": 57,
            "name": "Markham—Thornhill"
          }
        ],
        "pollDivisionIds": [
          10143189
        ],
        "postalCode": "L3S4G9",
        "streetName": "APOLLO",
        "streetDirectionId": null,
        "streetTypeId": "RD",
        "placeName": "MARKHAM",
        "streetNameDisplayText": "APOLLO RD, MARKHAM"
      },
      {
        "electoralDistricts": [
          {
            "election": null,
            "id": 57,
            "name": "Markham—Thornhill"
          }
        ],
        "pollDivisionIds": [
          10143189
        ],
        "postalCode": "L3S4G9",
        "streetName": "STELLA",
        "streetDirectionId": null,
        "streetTypeId": "DR",
        "placeName": "MARKHAM",
        "streetNameDisplayText": "STELLA DR, MARKHAM"
      }
    ]
  },
  {
    "postal": "L3S0P0",
    "result": []
  },
  {
    "postal": "L3S8G2",
    "result": []
  },
  {
    "postal": "L3S1V9",
    "result": [
      {
        "electoralDistricts": [
          {
            "election": null,
            "id": 57,
            "name": "Markham—Thornhill"
          }
        ],
        "pollDivisionIds": [
          10143181
        ],
        "postalCode": "L3S1V9",
        "streetName": "CARTMEL",
        "streetDirectionId": null,
        "streetTypeId": "DR",
        "placeName": "MARKHAM",
        "streetNameDisplayText": "CARTMEL DR, MARKHAM"
      }
    ]
  },
  {
    "postal": "L3S8N8",
    "result": []
  },
  {
    "postal": "L3S6S8",
    "result": []
  },
  {
    "postal": "L3S8H2",
    "result": []
  },
  {
    "postal": "L3S5R8",
    "result": []
  },
  {
    "postal": "L3S5L4",
    "result": []
  },
  {
    "postal": "L3S9E1",
    "result": []
  },
  {
    "postal": "L3S1C4",
    "result": [
      {
        "electoralDistricts": [
          {
            "election": null,
            "id": 57,
            "name": "Markham—Thornhill"
          }
        ],
        "pollDivisionIds": [
          10143181
        ],
        "postalCode": "L3S1C4",
        "streetName": "STATHER",
        "streetDirectionId": null,
        "streetTypeId": "CRES",
        "placeName": "MARKHAM",
        "streetNameDisplayText": "STATHER CRES, MARKHAM"
      }
    ]
  },
  {
    "postal": "L3S8W5",
    "result": []
  },
  {
    "postal": "L3S1Y4",
    "result": [
      {
        "electoralDistricts": [
          {
            "election": null,
            "id": 57,
            "name": "Markham—Thornhill"
          }
        ],
        "pollDivisionIds": [
          10143181,
          10143180
        ],
        "postalCode": "L3S1Y4",
        "streetName": "HIGHGLEN",
        "streetDirectionId": null,
        "streetTypeId": "AVE",
        "placeName": "MARKHAM",
        "streetNameDisplayText": "HIGHGLEN AVE, MARKHAM"
      }
    ]
  },
  {
    "postal": "L3S1C0",
    "result": []
  },
  {
    "postal": "L3S2J2",
    "result": [
      {
        "electoralDistricts": [
          {
            "election": null,
            "id": 57,
            "name": "Markham—Thornhill"
          }
        ],
        "pollDivisionIds": [
          10143186
        ],
        "postalCode": "L3S2J2",
        "streetName": "CHLOE",
        "streetDirectionId": null,
        "streetTypeId": "CRES",
        "placeName": "MARKHAM",
        "streetNameDisplayText": "CHLOE CRES, MARKHAM"
      }
    ]
  },
  {
    "postal": "L3S2J0",
    "result": []
  },
  {
    "postal": "L3S7A3",
    "result": []
  },
  {
    "postal": "L3S8M1",
    "result": []
  },
  {
    "postal": "L3S7T9",
    "result": []
  },
  {
    "postal": "L3S6C0",
    "result": []
  },
  {
    "postal": "L3S7X1",
    "result": []
  },
  {
    "postal": "L3S0G1",
    "result": []
  },
  {
    "postal": "L3S4X2",
    "result": []
  },
  {
    "postal": "L3S0N6",
    "result": []
  },
  {
    "postal": "L3S8E3",
    "result": []
  },
  {
    "postal": "L3S5S8",
    "result": []
  },
  {
    "postal": "L3S0R0",
    "result": []
  },
  {
    "postal": "L3S6J6",
    "result": []
  },
  {
    "postal": "L3S4B4",
    "result": [
      {
        "electoralDistricts": [
          {
            "election": null,
            "id": 56,
            "name": "Markham—Stouffville"
          }
        ],
        "pollDivisionIds": [
          10134358
        ],
        "postalCode": "L3S4B4",
        "streetName": "ROCK DOVE",
        "streetDirectionId": null,
        "streetTypeId": "AVE",
        "placeName": "MARKHAM",
        "streetNameDisplayText": "ROCK DOVE AVE, MARKHAM"
      },
      {
        "electoralDistricts": [
          {
            "election": null,
            "id": 56,
            "name": "Markham—Stouffville"
          }
        ],
        "pollDivisionIds": [
          10134358
        ],
        "postalCode": "L3S4B4",
        "streetName": "WHITE CEDAR",
        "streetDirectionId": null,
        "streetTypeId": "DR",
        "placeName": "MARKHAM",
        "streetNameDisplayText": "WHITE CEDAR DR, MARKHAM"
      }
    ]
  },
  {
    "postal": "L3S7E3",
    "result": []
  },
  {
    "postal": "L3S3N6",
    "result": [
      {
        "electoralDistricts": [
          {
            "election": null,
            "id": 57,
            "name": "Markham—Thornhill"
          }
        ],
        "pollDivisionIds": [
          10143190
        ],
        "postalCode": "L3S3N6",
        "streetName": "LAIRD",
        "streetDirectionId": null,
        "streetTypeId": "DR",
        "placeName": "MARKHAM",
        "streetNameDisplayText": "LAIRD DR, MARKHAM"
      }
    ]
  },
  {
    "postal": "L3S3X6",
    "result": [
      {
        "electoralDistricts": [
          {
            "election": null,
            "id": 57,
            "name": "Markham—Thornhill"
          }
        ],
        "pollDivisionIds": [
          10143192
        ],
        "postalCode": "L3S3X6",
        "streetName": "HAVELOCK",
        "streetDirectionId": null,
        "streetTypeId": "GATE",
        "placeName": "MARKHAM",
        "streetNameDisplayText": "HAVELOCK GATE, MARKHAM"
      },
      {
        "electoralDistricts": [
          {
            "election": null,
            "id": 57,
            "name": "Markham—Thornhill"
          }
        ],
        "pollDivisionIds": [
          10143192
        ],
        "postalCode": "L3S3X6",
        "streetName": "TEVERSHAM",
        "streetDirectionId": null,
        "streetTypeId": "CRT",
        "placeName": "MARKHAM",
        "streetNameDisplayText": "TEVERSHAM CRT, MARKHAM"
      }
    ]
  },
  {
    "postal": "L3S8L0",
    "result": []
  },
  {
    "postal": "L3S8N1",
    "result": []
  },
  {
    "postal": "L3S4J0",
    "result": []
  },
  {
    "postal": "L3S0X7",
    "result": []
  },
  {
    "postal": "L3S6S4",
    "result": []
  },
  {
    "postal": "L3S0Z0",
    "result": []
  },
  {
    "postal": "L3S9X8",
    "result": []
  },
  {
    "postal": "L3S3H3",
    "result": [
      {
        "electoralDistricts": [
          {
            "election": null,
            "id": 57,
            "name": "Markham—Thornhill"
          }
        ],
        "pollDivisionIds": [
          10143180
        ],
        "postalCode": "L3S3H3",
        "streetName": "CALDBECK",
        "streetDirectionId": null,
        "streetTypeId": "AVE",
        "placeName": "MARKHAM",
        "streetNameDisplayText": "CALDBECK AVE, MARKHAM"
      },
      {
        "electoralDistricts": [
          {
            "election": null,
            "id": 57,
            "name": "Markham—Thornhill"
          }
        ],
        "pollDivisionIds": [
          10143180
        ],
        "postalCode": "L3S3H3",
        "streetName": "WINCANTON",
        "streetDirectionId": null,
        "streetTypeId": "RD",
        "placeName": "MARKHAM",
        "streetNameDisplayText": "WINCANTON RD, MARKHAM"
      }
    ]
  },
  {
    "postal": "L3S7S2",
    "result": []
  },
  {
    "postal": "L3S3T3",
    "result": [
      {
        "electoralDistricts": [
          {
            "election": null,
            "id": 57,
            "name": "Markham—Thornhill"
          }
        ],
        "pollDivisionIds": [
          10143191
        ],
        "postalCode": "L3S3T3",
        "streetName": "QUINCE",
        "streetDirectionId": null,
        "streetTypeId": "CRES",
        "placeName": "MARKHAM",
        "streetNameDisplayText": "QUINCE CRES, MARKHAM"
      },
      {
        "electoralDistricts": [
          {
            "election": null,
            "id": 57,
            "name": "Markham—Thornhill"
          }
        ],
        "pollDivisionIds": [
          10143191
        ],
        "postalCode": "L3S3T3",
        "streetName": "RUSHMORE",
        "streetDirectionId": null,
        "streetTypeId": "CRT",
        "placeName": "MARKHAM",
        "streetNameDisplayText": "RUSHMORE CRT, MARKHAM"
      }
    ]
  },
  {
    "postal": "L3S9P3",
    "result": []
  },
  {
    "postal": "L3S4H8",
    "result": [
      {
        "electoralDistricts": [
          {
            "election": null,
            "id": 57,
            "name": "Markham—Thornhill"
          }
        ],
        "pollDivisionIds": [
          10143184
        ],
        "postalCode": "L3S4H8",
        "streetName": "CLIFTON",
        "streetDirectionId": null,
        "streetTypeId": "CRT",
        "placeName": "MARKHAM",
        "streetNameDisplayText": "CLIFTON CRT, MARKHAM"
      },
      {
        "electoralDistricts": [
          {
            "election": null,
            "id": 57,
            "name": "Markham—Thornhill"
          }
        ],
        "pollDivisionIds": [
          10143184
        ],
        "postalCode": "L3S4H8",
        "streetName": "NESSIE",
        "streetDirectionId": null,
        "streetTypeId": "ST",
        "placeName": "MARKHAM",
        "streetNameDisplayText": "NESSIE ST, MARKHAM"
      }
    ]
  },
  {
    "postal": "L3S6R1",
    "result": []
  },
  {
    "postal": "L3S1S0",
    "result": []
  },
  {
    "postal": "L3S3W8",
    "result": [
      {
        "electoralDistricts": [
          {
            "election": null,
            "id": 57,
            "name": "Markham—Thornhill"
          }
        ],
        "pollDivisionIds": [
          10143191
        ],
        "postalCode": "L3S3W8",
        "streetName": "CRESANE",
        "streetDirectionId": null,
        "streetTypeId": "ST",
        "placeName": "MARKHAM",
        "streetNameDisplayText": "CRESANE ST, MARKHAM"
      },
      {
        "electoralDistricts": [
          {
            "election": null,
            "id": 57,
            "name": "Markham—Thornhill"
          }
        ],
        "pollDivisionIds": [
          10143191
        ],
        "postalCode": "L3S3W8",
        "streetName": "QUINCE",
        "streetDirectionId": null,
        "streetTypeId": "CRES",
        "placeName": "MARKHAM",
        "streetNameDisplayText": "QUINCE CRES, MARKHAM"
      }
    ]
  },
  {
    "postal": "L3S4S3",
    "result": [
      {
        "electoralDistricts": [
          {
            "election": null,
            "id": 57,
            "name": "Markham—Thornhill"
          }
        ],
        "pollDivisionIds": [
          10143189
        ],
        "postalCode": "L3S4S3",
        "streetName": "EASTVALE",
        "streetDirectionId": null,
        "streetTypeId": "DR",
        "placeName": "MARKHAM",
        "streetNameDisplayText": "EASTVALE DR, MARKHAM"
      },
      {
        "electoralDistricts": [
          {
            "election": null,
            "id": 57,
            "name": "Markham—Thornhill"
          }
        ],
        "pollDivisionIds": [
          10143189
        ],
        "postalCode": "L3S4S3",
        "streetName": "ELSON",
        "streetDirectionId": null,
        "streetTypeId": "ST",
        "placeName": "MARKHAM",
        "streetNameDisplayText": "ELSON ST, MARKHAM"
      }
    ]
  },
  {
    "postal": "L3S1B6",
    "result": []
  },
  {
    "postal": "L3S8R3",
    "result": []
  },
  {
    "postal": "L3S4V9",
    "result": []
  },
  {
    "postal": "L3S9W4",
    "result": []
  },
  {
    "postal": "L3S3T4",
    "result": [
      {
        "electoralDistricts": [
          {
            "election": null,
            "id": 57,
            "name": "Markham—Thornhill"
          }
        ],
        "pollDivisionIds": [
          10143191
        ],
        "postalCode": "L3S3T4",
        "streetName": "HORSTMAN",
        "streetDirectionId": null,
        "streetTypeId": "ST",
        "placeName": "MARKHAM",
        "streetNameDisplayText": "HORSTMAN ST, MARKHAM"
      },
      {
        "electoralDistricts": [
          {
            "election": null,
            "id": 57,
            "name": "Markham—Thornhill"
          }
        ],
        "pollDivisionIds": [
          10143191
        ],
        "postalCode": "L3S3T4",
        "streetName": "ROXBURY",
        "streetDirectionId": null,
        "streetTypeId": "ST",
        "placeName": "MARKHAM",
        "streetNameDisplayText": "ROXBURY ST, MARKHAM"
      }
    ]
  },
  {
    "postal": "L3S5C7",
    "result": []
  },
  {
    "postal": "L3S3Y1",
    "result": [
      {
        "electoralDistricts": [
          {
            "election": null,
            "id": 57,
            "name": "Markham—Thornhill"
          }
        ],
        "pollDivisionIds": [
          10143182
        ],
        "postalCode": "L3S3Y1",
        "streetName": "CAIRNCROSS",
        "streetDirectionId": null,
        "streetTypeId": "CRES",
        "placeName": "MARKHAM",
        "streetNameDisplayText": "CAIRNCROSS CRES, MARKHAM"
      },
      {
        "electoralDistricts": [
          {
            "election": null,
            "id": 57,
            "name": "Markham—Thornhill"
          }
        ],
        "pollDivisionIds": [
          10143182
        ],
        "postalCode": "L3S3Y1",
        "streetName": "HILLCROFT",
        "streetDirectionId": null,
        "streetTypeId": "DR",
        "placeName": "MARKHAM",
        "streetNameDisplayText": "HILLCROFT DR, MARKHAM"
      }
    ]
  },
  {
    "postal": "L3S5V0",
    "result": []
  },
  {
    "postal": "L3S8G8",
    "result": []
  },
  {
    "postal": "L3S8B1",
    "result": []
  },
  {
    "postal": "L3S4P5",
    "result": [
      {
        "electoralDistricts": [
          {
            "election": null,
            "id": 57,
            "name": "Markham—Thornhill"
          }
        ],
        "pollDivisionIds": [
          10143189
        ],
        "postalCode": "L3S4P5",
        "streetName": "BILLINGSLEY",
        "streetDirectionId": null,
        "streetTypeId": "CRES",
        "placeName": "MARKHAM",
        "streetNameDisplayText": "BILLINGSLEY CRES, MARKHAM"
      }
    ]
  },
  {
    "postal": "L3S7B2",
    "result": []
  },
  {
    "postal": "L3S0R2",
    "result": []
  },
  {
    "postal": "L3S4M4",
    "result": [
      {
        "electoralDistricts": [
          {
            "election": null,
            "id": 57,
            "name": "Markham—Thornhill"
          }
        ],
        "pollDivisionIds": [
          10143189
        ],
        "postalCode": "L3S4M4",
        "streetName": "14TH",
        "streetDirectionId": null,
        "streetTypeId": "AVE",
        "placeName": "MARKHAM",
        "streetNameDisplayText": "14TH AVE, MARKHAM"
      }
    ]
  },
  {
    "postal": "L3S7M4",
    "result": []
  },
  {
    "postal": "L3S9S7",
    "result": []
  },
  {
    "postal": "L3S5Z7",
    "result": []
  },
  {
    "postal": "L3S7J7",
    "result": []
  },
  {
    "postal": "L3S8R8",
    "result": []
  },
  {
    "postal": "L3S9X1",
    "result": []
  },
  {
    "postal": "L3S5M9",
    "result": []
  },
  {
    "postal": "L3S9B4",
    "result": []
  },
  {
    "postal": "L3S0L9",
    "result": []
  },
  {
    "postal": "L3S9G4",
    "result": []
  },
  {
    "postal": "L3S1J4",
    "result": [
      {
        "electoralDistricts": [
          {
            "election": null,
            "id": 57,
            "name": "Markham—Thornhill"
          }
        ],
        "pollDivisionIds": [
          10143181
        ],
        "postalCode": "L3S1J4",
        "streetName": "GALBRAITH",
        "streetDirectionId": null,
        "streetTypeId": "CRES",
        "placeName": "MARKHAM",
        "streetNameDisplayText": "GALBRAITH CRES, MARKHAM"
      }
    ]
  },
  {
    "postal": "L3S0W6",
    "result": []
  }
]
