[
  {
    "postal": "N5P9J6",
    "result": []
  },
  {
    "postal": "N5P9Z5",
    "result": []
  },
  {
    "postal": "N5P7H8",
    "result": []
  },
  {
    "postal": "N5P0P6",
    "result": []
  },
  {
    "postal": "N5P0S7",
    "result": []
  },
  {
    "postal": "N5P8B9",
    "result": []
  },
  {
    "postal": "N5P2A6",
    "result": [
      {
        "electoralDistricts": [
          {
            "election": null,
            "id": 26,
            "name": "Elgin—Middlesex—London"
          }
        ],
        "pollDivisionIds": [
          10143142
        ],
        "postalCode": "N5P2A6",
        "streetName": "DANIEL",
        "streetDirectionId": null,
        "streetTypeId": "ST",
        "placeName": "ST THOMAS",
        "streetNameDisplayText": "DANIEL ST, ST THOMAS"
      }
    ]
  },
  {
    "postal": "N5P7V2",
    "result": []
  },
  {
    "postal": "N5P9P4",
    "result": []
  },
  {
    "postal": "N5P6G0",
    "result": []
  },
  {
    "postal": "N5P2K0",
    "result": []
  },
  {
    "postal": "N5P7N6",
    "result": []
  },
  {
    "postal": "N5P5R3",
    "result": []
  },
  {
    "postal": "N5P7K0",
    "result": []
  },
  {
    "postal": "N5P3R2",
    "result": [
      {
        "electoralDistricts": [
          {
            "election": null,
            "id": 26,
            "name": "Elgin—Middlesex—London"
          }
        ],
        "pollDivisionIds": [
          10137992
        ],
        "postalCode": "N5P3R2",
        "streetName": "CURRAH",
        "streetDirectionId": null,
        "streetTypeId": "RD",
        "placeName": "ST THOMAS",
        "streetNameDisplayText": "CURRAH RD, ST THOMAS"
      }
    ]
  },
  {
    "postal": "N5P0J1",
    "result": []
  },
  {
    "postal": "N5P0B0",
    "result": []
  },
  {
    "postal": "N5P5Z2",
    "result": []
  },
  {
    "postal": "N5P7P3",
    "result": []
  },
  {
    "postal": "N5P2K3",
    "result": [
      {
        "electoralDistricts": [
          {
            "election": null,
            "id": 26,
            "name": "Elgin—Middlesex—London"
          }
        ],
        "pollDivisionIds": [
          10143140
        ],
        "postalCode": "N5P2K3",
        "streetName": "CRESCENT",
        "streetDirectionId": null,
        "streetTypeId": "AVE",
        "placeName": "ST THOMAS",
        "streetNameDisplayText": "CRESCENT AVE, ST THOMAS"
      }
    ]
  },
  {
    "postal": "N5P7Y6",
    "result": []
  },
  {
    "postal": "N5P1L9",
    "result": [
      {
        "electoralDistricts": [
          {
            "election": null,
            "id": 26,
            "name": "Elgin—Middlesex—London"
          }
        ],
        "pollDivisionIds": [
          10143142
        ],
        "postalCode": "N5P1L9",
        "streetName": "MALAKOFF",
        "streetDirectionId": null,
        "streetTypeId": "ST",
        "placeName": "ST THOMAS",
        "streetNameDisplayText": "MALAKOFF ST, ST THOMAS"
      }
    ]
  },
  {
    "postal": "N5P8T0",
    "result": []
  },
  {
    "postal": "N5P3K8",
    "result": [
      {
        "electoralDistricts": [
          {
            "election": null,
            "id": 26,
            "name": "Elgin—Middlesex—London"
          }
        ],
        "pollDivisionIds": [
          10143142
        ],
        "postalCode": "N5P3K8",
        "streetName": "WOODWORTH",
        "streetDirectionId": null,
        "streetTypeId": "AVE",
        "placeName": "ST THOMAS",
        "streetNameDisplayText": "WOODWORTH AVE, ST THOMAS"
      }
    ]
  },
  {
    "postal": "N5P5W9",
    "result": []
  },
  {
    "postal": "N5P6T9",
    "result": []
  },
  {
    "postal": "N5P4H1",
    "result": [
      {
        "electoralDistricts": [
          {
            "election": null,
            "id": 26,
            "name": "Elgin—Middlesex—London"
          }
        ],
        "pollDivisionIds": [
          10143141
        ],
        "postalCode": "N5P4H1",
        "streetName": "BURWELL",
        "streetDirectionId": null,
        "streetTypeId": "RD",
        "placeName": "ST THOMAS",
        "streetNameDisplayText": "BURWELL RD, ST THOMAS"
      }
    ]
  },
  {
    "postal": "N5P7A2",
    "result": []
  },
  {
    "postal": "N5P5G0",
    "result": []
  },
  {
    "postal": "N5P8V5",
    "result": []
  },
  {
    "postal": "N5P2Y8",
    "result": [
      {
        "electoralDistricts": [
          {
            "election": null,
            "id": 26,
            "name": "Elgin—Middlesex—London"
          }
        ],
        "pollDivisionIds": [
          10143142
        ],
        "postalCode": "N5P2Y8",
        "streetName": "HUGHES",
        "streetDirectionId": null,
        "streetTypeId": "ST",
        "placeName": "ST THOMAS",
        "streetNameDisplayText": "HUGHES ST, ST THOMAS"
      }
    ]
  },
  {
    "postal": "N5P2B6",
    "result": [
      {
        "electoralDistricts": [
          {
            "election": null,
            "id": 26,
            "name": "Elgin—Middlesex—London"
          }
        ],
        "pollDivisionIds": [
          10143142
        ],
        "postalCode": "N5P2B6",
        "streetName": "HAMMOND",
        "streetDirectionId": null,
        "streetTypeId": "ST",
        "placeName": "ST THOMAS",
        "streetNameDisplayText": "HAMMOND ST, ST THOMAS"
      }
    ]
  },
  {
    "postal": "N5P4W8",
    "result": []
  },
  {
    "postal": "N5P8H7",
    "result": []
  },
  {
    "postal": "N5P5P1",
    "result": []
  },
  {
    "postal": "N5P2B8",
    "result": [
      {
        "electoralDistricts": [
          {
            "election": null,
            "id": 26,
            "name": "Elgin—Middlesex—London"
          }
        ],
        "pollDivisionIds": [
          10143142
        ],
        "postalCode": "N5P2B8",
        "streetName": "HAMMOND",
        "streetDirectionId": null,
        "streetTypeId": "ST",
        "placeName": "ST THOMAS",
        "streetNameDisplayText": "HAMMOND ST, ST THOMAS"
      }
    ]
  },
  {
    "postal": "N5P0P2",
    "result": []
  },
  {
    "postal": "N5P9M1",
    "result": []
  },
  {
    "postal": "N5P3G0",
    "result": []
  },
  {
    "postal": "N5P9Z2",
    "result": []
  },
  {
    "postal": "N5P2A0",
    "result": []
  },
  {
    "postal": "N5P6Y0",
    "result": []
  },
  {
    "postal": "N5P2Z8",
    "result": [
      {
        "electoralDistricts": [
          {
            "election": null,
            "id": 26,
            "name": "Elgin—Middlesex—London"
          }
        ],
        "pollDivisionIds": [
          10143142
        ],
        "postalCode": "N5P2Z8",
        "streetName": "HUGHES",
        "streetDirectionId": null,
        "streetTypeId": "ST",
        "placeName": "ST THOMAS",
        "streetNameDisplayText": "HUGHES ST, ST THOMAS"
      }
    ]
  },
  {
    "postal": "N5P7Y3",
    "result": []
  },
  {
    "postal": "N5P6Z5",
    "result": []
  },
  {
    "postal": "N5P6E0",
    "result": []
  },
  {
    "postal": "N5P9B7",
    "result": []
  },
  {
    "postal": "N5P9S5",
    "result": []
  },
  {
    "postal": "N5P3X3",
    "result": [
      {
        "electoralDistricts": [
          {
            "election": null,
            "id": 26,
            "name": "Elgin—Middlesex—London"
          }
        ],
        "pollDivisionIds": [
          10143141
        ],
        "postalCode": "N5P3X3",
        "streetName": "NORTHWOOD",
        "streetDirectionId": null,
        "streetTypeId": "PL",
        "placeName": "ST THOMAS",
        "streetNameDisplayText": "NORTHWOOD PL, ST THOMAS"
      }
    ]
  },
  {
    "postal": "N5P7R5",
    "result": []
  },
  {
    "postal": "N5P2X3",
    "result": [
      {
        "electoralDistricts": [
          {
            "election": null,
            "id": 26,
            "name": "Elgin—Middlesex—London"
          }
        ],
        "pollDivisionIds": [
          10143142
        ],
        "postalCode": "N5P2X3",
        "streetName": "JOHN",
        "streetDirectionId": null,
        "streetTypeId": "ST",
        "placeName": "ST THOMAS",
        "streetNameDisplayText": "JOHN ST, ST THOMAS"
      }
    ]
  },
  {
    "postal": "N5P8Z9",
    "result": []
  },
  {
    "postal": "N5P0N4",
    "result": []
  },
  {
    "postal": "N5P1K1",
    "result": [
      {
        "electoralDistricts": [
          {
            "election": null,
            "id": 26,
            "name": "Elgin—Middlesex—London"
          }
        ],
        "pollDivisionIds": [
          10143316
        ],
        "postalCode": "N5P1K1",
        "streetName": "SCOTT",
        "streetDirectionId": null,
        "streetTypeId": "ST",
        "placeName": "ST THOMAS",
        "streetNameDisplayText": "SCOTT ST, ST THOMAS"
      }
    ]
  },
  {
    "postal": "N5P1S3",
    "result": [
      {
        "electoralDistricts": [
          {
            "election": null,
            "id": 26,
            "name": "Elgin—Middlesex—London"
          }
        ],
        "pollDivisionIds": [
          10143316
        ],
        "postalCode": "N5P1S3",
        "streetName": "ANTRIM",
        "streetDirectionId": null,
        "streetTypeId": "ST",
        "placeName": "ST THOMAS",
        "streetNameDisplayText": "ANTRIM ST, ST THOMAS"
      }
    ]
  },
  {
    "postal": "N5P6M4",
    "result": []
  },
  {
    "postal": "N5P9A9",
    "result": []
  },
  {
    "postal": "N5P9Z9",
    "result": []
  },
  {
    "postal": "N5P6T4",
    "result": []
  },
  {
    "postal": "N5P0B2",
    "result": [
      {
        "electoralDistricts": [
          {
            "election": null,
            "id": 26,
            "name": "Elgin—Middlesex—London"
          }
        ],
        "pollDivisionIds": [
          10137989
        ],
        "postalCode": "N5P0B2",
        "streetName": "ALDERWOOD",
        "streetDirectionId": null,
        "streetTypeId": "CRT",
        "placeName": "ST THOMAS",
        "streetNameDisplayText": "ALDERWOOD CRT, ST THOMAS"
      },
      {
        "electoralDistricts": [
          {
            "election": null,
            "id": 26,
            "name": "Elgin—Middlesex—London"
          }
        ],
        "pollDivisionIds": [
          10137989
        ],
        "postalCode": "N5P0B2",
        "streetName": "CIRCLEWOOD",
        "streetDirectionId": null,
        "streetTypeId": "DR",
        "placeName": "ST THOMAS",
        "streetNameDisplayText": "CIRCLEWOOD DR, ST THOMAS"
      },
      {
        "electoralDistricts": [
          {
            "election": null,
            "id": 26,
            "name": "Elgin—Middlesex—London"
          }
        ],
        "pollDivisionIds": [
          10137989
        ],
        "postalCode": "N5P0B2",
        "streetName": "PINE VALLEY",
        "streetDirectionId": null,
        "streetTypeId": "DR",
        "placeName": "ST THOMAS",
        "streetNameDisplayText": "PINE VALLEY DR, ST THOMAS"
      }
    ]
  },
  {
    "postal": "N5P2L9",
    "result": [
      {
        "electoralDistricts": [
          {
            "election": null,
            "id": 26,
            "name": "Elgin—Middlesex—London"
          }
        ],
        "pollDivisionIds": [
          10143316
        ],
        "postalCode": "N5P2L9",
        "streetName": "ST GEORGE",
        "streetDirectionId": null,
        "streetTypeId": "ST",
        "placeName": "ST THOMAS",
        "streetNameDisplayText": "ST GEORGE ST, ST THOMAS"
      },
      {
        "electoralDistricts": [
          {
            "election": null,
            "id": 26,
            "name": "Elgin—Middlesex—London"
          }
        ],
        "pollDivisionIds": [
          10143316
        ],
        "postalCode": "N5P2L9",
        "streetName": "ST. GEORGE",
        "streetDirectionId": null,
        "streetTypeId": "ST",
        "placeName": "ST THOMAS",
        "streetNameDisplayText": "ST. GEORGE ST, ST THOMAS"
      }
    ]
  },
  {
    "postal": "N5P8K9",
    "result": []
  },
  {
    "postal": "N5P2H9",
    "result": [
      {
        "electoralDistricts": [
          {
            "election": null,
            "id": 26,
            "name": "Elgin—Middlesex—London"
          }
        ],
        "pollDivisionIds": [
          10143141
        ],
        "postalCode": "N5P2H9",
        "streetName": "HANDFORD",
        "streetDirectionId": null,
        "streetTypeId": "PL",
        "placeName": "ST THOMAS",
        "streetNameDisplayText": "HANDFORD PL, ST THOMAS"
      }
    ]
  },
  {
    "postal": "N5P3Z6",
    "result": [
      {
        "electoralDistricts": [
          {
            "election": null,
            "id": 26,
            "name": "Elgin—Middlesex—London"
          }
        ],
        "pollDivisionIds": [
          10143142
        ],
        "postalCode": "N5P3Z6",
        "streetName": "HAMMOND",
        "streetDirectionId": null,
        "streetTypeId": "ST",
        "placeName": "ST THOMAS",
        "streetNameDisplayText": "HAMMOND ST, ST THOMAS"
      }
    ]
  },
  {
    "postal": "N5P3B0",
    "result": []
  },
  {
    "postal": "N5P2H8",
    "result": [
      {
        "electoralDistricts": [
          {
            "election": null,
            "id": 26,
            "name": "Elgin—Middlesex—London"
          }
        ],
        "pollDivisionIds": [
          10143141
        ],
        "postalCode": "N5P2H8",
        "streetName": "HANDFORD",
        "streetDirectionId": null,
        "streetTypeId": "PL",
        "placeName": "ST THOMAS",
        "streetNameDisplayText": "HANDFORD PL, ST THOMAS"
      }
    ]
  },
  {
    "postal": "N5P3X2",
    "result": [
      {
        "electoralDistricts": [
          {
            "election": null,
            "id": 26,
            "name": "Elgin—Middlesex—London"
          }
        ],
        "pollDivisionIds": [
          10143141
        ],
        "postalCode": "N5P3X2",
        "streetName": "LOCKE",
        "streetDirectionId": null,
        "streetTypeId": "AVE",
        "placeName": "ST THOMAS",
        "streetNameDisplayText": "LOCKE AVE, ST THOMAS"
      }
    ]
  },
  {
    "postal": "N5P2E9",
    "result": [
      {
        "electoralDistricts": [
          {
            "election": null,
            "id": 26,
            "name": "Elgin—Middlesex—London"
          }
        ],
        "pollDivisionIds": [
          10143142
        ],
        "postalCode": "N5P2E9",
        "streetName": "JOHNSON",
        "streetDirectionId": null,
        "streetTypeId": "PL",
        "placeName": "ST THOMAS",
        "streetNameDisplayText": "JOHNSON PL, ST THOMAS"
      }
    ]
  },
  {
    "postal": "N5P9P6",
    "result": []
  },
  {
    "postal": "N5P9E2",
    "result": []
  },
  {
    "postal": "N5P9H2",
    "result": []
  },
  {
    "postal": "N5P1S8",
    "result": [
      {
        "electoralDistricts": [
          {
            "election": null,
            "id": 26,
            "name": "Elgin—Middlesex—London"
          }
        ],
        "pollDivisionIds": [
          10143316
        ],
        "postalCode": "N5P1S8",
        "streetName": "OWAISSA",
        "streetDirectionId": null,
        "streetTypeId": "ST",
        "placeName": "ST THOMAS",
        "streetNameDisplayText": "OWAISSA ST, ST THOMAS"
      }
    ]
  },
  {
    "postal": "N5P3M6",
    "result": [
      {
        "electoralDistricts": [
          {
            "election": null,
            "id": 26,
            "name": "Elgin—Middlesex—London"
          }
        ],
        "pollDivisionIds": [
          10143142
        ],
        "postalCode": "N5P3M6",
        "streetName": "JOYCE",
        "streetDirectionId": null,
        "streetTypeId": "ST",
        "placeName": "ST THOMAS",
        "streetNameDisplayText": "JOYCE ST, ST THOMAS"
      }
    ]
  },
  {
    "postal": "N5P6Z8",
    "result": []
  },
  {
    "postal": "N5P4J2",
    "result": [
      {
        "electoralDistricts": [
          {
            "election": null,
            "id": 26,
            "name": "Elgin—Middlesex—London"
          }
        ],
        "pollDivisionIds": [
          10143141,
          10137989
        ],
        "postalCode": "N5P4J2",
        "streetName": "PONSFORD",
        "streetDirectionId": null,
        "streetTypeId": "PL",
        "placeName": "ST THOMAS",
        "streetNameDisplayText": "PONSFORD PL, ST THOMAS"
      }
    ]
  },
  {
    "postal": "N5P9Y1",
    "result": []
  },
  {
    "postal": "N5P8V6",
    "result": []
  },
  {
    "postal": "N5P6B2",
    "result": []
  },
  {
    "postal": "N5P1P8",
    "result": [
      {
        "electoralDistricts": [
          {
            "election": null,
            "id": 26,
            "name": "Elgin—Middlesex—London"
          }
        ],
        "pollDivisionIds": [
          10143316
        ],
        "postalCode": "N5P1P8",
        "streetName": "EAGLE",
        "streetDirectionId": null,
        "streetTypeId": "ST",
        "placeName": "ST THOMAS",
        "streetNameDisplayText": "EAGLE ST, ST THOMAS"
      }
    ]
  },
  {
    "postal": "N5P0V8",
    "result": []
  },
  {
    "postal": "N5P4Y0",
    "result": []
  },
  {
    "postal": "N5P2T4",
    "result": [
      {
        "electoralDistricts": [
          {
            "election": null,
            "id": 26,
            "name": "Elgin—Middlesex—London"
          }
        ],
        "pollDivisionIds": [
          10143316
        ],
        "postalCode": "N5P2T4",
        "streetName": "HIAWATHA",
        "streetDirectionId": null,
        "streetTypeId": "ST",
        "placeName": "ST THOMAS",
        "streetNameDisplayText": "HIAWATHA ST, ST THOMAS"
      }
    ]
  },
  {
    "postal": "N5P2S3",
    "result": [
      {
        "electoralDistricts": [
          {
            "election": null,
            "id": 26,
            "name": "Elgin—Middlesex—London"
          }
        ],
        "pollDivisionIds": [
          10143316,
          10137993
        ],
        "postalCode": "N5P2S3",
        "streetName": "MARY",
        "streetDirectionId": "W",
        "streetTypeId": "ST",
        "placeName": "ST THOMAS",
        "streetNameDisplayText": "MARY ST W, ST THOMAS"
      }
    ]
  },
  {
    "postal": "N5P0K0",
    "result": []
  },
  {
    "postal": "N5P5N1",
    "result": []
  },
  {
    "postal": "N5P7T0",
    "result": []
  },
  {
    "postal": "N5P9N2",
    "result": []
  },
  {
    "postal": "N5P5L1",
    "result": []
  },
  {
    "postal": "N5P7G5",
    "result": []
  },
  {
    "postal": "N5P6K2",
    "result": []
  },
  {
    "postal": "N5P6P9",
    "result": []
  },
  {
    "postal": "N5P0E6",
    "result": []
  },
  {
    "postal": "N5P8R9",
    "result": []
  },
  {
    "postal": "N5P3G9",
    "result": [
      {
        "electoralDistricts": [
          {
            "election": null,
            "id": 26,
            "name": "Elgin—Middlesex—London"
          }
        ],
        "pollDivisionIds": [
          10143142
        ],
        "postalCode": "N5P3G9",
        "streetName": "INKERMAN",
        "streetDirectionId": null,
        "streetTypeId": "ST",
        "placeName": "ST THOMAS",
        "streetNameDisplayText": "INKERMAN ST, ST THOMAS"
      }
    ]
  },
  {
    "postal": "N5P0V7",
    "result": []
  },
  {
    "postal": "N5P2Z1",
    "result": [
      {
        "electoralDistricts": [
          {
            "election": null,
            "id": 26,
            "name": "Elgin—Middlesex—London"
          }
        ],
        "pollDivisionIds": [
          10143142
        ],
        "postalCode": "N5P2Z1",
        "streetName": "HUGHES",
        "streetDirectionId": null,
        "streetTypeId": "ST",
        "placeName": "ST THOMAS",
        "streetNameDisplayText": "HUGHES ST, ST THOMAS"
      }
    ]
  },
  {
    "postal": "N5P7N1",
    "result": []
  },
  {
    "postal": "N5P3C6",
    "result": [
      {
        "electoralDistricts": [
          {
            "election": null,
            "id": 26,
            "name": "Elgin—Middlesex—London"
          }
        ],
        "pollDivisionIds": [
          10143142
        ],
        "postalCode": "N5P3C6",
        "streetName": "BALACLAVA",
        "streetDirectionId": null,
        "streetTypeId": "ST",
        "placeName": "ST THOMAS",
        "streetNameDisplayText": "BALACLAVA ST, ST THOMAS"
      }
    ]
  },
  {
    "postal": "N5P4M1",
    "result": [
      {
        "electoralDistricts": [
          {
            "election": null,
            "id": 26,
            "name": "Elgin—Middlesex—London"
          }
        ],
        "pollDivisionIds": [
          10137976
        ],
        "postalCode": "N5P4M1",
        "streetName": "HIGHBURY",
        "streetDirectionId": null,
        "streetTypeId": "AVE",
        "placeName": "ST THOMAS",
        "streetNameDisplayText": "HIGHBURY AVE, ST THOMAS"
      }
    ]
  },
  {
    "postal": "N5P9K2",
    "result": []
  },
  {
    "postal": "N5P9S6",
    "result": []
  },
  {
    "postal": "N5P4X1",
    "result": []
  },
  {
    "postal": "N5P8W2",
    "result": []
  },
  {
    "postal": "N5P7N2",
    "result": []
  },
  {
    "postal": "N5P8S3",
    "result": []
  },
  {
    "postal": "N5P4V0",
    "result": []
  },
  {
    "postal": "N5P6W4",
    "result": []
  },
  {
    "postal": "N5P5M1",
    "result": []
  },
  {
    "postal": "N5P0S4",
    "result": []
  },
  {
    "postal": "N5P5X6",
    "result": []
  },
  {
    "postal": "N5P8L5",
    "result": []
  },
  {
    "postal": "N5P5M8",
    "result": []
  },
  {
    "postal": "N5P2G3",
    "result": [
      {
        "electoralDistricts": [
          {
            "election": null,
            "id": 26,
            "name": "Elgin—Middlesex—London"
          }
        ],
        "pollDivisionIds": [
          10143142
        ],
        "postalCode": "N5P2G3",
        "streetName": "MCLACHLIN",
        "streetDirectionId": null,
        "streetTypeId": "PL",
        "placeName": "ST THOMAS",
        "streetNameDisplayText": "MCLACHLIN PL, ST THOMAS"
      }
    ]
  },
  {
    "postal": "N5P8E4",
    "result": []
  },
  {
    "postal": "N5P7S9",
    "result": []
  },
  {
    "postal": "N5P1K3",
    "result": [
      {
        "electoralDistricts": [
          {
            "election": null,
            "id": 26,
            "name": "Elgin—Middlesex—London"
          }
        ],
        "pollDivisionIds": [
          10143316
        ],
        "postalCode": "N5P1K3",
        "streetName": "SCOTT",
        "streetDirectionId": null,
        "streetTypeId": "ST",
        "placeName": "ST THOMAS",
        "streetNameDisplayText": "SCOTT ST, ST THOMAS"
      }
    ]
  },
  {
    "postal": "N5P4E1",
    "result": [
      {
        "electoralDistricts": [
          {
            "election": null,
            "id": 26,
            "name": "Elgin—Middlesex—London"
          }
        ],
        "pollDivisionIds": [
          10137993
        ],
        "postalCode": "N5P4E1",
        "streetName": "TALBOT",
        "streetDirectionId": null,
        "streetTypeId": "ST",
        "placeName": "ST THOMAS",
        "streetNameDisplayText": "TALBOT ST, ST THOMAS"
      }
    ]
  },
  {
    "postal": "N5P4R2",
    "result": [
      {
        "electoralDistricts": [
          {
            "election": null,
            "id": 26,
            "name": "Elgin—Middlesex—London"
          }
        ],
        "pollDivisionIds": [
          10143140
        ],
        "postalCode": "N5P4R2",
        "streetName": "FREEMAN",
        "streetDirectionId": null,
        "streetTypeId": "LANE",
        "placeName": "ST THOMAS",
        "streetNameDisplayText": "FREEMAN LANE, ST THOMAS"
      },
      {
        "electoralDistricts": [
          {
            "election": null,
            "id": 26,
            "name": "Elgin—Middlesex—London"
          }
        ],
        "pollDivisionIds": [
          10143140
        ],
        "postalCode": "N5P4R2",
        "streetName": "WATSON",
        "streetDirectionId": null,
        "streetTypeId": "CRES",
        "placeName": "ST THOMAS",
        "streetNameDisplayText": "WATSON CRES, ST THOMAS"
      }
    ]
  },
  {
    "postal": "N5P6T0",
    "result": []
  },
  {
    "postal": "N5P3K5",
    "result": [
      {
        "electoralDistricts": [
          {
            "election": null,
            "id": 26,
            "name": "Elgin—Middlesex—London"
          }
        ],
        "pollDivisionIds": [
          10143142
        ],
        "postalCode": "N5P3K5",
        "streetName": "WOODWORTH",
        "streetDirectionId": null,
        "streetTypeId": "AVE",
        "placeName": "ST THOMAS",
        "streetNameDisplayText": "WOODWORTH AVE, ST THOMAS"
      }
    ]
  },
  {
    "postal": "N5P3S3",
    "result": [
      {
        "electoralDistricts": [
          {
            "election": null,
            "id": 26,
            "name": "Elgin—Middlesex—London"
          }
        ],
        "pollDivisionIds": [
          10137992
        ],
        "postalCode": "N5P3S3",
        "streetName": "GAYLORD",
        "streetDirectionId": null,
        "streetTypeId": "RD",
        "placeName": "ST THOMAS",
        "streetNameDisplayText": "GAYLORD RD, ST THOMAS"
      }
    ]
  },
  {
    "postal": "N5P3L4",
    "result": [
      {
        "electoralDistricts": [
          {
            "election": null,
            "id": 26,
            "name": "Elgin—Middlesex—London"
          }
        ],
        "pollDivisionIds": [
          10137992
        ],
        "postalCode": "N5P3L4",
        "streetName": "ARTHUR",
        "streetDirectionId": null,
        "streetTypeId": "AVE",
        "placeName": "ST THOMAS",
        "streetNameDisplayText": "ARTHUR AVE, ST THOMAS"
      }
    ]
  },
  {
    "postal": "N5P9Y2",
    "result": []
  },
  {
    "postal": "N5P1E0",
    "result": []
  },
  {
    "postal": "N5P9A4",
    "result": []
  },
  {
    "postal": "N5P1L3",
    "result": [
      {
        "electoralDistricts": [
          {
            "election": null,
            "id": 26,
            "name": "Elgin—Middlesex—London"
          }
        ],
        "pollDivisionIds": [
          10143316
        ],
        "postalCode": "N5P1L3",
        "streetName": "SCOTT",
        "streetDirectionId": null,
        "streetTypeId": "ST",
        "placeName": "ST THOMAS",
        "streetNameDisplayText": "SCOTT ST, ST THOMAS"
      }
    ]
  },
  {
    "postal": "N5P6N1",
    "result": []
  },
  {
    "postal": "N5P6G7",
    "result": []
  },
  {
    "postal": "N5P7W1",
    "result": []
  },
  {
    "postal": "N5P4M6",
    "result": [
      {
        "electoralDistricts": [
          {
            "election": null,
            "id": 26,
            "name": "Elgin—Middlesex—London"
          }
        ],
        "pollDivisionIds": [
          10143141
        ],
        "postalCode": "N5P4M6",
        "streetName": "HARWILL",
        "streetDirectionId": null,
        "streetTypeId": "RD",
        "placeName": "ST THOMAS",
        "streetNameDisplayText": "HARWILL RD, ST THOMAS"
      }
    ]
  },
  {
    "postal": "N5P1K0",
    "result": []
  },
  {
    "postal": "N5P3E2",
    "result": [
      {
        "electoralDistricts": [
          {
            "election": null,
            "id": 26,
            "name": "Elgin—Middlesex—London"
          }
        ],
        "pollDivisionIds": [
          10143142
        ],
        "postalCode": "N5P3E2",
        "streetName": "BALACLAVA",
        "streetDirectionId": null,
        "streetTypeId": "ST",
        "placeName": "ST THOMAS",
        "streetNameDisplayText": "BALACLAVA ST, ST THOMAS"
      }
    ]
  },
  {
    "postal": "N5P5H4",
    "result": []
  },
  {
    "postal": "N5P1K7",
    "result": [
      {
        "electoralDistricts": [
          {
            "election": null,
            "id": 26,
            "name": "Elgin—Middlesex—London"
          }
        ],
        "pollDivisionIds": [
          10143316
        ],
        "postalCode": "N5P1K7",
        "streetName": "SCOTT",
        "streetDirectionId": null,
        "streetTypeId": "ST",
        "placeName": "ST THOMAS",
        "streetNameDisplayText": "SCOTT ST, ST THOMAS"
      }
    ]
  },
  {
    "postal": "N5P0H0",
    "result": []
  },
  {
    "postal": "N5P0J3",
    "result": []
  },
  {
    "postal": "N5P1X6",
    "result": [
      {
        "electoralDistricts": [
          {
            "election": null,
            "id": 26,
            "name": "Elgin—Middlesex—London"
          }
        ],
        "pollDivisionIds": [
          10143316
        ],
        "postalCode": "N5P1X6",
        "streetName": "INDEPENDENT",
        "streetDirectionId": null,
        "streetTypeId": "ST",
        "placeName": "ST THOMAS",
        "streetNameDisplayText": "INDEPENDENT ST, ST THOMAS"
      }
    ]
  },
  {
    "postal": "N5P2Z6",
    "result": [
      {
        "electoralDistricts": [
          {
            "election": null,
            "id": 26,
            "name": "Elgin—Middlesex—London"
          }
        ],
        "pollDivisionIds": [
          10143142
        ],
        "postalCode": "N5P2Z6",
        "streetName": "HUGHES",
        "streetDirectionId": null,
        "streetTypeId": "ST",
        "placeName": "ST THOMAS",
        "streetNameDisplayText": "HUGHES ST, ST THOMAS"
      }
    ]
  },
  {
    "postal": "N5P4R9",
    "result": []
  },
  {
    "postal": "N5P0W8",
    "result": []
  },
  {
    "postal": "N5P1L4",
    "result": [
      {
        "electoralDistricts": [
          {
            "election": null,
            "id": 26,
            "name": "Elgin—Middlesex—London"
          }
        ],
        "pollDivisionIds": [
          10143316
        ],
        "postalCode": "N5P1L4",
        "streetName": "SCOTT",
        "streetDirectionId": null,
        "streetTypeId": "ST",
        "placeName": "ST THOMAS",
        "streetNameDisplayText": "SCOTT ST, ST THOMAS"
      }
    ]
  },
  {
    "postal": "N5P0C8",
    "result": []
  },
  {
    "postal": "N5P9X7",
    "result": []
  },
  {
    "postal": "N5P4T1",
    "result": []
  },
  {
    "postal": "N5P0M0",
    "result": []
  },
  {
    "postal": "N5P6A2",
    "result": []
  },
  {
    "postal": "N5P9S8",
    "result": []
  },
  {
    "postal": "N5P9T4",
    "result": []
  },
  {
    "postal": "N5P9Y4",
    "result": []
  },
  {
    "postal": "N5P6G5",
    "result": []
  },
  {
    "postal": "N5P6H9",
    "result": []
  },
  {
    "postal": "N5P2P3",
    "result": [
      {
        "electoralDistricts": [
          {
            "election": null,
            "id": 26,
            "name": "Elgin—Middlesex—London"
          }
        ],
        "pollDivisionIds": [
          10143316
        ],
        "postalCode": "N5P2P3",
        "streetName": "PEARL",
        "streetDirectionId": null,
        "streetTypeId": "ST",
        "placeName": "ST THOMAS",
        "streetNameDisplayText": "PEARL ST, ST THOMAS"
      }
    ]
  },
  {
    "postal": "N5P1T6",
    "result": [
      {
        "electoralDistricts": [
          {
            "election": null,
            "id": 26,
            "name": "Elgin—Middlesex—London"
          }
        ],
        "pollDivisionIds": [
          10143142
        ],
        "postalCode": "N5P1T6",
        "streetName": "REDAN",
        "streetDirectionId": null,
        "streetTypeId": "ST",
        "placeName": "ST THOMAS",
        "streetNameDisplayText": "REDAN ST, ST THOMAS"
      }
    ]
  },
  {
    "postal": "N5P4P6",
    "result": [
      {
        "electoralDistricts": [
          {
            "election": null,
            "id": 26,
            "name": "Elgin—Middlesex—London"
          }
        ],
        "pollDivisionIds": [
          10137989
        ],
        "postalCode": "N5P4P6",
        "streetName": "HAVENRIDGE",
        "streetDirectionId": null,
        "streetTypeId": "CRT",
        "placeName": "ST THOMAS",
        "streetNameDisplayText": "HAVENRIDGE CRT, ST THOMAS"
      }
    ]
  },
  {
    "postal": "N5P3K1",
    "result": [
      {
        "electoralDistricts": [
          {
            "election": null,
            "id": 26,
            "name": "Elgin—Middlesex—London"
          }
        ],
        "pollDivisionIds": [
          10143142
        ],
        "postalCode": "N5P3K1",
        "streetName": "WOODWORTH",
        "streetDirectionId": null,
        "streetTypeId": "AVE",
        "placeName": "ST THOMAS",
        "streetNameDisplayText": "WOODWORTH AVE, ST THOMAS"
      }
    ]
  },
  {
    "postal": "N5P6X4",
    "result": []
  },
  {
    "postal": "N5P4M8",
    "result": [
      {
        "electoralDistricts": [
          {
            "election": null,
            "id": 26,
            "name": "Elgin—Middlesex—London"
          }
        ],
        "pollDivisionIds": [
          10143141
        ],
        "postalCode": "N5P4M8",
        "streetName": "COTTONWOOD",
        "streetDirectionId": null,
        "streetTypeId": "DR",
        "placeName": "ST THOMAS",
        "streetNameDisplayText": "COTTONWOOD DR, ST THOMAS"
      },
      {
        "electoralDistricts": [
          {
            "election": null,
            "id": 26,
            "name": "Elgin—Middlesex—London"
          }
        ],
        "pollDivisionIds": [
          10143141
        ],
        "postalCode": "N5P4M8",
        "streetName": "GOLDENROD",
        "streetDirectionId": null,
        "streetTypeId": "CRT",
        "placeName": "ST THOMAS",
        "streetNameDisplayText": "GOLDENROD CRT, ST THOMAS"
      },
      {
        "electoralDistricts": [
          {
            "election": null,
            "id": 26,
            "name": "Elgin—Middlesex—London"
          }
        ],
        "pollDivisionIds": [
          10143141
        ],
        "postalCode": "N5P4M8",
        "streetName": "RIVERBANK",
        "streetDirectionId": null,
        "streetTypeId": "DR",
        "placeName": "ST THOMAS",
        "streetNameDisplayText": "RIVERBANK DR, ST THOMAS"
      }
    ]
  },
  {
    "postal": "N5P2Y1",
    "result": [
      {
        "electoralDistricts": [
          {
            "election": null,
            "id": 26,
            "name": "Elgin—Middlesex—London"
          }
        ],
        "pollDivisionIds": [
          10143142
        ],
        "postalCode": "N5P2Y1",
        "streetName": "FLORA",
        "streetDirectionId": null,
        "streetTypeId": "ST",
        "placeName": "ST THOMAS",
        "streetNameDisplayText": "FLORA ST, ST THOMAS"
      }
    ]
  },
  {
    "postal": "N5P6M1",
    "result": []
  },
  {
    "postal": "N5P5L8",
    "result": []
  },
  {
    "postal": "N5P3P6",
    "result": [
      {
        "electoralDistricts": [
          {
            "election": null,
            "id": 26,
            "name": "Elgin—Middlesex—London"
          }
        ],
        "pollDivisionIds": [
          10143141
        ],
        "postalCode": "N5P3P6",
        "streetName": "CONFEDERATION",
        "streetDirectionId": null,
        "streetTypeId": "DR",
        "placeName": "ST THOMAS",
        "streetNameDisplayText": "CONFEDERATION DR, ST THOMAS"
      }
    ]
  },
  {
    "postal": "N5P9A5",
    "result": []
  },
  {
    "postal": "N5P7K1",
    "result": []
  },
  {
    "postal": "N5P3J4",
    "result": [
      {
        "electoralDistricts": [
          {
            "election": null,
            "id": 26,
            "name": "Elgin—Middlesex—London"
          }
        ],
        "pollDivisionIds": [
          10143142
        ],
        "postalCode": "N5P3J4",
        "streetName": "WOODWORTH",
        "streetDirectionId": null,
        "streetTypeId": "AVE",
        "placeName": "ST THOMAS",
        "streetNameDisplayText": "WOODWORTH AVE, ST THOMAS"
      }
    ]
  },
  {
    "postal": "N5P5E7",
    "result": []
  },
  {
    "postal": "N5P3A7",
    "result": [
      {
        "electoralDistricts": [
          {
            "election": null,
            "id": 26,
            "name": "Elgin—Middlesex—London"
          }
        ],
        "pollDivisionIds": [
          10143142
        ],
        "postalCode": "N5P3A7",
        "streetName": "ALMA",
        "streetDirectionId": null,
        "streetTypeId": "ST",
        "placeName": "ST THOMAS",
        "streetNameDisplayText": "ALMA ST, ST THOMAS"
      }
    ]
  },
  {
    "postal": "N5P1B9",
    "result": [
      {
        "electoralDistricts": [
          {
            "election": null,
            "id": 26,
            "name": "Elgin—Middlesex—London"
          }
        ],
        "pollDivisionIds": [
          10137993
        ],
        "postalCode": "N5P1B9",
        "streetName": "TALBOT",
        "streetDirectionId": null,
        "streetTypeId": "ST",
        "placeName": "ST THOMAS",
        "streetNameDisplayText": "TALBOT ST, ST THOMAS"
      }
    ]
  },
  {
    "postal": "N5P9E8",
    "result": []
  },
  {
    "postal": "N5P1C9",
    "result": [
      {
        "electoralDistricts": [
          {
            "election": null,
            "id": 26,
            "name": "Elgin—Middlesex—London"
          }
        ],
        "pollDivisionIds": [
          10143142
        ],
        "postalCode": "N5P1C9",
        "streetName": "TALBOT",
        "streetDirectionId": null,
        "streetTypeId": "ST",
        "placeName": "ST THOMAS",
        "streetNameDisplayText": "TALBOT ST, ST THOMAS"
      }
    ]
  },
  {
    "postal": "N5P3B5",
    "result": [
      {
        "electoralDistricts": [
          {
            "election": null,
            "id": 26,
            "name": "Elgin—Middlesex—London"
          }
        ],
        "pollDivisionIds": [
          10143142
        ],
        "postalCode": "N5P3B5",
        "streetName": "ALMA",
        "streetDirectionId": null,
        "streetTypeId": "ST",
        "placeName": "ST THOMAS",
        "streetNameDisplayText": "ALMA ST, ST THOMAS"
      }
    ]
  },
  {
    "postal": "N5P8R0",
    "result": []
  },
  {
    "postal": "N5P3P2",
    "result": [
      {
        "electoralDistricts": [
          {
            "election": null,
            "id": 26,
            "name": "Elgin—Middlesex—London"
          }
        ],
        "pollDivisionIds": [
          10143141
        ],
        "postalCode": "N5P3P2",
        "streetName": "CONFEDERATION",
        "streetDirectionId": null,
        "streetTypeId": "DR",
        "placeName": "ST THOMAS",
        "streetNameDisplayText": "CONFEDERATION DR, ST THOMAS"
      }
    ]
  },
  {
    "postal": "N5P5V4",
    "result": []
  },
  {
    "postal": "N5P4H0",
    "result": []
  },
  {
    "postal": "N5P4S7",
    "result": []
  },
  {
    "postal": "N5P6C2",
    "result": []
  },
  {
    "postal": "N5P8W3",
    "result": []
  },
  {
    "postal": "N5P4M5",
    "result": [
      {
        "electoralDistricts": [
          {
            "election": null,
            "id": 26,
            "name": "Elgin—Middlesex—London"
          }
        ],
        "pollDivisionIds": [
          10143141
        ],
        "postalCode": "N5P4M5",
        "streetName": "RIVERBANK",
        "streetDirectionId": null,
        "streetTypeId": "DR",
        "placeName": "ST THOMAS",
        "streetNameDisplayText": "RIVERBANK DR, ST THOMAS"
      }
    ]
  },
  {
    "postal": "N5P5T1",
    "result": []
  },
  {
    "postal": "N5P3B3",
    "result": [
      {
        "electoralDistricts": [
          {
            "election": null,
            "id": 26,
            "name": "Elgin—Middlesex—London"
          }
        ],
        "pollDivisionIds": [
          10143142
        ],
        "postalCode": "N5P3B3",
        "streetName": "ALMA",
        "streetDirectionId": null,
        "streetTypeId": "ST",
        "placeName": "ST THOMAS",
        "streetNameDisplayText": "ALMA ST, ST THOMAS"
      }
    ]
  },
  {
    "postal": "N5P6C6",
    "result": []
  },
  {
    "postal": "N5P7N8",
    "result": []
  },
  {
    "postal": "N5P2Y3",
    "result": [
      {
        "electoralDistricts": [
          {
            "election": null,
            "id": 26,
            "name": "Elgin—Middlesex—London"
          }
        ],
        "pollDivisionIds": [
          10143142
        ],
        "postalCode": "N5P2Y3",
        "streetName": "YARWOOD",
        "streetDirectionId": null,
        "streetTypeId": "ST",
        "placeName": "ST THOMAS",
        "streetNameDisplayText": "YARWOOD ST, ST THOMAS"
      }
    ]
  },
  {
    "postal": "N5P2R6",
    "result": [
      {
        "electoralDistricts": [
          {
            "election": null,
            "id": 26,
            "name": "Elgin—Middlesex—London"
          }
        ],
        "pollDivisionIds": [
          10143316
        ],
        "postalCode": "N5P2R6",
        "streetName": "PENWARDEN",
        "streetDirectionId": null,
        "streetTypeId": "ST",
        "placeName": "ST THOMAS",
        "streetNameDisplayText": "PENWARDEN ST, ST THOMAS"
      }
    ]
  },
  {
    "postal": "N5P7N3",
    "result": []
  },
  {
    "postal": "N5P8J2",
    "result": []
  },
  {
    "postal": "N5P6A9",
    "result": []
  },
  {
    "postal": "N5P3V2",
    "result": []
  },
  {
    "postal": "N5P2N3",
    "result": [
      {
        "electoralDistricts": [
          {
            "election": null,
            "id": 26,
            "name": "Elgin—Middlesex—London"
          }
        ],
        "pollDivisionIds": [
          10143316
        ],
        "postalCode": "N5P2N3",
        "streetName": "BURROWS",
        "streetDirectionId": null,
        "streetTypeId": "AVE",
        "placeName": "ST THOMAS",
        "streetNameDisplayText": "BURROWS AVE, ST THOMAS"
      },
      {
        "electoralDistricts": [
          {
            "election": null,
            "id": 26,
            "name": "Elgin—Middlesex—London"
          }
        ],
        "pollDivisionIds": [
          10143316
        ],
        "postalCode": "N5P2N3",
        "streetName": "CORA",
        "streetDirectionId": null,
        "streetTypeId": "ST",
        "placeName": "ST THOMAS",
        "streetNameDisplayText": "CORA ST, ST THOMAS"
      }
    ]
  },
  {
    "postal": "N5P1S5",
    "result": [
      {
        "electoralDistricts": [
          {
            "election": null,
            "id": 26,
            "name": "Elgin—Middlesex—London"
          }
        ],
        "pollDivisionIds": [
          10143140
        ],
        "postalCode": "N5P1S5",
        "streetName": "BATTRAM",
        "streetDirectionId": null,
        "streetTypeId": "ST",
        "placeName": "ST THOMAS",
        "streetNameDisplayText": "BATTRAM ST, ST THOMAS"
      }
    ]
  },
  {
    "postal": "N5P4T7",
    "result": []
  },
  {
    "postal": "N5P6Y7",
    "result": []
  },
  {
    "postal": "N5P0W7",
    "result": []
  },
  {
    "postal": "N5P2W9",
    "result": [
      {
        "electoralDistricts": [
          {
            "election": null,
            "id": 26,
            "name": "Elgin—Middlesex—London"
          }
        ],
        "pollDivisionIds": [
          10143142
        ],
        "postalCode": "N5P2W9",
        "streetName": "STATION",
        "streetDirectionId": null,
        "streetTypeId": "ST",
        "placeName": "ST THOMAS",
        "streetNameDisplayText": "STATION ST, ST THOMAS"
      }
    ]
  },
  {
    "postal": "N5P8V0",
    "result": []
  },
  {
    "postal": "N5P0H4",
    "result": []
  },
  {
    "postal": "N5P2T1",
    "result": [
      {
        "electoralDistricts": [
          {
            "election": null,
            "id": 26,
            "name": "Elgin—Middlesex—London"
          }
        ],
        "pollDivisionIds": [
          10143316
        ],
        "postalCode": "N5P2T1",
        "streetName": "HIAWATHA",
        "streetDirectionId": null,
        "streetTypeId": "ST",
        "placeName": "ST THOMAS",
        "streetNameDisplayText": "HIAWATHA ST, ST THOMAS"
      }
    ]
  },
  {
    "postal": "N5P1B1",
    "result": [
      {
        "electoralDistricts": [
          {
            "election": null,
            "id": 26,
            "name": "Elgin—Middlesex—London"
          }
        ],
        "pollDivisionIds": [
          10143316
        ],
        "postalCode": "N5P1B1",
        "streetName": "TALBOT",
        "streetDirectionId": null,
        "streetTypeId": "ST",
        "placeName": "ST THOMAS",
        "streetNameDisplayText": "TALBOT ST, ST THOMAS"
      }
    ]
  },
  {
    "postal": "N5P8B6",
    "result": []
  },
  {
    "postal": "N5P6H1",
    "result": []
  },
  {
    "postal": "N5P8T8",
    "result": []
  },
  {
    "postal": "N5P0T4",
    "result": []
  },
  {
    "postal": "N5P2C4",
    "result": [
      {
        "electoralDistricts": [
          {
            "election": null,
            "id": 26,
            "name": "Elgin—Middlesex—London"
          }
        ],
        "pollDivisionIds": [
          10143142
        ],
        "postalCode": "N5P2C4",
        "streetName": "MONTCALM",
        "streetDirectionId": null,
        "streetTypeId": "ST",
        "placeName": "ST THOMAS",
        "streetNameDisplayText": "MONTCALM ST, ST THOMAS"
      }
    ]
  },
  {
    "postal": "N5P8N3",
    "result": []
  },
  {
    "postal": "N5P4L8",
    "result": [
      {
        "electoralDistricts": [
          {
            "election": null,
            "id": 26,
            "name": "Elgin—Middlesex—London"
          }
        ],
        "pollDivisionIds": [
          10143141
        ],
        "postalCode": "N5P4L8",
        "streetName": "SILVER",
        "streetDirectionId": null,
        "streetTypeId": "ST",
        "placeName": "ST THOMAS",
        "streetNameDisplayText": "SILVER ST, ST THOMAS"
      }
    ]
  },
  {
    "postal": "N5P2B5",
    "result": [
      {
        "electoralDistricts": [
          {
            "election": null,
            "id": 26,
            "name": "Elgin—Middlesex—London"
          }
        ],
        "pollDivisionIds": [
          10143142
        ],
        "postalCode": "N5P2B5",
        "streetName": "HAMMOND",
        "streetDirectionId": null,
        "streetTypeId": "ST",
        "placeName": "ST THOMAS",
        "streetNameDisplayText": "HAMMOND ST, ST THOMAS"
      }
    ]
  },
  {
    "postal": "N5P3H1",
    "result": [
      {
        "electoralDistricts": [
          {
            "election": null,
            "id": 26,
            "name": "Elgin—Middlesex—London"
          }
        ],
        "pollDivisionIds": [
          10143142
        ],
        "postalCode": "N5P3H1",
        "streetName": "INKERMAN",
        "streetDirectionId": null,
        "streetTypeId": "ST",
        "placeName": "ST THOMAS",
        "streetNameDisplayText": "INKERMAN ST, ST THOMAS"
      }
    ]
  },
  {
    "postal": "N5P4Y1",
    "result": []
  },
  {
    "postal": "N5P7E2",
    "result": []
  },
  {
    "postal": "N5P2P5",
    "result": [
      {
        "electoralDistricts": [
          {
            "election": null,
            "id": 26,
            "name": "Elgin—Middlesex—London"
          }
        ],
        "pollDivisionIds": [
          10143316
        ],
        "postalCode": "N5P2P5",
        "streetName": "PEARL",
        "streetDirectionId": null,
        "streetTypeId": "ST",
        "placeName": "ST THOMAS",
        "streetNameDisplayText": "PEARL ST, ST THOMAS"
      }
    ]
  },
  {
    "postal": "N5P8R7",
    "result": []
  },
  {
    "postal": "N5P9P1",
    "result": []
  },
  {
    "postal": "N5P3B8",
    "result": [
      {
        "electoralDistricts": [
          {
            "election": null,
            "id": 26,
            "name": "Elgin—Middlesex—London"
          }
        ],
        "pollDivisionIds": [
          10143142
        ],
        "postalCode": "N5P3B8",
        "streetName": "ALMA",
        "streetDirectionId": null,
        "streetTypeId": "ST",
        "placeName": "ST THOMAS",
        "streetNameDisplayText": "ALMA ST, ST THOMAS"
      }
    ]
  },
  {
    "postal": "N5P3P7",
    "result": []
  },
  {
    "postal": "N5P9B2",
    "result": []
  },
  {
    "postal": "N5P6Z3",
    "result": []
  },
  {
    "postal": "N5P4N5",
    "result": [
      {
        "electoralDistricts": [
          {
            "election": null,
            "id": 26,
            "name": "Elgin—Middlesex—London"
          }
        ],
        "pollDivisionIds": [
          10143140
        ],
        "postalCode": "N5P4N5",
        "streetName": "VINEDEN",
        "streetDirectionId": null,
        "streetTypeId": "DR",
        "placeName": "ST THOMAS",
        "streetNameDisplayText": "VINEDEN DR, ST THOMAS"
      }
    ]
  },
  {
    "postal": "N5P8T3",
    "result": []
  },
  {
    "postal": "N5P1V2",
    "result": [
      {
        "electoralDistricts": [
          {
            "election": null,
            "id": 26,
            "name": "Elgin—Middlesex—London"
          }
        ],
        "pollDivisionIds": [
          10143142
        ],
        "postalCode": "N5P1V2",
        "streetName": "REDAN",
        "streetDirectionId": null,
        "streetTypeId": "ST",
        "placeName": "ST THOMAS",
        "streetNameDisplayText": "REDAN ST, ST THOMAS"
      }
    ]
  },
  {
    "postal": "N5P1Y0",
    "result": []
  },
  {
    "postal": "N5P3G6",
    "result": [
      {
        "electoralDistricts": [
          {
            "election": null,
            "id": 26,
            "name": "Elgin—Middlesex—London"
          }
        ],
        "pollDivisionIds": [
          10143142
        ],
        "postalCode": "N5P3G6",
        "streetName": "INKERMAN",
        "streetDirectionId": null,
        "streetTypeId": "ST",
        "placeName": "ST THOMAS",
        "streetNameDisplayText": "INKERMAN ST, ST THOMAS"
      }
    ]
  },
  {
    "postal": "N5P3H7",
    "result": [
      {
        "electoralDistricts": [
          {
            "election": null,
            "id": 26,
            "name": "Elgin—Middlesex—London"
          }
        ],
        "pollDivisionIds": [
          10143142
        ],
        "postalCode": "N5P3H7",
        "streetName": "INKERMAN",
        "streetDirectionId": null,
        "streetTypeId": "ST",
        "placeName": "ST THOMAS",
        "streetNameDisplayText": "INKERMAN ST, ST THOMAS"
      }
    ]
  },
  {
    "postal": "N5P7X8",
    "result": []
  },
  {
    "postal": "N5P0C7",
    "result": []
  },
  {
    "postal": "N5P0W9",
    "result": []
  },
  {
    "postal": "N5P8E6",
    "result": []
  },
  {
    "postal": "N5P9Z8",
    "result": []
  },
  {
    "postal": "N5P3P4",
    "result": [
      {
        "electoralDistricts": [
          {
            "election": null,
            "id": 26,
            "name": "Elgin—Middlesex—London"
          }
        ],
        "pollDivisionIds": [
          10143141
        ],
        "postalCode": "N5P3P4",
        "streetName": "CONFEDERATION",
        "streetDirectionId": null,
        "streetTypeId": "DR",
        "placeName": "ST THOMAS",
        "streetNameDisplayText": "CONFEDERATION DR, ST THOMAS"
      }
    ]
  },
  {
    "postal": "N5P6L8",
    "result": []
  },
  {
    "postal": "N5P2R4",
    "result": [
      {
        "electoralDistricts": [
          {
            "election": null,
            "id": 26,
            "name": "Elgin—Middlesex—London"
          }
        ],
        "pollDivisionIds": [
          10143316
        ],
        "postalCode": "N5P2R4",
        "streetName": "EAST",
        "streetDirectionId": null,
        "streetTypeId": "ST",
        "placeName": "ST THOMAS",
        "streetNameDisplayText": "EAST ST, ST THOMAS"
      }
    ]
  },
  {
    "postal": "N5P2W1",
    "result": [
      {
        "electoralDistricts": [
          {
            "election": null,
            "id": 26,
            "name": "Elgin—Middlesex—London"
          }
        ],
        "pollDivisionIds": [
          10143316
        ],
        "postalCode": "N5P2W1",
        "streetName": "ST CATHARINE",
        "streetDirectionId": null,
        "streetTypeId": "ST",
        "placeName": "ST THOMAS",
        "streetNameDisplayText": "ST CATHARINE ST, ST THOMAS"
      }
    ]
  },
  {
    "postal": "N5P9H8",
    "result": []
  },
  {
    "postal": "N5P8X9",
    "result": []
  },
  {
    "postal": "N5P7H4",
    "result": []
  },
  {
    "postal": "N5P3J1",
    "result": [
      {
        "electoralDistricts": [
          {
            "election": null,
            "id": 26,
            "name": "Elgin—Middlesex—London"
          }
        ],
        "pollDivisionIds": [
          10143142
        ],
        "postalCode": "N5P3J1",
        "streetName": "NELSON",
        "streetDirectionId": null,
        "streetTypeId": "ST",
        "placeName": "ST THOMAS",
        "streetNameDisplayText": "NELSON ST, ST THOMAS"
      }
    ]
  },
  {
    "postal": "N5P1P4",
    "result": [
      {
        "electoralDistricts": [
          {
            "election": null,
            "id": 26,
            "name": "Elgin—Middlesex—London"
          }
        ],
        "pollDivisionIds": [
          10137972
        ],
        "postalCode": "N5P1P4",
        "streetName": "WOODLAND",
        "streetDirectionId": null,
        "streetTypeId": "RD",
        "placeName": "ST THOMAS",
        "streetNameDisplayText": "WOODLAND RD, ST THOMAS"
      }
    ]
  },
  {
    "postal": "N5P2A3",
    "result": [
      {
        "electoralDistricts": [
          {
            "election": null,
            "id": 26,
            "name": "Elgin—Middlesex—London"
          }
        ],
        "pollDivisionIds": [
          10143142
        ],
        "postalCode": "N5P2A3",
        "streetName": "WOLFE",
        "streetDirectionId": null,
        "streetTypeId": "ST",
        "placeName": "ST THOMAS",
        "streetNameDisplayText": "WOLFE ST, ST THOMAS"
      }
    ]
  },
  {
    "postal": "N5P0Z1",
    "result": []
  },
  {
    "postal": "N5P1C1",
    "result": [
      {
        "electoralDistricts": [
          {
            "election": null,
            "id": 26,
            "name": "Elgin—Middlesex—London"
          }
        ],
        "pollDivisionIds": [
          10143316
        ],
        "postalCode": "N5P1C1",
        "streetName": "TALBOT",
        "streetDirectionId": null,
        "streetTypeId": "ST",
        "placeName": "ST THOMAS",
        "streetNameDisplayText": "TALBOT ST, ST THOMAS"
      }
    ]
  },
  {
    "postal": "N5P0H3",
    "result": []
  },
  {
    "postal": "N5P7B0",
    "result": []
  },
  {
    "postal": "N5P5K2",
    "result": []
  },
  {
    "postal": "N5P1E9",
    "result": [
      {
        "electoralDistricts": [
          {
            "election": null,
            "id": 26,
            "name": "Elgin—Middlesex—London"
          }
        ],
        "pollDivisionIds": [
          10137992
        ],
        "postalCode": "N5P1E9",
        "streetName": "TALBOT",
        "streetDirectionId": null,
        "streetTypeId": "ST",
        "placeName": "ST THOMAS",
        "streetNameDisplayText": "TALBOT ST, ST THOMAS"
      }
    ]
  },
  {
    "postal": "N5P9W7",
    "result": []
  },
  {
    "postal": "N5P5W6",
    "result": []
  },
  {
    "postal": "N5P6S6",
    "result": []
  },
  {
    "postal": "N5P2P8",
    "result": [
      {
        "electoralDistricts": [
          {
            "election": null,
            "id": 26,
            "name": "Elgin—Middlesex—London"
          }
        ],
        "pollDivisionIds": [
          10143316
        ],
        "postalCode": "N5P2P8",
        "streetName": "EAST",
        "streetDirectionId": null,
        "streetTypeId": "ST",
        "placeName": "ST THOMAS",
        "streetNameDisplayText": "EAST ST, ST THOMAS"
      }
    ]
  },
  {
    "postal": "N5P4P8",
    "result": [
      {
        "electoralDistricts": [
          {
            "election": null,
            "id": 26,
            "name": "Elgin—Middlesex—London"
          }
        ],
        "pollDivisionIds": [
          10137989
        ],
        "postalCode": "N5P4P8",
        "streetName": "GREENWAY",
        "streetDirectionId": null,
        "streetTypeId": "BLVD",
        "placeName": "ST THOMAS",
        "streetNameDisplayText": "GREENWAY BLVD, ST THOMAS"
      },
      {
        "electoralDistricts": [
          {
            "election": null,
            "id": 26,
            "name": "Elgin—Middlesex—London"
          }
        ],
        "pollDivisionIds": [
          10137989
        ],
        "postalCode": "N5P4P8",
        "streetName": "HAWTHORN",
        "streetDirectionId": null,
        "streetTypeId": "CRT",
        "placeName": "ST THOMAS",
        "streetNameDisplayText": "HAWTHORN CRT, ST THOMAS"
      }
    ]
  },
  {
    "postal": "N5P0V9",
    "result": []
  },
  {
    "postal": "N5P5Y2",
    "result": []
  },
  {
    "postal": "N5P7Z7",
    "result": []
  },
  {
    "postal": "N5P6Y8",
    "result": []
  },
  {
    "postal": "N5P2G7",
    "result": [
      {
        "electoralDistricts": [
          {
            "election": null,
            "id": 26,
            "name": "Elgin—Middlesex—London"
          }
        ],
        "pollDivisionIds": [
          10143142
        ],
        "postalCode": "N5P2G7",
        "streetName": "BRINKMAN",
        "streetDirectionId": null,
        "streetTypeId": "CRT",
        "placeName": "ST THOMAS",
        "streetNameDisplayText": "BRINKMAN CRT, ST THOMAS"
      }
    ]
  },
  {
    "postal": "N5P8C1",
    "result": []
  },
  {
    "postal": "N5P5C5",
    "result": []
  },
  {
    "postal": "N5P2X8",
    "result": []
  },
  {
    "postal": "N5P1W5",
    "result": [
      {
        "electoralDistricts": [
          {
            "election": null,
            "id": 26,
            "name": "Elgin—Middlesex—London"
          }
        ],
        "pollDivisionIds": [
          10143316
        ],
        "postalCode": "N5P1W5",
        "streetName": "MEDA",
        "streetDirectionId": null,
        "streetTypeId": "ST",
        "placeName": "ST THOMAS",
        "streetNameDisplayText": "MEDA ST, ST THOMAS"
      }
    ]
  },
  {
    "postal": "N5P7G0",
    "result": []
  },
  {
    "postal": "N5P8J8",
    "result": []
  },
  {
    "postal": "N5P3Y0",
    "result": []
  },
  {
    "postal": "N5P9T7",
    "result": []
  },
  {
    "postal": "N5P5P4",
    "result": []
  },
  {
    "postal": "N5P4B0",
    "result": []
  },
  {
    "postal": "N5P9N8",
    "result": []
  },
  {
    "postal": "N5P4A7",
    "result": [
      {
        "electoralDistricts": [
          {
            "election": null,
            "id": 26,
            "name": "Elgin—Middlesex—London"
          }
        ],
        "pollDivisionIds": [
          10137992
        ],
        "postalCode": "N5P4A7",
        "streetName": "SPARLING",
        "streetDirectionId": null,
        "streetTypeId": "RD",
        "placeName": "ST THOMAS",
        "streetNameDisplayText": "SPARLING RD, ST THOMAS"
      }
    ]
  },
  {
    "postal": "N5P4H9",
    "result": [
      {
        "electoralDistricts": [
          {
            "election": null,
            "id": 26,
            "name": "Elgin—Middlesex—London"
          }
        ],
        "pollDivisionIds": [
          10143141
        ],
        "postalCode": "N5P4H9",
        "streetName": "THORMAN",
        "streetDirectionId": null,
        "streetTypeId": "TERR",
        "placeName": "ST THOMAS",
        "streetNameDisplayText": "THORMAN TERR, ST THOMAS"
      },
      {
        "electoralDistricts": [
          {
            "election": null,
            "id": 26,
            "name": "Elgin—Middlesex—London"
          }
        ],
        "pollDivisionIds": [
          10143141
        ],
        "postalCode": "N5P4H9",
        "streetName": "WRIGHT",
        "streetDirectionId": null,
        "streetTypeId": "CRES",
        "placeName": "ST THOMAS",
        "streetNameDisplayText": "WRIGHT CRES, ST THOMAS"
      }
    ]
  },
  {
    "postal": "N5P6X1",
    "result": []
  },
  {
    "postal": "N5P9Y7",
    "result": []
  },
  {
    "postal": "N5P2Y5",
    "result": [
      {
        "electoralDistricts": [
          {
            "election": null,
            "id": 26,
            "name": "Elgin—Middlesex—London"
          }
        ],
        "pollDivisionIds": [
          10143142
        ],
        "postalCode": "N5P2Y5",
        "streetName": "HORTON",
        "streetDirectionId": null,
        "streetTypeId": "ST",
        "placeName": "ST THOMAS",
        "streetNameDisplayText": "HORTON ST, ST THOMAS"
      }
    ]
  },
  {
    "postal": "N5P8L7",
    "result": []
  },
  {
    "postal": "N5P2A8",
    "result": [
      {
        "electoralDistricts": [
          {
            "election": null,
            "id": 26,
            "name": "Elgin—Middlesex—London"
          }
        ],
        "pollDivisionIds": [
          10137992
        ],
        "postalCode": "N5P2A8",
        "streetName": "DUCKWORTH",
        "streetDirectionId": null,
        "streetTypeId": "AVE",
        "placeName": "ST THOMAS",
        "streetNameDisplayText": "DUCKWORTH AVE, ST THOMAS"
      }
    ]
  },
  {
    "postal": "N5P2K9",
    "result": [
      {
        "electoralDistricts": [
          {
            "election": null,
            "id": 26,
            "name": "Elgin—Middlesex—London"
          }
        ],
        "pollDivisionIds": [
          10143316
        ],
        "postalCode": "N5P2K9",
        "streetName": "ST GEORGE",
        "streetDirectionId": null,
        "streetTypeId": "ST",
        "placeName": "ST THOMAS",
        "streetNameDisplayText": "ST GEORGE ST, ST THOMAS"
      },
      {
        "electoralDistricts": [
          {
            "election": null,
            "id": 26,
            "name": "Elgin—Middlesex—London"
          }
        ],
        "pollDivisionIds": [
          10143316
        ],
        "postalCode": "N5P2K9",
        "streetName": "ST. GEORGE",
        "streetDirectionId": null,
        "streetTypeId": "ST",
        "placeName": "ST THOMAS",
        "streetNameDisplayText": "ST. GEORGE ST, ST THOMAS"
      }
    ]
  },
  {
    "postal": "N5P3E5",
    "result": [
      {
        "electoralDistricts": [
          {
            "election": null,
            "id": 26,
            "name": "Elgin—Middlesex—London"
          }
        ],
        "pollDivisionIds": [
          10143142
        ],
        "postalCode": "N5P3E5",
        "streetName": "MILLER",
        "streetDirectionId": null,
        "streetTypeId": "ST",
        "placeName": "ST THOMAS",
        "streetNameDisplayText": "MILLER ST, ST THOMAS"
      }
    ]
  },
  {
    "postal": "N5P8N6",
    "result": []
  },
  {
    "postal": "N5P8J4",
    "result": []
  },
  {
    "postal": "N5P4R7",
    "result": []
  },
  {
    "postal": "N5P9K1",
    "result": []
  },
  {
    "postal": "N5P8E1",
    "result": []
  },
  {
    "postal": "N5P0R1",
    "result": []
  },
  {
    "postal": "N5P4J3",
    "result": [
      {
        "electoralDistricts": [
          {
            "election": null,
            "id": 26,
            "name": "Elgin—Middlesex—London"
          }
        ],
        "pollDivisionIds": [
          10137989,
          10143141
        ],
        "postalCode": "N5P4J3",
        "streetName": "DONKER",
        "streetDirectionId": null,
        "streetTypeId": "DR",
        "placeName": "ST THOMAS",
        "streetNameDisplayText": "DONKER DR, ST THOMAS"
      }
    ]
  },
  {
    "postal": "N5P7E7",
    "result": []
  },
  {
    "postal": "N5P0J0",
    "result": []
  },
  {
    "postal": "N5P7R8",
    "result": []
  },
  {
    "postal": "N5P9X0",
    "result": []
  },
  {
    "postal": "N5P7P6",
    "result": []
  },
  {
    "postal": "N5P0R7",
    "result": []
  },
  {
    "postal": "N5P5W1",
    "result": []
  },
  {
    "postal": "N5P0K4",
    "result": []
  },
  {
    "postal": "N5P7N9",
    "result": []
  },
  {
    "postal": "N5P1N0",
    "result": []
  },
  {
    "postal": "N5P6P3",
    "result": []
  },
  {
    "postal": "N5P5A1",
    "result": []
  },
  {
    "postal": "N5P9M9",
    "result": []
  },
  {
    "postal": "N5P7T6",
    "result": []
  },
  {
    "postal": "N5P3X0",
    "result": []
  },
  {
    "postal": "N5P2T0",
    "result": []
  },
  {
    "postal": "N5P5X9",
    "result": []
  },
  {
    "postal": "N5P2R3",
    "result": [
      {
        "electoralDistricts": [
          {
            "election": null,
            "id": 26,
            "name": "Elgin—Middlesex—London"
          }
        ],
        "pollDivisionIds": [
          10143316
        ],
        "postalCode": "N5P2R3",
        "streetName": "EAST",
        "streetDirectionId": null,
        "streetTypeId": "ST",
        "placeName": "ST THOMAS",
        "streetNameDisplayText": "EAST ST, ST THOMAS"
      },
      {
        "electoralDistricts": [
          {
            "election": null,
            "id": 26,
            "name": "Elgin—Middlesex—London"
          }
        ],
        "pollDivisionIds": [
          10143316
        ],
        "postalCode": "N5P2R3",
        "streetName": "EAST",
        "streetDirectionId": null,
        "streetTypeId": "ST",
        "placeName": "ST. THOMAS",
        "streetNameDisplayText": "EAST ST, ST. THOMAS"
      }
    ]
  },
  {
    "postal": "N5P5N2",
    "result": []
  },
  {
    "postal": "N5P4Y7",
    "result": []
  },
  {
    "postal": "N5P7M0",
    "result": []
  },
  {
    "postal": "N5P8P3",
    "result": []
  },
  {
    "postal": "N5P3N3",
    "result": [
      {
        "electoralDistricts": [
          {
            "election": null,
            "id": 26,
            "name": "Elgin—Middlesex—London"
          }
        ],
        "pollDivisionIds": [
          10143142
        ],
        "postalCode": "N5P3N3",
        "streetName": "FRISCH",
        "streetDirectionId": null,
        "streetTypeId": "ST",
        "placeName": "ST THOMAS",
        "streetNameDisplayText": "FRISCH ST, ST THOMAS"
      }
    ]
  },
  {
    "postal": "N5P7S3",
    "result": []
  },
  {
    "postal": "N5P3V9",
    "result": [
      {
        "electoralDistricts": [
          {
            "election": null,
            "id": 26,
            "name": "Elgin—Middlesex—London"
          }
        ],
        "pollDivisionIds": [
          10143939
        ],
        "postalCode": "N5P3V9",
        "streetName": "SUNSET",
        "streetDirectionId": null,
        "streetTypeId": "DR",
        "placeName": "ST THOMAS",
        "streetNameDisplayText": "SUNSET DR, ST THOMAS"
      }
    ]
  },
  {
    "postal": "N5P9N7",
    "result": []
  },
  {
    "postal": "N5P0G4",
    "result": []
  },
  {
    "postal": "N5P2E2",
    "result": [
      {
        "electoralDistricts": [
          {
            "election": null,
            "id": 26,
            "name": "Elgin—Middlesex—London"
          }
        ],
        "pollDivisionIds": [
          10143142
        ],
        "postalCode": "N5P2E2",
        "streetName": "TECUMSEH",
        "streetDirectionId": null,
        "streetTypeId": "ST",
        "placeName": "ST THOMAS",
        "streetNameDisplayText": "TECUMSEH ST, ST THOMAS"
      }
    ]
  },
  {
    "postal": "N5P7W8",
    "result": []
  },
  {
    "postal": "N5P7M5",
    "result": []
  },
  {
    "postal": "N5P5W8",
    "result": []
  },
  {
    "postal": "N5P5E5",
    "result": []
  },
  {
    "postal": "N5P1P9",
    "result": [
      {
        "electoralDistricts": [
          {
            "election": null,
            "id": 26,
            "name": "Elgin—Middlesex—London"
          }
        ],
        "pollDivisionIds": [
          10143316
        ],
        "postalCode": "N5P1P9",
        "streetName": "EAGLE",
        "streetDirectionId": null,
        "streetTypeId": "ST",
        "placeName": "ST THOMAS",
        "streetNameDisplayText": "EAGLE ST, ST THOMAS"
      }
    ]
  },
  {
    "postal": "N5P8V8",
    "result": []
  },
  {
    "postal": "N5P9G8",
    "result": []
  },
  {
    "postal": "N5P8H9",
    "result": []
  },
  {
    "postal": "N5P1Z1",
    "result": [
      {
        "electoralDistricts": [
          {
            "election": null,
            "id": 26,
            "name": "Elgin—Middlesex—London"
          }
        ],
        "pollDivisionIds": [
          10137992
        ],
        "postalCode": "N5P1Z1",
        "streetName": "EDWARD",
        "streetDirectionId": null,
        "streetTypeId": "ST",
        "placeName": "ST THOMAS",
        "streetNameDisplayText": "EDWARD ST, ST THOMAS"
      }
    ]
  },
  {
    "postal": "N5P8M3",
    "result": []
  },
  {
    "postal": "N5P5H6",
    "result": []
  },
  {
    "postal": "N5P7W7",
    "result": []
  },
  {
    "postal": "N5P4L0",
    "result": []
  },
  {
    "postal": "N5P2N1",
    "result": [
      {
        "electoralDistricts": [
          {
            "election": null,
            "id": 26,
            "name": "Elgin—Middlesex—London"
          }
        ],
        "pollDivisionIds": [
          10143316
        ],
        "postalCode": "N5P2N1",
        "streetName": "NEW",
        "streetDirectionId": null,
        "streetTypeId": "ST",
        "placeName": "ST THOMAS",
        "streetNameDisplayText": "NEW ST, ST THOMAS"
      }
    ]
  },
  {
    "postal": "N5P2H4",
    "result": [
      {
        "electoralDistricts": [
          {
            "election": null,
            "id": 26,
            "name": "Elgin—Middlesex—London"
          }
        ],
        "pollDivisionIds": [
          10143141
        ],
        "postalCode": "N5P2H4",
        "streetName": "SOUTH EDGEWARE",
        "streetDirectionId": null,
        "streetTypeId": "RD",
        "placeName": "ST THOMAS",
        "streetNameDisplayText": "SOUTH EDGEWARE RD, ST THOMAS"
      }
    ]
  },
  {
    "postal": "N5P5C8",
    "result": []
  },
  {
    "postal": "N5P8B0",
    "result": []
  },
  {
    "postal": "N5P1T4",
    "result": [
      {
        "electoralDistricts": [
          {
            "election": null,
            "id": 26,
            "name": "Elgin—Middlesex—London"
          }
        ],
        "pollDivisionIds": [
          10143142
        ],
        "postalCode": "N5P1T4",
        "streetName": "REDAN",
        "streetDirectionId": null,
        "streetTypeId": "ST",
        "placeName": "ST THOMAS",
        "streetNameDisplayText": "REDAN ST, ST THOMAS"
      }
    ]
  },
  {
    "postal": "N5P7N7",
    "result": []
  },
  {
    "postal": "N5P4L3",
    "result": [
      {
        "electoralDistricts": [
          {
            "election": null,
            "id": 26,
            "name": "Elgin—Middlesex—London"
          }
        ],
        "pollDivisionIds": [
          10143140
        ],
        "postalCode": "N5P4L3",
        "streetName": "FLORENCE",
        "streetDirectionId": null,
        "streetTypeId": "ST",
        "placeName": "ST THOMAS",
        "streetNameDisplayText": "FLORENCE ST, ST THOMAS"
      },
      {
        "electoralDistricts": [
          {
            "election": null,
            "id": 26,
            "name": "Elgin—Middlesex—London"
          }
        ],
        "pollDivisionIds": [
          10143140
        ],
        "postalCode": "N5P4L3",
        "streetName": "MAJOR",
        "streetDirectionId": null,
        "streetTypeId": "LINE",
        "placeName": "ST THOMAS",
        "streetNameDisplayText": "MAJOR LINE, ST THOMAS"
      }
    ]
  },
  {
    "postal": "N5P2N2",
    "result": [
      {
        "electoralDistricts": [
          {
            "election": null,
            "id": 26,
            "name": "Elgin—Middlesex—London"
          }
        ],
        "pollDivisionIds": [
          10143316
        ],
        "postalCode": "N5P2N2",
        "streetName": "BURROWS",
        "streetDirectionId": null,
        "streetTypeId": "AVE",
        "placeName": "ST THOMAS",
        "streetNameDisplayText": "BURROWS AVE, ST THOMAS"
      }
    ]
  },
  {
    "postal": "N5P4N8",
    "result": [
      {
        "electoralDistricts": [
          {
            "election": null,
            "id": 26,
            "name": "Elgin—Middlesex—London"
          }
        ],
        "pollDivisionIds": [
          10143140
        ],
        "postalCode": "N5P4N8",
        "streetName": "MCBAIN",
        "streetDirectionId": null,
        "streetTypeId": "LINE",
        "placeName": "ST THOMAS",
        "streetNameDisplayText": "MCBAIN LINE, ST THOMAS"
      },
      {
        "electoralDistricts": [
          {
            "election": null,
            "id": 26,
            "name": "Elgin—Middlesex—London"
          }
        ],
        "pollDivisionIds": [
          10143140
        ],
        "postalCode": "N5P4N8",
        "streetName": "SHAW",
        "streetDirectionId": null,
        "streetTypeId": "BLVD",
        "placeName": "ST THOMAS",
        "streetNameDisplayText": "SHAW BLVD, ST THOMAS"
      }
    ]
  },
  {
    "postal": "N5P3M5",
    "result": [
      {
        "electoralDistricts": [
          {
            "election": null,
            "id": 26,
            "name": "Elgin—Middlesex—London"
          }
        ],
        "pollDivisionIds": [
          10143142
        ],
        "postalCode": "N5P3M5",
        "streetName": "JOYCE",
        "streetDirectionId": null,
        "streetTypeId": "ST",
        "placeName": "ST THOMAS",
        "streetNameDisplayText": "JOYCE ST, ST THOMAS"
      }
    ]
  },
  {
    "postal": "N5P6H7",
    "result": []
  },
  {
    "postal": "N5P8Y8",
    "result": []
  },
  {
    "postal": "N5P5R9",
    "result": []
  },
  {
    "postal": "N5P8G3",
    "result": []
  },
  {
    "postal": "N5P4N7",
    "result": [
      {
        "electoralDistricts": [
          {
            "election": null,
            "id": 26,
            "name": "Elgin—Middlesex—London"
          }
        ],
        "pollDivisionIds": [
          10143140
        ],
        "postalCode": "N5P4N7",
        "streetName": "OWEN",
        "streetDirectionId": null,
        "streetTypeId": "CRT",
        "placeName": "ST THOMAS",
        "streetNameDisplayText": "OWEN CRT, ST THOMAS"
      }
    ]
  },
  {
    "postal": "N5P0B9",
    "result": []
  },
  {
    "postal": "N5P9K7",
    "result": []
  },
  {
    "postal": "N5P9K9",
    "result": []
  },
  {
    "postal": "N5P3Z2",
    "result": [
      {
        "electoralDistricts": [
          {
            "election": null,
            "id": 26,
            "name": "Elgin—Middlesex—London"
          }
        ],
        "pollDivisionIds": [
          10143141
        ],
        "postalCode": "N5P3Z2",
        "streetName": "WOODHAVEN",
        "streetDirectionId": null,
        "streetTypeId": "CRT",
        "placeName": "ST THOMAS",
        "streetNameDisplayText": "WOODHAVEN CRT, ST THOMAS"
      }
    ]
  },
  {
    "postal": "N5P6W7",
    "result": []
  },
  {
    "postal": "N5P0P1",
    "result": []
  },
  {
    "postal": "N5P3A0",
    "result": []
  },
  {
    "postal": "N5P8L9",
    "result": []
  },
  {
    "postal": "N5P6X0",
    "result": []
  },
  {
    "postal": "N5P3E9",
    "result": [
      {
        "electoralDistricts": [
          {
            "election": null,
            "id": 26,
            "name": "Elgin—Middlesex—London"
          }
        ],
        "pollDivisionIds": [
          10143142
        ],
        "postalCode": "N5P3E9",
        "streetName": "INKERMAN",
        "streetDirectionId": null,
        "streetTypeId": "ST",
        "placeName": "ST THOMAS",
        "streetNameDisplayText": "INKERMAN ST, ST THOMAS"
      }
    ]
  },
  {
    "postal": "N5P0S5",
    "result": []
  },
  {
    "postal": "N5P1A2",
    "result": [
      {
        "electoralDistricts": [
          {
            "election": null,
            "id": 26,
            "name": "Elgin—Middlesex—London"
          }
        ],
        "pollDivisionIds": [
          10143316
        ],
        "postalCode": "N5P1A2",
        "streetName": "TALBOT",
        "streetDirectionId": null,
        "streetTypeId": "ST",
        "placeName": "ST THOMAS",
        "streetNameDisplayText": "TALBOT ST, ST THOMAS"
      }
    ]
  },
  {
    "postal": "N5P5V8",
    "result": []
  },
  {
    "postal": "N5P8C5",
    "result": []
  },
  {
    "postal": "N5P6N0",
    "result": []
  },
  {
    "postal": "N5P9E6",
    "result": []
  },
  {
    "postal": "N5P5J7",
    "result": []
  },
  {
    "postal": "N5P2R2",
    "result": [
      {
        "electoralDistricts": [
          {
            "election": null,
            "id": 26,
            "name": "Elgin—Middlesex—London"
          }
        ],
        "pollDivisionIds": [
          10143316
        ],
        "postalCode": "N5P2R2",
        "streetName": "EAST",
        "streetDirectionId": null,
        "streetTypeId": "ST",
        "placeName": "ST THOMAS",
        "streetNameDisplayText": "EAST ST, ST THOMAS"
      }
    ]
  },
  {
    "postal": "N5P0P5",
    "result": []
  },
  {
    "postal": "N5P5A7",
    "result": []
  },
  {
    "postal": "N5P1G1",
    "result": [
      {
        "electoralDistricts": [
          {
            "election": null,
            "id": 26,
            "name": "Elgin—Middlesex—London"
          }
        ],
        "pollDivisionIds": [
          10143318,
          10137992
        ],
        "postalCode": "N5P1G1",
        "streetName": "TALBOT",
        "streetDirectionId": null,
        "streetTypeId": "ST",
        "placeName": "ST THOMAS",
        "streetNameDisplayText": "TALBOT ST, ST THOMAS"
      }
    ]
  },
  {
    "postal": "N5P9R6",
    "result": []
  },
  {
    "postal": "N5P4Z9",
    "result": []
  },
  {
    "postal": "N5P1V5",
    "result": [
      {
        "electoralDistricts": [
          {
            "election": null,
            "id": 26,
            "name": "Elgin—Middlesex—London"
          }
        ],
        "pollDivisionIds": [
          10137992
        ],
        "postalCode": "N5P1V5",
        "streetName": "REDAN",
        "streetDirectionId": null,
        "streetTypeId": "ST",
        "placeName": "ST THOMAS",
        "streetNameDisplayText": "REDAN ST, ST THOMAS"
      }
    ]
  },
  {
    "postal": "N5P9Y5",
    "result": []
  },
  {
    "postal": "N5P1P2",
    "result": [
      {
        "electoralDistricts": [
          {
            "election": null,
            "id": 26,
            "name": "Elgin—Middlesex—London"
          }
        ],
        "pollDivisionIds": [
          10143140
        ],
        "postalCode": "N5P1P2",
        "streetName": "WOODLAND",
        "streetDirectionId": null,
        "streetTypeId": "RD",
        "placeName": "ST THOMAS",
        "streetNameDisplayText": "WOODLAND RD, ST THOMAS"
      }
    ]
  },
  {
    "postal": "N5P5X0",
    "result": []
  },
  {
    "postal": "N5P7B8",
    "result": []
  },
  {
    "postal": "N5P0C6",
    "result": [
      {
        "electoralDistricts": [
          {
            "election": null,
            "id": 26,
            "name": "Elgin—Middlesex—London"
          }
        ],
        "pollDivisionIds": [
          10137989
        ],
        "postalCode": "N5P0C6",
        "streetName": "WESTLAKE",
        "streetDirectionId": null,
        "streetTypeId": "DR",
        "placeName": "ST THOMAS",
        "streetNameDisplayText": "WESTLAKE DR, ST THOMAS"
      }
    ]
  },
  {
    "postal": "N5P6G1",
    "result": []
  },
  {
    "postal": "N5P3K3",
    "result": [
      {
        "electoralDistricts": [
          {
            "election": null,
            "id": 26,
            "name": "Elgin—Middlesex—London"
          }
        ],
        "pollDivisionIds": [
          10143142
        ],
        "postalCode": "N5P3K3",
        "streetName": "WOODWORTH",
        "streetDirectionId": null,
        "streetTypeId": "AVE",
        "placeName": "ST THOMAS",
        "streetNameDisplayText": "WOODWORTH AVE, ST THOMAS"
      }
    ]
  },
  {
    "postal": "N5P9R0",
    "result": []
  },
  {
    "postal": "N5P4R8",
    "result": []
  },
  {
    "postal": "N5P5P9",
    "result": []
  },
  {
    "postal": "N5P8N4",
    "result": []
  },
  {
    "postal": "N5P8H4",
    "result": []
  },
  {
    "postal": "N5P4V1",
    "result": []
  },
  {
    "postal": "N5P1K5",
    "result": [
      {
        "electoralDistricts": [
          {
            "election": null,
            "id": 26,
            "name": "Elgin—Middlesex—London"
          }
        ],
        "pollDivisionIds": [
          10143316
        ],
        "postalCode": "N5P1K5",
        "streetName": "SCOTT",
        "streetDirectionId": null,
        "streetTypeId": "ST",
        "placeName": "ST THOMAS",
        "streetNameDisplayText": "SCOTT ST, ST THOMAS"
      }
    ]
  },
  {
    "postal": "N5P1Z5",
    "result": [
      {
        "electoralDistricts": [
          {
            "election": null,
            "id": 26,
            "name": "Elgin—Middlesex—London"
          }
        ],
        "pollDivisionIds": [
          10137992
        ],
        "postalCode": "N5P1Z5",
        "streetName": "EDWARD",
        "streetDirectionId": null,
        "streetTypeId": "ST",
        "placeName": "ST THOMAS",
        "streetNameDisplayText": "EDWARD ST, ST THOMAS"
      }
    ]
  },
  {
    "postal": "N5P9L9",
    "result": []
  },
  {
    "postal": "N5P5L2",
    "result": []
  },
  {
    "postal": "N5P0M2",
    "result": []
  },
  {
    "postal": "N5P1K8",
    "result": [
      {
        "electoralDistricts": [
          {
            "election": null,
            "id": 26,
            "name": "Elgin—Middlesex—London"
          }
        ],
        "pollDivisionIds": [
          10143316
        ],
        "postalCode": "N5P1K8",
        "streetName": "SCOTT",
        "streetDirectionId": null,
        "streetTypeId": "ST",
        "placeName": "ST THOMAS",
        "streetNameDisplayText": "SCOTT ST, ST THOMAS"
      }
    ]
  },
  {
    "postal": "N5P3M7",
    "result": [
      {
        "electoralDistricts": [
          {
            "election": null,
            "id": 26,
            "name": "Elgin—Middlesex—London"
          }
        ],
        "pollDivisionIds": [
          10137992
        ],
        "postalCode": "N5P3M7",
        "streetName": "ALEXANDRIA",
        "streetDirectionId": null,
        "streetTypeId": "AVE",
        "placeName": "ST THOMAS",
        "streetNameDisplayText": "ALEXANDRIA AVE, ST THOMAS"
      }
    ]
  },
  {
    "postal": "N5P1B2",
    "result": [
      {
        "electoralDistricts": [
          {
            "election": null,
            "id": 26,
            "name": "Elgin—Middlesex—London"
          }
        ],
        "pollDivisionIds": [
          10137993
        ],
        "postalCode": "N5P1B2",
        "streetName": "TALBOT",
        "streetDirectionId": null,
        "streetTypeId": "ST",
        "placeName": "ST THOMAS",
        "streetNameDisplayText": "TALBOT ST, ST THOMAS"
      }
    ]
  },
  {
    "postal": "N5P0H9",
    "result": []
  },
  {
    "postal": "N5P8M4",
    "result": []
  },
  {
    "postal": "N5P2M5",
    "result": [
      {
        "electoralDistricts": [
          {
            "election": null,
            "id": 26,
            "name": "Elgin—Middlesex—London"
          }
        ],
        "pollDivisionIds": [
          10143140
        ],
        "postalCode": "N5P2M5",
        "streetName": "ST GEORGE",
        "streetDirectionId": null,
        "streetTypeId": "ST",
        "placeName": "ST THOMAS",
        "streetNameDisplayText": "ST GEORGE ST, ST THOMAS"
      }
    ]
  },
  {
    "postal": "N5P0T9",
    "result": []
  },
  {
    "postal": "N5P3P1",
    "result": [
      {
        "electoralDistricts": [
          {
            "election": null,
            "id": 26,
            "name": "Elgin—Middlesex—London"
          }
        ],
        "pollDivisionIds": [
          10143141
        ],
        "postalCode": "N5P3P1",
        "streetName": "CONFEDERATION",
        "streetDirectionId": null,
        "streetTypeId": "DR",
        "placeName": "ST THOMAS",
        "streetNameDisplayText": "CONFEDERATION DR, ST THOMAS"
      }
    ]
  },
  {
    "postal": "N5P1R6",
    "result": [
      {
        "electoralDistricts": [
          {
            "election": null,
            "id": 26,
            "name": "Elgin—Middlesex—London"
          }
        ],
        "pollDivisionIds": [
          10143316
        ],
        "postalCode": "N5P1R6",
        "streetName": "ELYSIAN",
        "streetDirectionId": null,
        "streetTypeId": "ST",
        "placeName": "ST THOMAS",
        "streetNameDisplayText": "ELYSIAN ST, ST THOMAS"
      }
    ]
  },
  {
    "postal": "N5P9V5",
    "result": []
  },
  {
    "postal": "N5P9T0",
    "result": []
  },
  {
    "postal": "N5P0A9",
    "result": [
      {
        "electoralDistricts": [
          {
            "election": null,
            "id": 26,
            "name": "Elgin—Middlesex—London"
          }
        ],
        "pollDivisionIds": [
          10137989
        ],
        "postalCode": "N5P0A9",
        "streetName": "AMBLESIDE",
        "streetDirectionId": null,
        "streetTypeId": "DR",
        "placeName": "ST THOMAS",
        "streetNameDisplayText": "AMBLESIDE DR, ST THOMAS"
      },
      {
        "electoralDistricts": [
          {
            "election": null,
            "id": 26,
            "name": "Elgin—Middlesex—London"
          }
        ],
        "pollDivisionIds": [
          10137989
        ],
        "postalCode": "N5P0A9",
        "streetName": "PINE VALLEY",
        "streetDirectionId": null,
        "streetTypeId": "DR",
        "placeName": "ST THOMAS",
        "streetNameDisplayText": "PINE VALLEY DR, ST THOMAS"
      }
    ]
  },
  {
    "postal": "N5P1M3",
    "result": [
      {
        "electoralDistricts": [
          {
            "election": null,
            "id": 26,
            "name": "Elgin—Middlesex—London"
          }
        ],
        "pollDivisionIds": [
          10137992
        ],
        "postalCode": "N5P1M3",
        "streetName": "MALAKOFF",
        "streetDirectionId": null,
        "streetTypeId": "ST",
        "placeName": "ST THOMAS",
        "streetNameDisplayText": "MALAKOFF ST, ST THOMAS"
      }
    ]
  },
  {
    "postal": "N5P1W8",
    "result": [
      {
        "electoralDistricts": [
          {
            "election": null,
            "id": 26,
            "name": "Elgin—Middlesex—London"
          }
        ],
        "pollDivisionIds": [
          10143142
        ],
        "postalCode": "N5P1W8",
        "streetName": "MARIAM",
        "streetDirectionId": null,
        "streetTypeId": "ST",
        "placeName": "ST THOMAS",
        "streetNameDisplayText": "MARIAM ST, ST THOMAS"
      }
    ]
  },
  {
    "postal": "N5P9J1",
    "result": []
  },
  {
    "postal": "N5P8N5",
    "result": []
  },
  {
    "postal": "N5P5X1",
    "result": []
  },
  {
    "postal": "N5P6S2",
    "result": []
  },
  {
    "postal": "N5P2A2",
    "result": [
      {
        "electoralDistricts": [
          {
            "election": null,
            "id": 26,
            "name": "Elgin—Middlesex—London"
          }
        ],
        "pollDivisionIds": [
          10143142
        ],
        "postalCode": "N5P2A2",
        "streetName": "BARWICK",
        "streetDirectionId": null,
        "streetTypeId": "ST",
        "placeName": "ST THOMAS",
        "streetNameDisplayText": "BARWICK ST, ST THOMAS"
      }
    ]
  },
  {
    "postal": "N5P6A6",
    "result": []
  },
  {
    "postal": "N5P0S3",
    "result": []
  },
  {
    "postal": "N5P3E7",
    "result": [
      {
        "electoralDistricts": [
          {
            "election": null,
            "id": 26,
            "name": "Elgin—Middlesex—London"
          }
        ],
        "pollDivisionIds": [
          10143142
        ],
        "postalCode": "N5P3E7",
        "streetName": "INKERMAN",
        "streetDirectionId": null,
        "streetTypeId": "ST",
        "placeName": "ST THOMAS",
        "streetNameDisplayText": "INKERMAN ST, ST THOMAS"
      }
    ]
  },
  {
    "postal": "N5P5R7",
    "result": []
  },
  {
    "postal": "N5P3R6",
    "result": [
      {
        "electoralDistricts": [
          {
            "election": null,
            "id": 26,
            "name": "Elgin—Middlesex—London"
          }
        ],
        "pollDivisionIds": [
          10137992
        ],
        "postalCode": "N5P3R6",
        "streetName": "BURWELL",
        "streetDirectionId": null,
        "streetTypeId": "RD",
        "placeName": "ST THOMAS",
        "streetNameDisplayText": "BURWELL RD, ST THOMAS"
      }
    ]
  },
  {
    "postal": "N5P6K4",
    "result": []
  },
  {
    "postal": "N5P2W5",
    "result": [
      {
        "electoralDistricts": [
          {
            "election": null,
            "id": 26,
            "name": "Elgin—Middlesex—London"
          }
        ],
        "pollDivisionIds": [
          10143316
        ],
        "postalCode": "N5P2W5",
        "streetName": "ST CATHARINE",
        "streetDirectionId": null,
        "streetTypeId": "ST",
        "placeName": "ST THOMAS",
        "streetNameDisplayText": "ST CATHARINE ST, ST THOMAS"
      }
    ]
  },
  {
    "postal": "N5P8W4",
    "result": []
  },
  {
    "postal": "N5P9C2",
    "result": []
  },
  {
    "postal": "N5P2C0",
    "result": []
  },
  {
    "postal": "N5P0E1",
    "result": [
      {
        "electoralDistricts": [
          {
            "election": null,
            "id": 26,
            "name": "Elgin—Middlesex—London"
          }
        ],
        "pollDivisionIds": [
          10143140
        ],
        "postalCode": "N5P0E1",
        "streetName": "VINEDEN",
        "streetDirectionId": null,
        "streetTypeId": "DR",
        "placeName": "ST THOMAS",
        "streetNameDisplayText": "VINEDEN DR, ST THOMAS"
      }
    ]
  },
  {
    "postal": "N5P1K9",
    "result": [
      {
        "electoralDistricts": [
          {
            "election": null,
            "id": 26,
            "name": "Elgin—Middlesex—London"
          }
        ],
        "pollDivisionIds": [
          10143316
        ],
        "postalCode": "N5P1K9",
        "streetName": "SCOTT",
        "streetDirectionId": null,
        "streetTypeId": "ST",
        "placeName": "ST THOMAS",
        "streetNameDisplayText": "SCOTT ST, ST THOMAS"
      }
    ]
  },
  {
    "postal": "N5P1G7",
    "result": [
      {
        "electoralDistricts": [
          {
            "election": null,
            "id": 26,
            "name": "Elgin—Middlesex—London"
          }
        ],
        "pollDivisionIds": [
          10143318
        ],
        "postalCode": "N5P1G7",
        "streetName": "TALBOT",
        "streetDirectionId": null,
        "streetTypeId": "ST",
        "placeName": "ST THOMAS",
        "streetNameDisplayText": "TALBOT ST, ST THOMAS"
      }
    ]
  },
  {
    "postal": "N5P4E9",
    "result": [
      {
        "electoralDistricts": [
          {
            "election": null,
            "id": 26,
            "name": "Elgin—Middlesex—London"
          }
        ],
        "pollDivisionIds": [
          10143141
        ],
        "postalCode": "N5P4E9",
        "streetName": "SOUTH EDGEWARE",
        "streetDirectionId": null,
        "streetTypeId": "RD",
        "placeName": "ST THOMAS",
        "streetNameDisplayText": "SOUTH EDGEWARE RD, ST THOMAS"
      }
    ]
  },
  {
    "postal": "N5P9P0",
    "result": []
  },
  {
    "postal": "N5P5H3",
    "result": []
  },
  {
    "postal": "N5P9X6",
    "result": []
  },
  {
    "postal": "N5P5N7",
    "result": []
  },
  {
    "postal": "N5P5A6",
    "result": []
  },
  {
    "postal": "N5P4M0",
    "result": []
  },
  {
    "postal": "N5P3V6",
    "result": []
  },
  {
    "postal": "N5P1L7",
    "result": [
      {
        "electoralDistricts": [
          {
            "election": null,
            "id": 26,
            "name": "Elgin—Middlesex—London"
          }
        ],
        "pollDivisionIds": [
          10143142
        ],
        "postalCode": "N5P1L7",
        "streetName": "MALAKOFF",
        "streetDirectionId": null,
        "streetTypeId": "ST",
        "placeName": "ST THOMAS",
        "streetNameDisplayText": "MALAKOFF ST, ST THOMAS"
      }
    ]
  },
  {
    "postal": "N5P2P9",
    "result": [
      {
        "electoralDistricts": [
          {
            "election": null,
            "id": 26,
            "name": "Elgin—Middlesex—London"
          }
        ],
        "pollDivisionIds": [
          10143316
        ],
        "postalCode": "N5P2P9",
        "streetName": "EAST",
        "streetDirectionId": null,
        "streetTypeId": "ST",
        "placeName": "ST THOMAS",
        "streetNameDisplayText": "EAST ST, ST THOMAS"
      }
    ]
  },
  {
    "postal": "N5P5T4",
    "result": []
  },
  {
    "postal": "N5P5Z1",
    "result": []
  },
  {
    "postal": "N5P2X0",
    "result": []
  },
  {
    "postal": "N5P6Z2",
    "result": []
  },
  {
    "postal": "N5P0E0",
    "result": []
  },
  {
    "postal": "N5P3Z5",
    "result": []
  },
  {
    "postal": "N5P8H3",
    "result": []
  },
  {
    "postal": "N5P7S6",
    "result": []
  },
  {
    "postal": "N5P4C1",
    "result": [
      {
        "electoralDistricts": [
          {
            "election": null,
            "id": 26,
            "name": "Elgin—Middlesex—London"
          }
        ],
        "pollDivisionIds": [
          10143317,
          10143141
        ],
        "postalCode": "N5P4C1",
        "streetName": "CONFEDERATION",
        "streetDirectionId": null,
        "streetTypeId": "DR",
        "placeName": "ST THOMAS",
        "streetNameDisplayText": "CONFEDERATION DR, ST THOMAS"
      }
    ]
  },
  {
    "postal": "N5P3K2",
    "result": [
      {
        "electoralDistricts": [
          {
            "election": null,
            "id": 26,
            "name": "Elgin—Middlesex—London"
          }
        ],
        "pollDivisionIds": [
          10143142
        ],
        "postalCode": "N5P3K2",
        "streetName": "WOODWORTH",
        "streetDirectionId": null,
        "streetTypeId": "AVE",
        "placeName": "ST THOMAS",
        "streetNameDisplayText": "WOODWORTH AVE, ST THOMAS"
      }
    ]
  },
  {
    "postal": "N5P1Y5",
    "result": [
      {
        "electoralDistricts": [
          {
            "election": null,
            "id": 26,
            "name": "Elgin—Middlesex—London"
          }
        ],
        "pollDivisionIds": [
          10143142
        ],
        "postalCode": "N5P1Y5",
        "streetName": "EDWARD",
        "streetDirectionId": null,
        "streetTypeId": "ST",
        "placeName": "ST THOMAS",
        "streetNameDisplayText": "EDWARD ST, ST THOMAS"
      }
    ]
  },
  {
    "postal": "N5P6P6",
    "result": []
  },
  {
    "postal": "N5P3N9",
    "result": [
      {
        "electoralDistricts": [
          {
            "election": null,
            "id": 26,
            "name": "Elgin—Middlesex—London"
          }
        ],
        "pollDivisionIds": [
          10143141
        ],
        "postalCode": "N5P3N9",
        "streetName": "CONFEDERATION",
        "streetDirectionId": null,
        "streetTypeId": "DR",
        "placeName": "ST THOMAS",
        "streetNameDisplayText": "CONFEDERATION DR, ST THOMAS"
      }
    ]
  },
  {
    "postal": "N5P3W2",
    "result": []
  },
  {
    "postal": "N5P6H8",
    "result": []
  },
  {
    "postal": "N5P9T3",
    "result": []
  },
  {
    "postal": "N5P5L9",
    "result": []
  },
  {
    "postal": "N5P7X7",
    "result": []
  },
  {
    "postal": "N5P3J5",
    "result": [
      {
        "electoralDistricts": [
          {
            "election": null,
            "id": 26,
            "name": "Elgin—Middlesex—London"
          }
        ],
        "pollDivisionIds": [
          10137992
        ],
        "postalCode": "N5P3J5",
        "streetName": "WOODWORTH",
        "streetDirectionId": null,
        "streetTypeId": "AVE",
        "placeName": "ST THOMAS",
        "streetNameDisplayText": "WOODWORTH AVE, ST THOMAS"
      }
    ]
  },
  {
    "postal": "N5P4J5",
    "result": [
      {
        "electoralDistricts": [
          {
            "election": null,
            "id": 26,
            "name": "Elgin—Middlesex—London"
          }
        ],
        "pollDivisionIds": [
          10137992
        ],
        "postalCode": "N5P4J5",
        "streetName": "COSMA",
        "streetDirectionId": null,
        "streetTypeId": "CRT",
        "placeName": "ST THOMAS",
        "streetNameDisplayText": "COSMA CRT, ST THOMAS"
      }
    ]
  },
  {
    "postal": "N5P6J2",
    "result": []
  },
  {
    "postal": "N5P5V6",
    "result": []
  },
  {
    "postal": "N5P3N2",
    "result": [
      {
        "electoralDistricts": [
          {
            "election": null,
            "id": 26,
            "name": "Elgin—Middlesex—London"
          }
        ],
        "pollDivisionIds": [
          10143142
        ],
        "postalCode": "N5P3N2",
        "streetName": "FRISCH",
        "streetDirectionId": null,
        "streetTypeId": "ST",
        "placeName": "ST THOMAS",
        "streetNameDisplayText": "FRISCH ST, ST THOMAS"
      }
    ]
  },
  {
    "postal": "N5P3B1",
    "result": [
      {
        "electoralDistricts": [
          {
            "election": null,
            "id": 26,
            "name": "Elgin—Middlesex—London"
          }
        ],
        "pollDivisionIds": [
          10143142
        ],
        "postalCode": "N5P3B1",
        "streetName": "ALMA",
        "streetDirectionId": null,
        "streetTypeId": "ST",
        "placeName": "ST THOMAS",
        "streetNameDisplayText": "ALMA ST, ST THOMAS"
      }
    ]
  },
  {
    "postal": "N5P8B5",
    "result": []
  },
  {
    "postal": "N5P0K1",
    "result": []
  },
  {
    "postal": "N5P7M7",
    "result": []
  },
  {
    "postal": "N5P2M2",
    "result": []
  },
  {
    "postal": "N5P9N3",
    "result": []
  },
  {
    "postal": "N5P4Y8",
    "result": []
  },
  {
    "postal": "N5P3V7",
    "result": []
  },
  {
    "postal": "N5P8Z1",
    "result": []
  },
  {
    "postal": "N5P7B3",
    "result": []
  },
  {
    "postal": "N5P3A8",
    "result": [
      {
        "electoralDistricts": [
          {
            "election": null,
            "id": 26,
            "name": "Elgin—Middlesex—London"
          }
        ],
        "pollDivisionIds": [
          10143142
        ],
        "postalCode": "N5P3A8",
        "streetName": "ALMA",
        "streetDirectionId": null,
        "streetTypeId": "ST",
        "placeName": "ST THOMAS",
        "streetNameDisplayText": "ALMA ST, ST THOMAS"
      }
    ]
  },
  {
    "postal": "N5P7V5",
    "result": []
  },
  {
    "postal": "N5P2T2",
    "result": [
      {
        "electoralDistricts": [
          {
            "election": null,
            "id": 26,
            "name": "Elgin—Middlesex—London"
          }
        ],
        "pollDivisionIds": [
          10143316
        ],
        "postalCode": "N5P2T2",
        "streetName": "HIAWATHA",
        "streetDirectionId": null,
        "streetTypeId": "ST",
        "placeName": "ST THOMAS",
        "streetNameDisplayText": "HIAWATHA ST, ST THOMAS"
      }
    ]
  },
  {
    "postal": "N5P6L3",
    "result": []
  },
  {
    "postal": "N5P0L2",
    "result": []
  },
  {
    "postal": "N5P5Y8",
    "result": []
  },
  {
    "postal": "N5P0B8",
    "result": [
      {
        "electoralDistricts": [
          {
            "election": null,
            "id": 26,
            "name": "Elgin—Middlesex—London"
          }
        ],
        "pollDivisionIds": [
          10137989
        ],
        "postalCode": "N5P0B8",
        "streetName": "DEERFIELD",
        "streetDirectionId": null,
        "streetTypeId": "CRT",
        "placeName": "ST THOMAS",
        "streetNameDisplayText": "DEERFIELD CRT, ST THOMAS"
      },
      {
        "electoralDistricts": [
          {
            "election": null,
            "id": 26,
            "name": "Elgin—Middlesex—London"
          }
        ],
        "pollDivisionIds": [
          10137989
        ],
        "postalCode": "N5P0B8",
        "streetName": "PINE VALLEY",
        "streetDirectionId": null,
        "streetTypeId": "DR",
        "placeName": "ST THOMAS",
        "streetNameDisplayText": "PINE VALLEY DR, ST THOMAS"
      }
    ]
  },
  {
    "postal": "N5P6R5",
    "result": []
  },
  {
    "postal": "N5P8W6",
    "result": []
  },
  {
    "postal": "N5P8G6",
    "result": []
  },
  {
    "postal": "N5P6X3",
    "result": []
  },
  {
    "postal": "N5P7R7",
    "result": []
  },
  {
    "postal": "N5P4B6",
    "result": [
      {
        "electoralDistricts": [
          {
            "election": null,
            "id": 26,
            "name": "Elgin—Middlesex—London"
          }
        ],
        "pollDivisionIds": [
          10143141
        ],
        "postalCode": "N5P4B6",
        "streetName": "MACKENZIE",
        "streetDirectionId": null,
        "streetTypeId": "PL",
        "placeName": "ST THOMAS",
        "streetNameDisplayText": "MACKENZIE PL, ST THOMAS"
      }
    ]
  },
  {
    "postal": "N5P3P9",
    "result": [
      {
        "electoralDistricts": [
          {
            "election": null,
            "id": 26,
            "name": "Elgin—Middlesex—London"
          }
        ],
        "pollDivisionIds": [
          10137992
        ],
        "postalCode": "N5P3P9",
        "streetName": "CURRAH",
        "streetDirectionId": null,
        "streetTypeId": "RD",
        "placeName": "ST THOMAS",
        "streetNameDisplayText": "CURRAH RD, ST THOMAS"
      }
    ]
  },
  {
    "postal": "N5P2T3",
    "result": [
      {
        "electoralDistricts": [
          {
            "election": null,
            "id": 26,
            "name": "Elgin—Middlesex—London"
          }
        ],
        "pollDivisionIds": [
          10143316
        ],
        "postalCode": "N5P2T3",
        "streetName": "HIAWATHA",
        "streetDirectionId": null,
        "streetTypeId": "ST",
        "placeName": "ST THOMAS",
        "streetNameDisplayText": "HIAWATHA ST, ST THOMAS"
      }
    ]
  },
  {
    "postal": "N5P1M4",
    "result": [
      {
        "electoralDistricts": [
          {
            "election": null,
            "id": 26,
            "name": "Elgin—Middlesex—London"
          }
        ],
        "pollDivisionIds": [
          10137992
        ],
        "postalCode": "N5P1M4",
        "streetName": "MALAKOFF",
        "streetDirectionId": null,
        "streetTypeId": "ST",
        "placeName": "ST THOMAS",
        "streetNameDisplayText": "MALAKOFF ST, ST THOMAS"
      }
    ]
  },
  {
    "postal": "N5P0H1",
    "result": []
  },
  {
    "postal": "N5P9W3",
    "result": []
  },
  {
    "postal": "N5P6P1",
    "result": []
  },
  {
    "postal": "N5P7G2",
    "result": []
  },
  {
    "postal": "N5P4J9",
    "result": [
      {
        "electoralDistricts": [
          {
            "election": null,
            "id": 26,
            "name": "Elgin—Middlesex—London"
          }
        ],
        "pollDivisionIds": [
          10143141
        ],
        "postalCode": "N5P4J9",
        "streetName": "SANDERS",
        "streetDirectionId": null,
        "streetTypeId": "CRT",
        "placeName": "ST THOMAS",
        "streetNameDisplayText": "SANDERS CRT, ST THOMAS"
      }
    ]
  },
  {
    "postal": "N5P9E4",
    "result": []
  },
  {
    "postal": "N5P8H0",
    "result": []
  },
  {
    "postal": "N5P4M7",
    "result": [
      {
        "electoralDistricts": [
          {
            "election": null,
            "id": 26,
            "name": "Elgin—Middlesex—London"
          }
        ],
        "pollDivisionIds": [
          10137989,
          10143141
        ],
        "postalCode": "N5P4M7",
        "streetName": "COTTONWOOD",
        "streetDirectionId": null,
        "streetTypeId": "DR",
        "placeName": "ST THOMAS",
        "streetNameDisplayText": "COTTONWOOD DR, ST THOMAS"
      },
      {
        "electoralDistricts": [
          {
            "election": null,
            "id": 26,
            "name": "Elgin—Middlesex—London"
          }
        ],
        "pollDivisionIds": [
          10143141
        ],
        "postalCode": "N5P4M7",
        "streetName": "GOLDENROD",
        "streetDirectionId": null,
        "streetTypeId": "CRT",
        "placeName": "ST THOMAS",
        "streetNameDisplayText": "GOLDENROD CRT, ST THOMAS"
      },
      {
        "electoralDistricts": [
          {
            "election": null,
            "id": 26,
            "name": "Elgin—Middlesex—London"
          }
        ],
        "pollDivisionIds": [
          10143141
        ],
        "postalCode": "N5P4M7",
        "streetName": "LINDEN",
        "streetDirectionId": null,
        "streetTypeId": "LANE",
        "placeName": "ST THOMAS",
        "streetNameDisplayText": "LINDEN LANE, ST THOMAS"
      }
    ]
  },
  {
    "postal": "N5P2G9",
    "result": [
      {
        "electoralDistricts": [
          {
            "election": null,
            "id": 26,
            "name": "Elgin—Middlesex—London"
          }
        ],
        "pollDivisionIds": [
          10143142
        ],
        "postalCode": "N5P2G9",
        "streetName": "SOUTH EDGEWARE",
        "streetDirectionId": null,
        "streetTypeId": "RD",
        "placeName": "ST THOMAS",
        "streetNameDisplayText": "SOUTH EDGEWARE RD, ST THOMAS"
      }
    ]
  },
  {
    "postal": "N5P8T2",
    "result": []
  },
  {
    "postal": "N5P7G7",
    "result": []
  },
  {
    "postal": "N5P4Z3",
    "result": []
  },
  {
    "postal": "N5P5B3",
    "result": []
  },
  {
    "postal": "N5P1S7",
    "result": [
      {
        "electoralDistricts": [
          {
            "election": null,
            "id": 26,
            "name": "Elgin—Middlesex—London"
          }
        ],
        "pollDivisionIds": [
          10143316
        ],
        "postalCode": "N5P1S7",
        "streetName": "BEVERLEY",
        "streetDirectionId": null,
        "streetTypeId": "ST",
        "placeName": "ST THOMAS",
        "streetNameDisplayText": "BEVERLEY ST, ST THOMAS"
      }
    ]
  },
  {
    "postal": "N5P2N7",
    "result": []
  },
  {
    "postal": "N5P0H8",
    "result": []
  },
  {
    "postal": "N5P7Z4",
    "result": []
  },
  {
    "postal": "N5P7B1",
    "result": []
  },
  {
    "postal": "N5P7P8",
    "result": []
  },
  {
    "postal": "N5P7N0",
    "result": []
  },
  {
    "postal": "N5P3Y5",
    "result": [
      {
        "electoralDistricts": [
          {
            "election": null,
            "id": 26,
            "name": "Elgin—Middlesex—London"
          }
        ],
        "pollDivisionIds": [
          10143141
        ],
        "postalCode": "N5P3Y5",
        "streetName": "AVON",
        "streetDirectionId": null,
        "streetTypeId": "RD",
        "placeName": "ST THOMAS",
        "streetNameDisplayText": "AVON RD, ST THOMAS"
      }
    ]
  },
  {
    "postal": "N5P6K1",
    "result": []
  },
  {
    "postal": "N5P9X5",
    "result": []
  },
  {
    "postal": "N5P7S5",
    "result": []
  },
  {
    "postal": "N5P0A4",
    "result": []
  },
  {
    "postal": "N5P4T5",
    "result": []
  },
  {
    "postal": "N5P5K1",
    "result": []
  },
  {
    "postal": "N5P0Z9",
    "result": []
  },
  {
    "postal": "N5P7T2",
    "result": []
  },
  {
    "postal": "N5P1L5",
    "result": [
      {
        "electoralDistricts": [
          {
            "election": null,
            "id": 26,
            "name": "Elgin—Middlesex—London"
          }
        ],
        "pollDivisionIds": [
          10143142
        ],
        "postalCode": "N5P1L5",
        "streetName": "MALAKOFF",
        "streetDirectionId": null,
        "streetTypeId": "ST",
        "placeName": "ST THOMAS",
        "streetNameDisplayText": "MALAKOFF ST, ST THOMAS"
      }
    ]
  },
  {
    "postal": "N5P3N5",
    "result": [
      {
        "electoralDistricts": [
          {
            "election": null,
            "id": 26,
            "name": "Elgin—Middlesex—London"
          }
        ],
        "pollDivisionIds": [
          10143141
        ],
        "postalCode": "N5P3N5",
        "streetName": "FLEX-O-LITE",
        "streetDirectionId": null,
        "streetTypeId": "RD",
        "placeName": "ST THOMAS",
        "streetNameDisplayText": "FLEX-O-LITE RD, ST THOMAS"
      }
    ]
  },
  {
    "postal": "N5P6H4",
    "result": []
  },
  {
    "postal": "N5P5A5",
    "result": []
  },
  {
    "postal": "N5P3R9",
    "result": [
      {
        "electoralDistricts": [
          {
            "election": null,
            "id": 26,
            "name": "Elgin—Middlesex—London"
          }
        ],
        "pollDivisionIds": [
          10137992
        ],
        "postalCode": "N5P3R9",
        "streetName": "GAYLORD",
        "streetDirectionId": null,
        "streetTypeId": "RD",
        "placeName": "ST THOMAS",
        "streetNameDisplayText": "GAYLORD RD, ST THOMAS"
      }
    ]
  },
  {
    "postal": "N5P7L8",
    "result": []
  },
  {
    "postal": "N5P6T6",
    "result": []
  },
  {
    "postal": "N5P7Y7",
    "result": []
  },
  {
    "postal": "N5P3M8",
    "result": [
      {
        "electoralDistricts": [
          {
            "election": null,
            "id": 26,
            "name": "Elgin—Middlesex—London"
          }
        ],
        "pollDivisionIds": [
          10137992
        ],
        "postalCode": "N5P3M8",
        "streetName": "ALEXANDRIA",
        "streetDirectionId": null,
        "streetTypeId": "AVE",
        "placeName": "ST THOMAS",
        "streetNameDisplayText": "ALEXANDRIA AVE, ST THOMAS"
      }
    ]
  },
  {
    "postal": "N5P2E0",
    "result": []
  },
  {
    "postal": "N5P4B5",
    "result": [
      {
        "electoralDistricts": [
          {
            "election": null,
            "id": 26,
            "name": "Elgin—Middlesex—London"
          }
        ],
        "pollDivisionIds": [
          10137992
        ],
        "postalCode": "N5P4B5",
        "streetName": "LAING",
        "streetDirectionId": null,
        "streetTypeId": "BLVD",
        "placeName": "ST THOMAS",
        "streetNameDisplayText": "LAING BLVD, ST THOMAS"
      }
    ]
  },
  {
    "postal": "N5P1J3",
    "result": [
      {
        "electoralDistricts": [
          {
            "election": null,
            "id": 26,
            "name": "Elgin—Middlesex—London"
          }
        ],
        "pollDivisionIds": [
          10143316
        ],
        "postalCode": "N5P1J3",
        "streetName": "CURTIS",
        "streetDirectionId": null,
        "streetTypeId": "ST",
        "placeName": "ST THOMAS",
        "streetNameDisplayText": "CURTIS ST, ST THOMAS"
      }
    ]
  },
  {
    "postal": "N5P5S6",
    "result": []
  },
  {
    "postal": "N5P8P7",
    "result": []
  },
  {
    "postal": "N5P7S7",
    "result": []
  },
  {
    "postal": "N5P4C2",
    "result": [
      {
        "electoralDistricts": [
          {
            "election": null,
            "id": 26,
            "name": "Elgin—Middlesex—London"
          }
        ],
        "pollDivisionIds": [
          10137992
        ],
        "postalCode": "N5P4C2",
        "streetName": "EDWARD",
        "streetDirectionId": null,
        "streetTypeId": "ST",
        "placeName": "ST THOMAS",
        "streetNameDisplayText": "EDWARD ST, ST THOMAS"
      }
    ]
  },
  {
    "postal": "N5P5Y0",
    "result": []
  },
  {
    "postal": "N5P2V7",
    "result": [
      {
        "electoralDistricts": [
          {
            "election": null,
            "id": 26,
            "name": "Elgin—Middlesex—London"
          }
        ],
        "pollDivisionIds": [
          10143142
        ],
        "postalCode": "N5P2V7",
        "streetName": "ST CATHARINE",
        "streetDirectionId": null,
        "streetTypeId": "ST",
        "placeName": "ST THOMAS",
        "streetNameDisplayText": "ST CATHARINE ST, ST THOMAS"
      }
    ]
  },
  {
    "postal": "N5P8P5",
    "result": []
  },
  {
    "postal": "N5P5P5",
    "result": []
  },
  {
    "postal": "N5P5Z0",
    "result": []
  },
  {
    "postal": "N5P9B0",
    "result": []
  },
  {
    "postal": "N5P1L0",
    "result": []
  },
  {
    "postal": "N5P0B5",
    "result": []
  },
  {
    "postal": "N5P3L2",
    "result": [
      {
        "electoralDistricts": [
          {
            "election": null,
            "id": 26,
            "name": "Elgin—Middlesex—London"
          }
        ],
        "pollDivisionIds": [
          10137992
        ],
        "postalCode": "N5P3L2",
        "streetName": "ARTHUR",
        "streetDirectionId": null,
        "streetTypeId": "AVE",
        "placeName": "ST THOMAS",
        "streetNameDisplayText": "ARTHUR AVE, ST THOMAS"
      }
    ]
  },
  {
    "postal": "N5P3B7",
    "result": [
      {
        "electoralDistricts": [
          {
            "election": null,
            "id": 26,
            "name": "Elgin—Middlesex—London"
          }
        ],
        "pollDivisionIds": [
          10143142
        ],
        "postalCode": "N5P3B7",
        "streetName": "ALMA",
        "streetDirectionId": null,
        "streetTypeId": "ST",
        "placeName": "ST THOMAS",
        "streetNameDisplayText": "ALMA ST, ST THOMAS"
      }
    ]
  },
  {
    "postal": "N5P8L1",
    "result": []
  },
  {
    "postal": "N5P5M4",
    "result": []
  },
  {
    "postal": "N5P4G9",
    "result": [
      {
        "electoralDistricts": [
          {
            "election": null,
            "id": 26,
            "name": "Elgin—Middlesex—London"
          }
        ],
        "pollDivisionIds": [
          10143140
        ],
        "postalCode": "N5P4G9",
        "streetName": "TIMBERLANE",
        "streetDirectionId": null,
        "streetTypeId": "CRES",
        "placeName": "ST THOMAS",
        "streetNameDisplayText": "TIMBERLANE CRES, ST THOMAS"
      }
    ]
  },
  {
    "postal": "N5P0P0",
    "result": []
  },
  {
    "postal": "N5P8G2",
    "result": []
  },
  {
    "postal": "N5P1V9",
    "result": [
      {
        "electoralDistricts": [
          {
            "election": null,
            "id": 26,
            "name": "Elgin—Middlesex—London"
          }
        ],
        "pollDivisionIds": [
          10143316
        ],
        "postalCode": "N5P1V9",
        "streetName": "OMEMEE",
        "streetDirectionId": null,
        "streetTypeId": "ST",
        "placeName": "ST THOMAS",
        "streetNameDisplayText": "OMEMEE ST, ST THOMAS"
      }
    ]
  },
  {
    "postal": "N5P8N8",
    "result": []
  },
  {
    "postal": "N5P6S8",
    "result": []
  },
  {
    "postal": "N5P8H2",
    "result": []
  },
  {
    "postal": "N5P5R8",
    "result": []
  },
  {
    "postal": "N5P5L4",
    "result": []
  },
  {
    "postal": "N5P9E1",
    "result": []
  },
  {
    "postal": "N5P1C4",
    "result": [
      {
        "electoralDistricts": [
          {
            "election": null,
            "id": 26,
            "name": "Elgin—Middlesex—London"
          }
        ],
        "pollDivisionIds": [
          10137993
        ],
        "postalCode": "N5P1C4",
        "streetName": "TALBOT",
        "streetDirectionId": null,
        "streetTypeId": "ST",
        "placeName": "ST THOMAS",
        "streetNameDisplayText": "TALBOT ST, ST THOMAS"
      }
    ]
  },
  {
    "postal": "N5P8W5",
    "result": []
  },
  {
    "postal": "N5P1Y4",
    "result": [
      {
        "electoralDistricts": [
          {
            "election": null,
            "id": 26,
            "name": "Elgin—Middlesex—London"
          }
        ],
        "pollDivisionIds": [
          10143142
        ],
        "postalCode": "N5P1Y4",
        "streetName": "EDWARD",
        "streetDirectionId": null,
        "streetTypeId": "ST",
        "placeName": "ST THOMAS",
        "streetNameDisplayText": "EDWARD ST, ST THOMAS"
      }
    ]
  },
  {
    "postal": "N5P1C0",
    "result": []
  },
  {
    "postal": "N5P2J2",
    "result": [
      {
        "electoralDistricts": [
          {
            "election": null,
            "id": 26,
            "name": "Elgin—Middlesex—London"
          }
        ],
        "pollDivisionIds": [
          10137997,
          10143141
        ],
        "postalCode": "N5P2J2",
        "streetName": "ROSEMOUNT",
        "streetDirectionId": null,
        "streetTypeId": "CRES",
        "placeName": "ST THOMAS",
        "streetNameDisplayText": "ROSEMOUNT CRES, ST THOMAS"
      }
    ]
  },
  {
    "postal": "N5P2J0",
    "result": []
  },
  {
    "postal": "N5P7A3",
    "result": []
  },
  {
    "postal": "N5P8M1",
    "result": []
  },
  {
    "postal": "N5P7T9",
    "result": []
  },
  {
    "postal": "N5P6C0",
    "result": []
  },
  {
    "postal": "N5P7X1",
    "result": []
  },
  {
    "postal": "N5P0G1",
    "result": []
  },
  {
    "postal": "N5P4X2",
    "result": []
  },
  {
    "postal": "N5P0N6",
    "result": []
  },
  {
    "postal": "N5P8E3",
    "result": []
  },
  {
    "postal": "N5P5S8",
    "result": []
  },
  {
    "postal": "N5P0R0",
    "result": []
  },
  {
    "postal": "N5P6J6",
    "result": []
  },
  {
    "postal": "N5P4B4",
    "result": [
      {
        "electoralDistricts": [
          {
            "election": null,
            "id": 26,
            "name": "Elgin—Middlesex—London"
          }
        ],
        "pollDivisionIds": [
          10137992
        ],
        "postalCode": "N5P4B4",
        "streetName": "EDWARD",
        "streetDirectionId": null,
        "streetTypeId": "ST",
        "placeName": "ST THOMAS",
        "streetNameDisplayText": "EDWARD ST, ST THOMAS"
      }
    ]
  },
  {
    "postal": "N5P7E3",
    "result": []
  },
  {
    "postal": "N5P3N6",
    "result": [
      {
        "electoralDistricts": [
          {
            "election": null,
            "id": 26,
            "name": "Elgin—Middlesex—London"
          }
        ],
        "pollDivisionIds": [
          10143141
        ],
        "postalCode": "N5P3N6",
        "streetName": "LAURIER",
        "streetDirectionId": null,
        "streetTypeId": "RD",
        "placeName": "ST THOMAS",
        "streetNameDisplayText": "LAURIER RD, ST THOMAS"
      }
    ]
  },
  {
    "postal": "N5P3X6",
    "result": [
      {
        "electoralDistricts": [
          {
            "election": null,
            "id": 26,
            "name": "Elgin—Middlesex—London"
          }
        ],
        "pollDivisionIds": [
          10143141
        ],
        "postalCode": "N5P3X6",
        "streetName": "LOCKE",
        "streetDirectionId": null,
        "streetTypeId": "AVE",
        "placeName": "ST THOMAS",
        "streetNameDisplayText": "LOCKE AVE, ST THOMAS"
      }
    ]
  },
  {
    "postal": "N5P8L0",
    "result": []
  },
  {
    "postal": "N5P8N1",
    "result": []
  },
  {
    "postal": "N5P4J0",
    "result": []
  },
  {
    "postal": "N5P0X7",
    "result": []
  },
  {
    "postal": "N5P6S4",
    "result": []
  },
  {
    "postal": "N5P0Z0",
    "result": []
  },
  {
    "postal": "N5P9X8",
    "result": []
  },
  {
    "postal": "N5P3H3",
    "result": [
      {
        "electoralDistricts": [
          {
            "election": null,
            "id": 26,
            "name": "Elgin—Middlesex—London"
          }
        ],
        "pollDivisionIds": [
          10143142
        ],
        "postalCode": "N5P3H3",
        "streetName": "INKERMAN",
        "streetDirectionId": null,
        "streetTypeId": "ST",
        "placeName": "ST THOMAS",
        "streetNameDisplayText": "INKERMAN ST, ST THOMAS"
      }
    ]
  },
  {
    "postal": "N5P7S2",
    "result": []
  },
  {
    "postal": "N5P3T3",
    "result": [
      {
        "electoralDistricts": [
          {
            "election": null,
            "id": 26,
            "name": "Elgin—Middlesex—London"
          }
        ],
        "pollDivisionIds": [
          10137964,
          10137976
        ],
        "postalCode": "N5P3T3",
        "streetName": "BELMONT",
        "streetDirectionId": null,
        "streetTypeId": "RD",
        "placeName": "ST THOMAS",
        "streetNameDisplayText": "BELMONT RD, ST THOMAS"
      },
      {
        "electoralDistricts": [
          {
            "election": null,
            "id": 26,
            "name": "Elgin—Middlesex—London"
          }
        ],
        "pollDivisionIds": [
          10137976
        ],
        "postalCode": "N5P3T3",
        "streetName": "BUIS",
        "streetDirectionId": null,
        "streetTypeId": "LINE",
        "placeName": "ST THOMAS",
        "streetNameDisplayText": "BUIS LINE, ST THOMAS"
      },
      {
        "electoralDistricts": [
          {
            "election": null,
            "id": 26,
            "name": "Elgin—Middlesex—London"
          }
        ],
        "pollDivisionIds": [
          10137976
        ],
        "postalCode": "N5P3T3",
        "streetName": "CENTENNIAL",
        "streetDirectionId": null,
        "streetTypeId": "AVE",
        "placeName": "ST THOMAS",
        "streetNameDisplayText": "CENTENNIAL AVE, ST THOMAS"
      },
      {
        "electoralDistricts": [
          {
            "election": null,
            "id": 26,
            "name": "Elgin—Middlesex—London"
          }
        ],
        "pollDivisionIds": [
          10143141,
          10143140
        ],
        "postalCode": "N5P3T3",
        "streetName": "DALEWOOD",
        "streetDirectionId": null,
        "streetTypeId": "RD",
        "placeName": "ST THOMAS",
        "streetNameDisplayText": "DALEWOOD RD, ST THOMAS"
      },
      {
        "electoralDistricts": [
          {
            "election": null,
            "id": 26,
            "name": "Elgin—Middlesex—London"
          }
        ],
        "pollDivisionIds": [
          10137976
        ],
        "postalCode": "N5P3T3",
        "streetName": "EDGEWARE",
        "streetDirectionId": null,
        "streetTypeId": "LINE",
        "placeName": "ST THOMAS",
        "streetNameDisplayText": "EDGEWARE LINE, ST THOMAS"
      },
      {
        "electoralDistricts": [
          {
            "election": null,
            "id": 26,
            "name": "Elgin—Middlesex—London"
          }
        ],
        "pollDivisionIds": [
          10143311
        ],
        "postalCode": "N5P3T3",
        "streetName": "FERGUSON",
        "streetDirectionId": null,
        "streetTypeId": "LINE",
        "placeName": "ST THOMAS",
        "streetNameDisplayText": "FERGUSON LINE, ST THOMAS"
      },
      {
        "electoralDistricts": [
          {
            "election": null,
            "id": 26,
            "name": "Elgin—Middlesex—London"
          }
        ],
        "pollDivisionIds": [
          10137976,
          10143141,
          10143311
        ],
        "postalCode": "N5P3T3",
        "streetName": "HIGHBURY",
        "streetDirectionId": null,
        "streetTypeId": "AVE",
        "placeName": "ST THOMAS",
        "streetNameDisplayText": "HIGHBURY AVE, ST THOMAS"
      },
      {
        "electoralDistricts": [
          {
            "election": null,
            "id": 26,
            "name": "Elgin—Middlesex—London"
          }
        ],
        "pollDivisionIds": [
          10143311,
          10137964
        ],
        "postalCode": "N5P3T3",
        "streetName": "MAPLETON",
        "streetDirectionId": null,
        "streetTypeId": "LINE",
        "placeName": "ST THOMAS",
        "streetNameDisplayText": "MAPLETON LINE, ST THOMAS"
      },
      {
        "electoralDistricts": [
          {
            "election": null,
            "id": 26,
            "name": "Elgin—Middlesex—London"
          }
        ],
        "pollDivisionIds": [
          10137964,
          10137976,
          10143311
        ],
        "postalCode": "N5P3T3",
        "streetName": "RON MCNEIL",
        "streetDirectionId": null,
        "streetTypeId": "LINE",
        "placeName": "ST THOMAS",
        "streetNameDisplayText": "RON MCNEIL LINE, ST THOMAS"
      },
      {
        "electoralDistricts": [
          {
            "election": null,
            "id": 26,
            "name": "Elgin—Middlesex—London"
          }
        ],
        "pollDivisionIds": [
          10137989
        ],
        "postalCode": "N5P3T3",
        "streetName": "SUTHERLAND",
        "streetDirectionId": null,
        "streetTypeId": "LINE",
        "placeName": "ST THOMAS",
        "streetNameDisplayText": "SUTHERLAND LINE, ST THOMAS"
      },
      {
        "electoralDistricts": [
          {
            "election": null,
            "id": 26,
            "name": "Elgin—Middlesex—London"
          }
        ],
        "pollDivisionIds": [
          10137976,
          10137964
        ],
        "postalCode": "N5P3T3",
        "streetName": "YARMOUTH CENTRE",
        "streetDirectionId": null,
        "streetTypeId": "RD",
        "placeName": "ST THOMAS",
        "streetNameDisplayText": "YARMOUTH CENTRE RD, ST THOMAS"
      }
    ]
  },
  {
    "postal": "N5P9P3",
    "result": []
  },
  {
    "postal": "N5P4H8",
    "result": [
      {
        "electoralDistricts": [
          {
            "election": null,
            "id": 26,
            "name": "Elgin—Middlesex—London"
          }
        ],
        "pollDivisionIds": [
          10143141
        ],
        "postalCode": "N5P4H8",
        "streetName": "THORMAN",
        "streetDirectionId": null,
        "streetTypeId": "TERR",
        "placeName": "ST THOMAS",
        "streetNameDisplayText": "THORMAN TERR, ST THOMAS"
      }
    ]
  },
  {
    "postal": "N5P6R1",
    "result": []
  },
  {
    "postal": "N5P1S0",
    "result": []
  },
  {
    "postal": "N5P3W8",
    "result": [
      {
        "electoralDistricts": [
          {
            "election": null,
            "id": 26,
            "name": "Elgin—Middlesex—London"
          }
        ],
        "pollDivisionIds": [
          10143142
        ],
        "postalCode": "N5P3W8",
        "streetName": "EDWARD",
        "streetDirectionId": null,
        "streetTypeId": "ST",
        "placeName": "ST THOMAS",
        "streetNameDisplayText": "EDWARD ST, ST THOMAS"
      }
    ]
  },
  {
    "postal": "N5P4S3",
    "result": []
  },
  {
    "postal": "N5P1B6",
    "result": [
      {
        "electoralDistricts": [
          {
            "election": null,
            "id": 26,
            "name": "Elgin—Middlesex—London"
          }
        ],
        "pollDivisionIds": [
          10137993
        ],
        "postalCode": "N5P1B6",
        "streetName": "TALBOT",
        "streetDirectionId": null,
        "streetTypeId": "ST",
        "placeName": "ST THOMAS",
        "streetNameDisplayText": "TALBOT ST, ST THOMAS"
      }
    ]
  },
  {
    "postal": "N5P8R3",
    "result": []
  },
  {
    "postal": "N5P4V9",
    "result": []
  },
  {
    "postal": "N5P9W4",
    "result": []
  },
  {
    "postal": "N5P3T4",
    "result": []
  },
  {
    "postal": "N5P5C7",
    "result": []
  },
  {
    "postal": "N5P3Y1",
    "result": [
      {
        "electoralDistricts": [
          {
            "election": null,
            "id": 26,
            "name": "Elgin—Middlesex—London"
          }
        ],
        "pollDivisionIds": [
          10143141
        ],
        "postalCode": "N5P3Y1",
        "streetName": "AVON",
        "streetDirectionId": null,
        "streetTypeId": "RD",
        "placeName": "ST THOMAS",
        "streetNameDisplayText": "AVON RD, ST THOMAS"
      }
    ]
  },
  {
    "postal": "N5P5V0",
    "result": []
  },
  {
    "postal": "N5P8G8",
    "result": []
  },
  {
    "postal": "N5P8B1",
    "result": []
  },
  {
    "postal": "N5P4P5",
    "result": [
      {
        "electoralDistricts": [
          {
            "election": null,
            "id": 26,
            "name": "Elgin—Middlesex—London"
          }
        ],
        "pollDivisionIds": [
          10143140
        ],
        "postalCode": "N5P4P5",
        "streetName": "MCBAIN",
        "streetDirectionId": null,
        "streetTypeId": "LINE",
        "placeName": "ST THOMAS",
        "streetNameDisplayText": "MCBAIN LINE, ST THOMAS"
      },
      {
        "electoralDistricts": [
          {
            "election": null,
            "id": 26,
            "name": "Elgin—Middlesex—London"
          }
        ],
        "pollDivisionIds": [
          10143140
        ],
        "postalCode": "N5P4P5",
        "streetName": "WATSON",
        "streetDirectionId": null,
        "streetTypeId": "CRES",
        "placeName": "ST THOMAS",
        "streetNameDisplayText": "WATSON CRES, ST THOMAS"
      }
    ]
  },
  {
    "postal": "N5P7B2",
    "result": []
  },
  {
    "postal": "N5P0R2",
    "result": []
  },
  {
    "postal": "N5P4M4",
    "result": [
      {
        "electoralDistricts": [
          {
            "election": null,
            "id": 26,
            "name": "Elgin—Middlesex—London"
          }
        ],
        "pollDivisionIds": [
          10143141
        ],
        "postalCode": "N5P4M4",
        "streetName": "AMBERWOOD",
        "streetDirectionId": null,
        "streetTypeId": "CRT",
        "placeName": "ST THOMAS",
        "streetNameDisplayText": "AMBERWOOD CRT, ST THOMAS"
      },
      {
        "electoralDistricts": [
          {
            "election": null,
            "id": 26,
            "name": "Elgin—Middlesex—London"
          }
        ],
        "pollDivisionIds": [
          10143141
        ],
        "postalCode": "N5P4M4",
        "streetName": "COTTONWOOD",
        "streetDirectionId": null,
        "streetTypeId": "DR",
        "placeName": "ST THOMAS",
        "streetNameDisplayText": "COTTONWOOD DR, ST THOMAS"
      },
      {
        "electoralDistricts": [
          {
            "election": null,
            "id": 26,
            "name": "Elgin—Middlesex—London"
          }
        ],
        "pollDivisionIds": [
          10143141
        ],
        "postalCode": "N5P4M4",
        "streetName": "LINDEN",
        "streetDirectionId": null,
        "streetTypeId": "LANE",
        "placeName": "ST THOMAS",
        "streetNameDisplayText": "LINDEN LANE, ST THOMAS"
      }
    ]
  },
  {
    "postal": "N5P7M4",
    "result": []
  },
  {
    "postal": "N5P9S7",
    "result": []
  },
  {
    "postal": "N5P5Z7",
    "result": []
  },
  {
    "postal": "N5P7J7",
    "result": []
  },
  {
    "postal": "N5P8R8",
    "result": []
  },
  {
    "postal": "N5P9X1",
    "result": []
  },
  {
    "postal": "N5P5M9",
    "result": []
  },
  {
    "postal": "N5P9B4",
    "result": []
  },
  {
    "postal": "N5P0L9",
    "result": []
  },
  {
    "postal": "N5P9G4",
    "result": []
  },
  {
    "postal": "N5P1J4",
    "result": [
      {
        "electoralDistricts": [
          {
            "election": null,
            "id": 26,
            "name": "Elgin—Middlesex—London"
          }
        ],
        "pollDivisionIds": [
          10143316
        ],
        "postalCode": "N5P1J4",
        "streetName": "CURTIS",
        "streetDirectionId": null,
        "streetTypeId": "ST",
        "placeName": "ST THOMAS",
        "streetNameDisplayText": "CURTIS ST, ST THOMAS"
      }
    ]
  },
  {
    "postal": "N5P0W6",
    "result": []
  }
]
