[
  {
    "postal": "K1T9J6",
    "result": []
  },
  {
    "postal": "K1T9Z5",
    "result": []
  },
  {
    "postal": "K1T7H8",
    "result": []
  },
  {
    "postal": "K1T0P6",
    "result": [
      {
        "electoralDistricts": [
          {
            "election": null,
            "id": 17,
            "name": "Carleton"
          }
        ],
        "pollDivisionIds": [
          10137484,
          10137496
        ],
        "postalCode": "K1T0P6",
        "streetName": "HELEN RAPP",
        "streetDirectionId": null,
        "streetTypeId": "WAY",
        "placeName": "GLOUCESTER",
        "streetNameDisplayText": "HELEN RAPP WAY, GLOUCESTER"
      }
    ]
  },
  {
    "postal": "K1T0S7",
    "result": []
  },
  {
    "postal": "K1T8B9",
    "result": []
  },
  {
    "postal": "K1T2A6",
    "result": [
      {
        "electoralDistricts": [
          {
            "election": null,
            "id": 79,
            "name": "Ottawa South"
          }
        ],
        "pollDivisionIds": [
          10140663
        ],
        "postalCode": "K1T2A6",
        "streetName": "PIMLICO",
        "streetDirectionId": null,
        "streetTypeId": "CRES",
        "placeName": "OTTAWA",
        "streetNameDisplayText": "PIMLICO CRES, OTTAWA"
      }
    ]
  },
  {
    "postal": "K1T7V2",
    "result": []
  },
  {
    "postal": "K1T9P4",
    "result": []
  },
  {
    "postal": "K1T6G0",
    "result": []
  },
  {
    "postal": "K1T2K0",
    "result": []
  },
  {
    "postal": "K1T7N6",
    "result": []
  },
  {
    "postal": "K1T5R3",
    "result": []
  },
  {
    "postal": "K1T7K0",
    "result": []
  },
  {
    "postal": "K1T3R2",
    "result": [
      {
        "electoralDistricts": [
          {
            "election": null,
            "id": 79,
            "name": "Ottawa South"
          }
        ],
        "pollDivisionIds": [
          10140666
        ],
        "postalCode": "K1T3R2",
        "streetName": "HUNTER'S GLEN",
        "streetDirectionId": null,
        "streetTypeId": "CRES",
        "placeName": "OTTAWA",
        "streetNameDisplayText": "HUNTER'S GLEN CRES, OTTAWA"
      },
      {
        "electoralDistricts": [
          {
            "election": null,
            "id": 79,
            "name": "Ottawa South"
          }
        ],
        "pollDivisionIds": [
          10140666
        ],
        "postalCode": "K1T3R2",
        "streetName": "LORRY GREENBERG",
        "streetDirectionId": null,
        "streetTypeId": "DR",
        "placeName": "OTTAWA",
        "streetNameDisplayText": "LORRY GREENBERG DR, OTTAWA"
      },
      {
        "electoralDistricts": [
          {
            "election": null,
            "id": 79,
            "name": "Ottawa South"
          }
        ],
        "pollDivisionIds": [
          10140666
        ],
        "postalCode": "K1T3R2",
        "streetName": "STREAMWOOD",
        "streetDirectionId": null,
        "streetTypeId": "LANE",
        "placeName": "OTTAWA",
        "streetNameDisplayText": "STREAMWOOD LANE, OTTAWA"
      }
    ]
  },
  {
    "postal": "K1T0J1",
    "result": [
      {
        "electoralDistricts": [
          {
            "election": null,
            "id": 17,
            "name": "Carleton"
          }
        ],
        "pollDivisionIds": [
          10137496
        ],
        "postalCode": "K1T0J1",
        "streetName": "GRACEWOOD",
        "streetDirectionId": null,
        "streetTypeId": "CRES",
        "placeName": "GLOUCESTER",
        "streetNameDisplayText": "GRACEWOOD CRES, GLOUCESTER"
      },
      {
        "electoralDistricts": [
          {
            "election": null,
            "id": 17,
            "name": "Carleton"
          }
        ],
        "pollDivisionIds": [
          10137496
        ],
        "postalCode": "K1T0J1",
        "streetName": "SLATTERY'S FIELD",
        "streetDirectionId": null,
        "streetTypeId": "ST",
        "placeName": "GLOUCESTER",
        "streetNameDisplayText": "SLATTERY'S FIELD ST, GLOUCESTER"
      }
    ]
  },
  {
    "postal": "K1T0B0",
    "result": []
  },
  {
    "postal": "K1T5Z2",
    "result": []
  },
  {
    "postal": "K1T7P3",
    "result": []
  },
  {
    "postal": "K1T2K3",
    "result": []
  },
  {
    "postal": "K1T7Y6",
    "result": []
  },
  {
    "postal": "K1T1L9",
    "result": [
      {
        "electoralDistricts": [
          {
            "election": null,
            "id": 79,
            "name": "Ottawa South"
          }
        ],
        "pollDivisionIds": [
          10140676
        ],
        "postalCode": "K1T1L9",
        "streetName": "ST BARBARA",
        "streetDirectionId": null,
        "streetTypeId": "ST",
        "placeName": "GLOUCESTER",
        "streetNameDisplayText": "ST BARBARA ST, GLOUCESTER"
      },
      {
        "electoralDistricts": [
          {
            "election": null,
            "id": 79,
            "name": "Ottawa South"
          }
        ],
        "pollDivisionIds": [
          10140676
        ],
        "postalCode": "K1T1L9",
        "streetName": "ST. BARBARA",
        "streetDirectionId": null,
        "streetTypeId": "ST",
        "placeName": "GLOUCESTER",
        "streetNameDisplayText": "ST. BARBARA ST, GLOUCESTER"
      }
    ]
  },
  {
    "postal": "K1T8T0",
    "result": []
  },
  {
    "postal": "K1T3K8",
    "result": [
      {
        "electoralDistricts": [
          {
            "election": null,
            "id": 79,
            "name": "Ottawa South"
          }
        ],
        "pollDivisionIds": [
          10140667
        ],
        "postalCode": "K1T3K8",
        "streetName": "BURLINGTON",
        "streetDirectionId": null,
        "streetTypeId": "CRES",
        "placeName": "OTTAWA",
        "streetNameDisplayText": "BURLINGTON CRES, OTTAWA"
      }
    ]
  },
  {
    "postal": "K1T5W9",
    "result": []
  },
  {
    "postal": "K1T6T9",
    "result": []
  },
  {
    "postal": "K1T4H1",
    "result": [
      {
        "electoralDistricts": [
          {
            "election": null,
            "id": 17,
            "name": "Carleton"
          }
        ],
        "pollDivisionIds": [
          10137496
        ],
        "postalCode": "K1T4H1",
        "streetName": "MEADOWLILLY",
        "streetDirectionId": null,
        "streetTypeId": "RD",
        "placeName": "GLOUCESTER",
        "streetNameDisplayText": "MEADOWLILLY RD, GLOUCESTER"
      },
      {
        "electoralDistricts": [
          {
            "election": null,
            "id": 17,
            "name": "Carleton"
          }
        ],
        "pollDivisionIds": [
          10137496
        ],
        "postalCode": "K1T4H1",
        "streetName": "PURPLE FINCH",
        "streetDirectionId": null,
        "streetTypeId": "CRES",
        "placeName": "GLOUCESTER",
        "streetNameDisplayText": "PURPLE FINCH CRES, GLOUCESTER"
      }
    ]
  },
  {
    "postal": "K1T7A2",
    "result": []
  },
  {
    "postal": "K1T5G0",
    "result": []
  },
  {
    "postal": "K1T8V5",
    "result": []
  },
  {
    "postal": "K1T2Y8",
    "result": [
      {
        "electoralDistricts": [
          {
            "election": null,
            "id": 79,
            "name": "Ottawa South"
          }
        ],
        "pollDivisionIds": [
          10140678
        ],
        "postalCode": "K1T2Y8",
        "streetName": "SANDHAMN",
        "streetDirectionId": null,
        "streetTypeId": "PVT",
        "placeName": "OTTAWA",
        "streetNameDisplayText": "SANDHAMN PVT, OTTAWA"
      }
    ]
  },
  {
    "postal": "K1T2B6",
    "result": [
      {
        "electoralDistricts": [
          {
            "election": null,
            "id": 79,
            "name": "Ottawa South"
          }
        ],
        "pollDivisionIds": [
          10140670
        ],
        "postalCode": "K1T2B6",
        "streetName": "ALLIANCE",
        "streetDirectionId": null,
        "streetTypeId": "PVT",
        "placeName": "OTTAWA",
        "streetNameDisplayText": "ALLIANCE PVT, OTTAWA"
      }
    ]
  },
  {
    "postal": "K1T4W8",
    "result": []
  },
  {
    "postal": "K1T8H7",
    "result": []
  },
  {
    "postal": "K1T5P1",
    "result": []
  },
  {
    "postal": "K1T2B8",
    "result": [
      {
        "electoralDistricts": [
          {
            "election": null,
            "id": 79,
            "name": "Ottawa South"
          }
        ],
        "pollDivisionIds": [
          10140670
        ],
        "postalCode": "K1T2B8",
        "streetName": "ALLIANCE",
        "streetDirectionId": null,
        "streetTypeId": "PVT",
        "placeName": "OTTAWA",
        "streetNameDisplayText": "ALLIANCE PVT, OTTAWA"
      }
    ]
  },
  {
    "postal": "K1T0P2",
    "result": []
  },
  {
    "postal": "K1T9M1",
    "result": []
  },
  {
    "postal": "K1T3G0",
    "result": []
  },
  {
    "postal": "K1T9Z2",
    "result": []
  },
  {
    "postal": "K1T2A0",
    "result": []
  },
  {
    "postal": "K1T6Y0",
    "result": []
  },
  {
    "postal": "K1T2Z8",
    "result": [
      {
        "electoralDistricts": [
          {
            "election": null,
            "id": 79,
            "name": "Ottawa South"
          }
        ],
        "pollDivisionIds": [
          10140666
        ],
        "postalCode": "K1T2Z8",
        "streetName": "VERDON",
        "streetDirectionId": null,
        "streetTypeId": "PVT",
        "placeName": "OTTAWA",
        "streetNameDisplayText": "VERDON PVT, OTTAWA"
      }
    ]
  },
  {
    "postal": "K1T7Y3",
    "result": []
  },
  {
    "postal": "K1T6Z5",
    "result": []
  },
  {
    "postal": "K1T6E0",
    "result": []
  },
  {
    "postal": "K1T9B7",
    "result": []
  },
  {
    "postal": "K1T9S5",
    "result": []
  },
  {
    "postal": "K1T3X3",
    "result": [
      {
        "electoralDistricts": [
          {
            "election": null,
            "id": 79,
            "name": "Ottawa South"
          }
        ],
        "pollDivisionIds": [
          10140663
        ],
        "postalCode": "K1T3X3",
        "streetName": "ALDERWOOD",
        "streetDirectionId": null,
        "streetTypeId": "ST",
        "placeName": "GLOUCESTER",
        "streetNameDisplayText": "ALDERWOOD ST, GLOUCESTER"
      }
    ]
  },
  {
    "postal": "K1T7R5",
    "result": []
  },
  {
    "postal": "K1T2X3",
    "result": [
      {
        "electoralDistricts": [
          {
            "election": null,
            "id": 79,
            "name": "Ottawa South"
          }
        ],
        "pollDivisionIds": [
          10140666
        ],
        "postalCode": "K1T2X3",
        "streetName": "CUTTS",
        "streetDirectionId": null,
        "streetTypeId": "PVT",
        "placeName": "OTTAWA",
        "streetNameDisplayText": "CUTTS PVT, OTTAWA"
      }
    ]
  },
  {
    "postal": "K1T8Z9",
    "result": []
  },
  {
    "postal": "K1T0N4",
    "result": [
      {
        "electoralDistricts": [
          {
            "election": null,
            "id": 17,
            "name": "Carleton"
          }
        ],
        "pollDivisionIds": [
          10137496
        ],
        "postalCode": "K1T0N4",
        "streetName": "HELEN RAPP",
        "streetDirectionId": null,
        "streetTypeId": "WAY",
        "placeName": "GLOUCESTER",
        "streetNameDisplayText": "HELEN RAPP WAY, GLOUCESTER"
      },
      {
        "electoralDistricts": [
          {
            "election": null,
            "id": 17,
            "name": "Carleton"
          }
        ],
        "pollDivisionIds": [
          10137496
        ],
        "postalCode": "K1T0N4",
        "streetName": "MAGPIE",
        "streetDirectionId": null,
        "streetTypeId": "ST",
        "placeName": "GLOUCESTER",
        "streetNameDisplayText": "MAGPIE ST, GLOUCESTER"
      },
      {
        "electoralDistricts": [
          {
            "election": null,
            "id": 17,
            "name": "Carleton"
          }
        ],
        "pollDivisionIds": [
          10137496
        ],
        "postalCode": "K1T0N4",
        "streetName": "MAGPIE",
        "streetDirectionId": null,
        "streetTypeId": "ST",
        "placeName": "OTTAWA",
        "streetNameDisplayText": "MAGPIE ST, OTTAWA"
      }
    ]
  },
  {
    "postal": "K1T1K1",
    "result": [
      {
        "electoralDistricts": [
          {
            "election": null,
            "id": 79,
            "name": "Ottawa South"
          }
        ],
        "pollDivisionIds": [
          10140676
        ],
        "postalCode": "K1T1K1",
        "streetName": "QUEENSDALE",
        "streetDirectionId": null,
        "streetTypeId": "AVE",
        "placeName": "GLOUCESTER",
        "streetNameDisplayText": "QUEENSDALE AVE, GLOUCESTER"
      }
    ]
  },
  {
    "postal": "K1T1S3",
    "result": [
      {
        "electoralDistricts": [
          {
            "election": null,
            "id": 79,
            "name": "Ottawa South"
          }
        ],
        "pollDivisionIds": [
          10140675
        ],
        "postalCode": "K1T1S3",
        "streetName": "STOCKTON",
        "streetDirectionId": null,
        "streetTypeId": "DR",
        "placeName": "GLOUCESTER",
        "streetNameDisplayText": "STOCKTON DR, GLOUCESTER"
      }
    ]
  },
  {
    "postal": "K1T6M4",
    "result": []
  },
  {
    "postal": "K1T9A9",
    "result": []
  },
  {
    "postal": "K1T9Z9",
    "result": []
  },
  {
    "postal": "K1T6T4",
    "result": []
  },
  {
    "postal": "K1T0B2",
    "result": [
      {
        "electoralDistricts": [
          {
            "election": null,
            "id": 17,
            "name": "Carleton"
          }
        ],
        "pollDivisionIds": [
          10137496
        ],
        "postalCode": "K1T0B2",
        "streetName": "CEDAR CREEK",
        "streetDirectionId": null,
        "streetTypeId": "DR",
        "placeName": "GLOUCESTER",
        "streetNameDisplayText": "CEDAR CREEK DR, GLOUCESTER"
      }
    ]
  },
  {
    "postal": "K1T2L9",
    "result": []
  },
  {
    "postal": "K1T8K9",
    "result": []
  },
  {
    "postal": "K1T2H9",
    "result": []
  },
  {
    "postal": "K1T3Z6",
    "result": [
      {
        "electoralDistricts": [
          {
            "election": null,
            "id": 79,
            "name": "Ottawa South"
          }
        ],
        "pollDivisionIds": [
          10140667
        ],
        "postalCode": "K1T3Z6",
        "streetName": "ALLANFORD",
        "streetDirectionId": null,
        "streetTypeId": "AVE",
        "placeName": "OTTAWA",
        "streetNameDisplayText": "ALLANFORD AVE, OTTAWA"
      },
      {
        "electoralDistricts": [
          {
            "election": null,
            "id": 79,
            "name": "Ottawa South"
          }
        ],
        "pollDivisionIds": [
          10140667
        ],
        "postalCode": "K1T3Z6",
        "streetName": "ARISTA",
        "streetDirectionId": null,
        "streetTypeId": "CRT",
        "placeName": "OTTAWA",
        "streetNameDisplayText": "ARISTA CRT, OTTAWA"
      }
    ]
  },
  {
    "postal": "K1T3B0",
    "result": []
  },
  {
    "postal": "K1T2H8",
    "result": []
  },
  {
    "postal": "K1T3X2",
    "result": [
      {
        "electoralDistricts": [
          {
            "election": null,
            "id": 79,
            "name": "Ottawa South"
          }
        ],
        "pollDivisionIds": [
          10140676
        ],
        "postalCode": "K1T3X2",
        "streetName": "CARRIAGE HILL",
        "streetDirectionId": null,
        "streetTypeId": "PL",
        "placeName": "GLOUCESTER",
        "streetNameDisplayText": "CARRIAGE HILL PL, GLOUCESTER"
      },
      {
        "electoralDistricts": [
          {
            "election": null,
            "id": 79,
            "name": "Ottawa South"
          }
        ],
        "pollDivisionIds": [
          10140676
        ],
        "postalCode": "K1T3X2",
        "streetName": "SABLE RIDGE",
        "streetDirectionId": null,
        "streetTypeId": "DR",
        "placeName": "GLOUCESTER",
        "streetNameDisplayText": "SABLE RIDGE DR, GLOUCESTER"
      }
    ]
  },
  {
    "postal": "K1T2E9",
    "result": [
      {
        "electoralDistricts": [
          {
            "election": null,
            "id": 79,
            "name": "Ottawa South"
          }
        ],
        "pollDivisionIds": [
          10140666
        ],
        "postalCode": "K1T2E9",
        "streetName": "SOMERO",
        "streetDirectionId": null,
        "streetTypeId": "PVT",
        "placeName": "OTTAWA",
        "streetNameDisplayText": "SOMERO PVT, OTTAWA"
      }
    ]
  },
  {
    "postal": "K1T9P6",
    "result": []
  },
  {
    "postal": "K1T9E2",
    "result": []
  },
  {
    "postal": "K1T9H2",
    "result": []
  },
  {
    "postal": "K1T1S8",
    "result": [
      {
        "electoralDistricts": [
          {
            "election": null,
            "id": 79,
            "name": "Ottawa South"
          }
        ],
        "pollDivisionIds": [
          10140675
        ],
        "postalCode": "K1T1S8",
        "streetName": "HOGARTH",
        "streetDirectionId": null,
        "streetTypeId": "AVE",
        "placeName": "GLOUCESTER",
        "streetNameDisplayText": "HOGARTH AVE, GLOUCESTER"
      }
    ]
  },
  {
    "postal": "K1T3M6",
    "result": [
      {
        "electoralDistricts": [
          {
            "election": null,
            "id": 79,
            "name": "Ottawa South"
          }
        ],
        "pollDivisionIds": [
          10140676
        ],
        "postalCode": "K1T3M6",
        "streetName": "EIGHTH",
        "streetDirectionId": null,
        "streetTypeId": "ST",
        "placeName": "GLOUCESTER",
        "streetNameDisplayText": "EIGHTH ST, GLOUCESTER"
      }
    ]
  },
  {
    "postal": "K1T6Z8",
    "result": []
  },
  {
    "postal": "K1T4J2",
    "result": [
      {
        "electoralDistricts": [
          {
            "election": null,
            "id": 17,
            "name": "Carleton"
          }
        ],
        "pollDivisionIds": [
          10137496
        ],
        "postalCode": "K1T4J2",
        "streetName": "BRADWELL",
        "streetDirectionId": null,
        "streetTypeId": "WAY",
        "placeName": "GLOUCESTER",
        "streetNameDisplayText": "BRADWELL WAY, GLOUCESTER"
      },
      {
        "electoralDistricts": [
          {
            "election": null,
            "id": 17,
            "name": "Carleton"
          }
        ],
        "pollDivisionIds": [
          10137496
        ],
        "postalCode": "K1T4J2",
        "streetName": "KELLY FARM",
        "streetDirectionId": null,
        "streetTypeId": "DR",
        "placeName": "GLOUCESTER",
        "streetNameDisplayText": "KELLY FARM DR, GLOUCESTER"
      }
    ]
  },
  {
    "postal": "K1T9Y1",
    "result": []
  },
  {
    "postal": "K1T8V6",
    "result": []
  },
  {
    "postal": "K1T6B2",
    "result": []
  },
  {
    "postal": "K1T1P8",
    "result": [
      {
        "electoralDistricts": [
          {
            "election": null,
            "id": 79,
            "name": "Ottawa South"
          }
        ],
        "pollDivisionIds": [
          10140675
        ],
        "postalCode": "K1T1P8",
        "streetName": "MANNERING",
        "streetDirectionId": null,
        "streetTypeId": "CRT",
        "placeName": "GLOUCESTER",
        "streetNameDisplayText": "MANNERING CRT, GLOUCESTER"
      }
    ]
  },
  {
    "postal": "K1T0V8",
    "result": []
  },
  {
    "postal": "K1T4Y0",
    "result": []
  },
  {
    "postal": "K1T2T4",
    "result": [
      {
        "electoralDistricts": [
          {
            "election": null,
            "id": 79,
            "name": "Ottawa South"
          }
        ],
        "pollDivisionIds": [
          10140675
        ],
        "postalCode": "K1T2T4",
        "streetName": "WALTHAM",
        "streetDirectionId": null,
        "streetTypeId": "ST",
        "placeName": "GLOUCESTER",
        "streetNameDisplayText": "WALTHAM ST, GLOUCESTER"
      }
    ]
  },
  {
    "postal": "K1T2S3",
    "result": [
      {
        "electoralDistricts": [
          {
            "election": null,
            "id": 79,
            "name": "Ottawa South"
          }
        ],
        "pollDivisionIds": [
          10140663
        ],
        "postalCode": "K1T2S3",
        "streetName": "NEW YORKER",
        "streetDirectionId": null,
        "streetTypeId": "CRT",
        "placeName": "GLOUCESTER",
        "streetNameDisplayText": "NEW YORKER CRT, GLOUCESTER"
      },
      {
        "electoralDistricts": [
          {
            "election": null,
            "id": 79,
            "name": "Ottawa South"
          }
        ],
        "pollDivisionIds": [
          10140663
        ],
        "postalCode": "K1T2S3",
        "streetName": "WYLDEWOOD",
        "streetDirectionId": null,
        "streetTypeId": "ST",
        "placeName": "GLOUCESTER",
        "streetNameDisplayText": "WYLDEWOOD ST, GLOUCESTER"
      }
    ]
  },
  {
    "postal": "K1T0K0",
    "result": []
  },
  {
    "postal": "K1T5N1",
    "result": []
  },
  {
    "postal": "K1T7T0",
    "result": []
  },
  {
    "postal": "K1T9N2",
    "result": []
  },
  {
    "postal": "K1T5L1",
    "result": []
  },
  {
    "postal": "K1T7G5",
    "result": []
  },
  {
    "postal": "K1T6K2",
    "result": []
  },
  {
    "postal": "K1T6P9",
    "result": []
  },
  {
    "postal": "K1T0E6",
    "result": [
      {
        "electoralDistricts": [
          {
            "election": null,
            "id": 17,
            "name": "Carleton"
          }
        ],
        "pollDivisionIds": [
          10137496
        ],
        "postalCode": "K1T0E6",
        "streetName": "BULRUSH",
        "streetDirectionId": null,
        "streetTypeId": "CRES",
        "placeName": "GLOUCESTER",
        "streetNameDisplayText": "BULRUSH CRES, GLOUCESTER"
      }
    ]
  },
  {
    "postal": "K1T8R9",
    "result": []
  },
  {
    "postal": "K1T3G9",
    "result": [
      {
        "electoralDistricts": [
          {
            "election": null,
            "id": 79,
            "name": "Ottawa South"
          }
        ],
        "pollDivisionIds": [
          10140663
        ],
        "postalCode": "K1T3G9",
        "streetName": "MASSICOTTE",
        "streetDirectionId": null,
        "streetTypeId": "LANE",
        "placeName": "GLOUCESTER",
        "streetNameDisplayText": "MASSICOTTE LANE, GLOUCESTER"
      }
    ]
  },
  {
    "postal": "K1T0V7",
    "result": []
  },
  {
    "postal": "K1T2Z1",
    "result": [
      {
        "electoralDistricts": [
          {
            "election": null,
            "id": 79,
            "name": "Ottawa South"
          }
        ],
        "pollDivisionIds": [
          10140678
        ],
        "postalCode": "K1T2Z1",
        "streetName": "SANDHAMN",
        "streetDirectionId": null,
        "streetTypeId": "PVT",
        "placeName": "OTTAWA",
        "streetNameDisplayText": "SANDHAMN PVT, OTTAWA"
      }
    ]
  },
  {
    "postal": "K1T7N1",
    "result": []
  },
  {
    "postal": "K1T3C6",
    "result": [
      {
        "electoralDistricts": [
          {
            "election": null,
            "id": 79,
            "name": "Ottawa South"
          }
        ],
        "pollDivisionIds": [
          10140666
        ],
        "postalCode": "K1T3C6",
        "streetName": "RUSHFORD",
        "streetDirectionId": null,
        "streetTypeId": "PVT",
        "placeName": "OTTAWA",
        "streetNameDisplayText": "RUSHFORD PVT, OTTAWA"
      }
    ]
  },
  {
    "postal": "K1T4M1",
    "result": []
  },
  {
    "postal": "K1T9K2",
    "result": []
  },
  {
    "postal": "K1T9S6",
    "result": []
  },
  {
    "postal": "K1T4X1",
    "result": []
  },
  {
    "postal": "K1T8W2",
    "result": []
  },
  {
    "postal": "K1T7N2",
    "result": []
  },
  {
    "postal": "K1T8S3",
    "result": []
  },
  {
    "postal": "K1T4V0",
    "result": []
  },
  {
    "postal": "K1T6W4",
    "result": []
  },
  {
    "postal": "K1T5M1",
    "result": []
  },
  {
    "postal": "K1T0S4",
    "result": []
  },
  {
    "postal": "K1T5X6",
    "result": []
  },
  {
    "postal": "K1T8L5",
    "result": []
  },
  {
    "postal": "K1T5M8",
    "result": []
  },
  {
    "postal": "K1T2G3",
    "result": [
      {
        "electoralDistricts": [
          {
            "election": null,
            "id": 79,
            "name": "Ottawa South"
          }
        ],
        "pollDivisionIds": [
          10140663
        ],
        "postalCode": "K1T2G3",
        "streetName": "KINGWOOD",
        "streetDirectionId": null,
        "streetTypeId": "LANE",
        "placeName": "GLOUCESTER",
        "streetNameDisplayText": "KINGWOOD LANE, GLOUCESTER"
      }
    ]
  },
  {
    "postal": "K1T8E4",
    "result": []
  },
  {
    "postal": "K1T7S9",
    "result": []
  },
  {
    "postal": "K1T1K3",
    "result": [
      {
        "electoralDistricts": [
          {
            "election": null,
            "id": 79,
            "name": "Ottawa South"
          }
        ],
        "pollDivisionIds": [
          10140675
        ],
        "postalCode": "K1T1K3",
        "streetName": "MAVIS",
        "streetDirectionId": null,
        "streetTypeId": "ST",
        "placeName": "GLOUCESTER",
        "streetNameDisplayText": "MAVIS ST, GLOUCESTER"
      }
    ]
  },
  {
    "postal": "K1T4E1",
    "result": [
      {
        "electoralDistricts": [
          {
            "election": null,
            "id": 79,
            "name": "Ottawa South"
          }
        ],
        "pollDivisionIds": [
          10140666
        ],
        "postalCode": "K1T4E1",
        "streetName": "ROWALLEN",
        "streetDirectionId": null,
        "streetTypeId": "PL",
        "placeName": "OTTAWA",
        "streetNameDisplayText": "ROWALLEN PL, OTTAWA"
      },
      {
        "electoralDistricts": [
          {
            "election": null,
            "id": 79,
            "name": "Ottawa South"
          }
        ],
        "pollDivisionIds": [
          10140666
        ],
        "postalCode": "K1T4E1",
        "streetName": "SHELLBROOK",
        "streetDirectionId": null,
        "streetTypeId": "WAY",
        "placeName": "OTTAWA",
        "streetNameDisplayText": "SHELLBROOK WAY, OTTAWA"
      }
    ]
  },
  {
    "postal": "K1T4R2",
    "result": []
  },
  {
    "postal": "K1T6T0",
    "result": []
  },
  {
    "postal": "K1T3K5",
    "result": [
      {
        "electoralDistricts": [
          {
            "election": null,
            "id": 79,
            "name": "Ottawa South"
          }
        ],
        "pollDivisionIds": [
          10140667
        ],
        "postalCode": "K1T3K5",
        "streetName": "BURLINGTON",
        "streetDirectionId": null,
        "streetTypeId": "CRES",
        "placeName": "OTTAWA",
        "streetNameDisplayText": "BURLINGTON CRES, OTTAWA"
      },
      {
        "electoralDistricts": [
          {
            "election": null,
            "id": 79,
            "name": "Ottawa South"
          }
        ],
        "pollDivisionIds": [
          10140667
        ],
        "postalCode": "K1T3K5",
        "streetName": "HUNTERSFIELD",
        "streetDirectionId": null,
        "streetTypeId": "DR",
        "placeName": "OTTAWA",
        "streetNameDisplayText": "HUNTERSFIELD DR, OTTAWA"
      }
    ]
  },
  {
    "postal": "K1T3S3",
    "result": [
      {
        "electoralDistricts": [
          {
            "election": null,
            "id": 79,
            "name": "Ottawa South"
          }
        ],
        "pollDivisionIds": [
          10140676
        ],
        "postalCode": "K1T3S3",
        "streetName": "QUAIL RUN",
        "streetDirectionId": null,
        "streetTypeId": "AVE",
        "placeName": "GLOUCESTER",
        "streetNameDisplayText": "QUAIL RUN AVE, GLOUCESTER"
      },
      {
        "electoralDistricts": [
          {
            "election": null,
            "id": 79,
            "name": "Ottawa South"
          }
        ],
        "pollDivisionIds": [
          10140676
        ],
        "postalCode": "K1T3S3",
        "streetName": "SABLE RIDGE",
        "streetDirectionId": null,
        "streetTypeId": "DR",
        "placeName": "GLOUCESTER",
        "streetNameDisplayText": "SABLE RIDGE DR, GLOUCESTER"
      }
    ]
  },
  {
    "postal": "K1T3L4",
    "result": [
      {
        "electoralDistricts": [
          {
            "election": null,
            "id": 79,
            "name": "Ottawa South"
          }
        ],
        "pollDivisionIds": [
          10140667
        ],
        "postalCode": "K1T3L4",
        "streetName": "DEPPER",
        "streetDirectionId": null,
        "streetTypeId": "PL",
        "placeName": "OTTAWA",
        "streetNameDisplayText": "DEPPER PL, OTTAWA"
      }
    ]
  },
  {
    "postal": "K1T9Y2",
    "result": []
  },
  {
    "postal": "K1T1E0",
    "result": []
  },
  {
    "postal": "K1T9A4",
    "result": []
  },
  {
    "postal": "K1T1L3",
    "result": [
      {
        "electoralDistricts": [
          {
            "election": null,
            "id": 79,
            "name": "Ottawa South"
          }
        ],
        "pollDivisionIds": [
          10140676
        ],
        "postalCode": "K1T1L3",
        "streetName": "ATHANS",
        "streetDirectionId": null,
        "streetTypeId": "AVE",
        "placeName": "GLOUCESTER",
        "streetNameDisplayText": "ATHANS AVE, GLOUCESTER"
      }
    ]
  },
  {
    "postal": "K1T6N1",
    "result": []
  },
  {
    "postal": "K1T6G7",
    "result": []
  },
  {
    "postal": "K1T7W1",
    "result": []
  },
  {
    "postal": "K1T4M6",
    "result": []
  },
  {
    "postal": "K1T1K0",
    "result": []
  },
  {
    "postal": "K1T3E2",
    "result": [
      {
        "electoralDistricts": [
          {
            "election": null,
            "id": 79,
            "name": "Ottawa South"
          }
        ],
        "pollDivisionIds": [
          10140666
        ],
        "postalCode": "K1T3E2",
        "streetName": "HAXBY",
        "streetDirectionId": null,
        "streetTypeId": "PVT",
        "placeName": "OTTAWA",
        "streetNameDisplayText": "HAXBY PVT, OTTAWA"
      },
      {
        "electoralDistricts": [
          {
            "election": null,
            "id": 79,
            "name": "Ottawa South"
          }
        ],
        "pollDivisionIds": [
          10140666
        ],
        "postalCode": "K1T3E2",
        "streetName": "RUSHFORD",
        "streetDirectionId": null,
        "streetTypeId": "PVT",
        "placeName": "OTTAWA",
        "streetNameDisplayText": "RUSHFORD PVT, OTTAWA"
      },
      {
        "electoralDistricts": [
          {
            "election": null,
            "id": 79,
            "name": "Ottawa South"
          }
        ],
        "pollDivisionIds": [
          10140666
        ],
        "postalCode": "K1T3E2",
        "streetName": "STEENBAKKERS",
        "streetDirectionId": null,
        "streetTypeId": "PVT",
        "placeName": "OTTAWA",
        "streetNameDisplayText": "STEENBAKKERS PVT, OTTAWA"
      }
    ]
  },
  {
    "postal": "K1T5H4",
    "result": []
  },
  {
    "postal": "K1T1K7",
    "result": [
      {
        "electoralDistricts": [
          {
            "election": null,
            "id": 79,
            "name": "Ottawa South"
          }
        ],
        "pollDivisionIds": [
          10140676
        ],
        "postalCode": "K1T1K7",
        "streetName": "SIXTH",
        "streetDirectionId": null,
        "streetTypeId": "ST",
        "placeName": "GLOUCESTER",
        "streetNameDisplayText": "SIXTH ST, GLOUCESTER"
      }
    ]
  },
  {
    "postal": "K1T0H0",
    "result": []
  },
  {
    "postal": "K1T0J3",
    "result": [
      {
        "electoralDistricts": [
          {
            "election": null,
            "id": 17,
            "name": "Carleton"
          }
        ],
        "pollDivisionIds": [
          10137496
        ],
        "postalCode": "K1T0J3",
        "streetName": "CREEKVIEW",
        "streetDirectionId": null,
        "streetTypeId": "WAY",
        "placeName": "GLOUCESTER",
        "streetNameDisplayText": "CREEKVIEW WAY, GLOUCESTER"
      },
      {
        "electoralDistricts": [
          {
            "election": null,
            "id": 17,
            "name": "Carleton"
          }
        ],
        "pollDivisionIds": [
          10137496
        ],
        "postalCode": "K1T0J3",
        "streetName": "GRACEWOOD",
        "streetDirectionId": null,
        "streetTypeId": "CRES",
        "placeName": "GLOUCESTER",
        "streetNameDisplayText": "GRACEWOOD CRES, GLOUCESTER"
      },
      {
        "electoralDistricts": [
          {
            "election": null,
            "id": 17,
            "name": "Carleton"
          }
        ],
        "pollDivisionIds": [
          10137496
        ],
        "postalCode": "K1T0J3",
        "streetName": "SLATTERY'S FIELD",
        "streetDirectionId": null,
        "streetTypeId": "ST",
        "placeName": "GLOUCESTER",
        "streetNameDisplayText": "SLATTERY'S FIELD ST, GLOUCESTER"
      }
    ]
  },
  {
    "postal": "K1T1X6",
    "result": [
      {
        "electoralDistricts": [
          {
            "election": null,
            "id": 79,
            "name": "Ottawa South"
          }
        ],
        "pollDivisionIds": [
          10140663
        ],
        "postalCode": "K1T1X6",
        "streetName": "SOUTHDOWN",
        "streetDirectionId": null,
        "streetTypeId": "CRT",
        "placeName": "GLOUCESTER",
        "streetNameDisplayText": "SOUTHDOWN CRT, GLOUCESTER"
      }
    ]
  },
  {
    "postal": "K1T2Z6",
    "result": [
      {
        "electoralDistricts": [
          {
            "election": null,
            "id": 79,
            "name": "Ottawa South"
          }
        ],
        "pollDivisionIds": [
          10140678
        ],
        "postalCode": "K1T2Z6",
        "streetName": "SANDHAMN",
        "streetDirectionId": null,
        "streetTypeId": "PVT",
        "placeName": "OTTAWA",
        "streetNameDisplayText": "SANDHAMN PVT, OTTAWA"
      }
    ]
  },
  {
    "postal": "K1T4R9",
    "result": []
  },
  {
    "postal": "K1T0W8",
    "result": []
  },
  {
    "postal": "K1T1L4",
    "result": [
      {
        "electoralDistricts": [
          {
            "election": null,
            "id": 79,
            "name": "Ottawa South"
          }
        ],
        "pollDivisionIds": [
          10140676
        ],
        "postalCode": "K1T1L4",
        "streetName": "ATHANS",
        "streetDirectionId": null,
        "streetTypeId": "AVE",
        "placeName": "GLOUCESTER",
        "streetNameDisplayText": "ATHANS AVE, GLOUCESTER"
      }
    ]
  },
  {
    "postal": "K1T0C8",
    "result": [
      {
        "electoralDistricts": [
          {
            "election": null,
            "id": 79,
            "name": "Ottawa South"
          }
        ],
        "pollDivisionIds": [
          10140666
        ],
        "postalCode": "K1T0C8",
        "streetName": "SOLERA",
        "streetDirectionId": null,
        "streetTypeId": "CIR",
        "placeName": "OTTAWA",
        "streetNameDisplayText": "SOLERA CIR, OTTAWA"
      }
    ]
  },
  {
    "postal": "K1T9X7",
    "result": []
  },
  {
    "postal": "K1T4T1",
    "result": []
  },
  {
    "postal": "K1T0M0",
    "result": []
  },
  {
    "postal": "K1T6A2",
    "result": []
  },
  {
    "postal": "K1T9S8",
    "result": []
  },
  {
    "postal": "K1T9T4",
    "result": []
  },
  {
    "postal": "K1T9Y4",
    "result": []
  },
  {
    "postal": "K1T6G5",
    "result": []
  },
  {
    "postal": "K1T6H9",
    "result": []
  },
  {
    "postal": "K1T2P3",
    "result": [
      {
        "electoralDistricts": [
          {
            "election": null,
            "id": 79,
            "name": "Ottawa South"
          }
        ],
        "pollDivisionIds": [
          10140663
        ],
        "postalCode": "K1T2P3",
        "streetName": "MOZART",
        "streetDirectionId": null,
        "streetTypeId": "CRT",
        "placeName": "GLOUCESTER",
        "streetNameDisplayText": "MOZART CRT, GLOUCESTER"
      }
    ]
  },
  {
    "postal": "K1T1T6",
    "result": [
      {
        "electoralDistricts": [
          {
            "election": null,
            "id": 79,
            "name": "Ottawa South"
          }
        ],
        "pollDivisionIds": [
          10140675
        ],
        "postalCode": "K1T1T6",
        "streetName": "ARMADA",
        "streetDirectionId": null,
        "streetTypeId": "AVE",
        "placeName": "GLOUCESTER",
        "streetNameDisplayText": "ARMADA AVE, GLOUCESTER"
      }
    ]
  },
  {
    "postal": "K1T4P6",
    "result": []
  },
  {
    "postal": "K1T3K1",
    "result": [
      {
        "electoralDistricts": [
          {
            "election": null,
            "id": 79,
            "name": "Ottawa South"
          }
        ],
        "pollDivisionIds": [
          10140666
        ],
        "postalCode": "K1T3K1",
        "streetName": "LORRY GREENBERG",
        "streetDirectionId": null,
        "streetTypeId": "DR",
        "placeName": "OTTAWA",
        "streetNameDisplayText": "LORRY GREENBERG DR, OTTAWA"
      }
    ]
  },
  {
    "postal": "K1T6X4",
    "result": []
  },
  {
    "postal": "K1T4M8",
    "result": []
  },
  {
    "postal": "K1T2Y1",
    "result": [
      {
        "electoralDistricts": [
          {
            "election": null,
            "id": 79,
            "name": "Ottawa South"
          }
        ],
        "pollDivisionIds": [
          10140678
        ],
        "postalCode": "K1T2Y1",
        "streetName": "MARLIN",
        "streetDirectionId": null,
        "streetTypeId": "PVT",
        "placeName": "OTTAWA",
        "streetNameDisplayText": "MARLIN PVT, OTTAWA"
      }
    ]
  },
  {
    "postal": "K1T6M1",
    "result": []
  },
  {
    "postal": "K1T5L8",
    "result": []
  },
  {
    "postal": "K1T3P6",
    "result": [
      {
        "electoralDistricts": [
          {
            "election": null,
            "id": 79,
            "name": "Ottawa South"
          }
        ],
        "pollDivisionIds": [
          10140675
        ],
        "postalCode": "K1T3P6",
        "streetName": "MAVIS",
        "streetDirectionId": null,
        "streetTypeId": "ST",
        "placeName": "GLOUCESTER",
        "streetNameDisplayText": "MAVIS ST, GLOUCESTER"
      }
    ]
  },
  {
    "postal": "K1T9A5",
    "result": []
  },
  {
    "postal": "K1T7K1",
    "result": []
  },
  {
    "postal": "K1T3J4",
    "result": [
      {
        "electoralDistricts": [
          {
            "election": null,
            "id": 79,
            "name": "Ottawa South"
          }
        ],
        "pollDivisionIds": [
          10140667
        ],
        "postalCode": "K1T3J4",
        "streetName": "STAMFORD",
        "streetDirectionId": null,
        "streetTypeId": "PVT",
        "placeName": "OTTAWA",
        "streetNameDisplayText": "STAMFORD PVT, OTTAWA"
      }
    ]
  },
  {
    "postal": "K1T5E7",
    "result": []
  },
  {
    "postal": "K1T3A7",
    "result": []
  },
  {
    "postal": "K1T1B9",
    "result": [
      {
        "electoralDistricts": [
          {
            "election": null,
            "id": 79,
            "name": "Ottawa South"
          }
        ],
        "pollDivisionIds": [
          10140663
        ],
        "postalCode": "K1T1B9",
        "streetName": "BRAMPTON",
        "streetDirectionId": null,
        "streetTypeId": "RD",
        "placeName": "GLOUCESTER",
        "streetNameDisplayText": "BRAMPTON RD, GLOUCESTER"
      }
    ]
  },
  {
    "postal": "K1T9E8",
    "result": []
  },
  {
    "postal": "K1T1C9",
    "result": [
      {
        "electoralDistricts": [
          {
            "election": null,
            "id": 79,
            "name": "Ottawa South"
          }
        ],
        "pollDivisionIds": [
          10140663
        ],
        "postalCode": "K1T1C9",
        "streetName": "MORY",
        "streetDirectionId": null,
        "streetTypeId": "ST",
        "placeName": "GLOUCESTER",
        "streetNameDisplayText": "MORY ST, GLOUCESTER"
      }
    ]
  },
  {
    "postal": "K1T3B5",
    "result": [
      {
        "electoralDistricts": [
          {
            "election": null,
            "id": 80,
            "name": "Ottawaâ€”Vanier"
          },
          {
            "election": null,
            "id": 79,
            "name": "Ottawa South"
          }
        ],
        "pollDivisionIds": [
          10140720,
          10140666
        ],
        "postalCode": "K1T3B5",
        "streetName": "HAXBY",
        "streetDirectionId": null,
        "streetTypeId": "PVT",
        "placeName": "OTTAWA",
        "streetNameDisplayText": "HAXBY PVT, OTTAWA"
      }
    ]
  },
  {
    "postal": "K1T8R0",
    "result": []
  },
  {
    "postal": "K1T3P2",
    "result": [
      {
        "electoralDistricts": [
          {
            "election": null,
            "id": 79,
            "name": "Ottawa South"
          }
        ],
        "pollDivisionIds": [
          10140667
        ],
        "postalCode": "K1T3P2",
        "streetName": "FINLAND",
        "streetDirectionId": null,
        "streetTypeId": "PVT",
        "placeName": "OTTAWA",
        "streetNameDisplayText": "FINLAND PVT, OTTAWA"
      }
    ]
  },
  {
    "postal": "K1T5V4",
    "result": []
  },
  {
    "postal": "K1T4H0",
    "result": []
  },
  {
    "postal": "K1T4S7",
    "result": []
  },
  {
    "postal": "K1T6C2",
    "result": []
  },
  {
    "postal": "K1T8W3",
    "result": []
  },
  {
    "postal": "K1T4M5",
    "result": []
  },
  {
    "postal": "K1T5T1",
    "result": []
  },
  {
    "postal": "K1T3B3",
    "result": [
      {
        "electoralDistricts": [
          {
            "election": null,
            "id": 79,
            "name": "Ottawa South"
          }
        ],
        "pollDivisionIds": [
          10140666
        ],
        "postalCode": "K1T3B3",
        "streetName": "ROSEGARDEN",
        "streetDirectionId": null,
        "streetTypeId": "CRES",
        "placeName": "OTTAWA",
        "streetNameDisplayText": "ROSEGARDEN CRES, OTTAWA"
      },
      {
        "electoralDistricts": [
          {
            "election": null,
            "id": 79,
            "name": "Ottawa South"
          }
        ],
        "pollDivisionIds": [
          10140666
        ],
        "postalCode": "K1T3B3",
        "streetName": "TRELLIS",
        "streetDirectionId": null,
        "streetTypeId": "CRT",
        "placeName": "OTTAWA",
        "streetNameDisplayText": "TRELLIS CRT, OTTAWA"
      }
    ]
  },
  {
    "postal": "K1T6C6",
    "result": []
  },
  {
    "postal": "K1T7N8",
    "result": []
  },
  {
    "postal": "K1T2Y3",
    "result": [
      {
        "electoralDistricts": [
          {
            "election": null,
            "id": 79,
            "name": "Ottawa South"
          }
        ],
        "pollDivisionIds": [
          10140678
        ],
        "postalCode": "K1T2Y3",
        "streetName": "MARLIN",
        "streetDirectionId": null,
        "streetTypeId": "PVT",
        "placeName": "OTTAWA",
        "streetNameDisplayText": "MARLIN PVT, OTTAWA"
      }
    ]
  },
  {
    "postal": "K1T2R6",
    "result": [
      {
        "electoralDistricts": [
          {
            "election": null,
            "id": 79,
            "name": "Ottawa South"
          }
        ],
        "pollDivisionIds": [
          10140663
        ],
        "postalCode": "K1T2R6",
        "streetName": "WYLDEWOOD",
        "streetDirectionId": null,
        "streetTypeId": "ST",
        "placeName": "GLOUCESTER",
        "streetNameDisplayText": "WYLDEWOOD ST, GLOUCESTER"
      }
    ]
  },
  {
    "postal": "K1T7N3",
    "result": []
  },
  {
    "postal": "K1T8J2",
    "result": []
  },
  {
    "postal": "K1T6A9",
    "result": []
  },
  {
    "postal": "K1T3V2",
    "result": [
      {
        "electoralDistricts": [
          {
            "election": null,
            "id": 17,
            "name": "Carleton"
          }
        ],
        "pollDivisionIds": [
          10137495
        ],
        "postalCode": "K1T3V2",
        "streetName": "SOUTHCLARK",
        "streetDirectionId": null,
        "streetTypeId": "PL",
        "placeName": "GLOUCESTER",
        "streetNameDisplayText": "SOUTHCLARK PL, GLOUCESTER"
      }
    ]
  },
  {
    "postal": "K1T2N3",
    "result": []
  },
  {
    "postal": "K1T1S5",
    "result": [
      {
        "electoralDistricts": [
          {
            "election": null,
            "id": 79,
            "name": "Ottawa South"
          }
        ],
        "pollDivisionIds": [
          10140675
        ],
        "postalCode": "K1T1S5",
        "streetName": "FENMORE",
        "streetDirectionId": null,
        "streetTypeId": "ST",
        "placeName": "GLOUCESTER",
        "streetNameDisplayText": "FENMORE ST, GLOUCESTER"
      }
    ]
  },
  {
    "postal": "K1T4T7",
    "result": []
  },
  {
    "postal": "K1T6Y7",
    "result": []
  },
  {
    "postal": "K1T0W7",
    "result": []
  },
  {
    "postal": "K1T2W9",
    "result": [
      {
        "electoralDistricts": [
          {
            "election": null,
            "id": 79,
            "name": "Ottawa South"
          }
        ],
        "pollDivisionIds": [
          10140666
        ],
        "postalCode": "K1T2W9",
        "streetName": "PATOLA",
        "streetDirectionId": null,
        "streetTypeId": "PVT",
        "placeName": "OTTAWA",
        "streetNameDisplayText": "PATOLA PVT, OTTAWA"
      }
    ]
  },
  {
    "postal": "K1T8V0",
    "result": []
  },
  {
    "postal": "K1T0H4",
    "result": [
      {
        "electoralDistricts": [
          {
            "election": null,
            "id": 17,
            "name": "Carleton"
          }
        ],
        "pollDivisionIds": [
          10137496
        ],
        "postalCode": "K1T0H4",
        "streetName": "MEADOWLILLY",
        "streetDirectionId": null,
        "streetTypeId": "RD",
        "placeName": "GLOUCESTER",
        "streetNameDisplayText": "MEADOWLILLY RD, GLOUCESTER"
      },
      {
        "electoralDistricts": [
          {
            "election": null,
            "id": 17,
            "name": "Carleton"
          }
        ],
        "pollDivisionIds": [
          10137496
        ],
        "postalCode": "K1T0H4",
        "streetName": "WHITE ALDER",
        "streetDirectionId": null,
        "streetTypeId": "AVE",
        "placeName": "GLOUCESTER",
        "streetNameDisplayText": "WHITE ALDER AVE, GLOUCESTER"
      }
    ]
  },
  {
    "postal": "K1T2T1",
    "result": [
      {
        "electoralDistricts": [
          {
            "election": null,
            "id": 79,
            "name": "Ottawa South"
          }
        ],
        "pollDivisionIds": [
          10140676
        ],
        "postalCode": "K1T2T1",
        "streetName": "COUNCILLOR'S",
        "streetDirectionId": null,
        "streetTypeId": "WAY",
        "placeName": "GLOUCESTER",
        "streetNameDisplayText": "COUNCILLOR'S WAY, GLOUCESTER"
      }
    ]
  },
  {
    "postal": "K1T1B1",
    "result": [
      {
        "electoralDistricts": [
          {
            "election": null,
            "id": 79,
            "name": "Ottawa South"
          }
        ],
        "pollDivisionIds": [
          10140663
        ],
        "postalCode": "K1T1B1",
        "streetName": "ALBION",
        "streetDirectionId": null,
        "streetTypeId": "RD",
        "placeName": "GLOUCESTER",
        "streetNameDisplayText": "ALBION RD, GLOUCESTER"
      }
    ]
  },
  {
    "postal": "K1T8B6",
    "result": []
  },
  {
    "postal": "K1T6H1",
    "result": []
  },
  {
    "postal": "K1T8T8",
    "result": []
  },
  {
    "postal": "K1T0T4",
    "result": []
  },
  {
    "postal": "K1T2C4",
    "result": [
      {
        "electoralDistricts": [
          {
            "election": null,
            "id": 79,
            "name": "Ottawa South"
          }
        ],
        "pollDivisionIds": [
          10140663
        ],
        "postalCode": "K1T2C4",
        "streetName": "BRIDLE PATH",
        "streetDirectionId": null,
        "streetTypeId": "DR",
        "placeName": "GLOUCESTER",
        "streetNameDisplayText": "BRIDLE PATH DR, GLOUCESTER"
      }
    ]
  },
  {
    "postal": "K1T8N3",
    "result": []
  },
  {
    "postal": "K1T4L8",
    "result": []
  },
  {
    "postal": "K1T2B5",
    "result": [
      {
        "electoralDistricts": [
          {
            "election": null,
            "id": 79,
            "name": "Ottawa South"
          }
        ],
        "pollDivisionIds": [
          10140670
        ],
        "postalCode": "K1T2B5",
        "streetName": "WHITE CLOVER",
        "streetDirectionId": null,
        "streetTypeId": "PVT",
        "placeName": "OTTAWA",
        "streetNameDisplayText": "WHITE CLOVER PVT, OTTAWA"
      }
    ]
  },
  {
    "postal": "K1T3H1",
    "result": [
      {
        "electoralDistricts": [
          {
            "election": null,
            "id": 79,
            "name": "Ottawa South"
          }
        ],
        "pollDivisionIds": [
          10140663
        ],
        "postalCode": "K1T3H1",
        "streetName": "MASSICOTTE",
        "streetDirectionId": null,
        "streetTypeId": "LANE",
        "placeName": "GLOUCESTER",
        "streetNameDisplayText": "MASSICOTTE LANE, GLOUCESTER"
      }
    ]
  },
  {
    "postal": "K1T4Y1",
    "result": []
  },
  {
    "postal": "K1T7E2",
    "result": []
  },
  {
    "postal": "K1T2P5",
    "result": [
      {
        "electoralDistricts": [
          {
            "election": null,
            "id": 79,
            "name": "Ottawa South"
          }
        ],
        "pollDivisionIds": [
          10140663
        ],
        "postalCode": "K1T2P5",
        "streetName": "MOZART",
        "streetDirectionId": null,
        "streetTypeId": "CRT",
        "placeName": "GLOUCESTER",
        "streetNameDisplayText": "MOZART CRT, GLOUCESTER"
      }
    ]
  },
  {
    "postal": "K1T8R7",
    "result": []
  },
  {
    "postal": "K1T9P1",
    "result": []
  },
  {
    "postal": "K1T3B8",
    "result": [
      {
        "electoralDistricts": [
          {
            "election": null,
            "id": 79,
            "name": "Ottawa South"
          }
        ],
        "pollDivisionIds": [
          10140666
        ],
        "postalCode": "K1T3B8",
        "streetName": "HAXBY",
        "streetDirectionId": null,
        "streetTypeId": "PVT",
        "placeName": "OTTAWA",
        "streetNameDisplayText": "HAXBY PVT, OTTAWA"
      }
    ]
  },
  {
    "postal": "K1T3P7",
    "result": [
      {
        "electoralDistricts": [
          {
            "election": null,
            "id": 79,
            "name": "Ottawa South"
          }
        ],
        "pollDivisionIds": [
          10140676
        ],
        "postalCode": "K1T3P7",
        "streetName": "BLOOMINGTON",
        "streetDirectionId": null,
        "streetTypeId": "ST",
        "placeName": "GLOUCESTER",
        "streetNameDisplayText": "BLOOMINGTON ST, GLOUCESTER"
      },
      {
        "electoralDistricts": [
          {
            "election": null,
            "id": 79,
            "name": "Ottawa South"
          }
        ],
        "pollDivisionIds": [
          10140676
        ],
        "postalCode": "K1T3P7",
        "streetName": "ST BERNARD",
        "streetDirectionId": null,
        "streetTypeId": "ST",
        "placeName": "GLOUCESTER",
        "streetNameDisplayText": "ST BERNARD ST, GLOUCESTER"
      },
      {
        "electoralDistricts": [
          {
            "election": null,
            "id": 79,
            "name": "Ottawa South"
          }
        ],
        "pollDivisionIds": [
          10140676
        ],
        "postalCode": "K1T3P7",
        "streetName": "TREETOP",
        "streetDirectionId": null,
        "streetTypeId": "CRT",
        "placeName": "GLOUCESTER",
        "streetNameDisplayText": "TREETOP CRT, GLOUCESTER"
      }
    ]
  },
  {
    "postal": "K1T9B2",
    "result": []
  },
  {
    "postal": "K1T6Z3",
    "result": []
  },
  {
    "postal": "K1T4N5",
    "result": []
  },
  {
    "postal": "K1T8T3",
    "result": []
  },
  {
    "postal": "K1T1V2",
    "result": [
      {
        "electoralDistricts": [
          {
            "election": null,
            "id": 79,
            "name": "Ottawa South"
          }
        ],
        "pollDivisionIds": [
          10140675
        ],
        "postalCode": "K1T1V2",
        "streetName": "QUAIL",
        "streetDirectionId": null,
        "streetTypeId": "DR",
        "placeName": "GLOUCESTER",
        "streetNameDisplayText": "QUAIL DR, GLOUCESTER"
      }
    ]
  },
  {
    "postal": "K1T1Y0",
    "result": []
  },
  {
    "postal": "K1T3G6",
    "result": [
      {
        "electoralDistricts": [
          {
            "election": null,
            "id": 79,
            "name": "Ottawa South"
          }
        ],
        "pollDivisionIds": [
          10140667
        ],
        "postalCode": "K1T3G6",
        "streetName": "BRIERMOOR",
        "streetDirectionId": null,
        "streetTypeId": "CRES",
        "placeName": "OTTAWA",
        "streetNameDisplayText": "BRIERMOOR CRES, OTTAWA"
      }
    ]
  },
  {
    "postal": "K1T3H7",
    "result": [
      {
        "electoralDistricts": [
          {
            "election": null,
            "id": 79,
            "name": "Ottawa South"
          }
        ],
        "pollDivisionIds": [
          10140675
        ],
        "postalCode": "K1T3H7",
        "streetName": "ST BERNARD",
        "streetDirectionId": null,
        "streetTypeId": "ST",
        "placeName": "GLOUCESTER",
        "streetNameDisplayText": "ST BERNARD ST, GLOUCESTER"
      }
    ]
  },
  {
    "postal": "K1T7X8",
    "result": []
  },
  {
    "postal": "K1T0C7",
    "result": [
      {
        "electoralDistricts": [
          {
            "election": null,
            "id": 79,
            "name": "Ottawa South"
          }
        ],
        "pollDivisionIds": [
          10140666
        ],
        "postalCode": "K1T0C7",
        "streetName": "DUNSTON",
        "streetDirectionId": null,
        "streetTypeId": "TERR",
        "placeName": "OTTAWA",
        "streetNameDisplayText": "DUNSTON TERR, OTTAWA"
      },
      {
        "electoralDistricts": [
          {
            "election": null,
            "id": 79,
            "name": "Ottawa South"
          }
        ],
        "pollDivisionIds": [
          10140666
        ],
        "postalCode": "K1T0C7",
        "streetName": "RYWALK",
        "streetDirectionId": null,
        "streetTypeId": "CIR",
        "placeName": "OTTAWA",
        "streetNameDisplayText": "RYWALK CIR, OTTAWA"
      }
    ]
  },
  {
    "postal": "K1T0W9",
    "result": []
  },
  {
    "postal": "K1T8E6",
    "result": []
  },
  {
    "postal": "K1T9Z8",
    "result": []
  },
  {
    "postal": "K1T3P4",
    "result": [
      {
        "electoralDistricts": [
          {
            "election": null,
            "id": 79,
            "name": "Ottawa South"
          }
        ],
        "pollDivisionIds": [
          10140666
        ],
        "postalCode": "K1T3P4",
        "streetName": "SOUTHPORT",
        "streetDirectionId": null,
        "streetTypeId": "DR",
        "placeName": "OTTAWA",
        "streetNameDisplayText": "SOUTHPORT DR, OTTAWA"
      }
    ]
  },
  {
    "postal": "K1T6L8",
    "result": []
  },
  {
    "postal": "K1T2R4",
    "result": [
      {
        "electoralDistricts": [
          {
            "election": null,
            "id": 79,
            "name": "Ottawa South"
          }
        ],
        "pollDivisionIds": [
          10140663
        ],
        "postalCode": "K1T2R4",
        "streetName": "TRAPPER'S",
        "streetDirectionId": null,
        "streetTypeId": "RD",
        "placeName": "GLOUCESTER",
        "streetNameDisplayText": "TRAPPER'S RD, GLOUCESTER"
      }
    ]
  },
  {
    "postal": "K1T2W1",
    "result": [
      {
        "electoralDistricts": [
          {
            "election": null,
            "id": 79,
            "name": "Ottawa South"
          }
        ],
        "pollDivisionIds": [
          10140666
        ],
        "postalCode": "K1T2W1",
        "streetName": "TEMBY",
        "streetDirectionId": null,
        "streetTypeId": "PVT",
        "placeName": "OTTAWA",
        "streetNameDisplayText": "TEMBY PVT, OTTAWA"
      }
    ]
  },
  {
    "postal": "K1T9H8",
    "result": []
  },
  {
    "postal": "K1T8X9",
    "result": []
  },
  {
    "postal": "K1T7H4",
    "result": []
  },
  {
    "postal": "K1T3J1",
    "result": [
      {
        "electoralDistricts": [
          {
            "election": null,
            "id": 79,
            "name": "Ottawa South"
          }
        ],
        "pollDivisionIds": [
          10140667
        ],
        "postalCode": "K1T3J1",
        "streetName": "STAMFORD",
        "streetDirectionId": null,
        "streetTypeId": "PVT",
        "placeName": "OTTAWA",
        "streetNameDisplayText": "STAMFORD PVT, OTTAWA"
      }
    ]
  },
  {
    "postal": "K1T1P4",
    "result": [
      {
        "electoralDistricts": [
          {
            "election": null,
            "id": 79,
            "name": "Ottawa South"
          }
        ],
        "pollDivisionIds": [
          10140675
        ],
        "postalCode": "K1T1P4",
        "streetName": "CHILLIWACK",
        "streetDirectionId": null,
        "streetTypeId": "WAY",
        "placeName": "GLOUCESTER",
        "streetNameDisplayText": "CHILLIWACK WAY, GLOUCESTER"
      }
    ]
  },
  {
    "postal": "K1T2A3",
    "result": [
      {
        "electoralDistricts": [
          {
            "election": null,
            "id": 79,
            "name": "Ottawa South"
          }
        ],
        "pollDivisionIds": [
          10140663
        ],
        "postalCode": "K1T2A3",
        "streetName": "HUNTERS POINT",
        "streetDirectionId": null,
        "streetTypeId": "CRES",
        "placeName": "GLOUCESTER",
        "streetNameDisplayText": "HUNTERS POINT CRES, GLOUCESTER"
      }
    ]
  },
  {
    "postal": "K1T0Z1",
    "result": []
  },
  {
    "postal": "K1T1C1",
    "result": [
      {
        "electoralDistricts": [
          {
            "election": null,
            "id": 79,
            "name": "Ottawa South"
          }
        ],
        "pollDivisionIds": [
          10140663,
          10140675
        ],
        "postalCode": "K1T1C1",
        "streetName": "AUTUMNWOOD",
        "streetDirectionId": null,
        "streetTypeId": "ST",
        "placeName": "GLOUCESTER",
        "streetNameDisplayText": "AUTUMNWOOD ST, GLOUCESTER"
      }
    ]
  },
  {
    "postal": "K1T0H3",
    "result": [
      {
        "electoralDistricts": [
          {
            "election": null,
            "id": 17,
            "name": "Carleton"
          }
        ],
        "pollDivisionIds": [
          10137495
        ],
        "postalCode": "K1T0H3",
        "streetName": "STALWART",
        "streetDirectionId": null,
        "streetTypeId": "CRES",
        "placeName": "GLOUCESTER",
        "streetNameDisplayText": "STALWART CRES, GLOUCESTER"
      }
    ]
  },
  {
    "postal": "K1T7B0",
    "result": []
  },
  {
    "postal": "K1T5K2",
    "result": []
  },
  {
    "postal": "K1T1E9",
    "result": [
      {
        "electoralDistricts": [
          {
            "election": null,
            "id": 79,
            "name": "Ottawa South"
          }
        ],
        "pollDivisionIds": [
          10140675
        ],
        "postalCode": "K1T1E9",
        "streetName": "ROSEBELLA",
        "streetDirectionId": null,
        "streetTypeId": "AVE",
        "placeName": "GLOUCESTER",
        "streetNameDisplayText": "ROSEBELLA AVE, GLOUCESTER"
      },
      {
        "electoralDistricts": [
          {
            "election": null,
            "id": 79,
            "name": "Ottawa South"
          }
        ],
        "pollDivisionIds": [
          10140675
        ],
        "postalCode": "K1T1E9",
        "streetName": "ROSEBELLA",
        "streetDirectionId": null,
        "streetTypeId": "AVE",
        "placeName": "OTTAWA",
        "streetNameDisplayText": "ROSEBELLA AVE, OTTAWA"
      }
    ]
  },
  {
    "postal": "K1T9W7",
    "result": []
  },
  {
    "postal": "K1T5W6",
    "result": []
  },
  {
    "postal": "K1T6S6",
    "result": []
  },
  {
    "postal": "K1T2P8",
    "result": [
      {
        "electoralDistricts": [
          {
            "election": null,
            "id": 79,
            "name": "Ottawa South"
          }
        ],
        "pollDivisionIds": [
          10140663
        ],
        "postalCode": "K1T2P8",
        "streetName": "MOZART",
        "streetDirectionId": null,
        "streetTypeId": "CRT",
        "placeName": "GLOUCESTER",
        "streetNameDisplayText": "MOZART CRT, GLOUCESTER"
      }
    ]
  },
  {
    "postal": "K1T4P8",
    "result": []
  },
  {
    "postal": "K1T0V9",
    "result": []
  },
  {
    "postal": "K1T5Y2",
    "result": []
  },
  {
    "postal": "K1T7Z7",
    "result": []
  },
  {
    "postal": "K1T6Y8",
    "result": []
  },
  {
    "postal": "K1T2G7",
    "result": [
      {
        "electoralDistricts": [
          {
            "election": null,
            "id": 79,
            "name": "Ottawa South"
          }
        ],
        "pollDivisionIds": [
          10140663
        ],
        "postalCode": "K1T2G7",
        "streetName": "AUTUMNWOOD",
        "streetDirectionId": null,
        "streetTypeId": "ST",
        "placeName": "GLOUCESTER",
        "streetNameDisplayText": "AUTUMNWOOD ST, GLOUCESTER"
      }
    ]
  },
  {
    "postal": "K1T8C1",
    "result": []
  },
  {
    "postal": "K1T5C5",
    "result": []
  },
  {
    "postal": "K1T2X8",
    "result": [
      {
        "electoralDistricts": [
          {
            "election": null,
            "id": 79,
            "name": "Ottawa South"
          }
        ],
        "pollDivisionIds": [
          10140666
        ],
        "postalCode": "K1T2X8",
        "streetName": "CUTTS",
        "streetDirectionId": null,
        "streetTypeId": "PVT",
        "placeName": "OTTAWA",
        "streetNameDisplayText": "CUTTS PVT, OTTAWA"
      }
    ]
  },
  {
    "postal": "K1T1W5",
    "result": [
      {
        "electoralDistricts": [
          {
            "election": null,
            "id": 79,
            "name": "Ottawa South"
          }
        ],
        "pollDivisionIds": [
          10140670
        ],
        "postalCode": "K1T1W5",
        "streetName": "GREENBORO",
        "streetDirectionId": null,
        "streetTypeId": "CRES",
        "placeName": "OTTAWA",
        "streetNameDisplayText": "GREENBORO CRES, OTTAWA"
      }
    ]
  },
  {
    "postal": "K1T7G0",
    "result": []
  },
  {
    "postal": "K1T8J8",
    "result": []
  },
  {
    "postal": "K1T3Y0",
    "result": []
  },
  {
    "postal": "K1T9T7",
    "result": []
  },
  {
    "postal": "K1T5P4",
    "result": []
  },
  {
    "postal": "K1T4B0",
    "result": []
  },
  {
    "postal": "K1T9N8",
    "result": []
  },
  {
    "postal": "K1T4A7",
    "result": [
      {
        "electoralDistricts": [
          {
            "election": null,
            "id": 79,
            "name": "Ottawa South"
          }
        ],
        "pollDivisionIds": [
          10140667
        ],
        "postalCode": "K1T4A7",
        "streetName": "GLADEVIEW",
        "streetDirectionId": null,
        "streetTypeId": "PVT",
        "placeName": "OTTAWA",
        "streetNameDisplayText": "GLADEVIEW PVT, OTTAWA"
      }
    ]
  },
  {
    "postal": "K1T4H9",
    "result": [
      {
        "electoralDistricts": [
          {
            "election": null,
            "id": 17,
            "name": "Carleton"
          }
        ],
        "pollDivisionIds": [
          10137496
        ],
        "postalCode": "K1T4H9",
        "streetName": "KELLY FARM",
        "streetDirectionId": null,
        "streetTypeId": "DR",
        "placeName": "GLOUCESTER",
        "streetNameDisplayText": "KELLY FARM DR, GLOUCESTER"
      },
      {
        "electoralDistricts": [
          {
            "election": null,
            "id": 17,
            "name": "Carleton"
          }
        ],
        "pollDivisionIds": [
          10137496
        ],
        "postalCode": "K1T4H9",
        "streetName": "SHEPODY",
        "streetDirectionId": null,
        "streetTypeId": "CIR",
        "placeName": "GLOUCESTER",
        "streetNameDisplayText": "SHEPODY CIR, GLOUCESTER"
      },
      {
        "electoralDistricts": [
          {
            "election": null,
            "id": 17,
            "name": "Carleton"
          }
        ],
        "pollDivisionIds": [
          10137496
        ],
        "postalCode": "K1T4H9",
        "streetName": "SHEPODY",
        "streetDirectionId": null,
        "streetTypeId": "CIR",
        "placeName": "OTTAWA",
        "streetNameDisplayText": "SHEPODY CIR, OTTAWA"
      }
    ]
  },
  {
    "postal": "K1T6X1",
    "result": []
  },
  {
    "postal": "K1T9Y7",
    "result": []
  },
  {
    "postal": "K1T2Y5",
    "result": [
      {
        "electoralDistricts": [
          {
            "election": null,
            "id": 79,
            "name": "Ottawa South"
          }
        ],
        "pollDivisionIds": [
          10140678
        ],
        "postalCode": "K1T2Y5",
        "streetName": "MARLIN",
        "streetDirectionId": null,
        "streetTypeId": "PVT",
        "placeName": "OTTAWA",
        "streetNameDisplayText": "MARLIN PVT, OTTAWA"
      }
    ]
  },
  {
    "postal": "K1T8L7",
    "result": []
  },
  {
    "postal": "K1T2A8",
    "result": [
      {
        "electoralDistricts": [
          {
            "election": null,
            "id": 79,
            "name": "Ottawa South"
          }
        ],
        "pollDivisionIds": [
          10140663
        ],
        "postalCode": "K1T2A8",
        "streetName": "PIMLICO",
        "streetDirectionId": null,
        "streetTypeId": "CRES",
        "placeName": "GLOUCESTER",
        "streetNameDisplayText": "PIMLICO CRES, GLOUCESTER"
      }
    ]
  },
  {
    "postal": "K1T2K9",
    "result": []
  },
  {
    "postal": "K1T3E5",
    "result": [
      {
        "electoralDistricts": [
          {
            "election": null,
            "id": 79,
            "name": "Ottawa South"
          }
        ],
        "pollDivisionIds": [
          10140667
        ],
        "postalCode": "K1T3E5",
        "streetName": "HUNTERSFIELD",
        "streetDirectionId": null,
        "streetTypeId": "DR",
        "placeName": "OTTAWA",
        "streetNameDisplayText": "HUNTERSFIELD DR, OTTAWA"
      }
    ]
  },
  {
    "postal": "K1T8N6",
    "result": []
  },
  {
    "postal": "K1T8J4",
    "result": []
  },
  {
    "postal": "K1T4R7",
    "result": []
  },
  {
    "postal": "K1T9K1",
    "result": []
  },
  {
    "postal": "K1T8E1",
    "result": []
  },
  {
    "postal": "K1T0R1",
    "result": [
      {
        "electoralDistricts": [
          {
            "election": null,
            "id": 17,
            "name": "Carleton"
          }
        ],
        "pollDivisionIds": [
          10137496
        ],
        "postalCode": "K1T0R1",
        "streetName": "ERIC MALONEY",
        "streetDirectionId": null,
        "streetTypeId": "WAY",
        "placeName": "OTTAWA",
        "streetNameDisplayText": "ERIC MALONEY WAY, OTTAWA"
      }
    ]
  },
  {
    "postal": "K1T4J3",
    "result": [
      {
        "electoralDistricts": [
          {
            "election": null,
            "id": 17,
            "name": "Carleton"
          }
        ],
        "pollDivisionIds": [
          10137496
        ],
        "postalCode": "K1T4J3",
        "streetName": "KELLY FARM",
        "streetDirectionId": null,
        "streetTypeId": "DR",
        "placeName": "GLOUCESTER",
        "streetNameDisplayText": "KELLY FARM DR, GLOUCESTER"
      }
    ]
  },
  {
    "postal": "K1T7E7",
    "result": []
  },
  {
    "postal": "K1T0J0",
    "result": []
  },
  {
    "postal": "K1T7R8",
    "result": []
  },
  {
    "postal": "K1T9X0",
    "result": []
  },
  {
    "postal": "K1T7P6",
    "result": []
  },
  {
    "postal": "K1T0R7",
    "result": []
  },
  {
    "postal": "K1T5W1",
    "result": []
  },
  {
    "postal": "K1T0K4",
    "result": [
      {
        "electoralDistricts": [
          {
            "election": null,
            "id": 17,
            "name": "Carleton"
          }
        ],
        "pollDivisionIds": [
          10137496
        ],
        "postalCode": "K1T0K4",
        "streetName": "HAZELNUT",
        "streetDirectionId": null,
        "streetTypeId": "CRES",
        "placeName": "GLOUCESTER",
        "streetNameDisplayText": "HAZELNUT CRES, GLOUCESTER"
      },
      {
        "electoralDistricts": [
          {
            "election": null,
            "id": 17,
            "name": "Carleton"
          }
        ],
        "pollDivisionIds": [
          10137496
        ],
        "postalCode": "K1T0K4",
        "streetName": "VERBENA",
        "streetDirectionId": null,
        "streetTypeId": "CRES",
        "placeName": "GLOUCESTER",
        "streetNameDisplayText": "VERBENA CRES, GLOUCESTER"
      }
    ]
  },
  {
    "postal": "K1T7N9",
    "result": []
  },
  {
    "postal": "K1T1N0",
    "result": []
  },
  {
    "postal": "K1T6P3",
    "result": []
  },
  {
    "postal": "K1T5A1",
    "result": []
  },
  {
    "postal": "K1T9M9",
    "result": []
  },
  {
    "postal": "K1T7T6",
    "result": []
  },
  {
    "postal": "K1T3X0",
    "result": []
  },
  {
    "postal": "K1T2T0",
    "result": []
  },
  {
    "postal": "K1T5X9",
    "result": []
  },
  {
    "postal": "K1T2R3",
    "result": [
      {
        "electoralDistricts": [
          {
            "election": null,
            "id": 79,
            "name": "Ottawa South"
          }
        ],
        "pollDivisionIds": [
          10140663
        ],
        "postalCode": "K1T2R3",
        "streetName": "TRAPPER'S",
        "streetDirectionId": null,
        "streetTypeId": "RD",
        "placeName": "GLOUCESTER",
        "streetNameDisplayText": "TRAPPER'S RD, GLOUCESTER"
      }
    ]
  },
  {
    "postal": "K1T5N2",
    "result": []
  },
  {
    "postal": "K1T4Y7",
    "result": []
  },
  {
    "postal": "K1T7M0",
    "result": []
  },
  {
    "postal": "K1T8P3",
    "result": []
  },
  {
    "postal": "K1T3N3",
    "result": [
      {
        "electoralDistricts": [
          {
            "election": null,
            "id": 79,
            "name": "Ottawa South"
          }
        ],
        "pollDivisionIds": [
          10140666
        ],
        "postalCode": "K1T3N3",
        "streetName": "CASTLEGREEN",
        "streetDirectionId": null,
        "streetTypeId": "PVT",
        "placeName": "OTTAWA",
        "streetNameDisplayText": "CASTLEGREEN PVT, OTTAWA"
      }
    ]
  },
  {
    "postal": "K1T7S3",
    "result": []
  },
  {
    "postal": "K1T3V9",
    "result": [
      {
        "electoralDistricts": [
          {
            "election": null,
            "id": 17,
            "name": "Carleton"
          }
        ],
        "pollDivisionIds": [
          10137495
        ],
        "postalCode": "K1T3V9",
        "streetName": "LEITRIM",
        "streetDirectionId": null,
        "streetTypeId": "RD",
        "placeName": "GLOUCESTER",
        "streetNameDisplayText": "LEITRIM RD, GLOUCESTER"
      }
    ]
  },
  {
    "postal": "K1T9N7",
    "result": []
  },
  {
    "postal": "K1T0G4",
    "result": [
      {
        "electoralDistricts": [
          {
            "election": null,
            "id": 17,
            "name": "Carleton"
          }
        ],
        "pollDivisionIds": [
          10137496
        ],
        "postalCode": "K1T0G4",
        "streetName": "BUFFLEHEAD",
        "streetDirectionId": null,
        "streetTypeId": "WAY",
        "placeName": "GLOUCESTER",
        "streetNameDisplayText": "BUFFLEHEAD WAY, GLOUCESTER"
      },
      {
        "electoralDistricts": [
          {
            "election": null,
            "id": 17,
            "name": "Carleton"
          }
        ],
        "pollDivisionIds": [
          10137496
        ],
        "postalCode": "K1T0G4",
        "streetName": "WHITE ALDER",
        "streetDirectionId": null,
        "streetTypeId": "AVE",
        "placeName": "GLOUCESTER",
        "streetNameDisplayText": "WHITE ALDER AVE, GLOUCESTER"
      }
    ]
  },
  {
    "postal": "K1T2E2",
    "result": [
      {
        "electoralDistricts": [
          {
            "election": null,
            "id": 79,
            "name": "Ottawa South"
          }
        ],
        "pollDivisionIds": [
          10140670
        ],
        "postalCode": "K1T2E2",
        "streetName": "BORGA",
        "streetDirectionId": null,
        "streetTypeId": "CRES",
        "placeName": "OTTAWA",
        "streetNameDisplayText": "BORGA CRES, OTTAWA"
      }
    ]
  },
  {
    "postal": "K1T7W8",
    "result": []
  },
  {
    "postal": "K1T7M5",
    "result": []
  },
  {
    "postal": "K1T5W8",
    "result": []
  },
  {
    "postal": "K1T5E5",
    "result": []
  },
  {
    "postal": "K1T1P9",
    "result": [
      {
        "electoralDistricts": [
          {
            "election": null,
            "id": 79,
            "name": "Ottawa South"
          }
        ],
        "pollDivisionIds": [
          10140675
        ],
        "postalCode": "K1T1P9",
        "streetName": "MANNERING",
        "streetDirectionId": null,
        "streetTypeId": "CRT",
        "placeName": "GLOUCESTER",
        "streetNameDisplayText": "MANNERING CRT, GLOUCESTER"
      }
    ]
  },
  {
    "postal": "K1T8V8",
    "result": []
  },
  {
    "postal": "K1T9G8",
    "result": []
  },
  {
    "postal": "K1T8H9",
    "result": []
  },
  {
    "postal": "K1T1Z1",
    "result": [
      {
        "electoralDistricts": [
          {
            "election": null,
            "id": 79,
            "name": "Ottawa South"
          }
        ],
        "pollDivisionIds": [
          10140676
        ],
        "postalCode": "K1T1Z1",
        "streetName": "OLYMPIC",
        "streetDirectionId": null,
        "streetTypeId": "WAY",
        "placeName": "GLOUCESTER",
        "streetNameDisplayText": "OLYMPIC WAY, GLOUCESTER"
      }
    ]
  },
  {
    "postal": "K1T8M3",
    "result": []
  },
  {
    "postal": "K1T5H6",
    "result": []
  },
  {
    "postal": "K1T7W7",
    "result": []
  },
  {
    "postal": "K1T4L0",
    "result": []
  },
  {
    "postal": "K1T2N1",
    "result": []
  },
  {
    "postal": "K1T2H4",
    "result": [
      {
        "electoralDistricts": [
          {
            "election": null,
            "id": 79,
            "name": "Ottawa South"
          }
        ],
        "pollDivisionIds": [
          10140670
        ],
        "postalCode": "K1T2H4",
        "streetName": "WINGALE",
        "streetDirectionId": null,
        "streetTypeId": "PVT",
        "placeName": "OTTAWA",
        "streetNameDisplayText": "WINGALE PVT, OTTAWA"
      }
    ]
  },
  {
    "postal": "K1T5C8",
    "result": []
  },
  {
    "postal": "K1T8B0",
    "result": []
  },
  {
    "postal": "K1T1T4",
    "result": [
      {
        "electoralDistricts": [
          {
            "election": null,
            "id": 79,
            "name": "Ottawa South"
          }
        ],
        "pollDivisionIds": [
          10140675
        ],
        "postalCode": "K1T1T4",
        "streetName": "ARMADA",
        "streetDirectionId": null,
        "streetTypeId": "AVE",
        "placeName": "GLOUCESTER",
        "streetNameDisplayText": "ARMADA AVE, GLOUCESTER"
      }
    ]
  },
  {
    "postal": "K1T7N7",
    "result": []
  },
  {
    "postal": "K1T4L3",
    "result": []
  },
  {
    "postal": "K1T2N2",
    "result": []
  },
  {
    "postal": "K1T4N8",
    "result": []
  },
  {
    "postal": "K1T3M5",
    "result": [
      {
        "electoralDistricts": [
          {
            "election": null,
            "id": 79,
            "name": "Ottawa South"
          }
        ],
        "pollDivisionIds": [
          10140666
        ],
        "postalCode": "K1T3M5",
        "streetName": "HUNTERSFIELD",
        "streetDirectionId": null,
        "streetTypeId": "DR",
        "placeName": "OTTAWA",
        "streetNameDisplayText": "HUNTERSFIELD DR, OTTAWA"
      }
    ]
  },
  {
    "postal": "K1T6H7",
    "result": []
  },
  {
    "postal": "K1T8Y8",
    "result": []
  },
  {
    "postal": "K1T5R9",
    "result": []
  },
  {
    "postal": "K1T8G3",
    "result": []
  },
  {
    "postal": "K1T4N7",
    "result": []
  },
  {
    "postal": "K1T0B9",
    "result": [
      {
        "electoralDistricts": [
          {
            "election": null,
            "id": 79,
            "name": "Ottawa South"
          }
        ],
        "pollDivisionIds": [
          10140675
        ],
        "postalCode": "K1T0B9",
        "streetName": "DEER VIEW",
        "streetDirectionId": null,
        "streetTypeId": "AVE",
        "placeName": "GLOUCESTER",
        "streetNameDisplayText": "DEER VIEW AVE, GLOUCESTER"
      },
      {
        "electoralDistricts": [
          {
            "election": null,
            "id": 79,
            "name": "Ottawa South"
          }
        ],
        "pollDivisionIds": [
          10140675
        ],
        "postalCode": "K1T0B9",
        "streetName": "STEDMAN",
        "streetDirectionId": null,
        "streetTypeId": "ST",
        "placeName": "GLOUCESTER",
        "streetNameDisplayText": "STEDMAN ST, GLOUCESTER"
      }
    ]
  },
  {
    "postal": "K1T9K7",
    "result": []
  },
  {
    "postal": "K1T9K9",
    "result": []
  },
  {
    "postal": "K1T3Z2",
    "result": [
      {
        "electoralDistricts": [
          {
            "election": null,
            "id": 79,
            "name": "Ottawa South"
          }
        ],
        "pollDivisionIds": [
          10140676
        ],
        "postalCode": "K1T3Z2",
        "streetName": "APPLE HILL",
        "streetDirectionId": null,
        "streetTypeId": "DR",
        "placeName": "GLOUCESTER",
        "streetNameDisplayText": "APPLE HILL DR, GLOUCESTER"
      }
    ]
  },
  {
    "postal": "K1T6W7",
    "result": []
  },
  {
    "postal": "K1T0P1",
    "result": [
      {
        "electoralDistricts": [
          {
            "election": null,
            "id": 17,
            "name": "Carleton"
          }
        ],
        "pollDivisionIds": [
          10137496
        ],
        "postalCode": "K1T0P1",
        "streetName": "SILVERBELL",
        "streetDirectionId": null,
        "streetTypeId": "CRES",
        "placeName": "GLOUCESTER",
        "streetNameDisplayText": "SILVERBELL CRES, GLOUCESTER"
      },
      {
        "electoralDistricts": [
          {
            "election": null,
            "id": 17,
            "name": "Carleton"
          }
        ],
        "pollDivisionIds": [
          10137496
        ],
        "postalCode": "K1T0P1",
        "streetName": "SILVERBELL",
        "streetDirectionId": null,
        "streetTypeId": "CRES",
        "placeName": "OTTAWA",
        "streetNameDisplayText": "SILVERBELL CRES, OTTAWA"
      }
    ]
  },
  {
    "postal": "K1T3A0",
    "result": []
  },
  {
    "postal": "K1T8L9",
    "result": []
  },
  {
    "postal": "K1T6X0",
    "result": []
  },
  {
    "postal": "K1T3E9",
    "result": [
      {
        "electoralDistricts": [
          {
            "election": null,
            "id": 79,
            "name": "Ottawa South"
          }
        ],
        "pollDivisionIds": [
          10140667
        ],
        "postalCode": "K1T3E9",
        "streetName": "BRAMBLEGROVE",
        "streetDirectionId": null,
        "streetTypeId": "CRES",
        "placeName": "OTTAWA",
        "streetNameDisplayText": "BRAMBLEGROVE CRES, OTTAWA"
      }
    ]
  },
  {
    "postal": "K1T0S5",
    "result": []
  },
  {
    "postal": "K1T1A2",
    "result": [
      {
        "electoralDistricts": [
          {
            "election": null,
            "id": 79,
            "name": "Ottawa South"
          }
        ],
        "pollDivisionIds": [
          10140675
        ],
        "postalCode": "K1T1A2",
        "streetName": "ALBION",
        "streetDirectionId": null,
        "streetTypeId": "RD",
        "placeName": "GLOUCESTER",
        "streetNameDisplayText": "ALBION RD, GLOUCESTER"
      }
    ]
  },
  {
    "postal": "K1T5V8",
    "result": []
  },
  {
    "postal": "K1T8C5",
    "result": []
  },
  {
    "postal": "K1T6N0",
    "result": []
  },
  {
    "postal": "K1T9E6",
    "result": []
  },
  {
    "postal": "K1T5J7",
    "result": []
  },
  {
    "postal": "K1T2R2",
    "result": [
      {
        "electoralDistricts": [
          {
            "election": null,
            "id": 79,
            "name": "Ottawa South"
          }
        ],
        "pollDivisionIds": [
          10140663
        ],
        "postalCode": "K1T2R2",
        "streetName": "TRAPPER'S",
        "streetDirectionId": null,
        "streetTypeId": "RD",
        "placeName": "GLOUCESTER",
        "streetNameDisplayText": "TRAPPER'S RD, GLOUCESTER"
      }
    ]
  },
  {
    "postal": "K1T0P5",
    "result": [
      {
        "electoralDistricts": [
          {
            "election": null,
            "id": 17,
            "name": "Carleton"
          }
        ],
        "pollDivisionIds": [
          10137496
        ],
        "postalCode": "K1T0P5",
        "streetName": "HELEN RAPP",
        "streetDirectionId": null,
        "streetTypeId": "WAY",
        "placeName": "GLOUCESTER",
        "streetNameDisplayText": "HELEN RAPP WAY, GLOUCESTER"
      },
      {
        "electoralDistricts": [
          {
            "election": null,
            "id": 79,
            "name": "Ottawa South"
          }
        ],
        "pollDivisionIds": [
          10140646
        ],
        "postalCode": "K1T0P5",
        "streetName": "HELEN RAPP",
        "streetDirectionId": null,
        "streetTypeId": "WAY",
        "placeName": "OTTAWA",
        "streetNameDisplayText": "HELEN RAPP WAY, OTTAWA"
      }
    ]
  },
  {
    "postal": "K1T5A7",
    "result": []
  },
  {
    "postal": "K1T1G1",
    "result": [
      {
        "electoralDistricts": [
          {
            "election": null,
            "id": 79,
            "name": "Ottawa South"
          }
        ],
        "pollDivisionIds": [
          10140675
        ],
        "postalCode": "K1T1G1",
        "streetName": "ROSEBELLA",
        "streetDirectionId": null,
        "streetTypeId": "AVE",
        "placeName": "GLOUCESTER",
        "streetNameDisplayText": "ROSEBELLA AVE, GLOUCESTER"
      }
    ]
  },
  {
    "postal": "K1T9R6",
    "result": []
  },
  {
    "postal": "K1T4Z9",
    "result": []
  },
  {
    "postal": "K1T1V5",
    "result": [
      {
        "electoralDistricts": [
          {
            "election": null,
            "id": 79,
            "name": "Ottawa South"
          }
        ],
        "pollDivisionIds": [
          10140675
        ],
        "postalCode": "K1T1V5",
        "streetName": "ALADDIN",
        "streetDirectionId": null,
        "streetTypeId": "LANE",
        "placeName": "GLOUCESTER",
        "streetNameDisplayText": "ALADDIN LANE, GLOUCESTER"
      }
    ]
  },
  {
    "postal": "K1T9Y5",
    "result": []
  },
  {
    "postal": "K1T1P2",
    "result": [
      {
        "electoralDistricts": [
          {
            "election": null,
            "id": 79,
            "name": "Ottawa South"
          }
        ],
        "pollDivisionIds": [
          10140675
        ],
        "postalCode": "K1T1P2",
        "streetName": "ALBION",
        "streetDirectionId": null,
        "streetTypeId": "RD",
        "placeName": "GLOUCESTER",
        "streetNameDisplayText": "ALBION RD, GLOUCESTER"
      }
    ]
  },
  {
    "postal": "K1T5X0",
    "result": []
  },
  {
    "postal": "K1T7B8",
    "result": []
  },
  {
    "postal": "K1T0C6",
    "result": [
      {
        "electoralDistricts": [
          {
            "election": null,
            "id": 79,
            "name": "Ottawa South"
          }
        ],
        "pollDivisionIds": [
          10140666
        ],
        "postalCode": "K1T0C6",
        "streetName": "DUNSTON",
        "streetDirectionId": null,
        "streetTypeId": "TERR",
        "placeName": "OTTAWA",
        "streetNameDisplayText": "DUNSTON TERR, OTTAWA"
      },
      {
        "electoralDistricts": [
          {
            "election": null,
            "id": 79,
            "name": "Ottawa South"
          }
        ],
        "pollDivisionIds": [
          10140666
        ],
        "postalCode": "K1T0C6",
        "streetName": "SOLERA",
        "streetDirectionId": null,
        "streetTypeId": "CIR",
        "placeName": "OTTAWA",
        "streetNameDisplayText": "SOLERA CIR, OTTAWA"
      }
    ]
  },
  {
    "postal": "K1T6G1",
    "result": []
  },
  {
    "postal": "K1T3K3",
    "result": [
      {
        "electoralDistricts": [
          {
            "election": null,
            "id": 79,
            "name": "Ottawa South"
          }
        ],
        "pollDivisionIds": [
          10140667
        ],
        "postalCode": "K1T3K3",
        "streetName": "BURLINGTON",
        "streetDirectionId": null,
        "streetTypeId": "CRES",
        "placeName": "OTTAWA",
        "streetNameDisplayText": "BURLINGTON CRES, OTTAWA"
      }
    ]
  },
  {
    "postal": "K1T9R0",
    "result": []
  },
  {
    "postal": "K1T4R8",
    "result": []
  },
  {
    "postal": "K1T5P9",
    "result": []
  },
  {
    "postal": "K1T8N4",
    "result": []
  },
  {
    "postal": "K1T8H4",
    "result": []
  },
  {
    "postal": "K1T4V1",
    "result": []
  },
  {
    "postal": "K1T1K5",
    "result": [
      {
        "electoralDistricts": [
          {
            "election": null,
            "id": 79,
            "name": "Ottawa South"
          }
        ],
        "pollDivisionIds": [
          10140676
        ],
        "postalCode": "K1T1K5",
        "streetName": "SIXTH",
        "streetDirectionId": null,
        "streetTypeId": "AVE",
        "placeName": "GLOUCESTER",
        "streetNameDisplayText": "SIXTH AVE, GLOUCESTER"
      },
      {
        "electoralDistricts": [
          {
            "election": null,
            "id": 79,
            "name": "Ottawa South"
          }
        ],
        "pollDivisionIds": [
          10140676
        ],
        "postalCode": "K1T1K5",
        "streetName": "SIXTH",
        "streetDirectionId": null,
        "streetTypeId": "ST",
        "placeName": "GLOUCESTER",
        "streetNameDisplayText": "SIXTH ST, GLOUCESTER"
      }
    ]
  },
  {
    "postal": "K1T1Z5",
    "result": [
      {
        "electoralDistricts": [
          {
            "election": null,
            "id": 79,
            "name": "Ottawa South"
          }
        ],
        "pollDivisionIds": [
          10140663,
          10140675
        ],
        "postalCode": "K1T1Z5",
        "streetName": "CAROUSEL",
        "streetDirectionId": null,
        "streetTypeId": "CRES",
        "placeName": "GLOUCESTER",
        "streetNameDisplayText": "CAROUSEL CRES, GLOUCESTER"
      }
    ]
  },
  {
    "postal": "K1T9L9",
    "result": []
  },
  {
    "postal": "K1T5L2",
    "result": []
  },
  {
    "postal": "K1T0M2",
    "result": [
      {
        "electoralDistricts": [
          {
            "election": null,
            "id": 17,
            "name": "Carleton"
          }
        ],
        "pollDivisionIds": [
          10137495,
          10137496
        ],
        "postalCode": "K1T0M2",
        "streetName": "FERNSIDE",
        "streetDirectionId": null,
        "streetTypeId": "ST",
        "placeName": "OTTAWA",
        "streetNameDisplayText": "FERNSIDE ST, OTTAWA"
      },
      {
        "electoralDistricts": [
          {
            "election": null,
            "id": 17,
            "name": "Carleton"
          }
        ],
        "pollDivisionIds": [
          10137495
        ],
        "postalCode": "K1T0M2",
        "streetName": "OAT STRAW",
        "streetDirectionId": null,
        "streetTypeId": "WAY",
        "placeName": "OTTAWA",
        "streetNameDisplayText": "OAT STRAW WAY, OTTAWA"
      },
      {
        "electoralDistricts": [
          {
            "election": null,
            "id": 17,
            "name": "Carleton"
          }
        ],
        "pollDivisionIds": [
          10137495
        ],
        "postalCode": "K1T0M2",
        "streetName": "ROTARY",
        "streetDirectionId": null,
        "streetTypeId": "WAY",
        "placeName": "OTTAWA",
        "streetNameDisplayText": "ROTARY WAY, OTTAWA"
      }
    ]
  },
  {
    "postal": "K1T1K8",
    "result": [
      {
        "electoralDistricts": [
          {
            "election": null,
            "id": 79,
            "name": "Ottawa South"
          }
        ],
        "pollDivisionIds": [
          10140676
        ],
        "postalCode": "K1T1K8",
        "streetName": "ST BERNARD",
        "streetDirectionId": null,
        "streetTypeId": "ST",
        "placeName": "OTTAWA",
        "streetNameDisplayText": "ST BERNARD ST, OTTAWA"
      }
    ]
  },
  {
    "postal": "K1T3M7",
    "result": [
      {
        "electoralDistricts": [
          {
            "election": null,
            "id": 79,
            "name": "Ottawa South"
          }
        ],
        "pollDivisionIds": [
          10140676
        ],
        "postalCode": "K1T3M7",
        "streetName": "VICTORIA HEIGHTS",
        "streetDirectionId": null,
        "streetTypeId": "CRES",
        "placeName": "GLOUCESTER",
        "streetNameDisplayText": "VICTORIA HEIGHTS CRES, GLOUCESTER"
      }
    ]
  },
  {
    "postal": "K1T1B2",
    "result": [
      {
        "electoralDistricts": [
          {
            "election": null,
            "id": 79,
            "name": "Ottawa South"
          }
        ],
        "pollDivisionIds": [
          10140675
        ],
        "postalCode": "K1T1B2",
        "streetName": "ALBION",
        "streetDirectionId": null,
        "streetTypeId": "RD",
        "placeName": "GLOUCESTER",
        "streetNameDisplayText": "ALBION RD, GLOUCESTER"
      }
    ]
  },
  {
    "postal": "K1T0H9",
    "result": [
      {
        "electoralDistricts": [
          {
            "election": null,
            "id": 79,
            "name": "Ottawa South"
          }
        ],
        "pollDivisionIds": [
          10140666
        ],
        "postalCode": "K1T0H9",
        "streetName": "MACOUN",
        "streetDirectionId": null,
        "streetTypeId": "CIR",
        "placeName": "OTTAWA",
        "streetNameDisplayText": "MACOUN CIR, OTTAWA"
      }
    ]
  },
  {
    "postal": "K1T8M4",
    "result": []
  },
  {
    "postal": "K1T2M5",
    "result": []
  },
  {
    "postal": "K1T0T9",
    "result": []
  },
  {
    "postal": "K1T3P1",
    "result": [
      {
        "electoralDistricts": [
          {
            "election": null,
            "id": 79,
            "name": "Ottawa South"
          }
        ],
        "pollDivisionIds": [
          10140678
        ],
        "postalCode": "K1T3P1",
        "streetName": "ROYAL OAK",
        "streetDirectionId": null,
        "streetTypeId": "CRT",
        "placeName": "OTTAWA",
        "streetNameDisplayText": "ROYAL OAK CRT, OTTAWA"
      }
    ]
  },
  {
    "postal": "K1T1R6",
    "result": [
      {
        "electoralDistricts": [
          {
            "election": null,
            "id": 79,
            "name": "Ottawa South"
          }
        ],
        "pollDivisionIds": [
          10140675
        ],
        "postalCode": "K1T1R6",
        "streetName": "QUEENSDALE",
        "streetDirectionId": null,
        "streetTypeId": "AVE",
        "placeName": "GLOUCESTER",
        "streetNameDisplayText": "QUEENSDALE AVE, GLOUCESTER"
      }
    ]
  },
  {
    "postal": "K1T9V5",
    "result": []
  },
  {
    "postal": "K1T9T0",
    "result": []
  },
  {
    "postal": "K1T0A9",
    "result": [
      {
        "electoralDistricts": [
          {
            "election": null,
            "id": 17,
            "name": "Carleton"
          }
        ],
        "pollDivisionIds": [
          10137496
        ],
        "postalCode": "K1T0A9",
        "streetName": "CEDAR CREEK",
        "streetDirectionId": null,
        "streetTypeId": "DR",
        "placeName": "GLOUCESTER",
        "streetNameDisplayText": "CEDAR CREEK DR, GLOUCESTER"
      }
    ]
  },
  {
    "postal": "K1T1M3",
    "result": [
      {
        "electoralDistricts": [
          {
            "election": null,
            "id": 79,
            "name": "Ottawa South"
          }
        ],
        "pollDivisionIds": [
          10140676
        ],
        "postalCode": "K1T1M3",
        "streetName": "ST BARBARA",
        "streetDirectionId": null,
        "streetTypeId": "ST",
        "placeName": "GLOUCESTER",
        "streetNameDisplayText": "ST BARBARA ST, GLOUCESTER"
      }
    ]
  },
  {
    "postal": "K1T1W8",
    "result": [
      {
        "electoralDistricts": [
          {
            "election": null,
            "id": 79,
            "name": "Ottawa South"
          }
        ],
        "pollDivisionIds": [
          10140670
        ],
        "postalCode": "K1T1W8",
        "streetName": "FALLOW",
        "streetDirectionId": null,
        "streetTypeId": "CRT",
        "placeName": "OTTAWA",
        "streetNameDisplayText": "FALLOW CRT, OTTAWA"
      }
    ]
  },
  {
    "postal": "K1T9J1",
    "result": []
  },
  {
    "postal": "K1T8N5",
    "result": []
  },
  {
    "postal": "K1T5X1",
    "result": []
  },
  {
    "postal": "K1T6S2",
    "result": []
  },
  {
    "postal": "K1T2A2",
    "result": [
      {
        "electoralDistricts": [
          {
            "election": null,
            "id": 79,
            "name": "Ottawa South"
          }
        ],
        "pollDivisionIds": [
          10140663
        ],
        "postalCode": "K1T2A2",
        "streetName": "HUNTERS POINT",
        "streetDirectionId": null,
        "streetTypeId": "CRES",
        "placeName": "GLOUCESTER",
        "streetNameDisplayText": "HUNTERS POINT CRES, GLOUCESTER"
      }
    ]
  },
  {
    "postal": "K1T6A6",
    "result": []
  },
  {
    "postal": "K1T0S3",
    "result": []
  },
  {
    "postal": "K1T3E7",
    "result": [
      {
        "electoralDistricts": [
          {
            "election": null,
            "id": 79,
            "name": "Ottawa South"
          }
        ],
        "pollDivisionIds": [
          10140666
        ],
        "postalCode": "K1T3E7",
        "streetName": "SOUTHPORT",
        "streetDirectionId": null,
        "streetTypeId": "DR",
        "placeName": "OTTAWA",
        "streetNameDisplayText": "SOUTHPORT DR, OTTAWA"
      }
    ]
  },
  {
    "postal": "K1T5R7",
    "result": []
  },
  {
    "postal": "K1T3R6",
    "result": [
      {
        "electoralDistricts": [
          {
            "election": null,
            "id": 79,
            "name": "Ottawa South"
          }
        ],
        "pollDivisionIds": [
          10140666
        ],
        "postalCode": "K1T3R6",
        "streetName": "SCARLET",
        "streetDirectionId": null,
        "streetTypeId": "CRT",
        "placeName": "OTTAWA",
        "streetNameDisplayText": "SCARLET CRT, OTTAWA"
      }
    ]
  },
  {
    "postal": "K1T6K4",
    "result": []
  },
  {
    "postal": "K1T2W5",
    "result": [
      {
        "electoralDistricts": [
          {
            "election": null,
            "id": 79,
            "name": "Ottawa South"
          }
        ],
        "pollDivisionIds": [
          10140666
        ],
        "postalCode": "K1T2W5",
        "streetName": "TEMBY",
        "streetDirectionId": null,
        "streetTypeId": "PVT",
        "placeName": "OTTAWA",
        "streetNameDisplayText": "TEMBY PVT, OTTAWA"
      }
    ]
  },
  {
    "postal": "K1T8W4",
    "result": []
  },
  {
    "postal": "K1T9C2",
    "result": []
  },
  {
    "postal": "K1T2C0",
    "result": []
  },
  {
    "postal": "K1T0E1",
    "result": [
      {
        "electoralDistricts": [
          {
            "election": null,
            "id": 79,
            "name": "Ottawa South"
          }
        ],
        "pollDivisionIds": [
          10140675
        ],
        "postalCode": "K1T0E1",
        "streetName": "MAPLE KEY",
        "streetDirectionId": null,
        "streetTypeId": "PVT",
        "placeName": "GLOUCESTER",
        "streetNameDisplayText": "MAPLE KEY PVT, GLOUCESTER"
      }
    ]
  },
  {
    "postal": "K1T1K9",
    "result": [
      {
        "electoralDistricts": [
          {
            "election": null,
            "id": 79,
            "name": "Ottawa South"
          }
        ],
        "pollDivisionIds": [
          10140676
        ],
        "postalCode": "K1T1K9",
        "streetName": "ATHANS",
        "streetDirectionId": null,
        "streetTypeId": "AVE",
        "placeName": "GLOUCESTER",
        "streetNameDisplayText": "ATHANS AVE, GLOUCESTER"
      }
    ]
  },
  {
    "postal": "K1T1G7",
    "result": [
      {
        "electoralDistricts": [
          {
            "election": null,
            "id": 79,
            "name": "Ottawa South"
          }
        ],
        "pollDivisionIds": [
          10140676
        ],
        "postalCode": "K1T1G7",
        "streetName": "ROSEBELLA",
        "streetDirectionId": null,
        "streetTypeId": "AV",
        "placeName": "GLOUCESTER",
        "streetNameDisplayText": "ROSEBELLA AV, GLOUCESTER"
      },
      {
        "electoralDistricts": [
          {
            "election": null,
            "id": 79,
            "name": "Ottawa South"
          }
        ],
        "pollDivisionIds": [
          10140676
        ],
        "postalCode": "K1T1G7",
        "streetName": "ROSEBELLA",
        "streetDirectionId": null,
        "streetTypeId": "AVE",
        "placeName": "GLOUCESTER",
        "streetNameDisplayText": "ROSEBELLA AVE, GLOUCESTER"
      }
    ]
  },
  {
    "postal": "K1T4E9",
    "result": [
      {
        "electoralDistricts": [
          {
            "election": null,
            "id": 17,
            "name": "Carleton"
          }
        ],
        "pollDivisionIds": [
          10137496
        ],
        "postalCode": "K1T4E9",
        "streetName": "LONG POINT",
        "streetDirectionId": null,
        "streetTypeId": "CIR",
        "placeName": "GLOUCESTER",
        "streetNameDisplayText": "LONG POINT CIR, GLOUCESTER"
      },
      {
        "electoralDistricts": [
          {
            "election": null,
            "id": 17,
            "name": "Carleton"
          }
        ],
        "pollDivisionIds": [
          10137496
        ],
        "postalCode": "K1T4E9",
        "streetName": "LONG POINT",
        "streetDirectionId": null,
        "streetTypeId": "CIR",
        "placeName": "OTTAWA",
        "streetNameDisplayText": "LONG POINT CIR, OTTAWA"
      }
    ]
  },
  {
    "postal": "K1T9P0",
    "result": []
  },
  {
    "postal": "K1T5H3",
    "result": []
  },
  {
    "postal": "K1T9X6",
    "result": []
  },
  {
    "postal": "K1T5N7",
    "result": []
  },
  {
    "postal": "K1T5A6",
    "result": []
  },
  {
    "postal": "K1T4M0",
    "result": []
  },
  {
    "postal": "K1T3V6",
    "result": [
      {
        "electoralDistricts": [
          {
            "election": null,
            "id": 17,
            "name": "Carleton"
          }
        ],
        "pollDivisionIds": [
          10137498
        ],
        "postalCode": "K1T3V6",
        "streetName": "DEL ZOTTO",
        "streetDirectionId": null,
        "streetTypeId": "AVE",
        "placeName": "GLOUCESTER",
        "streetNameDisplayText": "DEL ZOTTO AVE, GLOUCESTER"
      }
    ]
  },
  {
    "postal": "K1T1L7",
    "result": [
      {
        "electoralDistricts": [
          {
            "election": null,
            "id": 79,
            "name": "Ottawa South"
          }
        ],
        "pollDivisionIds": [
          10140676
        ],
        "postalCode": "K1T1L7",
        "streetName": "LEVADIA",
        "streetDirectionId": null,
        "streetTypeId": "AVE",
        "placeName": "GLOUCESTER",
        "streetNameDisplayText": "LEVADIA AVE, GLOUCESTER"
      }
    ]
  },
  {
    "postal": "K1T2P9",
    "result": [
      {
        "electoralDistricts": [
          {
            "election": null,
            "id": 79,
            "name": "Ottawa South"
          }
        ],
        "pollDivisionIds": [
          10140663
        ],
        "postalCode": "K1T2P9",
        "streetName": "MOZART",
        "streetDirectionId": null,
        "streetTypeId": "CRT",
        "placeName": "GLOUCESTER",
        "streetNameDisplayText": "MOZART CRT, GLOUCESTER"
      }
    ]
  },
  {
    "postal": "K1T5T4",
    "result": []
  },
  {
    "postal": "K1T5Z1",
    "result": []
  },
  {
    "postal": "K1T2X0",
    "result": []
  },
  {
    "postal": "K1T6Z2",
    "result": []
  },
  {
    "postal": "K1T0E0",
    "result": []
  },
  {
    "postal": "K1T3Z5",
    "result": [
      {
        "electoralDistricts": [
          {
            "election": null,
            "id": 79,
            "name": "Ottawa South"
          }
        ],
        "pollDivisionIds": [
          10140667
        ],
        "postalCode": "K1T3Z5",
        "streetName": "ALLANFORD",
        "streetDirectionId": null,
        "streetTypeId": "AVE",
        "placeName": "OTTAWA",
        "streetNameDisplayText": "ALLANFORD AVE, OTTAWA"
      },
      {
        "electoralDistricts": [
          {
            "election": null,
            "id": 79,
            "name": "Ottawa South"
          }
        ],
        "pollDivisionIds": [
          10140667
        ],
        "postalCode": "K1T3Z5",
        "streetName": "BALLYMORE",
        "streetDirectionId": null,
        "streetTypeId": "AVE",
        "placeName": "OTTAWA",
        "streetNameDisplayText": "BALLYMORE AVE, OTTAWA"
      }
    ]
  },
  {
    "postal": "K1T8H3",
    "result": []
  },
  {
    "postal": "K1T7S6",
    "result": []
  },
  {
    "postal": "K1T4C1",
    "result": [
      {
        "electoralDistricts": [
          {
            "election": null,
            "id": 79,
            "name": "Ottawa South"
          }
        ],
        "pollDivisionIds": [
          10140666
        ],
        "postalCode": "K1T4C1",
        "streetName": "BINBURY",
        "streetDirectionId": null,
        "streetTypeId": "WAY",
        "placeName": "OTTAWA",
        "streetNameDisplayText": "BINBURY WAY, OTTAWA"
      },
      {
        "electoralDistricts": [
          {
            "election": null,
            "id": 79,
            "name": "Ottawa South"
          }
        ],
        "pollDivisionIds": [
          10140666
        ],
        "postalCode": "K1T4C1",
        "streetName": "PENNARD",
        "streetDirectionId": null,
        "streetTypeId": "WAY",
        "placeName": "OTTAWA",
        "streetNameDisplayText": "PENNARD WAY, OTTAWA"
      }
    ]
  },
  {
    "postal": "K1T3K2",
    "result": [
      {
        "electoralDistricts": [
          {
            "election": null,
            "id": 79,
            "name": "Ottawa South"
          }
        ],
        "pollDivisionIds": [
          10140666
        ],
        "postalCode": "K1T3K2",
        "streetName": "LORRY GREENBERG",
        "streetDirectionId": null,
        "streetTypeId": "DR",
        "placeName": "OTTAWA",
        "streetNameDisplayText": "LORRY GREENBERG DR, OTTAWA"
      }
    ]
  },
  {
    "postal": "K1T1Y5",
    "result": [
      {
        "electoralDistricts": [
          {
            "election": null,
            "id": 79,
            "name": "Ottawa South"
          }
        ],
        "pollDivisionIds": [
          10140676
        ],
        "postalCode": "K1T1Y5",
        "streetName": "OLYMPIC",
        "streetDirectionId": null,
        "streetTypeId": "WAY",
        "placeName": "GLOUCESTER",
        "streetNameDisplayText": "OLYMPIC WAY, GLOUCESTER"
      }
    ]
  },
  {
    "postal": "K1T6P6",
    "result": []
  },
  {
    "postal": "K1T3N9",
    "result": [
      {
        "electoralDistricts": [
          {
            "election": null,
            "id": 79,
            "name": "Ottawa South"
          }
        ],
        "pollDivisionIds": [
          10140678
        ],
        "postalCode": "K1T3N9",
        "streetName": "ROYAL OAK",
        "streetDirectionId": null,
        "streetTypeId": "CRT",
        "placeName": "OTTAWA",
        "streetNameDisplayText": "ROYAL OAK CRT, OTTAWA"
      }
    ]
  },
  {
    "postal": "K1T3W2",
    "result": [
      {
        "electoralDistricts": [
          {
            "election": null,
            "id": 17,
            "name": "Carleton"
          }
        ],
        "pollDivisionIds": [
          10137498
        ],
        "postalCode": "K1T3W2",
        "streetName": "ALBION",
        "streetDirectionId": null,
        "streetTypeId": "RD",
        "placeName": "GLOUCESTER",
        "streetNameDisplayText": "ALBION RD, GLOUCESTER"
      }
    ]
  },
  {
    "postal": "K1T6H8",
    "result": []
  },
  {
    "postal": "K1T9T3",
    "result": []
  },
  {
    "postal": "K1T5L9",
    "result": []
  },
  {
    "postal": "K1T7X7",
    "result": []
  },
  {
    "postal": "K1T3J5",
    "result": [
      {
        "electoralDistricts": [
          {
            "election": null,
            "id": 79,
            "name": "Ottawa South"
          }
        ],
        "pollDivisionIds": [
          10140667
        ],
        "postalCode": "K1T3J5",
        "streetName": "STURBRIDGE",
        "streetDirectionId": null,
        "streetTypeId": "PVT",
        "placeName": "OTTAWA",
        "streetNameDisplayText": "STURBRIDGE PVT, OTTAWA"
      }
    ]
  },
  {
    "postal": "K1T4J5",
    "result": [
      {
        "electoralDistricts": [
          {
            "election": null,
            "id": 17,
            "name": "Carleton"
          }
        ],
        "pollDivisionIds": [
          10137496
        ],
        "postalCode": "K1T4J5",
        "streetName": "BRADWELL",
        "streetDirectionId": null,
        "streetTypeId": "WAY",
        "placeName": "OTTAWA",
        "streetNameDisplayText": "BRADWELL WAY, OTTAWA"
      }
    ]
  },
  {
    "postal": "K1T6J2",
    "result": []
  },
  {
    "postal": "K1T5V6",
    "result": []
  },
  {
    "postal": "K1T3N2",
    "result": [
      {
        "electoralDistricts": [
          {
            "election": null,
            "id": 79,
            "name": "Ottawa South"
          }
        ],
        "pollDivisionIds": [
          10140666
        ],
        "postalCode": "K1T3N2",
        "streetName": "CASTLEGREEN",
        "streetDirectionId": null,
        "streetTypeId": "PVT",
        "placeName": "OTTAWA",
        "streetNameDisplayText": "CASTLEGREEN PVT, OTTAWA"
      }
    ]
  },
  {
    "postal": "K1T3B1",
    "result": [
      {
        "electoralDistricts": [
          {
            "election": null,
            "id": 79,
            "name": "Ottawa South"
          }
        ],
        "pollDivisionIds": [
          10140666
        ],
        "postalCode": "K1T3B1",
        "streetName": "ROSEGARDEN",
        "streetDirectionId": null,
        "streetTypeId": "CRES",
        "placeName": "OTTAWA",
        "streetNameDisplayText": "ROSEGARDEN CRES, OTTAWA"
      }
    ]
  },
  {
    "postal": "K1T8B5",
    "result": []
  },
  {
    "postal": "K1T0K1",
    "result": [
      {
        "electoralDistricts": [
          {
            "election": null,
            "id": 17,
            "name": "Carleton"
          }
        ],
        "pollDivisionIds": [
          10137496
        ],
        "postalCode": "K1T0K1",
        "streetName": "HAZELNUT",
        "streetDirectionId": null,
        "streetTypeId": "CRES",
        "placeName": "GLOUCESTER",
        "streetNameDisplayText": "HAZELNUT CRES, GLOUCESTER"
      },
      {
        "electoralDistricts": [
          {
            "election": null,
            "id": 17,
            "name": "Carleton"
          }
        ],
        "pollDivisionIds": [
          10137496
        ],
        "postalCode": "K1T0K1",
        "streetName": "WILLOWMERE",
        "streetDirectionId": null,
        "streetTypeId": "WAY",
        "placeName": "GLOUCESTER",
        "streetNameDisplayText": "WILLOWMERE WAY, GLOUCESTER"
      }
    ]
  },
  {
    "postal": "K1T7M7",
    "result": []
  },
  {
    "postal": "K1T2M2",
    "result": []
  },
  {
    "postal": "K1T9N3",
    "result": []
  },
  {
    "postal": "K1T4Y8",
    "result": []
  },
  {
    "postal": "K1T3V7",
    "result": [
      {
        "electoralDistricts": [
          {
            "election": null,
            "id": 17,
            "name": "Carleton"
          }
        ],
        "pollDivisionIds": [
          10137498
        ],
        "postalCode": "K1T3V7",
        "streetName": "DEL ZOTTO",
        "streetDirectionId": null,
        "streetTypeId": "AVE",
        "placeName": "GLOUCESTER",
        "streetNameDisplayText": "DEL ZOTTO AVE, GLOUCESTER"
      }
    ]
  },
  {
    "postal": "K1T8Z1",
    "result": []
  },
  {
    "postal": "K1T7B3",
    "result": []
  },
  {
    "postal": "K1T3A8",
    "result": [
      {
        "electoralDistricts": [
          {
            "election": null,
            "id": 79,
            "name": "Ottawa South"
          }
        ],
        "pollDivisionIds": [
          10140666
        ],
        "postalCode": "K1T3A8",
        "streetName": "ROSEGARDEN",
        "streetDirectionId": null,
        "streetTypeId": "CRES",
        "placeName": "OTTAWA",
        "streetNameDisplayText": "ROSEGARDEN CRES, OTTAWA"
      }
    ]
  },
  {
    "postal": "K1T7V5",
    "result": []
  },
  {
    "postal": "K1T2T2",
    "result": [
      {
        "electoralDistricts": [
          {
            "election": null,
            "id": 79,
            "name": "Ottawa South"
          }
        ],
        "pollDivisionIds": [
          10140676
        ],
        "postalCode": "K1T2T2",
        "streetName": "COUNCILLOR'S",
        "streetDirectionId": null,
        "streetTypeId": "WAY",
        "placeName": "GLOUCESTER",
        "streetNameDisplayText": "COUNCILLOR'S WAY, GLOUCESTER"
      }
    ]
  },
  {
    "postal": "K1T6L3",
    "result": []
  },
  {
    "postal": "K1T0L2",
    "result": [
      {
        "electoralDistricts": [
          {
            "election": null,
            "id": 17,
            "name": "Carleton"
          }
        ],
        "pollDivisionIds": [
          10137495
        ],
        "postalCode": "K1T0L2",
        "streetName": "FERNSIDE",
        "streetDirectionId": null,
        "streetTypeId": "ST",
        "placeName": "GLOUCESTER",
        "streetNameDisplayText": "FERNSIDE ST, GLOUCESTER"
      },
      {
        "electoralDistricts": [
          {
            "election": null,
            "id": 17,
            "name": "Carleton"
          }
        ],
        "pollDivisionIds": [
          10137495
        ],
        "postalCode": "K1T0L2",
        "streetName": "IVY GREEN",
        "streetDirectionId": null,
        "streetTypeId": "WAY",
        "placeName": "GLOUCESTER",
        "streetNameDisplayText": "IVY GREEN WAY, GLOUCESTER"
      },
      {
        "electoralDistricts": [
          {
            "election": null,
            "id": 17,
            "name": "Carleton"
          }
        ],
        "pollDivisionIds": [
          10137495
        ],
        "postalCode": "K1T0L2",
        "streetName": "ROTARY",
        "streetDirectionId": null,
        "streetTypeId": "WAY",
        "placeName": "GLOUCESTER",
        "streetNameDisplayText": "ROTARY WAY, GLOUCESTER"
      },
      {
        "electoralDistricts": [
          {
            "election": null,
            "id": 17,
            "name": "Carleton"
          }
        ],
        "pollDivisionIds": [
          10137495
        ],
        "postalCode": "K1T0L2",
        "streetName": "SUNBURST",
        "streetDirectionId": null,
        "streetTypeId": "ST",
        "placeName": "GLOUCESTER",
        "streetNameDisplayText": "SUNBURST ST, GLOUCESTER"
      }
    ]
  },
  {
    "postal": "K1T5Y8",
    "result": []
  },
  {
    "postal": "K1T0B8",
    "result": [
      {
        "electoralDistricts": [
          {
            "election": null,
            "id": 79,
            "name": "Ottawa South"
          }
        ],
        "pollDivisionIds": [
          10140675
        ],
        "postalCode": "K1T0B8",
        "streetName": "DEER VIEW",
        "streetDirectionId": null,
        "streetTypeId": "AVE",
        "placeName": "GLOUCESTER",
        "streetNameDisplayText": "DEER VIEW AVE, GLOUCESTER"
      },
      {
        "electoralDistricts": [
          {
            "election": null,
            "id": 79,
            "name": "Ottawa South"
          }
        ],
        "pollDivisionIds": [
          10140675
        ],
        "postalCode": "K1T0B8",
        "streetName": "MEANDERING BROOK",
        "streetDirectionId": null,
        "streetTypeId": "DR",
        "placeName": "GLOUCESTER",
        "streetNameDisplayText": "MEANDERING BROOK DR, GLOUCESTER"
      }
    ]
  },
  {
    "postal": "K1T6R5",
    "result": []
  },
  {
    "postal": "K1T8W6",
    "result": []
  },
  {
    "postal": "K1T8G6",
    "result": []
  },
  {
    "postal": "K1T6X3",
    "result": []
  },
  {
    "postal": "K1T7R7",
    "result": []
  },
  {
    "postal": "K1T4B6",
    "result": [
      {
        "electoralDistricts": [
          {
            "election": null,
            "id": 79,
            "name": "Ottawa South"
          }
        ],
        "pollDivisionIds": [
          10140676
        ],
        "postalCode": "K1T4B6",
        "streetName": "ISSAM",
        "streetDirectionId": null,
        "streetTypeId": "PVT",
        "placeName": "OTTAWA",
        "streetNameDisplayText": "ISSAM PVT, OTTAWA"
      },
      {
        "electoralDistricts": [
          {
            "election": null,
            "id": 79,
            "name": "Ottawa South"
          }
        ],
        "pollDivisionIds": [
          10140676
        ],
        "postalCode": "K1T4B6",
        "streetName": "MONET",
        "streetDirectionId": null,
        "streetTypeId": "CRT",
        "placeName": "OTTAWA",
        "streetNameDisplayText": "MONET CRT, OTTAWA"
      },
      {
        "electoralDistricts": [
          {
            "election": null,
            "id": 79,
            "name": "Ottawa South"
          }
        ],
        "pollDivisionIds": [
          10140676
        ],
        "postalCode": "K1T4B6",
        "streetName": "SIEVERIGHT",
        "streetDirectionId": null,
        "streetTypeId": "RD",
        "placeName": "GLOUCESTER",
        "streetNameDisplayText": "SIEVERIGHT RD, GLOUCESTER"
      }
    ]
  },
  {
    "postal": "K1T3P9",
    "result": [
      {
        "electoralDistricts": [
          {
            "election": null,
            "id": 79,
            "name": "Ottawa South"
          }
        ],
        "pollDivisionIds": [
          10140666
        ],
        "postalCode": "K1T3P9",
        "streetName": "HUNTER'S GLEN",
        "streetDirectionId": null,
        "streetTypeId": "CRES",
        "placeName": "OTTAWA",
        "streetNameDisplayText": "HUNTER'S GLEN CRES, OTTAWA"
      },
      {
        "electoralDistricts": [
          {
            "election": null,
            "id": 79,
            "name": "Ottawa South"
          }
        ],
        "pollDivisionIds": [
          10140666
        ],
        "postalCode": "K1T3P9",
        "streetName": "STREAMWOOD",
        "streetDirectionId": null,
        "streetTypeId": "LANE",
        "placeName": "OTTAWA",
        "streetNameDisplayText": "STREAMWOOD LANE, OTTAWA"
      }
    ]
  },
  {
    "postal": "K1T2T3",
    "result": [
      {
        "electoralDistricts": [
          {
            "election": null,
            "id": 79,
            "name": "Ottawa South"
          }
        ],
        "pollDivisionIds": [
          10140676
        ],
        "postalCode": "K1T2T3",
        "streetName": "COUNCILLOR'S",
        "streetDirectionId": null,
        "streetTypeId": "WAY",
        "placeName": "GLOUCESTER",
        "streetNameDisplayText": "COUNCILLOR'S WAY, GLOUCESTER"
      }
    ]
  },
  {
    "postal": "K1T1M4",
    "result": [
      {
        "electoralDistricts": [
          {
            "election": null,
            "id": 79,
            "name": "Ottawa South"
          }
        ],
        "pollDivisionIds": [
          10140676
        ],
        "postalCode": "K1T1M4",
        "streetName": "ST BARBARA",
        "streetDirectionId": null,
        "streetTypeId": "ST",
        "placeName": "GLOUCESTER",
        "streetNameDisplayText": "ST BARBARA ST, GLOUCESTER"
      }
    ]
  },
  {
    "postal": "K1T0H1",
    "result": [
      {
        "electoralDistricts": [
          {
            "election": null,
            "id": 17,
            "name": "Carleton"
          }
        ],
        "pollDivisionIds": [
          10137496
        ],
        "postalCode": "K1T0H1",
        "streetName": "BUTTONBUSH",
        "streetDirectionId": null,
        "streetTypeId": "WAY",
        "placeName": "GLOUCESTER",
        "streetNameDisplayText": "BUTTONBUSH WAY, GLOUCESTER"
      },
      {
        "electoralDistricts": [
          {
            "election": null,
            "id": 17,
            "name": "Carleton"
          }
        ],
        "pollDivisionIds": [
          10137496
        ],
        "postalCode": "K1T0H1",
        "streetName": "FLAT SEDGE",
        "streetDirectionId": null,
        "streetTypeId": "CRES",
        "placeName": "GLOUCESTER",
        "streetNameDisplayText": "FLAT SEDGE CRES, GLOUCESTER"
      },
      {
        "electoralDistricts": [
          {
            "election": null,
            "id": 17,
            "name": "Carleton"
          }
        ],
        "pollDivisionIds": [
          10137496
        ],
        "postalCode": "K1T0H1",
        "streetName": "WHITE ALDER",
        "streetDirectionId": null,
        "streetTypeId": "AVE",
        "placeName": "GLOUCESTER",
        "streetNameDisplayText": "WHITE ALDER AVE, GLOUCESTER"
      }
    ]
  },
  {
    "postal": "K1T9W3",
    "result": []
  },
  {
    "postal": "K1T6P1",
    "result": []
  },
  {
    "postal": "K1T7G2",
    "result": []
  },
  {
    "postal": "K1T4J9",
    "result": []
  },
  {
    "postal": "K1T9E4",
    "result": []
  },
  {
    "postal": "K1T8H0",
    "result": []
  },
  {
    "postal": "K1T4M7",
    "result": []
  },
  {
    "postal": "K1T2G9",
    "result": [
      {
        "electoralDistricts": [
          {
            "election": null,
            "id": 79,
            "name": "Ottawa South"
          }
        ],
        "pollDivisionIds": [
          10140663
        ],
        "postalCode": "K1T2G9",
        "streetName": "AUTUMNWOOD",
        "streetDirectionId": null,
        "streetTypeId": "ST",
        "placeName": "GLOUCESTER",
        "streetNameDisplayText": "AUTUMNWOOD ST, GLOUCESTER"
      }
    ]
  },
  {
    "postal": "K1T8T2",
    "result": []
  },
  {
    "postal": "K1T7G7",
    "result": []
  },
  {
    "postal": "K1T4Z3",
    "result": []
  },
  {
    "postal": "K1T5B3",
    "result": []
  },
  {
    "postal": "K1T1S7",
    "result": [
      {
        "electoralDistricts": [
          {
            "election": null,
            "id": 79,
            "name": "Ottawa South"
          }
        ],
        "pollDivisionIds": [
          10140675
        ],
        "postalCode": "K1T1S7",
        "streetName": "HOGARTH",
        "streetDirectionId": null,
        "streetTypeId": "AVE",
        "placeName": "GLOUCESTER",
        "streetNameDisplayText": "HOGARTH AVE, GLOUCESTER"
      }
    ]
  },
  {
    "postal": "K1T2N7",
    "result": []
  },
  {
    "postal": "K1T0H8",
    "result": [
      {
        "electoralDistricts": [
          {
            "election": null,
            "id": 79,
            "name": "Ottawa South"
          }
        ],
        "pollDivisionIds": [
          10140666
        ],
        "postalCode": "K1T0H8",
        "streetName": "MACOUN",
        "streetDirectionId": null,
        "streetTypeId": "CIR",
        "placeName": "OTTAWA",
        "streetNameDisplayText": "MACOUN CIR, OTTAWA"
      }
    ]
  },
  {
    "postal": "K1T7Z4",
    "result": []
  },
  {
    "postal": "K1T7B1",
    "result": []
  },
  {
    "postal": "K1T7P8",
    "result": []
  },
  {
    "postal": "K1T7N0",
    "result": []
  },
  {
    "postal": "K1T3Y5",
    "result": [
      {
        "electoralDistricts": [
          {
            "election": null,
            "id": 79,
            "name": "Ottawa South"
          }
        ],
        "pollDivisionIds": [
          10140667
        ],
        "postalCode": "K1T3Y5",
        "streetName": "ALLANFORD",
        "streetDirectionId": null,
        "streetTypeId": "AVE",
        "placeName": "OTTAWA",
        "streetNameDisplayText": "ALLANFORD AVE, OTTAWA"
      },
      {
        "electoralDistricts": [
          {
            "election": null,
            "id": 79,
            "name": "Ottawa South"
          }
        ],
        "pollDivisionIds": [
          10140667
        ],
        "postalCode": "K1T3Y5",
        "streetName": "UPWOOD",
        "streetDirectionId": null,
        "streetTypeId": "ST",
        "placeName": "OTTAWA",
        "streetNameDisplayText": "UPWOOD ST, OTTAWA"
      }
    ]
  },
  {
    "postal": "K1T6K1",
    "result": []
  },
  {
    "postal": "K1T9X5",
    "result": []
  },
  {
    "postal": "K1T7S5",
    "result": []
  },
  {
    "postal": "K1T0A4",
    "result": [
      {
        "electoralDistricts": [
          {
            "election": null,
            "id": 17,
            "name": "Carleton"
          }
        ],
        "pollDivisionIds": [
          10137496
        ],
        "postalCode": "K1T0A4",
        "streetName": "NETLEY",
        "streetDirectionId": null,
        "streetTypeId": "CIR",
        "placeName": "GLOUCESTER",
        "streetNameDisplayText": "NETLEY CIR, GLOUCESTER"
      }
    ]
  },
  {
    "postal": "K1T4T5",
    "result": []
  },
  {
    "postal": "K1T5K1",
    "result": []
  },
  {
    "postal": "K1T0Z9",
    "result": []
  },
  {
    "postal": "K1T7T2",
    "result": []
  },
  {
    "postal": "K1T1L5",
    "result": [
      {
        "electoralDistricts": [
          {
            "election": null,
            "id": 79,
            "name": "Ottawa South"
          }
        ],
        "pollDivisionIds": [
          10140676
        ],
        "postalCode": "K1T1L5",
        "streetName": "EUREKA",
        "streetDirectionId": null,
        "streetTypeId": "AVE",
        "placeName": "GLOUCESTER",
        "streetNameDisplayText": "EUREKA AVE, GLOUCESTER"
      }
    ]
  },
  {
    "postal": "K1T3N5",
    "result": [
      {
        "electoralDistricts": [
          {
            "election": null,
            "id": 79,
            "name": "Ottawa South"
          }
        ],
        "pollDivisionIds": [
          10140676
        ],
        "postalCode": "K1T3N5",
        "streetName": "EUREKA",
        "streetDirectionId": null,
        "streetTypeId": "AVE",
        "placeName": "GLOUCESTER",
        "streetNameDisplayText": "EUREKA AVE, GLOUCESTER"
      }
    ]
  },
  {
    "postal": "K1T6H4",
    "result": []
  },
  {
    "postal": "K1T5A5",
    "result": []
  },
  {
    "postal": "K1T3R9",
    "result": [
      {
        "electoralDistricts": [
          {
            "election": null,
            "id": 79,
            "name": "Ottawa South"
          }
        ],
        "pollDivisionIds": [
          10140676
        ],
        "postalCode": "K1T3R9",
        "streetName": "COURTYARD",
        "streetDirectionId": null,
        "streetTypeId": "CRES",
        "placeName": "GLOUCESTER",
        "streetNameDisplayText": "COURTYARD CRES, GLOUCESTER"
      },
      {
        "electoralDistricts": [
          {
            "election": null,
            "id": 79,
            "name": "Ottawa South"
          }
        ],
        "pollDivisionIds": [
          10140666
        ],
        "postalCode": "K1T3R9",
        "streetName": "HUNT CLUB",
        "streetDirectionId": null,
        "streetTypeId": "RD",
        "placeName": "OTTAWA",
        "streetNameDisplayText": "HUNT CLUB RD, OTTAWA"
      },
      {
        "electoralDistricts": [
          {
            "election": null,
            "id": 79,
            "name": "Ottawa South"
          }
        ],
        "pollDivisionIds": [
          10140676
        ],
        "postalCode": "K1T3R9",
        "streetName": "SABLE RIDGE",
        "streetDirectionId": null,
        "streetTypeId": "DR",
        "placeName": "GLOUCESTER",
        "streetNameDisplayText": "SABLE RIDGE DR, GLOUCESTER"
      }
    ]
  },
  {
    "postal": "K1T7L8",
    "result": []
  },
  {
    "postal": "K1T6T6",
    "result": []
  },
  {
    "postal": "K1T7Y7",
    "result": []
  },
  {
    "postal": "K1T3M8",
    "result": [
      {
        "electoralDistricts": [
          {
            "election": null,
            "id": 79,
            "name": "Ottawa South"
          }
        ],
        "pollDivisionIds": [
          10140676
        ],
        "postalCode": "K1T3M8",
        "streetName": "VICTORIA HEIGHTS",
        "streetDirectionId": null,
        "streetTypeId": "CRES",
        "placeName": "GLOUCESTER",
        "streetNameDisplayText": "VICTORIA HEIGHTS CRES, GLOUCESTER"
      }
    ]
  },
  {
    "postal": "K1T2E0",
    "result": []
  },
  {
    "postal": "K1T4B5",
    "result": [
      {
        "electoralDistricts": [
          {
            "election": null,
            "id": 79,
            "name": "Ottawa South"
          }
        ],
        "pollDivisionIds": [
          10140667
        ],
        "postalCode": "K1T4B5",
        "streetName": "CRAIGHALL",
        "streetDirectionId": null,
        "streetTypeId": "CIR",
        "placeName": "OTTAWA",
        "streetNameDisplayText": "CRAIGHALL CIR, OTTAWA"
      }
    ]
  },
  {
    "postal": "K1T1J3",
    "result": [
      {
        "electoralDistricts": [
          {
            "election": null,
            "id": 79,
            "name": "Ottawa South"
          }
        ],
        "pollDivisionIds": [
          10140675
        ],
        "postalCode": "K1T1J3",
        "streetName": "QUEENSDALE",
        "streetDirectionId": null,
        "streetTypeId": "AVE",
        "placeName": "GLOUCESTER",
        "streetNameDisplayText": "QUEENSDALE AVE, GLOUCESTER"
      }
    ]
  },
  {
    "postal": "K1T5S6",
    "result": []
  },
  {
    "postal": "K1T8P7",
    "result": []
  },
  {
    "postal": "K1T7S7",
    "result": []
  },
  {
    "postal": "K1T4C2",
    "result": [
      {
        "electoralDistricts": [
          {
            "election": null,
            "id": 79,
            "name": "Ottawa South"
          }
        ],
        "pollDivisionIds": [
          10140666
        ],
        "postalCode": "K1T4C2",
        "streetName": "BINBURY",
        "streetDirectionId": null,
        "streetTypeId": "WAY",
        "placeName": "OTTAWA",
        "streetNameDisplayText": "BINBURY WAY, OTTAWA"
      }
    ]
  },
  {
    "postal": "K1T5Y0",
    "result": []
  },
  {
    "postal": "K1T2V7",
    "result": [
      {
        "electoralDistricts": [
          {
            "election": null,
            "id": 79,
            "name": "Ottawa South"
          }
        ],
        "pollDivisionIds": [
          10140676
        ],
        "postalCode": "K1T2V7",
        "streetName": "BELLMANOR",
        "streetDirectionId": null,
        "streetTypeId": "CRT",
        "placeName": "GLOUCESTER",
        "streetNameDisplayText": "BELLMANOR CRT, GLOUCESTER"
      }
    ]
  },
  {
    "postal": "K1T8P5",
    "result": []
  },
  {
    "postal": "K1T5P5",
    "result": []
  },
  {
    "postal": "K1T5Z0",
    "result": []
  },
  {
    "postal": "K1T9B0",
    "result": []
  },
  {
    "postal": "K1T1L0",
    "result": []
  },
  {
    "postal": "K1T0B5",
    "result": [
      {
        "electoralDistricts": [
          {
            "election": null,
            "id": 79,
            "name": "Ottawa South"
          }
        ],
        "pollDivisionIds": [
          10140675
        ],
        "postalCode": "K1T0B5",
        "streetName": "STEDMAN",
        "streetDirectionId": null,
        "streetTypeId": "ST",
        "placeName": "GLOUCESTER",
        "streetNameDisplayText": "STEDMAN ST, GLOUCESTER"
      }
    ]
  },
  {
    "postal": "K1T3L2",
    "result": [
      {
        "electoralDistricts": [
          {
            "election": null,
            "id": 79,
            "name": "Ottawa South"
          }
        ],
        "pollDivisionIds": [
          10140667
        ],
        "postalCode": "K1T3L2",
        "streetName": "DEPPER",
        "streetDirectionId": null,
        "streetTypeId": "PL",
        "placeName": "OTTAWA",
        "streetNameDisplayText": "DEPPER PL, OTTAWA"
      },
      {
        "electoralDistricts": [
          {
            "election": null,
            "id": 79,
            "name": "Ottawa South"
          }
        ],
        "pollDivisionIds": [
          10140667
        ],
        "postalCode": "K1T3L2",
        "streetName": "HUNTERSFIELD",
        "streetDirectionId": null,
        "streetTypeId": "DR",
        "placeName": "OTTAWA",
        "streetNameDisplayText": "HUNTERSFIELD DR, OTTAWA"
      }
    ]
  },
  {
    "postal": "K1T3B7",
    "result": [
      {
        "electoralDistricts": [
          {
            "election": null,
            "id": 79,
            "name": "Ottawa South"
          }
        ],
        "pollDivisionIds": [
          10140666
        ],
        "postalCode": "K1T3B7",
        "streetName": "HAXBY",
        "streetDirectionId": null,
        "streetTypeId": "PVT",
        "placeName": "OTTAWA",
        "streetNameDisplayText": "HAXBY PVT, OTTAWA"
      }
    ]
  },
  {
    "postal": "K1T8L1",
    "result": []
  },
  {
    "postal": "K1T5M4",
    "result": []
  },
  {
    "postal": "K1T4G9",
    "result": [
      {
        "electoralDistricts": [
          {
            "election": null,
            "id": 17,
            "name": "Carleton"
          }
        ],
        "pollDivisionIds": [
          10137496
        ],
        "postalCode": "K1T4G9",
        "streetName": "HATCHLEY",
        "streetDirectionId": null,
        "streetTypeId": "RD",
        "placeName": "OTTAWA",
        "streetNameDisplayText": "HATCHLEY RD, OTTAWA"
      },
      {
        "electoralDistricts": [
          {
            "election": null,
            "id": 17,
            "name": "Carleton"
          }
        ],
        "pollDivisionIds": [
          10137496
        ],
        "postalCode": "K1T4G9",
        "streetName": "PURPLE FINCH",
        "streetDirectionId": null,
        "streetTypeId": "CRES",
        "placeName": "GLOUCESTER",
        "streetNameDisplayText": "PURPLE FINCH CRES, GLOUCESTER"
      }
    ]
  },
  {
    "postal": "K1T0P0",
    "result": []
  },
  {
    "postal": "K1T8G2",
    "result": []
  },
  {
    "postal": "K1T1V9",
    "result": [
      {
        "electoralDistricts": [
          {
            "election": null,
            "id": 79,
            "name": "Ottawa South"
          }
        ],
        "pollDivisionIds": [
          10140663
        ],
        "postalCode": "K1T1V9",
        "streetName": "BRIDLE PATH",
        "streetDirectionId": null,
        "streetTypeId": "DR",
        "placeName": "GLOUCESTER",
        "streetNameDisplayText": "BRIDLE PATH DR, GLOUCESTER"
      }
    ]
  },
  {
    "postal": "K1T8N8",
    "result": []
  },
  {
    "postal": "K1T6S8",
    "result": []
  },
  {
    "postal": "K1T8H2",
    "result": []
  },
  {
    "postal": "K1T5R8",
    "result": []
  },
  {
    "postal": "K1T5L4",
    "result": []
  },
  {
    "postal": "K1T9E1",
    "result": []
  },
  {
    "postal": "K1T1C4",
    "result": [
      {
        "electoralDistricts": [
          {
            "election": null,
            "id": 79,
            "name": "Ottawa South"
          }
        ],
        "pollDivisionIds": [
          10140663
        ],
        "postalCode": "K1T1C4",
        "streetName": "RIDGEDALE",
        "streetDirectionId": null,
        "streetTypeId": "ST",
        "placeName": "GLOUCESTER",
        "streetNameDisplayText": "RIDGEDALE ST, GLOUCESTER"
      }
    ]
  },
  {
    "postal": "K1T8W5",
    "result": []
  },
  {
    "postal": "K1T1Y4",
    "result": [
      {
        "electoralDistricts": [
          {
            "election": null,
            "id": 79,
            "name": "Ottawa South"
          }
        ],
        "pollDivisionIds": [
          10140676
        ],
        "postalCode": "K1T1Y4",
        "streetName": "OLYMPIC",
        "streetDirectionId": null,
        "streetTypeId": "WAY",
        "placeName": "GLOUCESTER",
        "streetNameDisplayText": "OLYMPIC WAY, GLOUCESTER"
      }
    ]
  },
  {
    "postal": "K1T1C0",
    "result": []
  },
  {
    "postal": "K1T2J2",
    "result": []
  },
  {
    "postal": "K1T2J0",
    "result": []
  },
  {
    "postal": "K1T7A3",
    "result": []
  },
  {
    "postal": "K1T8M1",
    "result": []
  },
  {
    "postal": "K1T7T9",
    "result": []
  },
  {
    "postal": "K1T6C0",
    "result": []
  },
  {
    "postal": "K1T7X1",
    "result": []
  },
  {
    "postal": "K1T0G1",
    "result": [
      {
        "electoralDistricts": [
          {
            "election": null,
            "id": 17,
            "name": "Carleton"
          }
        ],
        "pollDivisionIds": [
          10137496
        ],
        "postalCode": "K1T0G1",
        "streetName": "WIDGEON",
        "streetDirectionId": null,
        "streetTypeId": "WAY",
        "placeName": "GLOUCESTER",
        "streetNameDisplayText": "WIDGEON WAY, GLOUCESTER"
      }
    ]
  },
  {
    "postal": "K1T4X2",
    "result": []
  },
  {
    "postal": "K1T0N6",
    "result": [
      {
        "electoralDistricts": [
          {
            "election": null,
            "id": 17,
            "name": "Carleton"
          }
        ],
        "pollDivisionIds": [
          10137496
        ],
        "postalCode": "K1T0N6",
        "streetName": "CEDAR CREEK",
        "streetDirectionId": null,
        "streetTypeId": "DR",
        "placeName": "GLOUCESTER",
        "streetNameDisplayText": "CEDAR CREEK DR, GLOUCESTER"
      },
      {
        "electoralDistricts": [
          {
            "election": null,
            "id": 17,
            "name": "Carleton"
          }
        ],
        "pollDivisionIds": [
          10137496
        ],
        "postalCode": "K1T0N6",
        "streetName": "CEDAR CREEK",
        "streetDirectionId": null,
        "streetTypeId": "DR",
        "placeName": "OTTAWA",
        "streetNameDisplayText": "CEDAR CREEK DR, OTTAWA"
      }
    ]
  },
  {
    "postal": "K1T8E3",
    "result": []
  },
  {
    "postal": "K1T5S8",
    "result": []
  },
  {
    "postal": "K1T0R0",
    "result": []
  },
  {
    "postal": "K1T6J6",
    "result": []
  },
  {
    "postal": "K1T4B4",
    "result": [
      {
        "electoralDistricts": [
          {
            "election": null,
            "id": 79,
            "name": "Ottawa South"
          }
        ],
        "pollDivisionIds": [
          10140667
        ],
        "postalCode": "K1T4B4",
        "streetName": "CRAIGHALL",
        "streetDirectionId": null,
        "streetTypeId": "CIR",
        "placeName": "OTTAWA",
        "streetNameDisplayText": "CRAIGHALL CIR, OTTAWA"
      }
    ]
  },
  {
    "postal": "K1T7E3",
    "result": []
  },
  {
    "postal": "K1T3N6",
    "result": [
      {
        "electoralDistricts": [
          {
            "election": null,
            "id": 79,
            "name": "Ottawa South"
          }
        ],
        "pollDivisionIds": [
          10140666
        ],
        "postalCode": "K1T3N6",
        "streetName": "ASHPARK",
        "streetDirectionId": null,
        "streetTypeId": "CRES",
        "placeName": "OTTAWA",
        "streetNameDisplayText": "ASHPARK CRES, OTTAWA"
      }
    ]
  },
  {
    "postal": "K1T3X6",
    "result": [
      {
        "electoralDistricts": [
          {
            "election": null,
            "id": 79,
            "name": "Ottawa South"
          }
        ],
        "pollDivisionIds": [
          10140676
        ],
        "postalCode": "K1T3X6",
        "streetName": "CARRIAGE HILL",
        "streetDirectionId": null,
        "streetTypeId": "PL",
        "placeName": "GLOUCESTER",
        "streetNameDisplayText": "CARRIAGE HILL PL, GLOUCESTER"
      }
    ]
  },
  {
    "postal": "K1T8L0",
    "result": []
  },
  {
    "postal": "K1T8N1",
    "result": []
  },
  {
    "postal": "K1T4J0",
    "result": []
  },
  {
    "postal": "K1T0X7",
    "result": []
  },
  {
    "postal": "K1T6S4",
    "result": []
  },
  {
    "postal": "K1T0Z0",
    "result": []
  },
  {
    "postal": "K1T9X8",
    "result": []
  },
  {
    "postal": "K1T3H3",
    "result": [
      {
        "electoralDistricts": [
          {
            "election": null,
            "id": 79,
            "name": "Ottawa South"
          }
        ],
        "pollDivisionIds": [
          10140676
        ],
        "postalCode": "K1T3H3",
        "streetName": "SIXTH",
        "streetDirectionId": null,
        "streetTypeId": "ST",
        "placeName": "GLOUCESTER",
        "streetNameDisplayText": "SIXTH ST, GLOUCESTER"
      }
    ]
  },
  {
    "postal": "K1T7S2",
    "result": []
  },
  {
    "postal": "K1T3T3",
    "result": [
      {
        "electoralDistricts": [
          {
            "election": null,
            "id": 17,
            "name": "Carleton"
          }
        ],
        "pollDivisionIds": [
          10137495
        ],
        "postalCode": "K1T3T3",
        "streetName": "LESTER",
        "streetDirectionId": null,
        "streetTypeId": "RD",
        "placeName": "GLOUCESTER",
        "streetNameDisplayText": "LESTER RD, GLOUCESTER"
      }
    ]
  },
  {
    "postal": "K1T9P3",
    "result": []
  },
  {
    "postal": "K1T4H8",
    "result": [
      {
        "electoralDistricts": [
          {
            "election": null,
            "id": 17,
            "name": "Carleton"
          }
        ],
        "pollDivisionIds": [
          10137496
        ],
        "postalCode": "K1T4H8",
        "streetName": "FINDLAY CREEK",
        "streetDirectionId": null,
        "streetTypeId": "DR",
        "placeName": "GLOUCESTER",
        "streetNameDisplayText": "FINDLAY CREEK DR, GLOUCESTER"
      },
      {
        "electoralDistricts": [
          {
            "election": null,
            "id": 17,
            "name": "Carleton"
          }
        ],
        "pollDivisionIds": [
          10137496
        ],
        "postalCode": "K1T4H8",
        "streetName": "KELLY FARM",
        "streetDirectionId": null,
        "streetTypeId": "DR",
        "placeName": "GLOUCESTER",
        "streetNameDisplayText": "KELLY FARM DR, GLOUCESTER"
      }
    ]
  },
  {
    "postal": "K1T6R1",
    "result": []
  },
  {
    "postal": "K1T1S0",
    "result": []
  },
  {
    "postal": "K1T3W8",
    "result": [
      {
        "electoralDistricts": [
          {
            "election": null,
            "id": 17,
            "name": "Carleton"
          }
        ],
        "pollDivisionIds": [
          10137495
        ],
        "postalCode": "K1T3W8",
        "streetName": "BANK",
        "streetDirectionId": null,
        "streetTypeId": "ST",
        "placeName": "GLOUCESTER",
        "streetNameDisplayText": "BANK ST, GLOUCESTER"
      },
      {
        "electoralDistricts": [
          {
            "election": null,
            "id": 17,
            "name": "Carleton"
          }
        ],
        "pollDivisionIds": [
          10137495
        ],
        "postalCode": "K1T3W8",
        "streetName": "DORIS",
        "streetDirectionId": null,
        "streetTypeId": "AVE",
        "placeName": "GLOUCESTER",
        "streetNameDisplayText": "DORIS AVE, GLOUCESTER"
      },
      {
        "electoralDistricts": [
          {
            "election": null,
            "id": 17,
            "name": "Carleton"
          }
        ],
        "pollDivisionIds": [
          10137495
        ],
        "postalCode": "K1T3W8",
        "streetName": "ELMA",
        "streetDirectionId": null,
        "streetTypeId": "ST",
        "placeName": "GLOUCESTER",
        "streetNameDisplayText": "ELMA ST, GLOUCESTER"
      },
      {
        "electoralDistricts": [
          {
            "election": null,
            "id": 17,
            "name": "Carleton"
          }
        ],
        "pollDivisionIds": [
          10137495
        ],
        "postalCode": "K1T3W8",
        "streetName": "ORVILLE KEMP",
        "streetDirectionId": null,
        "streetTypeId": "ST",
        "placeName": "GLOUCESTER",
        "streetNameDisplayText": "ORVILLE KEMP ST, GLOUCESTER"
      }
    ]
  },
  {
    "postal": "K1T4S3",
    "result": []
  },
  {
    "postal": "K1T1B6",
    "result": [
      {
        "electoralDistricts": [
          {
            "election": null,
            "id": 79,
            "name": "Ottawa South"
          }
        ],
        "pollDivisionIds": [
          10140663
        ],
        "postalCode": "K1T1B6",
        "streetName": "ALDERWOOD",
        "streetDirectionId": null,
        "streetTypeId": "ST",
        "placeName": "GLOUCESTER",
        "streetNameDisplayText": "ALDERWOOD ST, GLOUCESTER"
      }
    ]
  },
  {
    "postal": "K1T8R3",
    "result": []
  },
  {
    "postal": "K1T4V9",
    "result": []
  },
  {
    "postal": "K1T9W4",
    "result": []
  },
  {
    "postal": "K1T3T4",
    "result": [
      {
        "electoralDistricts": [
          {
            "election": null,
            "id": 17,
            "name": "Carleton"
          }
        ],
        "pollDivisionIds": [
          10137495
        ],
        "postalCode": "K1T3T4",
        "streetName": "CONROY",
        "streetDirectionId": null,
        "streetTypeId": "RD",
        "placeName": "GLOUCESTER",
        "streetNameDisplayText": "CONROY RD, GLOUCESTER"
      }
    ]
  },
  {
    "postal": "K1T5C7",
    "result": []
  },
  {
    "postal": "K1T3Y1",
    "result": [
      {
        "electoralDistricts": [
          {
            "election": null,
            "id": 79,
            "name": "Ottawa South"
          }
        ],
        "pollDivisionIds": [
          10140666
        ],
        "postalCode": "K1T3Y1",
        "streetName": "MARGRAVE",
        "streetDirectionId": null,
        "streetTypeId": "AVE",
        "placeName": "OTTAWA",
        "streetNameDisplayText": "MARGRAVE AVE, OTTAWA"
      }
    ]
  },
  {
    "postal": "K1T5V0",
    "result": []
  },
  {
    "postal": "K1T8G8",
    "result": []
  },
  {
    "postal": "K1T8B1",
    "result": []
  },
  {
    "postal": "K1T4P5",
    "result": []
  },
  {
    "postal": "K1T7B2",
    "result": []
  },
  {
    "postal": "K1T0R2",
    "result": [
      {
        "electoralDistricts": [
          {
            "election": null,
            "id": 17,
            "name": "Carleton"
          }
        ],
        "pollDivisionIds": [
          10137496
        ],
        "postalCode": "K1T0R2",
        "streetName": "ERIC MALONEY",
        "streetDirectionId": null,
        "streetTypeId": "WAY",
        "placeName": "GLOUCESTER",
        "streetNameDisplayText": "ERIC MALONEY WAY, GLOUCESTER"
      },
      {
        "electoralDistricts": [
          {
            "election": null,
            "id": 17,
            "name": "Carleton"
          }
        ],
        "pollDivisionIds": [
          10137496
        ],
        "postalCode": "K1T0R2",
        "streetName": "ERIC MALONEY",
        "streetDirectionId": null,
        "streetTypeId": "WAY",
        "placeName": "OTTAWA",
        "streetNameDisplayText": "ERIC MALONEY WAY, OTTAWA"
      }
    ]
  },
  {
    "postal": "K1T4M4",
    "result": []
  },
  {
    "postal": "K1T7M4",
    "result": []
  },
  {
    "postal": "K1T9S7",
    "result": []
  },
  {
    "postal": "K1T5Z7",
    "result": []
  },
  {
    "postal": "K1T7J7",
    "result": []
  },
  {
    "postal": "K1T8R8",
    "result": []
  },
  {
    "postal": "K1T9X1",
    "result": []
  },
  {
    "postal": "K1T5M9",
    "result": []
  },
  {
    "postal": "K1T9B4",
    "result": []
  },
  {
    "postal": "K1T0L9",
    "result": [
      {
        "electoralDistricts": [
          {
            "election": null,
            "id": 17,
            "name": "Carleton"
          }
        ],
        "pollDivisionIds": [
          10137495
        ],
        "postalCode": "K1T0L9",
        "streetName": "LOOSESTRIFE",
        "streetDirectionId": null,
        "streetTypeId": "WAY",
        "placeName": "OTTAWA",
        "streetNameDisplayText": "LOOSESTRIFE WAY, OTTAWA"
      },
      {
        "electoralDistricts": [
          {
            "election": null,
            "id": 17,
            "name": "Carleton"
          }
        ],
        "pollDivisionIds": [
          10137495
        ],
        "postalCode": "K1T0L9",
        "streetName": "OAT STRAW",
        "streetDirectionId": null,
        "streetTypeId": "WAY",
        "placeName": "OTTAWA",
        "streetNameDisplayText": "OAT STRAW WAY, OTTAWA"
      },
      {
        "electoralDistricts": [
          {
            "election": null,
            "id": 17,
            "name": "Carleton"
          }
        ],
        "pollDivisionIds": [
          10137495
        ],
        "postalCode": "K1T0L9",
        "streetName": "ROTARY",
        "streetDirectionId": null,
        "streetTypeId": "WAY",
        "placeName": "OTTAWA",
        "streetNameDisplayText": "ROTARY WAY, OTTAWA"
      },
      {
        "electoralDistricts": [
          {
            "election": null,
            "id": 17,
            "name": "Carleton"
          }
        ],
        "pollDivisionIds": [
          10137495
        ],
        "postalCode": "K1T0L9",
        "streetName": "TEASEL",
        "streetDirectionId": null,
        "streetTypeId": "WAY",
        "placeName": "OTTAWA",
        "streetNameDisplayText": "TEASEL WAY, OTTAWA"
      }
    ]
  },
  {
    "postal": "K1T9G4",
    "result": []
  },
  {
    "postal": "K1T1J4",
    "result": [
      {
        "electoralDistricts": [
          {
            "election": null,
            "id": 79,
            "name": "Ottawa South"
          }
        ],
        "pollDivisionIds": [
          10140675
        ],
        "postalCode": "K1T1J4",
        "streetName": "QUEENSDALE",
        "streetDirectionId": null,
        "streetTypeId": "AVE",
        "placeName": "GLOUCESTER",
        "streetNameDisplayText": "QUEENSDALE AVE, GLOUCESTER"
      }
    ]
  },
  {
    "postal": "K1T0W6",
    "result": []
  }
]
