[
  {
    "postal": "P7E9J6",
    "result": []
  },
  {
    "postal": "P7E9Z5",
    "result": []
  },
  {
    "postal": "P7E7H8",
    "result": []
  },
  {
    "postal": "P7E0P6",
    "result": []
  },
  {
    "postal": "P7E0S7",
    "result": []
  },
  {
    "postal": "P7E8B9",
    "result": []
  },
  {
    "postal": "P7E2A6",
    "result": [
      {
        "electoralDistricts": [
          {
            "election": null,
            "id": 105,
            "name": "Thunder Bay—Atikokan"
          }
        ],
        "pollDivisionIds": [
          10142323
        ],
        "postalCode": "P7E2A6",
        "streetName": "KINGSWAY",
        "streetDirectionId": null,
        "streetTypeId": null,
        "placeName": "THUNDER BAY",
        "streetNameDisplayText": "KINGSWAY, THUNDER BAY"
      }
    ]
  },
  {
    "postal": "P7E7V2",
    "result": []
  },
  {
    "postal": "P7E9P4",
    "result": []
  },
  {
    "postal": "P7E6G0",
    "result": []
  },
  {
    "postal": "P7E2K0",
    "result": []
  },
  {
    "postal": "P7E7N6",
    "result": []
  },
  {
    "postal": "P7E5R3",
    "result": [
      {
        "electoralDistricts": [
          {
            "election": null,
            "id": 105,
            "name": "Thunder Bay—Atikokan"
          }
        ],
        "pollDivisionIds": [
          10142309
        ],
        "postalCode": "P7E5R3",
        "streetName": "ARTHUR",
        "streetDirectionId": "W",
        "streetTypeId": "ST",
        "placeName": "THUNDER BAY",
        "streetNameDisplayText": "ARTHUR ST W, THUNDER BAY"
      }
    ]
  },
  {
    "postal": "P7E7K0",
    "result": []
  },
  {
    "postal": "P7E3R2",
    "result": [
      {
        "electoralDistricts": [
          {
            "election": null,
            "id": 105,
            "name": "Thunder Bay—Atikokan"
          }
        ],
        "pollDivisionIds": [
          10142334
        ],
        "postalCode": "P7E3R2",
        "streetName": "GORE",
        "streetDirectionId": "E",
        "streetTypeId": "ST",
        "placeName": "THUNDER BAY",
        "streetNameDisplayText": "GORE ST E, THUNDER BAY"
      }
    ]
  },
  {
    "postal": "P7E0J1",
    "result": []
  },
  {
    "postal": "P7E0B0",
    "result": []
  },
  {
    "postal": "P7E5Z2",
    "result": [
      {
        "electoralDistricts": [
          {
            "election": null,
            "id": 105,
            "name": "Thunder Bay—Atikokan"
          }
        ],
        "pollDivisionIds": [
          10142324
        ],
        "postalCode": "P7E5Z2",
        "streetName": "RANKIN",
        "streetDirectionId": null,
        "streetTypeId": "ST",
        "placeName": "THUNDER BAY",
        "streetNameDisplayText": "RANKIN ST, THUNDER BAY"
      }
    ]
  },
  {
    "postal": "P7E7P3",
    "result": []
  },
  {
    "postal": "P7E2K3",
    "result": [
      {
        "electoralDistricts": [
          {
            "election": null,
            "id": 105,
            "name": "Thunder Bay—Atikokan"
          }
        ],
        "pollDivisionIds": [
          10142313
        ],
        "postalCode": "P7E2K3",
        "streetName": "BROWN",
        "streetDirectionId": null,
        "streetTypeId": "ST",
        "placeName": "THUNDER BAY",
        "streetNameDisplayText": "BROWN ST, THUNDER BAY"
      }
    ]
  },
  {
    "postal": "P7E7Y6",
    "result": []
  },
  {
    "postal": "P7E1L9",
    "result": [
      {
        "electoralDistricts": [
          {
            "election": null,
            "id": 105,
            "name": "Thunder Bay—Atikokan"
          }
        ],
        "pollDivisionIds": [
          10142326
        ],
        "postalCode": "P7E1L9",
        "streetName": "MARKS",
        "streetDirectionId": "S",
        "streetTypeId": "ST",
        "placeName": "THUNDER BAY",
        "streetNameDisplayText": "MARKS ST S, THUNDER BAY"
      }
    ]
  },
  {
    "postal": "P7E8T0",
    "result": []
  },
  {
    "postal": "P7E3K8",
    "result": [
      {
        "electoralDistricts": [
          {
            "election": null,
            "id": 105,
            "name": "Thunder Bay—Atikokan"
          }
        ],
        "pollDivisionIds": [
          10142306
        ],
        "postalCode": "P7E3K8",
        "streetName": "WALLBRIDGE",
        "streetDirectionId": null,
        "streetTypeId": "AVE",
        "placeName": "THUNDER BAY",
        "streetNameDisplayText": "WALLBRIDGE AVE, THUNDER BAY"
      }
    ]
  },
  {
    "postal": "P7E5W9",
    "result": [
      {
        "electoralDistricts": [
          {
            "election": null,
            "id": 105,
            "name": "Thunder Bay—Atikokan"
          }
        ],
        "pollDivisionIds": [
          10142318
        ],
        "postalCode": "P7E5W9",
        "streetName": "DONALD",
        "streetDirectionId": "E",
        "streetTypeId": "ST",
        "placeName": "THUNDER BAY",
        "streetNameDisplayText": "DONALD ST E, THUNDER BAY"
      }
    ]
  },
  {
    "postal": "P7E6T9",
    "result": []
  },
  {
    "postal": "P7E4H1",
    "result": [
      {
        "electoralDistricts": [
          {
            "election": null,
            "id": 105,
            "name": "Thunder Bay—Atikokan"
          }
        ],
        "pollDivisionIds": [
          10142315
        ],
        "postalCode": "P7E4H1",
        "streetName": "BROCK",
        "streetDirectionId": "E",
        "streetTypeId": "ST",
        "placeName": "THUNDER BAY",
        "streetNameDisplayText": "BROCK ST E, THUNDER BAY"
      }
    ]
  },
  {
    "postal": "P7E7A2",
    "result": []
  },
  {
    "postal": "P7E5G0",
    "result": []
  },
  {
    "postal": "P7E8V5",
    "result": []
  },
  {
    "postal": "P7E2Y8",
    "result": [
      {
        "electoralDistricts": [
          {
            "election": null,
            "id": 105,
            "name": "Thunder Bay—Atikokan"
          }
        ],
        "pollDivisionIds": [
          10142334
        ],
        "postalCode": "P7E2Y8",
        "streetName": "BROADMORE",
        "streetDirectionId": null,
        "streetTypeId": "AVE",
        "placeName": "THUNDER BAY",
        "streetNameDisplayText": "BROADMORE AVE, THUNDER BAY"
      }
    ]
  },
  {
    "postal": "P7E2B6",
    "result": [
      {
        "electoralDistricts": [
          {
            "election": null,
            "id": 105,
            "name": "Thunder Bay—Atikokan"
          }
        ],
        "pollDivisionIds": [
          10142315
        ],
        "postalCode": "P7E2B6",
        "streetName": "FORD",
        "streetDirectionId": null,
        "streetTypeId": "ST",
        "placeName": "THUNDER BAY",
        "streetNameDisplayText": "FORD ST, THUNDER BAY"
      }
    ]
  },
  {
    "postal": "P7E4W8",
    "result": [
      {
        "electoralDistricts": [
          {
            "election": null,
            "id": 105,
            "name": "Thunder Bay—Atikokan"
          }
        ],
        "pollDivisionIds": [
          10142315
        ],
        "postalCode": "P7E4W8",
        "streetName": "WALSH",
        "streetDirectionId": "W",
        "streetTypeId": "ST",
        "placeName": "THUNDER BAY",
        "streetNameDisplayText": "WALSH ST W, THUNDER BAY"
      }
    ]
  },
  {
    "postal": "P7E8H7",
    "result": []
  },
  {
    "postal": "P7E5P1",
    "result": [
      {
        "electoralDistricts": [
          {
            "election": null,
            "id": 105,
            "name": "Thunder Bay—Atikokan"
          }
        ],
        "pollDivisionIds": [
          10142318
        ],
        "postalCode": "P7E5P1",
        "streetName": "ARTHUR",
        "streetDirectionId": "E",
        "streetTypeId": "ST",
        "placeName": "THUNDER BAY",
        "streetNameDisplayText": "ARTHUR ST E, THUNDER BAY"
      }
    ]
  },
  {
    "postal": "P7E2B8",
    "result": [
      {
        "electoralDistricts": [
          {
            "election": null,
            "id": 105,
            "name": "Thunder Bay—Atikokan"
          }
        ],
        "pollDivisionIds": [
          10142315
        ],
        "postalCode": "P7E2B8",
        "streetName": "FORD",
        "streetDirectionId": "S",
        "streetTypeId": "ST",
        "placeName": "THUNDER BAY",
        "streetNameDisplayText": "FORD ST S, THUNDER BAY"
      },
      {
        "electoralDistricts": [
          {
            "election": null,
            "id": 105,
            "name": "Thunder Bay—Atikokan"
          }
        ],
        "pollDivisionIds": [
          10142315
        ],
        "postalCode": "P7E2B8",
        "streetName": "FORD",
        "streetDirectionId": null,
        "streetTypeId": "ST",
        "placeName": "THUNDER BAY",
        "streetNameDisplayText": "FORD ST, THUNDER BAY"
      }
    ]
  },
  {
    "postal": "P7E0P2",
    "result": []
  },
  {
    "postal": "P7E9M1",
    "result": []
  },
  {
    "postal": "P7E3G0",
    "result": []
  },
  {
    "postal": "P7E9Z2",
    "result": []
  },
  {
    "postal": "P7E2A0",
    "result": []
  },
  {
    "postal": "P7E6Y0",
    "result": []
  },
  {
    "postal": "P7E2Z8",
    "result": [
      {
        "electoralDistricts": [
          {
            "election": null,
            "id": 105,
            "name": "Thunder Bay—Atikokan"
          }
        ],
        "pollDivisionIds": [
          10142306
        ],
        "postalCode": "P7E2Z8",
        "streetName": "MOUNTDALE",
        "streetDirectionId": null,
        "streetTypeId": "AVE",
        "placeName": "THUNDER BAY",
        "streetNameDisplayText": "MOUNTDALE AVE, THUNDER BAY"
      }
    ]
  },
  {
    "postal": "P7E7Y3",
    "result": []
  },
  {
    "postal": "P7E6Z5",
    "result": []
  },
  {
    "postal": "P7E6E0",
    "result": []
  },
  {
    "postal": "P7E9B7",
    "result": []
  },
  {
    "postal": "P7E9S5",
    "result": []
  },
  {
    "postal": "P7E3X3",
    "result": [
      {
        "electoralDistricts": [
          {
            "election": null,
            "id": 105,
            "name": "Thunder Bay—Atikokan"
          }
        ],
        "pollDivisionIds": [
          10142334
        ],
        "postalCode": "P7E3X3",
        "streetName": "FREDERICA",
        "streetDirectionId": "W",
        "streetTypeId": "ST",
        "placeName": "THUNDER BAY",
        "streetNameDisplayText": "FREDERICA ST W, THUNDER BAY"
      }
    ]
  },
  {
    "postal": "P7E7R5",
    "result": []
  },
  {
    "postal": "P7E2X3",
    "result": [
      {
        "electoralDistricts": [
          {
            "election": null,
            "id": 105,
            "name": "Thunder Bay—Atikokan"
          }
        ],
        "pollDivisionIds": [
          10142334
        ],
        "postalCode": "P7E2X3",
        "streetName": "CENTRE",
        "streetDirectionId": null,
        "streetTypeId": "AVE",
        "placeName": "THUNDER BAY",
        "streetNameDisplayText": "CENTRE AVE, THUNDER BAY"
      },
      {
        "electoralDistricts": [
          {
            "election": null,
            "id": 105,
            "name": "Thunder Bay—Atikokan"
          }
        ],
        "pollDivisionIds": [
          10142334
        ],
        "postalCode": "P7E2X3",
        "streetName": "WOODWARD",
        "streetDirectionId": null,
        "streetTypeId": "AVE",
        "placeName": "THUNDER BAY",
        "streetNameDisplayText": "WOODWARD AVE, THUNDER BAY"
      }
    ]
  },
  {
    "postal": "P7E8Z9",
    "result": []
  },
  {
    "postal": "P7E0N4",
    "result": []
  },
  {
    "postal": "P7E1K1",
    "result": [
      {
        "electoralDistricts": [
          {
            "election": null,
            "id": 105,
            "name": "Thunder Bay—Atikokan"
          }
        ],
        "pollDivisionIds": [
          10142328
        ],
        "postalCode": "P7E1K1",
        "streetName": "VICKERS",
        "streetDirectionId": "S",
        "streetTypeId": "ST",
        "placeName": "THUNDER BAY",
        "streetNameDisplayText": "VICKERS ST S, THUNDER BAY"
      }
    ]
  },
  {
    "postal": "P7E1S3",
    "result": [
      {
        "electoralDistricts": [
          {
            "election": null,
            "id": 105,
            "name": "Thunder Bay—Atikokan"
          }
        ],
        "pollDivisionIds": [
          10142325
        ],
        "postalCode": "P7E1S3",
        "streetName": "HARKNESS",
        "streetDirectionId": null,
        "streetTypeId": "ST",
        "placeName": "THUNDER BAY",
        "streetNameDisplayText": "HARKNESS ST, THUNDER BAY"
      }
    ]
  },
  {
    "postal": "P7E6M4",
    "result": [
      {
        "electoralDistricts": [
          {
            "election": null,
            "id": 105,
            "name": "Thunder Bay—Atikokan"
          }
        ],
        "pollDivisionIds": [
          10142330
        ],
        "postalCode": "P7E6M4",
        "streetName": "MAY",
        "streetDirectionId": "S",
        "streetTypeId": "ST",
        "placeName": "THUNDER BAY",
        "streetNameDisplayText": "MAY ST S, THUNDER BAY"
      }
    ]
  },
  {
    "postal": "P7E9A9",
    "result": []
  },
  {
    "postal": "P7E9Z9",
    "result": []
  },
  {
    "postal": "P7E6T4",
    "result": [
      {
        "electoralDistricts": [
          {
            "election": null,
            "id": 105,
            "name": "Thunder Bay—Atikokan"
          }
        ],
        "pollDivisionIds": [
          10142306
        ],
        "postalCode": "P7E6T4",
        "streetName": "FREDERICA",
        "streetDirectionId": "W",
        "streetTypeId": "ST",
        "placeName": "THUNDER BAY",
        "streetNameDisplayText": "FREDERICA ST W, THUNDER BAY"
      }
    ]
  },
  {
    "postal": "P7E0B2",
    "result": []
  },
  {
    "postal": "P7E2L9",
    "result": [
      {
        "electoralDistricts": [
          {
            "election": null,
            "id": 105,
            "name": "Thunder Bay—Atikokan"
          }
        ],
        "pollDivisionIds": [
          10142315
        ],
        "postalCode": "P7E2L9",
        "streetName": "BROWN",
        "streetDirectionId": null,
        "streetTypeId": "ST",
        "placeName": "THUNDER BAY",
        "streetNameDisplayText": "BROWN ST, THUNDER BAY"
      }
    ]
  },
  {
    "postal": "P7E8K9",
    "result": []
  },
  {
    "postal": "P7E2H9",
    "result": [
      {
        "electoralDistricts": [
          {
            "election": null,
            "id": 105,
            "name": "Thunder Bay—Atikokan"
          }
        ],
        "pollDivisionIds": [
          10142315
        ],
        "postalCode": "P7E2H9",
        "streetName": "EDWARD",
        "streetDirectionId": "S",
        "streetTypeId": "ST",
        "placeName": "THUNDER BAY",
        "streetNameDisplayText": "EDWARD ST S, THUNDER BAY"
      }
    ]
  },
  {
    "postal": "P7E3Z6",
    "result": [
      {
        "electoralDistricts": [
          {
            "election": null,
            "id": 105,
            "name": "Thunder Bay—Atikokan"
          }
        ],
        "pollDivisionIds": [
          10142315
        ],
        "postalCode": "P7E3Z6",
        "streetName": "AMELIA",
        "streetDirectionId": "E",
        "streetTypeId": "ST",
        "placeName": "THUNDER BAY",
        "streetNameDisplayText": "AMELIA ST E, THUNDER BAY"
      }
    ]
  },
  {
    "postal": "P7E3B0",
    "result": []
  },
  {
    "postal": "P7E2H8",
    "result": [
      {
        "electoralDistricts": [
          {
            "election": null,
            "id": 105,
            "name": "Thunder Bay—Atikokan"
          }
        ],
        "pollDivisionIds": [
          10142315
        ],
        "postalCode": "P7E2H8",
        "streetName": "EDWARD",
        "streetDirectionId": "S",
        "streetTypeId": "ST",
        "placeName": "THUNDER BAY",
        "streetNameDisplayText": "EDWARD ST S, THUNDER BAY"
      }
    ]
  },
  {
    "postal": "P7E3X2",
    "result": [
      {
        "electoralDistricts": [
          {
            "election": null,
            "id": 105,
            "name": "Thunder Bay—Atikokan"
          }
        ],
        "pollDivisionIds": [
          10142334
        ],
        "postalCode": "P7E3X2",
        "streetName": "FREDERICA",
        "streetDirectionId": "W",
        "streetTypeId": "ST",
        "placeName": "THUNDER BAY",
        "streetNameDisplayText": "FREDERICA ST W, THUNDER BAY"
      }
    ]
  },
  {
    "postal": "P7E2E9",
    "result": [
      {
        "electoralDistricts": [
          {
            "election": null,
            "id": 105,
            "name": "Thunder Bay—Atikokan"
          }
        ],
        "pollDivisionIds": [
          10142318
        ],
        "postalCode": "P7E2E9",
        "streetName": "GREY",
        "streetDirectionId": null,
        "streetTypeId": "CRES",
        "placeName": "THUNDER BAY",
        "streetNameDisplayText": "GREY CRES, THUNDER BAY"
      }
    ]
  },
  {
    "postal": "P7E9P6",
    "result": []
  },
  {
    "postal": "P7E9E2",
    "result": []
  },
  {
    "postal": "P7E9H2",
    "result": []
  },
  {
    "postal": "P7E1S8",
    "result": [
      {
        "electoralDistricts": [
          {
            "election": null,
            "id": 105,
            "name": "Thunder Bay—Atikokan"
          }
        ],
        "pollDivisionIds": [
          10142323
        ],
        "postalCode": "P7E1S8",
        "streetName": "SELKIRK",
        "streetDirectionId": "S",
        "streetTypeId": "ST",
        "placeName": "THUNDER BAY",
        "streetNameDisplayText": "SELKIRK ST S, THUNDER BAY"
      }
    ]
  },
  {
    "postal": "P7E3M6",
    "result": [
      {
        "electoralDistricts": [
          {
            "election": null,
            "id": 105,
            "name": "Thunder Bay—Atikokan"
          }
        ],
        "pollDivisionIds": [
          10142309
        ],
        "postalCode": "P7E3M6",
        "streetName": "ASHDALE",
        "streetDirectionId": null,
        "streetTypeId": "PL",
        "placeName": "THUNDER BAY",
        "streetNameDisplayText": "ASHDALE PL, THUNDER BAY"
      }
    ]
  },
  {
    "postal": "P7E6Z8",
    "result": []
  },
  {
    "postal": "P7E4J2",
    "result": [
      {
        "electoralDistricts": [
          {
            "election": null,
            "id": 105,
            "name": "Thunder Bay—Atikokan"
          }
        ],
        "pollDivisionIds": [
          10142315
        ],
        "postalCode": "P7E4J2",
        "streetName": "BROCK",
        "streetDirectionId": "W",
        "streetTypeId": "ST",
        "placeName": "THUNDER BAY",
        "streetNameDisplayText": "BROCK ST W, THUNDER BAY"
      }
    ]
  },
  {
    "postal": "P7E9Y1",
    "result": []
  },
  {
    "postal": "P7E8V6",
    "result": []
  },
  {
    "postal": "P7E6B2",
    "result": [
      {
        "electoralDistricts": [
          {
            "election": null,
            "id": 105,
            "name": "Thunder Bay—Atikokan"
          }
        ],
        "pollDivisionIds": [
          10142309
        ],
        "postalCode": "P7E6B2",
        "streetName": "THORNDALE",
        "streetDirectionId": null,
        "streetTypeId": "CRES",
        "placeName": "THUNDER BAY",
        "streetNameDisplayText": "THORNDALE CRES, THUNDER BAY"
      }
    ]
  },
  {
    "postal": "P7E1P8",
    "result": [
      {
        "electoralDistricts": [
          {
            "election": null,
            "id": 105,
            "name": "Thunder Bay—Atikokan"
          }
        ],
        "pollDivisionIds": [
          10142326
        ],
        "postalCode": "P7E1P8",
        "streetName": "FRANKLIN",
        "streetDirectionId": "S",
        "streetTypeId": "ST",
        "placeName": "THUNDER BAY",
        "streetNameDisplayText": "FRANKLIN ST S, THUNDER BAY"
      }
    ]
  },
  {
    "postal": "P7E0V8",
    "result": []
  },
  {
    "postal": "P7E4Y0",
    "result": []
  },
  {
    "postal": "P7E2T4",
    "result": [
      {
        "electoralDistricts": [
          {
            "election": null,
            "id": 105,
            "name": "Thunder Bay—Atikokan"
          }
        ],
        "pollDivisionIds": [
          10142315
        ],
        "postalCode": "P7E2T4",
        "streetName": "HOLLY",
        "streetDirectionId": null,
        "streetTypeId": "CRES",
        "placeName": "THUNDER BAY",
        "streetNameDisplayText": "HOLLY CRES, THUNDER BAY"
      }
    ]
  },
  {
    "postal": "P7E2S3",
    "result": [
      {
        "electoralDistricts": [
          {
            "election": null,
            "id": 105,
            "name": "Thunder Bay—Atikokan"
          }
        ],
        "pollDivisionIds": [
          10142307
        ],
        "postalCode": "P7E2S3",
        "streetName": "SHAMROCK",
        "streetDirectionId": null,
        "streetTypeId": "CRES",
        "placeName": "THUNDER BAY",
        "streetNameDisplayText": "SHAMROCK CRES, THUNDER BAY"
      }
    ]
  },
  {
    "postal": "P7E0K0",
    "result": []
  },
  {
    "postal": "P7E5N1",
    "result": []
  },
  {
    "postal": "P7E7T0",
    "result": []
  },
  {
    "postal": "P7E9N2",
    "result": []
  },
  {
    "postal": "P7E5L1",
    "result": [
      {
        "electoralDistricts": [
          {
            "election": null,
            "id": 105,
            "name": "Thunder Bay—Atikokan"
          }
        ],
        "pollDivisionIds": [
          10142313
        ],
        "postalCode": "P7E5L1",
        "streetName": "HEATHER",
        "streetDirectionId": null,
        "streetTypeId": "CRES",
        "placeName": "THUNDER BAY",
        "streetNameDisplayText": "HEATHER CRES, THUNDER BAY"
      }
    ]
  },
  {
    "postal": "P7E7G5",
    "result": []
  },
  {
    "postal": "P7E6K2",
    "result": [
      {
        "electoralDistricts": [
          {
            "election": null,
            "id": 105,
            "name": "Thunder Bay—Atikokan"
          }
        ],
        "pollDivisionIds": [
          10142307
        ],
        "postalCode": "P7E6K2",
        "streetName": "CHILTON",
        "streetDirectionId": null,
        "streetTypeId": "AVE",
        "placeName": "THUNDER BAY",
        "streetNameDisplayText": "CHILTON AVE, THUNDER BAY"
      }
    ]
  },
  {
    "postal": "P7E6P9",
    "result": [
      {
        "electoralDistricts": [
          {
            "election": null,
            "id": 105,
            "name": "Thunder Bay—Atikokan"
          }
        ],
        "pollDivisionIds": [
          10142307
        ],
        "postalCode": "P7E6P9",
        "streetName": "ARTHUR",
        "streetDirectionId": "W",
        "streetTypeId": "ST",
        "placeName": "THUNDER BAY",
        "streetNameDisplayText": "ARTHUR ST W, THUNDER BAY"
      }
    ]
  },
  {
    "postal": "P7E0E6",
    "result": []
  },
  {
    "postal": "P7E8R9",
    "result": []
  },
  {
    "postal": "P7E3G9",
    "result": [
      {
        "electoralDistricts": [
          {
            "election": null,
            "id": 105,
            "name": "Thunder Bay—Atikokan"
          }
        ],
        "pollDivisionIds": [
          10142306
        ],
        "postalCode": "P7E3G9",
        "streetName": "STANLEY",
        "streetDirectionId": null,
        "streetTypeId": "AVE",
        "placeName": "THUNDER BAY",
        "streetNameDisplayText": "STANLEY AVE, THUNDER BAY"
      }
    ]
  },
  {
    "postal": "P7E0V7",
    "result": []
  },
  {
    "postal": "P7E2Z1",
    "result": [
      {
        "electoralDistricts": [
          {
            "election": null,
            "id": 105,
            "name": "Thunder Bay—Atikokan"
          }
        ],
        "pollDivisionIds": [
          10142334
        ],
        "postalCode": "P7E2Z1",
        "streetName": "BROADMORE",
        "streetDirectionId": null,
        "streetTypeId": "AVE",
        "placeName": "THUNDER BAY",
        "streetNameDisplayText": "BROADMORE AVE, THUNDER BAY"
      }
    ]
  },
  {
    "postal": "P7E7N1",
    "result": []
  },
  {
    "postal": "P7E3C6",
    "result": [
      {
        "electoralDistricts": [
          {
            "election": null,
            "id": 105,
            "name": "Thunder Bay—Atikokan"
          }
        ],
        "pollDivisionIds": [
          10142306
        ],
        "postalCode": "P7E3C6",
        "streetName": "CRAWFORD",
        "streetDirectionId": null,
        "streetTypeId": "PL",
        "placeName": "THUNDER BAY",
        "streetNameDisplayText": "CRAWFORD PL, THUNDER BAY"
      }
    ]
  },
  {
    "postal": "P7E4M1",
    "result": [
      {
        "electoralDistricts": [
          {
            "election": null,
            "id": 105,
            "name": "Thunder Bay—Atikokan"
          }
        ],
        "pollDivisionIds": [
          10142306
        ],
        "postalCode": "P7E4M1",
        "streetName": "MARY",
        "streetDirectionId": "W",
        "streetTypeId": "ST",
        "placeName": "THUNDER BAY",
        "streetNameDisplayText": "MARY ST W, THUNDER BAY"
      }
    ]
  },
  {
    "postal": "P7E9K2",
    "result": []
  },
  {
    "postal": "P7E9S6",
    "result": []
  },
  {
    "postal": "P7E4X1",
    "result": [
      {
        "electoralDistricts": [
          {
            "election": null,
            "id": 105,
            "name": "Thunder Bay—Atikokan"
          }
        ],
        "pollDivisionIds": [
          10142315
        ],
        "postalCode": "P7E4X1",
        "streetName": "WALSH",
        "streetDirectionId": "W",
        "streetTypeId": "ST",
        "placeName": "THUNDER BAY",
        "streetNameDisplayText": "WALSH ST W, THUNDER BAY"
      }
    ]
  },
  {
    "postal": "P7E8W2",
    "result": []
  },
  {
    "postal": "P7E7N2",
    "result": []
  },
  {
    "postal": "P7E8S3",
    "result": []
  },
  {
    "postal": "P7E4V0",
    "result": []
  },
  {
    "postal": "P7E6W4",
    "result": []
  },
  {
    "postal": "P7E5M1",
    "result": [
      {
        "electoralDistricts": [
          {
            "election": null,
            "id": 105,
            "name": "Thunder Bay—Atikokan"
          }
        ],
        "pollDivisionIds": [
          10142314
        ],
        "postalCode": "P7E5M1",
        "streetName": "BEGIN",
        "streetDirectionId": null,
        "streetTypeId": "BAY",
        "placeName": "THUNDER BAY",
        "streetNameDisplayText": "BEGIN BAY, THUNDER BAY"
      }
    ]
  },
  {
    "postal": "P7E0S4",
    "result": []
  },
  {
    "postal": "P7E5X6",
    "result": [
      {
        "electoralDistricts": [
          {
            "election": null,
            "id": 105,
            "name": "Thunder Bay—Atikokan"
          }
        ],
        "pollDivisionIds": [
          10142317
        ],
        "postalCode": "P7E5X6",
        "streetName": "DONALD",
        "streetDirectionId": "E",
        "streetTypeId": "ST",
        "placeName": "THUNDER BAY",
        "streetNameDisplayText": "DONALD ST E, THUNDER BAY"
      }
    ]
  },
  {
    "postal": "P7E8L5",
    "result": []
  },
  {
    "postal": "P7E5M8",
    "result": [
      {
        "electoralDistricts": [
          {
            "election": null,
            "id": 105,
            "name": "Thunder Bay—Atikokan"
          }
        ],
        "pollDivisionIds": [
          10142328
        ],
        "postalCode": "P7E5M8",
        "streetName": "ARTHUR",
        "streetDirectionId": "E",
        "streetTypeId": "ST",
        "placeName": "THUNDER BAY",
        "streetNameDisplayText": "ARTHUR ST E, THUNDER BAY"
      }
    ]
  },
  {
    "postal": "P7E2G3",
    "result": [
      {
        "electoralDistricts": [
          {
            "election": null,
            "id": 105,
            "name": "Thunder Bay—Atikokan"
          }
        ],
        "pollDivisionIds": [
          10142317
        ],
        "postalCode": "P7E2G3",
        "streetName": "MINTO",
        "streetDirectionId": null,
        "streetTypeId": "ST",
        "placeName": "THUNDER BAY",
        "streetNameDisplayText": "MINTO ST, THUNDER BAY"
      }
    ]
  },
  {
    "postal": "P7E8E4",
    "result": []
  },
  {
    "postal": "P7E7S9",
    "result": []
  },
  {
    "postal": "P7E1K3",
    "result": [
      {
        "electoralDistricts": [
          {
            "election": null,
            "id": 105,
            "name": "Thunder Bay—Atikokan"
          }
        ],
        "pollDivisionIds": [
          10142328
        ],
        "postalCode": "P7E1K3",
        "streetName": "VICKERS",
        "streetDirectionId": "S",
        "streetTypeId": "ST",
        "placeName": "THUNDER BAY",
        "streetNameDisplayText": "VICKERS ST S, THUNDER BAY"
      }
    ]
  },
  {
    "postal": "P7E4E1",
    "result": [
      {
        "electoralDistricts": [
          {
            "election": null,
            "id": 105,
            "name": "Thunder Bay—Atikokan"
          }
        ],
        "pollDivisionIds": [
          10142334
        ],
        "postalCode": "P7E4E1",
        "streetName": "FRANCIS",
        "streetDirectionId": "W",
        "streetTypeId": "ST",
        "placeName": "THUNDER BAY",
        "streetNameDisplayText": "FRANCIS ST W, THUNDER BAY"
      }
    ]
  },
  {
    "postal": "P7E4R2",
    "result": [
      {
        "electoralDistricts": [
          {
            "election": null,
            "id": 105,
            "name": "Thunder Bay—Atikokan"
          }
        ],
        "pollDivisionIds": [
          10142334
        ],
        "postalCode": "P7E4R2",
        "streetName": "WOODWARD",
        "streetDirectionId": null,
        "streetTypeId": "AVE",
        "placeName": "THUNDER BAY",
        "streetNameDisplayText": "WOODWARD AVE, THUNDER BAY"
      }
    ]
  },
  {
    "postal": "P7E6T0",
    "result": []
  },
  {
    "postal": "P7E3K5",
    "result": [
      {
        "electoralDistricts": [
          {
            "election": null,
            "id": 105,
            "name": "Thunder Bay—Atikokan"
          }
        ],
        "pollDivisionIds": [
          10142306
        ],
        "postalCode": "P7E3K5",
        "streetName": "ALPINE",
        "streetDirectionId": null,
        "streetTypeId": "PL",
        "placeName": "THUNDER BAY",
        "streetNameDisplayText": "ALPINE PL, THUNDER BAY"
      }
    ]
  },
  {
    "postal": "P7E3S3",
    "result": [
      {
        "electoralDistricts": [
          {
            "election": null,
            "id": 105,
            "name": "Thunder Bay—Atikokan"
          }
        ],
        "pollDivisionIds": [
          10142334
        ],
        "postalCode": "P7E3S3",
        "streetName": "GORE",
        "streetDirectionId": "W",
        "streetTypeId": "ST",
        "placeName": "THUNDER BAY",
        "streetNameDisplayText": "GORE ST W, THUNDER BAY"
      }
    ]
  },
  {
    "postal": "P7E3L4",
    "result": [
      {
        "electoralDistricts": [
          {
            "election": null,
            "id": 105,
            "name": "Thunder Bay—Atikokan"
          }
        ],
        "pollDivisionIds": [
          10142306
        ],
        "postalCode": "P7E3L4",
        "streetName": "ALPINE",
        "streetDirectionId": null,
        "streetTypeId": "AVE",
        "placeName": "THUNDER BAY",
        "streetNameDisplayText": "ALPINE AVE, THUNDER BAY"
      }
    ]
  },
  {
    "postal": "P7E9Y2",
    "result": []
  },
  {
    "postal": "P7E1E0",
    "result": []
  },
  {
    "postal": "P7E9A4",
    "result": []
  },
  {
    "postal": "P7E1L3",
    "result": [
      {
        "electoralDistricts": [
          {
            "election": null,
            "id": 105,
            "name": "Thunder Bay—Atikokan"
          }
        ],
        "pollDivisionIds": [
          10142328
        ],
        "postalCode": "P7E1L3",
        "streetName": "CATHERINE",
        "streetDirectionId": null,
        "streetTypeId": "ST",
        "placeName": "THUNDER BAY",
        "streetNameDisplayText": "CATHERINE ST, THUNDER BAY"
      }
    ]
  },
  {
    "postal": "P7E6N1",
    "result": []
  },
  {
    "postal": "P7E6G7",
    "result": []
  },
  {
    "postal": "P7E7W1",
    "result": []
  },
  {
    "postal": "P7E4M6",
    "result": [
      {
        "electoralDistricts": [
          {
            "election": null,
            "id": 105,
            "name": "Thunder Bay—Atikokan"
          }
        ],
        "pollDivisionIds": [
          10142306
        ],
        "postalCode": "P7E4M6",
        "streetName": "MARY",
        "streetDirectionId": "W",
        "streetTypeId": "ST",
        "placeName": "THUNDER BAY",
        "streetNameDisplayText": "MARY ST W, THUNDER BAY"
      }
    ]
  },
  {
    "postal": "P7E1K0",
    "result": []
  },
  {
    "postal": "P7E3E2",
    "result": [
      {
        "electoralDistricts": [
          {
            "election": null,
            "id": 105,
            "name": "Thunder Bay—Atikokan"
          }
        ],
        "pollDivisionIds": [
          10142306
        ],
        "postalCode": "P7E3E2",
        "streetName": "CRAWFORD",
        "streetDirectionId": null,
        "streetTypeId": "AVE",
        "placeName": "THUNDER BAY",
        "streetNameDisplayText": "CRAWFORD AVE, THUNDER BAY"
      }
    ]
  },
  {
    "postal": "P7E5H4",
    "result": [
      {
        "electoralDistricts": [
          {
            "election": null,
            "id": 105,
            "name": "Thunder Bay—Atikokan"
          }
        ],
        "pollDivisionIds": [
          10142328
        ],
        "postalCode": "P7E5H4",
        "streetName": "RIDGEWAY",
        "streetDirectionId": "E",
        "streetTypeId": "ST",
        "placeName": "THUNDER BAY",
        "streetNameDisplayText": "RIDGEWAY ST E, THUNDER BAY"
      }
    ]
  },
  {
    "postal": "P7E1K7",
    "result": [
      {
        "electoralDistricts": [
          {
            "election": null,
            "id": 105,
            "name": "Thunder Bay—Atikokan"
          }
        ],
        "pollDivisionIds": [
          10142328
        ],
        "postalCode": "P7E1K7",
        "streetName": "CATHERINE",
        "streetDirectionId": null,
        "streetTypeId": "ST",
        "placeName": "THUNDER BAY",
        "streetNameDisplayText": "CATHERINE ST, THUNDER BAY"
      }
    ]
  },
  {
    "postal": "P7E0H0",
    "result": []
  },
  {
    "postal": "P7E0J3",
    "result": []
  },
  {
    "postal": "P7E1X6",
    "result": [
      {
        "electoralDistricts": [
          {
            "election": null,
            "id": 105,
            "name": "Thunder Bay—Atikokan"
          }
        ],
        "pollDivisionIds": [
          10142323
        ],
        "postalCode": "P7E1X6",
        "streetName": "HYDE PARK",
        "streetDirectionId": null,
        "streetTypeId": "AVE",
        "placeName": "THUNDER BAY",
        "streetNameDisplayText": "HYDE PARK AVE, THUNDER BAY"
      }
    ]
  },
  {
    "postal": "P7E2Z6",
    "result": [
      {
        "electoralDistricts": [
          {
            "election": null,
            "id": 105,
            "name": "Thunder Bay—Atikokan"
          }
        ],
        "pollDivisionIds": [
          10142309
        ],
        "postalCode": "P7E2Z6",
        "streetName": "MOUNTDALE",
        "streetDirectionId": null,
        "streetTypeId": "AVE",
        "placeName": "THUNDER BAY",
        "streetNameDisplayText": "MOUNTDALE AVE, THUNDER BAY"
      }
    ]
  },
  {
    "postal": "P7E4R9",
    "result": [
      {
        "electoralDistricts": [
          {
            "election": null,
            "id": 105,
            "name": "Thunder Bay—Atikokan"
          }
        ],
        "pollDivisionIds": [
          10142320
        ],
        "postalCode": "P7E4R9",
        "streetName": "EMPIRE",
        "streetDirectionId": null,
        "streetTypeId": "AVE",
        "placeName": "THUNDER BAY",
        "streetNameDisplayText": "EMPIRE AVE, THUNDER BAY"
      }
    ]
  },
  {
    "postal": "P7E0W8",
    "result": []
  },
  {
    "postal": "P7E1L4",
    "result": [
      {
        "electoralDistricts": [
          {
            "election": null,
            "id": 105,
            "name": "Thunder Bay—Atikokan"
          }
        ],
        "pollDivisionIds": [
          10142328
        ],
        "postalCode": "P7E1L4",
        "streetName": "CATHERINE",
        "streetDirectionId": null,
        "streetTypeId": "ST",
        "placeName": "THUNDER BAY",
        "streetNameDisplayText": "CATHERINE ST, THUNDER BAY"
      }
    ]
  },
  {
    "postal": "P7E0C8",
    "result": []
  },
  {
    "postal": "P7E9X7",
    "result": []
  },
  {
    "postal": "P7E4T1",
    "result": [
      {
        "electoralDistricts": [
          {
            "election": null,
            "id": 105,
            "name": "Thunder Bay—Atikokan"
          }
        ],
        "pollDivisionIds": [
          10142318
        ],
        "postalCode": "P7E4T1",
        "streetName": "GORDON",
        "streetDirectionId": null,
        "streetTypeId": "ST",
        "placeName": "THUNDER BAY",
        "streetNameDisplayText": "GORDON ST, THUNDER BAY"
      }
    ]
  },
  {
    "postal": "P7E0M0",
    "result": []
  },
  {
    "postal": "P7E6A2",
    "result": [
      {
        "electoralDistricts": [
          {
            "election": null,
            "id": 105,
            "name": "Thunder Bay—Atikokan"
          }
        ],
        "pollDivisionIds": [
          10142317
        ],
        "postalCode": "P7E6A2",
        "streetName": "RANKIN",
        "streetDirectionId": null,
        "streetTypeId": "ST",
        "placeName": "THUNDER BAY",
        "streetNameDisplayText": "RANKIN ST, THUNDER BAY"
      }
    ]
  },
  {
    "postal": "P7E9S8",
    "result": []
  },
  {
    "postal": "P7E9T4",
    "result": []
  },
  {
    "postal": "P7E9Y4",
    "result": []
  },
  {
    "postal": "P7E6G5",
    "result": [
      {
        "electoralDistricts": [
          {
            "election": null,
            "id": 105,
            "name": "Thunder Bay—Atikokan"
          }
        ],
        "pollDivisionIds": [
          90937
        ],
        "postalCode": "P7E6G5",
        "streetName": "DONALD",
        "streetDirectionId": "W",
        "streetTypeId": "ST",
        "placeName": "THUNDER BAY",
        "streetNameDisplayText": "DONALD ST W, THUNDER BAY"
      }
    ]
  },
  {
    "postal": "P7E6H9",
    "result": [
      {
        "electoralDistricts": [
          {
            "election": null,
            "id": 105,
            "name": "Thunder Bay—Atikokan"
          }
        ],
        "pollDivisionIds": [
          10142323
        ],
        "postalCode": "P7E6H9",
        "streetName": "WATERLOO",
        "streetDirectionId": "S",
        "streetTypeId": "ST",
        "placeName": "THUNDER BAY",
        "streetNameDisplayText": "WATERLOO ST S, THUNDER BAY"
      }
    ]
  },
  {
    "postal": "P7E2P3",
    "result": [
      {
        "electoralDistricts": [
          {
            "election": null,
            "id": 105,
            "name": "Thunder Bay—Atikokan"
          }
        ],
        "pollDivisionIds": [
          10142307
        ],
        "postalCode": "P7E2P3",
        "streetName": "LELAND",
        "streetDirectionId": "S",
        "streetTypeId": "AVE",
        "placeName": "THUNDER BAY",
        "streetNameDisplayText": "LELAND AVE S, THUNDER BAY"
      }
    ]
  },
  {
    "postal": "P7E1T6",
    "result": [
      {
        "electoralDistricts": [
          {
            "election": null,
            "id": 105,
            "name": "Thunder Bay—Atikokan"
          }
        ],
        "pollDivisionIds": [
          10142323
        ],
        "postalCode": "P7E1T6",
        "streetName": "SELKIRK",
        "streetDirectionId": "S",
        "streetTypeId": "ST",
        "placeName": "THUNDER BAY",
        "streetNameDisplayText": "SELKIRK ST S, THUNDER BAY"
      }
    ]
  },
  {
    "postal": "P7E4P6",
    "result": [
      {
        "electoralDistricts": [
          {
            "election": null,
            "id": 105,
            "name": "Thunder Bay—Atikokan"
          }
        ],
        "pollDivisionIds": [
          10142334
        ],
        "postalCode": "P7E4P6",
        "streetName": "CHRISTINA",
        "streetDirectionId": "W",
        "streetTypeId": "ST",
        "placeName": "THUNDER BAY",
        "streetNameDisplayText": "CHRISTINA ST W, THUNDER BAY"
      }
    ]
  },
  {
    "postal": "P7E3K1",
    "result": [
      {
        "electoralDistricts": [
          {
            "election": null,
            "id": 105,
            "name": "Thunder Bay—Atikokan"
          }
        ],
        "pollDivisionIds": [
          10142306
        ],
        "postalCode": "P7E3K1",
        "streetName": "HOLT",
        "streetDirectionId": null,
        "streetTypeId": "PL",
        "placeName": "THUNDER BAY",
        "streetNameDisplayText": "HOLT PL, THUNDER BAY"
      }
    ]
  },
  {
    "postal": "P7E6X4",
    "result": []
  },
  {
    "postal": "P7E4M8",
    "result": [
      {
        "electoralDistricts": [
          {
            "election": null,
            "id": 105,
            "name": "Thunder Bay—Atikokan"
          }
        ],
        "pollDivisionIds": [
          10142306
        ],
        "postalCode": "P7E4M8",
        "streetName": "MARY",
        "streetDirectionId": "W",
        "streetTypeId": "ST",
        "placeName": "THUNDER BAY",
        "streetNameDisplayText": "MARY ST W, THUNDER BAY"
      }
    ]
  },
  {
    "postal": "P7E2Y1",
    "result": [
      {
        "electoralDistricts": [
          {
            "election": null,
            "id": 105,
            "name": "Thunder Bay—Atikokan"
          }
        ],
        "pollDivisionIds": [
          10142334
        ],
        "postalCode": "P7E2Y1",
        "streetName": "CENTRE",
        "streetDirectionId": null,
        "streetTypeId": "AVE",
        "placeName": "THUNDER BAY",
        "streetNameDisplayText": "CENTRE AVE, THUNDER BAY"
      }
    ]
  },
  {
    "postal": "P7E6M1",
    "result": [
      {
        "electoralDistricts": [
          {
            "election": null,
            "id": 105,
            "name": "Thunder Bay—Atikokan"
          }
        ],
        "pollDivisionIds": [
          10142307
        ],
        "postalCode": "P7E6M1",
        "streetName": "OTTAWA",
        "streetDirectionId": null,
        "streetTypeId": "ST",
        "placeName": "THUNDER BAY",
        "streetNameDisplayText": "OTTAWA ST, THUNDER BAY"
      }
    ]
  },
  {
    "postal": "P7E5L8",
    "result": [
      {
        "electoralDistricts": [
          {
            "election": null,
            "id": 105,
            "name": "Thunder Bay—Atikokan"
          }
        ],
        "pollDivisionIds": [
          10142314
        ],
        "postalCode": "P7E5L8",
        "streetName": "BEGIN",
        "streetDirectionId": null,
        "streetTypeId": "PL",
        "placeName": "THUNDER BAY",
        "streetNameDisplayText": "BEGIN PL, THUNDER BAY"
      }
    ]
  },
  {
    "postal": "P7E3P6",
    "result": [
      {
        "electoralDistricts": [
          {
            "election": null,
            "id": 105,
            "name": "Thunder Bay—Atikokan"
          }
        ],
        "pollDivisionIds": [
          10142334
        ],
        "postalCode": "P7E3P6",
        "streetName": "KINGSTON",
        "streetDirectionId": null,
        "streetTypeId": "ST",
        "placeName": "THUNDER BAY",
        "streetNameDisplayText": "KINGSTON ST, THUNDER BAY"
      }
    ]
  },
  {
    "postal": "P7E9A5",
    "result": []
  },
  {
    "postal": "P7E7K1",
    "result": []
  },
  {
    "postal": "P7E3J4",
    "result": [
      {
        "electoralDistricts": [
          {
            "election": null,
            "id": 105,
            "name": "Thunder Bay—Atikokan"
          }
        ],
        "pollDivisionIds": [
          10142306
        ],
        "postalCode": "P7E3J4",
        "streetName": "GEORGINA",
        "streetDirectionId": null,
        "streetTypeId": "AVE",
        "placeName": "THUNDER BAY",
        "streetNameDisplayText": "GEORGINA AVE, THUNDER BAY"
      }
    ]
  },
  {
    "postal": "P7E5E7",
    "result": [
      {
        "electoralDistricts": [
          {
            "election": null,
            "id": 105,
            "name": "Thunder Bay—Atikokan"
          }
        ],
        "pollDivisionIds": [
          10142328
        ],
        "postalCode": "P7E5E7",
        "streetName": "MCGREGOR",
        "streetDirectionId": null,
        "streetTypeId": "AVE",
        "placeName": "THUNDER BAY",
        "streetNameDisplayText": "MCGREGOR AVE, THUNDER BAY"
      }
    ]
  },
  {
    "postal": "P7E3A7",
    "result": [
      {
        "electoralDistricts": [
          {
            "election": null,
            "id": 105,
            "name": "Thunder Bay—Atikokan"
          }
        ],
        "pollDivisionIds": [
          10142334
        ],
        "postalCode": "P7E3A7",
        "streetName": "MOUNTDALE",
        "streetDirectionId": null,
        "streetTypeId": "AVE",
        "placeName": "THUNDER BAY",
        "streetNameDisplayText": "MOUNTDALE AVE, THUNDER BAY"
      }
    ]
  },
  {
    "postal": "P7E1B9",
    "result": [
      {
        "electoralDistricts": [
          {
            "election": null,
            "id": 105,
            "name": "Thunder Bay—Atikokan"
          }
        ],
        "pollDivisionIds": [
          10142328,
          10142330
        ],
        "postalCode": "P7E1B9",
        "streetName": "BRODIE",
        "streetDirectionId": "S",
        "streetTypeId": "ST",
        "placeName": "THUNDER BAY",
        "streetNameDisplayText": "BRODIE ST S, THUNDER BAY"
      }
    ]
  },
  {
    "postal": "P7E9E8",
    "result": []
  },
  {
    "postal": "P7E1C9",
    "result": [
      {
        "electoralDistricts": [
          {
            "election": null,
            "id": 105,
            "name": "Thunder Bay—Atikokan"
          }
        ],
        "pollDivisionIds": [
          10142330
        ],
        "postalCode": "P7E1C9",
        "streetName": "SYNDICATE",
        "streetDirectionId": "S",
        "streetTypeId": "AVE",
        "placeName": "THUNDER BAY",
        "streetNameDisplayText": "SYNDICATE AVE S, THUNDER BAY"
      }
    ]
  },
  {
    "postal": "P7E3B5",
    "result": [
      {
        "electoralDistricts": [
          {
            "election": null,
            "id": 105,
            "name": "Thunder Bay—Atikokan"
          }
        ],
        "pollDivisionIds": [
          10142306
        ],
        "postalCode": "P7E3B5",
        "streetName": "HOME",
        "streetDirectionId": null,
        "streetTypeId": "AVE",
        "placeName": "THUNDER BAY",
        "streetNameDisplayText": "HOME AVE, THUNDER BAY"
      }
    ]
  },
  {
    "postal": "P7E8R0",
    "result": []
  },
  {
    "postal": "P7E3P2",
    "result": [
      {
        "electoralDistricts": [
          {
            "election": null,
            "id": 105,
            "name": "Thunder Bay—Atikokan"
          }
        ],
        "pollDivisionIds": [
          10142334
        ],
        "postalCode": "P7E3P2",
        "streetName": "MONTREAL",
        "streetDirectionId": null,
        "streetTypeId": "ST",
        "placeName": "THUNDER BAY",
        "streetNameDisplayText": "MONTREAL ST, THUNDER BAY"
      }
    ]
  },
  {
    "postal": "P7E5V4",
    "result": [
      {
        "electoralDistricts": [
          {
            "election": null,
            "id": 105,
            "name": "Thunder Bay—Atikokan"
          }
        ],
        "pollDivisionIds": [
          10142326
        ],
        "postalCode": "P7E5V4",
        "streetName": "DONALD",
        "streetDirectionId": "E",
        "streetTypeId": "ST",
        "placeName": "THUNDER BAY",
        "streetNameDisplayText": "DONALD ST E, THUNDER BAY"
      }
    ]
  },
  {
    "postal": "P7E4H0",
    "result": []
  },
  {
    "postal": "P7E4S7",
    "result": [
      {
        "electoralDistricts": [
          {
            "election": null,
            "id": 105,
            "name": "Thunder Bay—Atikokan"
          }
        ],
        "pollDivisionIds": [
          10142325
        ],
        "postalCode": "P7E4S7",
        "streetName": "EMPIRE",
        "streetDirectionId": "E",
        "streetTypeId": "AVE",
        "placeName": "THUNDER BAY",
        "streetNameDisplayText": "EMPIRE AVE E, THUNDER BAY"
      },
      {
        "electoralDistricts": [
          {
            "election": null,
            "id": 105,
            "name": "Thunder Bay—Atikokan"
          }
        ],
        "pollDivisionIds": [
          10142325
        ],
        "postalCode": "P7E4S7",
        "streetName": "EMPIRE",
        "streetDirectionId": null,
        "streetTypeId": "AVE",
        "placeName": "THUNDER BAY",
        "streetNameDisplayText": "EMPIRE AVE, THUNDER BAY"
      }
    ]
  },
  {
    "postal": "P7E6C2",
    "result": []
  },
  {
    "postal": "P7E8W3",
    "result": []
  },
  {
    "postal": "P7E4M5",
    "result": [
      {
        "electoralDistricts": [
          {
            "election": null,
            "id": 105,
            "name": "Thunder Bay—Atikokan"
          }
        ],
        "pollDivisionIds": [
          10142306
        ],
        "postalCode": "P7E4M5",
        "streetName": "MARY",
        "streetDirectionId": "W",
        "streetTypeId": "ST",
        "placeName": "THUNDER BAY",
        "streetNameDisplayText": "MARY ST W, THUNDER BAY"
      }
    ]
  },
  {
    "postal": "P7E5T1",
    "result": [
      {
        "electoralDistricts": [
          {
            "election": null,
            "id": 105,
            "name": "Thunder Bay—Atikokan"
          }
        ],
        "pollDivisionIds": [
          10142318
        ],
        "postalCode": "P7E5T1",
        "streetName": "SILLS",
        "streetDirectionId": null,
        "streetTypeId": "ST",
        "placeName": "THUNDER BAY",
        "streetNameDisplayText": "SILLS ST, THUNDER BAY"
      }
    ]
  },
  {
    "postal": "P7E3B3",
    "result": [
      {
        "electoralDistricts": [
          {
            "election": null,
            "id": 105,
            "name": "Thunder Bay—Atikokan"
          }
        ],
        "pollDivisionIds": [
          10142306
        ],
        "postalCode": "P7E3B3",
        "streetName": "HOME",
        "streetDirectionId": null,
        "streetTypeId": "AVE",
        "placeName": "THUNDER BAY",
        "streetNameDisplayText": "HOME AVE, THUNDER BAY"
      }
    ]
  },
  {
    "postal": "P7E6C6",
    "result": []
  },
  {
    "postal": "P7E7N8",
    "result": []
  },
  {
    "postal": "P7E2Y3",
    "result": [
      {
        "electoralDistricts": [
          {
            "election": null,
            "id": 105,
            "name": "Thunder Bay—Atikokan"
          }
        ],
        "pollDivisionIds": [
          10142334
        ],
        "postalCode": "P7E2Y3",
        "streetName": "CENTRE",
        "streetDirectionId": null,
        "streetTypeId": "AVE",
        "placeName": "THUNDER BAY",
        "streetNameDisplayText": "CENTRE AVE, THUNDER BAY"
      }
    ]
  },
  {
    "postal": "P7E2R6",
    "result": [
      {
        "electoralDistricts": [
          {
            "election": null,
            "id": 105,
            "name": "Thunder Bay—Atikokan"
          }
        ],
        "pollDivisionIds": [
          10142324
        ],
        "postalCode": "P7E2R6",
        "streetName": "ARTHUR",
        "streetDirectionId": "E",
        "streetTypeId": "ST",
        "placeName": "THUNDER BAY",
        "streetNameDisplayText": "ARTHUR ST E, THUNDER BAY"
      }
    ]
  },
  {
    "postal": "P7E7N3",
    "result": []
  },
  {
    "postal": "P7E8J2",
    "result": []
  },
  {
    "postal": "P7E6A9",
    "result": [
      {
        "electoralDistricts": [
          {
            "election": null,
            "id": 105,
            "name": "Thunder Bay—Atikokan"
          }
        ],
        "pollDivisionIds": [
          10142309
        ],
        "postalCode": "P7E6A9",
        "streetName": "CARTIER",
        "streetDirectionId": null,
        "streetTypeId": "CRT",
        "placeName": "THUNDER BAY",
        "streetNameDisplayText": "CARTIER CRT, THUNDER BAY"
      }
    ]
  },
  {
    "postal": "P7E3V2",
    "result": [
      {
        "electoralDistricts": [
          {
            "election": null,
            "id": 105,
            "name": "Thunder Bay—Atikokan"
          }
        ],
        "pollDivisionIds": [
          10142306
        ],
        "postalCode": "P7E3V2",
        "streetName": "GORE",
        "streetDirectionId": "W",
        "streetTypeId": "ST",
        "placeName": "THUNDER BAY",
        "streetNameDisplayText": "GORE ST W, THUNDER BAY"
      }
    ]
  },
  {
    "postal": "P7E2N3",
    "result": [
      {
        "electoralDistricts": [
          {
            "election": null,
            "id": 105,
            "name": "Thunder Bay—Atikokan"
          }
        ],
        "pollDivisionIds": [
          10142309
        ],
        "postalCode": "P7E2N3",
        "streetName": "LELAND",
        "streetDirectionId": "S",
        "streetTypeId": "AVE",
        "placeName": "THUNDER BAY",
        "streetNameDisplayText": "LELAND AVE S, THUNDER BAY"
      }
    ]
  },
  {
    "postal": "P7E1S5",
    "result": [
      {
        "electoralDistricts": [
          {
            "election": null,
            "id": 105,
            "name": "Thunder Bay—Atikokan"
          }
        ],
        "pollDivisionIds": [
          10142324
        ],
        "postalCode": "P7E1S5",
        "streetName": "SELKIRK",
        "streetDirectionId": "S",
        "streetTypeId": "ST",
        "placeName": "THUNDER BAY",
        "streetNameDisplayText": "SELKIRK ST S, THUNDER BAY"
      }
    ]
  },
  {
    "postal": "P7E4T7",
    "result": [
      {
        "electoralDistricts": [
          {
            "election": null,
            "id": 105,
            "name": "Thunder Bay—Atikokan"
          }
        ],
        "pollDivisionIds": [
          10142318
        ],
        "postalCode": "P7E4T7",
        "streetName": "CAROLINE",
        "streetDirectionId": null,
        "streetTypeId": "ST",
        "placeName": "THUNDER BAY",
        "streetNameDisplayText": "CAROLINE ST, THUNDER BAY"
      }
    ]
  },
  {
    "postal": "P7E6Y7",
    "result": []
  },
  {
    "postal": "P7E0W7",
    "result": []
  },
  {
    "postal": "P7E2W9",
    "result": [
      {
        "electoralDistricts": [
          {
            "election": null,
            "id": 105,
            "name": "Thunder Bay—Atikokan"
          }
        ],
        "pollDivisionIds": [
          10142334
        ],
        "postalCode": "P7E2W9",
        "streetName": "EUCLID",
        "streetDirectionId": null,
        "streetTypeId": "AVE",
        "placeName": "THUNDER BAY",
        "streetNameDisplayText": "EUCLID AVE, THUNDER BAY"
      }
    ]
  },
  {
    "postal": "P7E8V0",
    "result": []
  },
  {
    "postal": "P7E0H4",
    "result": []
  },
  {
    "postal": "P7E2T1",
    "result": [
      {
        "electoralDistricts": [
          {
            "election": null,
            "id": 105,
            "name": "Thunder Bay—Atikokan"
          }
        ],
        "pollDivisionIds": [
          10142307
        ],
        "postalCode": "P7E2T1",
        "streetName": "THISTLE",
        "streetDirectionId": null,
        "streetTypeId": "CRES",
        "placeName": "THUNDER BAY",
        "streetNameDisplayText": "THISTLE CRES, THUNDER BAY"
      }
    ]
  },
  {
    "postal": "P7E1B1",
    "result": []
  },
  {
    "postal": "P7E8B6",
    "result": []
  },
  {
    "postal": "P7E6H1",
    "result": [
      {
        "electoralDistricts": [
          {
            "election": null,
            "id": 105,
            "name": "Thunder Bay—Atikokan"
          }
        ],
        "pollDivisionIds": [
          10142324
        ],
        "postalCode": "P7E6H1",
        "streetName": "ARTHUR",
        "streetDirectionId": "E",
        "streetTypeId": "ST",
        "placeName": "THUNDER BAY",
        "streetNameDisplayText": "ARTHUR ST E, THUNDER BAY"
      }
    ]
  },
  {
    "postal": "P7E8T8",
    "result": []
  },
  {
    "postal": "P7E0T4",
    "result": []
  },
  {
    "postal": "P7E2C4",
    "result": [
      {
        "electoralDistricts": [
          {
            "election": null,
            "id": 105,
            "name": "Thunder Bay—Atikokan"
          }
        ],
        "pollDivisionIds": [
          10142318
        ],
        "postalCode": "P7E2C4",
        "streetName": "WATERLOO",
        "streetDirectionId": "S",
        "streetTypeId": "ST",
        "placeName": "THUNDER BAY",
        "streetNameDisplayText": "WATERLOO ST S, THUNDER BAY"
      }
    ]
  },
  {
    "postal": "P7E8N3",
    "result": []
  },
  {
    "postal": "P7E4L8",
    "result": [
      {
        "electoralDistricts": [
          {
            "election": null,
            "id": 105,
            "name": "Thunder Bay—Atikokan"
          }
        ],
        "pollDivisionIds": [
          10142334
        ],
        "postalCode": "P7E4L8",
        "streetName": "MARY",
        "streetDirectionId": "W",
        "streetTypeId": "ST",
        "placeName": "THUNDER BAY",
        "streetNameDisplayText": "MARY ST W, THUNDER BAY"
      }
    ]
  },
  {
    "postal": "P7E2B5",
    "result": [
      {
        "electoralDistricts": [
          {
            "election": null,
            "id": 105,
            "name": "Thunder Bay—Atikokan"
          }
        ],
        "pollDivisionIds": [
          10142315
        ],
        "postalCode": "P7E2B5",
        "streetName": "FORD",
        "streetDirectionId": null,
        "streetTypeId": "ST",
        "placeName": "THUNDER BAY",
        "streetNameDisplayText": "FORD ST, THUNDER BAY"
      }
    ]
  },
  {
    "postal": "P7E3H1",
    "result": [
      {
        "electoralDistricts": [
          {
            "election": null,
            "id": 105,
            "name": "Thunder Bay—Atikokan"
          }
        ],
        "pollDivisionIds": [
          10142306
        ],
        "postalCode": "P7E3H1",
        "streetName": "STANLEY",
        "streetDirectionId": null,
        "streetTypeId": "AVE",
        "placeName": "THUNDER BAY",
        "streetNameDisplayText": "STANLEY AVE, THUNDER BAY"
      }
    ]
  },
  {
    "postal": "P7E4Y1",
    "result": [
      {
        "electoralDistricts": [
          {
            "election": null,
            "id": 105,
            "name": "Thunder Bay—Atikokan"
          }
        ],
        "pollDivisionIds": [
          10142323
        ],
        "postalCode": "P7E4Y1",
        "streetName": "HAMILTON",
        "streetDirectionId": null,
        "streetTypeId": "AVE",
        "placeName": "THUNDER BAY",
        "streetNameDisplayText": "HAMILTON AVE, THUNDER BAY"
      }
    ]
  },
  {
    "postal": "P7E7E2",
    "result": []
  },
  {
    "postal": "P7E2P5",
    "result": [
      {
        "electoralDistricts": [
          {
            "election": null,
            "id": 105,
            "name": "Thunder Bay—Atikokan"
          }
        ],
        "pollDivisionIds": [
          10142318
        ],
        "postalCode": "P7E2P5",
        "streetName": "LELAND",
        "streetDirectionId": "S",
        "streetTypeId": "AVE",
        "placeName": "THUNDER BAY",
        "streetNameDisplayText": "LELAND AVE S, THUNDER BAY"
      }
    ]
  },
  {
    "postal": "P7E8R7",
    "result": []
  },
  {
    "postal": "P7E9P1",
    "result": []
  },
  {
    "postal": "P7E3B8",
    "result": [
      {
        "electoralDistricts": [
          {
            "election": null,
            "id": 105,
            "name": "Thunder Bay—Atikokan"
          }
        ],
        "pollDivisionIds": [
          10142306
        ],
        "postalCode": "P7E3B8",
        "streetName": "HOME",
        "streetDirectionId": null,
        "streetTypeId": "AVE",
        "placeName": "THUNDER BAY",
        "streetNameDisplayText": "HOME AVE, THUNDER BAY"
      }
    ]
  },
  {
    "postal": "P7E3P7",
    "result": [
      {
        "electoralDistricts": [
          {
            "election": null,
            "id": 105,
            "name": "Thunder Bay—Atikokan"
          }
        ],
        "pollDivisionIds": [
          10142334
        ],
        "postalCode": "P7E3P7",
        "streetName": "KINGSTON",
        "streetDirectionId": null,
        "streetTypeId": "ST",
        "placeName": "THUNDER BAY",
        "streetNameDisplayText": "KINGSTON ST, THUNDER BAY"
      }
    ]
  },
  {
    "postal": "P7E9B2",
    "result": []
  },
  {
    "postal": "P7E6Z3",
    "result": []
  },
  {
    "postal": "P7E4N5",
    "result": [
      {
        "electoralDistricts": [
          {
            "election": null,
            "id": 105,
            "name": "Thunder Bay—Atikokan"
          }
        ],
        "pollDivisionIds": [
          10142315
        ],
        "postalCode": "P7E4N5",
        "streetName": "CHRISTINA",
        "streetDirectionId": "E",
        "streetTypeId": "ST",
        "placeName": "THUNDER BAY",
        "streetNameDisplayText": "CHRISTINA ST E, THUNDER BAY"
      }
    ]
  },
  {
    "postal": "P7E8T3",
    "result": []
  },
  {
    "postal": "P7E1V2",
    "result": [
      {
        "electoralDistricts": [
          {
            "election": null,
            "id": 105,
            "name": "Thunder Bay—Atikokan"
          }
        ],
        "pollDivisionIds": [
          10142325
        ],
        "postalCode": "P7E1V2",
        "streetName": "SELKIRK",
        "streetDirectionId": "S",
        "streetTypeId": "ST",
        "placeName": "THUNDER BAY",
        "streetNameDisplayText": "SELKIRK ST S, THUNDER BAY"
      }
    ]
  },
  {
    "postal": "P7E1Y0",
    "result": []
  },
  {
    "postal": "P7E3G6",
    "result": [
      {
        "electoralDistricts": [
          {
            "election": null,
            "id": 105,
            "name": "Thunder Bay—Atikokan"
          }
        ],
        "pollDivisionIds": [
          10142306
        ],
        "postalCode": "P7E3G6",
        "streetName": "NIPIGON",
        "streetDirectionId": null,
        "streetTypeId": "AVE",
        "placeName": "THUNDER BAY",
        "streetNameDisplayText": "NIPIGON AVE, THUNDER BAY"
      }
    ]
  },
  {
    "postal": "P7E3H7",
    "result": [
      {
        "electoralDistricts": [
          {
            "election": null,
            "id": 105,
            "name": "Thunder Bay—Atikokan"
          }
        ],
        "pollDivisionIds": [
          10142306
        ],
        "postalCode": "P7E3H7",
        "streetName": "GEORGINA",
        "streetDirectionId": null,
        "streetTypeId": "BAY",
        "placeName": "THUNDER BAY",
        "streetNameDisplayText": "GEORGINA BAY, THUNDER BAY"
      }
    ]
  },
  {
    "postal": "P7E7X8",
    "result": []
  },
  {
    "postal": "P7E0C7",
    "result": []
  },
  {
    "postal": "P7E0W9",
    "result": []
  },
  {
    "postal": "P7E8E6",
    "result": []
  },
  {
    "postal": "P7E9Z8",
    "result": []
  },
  {
    "postal": "P7E3P4",
    "result": [
      {
        "electoralDistricts": [
          {
            "election": null,
            "id": 105,
            "name": "Thunder Bay—Atikokan"
          }
        ],
        "pollDivisionIds": [
          10142334
        ],
        "postalCode": "P7E3P4",
        "streetName": "STAPLETON",
        "streetDirectionId": null,
        "streetTypeId": "ST",
        "placeName": "THUNDER BAY",
        "streetNameDisplayText": "STAPLETON ST, THUNDER BAY"
      }
    ]
  },
  {
    "postal": "P7E6L8",
    "result": [
      {
        "electoralDistricts": [
          {
            "election": null,
            "id": 105,
            "name": "Thunder Bay—Atikokan"
          }
        ],
        "pollDivisionIds": [
          10142307
        ],
        "postalCode": "P7E6L8",
        "streetName": "OTTAWA",
        "streetDirectionId": null,
        "streetTypeId": "ST",
        "placeName": "THUNDER BAY",
        "streetNameDisplayText": "OTTAWA ST, THUNDER BAY"
      }
    ]
  },
  {
    "postal": "P7E2R4",
    "result": [
      {
        "electoralDistricts": [
          {
            "election": null,
            "id": 105,
            "name": "Thunder Bay—Atikokan"
          }
        ],
        "pollDivisionIds": [
          10142307
        ],
        "postalCode": "P7E2R4",
        "streetName": "ROSEWOOD",
        "streetDirectionId": null,
        "streetTypeId": "CRES",
        "placeName": "THUNDER BAY",
        "streetNameDisplayText": "ROSEWOOD CRES, THUNDER BAY"
      }
    ]
  },
  {
    "postal": "P7E2W1",
    "result": [
      {
        "electoralDistricts": [
          {
            "election": null,
            "id": 105,
            "name": "Thunder Bay—Atikokan"
          }
        ],
        "pollDivisionIds": [
          10142307
        ],
        "postalCode": "P7E2W1",
        "streetName": "EUCLID",
        "streetDirectionId": null,
        "streetTypeId": "AVE",
        "placeName": "THUNDER BAY",
        "streetNameDisplayText": "EUCLID AVE, THUNDER BAY"
      }
    ]
  },
  {
    "postal": "P7E9H8",
    "result": []
  },
  {
    "postal": "P7E8X9",
    "result": []
  },
  {
    "postal": "P7E7H4",
    "result": []
  },
  {
    "postal": "P7E3J1",
    "result": [
      {
        "electoralDistricts": [
          {
            "election": null,
            "id": 105,
            "name": "Thunder Bay—Atikokan"
          }
        ],
        "pollDivisionIds": [
          10142306
        ],
        "postalCode": "P7E3J1",
        "streetName": "GEORGINA",
        "streetDirectionId": null,
        "streetTypeId": "AVE",
        "placeName": "THUNDER BAY",
        "streetNameDisplayText": "GEORGINA AVE, THUNDER BAY"
      }
    ]
  },
  {
    "postal": "P7E1P4",
    "result": [
      {
        "electoralDistricts": [
          {
            "election": null,
            "id": 105,
            "name": "Thunder Bay—Atikokan"
          }
        ],
        "pollDivisionIds": [
          10142327
        ],
        "postalCode": "P7E1P4",
        "streetName": "NORAH",
        "streetDirectionId": "S",
        "streetTypeId": "CRES",
        "placeName": "THUNDER BAY",
        "streetNameDisplayText": "NORAH CRES S, THUNDER BAY"
      },
      {
        "electoralDistricts": [
          {
            "election": null,
            "id": 105,
            "name": "Thunder Bay—Atikokan"
          }
        ],
        "pollDivisionIds": [
          10142328
        ],
        "postalCode": "P7E1P4",
        "streetName": "NORAH",
        "streetDirectionId": "S",
        "streetTypeId": "ST",
        "placeName": "THUNDER BAY",
        "streetNameDisplayText": "NORAH ST S, THUNDER BAY"
      }
    ]
  },
  {
    "postal": "P7E2A3",
    "result": [
      {
        "electoralDistricts": [
          {
            "election": null,
            "id": 105,
            "name": "Thunder Bay—Atikokan"
          }
        ],
        "pollDivisionIds": [
          10142318
        ],
        "postalCode": "P7E2A3",
        "streetName": "LILLIE",
        "streetDirectionId": "S",
        "streetTypeId": "ST",
        "placeName": "THUNDER BAY",
        "streetNameDisplayText": "LILLIE ST S, THUNDER BAY"
      }
    ]
  },
  {
    "postal": "P7E0Z1",
    "result": []
  },
  {
    "postal": "P7E1C1",
    "result": [
      {
        "electoralDistricts": [
          {
            "election": null,
            "id": 105,
            "name": "Thunder Bay—Atikokan"
          }
        ],
        "pollDivisionIds": [
          10142330
        ],
        "postalCode": "P7E1C1",
        "streetName": "BRODIE",
        "streetDirectionId": "S",
        "streetTypeId": "ST",
        "placeName": "THUNDER BAY",
        "streetNameDisplayText": "BRODIE ST S, THUNDER BAY"
      }
    ]
  },
  {
    "postal": "P7E0H3",
    "result": []
  },
  {
    "postal": "P7E7B0",
    "result": []
  },
  {
    "postal": "P7E5K2",
    "result": [
      {
        "electoralDistricts": [
          {
            "election": null,
            "id": 105,
            "name": "Thunder Bay—Atikokan"
          }
        ],
        "pollDivisionIds": [
          10142318
        ],
        "postalCode": "P7E5K2",
        "streetName": "RIDGEWAY",
        "streetDirectionId": "E",
        "streetTypeId": "ST",
        "placeName": "THUNDER BAY",
        "streetNameDisplayText": "RIDGEWAY ST E, THUNDER BAY"
      }
    ]
  },
  {
    "postal": "P7E1E9",
    "result": [
      {
        "electoralDistricts": [
          {
            "election": null,
            "id": 105,
            "name": "Thunder Bay—Atikokan"
          }
        ],
        "pollDivisionIds": [
          10142325
        ],
        "postalCode": "P7E1E9",
        "streetName": "SYNDICATE",
        "streetDirectionId": "S",
        "streetTypeId": "AVE",
        "placeName": "THUNDER BAY",
        "streetNameDisplayText": "SYNDICATE AVE S, THUNDER BAY"
      }
    ]
  },
  {
    "postal": "P7E9W7",
    "result": []
  },
  {
    "postal": "P7E5W6",
    "result": [
      {
        "electoralDistricts": [
          {
            "election": null,
            "id": 105,
            "name": "Thunder Bay—Atikokan"
          }
        ],
        "pollDivisionIds": [
          10142324
        ],
        "postalCode": "P7E5W6",
        "streetName": "DONALD",
        "streetDirectionId": "E",
        "streetTypeId": "ST",
        "placeName": "THUNDER BAY",
        "streetNameDisplayText": "DONALD ST E, THUNDER BAY"
      }
    ]
  },
  {
    "postal": "P7E6S6",
    "result": [
      {
        "electoralDistricts": [
          {
            "election": null,
            "id": 105,
            "name": "Thunder Bay—Atikokan"
          }
        ],
        "pollDivisionIds": [
          10142334
        ],
        "postalCode": "P7E6S6",
        "streetName": "MOUNTDALE",
        "streetDirectionId": null,
        "streetTypeId": "AVE",
        "placeName": "THUNDER BAY",
        "streetNameDisplayText": "MOUNTDALE AVE, THUNDER BAY"
      }
    ]
  },
  {
    "postal": "P7E2P8",
    "result": [
      {
        "electoralDistricts": [
          {
            "election": null,
            "id": 105,
            "name": "Thunder Bay—Atikokan"
          }
        ],
        "pollDivisionIds": [
          10142309
        ],
        "postalCode": "P7E2P8",
        "streetName": "HEATH",
        "streetDirectionId": null,
        "streetTypeId": "ST",
        "placeName": "THUNDER BAY",
        "streetNameDisplayText": "HEATH ST, THUNDER BAY"
      }
    ]
  },
  {
    "postal": "P7E4P8",
    "result": [
      {
        "electoralDistricts": [
          {
            "election": null,
            "id": 105,
            "name": "Thunder Bay—Atikokan"
          }
        ],
        "pollDivisionIds": [
          10142334
        ],
        "postalCode": "P7E4P8",
        "streetName": "CHRISTINA",
        "streetDirectionId": "W",
        "streetTypeId": "ST",
        "placeName": "THUNDER BAY",
        "streetNameDisplayText": "CHRISTINA ST W, THUNDER BAY"
      }
    ]
  },
  {
    "postal": "P7E0V9",
    "result": []
  },
  {
    "postal": "P7E5Y2",
    "result": [
      {
        "electoralDistricts": [
          {
            "election": null,
            "id": 105,
            "name": "Thunder Bay—Atikokan"
          }
        ],
        "pollDivisionIds": [
          10142309
        ],
        "postalCode": "P7E5Y2",
        "streetName": "DONALD",
        "streetDirectionId": "W",
        "streetTypeId": "ST",
        "placeName": "THUNDER BAY",
        "streetNameDisplayText": "DONALD ST W, THUNDER BAY"
      }
    ]
  },
  {
    "postal": "P7E7Z7",
    "result": []
  },
  {
    "postal": "P7E6Y8",
    "result": []
  },
  {
    "postal": "P7E2G7",
    "result": [
      {
        "electoralDistricts": [
          {
            "election": null,
            "id": 105,
            "name": "Thunder Bay—Atikokan"
          }
        ],
        "pollDivisionIds": [
          10142316
        ],
        "postalCode": "P7E2G7",
        "streetName": "EDWARD",
        "streetDirectionId": "S",
        "streetTypeId": "ST",
        "placeName": "THUNDER BAY",
        "streetNameDisplayText": "EDWARD ST S, THUNDER BAY"
      }
    ]
  },
  {
    "postal": "P7E8C1",
    "result": []
  },
  {
    "postal": "P7E5C5",
    "result": [
      {
        "electoralDistricts": [
          {
            "election": null,
            "id": 105,
            "name": "Thunder Bay—Atikokan"
          }
        ],
        "pollDivisionIds": [
          10142318
        ],
        "postalCode": "P7E5C5",
        "streetName": "ISABELLA",
        "streetDirectionId": "E",
        "streetTypeId": "ST",
        "placeName": "THUNDER BAY",
        "streetNameDisplayText": "ISABELLA ST E, THUNDER BAY"
      }
    ]
  },
  {
    "postal": "P7E2X8",
    "result": [
      {
        "electoralDistricts": [
          {
            "election": null,
            "id": 105,
            "name": "Thunder Bay—Atikokan"
          }
        ],
        "pollDivisionIds": [
          10142334
        ],
        "postalCode": "P7E2X8",
        "streetName": "CENTRE",
        "streetDirectionId": null,
        "streetTypeId": "AVE",
        "placeName": "THUNDER BAY",
        "streetNameDisplayText": "CENTRE AVE, THUNDER BAY"
      }
    ]
  },
  {
    "postal": "P7E1W5",
    "result": [
      {
        "electoralDistricts": [
          {
            "election": null,
            "id": 105,
            "name": "Thunder Bay—Atikokan"
          }
        ],
        "pollDivisionIds": [
          10142325
        ],
        "postalCode": "P7E1W5",
        "streetName": "SPRAGUE",
        "streetDirectionId": null,
        "streetTypeId": "ST",
        "placeName": "THUNDER BAY",
        "streetNameDisplayText": "SPRAGUE ST, THUNDER BAY"
      }
    ]
  },
  {
    "postal": "P7E7G0",
    "result": []
  },
  {
    "postal": "P7E8J8",
    "result": []
  },
  {
    "postal": "P7E3Y0",
    "result": []
  },
  {
    "postal": "P7E9T7",
    "result": []
  },
  {
    "postal": "P7E5P4",
    "result": [
      {
        "electoralDistricts": [
          {
            "election": null,
            "id": 105,
            "name": "Thunder Bay—Atikokan"
          }
        ],
        "pollDivisionIds": [
          10142314,
          10142297
        ],
        "postalCode": "P7E5P4",
        "streetName": "ARTHUR",
        "streetDirectionId": "E",
        "streetTypeId": "ST",
        "placeName": "THUNDER BAY",
        "streetNameDisplayText": "ARTHUR ST E, THUNDER BAY"
      },
      {
        "electoralDistricts": [
          {
            "election": null,
            "id": 105,
            "name": "Thunder Bay—Atikokan"
          }
        ],
        "pollDivisionIds": [
          10142297
        ],
        "postalCode": "P7E5P4",
        "streetName": "ARTHUR",
        "streetDirectionId": "W",
        "streetTypeId": "ST",
        "placeName": "THUNDER BAY",
        "streetNameDisplayText": "ARTHUR ST W, THUNDER BAY"
      }
    ]
  },
  {
    "postal": "P7E4B0",
    "result": []
  },
  {
    "postal": "P7E9N8",
    "result": []
  },
  {
    "postal": "P7E4A7",
    "result": [
      {
        "electoralDistricts": [
          {
            "election": null,
            "id": 105,
            "name": "Thunder Bay—Atikokan"
          }
        ],
        "pollDivisionIds": [
          10142334
        ],
        "postalCode": "P7E4A7",
        "streetName": "AMELIA",
        "streetDirectionId": "W",
        "streetTypeId": "ST",
        "placeName": "THUNDER BAY",
        "streetNameDisplayText": "AMELIA ST W, THUNDER BAY"
      }
    ]
  },
  {
    "postal": "P7E4H9",
    "result": [
      {
        "electoralDistricts": [
          {
            "election": null,
            "id": 105,
            "name": "Thunder Bay—Atikokan"
          }
        ],
        "pollDivisionIds": [
          10142315
        ],
        "postalCode": "P7E4H9",
        "streetName": "BROCK",
        "streetDirectionId": "W",
        "streetTypeId": "ST",
        "placeName": "THUNDER BAY",
        "streetNameDisplayText": "BROCK ST W, THUNDER BAY"
      }
    ]
  },
  {
    "postal": "P7E6X1",
    "result": []
  },
  {
    "postal": "P7E9Y7",
    "result": []
  },
  {
    "postal": "P7E2Y5",
    "result": [
      {
        "electoralDistricts": [
          {
            "election": null,
            "id": 105,
            "name": "Thunder Bay—Atikokan"
          }
        ],
        "pollDivisionIds": [
          10142334
        ],
        "postalCode": "P7E2Y5",
        "streetName": "BROADMORE",
        "streetDirectionId": null,
        "streetTypeId": "AVE",
        "placeName": "THUNDER BAY",
        "streetNameDisplayText": "BROADMORE AVE, THUNDER BAY"
      }
    ]
  },
  {
    "postal": "P7E8L7",
    "result": []
  },
  {
    "postal": "P7E2A8",
    "result": [
      {
        "electoralDistricts": [
          {
            "election": null,
            "id": 105,
            "name": "Thunder Bay—Atikokan"
          }
        ],
        "pollDivisionIds": [
          10142323
        ],
        "postalCode": "P7E2A8",
        "streetName": "KINGSWAY",
        "streetDirectionId": null,
        "streetTypeId": null,
        "placeName": "THUNDER BAY",
        "streetNameDisplayText": "KINGSWAY, THUNDER BAY"
      }
    ]
  },
  {
    "postal": "P7E2K9",
    "result": [
      {
        "electoralDistricts": [
          {
            "election": null,
            "id": 105,
            "name": "Thunder Bay—Atikokan"
          }
        ],
        "pollDivisionIds": [
          10142318
        ],
        "postalCode": "P7E2K9",
        "streetName": "BROWN",
        "streetDirectionId": null,
        "streetTypeId": "ST",
        "placeName": "THUNDER BAY",
        "streetNameDisplayText": "BROWN ST, THUNDER BAY"
      }
    ]
  },
  {
    "postal": "P7E3E5",
    "result": []
  },
  {
    "postal": "P7E8N6",
    "result": []
  },
  {
    "postal": "P7E8J4",
    "result": []
  },
  {
    "postal": "P7E4R7",
    "result": [
      {
        "electoralDistricts": [
          {
            "election": null,
            "id": 105,
            "name": "Thunder Bay—Atikokan"
          }
        ],
        "pollDivisionIds": [
          10142320
        ],
        "postalCode": "P7E4R7",
        "streetName": "EMPIRE",
        "streetDirectionId": null,
        "streetTypeId": "AVE",
        "placeName": "THUNDER BAY",
        "streetNameDisplayText": "EMPIRE AVE, THUNDER BAY"
      }
    ]
  },
  {
    "postal": "P7E9K1",
    "result": []
  },
  {
    "postal": "P7E8E1",
    "result": []
  },
  {
    "postal": "P7E0R1",
    "result": []
  },
  {
    "postal": "P7E4J3",
    "result": [
      {
        "electoralDistricts": [
          {
            "election": null,
            "id": 105,
            "name": "Thunder Bay—Atikokan"
          }
        ],
        "pollDivisionIds": [
          10142310
        ],
        "postalCode": "P7E4J3",
        "streetName": "BROCK",
        "streetDirectionId": "W",
        "streetTypeId": "ST",
        "placeName": "THUNDER BAY",
        "streetNameDisplayText": "BROCK ST W, THUNDER BAY"
      }
    ]
  },
  {
    "postal": "P7E7E7",
    "result": []
  },
  {
    "postal": "P7E0J0",
    "result": []
  },
  {
    "postal": "P7E7R8",
    "result": []
  },
  {
    "postal": "P7E9X0",
    "result": []
  },
  {
    "postal": "P7E7P6",
    "result": []
  },
  {
    "postal": "P7E0R7",
    "result": []
  },
  {
    "postal": "P7E5W1",
    "result": [
      {
        "electoralDistricts": [
          {
            "election": null,
            "id": 105,
            "name": "Thunder Bay—Atikokan"
          }
        ],
        "pollDivisionIds": [
          10142326
        ],
        "postalCode": "P7E5W1",
        "streetName": "DONALD",
        "streetDirectionId": "E",
        "streetTypeId": "ST",
        "placeName": "THUNDER BAY",
        "streetNameDisplayText": "DONALD ST E, THUNDER BAY"
      }
    ]
  },
  {
    "postal": "P7E0K4",
    "result": []
  },
  {
    "postal": "P7E7N9",
    "result": []
  },
  {
    "postal": "P7E1N0",
    "result": []
  },
  {
    "postal": "P7E6P3",
    "result": [
      {
        "electoralDistricts": [
          {
            "election": null,
            "id": 105,
            "name": "Thunder Bay—Atikokan"
          }
        ],
        "pollDivisionIds": [
          10142306
        ],
        "postalCode": "P7E6P3",
        "streetName": "FREDERICA",
        "streetDirectionId": "W",
        "streetTypeId": "ST",
        "placeName": "THUNDER BAY",
        "streetNameDisplayText": "FREDERICA ST W, THUNDER BAY"
      }
    ]
  },
  {
    "postal": "P7E5A1",
    "result": [
      {
        "electoralDistricts": [
          {
            "election": null,
            "id": 105,
            "name": "Thunder Bay—Atikokan"
          }
        ],
        "pollDivisionIds": [
          10142318
        ],
        "postalCode": "P7E5A1",
        "streetName": "MOODIE",
        "streetDirectionId": "E",
        "streetTypeId": "ST",
        "placeName": "THUNDER BAY",
        "streetNameDisplayText": "MOODIE ST E, THUNDER BAY"
      }
    ]
  },
  {
    "postal": "P7E9M9",
    "result": []
  },
  {
    "postal": "P7E7T6",
    "result": []
  },
  {
    "postal": "P7E3X0",
    "result": []
  },
  {
    "postal": "P7E2T0",
    "result": []
  },
  {
    "postal": "P7E5X9",
    "result": [
      {
        "electoralDistricts": [
          {
            "election": null,
            "id": 105,
            "name": "Thunder Bay—Atikokan"
          }
        ],
        "pollDivisionIds": [
          10142316
        ],
        "postalCode": "P7E5X9",
        "streetName": "DONALD",
        "streetDirectionId": "W",
        "streetTypeId": "ST",
        "placeName": "THUNDER BAY",
        "streetNameDisplayText": "DONALD ST W, THUNDER BAY"
      }
    ]
  },
  {
    "postal": "P7E2R3",
    "result": [
      {
        "electoralDistricts": [
          {
            "election": null,
            "id": 105,
            "name": "Thunder Bay—Atikokan"
          }
        ],
        "pollDivisionIds": [
          10142310
        ],
        "postalCode": "P7E2R3",
        "streetName": "HEATH",
        "streetDirectionId": null,
        "streetTypeId": "ST",
        "placeName": "THUNDER BAY",
        "streetNameDisplayText": "HEATH ST, THUNDER BAY"
      }
    ]
  },
  {
    "postal": "P7E5N2",
    "result": [
      {
        "electoralDistricts": [
          {
            "election": null,
            "id": 105,
            "name": "Thunder Bay—Atikokan"
          }
        ],
        "pollDivisionIds": [
          10142328
        ],
        "postalCode": "P7E5N2",
        "streetName": "ARTHUR",
        "streetDirectionId": "E",
        "streetTypeId": "ST",
        "placeName": "THUNDER BAY",
        "streetNameDisplayText": "ARTHUR ST E, THUNDER BAY"
      }
    ]
  },
  {
    "postal": "P7E4Y7",
    "result": [
      {
        "electoralDistricts": [
          {
            "election": null,
            "id": 105,
            "name": "Thunder Bay—Atikokan"
          }
        ],
        "pollDivisionIds": [
          10142318
        ],
        "postalCode": "P7E4Y7",
        "streetName": "HENRY",
        "streetDirectionId": null,
        "streetTypeId": "ST",
        "placeName": "THUNDER BAY",
        "streetNameDisplayText": "HENRY ST, THUNDER BAY"
      }
    ]
  },
  {
    "postal": "P7E7M0",
    "result": []
  },
  {
    "postal": "P7E8P3",
    "result": []
  },
  {
    "postal": "P7E3N3",
    "result": [
      {
        "electoralDistricts": [
          {
            "election": null,
            "id": 105,
            "name": "Thunder Bay—Atikokan"
          }
        ],
        "pollDivisionIds": [
          10142307
        ],
        "postalCode": "P7E3N3",
        "streetName": "CENTURY",
        "streetDirectionId": null,
        "streetTypeId": "CRT",
        "placeName": "THUNDER BAY",
        "streetNameDisplayText": "CENTURY CRT, THUNDER BAY"
      }
    ]
  },
  {
    "postal": "P7E7S3",
    "result": []
  },
  {
    "postal": "P7E3V9",
    "result": [
      {
        "electoralDistricts": [
          {
            "election": null,
            "id": 105,
            "name": "Thunder Bay—Atikokan"
          }
        ],
        "pollDivisionIds": [
          10142334
        ],
        "postalCode": "P7E3V9",
        "streetName": "GORE",
        "streetDirectionId": "W",
        "streetTypeId": "ST",
        "placeName": "THUNDER BAY",
        "streetNameDisplayText": "GORE ST W, THUNDER BAY"
      }
    ]
  },
  {
    "postal": "P7E9N7",
    "result": []
  },
  {
    "postal": "P7E0G4",
    "result": []
  },
  {
    "postal": "P7E2E2",
    "result": [
      {
        "electoralDistricts": [
          {
            "election": null,
            "id": 105,
            "name": "Thunder Bay—Atikokan"
          }
        ],
        "pollDivisionIds": [
          10142318
        ],
        "postalCode": "P7E2E2",
        "streetName": "RUSKIN",
        "streetDirectionId": null,
        "streetTypeId": "CRES",
        "placeName": "THUNDER BAY",
        "streetNameDisplayText": "RUSKIN CRES, THUNDER BAY"
      }
    ]
  },
  {
    "postal": "P7E7W8",
    "result": []
  },
  {
    "postal": "P7E7M5",
    "result": []
  },
  {
    "postal": "P7E5W8",
    "result": [
      {
        "electoralDistricts": [
          {
            "election": null,
            "id": 105,
            "name": "Thunder Bay—Atikokan"
          }
        ],
        "pollDivisionIds": [
          10142318
        ],
        "postalCode": "P7E5W8",
        "streetName": "DONALD",
        "streetDirectionId": "E",
        "streetTypeId": "ST",
        "placeName": "THUNDER BAY",
        "streetNameDisplayText": "DONALD ST E, THUNDER BAY"
      }
    ]
  },
  {
    "postal": "P7E5E5",
    "result": [
      {
        "electoralDistricts": [
          {
            "election": null,
            "id": 105,
            "name": "Thunder Bay—Atikokan"
          }
        ],
        "pollDivisionIds": [
          10142307
        ],
        "postalCode": "P7E5E5",
        "streetName": "ISABELLA",
        "streetDirectionId": "W",
        "streetTypeId": "ST",
        "placeName": "THUNDER BAY",
        "streetNameDisplayText": "ISABELLA ST W, THUNDER BAY"
      },
      {
        "electoralDistricts": [
          {
            "election": null,
            "id": 105,
            "name": "Thunder Bay—Atikokan"
          }
        ],
        "pollDivisionIds": [
          10142307
        ],
        "postalCode": "P7E5E5",
        "streetName": "LELAND",
        "streetDirectionId": "S",
        "streetTypeId": "AVE",
        "placeName": "THUNDER BAY",
        "streetNameDisplayText": "LELAND AVE S, THUNDER BAY"
      }
    ]
  },
  {
    "postal": "P7E1P9",
    "result": [
      {
        "electoralDistricts": [
          {
            "election": null,
            "id": 105,
            "name": "Thunder Bay—Atikokan"
          }
        ],
        "pollDivisionIds": [
          10142324
        ],
        "postalCode": "P7E1P9",
        "streetName": "FRANKLIN",
        "streetDirectionId": "S",
        "streetTypeId": "ST",
        "placeName": "THUNDER BAY",
        "streetNameDisplayText": "FRANKLIN ST S, THUNDER BAY"
      }
    ]
  },
  {
    "postal": "P7E8V8",
    "result": []
  },
  {
    "postal": "P7E9G8",
    "result": []
  },
  {
    "postal": "P7E8H9",
    "result": []
  },
  {
    "postal": "P7E1Z1",
    "result": [
      {
        "electoralDistricts": [
          {
            "election": null,
            "id": 105,
            "name": "Thunder Bay—Atikokan"
          }
        ],
        "pollDivisionIds": [
          10142323
        ],
        "postalCode": "P7E1Z1",
        "streetName": "TARBUTT",
        "streetDirectionId": null,
        "streetTypeId": "ST",
        "placeName": "THUNDER BAY",
        "streetNameDisplayText": "TARBUTT ST, THUNDER BAY"
      }
    ]
  },
  {
    "postal": "P7E8M3",
    "result": []
  },
  {
    "postal": "P7E5H6",
    "result": [
      {
        "electoralDistricts": [
          {
            "election": null,
            "id": 105,
            "name": "Thunder Bay—Atikokan"
          }
        ],
        "pollDivisionIds": [
          10142328
        ],
        "postalCode": "P7E5H6",
        "streetName": "RIDGEWAY",
        "streetDirectionId": "E",
        "streetTypeId": "ST",
        "placeName": "THUNDER BAY",
        "streetNameDisplayText": "RIDGEWAY ST E, THUNDER BAY"
      }
    ]
  },
  {
    "postal": "P7E7W7",
    "result": []
  },
  {
    "postal": "P7E4L0",
    "result": []
  },
  {
    "postal": "P7E2N1",
    "result": [
      {
        "electoralDistricts": [
          {
            "election": null,
            "id": 105,
            "name": "Thunder Bay—Atikokan"
          }
        ],
        "pollDivisionIds": [
          10142313
        ],
        "postalCode": "P7E2N1",
        "streetName": "OAKDALE",
        "streetDirectionId": null,
        "streetTypeId": "CRES",
        "placeName": "THUNDER BAY",
        "streetNameDisplayText": "OAKDALE CRES, THUNDER BAY"
      }
    ]
  },
  {
    "postal": "P7E2H4",
    "result": [
      {
        "electoralDistricts": [
          {
            "election": null,
            "id": 105,
            "name": "Thunder Bay—Atikokan"
          }
        ],
        "pollDivisionIds": [
          10142318
        ],
        "postalCode": "P7E2H4",
        "streetName": "EDWARD",
        "streetDirectionId": "S",
        "streetTypeId": "ST",
        "placeName": "THUNDER BAY",
        "streetNameDisplayText": "EDWARD ST S, THUNDER BAY"
      }
    ]
  },
  {
    "postal": "P7E5C8",
    "result": [
      {
        "electoralDistricts": [
          {
            "election": null,
            "id": 105,
            "name": "Thunder Bay—Atikokan"
          }
        ],
        "pollDivisionIds": [
          10142318
        ],
        "postalCode": "P7E5C8",
        "streetName": "ISABELLA",
        "streetDirectionId": "E",
        "streetTypeId": "ST",
        "placeName": "THUNDER BAY",
        "streetNameDisplayText": "ISABELLA ST E, THUNDER BAY"
      }
    ]
  },
  {
    "postal": "P7E8B0",
    "result": []
  },
  {
    "postal": "P7E1T4",
    "result": [
      {
        "electoralDistricts": [
          {
            "election": null,
            "id": 105,
            "name": "Thunder Bay—Atikokan"
          }
        ],
        "pollDivisionIds": [
          10142323
        ],
        "postalCode": "P7E1T4",
        "streetName": "SELKIRK",
        "streetDirectionId": "S",
        "streetTypeId": "ST",
        "placeName": "THUNDER BAY",
        "streetNameDisplayText": "SELKIRK ST S, THUNDER BAY"
      }
    ]
  },
  {
    "postal": "P7E7N7",
    "result": []
  },
  {
    "postal": "P7E4L3",
    "result": [
      {
        "electoralDistricts": [
          {
            "election": null,
            "id": 105,
            "name": "Thunder Bay—Atikokan"
          }
        ],
        "pollDivisionIds": [
          10142334
        ],
        "postalCode": "P7E4L3",
        "streetName": "MARY",
        "streetDirectionId": "W",
        "streetTypeId": "ST",
        "placeName": "THUNDER BAY",
        "streetNameDisplayText": "MARY ST W, THUNDER BAY"
      }
    ]
  },
  {
    "postal": "P7E2N2",
    "result": [
      {
        "electoralDistricts": [
          {
            "election": null,
            "id": 105,
            "name": "Thunder Bay—Atikokan"
          }
        ],
        "pollDivisionIds": [
          10142313
        ],
        "postalCode": "P7E2N2",
        "streetName": "OAKDALE",
        "streetDirectionId": null,
        "streetTypeId": "CRES",
        "placeName": "THUNDER BAY",
        "streetNameDisplayText": "OAKDALE CRES, THUNDER BAY"
      }
    ]
  },
  {
    "postal": "P7E4N8",
    "result": [
      {
        "electoralDistricts": [
          {
            "election": null,
            "id": 105,
            "name": "Thunder Bay—Atikokan"
          }
        ],
        "pollDivisionIds": [
          10142320
        ],
        "postalCode": "P7E4N8",
        "streetName": "CHRISTINA",
        "streetDirectionId": "E",
        "streetTypeId": "ST",
        "placeName": "THUNDER BAY",
        "streetNameDisplayText": "CHRISTINA ST E, THUNDER BAY"
      }
    ]
  },
  {
    "postal": "P7E3M5",
    "result": [
      {
        "electoralDistricts": [
          {
            "election": null,
            "id": 105,
            "name": "Thunder Bay—Atikokan"
          }
        ],
        "pollDivisionIds": [
          10142309
        ],
        "postalCode": "P7E3M5",
        "streetName": "AVONDALE",
        "streetDirectionId": null,
        "streetTypeId": "PL",
        "placeName": "THUNDER BAY",
        "streetNameDisplayText": "AVONDALE PL, THUNDER BAY"
      }
    ]
  },
  {
    "postal": "P7E6H7",
    "result": []
  },
  {
    "postal": "P7E8Y8",
    "result": []
  },
  {
    "postal": "P7E5R9",
    "result": [
      {
        "electoralDistricts": [
          {
            "election": null,
            "id": 105,
            "name": "Thunder Bay—Atikokan"
          }
        ],
        "pollDivisionIds": [
          10142307
        ],
        "postalCode": "P7E5R9",
        "streetName": "ARTHUR",
        "streetDirectionId": "W",
        "streetTypeId": "ST",
        "placeName": "THUNDER BAY",
        "streetNameDisplayText": "ARTHUR ST W, THUNDER BAY"
      }
    ]
  },
  {
    "postal": "P7E8G3",
    "result": []
  },
  {
    "postal": "P7E4N7",
    "result": [
      {
        "electoralDistricts": [
          {
            "election": null,
            "id": 105,
            "name": "Thunder Bay—Atikokan"
          }
        ],
        "pollDivisionIds": [
          10142315
        ],
        "postalCode": "P7E4N7",
        "streetName": "CHRISTINA",
        "streetDirectionId": "E",
        "streetTypeId": "ST",
        "placeName": "THUNDER BAY",
        "streetNameDisplayText": "CHRISTINA ST E, THUNDER BAY"
      }
    ]
  },
  {
    "postal": "P7E0B9",
    "result": []
  },
  {
    "postal": "P7E9K7",
    "result": []
  },
  {
    "postal": "P7E9K9",
    "result": []
  },
  {
    "postal": "P7E3Z2",
    "result": [
      {
        "electoralDistricts": [
          {
            "election": null,
            "id": 105,
            "name": "Thunder Bay—Atikokan"
          }
        ],
        "pollDivisionIds": [
          10142306
        ],
        "postalCode": "P7E3Z2",
        "streetName": "FREDERICA",
        "streetDirectionId": "W",
        "streetTypeId": "ST",
        "placeName": "THUNDER BAY",
        "streetNameDisplayText": "FREDERICA ST W, THUNDER BAY"
      }
    ]
  },
  {
    "postal": "P7E6W7",
    "result": []
  },
  {
    "postal": "P7E0P1",
    "result": []
  },
  {
    "postal": "P7E3A0",
    "result": []
  },
  {
    "postal": "P7E8L9",
    "result": []
  },
  {
    "postal": "P7E6X0",
    "result": []
  },
  {
    "postal": "P7E3E9",
    "result": [
      {
        "electoralDistricts": [
          {
            "election": null,
            "id": 105,
            "name": "Thunder Bay—Atikokan"
          }
        ],
        "pollDivisionIds": [
          10142306
        ],
        "postalCode": "P7E3E9",
        "streetName": "NIPIGON",
        "streetDirectionId": null,
        "streetTypeId": "AVE",
        "placeName": "THUNDER BAY",
        "streetNameDisplayText": "NIPIGON AVE, THUNDER BAY"
      }
    ]
  },
  {
    "postal": "P7E0S5",
    "result": []
  },
  {
    "postal": "P7E1A2",
    "result": [
      {
        "electoralDistricts": [
          {
            "election": null,
            "id": 105,
            "name": "Thunder Bay—Atikokan"
          }
        ],
        "pollDivisionIds": [
          10142328
        ],
        "postalCode": "P7E1A2",
        "streetName": "HARDISTY",
        "streetDirectionId": "S",
        "streetTypeId": "ST",
        "placeName": "THUNDER BAY",
        "streetNameDisplayText": "HARDISTY ST S, THUNDER BAY"
      }
    ]
  },
  {
    "postal": "P7E5V8",
    "result": [
      {
        "electoralDistricts": [
          {
            "election": null,
            "id": 105,
            "name": "Thunder Bay—Atikokan"
          }
        ],
        "pollDivisionIds": [
          10142326
        ],
        "postalCode": "P7E5V8",
        "streetName": "DONALD",
        "streetDirectionId": "E",
        "streetTypeId": "ST",
        "placeName": "THUNDER BAY",
        "streetNameDisplayText": "DONALD ST E, THUNDER BAY"
      }
    ]
  },
  {
    "postal": "P7E8C5",
    "result": []
  },
  {
    "postal": "P7E6N0",
    "result": []
  },
  {
    "postal": "P7E9E6",
    "result": []
  },
  {
    "postal": "P7E5J7",
    "result": [
      {
        "electoralDistricts": [
          {
            "election": null,
            "id": 105,
            "name": "Thunder Bay—Atikokan"
          }
        ],
        "pollDivisionIds": [
          10142323
        ],
        "postalCode": "P7E5J7",
        "streetName": "RIDGEWAY",
        "streetDirectionId": "E",
        "streetTypeId": "ST",
        "placeName": "THUNDER BAY",
        "streetNameDisplayText": "RIDGEWAY ST E, THUNDER BAY"
      }
    ]
  },
  {
    "postal": "P7E2R2",
    "result": [
      {
        "electoralDistricts": [
          {
            "election": null,
            "id": 105,
            "name": "Thunder Bay—Atikokan"
          }
        ],
        "pollDivisionIds": [
          10142310
        ],
        "postalCode": "P7E2R2",
        "streetName": "HEATH",
        "streetDirectionId": null,
        "streetTypeId": "ST",
        "placeName": "THUNDER BAY",
        "streetNameDisplayText": "HEATH ST, THUNDER BAY"
      }
    ]
  },
  {
    "postal": "P7E0P5",
    "result": []
  },
  {
    "postal": "P7E5A7",
    "result": [
      {
        "electoralDistricts": [
          {
            "election": null,
            "id": 105,
            "name": "Thunder Bay—Atikokan"
          }
        ],
        "pollDivisionIds": [
          10142323
        ],
        "postalCode": "P7E5A7",
        "streetName": "MURRAY",
        "streetDirectionId": null,
        "streetTypeId": "AVE",
        "placeName": "THUNDER BAY",
        "streetNameDisplayText": "MURRAY AVE, THUNDER BAY"
      }
    ]
  },
  {
    "postal": "P7E1G1",
    "result": [
      {
        "electoralDistricts": [
          {
            "election": null,
            "id": 105,
            "name": "Thunder Bay—Atikokan"
          }
        ],
        "pollDivisionIds": [
          10142325
        ],
        "postalCode": "P7E1G1",
        "streetName": "SYNDICATE",
        "streetDirectionId": "S",
        "streetTypeId": "AVE",
        "placeName": "THUNDER BAY",
        "streetNameDisplayText": "SYNDICATE AVE S, THUNDER BAY"
      }
    ]
  },
  {
    "postal": "P7E9R6",
    "result": []
  },
  {
    "postal": "P7E4Z9",
    "result": [
      {
        "electoralDistricts": [
          {
            "election": null,
            "id": 105,
            "name": "Thunder Bay—Atikokan"
          }
        ],
        "pollDivisionIds": [
          10142318
        ],
        "postalCode": "P7E4Z9",
        "streetName": "MOODIE",
        "streetDirectionId": "E",
        "streetTypeId": "ST",
        "placeName": "THUNDER BAY",
        "streetNameDisplayText": "MOODIE ST E, THUNDER BAY"
      }
    ]
  },
  {
    "postal": "P7E1V5",
    "result": [
      {
        "electoralDistricts": [
          {
            "election": null,
            "id": 105,
            "name": "Thunder Bay—Atikokan"
          }
        ],
        "pollDivisionIds": [
          10142325
        ],
        "postalCode": "P7E1V5",
        "streetName": "SPRAGUE",
        "streetDirectionId": null,
        "streetTypeId": "ST",
        "placeName": "THUNDER BAY",
        "streetNameDisplayText": "SPRAGUE ST, THUNDER BAY"
      }
    ]
  },
  {
    "postal": "P7E9Y5",
    "result": []
  },
  {
    "postal": "P7E1P2",
    "result": [
      {
        "electoralDistricts": [
          {
            "election": null,
            "id": 105,
            "name": "Thunder Bay—Atikokan"
          }
        ],
        "pollDivisionIds": [
          10142328
        ],
        "postalCode": "P7E1P2",
        "streetName": "NORAH",
        "streetDirectionId": "S",
        "streetTypeId": "ST",
        "placeName": "THUNDER BAY",
        "streetNameDisplayText": "NORAH ST S, THUNDER BAY"
      }
    ]
  },
  {
    "postal": "P7E5X0",
    "result": []
  },
  {
    "postal": "P7E7B8",
    "result": []
  },
  {
    "postal": "P7E0C6",
    "result": []
  },
  {
    "postal": "P7E6G1",
    "result": [
      {
        "electoralDistricts": [
          {
            "election": null,
            "id": 105,
            "name": "Thunder Bay—Atikokan"
          }
        ],
        "pollDivisionIds": [
          10142315
        ],
        "postalCode": "P7E6G1",
        "streetName": "HEATH",
        "streetDirectionId": null,
        "streetTypeId": "CRT",
        "placeName": "THUNDER BAY",
        "streetNameDisplayText": "HEATH CRT, THUNDER BAY"
      }
    ]
  },
  {
    "postal": "P7E3K3",
    "result": [
      {
        "electoralDistricts": [
          {
            "election": null,
            "id": 105,
            "name": "Thunder Bay—Atikokan"
          }
        ],
        "pollDivisionIds": [
          10142306
        ],
        "postalCode": "P7E3K3",
        "streetName": "ALPINE",
        "streetDirectionId": null,
        "streetTypeId": "PL",
        "placeName": "THUNDER BAY",
        "streetNameDisplayText": "ALPINE PL, THUNDER BAY"
      }
    ]
  },
  {
    "postal": "P7E9R0",
    "result": []
  },
  {
    "postal": "P7E4R8",
    "result": [
      {
        "electoralDistricts": [
          {
            "election": null,
            "id": 105,
            "name": "Thunder Bay—Atikokan"
          }
        ],
        "pollDivisionIds": [
          10142325
        ],
        "postalCode": "P7E4R8",
        "streetName": "EMPIRE",
        "streetDirectionId": "E",
        "streetTypeId": "AVE",
        "placeName": "THUNDER BAY",
        "streetNameDisplayText": "EMPIRE AVE E, THUNDER BAY"
      },
      {
        "electoralDistricts": [
          {
            "election": null,
            "id": 105,
            "name": "Thunder Bay—Atikokan"
          }
        ],
        "pollDivisionIds": [
          10142325
        ],
        "postalCode": "P7E4R8",
        "streetName": "EMPIRE",
        "streetDirectionId": null,
        "streetTypeId": "AVE",
        "placeName": "THUNDER BAY",
        "streetNameDisplayText": "EMPIRE AVE, THUNDER BAY"
      }
    ]
  },
  {
    "postal": "P7E5P9",
    "result": []
  },
  {
    "postal": "P7E8N4",
    "result": []
  },
  {
    "postal": "P7E8H4",
    "result": []
  },
  {
    "postal": "P7E4V1",
    "result": [
      {
        "electoralDistricts": [
          {
            "election": null,
            "id": 105,
            "name": "Thunder Bay—Atikokan"
          }
        ],
        "pollDivisionIds": [
          10142325
        ],
        "postalCode": "P7E4V1",
        "streetName": "WALSH",
        "streetDirectionId": "E",
        "streetTypeId": "ST",
        "placeName": "THUNDER BAY",
        "streetNameDisplayText": "WALSH ST E, THUNDER BAY"
      }
    ]
  },
  {
    "postal": "P7E1K5",
    "result": [
      {
        "electoralDistricts": [
          {
            "election": null,
            "id": 105,
            "name": "Thunder Bay—Atikokan"
          }
        ],
        "pollDivisionIds": [
          10142326
        ],
        "postalCode": "P7E1K5",
        "streetName": "HAROLD",
        "streetDirectionId": "S",
        "streetTypeId": "ST",
        "placeName": "THUNDER BAY",
        "streetNameDisplayText": "HAROLD ST S, THUNDER BAY"
      }
    ]
  },
  {
    "postal": "P7E1Z5",
    "result": [
      {
        "electoralDistricts": [
          {
            "election": null,
            "id": 105,
            "name": "Thunder Bay—Atikokan"
          }
        ],
        "pollDivisionIds": [
          10142325
        ],
        "postalCode": "P7E1Z5",
        "streetName": "TARBUTT",
        "streetDirectionId": null,
        "streetTypeId": "ST",
        "placeName": "THUNDER BAY",
        "streetNameDisplayText": "TARBUTT ST, THUNDER BAY"
      }
    ]
  },
  {
    "postal": "P7E9L9",
    "result": []
  },
  {
    "postal": "P7E5L2",
    "result": [
      {
        "electoralDistricts": [
          {
            "election": null,
            "id": 105,
            "name": "Thunder Bay—Atikokan"
          }
        ],
        "pollDivisionIds": [
          10142323
        ],
        "postalCode": "P7E5L2",
        "streetName": "CUTHBERTSON",
        "streetDirectionId": null,
        "streetTypeId": "PL",
        "placeName": "THUNDER BAY",
        "streetNameDisplayText": "CUTHBERTSON PL, THUNDER BAY"
      }
    ]
  },
  {
    "postal": "P7E0M2",
    "result": []
  },
  {
    "postal": "P7E1K8",
    "result": [
      {
        "electoralDistricts": [
          {
            "election": null,
            "id": 105,
            "name": "Thunder Bay—Atikokan"
          }
        ],
        "pollDivisionIds": [
          10142328
        ],
        "postalCode": "P7E1K8",
        "streetName": "CATHERINE",
        "streetDirectionId": null,
        "streetTypeId": "ST",
        "placeName": "THUNDER BAY",
        "streetNameDisplayText": "CATHERINE ST, THUNDER BAY"
      }
    ]
  },
  {
    "postal": "P7E3M7",
    "result": [
      {
        "electoralDistricts": [
          {
            "election": null,
            "id": 105,
            "name": "Thunder Bay—Atikokan"
          }
        ],
        "pollDivisionIds": [
          10142309
        ],
        "postalCode": "P7E3M7",
        "streetName": "ASHDALE",
        "streetDirectionId": null,
        "streetTypeId": "PL",
        "placeName": "THUNDER BAY",
        "streetNameDisplayText": "ASHDALE PL, THUNDER BAY"
      }
    ]
  },
  {
    "postal": "P7E1B2",
    "result": []
  },
  {
    "postal": "P7E0H9",
    "result": []
  },
  {
    "postal": "P7E8M4",
    "result": []
  },
  {
    "postal": "P7E2M5",
    "result": [
      {
        "electoralDistricts": [
          {
            "election": null,
            "id": 105,
            "name": "Thunder Bay—Atikokan"
          }
        ],
        "pollDivisionIds": [
          10142310
        ],
        "postalCode": "P7E2M5",
        "streetName": "BROWN",
        "streetDirectionId": null,
        "streetTypeId": "ST",
        "placeName": "THUNDER BAY",
        "streetNameDisplayText": "BROWN ST, THUNDER BAY"
      }
    ]
  },
  {
    "postal": "P7E0T9",
    "result": []
  },
  {
    "postal": "P7E3P1",
    "result": [
      {
        "electoralDistricts": [
          {
            "election": null,
            "id": 105,
            "name": "Thunder Bay—Atikokan"
          }
        ],
        "pollDivisionIds": [
          10142334
        ],
        "postalCode": "P7E3P1",
        "streetName": "MONTREAL",
        "streetDirectionId": null,
        "streetTypeId": "ST",
        "placeName": "THUNDER BAY",
        "streetNameDisplayText": "MONTREAL ST, THUNDER BAY"
      }
    ]
  },
  {
    "postal": "P7E1R6",
    "result": [
      {
        "electoralDistricts": [
          {
            "election": null,
            "id": 105,
            "name": "Thunder Bay—Atikokan"
          }
        ],
        "pollDivisionIds": [
          10142323,
          10142340
        ],
        "postalCode": "P7E1R6",
        "streetName": "FRANKLIN",
        "streetDirectionId": "S",
        "streetTypeId": "ST",
        "placeName": "THUNDER BAY",
        "streetNameDisplayText": "FRANKLIN ST S, THUNDER BAY"
      }
    ]
  },
  {
    "postal": "P7E9V5",
    "result": []
  },
  {
    "postal": "P7E9T0",
    "result": []
  },
  {
    "postal": "P7E0A9",
    "result": []
  },
  {
    "postal": "P7E1M3",
    "result": [
      {
        "electoralDistricts": [
          {
            "election": null,
            "id": 105,
            "name": "Thunder Bay—Atikokan"
          }
        ],
        "pollDivisionIds": [
          10142328
        ],
        "postalCode": "P7E1M3",
        "streetName": "MARKS",
        "streetDirectionId": "S",
        "streetTypeId": "ST",
        "placeName": "THUNDER BAY",
        "streetNameDisplayText": "MARKS ST S, THUNDER BAY"
      }
    ]
  },
  {
    "postal": "P7E1W8",
    "result": [
      {
        "electoralDistricts": [
          {
            "election": null,
            "id": 105,
            "name": "Thunder Bay—Atikokan"
          }
        ],
        "pollDivisionIds": [
          10142325
        ],
        "postalCode": "P7E1W8",
        "streetName": "ERNESTINE",
        "streetDirectionId": null,
        "streetTypeId": "AVE",
        "placeName": "THUNDER BAY",
        "streetNameDisplayText": "ERNESTINE AVE, THUNDER BAY"
      }
    ]
  },
  {
    "postal": "P7E9J1",
    "result": []
  },
  {
    "postal": "P7E8N5",
    "result": []
  },
  {
    "postal": "P7E5X1",
    "result": [
      {
        "electoralDistricts": [
          {
            "election": null,
            "id": 105,
            "name": "Thunder Bay—Atikokan"
          }
        ],
        "pollDivisionIds": [
          10142318
        ],
        "postalCode": "P7E5X1",
        "streetName": "DONALD",
        "streetDirectionId": "E",
        "streetTypeId": "ST",
        "placeName": "THUNDER BAY",
        "streetNameDisplayText": "DONALD ST E, THUNDER BAY"
      }
    ]
  },
  {
    "postal": "P7E6S2",
    "result": []
  },
  {
    "postal": "P7E2A2",
    "result": [
      {
        "electoralDistricts": [
          {
            "election": null,
            "id": 105,
            "name": "Thunder Bay—Atikokan"
          }
        ],
        "pollDivisionIds": [
          10142320
        ],
        "postalCode": "P7E2A2",
        "streetName": "KELLY",
        "streetDirectionId": null,
        "streetTypeId": "ST",
        "placeName": "THUNDER BAY",
        "streetNameDisplayText": "KELLY ST, THUNDER BAY"
      }
    ]
  },
  {
    "postal": "P7E6A6",
    "result": [
      {
        "electoralDistricts": [
          {
            "election": null,
            "id": 105,
            "name": "Thunder Bay—Atikokan"
          }
        ],
        "pollDivisionIds": [
          10142316
        ],
        "postalCode": "P7E6A6",
        "streetName": "ELMWOOD",
        "streetDirectionId": null,
        "streetTypeId": "CRES",
        "placeName": "THUNDER BAY",
        "streetNameDisplayText": "ELMWOOD CRES, THUNDER BAY"
      }
    ]
  },
  {
    "postal": "P7E0S3",
    "result": []
  },
  {
    "postal": "P7E3E7",
    "result": [
      {
        "electoralDistricts": [
          {
            "election": null,
            "id": 105,
            "name": "Thunder Bay—Atikokan"
          }
        ],
        "pollDivisionIds": [
          10142334
        ],
        "postalCode": "P7E3E7",
        "streetName": "CENTRE",
        "streetDirectionId": null,
        "streetTypeId": "AVE",
        "placeName": "THUNDER BAY",
        "streetNameDisplayText": "CENTRE AVE, THUNDER BAY"
      },
      {
        "electoralDistricts": [
          {
            "election": null,
            "id": 105,
            "name": "Thunder Bay—Atikokan"
          }
        ],
        "pollDivisionIds": [
          10142334
        ],
        "postalCode": "P7E3E7",
        "streetName": "CRAWFORD",
        "streetDirectionId": null,
        "streetTypeId": "AVE",
        "placeName": "THUNDER BAY",
        "streetNameDisplayText": "CRAWFORD AVE, THUNDER BAY"
      }
    ]
  },
  {
    "postal": "P7E5R7",
    "result": [
      {
        "electoralDistricts": [
          {
            "election": null,
            "id": 105,
            "name": "Thunder Bay—Atikokan"
          }
        ],
        "pollDivisionIds": [
          10142307
        ],
        "postalCode": "P7E5R7",
        "streetName": "ARTHUR",
        "streetDirectionId": "W",
        "streetTypeId": "ST",
        "placeName": "THUNDER BAY",
        "streetNameDisplayText": "ARTHUR ST W, THUNDER BAY"
      }
    ]
  },
  {
    "postal": "P7E3R6",
    "result": [
      {
        "electoralDistricts": [
          {
            "election": null,
            "id": 105,
            "name": "Thunder Bay—Atikokan"
          }
        ],
        "pollDivisionIds": [
          10142334
        ],
        "postalCode": "P7E3R6",
        "streetName": "GORE",
        "streetDirectionId": "W",
        "streetTypeId": "ST",
        "placeName": "THUNDER BAY",
        "streetNameDisplayText": "GORE ST W, THUNDER BAY"
      }
    ]
  },
  {
    "postal": "P7E6K4",
    "result": [
      {
        "electoralDistricts": [
          {
            "election": null,
            "id": 105,
            "name": "Thunder Bay—Atikokan"
          }
        ],
        "pollDivisionIds": [
          10142302
        ],
        "postalCode": "P7E6K4",
        "streetName": "CHILTON",
        "streetDirectionId": null,
        "streetTypeId": "AVE",
        "placeName": "THUNDER BAY",
        "streetNameDisplayText": "CHILTON AVE, THUNDER BAY"
      },
      {
        "electoralDistricts": [
          {
            "election": null,
            "id": 105,
            "name": "Thunder Bay—Atikokan"
          }
        ],
        "pollDivisionIds": [
          10142302
        ],
        "postalCode": "P7E6K4",
        "streetName": "KITCHENER",
        "streetDirectionId": null,
        "streetTypeId": "AVE",
        "placeName": "THUNDER BAY",
        "streetNameDisplayText": "KITCHENER AVE, THUNDER BAY"
      },
      {
        "electoralDistricts": [
          {
            "election": null,
            "id": 105,
            "name": "Thunder Bay—Atikokan"
          }
        ],
        "pollDivisionIds": [
          10142302
        ],
        "postalCode": "P7E6K4",
        "streetName": "KITCHENER",
        "streetDirectionId": null,
        "streetTypeId": "ST",
        "placeName": "THUNDER BAY",
        "streetNameDisplayText": "KITCHENER ST, THUNDER BAY"
      },
      {
        "electoralDistricts": [
          {
            "election": null,
            "id": 105,
            "name": "Thunder Bay—Atikokan"
          }
        ],
        "pollDivisionIds": [
          10142302
        ],
        "postalCode": "P7E6K4",
        "streetName": "NEEBING",
        "streetDirectionId": null,
        "streetTypeId": "AVE",
        "placeName": "THUNDER BAY",
        "streetNameDisplayText": "NEEBING AVE, THUNDER BAY"
      },
      {
        "electoralDistricts": [
          {
            "election": null,
            "id": 105,
            "name": "Thunder Bay—Atikokan"
          }
        ],
        "pollDivisionIds": [
          10142302,
          10142307
        ],
        "postalCode": "P7E6K4",
        "streetName": "SIFTON",
        "streetDirectionId": null,
        "streetTypeId": "AVE",
        "placeName": "THUNDER BAY",
        "streetNameDisplayText": "SIFTON AVE, THUNDER BAY"
      },
      {
        "electoralDistricts": [
          {
            "election": null,
            "id": 105,
            "name": "Thunder Bay—Atikokan"
          }
        ],
        "pollDivisionIds": [
          10142302
        ],
        "postalCode": "P7E6K4",
        "streetName": "TORONTO",
        "streetDirectionId": null,
        "streetTypeId": "ST",
        "placeName": "THUNDER BAY",
        "streetNameDisplayText": "TORONTO ST, THUNDER BAY"
      },
      {
        "electoralDistricts": [
          {
            "election": null,
            "id": 105,
            "name": "Thunder Bay—Atikokan"
          }
        ],
        "pollDivisionIds": [
          10142302
        ],
        "postalCode": "P7E6K4",
        "streetName": "WILLARD",
        "streetDirectionId": null,
        "streetTypeId": "AVE",
        "placeName": "THUNDER BAY",
        "streetNameDisplayText": "WILLARD AVE, THUNDER BAY"
      },
      {
        "electoralDistricts": [
          {
            "election": null,
            "id": 105,
            "name": "Thunder Bay—Atikokan"
          }
        ],
        "pollDivisionIds": [
          10142302
        ],
        "postalCode": "P7E6K4",
        "streetName": "WILROY",
        "streetDirectionId": null,
        "streetTypeId": "AVE",
        "placeName": "THUNDER BAY",
        "streetNameDisplayText": "WILROY AVE, THUNDER BAY"
      }
    ]
  },
  {
    "postal": "P7E2W5",
    "result": [
      {
        "electoralDistricts": [
          {
            "election": null,
            "id": 105,
            "name": "Thunder Bay—Atikokan"
          }
        ],
        "pollDivisionIds": [
          10142334
        ],
        "postalCode": "P7E2W5",
        "streetName": "EUCLID",
        "streetDirectionId": null,
        "streetTypeId": "AVE",
        "placeName": "THUNDER BAY",
        "streetNameDisplayText": "EUCLID AVE, THUNDER BAY"
      }
    ]
  },
  {
    "postal": "P7E8W4",
    "result": []
  },
  {
    "postal": "P7E9C2",
    "result": []
  },
  {
    "postal": "P7E2C0",
    "result": []
  },
  {
    "postal": "P7E0E1",
    "result": []
  },
  {
    "postal": "P7E1K9",
    "result": [
      {
        "electoralDistricts": [
          {
            "election": null,
            "id": 105,
            "name": "Thunder Bay—Atikokan"
          }
        ],
        "pollDivisionIds": [
          10142328
        ],
        "postalCode": "P7E1K9",
        "streetName": "CATHERINE",
        "streetDirectionId": null,
        "streetTypeId": "ST",
        "placeName": "THUNDER BAY",
        "streetNameDisplayText": "CATHERINE ST, THUNDER BAY"
      }
    ]
  },
  {
    "postal": "P7E1G7",
    "result": [
      {
        "electoralDistricts": [
          {
            "election": null,
            "id": 105,
            "name": "Thunder Bay—Atikokan"
          }
        ],
        "pollDivisionIds": [
          10142328
        ],
        "postalCode": "P7E1G7",
        "streetName": "ARCHIBALD",
        "streetDirectionId": "S",
        "streetTypeId": "ST",
        "placeName": "THUNDER BAY",
        "streetNameDisplayText": "ARCHIBALD ST S, THUNDER BAY"
      }
    ]
  },
  {
    "postal": "P7E4E9",
    "result": [
      {
        "electoralDistricts": [
          {
            "election": null,
            "id": 105,
            "name": "Thunder Bay—Atikokan"
          }
        ],
        "pollDivisionIds": [
          10142306
        ],
        "postalCode": "P7E4E9",
        "streetName": "FRANCIS",
        "streetDirectionId": "W",
        "streetTypeId": "ST",
        "placeName": "THUNDER BAY",
        "streetNameDisplayText": "FRANCIS ST W, THUNDER BAY"
      }
    ]
  },
  {
    "postal": "P7E9P0",
    "result": []
  },
  {
    "postal": "P7E5H3",
    "result": [
      {
        "electoralDistricts": [
          {
            "election": null,
            "id": 105,
            "name": "Thunder Bay—Atikokan"
          }
        ],
        "pollDivisionIds": [
          10142328
        ],
        "postalCode": "P7E5H3",
        "streetName": "RIDGEWAY",
        "streetDirectionId": "E",
        "streetTypeId": "ST",
        "placeName": "THUNDER BAY",
        "streetNameDisplayText": "RIDGEWAY ST E, THUNDER BAY"
      }
    ]
  },
  {
    "postal": "P7E9X6",
    "result": []
  },
  {
    "postal": "P7E5N7",
    "result": []
  },
  {
    "postal": "P7E5A6",
    "result": [
      {
        "electoralDistricts": [
          {
            "election": null,
            "id": 105,
            "name": "Thunder Bay—Atikokan"
          }
        ],
        "pollDivisionIds": [
          10142323
        ],
        "postalCode": "P7E5A6",
        "streetName": "MURRAY",
        "streetDirectionId": null,
        "streetTypeId": "AVE",
        "placeName": "THUNDER BAY",
        "streetNameDisplayText": "MURRAY AVE, THUNDER BAY"
      }
    ]
  },
  {
    "postal": "P7E4M0",
    "result": []
  },
  {
    "postal": "P7E3V6",
    "result": [
      {
        "electoralDistricts": [
          {
            "election": null,
            "id": 105,
            "name": "Thunder Bay—Atikokan"
          }
        ],
        "pollDivisionIds": [
          10142315
        ],
        "postalCode": "P7E3V6",
        "streetName": "FREDERICA",
        "streetDirectionId": "E",
        "streetTypeId": "ST",
        "placeName": "THUNDER BAY",
        "streetNameDisplayText": "FREDERICA ST E, THUNDER BAY"
      }
    ]
  },
  {
    "postal": "P7E1L7",
    "result": [
      {
        "electoralDistricts": [
          {
            "election": null,
            "id": 105,
            "name": "Thunder Bay—Atikokan"
          }
        ],
        "pollDivisionIds": [
          10142329
        ],
        "postalCode": "P7E1L7",
        "streetName": "MARKS",
        "streetDirectionId": "N",
        "streetTypeId": "ST",
        "placeName": "THUNDER BAY",
        "streetNameDisplayText": "MARKS ST N, THUNDER BAY"
      },
      {
        "electoralDistricts": [
          {
            "election": null,
            "id": 105,
            "name": "Thunder Bay—Atikokan"
          }
        ],
        "pollDivisionIds": [
          10142326
        ],
        "postalCode": "P7E1L7",
        "streetName": "MARKS",
        "streetDirectionId": "S",
        "streetTypeId": "ST",
        "placeName": "THUNDER BAY",
        "streetNameDisplayText": "MARKS ST S, THUNDER BAY"
      }
    ]
  },
  {
    "postal": "P7E2P9",
    "result": [
      {
        "electoralDistricts": [
          {
            "election": null,
            "id": 105,
            "name": "Thunder Bay—Atikokan"
          }
        ],
        "pollDivisionIds": [
          10142309
        ],
        "postalCode": "P7E2P9",
        "streetName": "HEATH",
        "streetDirectionId": null,
        "streetTypeId": "ST",
        "placeName": "THUNDER BAY",
        "streetNameDisplayText": "HEATH ST, THUNDER BAY"
      }
    ]
  },
  {
    "postal": "P7E5T4",
    "result": [
      {
        "electoralDistricts": [
          {
            "election": null,
            "id": 105,
            "name": "Thunder Bay—Atikokan"
          }
        ],
        "pollDivisionIds": [
          10142318
        ],
        "postalCode": "P7E5T4",
        "streetName": "SILLS",
        "streetDirectionId": null,
        "streetTypeId": "ST",
        "placeName": "THUNDER BAY",
        "streetNameDisplayText": "SILLS ST, THUNDER BAY"
      }
    ]
  },
  {
    "postal": "P7E5Z1",
    "result": [
      {
        "electoralDistricts": [
          {
            "election": null,
            "id": 105,
            "name": "Thunder Bay—Atikokan"
          }
        ],
        "pollDivisionIds": [
          10142324
        ],
        "postalCode": "P7E5Z1",
        "streetName": "RANKIN",
        "streetDirectionId": null,
        "streetTypeId": "ST",
        "placeName": "THUNDER BAY",
        "streetNameDisplayText": "RANKIN ST, THUNDER BAY"
      }
    ]
  },
  {
    "postal": "P7E2X0",
    "result": []
  },
  {
    "postal": "P7E6Z2",
    "result": []
  },
  {
    "postal": "P7E0E0",
    "result": []
  },
  {
    "postal": "P7E3Z5",
    "result": [
      {
        "electoralDistricts": [
          {
            "election": null,
            "id": 105,
            "name": "Thunder Bay—Atikokan"
          }
        ],
        "pollDivisionIds": [
          10142315
        ],
        "postalCode": "P7E3Z5",
        "streetName": "AMELIA",
        "streetDirectionId": "E",
        "streetTypeId": "ST",
        "placeName": "THUNDER BAY",
        "streetNameDisplayText": "AMELIA ST E, THUNDER BAY"
      }
    ]
  },
  {
    "postal": "P7E8H3",
    "result": []
  },
  {
    "postal": "P7E7S6",
    "result": []
  },
  {
    "postal": "P7E4C1",
    "result": [
      {
        "electoralDistricts": [
          {
            "election": null,
            "id": 105,
            "name": "Thunder Bay—Atikokan"
          }
        ],
        "pollDivisionIds": [
          10142310
        ],
        "postalCode": "P7E4C1",
        "streetName": "FRANCIS",
        "streetDirectionId": "W",
        "streetTypeId": "ST",
        "placeName": "THUNDER BAY",
        "streetNameDisplayText": "FRANCIS ST W, THUNDER BAY"
      }
    ]
  },
  {
    "postal": "P7E3K2",
    "result": [
      {
        "electoralDistricts": [
          {
            "election": null,
            "id": 105,
            "name": "Thunder Bay—Atikokan"
          }
        ],
        "pollDivisionIds": [
          10142306
        ],
        "postalCode": "P7E3K2",
        "streetName": "HOLT",
        "streetDirectionId": null,
        "streetTypeId": "PL",
        "placeName": "THUNDER BAY",
        "streetNameDisplayText": "HOLT PL, THUNDER BAY"
      }
    ]
  },
  {
    "postal": "P7E1Y5",
    "result": [
      {
        "electoralDistricts": [
          {
            "election": null,
            "id": 105,
            "name": "Thunder Bay—Atikokan"
          }
        ],
        "pollDivisionIds": [
          10142323
        ],
        "postalCode": "P7E1Y5",
        "streetName": "HYDE PARK",
        "streetDirectionId": null,
        "streetTypeId": "AVE",
        "placeName": "THUNDER BAY",
        "streetNameDisplayText": "HYDE PARK AVE, THUNDER BAY"
      }
    ]
  },
  {
    "postal": "P7E6P6",
    "result": [
      {
        "electoralDistricts": [
          {
            "election": null,
            "id": 106,
            "name": "Thunder Bay—Superior North"
          }
        ],
        "pollDivisionIds": [
          10142385
        ],
        "postalCode": "P7E6P6",
        "streetName": "BLUCHER",
        "streetDirectionId": null,
        "streetTypeId": "AVE",
        "placeName": "THUNDER BAY",
        "streetNameDisplayText": "BLUCHER AVE, THUNDER BAY"
      },
      {
        "electoralDistricts": [
          {
            "election": null,
            "id": 105,
            "name": "Thunder Bay—Atikokan"
          }
        ],
        "pollDivisionIds": [
          10142307
        ],
        "postalCode": "P7E6P6",
        "streetName": "JAMES",
        "streetDirectionId": "S",
        "streetTypeId": "ST",
        "placeName": "THUNDER BAY",
        "streetNameDisplayText": "JAMES ST S, THUNDER BAY"
      }
    ]
  },
  {
    "postal": "P7E3N9",
    "result": []
  },
  {
    "postal": "P7E3W2",
    "result": [
      {
        "electoralDistricts": [
          {
            "election": null,
            "id": 105,
            "name": "Thunder Bay—Atikokan"
          }
        ],
        "pollDivisionIds": [
          10142334
        ],
        "postalCode": "P7E3W2",
        "streetName": "FREDERICA",
        "streetDirectionId": "W",
        "streetTypeId": "ST",
        "placeName": "THUNDER BAY",
        "streetNameDisplayText": "FREDERICA ST W, THUNDER BAY"
      }
    ]
  },
  {
    "postal": "P7E6H8",
    "result": [
      {
        "electoralDistricts": [
          {
            "election": null,
            "id": 105,
            "name": "Thunder Bay—Atikokan"
          }
        ],
        "pollDivisionIds": [
          10142330
        ],
        "postalCode": "P7E6H8",
        "streetName": "SYNDICATE",
        "streetDirectionId": "S",
        "streetTypeId": "AVE",
        "placeName": "THUNDER BAY",
        "streetNameDisplayText": "SYNDICATE AVE S, THUNDER BAY"
      }
    ]
  },
  {
    "postal": "P7E9T3",
    "result": []
  },
  {
    "postal": "P7E5L9",
    "result": [
      {
        "electoralDistricts": [
          {
            "election": null,
            "id": 105,
            "name": "Thunder Bay—Atikokan"
          }
        ],
        "pollDivisionIds": [
          10142314
        ],
        "postalCode": "P7E5L9",
        "streetName": "BEGIN",
        "streetDirectionId": null,
        "streetTypeId": "PL",
        "placeName": "THUNDER BAY",
        "streetNameDisplayText": "BEGIN PL, THUNDER BAY"
      }
    ]
  },
  {
    "postal": "P7E7X7",
    "result": []
  },
  {
    "postal": "P7E3J5",
    "result": [
      {
        "electoralDistricts": [
          {
            "election": null,
            "id": 105,
            "name": "Thunder Bay—Atikokan"
          }
        ],
        "pollDivisionIds": [
          10142306
        ],
        "postalCode": "P7E3J5",
        "streetName": "GEORGINA",
        "streetDirectionId": null,
        "streetTypeId": "AVE",
        "placeName": "THUNDER BAY",
        "streetNameDisplayText": "GEORGINA AVE, THUNDER BAY"
      }
    ]
  },
  {
    "postal": "P7E4J5",
    "result": [
      {
        "electoralDistricts": [
          {
            "election": null,
            "id": 105,
            "name": "Thunder Bay—Atikokan"
          }
        ],
        "pollDivisionIds": [
          10142315
        ],
        "postalCode": "P7E4J5",
        "streetName": "MARY",
        "streetDirectionId": "E",
        "streetTypeId": "ST",
        "placeName": "THUNDER BAY",
        "streetNameDisplayText": "MARY ST E, THUNDER BAY"
      }
    ]
  },
  {
    "postal": "P7E6J2",
    "result": [
      {
        "electoralDistricts": [
          {
            "election": null,
            "id": 105,
            "name": "Thunder Bay—Atikokan"
          }
        ],
        "pollDivisionIds": [
          10142334
        ],
        "postalCode": "P7E6J2",
        "streetName": "GORE",
        "streetDirectionId": "W",
        "streetTypeId": "ST",
        "placeName": "THUNDER BAY",
        "streetNameDisplayText": "GORE ST W, THUNDER BAY"
      }
    ]
  },
  {
    "postal": "P7E5V6",
    "result": [
      {
        "electoralDistricts": [
          {
            "election": null,
            "id": 105,
            "name": "Thunder Bay—Atikokan"
          }
        ],
        "pollDivisionIds": [
          10142326
        ],
        "postalCode": "P7E5V6",
        "streetName": "DONALD",
        "streetDirectionId": "E",
        "streetTypeId": "ST",
        "placeName": "THUNDER BAY",
        "streetNameDisplayText": "DONALD ST E, THUNDER BAY"
      }
    ]
  },
  {
    "postal": "P7E3N2",
    "result": [
      {
        "electoralDistricts": [
          {
            "election": null,
            "id": 105,
            "name": "Thunder Bay—Atikokan"
          }
        ],
        "pollDivisionIds": [
          10142307
        ],
        "postalCode": "P7E3N2",
        "streetName": "CONFEDERATION",
        "streetDirectionId": null,
        "streetTypeId": "CRT",
        "placeName": "THUNDER BAY",
        "streetNameDisplayText": "CONFEDERATION CRT, THUNDER BAY"
      }
    ]
  },
  {
    "postal": "P7E3B1",
    "result": [
      {
        "electoralDistricts": [
          {
            "election": null,
            "id": 105,
            "name": "Thunder Bay—Atikokan"
          }
        ],
        "pollDivisionIds": [
          10142334
        ],
        "postalCode": "P7E3B1",
        "streetName": "MOUNTDALE",
        "streetDirectionId": null,
        "streetTypeId": "AVE",
        "placeName": "THUNDER BAY",
        "streetNameDisplayText": "MOUNTDALE AVE, THUNDER BAY"
      }
    ]
  },
  {
    "postal": "P7E8B5",
    "result": []
  },
  {
    "postal": "P7E0K1",
    "result": []
  },
  {
    "postal": "P7E7M7",
    "result": []
  },
  {
    "postal": "P7E2M2",
    "result": [
      {
        "electoralDistricts": [
          {
            "election": null,
            "id": 105,
            "name": "Thunder Bay—Atikokan"
          }
        ],
        "pollDivisionIds": [
          10142310
        ],
        "postalCode": "P7E2M2",
        "streetName": "BROWN",
        "streetDirectionId": null,
        "streetTypeId": "ST",
        "placeName": "THUNDER BAY",
        "streetNameDisplayText": "BROWN ST, THUNDER BAY"
      }
    ]
  },
  {
    "postal": "P7E9N3",
    "result": []
  },
  {
    "postal": "P7E4Y8",
    "result": [
      {
        "electoralDistricts": [
          {
            "election": null,
            "id": 105,
            "name": "Thunder Bay—Atikokan"
          }
        ],
        "pollDivisionIds": [
          10142323
        ],
        "postalCode": "P7E4Y8",
        "streetName": "MOODIE",
        "streetDirectionId": "E",
        "streetTypeId": "ST",
        "placeName": "THUNDER BAY",
        "streetNameDisplayText": "MOODIE ST E, THUNDER BAY"
      }
    ]
  },
  {
    "postal": "P7E3V7",
    "result": [
      {
        "electoralDistricts": [
          {
            "election": null,
            "id": 105,
            "name": "Thunder Bay—Atikokan"
          }
        ],
        "pollDivisionIds": [
          10142334
        ],
        "postalCode": "P7E3V7",
        "streetName": "FREDERICA",
        "streetDirectionId": "W",
        "streetTypeId": "ST",
        "placeName": "THUNDER BAY",
        "streetNameDisplayText": "FREDERICA ST W, THUNDER BAY"
      }
    ]
  },
  {
    "postal": "P7E8Z1",
    "result": []
  },
  {
    "postal": "P7E7B3",
    "result": []
  },
  {
    "postal": "P7E3A8",
    "result": [
      {
        "electoralDistricts": [
          {
            "election": null,
            "id": 105,
            "name": "Thunder Bay—Atikokan"
          }
        ],
        "pollDivisionIds": [
          10142334
        ],
        "postalCode": "P7E3A8",
        "streetName": "MOUNTDALE",
        "streetDirectionId": null,
        "streetTypeId": "AVE",
        "placeName": "THUNDER BAY",
        "streetNameDisplayText": "MOUNTDALE AVE, THUNDER BAY"
      }
    ]
  },
  {
    "postal": "P7E7V5",
    "result": []
  },
  {
    "postal": "P7E2T2",
    "result": [
      {
        "electoralDistricts": [
          {
            "election": null,
            "id": 105,
            "name": "Thunder Bay—Atikokan"
          }
        ],
        "pollDivisionIds": [
          10142315
        ],
        "postalCode": "P7E2T2",
        "streetName": "HOLLY",
        "streetDirectionId": null,
        "streetTypeId": "CRES",
        "placeName": "THUNDER BAY",
        "streetNameDisplayText": "HOLLY CRES, THUNDER BAY"
      }
    ]
  },
  {
    "postal": "P7E6L3",
    "result": [
      {
        "electoralDistricts": [
          {
            "election": null,
            "id": 105,
            "name": "Thunder Bay—Atikokan"
          }
        ],
        "pollDivisionIds": [
          10142307
        ],
        "postalCode": "P7E6L3",
        "streetName": "ARTHUR",
        "streetDirectionId": "W",
        "streetTypeId": "ST",
        "placeName": "THUNDER BAY",
        "streetNameDisplayText": "ARTHUR ST W, THUNDER BAY"
      }
    ]
  },
  {
    "postal": "P7E0L2",
    "result": []
  },
  {
    "postal": "P7E5Y8",
    "result": [
      {
        "electoralDistricts": [
          {
            "election": null,
            "id": 105,
            "name": "Thunder Bay—Atikokan"
          }
        ],
        "pollDivisionIds": [
          10142330
        ],
        "postalCode": "P7E5Y8",
        "streetName": "GEORGE",
        "streetDirectionId": null,
        "streetTypeId": "ST",
        "placeName": "THUNDER BAY",
        "streetNameDisplayText": "GEORGE ST, THUNDER BAY"
      }
    ]
  },
  {
    "postal": "P7E0B8",
    "result": []
  },
  {
    "postal": "P7E6R5",
    "result": []
  },
  {
    "postal": "P7E8W6",
    "result": []
  },
  {
    "postal": "P7E8G6",
    "result": []
  },
  {
    "postal": "P7E6X3",
    "result": []
  },
  {
    "postal": "P7E7R7",
    "result": []
  },
  {
    "postal": "P7E4B6",
    "result": [
      {
        "electoralDistricts": [
          {
            "election": null,
            "id": 105,
            "name": "Thunder Bay—Atikokan"
          }
        ],
        "pollDivisionIds": [
          10142325
        ],
        "postalCode": "P7E4B6",
        "streetName": "FRANCIS",
        "streetDirectionId": "E",
        "streetTypeId": "ST",
        "placeName": "THUNDER BAY",
        "streetNameDisplayText": "FRANCIS ST E, THUNDER BAY"
      }
    ]
  },
  {
    "postal": "P7E3P9",
    "result": [
      {
        "electoralDistricts": [
          {
            "election": null,
            "id": 105,
            "name": "Thunder Bay—Atikokan"
          }
        ],
        "pollDivisionIds": [
          10142334
        ],
        "postalCode": "P7E3P9",
        "streetName": "KINGSTON",
        "streetDirectionId": null,
        "streetTypeId": "ST",
        "placeName": "THUNDER BAY",
        "streetNameDisplayText": "KINGSTON ST, THUNDER BAY"
      }
    ]
  },
  {
    "postal": "P7E2T3",
    "result": [
      {
        "electoralDistricts": [
          {
            "election": null,
            "id": 105,
            "name": "Thunder Bay—Atikokan"
          }
        ],
        "pollDivisionIds": [
          10142315
        ],
        "postalCode": "P7E2T3",
        "streetName": "HOLLY",
        "streetDirectionId": null,
        "streetTypeId": "CRES",
        "placeName": "THUNDER BAY",
        "streetNameDisplayText": "HOLLY CRES, THUNDER BAY"
      }
    ]
  },
  {
    "postal": "P7E1M4",
    "result": [
      {
        "electoralDistricts": [
          {
            "election": null,
            "id": 105,
            "name": "Thunder Bay—Atikokan"
          }
        ],
        "pollDivisionIds": [
          10142328
        ],
        "postalCode": "P7E1M4",
        "streetName": "MARKS",
        "streetDirectionId": "S",
        "streetTypeId": "ST",
        "placeName": "THUNDER BAY",
        "streetNameDisplayText": "MARKS ST S, THUNDER BAY"
      }
    ]
  },
  {
    "postal": "P7E0H1",
    "result": []
  },
  {
    "postal": "P7E9W3",
    "result": []
  },
  {
    "postal": "P7E6P1",
    "result": [
      {
        "electoralDistricts": [
          {
            "election": null,
            "id": 105,
            "name": "Thunder Bay—Atikokan"
          }
        ],
        "pollDivisionIds": [
          10142325
        ],
        "postalCode": "P7E6P1",
        "streetName": "NEW VICKERS",
        "streetDirectionId": null,
        "streetTypeId": "ST",
        "placeName": "THUNDER BAY",
        "streetNameDisplayText": "NEW VICKERS ST, THUNDER BAY"
      }
    ]
  },
  {
    "postal": "P7E7G2",
    "result": []
  },
  {
    "postal": "P7E4J9",
    "result": [
      {
        "electoralDistricts": [
          {
            "election": null,
            "id": 105,
            "name": "Thunder Bay—Atikokan"
          }
        ],
        "pollDivisionIds": [
          10142325
        ],
        "postalCode": "P7E4J9",
        "streetName": "MARY",
        "streetDirectionId": "E",
        "streetTypeId": "ST",
        "placeName": "THUNDER BAY",
        "streetNameDisplayText": "MARY ST E, THUNDER BAY"
      }
    ]
  },
  {
    "postal": "P7E9E4",
    "result": []
  },
  {
    "postal": "P7E8H0",
    "result": []
  },
  {
    "postal": "P7E4M7",
    "result": [
      {
        "electoralDistricts": [
          {
            "election": null,
            "id": 105,
            "name": "Thunder Bay—Atikokan"
          }
        ],
        "pollDivisionIds": [
          10142306
        ],
        "postalCode": "P7E4M7",
        "streetName": "MARY",
        "streetDirectionId": "W",
        "streetTypeId": "ST",
        "placeName": "THUNDER BAY",
        "streetNameDisplayText": "MARY ST W, THUNDER BAY"
      }
    ]
  },
  {
    "postal": "P7E2G9",
    "result": [
      {
        "electoralDistricts": [
          {
            "election": null,
            "id": 105,
            "name": "Thunder Bay—Atikokan"
          }
        ],
        "pollDivisionIds": [
          10142314
        ],
        "postalCode": "P7E2G9",
        "streetName": "EDWARD",
        "streetDirectionId": "S",
        "streetTypeId": "ST",
        "placeName": "THUNDER BAY",
        "streetNameDisplayText": "EDWARD ST S, THUNDER BAY"
      }
    ]
  },
  {
    "postal": "P7E8T2",
    "result": []
  },
  {
    "postal": "P7E7G7",
    "result": []
  },
  {
    "postal": "P7E4Z3",
    "result": [
      {
        "electoralDistricts": [
          {
            "election": null,
            "id": 105,
            "name": "Thunder Bay—Atikokan"
          }
        ],
        "pollDivisionIds": [
          10142323
        ],
        "postalCode": "P7E4Z3",
        "streetName": "MOODIE",
        "streetDirectionId": "E",
        "streetTypeId": "ST",
        "placeName": "THUNDER BAY",
        "streetNameDisplayText": "MOODIE ST E, THUNDER BAY"
      }
    ]
  },
  {
    "postal": "P7E5B3",
    "result": [
      {
        "electoralDistricts": [
          {
            "election": null,
            "id": 105,
            "name": "Thunder Bay—Atikokan"
          }
        ],
        "pollDivisionIds": [
          10142328
        ],
        "postalCode": "P7E5B3",
        "streetName": "ISABELLA",
        "streetDirectionId": "E",
        "streetTypeId": "ST",
        "placeName": "THUNDER BAY",
        "streetNameDisplayText": "ISABELLA ST E, THUNDER BAY"
      }
    ]
  },
  {
    "postal": "P7E1S7",
    "result": [
      {
        "electoralDistricts": [
          {
            "election": null,
            "id": 105,
            "name": "Thunder Bay—Atikokan"
          }
        ],
        "pollDivisionIds": [
          10142323
        ],
        "postalCode": "P7E1S7",
        "streetName": "SELKIRK",
        "streetDirectionId": "S",
        "streetTypeId": "ST",
        "placeName": "THUNDER BAY",
        "streetNameDisplayText": "SELKIRK ST S, THUNDER BAY"
      }
    ]
  },
  {
    "postal": "P7E2N7",
    "result": [
      {
        "electoralDistricts": [
          {
            "election": null,
            "id": 105,
            "name": "Thunder Bay—Atikokan"
          }
        ],
        "pollDivisionIds": [
          10142313
        ],
        "postalCode": "P7E2N7",
        "streetName": "LELAND",
        "streetDirectionId": "S",
        "streetTypeId": "AVE",
        "placeName": "THUNDER BAY",
        "streetNameDisplayText": "LELAND AVE S, THUNDER BAY"
      }
    ]
  },
  {
    "postal": "P7E0H8",
    "result": []
  },
  {
    "postal": "P7E7Z4",
    "result": []
  },
  {
    "postal": "P7E7B1",
    "result": []
  },
  {
    "postal": "P7E7P8",
    "result": []
  },
  {
    "postal": "P7E7N0",
    "result": []
  },
  {
    "postal": "P7E3Y5",
    "result": [
      {
        "electoralDistricts": [
          {
            "election": null,
            "id": 105,
            "name": "Thunder Bay—Atikokan"
          }
        ],
        "pollDivisionIds": [
          10142306
        ],
        "postalCode": "P7E3Y5",
        "streetName": "FREDERICA",
        "streetDirectionId": "W",
        "streetTypeId": "ST",
        "placeName": "THUNDER BAY",
        "streetNameDisplayText": "FREDERICA ST W, THUNDER BAY"
      }
    ]
  },
  {
    "postal": "P7E6K1",
    "result": [
      {
        "electoralDistricts": [
          {
            "election": null,
            "id": 105,
            "name": "Thunder Bay—Atikokan"
          }
        ],
        "pollDivisionIds": [
          10142307
        ],
        "postalCode": "P7E6K1",
        "streetName": "CHILTON",
        "streetDirectionId": null,
        "streetTypeId": "AVE",
        "placeName": "THUNDER BAY",
        "streetNameDisplayText": "CHILTON AVE, THUNDER BAY"
      }
    ]
  },
  {
    "postal": "P7E9X5",
    "result": []
  },
  {
    "postal": "P7E7S5",
    "result": []
  },
  {
    "postal": "P7E0A4",
    "result": [
      {
        "electoralDistricts": [
          {
            "election": null,
            "id": 105,
            "name": "Thunder Bay—Atikokan"
          }
        ],
        "pollDivisionIds": [
          10142335
        ],
        "postalCode": "P7E0A4",
        "streetName": "106TH",
        "streetDirectionId": null,
        "streetTypeId": "ST",
        "placeName": "THUNDER BAY",
        "streetNameDisplayText": "106TH ST, THUNDER BAY"
      }
    ]
  },
  {
    "postal": "P7E4T5",
    "result": [
      {
        "electoralDistricts": [
          {
            "election": null,
            "id": 105,
            "name": "Thunder Bay—Atikokan"
          }
        ],
        "pollDivisionIds": [
          10142325
        ],
        "postalCode": "P7E4T5",
        "streetName": "PIPER",
        "streetDirectionId": null,
        "streetTypeId": "AVE",
        "placeName": "THUNDER BAY",
        "streetNameDisplayText": "PIPER AVE, THUNDER BAY"
      }
    ]
  },
  {
    "postal": "P7E5K1",
    "result": [
      {
        "electoralDistricts": [
          {
            "election": null,
            "id": 105,
            "name": "Thunder Bay—Atikokan"
          }
        ],
        "pollDivisionIds": [
          10142318
        ],
        "postalCode": "P7E5K1",
        "streetName": "RIDGEWAY",
        "streetDirectionId": "E",
        "streetTypeId": "ST",
        "placeName": "THUNDER BAY",
        "streetNameDisplayText": "RIDGEWAY ST E, THUNDER BAY"
      }
    ]
  },
  {
    "postal": "P7E0Z9",
    "result": []
  },
  {
    "postal": "P7E7T2",
    "result": []
  },
  {
    "postal": "P7E1L5",
    "result": [
      {
        "electoralDistricts": [
          {
            "election": null,
            "id": 105,
            "name": "Thunder Bay—Atikokan"
          }
        ],
        "pollDivisionIds": [
          10142325
        ],
        "postalCode": "P7E1L5",
        "streetName": "CATHERINE",
        "streetDirectionId": null,
        "streetTypeId": "ST",
        "placeName": "THUNDER BAY",
        "streetNameDisplayText": "CATHERINE ST, THUNDER BAY"
      }
    ]
  },
  {
    "postal": "P7E3N5",
    "result": [
      {
        "electoralDistricts": [
          {
            "election": null,
            "id": 105,
            "name": "Thunder Bay—Atikokan"
          }
        ],
        "pollDivisionIds": [
          10142307
        ],
        "postalCode": "P7E3N5",
        "streetName": "CONFEDERATION",
        "streetDirectionId": null,
        "streetTypeId": "DR",
        "placeName": "THUNDER BAY",
        "streetNameDisplayText": "CONFEDERATION DR, THUNDER BAY"
      }
    ]
  },
  {
    "postal": "P7E6H4",
    "result": [
      {
        "electoralDistricts": [
          {
            "election": null,
            "id": 105,
            "name": "Thunder Bay—Atikokan"
          }
        ],
        "pollDivisionIds": [
          10142315
        ],
        "postalCode": "P7E6H4",
        "streetName": "EMPIRE",
        "streetDirectionId": null,
        "streetTypeId": "AVE",
        "placeName": "THUNDER BAY",
        "streetNameDisplayText": "EMPIRE AVE, THUNDER BAY"
      }
    ]
  },
  {
    "postal": "P7E5A5",
    "result": [
      {
        "electoralDistricts": [
          {
            "election": null,
            "id": 105,
            "name": "Thunder Bay—Atikokan"
          }
        ],
        "pollDivisionIds": [
          10142313
        ],
        "postalCode": "P7E5A5",
        "streetName": "MOODIE",
        "streetDirectionId": "W",
        "streetTypeId": "ST",
        "placeName": "THUNDER BAY",
        "streetNameDisplayText": "MOODIE ST W, THUNDER BAY"
      }
    ]
  },
  {
    "postal": "P7E3R9",
    "result": [
      {
        "electoralDistricts": [
          {
            "election": null,
            "id": 105,
            "name": "Thunder Bay—Atikokan"
          }
        ],
        "pollDivisionIds": [
          10142334
        ],
        "postalCode": "P7E3R9",
        "streetName": "GORE",
        "streetDirectionId": "W",
        "streetTypeId": "ST",
        "placeName": "THUNDER BAY",
        "streetNameDisplayText": "GORE ST W, THUNDER BAY"
      }
    ]
  },
  {
    "postal": "P7E7L8",
    "result": []
  },
  {
    "postal": "P7E6T6",
    "result": [
      {
        "electoralDistricts": [
          {
            "election": null,
            "id": 105,
            "name": "Thunder Bay—Atikokan"
          }
        ],
        "pollDivisionIds": [
          10142306
        ],
        "postalCode": "P7E6T6",
        "streetName": "NEEBING",
        "streetDirectionId": null,
        "streetTypeId": "AVE",
        "placeName": "THUNDER BAY",
        "streetNameDisplayText": "NEEBING AVE, THUNDER BAY"
      }
    ]
  },
  {
    "postal": "P7E7Y7",
    "result": []
  },
  {
    "postal": "P7E3M8",
    "result": [
      {
        "electoralDistricts": [
          {
            "election": null,
            "id": 105,
            "name": "Thunder Bay—Atikokan"
          }
        ],
        "pollDivisionIds": [
          10142309
        ],
        "postalCode": "P7E3M8",
        "streetName": "RIVERVIEW",
        "streetDirectionId": null,
        "streetTypeId": "DR",
        "placeName": "THUNDER BAY",
        "streetNameDisplayText": "RIVERVIEW DR, THUNDER BAY"
      }
    ]
  },
  {
    "postal": "P7E2E0",
    "result": []
  },
  {
    "postal": "P7E4B5",
    "result": [
      {
        "electoralDistricts": [
          {
            "election": null,
            "id": 105,
            "name": "Thunder Bay—Atikokan"
          }
        ],
        "pollDivisionIds": [
          10142315,
          10142325
        ],
        "postalCode": "P7E4B5",
        "streetName": "FRANCIS",
        "streetDirectionId": "E",
        "streetTypeId": "ST",
        "placeName": "THUNDER BAY",
        "streetNameDisplayText": "FRANCIS ST E, THUNDER BAY"
      }
    ]
  },
  {
    "postal": "P7E1J3",
    "result": [
      {
        "electoralDistricts": [
          {
            "election": null,
            "id": 105,
            "name": "Thunder Bay—Atikokan"
          }
        ],
        "pollDivisionIds": [
          10142326
        ],
        "postalCode": "P7E1J3",
        "streetName": "VICKERS",
        "streetDirectionId": "S",
        "streetTypeId": "ST",
        "placeName": "THUNDER BAY",
        "streetNameDisplayText": "VICKERS ST S, THUNDER BAY"
      }
    ]
  },
  {
    "postal": "P7E5S6",
    "result": [
      {
        "electoralDistricts": [
          {
            "election": null,
            "id": 105,
            "name": "Thunder Bay—Atikokan"
          }
        ],
        "pollDivisionIds": [
          10142324
        ],
        "postalCode": "P7E5S6",
        "streetName": "SILLS",
        "streetDirectionId": null,
        "streetTypeId": "ST",
        "placeName": "THUNDER BAY",
        "streetNameDisplayText": "SILLS ST, THUNDER BAY"
      }
    ]
  },
  {
    "postal": "P7E8P7",
    "result": []
  },
  {
    "postal": "P7E7S7",
    "result": []
  },
  {
    "postal": "P7E4C2",
    "result": [
      {
        "electoralDistricts": [
          {
            "election": null,
            "id": 105,
            "name": "Thunder Bay—Atikokan"
          }
        ],
        "pollDivisionIds": [
          10142310
        ],
        "postalCode": "P7E4C2",
        "streetName": "FRANCIS",
        "streetDirectionId": "W",
        "streetTypeId": "ST",
        "placeName": "THUNDER BAY",
        "streetNameDisplayText": "FRANCIS ST W, THUNDER BAY"
      }
    ]
  },
  {
    "postal": "P7E5Y0",
    "result": []
  },
  {
    "postal": "P7E2V7",
    "result": [
      {
        "electoralDistricts": [
          {
            "election": null,
            "id": 105,
            "name": "Thunder Bay—Atikokan"
          }
        ],
        "pollDivisionIds": [
          10142307
        ],
        "postalCode": "P7E2V7",
        "streetName": "JAMES",
        "streetDirectionId": "S",
        "streetTypeId": "ST",
        "placeName": "THUNDER BAY",
        "streetNameDisplayText": "JAMES ST S, THUNDER BAY"
      }
    ]
  },
  {
    "postal": "P7E8P5",
    "result": []
  },
  {
    "postal": "P7E5P5",
    "result": [
      {
        "electoralDistricts": [
          {
            "election": null,
            "id": 105,
            "name": "Thunder Bay—Atikokan"
          }
        ],
        "pollDivisionIds": [
          10142297,
          10142317
        ],
        "postalCode": "P7E5P5",
        "streetName": "ARTHUR",
        "streetDirectionId": "E",
        "streetTypeId": "ST",
        "placeName": "THUNDER BAY",
        "streetNameDisplayText": "ARTHUR ST E, THUNDER BAY"
      }
    ]
  },
  {
    "postal": "P7E5Z0",
    "result": []
  },
  {
    "postal": "P7E9B0",
    "result": []
  },
  {
    "postal": "P7E1L0",
    "result": []
  },
  {
    "postal": "P7E0B5",
    "result": []
  },
  {
    "postal": "P7E3L2",
    "result": [
      {
        "electoralDistricts": [
          {
            "election": null,
            "id": 105,
            "name": "Thunder Bay—Atikokan"
          }
        ],
        "pollDivisionIds": [
          10142306
        ],
        "postalCode": "P7E3L2",
        "streetName": "ALPINE",
        "streetDirectionId": null,
        "streetTypeId": "AVE",
        "placeName": "THUNDER BAY",
        "streetNameDisplayText": "ALPINE AVE, THUNDER BAY"
      }
    ]
  },
  {
    "postal": "P7E3B7",
    "result": [
      {
        "electoralDistricts": [
          {
            "election": null,
            "id": 105,
            "name": "Thunder Bay—Atikokan"
          }
        ],
        "pollDivisionIds": [
          10142334
        ],
        "postalCode": "P7E3B7",
        "streetName": "HOME",
        "streetDirectionId": null,
        "streetTypeId": "AVE",
        "placeName": "THUNDER BAY",
        "streetNameDisplayText": "HOME AVE, THUNDER BAY"
      }
    ]
  },
  {
    "postal": "P7E8L1",
    "result": []
  },
  {
    "postal": "P7E5M4",
    "result": [
      {
        "electoralDistricts": [
          {
            "election": null,
            "id": 105,
            "name": "Thunder Bay—Atikokan"
          }
        ],
        "pollDivisionIds": [
          10142314
        ],
        "postalCode": "P7E5M4",
        "streetName": "BEGIN",
        "streetDirectionId": "W",
        "streetTypeId": "ST",
        "placeName": "THUNDER BAY",
        "streetNameDisplayText": "BEGIN ST W, THUNDER BAY"
      }
    ]
  },
  {
    "postal": "P7E4G9",
    "result": [
      {
        "electoralDistricts": [
          {
            "election": null,
            "id": 105,
            "name": "Thunder Bay—Atikokan"
          }
        ],
        "pollDivisionIds": [
          10142306
        ],
        "postalCode": "P7E4G9",
        "streetName": "FRANCIS",
        "streetDirectionId": "W",
        "streetTypeId": "ST",
        "placeName": "THUNDER BAY",
        "streetNameDisplayText": "FRANCIS ST W, THUNDER BAY"
      }
    ]
  },
  {
    "postal": "P7E0P0",
    "result": []
  },
  {
    "postal": "P7E8G2",
    "result": []
  },
  {
    "postal": "P7E1V9",
    "result": [
      {
        "electoralDistricts": [
          {
            "election": null,
            "id": 105,
            "name": "Thunder Bay—Atikokan"
          }
        ],
        "pollDivisionIds": [
          10142325
        ],
        "postalCode": "P7E1V9",
        "streetName": "SPRAGUE",
        "streetDirectionId": null,
        "streetTypeId": "ST",
        "placeName": "THUNDER BAY",
        "streetNameDisplayText": "SPRAGUE ST, THUNDER BAY"
      }
    ]
  },
  {
    "postal": "P7E8N8",
    "result": []
  },
  {
    "postal": "P7E6S8",
    "result": []
  },
  {
    "postal": "P7E8H2",
    "result": []
  },
  {
    "postal": "P7E5R8",
    "result": [
      {
        "electoralDistricts": [
          {
            "election": null,
            "id": 105,
            "name": "Thunder Bay—Atikokan"
          }
        ],
        "pollDivisionIds": [
          10142307
        ],
        "postalCode": "P7E5R8",
        "streetName": "ARTHUR",
        "streetDirectionId": "W",
        "streetTypeId": "ST",
        "placeName": "THUNDER BAY",
        "streetNameDisplayText": "ARTHUR ST W, THUNDER BAY"
      },
      {
        "electoralDistricts": [
          {
            "election": null,
            "id": 105,
            "name": "Thunder Bay—Atikokan"
          }
        ],
        "pollDivisionIds": [
          10142335
        ],
        "postalCode": "P7E5R8",
        "streetName": "HORACE",
        "streetDirectionId": null,
        "streetTypeId": "ST",
        "placeName": "THUNDER BAY",
        "streetNameDisplayText": "HORACE ST, THUNDER BAY"
      },
      {
        "electoralDistricts": [
          {
            "election": null,
            "id": 105,
            "name": "Thunder Bay—Atikokan"
          }
        ],
        "pollDivisionIds": [
          10142335
        ],
        "postalCode": "P7E5R8",
        "streetName": "ROY",
        "streetDirectionId": null,
        "streetTypeId": "ST",
        "placeName": "THUNDER BAY",
        "streetNameDisplayText": "ROY ST, THUNDER BAY"
      },
      {
        "electoralDistricts": [
          {
            "election": null,
            "id": 105,
            "name": "Thunder Bay—Atikokan"
          }
        ],
        "pollDivisionIds": [
          10142335
        ],
        "postalCode": "P7E5R8",
        "streetName": "TERENCE",
        "streetDirectionId": null,
        "streetTypeId": "ST",
        "placeName": "THUNDER BAY",
        "streetNameDisplayText": "TERENCE ST, THUNDER BAY"
      }
    ]
  },
  {
    "postal": "P7E5L4",
    "result": [
      {
        "electoralDistricts": [
          {
            "election": null,
            "id": 105,
            "name": "Thunder Bay—Atikokan"
          }
        ],
        "pollDivisionIds": [
          10142318
        ],
        "postalCode": "P7E5L4",
        "streetName": "BEGIN",
        "streetDirectionId": "E",
        "streetTypeId": "ST",
        "placeName": "THUNDER BAY",
        "streetNameDisplayText": "BEGIN ST E, THUNDER BAY"
      }
    ]
  },
  {
    "postal": "P7E9E1",
    "result": []
  },
  {
    "postal": "P7E1C4",
    "result": [
      {
        "electoralDistricts": [
          {
            "election": null,
            "id": 105,
            "name": "Thunder Bay—Atikokan"
          }
        ],
        "pollDivisionIds": [
          10142328,
          10142330
        ],
        "postalCode": "P7E1C4",
        "streetName": "BRODIE",
        "streetDirectionId": "S",
        "streetTypeId": "ST",
        "placeName": "THUNDER BAY",
        "streetNameDisplayText": "BRODIE ST S, THUNDER BAY"
      }
    ]
  },
  {
    "postal": "P7E8W5",
    "result": []
  },
  {
    "postal": "P7E1Y4",
    "result": [
      {
        "electoralDistricts": [
          {
            "election": null,
            "id": 105,
            "name": "Thunder Bay—Atikokan"
          }
        ],
        "pollDivisionIds": [
          10142323
        ],
        "postalCode": "P7E1Y4",
        "streetName": "HYDE PARK",
        "streetDirectionId": null,
        "streetTypeId": "AVE",
        "placeName": "THUNDER BAY",
        "streetNameDisplayText": "HYDE PARK AVE, THUNDER BAY"
      }
    ]
  },
  {
    "postal": "P7E1C0",
    "result": []
  },
  {
    "postal": "P7E2J2",
    "result": [
      {
        "electoralDistricts": [
          {
            "election": null,
            "id": 105,
            "name": "Thunder Bay—Atikokan"
          }
        ],
        "pollDivisionIds": [
          10142310
        ],
        "postalCode": "P7E2J2",
        "streetName": "EDWARD",
        "streetDirectionId": "S",
        "streetTypeId": "ST",
        "placeName": "THUNDER BAY",
        "streetNameDisplayText": "EDWARD ST S, THUNDER BAY"
      }
    ]
  },
  {
    "postal": "P7E2J0",
    "result": []
  },
  {
    "postal": "P7E7A3",
    "result": []
  },
  {
    "postal": "P7E8M1",
    "result": []
  },
  {
    "postal": "P7E7T9",
    "result": []
  },
  {
    "postal": "P7E6C0",
    "result": []
  },
  {
    "postal": "P7E7X1",
    "result": []
  },
  {
    "postal": "P7E0G1",
    "result": []
  },
  {
    "postal": "P7E4X2",
    "result": [
      {
        "electoralDistricts": [
          {
            "election": null,
            "id": 105,
            "name": "Thunder Bay—Atikokan"
          }
        ],
        "pollDivisionIds": [
          10142315
        ],
        "postalCode": "P7E4X2",
        "streetName": "WALSH",
        "streetDirectionId": "W",
        "streetTypeId": "ST",
        "placeName": "THUNDER BAY",
        "streetNameDisplayText": "WALSH ST W, THUNDER BAY"
      }
    ]
  },
  {
    "postal": "P7E0N6",
    "result": []
  },
  {
    "postal": "P7E8E3",
    "result": []
  },
  {
    "postal": "P7E5S8",
    "result": [
      {
        "electoralDistricts": [
          {
            "election": null,
            "id": 105,
            "name": "Thunder Bay—Atikokan"
          }
        ],
        "pollDivisionIds": [
          10142318
        ],
        "postalCode": "P7E5S8",
        "streetName": "SILLS",
        "streetDirectionId": null,
        "streetTypeId": "ST",
        "placeName": "THUNDER BAY",
        "streetNameDisplayText": "SILLS ST, THUNDER BAY"
      }
    ]
  },
  {
    "postal": "P7E0R0",
    "result": []
  },
  {
    "postal": "P7E6J6",
    "result": [
      {
        "electoralDistricts": [
          {
            "election": null,
            "id": 105,
            "name": "Thunder Bay—Atikokan"
          }
        ],
        "pollDivisionIds": [
          10142307
        ],
        "postalCode": "P7E6J6",
        "streetName": "WILLARD",
        "streetDirectionId": null,
        "streetTypeId": "AVE",
        "placeName": "THUNDER BAY",
        "streetNameDisplayText": "WILLARD AVE, THUNDER BAY"
      }
    ]
  },
  {
    "postal": "P7E4B4",
    "result": [
      {
        "electoralDistricts": [
          {
            "election": null,
            "id": 105,
            "name": "Thunder Bay—Atikokan"
          }
        ],
        "pollDivisionIds": [
          10142325
        ],
        "postalCode": "P7E4B4",
        "streetName": "FRANCIS",
        "streetDirectionId": "E",
        "streetTypeId": "ST",
        "placeName": "THUNDER BAY",
        "streetNameDisplayText": "FRANCIS ST E, THUNDER BAY"
      }
    ]
  },
  {
    "postal": "P7E7E3",
    "result": []
  },
  {
    "postal": "P7E3N6",
    "result": [
      {
        "electoralDistricts": [
          {
            "election": null,
            "id": 105,
            "name": "Thunder Bay—Atikokan"
          }
        ],
        "pollDivisionIds": [
          10142307
        ],
        "postalCode": "P7E3N6",
        "streetName": "CONFEDERATION",
        "streetDirectionId": null,
        "streetTypeId": "DR",
        "placeName": "THUNDER BAY",
        "streetNameDisplayText": "CONFEDERATION DR, THUNDER BAY"
      }
    ]
  },
  {
    "postal": "P7E3X6",
    "result": [
      {
        "electoralDistricts": [
          {
            "election": null,
            "id": 105,
            "name": "Thunder Bay—Atikokan"
          }
        ],
        "pollDivisionIds": [
          10142334
        ],
        "postalCode": "P7E3X6",
        "streetName": "FREDERICA",
        "streetDirectionId": "W",
        "streetTypeId": "ST",
        "placeName": "THUNDER BAY",
        "streetNameDisplayText": "FREDERICA ST W, THUNDER BAY"
      }
    ]
  },
  {
    "postal": "P7E8L0",
    "result": []
  },
  {
    "postal": "P7E8N1",
    "result": []
  },
  {
    "postal": "P7E4J0",
    "result": []
  },
  {
    "postal": "P7E0X7",
    "result": []
  },
  {
    "postal": "P7E6S4",
    "result": []
  },
  {
    "postal": "P7E0Z0",
    "result": []
  },
  {
    "postal": "P7E9X8",
    "result": []
  },
  {
    "postal": "P7E3H3",
    "result": [
      {
        "electoralDistricts": [
          {
            "election": null,
            "id": 105,
            "name": "Thunder Bay—Atikokan"
          }
        ],
        "pollDivisionIds": [
          10142334
        ],
        "postalCode": "P7E3H3",
        "streetName": "STANLEY",
        "streetDirectionId": null,
        "streetTypeId": "AVE",
        "placeName": "THUNDER BAY",
        "streetNameDisplayText": "STANLEY AVE, THUNDER BAY"
      }
    ]
  },
  {
    "postal": "P7E7S2",
    "result": []
  },
  {
    "postal": "P7E3T3",
    "result": [
      {
        "electoralDistricts": [
          {
            "election": null,
            "id": 105,
            "name": "Thunder Bay—Atikokan"
          }
        ],
        "pollDivisionIds": [
          10142334
        ],
        "postalCode": "P7E3T3",
        "streetName": "GORE",
        "streetDirectionId": "W",
        "streetTypeId": "ST",
        "placeName": "THUNDER BAY",
        "streetNameDisplayText": "GORE ST W, THUNDER BAY"
      }
    ]
  },
  {
    "postal": "P7E9P3",
    "result": []
  },
  {
    "postal": "P7E4H8",
    "result": [
      {
        "electoralDistricts": [
          {
            "election": null,
            "id": 105,
            "name": "Thunder Bay—Atikokan"
          }
        ],
        "pollDivisionIds": [
          10142315,
          10142325
        ],
        "postalCode": "P7E4H8",
        "streetName": "BROCK",
        "streetDirectionId": "E",
        "streetTypeId": "ST",
        "placeName": "THUNDER BAY",
        "streetNameDisplayText": "BROCK ST E, THUNDER BAY"
      }
    ]
  },
  {
    "postal": "P7E6R1",
    "result": [
      {
        "electoralDistricts": [
          {
            "election": null,
            "id": 105,
            "name": "Thunder Bay—Atikokan"
          }
        ],
        "pollDivisionIds": [
          10142306
        ],
        "postalCode": "P7E6R1",
        "streetName": "NEEBING",
        "streetDirectionId": null,
        "streetTypeId": "AVE",
        "placeName": "THUNDER BAY",
        "streetNameDisplayText": "NEEBING AVE, THUNDER BAY"
      }
    ]
  },
  {
    "postal": "P7E1S0",
    "result": []
  },
  {
    "postal": "P7E3W8",
    "result": [
      {
        "electoralDistricts": [
          {
            "election": null,
            "id": 105,
            "name": "Thunder Bay—Atikokan"
          }
        ],
        "pollDivisionIds": [
          10142334
        ],
        "postalCode": "P7E3W8",
        "streetName": "FREDERICA",
        "streetDirectionId": "W",
        "streetTypeId": "ST",
        "placeName": "THUNDER BAY",
        "streetNameDisplayText": "FREDERICA ST W, THUNDER BAY"
      }
    ]
  },
  {
    "postal": "P7E4S3",
    "result": [
      {
        "electoralDistricts": [
          {
            "election": null,
            "id": 105,
            "name": "Thunder Bay—Atikokan"
          }
        ],
        "pollDivisionIds": [
          10142325
        ],
        "postalCode": "P7E4S3",
        "streetName": "EMPIRE",
        "streetDirectionId": "E",
        "streetTypeId": "AVE",
        "placeName": "THUNDER BAY",
        "streetNameDisplayText": "EMPIRE AVE E, THUNDER BAY"
      },
      {
        "electoralDistricts": [
          {
            "election": null,
            "id": 105,
            "name": "Thunder Bay—Atikokan"
          }
        ],
        "pollDivisionIds": [
          10142325
        ],
        "postalCode": "P7E4S3",
        "streetName": "EMPIRE",
        "streetDirectionId": null,
        "streetTypeId": "AVE",
        "placeName": "THUNDER BAY",
        "streetNameDisplayText": "EMPIRE AVE, THUNDER BAY"
      }
    ]
  },
  {
    "postal": "P7E1B6",
    "result": [
      {
        "electoralDistricts": [
          {
            "election": null,
            "id": 105,
            "name": "Thunder Bay—Atikokan"
          }
        ],
        "pollDivisionIds": [
          10142330,
          10142328
        ],
        "postalCode": "P7E1B6",
        "streetName": "MAY",
        "streetDirectionId": "S",
        "streetTypeId": "ST",
        "placeName": "THUNDER BAY",
        "streetNameDisplayText": "MAY ST S, THUNDER BAY"
      }
    ]
  },
  {
    "postal": "P7E8R3",
    "result": []
  },
  {
    "postal": "P7E4V9",
    "result": [
      {
        "electoralDistricts": [
          {
            "election": null,
            "id": 105,
            "name": "Thunder Bay—Atikokan"
          }
        ],
        "pollDivisionIds": [
          10142320
        ],
        "postalCode": "P7E4V9",
        "streetName": "WALSH",
        "streetDirectionId": "E",
        "streetTypeId": "ST",
        "placeName": "THUNDER BAY",
        "streetNameDisplayText": "WALSH ST E, THUNDER BAY"
      }
    ]
  },
  {
    "postal": "P7E9W4",
    "result": []
  },
  {
    "postal": "P7E3T4",
    "result": [
      {
        "electoralDistricts": [
          {
            "election": null,
            "id": 105,
            "name": "Thunder Bay—Atikokan"
          }
        ],
        "pollDivisionIds": [
          10142306
        ],
        "postalCode": "P7E3T4",
        "streetName": "GORE",
        "streetDirectionId": "W",
        "streetTypeId": "ST",
        "placeName": "THUNDER BAY",
        "streetNameDisplayText": "GORE ST W, THUNDER BAY"
      }
    ]
  },
  {
    "postal": "P7E5C7",
    "result": [
      {
        "electoralDistricts": [
          {
            "election": null,
            "id": 105,
            "name": "Thunder Bay—Atikokan"
          }
        ],
        "pollDivisionIds": [
          10142318
        ],
        "postalCode": "P7E5C7",
        "streetName": "ISABELLA",
        "streetDirectionId": "E",
        "streetTypeId": "ST",
        "placeName": "THUNDER BAY",
        "streetNameDisplayText": "ISABELLA ST E, THUNDER BAY"
      }
    ]
  },
  {
    "postal": "P7E3Y1",
    "result": [
      {
        "electoralDistricts": [
          {
            "election": null,
            "id": 105,
            "name": "Thunder Bay—Atikokan"
          }
        ],
        "pollDivisionIds": [
          10142306
        ],
        "postalCode": "P7E3Y1",
        "streetName": "FREDERICA",
        "streetDirectionId": "W",
        "streetTypeId": "ST",
        "placeName": "THUNDER BAY",
        "streetNameDisplayText": "FREDERICA ST W, THUNDER BAY"
      }
    ]
  },
  {
    "postal": "P7E5V0",
    "result": []
  },
  {
    "postal": "P7E8G8",
    "result": []
  },
  {
    "postal": "P7E8B1",
    "result": []
  },
  {
    "postal": "P7E4P5",
    "result": [
      {
        "electoralDistricts": [
          {
            "election": null,
            "id": 105,
            "name": "Thunder Bay—Atikokan"
          }
        ],
        "pollDivisionIds": [
          10142315
        ],
        "postalCode": "P7E4P5",
        "streetName": "CHRISTINA",
        "streetDirectionId": "W",
        "streetTypeId": "ST",
        "placeName": "THUNDER BAY",
        "streetNameDisplayText": "CHRISTINA ST W, THUNDER BAY"
      }
    ]
  },
  {
    "postal": "P7E7B2",
    "result": []
  },
  {
    "postal": "P7E0R2",
    "result": []
  },
  {
    "postal": "P7E4M4",
    "result": [
      {
        "electoralDistricts": [
          {
            "election": null,
            "id": 105,
            "name": "Thunder Bay—Atikokan"
          }
        ],
        "pollDivisionIds": [
          10142306
        ],
        "postalCode": "P7E4M4",
        "streetName": "MARY",
        "streetDirectionId": "W",
        "streetTypeId": "ST",
        "placeName": "THUNDER BAY",
        "streetNameDisplayText": "MARY ST W, THUNDER BAY"
      }
    ]
  },
  {
    "postal": "P7E7M4",
    "result": []
  },
  {
    "postal": "P7E9S7",
    "result": []
  },
  {
    "postal": "P7E5Z7",
    "result": [
      {
        "electoralDistricts": [
          {
            "election": null,
            "id": 105,
            "name": "Thunder Bay—Atikokan"
          }
        ],
        "pollDivisionIds": [
          10142318
        ],
        "postalCode": "P7E5Z7",
        "streetName": "RANKIN",
        "streetDirectionId": null,
        "streetTypeId": "ST",
        "placeName": "THUNDER BAY",
        "streetNameDisplayText": "RANKIN ST, THUNDER BAY"
      }
    ]
  },
  {
    "postal": "P7E7J7",
    "result": []
  },
  {
    "postal": "P7E8R8",
    "result": []
  },
  {
    "postal": "P7E9X1",
    "result": []
  },
  {
    "postal": "P7E5M9",
    "result": [
      {
        "electoralDistricts": [
          {
            "election": null,
            "id": 105,
            "name": "Thunder Bay—Atikokan"
          }
        ],
        "pollDivisionIds": [
          10142326
        ],
        "postalCode": "P7E5M9",
        "streetName": "ARTHUR",
        "streetDirectionId": "E",
        "streetTypeId": "ST",
        "placeName": "THUNDER BAY",
        "streetNameDisplayText": "ARTHUR ST E, THUNDER BAY"
      }
    ]
  },
  {
    "postal": "P7E9B4",
    "result": []
  },
  {
    "postal": "P7E0L9",
    "result": []
  },
  {
    "postal": "P7E9G4",
    "result": []
  },
  {
    "postal": "P7E1J4",
    "result": [
      {
        "electoralDistricts": [
          {
            "election": null,
            "id": 105,
            "name": "Thunder Bay—Atikokan"
          }
        ],
        "pollDivisionIds": [
          10142326
        ],
        "postalCode": "P7E1J4",
        "streetName": "VICKERS",
        "streetDirectionId": "S",
        "streetTypeId": "ST",
        "placeName": "THUNDER BAY",
        "streetNameDisplayText": "VICKERS ST S, THUNDER BAY"
      }
    ]
  },
  {
    "postal": "P7E0W6",
    "result": []
  }
]
