[
  {
    "postal": "M9W9J6",
    "result": []
  },
  {
    "postal": "M9W9Z5",
    "result": []
  },
  {
    "postal": "M9W7H8",
    "result": []
  },
  {
    "postal": "M9W0P6",
    "result": []
  },
  {
    "postal": "M9W0S7",
    "result": []
  },
  {
    "postal": "M9W8B9",
    "result": []
  },
  {
    "postal": "M9W2A6",
    "result": [
      {
        "electoralDistricts": [
          {
            "election": null,
            "id": 30,
            "name": "Etobicoke North"
          }
        ],
        "pollDivisionIds": [
          10138217
        ],
        "postalCode": "M9W2A6",
        "streetName": "LEDUC",
        "streetDirectionId": null,
        "streetTypeId": "DR",
        "placeName": "ETOBICOKE",
        "streetNameDisplayText": "LEDUC DR, ETOBICOKE"
      }
    ]
  },
  {
    "postal": "M9W7V2",
    "result": []
  },
  {
    "postal": "M9W9P4",
    "result": []
  },
  {
    "postal": "M9W6G0",
    "result": []
  },
  {
    "postal": "M9W2K0",
    "result": []
  },
  {
    "postal": "M9W7N6",
    "result": []
  },
  {
    "postal": "M9W5R3",
    "result": [
      {
        "electoralDistricts": [
          {
            "election": null,
            "id": 30,
            "name": "Etobicoke North"
          }
        ],
        "pollDivisionIds": [
          10138211
        ],
        "postalCode": "M9W5R3",
        "streetName": "CARLINGVIEW",
        "streetDirectionId": null,
        "streetTypeId": "DR",
        "placeName": "ETOBICOKE",
        "streetNameDisplayText": "CARLINGVIEW DR, ETOBICOKE"
      }
    ]
  },
  {
    "postal": "M9W7K0",
    "result": []
  },
  {
    "postal": "M9W3R2",
    "result": [
      {
        "electoralDistricts": [
          {
            "election": null,
            "id": 30,
            "name": "Etobicoke North"
          }
        ],
        "pollDivisionIds": [
          10138205
        ],
        "postalCode": "M9W3R2",
        "streetName": "GRIERSON",
        "streetDirectionId": null,
        "streetTypeId": "RD",
        "placeName": "ETOBICOKE",
        "streetNameDisplayText": "GRIERSON RD, ETOBICOKE"
      }
    ]
  },
  {
    "postal": "M9W0J1",
    "result": []
  },
  {
    "postal": "M9W0B0",
    "result": []
  },
  {
    "postal": "M9W5Z2",
    "result": [
      {
        "electoralDistricts": [
          {
            "election": null,
            "id": 30,
            "name": "Etobicoke North"
          }
        ],
        "pollDivisionIds": [
          10138211
        ],
        "postalCode": "M9W5Z2",
        "streetName": "ATTWELL",
        "streetDirectionId": null,
        "streetTypeId": "DR",
        "placeName": "ETOBICOKE",
        "streetNameDisplayText": "ATTWELL DR, ETOBICOKE"
      }
    ]
  },
  {
    "postal": "M9W7P3",
    "result": []
  },
  {
    "postal": "M9W2K3",
    "result": [
      {
        "electoralDistricts": [
          {
            "election": null,
            "id": 30,
            "name": "Etobicoke North"
          }
        ],
        "pollDivisionIds": [
          10138217
        ],
        "postalCode": "M9W2K3",
        "streetName": "ELMHURST",
        "streetDirectionId": null,
        "streetTypeId": "DR",
        "placeName": "ETOBICOKE",
        "streetNameDisplayText": "ELMHURST DR, ETOBICOKE"
      }
    ]
  },
  {
    "postal": "M9W7Y6",
    "result": []
  },
  {
    "postal": "M9W1L9",
    "result": [
      {
        "electoralDistricts": [
          {
            "election": null,
            "id": 30,
            "name": "Etobicoke North"
          }
        ],
        "pollDivisionIds": [
          10138211
        ],
        "postalCode": "M9W1L9",
        "streetName": "DISCO",
        "streetDirectionId": null,
        "streetTypeId": "RD",
        "placeName": "ETOBICOKE",
        "streetNameDisplayText": "DISCO RD, ETOBICOKE"
      }
    ]
  },
  {
    "postal": "M9W8T0",
    "result": []
  },
  {
    "postal": "M9W3K8",
    "result": [
      {
        "electoralDistricts": [
          {
            "election": null,
            "id": 30,
            "name": "Etobicoke North"
          }
        ],
        "pollDivisionIds": [
          10138206
        ],
        "postalCode": "M9W3K8",
        "streetName": "GUINESS",
        "streetDirectionId": null,
        "streetTypeId": "AVE",
        "placeName": "ETOBICOKE",
        "streetNameDisplayText": "GUINESS AVE, ETOBICOKE"
      }
    ]
  },
  {
    "postal": "M9W5W9",
    "result": [
      {
        "electoralDistricts": [
          {
            "election": null,
            "id": 30,
            "name": "Etobicoke North"
          }
        ],
        "pollDivisionIds": [
          10138225
        ],
        "postalCode": "M9W5W9",
        "streetName": "ISLINGTON",
        "streetDirectionId": null,
        "streetTypeId": "AVE",
        "placeName": "ETOBICOKE",
        "streetNameDisplayText": "ISLINGTON AVE, ETOBICOKE"
      }
    ]
  },
  {
    "postal": "M9W6T9",
    "result": [
      {
        "electoralDistricts": [
          {
            "election": null,
            "id": 30,
            "name": "Etobicoke North"
          }
        ],
        "pollDivisionIds": [
          10138211
        ],
        "postalCode": "M9W6T9",
        "streetName": "ATTWELL",
        "streetDirectionId": null,
        "streetTypeId": "DR",
        "placeName": "ETOBICOKE",
        "streetNameDisplayText": "ATTWELL DR, ETOBICOKE"
      }
    ]
  },
  {
    "postal": "M9W4H1",
    "result": [
      {
        "electoralDistricts": [
          {
            "election": null,
            "id": 30,
            "name": "Etobicoke North"
          }
        ],
        "pollDivisionIds": [
          10138216
        ],
        "postalCode": "M9W4H1",
        "streetName": "RIVERHEAD",
        "streetDirectionId": null,
        "streetTypeId": "DR",
        "placeName": "ETOBICOKE",
        "streetNameDisplayText": "RIVERHEAD DR, ETOBICOKE"
      }
    ]
  },
  {
    "postal": "M9W7A2",
    "result": []
  },
  {
    "postal": "M9W5G0",
    "result": []
  },
  {
    "postal": "M9W8V5",
    "result": []
  },
  {
    "postal": "M9W2Y8",
    "result": [
      {
        "electoralDistricts": [
          {
            "election": null,
            "id": 30,
            "name": "Etobicoke North"
          }
        ],
        "pollDivisionIds": [
          10138216
        ],
        "postalCode": "M9W2Y8",
        "streetName": "CHECKENDON",
        "streetDirectionId": null,
        "streetTypeId": "DR",
        "placeName": "ETOBICOKE",
        "streetNameDisplayText": "CHECKENDON DR, ETOBICOKE"
      }
    ]
  },
  {
    "postal": "M9W2B6",
    "result": [
      {
        "electoralDistricts": [
          {
            "election": null,
            "id": 30,
            "name": "Etobicoke North"
          }
        ],
        "pollDivisionIds": [
          10138218
        ],
        "postalCode": "M9W2B6",
        "streetName": "SHENDALE",
        "streetDirectionId": null,
        "streetTypeId": "DR",
        "placeName": "ETOBICOKE",
        "streetNameDisplayText": "SHENDALE DR, ETOBICOKE"
      }
    ]
  },
  {
    "postal": "M9W4W8",
    "result": []
  },
  {
    "postal": "M9W8H7",
    "result": []
  },
  {
    "postal": "M9W5P1",
    "result": [
      {
        "electoralDistricts": [
          {
            "election": null,
            "id": 30,
            "name": "Etobicoke North"
          }
        ],
        "pollDivisionIds": [
          10138211
        ],
        "postalCode": "M9W5P1",
        "streetName": "GALAXY",
        "streetDirectionId": null,
        "streetTypeId": "BLVD",
        "placeName": "ETOBICOKE",
        "streetNameDisplayText": "GALAXY BLVD, ETOBICOKE"
      }
    ]
  },
  {
    "postal": "M9W2B8",
    "result": [
      {
        "electoralDistricts": [
          {
            "election": null,
            "id": 30,
            "name": "Etobicoke North"
          }
        ],
        "pollDivisionIds": [
          10138217
        ],
        "postalCode": "M9W2B8",
        "streetName": "TOFIELD",
        "streetDirectionId": null,
        "streetTypeId": "CRES",
        "placeName": "ETOBICOKE",
        "streetNameDisplayText": "TOFIELD CRES, ETOBICOKE"
      }
    ]
  },
  {
    "postal": "M9W0P2",
    "result": []
  },
  {
    "postal": "M9W9M1",
    "result": []
  },
  {
    "postal": "M9W3G0",
    "result": []
  },
  {
    "postal": "M9W9Z2",
    "result": []
  },
  {
    "postal": "M9W2A0",
    "result": []
  },
  {
    "postal": "M9W6Y0",
    "result": []
  },
  {
    "postal": "M9W2Z8",
    "result": []
  },
  {
    "postal": "M9W7Y3",
    "result": []
  },
  {
    "postal": "M9W6Z5",
    "result": [
      {
        "electoralDistricts": [
          {
            "election": null,
            "id": 30,
            "name": "Etobicoke North"
          }
        ],
        "pollDivisionIds": [
          10138212
        ],
        "postalCode": "M9W6Z5",
        "streetName": "QUEEN'S PLATE",
        "streetDirectionId": null,
        "streetTypeId": "DR",
        "placeName": "ETOBICOKE",
        "streetNameDisplayText": "QUEEN'S PLATE DR, ETOBICOKE"
      }
    ]
  },
  {
    "postal": "M9W6E0",
    "result": []
  },
  {
    "postal": "M9W9B7",
    "result": []
  },
  {
    "postal": "M9W9S5",
    "result": []
  },
  {
    "postal": "M9W3X3",
    "result": [
      {
        "electoralDistricts": [
          {
            "election": null,
            "id": 30,
            "name": "Etobicoke North"
          }
        ],
        "pollDivisionIds": [
          10138217
        ],
        "postalCode": "M9W3X3",
        "streetName": "ISLINGTON",
        "streetDirectionId": null,
        "streetTypeId": "AVE",
        "placeName": "ETOBICOKE",
        "streetNameDisplayText": "ISLINGTON AVE, ETOBICOKE"
      }
    ]
  },
  {
    "postal": "M9W7R5",
    "result": []
  },
  {
    "postal": "M9W2X3",
    "result": [
      {
        "electoralDistricts": [
          {
            "election": null,
            "id": 30,
            "name": "Etobicoke North"
          }
        ],
        "pollDivisionIds": [
          10138216
        ],
        "postalCode": "M9W2X3",
        "streetName": "HENLEY",
        "streetDirectionId": null,
        "streetTypeId": "CRES",
        "placeName": "ETOBICOKE",
        "streetNameDisplayText": "HENLEY CRES, ETOBICOKE"
      }
    ]
  },
  {
    "postal": "M9W8Z9",
    "result": []
  },
  {
    "postal": "M9W0N4",
    "result": []
  },
  {
    "postal": "M9W1K1",
    "result": [
      {
        "electoralDistricts": [
          {
            "election": null,
            "id": 30,
            "name": "Etobicoke North"
          }
        ],
        "pollDivisionIds": [
          10138211
        ],
        "postalCode": "M9W1K1",
        "streetName": "CONSTELLATION",
        "streetDirectionId": null,
        "streetTypeId": "CRT",
        "placeName": "ETOBICOKE",
        "streetNameDisplayText": "CONSTELLATION CRT, ETOBICOKE"
      }
    ]
  },
  {
    "postal": "M9W1S3",
    "result": []
  },
  {
    "postal": "M9W6M4",
    "result": []
  },
  {
    "postal": "M9W9A9",
    "result": []
  },
  {
    "postal": "M9W9Z9",
    "result": []
  },
  {
    "postal": "M9W6T4",
    "result": [
      {
        "electoralDistricts": [
          {
            "election": null,
            "id": 30,
            "name": "Etobicoke North"
          }
        ],
        "pollDivisionIds": [
          10138212
        ],
        "postalCode": "M9W6T4",
        "streetName": "REXDALE",
        "streetDirectionId": null,
        "streetTypeId": "BLVD",
        "placeName": "ETOBICOKE",
        "streetNameDisplayText": "REXDALE BLVD, ETOBICOKE"
      }
    ]
  },
  {
    "postal": "M9W0B2",
    "result": []
  },
  {
    "postal": "M9W2L9",
    "result": [
      {
        "electoralDistricts": [
          {
            "election": null,
            "id": 30,
            "name": "Etobicoke North"
          }
        ],
        "pollDivisionIds": [
          10138216
        ],
        "postalCode": "M9W2L9",
        "streetName": "ELMHURST",
        "streetDirectionId": null,
        "streetTypeId": "DR",
        "placeName": "ETOBICOKE",
        "streetNameDisplayText": "ELMHURST DR, ETOBICOKE"
      }
    ]
  },
  {
    "postal": "M9W8K9",
    "result": []
  },
  {
    "postal": "M9W2H9",
    "result": [
      {
        "electoralDistricts": [
          {
            "election": null,
            "id": 30,
            "name": "Etobicoke North"
          }
        ],
        "pollDivisionIds": [
          10138218
        ],
        "postalCode": "M9W2H9",
        "streetName": "GOLFDOWN",
        "streetDirectionId": null,
        "streetTypeId": "DR",
        "placeName": "ETOBICOKE",
        "streetNameDisplayText": "GOLFDOWN DR, ETOBICOKE"
      }
    ]
  },
  {
    "postal": "M9W3Z6",
    "result": [
      {
        "electoralDistricts": [
          {
            "election": null,
            "id": 30,
            "name": "Etobicoke North"
          }
        ],
        "pollDivisionIds": [
          10138217
        ],
        "postalCode": "M9W3Z6",
        "streetName": "BARRHEAD",
        "streetDirectionId": null,
        "streetTypeId": "CRES",
        "placeName": "ETOBICOKE",
        "streetNameDisplayText": "BARRHEAD CRES, ETOBICOKE"
      }
    ]
  },
  {
    "postal": "M9W3B0",
    "result": []
  },
  {
    "postal": "M9W2H8",
    "result": [
      {
        "electoralDistricts": [
          {
            "election": null,
            "id": 30,
            "name": "Etobicoke North"
          }
        ],
        "pollDivisionIds": [
          10138218
        ],
        "postalCode": "M9W2H8",
        "streetName": "GOLFDOWN",
        "streetDirectionId": null,
        "streetTypeId": "DR",
        "placeName": "ETOBICOKE",
        "streetNameDisplayText": "GOLFDOWN DR, ETOBICOKE"
      }
    ]
  },
  {
    "postal": "M9W3X2",
    "result": [
      {
        "electoralDistricts": [
          {
            "election": null,
            "id": 30,
            "name": "Etobicoke North"
          }
        ],
        "pollDivisionIds": [
          10138217
        ],
        "postalCode": "M9W3X2",
        "streetName": "ISLINGTON",
        "streetDirectionId": null,
        "streetTypeId": "AVE",
        "placeName": "ETOBICOKE",
        "streetNameDisplayText": "ISLINGTON AVE, ETOBICOKE"
      }
    ]
  },
  {
    "postal": "M9W2E9",
    "result": [
      {
        "electoralDistricts": [
          {
            "election": null,
            "id": 30,
            "name": "Etobicoke North"
          }
        ],
        "pollDivisionIds": [
          10138217
        ],
        "postalCode": "M9W2E9",
        "streetName": "CLEARBROOKE",
        "streetDirectionId": null,
        "streetTypeId": "CIR",
        "placeName": "ETOBICOKE",
        "streetNameDisplayText": "CLEARBROOKE CIR, ETOBICOKE"
      }
    ]
  },
  {
    "postal": "M9W9P6",
    "result": []
  },
  {
    "postal": "M9W9E2",
    "result": []
  },
  {
    "postal": "M9W9H2",
    "result": []
  },
  {
    "postal": "M9W1S8",
    "result": [
      {
        "electoralDistricts": [
          {
            "election": null,
            "id": 30,
            "name": "Etobicoke North"
          }
        ],
        "pollDivisionIds": [
          10138205
        ],
        "postalCode": "M9W1S8",
        "streetName": "ALLENBY",
        "streetDirectionId": null,
        "streetTypeId": "AVE",
        "placeName": "ETOBICOKE",
        "streetNameDisplayText": "ALLENBY AVE, ETOBICOKE"
      }
    ]
  },
  {
    "postal": "M9W3M6",
    "result": [
      {
        "electoralDistricts": [
          {
            "election": null,
            "id": 30,
            "name": "Etobicoke North"
          }
        ],
        "pollDivisionIds": [
          10138206
        ],
        "postalCode": "M9W3M6",
        "streetName": "WESTHUMBER",
        "streetDirectionId": null,
        "streetTypeId": "BLVD",
        "placeName": "ETOBICOKE",
        "streetNameDisplayText": "WESTHUMBER BLVD, ETOBICOKE"
      }
    ]
  },
  {
    "postal": "M9W6Z8",
    "result": []
  },
  {
    "postal": "M9W4J2",
    "result": []
  },
  {
    "postal": "M9W9Y1",
    "result": []
  },
  {
    "postal": "M9W8V6",
    "result": []
  },
  {
    "postal": "M9W6B2",
    "result": [
      {
        "electoralDistricts": [
          {
            "election": null,
            "id": 30,
            "name": "Etobicoke North"
          }
        ],
        "pollDivisionIds": [
          10138206
        ],
        "postalCode": "M9W6B2",
        "streetName": "RACINE",
        "streetDirectionId": null,
        "streetTypeId": "RD",
        "placeName": "ETOBICOKE",
        "streetNameDisplayText": "RACINE RD, ETOBICOKE"
      }
    ]
  },
  {
    "postal": "M9W1P8",
    "result": []
  },
  {
    "postal": "M9W0V8",
    "result": []
  },
  {
    "postal": "M9W4Y0",
    "result": []
  },
  {
    "postal": "M9W2T4",
    "result": [
      {
        "electoralDistricts": [
          {
            "election": null,
            "id": 30,
            "name": "Etobicoke North"
          }
        ],
        "pollDivisionIds": [
          10138217
        ],
        "postalCode": "M9W2T4",
        "streetName": "FORDWICH",
        "streetDirectionId": null,
        "streetTypeId": "CRES",
        "placeName": "ETOBICOKE",
        "streetNameDisplayText": "FORDWICH CRES, ETOBICOKE"
      }
    ]
  },
  {
    "postal": "M9W2S3",
    "result": [
      {
        "electoralDistricts": [
          {
            "election": null,
            "id": 30,
            "name": "Etobicoke North"
          }
        ],
        "pollDivisionIds": [
          10138217
        ],
        "postalCode": "M9W2S3",
        "streetName": "KINLOSS",
        "streetDirectionId": null,
        "streetTypeId": "RD",
        "placeName": "ETOBICOKE",
        "streetNameDisplayText": "KINLOSS RD, ETOBICOKE"
      }
    ]
  },
  {
    "postal": "M9W0K0",
    "result": []
  },
  {
    "postal": "M9W5N1",
    "result": [
      {
        "electoralDistricts": [
          {
            "election": null,
            "id": 30,
            "name": "Etobicoke North"
          }
        ],
        "pollDivisionIds": [
          10138211
        ],
        "postalCode": "M9W5N1",
        "streetName": "BROCKPORT",
        "streetDirectionId": null,
        "streetTypeId": "DR",
        "placeName": "ETOBICOKE",
        "streetNameDisplayText": "BROCKPORT DR, ETOBICOKE"
      }
    ]
  },
  {
    "postal": "M9W7T0",
    "result": []
  },
  {
    "postal": "M9W9N2",
    "result": []
  },
  {
    "postal": "M9W5L1",
    "result": []
  },
  {
    "postal": "M9W7G5",
    "result": [
      {
        "electoralDistricts": [
          {
            "election": null,
            "id": 30,
            "name": "Etobicoke North"
          }
        ],
        "pollDivisionIds": [
          10138212
        ],
        "postalCode": "M9W7G5",
        "streetName": "VIEWCREST",
        "streetDirectionId": null,
        "streetTypeId": "CIR",
        "placeName": "ETOBICOKE",
        "streetNameDisplayText": "VIEWCREST CIR, ETOBICOKE"
      }
    ]
  },
  {
    "postal": "M9W6K2",
    "result": []
  },
  {
    "postal": "M9W6P9",
    "result": [
      {
        "electoralDistricts": [
          {
            "election": null,
            "id": 30,
            "name": "Etobicoke North"
          }
        ],
        "pollDivisionIds": [
          10138224
        ],
        "postalCode": "M9W6P9",
        "streetName": "GOODMARK",
        "streetDirectionId": null,
        "streetTypeId": "PL",
        "placeName": "ETOBICOKE",
        "streetNameDisplayText": "GOODMARK PL, ETOBICOKE"
      }
    ]
  },
  {
    "postal": "M9W0E6",
    "result": []
  },
  {
    "postal": "M9W8R9",
    "result": []
  },
  {
    "postal": "M9W3G9",
    "result": [
      {
        "electoralDistricts": [
          {
            "election": null,
            "id": 30,
            "name": "Etobicoke North"
          }
        ],
        "pollDivisionIds": [
          10138206
        ],
        "postalCode": "M9W3G9",
        "streetName": "GUNTON",
        "streetDirectionId": null,
        "streetTypeId": "DR",
        "placeName": "ETOBICOKE",
        "streetNameDisplayText": "GUNTON DR, ETOBICOKE"
      },
      {
        "electoralDistricts": [
          {
            "election": null,
            "id": 30,
            "name": "Etobicoke North"
          }
        ],
        "pollDivisionIds": [
          10138206
        ],
        "postalCode": "M9W3G9",
        "streetName": "GUNTON",
        "streetDirectionId": null,
        "streetTypeId": "DR",
        "placeName": "TORONTO",
        "streetNameDisplayText": "GUNTON DR, TORONTO"
      }
    ]
  },
  {
    "postal": "M9W0V7",
    "result": []
  },
  {
    "postal": "M9W2Z1",
    "result": [
      {
        "electoralDistricts": [
          {
            "election": null,
            "id": 30,
            "name": "Etobicoke North"
          }
        ],
        "pollDivisionIds": [
          10138206
        ],
        "postalCode": "M9W2Z1",
        "streetName": "RACINE",
        "streetDirectionId": null,
        "streetTypeId": "RD",
        "placeName": "ETOBICOKE",
        "streetNameDisplayText": "RACINE RD, ETOBICOKE"
      }
    ]
  },
  {
    "postal": "M9W7N1",
    "result": []
  },
  {
    "postal": "M9W3C6",
    "result": [
      {
        "electoralDistricts": [
          {
            "election": null,
            "id": 30,
            "name": "Etobicoke North"
          }
        ],
        "pollDivisionIds": [
          10138206
        ],
        "postalCode": "M9W3C6",
        "streetName": "JEFFCOAT",
        "streetDirectionId": null,
        "streetTypeId": "DR",
        "placeName": "ETOBICOKE",
        "streetNameDisplayText": "JEFFCOAT DR, ETOBICOKE"
      }
    ]
  },
  {
    "postal": "M9W4M1",
    "result": [
      {
        "electoralDistricts": [
          {
            "election": null,
            "id": 30,
            "name": "Etobicoke North"
          }
        ],
        "pollDivisionIds": [
          10138211
        ],
        "postalCode": "M9W4M1",
        "streetName": "CANSO",
        "streetDirectionId": null,
        "streetTypeId": "RD",
        "placeName": "ETOBICOKE",
        "streetNameDisplayText": "CANSO RD, ETOBICOKE"
      }
    ]
  },
  {
    "postal": "M9W9K2",
    "result": []
  },
  {
    "postal": "M9W9S6",
    "result": []
  },
  {
    "postal": "M9W4X1",
    "result": [
      {
        "electoralDistricts": [
          {
            "election": null,
            "id": 30,
            "name": "Etobicoke North"
          }
        ],
        "pollDivisionIds": [
          10138211
        ],
        "postalCode": "M9W4X1",
        "streetName": "MARTIN GROVE",
        "streetDirectionId": null,
        "streetTypeId": "RD",
        "placeName": "ETOBICOKE",
        "streetNameDisplayText": "MARTIN GROVE RD, ETOBICOKE"
      }
    ]
  },
  {
    "postal": "M9W8W2",
    "result": []
  },
  {
    "postal": "M9W7N2",
    "result": []
  },
  {
    "postal": "M9W8S3",
    "result": []
  },
  {
    "postal": "M9W4V0",
    "result": []
  },
  {
    "postal": "M9W6W4",
    "result": [
      {
        "electoralDistricts": [
          {
            "election": null,
            "id": 30,
            "name": "Etobicoke North"
          }
        ],
        "pollDivisionIds": [
          10138212
        ],
        "postalCode": "M9W6W4",
        "streetName": "CINRICKBAR",
        "streetDirectionId": null,
        "streetTypeId": "DR",
        "placeName": "ETOBICOKE",
        "streetNameDisplayText": "CINRICKBAR DR, ETOBICOKE"
      },
      {
        "electoralDistricts": [
          {
            "election": null,
            "id": 30,
            "name": "Etobicoke North"
          }
        ],
        "pollDivisionIds": [
          10138212
        ],
        "postalCode": "M9W6W4",
        "streetName": "HULLRICK",
        "streetDirectionId": null,
        "streetTypeId": "DR",
        "placeName": "ETOBICOKE",
        "streetNameDisplayText": "HULLRICK DR, ETOBICOKE"
      }
    ]
  },
  {
    "postal": "M9W5M1",
    "result": []
  },
  {
    "postal": "M9W0S4",
    "result": []
  },
  {
    "postal": "M9W5X6",
    "result": [
      {
        "electoralDistricts": [
          {
            "election": null,
            "id": 30,
            "name": "Etobicoke North"
          }
        ],
        "pollDivisionIds": [
          10138211
        ],
        "postalCode": "M9W5X6",
        "streetName": "GALAXY",
        "streetDirectionId": null,
        "streetTypeId": "BLVD",
        "placeName": "ETOBICOKE",
        "streetNameDisplayText": "GALAXY BLVD, ETOBICOKE"
      }
    ]
  },
  {
    "postal": "M9W8L5",
    "result": []
  },
  {
    "postal": "M9W5M8",
    "result": [
      {
        "electoralDistricts": [
          {
            "election": null,
            "id": 30,
            "name": "Etobicoke North"
          }
        ],
        "pollDivisionIds": [
          10138211
        ],
        "postalCode": "M9W5M8",
        "streetName": "FASKEN",
        "streetDirectionId": null,
        "streetTypeId": "DR",
        "placeName": "ETOBICOKE",
        "streetNameDisplayText": "FASKEN DR, ETOBICOKE"
      }
    ]
  },
  {
    "postal": "M9W2G3",
    "result": [
      {
        "electoralDistricts": [
          {
            "election": null,
            "id": 30,
            "name": "Etobicoke North"
          }
        ],
        "pollDivisionIds": [
          10138217
        ],
        "postalCode": "M9W2G3",
        "streetName": "CLEARBROOKE",
        "streetDirectionId": null,
        "streetTypeId": "CIR",
        "placeName": "ETOBICOKE",
        "streetNameDisplayText": "CLEARBROOKE CIR, ETOBICOKE"
      }
    ]
  },
  {
    "postal": "M9W8E4",
    "result": []
  },
  {
    "postal": "M9W7S9",
    "result": []
  },
  {
    "postal": "M9W1K3",
    "result": []
  },
  {
    "postal": "M9W4E1",
    "result": [
      {
        "electoralDistricts": [
          {
            "election": null,
            "id": 30,
            "name": "Etobicoke North"
          }
        ],
        "pollDivisionIds": [
          10138216
        ],
        "postalCode": "M9W4E1",
        "streetName": "HAREFIELD",
        "streetDirectionId": null,
        "streetTypeId": "DR",
        "placeName": "ETOBICOKE",
        "streetNameDisplayText": "HAREFIELD DR, ETOBICOKE"
      }
    ]
  },
  {
    "postal": "M9W4R2",
    "result": [
      {
        "electoralDistricts": [
          {
            "election": null,
            "id": 30,
            "name": "Etobicoke North"
          }
        ],
        "pollDivisionIds": [
          10138206
        ],
        "postalCode": "M9W4R2",
        "streetName": "HEATHERGLEN",
        "streetDirectionId": null,
        "streetTypeId": "RD",
        "placeName": "ETOBICOKE",
        "streetNameDisplayText": "HEATHERGLEN RD, ETOBICOKE"
      }
    ]
  },
  {
    "postal": "M9W6T0",
    "result": []
  },
  {
    "postal": "M9W3K5",
    "result": [
      {
        "electoralDistricts": [
          {
            "election": null,
            "id": 30,
            "name": "Etobicoke North"
          }
        ],
        "pollDivisionIds": [
          10138211
        ],
        "postalCode": "M9W3K5",
        "streetName": "MILLVIEW",
        "streetDirectionId": null,
        "streetTypeId": "CRES",
        "placeName": "ETOBICOKE",
        "streetNameDisplayText": "MILLVIEW CRES, ETOBICOKE"
      }
    ]
  },
  {
    "postal": "M9W3S3",
    "result": [
      {
        "electoralDistricts": [
          {
            "election": null,
            "id": 30,
            "name": "Etobicoke North"
          }
        ],
        "pollDivisionIds": [
          10138205
        ],
        "postalCode": "M9W3S3",
        "streetName": "CHALFONT",
        "streetDirectionId": null,
        "streetTypeId": "RD",
        "placeName": "ETOBICOKE",
        "streetNameDisplayText": "CHALFONT RD, ETOBICOKE"
      }
    ]
  },
  {
    "postal": "M9W3L4",
    "result": [
      {
        "electoralDistricts": [
          {
            "election": null,
            "id": 30,
            "name": "Etobicoke North"
          }
        ],
        "pollDivisionIds": [
          10138206
        ],
        "postalCode": "M9W3L4",
        "streetName": "WAXHAM",
        "streetDirectionId": null,
        "streetTypeId": "RD",
        "placeName": "ETOBICOKE",
        "streetNameDisplayText": "WAXHAM RD, ETOBICOKE"
      }
    ]
  },
  {
    "postal": "M9W9Y2",
    "result": []
  },
  {
    "postal": "M9W1E0",
    "result": []
  },
  {
    "postal": "M9W9A4",
    "result": []
  },
  {
    "postal": "M9W1L3",
    "result": [
      {
        "electoralDistricts": [
          {
            "election": null,
            "id": 30,
            "name": "Etobicoke North"
          }
        ],
        "pollDivisionIds": [
          10138211
        ],
        "postalCode": "M9W1L3",
        "streetName": "VULCAN",
        "streetDirectionId": null,
        "streetTypeId": "ST",
        "placeName": "ETOBICOKE",
        "streetNameDisplayText": "VULCAN ST, ETOBICOKE"
      }
    ]
  },
  {
    "postal": "M9W6N1",
    "result": []
  },
  {
    "postal": "M9W6G7",
    "result": [
      {
        "electoralDistricts": [
          {
            "election": null,
            "id": 30,
            "name": "Etobicoke North"
          }
        ],
        "pollDivisionIds": [
          10138214
        ],
        "postalCode": "M9W6G7",
        "streetName": "BRIARWOOD",
        "streetDirectionId": null,
        "streetTypeId": "AVE",
        "placeName": "ETOBICOKE",
        "streetNameDisplayText": "BRIARWOOD AVE, ETOBICOKE"
      }
    ]
  },
  {
    "postal": "M9W7W1",
    "result": []
  },
  {
    "postal": "M9W4M6",
    "result": [
      {
        "electoralDistricts": [
          {
            "election": null,
            "id": 30,
            "name": "Etobicoke North"
          }
        ],
        "pollDivisionIds": [
          10138211
        ],
        "postalCode": "M9W4M6",
        "streetName": "MCCULLOCH",
        "streetDirectionId": null,
        "streetTypeId": "AVE",
        "placeName": "ETOBICOKE",
        "streetNameDisplayText": "MCCULLOCH AVE, ETOBICOKE"
      }
    ]
  },
  {
    "postal": "M9W1K0",
    "result": []
  },
  {
    "postal": "M9W3E2",
    "result": [
      {
        "electoralDistricts": [
          {
            "election": null,
            "id": 30,
            "name": "Etobicoke North"
          }
        ],
        "pollDivisionIds": [
          10138211
        ],
        "postalCode": "M9W3E2",
        "streetName": "JEFFCOAT",
        "streetDirectionId": null,
        "streetTypeId": "DR",
        "placeName": "ETOBICOKE",
        "streetNameDisplayText": "JEFFCOAT DR, ETOBICOKE"
      }
    ]
  },
  {
    "postal": "M9W5H4",
    "result": [
      {
        "electoralDistricts": [
          {
            "election": null,
            "id": 30,
            "name": "Etobicoke North"
          }
        ],
        "pollDivisionIds": [
          10138211
        ],
        "postalCode": "M9W5H4",
        "streetName": "TIDEMORE",
        "streetDirectionId": null,
        "streetTypeId": "AVE",
        "placeName": "ETOBICOKE",
        "streetNameDisplayText": "TIDEMORE AVE, ETOBICOKE"
      }
    ]
  },
  {
    "postal": "M9W1K7",
    "result": [
      {
        "electoralDistricts": [
          {
            "election": null,
            "id": 30,
            "name": "Etobicoke North"
          }
        ],
        "pollDivisionIds": [
          10138211
        ],
        "postalCode": "M9W1K7",
        "streetName": "WORCESTER",
        "streetDirectionId": null,
        "streetTypeId": "RD",
        "placeName": "ETOBICOKE",
        "streetNameDisplayText": "WORCESTER RD, ETOBICOKE"
      }
    ]
  },
  {
    "postal": "M9W0H0",
    "result": []
  },
  {
    "postal": "M9W0J3",
    "result": []
  },
  {
    "postal": "M9W1X6",
    "result": [
      {
        "electoralDistricts": [
          {
            "election": null,
            "id": 30,
            "name": "Etobicoke North"
          }
        ],
        "pollDivisionIds": [
          10138205
        ],
        "postalCode": "M9W1X6",
        "streetName": "NORFIELD",
        "streetDirectionId": null,
        "streetTypeId": "CRES",
        "placeName": "ETOBICOKE",
        "streetNameDisplayText": "NORFIELD CRES, ETOBICOKE"
      }
    ]
  },
  {
    "postal": "M9W2Z6",
    "result": []
  },
  {
    "postal": "M9W4R9",
    "result": [
      {
        "electoralDistricts": [
          {
            "election": null,
            "id": 30,
            "name": "Etobicoke North"
          }
        ],
        "pollDivisionIds": [
          10138206
        ],
        "postalCode": "M9W4R9",
        "streetName": "AMORO",
        "streetDirectionId": null,
        "streetTypeId": "DR",
        "placeName": "ETOBICOKE",
        "streetNameDisplayText": "AMORO DR, ETOBICOKE"
      }
    ]
  },
  {
    "postal": "M9W0W8",
    "result": []
  },
  {
    "postal": "M9W1L4",
    "result": [
      {
        "electoralDistricts": [
          {
            "election": null,
            "id": 30,
            "name": "Etobicoke North"
          }
        ],
        "pollDivisionIds": [
          10138211
        ],
        "postalCode": "M9W1L4",
        "streetName": "VULCAN",
        "streetDirectionId": null,
        "streetTypeId": "ST",
        "placeName": "ETOBICOKE",
        "streetNameDisplayText": "VULCAN ST, ETOBICOKE"
      }
    ]
  },
  {
    "postal": "M9W0C8",
    "result": []
  },
  {
    "postal": "M9W9X7",
    "result": []
  },
  {
    "postal": "M9W4T1",
    "result": [
      {
        "electoralDistricts": [
          {
            "election": null,
            "id": 30,
            "name": "Etobicoke North"
          }
        ],
        "pollDivisionIds": [
          10138206
        ],
        "postalCode": "M9W4T1",
        "streetName": "DELSING",
        "streetDirectionId": null,
        "streetTypeId": "DR",
        "placeName": "ETOBICOKE",
        "streetNameDisplayText": "DELSING DR, ETOBICOKE"
      }
    ]
  },
  {
    "postal": "M9W0M0",
    "result": []
  },
  {
    "postal": "M9W6A2",
    "result": [
      {
        "electoralDistricts": [
          {
            "election": null,
            "id": 30,
            "name": "Etobicoke North"
          }
        ],
        "pollDivisionIds": [
          10138211
        ],
        "postalCode": "M9W6A2",
        "streetName": "CARLSON",
        "streetDirectionId": null,
        "streetTypeId": "CRT",
        "placeName": "ETOBICOKE",
        "streetNameDisplayText": "CARLSON CRT, ETOBICOKE"
      }
    ]
  },
  {
    "postal": "M9W9S8",
    "result": []
  },
  {
    "postal": "M9W9T4",
    "result": []
  },
  {
    "postal": "M9W9Y4",
    "result": []
  },
  {
    "postal": "M9W6G5",
    "result": [
      {
        "electoralDistricts": [
          {
            "election": null,
            "id": 30,
            "name": "Etobicoke North"
          }
        ],
        "pollDivisionIds": [
          10138214
        ],
        "postalCode": "M9W6G5",
        "streetName": "COLLANUS",
        "streetDirectionId": null,
        "streetTypeId": "CRT",
        "placeName": "ETOBICOKE",
        "streetNameDisplayText": "COLLANUS CRT, ETOBICOKE"
      }
    ]
  },
  {
    "postal": "M9W6H9",
    "result": [
      {
        "electoralDistricts": [
          {
            "election": null,
            "id": 30,
            "name": "Etobicoke North"
          }
        ],
        "pollDivisionIds": [
          10138224
        ],
        "postalCode": "M9W6H9",
        "streetName": "STEINWAY",
        "streetDirectionId": null,
        "streetTypeId": "BLVD",
        "placeName": "ETOBICOKE",
        "streetNameDisplayText": "STEINWAY BLVD, ETOBICOKE"
      }
    ]
  },
  {
    "postal": "M9W2P3",
    "result": [
      {
        "electoralDistricts": [
          {
            "election": null,
            "id": 30,
            "name": "Etobicoke North"
          }
        ],
        "pollDivisionIds": [
          10138205
        ],
        "postalCode": "M9W2P3",
        "streetName": "PYLON",
        "streetDirectionId": null,
        "streetTypeId": "PL",
        "placeName": "ETOBICOKE",
        "streetNameDisplayText": "PYLON PL, ETOBICOKE"
      }
    ]
  },
  {
    "postal": "M9W1T6",
    "result": [
      {
        "electoralDistricts": [
          {
            "election": null,
            "id": 30,
            "name": "Etobicoke North"
          }
        ],
        "pollDivisionIds": [
          10138205
        ],
        "postalCode": "M9W1T6",
        "streetName": "BONIFACE",
        "streetDirectionId": null,
        "streetTypeId": "AVE",
        "placeName": "ETOBICOKE",
        "streetNameDisplayText": "BONIFACE AVE, ETOBICOKE"
      }
    ]
  },
  {
    "postal": "M9W4P6",
    "result": [
      {
        "electoralDistricts": [
          {
            "election": null,
            "id": 30,
            "name": "Etobicoke North"
          }
        ],
        "pollDivisionIds": [
          10138206
        ],
        "postalCode": "M9W4P6",
        "streetName": "BILLCAR",
        "streetDirectionId": null,
        "streetTypeId": "RD",
        "placeName": "ETOBICOKE",
        "streetNameDisplayText": "BILLCAR RD, ETOBICOKE"
      }
    ]
  },
  {
    "postal": "M9W3K1",
    "result": [
      {
        "electoralDistricts": [
          {
            "election": null,
            "id": 30,
            "name": "Etobicoke North"
          }
        ],
        "pollDivisionIds": [
          10138211
        ],
        "postalCode": "M9W3K1",
        "streetName": "PORTERFIELD",
        "streetDirectionId": null,
        "streetTypeId": "RD",
        "placeName": "ETOBICOKE",
        "streetNameDisplayText": "PORTERFIELD RD, ETOBICOKE"
      }
    ]
  },
  {
    "postal": "M9W6X4",
    "result": [
      {
        "electoralDistricts": [
          {
            "election": null,
            "id": 30,
            "name": "Etobicoke North"
          }
        ],
        "pollDivisionIds": [
          10138212
        ],
        "postalCode": "M9W6X4",
        "streetName": "CINRICKBAR",
        "streetDirectionId": null,
        "streetTypeId": "DR",
        "placeName": "ETOBICOKE",
        "streetNameDisplayText": "CINRICKBAR DR, ETOBICOKE"
      },
      {
        "electoralDistricts": [
          {
            "election": null,
            "id": 30,
            "name": "Etobicoke North"
          }
        ],
        "pollDivisionIds": [
          10138212
        ],
        "postalCode": "M9W6X4",
        "streetName": "SECRETARIAT",
        "streetDirectionId": null,
        "streetTypeId": "DR",
        "placeName": "ETOBICOKE",
        "streetNameDisplayText": "SECRETARIAT DR, ETOBICOKE"
      }
    ]
  },
  {
    "postal": "M9W4M8",
    "result": []
  },
  {
    "postal": "M9W2Y1",
    "result": [
      {
        "electoralDistricts": [
          {
            "election": null,
            "id": 30,
            "name": "Etobicoke North"
          }
        ],
        "pollDivisionIds": [
          10138216
        ],
        "postalCode": "M9W2Y1",
        "streetName": "KATRINE",
        "streetDirectionId": null,
        "streetTypeId": "RD",
        "placeName": "ETOBICOKE",
        "streetNameDisplayText": "KATRINE RD, ETOBICOKE"
      }
    ]
  },
  {
    "postal": "M9W6M1",
    "result": [
      {
        "electoralDistricts": [
          {
            "election": null,
            "id": 30,
            "name": "Etobicoke North"
          }
        ],
        "pollDivisionIds": [
          10138224
        ],
        "postalCode": "M9W6M1",
        "streetName": "GOODMARK",
        "streetDirectionId": null,
        "streetTypeId": "PL",
        "placeName": "ETOBICOKE",
        "streetNameDisplayText": "GOODMARK PL, ETOBICOKE"
      }
    ]
  },
  {
    "postal": "M9W5L8",
    "result": []
  },
  {
    "postal": "M9W3P6",
    "result": [
      {
        "electoralDistricts": [
          {
            "election": null,
            "id": 30,
            "name": "Etobicoke North"
          }
        ],
        "pollDivisionIds": [
          10138218
        ],
        "postalCode": "M9W3P6",
        "streetName": "ALBION",
        "streetDirectionId": null,
        "streetTypeId": "RD",
        "placeName": "ETOBICOKE",
        "streetNameDisplayText": "ALBION RD, ETOBICOKE"
      }
    ]
  },
  {
    "postal": "M9W9A5",
    "result": []
  },
  {
    "postal": "M9W7K1",
    "result": []
  },
  {
    "postal": "M9W3J4",
    "result": [
      {
        "electoralDistricts": [
          {
            "election": null,
            "id": 30,
            "name": "Etobicoke North"
          }
        ],
        "pollDivisionIds": [
          10138206
        ],
        "postalCode": "M9W3J4",
        "streetName": "PORTERFIELD",
        "streetDirectionId": null,
        "streetTypeId": "RD",
        "placeName": "ETOBICOKE",
        "streetNameDisplayText": "PORTERFIELD RD, ETOBICOKE"
      }
    ]
  },
  {
    "postal": "M9W5E7",
    "result": [
      {
        "electoralDistricts": [
          {
            "election": null,
            "id": 30,
            "name": "Etobicoke North"
          }
        ],
        "pollDivisionIds": [
          10138211
        ],
        "postalCode": "M9W5E7",
        "streetName": "CARLINGVIEW",
        "streetDirectionId": null,
        "streetTypeId": "DR",
        "placeName": "ETOBICOKE",
        "streetNameDisplayText": "CARLINGVIEW DR, ETOBICOKE"
      }
    ]
  },
  {
    "postal": "M9W3A7",
    "result": [
      {
        "electoralDistricts": [
          {
            "election": null,
            "id": 30,
            "name": "Etobicoke North"
          }
        ],
        "pollDivisionIds": [
          10138206
        ],
        "postalCode": "M9W3A7",
        "streetName": "TABER",
        "streetDirectionId": null,
        "streetTypeId": "RD",
        "placeName": "ETOBICOKE",
        "streetNameDisplayText": "TABER RD, ETOBICOKE"
      }
    ]
  },
  {
    "postal": "M9W1B9",
    "result": [
      {
        "electoralDistricts": [
          {
            "election": null,
            "id": 30,
            "name": "Etobicoke North"
          }
        ],
        "pollDivisionIds": [
          10138211
        ],
        "postalCode": "M9W1B9",
        "streetName": "RONSON",
        "streetDirectionId": null,
        "streetTypeId": "DR",
        "placeName": "ETOBICOKE",
        "streetNameDisplayText": "RONSON DR, ETOBICOKE"
      }
    ]
  },
  {
    "postal": "M9W9E8",
    "result": []
  },
  {
    "postal": "M9W1C9",
    "result": []
  },
  {
    "postal": "M9W3B5",
    "result": [
      {
        "electoralDistricts": [
          {
            "election": null,
            "id": 30,
            "name": "Etobicoke North"
          }
        ],
        "pollDivisionIds": [
          10138206
        ],
        "postalCode": "M9W3B5",
        "streetName": "JEFFCOAT",
        "streetDirectionId": null,
        "streetTypeId": "DR",
        "placeName": "ETOBICOKE",
        "streetNameDisplayText": "JEFFCOAT DR, ETOBICOKE"
      }
    ]
  },
  {
    "postal": "M9W8R0",
    "result": []
  },
  {
    "postal": "M9W3P2",
    "result": [
      {
        "electoralDistricts": [
          {
            "election": null,
            "id": 30,
            "name": "Etobicoke North"
          }
        ],
        "pollDivisionIds": [
          10138218
        ],
        "postalCode": "M9W3P2",
        "streetName": "ALBION",
        "streetDirectionId": null,
        "streetTypeId": "RD",
        "placeName": "ETOBICOKE",
        "streetNameDisplayText": "ALBION RD, ETOBICOKE"
      }
    ]
  },
  {
    "postal": "M9W5V4",
    "result": []
  },
  {
    "postal": "M9W4H0",
    "result": []
  },
  {
    "postal": "M9W4S7",
    "result": [
      {
        "electoralDistricts": [
          {
            "election": null,
            "id": 30,
            "name": "Etobicoke North"
          }
        ],
        "pollDivisionIds": [
          10138206
        ],
        "postalCode": "M9W4S7",
        "streetName": "DELSING",
        "streetDirectionId": null,
        "streetTypeId": "DR",
        "placeName": "ETOBICOKE",
        "streetNameDisplayText": "DELSING DR, ETOBICOKE"
      }
    ]
  },
  {
    "postal": "M9W6C2",
    "result": [
      {
        "electoralDistricts": [
          {
            "election": null,
            "id": 30,
            "name": "Etobicoke North"
          }
        ],
        "pollDivisionIds": [
          10138224
        ],
        "postalCode": "M9W6C2",
        "streetName": "FINCH",
        "streetDirectionId": "W",
        "streetTypeId": "AVE",
        "placeName": "ETOBICOKE",
        "streetNameDisplayText": "FINCH AVE W, ETOBICOKE"
      }
    ]
  },
  {
    "postal": "M9W8W3",
    "result": []
  },
  {
    "postal": "M9W4M5",
    "result": [
      {
        "electoralDistricts": [
          {
            "election": null,
            "id": 30,
            "name": "Etobicoke North"
          }
        ],
        "pollDivisionIds": [
          10138211
        ],
        "postalCode": "M9W4M5",
        "streetName": "MCCULLOCH",
        "streetDirectionId": null,
        "streetTypeId": "AVE",
        "placeName": "ETOBICOKE",
        "streetNameDisplayText": "MCCULLOCH AVE, ETOBICOKE"
      }
    ]
  },
  {
    "postal": "M9W5T1",
    "result": [
      {
        "electoralDistricts": [
          {
            "election": null,
            "id": 30,
            "name": "Etobicoke North"
          }
        ],
        "pollDivisionIds": [
          10138224
        ],
        "postalCode": "M9W5T1",
        "streetName": "ALBION",
        "streetDirectionId": null,
        "streetTypeId": "RD",
        "placeName": "ETOBICOKE",
        "streetNameDisplayText": "ALBION RD, ETOBICOKE"
      }
    ]
  },
  {
    "postal": "M9W3B3",
    "result": [
      {
        "electoralDistricts": [
          {
            "election": null,
            "id": 30,
            "name": "Etobicoke North"
          }
        ],
        "pollDivisionIds": [
          10138206
        ],
        "postalCode": "M9W3B3",
        "streetName": "JEFFCOAT",
        "streetDirectionId": null,
        "streetTypeId": "DR",
        "placeName": "ETOBICOKE",
        "streetNameDisplayText": "JEFFCOAT DR, ETOBICOKE"
      }
    ]
  },
  {
    "postal": "M9W6C6",
    "result": [
      {
        "electoralDistricts": [
          {
            "election": null,
            "id": 30,
            "name": "Etobicoke North"
          }
        ],
        "pollDivisionIds": [
          10138214
        ],
        "postalCode": "M9W6C6",
        "streetName": "GLEN HOLLOW",
        "streetDirectionId": null,
        "streetTypeId": "AVE",
        "placeName": "ETOBICOKE",
        "streetNameDisplayText": "GLEN HOLLOW AVE, ETOBICOKE"
      }
    ]
  },
  {
    "postal": "M9W7N8",
    "result": []
  },
  {
    "postal": "M9W2Y3",
    "result": [
      {
        "electoralDistricts": [
          {
            "election": null,
            "id": 30,
            "name": "Etobicoke North"
          }
        ],
        "pollDivisionIds": [
          10138216
        ],
        "postalCode": "M9W2Y3",
        "streetName": "LUDGATE",
        "streetDirectionId": null,
        "streetTypeId": "DR",
        "placeName": "ETOBICOKE",
        "streetNameDisplayText": "LUDGATE DR, ETOBICOKE"
      }
    ]
  },
  {
    "postal": "M9W2R6",
    "result": [
      {
        "electoralDistricts": [
          {
            "election": null,
            "id": 30,
            "name": "Etobicoke North"
          }
        ],
        "pollDivisionIds": [
          10138217
        ],
        "postalCode": "M9W2R6",
        "streetName": "KENNEBEC",
        "streetDirectionId": null,
        "streetTypeId": "CRES",
        "placeName": "ETOBICOKE",
        "streetNameDisplayText": "KENNEBEC CRES, ETOBICOKE"
      }
    ]
  },
  {
    "postal": "M9W7N3",
    "result": []
  },
  {
    "postal": "M9W8J2",
    "result": []
  },
  {
    "postal": "M9W6A9",
    "result": [
      {
        "electoralDistricts": [
          {
            "election": null,
            "id": 30,
            "name": "Etobicoke North"
          }
        ],
        "pollDivisionIds": [
          10138211
        ],
        "postalCode": "M9W6A9",
        "streetName": "ATTWELL",
        "streetDirectionId": null,
        "streetTypeId": "DR",
        "placeName": "ETOBICOKE",
        "streetNameDisplayText": "ATTWELL DR, ETOBICOKE"
      }
    ]
  },
  {
    "postal": "M9W3V2",
    "result": [
      {
        "electoralDistricts": [
          {
            "election": null,
            "id": 30,
            "name": "Etobicoke North"
          }
        ],
        "pollDivisionIds": [
          10138218
        ],
        "postalCode": "M9W3V2",
        "streetName": "COVE",
        "streetDirectionId": null,
        "streetTypeId": "DR",
        "placeName": "ETOBICOKE",
        "streetNameDisplayText": "COVE DR, ETOBICOKE"
      }
    ]
  },
  {
    "postal": "M9W2N3",
    "result": [
      {
        "electoralDistricts": [
          {
            "election": null,
            "id": 30,
            "name": "Etobicoke North"
          }
        ],
        "pollDivisionIds": [
          10138217
        ],
        "postalCode": "M9W2N3",
        "streetName": "HARDISTY",
        "streetDirectionId": null,
        "streetTypeId": "DR",
        "placeName": "ETOBICOKE",
        "streetNameDisplayText": "HARDISTY DR, ETOBICOKE"
      }
    ]
  },
  {
    "postal": "M9W1S5",
    "result": [
      {
        "electoralDistricts": [
          {
            "election": null,
            "id": 30,
            "name": "Etobicoke North"
          }
        ],
        "pollDivisionIds": [
          10138205
        ],
        "postalCode": "M9W1S5",
        "streetName": "ALLENBY",
        "streetDirectionId": null,
        "streetTypeId": "AVE",
        "placeName": "ETOBICOKE",
        "streetNameDisplayText": "ALLENBY AVE, ETOBICOKE"
      }
    ]
  },
  {
    "postal": "M9W4T7",
    "result": [
      {
        "electoralDistricts": [
          {
            "election": null,
            "id": 30,
            "name": "Etobicoke North"
          }
        ],
        "pollDivisionIds": [
          10138206
        ],
        "postalCode": "M9W4T7",
        "streetName": "ESTHER LORRIE",
        "streetDirectionId": null,
        "streetTypeId": "DR",
        "placeName": "ETOBICOKE",
        "streetNameDisplayText": "ESTHER LORRIE DR, ETOBICOKE"
      }
    ]
  },
  {
    "postal": "M9W6Y7",
    "result": [
      {
        "electoralDistricts": [
          {
            "election": null,
            "id": 30,
            "name": "Etobicoke North"
          }
        ],
        "pollDivisionIds": [
          10138224
        ],
        "postalCode": "M9W6Y7",
        "streetName": "STEINWAY",
        "streetDirectionId": null,
        "streetTypeId": "BLVD",
        "placeName": "ETOBICOKE",
        "streetNameDisplayText": "STEINWAY BLVD, ETOBICOKE"
      }
    ]
  },
  {
    "postal": "M9W0W7",
    "result": []
  },
  {
    "postal": "M9W2W9",
    "result": [
      {
        "electoralDistricts": [
          {
            "election": null,
            "id": 30,
            "name": "Etobicoke North"
          }
        ],
        "pollDivisionIds": [
          10138216
        ],
        "postalCode": "M9W2W9",
        "streetName": "HENLEY",
        "streetDirectionId": null,
        "streetTypeId": "CRES",
        "placeName": "ETOBICOKE",
        "streetNameDisplayText": "HENLEY CRES, ETOBICOKE"
      }
    ]
  },
  {
    "postal": "M9W8V0",
    "result": []
  },
  {
    "postal": "M9W0H4",
    "result": []
  },
  {
    "postal": "M9W2T1",
    "result": [
      {
        "electoralDistricts": [
          {
            "election": null,
            "id": 30,
            "name": "Etobicoke North"
          }
        ],
        "pollDivisionIds": [
          10138217
        ],
        "postalCode": "M9W2T1",
        "streetName": "GENTHORN",
        "streetDirectionId": null,
        "streetTypeId": "AVE",
        "placeName": "ETOBICOKE",
        "streetNameDisplayText": "GENTHORN AVE, ETOBICOKE"
      }
    ]
  },
  {
    "postal": "M9W1B1",
    "result": []
  },
  {
    "postal": "M9W8B6",
    "result": []
  },
  {
    "postal": "M9W6H1",
    "result": [
      {
        "electoralDistricts": [
          {
            "election": null,
            "id": 30,
            "name": "Etobicoke North"
          }
        ],
        "pollDivisionIds": [
          10138214
        ],
        "postalCode": "M9W6H1",
        "streetName": "HOLYOAKE",
        "streetDirectionId": null,
        "streetTypeId": "CRES",
        "placeName": "ETOBICOKE",
        "streetNameDisplayText": "HOLYOAKE CRES, ETOBICOKE"
      }
    ]
  },
  {
    "postal": "M9W8T8",
    "result": []
  },
  {
    "postal": "M9W0T4",
    "result": []
  },
  {
    "postal": "M9W2C4",
    "result": [
      {
        "electoralDistricts": [
          {
            "election": null,
            "id": 30,
            "name": "Etobicoke North"
          }
        ],
        "pollDivisionIds": [
          10138217
        ],
        "postalCode": "M9W2C4",
        "streetName": "STAVELY",
        "streetDirectionId": null,
        "streetTypeId": "CRES",
        "placeName": "ETOBICOKE",
        "streetNameDisplayText": "STAVELY CRES, ETOBICOKE"
      }
    ]
  },
  {
    "postal": "M9W8N3",
    "result": []
  },
  {
    "postal": "M9W4L8",
    "result": [
      {
        "electoralDistricts": [
          {
            "election": null,
            "id": 30,
            "name": "Etobicoke North"
          }
        ],
        "pollDivisionIds": [
          10138211
        ],
        "postalCode": "M9W4L8",
        "streetName": "CANSO",
        "streetDirectionId": null,
        "streetTypeId": "RD",
        "placeName": "ETOBICOKE",
        "streetNameDisplayText": "CANSO RD, ETOBICOKE"
      }
    ]
  },
  {
    "postal": "M9W2B5",
    "result": [
      {
        "electoralDistricts": [
          {
            "election": null,
            "id": 30,
            "name": "Etobicoke North"
          }
        ],
        "pollDivisionIds": [
          10138218
        ],
        "postalCode": "M9W2B5",
        "streetName": "SHENDALE",
        "streetDirectionId": null,
        "streetTypeId": "DR",
        "placeName": "ETOBICOKE",
        "streetNameDisplayText": "SHENDALE DR, ETOBICOKE"
      }
    ]
  },
  {
    "postal": "M9W3H1",
    "result": [
      {
        "electoralDistricts": [
          {
            "election": null,
            "id": 30,
            "name": "Etobicoke North"
          }
        ],
        "pollDivisionIds": [
          10138206
        ],
        "postalCode": "M9W3H1",
        "streetName": "GUNTON",
        "streetDirectionId": null,
        "streetTypeId": "DR",
        "placeName": "ETOBICOKE",
        "streetNameDisplayText": "GUNTON DR, ETOBICOKE"
      }
    ]
  },
  {
    "postal": "M9W4Y1",
    "result": [
      {
        "electoralDistricts": [
          {
            "election": null,
            "id": 30,
            "name": "Etobicoke North"
          }
        ],
        "pollDivisionIds": [
          10138211
        ],
        "postalCode": "M9W4Y1",
        "streetName": "MARTIN GROVE",
        "streetDirectionId": null,
        "streetTypeId": "RD",
        "placeName": "ETOBICOKE",
        "streetNameDisplayText": "MARTIN GROVE RD, ETOBICOKE"
      }
    ]
  },
  {
    "postal": "M9W7E2",
    "result": [
      {
        "electoralDistricts": [
          {
            "election": null,
            "id": 30,
            "name": "Etobicoke North"
          }
        ],
        "pollDivisionIds": [
          10138212
        ],
        "postalCode": "M9W7E2",
        "streetName": "TRIPLE CROWN",
        "streetDirectionId": null,
        "streetTypeId": "AVE",
        "placeName": "ETOBICOKE",
        "streetNameDisplayText": "TRIPLE CROWN AVE, ETOBICOKE"
      }
    ]
  },
  {
    "postal": "M9W2P5",
    "result": [
      {
        "electoralDistricts": [
          {
            "election": null,
            "id": 30,
            "name": "Etobicoke North"
          }
        ],
        "pollDivisionIds": [
          10138218
        ],
        "postalCode": "M9W2P5",
        "streetName": "IRWIN",
        "streetDirectionId": null,
        "streetTypeId": "RD",
        "placeName": "ETOBICOKE",
        "streetNameDisplayText": "IRWIN RD, ETOBICOKE"
      }
    ]
  },
  {
    "postal": "M9W8R7",
    "result": []
  },
  {
    "postal": "M9W9P1",
    "result": []
  },
  {
    "postal": "M9W3B8",
    "result": [
      {
        "electoralDistricts": [
          {
            "election": null,
            "id": 30,
            "name": "Etobicoke North"
          }
        ],
        "pollDivisionIds": [
          10138206
        ],
        "postalCode": "M9W3B8",
        "streetName": "JEFFCOAT",
        "streetDirectionId": null,
        "streetTypeId": "DR",
        "placeName": "ETOBICOKE",
        "streetNameDisplayText": "JEFFCOAT DR, ETOBICOKE"
      }
    ]
  },
  {
    "postal": "M9W3P7",
    "result": [
      {
        "electoralDistricts": [
          {
            "election": null,
            "id": 30,
            "name": "Etobicoke North"
          }
        ],
        "pollDivisionIds": [
          10138218
        ],
        "postalCode": "M9W3P7",
        "streetName": "ALBION",
        "streetDirectionId": null,
        "streetTypeId": "RD",
        "placeName": "ETOBICOKE",
        "streetNameDisplayText": "ALBION RD, ETOBICOKE"
      }
    ]
  },
  {
    "postal": "M9W9B2",
    "result": []
  },
  {
    "postal": "M9W6Z3",
    "result": [
      {
        "electoralDistricts": [
          {
            "election": null,
            "id": 30,
            "name": "Etobicoke North"
          }
        ],
        "pollDivisionIds": [
          10138212
        ],
        "postalCode": "M9W6Z3",
        "streetName": "QUEENS PLATE",
        "streetDirectionId": null,
        "streetTypeId": "DR",
        "placeName": "ETOBICOKE",
        "streetNameDisplayText": "QUEENS PLATE DR, ETOBICOKE"
      },
      {
        "electoralDistricts": [
          {
            "election": null,
            "id": 30,
            "name": "Etobicoke North"
          }
        ],
        "pollDivisionIds": [
          10138212
        ],
        "postalCode": "M9W6Z3",
        "streetName": "QUEEN'S PLATE",
        "streetDirectionId": null,
        "streetTypeId": "DR",
        "placeName": "ETOBICOKE",
        "streetNameDisplayText": "QUEEN'S PLATE DR, ETOBICOKE"
      }
    ]
  },
  {
    "postal": "M9W4N5",
    "result": [
      {
        "electoralDistricts": [
          {
            "election": null,
            "id": 30,
            "name": "Etobicoke North"
          }
        ],
        "pollDivisionIds": [
          10138206
        ],
        "postalCode": "M9W4N5",
        "streetName": "BRYDON",
        "streetDirectionId": null,
        "streetTypeId": "DR",
        "placeName": "ETOBICOKE",
        "streetNameDisplayText": "BRYDON DR, ETOBICOKE"
      }
    ]
  },
  {
    "postal": "M9W8T3",
    "result": []
  },
  {
    "postal": "M9W1V2",
    "result": [
      {
        "electoralDistricts": [
          {
            "election": null,
            "id": 30,
            "name": "Etobicoke North"
          }
        ],
        "pollDivisionIds": [
          10138205
        ],
        "postalCode": "M9W1V2",
        "streetName": "DENSMORE",
        "streetDirectionId": null,
        "streetTypeId": "AVE",
        "placeName": "ETOBICOKE",
        "streetNameDisplayText": "DENSMORE AVE, ETOBICOKE"
      }
    ]
  },
  {
    "postal": "M9W1Y0",
    "result": []
  },
  {
    "postal": "M9W3G6",
    "result": [
      {
        "electoralDistricts": [
          {
            "election": null,
            "id": 30,
            "name": "Etobicoke North"
          }
        ],
        "pollDivisionIds": [
          10138206
        ],
        "postalCode": "M9W3G6",
        "streetName": "NEEDHAM",
        "streetDirectionId": null,
        "streetTypeId": "DR",
        "placeName": "ETOBICOKE",
        "streetNameDisplayText": "NEEDHAM DR, ETOBICOKE"
      }
    ]
  },
  {
    "postal": "M9W3H7",
    "result": [
      {
        "electoralDistricts": [
          {
            "election": null,
            "id": 30,
            "name": "Etobicoke North"
          }
        ],
        "pollDivisionIds": [
          10138211
        ],
        "postalCode": "M9W3H7",
        "streetName": "MERCURY",
        "streetDirectionId": null,
        "streetTypeId": "RD",
        "placeName": "ETOBICOKE",
        "streetNameDisplayText": "MERCURY RD, ETOBICOKE"
      }
    ]
  },
  {
    "postal": "M9W7X8",
    "result": []
  },
  {
    "postal": "M9W0C7",
    "result": []
  },
  {
    "postal": "M9W0W9",
    "result": []
  },
  {
    "postal": "M9W8E6",
    "result": []
  },
  {
    "postal": "M9W9Z8",
    "result": []
  },
  {
    "postal": "M9W3P4",
    "result": [
      {
        "electoralDistricts": [
          {
            "election": null,
            "id": 30,
            "name": "Etobicoke North"
          }
        ],
        "pollDivisionIds": [
          10138218
        ],
        "postalCode": "M9W3P4",
        "streetName": "ALBION",
        "streetDirectionId": null,
        "streetTypeId": "RD",
        "placeName": "ETOBICOKE",
        "streetNameDisplayText": "ALBION RD, ETOBICOKE"
      }
    ]
  },
  {
    "postal": "M9W6L8",
    "result": []
  },
  {
    "postal": "M9W2R4",
    "result": [
      {
        "electoralDistricts": [
          {
            "election": null,
            "id": 30,
            "name": "Etobicoke North"
          }
        ],
        "pollDivisionIds": [
          10138217
        ],
        "postalCode": "M9W2R4",
        "streetName": "CROMARTY",
        "streetDirectionId": null,
        "streetTypeId": "DR",
        "placeName": "ETOBICOKE",
        "streetNameDisplayText": "CROMARTY DR, ETOBICOKE"
      }
    ]
  },
  {
    "postal": "M9W2W1",
    "result": [
      {
        "electoralDistricts": [
          {
            "election": null,
            "id": 30,
            "name": "Etobicoke North"
          }
        ],
        "pollDivisionIds": [
          10138216
        ],
        "postalCode": "M9W2W1",
        "streetName": "FALLOWFIELD",
        "streetDirectionId": null,
        "streetTypeId": "RD",
        "placeName": "ETOBICOKE",
        "streetNameDisplayText": "FALLOWFIELD RD, ETOBICOKE"
      }
    ]
  },
  {
    "postal": "M9W9H8",
    "result": []
  },
  {
    "postal": "M9W8X9",
    "result": []
  },
  {
    "postal": "M9W7H4",
    "result": []
  },
  {
    "postal": "M9W3J1",
    "result": [
      {
        "electoralDistricts": [
          {
            "election": null,
            "id": 30,
            "name": "Etobicoke North"
          }
        ],
        "pollDivisionIds": [
          10138211
        ],
        "postalCode": "M9W3J1",
        "streetName": "MERCURY",
        "streetDirectionId": null,
        "streetTypeId": "RD",
        "placeName": "ETOBICOKE",
        "streetNameDisplayText": "MERCURY RD, ETOBICOKE"
      }
    ]
  },
  {
    "postal": "M9W1P4",
    "result": [
      {
        "electoralDistricts": [
          {
            "election": null,
            "id": 30,
            "name": "Etobicoke North"
          }
        ],
        "pollDivisionIds": [
          10138206
        ],
        "postalCode": "M9W1P4",
        "streetName": "REXDALE",
        "streetDirectionId": null,
        "streetTypeId": "BLVD",
        "placeName": "ETOBICOKE",
        "streetNameDisplayText": "REXDALE BLVD, ETOBICOKE"
      }
    ]
  },
  {
    "postal": "M9W2A3",
    "result": [
      {
        "electoralDistricts": [
          {
            "election": null,
            "id": 30,
            "name": "Etobicoke North"
          }
        ],
        "pollDivisionIds": [
          10138217
        ],
        "postalCode": "M9W2A3",
        "streetName": "REDWATER",
        "streetDirectionId": null,
        "streetTypeId": "DR",
        "placeName": "ETOBICOKE",
        "streetNameDisplayText": "REDWATER DR, ETOBICOKE"
      }
    ]
  },
  {
    "postal": "M9W0Z1",
    "result": []
  },
  {
    "postal": "M9W1C1",
    "result": []
  },
  {
    "postal": "M9W0H3",
    "result": []
  },
  {
    "postal": "M9W7B0",
    "result": []
  },
  {
    "postal": "M9W5K2",
    "result": [
      {
        "electoralDistricts": [
          {
            "election": null,
            "id": 30,
            "name": "Etobicoke North"
          }
        ],
        "pollDivisionIds": [
          10138211
        ],
        "postalCode": "M9W5K2",
        "streetName": "HUMHELLER",
        "streetDirectionId": null,
        "streetTypeId": "RD",
        "placeName": "ETOBICOKE",
        "streetNameDisplayText": "HUMHELLER RD, ETOBICOKE"
      }
    ]
  },
  {
    "postal": "M9W1E9",
    "result": []
  },
  {
    "postal": "M9W9W7",
    "result": []
  },
  {
    "postal": "M9W5W6",
    "result": [
      {
        "electoralDistricts": [
          {
            "election": null,
            "id": 30,
            "name": "Etobicoke North"
          }
        ],
        "pollDivisionIds": [
          10138218
        ],
        "postalCode": "M9W5W6",
        "streetName": "ELMHURST",
        "streetDirectionId": null,
        "streetTypeId": "DR",
        "placeName": "ETOBICOKE",
        "streetNameDisplayText": "ELMHURST DR, ETOBICOKE"
      }
    ]
  },
  {
    "postal": "M9W6S6",
    "result": [
      {
        "electoralDistricts": [
          {
            "election": null,
            "id": 30,
            "name": "Etobicoke North"
          }
        ],
        "pollDivisionIds": [
          10138212
        ],
        "postalCode": "M9W6S6",
        "streetName": "BANKVIEW",
        "streetDirectionId": null,
        "streetTypeId": "CIR",
        "placeName": "ETOBICOKE",
        "streetNameDisplayText": "BANKVIEW CIR, ETOBICOKE"
      }
    ]
  },
  {
    "postal": "M9W2P8",
    "result": [
      {
        "electoralDistricts": [
          {
            "election": null,
            "id": 30,
            "name": "Etobicoke North"
          }
        ],
        "pollDivisionIds": [
          10138218
        ],
        "postalCode": "M9W2P8",
        "streetName": "IRWIN",
        "streetDirectionId": null,
        "streetTypeId": "RD",
        "placeName": "ETOBICOKE",
        "streetNameDisplayText": "IRWIN RD, ETOBICOKE"
      }
    ]
  },
  {
    "postal": "M9W4P8",
    "result": [
      {
        "electoralDistricts": [
          {
            "election": null,
            "id": 30,
            "name": "Etobicoke North"
          }
        ],
        "pollDivisionIds": [
          10138206
        ],
        "postalCode": "M9W4P8",
        "streetName": "DITTMER",
        "streetDirectionId": null,
        "streetTypeId": "CRES",
        "placeName": "ETOBICOKE",
        "streetNameDisplayText": "DITTMER CRES, ETOBICOKE"
      }
    ]
  },
  {
    "postal": "M9W0V9",
    "result": []
  },
  {
    "postal": "M9W5Y2",
    "result": [
      {
        "electoralDistricts": [
          {
            "election": null,
            "id": 30,
            "name": "Etobicoke North"
          }
        ],
        "pollDivisionIds": [
          10138218
        ],
        "postalCode": "M9W5Y2",
        "streetName": "TURPIN",
        "streetDirectionId": null,
        "streetTypeId": "AVE",
        "placeName": "ETOBICOKE",
        "streetNameDisplayText": "TURPIN AVE, ETOBICOKE"
      }
    ]
  },
  {
    "postal": "M9W7Z7",
    "result": []
  },
  {
    "postal": "M9W6Y8",
    "result": []
  },
  {
    "postal": "M9W2G7",
    "result": [
      {
        "electoralDistricts": [
          {
            "election": null,
            "id": 30,
            "name": "Etobicoke North"
          }
        ],
        "pollDivisionIds": [
          10138217
        ],
        "postalCode": "M9W2G7",
        "streetName": "CLEARBROOKE",
        "streetDirectionId": null,
        "streetTypeId": "CIR",
        "placeName": "ETOBICOKE",
        "streetNameDisplayText": "CLEARBROOKE CIR, ETOBICOKE"
      }
    ]
  },
  {
    "postal": "M9W8C1",
    "result": []
  },
  {
    "postal": "M9W5C5",
    "result": []
  },
  {
    "postal": "M9W2X8",
    "result": [
      {
        "electoralDistricts": [
          {
            "election": null,
            "id": 30,
            "name": "Etobicoke North"
          }
        ],
        "pollDivisionIds": [
          10138216
        ],
        "postalCode": "M9W2X8",
        "streetName": "KATRINE",
        "streetDirectionId": null,
        "streetTypeId": "RD",
        "placeName": "ETOBICOKE",
        "streetNameDisplayText": "KATRINE RD, ETOBICOKE"
      }
    ]
  },
  {
    "postal": "M9W1W5",
    "result": [
      {
        "electoralDistricts": [
          {
            "election": null,
            "id": 30,
            "name": "Etobicoke North"
          }
        ],
        "pollDivisionIds": [
          10138217
        ],
        "postalCode": "M9W1W5",
        "streetName": "BERGAMOT",
        "streetDirectionId": null,
        "streetTypeId": "AVE",
        "placeName": "ETOBICOKE",
        "streetNameDisplayText": "BERGAMOT AVE, ETOBICOKE"
      }
    ]
  },
  {
    "postal": "M9W7G0",
    "result": []
  },
  {
    "postal": "M9W8J8",
    "result": []
  },
  {
    "postal": "M9W3Y0",
    "result": []
  },
  {
    "postal": "M9W9T7",
    "result": []
  },
  {
    "postal": "M9W5P4",
    "result": [
      {
        "electoralDistricts": [
          {
            "election": null,
            "id": 30,
            "name": "Etobicoke North"
          }
        ],
        "pollDivisionIds": [
          10138224
        ],
        "postalCode": "M9W5P4",
        "streetName": "HUMBER COLLEGE",
        "streetDirectionId": null,
        "streetTypeId": "BLVD",
        "placeName": "ETOBICOKE",
        "streetNameDisplayText": "HUMBER COLLEGE BLVD, ETOBICOKE"
      }
    ]
  },
  {
    "postal": "M9W4B0",
    "result": []
  },
  {
    "postal": "M9W9N8",
    "result": []
  },
  {
    "postal": "M9W4A7",
    "result": [
      {
        "electoralDistricts": [
          {
            "election": null,
            "id": 30,
            "name": "Etobicoke North"
          }
        ],
        "pollDivisionIds": [
          10138217
        ],
        "postalCode": "M9W4A7",
        "streetName": "WANSEY",
        "streetDirectionId": null,
        "streetTypeId": "RD",
        "placeName": "ETOBICOKE",
        "streetNameDisplayText": "WANSEY RD, ETOBICOKE"
      }
    ]
  },
  {
    "postal": "M9W4H9",
    "result": [
      {
        "electoralDistricts": [
          {
            "election": null,
            "id": 30,
            "name": "Etobicoke North"
          }
        ],
        "pollDivisionIds": [
          10138216
        ],
        "postalCode": "M9W4H9",
        "streetName": "BARFORD",
        "streetDirectionId": null,
        "streetTypeId": "RD",
        "placeName": "ETOBICOKE",
        "streetNameDisplayText": "BARFORD RD, ETOBICOKE"
      }
    ]
  },
  {
    "postal": "M9W6X1",
    "result": [
      {
        "electoralDistricts": [
          {
            "election": null,
            "id": 30,
            "name": "Etobicoke North"
          }
        ],
        "pollDivisionIds": [
          10138212
        ],
        "postalCode": "M9W6X1",
        "streetName": "HULLRICK",
        "streetDirectionId": null,
        "streetTypeId": "DR",
        "placeName": "ETOBICOKE",
        "streetNameDisplayText": "HULLRICK DR, ETOBICOKE"
      },
      {
        "electoralDistricts": [
          {
            "election": null,
            "id": 30,
            "name": "Etobicoke North"
          }
        ],
        "pollDivisionIds": [
          10138212
        ],
        "postalCode": "M9W6X1",
        "streetName": "SECRETARIAT",
        "streetDirectionId": null,
        "streetTypeId": "DR",
        "placeName": "ETOBICOKE",
        "streetNameDisplayText": "SECRETARIAT DR, ETOBICOKE"
      }
    ]
  },
  {
    "postal": "M9W9Y7",
    "result": []
  },
  {
    "postal": "M9W2Y5",
    "result": [
      {
        "electoralDistricts": [
          {
            "election": null,
            "id": 30,
            "name": "Etobicoke North"
          }
        ],
        "pollDivisionIds": [
          10138216
        ],
        "postalCode": "M9W2Y5",
        "streetName": "CHECKENDON",
        "streetDirectionId": null,
        "streetTypeId": "DR",
        "placeName": "ETOBICOKE",
        "streetNameDisplayText": "CHECKENDON DR, ETOBICOKE"
      }
    ]
  },
  {
    "postal": "M9W8L7",
    "result": []
  },
  {
    "postal": "M9W2A8",
    "result": [
      {
        "electoralDistricts": [
          {
            "election": null,
            "id": 30,
            "name": "Etobicoke North"
          }
        ],
        "pollDivisionIds": [
          10138217
        ],
        "postalCode": "M9W2A8",
        "streetName": "LEDUC",
        "streetDirectionId": null,
        "streetTypeId": "DR",
        "placeName": "ETOBICOKE",
        "streetNameDisplayText": "LEDUC DR, ETOBICOKE"
      }
    ]
  },
  {
    "postal": "M9W2K9",
    "result": [
      {
        "electoralDistricts": [
          {
            "election": null,
            "id": 30,
            "name": "Etobicoke North"
          }
        ],
        "pollDivisionIds": [
          10138217
        ],
        "postalCode": "M9W2K9",
        "streetName": "ELMHURST",
        "streetDirectionId": null,
        "streetTypeId": "DR",
        "placeName": "ETOBICOKE",
        "streetNameDisplayText": "ELMHURST DR, ETOBICOKE"
      }
    ]
  },
  {
    "postal": "M9W3E5",
    "result": [
      {
        "electoralDistricts": [
          {
            "election": null,
            "id": 30,
            "name": "Etobicoke North"
          }
        ],
        "pollDivisionIds": [
          10138211
        ],
        "postalCode": "M9W3E5",
        "streetName": "JEFFCOAT",
        "streetDirectionId": null,
        "streetTypeId": "DR",
        "placeName": "ETOBICOKE",
        "streetNameDisplayText": "JEFFCOAT DR, ETOBICOKE"
      }
    ]
  },
  {
    "postal": "M9W8N6",
    "result": []
  },
  {
    "postal": "M9W8J4",
    "result": []
  },
  {
    "postal": "M9W4R7",
    "result": [
      {
        "electoralDistricts": [
          {
            "election": null,
            "id": 30,
            "name": "Etobicoke North"
          }
        ],
        "pollDivisionIds": [
          10138206
        ],
        "postalCode": "M9W4R7",
        "streetName": "IXWORTH",
        "streetDirectionId": null,
        "streetTypeId": "RD",
        "placeName": "ETOBICOKE",
        "streetNameDisplayText": "IXWORTH RD, ETOBICOKE"
      }
    ]
  },
  {
    "postal": "M9W9K1",
    "result": []
  },
  {
    "postal": "M9W8E1",
    "result": []
  },
  {
    "postal": "M9W0R1",
    "result": []
  },
  {
    "postal": "M9W4J3",
    "result": []
  },
  {
    "postal": "M9W7E7",
    "result": [
      {
        "electoralDistricts": [
          {
            "election": null,
            "id": 30,
            "name": "Etobicoke North"
          }
        ],
        "pollDivisionIds": [
          10138212
        ],
        "postalCode": "M9W7E7",
        "streetName": "MARE",
        "streetDirectionId": null,
        "streetTypeId": "CRES",
        "placeName": "ETOBICOKE",
        "streetNameDisplayText": "MARE CRES, ETOBICOKE"
      },
      {
        "electoralDistricts": [
          {
            "election": null,
            "id": 30,
            "name": "Etobicoke North"
          }
        ],
        "pollDivisionIds": [
          10138212
        ],
        "postalCode": "M9W7E7",
        "streetName": "STALLION",
        "streetDirectionId": null,
        "streetTypeId": "PL",
        "placeName": "ETOBICOKE",
        "streetNameDisplayText": "STALLION PL, ETOBICOKE"
      }
    ]
  },
  {
    "postal": "M9W0J0",
    "result": []
  },
  {
    "postal": "M9W7R8",
    "result": []
  },
  {
    "postal": "M9W9X0",
    "result": []
  },
  {
    "postal": "M9W7P6",
    "result": []
  },
  {
    "postal": "M9W0R7",
    "result": []
  },
  {
    "postal": "M9W5W1",
    "result": [
      {
        "electoralDistricts": [
          {
            "election": null,
            "id": 30,
            "name": "Etobicoke North"
          }
        ],
        "pollDivisionIds": [
          10138217,
          10138218
        ],
        "postalCode": "M9W5W1",
        "streetName": "IRWIN",
        "streetDirectionId": null,
        "streetTypeId": "RD",
        "placeName": "ETOBICOKE",
        "streetNameDisplayText": "IRWIN RD, ETOBICOKE"
      }
    ]
  },
  {
    "postal": "M9W0K4",
    "result": []
  },
  {
    "postal": "M9W7N9",
    "result": []
  },
  {
    "postal": "M9W1N0",
    "result": []
  },
  {
    "postal": "M9W6P3",
    "result": [
      {
        "electoralDistricts": [
          {
            "election": null,
            "id": 30,
            "name": "Etobicoke North"
          }
        ],
        "pollDivisionIds": [
          10138224
        ],
        "postalCode": "M9W6P3",
        "streetName": "CLAIREPORT",
        "streetDirectionId": null,
        "streetTypeId": "CRES",
        "placeName": "ETOBICOKE",
        "streetNameDisplayText": "CLAIREPORT CRES, ETOBICOKE"
      }
    ]
  },
  {
    "postal": "M9W5A1",
    "result": [
      {
        "electoralDistricts": [
          {
            "election": null,
            "id": 30,
            "name": "Etobicoke North"
          }
        ],
        "pollDivisionIds": [
          10138211
        ],
        "postalCode": "M9W5A1",
        "streetName": "KELFIELD",
        "streetDirectionId": null,
        "streetTypeId": "ST",
        "placeName": "ETOBICOKE",
        "streetNameDisplayText": "KELFIELD ST, ETOBICOKE"
      }
    ]
  },
  {
    "postal": "M9W9M9",
    "result": []
  },
  {
    "postal": "M9W7T6",
    "result": []
  },
  {
    "postal": "M9W3X0",
    "result": []
  },
  {
    "postal": "M9W2T0",
    "result": []
  },
  {
    "postal": "M9W5X9",
    "result": [
      {
        "electoralDistricts": [
          {
            "election": null,
            "id": 30,
            "name": "Etobicoke North"
          }
        ],
        "pollDivisionIds": [
          10138211
        ],
        "postalCode": "M9W5X9",
        "streetName": "CARLINGVIEW",
        "streetDirectionId": null,
        "streetTypeId": "DR",
        "placeName": "ETOBICOKE",
        "streetNameDisplayText": "CARLINGVIEW DR, ETOBICOKE"
      }
    ]
  },
  {
    "postal": "M9W2R3",
    "result": [
      {
        "electoralDistricts": [
          {
            "election": null,
            "id": 30,
            "name": "Etobicoke North"
          }
        ],
        "pollDivisionIds": [
          10138217
        ],
        "postalCode": "M9W2R3",
        "streetName": "MONCRIEFF",
        "streetDirectionId": null,
        "streetTypeId": "DR",
        "placeName": "ETOBICOKE",
        "streetNameDisplayText": "MONCRIEFF DR, ETOBICOKE"
      }
    ]
  },
  {
    "postal": "M9W5N2",
    "result": []
  },
  {
    "postal": "M9W4Y7",
    "result": []
  },
  {
    "postal": "M9W7M0",
    "result": []
  },
  {
    "postal": "M9W8P3",
    "result": []
  },
  {
    "postal": "M9W3N3",
    "result": [
      {
        "electoralDistricts": [
          {
            "election": null,
            "id": 30,
            "name": "Etobicoke North"
          }
        ],
        "pollDivisionIds": [
          10138206
        ],
        "postalCode": "M9W3N3",
        "streetName": "MILMINK",
        "streetDirectionId": null,
        "streetTypeId": "ST",
        "placeName": "ETOBICOKE",
        "streetNameDisplayText": "MILMINK ST, ETOBICOKE"
      }
    ]
  },
  {
    "postal": "M9W7S3",
    "result": []
  },
  {
    "postal": "M9W3V9",
    "result": [
      {
        "electoralDistricts": [
          {
            "election": null,
            "id": 30,
            "name": "Etobicoke North"
          }
        ],
        "pollDivisionIds": [
          10138218
        ],
        "postalCode": "M9W3V9",
        "streetName": "MUNCEY",
        "streetDirectionId": null,
        "streetTypeId": "AVE",
        "placeName": "ETOBICOKE",
        "streetNameDisplayText": "MUNCEY AVE, ETOBICOKE"
      }
    ]
  },
  {
    "postal": "M9W9N7",
    "result": []
  },
  {
    "postal": "M9W0G4",
    "result": []
  },
  {
    "postal": "M9W2E2",
    "result": [
      {
        "electoralDistricts": [
          {
            "election": null,
            "id": 30,
            "name": "Etobicoke North"
          }
        ],
        "pollDivisionIds": [
          10138217
        ],
        "postalCode": "M9W2E2",
        "streetName": "CLEARBROOKE",
        "streetDirectionId": null,
        "streetTypeId": "CIR",
        "placeName": "ETOBICOKE",
        "streetNameDisplayText": "CLEARBROOKE CIR, ETOBICOKE"
      }
    ]
  },
  {
    "postal": "M9W7W8",
    "result": []
  },
  {
    "postal": "M9W7M5",
    "result": []
  },
  {
    "postal": "M9W5W8",
    "result": [
      {
        "electoralDistricts": [
          {
            "election": null,
            "id": 30,
            "name": "Etobicoke North"
          }
        ],
        "pollDivisionIds": [
          10138224
        ],
        "postalCode": "M9W5W8",
        "streetName": "ALBION",
        "streetDirectionId": null,
        "streetTypeId": "RD",
        "placeName": "ETOBICOKE",
        "streetNameDisplayText": "ALBION RD, ETOBICOKE"
      }
    ]
  },
  {
    "postal": "M9W5E5",
    "result": [
      {
        "electoralDistricts": [
          {
            "election": null,
            "id": 30,
            "name": "Etobicoke North"
          }
        ],
        "pollDivisionIds": [
          10138211
        ],
        "postalCode": "M9W5E5",
        "streetName": "CARLINGVIEW",
        "streetDirectionId": null,
        "streetTypeId": "DR",
        "placeName": "ETOBICOKE",
        "streetNameDisplayText": "CARLINGVIEW DR, ETOBICOKE"
      }
    ]
  },
  {
    "postal": "M9W1P9",
    "result": []
  },
  {
    "postal": "M9W8V8",
    "result": []
  },
  {
    "postal": "M9W9G8",
    "result": []
  },
  {
    "postal": "M9W8H9",
    "result": []
  },
  {
    "postal": "M9W1Z1",
    "result": [
      {
        "electoralDistricts": [
          {
            "election": null,
            "id": 30,
            "name": "Etobicoke North"
          }
        ],
        "pollDivisionIds": [
          10138217
        ],
        "postalCode": "M9W1Z1",
        "streetName": "BENWAY",
        "streetDirectionId": null,
        "streetTypeId": "DR",
        "placeName": "ETOBICOKE",
        "streetNameDisplayText": "BENWAY DR, ETOBICOKE"
      }
    ]
  },
  {
    "postal": "M9W8M3",
    "result": []
  },
  {
    "postal": "M9W5H6",
    "result": [
      {
        "electoralDistricts": [
          {
            "election": null,
            "id": 30,
            "name": "Etobicoke North"
          }
        ],
        "pollDivisionIds": [
          10138211
        ],
        "postalCode": "M9W5H6",
        "streetName": "BRADDOCK",
        "streetDirectionId": null,
        "streetTypeId": "RD",
        "placeName": "ETOBICOKE",
        "streetNameDisplayText": "BRADDOCK RD, ETOBICOKE"
      }
    ]
  },
  {
    "postal": "M9W7W7",
    "result": []
  },
  {
    "postal": "M9W4L0",
    "result": []
  },
  {
    "postal": "M9W2N1",
    "result": [
      {
        "electoralDistricts": [
          {
            "election": null,
            "id": 30,
            "name": "Etobicoke North"
          }
        ],
        "pollDivisionIds": [
          10138217
        ],
        "postalCode": "M9W2N1",
        "streetName": "HARDISTY",
        "streetDirectionId": null,
        "streetTypeId": "DR",
        "placeName": "ETOBICOKE",
        "streetNameDisplayText": "HARDISTY DR, ETOBICOKE"
      }
    ]
  },
  {
    "postal": "M9W2H4",
    "result": [
      {
        "electoralDistricts": [
          {
            "election": null,
            "id": 30,
            "name": "Etobicoke North"
          }
        ],
        "pollDivisionIds": [
          10138218
        ],
        "postalCode": "M9W2H4",
        "streetName": "GOLFDOWN",
        "streetDirectionId": null,
        "streetTypeId": "DR",
        "placeName": "ETOBICOKE",
        "streetNameDisplayText": "GOLFDOWN DR, ETOBICOKE"
      }
    ]
  },
  {
    "postal": "M9W5C8",
    "result": [
      {
        "electoralDistricts": [
          {
            "election": null,
            "id": 30,
            "name": "Etobicoke North"
          }
        ],
        "pollDivisionIds": [
          10138211
        ],
        "postalCode": "M9W5C8",
        "streetName": "BROCKPORT",
        "streetDirectionId": null,
        "streetTypeId": "DR",
        "placeName": "ETOBICOKE",
        "streetNameDisplayText": "BROCKPORT DR, ETOBICOKE"
      }
    ]
  },
  {
    "postal": "M9W8B0",
    "result": []
  },
  {
    "postal": "M9W1T4",
    "result": [
      {
        "electoralDistricts": [
          {
            "election": null,
            "id": 30,
            "name": "Etobicoke North"
          }
        ],
        "pollDivisionIds": [
          10138205
        ],
        "postalCode": "M9W1T4",
        "streetName": "ALLENBY",
        "streetDirectionId": null,
        "streetTypeId": "AVE",
        "placeName": "ETOBICOKE",
        "streetNameDisplayText": "ALLENBY AVE, ETOBICOKE"
      }
    ]
  },
  {
    "postal": "M9W7N7",
    "result": []
  },
  {
    "postal": "M9W4L3",
    "result": [
      {
        "electoralDistricts": [
          {
            "election": null,
            "id": 30,
            "name": "Etobicoke North"
          }
        ],
        "pollDivisionIds": [
          10138233
        ],
        "postalCode": "M9W4L3",
        "streetName": "KIPLING",
        "streetDirectionId": null,
        "streetTypeId": "AVE",
        "placeName": "ETOBICOKE",
        "streetNameDisplayText": "KIPLING AVE, ETOBICOKE"
      },
      {
        "electoralDistricts": [
          {
            "election": null,
            "id": 30,
            "name": "Etobicoke North"
          }
        ],
        "pollDivisionIds": [
          10138233
        ],
        "postalCode": "M9W4L3",
        "streetName": "KIPOLING",
        "streetDirectionId": null,
        "streetTypeId": "AVE",
        "placeName": "ETOBICOKE",
        "streetNameDisplayText": "KIPOLING AVE, ETOBICOKE"
      }
    ]
  },
  {
    "postal": "M9W2N2",
    "result": [
      {
        "electoralDistricts": [
          {
            "election": null,
            "id": 30,
            "name": "Etobicoke North"
          }
        ],
        "pollDivisionIds": [
          10138217
        ],
        "postalCode": "M9W2N2",
        "streetName": "HARDISTY",
        "streetDirectionId": null,
        "streetTypeId": "DR",
        "placeName": "ETOBICOKE",
        "streetNameDisplayText": "HARDISTY DR, ETOBICOKE"
      }
    ]
  },
  {
    "postal": "M9W4N8",
    "result": [
      {
        "electoralDistricts": [
          {
            "election": null,
            "id": 30,
            "name": "Etobicoke North"
          }
        ],
        "pollDivisionIds": [
          10138206
        ],
        "postalCode": "M9W4N8",
        "streetName": "BRYDON",
        "streetDirectionId": null,
        "streetTypeId": "DR",
        "placeName": "ETOBICOKE",
        "streetNameDisplayText": "BRYDON DR, ETOBICOKE"
      }
    ]
  },
  {
    "postal": "M9W3M5",
    "result": [
      {
        "electoralDistricts": [
          {
            "election": null,
            "id": 30,
            "name": "Etobicoke North"
          }
        ],
        "pollDivisionIds": [
          10138206
        ],
        "postalCode": "M9W3M5",
        "streetName": "WESTHUMBER",
        "streetDirectionId": null,
        "streetTypeId": "BLVD",
        "placeName": "ETOBICOKE",
        "streetNameDisplayText": "WESTHUMBER BLVD, ETOBICOKE"
      }
    ]
  },
  {
    "postal": "M9W6H7",
    "result": [
      {
        "electoralDistricts": [
          {
            "election": null,
            "id": 30,
            "name": "Etobicoke North"
          }
        ],
        "pollDivisionIds": [
          10138211
        ],
        "postalCode": "M9W6H7",
        "streetName": "ATTWELL",
        "streetDirectionId": null,
        "streetTypeId": "DR",
        "placeName": "ETOBICOKE",
        "streetNameDisplayText": "ATTWELL DR, ETOBICOKE"
      }
    ]
  },
  {
    "postal": "M9W8Y8",
    "result": []
  },
  {
    "postal": "M9W5R9",
    "result": []
  },
  {
    "postal": "M9W8G3",
    "result": []
  },
  {
    "postal": "M9W4N7",
    "result": []
  },
  {
    "postal": "M9W0B9",
    "result": []
  },
  {
    "postal": "M9W9K7",
    "result": []
  },
  {
    "postal": "M9W9K9",
    "result": []
  },
  {
    "postal": "M9W3Z2",
    "result": [
      {
        "electoralDistricts": [
          {
            "election": null,
            "id": 30,
            "name": "Etobicoke North"
          }
        ],
        "pollDivisionIds": [
          10138217
        ],
        "postalCode": "M9W3Z2",
        "streetName": "COPPERMILL",
        "streetDirectionId": null,
        "streetTypeId": "DR",
        "placeName": "ETOBICOKE",
        "streetNameDisplayText": "COPPERMILL DR, ETOBICOKE"
      }
    ]
  },
  {
    "postal": "M9W6W7",
    "result": [
      {
        "electoralDistricts": [
          {
            "election": null,
            "id": 30,
            "name": "Etobicoke North"
          }
        ],
        "pollDivisionIds": [
          10138212
        ],
        "postalCode": "M9W6W7",
        "streetName": "ARBORWOOD",
        "streetDirectionId": null,
        "streetTypeId": "DR",
        "placeName": "ETOBICOKE",
        "streetNameDisplayText": "ARBORWOOD DR, ETOBICOKE"
      },
      {
        "electoralDistricts": [
          {
            "election": null,
            "id": 30,
            "name": "Etobicoke North"
          }
        ],
        "pollDivisionIds": [
          10138212
        ],
        "postalCode": "M9W6W7",
        "streetName": "CINRICKBAR",
        "streetDirectionId": null,
        "streetTypeId": "DR",
        "placeName": "ETOBICOKE",
        "streetNameDisplayText": "CINRICKBAR DR, ETOBICOKE"
      }
    ]
  },
  {
    "postal": "M9W0P1",
    "result": []
  },
  {
    "postal": "M9W3A0",
    "result": []
  },
  {
    "postal": "M9W8L9",
    "result": []
  },
  {
    "postal": "M9W6X0",
    "result": []
  },
  {
    "postal": "M9W3E9",
    "result": [
      {
        "electoralDistricts": [
          {
            "election": null,
            "id": 30,
            "name": "Etobicoke North"
          }
        ],
        "pollDivisionIds": [
          10138211
        ],
        "postalCode": "M9W3E9",
        "streetName": "MANCROFT",
        "streetDirectionId": null,
        "streetTypeId": "CRES",
        "placeName": "ETOBICOKE",
        "streetNameDisplayText": "MANCROFT CRES, ETOBICOKE"
      }
    ]
  },
  {
    "postal": "M9W0S5",
    "result": []
  },
  {
    "postal": "M9W1A2",
    "result": [
      {
        "electoralDistricts": [
          {
            "election": null,
            "id": 30,
            "name": "Etobicoke North"
          }
        ],
        "pollDivisionIds": [
          10138211
        ],
        "postalCode": "M9W1A2",
        "streetName": "INTERNATIONAL",
        "streetDirectionId": null,
        "streetTypeId": "BLVD",
        "placeName": "ETOBICOKE",
        "streetNameDisplayText": "INTERNATIONAL BLVD, ETOBICOKE"
      }
    ]
  },
  {
    "postal": "M9W5V8",
    "result": [
      {
        "electoralDistricts": [
          {
            "election": null,
            "id": 30,
            "name": "Etobicoke North"
          }
        ],
        "pollDivisionIds": [
          10138224
        ],
        "postalCode": "M9W5V8",
        "streetName": "DANSK",
        "streetDirectionId": null,
        "streetTypeId": "CRT",
        "placeName": "ETOBICOKE",
        "streetNameDisplayText": "DANSK CRT, ETOBICOKE"
      }
    ]
  },
  {
    "postal": "M9W8C5",
    "result": []
  },
  {
    "postal": "M9W6N0",
    "result": []
  },
  {
    "postal": "M9W9E6",
    "result": []
  },
  {
    "postal": "M9W5J7",
    "result": [
      {
        "electoralDistricts": [
          {
            "election": null,
            "id": 30,
            "name": "Etobicoke North"
          }
        ],
        "pollDivisionIds": [
          10138211
        ],
        "postalCode": "M9W5J7",
        "streetName": "KEARNEY",
        "streetDirectionId": null,
        "streetTypeId": "DR",
        "placeName": "ETOBICOKE",
        "streetNameDisplayText": "KEARNEY DR, ETOBICOKE"
      }
    ]
  },
  {
    "postal": "M9W2R2",
    "result": [
      {
        "electoralDistricts": [
          {
            "election": null,
            "id": 30,
            "name": "Etobicoke North"
          }
        ],
        "pollDivisionIds": [
          10138217
        ],
        "postalCode": "M9W2R2",
        "streetName": "MONCRIEFF",
        "streetDirectionId": null,
        "streetTypeId": "DR",
        "placeName": "ETOBICOKE",
        "streetNameDisplayText": "MONCRIEFF DR, ETOBICOKE"
      }
    ]
  },
  {
    "postal": "M9W0P5",
    "result": []
  },
  {
    "postal": "M9W5A7",
    "result": [
      {
        "electoralDistricts": [
          {
            "election": null,
            "id": 30,
            "name": "Etobicoke North"
          }
        ],
        "pollDivisionIds": [
          10138211
        ],
        "postalCode": "M9W5A7",
        "streetName": "CITY VIEW",
        "streetDirectionId": null,
        "streetTypeId": "DR",
        "placeName": "ETOBICOKE",
        "streetNameDisplayText": "CITY VIEW DR, ETOBICOKE"
      }
    ]
  },
  {
    "postal": "M9W1G1",
    "result": [
      {
        "electoralDistricts": [
          {
            "election": null,
            "id": 30,
            "name": "Etobicoke North"
          }
        ],
        "pollDivisionIds": [
          10138211
        ],
        "postalCode": "M9W1G1",
        "streetName": "BELFIELD",
        "streetDirectionId": null,
        "streetTypeId": "RD",
        "placeName": "ETOBICOKE",
        "streetNameDisplayText": "BELFIELD RD, ETOBICOKE"
      }
    ]
  },
  {
    "postal": "M9W9R6",
    "result": []
  },
  {
    "postal": "M9W4Z9",
    "result": []
  },
  {
    "postal": "M9W1V5",
    "result": [
      {
        "electoralDistricts": [
          {
            "election": null,
            "id": 30,
            "name": "Etobicoke North"
          }
        ],
        "pollDivisionIds": [
          10138205
        ],
        "postalCode": "M9W1V5",
        "streetName": "HADRIAN",
        "streetDirectionId": null,
        "streetTypeId": "DR",
        "placeName": "ETOBICOKE",
        "streetNameDisplayText": "HADRIAN DR, ETOBICOKE"
      }
    ]
  },
  {
    "postal": "M9W9Y5",
    "result": []
  },
  {
    "postal": "M9W1P2",
    "result": []
  },
  {
    "postal": "M9W5X0",
    "result": []
  },
  {
    "postal": "M9W7B8",
    "result": [
      {
        "electoralDistricts": [
          {
            "election": null,
            "id": 30,
            "name": "Etobicoke North"
          }
        ],
        "pollDivisionIds": [
          10138212
        ],
        "postalCode": "M9W7B8",
        "streetName": "HULLEN",
        "streetDirectionId": null,
        "streetTypeId": "CRES",
        "placeName": "ETOBICOKE",
        "streetNameDisplayText": "HULLEN CRES, ETOBICOKE"
      },
      {
        "electoralDistricts": [
          {
            "election": null,
            "id": 30,
            "name": "Etobicoke North"
          }
        ],
        "pollDivisionIds": [
          10138212
        ],
        "postalCode": "M9W7B8",
        "streetName": "TOPBANK",
        "streetDirectionId": null,
        "streetTypeId": "DR",
        "placeName": "ETOBICOKE",
        "streetNameDisplayText": "TOPBANK DR, ETOBICOKE"
      },
      {
        "electoralDistricts": [
          {
            "election": null,
            "id": 30,
            "name": "Etobicoke North"
          }
        ],
        "pollDivisionIds": [
          10138212
        ],
        "postalCode": "M9W7B8",
        "streetName": "UPPER HUMBER",
        "streetDirectionId": null,
        "streetTypeId": "DR",
        "placeName": "ETOBICOKE",
        "streetNameDisplayText": "UPPER HUMBER DR, ETOBICOKE"
      }
    ]
  },
  {
    "postal": "M9W0C6",
    "result": [
      {
        "electoralDistricts": [
          {
            "election": null,
            "id": 30,
            "name": "Etobicoke North"
          }
        ],
        "pollDivisionIds": [
          10138206
        ],
        "postalCode": "M9W0C6",
        "streetName": "ESTHER LORRIE",
        "streetDirectionId": null,
        "streetTypeId": "DR",
        "placeName": "ETOBICOKE",
        "streetNameDisplayText": "ESTHER LORRIE DR, ETOBICOKE"
      },
      {
        "electoralDistricts": [
          {
            "election": null,
            "id": 30,
            "name": "Etobicoke North"
          }
        ],
        "pollDivisionIds": [
          10138206
        ],
        "postalCode": "M9W0C6",
        "streetName": "ESTHER LORRIE",
        "streetDirectionId": null,
        "streetTypeId": "DR",
        "placeName": "TORONTO",
        "streetNameDisplayText": "ESTHER LORRIE DR, TORONTO"
      }
    ]
  },
  {
    "postal": "M9W6G1",
    "result": [
      {
        "electoralDistricts": [
          {
            "election": null,
            "id": 30,
            "name": "Etobicoke North"
          }
        ],
        "pollDivisionIds": [
          10138214
        ],
        "postalCode": "M9W6G1",
        "streetName": "SHADY GLEN",
        "streetDirectionId": null,
        "streetTypeId": "RD",
        "placeName": "ETOBICOKE",
        "streetNameDisplayText": "SHADY GLEN RD, ETOBICOKE"
      }
    ]
  },
  {
    "postal": "M9W3K3",
    "result": [
      {
        "electoralDistricts": [
          {
            "election": null,
            "id": 30,
            "name": "Etobicoke North"
          }
        ],
        "pollDivisionIds": [
          10138206
        ],
        "postalCode": "M9W3K3",
        "streetName": "HOLBEACH",
        "streetDirectionId": null,
        "streetTypeId": "RD",
        "placeName": "ETOBICOKE",
        "streetNameDisplayText": "HOLBEACH RD, ETOBICOKE"
      }
    ]
  },
  {
    "postal": "M9W9R0",
    "result": []
  },
  {
    "postal": "M9W4R8",
    "result": [
      {
        "electoralDistricts": [
          {
            "election": null,
            "id": 30,
            "name": "Etobicoke North"
          }
        ],
        "pollDivisionIds": [
          10138206
        ],
        "postalCode": "M9W4R8",
        "streetName": "IXWORTH",
        "streetDirectionId": null,
        "streetTypeId": "RD",
        "placeName": "ETOBICOKE",
        "streetNameDisplayText": "IXWORTH RD, ETOBICOKE"
      }
    ]
  },
  {
    "postal": "M9W5P9",
    "result": []
  },
  {
    "postal": "M9W8N4",
    "result": []
  },
  {
    "postal": "M9W8H4",
    "result": []
  },
  {
    "postal": "M9W4V1",
    "result": [
      {
        "electoralDistricts": [
          {
            "election": null,
            "id": 30,
            "name": "Etobicoke North"
          }
        ],
        "pollDivisionIds": [
          10138206
        ],
        "postalCode": "M9W4V1",
        "streetName": "ESTHER LORRIE",
        "streetDirectionId": null,
        "streetTypeId": "DR",
        "placeName": "ETOBICOKE",
        "streetNameDisplayText": "ESTHER LORRIE DR, ETOBICOKE"
      }
    ]
  },
  {
    "postal": "M9W1K5",
    "result": [
      {
        "electoralDistricts": [
          {
            "election": null,
            "id": 30,
            "name": "Etobicoke North"
          }
        ],
        "pollDivisionIds": [
          10138211
        ],
        "postalCode": "M9W1K5",
        "streetName": "FASKEN",
        "streetDirectionId": null,
        "streetTypeId": "DR",
        "placeName": "ETOBICOKE",
        "streetNameDisplayText": "FASKEN DR, ETOBICOKE"
      }
    ]
  },
  {
    "postal": "M9W1Z5",
    "result": [
      {
        "electoralDistricts": [
          {
            "election": null,
            "id": 30,
            "name": "Etobicoke North"
          }
        ],
        "pollDivisionIds": [
          10138217
        ],
        "postalCode": "M9W1Z5",
        "streetName": "REDWATER",
        "streetDirectionId": null,
        "streetTypeId": "DR",
        "placeName": "ETOBICOKE",
        "streetNameDisplayText": "REDWATER DR, ETOBICOKE"
      }
    ]
  },
  {
    "postal": "M9W9L9",
    "result": []
  },
  {
    "postal": "M9W5L2",
    "result": [
      {
        "electoralDistricts": [
          {
            "election": null,
            "id": 30,
            "name": "Etobicoke North"
          }
        ],
        "pollDivisionIds": [
          10138212
        ],
        "postalCode": "M9W5L2",
        "streetName": "REXDALE",
        "streetDirectionId": null,
        "streetTypeId": "BLVD",
        "placeName": "ETOBICOKE",
        "streetNameDisplayText": "REXDALE BLVD, ETOBICOKE"
      }
    ]
  },
  {
    "postal": "M9W0M2",
    "result": []
  },
  {
    "postal": "M9W1K8",
    "result": []
  },
  {
    "postal": "M9W3M7",
    "result": [
      {
        "electoralDistricts": [
          {
            "election": null,
            "id": 30,
            "name": "Etobicoke North"
          }
        ],
        "pollDivisionIds": [
          10138206
        ],
        "postalCode": "M9W3M7",
        "streetName": "WESTHUMBER",
        "streetDirectionId": null,
        "streetTypeId": "BLVD",
        "placeName": "ETOBICOKE",
        "streetNameDisplayText": "WESTHUMBER BLVD, ETOBICOKE"
      }
    ]
  },
  {
    "postal": "M9W1B2",
    "result": [
      {
        "electoralDistricts": [
          {
            "election": null,
            "id": 30,
            "name": "Etobicoke North"
          }
        ],
        "pollDivisionIds": [
          10138211
        ],
        "postalCode": "M9W1B2",
        "streetName": "RONSON",
        "streetDirectionId": null,
        "streetTypeId": "DR",
        "placeName": "ETOBICOKE",
        "streetNameDisplayText": "RONSON DR, ETOBICOKE"
      }
    ]
  },
  {
    "postal": "M9W0H9",
    "result": []
  },
  {
    "postal": "M9W8M4",
    "result": []
  },
  {
    "postal": "M9W2M5",
    "result": [
      {
        "electoralDistricts": [
          {
            "election": null,
            "id": 30,
            "name": "Etobicoke North"
          }
        ],
        "pollDivisionIds": [
          10138218
        ],
        "postalCode": "M9W2M5",
        "streetName": "BYNG",
        "streetDirectionId": null,
        "streetTypeId": "AVE",
        "placeName": "ETOBICOKE",
        "streetNameDisplayText": "BYNG AVE, ETOBICOKE"
      }
    ]
  },
  {
    "postal": "M9W0T9",
    "result": []
  },
  {
    "postal": "M9W3P1",
    "result": [
      {
        "electoralDistricts": [
          {
            "election": null,
            "id": 30,
            "name": "Etobicoke North"
          }
        ],
        "pollDivisionIds": [
          10138218
        ],
        "postalCode": "M9W3P1",
        "streetName": "ALBION",
        "streetDirectionId": null,
        "streetTypeId": "RD",
        "placeName": "ETOBICOKE",
        "streetNameDisplayText": "ALBION RD, ETOBICOKE"
      }
    ]
  },
  {
    "postal": "M9W1R6",
    "result": [
      {
        "electoralDistricts": [
          {
            "election": null,
            "id": 30,
            "name": "Etobicoke North"
          }
        ],
        "pollDivisionIds": [
          10138211
        ],
        "postalCode": "M9W1R6",
        "streetName": "REXDALE",
        "streetDirectionId": null,
        "streetTypeId": "BLVD",
        "placeName": "ETOBICOKE",
        "streetNameDisplayText": "REXDALE BLVD, ETOBICOKE"
      }
    ]
  },
  {
    "postal": "M9W9V5",
    "result": []
  },
  {
    "postal": "M9W9T0",
    "result": []
  },
  {
    "postal": "M9W0A9",
    "result": []
  },
  {
    "postal": "M9W1M3",
    "result": [
      {
        "electoralDistricts": [
          {
            "election": null,
            "id": 30,
            "name": "Etobicoke North"
          }
        ],
        "pollDivisionIds": [
          10138211
        ],
        "postalCode": "M9W1M3",
        "streetName": "DISCO",
        "streetDirectionId": null,
        "streetTypeId": "RD",
        "placeName": "ETOBICOKE",
        "streetNameDisplayText": "DISCO RD, ETOBICOKE"
      }
    ]
  },
  {
    "postal": "M9W1W8",
    "result": [
      {
        "electoralDistricts": [
          {
            "election": null,
            "id": 30,
            "name": "Etobicoke North"
          }
        ],
        "pollDivisionIds": [
          10138205
        ],
        "postalCode": "M9W1W8",
        "streetName": "CAULFIELD",
        "streetDirectionId": null,
        "streetTypeId": "RD",
        "placeName": "ETOBICOKE",
        "streetNameDisplayText": "CAULFIELD RD, ETOBICOKE"
      }
    ]
  },
  {
    "postal": "M9W9J1",
    "result": []
  },
  {
    "postal": "M9W8N5",
    "result": []
  },
  {
    "postal": "M9W5X1",
    "result": [
      {
        "electoralDistricts": [
          {
            "election": null,
            "id": 30,
            "name": "Etobicoke North"
          }
        ],
        "pollDivisionIds": [
          10138224
        ],
        "postalCode": "M9W5X1",
        "streetName": "HUMBERLINE",
        "streetDirectionId": null,
        "streetTypeId": "DR",
        "placeName": "ETOBICOKE",
        "streetNameDisplayText": "HUMBERLINE DR, ETOBICOKE"
      }
    ]
  },
  {
    "postal": "M9W6S2",
    "result": [
      {
        "electoralDistricts": [
          {
            "election": null,
            "id": 30,
            "name": "Etobicoke North"
          }
        ],
        "pollDivisionIds": [
          10138224
        ],
        "postalCode": "M9W6S2",
        "streetName": "GOODMARK",
        "streetDirectionId": null,
        "streetTypeId": "PL",
        "placeName": "ETOBICOKE",
        "streetNameDisplayText": "GOODMARK PL, ETOBICOKE"
      }
    ]
  },
  {
    "postal": "M9W2A2",
    "result": [
      {
        "electoralDistricts": [
          {
            "election": null,
            "id": 30,
            "name": "Etobicoke North"
          }
        ],
        "pollDivisionIds": [
          10138217
        ],
        "postalCode": "M9W2A2",
        "streetName": "REDWATER",
        "streetDirectionId": null,
        "streetTypeId": "DR",
        "placeName": "ETOBICOKE",
        "streetNameDisplayText": "REDWATER DR, ETOBICOKE"
      }
    ]
  },
  {
    "postal": "M9W6A6",
    "result": [
      {
        "electoralDistricts": [
          {
            "election": null,
            "id": 30,
            "name": "Etobicoke North"
          }
        ],
        "pollDivisionIds": [
          10138218
        ],
        "postalCode": "M9W6A6",
        "streetName": "ALBION",
        "streetDirectionId": null,
        "streetTypeId": "RD",
        "placeName": "ETOBICOKE",
        "streetNameDisplayText": "ALBION RD, ETOBICOKE"
      }
    ]
  },
  {
    "postal": "M9W0S3",
    "result": []
  },
  {
    "postal": "M9W3E7",
    "result": [
      {
        "electoralDistricts": [
          {
            "election": null,
            "id": 30,
            "name": "Etobicoke North"
          }
        ],
        "pollDivisionIds": [
          10138211
        ],
        "postalCode": "M9W3E7",
        "streetName": "MANCROFT",
        "streetDirectionId": null,
        "streetTypeId": "CRES",
        "placeName": "ETOBICOKE",
        "streetNameDisplayText": "MANCROFT CRES, ETOBICOKE"
      }
    ]
  },
  {
    "postal": "M9W5R7",
    "result": [
      {
        "electoralDistricts": [
          {
            "election": null,
            "id": 30,
            "name": "Etobicoke North"
          }
        ],
        "pollDivisionIds": [
          10138211
        ],
        "postalCode": "M9W5R7",
        "streetName": "GALAXY",
        "streetDirectionId": null,
        "streetTypeId": "BLVD",
        "placeName": "ETOBICOKE",
        "streetNameDisplayText": "GALAXY BLVD, ETOBICOKE"
      }
    ]
  },
  {
    "postal": "M9W3R6",
    "result": [
      {
        "electoralDistricts": [
          {
            "election": null,
            "id": 30,
            "name": "Etobicoke North"
          }
        ],
        "pollDivisionIds": [
          10138205
        ],
        "postalCode": "M9W3R6",
        "streetName": "BURCHELL",
        "streetDirectionId": null,
        "streetTypeId": "RD",
        "placeName": "ETOBICOKE",
        "streetNameDisplayText": "BURCHELL RD, ETOBICOKE"
      }
    ]
  },
  {
    "postal": "M9W6K4",
    "result": [
      {
        "electoralDistricts": [
          {
            "election": null,
            "id": 30,
            "name": "Etobicoke North"
          }
        ],
        "pollDivisionIds": [
          10138211
        ],
        "postalCode": "M9W6K4",
        "streetName": "INTERNATIONAL",
        "streetDirectionId": null,
        "streetTypeId": "BLVD",
        "placeName": "ETOBICOKE",
        "streetNameDisplayText": "INTERNATIONAL BLVD, ETOBICOKE"
      }
    ]
  },
  {
    "postal": "M9W2W5",
    "result": [
      {
        "electoralDistricts": [
          {
            "election": null,
            "id": 30,
            "name": "Etobicoke North"
          }
        ],
        "pollDivisionIds": [
          10138216
        ],
        "postalCode": "M9W2W5",
        "streetName": "BARWELL",
        "streetDirectionId": null,
        "streetTypeId": "CRES",
        "placeName": "ETOBICOKE",
        "streetNameDisplayText": "BARWELL CRES, ETOBICOKE"
      }
    ]
  },
  {
    "postal": "M9W8W4",
    "result": []
  },
  {
    "postal": "M9W9C2",
    "result": []
  },
  {
    "postal": "M9W2C0",
    "result": []
  },
  {
    "postal": "M9W0E1",
    "result": [
      {
        "electoralDistricts": [
          {
            "election": null,
            "id": 30,
            "name": "Etobicoke North"
          }
        ],
        "pollDivisionIds": [
          10138212
        ],
        "postalCode": "M9W0E1",
        "streetName": "HARPREET",
        "streetDirectionId": null,
        "streetTypeId": "CIR",
        "placeName": "ETOBICOKE",
        "streetNameDisplayText": "HARPREET CIR, ETOBICOKE"
      }
    ]
  },
  {
    "postal": "M9W1K9",
    "result": [
      {
        "electoralDistricts": [
          {
            "election": null,
            "id": 30,
            "name": "Etobicoke North"
          }
        ],
        "pollDivisionIds": [
          10138211
        ],
        "postalCode": "M9W1K9",
        "streetName": "WORCESTER",
        "streetDirectionId": null,
        "streetTypeId": "RD",
        "placeName": "ETOBICOKE",
        "streetNameDisplayText": "WORCESTER RD, ETOBICOKE"
      }
    ]
  },
  {
    "postal": "M9W1G7",
    "result": [
      {
        "electoralDistricts": [
          {
            "election": null,
            "id": 30,
            "name": "Etobicoke North"
          }
        ],
        "pollDivisionIds": [
          10138211
        ],
        "postalCode": "M9W1G7",
        "streetName": "BELFIELD",
        "streetDirectionId": null,
        "streetTypeId": "RD",
        "placeName": "ETOBICOKE",
        "streetNameDisplayText": "BELFIELD RD, ETOBICOKE"
      }
    ]
  },
  {
    "postal": "M9W4E9",
    "result": [
      {
        "electoralDistricts": [
          {
            "election": null,
            "id": 30,
            "name": "Etobicoke North"
          }
        ],
        "pollDivisionIds": [
          10138216
        ],
        "postalCode": "M9W4E9",
        "streetName": "WATERCLIFFE",
        "streetDirectionId": null,
        "streetTypeId": "RD",
        "placeName": "ETOBICOKE",
        "streetNameDisplayText": "WATERCLIFFE RD, ETOBICOKE"
      }
    ]
  },
  {
    "postal": "M9W9P0",
    "result": []
  },
  {
    "postal": "M9W5H3",
    "result": [
      {
        "electoralDistricts": [
          {
            "election": null,
            "id": 30,
            "name": "Etobicoke North"
          }
        ],
        "pollDivisionIds": [
          10138211
        ],
        "postalCode": "M9W5H3",
        "streetName": "PRECISION",
        "streetDirectionId": null,
        "streetTypeId": "RD",
        "placeName": "ETOBICOKE",
        "streetNameDisplayText": "PRECISION RD, ETOBICOKE"
      }
    ]
  },
  {
    "postal": "M9W9X6",
    "result": []
  },
  {
    "postal": "M9W5N7",
    "result": [
      {
        "electoralDistricts": [
          {
            "election": null,
            "id": 30,
            "name": "Etobicoke North"
          }
        ],
        "pollDivisionIds": [
          10138211
        ],
        "postalCode": "M9W5N7",
        "streetName": "WORCESTER",
        "streetDirectionId": null,
        "streetTypeId": "RD",
        "placeName": "ETOBICOKE",
        "streetNameDisplayText": "WORCESTER RD, ETOBICOKE"
      }
    ]
  },
  {
    "postal": "M9W5A6",
    "result": []
  },
  {
    "postal": "M9W4M0",
    "result": []
  },
  {
    "postal": "M9W3V6",
    "result": [
      {
        "electoralDistricts": [
          {
            "election": null,
            "id": 30,
            "name": "Etobicoke North"
          }
        ],
        "pollDivisionIds": [
          10138218
        ],
        "postalCode": "M9W3V6",
        "streetName": "BEMBERG",
        "streetDirectionId": null,
        "streetTypeId": "CRT",
        "placeName": "ETOBICOKE",
        "streetNameDisplayText": "BEMBERG CRT, ETOBICOKE"
      }
    ]
  },
  {
    "postal": "M9W1L7",
    "result": [
      {
        "electoralDistricts": [
          {
            "election": null,
            "id": 30,
            "name": "Etobicoke North"
          }
        ],
        "pollDivisionIds": [
          10138211
        ],
        "postalCode": "M9W1L7",
        "streetName": "DISCO",
        "streetDirectionId": null,
        "streetTypeId": "RD",
        "placeName": "ETOBICOKE",
        "streetNameDisplayText": "DISCO RD, ETOBICOKE"
      }
    ]
  },
  {
    "postal": "M9W2P9",
    "result": [
      {
        "electoralDistricts": [
          {
            "election": null,
            "id": 30,
            "name": "Etobicoke North"
          }
        ],
        "pollDivisionIds": [
          10138217
        ],
        "postalCode": "M9W2P9",
        "streetName": "MONCRIEFF",
        "streetDirectionId": null,
        "streetTypeId": "DR",
        "placeName": "ETOBICOKE",
        "streetNameDisplayText": "MONCRIEFF DR, ETOBICOKE"
      }
    ]
  },
  {
    "postal": "M9W5T4",
    "result": [
      {
        "electoralDistricts": [
          {
            "election": null,
            "id": 30,
            "name": "Etobicoke North"
          }
        ],
        "pollDivisionIds": [
          10138211
        ],
        "postalCode": "M9W5T4",
        "streetName": "GALAXY",
        "streetDirectionId": null,
        "streetTypeId": "BLVD",
        "placeName": "ETOBICOKE",
        "streetNameDisplayText": "GALAXY BLVD, ETOBICOKE"
      }
    ]
  },
  {
    "postal": "M9W5Z1",
    "result": []
  },
  {
    "postal": "M9W2X0",
    "result": []
  },
  {
    "postal": "M9W6Z2",
    "result": [
      {
        "electoralDistricts": [
          {
            "election": null,
            "id": 30,
            "name": "Etobicoke North"
          }
        ],
        "pollDivisionIds": [
          10138212
        ],
        "postalCode": "M9W6Z2",
        "streetName": "QUEEN'S PLATE",
        "streetDirectionId": null,
        "streetTypeId": "DR",
        "placeName": "ETOBICOKE",
        "streetNameDisplayText": "QUEEN'S PLATE DR, ETOBICOKE"
      }
    ]
  },
  {
    "postal": "M9W0E0",
    "result": []
  },
  {
    "postal": "M9W3Z5",
    "result": [
      {
        "electoralDistricts": [
          {
            "election": null,
            "id": 30,
            "name": "Etobicoke North"
          }
        ],
        "pollDivisionIds": [
          10138217
        ],
        "postalCode": "M9W3Z5",
        "streetName": "COPPERMILL",
        "streetDirectionId": null,
        "streetTypeId": "DR",
        "placeName": "ETOBICOKE",
        "streetNameDisplayText": "COPPERMILL DR, ETOBICOKE"
      }
    ]
  },
  {
    "postal": "M9W8H3",
    "result": []
  },
  {
    "postal": "M9W7S6",
    "result": []
  },
  {
    "postal": "M9W4C1",
    "result": [
      {
        "electoralDistricts": [
          {
            "election": null,
            "id": 30,
            "name": "Etobicoke North"
          }
        ],
        "pollDivisionIds": [
          10138216
        ],
        "postalCode": "M9W4C1",
        "streetName": "KINGSKNOWE",
        "streetDirectionId": null,
        "streetTypeId": "RD",
        "placeName": "ETOBICOKE",
        "streetNameDisplayText": "KINGSKNOWE RD, ETOBICOKE"
      }
    ]
  },
  {
    "postal": "M9W3K2",
    "result": [
      {
        "electoralDistricts": [
          {
            "election": null,
            "id": 30,
            "name": "Etobicoke North"
          }
        ],
        "pollDivisionIds": [
          10138206
        ],
        "postalCode": "M9W3K2",
        "streetName": "HOLBEACH",
        "streetDirectionId": null,
        "streetTypeId": "RD",
        "placeName": "ETOBICOKE",
        "streetNameDisplayText": "HOLBEACH RD, ETOBICOKE"
      }
    ]
  },
  {
    "postal": "M9W1Y5",
    "result": [
      {
        "electoralDistricts": [
          {
            "election": null,
            "id": 30,
            "name": "Etobicoke North"
          }
        ],
        "pollDivisionIds": [
          10138217
        ],
        "postalCode": "M9W1Y5",
        "streetName": "FROST",
        "streetDirectionId": null,
        "streetTypeId": "ST",
        "placeName": "ETOBICOKE",
        "streetNameDisplayText": "FROST ST, ETOBICOKE"
      }
    ]
  },
  {
    "postal": "M9W6P6",
    "result": [
      {
        "electoralDistricts": [
          {
            "election": null,
            "id": 30,
            "name": "Etobicoke North"
          }
        ],
        "pollDivisionIds": [
          10138224
        ],
        "postalCode": "M9W6P6",
        "streetName": "CLAIREPORT",
        "streetDirectionId": null,
        "streetTypeId": "CRES",
        "placeName": "ETOBICOKE",
        "streetNameDisplayText": "CLAIREPORT CRES, ETOBICOKE"
      }
    ]
  },
  {
    "postal": "M9W3N9",
    "result": []
  },
  {
    "postal": "M9W3W2",
    "result": [
      {
        "electoralDistricts": [
          {
            "election": null,
            "id": 30,
            "name": "Etobicoke North"
          }
        ],
        "pollDivisionIds": [
          10138218
        ],
        "postalCode": "M9W3W2",
        "streetName": "HACKMORE",
        "streetDirectionId": null,
        "streetTypeId": "AVE",
        "placeName": "ETOBICOKE",
        "streetNameDisplayText": "HACKMORE AVE, ETOBICOKE"
      }
    ]
  },
  {
    "postal": "M9W6H8",
    "result": [
      {
        "electoralDistricts": [
          {
            "election": null,
            "id": 30,
            "name": "Etobicoke North"
          }
        ],
        "pollDivisionIds": [
          10138211
        ],
        "postalCode": "M9W6H8",
        "streetName": "ATTWELL",
        "streetDirectionId": null,
        "streetTypeId": "DR",
        "placeName": "ETOBICOKE",
        "streetNameDisplayText": "ATTWELL DR, ETOBICOKE"
      }
    ]
  },
  {
    "postal": "M9W9T3",
    "result": []
  },
  {
    "postal": "M9W5L9",
    "result": [
      {
        "electoralDistricts": [
          {
            "election": null,
            "id": 30,
            "name": "Etobicoke North"
          }
        ],
        "pollDivisionIds": [
          10138211
        ],
        "postalCode": "M9W5L9",
        "streetName": "IRON",
        "streetDirectionId": null,
        "streetTypeId": "ST",
        "placeName": "ETOBICOKE",
        "streetNameDisplayText": "IRON ST, ETOBICOKE"
      }
    ]
  },
  {
    "postal": "M9W7X7",
    "result": []
  },
  {
    "postal": "M9W3J5",
    "result": [
      {
        "electoralDistricts": [
          {
            "election": null,
            "id": 30,
            "name": "Etobicoke North"
          }
        ],
        "pollDivisionIds": [
          10138206
        ],
        "postalCode": "M9W3J5",
        "streetName": "PORTERFIELD",
        "streetDirectionId": null,
        "streetTypeId": "RD",
        "placeName": "ETOBICOKE",
        "streetNameDisplayText": "PORTERFIELD RD, ETOBICOKE"
      }
    ]
  },
  {
    "postal": "M9W4J5",
    "result": [
      {
        "electoralDistricts": [
          {
            "election": null,
            "id": 30,
            "name": "Etobicoke North"
          }
        ],
        "pollDivisionIds": [
          10138206
        ],
        "postalCode": "M9W4J5",
        "streetName": "KIPLING",
        "streetDirectionId": null,
        "streetTypeId": "AVE",
        "placeName": "ETOBICOKE",
        "streetNameDisplayText": "KIPLING AVE, ETOBICOKE"
      }
    ]
  },
  {
    "postal": "M9W6J2",
    "result": [
      {
        "electoralDistricts": [
          {
            "election": null,
            "id": 30,
            "name": "Etobicoke North"
          }
        ],
        "pollDivisionIds": [
          10138211
        ],
        "postalCode": "M9W6J2",
        "streetName": "INTERNATIONAL",
        "streetDirectionId": null,
        "streetTypeId": "BLVD",
        "placeName": "ETOBICOKE",
        "streetNameDisplayText": "INTERNATIONAL BLVD, ETOBICOKE"
      }
    ]
  },
  {
    "postal": "M9W5V6",
    "result": [
      {
        "electoralDistricts": [
          {
            "election": null,
            "id": 30,
            "name": "Etobicoke North"
          }
        ],
        "pollDivisionIds": [
          10138218
        ],
        "postalCode": "M9W5V6",
        "streetName": "URBAN",
        "streetDirectionId": null,
        "streetTypeId": "CRT",
        "placeName": "ETOBICOKE",
        "streetNameDisplayText": "URBAN CRT, ETOBICOKE"
      }
    ]
  },
  {
    "postal": "M9W3N2",
    "result": [
      {
        "electoralDistricts": [
          {
            "election": null,
            "id": 30,
            "name": "Etobicoke North"
          }
        ],
        "pollDivisionIds": [
          10138206
        ],
        "postalCode": "M9W3N2",
        "streetName": "WESTHUMBER",
        "streetDirectionId": null,
        "streetTypeId": "BLVD",
        "placeName": "ETOBICOKE",
        "streetNameDisplayText": "WESTHUMBER BLVD, ETOBICOKE"
      }
    ]
  },
  {
    "postal": "M9W3B1",
    "result": [
      {
        "electoralDistricts": [
          {
            "election": null,
            "id": 30,
            "name": "Etobicoke North"
          }
        ],
        "pollDivisionIds": [
          10138211
        ],
        "postalCode": "M9W3B1",
        "streetName": "ROSEFAIR",
        "streetDirectionId": null,
        "streetTypeId": "CRES",
        "placeName": "ETOBICOKE",
        "streetNameDisplayText": "ROSEFAIR CRES, ETOBICOKE"
      }
    ]
  },
  {
    "postal": "M9W8B5",
    "result": []
  },
  {
    "postal": "M9W0K1",
    "result": []
  },
  {
    "postal": "M9W7M7",
    "result": []
  },
  {
    "postal": "M9W2M2",
    "result": [
      {
        "electoralDistricts": [
          {
            "election": null,
            "id": 30,
            "name": "Etobicoke North"
          }
        ],
        "pollDivisionIds": [
          10138216
        ],
        "postalCode": "M9W2M2",
        "streetName": "ELMHURST",
        "streetDirectionId": null,
        "streetTypeId": "DR",
        "placeName": "ETOBICOKE",
        "streetNameDisplayText": "ELMHURST DR, ETOBICOKE"
      }
    ]
  },
  {
    "postal": "M9W9N3",
    "result": []
  },
  {
    "postal": "M9W4Y8",
    "result": [
      {
        "electoralDistricts": [
          {
            "election": null,
            "id": 30,
            "name": "Etobicoke North"
          }
        ],
        "pollDivisionIds": [
          10138211
        ],
        "postalCode": "M9W4Y8",
        "streetName": "GALAXY",
        "streetDirectionId": null,
        "streetTypeId": "BLVD",
        "placeName": "ETOBICOKE",
        "streetNameDisplayText": "GALAXY BLVD, ETOBICOKE"
      }
    ]
  },
  {
    "postal": "M9W3V7",
    "result": [
      {
        "electoralDistricts": [
          {
            "election": null,
            "id": 30,
            "name": "Etobicoke North"
          }
        ],
        "pollDivisionIds": [
          10138218
        ],
        "postalCode": "M9W3V7",
        "streetName": "ENDICOTT",
        "streetDirectionId": null,
        "streetTypeId": "AVE",
        "placeName": "ETOBICOKE",
        "streetNameDisplayText": "ENDICOTT AVE, ETOBICOKE"
      }
    ]
  },
  {
    "postal": "M9W8Z1",
    "result": []
  },
  {
    "postal": "M9W7B3",
    "result": [
      {
        "electoralDistricts": [
          {
            "election": null,
            "id": 30,
            "name": "Etobicoke North"
          }
        ],
        "pollDivisionIds": [
          10138212
        ],
        "postalCode": "M9W7B3",
        "streetName": "ARBORVIEW",
        "streetDirectionId": null,
        "streetTypeId": "CRES",
        "placeName": "ETOBICOKE",
        "streetNameDisplayText": "ARBORVIEW CRES, ETOBICOKE"
      },
      {
        "electoralDistricts": [
          {
            "election": null,
            "id": 30,
            "name": "Etobicoke North"
          }
        ],
        "pollDivisionIds": [
          10138212
        ],
        "postalCode": "M9W7B3",
        "streetName": "UPPER HUMBER",
        "streetDirectionId": null,
        "streetTypeId": "DR",
        "placeName": "ETOBICOKE",
        "streetNameDisplayText": "UPPER HUMBER DR, ETOBICOKE"
      }
    ]
  },
  {
    "postal": "M9W3A8",
    "result": [
      {
        "electoralDistricts": [
          {
            "election": null,
            "id": 30,
            "name": "Etobicoke North"
          }
        ],
        "pollDivisionIds": [
          10138206
        ],
        "postalCode": "M9W3A8",
        "streetName": "TABER",
        "streetDirectionId": null,
        "streetTypeId": "RD",
        "placeName": "ETOBICOKE",
        "streetNameDisplayText": "TABER RD, ETOBICOKE"
      }
    ]
  },
  {
    "postal": "M9W7V5",
    "result": []
  },
  {
    "postal": "M9W2T2",
    "result": [
      {
        "electoralDistricts": [
          {
            "election": null,
            "id": 30,
            "name": "Etobicoke North"
          }
        ],
        "pollDivisionIds": [
          10138217
        ],
        "postalCode": "M9W2T2",
        "streetName": "FORDWICH",
        "streetDirectionId": null,
        "streetTypeId": "CRES",
        "placeName": "ETOBICOKE",
        "streetNameDisplayText": "FORDWICH CRES, ETOBICOKE"
      }
    ]
  },
  {
    "postal": "M9W6L3",
    "result": []
  },
  {
    "postal": "M9W0L2",
    "result": []
  },
  {
    "postal": "M9W5Y8",
    "result": [
      {
        "electoralDistricts": [
          {
            "election": null,
            "id": 30,
            "name": "Etobicoke North"
          }
        ],
        "pollDivisionIds": [
          10138224
        ],
        "postalCode": "M9W5Y8",
        "streetName": "CARRIER",
        "streetDirectionId": null,
        "streetTypeId": "DR",
        "placeName": "ETOBICOKE",
        "streetNameDisplayText": "CARRIER DR, ETOBICOKE"
      }
    ]
  },
  {
    "postal": "M9W0B8",
    "result": []
  },
  {
    "postal": "M9W6R5",
    "result": [
      {
        "electoralDistricts": [
          {
            "election": null,
            "id": 30,
            "name": "Etobicoke North"
          }
        ],
        "pollDivisionIds": [
          10138211
        ],
        "postalCode": "M9W6R5",
        "streetName": "SKYWAY",
        "streetDirectionId": null,
        "streetTypeId": "AVE",
        "placeName": "ETOBICOKE",
        "streetNameDisplayText": "SKYWAY AVE, ETOBICOKE"
      }
    ]
  },
  {
    "postal": "M9W8W6",
    "result": []
  },
  {
    "postal": "M9W8G6",
    "result": []
  },
  {
    "postal": "M9W6X3",
    "result": [
      {
        "electoralDistricts": [
          {
            "election": null,
            "id": 30,
            "name": "Etobicoke North"
          }
        ],
        "pollDivisionIds": [
          10138212
        ],
        "postalCode": "M9W6X3",
        "streetName": "CINRICKBAR",
        "streetDirectionId": null,
        "streetTypeId": "DR",
        "placeName": "ETOBICOKE",
        "streetNameDisplayText": "CINRICKBAR DR, ETOBICOKE"
      }
    ]
  },
  {
    "postal": "M9W7R7",
    "result": []
  },
  {
    "postal": "M9W4B6",
    "result": [
      {
        "electoralDistricts": [
          {
            "election": null,
            "id": 30,
            "name": "Etobicoke North"
          }
        ],
        "pollDivisionIds": [
          10138217
        ],
        "postalCode": "M9W4B6",
        "streetName": "PAKENHAM",
        "streetDirectionId": null,
        "streetTypeId": "DR",
        "placeName": "ETOBICOKE",
        "streetNameDisplayText": "PAKENHAM DR, ETOBICOKE"
      }
    ]
  },
  {
    "postal": "M9W3P9",
    "result": [
      {
        "electoralDistricts": [
          {
            "election": null,
            "id": 30,
            "name": "Etobicoke North"
          }
        ],
        "pollDivisionIds": [
          10138205
        ],
        "postalCode": "M9W3P9",
        "streetName": "ESMOND",
        "streetDirectionId": null,
        "streetTypeId": "CRES",
        "placeName": "ETOBICOKE",
        "streetNameDisplayText": "ESMOND CRES, ETOBICOKE"
      }
    ]
  },
  {
    "postal": "M9W2T3",
    "result": [
      {
        "electoralDistricts": [
          {
            "election": null,
            "id": 30,
            "name": "Etobicoke North"
          }
        ],
        "pollDivisionIds": [
          10138217
        ],
        "postalCode": "M9W2T3",
        "streetName": "FORDWICH",
        "streetDirectionId": null,
        "streetTypeId": "CRES",
        "placeName": "ETOBICOKE",
        "streetNameDisplayText": "FORDWICH CRES, ETOBICOKE"
      }
    ]
  },
  {
    "postal": "M9W1M4",
    "result": [
      {
        "electoralDistricts": [
          {
            "election": null,
            "id": 30,
            "name": "Etobicoke North"
          }
        ],
        "pollDivisionIds": [
          10138211
        ],
        "postalCode": "M9W1M4",
        "streetName": "DISCO",
        "streetDirectionId": null,
        "streetTypeId": "RD",
        "placeName": "ETOBICOKE",
        "streetNameDisplayText": "DISCO RD, ETOBICOKE"
      }
    ]
  },
  {
    "postal": "M9W0H1",
    "result": []
  },
  {
    "postal": "M9W9W3",
    "result": []
  },
  {
    "postal": "M9W6P1",
    "result": [
      {
        "electoralDistricts": [
          {
            "election": null,
            "id": 30,
            "name": "Etobicoke North"
          }
        ],
        "pollDivisionIds": [
          10138211
        ],
        "postalCode": "M9W6P1",
        "streetName": "QUEEN'S PLATE",
        "streetDirectionId": null,
        "streetTypeId": "DR",
        "placeName": "ETOBICOKE",
        "streetNameDisplayText": "QUEEN'S PLATE DR, ETOBICOKE"
      }
    ]
  },
  {
    "postal": "M9W7G2",
    "result": [
      {
        "electoralDistricts": [
          {
            "election": null,
            "id": 30,
            "name": "Etobicoke North"
          }
        ],
        "pollDivisionIds": [
          10138211
        ],
        "postalCode": "M9W7G2",
        "streetName": "ATTWELL",
        "streetDirectionId": null,
        "streetTypeId": "DR",
        "placeName": "ETOBICOKE",
        "streetNameDisplayText": "ATTWELL DR, ETOBICOKE"
      }
    ]
  },
  {
    "postal": "M9W4J9",
    "result": [
      {
        "electoralDistricts": [
          {
            "election": null,
            "id": 30,
            "name": "Etobicoke North"
          }
        ],
        "pollDivisionIds": [
          10138206
        ],
        "postalCode": "M9W4J9",
        "streetName": "KIPLING",
        "streetDirectionId": null,
        "streetTypeId": "AVE",
        "placeName": "ETOBICOKE",
        "streetNameDisplayText": "KIPLING AVE, ETOBICOKE"
      }
    ]
  },
  {
    "postal": "M9W9E4",
    "result": []
  },
  {
    "postal": "M9W8H0",
    "result": []
  },
  {
    "postal": "M9W4M7",
    "result": [
      {
        "electoralDistricts": [
          {
            "election": null,
            "id": 30,
            "name": "Etobicoke North"
          }
        ],
        "pollDivisionIds": [
          10138206
        ],
        "postalCode": "M9W4M7",
        "streetName": "BRYDON",
        "streetDirectionId": null,
        "streetTypeId": "DR",
        "placeName": "ETOBICOKE",
        "streetNameDisplayText": "BRYDON DR, ETOBICOKE"
      }
    ]
  },
  {
    "postal": "M9W2G9",
    "result": [
      {
        "electoralDistricts": [
          {
            "election": null,
            "id": 30,
            "name": "Etobicoke North"
          }
        ],
        "pollDivisionIds": [
          10138217
        ],
        "postalCode": "M9W2G9",
        "streetName": "REDCLIFF",
        "streetDirectionId": null,
        "streetTypeId": "BLVD",
        "placeName": "ETOBICOKE",
        "streetNameDisplayText": "REDCLIFF BLVD, ETOBICOKE"
      }
    ]
  },
  {
    "postal": "M9W8T2",
    "result": []
  },
  {
    "postal": "M9W7G7",
    "result": []
  },
  {
    "postal": "M9W4Z3",
    "result": []
  },
  {
    "postal": "M9W5B3",
    "result": [
      {
        "electoralDistricts": [
          {
            "election": null,
            "id": 30,
            "name": "Etobicoke North"
          }
        ],
        "pollDivisionIds": [
          10138211
        ],
        "postalCode": "M9W5B3",
        "streetName": "ATTWELL",
        "streetDirectionId": null,
        "streetTypeId": "DR",
        "placeName": "ETOBICOKE",
        "streetNameDisplayText": "ATTWELL DR, ETOBICOKE"
      }
    ]
  },
  {
    "postal": "M9W1S7",
    "result": [
      {
        "electoralDistricts": [
          {
            "election": null,
            "id": 30,
            "name": "Etobicoke North"
          }
        ],
        "pollDivisionIds": [
          10138205
        ],
        "postalCode": "M9W1S7",
        "streetName": "ALLENBY",
        "streetDirectionId": null,
        "streetTypeId": "AVE",
        "placeName": "ETOBICOKE",
        "streetNameDisplayText": "ALLENBY AVE, ETOBICOKE"
      }
    ]
  },
  {
    "postal": "M9W2N7",
    "result": [
      {
        "electoralDistricts": [
          {
            "election": null,
            "id": 30,
            "name": "Etobicoke North"
          }
        ],
        "pollDivisionIds": [
          10138218
        ],
        "postalCode": "M9W2N7",
        "streetName": "ARCOT",
        "streetDirectionId": null,
        "streetTypeId": "BLVD",
        "placeName": "ETOBICOKE",
        "streetNameDisplayText": "ARCOT BLVD, ETOBICOKE"
      }
    ]
  },
  {
    "postal": "M9W0H8",
    "result": []
  },
  {
    "postal": "M9W7Z4",
    "result": []
  },
  {
    "postal": "M9W7B1",
    "result": []
  },
  {
    "postal": "M9W7P8",
    "result": []
  },
  {
    "postal": "M9W7N0",
    "result": []
  },
  {
    "postal": "M9W3Y5",
    "result": [
      {
        "electoralDistricts": [
          {
            "election": null,
            "id": 30,
            "name": "Etobicoke North"
          }
        ],
        "pollDivisionIds": [
          10138217
        ],
        "postalCode": "M9W3Y5",
        "streetName": "PONOCA",
        "streetDirectionId": null,
        "streetTypeId": "RD",
        "placeName": "ETOBICOKE",
        "streetNameDisplayText": "PONOCA RD, ETOBICOKE"
      }
    ]
  },
  {
    "postal": "M9W6K1",
    "result": [
      {
        "electoralDistricts": [
          {
            "election": null,
            "id": 30,
            "name": "Etobicoke North"
          }
        ],
        "pollDivisionIds": [
          10138211
        ],
        "postalCode": "M9W6K1",
        "streetName": "DIXON",
        "streetDirectionId": null,
        "streetTypeId": "RD",
        "placeName": "ETOBICOKE",
        "streetNameDisplayText": "DIXON RD, ETOBICOKE"
      }
    ]
  },
  {
    "postal": "M9W9X5",
    "result": []
  },
  {
    "postal": "M9W7S5",
    "result": []
  },
  {
    "postal": "M9W0A4",
    "result": [
      {
        "electoralDistricts": [
          {
            "election": null,
            "id": 30,
            "name": "Etobicoke North"
          }
        ],
        "pollDivisionIds": [
          10138212
        ],
        "postalCode": "M9W0A4",
        "streetName": "FROST KING",
        "streetDirectionId": null,
        "streetTypeId": "LANE",
        "placeName": "ETOBICOKE",
        "streetNameDisplayText": "FROST KING LANE, ETOBICOKE"
      },
      {
        "electoralDistricts": [
          {
            "election": null,
            "id": 30,
            "name": "Etobicoke North"
          }
        ],
        "pollDivisionIds": [
          10138212
        ],
        "postalCode": "M9W0A4",
        "streetName": "JANDA",
        "streetDirectionId": null,
        "streetTypeId": "CRT",
        "placeName": "ETOBICOKE",
        "streetNameDisplayText": "JANDA CRT, ETOBICOKE"
      },
      {
        "electoralDistricts": [
          {
            "election": null,
            "id": 30,
            "name": "Etobicoke North"
          }
        ],
        "pollDivisionIds": [
          10138212
        ],
        "postalCode": "M9W0A4",
        "streetName": "PEDIGREE",
        "streetDirectionId": null,
        "streetTypeId": "MEWS",
        "placeName": "ETOBICOKE",
        "streetNameDisplayText": "PEDIGREE MEWS, ETOBICOKE"
      },
      {
        "electoralDistricts": [
          {
            "election": null,
            "id": 30,
            "name": "Etobicoke North"
          }
        ],
        "pollDivisionIds": [
          10138212
        ],
        "postalCode": "M9W0A4",
        "streetName": "QUEENS PLATE",
        "streetDirectionId": null,
        "streetTypeId": "DR",
        "placeName": "ETOBICOKE",
        "streetNameDisplayText": "QUEENS PLATE DR, ETOBICOKE"
      },
      {
        "electoralDistricts": [
          {
            "election": null,
            "id": 30,
            "name": "Etobicoke North"
          }
        ],
        "pollDivisionIds": [
          10138212
        ],
        "postalCode": "M9W0A4",
        "streetName": "QUEEN'S PLATE",
        "streetDirectionId": null,
        "streetTypeId": "DR",
        "placeName": "ETOBICOKE",
        "streetNameDisplayText": "QUEEN'S PLATE DR, ETOBICOKE"
      }
    ]
  },
  {
    "postal": "M9W4T5",
    "result": [
      {
        "electoralDistricts": [
          {
            "election": null,
            "id": 30,
            "name": "Etobicoke North"
          }
        ],
        "pollDivisionIds": [
          10138206
        ],
        "postalCode": "M9W4T5",
        "streetName": "JOSHUA",
        "streetDirectionId": null,
        "streetTypeId": "AVE",
        "placeName": "ETOBICOKE",
        "streetNameDisplayText": "JOSHUA AVE, ETOBICOKE"
      }
    ]
  },
  {
    "postal": "M9W5K1",
    "result": [
      {
        "electoralDistricts": [
          {
            "election": null,
            "id": 30,
            "name": "Etobicoke North"
          }
        ],
        "pollDivisionIds": [
          10138211
        ],
        "postalCode": "M9W5K1",
        "streetName": "KEARNEY",
        "streetDirectionId": null,
        "streetTypeId": "DR",
        "placeName": "ETOBICOKE",
        "streetNameDisplayText": "KEARNEY DR, ETOBICOKE"
      }
    ]
  },
  {
    "postal": "M9W0Z9",
    "result": []
  },
  {
    "postal": "M9W7T2",
    "result": []
  },
  {
    "postal": "M9W1L5",
    "result": []
  },
  {
    "postal": "M9W3N5",
    "result": [
      {
        "electoralDistricts": [
          {
            "election": null,
            "id": 30,
            "name": "Etobicoke North"
          }
        ],
        "pollDivisionIds": [
          10138206
        ],
        "postalCode": "M9W3N5",
        "streetName": "MOON VALLEY",
        "streetDirectionId": null,
        "streetTypeId": "DR",
        "placeName": "ETOBICOKE",
        "streetNameDisplayText": "MOON VALLEY DR, ETOBICOKE"
      }
    ]
  },
  {
    "postal": "M9W6H4",
    "result": []
  },
  {
    "postal": "M9W5A5",
    "result": [
      {
        "electoralDistricts": [
          {
            "election": null,
            "id": 30,
            "name": "Etobicoke North"
          }
        ],
        "pollDivisionIds": [
          10138211
        ],
        "postalCode": "M9W5A5",
        "streetName": "CITY VIEW",
        "streetDirectionId": null,
        "streetTypeId": "DR",
        "placeName": "ETOBICOKE",
        "streetNameDisplayText": "CITY VIEW DR, ETOBICOKE"
      }
    ]
  },
  {
    "postal": "M9W3R9",
    "result": [
      {
        "electoralDistricts": [
          {
            "election": null,
            "id": 30,
            "name": "Etobicoke North"
          }
        ],
        "pollDivisionIds": [
          10138205
        ],
        "postalCode": "M9W3R9",
        "streetName": "CHALFONT",
        "streetDirectionId": null,
        "streetTypeId": "RD",
        "placeName": "ETOBICOKE",
        "streetNameDisplayText": "CHALFONT RD, ETOBICOKE"
      }
    ]
  },
  {
    "postal": "M9W7L8",
    "result": []
  },
  {
    "postal": "M9W6T6",
    "result": [
      {
        "electoralDistricts": [
          {
            "election": null,
            "id": 30,
            "name": "Etobicoke North"
          }
        ],
        "pollDivisionIds": [
          10138224
        ],
        "postalCode": "M9W6T6",
        "streetName": "STEELES",
        "streetDirectionId": "W",
        "streetTypeId": "AVE",
        "placeName": "ETOBICOKE",
        "streetNameDisplayText": "STEELES AVE W, ETOBICOKE"
      }
    ]
  },
  {
    "postal": "M9W7Y7",
    "result": []
  },
  {
    "postal": "M9W3M8",
    "result": [
      {
        "electoralDistricts": [
          {
            "election": null,
            "id": 30,
            "name": "Etobicoke North"
          }
        ],
        "pollDivisionIds": [
          10138206
        ],
        "postalCode": "M9W3M8",
        "streetName": "WESTHUMBER",
        "streetDirectionId": null,
        "streetTypeId": "BLVD",
        "placeName": "ETOBICOKE",
        "streetNameDisplayText": "WESTHUMBER BLVD, ETOBICOKE"
      }
    ]
  },
  {
    "postal": "M9W2E0",
    "result": []
  },
  {
    "postal": "M9W4B5",
    "result": [
      {
        "electoralDistricts": [
          {
            "election": null,
            "id": 30,
            "name": "Etobicoke North"
          }
        ],
        "pollDivisionIds": [
          10138217
        ],
        "postalCode": "M9W4B5",
        "streetName": "PAKENHAM",
        "streetDirectionId": null,
        "streetTypeId": "DR",
        "placeName": "ETOBICOKE",
        "streetNameDisplayText": "PAKENHAM DR, ETOBICOKE"
      }
    ]
  },
  {
    "postal": "M9W1J3",
    "result": [
      {
        "electoralDistricts": [
          {
            "election": null,
            "id": 30,
            "name": "Etobicoke North"
          }
        ],
        "pollDivisionIds": [
          10138211,
          10138204
        ],
        "postalCode": "M9W1J3",
        "streetName": "DIXON",
        "streetDirectionId": null,
        "streetTypeId": "RD",
        "placeName": "ETOBICOKE",
        "streetNameDisplayText": "DIXON RD, ETOBICOKE"
      }
    ]
  },
  {
    "postal": "M9W5S6",
    "result": [
      {
        "electoralDistricts": [
          {
            "election": null,
            "id": 30,
            "name": "Etobicoke North"
          }
        ],
        "pollDivisionIds": [
          10138224
        ],
        "postalCode": "M9W5S6",
        "streetName": "WOODBINE DOWNS",
        "streetDirectionId": null,
        "streetTypeId": "BLVD",
        "placeName": "ETOBICOKE",
        "streetNameDisplayText": "WOODBINE DOWNS BLVD, ETOBICOKE"
      }
    ]
  },
  {
    "postal": "M9W8P7",
    "result": []
  },
  {
    "postal": "M9W7S7",
    "result": []
  },
  {
    "postal": "M9W4C2",
    "result": [
      {
        "electoralDistricts": [
          {
            "election": null,
            "id": 30,
            "name": "Etobicoke North"
          }
        ],
        "pollDivisionIds": [
          10138216
        ],
        "postalCode": "M9W4C2",
        "streetName": "KINGSKNOWE",
        "streetDirectionId": null,
        "streetTypeId": "RD",
        "placeName": "ETOBICOKE",
        "streetNameDisplayText": "KINGSKNOWE RD, ETOBICOKE"
      }
    ]
  },
  {
    "postal": "M9W5Y0",
    "result": []
  },
  {
    "postal": "M9W2V7",
    "result": [
      {
        "electoralDistricts": [
          {
            "election": null,
            "id": 30,
            "name": "Etobicoke North"
          }
        ],
        "pollDivisionIds": [
          10138216
        ],
        "postalCode": "M9W2V7",
        "streetName": "HINTON",
        "streetDirectionId": null,
        "streetTypeId": "RD",
        "placeName": "ETOBICOKE",
        "streetNameDisplayText": "HINTON RD, ETOBICOKE"
      }
    ]
  },
  {
    "postal": "M9W8P5",
    "result": []
  },
  {
    "postal": "M9W5P5",
    "result": [
      {
        "electoralDistricts": [
          {
            "election": null,
            "id": 30,
            "name": "Etobicoke North"
          }
        ],
        "pollDivisionIds": [
          10138224
        ],
        "postalCode": "M9W5P5",
        "streetName": "FINCH",
        "streetDirectionId": "W",
        "streetTypeId": "AVE",
        "placeName": "ETOBICOKE",
        "streetNameDisplayText": "FINCH AVE W, ETOBICOKE"
      }
    ]
  },
  {
    "postal": "M9W5Z0",
    "result": []
  },
  {
    "postal": "M9W9B0",
    "result": []
  },
  {
    "postal": "M9W1L0",
    "result": []
  },
  {
    "postal": "M9W0B5",
    "result": []
  },
  {
    "postal": "M9W3L2",
    "result": [
      {
        "electoralDistricts": [
          {
            "election": null,
            "id": 30,
            "name": "Etobicoke North"
          }
        ],
        "pollDivisionIds": [
          10138206
        ],
        "postalCode": "M9W3L2",
        "streetName": "WAXHAM",
        "streetDirectionId": null,
        "streetTypeId": "RD",
        "placeName": "ETOBICOKE",
        "streetNameDisplayText": "WAXHAM RD, ETOBICOKE"
      }
    ]
  },
  {
    "postal": "M9W3B7",
    "result": [
      {
        "electoralDistricts": [
          {
            "election": null,
            "id": 30,
            "name": "Etobicoke North"
          }
        ],
        "pollDivisionIds": [
          10138206
        ],
        "postalCode": "M9W3B7",
        "streetName": "JEFFCOAT",
        "streetDirectionId": null,
        "streetTypeId": "DR",
        "placeName": "ETOBICOKE",
        "streetNameDisplayText": "JEFFCOAT DR, ETOBICOKE"
      }
    ]
  },
  {
    "postal": "M9W8L1",
    "result": []
  },
  {
    "postal": "M9W5M4",
    "result": []
  },
  {
    "postal": "M9W4G9",
    "result": [
      {
        "electoralDistricts": [
          {
            "election": null,
            "id": 30,
            "name": "Etobicoke North"
          }
        ],
        "pollDivisionIds": [
          10138216
        ],
        "postalCode": "M9W4G9",
        "streetName": "RIVERHEAD",
        "streetDirectionId": null,
        "streetTypeId": "DR",
        "placeName": "ETOBICOKE",
        "streetNameDisplayText": "RIVERHEAD DR, ETOBICOKE"
      }
    ]
  },
  {
    "postal": "M9W0P0",
    "result": []
  },
  {
    "postal": "M9W8G2",
    "result": []
  },
  {
    "postal": "M9W1V9",
    "result": [
      {
        "electoralDistricts": [
          {
            "election": null,
            "id": 30,
            "name": "Etobicoke North"
          }
        ],
        "pollDivisionIds": [
          10138217
        ],
        "postalCode": "M9W1V9",
        "streetName": "BERGAMOT",
        "streetDirectionId": null,
        "streetTypeId": "AVE",
        "placeName": "ETOBICOKE",
        "streetNameDisplayText": "BERGAMOT AVE, ETOBICOKE"
      }
    ]
  },
  {
    "postal": "M9W8N8",
    "result": []
  },
  {
    "postal": "M9W6S8",
    "result": []
  },
  {
    "postal": "M9W8H2",
    "result": []
  },
  {
    "postal": "M9W5R8",
    "result": [
      {
        "electoralDistricts": [
          {
            "election": null,
            "id": 30,
            "name": "Etobicoke North"
          }
        ],
        "pollDivisionIds": [
          10138211
        ],
        "postalCode": "M9W5R8",
        "streetName": "GALAXY",
        "streetDirectionId": null,
        "streetTypeId": "BLVD",
        "placeName": "ETOBICOKE",
        "streetNameDisplayText": "GALAXY BLVD, ETOBICOKE"
      }
    ]
  },
  {
    "postal": "M9W5L4",
    "result": []
  },
  {
    "postal": "M9W9E1",
    "result": []
  },
  {
    "postal": "M9W1C4",
    "result": [
      {
        "electoralDistricts": [
          {
            "election": null,
            "id": 30,
            "name": "Etobicoke North"
          }
        ],
        "pollDivisionIds": [
          10138211
        ],
        "postalCode": "M9W1C4",
        "streetName": "ENTERPRISE",
        "streetDirectionId": null,
        "streetTypeId": "RD",
        "placeName": "ETOBICOKE",
        "streetNameDisplayText": "ENTERPRISE RD, ETOBICOKE"
      }
    ]
  },
  {
    "postal": "M9W8W5",
    "result": []
  },
  {
    "postal": "M9W1Y4",
    "result": [
      {
        "electoralDistricts": [
          {
            "election": null,
            "id": 30,
            "name": "Etobicoke North"
          }
        ],
        "pollDivisionIds": [
          10138217
        ],
        "postalCode": "M9W1Y4",
        "streetName": "MARCEL",
        "streetDirectionId": null,
        "streetTypeId": "RD",
        "placeName": "ETOBICOKE",
        "streetNameDisplayText": "MARCEL RD, ETOBICOKE"
      }
    ]
  },
  {
    "postal": "M9W1C0",
    "result": []
  },
  {
    "postal": "M9W2J2",
    "result": [
      {
        "electoralDistricts": [
          {
            "election": null,
            "id": 30,
            "name": "Etobicoke North"
          }
        ],
        "pollDivisionIds": [
          10138218
        ],
        "postalCode": "M9W2J2",
        "streetName": "LATONIA",
        "streetDirectionId": null,
        "streetTypeId": "DR",
        "placeName": "ETOBICOKE",
        "streetNameDisplayText": "LATONIA DR, ETOBICOKE"
      }
    ]
  },
  {
    "postal": "M9W2J0",
    "result": []
  },
  {
    "postal": "M9W7A3",
    "result": []
  },
  {
    "postal": "M9W8M1",
    "result": []
  },
  {
    "postal": "M9W7T9",
    "result": []
  },
  {
    "postal": "M9W6C0",
    "result": []
  },
  {
    "postal": "M9W7X1",
    "result": []
  },
  {
    "postal": "M9W0G1",
    "result": []
  },
  {
    "postal": "M9W4X2",
    "result": [
      {
        "electoralDistricts": [
          {
            "election": null,
            "id": 30,
            "name": "Etobicoke North"
          }
        ],
        "pollDivisionIds": [
          10138206
        ],
        "postalCode": "M9W4X2",
        "streetName": "MARTIN GROVE",
        "streetDirectionId": null,
        "streetTypeId": "RD",
        "placeName": "ETOBICOKE",
        "streetNameDisplayText": "MARTIN GROVE RD, ETOBICOKE"
      }
    ]
  },
  {
    "postal": "M9W0N6",
    "result": []
  },
  {
    "postal": "M9W8E3",
    "result": []
  },
  {
    "postal": "M9W5S8",
    "result": [
      {
        "electoralDistricts": [
          {
            "election": null,
            "id": 30,
            "name": "Etobicoke North"
          }
        ],
        "pollDivisionIds": [
          10138224
        ],
        "postalCode": "M9W5S8",
        "streetName": "ALBION",
        "streetDirectionId": null,
        "streetTypeId": "RD",
        "placeName": "ETOBICOKE",
        "streetNameDisplayText": "ALBION RD, ETOBICOKE"
      }
    ]
  },
  {
    "postal": "M9W0R0",
    "result": []
  },
  {
    "postal": "M9W6J6",
    "result": [
      {
        "electoralDistricts": [
          {
            "election": null,
            "id": 30,
            "name": "Etobicoke North"
          }
        ],
        "pollDivisionIds": [
          10138211
        ],
        "postalCode": "M9W6J6",
        "streetName": "INTERNATIONAL",
        "streetDirectionId": null,
        "streetTypeId": "BLVD",
        "placeName": "ETOBICOKE",
        "streetNameDisplayText": "INTERNATIONAL BLVD, ETOBICOKE"
      }
    ]
  },
  {
    "postal": "M9W4B4",
    "result": [
      {
        "electoralDistricts": [
          {
            "election": null,
            "id": 30,
            "name": "Etobicoke North"
          }
        ],
        "pollDivisionIds": [
          10138217
        ],
        "postalCode": "M9W4B4",
        "streetName": "PAKENHAM",
        "streetDirectionId": null,
        "streetTypeId": "DR",
        "placeName": "ETOBICOKE",
        "streetNameDisplayText": "PAKENHAM DR, ETOBICOKE"
      }
    ]
  },
  {
    "postal": "M9W7E3",
    "result": [
      {
        "electoralDistricts": [
          {
            "election": null,
            "id": 30,
            "name": "Etobicoke North"
          }
        ],
        "pollDivisionIds": [
          10138212
        ],
        "postalCode": "M9W7E3",
        "streetName": "TRIPLE CROWN",
        "streetDirectionId": null,
        "streetTypeId": "AVE",
        "placeName": "ETOBICOKE",
        "streetNameDisplayText": "TRIPLE CROWN AVE, ETOBICOKE"
      }
    ]
  },
  {
    "postal": "M9W3N6",
    "result": [
      {
        "electoralDistricts": [
          {
            "election": null,
            "id": 30,
            "name": "Etobicoke North"
          }
        ],
        "pollDivisionIds": [
          10138206
        ],
        "postalCode": "M9W3N6",
        "streetName": "MOON VALLEY",
        "streetDirectionId": null,
        "streetTypeId": "DR",
        "placeName": "ETOBICOKE",
        "streetNameDisplayText": "MOON VALLEY DR, ETOBICOKE"
      }
    ]
  },
  {
    "postal": "M9W3X6",
    "result": [
      {
        "electoralDistricts": [
          {
            "election": null,
            "id": 30,
            "name": "Etobicoke North"
          }
        ],
        "pollDivisionIds": [
          10138218
        ],
        "postalCode": "M9W3X6",
        "streetName": "ISLINGTON",
        "streetDirectionId": null,
        "streetTypeId": "AVE",
        "placeName": "ETOBICOKE",
        "streetNameDisplayText": "ISLINGTON AVE, ETOBICOKE"
      }
    ]
  },
  {
    "postal": "M9W8L0",
    "result": []
  },
  {
    "postal": "M9W8N1",
    "result": []
  },
  {
    "postal": "M9W4J0",
    "result": []
  },
  {
    "postal": "M9W0X7",
    "result": []
  },
  {
    "postal": "M9W6S4",
    "result": [
      {
        "electoralDistricts": [
          {
            "election": null,
            "id": 30,
            "name": "Etobicoke North"
          }
        ],
        "pollDivisionIds": [
          10138212
        ],
        "postalCode": "M9W6S4",
        "streetName": "BANKVIEW",
        "streetDirectionId": null,
        "streetTypeId": "CIR",
        "placeName": "ETOBICOKE",
        "streetNameDisplayText": "BANKVIEW CIR, ETOBICOKE"
      },
      {
        "electoralDistricts": [
          {
            "election": null,
            "id": 30,
            "name": "Etobicoke North"
          }
        ],
        "pollDivisionIds": [
          10138212
        ],
        "postalCode": "M9W6S4",
        "streetName": "HONEYVIEW",
        "streetDirectionId": null,
        "streetTypeId": "PL",
        "placeName": "ETOBICOKE",
        "streetNameDisplayText": "HONEYVIEW PL, ETOBICOKE"
      }
    ]
  },
  {
    "postal": "M9W0Z0",
    "result": []
  },
  {
    "postal": "M9W9X8",
    "result": []
  },
  {
    "postal": "M9W3H3",
    "result": [
      {
        "electoralDistricts": [
          {
            "election": null,
            "id": 30,
            "name": "Etobicoke North"
          }
        ],
        "pollDivisionIds": [
          10138206
        ],
        "postalCode": "M9W3H3",
        "streetName": "GUNTON",
        "streetDirectionId": null,
        "streetTypeId": "DR",
        "placeName": "ETOBICOKE",
        "streetNameDisplayText": "GUNTON DR, ETOBICOKE"
      }
    ]
  },
  {
    "postal": "M9W7S2",
    "result": []
  },
  {
    "postal": "M9W3T3",
    "result": [
      {
        "electoralDistricts": [
          {
            "election": null,
            "id": 30,
            "name": "Etobicoke North"
          }
        ],
        "pollDivisionIds": [
          10138205
        ],
        "postalCode": "M9W3T3",
        "streetName": "BURRARD",
        "streetDirectionId": null,
        "streetTypeId": "RD",
        "placeName": "ETOBICOKE",
        "streetNameDisplayText": "BURRARD RD, ETOBICOKE"
      }
    ]
  },
  {
    "postal": "M9W9P3",
    "result": []
  },
  {
    "postal": "M9W4H8",
    "result": [
      {
        "electoralDistricts": [
          {
            "election": null,
            "id": 30,
            "name": "Etobicoke North"
          }
        ],
        "pollDivisionIds": [
          10138216
        ],
        "postalCode": "M9W4H8",
        "streetName": "BARFORD",
        "streetDirectionId": null,
        "streetTypeId": "RD",
        "placeName": "ETOBICOKE",
        "streetNameDisplayText": "BARFORD RD, ETOBICOKE"
      }
    ]
  },
  {
    "postal": "M9W6R1",
    "result": [
      {
        "electoralDistricts": [
          {
            "election": null,
            "id": 30,
            "name": "Etobicoke North"
          }
        ],
        "pollDivisionIds": [
          10138224
        ],
        "postalCode": "M9W6R1",
        "streetName": "GOODMARK",
        "streetDirectionId": null,
        "streetTypeId": "PL",
        "placeName": "ETOBICOKE",
        "streetNameDisplayText": "GOODMARK PL, ETOBICOKE"
      }
    ]
  },
  {
    "postal": "M9W1S0",
    "result": []
  },
  {
    "postal": "M9W3W8",
    "result": [
      {
        "electoralDistricts": [
          {
            "election": null,
            "id": 30,
            "name": "Etobicoke North"
          }
        ],
        "pollDivisionIds": [
          10138217
        ],
        "postalCode": "M9W3W8",
        "streetName": "ISLINGTON",
        "streetDirectionId": null,
        "streetTypeId": "AVE",
        "placeName": "ETOBICOKE",
        "streetNameDisplayText": "ISLINGTON AVE, ETOBICOKE"
      }
    ]
  },
  {
    "postal": "M9W4S3",
    "result": [
      {
        "electoralDistricts": [
          {
            "election": null,
            "id": 30,
            "name": "Etobicoke North"
          }
        ],
        "pollDivisionIds": [
          10138206
        ],
        "postalCode": "M9W4S3",
        "streetName": "AMORO",
        "streetDirectionId": null,
        "streetTypeId": "DR",
        "placeName": "ETOBICOKE",
        "streetNameDisplayText": "AMORO DR, ETOBICOKE"
      }
    ]
  },
  {
    "postal": "M9W1B6",
    "result": [
      {
        "electoralDistricts": [
          {
            "election": null,
            "id": 30,
            "name": "Etobicoke North"
          }
        ],
        "pollDivisionIds": [
          10138211
        ],
        "postalCode": "M9W1B6",
        "streetName": "RONSON",
        "streetDirectionId": null,
        "streetTypeId": "DR",
        "placeName": "ETOBICOKE",
        "streetNameDisplayText": "RONSON DR, ETOBICOKE"
      }
    ]
  },
  {
    "postal": "M9W8R3",
    "result": []
  },
  {
    "postal": "M9W4V9",
    "result": []
  },
  {
    "postal": "M9W9W4",
    "result": []
  },
  {
    "postal": "M9W3T4",
    "result": [
      {
        "electoralDistricts": [
          {
            "election": null,
            "id": 30,
            "name": "Etobicoke North"
          }
        ],
        "pollDivisionIds": [
          10138205
        ],
        "postalCode": "M9W3T4",
        "streetName": "BURRARD",
        "streetDirectionId": null,
        "streetTypeId": "RD",
        "placeName": "ETOBICOKE",
        "streetNameDisplayText": "BURRARD RD, ETOBICOKE"
      }
    ]
  },
  {
    "postal": "M9W5C7",
    "result": []
  },
  {
    "postal": "M9W3Y1",
    "result": [
      {
        "electoralDistricts": [
          {
            "election": null,
            "id": 30,
            "name": "Etobicoke North"
          }
        ],
        "pollDivisionIds": [
          10138217
        ],
        "postalCode": "M9W3Y1",
        "streetName": "ISLINGTON",
        "streetDirectionId": null,
        "streetTypeId": "AVE",
        "placeName": "ETOBICOKE",
        "streetNameDisplayText": "ISLINGTON AVE, ETOBICOKE"
      }
    ]
  },
  {
    "postal": "M9W5V0",
    "result": []
  },
  {
    "postal": "M9W8G8",
    "result": []
  },
  {
    "postal": "M9W8B1",
    "result": []
  },
  {
    "postal": "M9W4P5",
    "result": [
      {
        "electoralDistricts": [
          {
            "election": null,
            "id": 30,
            "name": "Etobicoke North"
          }
        ],
        "pollDivisionIds": [
          10138206
        ],
        "postalCode": "M9W4P5",
        "streetName": "BILLCAR",
        "streetDirectionId": null,
        "streetTypeId": "RD",
        "placeName": "ETOBICOKE",
        "streetNameDisplayText": "BILLCAR RD, ETOBICOKE"
      }
    ]
  },
  {
    "postal": "M9W7B2",
    "result": [
      {
        "electoralDistricts": [
          {
            "election": null,
            "id": 30,
            "name": "Etobicoke North"
          }
        ],
        "pollDivisionIds": [
          10138212
        ],
        "postalCode": "M9W7B2",
        "streetName": "UPPER HUMBER",
        "streetDirectionId": null,
        "streetTypeId": "DR",
        "placeName": "ETOBICOKE",
        "streetNameDisplayText": "UPPER HUMBER DR, ETOBICOKE"
      }
    ]
  },
  {
    "postal": "M9W0R2",
    "result": []
  },
  {
    "postal": "M9W4M4",
    "result": []
  },
  {
    "postal": "M9W7M4",
    "result": []
  },
  {
    "postal": "M9W9S7",
    "result": []
  },
  {
    "postal": "M9W5Z7",
    "result": [
      {
        "electoralDistricts": [
          {
            "election": null,
            "id": 30,
            "name": "Etobicoke North"
          }
        ],
        "pollDivisionIds": [
          10138224
        ],
        "postalCode": "M9W5Z7",
        "streetName": "CLAIREVILLE",
        "streetDirectionId": null,
        "streetTypeId": "DR",
        "placeName": "ETOBICOKE",
        "streetNameDisplayText": "CLAIREVILLE DR, ETOBICOKE"
      }
    ]
  },
  {
    "postal": "M9W7J7",
    "result": []
  },
  {
    "postal": "M9W8R8",
    "result": []
  },
  {
    "postal": "M9W9X1",
    "result": []
  },
  {
    "postal": "M9W5M9",
    "result": [
      {
        "electoralDistricts": [
          {
            "election": null,
            "id": 30,
            "name": "Etobicoke North"
          }
        ],
        "pollDivisionIds": [
          10138211
        ],
        "postalCode": "M9W5M9",
        "streetName": "MARTIN GROVE",
        "streetDirectionId": null,
        "streetTypeId": "RD",
        "placeName": "ETOBICOKE",
        "streetNameDisplayText": "MARTIN GROVE RD, ETOBICOKE"
      }
    ]
  },
  {
    "postal": "M9W9B4",
    "result": []
  },
  {
    "postal": "M9W0L9",
    "result": []
  },
  {
    "postal": "M9W9G4",
    "result": []
  },
  {
    "postal": "M9W1J4",
    "result": []
  },
  {
    "postal": "M9W0W6",
    "result": []
  }
]
