[
  {
    "postal": "P7G9J6",
    "result": []
  },
  {
    "postal": "P7G9Z5",
    "result": []
  },
  {
    "postal": "P7G7H8",
    "result": []
  },
  {
    "postal": "P7G0P6",
    "result": [
      {
        "electoralDistricts": [
          {
            "election": null,
            "id": 106,
            "name": "Thunder Bay—Superior North"
          }
        ],
        "pollDivisionIds": [
          10142372
        ],
        "postalCode": "P7G0P6",
        "streetName": "PIKE LAKE",
        "streetDirectionId": "E",
        "streetTypeId": "DR",
        "placeName": "GORHAM",
        "streetNameDisplayText": "PIKE LAKE DR E, GORHAM"
      }
    ]
  },
  {
    "postal": "P7G0S7",
    "result": [
      {
        "electoralDistricts": [
          {
            "election": null,
            "id": 106,
            "name": "Thunder Bay—Superior North"
          }
        ],
        "pollDivisionIds": [
          10142372
        ],
        "postalCode": "P7G0S7",
        "streetName": "SURPRISE ROAD WEST",
        "streetDirectionId": null,
        "streetTypeId": "RD",
        "placeName": "GORHAM",
        "streetNameDisplayText": "SURPRISE ROAD WEST RD, GORHAM"
      }
    ]
  },
  {
    "postal": "P7G8B9",
    "result": []
  },
  {
    "postal": "P7G2A6",
    "result": [
      {
        "electoralDistricts": [
          {
            "election": null,
            "id": 105,
            "name": "Thunder Bay—Atikokan"
          }
        ],
        "pollDivisionIds": [
          10142305
        ],
        "postalCode": "P7G2A6",
        "streetName": "MELBOURNE",
        "streetDirectionId": null,
        "streetTypeId": "RD",
        "placeName": "THUNDER BAY",
        "streetNameDisplayText": "MELBOURNE RD, THUNDER BAY"
      }
    ]
  },
  {
    "postal": "P7G7V2",
    "result": []
  },
  {
    "postal": "P7G9P4",
    "result": []
  },
  {
    "postal": "P7G6G0",
    "result": []
  },
  {
    "postal": "P7G2K0",
    "result": []
  },
  {
    "postal": "P7G7N6",
    "result": []
  },
  {
    "postal": "P7G5R3",
    "result": []
  },
  {
    "postal": "P7G7K0",
    "result": []
  },
  {
    "postal": "P7G3R2",
    "result": []
  },
  {
    "postal": "P7G0J1",
    "result": [
      {
        "electoralDistricts": [
          {
            "election": null,
            "id": 106,
            "name": "Thunder Bay—Superior North"
          }
        ],
        "pollDivisionIds": [
          10142371
        ],
        "postalCode": "P7G0J1",
        "streetName": "HILLDALE",
        "streetDirectionId": null,
        "streetTypeId": "RD",
        "placeName": "GORHAM",
        "streetNameDisplayText": "HILLDALE RD, GORHAM"
      }
    ]
  },
  {
    "postal": "P7G0B0",
    "result": []
  },
  {
    "postal": "P7G5Z2",
    "result": []
  },
  {
    "postal": "P7G7P3",
    "result": []
  },
  {
    "postal": "P7G2K3",
    "result": [
      {
        "electoralDistricts": [
          {
            "election": null,
            "id": 105,
            "name": "Thunder Bay—Atikokan"
          }
        ],
        "pollDivisionIds": [
          10142305
        ],
        "postalCode": "P7G2K3",
        "streetName": "MORECOMBE",
        "streetDirectionId": null,
        "streetTypeId": "AVE",
        "placeName": "THUNDER BAY",
        "streetNameDisplayText": "MORECOMBE AVE, THUNDER BAY"
      }
    ]
  },
  {
    "postal": "P7G7Y6",
    "result": []
  },
  {
    "postal": "P7G1L9",
    "result": [
      {
        "electoralDistricts": [
          {
            "election": null,
            "id": 105,
            "name": "Thunder Bay—Atikokan"
          }
        ],
        "pollDivisionIds": [
          10142301,
          10142305
        ],
        "postalCode": "P7G1L9",
        "streetName": "JOHN STREET",
        "streetDirectionId": null,
        "streetTypeId": "RD",
        "placeName": "THUNDER BAY",
        "streetNameDisplayText": "JOHN STREET RD, THUNDER BAY"
      }
    ]
  },
  {
    "postal": "P7G8T0",
    "result": []
  },
  {
    "postal": "P7G3K8",
    "result": []
  },
  {
    "postal": "P7G5W9",
    "result": []
  },
  {
    "postal": "P7G6T9",
    "result": []
  },
  {
    "postal": "P7G4H1",
    "result": []
  },
  {
    "postal": "P7G7A2",
    "result": []
  },
  {
    "postal": "P7G5G0",
    "result": []
  },
  {
    "postal": "P7G8V5",
    "result": []
  },
  {
    "postal": "P7G2Y8",
    "result": []
  },
  {
    "postal": "P7G2B6",
    "result": [
      {
        "electoralDistricts": [
          {
            "election": null,
            "id": 105,
            "name": "Thunder Bay—Atikokan"
          }
        ],
        "pollDivisionIds": [
          10142305
        ],
        "postalCode": "P7G2B6",
        "streetName": "ONION LAKE",
        "streetDirectionId": null,
        "streetTypeId": "RD",
        "placeName": "THUNDER BAY",
        "streetNameDisplayText": "ONION LAKE RD, THUNDER BAY"
      }
    ]
  },
  {
    "postal": "P7G4W8",
    "result": []
  },
  {
    "postal": "P7G8H7",
    "result": []
  },
  {
    "postal": "P7G5P1",
    "result": []
  },
  {
    "postal": "P7G2B8",
    "result": [
      {
        "electoralDistricts": [
          {
            "election": null,
            "id": 105,
            "name": "Thunder Bay—Atikokan"
          }
        ],
        "pollDivisionIds": [
          10142305
        ],
        "postalCode": "P7G2B8",
        "streetName": "ONION LAKE",
        "streetDirectionId": null,
        "streetTypeId": "RD",
        "placeName": "THUNDER BAY",
        "streetNameDisplayText": "ONION LAKE RD, THUNDER BAY"
      }
    ]
  },
  {
    "postal": "P7G0P2",
    "result": [
      {
        "electoralDistricts": [
          {
            "election": null,
            "id": 106,
            "name": "Thunder Bay—Superior North"
          }
        ],
        "pollDivisionIds": [
          10142372
        ],
        "postalCode": "P7G0P2",
        "streetName": "PETERSONS",
        "streetDirectionId": null,
        "streetTypeId": "RD",
        "placeName": "GORHAM",
        "streetNameDisplayText": "PETERSONS RD, GORHAM"
      }
    ]
  },
  {
    "postal": "P7G9M1",
    "result": []
  },
  {
    "postal": "P7G3G0",
    "result": []
  },
  {
    "postal": "P7G9Z2",
    "result": []
  },
  {
    "postal": "P7G2A0",
    "result": []
  },
  {
    "postal": "P7G6Y0",
    "result": []
  },
  {
    "postal": "P7G2Z8",
    "result": []
  },
  {
    "postal": "P7G7Y3",
    "result": []
  },
  {
    "postal": "P7G6Z5",
    "result": []
  },
  {
    "postal": "P7G6E0",
    "result": []
  },
  {
    "postal": "P7G9B7",
    "result": []
  },
  {
    "postal": "P7G9S5",
    "result": []
  },
  {
    "postal": "P7G3X3",
    "result": []
  },
  {
    "postal": "P7G7R5",
    "result": []
  },
  {
    "postal": "P7G2X3",
    "result": []
  },
  {
    "postal": "P7G8Z9",
    "result": []
  },
  {
    "postal": "P7G0N4",
    "result": [
      {
        "electoralDistricts": [
          {
            "election": null,
            "id": 106,
            "name": "Thunder Bay—Superior North"
          }
        ],
        "pollDivisionIds": [
          10142371
        ],
        "postalCode": "P7G0N4",
        "streetName": "OLMALA",
        "streetDirectionId": null,
        "streetTypeId": "RD",
        "placeName": "GORHAM",
        "streetNameDisplayText": "OLMALA RD, GORHAM"
      }
    ]
  },
  {
    "postal": "P7G1K1",
    "result": [
      {
        "electoralDistricts": [
          {
            "election": null,
            "id": 105,
            "name": "Thunder Bay—Atikokan"
          }
        ],
        "pollDivisionIds": [
          10142311,
          10142301
        ],
        "postalCode": "P7G1K1",
        "streetName": "BELROSE",
        "streetDirectionId": null,
        "streetTypeId": "RD",
        "placeName": "THUNDER BAY",
        "streetNameDisplayText": "BELROSE RD, THUNDER BAY"
      },
      {
        "electoralDistricts": [
          {
            "election": null,
            "id": 105,
            "name": "Thunder Bay—Atikokan"
          }
        ],
        "pollDivisionIds": [
          10142301
        ],
        "postalCode": "P7G1K1",
        "streetName": "KEMBEL",
        "streetDirectionId": null,
        "streetTypeId": "RD",
        "placeName": "THUNDER BAY",
        "streetNameDisplayText": "KEMBEL RD, THUNDER BAY"
      },
      {
        "electoralDistricts": [
          {
            "election": null,
            "id": 105,
            "name": "Thunder Bay—Atikokan"
          }
        ],
        "pollDivisionIds": [
          10142301
        ],
        "postalCode": "P7G1K1",
        "streetName": "MARLWOOD",
        "streetDirectionId": null,
        "streetTypeId": "RD",
        "placeName": "THUNDER BAY",
        "streetNameDisplayText": "MARLWOOD RD, THUNDER BAY"
      }
    ]
  },
  {
    "postal": "P7G1S3",
    "result": [
      {
        "electoralDistricts": [
          {
            "election": null,
            "id": 105,
            "name": "Thunder Bay—Atikokan"
          }
        ],
        "pollDivisionIds": [
          10142301
        ],
        "postalCode": "P7G1S3",
        "streetName": "GRATTON",
        "streetDirectionId": null,
        "streetTypeId": "RD",
        "placeName": "THUNDER BAY",
        "streetNameDisplayText": "GRATTON RD, THUNDER BAY"
      }
    ]
  },
  {
    "postal": "P7G6M4",
    "result": []
  },
  {
    "postal": "P7G9A9",
    "result": []
  },
  {
    "postal": "P7G9Z9",
    "result": []
  },
  {
    "postal": "P7G6T4",
    "result": []
  },
  {
    "postal": "P7G0B2",
    "result": [
      {
        "electoralDistricts": [
          {
            "election": null,
            "id": 106,
            "name": "Thunder Bay—Superior North"
          }
        ],
        "pollDivisionIds": [
          10142372
        ],
        "postalCode": "P7G0B2",
        "streetName": "BINGS",
        "streetDirectionId": null,
        "streetTypeId": "RD",
        "placeName": "GORHAM",
        "streetNameDisplayText": "BINGS RD, GORHAM"
      }
    ]
  },
  {
    "postal": "P7G2L9",
    "result": [
      {
        "electoralDistricts": [
          {
            "election": null,
            "id": 105,
            "name": "Thunder Bay—Atikokan"
          }
        ],
        "pollDivisionIds": [
          10142311
        ],
        "postalCode": "P7G2L9",
        "streetName": "SUNFLOWER",
        "streetDirectionId": null,
        "streetTypeId": "ST",
        "placeName": "THUNDER BAY",
        "streetNameDisplayText": "SUNFLOWER ST, THUNDER BAY"
      }
    ]
  },
  {
    "postal": "P7G8K9",
    "result": []
  },
  {
    "postal": "P7G2H9",
    "result": [
      {
        "electoralDistricts": [
          {
            "election": null,
            "id": 105,
            "name": "Thunder Bay—Atikokan"
          }
        ],
        "pollDivisionIds": [
          10142305
        ],
        "postalCode": "P7G2H9",
        "streetName": "MAXWELL",
        "streetDirectionId": null,
        "streetTypeId": "AVE",
        "placeName": "THUNDER BAY",
        "streetNameDisplayText": "MAXWELL AVE, THUNDER BAY"
      },
      {
        "electoralDistricts": [
          {
            "election": null,
            "id": 105,
            "name": "Thunder Bay—Atikokan"
          }
        ],
        "pollDivisionIds": [
          10142283
        ],
        "postalCode": "P7G2H9",
        "streetName": "MAXWELL",
        "streetDirectionId": null,
        "streetTypeId": "RD",
        "placeName": "THUNDER BAY",
        "streetNameDisplayText": "MAXWELL RD, THUNDER BAY"
      },
      {
        "electoralDistricts": [
          {
            "election": null,
            "id": 106,
            "name": "Thunder Bay—Superior North"
          },
          {
            "election": null,
            "id": 105,
            "name": "Thunder Bay—Atikokan"
          }
        ],
        "pollDivisionIds": [
          10142376,
          10142305
        ],
        "postalCode": "P7G2H9",
        "streetName": "WARDROPE",
        "streetDirectionId": null,
        "streetTypeId": "AVE",
        "placeName": "THUNDER BAY",
        "streetNameDisplayText": "WARDROPE AVE, THUNDER BAY"
      }
    ]
  },
  {
    "postal": "P7G3Z6",
    "result": []
  },
  {
    "postal": "P7G3B0",
    "result": []
  },
  {
    "postal": "P7G2H8",
    "result": [
      {
        "electoralDistricts": [
          {
            "election": null,
            "id": 105,
            "name": "Thunder Bay—Atikokan"
          }
        ],
        "pollDivisionIds": [
          10142305
        ],
        "postalCode": "P7G2H8",
        "streetName": "BEAVER",
        "streetDirectionId": null,
        "streetTypeId": "AVE",
        "placeName": "THUNDER BAY",
        "streetNameDisplayText": "BEAVER AVE, THUNDER BAY"
      },
      {
        "electoralDistricts": [
          {
            "election": null,
            "id": 105,
            "name": "Thunder Bay—Atikokan"
          }
        ],
        "pollDivisionIds": [
          10142305
        ],
        "postalCode": "P7G2H8",
        "streetName": "BELTON",
        "streetDirectionId": null,
        "streetTypeId": "ST",
        "placeName": "THUNDER BAY",
        "streetNameDisplayText": "BELTON ST, THUNDER BAY"
      },
      {
        "electoralDistricts": [
          {
            "election": null,
            "id": 105,
            "name": "Thunder Bay—Atikokan"
          }
        ],
        "pollDivisionIds": [
          10142305
        ],
        "postalCode": "P7G2H8",
        "streetName": "CECIL",
        "streetDirectionId": null,
        "streetTypeId": "AVE",
        "placeName": "THUNDER BAY",
        "streetNameDisplayText": "CECIL AVE, THUNDER BAY"
      },
      {
        "electoralDistricts": [
          {
            "election": null,
            "id": 105,
            "name": "Thunder Bay—Atikokan"
          }
        ],
        "pollDivisionIds": [
          10142305
        ],
        "postalCode": "P7G2H8",
        "streetName": "COLVILLE",
        "streetDirectionId": null,
        "streetTypeId": "AVE",
        "placeName": "THUNDER BAY",
        "streetNameDisplayText": "COLVILLE AVE, THUNDER BAY"
      },
      {
        "electoralDistricts": [
          {
            "election": null,
            "id": 105,
            "name": "Thunder Bay—Atikokan"
          }
        ],
        "pollDivisionIds": [
          10142305
        ],
        "postalCode": "P7G2H8",
        "streetName": "EVERTON",
        "streetDirectionId": null,
        "streetTypeId": "AVE",
        "placeName": "THUNDER BAY",
        "streetNameDisplayText": "EVERTON AVE, THUNDER BAY"
      },
      {
        "electoralDistricts": [
          {
            "election": null,
            "id": 105,
            "name": "Thunder Bay—Atikokan"
          }
        ],
        "pollDivisionIds": [
          10142305
        ],
        "postalCode": "P7G2H8",
        "streetName": "JACKSON",
        "streetDirectionId": null,
        "streetTypeId": "ST",
        "placeName": "THUNDER BAY",
        "streetNameDisplayText": "JACKSON ST, THUNDER BAY"
      }
    ]
  },
  {
    "postal": "P7G3X2",
    "result": []
  },
  {
    "postal": "P7G2E9",
    "result": [
      {
        "electoralDistricts": [
          {
            "election": null,
            "id": 105,
            "name": "Thunder Bay—Atikokan"
          }
        ],
        "pollDivisionIds": [
          10142305
        ],
        "postalCode": "P7G2E9",
        "streetName": "ADA",
        "streetDirectionId": null,
        "streetTypeId": "AVE",
        "placeName": "THUNDER BAY",
        "streetNameDisplayText": "ADA AVE, THUNDER BAY"
      },
      {
        "electoralDistricts": [
          {
            "election": null,
            "id": 105,
            "name": "Thunder Bay—Atikokan"
          }
        ],
        "pollDivisionIds": [
          10142305
        ],
        "postalCode": "P7G2E9",
        "streetName": "DAWSON",
        "streetDirectionId": null,
        "streetTypeId": "RD",
        "placeName": "THUNDER BAY",
        "streetNameDisplayText": "DAWSON RD, THUNDER BAY"
      },
      {
        "electoralDistricts": [
          {
            "election": null,
            "id": 105,
            "name": "Thunder Bay—Atikokan"
          }
        ],
        "pollDivisionIds": [
          10142305
        ],
        "postalCode": "P7G2E9",
        "streetName": "GOVERNMENT",
        "streetDirectionId": null,
        "streetTypeId": "RD",
        "placeName": "THUNDER BAY",
        "streetNameDisplayText": "GOVERNMENT RD, THUNDER BAY"
      }
    ]
  },
  {
    "postal": "P7G9P6",
    "result": []
  },
  {
    "postal": "P7G9E2",
    "result": []
  },
  {
    "postal": "P7G9H2",
    "result": []
  },
  {
    "postal": "P7G1S8",
    "result": [
      {
        "electoralDistricts": [
          {
            "election": null,
            "id": 105,
            "name": "Thunder Bay—Atikokan"
          }
        ],
        "pollDivisionIds": [
          10142301
        ],
        "postalCode": "P7G1S8",
        "streetName": "MAPLEWARD",
        "streetDirectionId": null,
        "streetTypeId": "RD",
        "placeName": "THUNDER BAY",
        "streetNameDisplayText": "MAPLEWARD RD, THUNDER BAY"
      }
    ]
  },
  {
    "postal": "P7G3M6",
    "result": []
  },
  {
    "postal": "P7G6Z8",
    "result": []
  },
  {
    "postal": "P7G4J2",
    "result": []
  },
  {
    "postal": "P7G9Y1",
    "result": []
  },
  {
    "postal": "P7G8V6",
    "result": []
  },
  {
    "postal": "P7G6B2",
    "result": []
  },
  {
    "postal": "P7G1P8",
    "result": [
      {
        "electoralDistricts": [
          {
            "election": null,
            "id": 105,
            "name": "Thunder Bay—Atikokan"
          }
        ],
        "pollDivisionIds": [
          10142301
        ],
        "postalCode": "P7G1P8",
        "streetName": "BURNS",
        "streetDirectionId": null,
        "streetTypeId": "RD",
        "placeName": "THUNDER BAY",
        "streetNameDisplayText": "BURNS RD, THUNDER BAY"
      }
    ]
  },
  {
    "postal": "P7G0V8",
    "result": [
      {
        "electoralDistricts": [
          {
            "election": null,
            "id": 105,
            "name": "Thunder Bay—Atikokan"
          }
        ],
        "pollDivisionIds": [
          10142296
        ],
        "postalCode": "P7G0V8",
        "streetName": "DAWSON",
        "streetDirectionId": null,
        "streetTypeId": "RD",
        "placeName": "MURILLO",
        "streetNameDisplayText": "DAWSON RD, MURILLO"
      }
    ]
  },
  {
    "postal": "P7G4Y0",
    "result": []
  },
  {
    "postal": "P7G2T4",
    "result": []
  },
  {
    "postal": "P7G2S3",
    "result": []
  },
  {
    "postal": "P7G0K0",
    "result": []
  },
  {
    "postal": "P7G5N1",
    "result": [
      {
        "electoralDistricts": [
          {
            "election": null,
            "id": 106,
            "name": "Thunder Bay—Superior North"
          }
        ],
        "pollDivisionIds": [
          10142371
        ],
        "postalCode": "P7G5N1",
        "streetName": "GOREVALE",
        "streetDirectionId": null,
        "streetTypeId": "RD",
        "placeName": "THUNDER BAY",
        "streetNameDisplayText": "GOREVALE RD, THUNDER BAY"
      }
    ]
  },
  {
    "postal": "P7G7T0",
    "result": []
  },
  {
    "postal": "P7G9N2",
    "result": []
  },
  {
    "postal": "P7G5L1",
    "result": []
  },
  {
    "postal": "P7G7G5",
    "result": []
  },
  {
    "postal": "P7G6K2",
    "result": []
  },
  {
    "postal": "P7G6P9",
    "result": []
  },
  {
    "postal": "P7G0E6",
    "result": [
      {
        "electoralDistricts": [
          {
            "election": null,
            "id": 105,
            "name": "Thunder Bay—Atikokan"
          }
        ],
        "pollDivisionIds": [
          10142296
        ],
        "postalCode": "P7G0E6",
        "streetName": "SIMKO",
        "streetDirectionId": null,
        "streetTypeId": "DR",
        "placeName": "MURILLO",
        "streetNameDisplayText": "SIMKO DR, MURILLO"
      }
    ]
  },
  {
    "postal": "P7G8R9",
    "result": []
  },
  {
    "postal": "P7G3G9",
    "result": []
  },
  {
    "postal": "P7G0V7",
    "result": [
      {
        "electoralDistricts": [
          {
            "election": null,
            "id": 105,
            "name": "Thunder Bay—Atikokan"
          },
          {
            "election": null,
            "id": 106,
            "name": "Thunder Bay—Superior North"
          }
        ],
        "pollDivisionIds": [
          10142296,
          10142372
        ],
        "postalCode": "P7G0V7",
        "streetName": "DAWSON",
        "streetDirectionId": null,
        "streetTypeId": "RD",
        "placeName": "MURILLO",
        "streetNameDisplayText": "DAWSON RD, MURILLO"
      }
    ]
  },
  {
    "postal": "P7G2Z1",
    "result": []
  },
  {
    "postal": "P7G7N1",
    "result": []
  },
  {
    "postal": "P7G3C6",
    "result": []
  },
  {
    "postal": "P7G4M1",
    "result": []
  },
  {
    "postal": "P7G9K2",
    "result": []
  },
  {
    "postal": "P7G9S6",
    "result": []
  },
  {
    "postal": "P7G4X1",
    "result": []
  },
  {
    "postal": "P7G8W2",
    "result": []
  },
  {
    "postal": "P7G7N2",
    "result": []
  },
  {
    "postal": "P7G8S3",
    "result": []
  },
  {
    "postal": "P7G4V0",
    "result": []
  },
  {
    "postal": "P7G6W4",
    "result": []
  },
  {
    "postal": "P7G5M1",
    "result": []
  },
  {
    "postal": "P7G0S4",
    "result": []
  },
  {
    "postal": "P7G5X6",
    "result": []
  },
  {
    "postal": "P7G8L5",
    "result": []
  },
  {
    "postal": "P7G5M8",
    "result": []
  },
  {
    "postal": "P7G2G3",
    "result": [
      {
        "electoralDistricts": [
          {
            "election": null,
            "id": 105,
            "name": "Thunder Bay—Atikokan"
          }
        ],
        "pollDivisionIds": [
          10142305
        ],
        "postalCode": "P7G2G3",
        "streetName": "DAWSON",
        "streetDirectionId": null,
        "streetTypeId": "RD",
        "placeName": "THUNDER BAY",
        "streetNameDisplayText": "DAWSON RD, THUNDER BAY"
      }
    ]
  },
  {
    "postal": "P7G8E4",
    "result": []
  },
  {
    "postal": "P7G7S9",
    "result": []
  },
  {
    "postal": "P7G1K3",
    "result": [
      {
        "electoralDistricts": [
          {
            "election": null,
            "id": 105,
            "name": "Thunder Bay—Atikokan"
          }
        ],
        "pollDivisionIds": [
          10142311
        ],
        "postalCode": "P7G1K3",
        "streetName": "LONGBOW",
        "streetDirectionId": null,
        "streetTypeId": "ST",
        "placeName": "THUNDER BAY",
        "streetNameDisplayText": "LONGBOW ST, THUNDER BAY"
      },
      {
        "electoralDistricts": [
          {
            "election": null,
            "id": 105,
            "name": "Thunder Bay—Atikokan"
          }
        ],
        "pollDivisionIds": [
          10142311
        ],
        "postalCode": "P7G1K3",
        "streetName": "SAXON",
        "streetDirectionId": null,
        "streetTypeId": "DR",
        "placeName": "THUNDER BAY",
        "streetNameDisplayText": "SAXON DR, THUNDER BAY"
      }
    ]
  },
  {
    "postal": "P7G4E1",
    "result": []
  },
  {
    "postal": "P7G4R2",
    "result": []
  },
  {
    "postal": "P7G6T0",
    "result": []
  },
  {
    "postal": "P7G3K5",
    "result": []
  },
  {
    "postal": "P7G3S3",
    "result": []
  },
  {
    "postal": "P7G3L4",
    "result": []
  },
  {
    "postal": "P7G9Y2",
    "result": []
  },
  {
    "postal": "P7G1E0",
    "result": []
  },
  {
    "postal": "P7G9A4",
    "result": []
  },
  {
    "postal": "P7G1L3",
    "result": [
      {
        "electoralDistricts": [
          {
            "election": null,
            "id": 105,
            "name": "Thunder Bay—Atikokan"
          }
        ],
        "pollDivisionIds": [
          10142305
        ],
        "postalCode": "P7G1L3",
        "streetName": "THOMPSON",
        "streetDirectionId": null,
        "streetTypeId": "RD",
        "placeName": "THUNDER BAY",
        "streetNameDisplayText": "THOMPSON RD, THUNDER BAY"
      }
    ]
  },
  {
    "postal": "P7G6N1",
    "result": []
  },
  {
    "postal": "P7G6G7",
    "result": []
  },
  {
    "postal": "P7G7W1",
    "result": []
  },
  {
    "postal": "P7G4M6",
    "result": []
  },
  {
    "postal": "P7G1K0",
    "result": []
  },
  {
    "postal": "P7G3E2",
    "result": []
  },
  {
    "postal": "P7G5H4",
    "result": []
  },
  {
    "postal": "P7G1K7",
    "result": [
      {
        "electoralDistricts": [
          {
            "election": null,
            "id": 105,
            "name": "Thunder Bay—Atikokan"
          }
        ],
        "pollDivisionIds": [
          10142301
        ],
        "postalCode": "P7G1K7",
        "streetName": "RAYNARD",
        "streetDirectionId": null,
        "streetTypeId": "RD",
        "placeName": "THUNDER BAY",
        "streetNameDisplayText": "RAYNARD RD, THUNDER BAY"
      }
    ]
  },
  {
    "postal": "P7G0H0",
    "result": []
  },
  {
    "postal": "P7G0J3",
    "result": [
      {
        "electoralDistricts": [
          {
            "election": null,
            "id": 106,
            "name": "Thunder Bay—Superior North"
          }
        ],
        "pollDivisionIds": [
          10142372
        ],
        "postalCode": "P7G0J3",
        "streetName": "591",
        "streetDirectionId": null,
        "streetTypeId": "HWY",
        "placeName": "GORHAM",
        "streetNameDisplayText": "591 HWY, GORHAM"
      },
      {
        "electoralDistricts": [
          {
            "election": null,
            "id": 106,
            "name": "Thunder Bay—Superior North"
          }
        ],
        "pollDivisionIds": [
          10142372
        ],
        "postalCode": "P7G0J3",
        "streetName": "HWY 591",
        "streetDirectionId": null,
        "streetTypeId": null,
        "placeName": "GORHAM",
        "streetNameDisplayText": "HWY 591, GORHAM"
      }
    ]
  },
  {
    "postal": "P7G1X6",
    "result": [
      {
        "electoralDistricts": [
          {
            "election": null,
            "id": 105,
            "name": "Thunder Bay—Atikokan"
          }
        ],
        "pollDivisionIds": [
          10142305
        ],
        "postalCode": "P7G1X6",
        "streetName": "GOREVALE",
        "streetDirectionId": null,
        "streetTypeId": "RD",
        "placeName": "THUNDER BAY",
        "streetNameDisplayText": "GOREVALE RD, THUNDER BAY"
      }
    ]
  },
  {
    "postal": "P7G2Z6",
    "result": []
  },
  {
    "postal": "P7G4R9",
    "result": []
  },
  {
    "postal": "P7G0W8",
    "result": [
      {
        "electoralDistricts": [
          {
            "election": null,
            "id": 106,
            "name": "Thunder Bay—Superior North"
          }
        ],
        "pollDivisionIds": [
          10142372
        ],
        "postalCode": "P7G0W8",
        "streetName": "RUSSELL",
        "streetDirectionId": "N",
        "streetTypeId": "DR",
        "placeName": "FOWLER",
        "streetNameDisplayText": "RUSSELL DR N, FOWLER"
      }
    ]
  },
  {
    "postal": "P7G1L4",
    "result": [
      {
        "electoralDistricts": [
          {
            "election": null,
            "id": 105,
            "name": "Thunder Bay—Atikokan"
          }
        ],
        "pollDivisionIds": [
          10142305,
          10142301
        ],
        "postalCode": "P7G1L4",
        "streetName": "JOHN STREET",
        "streetDirectionId": null,
        "streetTypeId": "RD",
        "placeName": "THUNDER BAY",
        "streetNameDisplayText": "JOHN STREET RD, THUNDER BAY"
      }
    ]
  },
  {
    "postal": "P7G0C8",
    "result": [
      {
        "electoralDistricts": [
          {
            "election": null,
            "id": 106,
            "name": "Thunder Bay—Superior North"
          }
        ],
        "pollDivisionIds": [
          10142372
        ],
        "postalCode": "P7G0C8",
        "streetName": "DOG LAKE RD",
        "streetDirectionId": null,
        "streetTypeId": "RD",
        "placeName": "GORHAM",
        "streetNameDisplayText": "DOG LAKE RD RD, GORHAM"
      },
      {
        "electoralDistricts": [
          {
            "election": null,
            "id": 105,
            "name": "Thunder Bay—Atikokan"
          }
        ],
        "pollDivisionIds": [
          10142305
        ],
        "postalCode": "P7G0C8",
        "streetName": "DOG LAKE",
        "streetDirectionId": null,
        "streetTypeId": "RD",
        "placeName": "GORHAM",
        "streetNameDisplayText": "DOG LAKE RD, GORHAM"
      }
    ]
  },
  {
    "postal": "P7G9X7",
    "result": []
  },
  {
    "postal": "P7G4T1",
    "result": []
  },
  {
    "postal": "P7G0M0",
    "result": []
  },
  {
    "postal": "P7G6A2",
    "result": []
  },
  {
    "postal": "P7G9S8",
    "result": []
  },
  {
    "postal": "P7G9T4",
    "result": []
  },
  {
    "postal": "P7G9Y4",
    "result": []
  },
  {
    "postal": "P7G6G5",
    "result": []
  },
  {
    "postal": "P7G6H9",
    "result": []
  },
  {
    "postal": "P7G2P3",
    "result": []
  },
  {
    "postal": "P7G1T6",
    "result": [
      {
        "electoralDistricts": [
          {
            "election": null,
            "id": 105,
            "name": "Thunder Bay—Atikokan"
          }
        ],
        "pollDivisionIds": [
          10142305
        ],
        "postalCode": "P7G1T6",
        "streetName": "JOHN STREET",
        "streetDirectionId": null,
        "streetTypeId": "RD",
        "placeName": "THUNDER BAY",
        "streetNameDisplayText": "JOHN STREET RD, THUNDER BAY"
      }
    ]
  },
  {
    "postal": "P7G4P6",
    "result": []
  },
  {
    "postal": "P7G3K1",
    "result": []
  },
  {
    "postal": "P7G6X4",
    "result": []
  },
  {
    "postal": "P7G4M8",
    "result": []
  },
  {
    "postal": "P7G2Y1",
    "result": []
  },
  {
    "postal": "P7G6M1",
    "result": []
  },
  {
    "postal": "P7G5L8",
    "result": []
  },
  {
    "postal": "P7G3P6",
    "result": []
  },
  {
    "postal": "P7G9A5",
    "result": []
  },
  {
    "postal": "P7G7K1",
    "result": []
  },
  {
    "postal": "P7G3J4",
    "result": []
  },
  {
    "postal": "P7G5E7",
    "result": []
  },
  {
    "postal": "P7G3A7",
    "result": []
  },
  {
    "postal": "P7G1B9",
    "result": [
      {
        "electoralDistricts": [
          {
            "election": null,
            "id": 105,
            "name": "Thunder Bay—Atikokan"
          }
        ],
        "pollDivisionIds": [
          10142305
        ],
        "postalCode": "P7G1B9",
        "streetName": "EMERALD",
        "streetDirectionId": null,
        "streetTypeId": "DR",
        "placeName": "THUNDER BAY",
        "streetNameDisplayText": "EMERALD DR, THUNDER BAY"
      }
    ]
  },
  {
    "postal": "P7G9E8",
    "result": []
  },
  {
    "postal": "P7G1C9",
    "result": [
      {
        "electoralDistricts": [
          {
            "election": null,
            "id": 105,
            "name": "Thunder Bay—Atikokan"
          }
        ],
        "pollDivisionIds": [
          10142311
        ],
        "postalCode": "P7G1C9",
        "streetName": "NEWCASTLE",
        "streetDirectionId": null,
        "streetTypeId": "DR",
        "placeName": "THUNDER BAY",
        "streetNameDisplayText": "NEWCASTLE DR, THUNDER BAY"
      }
    ]
  },
  {
    "postal": "P7G3B5",
    "result": []
  },
  {
    "postal": "P7G8R0",
    "result": []
  },
  {
    "postal": "P7G3P2",
    "result": []
  },
  {
    "postal": "P7G5V4",
    "result": []
  },
  {
    "postal": "P7G4H0",
    "result": []
  },
  {
    "postal": "P7G4S7",
    "result": []
  },
  {
    "postal": "P7G6C2",
    "result": []
  },
  {
    "postal": "P7G8W3",
    "result": []
  },
  {
    "postal": "P7G4M5",
    "result": []
  },
  {
    "postal": "P7G5T1",
    "result": []
  },
  {
    "postal": "P7G3B3",
    "result": []
  },
  {
    "postal": "P7G6C6",
    "result": []
  },
  {
    "postal": "P7G7N8",
    "result": []
  },
  {
    "postal": "P7G2Y3",
    "result": []
  },
  {
    "postal": "P7G2R6",
    "result": []
  },
  {
    "postal": "P7G7N3",
    "result": []
  },
  {
    "postal": "P7G8J2",
    "result": []
  },
  {
    "postal": "P7G6A9",
    "result": []
  },
  {
    "postal": "P7G3V2",
    "result": []
  },
  {
    "postal": "P7G2N3",
    "result": [
      {
        "electoralDistricts": [
          {
            "election": null,
            "id": 105,
            "name": "Thunder Bay—Atikokan"
          }
        ],
        "pollDivisionIds": [
          10142305
        ],
        "postalCode": "P7G2N3",
        "streetName": "TUSCANY",
        "streetDirectionId": null,
        "streetTypeId": "DR",
        "placeName": "THUNDER BAY",
        "streetNameDisplayText": "TUSCANY DR, THUNDER BAY"
      }
    ]
  },
  {
    "postal": "P7G1S5",
    "result": [
      {
        "electoralDistricts": [
          {
            "election": null,
            "id": 105,
            "name": "Thunder Bay—Atikokan"
          }
        ],
        "pollDivisionIds": [
          10142301
        ],
        "postalCode": "P7G1S5",
        "streetName": "OLIVER",
        "streetDirectionId": null,
        "streetTypeId": "RD",
        "placeName": "THUNDER BAY",
        "streetNameDisplayText": "OLIVER RD, THUNDER BAY"
      }
    ]
  },
  {
    "postal": "P7G4T7",
    "result": []
  },
  {
    "postal": "P7G6Y7",
    "result": []
  },
  {
    "postal": "P7G0W7",
    "result": [
      {
        "electoralDistricts": [
          {
            "election": null,
            "id": 106,
            "name": "Thunder Bay—Superior North"
          }
        ],
        "pollDivisionIds": [
          10142372
        ],
        "postalCode": "P7G0W7",
        "streetName": "ISLAND LAKE",
        "streetDirectionId": null,
        "streetTypeId": "RD",
        "placeName": "FOWLER",
        "streetNameDisplayText": "ISLAND LAKE RD, FOWLER"
      }
    ]
  },
  {
    "postal": "P7G2W9",
    "result": []
  },
  {
    "postal": "P7G8V0",
    "result": []
  },
  {
    "postal": "P7G0H4",
    "result": [
      {
        "electoralDistricts": [
          {
            "election": null,
            "id": 106,
            "name": "Thunder Bay—Superior North"
          }
        ],
        "pollDivisionIds": [
          10142372
        ],
        "postalCode": "P7G0H4",
        "streetName": "HAZELWOOD",
        "streetDirectionId": null,
        "streetTypeId": "DR",
        "placeName": "GORHAM",
        "streetNameDisplayText": "HAZELWOOD DR, GORHAM"
      },
      {
        "electoralDistricts": [
          {
            "election": null,
            "id": 106,
            "name": "Thunder Bay—Superior North"
          }
        ],
        "pollDivisionIds": [
          10142372
        ],
        "postalCode": "P7G0H4",
        "streetName": "HAZELWOOD",
        "streetDirectionId": null,
        "streetTypeId": "RD",
        "placeName": "GORHAM",
        "streetNameDisplayText": "HAZELWOOD RD, GORHAM"
      }
    ]
  },
  {
    "postal": "P7G2T1",
    "result": []
  },
  {
    "postal": "P7G1B1",
    "result": [
      {
        "electoralDistricts": [
          {
            "election": null,
            "id": 105,
            "name": "Thunder Bay—Atikokan"
          }
        ],
        "pollDivisionIds": [
          10142305
        ],
        "postalCode": "P7G1B1",
        "streetName": "EMERALD",
        "streetDirectionId": null,
        "streetTypeId": "DR",
        "placeName": "THUNDER BAY",
        "streetNameDisplayText": "EMERALD DR, THUNDER BAY"
      },
      {
        "electoralDistricts": [
          {
            "election": null,
            "id": 105,
            "name": "Thunder Bay—Atikokan"
          }
        ],
        "pollDivisionIds": [
          10142305
        ],
        "postalCode": "P7G1B1",
        "streetName": "GEMSTONE",
        "streetDirectionId": null,
        "streetTypeId": "DR",
        "placeName": "THUNDER BAY",
        "streetNameDisplayText": "GEMSTONE DR, THUNDER BAY"
      },
      {
        "electoralDistricts": [
          {
            "election": null,
            "id": 106,
            "name": "Thunder Bay—Superior North"
          },
          {
            "election": null,
            "id": 105,
            "name": "Thunder Bay—Atikokan"
          }
        ],
        "pollDivisionIds": [
          10142389,
          10142305
        ],
        "postalCode": "P7G1B1",
        "streetName": "RUBY",
        "streetDirectionId": null,
        "streetTypeId": "CRES",
        "placeName": "THUNDER BAY",
        "streetNameDisplayText": "RUBY CRES, THUNDER BAY"
      }
    ]
  },
  {
    "postal": "P7G8B6",
    "result": []
  },
  {
    "postal": "P7G6H1",
    "result": []
  },
  {
    "postal": "P7G8T8",
    "result": []
  },
  {
    "postal": "P7G0T4",
    "result": [
      {
        "electoralDistricts": [
          {
            "election": null,
            "id": 105,
            "name": "Thunder Bay—Atikokan"
          }
        ],
        "pollDivisionIds": [
          10142296
        ],
        "postalCode": "P7G0T4",
        "streetName": "INTOLA",
        "streetDirectionId": null,
        "streetTypeId": "RD",
        "placeName": "MURILLO",
        "streetNameDisplayText": "INTOLA RD, MURILLO"
      }
    ]
  },
  {
    "postal": "P7G2C4",
    "result": [
      {
        "electoralDistricts": [
          {
            "election": null,
            "id": 106,
            "name": "Thunder Bay—Superior North"
          }
        ],
        "pollDivisionIds": [
          10142348
        ],
        "postalCode": "P7G2C4",
        "streetName": "WARDROPE",
        "streetDirectionId": "E",
        "streetTypeId": "AVE",
        "placeName": "THUNDER BAY",
        "streetNameDisplayText": "WARDROPE AVE E, THUNDER BAY"
      },
      {
        "electoralDistricts": [
          {
            "election": null,
            "id": 105,
            "name": "Thunder Bay—Atikokan"
          }
        ],
        "pollDivisionIds": [
          10142305
        ],
        "postalCode": "P7G2C4",
        "streetName": "WARDROPE",
        "streetDirectionId": null,
        "streetTypeId": "AVE",
        "placeName": "THUNDER BAY",
        "streetNameDisplayText": "WARDROPE AVE, THUNDER BAY"
      }
    ]
  },
  {
    "postal": "P7G8N3",
    "result": []
  },
  {
    "postal": "P7G4L8",
    "result": []
  },
  {
    "postal": "P7G2B5",
    "result": [
      {
        "electoralDistricts": [
          {
            "election": null,
            "id": 105,
            "name": "Thunder Bay—Atikokan"
          }
        ],
        "pollDivisionIds": [
          10142305
        ],
        "postalCode": "P7G2B5",
        "streetName": "COLVILLE",
        "streetDirectionId": null,
        "streetTypeId": "AVE",
        "placeName": "THUNDER BAY",
        "streetNameDisplayText": "COLVILLE AVE, THUNDER BAY"
      },
      {
        "electoralDistricts": [
          {
            "election": null,
            "id": 105,
            "name": "Thunder Bay—Atikokan"
          }
        ],
        "pollDivisionIds": [
          10142305
        ],
        "postalCode": "P7G2B5",
        "streetName": "MORECOMBE",
        "streetDirectionId": null,
        "streetTypeId": "AVE",
        "placeName": "THUNDER BAY",
        "streetNameDisplayText": "MORECOMBE AVE, THUNDER BAY"
      },
      {
        "electoralDistricts": [
          {
            "election": null,
            "id": 106,
            "name": "Thunder Bay—Superior North"
          }
        ],
        "pollDivisionIds": [
          10142371
        ],
        "postalCode": "P7G2B5",
        "streetName": "ONION LAKE DAM",
        "streetDirectionId": null,
        "streetTypeId": "RD",
        "placeName": "THUNDER BAY",
        "streetNameDisplayText": "ONION LAKE DAM RD, THUNDER BAY"
      },
      {
        "electoralDistricts": [
          {
            "election": null,
            "id": 105,
            "name": "Thunder Bay—Atikokan"
          }
        ],
        "pollDivisionIds": [
          10142305
        ],
        "postalCode": "P7G2B5",
        "streetName": "ONION LAKE",
        "streetDirectionId": null,
        "streetTypeId": "RD",
        "placeName": "THUNDER BAY",
        "streetNameDisplayText": "ONION LAKE RD, THUNDER BAY"
      }
    ]
  },
  {
    "postal": "P7G3H1",
    "result": []
  },
  {
    "postal": "P7G4Y1",
    "result": []
  },
  {
    "postal": "P7G7E2",
    "result": []
  },
  {
    "postal": "P7G2P5",
    "result": []
  },
  {
    "postal": "P7G8R7",
    "result": []
  },
  {
    "postal": "P7G9P1",
    "result": []
  },
  {
    "postal": "P7G3B8",
    "result": []
  },
  {
    "postal": "P7G3P7",
    "result": []
  },
  {
    "postal": "P7G9B2",
    "result": []
  },
  {
    "postal": "P7G6Z3",
    "result": []
  },
  {
    "postal": "P7G4N5",
    "result": []
  },
  {
    "postal": "P7G8T3",
    "result": []
  },
  {
    "postal": "P7G1V2",
    "result": [
      {
        "electoralDistricts": [
          {
            "election": null,
            "id": 105,
            "name": "Thunder Bay—Atikokan"
          }
        ],
        "pollDivisionIds": [
          10142305
        ],
        "postalCode": "P7G1V2",
        "streetName": "GOVERNMENT",
        "streetDirectionId": null,
        "streetTypeId": "RD",
        "placeName": "THUNDER BAY",
        "streetNameDisplayText": "GOVERNMENT RD, THUNDER BAY"
      }
    ]
  },
  {
    "postal": "P7G1Y0",
    "result": []
  },
  {
    "postal": "P7G3G6",
    "result": []
  },
  {
    "postal": "P7G3H7",
    "result": []
  },
  {
    "postal": "P7G7X8",
    "result": []
  },
  {
    "postal": "P7G0C7",
    "result": [
      {
        "electoralDistricts": [
          {
            "election": null,
            "id": 106,
            "name": "Thunder Bay—Superior North"
          }
        ],
        "pollDivisionIds": [
          10142372
        ],
        "postalCode": "P7G0C7",
        "streetName": "DOG LAKE RD",
        "streetDirectionId": null,
        "streetTypeId": "RD",
        "placeName": "GORHAM",
        "streetNameDisplayText": "DOG LAKE RD RD, GORHAM"
      },
      {
        "electoralDistricts": [
          {
            "election": null,
            "id": 106,
            "name": "Thunder Bay—Superior North"
          }
        ],
        "pollDivisionIds": [
          10142372
        ],
        "postalCode": "P7G0C7",
        "streetName": "DOG LAKE",
        "streetDirectionId": null,
        "streetTypeId": "RD",
        "placeName": "GORHAM",
        "streetNameDisplayText": "DOG LAKE RD, GORHAM"
      }
    ]
  },
  {
    "postal": "P7G0W9",
    "result": [
      {
        "electoralDistricts": [
          {
            "election": null,
            "id": 106,
            "name": "Thunder Bay—Superior North"
          }
        ],
        "pollDivisionIds": [
          10142372
        ],
        "postalCode": "P7G0W9",
        "streetName": "RUSSEL",
        "streetDirectionId": "S",
        "streetTypeId": "DR",
        "placeName": "FOWLER",
        "streetNameDisplayText": "RUSSEL DR S, FOWLER"
      }
    ]
  },
  {
    "postal": "P7G8E6",
    "result": []
  },
  {
    "postal": "P7G9Z8",
    "result": []
  },
  {
    "postal": "P7G3P4",
    "result": []
  },
  {
    "postal": "P7G6L8",
    "result": []
  },
  {
    "postal": "P7G2R4",
    "result": []
  },
  {
    "postal": "P7G2W1",
    "result": []
  },
  {
    "postal": "P7G9H8",
    "result": []
  },
  {
    "postal": "P7G8X9",
    "result": []
  },
  {
    "postal": "P7G7H4",
    "result": []
  },
  {
    "postal": "P7G3J1",
    "result": []
  },
  {
    "postal": "P7G1P4",
    "result": [
      {
        "electoralDistricts": [
          {
            "election": null,
            "id": 105,
            "name": "Thunder Bay—Atikokan"
          }
        ],
        "pollDivisionIds": [
          10142301
        ],
        "postalCode": "P7G1P4",
        "streetName": "WAPPNER",
        "streetDirectionId": null,
        "streetTypeId": "RD",
        "placeName": "THUNDER BAY",
        "streetNameDisplayText": "WAPPNER RD, THUNDER BAY"
      }
    ]
  },
  {
    "postal": "P7G2A3",
    "result": [
      {
        "electoralDistricts": [
          {
            "election": null,
            "id": 105,
            "name": "Thunder Bay—Atikokan"
          }
        ],
        "pollDivisionIds": [
          10142305
        ],
        "postalCode": "P7G2A3",
        "streetName": "MELBOURNE",
        "streetDirectionId": null,
        "streetTypeId": "RD",
        "placeName": "THUNDER BAY",
        "streetNameDisplayText": "MELBOURNE RD, THUNDER BAY"
      }
    ]
  },
  {
    "postal": "P7G0Z1",
    "result": [
      {
        "electoralDistricts": [
          {
            "election": null,
            "id": 106,
            "name": "Thunder Bay—Superior North"
          }
        ],
        "pollDivisionIds": [
          10142372
        ],
        "postalCode": "P7G0Z1",
        "streetName": "BARNUM LAKE",
        "streetDirectionId": "N",
        "streetTypeId": "RD",
        "placeName": "JACQUES",
        "streetNameDisplayText": "BARNUM LAKE RD N, JACQUES"
      }
    ]
  },
  {
    "postal": "P7G1C1",
    "result": [
      {
        "electoralDistricts": [
          {
            "election": null,
            "id": 105,
            "name": "Thunder Bay—Atikokan"
          }
        ],
        "pollDivisionIds": [
          10142311
        ],
        "postalCode": "P7G1C1",
        "streetName": "PIONEER",
        "streetDirectionId": null,
        "streetTypeId": "DR",
        "placeName": "THUNDER BAY",
        "streetNameDisplayText": "PIONEER DR, THUNDER BAY"
      }
    ]
  },
  {
    "postal": "P7G0H3",
    "result": []
  },
  {
    "postal": "P7G7B0",
    "result": []
  },
  {
    "postal": "P7G5K2",
    "result": []
  },
  {
    "postal": "P7G1E9",
    "result": [
      {
        "electoralDistricts": [
          {
            "election": null,
            "id": 106,
            "name": "Thunder Bay—Superior North"
          }
        ],
        "pollDivisionIds": [
          10142372
        ],
        "postalCode": "P7G1E9",
        "streetName": "TUOMI",
        "streetDirectionId": null,
        "streetTypeId": "RD",
        "placeName": "FOWLER",
        "streetNameDisplayText": "TUOMI RD, FOWLER"
      }
    ]
  },
  {
    "postal": "P7G9W7",
    "result": []
  },
  {
    "postal": "P7G5W6",
    "result": []
  },
  {
    "postal": "P7G6S6",
    "result": []
  },
  {
    "postal": "P7G2P8",
    "result": []
  },
  {
    "postal": "P7G4P8",
    "result": []
  },
  {
    "postal": "P7G0V9",
    "result": [
      {
        "electoralDistricts": [
          {
            "election": null,
            "id": 106,
            "name": "Thunder Bay—Superior North"
          }
        ],
        "pollDivisionIds": [
          10142372
        ],
        "postalCode": "P7G0V9",
        "streetName": "GILBRIDE",
        "streetDirectionId": null,
        "streetTypeId": "RD",
        "placeName": "FOWLER",
        "streetNameDisplayText": "GILBRIDE RD, FOWLER"
      }
    ]
  },
  {
    "postal": "P7G5Y2",
    "result": []
  },
  {
    "postal": "P7G7Z7",
    "result": []
  },
  {
    "postal": "P7G6Y8",
    "result": []
  },
  {
    "postal": "P7G2G7",
    "result": [
      {
        "electoralDistricts": [
          {
            "election": null,
            "id": 105,
            "name": "Thunder Bay—Atikokan"
          }
        ],
        "pollDivisionIds": [
          10142305
        ],
        "postalCode": "P7G2G7",
        "streetName": "DAWSON",
        "streetDirectionId": null,
        "streetTypeId": "RD",
        "placeName": "THUNDER BAY",
        "streetNameDisplayText": "DAWSON RD, THUNDER BAY"
      },
      {
        "electoralDistricts": [
          {
            "election": null,
            "id": 105,
            "name": "Thunder Bay—Atikokan"
          }
        ],
        "pollDivisionIds": [
          10142305
        ],
        "postalCode": "P7G2G7",
        "streetName": "LAW",
        "streetDirectionId": null,
        "streetTypeId": "RD",
        "placeName": "THUNDER BAY",
        "streetNameDisplayText": "LAW RD, THUNDER BAY"
      }
    ]
  },
  {
    "postal": "P7G8C1",
    "result": []
  },
  {
    "postal": "P7G5C5",
    "result": []
  },
  {
    "postal": "P7G2X8",
    "result": []
  },
  {
    "postal": "P7G1W5",
    "result": [
      {
        "electoralDistricts": [
          {
            "election": null,
            "id": 105,
            "name": "Thunder Bay—Atikokan"
          }
        ],
        "pollDivisionIds": [
          10142305
        ],
        "postalCode": "P7G1W5",
        "streetName": "BOYKO",
        "streetDirectionId": null,
        "streetTypeId": "RD",
        "placeName": "THUNDER BAY",
        "streetNameDisplayText": "BOYKO RD, THUNDER BAY"
      }
    ]
  },
  {
    "postal": "P7G7G0",
    "result": []
  },
  {
    "postal": "P7G8J8",
    "result": []
  },
  {
    "postal": "P7G3Y0",
    "result": []
  },
  {
    "postal": "P7G9T7",
    "result": []
  },
  {
    "postal": "P7G5P4",
    "result": []
  },
  {
    "postal": "P7G4B0",
    "result": []
  },
  {
    "postal": "P7G9N8",
    "result": []
  },
  {
    "postal": "P7G4A7",
    "result": []
  },
  {
    "postal": "P7G4H9",
    "result": []
  },
  {
    "postal": "P7G6X1",
    "result": []
  },
  {
    "postal": "P7G9Y7",
    "result": []
  },
  {
    "postal": "P7G2Y5",
    "result": []
  },
  {
    "postal": "P7G8L7",
    "result": []
  },
  {
    "postal": "P7G2A8",
    "result": [
      {
        "electoralDistricts": [
          {
            "election": null,
            "id": 105,
            "name": "Thunder Bay—Atikokan"
          }
        ],
        "pollDivisionIds": [
          10142305
        ],
        "postalCode": "P7G2A8",
        "streetName": "MELBOURNE",
        "streetDirectionId": null,
        "streetTypeId": "RD",
        "placeName": "THUNDER BAY",
        "streetNameDisplayText": "MELBOURNE RD, THUNDER BAY"
      }
    ]
  },
  {
    "postal": "P7G2K9",
    "result": [
      {
        "electoralDistricts": [
          {
            "election": null,
            "id": 106,
            "name": "Thunder Bay—Superior North"
          }
        ],
        "pollDivisionIds": [
          10142372
        ],
        "postalCode": "P7G2K9",
        "streetName": "HAZELWOOD",
        "streetDirectionId": null,
        "streetTypeId": "DR",
        "placeName": "GORHAM",
        "streetNameDisplayText": "HAZELWOOD DR, GORHAM"
      },
      {
        "electoralDistricts": [
          {
            "election": null,
            "id": 106,
            "name": "Thunder Bay—Superior North"
          }
        ],
        "pollDivisionIds": [
          10142372
        ],
        "postalCode": "P7G2K9",
        "streetName": "HAZELWOOD DR.",
        "streetDirectionId": null,
        "streetTypeId": "DR",
        "placeName": "GORHAM",
        "streetNameDisplayText": "HAZELWOOD DR. DR, GORHAM"
      }
    ]
  },
  {
    "postal": "P7G3E5",
    "result": []
  },
  {
    "postal": "P7G8N6",
    "result": []
  },
  {
    "postal": "P7G8J4",
    "result": []
  },
  {
    "postal": "P7G4R7",
    "result": []
  },
  {
    "postal": "P7G9K1",
    "result": []
  },
  {
    "postal": "P7G8E1",
    "result": []
  },
  {
    "postal": "P7G0R1",
    "result": [
      {
        "electoralDistricts": [
          {
            "election": null,
            "id": 106,
            "name": "Thunder Bay—Superior North"
          }
        ],
        "pollDivisionIds": [
          10142371
        ],
        "postalCode": "P7G0R1",
        "streetName": "PITKANEN",
        "streetDirectionId": null,
        "streetTypeId": "RD",
        "placeName": "GORHAM",
        "streetNameDisplayText": "PITKANEN RD, GORHAM"
      }
    ]
  },
  {
    "postal": "P7G4J3",
    "result": []
  },
  {
    "postal": "P7G7E7",
    "result": []
  },
  {
    "postal": "P7G0J0",
    "result": []
  },
  {
    "postal": "P7G7R8",
    "result": []
  },
  {
    "postal": "P7G9X0",
    "result": []
  },
  {
    "postal": "P7G7P6",
    "result": []
  },
  {
    "postal": "P7G0R7",
    "result": [
      {
        "electoralDistricts": [
          {
            "election": null,
            "id": 106,
            "name": "Thunder Bay—Superior North"
          }
        ],
        "pollDivisionIds": [
          10142371
        ],
        "postalCode": "P7G0R7",
        "streetName": "SILVER SPRINGS",
        "streetDirectionId": null,
        "streetTypeId": "RD",
        "placeName": "GORHAM",
        "streetNameDisplayText": "SILVER SPRINGS RD, GORHAM"
      }
    ]
  },
  {
    "postal": "P7G5W1",
    "result": []
  },
  {
    "postal": "P7G0K4",
    "result": []
  },
  {
    "postal": "P7G7N9",
    "result": []
  },
  {
    "postal": "P7G1N0",
    "result": []
  },
  {
    "postal": "P7G6P3",
    "result": []
  },
  {
    "postal": "P7G5A1",
    "result": []
  },
  {
    "postal": "P7G9M9",
    "result": []
  },
  {
    "postal": "P7G7T6",
    "result": []
  },
  {
    "postal": "P7G3X0",
    "result": []
  },
  {
    "postal": "P7G2T0",
    "result": []
  },
  {
    "postal": "P7G5X9",
    "result": []
  },
  {
    "postal": "P7G2R3",
    "result": []
  },
  {
    "postal": "P7G5N2",
    "result": []
  },
  {
    "postal": "P7G4Y7",
    "result": []
  },
  {
    "postal": "P7G7M0",
    "result": []
  },
  {
    "postal": "P7G8P3",
    "result": []
  },
  {
    "postal": "P7G3N3",
    "result": []
  },
  {
    "postal": "P7G7S3",
    "result": []
  },
  {
    "postal": "P7G3V9",
    "result": []
  },
  {
    "postal": "P7G9N7",
    "result": []
  },
  {
    "postal": "P7G0G4",
    "result": [
      {
        "electoralDistricts": [
          {
            "election": null,
            "id": 106,
            "name": "Thunder Bay—Superior North"
          }
        ],
        "pollDivisionIds": [
          10142372,
          10142371
        ],
        "postalCode": "P7G0G4",
        "streetName": "GOREVALE",
        "streetDirectionId": null,
        "streetTypeId": "RD",
        "placeName": "GORHAM",
        "streetNameDisplayText": "GOREVALE RD, GORHAM"
      }
    ]
  },
  {
    "postal": "P7G2E2",
    "result": [
      {
        "electoralDistricts": [
          {
            "election": null,
            "id": 105,
            "name": "Thunder Bay—Atikokan"
          }
        ],
        "pollDivisionIds": [
          10142305
        ],
        "postalCode": "P7G2E2",
        "streetName": "WILLROD",
        "streetDirectionId": null,
        "streetTypeId": "RD",
        "placeName": "THUNDER BAY",
        "streetNameDisplayText": "WILLROD RD, THUNDER BAY"
      }
    ]
  },
  {
    "postal": "P7G7W8",
    "result": []
  },
  {
    "postal": "P7G7M5",
    "result": []
  },
  {
    "postal": "P7G5W8",
    "result": []
  },
  {
    "postal": "P7G5E5",
    "result": []
  },
  {
    "postal": "P7G1P9",
    "result": [
      {
        "electoralDistricts": [
          {
            "election": null,
            "id": 105,
            "name": "Thunder Bay—Atikokan"
          }
        ],
        "pollDivisionIds": [
          10142301
        ],
        "postalCode": "P7G1P9",
        "streetName": "OLIVER",
        "streetDirectionId": null,
        "streetTypeId": "RD",
        "placeName": "THUNDER BAY",
        "streetNameDisplayText": "OLIVER RD, THUNDER BAY"
      }
    ]
  },
  {
    "postal": "P7G8V8",
    "result": []
  },
  {
    "postal": "P7G9G8",
    "result": []
  },
  {
    "postal": "P7G8H9",
    "result": []
  },
  {
    "postal": "P7G1Z1",
    "result": [
      {
        "electoralDistricts": [
          {
            "election": null,
            "id": 105,
            "name": "Thunder Bay—Atikokan"
          }
        ],
        "pollDivisionIds": [
          10142305
        ],
        "postalCode": "P7G1Z1",
        "streetName": "HILLDALE",
        "streetDirectionId": null,
        "streetTypeId": "RD",
        "placeName": "THUNDER BAY",
        "streetNameDisplayText": "HILLDALE RD, THUNDER BAY"
      }
    ]
  },
  {
    "postal": "P7G8M3",
    "result": []
  },
  {
    "postal": "P7G5H6",
    "result": []
  },
  {
    "postal": "P7G7W7",
    "result": []
  },
  {
    "postal": "P7G4L0",
    "result": []
  },
  {
    "postal": "P7G2N1",
    "result": [
      {
        "electoralDistricts": [
          {
            "election": null,
            "id": 105,
            "name": "Thunder Bay—Atikokan"
          }
        ],
        "pollDivisionIds": [
          10142311
        ],
        "postalCode": "P7G2N1",
        "streetName": "PIONEER",
        "streetDirectionId": null,
        "streetTypeId": "DR",
        "placeName": "THUNDER BAY",
        "streetNameDisplayText": "PIONEER DR, THUNDER BAY"
      }
    ]
  },
  {
    "postal": "P7G2H4",
    "result": [
      {
        "electoralDistricts": [
          {
            "election": null,
            "id": 105,
            "name": "Thunder Bay—Atikokan"
          }
        ],
        "pollDivisionIds": [
          10142305
        ],
        "postalCode": "P7G2H4",
        "streetName": "GOREVALE",
        "streetDirectionId": null,
        "streetTypeId": "RD",
        "placeName": "THUNDER BAY",
        "streetNameDisplayText": "GOREVALE RD, THUNDER BAY"
      },
      {
        "electoralDistricts": [
          {
            "election": null,
            "id": 105,
            "name": "Thunder Bay—Atikokan"
          }
        ],
        "pollDivisionIds": [
          10142305
        ],
        "postalCode": "P7G2H4",
        "streetName": "ONION LAKE",
        "streetDirectionId": null,
        "streetTypeId": "RD",
        "placeName": "THUNDER BAY",
        "streetNameDisplayText": "ONION LAKE RD, THUNDER BAY"
      }
    ]
  },
  {
    "postal": "P7G5C8",
    "result": []
  },
  {
    "postal": "P7G8B0",
    "result": []
  },
  {
    "postal": "P7G1T4",
    "result": [
      {
        "electoralDistricts": [
          {
            "election": null,
            "id": 105,
            "name": "Thunder Bay—Atikokan"
          }
        ],
        "pollDivisionIds": [
          10142301
        ],
        "postalCode": "P7G1T4",
        "streetName": "TOWNLINE",
        "streetDirectionId": null,
        "streetTypeId": "RD",
        "placeName": "THUNDER BAY",
        "streetNameDisplayText": "TOWNLINE RD, THUNDER BAY"
      }
    ]
  },
  {
    "postal": "P7G7N7",
    "result": []
  },
  {
    "postal": "P7G4L3",
    "result": []
  },
  {
    "postal": "P7G2N2",
    "result": [
      {
        "electoralDistricts": [
          {
            "election": null,
            "id": 105,
            "name": "Thunder Bay—Atikokan"
          },
          {
            "election": null,
            "id": 106,
            "name": "Thunder Bay—Superior North"
          }
        ],
        "pollDivisionIds": [
          10142284,
          10142374,
          10142305
        ],
        "postalCode": "P7G2N2",
        "streetName": "TUSCANY",
        "streetDirectionId": null,
        "streetTypeId": "DR",
        "placeName": "THUNDER BAY",
        "streetNameDisplayText": "TUSCANY DR, THUNDER BAY"
      }
    ]
  },
  {
    "postal": "P7G4N8",
    "result": []
  },
  {
    "postal": "P7G3M5",
    "result": []
  },
  {
    "postal": "P7G6H7",
    "result": []
  },
  {
    "postal": "P7G8Y8",
    "result": []
  },
  {
    "postal": "P7G5R9",
    "result": []
  },
  {
    "postal": "P7G8G3",
    "result": []
  },
  {
    "postal": "P7G4N7",
    "result": []
  },
  {
    "postal": "P7G0B9",
    "result": [
      {
        "electoralDistricts": [
          {
            "election": null,
            "id": 106,
            "name": "Thunder Bay—Superior North"
          }
        ],
        "pollDivisionIds": [
          10142371
        ],
        "postalCode": "P7G0B9",
        "streetName": "ONION DAM LAKE",
        "streetDirectionId": null,
        "streetTypeId": "RD",
        "placeName": "GORHAM",
        "streetNameDisplayText": "ONION DAM LAKE RD, GORHAM"
      },
      {
        "electoralDistricts": [
          {
            "election": null,
            "id": 106,
            "name": "Thunder Bay—Superior North"
          }
        ],
        "pollDivisionIds": [
          10142371
        ],
        "postalCode": "P7G0B9",
        "streetName": "ONION LAKE DAM",
        "streetDirectionId": null,
        "streetTypeId": "RD",
        "placeName": "GORHAM",
        "streetNameDisplayText": "ONION LAKE DAM RD, GORHAM"
      }
    ]
  },
  {
    "postal": "P7G9K7",
    "result": []
  },
  {
    "postal": "P7G9K9",
    "result": []
  },
  {
    "postal": "P7G3Z2",
    "result": []
  },
  {
    "postal": "P7G6W7",
    "result": []
  },
  {
    "postal": "P7G0P1",
    "result": [
      {
        "electoralDistricts": [
          {
            "election": null,
            "id": 106,
            "name": "Thunder Bay—Superior North"
          }
        ],
        "pollDivisionIds": [
          10142372
        ],
        "postalCode": "P7G0P1",
        "streetName": "PETERSON",
        "streetDirectionId": null,
        "streetTypeId": "RD",
        "placeName": "GORHAM",
        "streetNameDisplayText": "PETERSON RD, GORHAM"
      },
      {
        "electoralDistricts": [
          {
            "election": null,
            "id": 106,
            "name": "Thunder Bay—Superior North"
          }
        ],
        "pollDivisionIds": [
          10142372
        ],
        "postalCode": "P7G0P1",
        "streetName": "PETERSONS",
        "streetDirectionId": null,
        "streetTypeId": "RD",
        "placeName": "GORHAM",
        "streetNameDisplayText": "PETERSONS RD, GORHAM"
      }
    ]
  },
  {
    "postal": "P7G3A0",
    "result": []
  },
  {
    "postal": "P7G8L9",
    "result": []
  },
  {
    "postal": "P7G6X0",
    "result": []
  },
  {
    "postal": "P7G3E9",
    "result": []
  },
  {
    "postal": "P7G0S5",
    "result": [
      {
        "electoralDistricts": [
          {
            "election": null,
            "id": 106,
            "name": "Thunder Bay—Superior North"
          }
        ],
        "pollDivisionIds": [
          10142372
        ],
        "postalCode": "P7G0S5",
        "streetName": "SURPRISE LAKE RD WEST",
        "streetDirectionId": null,
        "streetTypeId": "RD",
        "placeName": "GORHAM",
        "streetNameDisplayText": "SURPRISE LAKE RD WEST RD, GORHAM"
      },
      {
        "electoralDistricts": [
          {
            "election": null,
            "id": 105,
            "name": "Thunder Bay—Atikokan"
          }
        ],
        "pollDivisionIds": [
          10142305
        ],
        "postalCode": "P7G0S5",
        "streetName": "SURPRISE LAKE",
        "streetDirectionId": null,
        "streetTypeId": "RD",
        "placeName": "GORHAM",
        "streetNameDisplayText": "SURPRISE LAKE RD, GORHAM"
      },
      {
        "electoralDistricts": [
          {
            "election": null,
            "id": 106,
            "name": "Thunder Bay—Superior North"
          }
        ],
        "pollDivisionIds": [
          10142372
        ],
        "postalCode": "P7G0S5",
        "streetName": "SURPRISE",
        "streetDirectionId": "W",
        "streetTypeId": "RD",
        "placeName": "GORHAM",
        "streetNameDisplayText": "SURPRISE RD W, GORHAM"
      }
    ]
  },
  {
    "postal": "P7G1A2",
    "result": [
      {
        "electoralDistricts": [
          {
            "election": null,
            "id": 105,
            "name": "Thunder Bay—Atikokan"
          }
        ],
        "pollDivisionIds": [
          10142311
        ],
        "postalCode": "P7G1A2",
        "streetName": "CHERCOVER",
        "streetDirectionId": null,
        "streetTypeId": "DR",
        "placeName": "THUNDER BAY",
        "streetNameDisplayText": "CHERCOVER DR, THUNDER BAY"
      },
      {
        "electoralDistricts": [
          {
            "election": null,
            "id": 105,
            "name": "Thunder Bay—Atikokan"
          }
        ],
        "pollDivisionIds": [
          10142311
        ],
        "postalCode": "P7G1A2",
        "streetName": "WASCO",
        "streetDirectionId": null,
        "streetTypeId": "DR",
        "placeName": "THUNDER BAY",
        "streetNameDisplayText": "WASCO DR, THUNDER BAY"
      }
    ]
  },
  {
    "postal": "P7G5V8",
    "result": []
  },
  {
    "postal": "P7G8C5",
    "result": []
  },
  {
    "postal": "P7G6N0",
    "result": []
  },
  {
    "postal": "P7G9E6",
    "result": []
  },
  {
    "postal": "P7G5J7",
    "result": []
  },
  {
    "postal": "P7G2R2",
    "result": []
  },
  {
    "postal": "P7G0P5",
    "result": [
      {
        "electoralDistricts": [
          {
            "election": null,
            "id": 106,
            "name": "Thunder Bay—Superior North"
          }
        ],
        "pollDivisionIds": [
          10142372
        ],
        "postalCode": "P7G0P5",
        "streetName": "PIKE LAKE",
        "streetDirectionId": null,
        "streetTypeId": "RD",
        "placeName": "GORHAM",
        "streetNameDisplayText": "PIKE LAKE RD, GORHAM"
      }
    ]
  },
  {
    "postal": "P7G5A7",
    "result": []
  },
  {
    "postal": "P7G1G1",
    "result": [
      {
        "electoralDistricts": [
          {
            "election": null,
            "id": 105,
            "name": "Thunder Bay—Atikokan"
          }
        ],
        "pollDivisionIds": [
          10142305
        ],
        "postalCode": "P7G1G1",
        "streetName": "BYERS",
        "streetDirectionId": null,
        "streetTypeId": "RD",
        "placeName": "THUNDER BAY",
        "streetNameDisplayText": "BYERS RD, THUNDER BAY"
      }
    ]
  },
  {
    "postal": "P7G9R6",
    "result": []
  },
  {
    "postal": "P7G4Z9",
    "result": []
  },
  {
    "postal": "P7G1V5",
    "result": [
      {
        "electoralDistricts": [
          {
            "election": null,
            "id": 105,
            "name": "Thunder Bay—Atikokan"
          }
        ],
        "pollDivisionIds": [
          10142305
        ],
        "postalCode": "P7G1V5",
        "streetName": "GOVERNMENT",
        "streetDirectionId": null,
        "streetTypeId": "RD",
        "placeName": "THUNDER BAY",
        "streetNameDisplayText": "GOVERNMENT RD, THUNDER BAY"
      }
    ]
  },
  {
    "postal": "P7G9Y5",
    "result": []
  },
  {
    "postal": "P7G1P2",
    "result": [
      {
        "electoralDistricts": [
          {
            "election": null,
            "id": 105,
            "name": "Thunder Bay—Atikokan"
          }
        ],
        "pollDivisionIds": [
          10142301
        ],
        "postalCode": "P7G1P2",
        "streetName": "WHARTON",
        "streetDirectionId": null,
        "streetTypeId": "RD",
        "placeName": "THUNDER BAY",
        "streetNameDisplayText": "WHARTON RD, THUNDER BAY"
      }
    ]
  },
  {
    "postal": "P7G5X0",
    "result": []
  },
  {
    "postal": "P7G7B8",
    "result": []
  },
  {
    "postal": "P7G0C6",
    "result": [
      {
        "electoralDistricts": [
          {
            "election": null,
            "id": 106,
            "name": "Thunder Bay—Superior North"
          }
        ],
        "pollDivisionIds": [
          10142372
        ],
        "postalCode": "P7G0C6",
        "streetName": "DOG LAKE",
        "streetDirectionId": null,
        "streetTypeId": "RD",
        "placeName": "GORHAM",
        "streetNameDisplayText": "DOG LAKE RD, GORHAM"
      }
    ]
  },
  {
    "postal": "P7G6G1",
    "result": []
  },
  {
    "postal": "P7G3K3",
    "result": []
  },
  {
    "postal": "P7G9R0",
    "result": []
  },
  {
    "postal": "P7G4R8",
    "result": []
  },
  {
    "postal": "P7G5P9",
    "result": []
  },
  {
    "postal": "P7G8N4",
    "result": []
  },
  {
    "postal": "P7G8H4",
    "result": []
  },
  {
    "postal": "P7G4V1",
    "result": []
  },
  {
    "postal": "P7G1K5",
    "result": [
      {
        "electoralDistricts": [
          {
            "election": null,
            "id": 105,
            "name": "Thunder Bay—Atikokan"
          }
        ],
        "pollDivisionIds": [
          10142301
        ],
        "postalCode": "P7G1K5",
        "streetName": "OXFORD",
        "streetDirectionId": null,
        "streetTypeId": "ST",
        "placeName": "THUNDER BAY",
        "streetNameDisplayText": "OXFORD ST, THUNDER BAY"
      }
    ]
  },
  {
    "postal": "P7G1Z5",
    "result": [
      {
        "electoralDistricts": [
          {
            "election": null,
            "id": 105,
            "name": "Thunder Bay—Atikokan"
          }
        ],
        "pollDivisionIds": [
          10142305
        ],
        "postalCode": "P7G1Z5",
        "streetName": "HILLDALE",
        "streetDirectionId": null,
        "streetTypeId": "RD",
        "placeName": "THUNDER BAY",
        "streetNameDisplayText": "HILLDALE RD, THUNDER BAY"
      }
    ]
  },
  {
    "postal": "P7G9L9",
    "result": []
  },
  {
    "postal": "P7G5L2",
    "result": []
  },
  {
    "postal": "P7G0M2",
    "result": [
      {
        "electoralDistricts": [
          {
            "election": null,
            "id": 106,
            "name": "Thunder Bay—Superior North"
          }
        ],
        "pollDivisionIds": [
          10142371
        ],
        "postalCode": "P7G0M2",
        "streetName": "NORTH BRANCH",
        "streetDirectionId": null,
        "streetTypeId": "RD",
        "placeName": "GORHAM",
        "streetNameDisplayText": "NORTH BRANCH RD, GORHAM"
      }
    ]
  },
  {
    "postal": "P7G1K8",
    "result": [
      {
        "electoralDistricts": [
          {
            "election": null,
            "id": 105,
            "name": "Thunder Bay—Atikokan"
          }
        ],
        "pollDivisionIds": [
          10142311,
          10142301
        ],
        "postalCode": "P7G1K8",
        "streetName": "JOHN STREET",
        "streetDirectionId": null,
        "streetTypeId": "RD",
        "placeName": "THUNDER BAY",
        "streetNameDisplayText": "JOHN STREET RD, THUNDER BAY"
      }
    ]
  },
  {
    "postal": "P7G3M7",
    "result": []
  },
  {
    "postal": "P7G1B2",
    "result": [
      {
        "electoralDistricts": [
          {
            "election": null,
            "id": 105,
            "name": "Thunder Bay—Atikokan"
          }
        ],
        "pollDivisionIds": [
          10142311
        ],
        "postalCode": "P7G1B2",
        "streetName": "PIONEER",
        "streetDirectionId": null,
        "streetTypeId": "DR",
        "placeName": "THUNDER BAY",
        "streetNameDisplayText": "PIONEER DR, THUNDER BAY"
      }
    ]
  },
  {
    "postal": "P7G0H9",
    "result": [
      {
        "electoralDistricts": [
          {
            "election": null,
            "id": 106,
            "name": "Thunder Bay—Superior North"
          }
        ],
        "pollDivisionIds": [
          10142371
        ],
        "postalCode": "P7G0H9",
        "streetName": "HILLDALE",
        "streetDirectionId": null,
        "streetTypeId": "RD",
        "placeName": "GORHAM",
        "streetNameDisplayText": "HILLDALE RD, GORHAM"
      }
    ]
  },
  {
    "postal": "P7G8M4",
    "result": []
  },
  {
    "postal": "P7G2M5",
    "result": [
      {
        "electoralDistricts": [
          {
            "election": null,
            "id": 105,
            "name": "Thunder Bay—Atikokan"
          }
        ],
        "pollDivisionIds": [
          10142305
        ],
        "postalCode": "P7G2M5",
        "streetName": "TUSCANY",
        "streetDirectionId": null,
        "streetTypeId": "CRT",
        "placeName": "THUNDER BAY",
        "streetNameDisplayText": "TUSCANY CRT, THUNDER BAY"
      }
    ]
  },
  {
    "postal": "P7G0T9",
    "result": []
  },
  {
    "postal": "P7G3P1",
    "result": []
  },
  {
    "postal": "P7G1R6",
    "result": [
      {
        "electoralDistricts": [
          {
            "election": null,
            "id": 105,
            "name": "Thunder Bay—Atikokan"
          }
        ],
        "pollDivisionIds": [
          10142301
        ],
        "postalCode": "P7G1R6",
        "streetName": "RICHMOND",
        "streetDirectionId": null,
        "streetTypeId": "RD",
        "placeName": "THUNDER BAY",
        "streetNameDisplayText": "RICHMOND RD, THUNDER BAY"
      }
    ]
  },
  {
    "postal": "P7G9V5",
    "result": []
  },
  {
    "postal": "P7G9T0",
    "result": []
  },
  {
    "postal": "P7G0A9",
    "result": [
      {
        "electoralDistricts": [
          {
            "election": null,
            "id": 105,
            "name": "Thunder Bay—Atikokan"
          }
        ],
        "pollDivisionIds": [
          10142311
        ],
        "postalCode": "P7G0A9",
        "streetName": "LONGBOW",
        "streetDirectionId": null,
        "streetTypeId": "ST",
        "placeName": "THUNDER BAY",
        "streetNameDisplayText": "LONGBOW ST, THUNDER BAY"
      }
    ]
  },
  {
    "postal": "P7G1M3",
    "result": [
      {
        "electoralDistricts": [
          {
            "election": null,
            "id": 105,
            "name": "Thunder Bay—Atikokan"
          }
        ],
        "pollDivisionIds": [
          10142311,
          10142305
        ],
        "postalCode": "P7G1M3",
        "streetName": "TOMS",
        "streetDirectionId": null,
        "streetTypeId": "RD",
        "placeName": "THUNDER BAY",
        "streetNameDisplayText": "TOMS RD, THUNDER BAY"
      }
    ]
  },
  {
    "postal": "P7G1W8",
    "result": [
      {
        "electoralDistricts": [
          {
            "election": null,
            "id": 105,
            "name": "Thunder Bay—Atikokan"
          }
        ],
        "pollDivisionIds": [
          10142305
        ],
        "postalCode": "P7G1W8",
        "streetName": "ALICE",
        "streetDirectionId": null,
        "streetTypeId": "AVE",
        "placeName": "THUNDER BAY",
        "streetNameDisplayText": "ALICE AVE, THUNDER BAY"
      }
    ]
  },
  {
    "postal": "P7G9J1",
    "result": []
  },
  {
    "postal": "P7G8N5",
    "result": []
  },
  {
    "postal": "P7G5X1",
    "result": []
  },
  {
    "postal": "P7G6S2",
    "result": []
  },
  {
    "postal": "P7G2A2",
    "result": [
      {
        "electoralDistricts": [
          {
            "election": null,
            "id": 105,
            "name": "Thunder Bay—Atikokan"
          }
        ],
        "pollDivisionIds": [
          10142305
        ],
        "postalCode": "P7G2A2",
        "streetName": "LANCASTER",
        "streetDirectionId": null,
        "streetTypeId": "AVE",
        "placeName": "THUNDER BAY",
        "streetNameDisplayText": "LANCASTER AVE, THUNDER BAY"
      }
    ]
  },
  {
    "postal": "P7G6A6",
    "result": []
  },
  {
    "postal": "P7G0S3",
    "result": [
      {
        "electoralDistricts": [
          {
            "election": null,
            "id": 106,
            "name": "Thunder Bay—Superior North"
          }
        ],
        "pollDivisionIds": [
          10142372
        ],
        "postalCode": "P7G0S3",
        "streetName": "SURPRISE LAKE",
        "streetDirectionId": "E",
        "streetTypeId": "RD",
        "placeName": "GORHAM",
        "streetNameDisplayText": "SURPRISE LAKE RD E, GORHAM"
      },
      {
        "electoralDistricts": [
          {
            "election": null,
            "id": 106,
            "name": "Thunder Bay—Superior North"
          }
        ],
        "pollDivisionIds": [
          10142372
        ],
        "postalCode": "P7G0S3",
        "streetName": "SURPRISE LAKE",
        "streetDirectionId": "E",
        "streetTypeId": "RD",
        "placeName": "JACQUES",
        "streetNameDisplayText": "SURPRISE LAKE RD E, JACQUES"
      },
      {
        "electoralDistricts": [
          {
            "election": null,
            "id": 106,
            "name": "Thunder Bay—Superior North"
          }
        ],
        "pollDivisionIds": [
          10142372
        ],
        "postalCode": "P7G0S3",
        "streetName": "SURPRISE",
        "streetDirectionId": "E",
        "streetTypeId": "RD",
        "placeName": "GORHAM",
        "streetNameDisplayText": "SURPRISE RD E, GORHAM"
      }
    ]
  },
  {
    "postal": "P7G3E7",
    "result": []
  },
  {
    "postal": "P7G5R7",
    "result": []
  },
  {
    "postal": "P7G3R6",
    "result": []
  },
  {
    "postal": "P7G6K4",
    "result": []
  },
  {
    "postal": "P7G2W5",
    "result": []
  },
  {
    "postal": "P7G8W4",
    "result": []
  },
  {
    "postal": "P7G9C2",
    "result": []
  },
  {
    "postal": "P7G2C0",
    "result": []
  },
  {
    "postal": "P7G0E1",
    "result": [
      {
        "electoralDistricts": [
          {
            "election": null,
            "id": 106,
            "name": "Thunder Bay—Superior North"
          }
        ],
        "pollDivisionIds": [
          10142372
        ],
        "postalCode": "P7G0E1",
        "streetName": "DOG LAKE",
        "streetDirectionId": null,
        "streetTypeId": "RD",
        "placeName": "GORHAM",
        "streetNameDisplayText": "DOG LAKE RD, GORHAM"
      }
    ]
  },
  {
    "postal": "P7G1K9",
    "result": [
      {
        "electoralDistricts": [
          {
            "election": null,
            "id": 105,
            "name": "Thunder Bay—Atikokan"
          }
        ],
        "pollDivisionIds": [
          10142305,
          10142301
        ],
        "postalCode": "P7G1K9",
        "streetName": "JOHN STREET",
        "streetDirectionId": null,
        "streetTypeId": "RD",
        "placeName": "THUNDER BAY",
        "streetNameDisplayText": "JOHN STREET RD, THUNDER BAY"
      }
    ]
  },
  {
    "postal": "P7G1G7",
    "result": []
  },
  {
    "postal": "P7G4E9",
    "result": []
  },
  {
    "postal": "P7G9P0",
    "result": []
  },
  {
    "postal": "P7G5H3",
    "result": []
  },
  {
    "postal": "P7G9X6",
    "result": []
  },
  {
    "postal": "P7G5N7",
    "result": []
  },
  {
    "postal": "P7G5A6",
    "result": []
  },
  {
    "postal": "P7G4M0",
    "result": []
  },
  {
    "postal": "P7G3V6",
    "result": []
  },
  {
    "postal": "P7G1L7",
    "result": [
      {
        "electoralDistricts": [
          {
            "election": null,
            "id": 105,
            "name": "Thunder Bay—Atikokan"
          }
        ],
        "pollDivisionIds": [
          10142305
        ],
        "postalCode": "P7G1L7",
        "streetName": "BELVIEW",
        "streetDirectionId": null,
        "streetTypeId": "RD",
        "placeName": "THUNDER BAY",
        "streetNameDisplayText": "BELVIEW RD, THUNDER BAY"
      },
      {
        "electoralDistricts": [
          {
            "election": null,
            "id": 105,
            "name": "Thunder Bay—Atikokan"
          }
        ],
        "pollDivisionIds": [
          10142305
        ],
        "postalCode": "P7G1L7",
        "streetName": "MAPLEWARD",
        "streetDirectionId": null,
        "streetTypeId": "RD",
        "placeName": "THUNDER BAY",
        "streetNameDisplayText": "MAPLEWARD RD, THUNDER BAY"
      }
    ]
  },
  {
    "postal": "P7G2P9",
    "result": []
  },
  {
    "postal": "P7G5T4",
    "result": []
  },
  {
    "postal": "P7G5Z1",
    "result": []
  },
  {
    "postal": "P7G2X0",
    "result": []
  },
  {
    "postal": "P7G6Z2",
    "result": []
  },
  {
    "postal": "P7G0E0",
    "result": []
  },
  {
    "postal": "P7G3Z5",
    "result": []
  },
  {
    "postal": "P7G8H3",
    "result": []
  },
  {
    "postal": "P7G7S6",
    "result": []
  },
  {
    "postal": "P7G4C1",
    "result": []
  },
  {
    "postal": "P7G3K2",
    "result": []
  },
  {
    "postal": "P7G1Y5",
    "result": [
      {
        "electoralDistricts": [
          {
            "election": null,
            "id": 105,
            "name": "Thunder Bay—Atikokan"
          }
        ],
        "pollDivisionIds": [
          10142305
        ],
        "postalCode": "P7G1Y5",
        "streetName": "HAZELWOOD",
        "streetDirectionId": null,
        "streetTypeId": "DR",
        "placeName": "THUNDER BAY",
        "streetNameDisplayText": "HAZELWOOD DR, THUNDER BAY"
      }
    ]
  },
  {
    "postal": "P7G6P6",
    "result": []
  },
  {
    "postal": "P7G3N9",
    "result": []
  },
  {
    "postal": "P7G3W2",
    "result": []
  },
  {
    "postal": "P7G6H8",
    "result": []
  },
  {
    "postal": "P7G9T3",
    "result": []
  },
  {
    "postal": "P7G5L9",
    "result": []
  },
  {
    "postal": "P7G7X7",
    "result": []
  },
  {
    "postal": "P7G3J5",
    "result": []
  },
  {
    "postal": "P7G4J5",
    "result": []
  },
  {
    "postal": "P7G6J2",
    "result": []
  },
  {
    "postal": "P7G5V6",
    "result": []
  },
  {
    "postal": "P7G3N2",
    "result": []
  },
  {
    "postal": "P7G3B1",
    "result": []
  },
  {
    "postal": "P7G8B5",
    "result": []
  },
  {
    "postal": "P7G0K1",
    "result": [
      {
        "electoralDistricts": [
          {
            "election": null,
            "id": 106,
            "name": "Thunder Bay—Superior North"
          }
        ],
        "pollDivisionIds": [
          10142372
        ],
        "postalCode": "P7G0K1",
        "streetName": "KAM CURRENT",
        "streetDirectionId": null,
        "streetTypeId": "RD",
        "placeName": "GORHAM",
        "streetNameDisplayText": "KAM CURRENT RD, GORHAM"
      },
      {
        "electoralDistricts": [
          {
            "election": null,
            "id": 106,
            "name": "Thunder Bay—Superior North"
          }
        ],
        "pollDivisionIds": [
          10142372
        ],
        "postalCode": "P7G0K1",
        "streetName": "KAM-CURRENT",
        "streetDirectionId": null,
        "streetTypeId": "RD",
        "placeName": "GORHAM",
        "streetNameDisplayText": "KAM-CURRENT RD, GORHAM"
      }
    ]
  },
  {
    "postal": "P7G7M7",
    "result": []
  },
  {
    "postal": "P7G2M2",
    "result": [
      {
        "electoralDistricts": [
          {
            "election": null,
            "id": 105,
            "name": "Thunder Bay—Atikokan"
          },
          {
            "election": null,
            "id": 106,
            "name": "Thunder Bay—Superior North"
          }
        ],
        "pollDivisionIds": [
          10142311,
          10142378
        ],
        "postalCode": "P7G2M2",
        "streetName": "LONGBOW",
        "streetDirectionId": null,
        "streetTypeId": "CRES",
        "placeName": "THUNDER BAY",
        "streetNameDisplayText": "LONGBOW CRES, THUNDER BAY"
      }
    ]
  },
  {
    "postal": "P7G9N3",
    "result": []
  },
  {
    "postal": "P7G4Y8",
    "result": []
  },
  {
    "postal": "P7G3V7",
    "result": []
  },
  {
    "postal": "P7G8Z1",
    "result": []
  },
  {
    "postal": "P7G7B3",
    "result": []
  },
  {
    "postal": "P7G3A8",
    "result": []
  },
  {
    "postal": "P7G7V5",
    "result": []
  },
  {
    "postal": "P7G2T2",
    "result": []
  },
  {
    "postal": "P7G6L3",
    "result": []
  },
  {
    "postal": "P7G0L2",
    "result": []
  },
  {
    "postal": "P7G5Y8",
    "result": []
  },
  {
    "postal": "P7G0B8",
    "result": [
      {
        "electoralDistricts": [
          {
            "election": null,
            "id": 106,
            "name": "Thunder Bay—Superior North"
          }
        ],
        "pollDivisionIds": [
          10142371
        ],
        "postalCode": "P7G0B8",
        "streetName": "ONION LAKE DAM",
        "streetDirectionId": null,
        "streetTypeId": "RD",
        "placeName": "GORHAM",
        "streetNameDisplayText": "ONION LAKE DAM RD, GORHAM"
      },
      {
        "electoralDistricts": [
          {
            "election": null,
            "id": 106,
            "name": "Thunder Bay—Superior North"
          }
        ],
        "pollDivisionIds": [
          10142371
        ],
        "postalCode": "P7G0B8",
        "streetName": "ONION LAKE",
        "streetDirectionId": null,
        "streetTypeId": "RD",
        "placeName": "GORHAM",
        "streetNameDisplayText": "ONION LAKE RD, GORHAM"
      }
    ]
  },
  {
    "postal": "P7G6R5",
    "result": []
  },
  {
    "postal": "P7G8W6",
    "result": []
  },
  {
    "postal": "P7G8G6",
    "result": []
  },
  {
    "postal": "P7G6X3",
    "result": []
  },
  {
    "postal": "P7G7R7",
    "result": []
  },
  {
    "postal": "P7G4B6",
    "result": []
  },
  {
    "postal": "P7G3P9",
    "result": []
  },
  {
    "postal": "P7G2T3",
    "result": []
  },
  {
    "postal": "P7G1M4",
    "result": [
      {
        "electoralDistricts": [
          {
            "election": null,
            "id": 105,
            "name": "Thunder Bay—Atikokan"
          }
        ],
        "pollDivisionIds": [
          10142311,
          10142284,
          10142305
        ],
        "postalCode": "P7G1M4",
        "streetName": "GRANITE",
        "streetDirectionId": null,
        "streetTypeId": "RD",
        "placeName": "THUNDER BAY",
        "streetNameDisplayText": "GRANITE RD, THUNDER BAY"
      },
      {
        "electoralDistricts": [
          {
            "election": null,
            "id": 105,
            "name": "Thunder Bay—Atikokan"
          }
        ],
        "pollDivisionIds": [
          10142305
        ],
        "postalCode": "P7G1M4",
        "streetName": "PAQUETTE",
        "streetDirectionId": null,
        "streetTypeId": "RD",
        "placeName": "THUNDER BAY",
        "streetNameDisplayText": "PAQUETTE RD, THUNDER BAY"
      }
    ]
  },
  {
    "postal": "P7G0H1",
    "result": [
      {
        "electoralDistricts": [
          {
            "election": null,
            "id": 106,
            "name": "Thunder Bay—Superior North"
          }
        ],
        "pollDivisionIds": [
          10142371
        ],
        "postalCode": "P7G0H1",
        "streetName": "GRONROOS",
        "streetDirectionId": null,
        "streetTypeId": "RD",
        "placeName": "GORHAM",
        "streetNameDisplayText": "GRONROOS RD, GORHAM"
      }
    ]
  },
  {
    "postal": "P7G9W3",
    "result": []
  },
  {
    "postal": "P7G6P1",
    "result": []
  },
  {
    "postal": "P7G7G2",
    "result": []
  },
  {
    "postal": "P7G4J9",
    "result": []
  },
  {
    "postal": "P7G9E4",
    "result": []
  },
  {
    "postal": "P7G8H0",
    "result": []
  },
  {
    "postal": "P7G4M7",
    "result": []
  },
  {
    "postal": "P7G2G9",
    "result": [
      {
        "electoralDistricts": [
          {
            "election": null,
            "id": 105,
            "name": "Thunder Bay—Atikokan"
          }
        ],
        "pollDivisionIds": [
          10142305
        ],
        "postalCode": "P7G2G9",
        "streetName": "HAZELWOOD",
        "streetDirectionId": null,
        "streetTypeId": "DR",
        "placeName": "THUNDER BAY",
        "streetNameDisplayText": "HAZELWOOD DR, THUNDER BAY"
      },
      {
        "electoralDistricts": [
          {
            "election": null,
            "id": 105,
            "name": "Thunder Bay—Atikokan"
          }
        ],
        "pollDivisionIds": [
          10142305
        ],
        "postalCode": "P7G2G9",
        "streetName": "MELBOURNE",
        "streetDirectionId": null,
        "streetTypeId": "RD",
        "placeName": "THUNDER BAY",
        "streetNameDisplayText": "MELBOURNE RD, THUNDER BAY"
      }
    ]
  },
  {
    "postal": "P7G8T2",
    "result": []
  },
  {
    "postal": "P7G7G7",
    "result": []
  },
  {
    "postal": "P7G4Z3",
    "result": []
  },
  {
    "postal": "P7G5B3",
    "result": []
  },
  {
    "postal": "P7G1S7",
    "result": [
      {
        "electoralDistricts": [
          {
            "election": null,
            "id": 105,
            "name": "Thunder Bay—Atikokan"
          }
        ],
        "pollDivisionIds": [
          10142301
        ],
        "postalCode": "P7G1S7",
        "streetName": "COMMUNITY HALL",
        "streetDirectionId": null,
        "streetTypeId": "RD",
        "placeName": "THUNDER BAY",
        "streetNameDisplayText": "COMMUNITY HALL RD, THUNDER BAY"
      },
      {
        "electoralDistricts": [
          {
            "election": null,
            "id": 105,
            "name": "Thunder Bay—Atikokan"
          }
        ],
        "pollDivisionIds": [
          10142301
        ],
        "postalCode": "P7G1S7",
        "streetName": "OWEN",
        "streetDirectionId": null,
        "streetTypeId": "DR",
        "placeName": "THUNDER BAY",
        "streetNameDisplayText": "OWEN DR, THUNDER BAY"
      }
    ]
  },
  {
    "postal": "P7G2N7",
    "result": [
      {
        "electoralDistricts": [
          {
            "election": null,
            "id": 105,
            "name": "Thunder Bay—Atikokan"
          }
        ],
        "pollDivisionIds": [
          10142311
        ],
        "postalCode": "P7G2N7",
        "streetName": "BISHOP",
        "streetDirectionId": null,
        "streetTypeId": "CRT",
        "placeName": "THUNDER BAY",
        "streetNameDisplayText": "BISHOP CRT, THUNDER BAY"
      }
    ]
  },
  {
    "postal": "P7G0H8",
    "result": [
      {
        "electoralDistricts": [
          {
            "election": null,
            "id": 106,
            "name": "Thunder Bay—Superior North"
          }
        ],
        "pollDivisionIds": [
          10142371
        ],
        "postalCode": "P7G0H8",
        "streetName": "HILLDALE",
        "streetDirectionId": null,
        "streetTypeId": "RD",
        "placeName": "GORHAM",
        "streetNameDisplayText": "HILLDALE RD, GORHAM"
      }
    ]
  },
  {
    "postal": "P7G7Z4",
    "result": []
  },
  {
    "postal": "P7G7B1",
    "result": []
  },
  {
    "postal": "P7G7P8",
    "result": []
  },
  {
    "postal": "P7G7N0",
    "result": []
  },
  {
    "postal": "P7G3Y5",
    "result": []
  },
  {
    "postal": "P7G6K1",
    "result": []
  },
  {
    "postal": "P7G9X5",
    "result": []
  },
  {
    "postal": "P7G7S5",
    "result": []
  },
  {
    "postal": "P7G0A4",
    "result": [
      {
        "electoralDistricts": [
          {
            "election": null,
            "id": 105,
            "name": "Thunder Bay—Atikokan"
          }
        ],
        "pollDivisionIds": [
          10142311
        ],
        "postalCode": "P7G0A4",
        "streetName": "FIREWEED",
        "streetDirectionId": null,
        "streetTypeId": "CRT",
        "placeName": "THUNDER BAY",
        "streetNameDisplayText": "FIREWEED CRT, THUNDER BAY"
      }
    ]
  },
  {
    "postal": "P7G4T5",
    "result": []
  },
  {
    "postal": "P7G5K1",
    "result": []
  },
  {
    "postal": "P7G0Z9",
    "result": [
      {
        "electoralDistricts": [
          {
            "election": null,
            "id": 106,
            "name": "Thunder Bay—Superior North"
          }
        ],
        "pollDivisionIds": [
          10142372
        ],
        "postalCode": "P7G0Z9",
        "streetName": "DOG LAKE",
        "streetDirectionId": null,
        "streetTypeId": "RD",
        "placeName": "JACQUES",
        "streetNameDisplayText": "DOG LAKE RD, JACQUES"
      },
      {
        "electoralDistricts": [
          {
            "election": null,
            "id": 106,
            "name": "Thunder Bay—Superior North"
          }
        ],
        "pollDivisionIds": [
          10142372
        ],
        "postalCode": "P7G0Z9",
        "streetName": "DOG LAKE",
        "streetDirectionId": null,
        "streetTypeId": "RD",
        "placeName": "THUNDER BAY",
        "streetNameDisplayText": "DOG LAKE RD, THUNDER BAY"
      }
    ]
  },
  {
    "postal": "P7G7T2",
    "result": []
  },
  {
    "postal": "P7G1L5",
    "result": [
      {
        "electoralDistricts": [
          {
            "election": null,
            "id": 105,
            "name": "Thunder Bay—Atikokan"
          }
        ],
        "pollDivisionIds": [
          10142301,
          10142305
        ],
        "postalCode": "P7G1L5",
        "streetName": "MAPLEWARD",
        "streetDirectionId": null,
        "streetTypeId": "RD",
        "placeName": "THUNDER BAY",
        "streetNameDisplayText": "MAPLEWARD RD, THUNDER BAY"
      }
    ]
  },
  {
    "postal": "P7G3N5",
    "result": []
  },
  {
    "postal": "P7G6H4",
    "result": []
  },
  {
    "postal": "P7G5A5",
    "result": []
  },
  {
    "postal": "P7G3R9",
    "result": []
  },
  {
    "postal": "P7G7L8",
    "result": []
  },
  {
    "postal": "P7G6T6",
    "result": []
  },
  {
    "postal": "P7G7Y7",
    "result": []
  },
  {
    "postal": "P7G3M8",
    "result": []
  },
  {
    "postal": "P7G2E0",
    "result": []
  },
  {
    "postal": "P7G4B5",
    "result": []
  },
  {
    "postal": "P7G1J3",
    "result": [
      {
        "electoralDistricts": [
          {
            "election": null,
            "id": 105,
            "name": "Thunder Bay—Atikokan"
          }
        ],
        "pollDivisionIds": [
          10142311
        ],
        "postalCode": "P7G1J3",
        "streetName": "GREENWOOD",
        "streetDirectionId": null,
        "streetTypeId": "LANE",
        "placeName": "THUNDER BAY",
        "streetNameDisplayText": "GREENWOOD LANE, THUNDER BAY"
      },
      {
        "electoralDistricts": [
          {
            "election": null,
            "id": 105,
            "name": "Thunder Bay—Atikokan"
          }
        ],
        "pollDivisionIds": [
          10142311
        ],
        "postalCode": "P7G1J3",
        "streetName": "LOUIS",
        "streetDirectionId": null,
        "streetTypeId": "ST",
        "placeName": "THUNDER BAY",
        "streetNameDisplayText": "LOUIS ST, THUNDER BAY"
      }
    ]
  },
  {
    "postal": "P7G5S6",
    "result": []
  },
  {
    "postal": "P7G8P7",
    "result": []
  },
  {
    "postal": "P7G7S7",
    "result": []
  },
  {
    "postal": "P7G4C2",
    "result": []
  },
  {
    "postal": "P7G5Y0",
    "result": []
  },
  {
    "postal": "P7G2V7",
    "result": []
  },
  {
    "postal": "P7G8P5",
    "result": []
  },
  {
    "postal": "P7G5P5",
    "result": []
  },
  {
    "postal": "P7G5Z0",
    "result": []
  },
  {
    "postal": "P7G9B0",
    "result": []
  },
  {
    "postal": "P7G1L0",
    "result": []
  },
  {
    "postal": "P7G0B5",
    "result": [
      {
        "electoralDistricts": [
          {
            "election": null,
            "id": 106,
            "name": "Thunder Bay—Superior North"
          }
        ],
        "pollDivisionIds": [
          10142372
        ],
        "postalCode": "P7G0B5",
        "streetName": "CEDAR",
        "streetDirectionId": null,
        "streetTypeId": "LANE",
        "placeName": "GORHAM",
        "streetNameDisplayText": "CEDAR LANE, GORHAM"
      }
    ]
  },
  {
    "postal": "P7G3L2",
    "result": []
  },
  {
    "postal": "P7G3B7",
    "result": []
  },
  {
    "postal": "P7G8L1",
    "result": []
  },
  {
    "postal": "P7G5M4",
    "result": []
  },
  {
    "postal": "P7G4G9",
    "result": []
  },
  {
    "postal": "P7G0P0",
    "result": []
  },
  {
    "postal": "P7G8G2",
    "result": []
  },
  {
    "postal": "P7G1V9",
    "result": [
      {
        "electoralDistricts": [
          {
            "election": null,
            "id": 105,
            "name": "Thunder Bay—Atikokan"
          }
        ],
        "pollDivisionIds": [
          10142305
        ],
        "postalCode": "P7G1V9",
        "streetName": "GOVERNMENT",
        "streetDirectionId": null,
        "streetTypeId": "RD",
        "placeName": "THUNDER BAY",
        "streetNameDisplayText": "GOVERNMENT RD, THUNDER BAY"
      }
    ]
  },
  {
    "postal": "P7G8N8",
    "result": []
  },
  {
    "postal": "P7G6S8",
    "result": []
  },
  {
    "postal": "P7G8H2",
    "result": []
  },
  {
    "postal": "P7G5R8",
    "result": []
  },
  {
    "postal": "P7G5L4",
    "result": []
  },
  {
    "postal": "P7G9E1",
    "result": []
  },
  {
    "postal": "P7G1C4",
    "result": [
      {
        "electoralDistricts": [
          {
            "election": null,
            "id": 105,
            "name": "Thunder Bay—Atikokan"
          }
        ],
        "pollDivisionIds": [
          10142311
        ],
        "postalCode": "P7G1C4",
        "streetName": "CANTERBURY",
        "streetDirectionId": null,
        "streetTypeId": "CRES",
        "placeName": "THUNDER BAY",
        "streetNameDisplayText": "CANTERBURY CRES, THUNDER BAY"
      }
    ]
  },
  {
    "postal": "P7G8W5",
    "result": []
  },
  {
    "postal": "P7G1Y4",
    "result": [
      {
        "electoralDistricts": [
          {
            "election": null,
            "id": 105,
            "name": "Thunder Bay—Atikokan"
          }
        ],
        "pollDivisionIds": [
          10142305
        ],
        "postalCode": "P7G1Y4",
        "streetName": "HAZELWOOD",
        "streetDirectionId": null,
        "streetTypeId": "DR",
        "placeName": "THUNDER BAY",
        "streetNameDisplayText": "HAZELWOOD DR, THUNDER BAY"
      }
    ]
  },
  {
    "postal": "P7G1C0",
    "result": []
  },
  {
    "postal": "P7G2J2",
    "result": [
      {
        "electoralDistricts": [
          {
            "election": null,
            "id": 105,
            "name": "Thunder Bay—Atikokan"
          }
        ],
        "pollDivisionIds": [
          10142305
        ],
        "postalCode": "P7G2J2",
        "streetName": "ALICE",
        "streetDirectionId": null,
        "streetTypeId": "AVE",
        "placeName": "THUNDER BAY",
        "streetNameDisplayText": "ALICE AVE, THUNDER BAY"
      },
      {
        "electoralDistricts": [
          {
            "election": null,
            "id": 105,
            "name": "Thunder Bay—Atikokan"
          }
        ],
        "pollDivisionIds": [
          10142311,
          10142305
        ],
        "postalCode": "P7G2J2",
        "streetName": "GRANITE",
        "streetDirectionId": null,
        "streetTypeId": "RD",
        "placeName": "THUNDER BAY",
        "streetNameDisplayText": "GRANITE RD, THUNDER BAY"
      },
      {
        "electoralDistricts": [
          {
            "election": null,
            "id": 105,
            "name": "Thunder Bay—Atikokan"
          }
        ],
        "pollDivisionIds": [
          10142305
        ],
        "postalCode": "P7G2J2",
        "streetName": "MARQUIS",
        "streetDirectionId": null,
        "streetTypeId": "DR",
        "placeName": "THUNDER BAY",
        "streetNameDisplayText": "MARQUIS DR, THUNDER BAY"
      },
      {
        "electoralDistricts": [
          {
            "election": null,
            "id": 105,
            "name": "Thunder Bay—Atikokan"
          }
        ],
        "pollDivisionIds": [
          10142305,
          10142311
        ],
        "postalCode": "P7G2J2",
        "streetName": "PAQUETTE",
        "streetDirectionId": null,
        "streetTypeId": "RD",
        "placeName": "THUNDER BAY",
        "streetNameDisplayText": "PAQUETTE RD, THUNDER BAY"
      }
    ]
  },
  {
    "postal": "P7G2J0",
    "result": []
  },
  {
    "postal": "P7G7A3",
    "result": []
  },
  {
    "postal": "P7G8M1",
    "result": []
  },
  {
    "postal": "P7G7T9",
    "result": []
  },
  {
    "postal": "P7G6C0",
    "result": []
  },
  {
    "postal": "P7G7X1",
    "result": []
  },
  {
    "postal": "P7G0G1",
    "result": [
      {
        "electoralDistricts": [
          {
            "election": null,
            "id": 106,
            "name": "Thunder Bay—Superior North"
          }
        ],
        "pollDivisionIds": [
          10142372
        ],
        "postalCode": "P7G0G1",
        "streetName": "GOODMAN LAKE",
        "streetDirectionId": null,
        "streetTypeId": "RD",
        "placeName": "GORHAM",
        "streetNameDisplayText": "GOODMAN LAKE RD, GORHAM"
      }
    ]
  },
  {
    "postal": "P7G4X2",
    "result": []
  },
  {
    "postal": "P7G0N6",
    "result": [
      {
        "electoralDistricts": [
          {
            "election": null,
            "id": 106,
            "name": "Thunder Bay—Superior North"
          }
        ],
        "pollDivisionIds": [
          10142371
        ],
        "postalCode": "P7G0N6",
        "streetName": "ONION LAKE",
        "streetDirectionId": null,
        "streetTypeId": "RD",
        "placeName": "GORHAM",
        "streetNameDisplayText": "ONION LAKE RD, GORHAM"
      }
    ]
  },
  {
    "postal": "P7G8E3",
    "result": []
  },
  {
    "postal": "P7G5S8",
    "result": []
  },
  {
    "postal": "P7G0R0",
    "result": []
  },
  {
    "postal": "P7G6J6",
    "result": []
  },
  {
    "postal": "P7G4B4",
    "result": []
  },
  {
    "postal": "P7G7E3",
    "result": []
  },
  {
    "postal": "P7G3N6",
    "result": []
  },
  {
    "postal": "P7G3X6",
    "result": []
  },
  {
    "postal": "P7G8L0",
    "result": []
  },
  {
    "postal": "P7G8N1",
    "result": []
  },
  {
    "postal": "P7G4J0",
    "result": []
  },
  {
    "postal": "P7G0X7",
    "result": []
  },
  {
    "postal": "P7G6S4",
    "result": []
  },
  {
    "postal": "P7G0Z0",
    "result": []
  },
  {
    "postal": "P7G9X8",
    "result": []
  },
  {
    "postal": "P7G3H3",
    "result": []
  },
  {
    "postal": "P7G7S2",
    "result": []
  },
  {
    "postal": "P7G3T3",
    "result": []
  },
  {
    "postal": "P7G9P3",
    "result": []
  },
  {
    "postal": "P7G4H8",
    "result": []
  },
  {
    "postal": "P7G6R1",
    "result": []
  },
  {
    "postal": "P7G1S0",
    "result": []
  },
  {
    "postal": "P7G3W8",
    "result": []
  },
  {
    "postal": "P7G4S3",
    "result": []
  },
  {
    "postal": "P7G1B6",
    "result": [
      {
        "electoralDistricts": [
          {
            "election": null,
            "id": 105,
            "name": "Thunder Bay—Atikokan"
          }
        ],
        "pollDivisionIds": [
          10142311
        ],
        "postalCode": "P7G1B6",
        "streetName": "JOHN STREET",
        "streetDirectionId": null,
        "streetTypeId": "RD",
        "placeName": "THUNDER BAY",
        "streetNameDisplayText": "JOHN STREET RD, THUNDER BAY"
      },
      {
        "electoralDistricts": [
          {
            "election": null,
            "id": 105,
            "name": "Thunder Bay—Atikokan"
          }
        ],
        "pollDivisionIds": [
          10142311
        ],
        "postalCode": "P7G1B6",
        "streetName": "PICCARD",
        "streetDirectionId": null,
        "streetTypeId": "AVE",
        "placeName": "THUNDER BAY",
        "streetNameDisplayText": "PICCARD AVE, THUNDER BAY"
      },
      {
        "electoralDistricts": [
          {
            "election": null,
            "id": 105,
            "name": "Thunder Bay—Atikokan"
          }
        ],
        "pollDivisionIds": [
          10142311
        ],
        "postalCode": "P7G1B6",
        "streetName": "VIENNA",
        "streetDirectionId": null,
        "streetTypeId": "ST",
        "placeName": "THUNDER BAY",
        "streetNameDisplayText": "VIENNA ST, THUNDER BAY"
      }
    ]
  },
  {
    "postal": "P7G8R3",
    "result": []
  },
  {
    "postal": "P7G4V9",
    "result": []
  },
  {
    "postal": "P7G9W4",
    "result": []
  },
  {
    "postal": "P7G3T4",
    "result": []
  },
  {
    "postal": "P7G5C7",
    "result": []
  },
  {
    "postal": "P7G3Y1",
    "result": []
  },
  {
    "postal": "P7G5V0",
    "result": []
  },
  {
    "postal": "P7G8G8",
    "result": []
  },
  {
    "postal": "P7G8B1",
    "result": []
  },
  {
    "postal": "P7G4P5",
    "result": []
  },
  {
    "postal": "P7G7B2",
    "result": []
  },
  {
    "postal": "P7G0R2",
    "result": [
      {
        "electoralDistricts": [
          {
            "election": null,
            "id": 106,
            "name": "Thunder Bay—Superior North"
          }
        ],
        "pollDivisionIds": [
          10142372,
          10142371
        ],
        "postalCode": "P7G0R2",
        "streetName": "PURSIAINEN",
        "streetDirectionId": null,
        "streetTypeId": "LOOP",
        "placeName": "GORHAM",
        "streetNameDisplayText": "PURSIAINEN LOOP, GORHAM"
      }
    ]
  },
  {
    "postal": "P7G4M4",
    "result": []
  },
  {
    "postal": "P7G7M4",
    "result": []
  },
  {
    "postal": "P7G9S7",
    "result": []
  },
  {
    "postal": "P7G5Z7",
    "result": []
  },
  {
    "postal": "P7G7J7",
    "result": []
  },
  {
    "postal": "P7G8R8",
    "result": []
  },
  {
    "postal": "P7G9X1",
    "result": []
  },
  {
    "postal": "P7G5M9",
    "result": []
  },
  {
    "postal": "P7G9B4",
    "result": []
  },
  {
    "postal": "P7G0L9",
    "result": [
      {
        "electoralDistricts": [
          {
            "election": null,
            "id": 106,
            "name": "Thunder Bay—Superior North"
          }
        ],
        "pollDivisionIds": [
          10142372
        ],
        "postalCode": "P7G0L9",
        "streetName": "MOVING POST",
        "streetDirectionId": null,
        "streetTypeId": "RD",
        "placeName": "GORHAM",
        "streetNameDisplayText": "MOVING POST RD, GORHAM"
      }
    ]
  },
  {
    "postal": "P7G9G4",
    "result": []
  },
  {
    "postal": "P7G1J4",
    "result": [
      {
        "electoralDistricts": [
          {
            "election": null,
            "id": 105,
            "name": "Thunder Bay—Atikokan"
          }
        ],
        "pollDivisionIds": [
          10142311
        ],
        "postalCode": "P7G1J4",
        "streetName": "HUTTON PARK",
        "streetDirectionId": null,
        "streetTypeId": "DR",
        "placeName": "THUNDER BAY",
        "streetNameDisplayText": "HUTTON PARK DR, THUNDER BAY"
      }
    ]
  },
  {
    "postal": "P7G0W6",
    "result": [
      {
        "electoralDistricts": [
          {
            "election": null,
            "id": 106,
            "name": "Thunder Bay—Superior North"
          }
        ],
        "pollDivisionIds": [
          10142372
        ],
        "postalCode": "P7G0W6",
        "streetName": "ISLAND LAKE",
        "streetDirectionId": null,
        "streetTypeId": "RD",
        "placeName": "FOWLER",
        "streetNameDisplayText": "ISLAND LAKE RD, FOWLER"
      },
      {
        "electoralDistricts": [
          {
            "election": null,
            "id": 106,
            "name": "Thunder Bay—Superior North"
          }
        ],
        "pollDivisionIds": [
          10142372
        ],
        "postalCode": "P7G0W6",
        "streetName": "ISLAND LAKE",
        "streetDirectionId": null,
        "streetTypeId": "RD",
        "placeName": "JACQUES",
        "streetNameDisplayText": "ISLAND LAKE RD, JACQUES"
      },
      {
        "electoralDistricts": [
          {
            "election": null,
            "id": 106,
            "name": "Thunder Bay—Superior North"
          }
        ],
        "pollDivisionIds": [
          10142347
        ],
        "postalCode": "P7G0W6",
        "streetName": "ISLAND LAKE",
        "streetDirectionId": null,
        "streetTypeId": "RD",
        "placeName": "THUNDER BAY",
        "streetNameDisplayText": "ISLAND LAKE RD, THUNDER BAY"
      }
    ]
  },
  {
    "postal": "P7G4C5",
    "result": []
  },
  {
    "postal": "P7G7E4",
    "result": []
  },
  {
    "postal": "P7G1R9",
    "result": [
      {
        "electoralDistricts": [
          {
            "election": null,
            "id": 105,
            "setId": 0,
            "name": "Thunder Bay—Atikokan"
          }
        ],
        "pollDivisionIds": [
          10142301
        ],
        "postalCode": "P7G1R9",
        "streetName": "KLINE",
        "streetDirectionId": null,
        "streetTypeId": "RD",
        "placeName": "THUNDER BAY",
        "streetNameDisplayText": "KLINE RD, THUNDER BAY"
      }
    ]
  },
  {
    "postal": "P7G2P0",
    "result": []
  },
  {
    "postal": "P7G5S4",
    "result": []
  },
  {
    "postal": "P7G5K8",
    "result": []
  },
  {
    "postal": "P7G8K4",
    "result": []
  },
  {
    "postal": "P7G7C1",
    "result": []
  },
  {
    "postal": "P7G7K9",
    "result": []
  },
  {
    "postal": "P7G5J1",
    "result": []
  },
  {
    "postal": "P7G4P9",
    "result": []
  },
  {
    "postal": "P7G0N2",
    "result": [
      {
        "electoralDistricts": [
          {
            "election": null,
            "id": 106,
            "setId": 0,
            "name": "Thunder Bay—Superior North"
          }
        ],
        "pollDivisionIds": [
          10142372
        ],
        "postalCode": "P7G0N2",
        "streetName": "OLD HALL",
        "streetDirectionId": null,
        "streetTypeId": "RD",
        "placeName": "GORHAM",
        "streetNameDisplayText": "OLD HALL RD, GORHAM"
      }
    ]
  },
  {
    "postal": "P7G2G6",
    "result": [
      {
        "electoralDistricts": [
          {
            "election": null,
            "id": 105,
            "setId": 0,
            "name": "Thunder Bay—Atikokan"
          }
        ],
        "pollDivisionIds": [
          10142305
        ],
        "postalCode": "P7G2G6",
        "streetName": "DAWSON",
        "streetDirectionId": null,
        "streetTypeId": "RD",
        "placeName": "THUNDER BAY",
        "streetNameDisplayText": "DAWSON RD, THUNDER BAY"
      },
      {
        "electoralDistricts": [
          {
            "election": null,
            "id": 105,
            "setId": 0,
            "name": "Thunder Bay—Atikokan"
          }
        ],
        "pollDivisionIds": [
          10142305
        ],
        "postalCode": "P7G2G6",
        "streetName": "GUS WOURI",
        "streetDirectionId": null,
        "streetTypeId": "RD",
        "placeName": "THUNDER BAY",
        "streetNameDisplayText": "GUS WOURI RD, THUNDER BAY"
      }
    ]
  },
  {
    "postal": "P7G6P4",
    "result": []
  },
  {
    "postal": "P7G3J0",
    "result": []
  },
  {
    "postal": "P7G8X4",
    "result": []
  },
  {
    "postal": "P7G1Y3",
    "result": [
      {
        "electoralDistricts": [
          {
            "election": null,
            "id": 105,
            "setId": 0,
            "name": "Thunder Bay—Atikokan"
          }
        ],
        "pollDivisionIds": [
          10142305
        ],
        "postalCode": "P7G1Y3",
        "streetName": "BALSAM",
        "streetDirectionId": null,
        "streetTypeId": "ST",
        "placeName": "THUNDER BAY",
        "streetNameDisplayText": "BALSAM ST, THUNDER BAY"
      }
    ]
  },
  {
    "postal": "P7G1A8",
    "result": [
      {
        "electoralDistricts": [
          {
            "election": null,
            "id": 105,
            "setId": 0,
            "name": "Thunder Bay—Atikokan"
          }
        ],
        "pollDivisionIds": [
          10142305
        ],
        "postalCode": "P7G1A8",
        "streetName": "GEMSTONE",
        "streetDirectionId": null,
        "streetTypeId": "DR",
        "placeName": "THUNDER BAY",
        "streetNameDisplayText": "GEMSTONE DR, THUNDER BAY"
      },
      {
        "electoralDistricts": [
          {
            "election": null,
            "id": 105,
            "setId": 0,
            "name": "Thunder Bay—Atikokan"
          },
          {
            "election": null,
            "id": 106,
            "setId": 0,
            "name": "Thunder Bay—Superior North"
          }
        ],
        "pollDivisionIds": [
          10142305,
          10142374
        ],
        "postalCode": "P7G1A8",
        "streetName": "HILLDALE",
        "streetDirectionId": null,
        "streetTypeId": "RD",
        "placeName": "THUNDER BAY",
        "streetNameDisplayText": "HILLDALE RD, THUNDER BAY"
      },
      {
        "electoralDistricts": [
          {
            "election": null,
            "id": 105,
            "setId": 0,
            "name": "Thunder Bay—Atikokan"
          }
        ],
        "pollDivisionIds": [
          10142305
        ],
        "postalCode": "P7G1A8",
        "streetName": "SAPPHIRE",
        "streetDirectionId": null,
        "streetTypeId": "DR",
        "placeName": "THUNDER BAY",
        "streetNameDisplayText": "SAPPHIRE DR, THUNDER BAY"
      }
    ]
  },
  {
    "postal": "P7G6Y5",
    "result": []
  },
  {
    "postal": "P7G0J6",
    "result": []
  },
  {
    "postal": "P7G2C9",
    "result": [
      {
        "electoralDistricts": [
          {
            "election": null,
            "id": 105,
            "setId": 0,
            "name": "Thunder Bay—Atikokan"
          }
        ],
        "pollDivisionIds": [
          10142305
        ],
        "postalCode": "P7G2C9",
        "streetName": "WARDROPE",
        "streetDirectionId": null,
        "streetTypeId": "AVE",
        "placeName": "THUNDER BAY",
        "streetNameDisplayText": "WARDROPE AVE, THUNDER BAY"
      }
    ]
  },
  {
    "postal": "P7G8J6",
    "result": []
  },
  {
    "postal": "P7G8T4",
    "result": []
  },
  {
    "postal": "P7G1P7",
    "result": [
      {
        "electoralDistricts": [
          {
            "election": null,
            "id": 105,
            "setId": 0,
            "name": "Thunder Bay—Atikokan"
          }
        ],
        "pollDivisionIds": [
          10142301
        ],
        "postalCode": "P7G1P7",
        "streetName": "OLIVER",
        "streetDirectionId": null,
        "streetTypeId": "RD",
        "placeName": "THUNDER BAY",
        "streetNameDisplayText": "OLIVER RD, THUNDER BAY"
      }
    ]
  },
  {
    "postal": "P7G9V9",
    "result": []
  },
  {
    "postal": "P7G0M1",
    "result": [
      {
        "electoralDistricts": [
          {
            "election": null,
            "id": 106,
            "setId": 0,
            "name": "Thunder Bay—Superior North"
          }
        ],
        "pollDivisionIds": [
          10142371
        ],
        "postalCode": "P7G0M1",
        "streetName": "NORTH BRANCH",
        "streetDirectionId": null,
        "streetTypeId": "RD",
        "placeName": "GORHAM",
        "streetNameDisplayText": "NORTH BRANCH RD, GORHAM"
      }
    ]
  },
  {
    "postal": "P7G6K5",
    "result": []
  },
  {
    "postal": "P7G2T5",
    "result": []
  },
  {
    "postal": "P7G7E9",
    "result": []
  },
  {
    "postal": "P7G5K5",
    "result": []
  },
  {
    "postal": "P7G3R5",
    "result": []
  },
  {
    "postal": "P7G5B1",
    "result": []
  },
  {
    "postal": "P7G2P1",
    "result": []
  },
  {
    "postal": "P7G7L0",
    "result": []
  },
  {
    "postal": "P7G3L6",
    "result": []
  },
  {
    "postal": "P7G2A4",
    "result": [
      {
        "electoralDistricts": [
          {
            "election": null,
            "id": 105,
            "setId": 0,
            "name": "Thunder Bay—Atikokan"
          }
        ],
        "pollDivisionIds": [
          10142305
        ],
        "postalCode": "P7G2A4",
        "streetName": "MELBOURNE",
        "streetDirectionId": null,
        "streetTypeId": "RD",
        "placeName": "THUNDER BAY",
        "streetNameDisplayText": "MELBOURNE RD, THUNDER BAY"
      }
    ]
  },
  {
    "postal": "P7G8S0",
    "result": []
  },
  {
    "postal": "P7G3L5",
    "result": []
  },
  {
    "postal": "P7G2R5",
    "result": []
  },
  {
    "postal": "P7G9T6",
    "result": []
  },
  {
    "postal": "P7G8Z2",
    "result": []
  },
  {
    "postal": "P7G0E9",
    "result": [
      {
        "electoralDistricts": [
          {
            "election": null,
            "id": 106,
            "setId": 0,
            "name": "Thunder Bay—Superior North"
          }
        ],
        "pollDivisionIds": [
          10142372
        ],
        "postalCode": "P7G0E9",
        "streetName": "GOODMAN LAKE",
        "streetDirectionId": null,
        "streetTypeId": "RD",
        "placeName": "GORHAM",
        "streetNameDisplayText": "GOODMAN LAKE RD, GORHAM"
      }
    ]
  },
  {
    "postal": "P7G8C0",
    "result": []
  },
  {
    "postal": "P7G3K7",
    "result": []
  },
  {
    "postal": "P7G2H3",
    "result": [
      {
        "electoralDistricts": [
          {
            "election": null,
            "id": 105,
            "setId": 0,
            "name": "Thunder Bay—Atikokan"
          }
        ],
        "pollDivisionIds": [
          10142305
        ],
        "postalCode": "P7G2H3",
        "streetName": "BALSAM",
        "streetDirectionId": null,
        "streetTypeId": "ST",
        "placeName": "THUNDER BAY",
        "streetNameDisplayText": "BALSAM ST, THUNDER BAY"
      },
      {
        "electoralDistricts": [
          {
            "election": null,
            "id": 105,
            "setId": 0,
            "name": "Thunder Bay—Atikokan"
          }
        ],
        "pollDivisionIds": [
          10142305
        ],
        "postalCode": "P7G2H3",
        "streetName": "LANCASTER",
        "streetDirectionId": null,
        "streetTypeId": "AVE",
        "placeName": "THUNDER BAY",
        "streetNameDisplayText": "LANCASTER AVE, THUNDER BAY"
      }
    ]
  },
  {
    "postal": "P7G2Y6",
    "result": []
  },
  {
    "postal": "P7G7M2",
    "result": []
  },
  {
    "postal": "P7G6E2",
    "result": []
  },
  {
    "postal": "P7G3R0",
    "result": []
  },
  {
    "postal": "P7G4J7",
    "result": []
  },
  {
    "postal": "P7G6N8",
    "result": []
  },
  {
    "postal": "P7G0J7",
    "result": [
      {
        "electoralDistricts": [
          {
            "election": null,
            "id": 106,
            "setId": 0,
            "name": "Thunder Bay—Superior North"
          }
        ],
        "pollDivisionIds": [
          10142372
        ],
        "postalCode": "P7G0J7",
        "streetName": "KAM CURRENT",
        "streetDirectionId": null,
        "streetTypeId": "RD",
        "placeName": "GORHAM",
        "streetNameDisplayText": "KAM CURRENT RD, GORHAM"
      }
    ]
  },
  {
    "postal": "P7G7P2",
    "result": []
  },
  {
    "postal": "P7G3T8",
    "result": []
  },
  {
    "postal": "P7G3S7",
    "result": []
  },
  {
    "postal": "P7G2S7",
    "result": []
  },
  {
    "postal": "P7G1S4",
    "result": [
      {
        "electoralDistricts": [
          {
            "election": null,
            "id": 105,
            "setId": 0,
            "name": "Thunder Bay—Atikokan"
          }
        ],
        "pollDivisionIds": [
          10142301
        ],
        "postalCode": "P7G1S4",
        "streetName": "OLIVER",
        "streetDirectionId": null,
        "streetTypeId": "RD",
        "placeName": "THUNDER BAY",
        "streetNameDisplayText": "OLIVER RD, THUNDER BAY"
      }
    ]
  },
  {
    "postal": "P7G1L8",
    "result": [
      {
        "electoralDistricts": [
          {
            "election": null,
            "id": 105,
            "setId": 0,
            "name": "Thunder Bay—Atikokan"
          }
        ],
        "pollDivisionIds": [
          10142305,
          10142301
        ],
        "postalCode": "P7G1L8",
        "streetName": "GRATTON",
        "streetDirectionId": null,
        "streetTypeId": "RD",
        "placeName": "THUNDER BAY",
        "streetNameDisplayText": "GRATTON RD, THUNDER BAY"
      }
    ]
  },
  {
    "postal": "P7G8E9",
    "result": []
  },
  {
    "postal": "P7G0T0",
    "result": []
  },
  {
    "postal": "P7G3G4",
    "result": []
  },
  {
    "postal": "P7G0V6",
    "result": [
      {
        "electoralDistricts": [
          {
            "election": null,
            "id": 105,
            "setId": 0,
            "name": "Thunder Bay—Atikokan"
          }
        ],
        "pollDivisionIds": [
          10142296
        ],
        "postalCode": "P7G0V6",
        "streetName": "DAWSON",
        "streetDirectionId": null,
        "streetTypeId": "RD",
        "placeName": "MURILLO",
        "streetNameDisplayText": "DAWSON RD, MURILLO"
      }
    ]
  },
  {
    "postal": "P7G4W1",
    "result": []
  },
  {
    "postal": "P7G9G9",
    "result": []
  },
  {
    "postal": "P7G5W4",
    "result": []
  },
  {
    "postal": "P7G7M8",
    "result": []
  },
  {
    "postal": "P7G2C2",
    "result": [
      {
        "electoralDistricts": [
          {
            "election": null,
            "id": 105,
            "setId": 0,
            "name": "Thunder Bay—Atikokan"
          }
        ],
        "pollDivisionIds": [
          10142305
        ],
        "postalCode": "P7G2C2",
        "streetName": "ONION LAKE",
        "streetDirectionId": null,
        "streetTypeId": "RD",
        "placeName": "THUNDER BAY",
        "streetNameDisplayText": "ONION LAKE RD, THUNDER BAY"
      }
    ]
  },
  {
    "postal": "P7G4Y2",
    "result": []
  },
  {
    "postal": "P7G9X9",
    "result": []
  },
  {
    "postal": "P7G3T0",
    "result": []
  },
  {
    "postal": "P7G4T8",
    "result": []
  },
  {
    "postal": "P7G9C4",
    "result": []
  },
  {
    "postal": "P7G8P2",
    "result": []
  },
  {
    "postal": "P7G0Y8",
    "result": [
      {
        "electoralDistricts": [
          {
            "election": null,
            "id": 106,
            "setId": 0,
            "name": "Thunder Bay—Superior North"
          }
        ],
        "pollDivisionIds": [
          10142372
        ],
        "postalCode": "P7G0Y8",
        "streetName": "CUMMINS",
        "streetDirectionId": "N",
        "streetTypeId": "RD",
        "placeName": "JACQUES",
        "streetNameDisplayText": "CUMMINS RD N, JACQUES"
      }
    ]
  },
  {
    "postal": "P7G1G8",
    "result": [
      {
        "electoralDistricts": [
          {
            "election": null,
            "id": 105,
            "setId": 0,
            "name": "Thunder Bay—Atikokan"
          }
        ],
        "pollDivisionIds": [
          10142311
        ],
        "postalCode": "P7G1G8",
        "streetName": "JOHN STREET",
        "streetDirectionId": null,
        "streetTypeId": "RD",
        "placeName": "THUNDER BAY",
        "streetNameDisplayText": "JOHN STREET RD, THUNDER BAY"
      },
      {
        "electoralDistricts": [
          {
            "election": null,
            "id": 105,
            "setId": 0,
            "name": "Thunder Bay—Atikokan"
          }
        ],
        "pollDivisionIds": [
          10142311
        ],
        "postalCode": "P7G1G8",
        "streetName": "MERCIER",
        "streetDirectionId": null,
        "streetTypeId": "ST",
        "placeName": "THUNDER BAY",
        "streetNameDisplayText": "MERCIER ST, THUNDER BAY"
      },
      {
        "electoralDistricts": [
          {
            "election": null,
            "id": 105,
            "setId": 0,
            "name": "Thunder Bay—Atikokan"
          }
        ],
        "pollDivisionIds": [
          10142311
        ],
        "postalCode": "P7G1G8",
        "streetName": "PICCARD",
        "streetDirectionId": null,
        "streetTypeId": "AVE",
        "placeName": "THUNDER BAY",
        "streetNameDisplayText": "PICCARD AVE, THUNDER BAY"
      }
    ]
  },
  {
    "postal": "P7G2T6",
    "result": []
  },
  {
    "postal": "P7G1N7",
    "result": [
      {
        "electoralDistricts": [
          {
            "election": null,
            "id": 105,
            "setId": 0,
            "name": "Thunder Bay—Atikokan"
          }
        ],
        "pollDivisionIds": [
          10142301
        ],
        "postalCode": "P7G1N7",
        "streetName": "BECKWICK",
        "streetDirectionId": null,
        "streetTypeId": "RD",
        "placeName": "THUNDER BAY",
        "streetNameDisplayText": "BECKWICK RD, THUNDER BAY"
      }
    ]
  },
  {
    "postal": "P7G0L6",
    "result": [
      {
        "electoralDistricts": [
          {
            "election": null,
            "id": 106,
            "setId": 0,
            "name": "Thunder Bay—Superior North"
          }
        ],
        "pollDivisionIds": [
          10142372
        ],
        "postalCode": "P7G0L6",
        "streetName": "MAPLEWARD",
        "streetDirectionId": null,
        "streetTypeId": "RD",
        "placeName": "GORHAM",
        "streetNameDisplayText": "MAPLEWARD RD, GORHAM"
      },
      {
        "electoralDistricts": [
          {
            "election": null,
            "id": 106,
            "setId": 0,
            "name": "Thunder Bay—Superior North"
          }
        ],
        "pollDivisionIds": [
          10142372
        ],
        "postalCode": "P7G0L6",
        "streetName": "MAPLEWARD",
        "streetDirectionId": null,
        "streetTypeId": "RD",
        "placeName": "THUNDER BAY",
        "streetNameDisplayText": "MAPLEWARD RD, THUNDER BAY"
      }
    ]
  },
  {
    "postal": "P7G9V4",
    "result": []
  },
  {
    "postal": "P7G2V1",
    "result": []
  },
  {
    "postal": "P7G3L8",
    "result": []
  },
  {
    "postal": "P7G2R8",
    "result": []
  },
  {
    "postal": "P7G5C1",
    "result": []
  },
  {
    "postal": "P7G4W3",
    "result": []
  },
  {
    "postal": "P7G5X5",
    "result": []
  },
  {
    "postal": "P7G9W5",
    "result": []
  },
  {
    "postal": "P7G3C4",
    "result": []
  },
  {
    "postal": "P7G1N6",
    "result": [
      {
        "electoralDistricts": [
          {
            "election": null,
            "id": 105,
            "setId": 0,
            "name": "Thunder Bay—Atikokan"
          }
        ],
        "pollDivisionIds": [
          10142301,
          10142311
        ],
        "postalCode": "P7G1N6",
        "streetName": "OLIVER",
        "streetDirectionId": null,
        "streetTypeId": "RD",
        "placeName": "THUNDER BAY",
        "streetNameDisplayText": "OLIVER RD, THUNDER BAY"
      }
    ]
  },
  {
    "postal": "P7G9S9",
    "result": []
  },
  {
    "postal": "P7G9M2",
    "result": []
  },
  {
    "postal": "P7G8Y4",
    "result": []
  },
  {
    "postal": "P7G7S4",
    "result": []
  },
  {
    "postal": "P7G0K6",
    "result": [
      {
        "electoralDistricts": [
          {
            "election": null,
            "id": 106,
            "setId": 0,
            "name": "Thunder Bay—Superior North"
          }
        ],
        "pollDivisionIds": [
          10142370
        ],
        "postalCode": "P7G0K6",
        "streetName": "KANNASTO",
        "streetDirectionId": null,
        "streetTypeId": "DR",
        "placeName": "GORHAM",
        "streetNameDisplayText": "KANNASTO DR, GORHAM"
      }
    ]
  },
  {
    "postal": "P7G1W3",
    "result": [
      {
        "electoralDistricts": [
          {
            "election": null,
            "id": 105,
            "setId": 0,
            "name": "Thunder Bay—Atikokan"
          }
        ],
        "pollDivisionIds": [
          10142305
        ],
        "postalCode": "P7G1W3",
        "streetName": "TOWNLINE",
        "streetDirectionId": null,
        "streetTypeId": "RD",
        "placeName": "THUNDER BAY",
        "streetNameDisplayText": "TOWNLINE RD, THUNDER BAY"
      }
    ]
  },
  {
    "postal": "P7G7R2",
    "result": []
  },
  {
    "postal": "P7G2Y9",
    "result": []
  },
  {
    "postal": "P7G7G4",
    "result": []
  },
  {
    "postal": "P7G7E5",
    "result": []
  },
  {
    "postal": "P7G9G2",
    "result": []
  },
  {
    "postal": "P7G7Y8",
    "result": []
  },
  {
    "postal": "P7G9V2",
    "result": []
  },
  {
    "postal": "P7G3T7",
    "result": []
  },
  {
    "postal": "P7G1H0",
    "result": []
  },
  {
    "postal": "P7G1M7",
    "result": [
      {
        "electoralDistricts": [
          {
            "election": null,
            "id": 105,
            "setId": 0,
            "name": "Thunder Bay—Atikokan"
          }
        ],
        "pollDivisionIds": [
          10142301,
          10142305
        ],
        "postalCode": "P7G1M7",
        "streetName": "JOHN STREET",
        "streetDirectionId": null,
        "streetTypeId": "RD",
        "placeName": "THUNDER BAY",
        "streetNameDisplayText": "JOHN STREET RD, THUNDER BAY"
      }
    ]
  },
  {
    "postal": "P7G8V4",
    "result": []
  },
  {
    "postal": "P7G4M2",
    "result": []
  },
  {
    "postal": "P7G0X2",
    "result": [
      {
        "electoralDistricts": [
          {
            "election": null,
            "id": 106,
            "setId": 0,
            "name": "Thunder Bay—Superior North"
          }
        ],
        "pollDivisionIds": [
          10142372
        ],
        "postalCode": "P7G0X2",
        "streetName": "ALEXSON",
        "streetDirectionId": null,
        "streetTypeId": "RD",
        "placeName": "FOWLER",
        "streetNameDisplayText": "ALEXSON RD, FOWLER"
      },
      {
        "electoralDistricts": [
          {
            "election": null,
            "id": 106,
            "setId": 0,
            "name": "Thunder Bay—Superior North"
          }
        ],
        "pollDivisionIds": [
          10142372
        ],
        "postalCode": "P7G0X2",
        "streetName": "AXELSON",
        "streetDirectionId": null,
        "streetTypeId": "RD",
        "placeName": "FOWLER",
        "streetNameDisplayText": "AXELSON RD, FOWLER"
      }
    ]
  },
  {
    "postal": "P7G5Z4",
    "result": []
  },
  {
    "postal": "P7G6V4",
    "result": []
  },
  {
    "postal": "P7G8J3",
    "result": []
  },
  {
    "postal": "P7G8E5",
    "result": []
  },
  {
    "postal": "P7G2V5",
    "result": []
  },
  {
    "postal": "P7G7S1",
    "result": []
  },
  {
    "postal": "P7G6V3",
    "result": []
  },
  {
    "postal": "P7G2L8",
    "result": []
  },
  {
    "postal": "P7G9V0",
    "result": []
  },
  {
    "postal": "P7G3M4",
    "result": []
  },
  {
    "postal": "P7G5B2",
    "result": []
  },
  {
    "postal": "P7G3X5",
    "result": []
  },
  {
    "postal": "P7G9R7",
    "result": []
  },
  {
    "postal": "P7G2X2",
    "result": []
  },
  {
    "postal": "P7G8Z6",
    "result": []
  },
  {
    "postal": "P7G4R4",
    "result": []
  },
  {
    "postal": "P7G2R1",
    "result": []
  },
  {
    "postal": "P7G3R8",
    "result": []
  },
  {
    "postal": "P7G9A1",
    "result": []
  },
  {
    "postal": "P7G8L3",
    "result": []
  },
  {
    "postal": "P7G9K4",
    "result": []
  },
  {
    "postal": "P7G9S3",
    "result": []
  },
  {
    "postal": "P7G8N7",
    "result": []
  },
  {
    "postal": "P7G1C6",
    "result": [
      {
        "electoralDistricts": [
          {
            "election": null,
            "id": 105,
            "setId": 0,
            "name": "Thunder Bay—Atikokan"
          }
        ],
        "pollDivisionIds": [
          10142311
        ],
        "postalCode": "P7G1C6",
        "streetName": "HUTTON PARK",
        "streetDirectionId": null,
        "streetTypeId": "DR",
        "placeName": "THUNDER BAY",
        "streetNameDisplayText": "HUTTON PARK DR, THUNDER BAY"
      },
      {
        "electoralDistricts": [
          {
            "election": null,
            "id": 105,
            "setId": 0,
            "name": "Thunder Bay—Atikokan"
          }
        ],
        "pollDivisionIds": [
          10142311
        ],
        "postalCode": "P7G1C6",
        "streetName": "JASMINE",
        "streetDirectionId": null,
        "streetTypeId": "CRT",
        "placeName": "THUNDER BAY",
        "streetNameDisplayText": "JASMINE CRT, THUNDER BAY"
      },
      {
        "electoralDistricts": [
          {
            "election": null,
            "id": 105,
            "setId": 0,
            "name": "Thunder Bay—Atikokan"
          }
        ],
        "pollDivisionIds": [
          10142311
        ],
        "postalCode": "P7G1C6",
        "streetName": "MAYFLOWER",
        "streetDirectionId": null,
        "streetTypeId": "DR",
        "placeName": "THUNDER BAY",
        "streetNameDisplayText": "MAYFLOWER DR, THUNDER BAY"
      }
    ]
  },
  {
    "postal": "P7G3Z8",
    "result": []
  },
  {
    "postal": "P7G8G5",
    "result": []
  },
  {
    "postal": "P7G5R6",
    "result": []
  },
  {
    "postal": "P7G2W3",
    "result": []
  },
  {
    "postal": "P7G0A0",
    "result": []
  },
  {
    "postal": "P7G6P8",
    "result": []
  },
  {
    "postal": "P7G8N9",
    "result": []
  },
  {
    "postal": "P7G0S9",
    "result": [
      {
        "electoralDistricts": [
          {
            "election": null,
            "id": 106,
            "setId": 0,
            "name": "Thunder Bay—Superior North"
          }
        ],
        "pollDivisionIds": [
          10142372
        ],
        "postalCode": "P7G0S9",
        "streetName": "TULIN",
        "streetDirectionId": null,
        "streetTypeId": "RD",
        "placeName": "GORHAM",
        "streetNameDisplayText": "TULIN RD, GORHAM"
      },
      {
        "electoralDistricts": [
          {
            "election": null,
            "id": 106,
            "setId": 0,
            "name": "Thunder Bay—Superior North"
          }
        ],
        "pollDivisionIds": [
          10142372
        ],
        "postalCode": "P7G0S9",
        "streetName": "TULINS",
        "streetDirectionId": null,
        "streetTypeId": "RD",
        "placeName": "GORHAM",
        "streetNameDisplayText": "TULINS RD, GORHAM"
      }
    ]
  },
  {
    "postal": "P7G8G0",
    "result": []
  },
  {
    "postal": "P7G8C7",
    "result": []
  },
  {
    "postal": "P7G5X8",
    "result": []
  },
  {
    "postal": "P7G7E8",
    "result": []
  },
  {
    "postal": "P7G6X2",
    "result": []
  },
  {
    "postal": "P7G4C6",
    "result": []
  },
  {
    "postal": "P7G7H2",
    "result": []
  },
  {
    "postal": "P7G4R0",
    "result": []
  },
  {
    "postal": "P7G6J3",
    "result": []
  },
  {
    "postal": "P7G4B8",
    "result": []
  },
  {
    "postal": "P7G6H6",
    "result": []
  },
  {
    "postal": "P7G0S1",
    "result": [
      {
        "electoralDistricts": [
          {
            "election": null,
            "id": 106,
            "setId": 0,
            "name": "Thunder Bay—Superior North"
          }
        ],
        "pollDivisionIds": [
          10142372
        ],
        "postalCode": "P7G0S1",
        "streetName": "STONEHILL",
        "streetDirectionId": null,
        "streetTypeId": "RD",
        "placeName": "GORHAM",
        "streetNameDisplayText": "STONEHILL RD, GORHAM"
      }
    ]
  },
  {
    "postal": "P7G4E3",
    "result": []
  },
  {
    "postal": "P7G7K2",
    "result": []
  },
  {
    "postal": "P7G7T8",
    "result": []
  },
  {
    "postal": "P7G0J9",
    "result": [
      {
        "electoralDistricts": [
          {
            "election": null,
            "id": 106,
            "setId": 0,
            "name": "Thunder Bay—Superior North"
          }
        ],
        "pollDivisionIds": [
          10142372
        ],
        "postalCode": "P7G0J9",
        "streetName": "KAM CURRENT",
        "streetDirectionId": null,
        "streetTypeId": "RD",
        "placeName": "GORHAM",
        "streetNameDisplayText": "KAM CURRENT RD, GORHAM"
      },
      {
        "electoralDistricts": [
          {
            "election": null,
            "id": 106,
            "setId": 0,
            "name": "Thunder Bay—Superior North"
          }
        ],
        "pollDivisionIds": [
          10142372
        ],
        "postalCode": "P7G0J9",
        "streetName": "KAM-CURRENT",
        "streetDirectionId": null,
        "streetTypeId": "RD",
        "placeName": "GORHAM",
        "streetNameDisplayText": "KAM-CURRENT RD, GORHAM"
      }
    ]
  },
  {
    "postal": "P7G5J9",
    "result": []
  },
  {
    "postal": "P7G5S7",
    "result": []
  },
  {
    "postal": "P7G0G9",
    "result": [
      {
        "electoralDistricts": [
          {
            "election": null,
            "id": 106,
            "setId": 0,
            "name": "Thunder Bay—Superior North"
          }
        ],
        "pollDivisionIds": [
          10142370
        ],
        "postalCode": "P7G0G9",
        "streetName": "GRONROOS",
        "streetDirectionId": null,
        "streetTypeId": "DR",
        "placeName": "GORHAM",
        "streetNameDisplayText": "GRONROOS DR, GORHAM"
      }
    ]
  },
  {
    "postal": "P7G3J9",
    "result": []
  },
  {
    "postal": "P7G2Y0",
    "result": []
  },
  {
    "postal": "P7G8X5",
    "result": []
  },
  {
    "postal": "P7G2M7",
    "result": [
      {
        "electoralDistricts": [
          {
            "election": null,
            "id": 105,
            "setId": 0,
            "name": "Thunder Bay—Atikokan"
          }
        ],
        "pollDivisionIds": [
          10142305
        ],
        "postalCode": "P7G2M7",
        "streetName": "BURGUNDY",
        "streetDirectionId": null,
        "streetTypeId": "AVE",
        "placeName": "THUNDER BAY",
        "streetNameDisplayText": "BURGUNDY AVE, THUNDER BAY"
      }
    ]
  },
  {
    "postal": "P7G9Z3",
    "result": []
  },
  {
    "postal": "P7G7W2",
    "result": []
  },
  {
    "postal": "P7G3W0",
    "result": []
  },
  {
    "postal": "P7G3M1",
    "result": []
  },
  {
    "postal": "P7G6A5",
    "result": []
  },
  {
    "postal": "P7G2M9",
    "result": [
      {
        "electoralDistricts": [
          {
            "election": null,
            "id": 105,
            "setId": 0,
            "name": "Thunder Bay—Atikokan"
          }
        ],
        "pollDivisionIds": [
          10142305
        ],
        "postalCode": "P7G2M9",
        "streetName": "AQUAMARINE",
        "streetDirectionId": null,
        "streetTypeId": "DR",
        "placeName": "THUNDER BAY",
        "streetNameDisplayText": "AQUAMARINE DR, THUNDER BAY"
      }
    ]
  },
  {
    "postal": "P7G5C3",
    "result": []
  },
  {
    "postal": "P7G0Y6",
    "result": [
      {
        "electoralDistricts": [
          {
            "election": null,
            "id": 106,
            "setId": 0,
            "name": "Thunder Bay—Superior North"
          }
        ],
        "pollDivisionIds": [
          10142372
        ],
        "postalCode": "P7G0Y6",
        "streetName": "WARNICA LAKE WEST",
        "streetDirectionId": "W",
        "streetTypeId": "RD",
        "placeName": "JACQUES",
        "streetNameDisplayText": "WARNICA LAKE WEST RD W, JACQUES"
      },
      {
        "electoralDistricts": [
          {
            "election": null,
            "id": 105,
            "setId": 0,
            "name": "Thunder Bay—Atikokan"
          }
        ],
        "pollDivisionIds": [
          10142305
        ],
        "postalCode": "P7G0Y6",
        "streetName": "WARNICA",
        "streetDirectionId": "W",
        "streetTypeId": null,
        "placeName": "JACQUES",
        "streetNameDisplayText": "WARNICA W, JACQUES"
      }
    ]
  },
  {
    "postal": "P7G9H7",
    "result": []
  },
  {
    "postal": "P7G3L0",
    "result": []
  },
  {
    "postal": "P7G5N9",
    "result": []
  },
  {
    "postal": "P7G5E3",
    "result": [
      {
        "electoralDistricts": [
          {
            "election": null,
            "id": 106,
            "setId": 0,
            "name": "Thunder Bay—Superior North"
          }
        ],
        "pollDivisionIds": [
          10142372
        ],
        "postalCode": "P7G5E3",
        "streetName": "INTOLA",
        "streetDirectionId": null,
        "streetTypeId": "RD",
        "placeName": "THUNDER BAY",
        "streetNameDisplayText": "INTOLA RD, THUNDER BAY"
      }
    ]
  },
  {
    "postal": "P7G7M9",
    "result": []
  },
  {
    "postal": "P7G8N2",
    "result": []
  },
  {
    "postal": "P7G9H3",
    "result": []
  },
  {
    "postal": "P7G2K8",
    "result": []
  },
  {
    "postal": "P7G9L0",
    "result": []
  },
  {
    "postal": "P7G6L9",
    "result": []
  },
  {
    "postal": "P7G6A8",
    "result": []
  },
  {
    "postal": "P7G2K6",
    "result": [
      {
        "electoralDistricts": [
          {
            "election": null,
            "id": 105,
            "setId": 0,
            "name": "Thunder Bay—Atikokan"
          }
        ],
        "pollDivisionIds": [
          10142305
        ],
        "postalCode": "P7G2K6",
        "streetName": "ALICE",
        "streetDirectionId": null,
        "streetTypeId": "AVE",
        "placeName": "THUNDER BAY",
        "streetNameDisplayText": "ALICE AVE, THUNDER BAY"
      }
    ]
  },
  {
    "postal": "P7G2M0",
    "result": []
  },
  {
    "postal": "P7G5X7",
    "result": []
  },
  {
    "postal": "P7G0M7",
    "result": []
  },
  {
    "postal": "P7G7A6",
    "result": []
  },
  {
    "postal": "P7G3C5",
    "result": []
  },
  {
    "postal": "P7G2P2",
    "result": [
      {
        "electoralDistricts": [
          {
            "election": null,
            "id": 106,
            "setId": 0,
            "name": "Thunder Bay—Superior North"
          }
        ],
        "pollDivisionIds": [
          10142374
        ],
        "postalCode": "P7G2P2",
        "streetName": "SILVERSTONE",
        "streetDirectionId": null,
        "streetTypeId": "CRT",
        "placeName": "THUNDER BAY",
        "streetNameDisplayText": "SILVERSTONE CRT, THUNDER BAY"
      },
      {
        "electoralDistricts": [
          {
            "election": null,
            "id": 105,
            "setId": 0,
            "name": "Thunder Bay—Atikokan"
          }
        ],
        "pollDivisionIds": [
          10142305
        ],
        "postalCode": "P7G2P2",
        "streetName": "SILVERSTONE",
        "streetDirectionId": null,
        "streetTypeId": "PL",
        "placeName": "THUNDER BAY",
        "streetNameDisplayText": "SILVERSTONE PL, THUNDER BAY"
      }
    ]
  },
  {
    "postal": "P7G9N4",
    "result": []
  },
  {
    "postal": "P7G3M9",
    "result": []
  },
  {
    "postal": "P7G8K6",
    "result": []
  },
  {
    "postal": "P7G1L2",
    "result": [
      {
        "electoralDistricts": [
          {
            "election": null,
            "id": 105,
            "setId": 0,
            "name": "Thunder Bay—Atikokan"
          }
        ],
        "pollDivisionIds": [
          10142301
        ],
        "postalCode": "P7G1L2",
        "streetName": "JOHN ST.",
        "streetDirectionId": null,
        "streetTypeId": "RD",
        "placeName": "THUNDER BAY",
        "streetNameDisplayText": "JOHN ST. RD, THUNDER BAY"
      },
      {
        "electoralDistricts": [
          {
            "election": null,
            "id": 105,
            "setId": 0,
            "name": "Thunder Bay—Atikokan"
          }
        ],
        "pollDivisionIds": [
          10142301
        ],
        "postalCode": "P7G1L2",
        "streetName": "JOHN STREET",
        "streetDirectionId": null,
        "streetTypeId": "RD",
        "placeName": "THUNDER BAY",
        "streetNameDisplayText": "JOHN STREET RD, THUNDER BAY"
      }
    ]
  },
  {
    "postal": "P7G2Z9",
    "result": []
  },
  {
    "postal": "P7G2S2",
    "result": []
  },
  {
    "postal": "P7G2W2",
    "result": []
  },
  {
    "postal": "P7G2C3",
    "result": [
      {
        "electoralDistricts": [
          {
            "election": null,
            "id": 105,
            "setId": 0,
            "name": "Thunder Bay—Atikokan"
          }
        ],
        "pollDivisionIds": [
          10142305
        ],
        "postalCode": "P7G2C3",
        "streetName": "ONION LAKE",
        "streetDirectionId": null,
        "streetTypeId": "RD",
        "placeName": "THUNDER BAY",
        "streetNameDisplayText": "ONION LAKE RD, THUNDER BAY"
      }
    ]
  },
  {
    "postal": "P7G6L7",
    "result": []
  },
  {
    "postal": "P7G3K0",
    "result": []
  },
  {
    "postal": "P7G3C1",
    "result": []
  },
  {
    "postal": "P7G6M9",
    "result": []
  },
  {
    "postal": "P7G4N9",
    "result": []
  },
  {
    "postal": "P7G3Y7",
    "result": []
  },
  {
    "postal": "P7G2A9",
    "result": [
      {
        "electoralDistricts": [
          {
            "election": null,
            "id": 105,
            "setId": 0,
            "name": "Thunder Bay—Atikokan"
          }
        ],
        "pollDivisionIds": [
          10142305
        ],
        "postalCode": "P7G2A9",
        "streetName": "MELBOURNE",
        "streetDirectionId": null,
        "streetTypeId": "RD",
        "placeName": "THUNDER BAY",
        "streetNameDisplayText": "MELBOURNE RD, THUNDER BAY"
      }
    ]
  },
  {
    "postal": "P7G6H5",
    "result": []
  },
  {
    "postal": "P7G8B4",
    "result": []
  },
  {
    "postal": "P7G4Z2",
    "result": []
  },
  {
    "postal": "P7G9J0",
    "result": []
  },
  {
    "postal": "P7G7V7",
    "result": []
  },
  {
    "postal": "P7G5T5",
    "result": []
  },
  {
    "postal": "P7G4W5",
    "result": []
  },
  {
    "postal": "P7G1T8",
    "result": [
      {
        "electoralDistricts": [
          {
            "election": null,
            "id": 105,
            "setId": 0,
            "name": "Thunder Bay—Atikokan"
          }
        ],
        "pollDivisionIds": [
          10142305
        ],
        "postalCode": "P7G1T8",
        "streetName": "GOVERNMENT",
        "streetDirectionId": null,
        "streetTypeId": "RD",
        "placeName": "THUNDER BAY",
        "streetNameDisplayText": "GOVERNMENT RD, THUNDER BAY"
      }
    ]
  },
  {
    "postal": "P7G9G6",
    "result": []
  },
  {
    "postal": "P7G1H3",
    "result": [
      {
        "electoralDistricts": [
          {
            "election": null,
            "id": 105,
            "setId": 0,
            "name": "Thunder Bay—Atikokan"
          }
        ],
        "pollDivisionIds": [
          10142305
        ],
        "postalCode": "P7G1H3",
        "streetName": "FENWOOD",
        "streetDirectionId": null,
        "streetTypeId": "DR",
        "placeName": "THUNDER BAY",
        "streetNameDisplayText": "FENWOOD DR, THUNDER BAY"
      }
    ]
  },
  {
    "postal": "P7G5R5",
    "result": []
  },
  {
    "postal": "P7G8A4",
    "result": []
  },
  {
    "postal": "P7G3T6",
    "result": []
  },
  {
    "postal": "P7G9W8",
    "result": []
  },
  {
    "postal": "P7G0N3",
    "result": [
      {
        "electoralDistricts": [
          {
            "election": null,
            "id": 106,
            "setId": 0,
            "name": "Thunder Bay—Superior North"
          }
        ],
        "pollDivisionIds": [
          10142371
        ],
        "postalCode": "P7G0N3",
        "streetName": "OLMALA",
        "streetDirectionId": null,
        "streetTypeId": "RD",
        "placeName": "GORHAM",
        "streetNameDisplayText": "OLMALA RD, GORHAM"
      }
    ]
  },
  {
    "postal": "P7G7V0",
    "result": []
  },
  {
    "postal": "P7G8T5",
    "result": []
  },
  {
    "postal": "P7G5N3",
    "result": []
  },
  {
    "postal": "P7G5G9",
    "result": []
  },
  {
    "postal": "P7G3X8",
    "result": []
  },
  {
    "postal": "P7G9R3",
    "result": []
  },
  {
    "postal": "P7G2S1",
    "result": []
  },
  {
    "postal": "P7G9J7",
    "result": []
  },
  {
    "postal": "P7G2J3",
    "result": [
      {
        "electoralDistricts": [
          {
            "election": null,
            "id": 105,
            "setId": 0,
            "name": "Thunder Bay—Atikokan"
          }
        ],
        "pollDivisionIds": [
          10142305
        ],
        "postalCode": "P7G2J3",
        "streetName": "DOG LAKE",
        "streetDirectionId": null,
        "streetTypeId": "RD",
        "placeName": "THUNDER BAY",
        "streetNameDisplayText": "DOG LAKE RD, THUNDER BAY"
      },
      {
        "electoralDistricts": [
          {
            "election": null,
            "id": 105,
            "setId": 0,
            "name": "Thunder Bay—Atikokan"
          }
        ],
        "pollDivisionIds": [
          10142305
        ],
        "postalCode": "P7G2J3",
        "streetName": "MELBOURNE",
        "streetDirectionId": null,
        "streetTypeId": "RD",
        "placeName": "THUNDER BAY",
        "streetNameDisplayText": "MELBOURNE RD, THUNDER BAY"
      }
    ]
  },
  {
    "postal": "P7G3B6",
    "result": []
  },
  {
    "postal": "P7G8J0",
    "result": []
  },
  {
    "postal": "P7G7R4",
    "result": []
  },
  {
    "postal": "P7G8K8",
    "result": []
  },
  {
    "postal": "P7G4P3",
    "result": []
  },
  {
    "postal": "P7G0A2",
    "result": [
      {
        "electoralDistricts": [
          {
            "election": null,
            "id": 106,
            "setId": 0,
            "name": "Thunder Bay—Superior North"
          }
        ],
        "pollDivisionIds": [
          10142374,
          10111311
        ],
        "postalCode": "P7G0A2",
        "streetName": "HILLDALE",
        "streetDirectionId": null,
        "streetTypeId": "RD",
        "placeName": "THUNDER BAY",
        "streetNameDisplayText": "HILLDALE RD, THUNDER BAY"
      }
    ]
  },
  {
    "postal": "P7G2G2",
    "result": [
      {
        "electoralDistricts": [
          {
            "election": null,
            "id": 105,
            "setId": 0,
            "name": "Thunder Bay—Atikokan"
          }
        ],
        "pollDivisionIds": [
          10142305
        ],
        "postalCode": "P7G2G2",
        "streetName": "DAWSON",
        "streetDirectionId": null,
        "streetTypeId": "RD",
        "placeName": "THUNDER BAY",
        "streetNameDisplayText": "DAWSON RD, THUNDER BAY"
      },
      {
        "electoralDistricts": [
          {
            "election": null,
            "id": 105,
            "setId": 0,
            "name": "Thunder Bay—Atikokan"
          }
        ],
        "pollDivisionIds": [
          10142305
        ],
        "postalCode": "P7G2G2",
        "streetName": "DOG LAKE",
        "streetDirectionId": null,
        "streetTypeId": "RD",
        "placeName": "THUNDER BAY",
        "streetNameDisplayText": "DOG LAKE RD, THUNDER BAY"
      },
      {
        "electoralDistricts": [
          {
            "election": null,
            "id": 106,
            "setId": 0,
            "name": "Thunder Bay—Superior North"
          }
        ],
        "pollDivisionIds": [
          10142372
        ],
        "postalCode": "P7G2G2",
        "streetName": "WARE NORTH",
        "streetDirectionId": null,
        "streetTypeId": "RD",
        "placeName": "THUNDER BAY",
        "streetNameDisplayText": "WARE NORTH RD, THUNDER BAY"
      }
    ]
  },
  {
    "postal": "P7G5Y9",
    "result": []
  },
  {
    "postal": "P7G7X0",
    "result": []
  },
  {
    "postal": "P7G7W3",
    "result": []
  },
  {
    "postal": "P7G7X5",
    "result": []
  },
  {
    "postal": "P7G5K6",
    "result": []
  },
  {
    "postal": "P7G5B6",
    "result": []
  },
  {
    "postal": "P7G7Z0",
    "result": []
  },
  {
    "postal": "P7G9H6",
    "result": []
  },
  {
    "postal": "P7G1B4",
    "result": [
      {
        "electoralDistricts": [
          {
            "election": null,
            "id": 105,
            "setId": 0,
            "name": "Thunder Bay—Atikokan"
          }
        ],
        "pollDivisionIds": [
          10142311
        ],
        "postalCode": "P7G1B4",
        "streetName": "NOTTINGHAM",
        "streetDirectionId": null,
        "streetTypeId": "CRES",
        "placeName": "THUNDER BAY",
        "streetNameDisplayText": "NOTTINGHAM CRES, THUNDER BAY"
      }
    ]
  },
  {
    "postal": "P7G1A0",
    "result": []
  },
  {
    "postal": "P7G9A0",
    "result": []
  },
  {
    "postal": "P7G1M6",
    "result": [
      {
        "electoralDistricts": [
          {
            "election": null,
            "id": 105,
            "setId": 0,
            "name": "Thunder Bay—Atikokan"
          }
        ],
        "pollDivisionIds": [
          10142305,
          10142301
        ],
        "postalCode": "P7G1M6",
        "streetName": "COMMUNITY HALL",
        "streetDirectionId": null,
        "streetTypeId": "RD",
        "placeName": "THUNDER BAY",
        "streetNameDisplayText": "COMMUNITY HALL RD, THUNDER BAY"
      }
    ]
  },
  {
    "postal": "P7G5H0",
    "result": []
  },
  {
    "postal": "P7G1K6",
    "result": [
      {
        "electoralDistricts": [
          {
            "election": null,
            "id": 105,
            "setId": 0,
            "name": "Thunder Bay—Atikokan"
          }
        ],
        "pollDivisionIds": [
          10142301
        ],
        "postalCode": "P7G1K6",
        "streetName": "OLIVER",
        "streetDirectionId": null,
        "streetTypeId": "RD",
        "placeName": "THUNDER BAY",
        "streetNameDisplayText": "OLIVER RD, THUNDER BAY"
      }
    ]
  },
  {
    "postal": "P7G5E1",
    "result": []
  },
  {
    "postal": "P7G3T9",
    "result": []
  },
  {
    "postal": "P7G2M6",
    "result": [
      {
        "electoralDistricts": [
          {
            "election": null,
            "id": 105,
            "setId": 0,
            "name": "Thunder Bay—Atikokan"
          }
        ],
        "pollDivisionIds": [
          10142305
        ],
        "postalCode": "P7G2M6",
        "streetName": "BURGUNDY",
        "streetDirectionId": null,
        "streetTypeId": "AVE",
        "placeName": "THUNDER BAY",
        "streetNameDisplayText": "BURGUNDY AVE, THUNDER BAY"
      }
    ]
  },
  {
    "postal": "P7G0G5",
    "result": [
      {
        "electoralDistricts": [
          {
            "election": null,
            "id": 106,
            "setId": 0,
            "name": "Thunder Bay—Superior North"
          }
        ],
        "pollDivisionIds": [
          10142372
        ],
        "postalCode": "P7G0G5",
        "streetName": "GOREVALE",
        "streetDirectionId": null,
        "streetTypeId": "RD",
        "placeName": "GORHAM",
        "streetNameDisplayText": "GOREVALE RD, GORHAM"
      }
    ]
  },
  {
    "postal": "P7G0Y2",
    "result": [
      {
        "electoralDistricts": [
          {
            "election": null,
            "id": 106,
            "setId": 0,
            "name": "Thunder Bay—Superior North"
          }
        ],
        "pollDivisionIds": [
          10142372
        ],
        "postalCode": "P7G0Y2",
        "streetName": "HOWCUM  LAKE",
        "streetDirectionId": null,
        "streetTypeId": "RD",
        "placeName": "JACQUES",
        "streetNameDisplayText": "HOWCUM  LAKE RD, JACQUES"
      },
      {
        "electoralDistricts": [
          {
            "election": null,
            "id": 106,
            "setId": 0,
            "name": "Thunder Bay—Superior North"
          }
        ],
        "pollDivisionIds": [
          10142372
        ],
        "postalCode": "P7G0Y2",
        "streetName": "HOWCUM LAKE",
        "streetDirectionId": null,
        "streetTypeId": "RD",
        "placeName": "JACQUES",
        "streetNameDisplayText": "HOWCUM LAKE RD, JACQUES"
      }
    ]
  },
  {
    "postal": "P7G2Y7",
    "result": []
  },
  {
    "postal": "P7G2J7",
    "result": [
      {
        "electoralDistricts": [
          {
            "election": null,
            "id": 105,
            "setId": 0,
            "name": "Thunder Bay—Atikokan"
          }
        ],
        "pollDivisionIds": [
          10142305
        ],
        "postalCode": "P7G2J7",
        "streetName": "ALTON",
        "streetDirectionId": null,
        "streetTypeId": "RD",
        "placeName": "THUNDER BAY",
        "streetNameDisplayText": "ALTON RD, THUNDER BAY"
      }
    ]
  },
  {
    "postal": "P7G4K7",
    "result": []
  },
  {
    "postal": "P7G7P9",
    "result": []
  },
  {
    "postal": "P7G8X0",
    "result": []
  },
  {
    "postal": "P7G3X1",
    "result": []
  },
  {
    "postal": "P7G1R5",
    "result": [
      {
        "electoralDistricts": [
          {
            "election": null,
            "id": 105,
            "setId": 0,
            "name": "Thunder Bay—Atikokan"
          }
        ],
        "pollDivisionIds": [
          10142301
        ],
        "postalCode": "P7G1R5",
        "streetName": "OLIVER",
        "streetDirectionId": null,
        "streetTypeId": "RD",
        "placeName": "THUNDER BAY",
        "streetNameDisplayText": "OLIVER RD, THUNDER BAY"
      }
    ]
  },
  {
    "postal": "P7G6X6",
    "result": []
  },
  {
    "postal": "P7G0Y1",
    "result": [
      {
        "electoralDistricts": [
          {
            "election": null,
            "id": 106,
            "setId": 0,
            "name": "Thunder Bay—Superior North"
          }
        ],
        "pollDivisionIds": [
          10142372,
          10111257
        ],
        "postalCode": "P7G0Y1",
        "streetName": "TWO ISLAND LAKE",
        "streetDirectionId": null,
        "streetTypeId": "RD",
        "placeName": "JACQUES",
        "streetNameDisplayText": "TWO ISLAND LAKE RD, JACQUES"
      }
    ]
  },
  {
    "postal": "P7G8G1",
    "result": []
  },
  {
    "postal": "P7G3J3",
    "result": []
  },
  {
    "postal": "P7G8C2",
    "result": []
  },
  {
    "postal": "P7G4X9",
    "result": []
  },
  {
    "postal": "P7G6G9",
    "result": []
  },
  {
    "postal": "P7G4M3",
    "result": []
  },
  {
    "postal": "P7G9P7",
    "result": []
  },
  {
    "postal": "P7G4E5",
    "result": []
  },
  {
    "postal": "P7G5K9",
    "result": []
  },
  {
    "postal": "P7G2V2",
    "result": []
  },
  {
    "postal": "P7G2N9",
    "result": [
      {
        "electoralDistricts": [
          {
            "election": null,
            "id": 105,
            "setId": 0,
            "name": "Thunder Bay—Atikokan"
          }
        ],
        "pollDivisionIds": [
          10142311
        ],
        "postalCode": "P7G2N9",
        "streetName": "DOGWOOD",
        "streetDirectionId": null,
        "streetTypeId": "CRES",
        "placeName": "THUNDER BAY",
        "streetNameDisplayText": "DOGWOOD CRES, THUNDER BAY"
      },
      {
        "electoralDistricts": [
          {
            "election": null,
            "id": 105,
            "setId": 0,
            "name": "Thunder Bay—Atikokan"
          }
        ],
        "pollDivisionIds": [
          10142311
        ],
        "postalCode": "P7G2N9",
        "streetName": "DOGWOOD",
        "streetDirectionId": null,
        "streetTypeId": "CRT",
        "placeName": "THUNDER BAY",
        "streetNameDisplayText": "DOGWOOD CRT, THUNDER BAY"
      }
    ]
  },
  {
    "postal": "P7G6L4",
    "result": []
  },
  {
    "postal": "P7G8E0",
    "result": []
  },
  {
    "postal": "P7G0N0",
    "result": []
  },
  {
    "postal": "P7G6R0",
    "result": []
  },
  {
    "postal": "P7G9C1",
    "result": []
  },
  {
    "postal": "P7G4H4",
    "result": []
  },
  {
    "postal": "P7G5W3",
    "result": []
  },
  {
    "postal": "P7G9N9",
    "result": []
  },
  {
    "postal": "P7G1V7",
    "result": [
      {
        "electoralDistricts": [
          {
            "election": null,
            "id": 105,
            "setId": 0,
            "name": "Thunder Bay—Atikokan"
          }
        ],
        "pollDivisionIds": [
          10142305
        ],
        "postalCode": "P7G1V7",
        "streetName": "GOVERNMENT",
        "streetDirectionId": null,
        "streetTypeId": "RD",
        "placeName": "THUNDER BAY",
        "streetNameDisplayText": "GOVERNMENT RD, THUNDER BAY"
      }
    ]
  },
  {
    "postal": "P7G8J1",
    "result": []
  },
  {
    "postal": "P7G5V9",
    "result": []
  },
  {
    "postal": "P7G2S8",
    "result": []
  },
  {
    "postal": "P7G6P0",
    "result": []
  },
  {
    "postal": "P7G4J8",
    "result": []
  },
  {
    "postal": "P7G0N1",
    "result": [
      {
        "electoralDistricts": [
          {
            "election": null,
            "id": 106,
            "setId": 0,
            "name": "Thunder Bay—Superior North"
          }
        ],
        "pollDivisionIds": [
          10142372
        ],
        "postalCode": "P7G0N1",
        "streetName": "OLD HALL",
        "streetDirectionId": null,
        "streetTypeId": "RD",
        "placeName": "GORHAM",
        "streetNameDisplayText": "OLD HALL RD, GORHAM"
      },
      {
        "electoralDistricts": [
          {
            "election": null,
            "id": 106,
            "setId": 0,
            "name": "Thunder Bay—Superior North"
          }
        ],
        "pollDivisionIds": [
          10142372
        ],
        "postalCode": "P7G0N1",
        "streetName": "OLD MILL",
        "streetDirectionId": null,
        "streetTypeId": "RD",
        "placeName": "GORHAM",
        "streetNameDisplayText": "OLD MILL RD, GORHAM"
      }
    ]
  },
  {
    "postal": "P7G1Y7",
    "result": [
      {
        "electoralDistricts": [
          {
            "election": null,
            "id": 106,
            "setId": 0,
            "name": "Thunder Bay—Superior North"
          }
        ],
        "pollDivisionIds": [
          10142374
        ],
        "postalCode": "P7G1Y7",
        "streetName": "HILLDALE",
        "streetDirectionId": null,
        "streetTypeId": "RD",
        "placeName": "THUNDER BAY",
        "streetNameDisplayText": "HILLDALE RD, THUNDER BAY"
      }
    ]
  },
  {
    "postal": "P7G7W5",
    "result": []
  },
  {
    "postal": "P7G3Z1",
    "result": []
  },
  {
    "postal": "P7G7M6",
    "result": []
  },
  {
    "postal": "P7G1W7",
    "result": [
      {
        "electoralDistricts": [
          {
            "election": null,
            "id": 105,
            "setId": 0,
            "name": "Thunder Bay—Atikokan"
          }
        ],
        "pollDivisionIds": [
          10142305
        ],
        "postalCode": "P7G1W7",
        "streetName": "ALICE",
        "streetDirectionId": null,
        "streetTypeId": "AVE",
        "placeName": "THUNDER BAY",
        "streetNameDisplayText": "ALICE AVE, THUNDER BAY"
      }
    ]
  },
  {
    "postal": "P7G1X1",
    "result": [
      {
        "electoralDistricts": [
          {
            "election": null,
            "id": 105,
            "setId": 0,
            "name": "Thunder Bay—Atikokan"
          }
        ],
        "pollDivisionIds": [
          10142305
        ],
        "postalCode": "P7G1X1",
        "streetName": "ALICE",
        "streetDirectionId": null,
        "streetTypeId": "AVE",
        "placeName": "THUNDER BAY",
        "streetNameDisplayText": "ALICE AVE, THUNDER BAY"
      }
    ]
  },
  {
    "postal": "P7G0C1",
    "result": [
      {
        "electoralDistricts": [
          {
            "election": null,
            "id": 106,
            "setId": 0,
            "name": "Thunder Bay—Superior North"
          }
        ],
        "pollDivisionIds": [
          10142372
        ],
        "postalCode": "P7G0C1",
        "streetName": "DOG LAKE",
        "streetDirectionId": null,
        "streetTypeId": "RD",
        "placeName": "GORHAM",
        "streetNameDisplayText": "DOG LAKE RD, GORHAM"
      }
    ]
  },
  {
    "postal": "P7G4N3",
    "result": []
  },
  {
    "postal": "P7G4S8",
    "result": []
  },
  {
    "postal": "P7G1H6",
    "result": [
      {
        "electoralDistricts": [
          {
            "election": null,
            "id": 106,
            "setId": 0,
            "name": "Thunder Bay—Superior North"
          }
        ],
        "pollDivisionIds": [
          10142378,
          10142374
        ],
        "postalCode": "P7G1H6",
        "streetName": "DAWSON",
        "streetDirectionId": null,
        "streetTypeId": "RD",
        "placeName": "THUNDER BAY",
        "streetNameDisplayText": "DAWSON RD, THUNDER BAY"
      },
      {
        "electoralDistricts": [
          {
            "election": null,
            "id": 106,
            "setId": 0,
            "name": "Thunder Bay—Superior North"
          }
        ],
        "pollDivisionIds": [
          10142374
        ],
        "postalCode": "P7G1H6",
        "streetName": "HILLDALE",
        "streetDirectionId": null,
        "streetTypeId": "RD",
        "placeName": "THUNDER BAY",
        "streetNameDisplayText": "HILLDALE RD, THUNDER BAY"
      }
    ]
  },
  {
    "postal": "P7G2Z4",
    "result": []
  },
  {
    "postal": "P7G7K3",
    "result": []
  },
  {
    "postal": "P7G8A2",
    "result": []
  },
  {
    "postal": "P7G6J1",
    "result": []
  },
  {
    "postal": "P7G5Z6",
    "result": []
  },
  {
    "postal": "P7G3Z0",
    "result": []
  },
  {
    "postal": "P7G8M0",
    "result": []
  },
  {
    "postal": "P7G1Z6",
    "result": [
      {
        "electoralDistricts": [
          {
            "election": null,
            "id": 105,
            "setId": 0,
            "name": "Thunder Bay—Atikokan"
          }
        ],
        "pollDivisionIds": [
          10142305
        ],
        "postalCode": "P7G1Z6",
        "streetName": "HILLDALE",
        "streetDirectionId": null,
        "streetTypeId": "RD",
        "placeName": "THUNDER BAY",
        "streetNameDisplayText": "HILLDALE RD, THUNDER BAY"
      }
    ]
  },
  {
    "postal": "P7G8K7",
    "result": []
  },
  {
    "postal": "P7G1N3",
    "result": [
      {
        "electoralDistricts": [
          {
            "election": null,
            "id": 105,
            "setId": 0,
            "name": "Thunder Bay—Atikokan"
          }
        ],
        "pollDivisionIds": [
          10142301
        ],
        "postalCode": "P7G1N3",
        "streetName": "VIMY",
        "streetDirectionId": null,
        "streetTypeId": "ST",
        "placeName": "THUNDER BAY",
        "streetNameDisplayText": "VIMY ST, THUNDER BAY"
      }
    ]
  },
  {
    "postal": "P7G9S2",
    "result": []
  },
  {
    "postal": "P7G2K1",
    "result": [
      {
        "electoralDistricts": [
          {
            "election": null,
            "id": 105,
            "setId": 0,
            "name": "Thunder Bay—Atikokan"
          }
        ],
        "pollDivisionIds": [
          10142305
        ],
        "postalCode": "P7G2K1",
        "streetName": "MAPLEWARD",
        "streetDirectionId": null,
        "streetTypeId": "RD",
        "placeName": "THUNDER BAY",
        "streetNameDisplayText": "MAPLEWARD RD, THUNDER BAY"
      }
    ]
  },
  {
    "postal": "P7G1E8",
    "result": []
  },
  {
    "postal": "P7G9B8",
    "result": []
  },
  {
    "postal": "P7G7X4",
    "result": []
  },
  {
    "postal": "P7G1Z4",
    "result": [
      {
        "electoralDistricts": [
          {
            "election": null,
            "id": 105,
            "setId": 0,
            "name": "Thunder Bay—Atikokan"
          }
        ],
        "pollDivisionIds": [
          10142305
        ],
        "postalCode": "P7G1Z4",
        "streetName": "HILLDALE",
        "streetDirectionId": null,
        "streetTypeId": "RD",
        "placeName": "THUNDER BAY",
        "streetNameDisplayText": "HILLDALE RD, THUNDER BAY"
      }
    ]
  },
  {
    "postal": "P7G2C7",
    "result": [
      {
        "electoralDistricts": [
          {
            "election": null,
            "id": 105,
            "setId": 0,
            "name": "Thunder Bay—Atikokan"
          }
        ],
        "pollDivisionIds": [
          10142305
        ],
        "postalCode": "P7G2C7",
        "streetName": "WARDROPE",
        "streetDirectionId": null,
        "streetTypeId": "AVE",
        "placeName": "THUNDER BAY",
        "streetNameDisplayText": "WARDROPE AVE, THUNDER BAY"
      }
    ]
  },
  {
    "postal": "P7G2E7",
    "result": [
      {
        "electoralDistricts": [
          {
            "election": null,
            "id": 105,
            "setId": 0,
            "name": "Thunder Bay—Atikokan"
          }
        ],
        "pollDivisionIds": [
          10142305
        ],
        "postalCode": "P7G2E7",
        "streetName": "DAWSON",
        "streetDirectionId": null,
        "streetTypeId": "RD",
        "placeName": "THUNDER BAY",
        "streetNameDisplayText": "DAWSON RD, THUNDER BAY"
      }
    ]
  },
  {
    "postal": "P7G3R1",
    "result": []
  },
  {
    "postal": "P7G4K4",
    "result": []
  },
  {
    "postal": "P7G9G3",
    "result": []
  },
  {
    "postal": "P7G6C9",
    "result": []
  },
  {
    "postal": "P7G9H5",
    "result": []
  },
  {
    "postal": "P7G1P5",
    "result": [
      {
        "electoralDistricts": [
          {
            "election": null,
            "id": 105,
            "setId": 0,
            "name": "Thunder Bay—Atikokan"
          }
        ],
        "pollDivisionIds": [
          10142301
        ],
        "postalCode": "P7G1P5",
        "streetName": "GRANDVIEW",
        "streetDirectionId": null,
        "streetTypeId": "RD",
        "placeName": "THUNDER BAY",
        "streetNameDisplayText": "GRANDVIEW RD, THUNDER BAY"
      }
    ]
  },
  {
    "postal": "P7G2J5",
    "result": [
      {
        "electoralDistricts": [
          {
            "election": null,
            "id": 105,
            "setId": 0,
            "name": "Thunder Bay—Atikokan"
          }
        ],
        "pollDivisionIds": [
          10142305
        ],
        "postalCode": "P7G2J5",
        "streetName": "KIVIKOSKI",
        "streetDirectionId": null,
        "streetTypeId": "RD",
        "placeName": "THUNDER BAY",
        "streetNameDisplayText": "KIVIKOSKI RD, THUNDER BAY"
      }
    ]
  },
  {
    "postal": "P7G4W6",
    "result": []
  },
  {
    "postal": "P7G8M8",
    "result": []
  },
  {
    "postal": "P7G6C5",
    "result": []
  },
  {
    "postal": "P7G9H0",
    "result": []
  },
  {
    "postal": "P7G1X8",
    "result": [
      {
        "electoralDistricts": [
          {
            "election": null,
            "id": 105,
            "setId": 0,
            "name": "Thunder Bay—Atikokan"
          }
        ],
        "pollDivisionIds": [
          10142305
        ],
        "postalCode": "P7G1X8",
        "streetName": "MELBOURNE",
        "streetDirectionId": null,
        "streetTypeId": "RD",
        "placeName": "THUNDER BAY",
        "streetNameDisplayText": "MELBOURNE RD, THUNDER BAY"
      }
    ]
  },
  {
    "postal": "P7G3H4",
    "result": []
  },
  {
    "postal": "P7G4E7",
    "result": []
  },
  {
    "postal": "P7G8A0",
    "result": []
  },
  {
    "postal": "P7G1Z7",
    "result": [
      {
        "electoralDistricts": [
          {
            "election": null,
            "id": 106,
            "setId": 0,
            "name": "Thunder Bay—Superior North"
          },
          {
            "election": null,
            "id": 105,
            "setId": 0,
            "name": "Thunder Bay—Atikokan"
          }
        ],
        "pollDivisionIds": [
          10142374,
          10142305
        ],
        "postalCode": "P7G1Z7",
        "streetName": "HILLDALE",
        "streetDirectionId": null,
        "streetTypeId": "RD",
        "placeName": "THUNDER BAY",
        "streetNameDisplayText": "HILLDALE RD, THUNDER BAY"
      }
    ]
  },
  {
    "postal": "P7G7Z3",
    "result": []
  },
  {
    "postal": "P7G0L7",
    "result": []
  },
  {
    "postal": "P7G2C6",
    "result": [
      {
        "electoralDistricts": [
          {
            "election": null,
            "id": 106,
            "setId": 0,
            "name": "Thunder Bay—Superior North"
          }
        ],
        "pollDivisionIds": [
          10142375
        ],
        "postalCode": "P7G2C6",
        "streetName": "WARDROPE",
        "streetDirectionId": null,
        "streetTypeId": "AVE",
        "placeName": "THUNDER BAY",
        "streetNameDisplayText": "WARDROPE AVE, THUNDER BAY"
      }
    ]
  },
  {
    "postal": "P7G6M3",
    "result": []
  },
  {
    "postal": "P7G2J1",
    "result": [
      {
        "electoralDistricts": [
          {
            "election": null,
            "id": 105,
            "setId": 0,
            "name": "Thunder Bay—Atikokan"
          }
        ],
        "pollDivisionIds": [
          10142305
        ],
        "postalCode": "P7G2J1",
        "streetName": "FISHER",
        "streetDirectionId": null,
        "streetTypeId": "RD",
        "placeName": "THUNDER BAY",
        "streetNameDisplayText": "FISHER RD, THUNDER BAY"
      },
      {
        "electoralDistricts": [
          {
            "election": null,
            "id": 105,
            "setId": 0,
            "name": "Thunder Bay—Atikokan"
          }
        ],
        "pollDivisionIds": [
          10142305
        ],
        "postalCode": "P7G2J1",
        "streetName": "HILLDALE",
        "streetDirectionId": null,
        "streetTypeId": "RD",
        "placeName": "THUNDER BAY",
        "streetNameDisplayText": "HILLDALE RD, THUNDER BAY"
      }
    ]
  },
  {
    "postal": "P7G3E3",
    "result": []
  },
  {
    "postal": "P7G6Z9",
    "result": []
  },
  {
    "postal": "P7G3M3",
    "result": []
  },
  {
    "postal": "P7G9B1",
    "result": []
  },
  {
    "postal": "P7G9J5",
    "result": []
  },
  {
    "postal": "P7G4V8",
    "result": []
  },
  {
    "postal": "P7G6W2",
    "result": []
  },
  {
    "postal": "P7G0V5",
    "result": [
      {
        "electoralDistricts": [
          {
            "election": null,
            "id": 105,
            "setId": 0,
            "name": "Thunder Bay—Atikokan"
          }
        ],
        "pollDivisionIds": [
          10142296
        ],
        "postalCode": "P7G0V5",
        "streetName": "DAWSON",
        "streetDirectionId": null,
        "streetTypeId": "RD",
        "placeName": "MURILLO",
        "streetNameDisplayText": "DAWSON RD, MURILLO"
      }
    ]
  },
  {
    "postal": "P7G0Z8",
    "result": [
      {
        "electoralDistricts": [
          {
            "election": null,
            "id": 106,
            "setId": 0,
            "name": "Thunder Bay—Superior North"
          }
        ],
        "pollDivisionIds": [
          10142372
        ],
        "postalCode": "P7G0Z8",
        "streetName": "DOG LAKE",
        "streetDirectionId": null,
        "streetTypeId": "RD",
        "placeName": "JACQUES",
        "streetNameDisplayText": "DOG LAKE RD, JACQUES"
      }
    ]
  },
  {
    "postal": "P7G5G2",
    "result": []
  },
  {
    "postal": "P7G4N4",
    "result": []
  },
  {
    "postal": "P7G8G7",
    "result": []
  },
  {
    "postal": "P7G8W1",
    "result": []
  },
  {
    "postal": "P7G1S6",
    "result": [
      {
        "electoralDistricts": [
          {
            "election": null,
            "id": 105,
            "setId": 0,
            "name": "Thunder Bay—Atikokan"
          }
        ],
        "pollDivisionIds": [
          10142301
        ],
        "postalCode": "P7G1S6",
        "streetName": "TWIN CITY CROSSROAD",
        "streetDirectionId": null,
        "streetTypeId": null,
        "placeName": "THUNDER BAY",
        "streetNameDisplayText": "TWIN CITY CROSSROAD, THUNDER BAY"
      },
      {
        "electoralDistricts": [
          {
            "election": null,
            "id": 105,
            "setId": 0,
            "name": "Thunder Bay—Atikokan"
          }
        ],
        "pollDivisionIds": [
          10142301
        ],
        "postalCode": "P7G1S6",
        "streetName": "TWIN CITY",
        "streetDirectionId": null,
        "streetTypeId": null,
        "placeName": "THUNDER BAY",
        "streetNameDisplayText": "TWIN CITY, THUNDER BAY"
      }
    ]
  },
  {
    "postal": "P7G4E0",
    "result": []
  },
  {
    "postal": "P7G4L9",
    "result": []
  },
  {
    "postal": "P7G5Z9",
    "result": []
  },
  {
    "postal": "P7G5V3",
    "result": []
  },
  {
    "postal": "P7G4V2",
    "result": []
  },
  {
    "postal": "P7G7C0",
    "result": []
  },
  {
    "postal": "P7G6L0",
    "result": []
  },
  {
    "postal": "P7G1S9",
    "result": [
      {
        "electoralDistricts": [
          {
            "election": null,
            "id": 105,
            "setId": 0,
            "name": "Thunder Bay—Atikokan"
          }
        ],
        "pollDivisionIds": [
          10142301
        ],
        "postalCode": "P7G1S9",
        "streetName": "OLIVER",
        "streetDirectionId": null,
        "streetTypeId": "RD",
        "placeName": "THUNDER BAY",
        "streetNameDisplayText": "OLIVER RD, THUNDER BAY"
      }
    ]
  },
  {
    "postal": "P7G7R6",
    "result": []
  },
  {
    "postal": "P7G7J0",
    "result": []
  },
  {
    "postal": "P7G5M0",
    "result": []
  },
  {
    "postal": "P7G2E5",
    "result": [
      {
        "electoralDistricts": [
          {
            "election": null,
            "id": 105,
            "setId": 0,
            "name": "Thunder Bay—Atikokan"
          }
        ],
        "pollDivisionIds": [
          10142305
        ],
        "postalCode": "P7G2E5",
        "streetName": "DAWSON",
        "streetDirectionId": null,
        "streetTypeId": "RD",
        "placeName": "THUNDER BAY",
        "streetNameDisplayText": "DAWSON RD, THUNDER BAY"
      }
    ]
  },
  {
    "postal": "P7G7C7",
    "result": []
  },
  {
    "postal": "P7G5C0",
    "result": []
  },
  {
    "postal": "P7G8V9",
    "result": []
  },
  {
    "postal": "P7G7E0",
    "result": []
  },
  {
    "postal": "P7G6R4",
    "result": []
  },
  {
    "postal": "P7G3Z7",
    "result": []
  },
  {
    "postal": "P7G1J9",
    "result": [
      {
        "electoralDistricts": [
          {
            "election": null,
            "id": 105,
            "setId": 0,
            "name": "Thunder Bay—Atikokan"
          }
        ],
        "pollDivisionIds": [
          10142311
        ],
        "postalCode": "P7G1J9",
        "streetName": "HUTTON PARK",
        "streetDirectionId": null,
        "streetTypeId": "DR",
        "placeName": "THUNDER BAY",
        "streetNameDisplayText": "HUTTON PARK DR, THUNDER BAY"
      },
      {
        "electoralDistricts": [
          {
            "election": null,
            "id": 105,
            "setId": 0,
            "name": "Thunder Bay—Atikokan"
          }
        ],
        "pollDivisionIds": [
          10142311
        ],
        "postalCode": "P7G1J9",
        "streetName": "JOHN ST.",
        "streetDirectionId": null,
        "streetTypeId": "RD",
        "placeName": "THUNDER BAY",
        "streetNameDisplayText": "JOHN ST. RD, THUNDER BAY"
      },
      {
        "electoralDistricts": [
          {
            "election": null,
            "id": 105,
            "setId": 0,
            "name": "Thunder Bay—Atikokan"
          }
        ],
        "pollDivisionIds": [
          10142311,
          10142301
        ],
        "postalCode": "P7G1J9",
        "streetName": "JOHN STREET",
        "streetDirectionId": null,
        "streetTypeId": "RD",
        "placeName": "THUNDER BAY",
        "streetNameDisplayText": "JOHN STREET RD, THUNDER BAY"
      },
      {
        "electoralDistricts": [
          {
            "election": null,
            "id": 105,
            "setId": 0,
            "name": "Thunder Bay—Atikokan"
          }
        ],
        "pollDivisionIds": [
          10142311
        ],
        "postalCode": "P7G1J9",
        "streetName": "PATOLA",
        "streetDirectionId": null,
        "streetTypeId": "RD",
        "placeName": "THUNDER BAY",
        "streetNameDisplayText": "PATOLA RD, THUNDER BAY"
      }
    ]
  },
  {
    "postal": "P7G7K6",
    "result": []
  },
  {
    "postal": "P7G7Y5",
    "result": []
  },
  {
    "postal": "P7G1B7",
    "result": [
      {
        "electoralDistricts": [
          {
            "election": null,
            "id": 105,
            "setId": 0,
            "name": "Thunder Bay—Atikokan"
          }
        ],
        "pollDivisionIds": [
          10142305
        ],
        "postalCode": "P7G1B7",
        "streetName": "TUSCANY DR",
        "streetDirectionId": null,
        "streetTypeId": "DR",
        "placeName": "THUNDER BAY",
        "streetNameDisplayText": "TUSCANY DR DR, THUNDER BAY"
      },
      {
        "electoralDistricts": [
          {
            "election": null,
            "id": 105,
            "setId": 0,
            "name": "Thunder Bay—Atikokan"
          }
        ],
        "pollDivisionIds": [
          10142305
        ],
        "postalCode": "P7G1B7",
        "streetName": "TUSCANY",
        "streetDirectionId": null,
        "streetTypeId": "DR",
        "placeName": "THUNDER BAY",
        "streetNameDisplayText": "TUSCANY DR, THUNDER BAY"
      },
      {
        "electoralDistricts": [
          {
            "election": null,
            "id": 106,
            "setId": 0,
            "name": "Thunder Bay—Superior North"
          },
          {
            "election": null,
            "id": 105,
            "setId": 0,
            "name": "Thunder Bay—Atikokan"
          }
        ],
        "pollDivisionIds": [
          10142374,
          10142305
        ],
        "postalCode": "P7G1B7",
        "streetName": "VINTAGE",
        "streetDirectionId": null,
        "streetTypeId": "CRES",
        "placeName": "THUNDER BAY",
        "streetNameDisplayText": "VINTAGE CRES, THUNDER BAY"
      }
    ]
  },
  {
    "postal": "P7G4S9",
    "result": []
  },
  {
    "postal": "P7G9R9",
    "result": []
  },
  {
    "postal": "P7G5K7",
    "result": []
  },
  {
    "postal": "P7G6P2",
    "result": []
  },
  {
    "postal": "P7G2C5",
    "result": [
      {
        "electoralDistricts": [
          {
            "election": null,
            "id": 105,
            "setId": 0,
            "name": "Thunder Bay—Atikokan"
          }
        ],
        "pollDivisionIds": [
          10142305
        ],
        "postalCode": "P7G2C5",
        "streetName": "WARDROPE",
        "streetDirectionId": null,
        "streetTypeId": "AVE",
        "placeName": "THUNDER BAY",
        "streetNameDisplayText": "WARDROPE AVE, THUNDER BAY"
      }
    ]
  },
  {
    "postal": "P7G2N0",
    "result": []
  },
  {
    "postal": "P7G1G0",
    "result": []
  },
  {
    "postal": "P7G4K5",
    "result": []
  },
  {
    "postal": "P7G9B5",
    "result": []
  },
  {
    "postal": "P7G6T5",
    "result": []
  },
  {
    "postal": "P7G1N8",
    "result": [
      {
        "electoralDistricts": [
          {
            "election": null,
            "id": 105,
            "setId": 0,
            "name": "Thunder Bay—Atikokan"
          }
        ],
        "pollDivisionIds": [
          10142301
        ],
        "postalCode": "P7G1N8",
        "streetName": "ELLEN",
        "streetDirectionId": null,
        "streetTypeId": "RD",
        "placeName": "THUNDER BAY",
        "streetNameDisplayText": "ELLEN RD, THUNDER BAY"
      }
    ]
  },
  {
    "postal": "P7G0C0",
    "result": []
  },
  {
    "postal": "P7G0R9",
    "result": [
      {
        "electoralDistricts": [
          {
            "election": null,
            "id": 106,
            "setId": 0,
            "name": "Thunder Bay—Superior North"
          }
        ],
        "pollDivisionIds": [
          10142372
        ],
        "postalCode": "P7G0R9",
        "streetName": "STONEHILL",
        "streetDirectionId": null,
        "streetTypeId": "RD",
        "placeName": "GORHAM",
        "streetNameDisplayText": "STONEHILL RD, GORHAM"
      }
    ]
  },
  {
    "postal": "P7G7L1",
    "result": []
  },
  {
    "postal": "P7G3Y8",
    "result": []
  },
  {
    "postal": "P7G7X9",
    "result": []
  },
  {
    "postal": "P7G1A7",
    "result": [
      {
        "electoralDistricts": [
          {
            "election": null,
            "id": 105,
            "setId": 0,
            "name": "Thunder Bay—Atikokan"
          }
        ],
        "pollDivisionIds": [
          10142311
        ],
        "postalCode": "P7G1A7",
        "streetName": "CHERCOVER",
        "streetDirectionId": null,
        "streetTypeId": "DR",
        "placeName": "THUNDER BAY",
        "streetNameDisplayText": "CHERCOVER DR, THUNDER BAY"
      },
      {
        "electoralDistricts": [
          {
            "election": null,
            "id": 105,
            "setId": 0,
            "name": "Thunder Bay—Atikokan"
          }
        ],
        "pollDivisionIds": [
          10142311
        ],
        "postalCode": "P7G1A7",
        "streetName": "CHERRY RIDGE",
        "streetDirectionId": null,
        "streetTypeId": "RD",
        "placeName": "THUNDER BAY",
        "streetNameDisplayText": "CHERRY RIDGE RD, THUNDER BAY"
      },
      {
        "electoralDistricts": [
          {
            "election": null,
            "id": 105,
            "setId": 0,
            "name": "Thunder Bay—Atikokan"
          }
        ],
        "pollDivisionIds": [
          10142311
        ],
        "postalCode": "P7G1A7",
        "streetName": "PICCARD",
        "streetDirectionId": null,
        "streetTypeId": "AVE",
        "placeName": "THUNDER BAY",
        "streetNameDisplayText": "PICCARD AVE, THUNDER BAY"
      }
    ]
  },
  {
    "postal": "P7G2T9",
    "result": []
  },
  {
    "postal": "P7G2E6",
    "result": [
      {
        "electoralDistricts": [
          {
            "election": null,
            "id": 105,
            "setId": 0,
            "name": "Thunder Bay—Atikokan"
          }
        ],
        "pollDivisionIds": [
          10142305
        ],
        "postalCode": "P7G2E6",
        "streetName": "DAWSON",
        "streetDirectionId": null,
        "streetTypeId": "RD",
        "placeName": "THUNDER BAY",
        "streetNameDisplayText": "DAWSON RD, THUNDER BAY"
      },
      {
        "electoralDistricts": [
          {
            "election": null,
            "id": 105,
            "setId": 0,
            "name": "Thunder Bay—Atikokan"
          }
        ],
        "pollDivisionIds": [
          10142305
        ],
        "postalCode": "P7G2E6",
        "streetName": "HUNTER",
        "streetDirectionId": null,
        "streetTypeId": "RD",
        "placeName": "THUNDER BAY",
        "streetNameDisplayText": "HUNTER RD, THUNDER BAY"
      },
      {
        "electoralDistricts": [
          {
            "election": null,
            "id": 105,
            "setId": 0,
            "name": "Thunder Bay—Atikokan"
          }
        ],
        "pollDivisionIds": [
          10142305
        ],
        "postalCode": "P7G2E6",
        "streetName": "NICKLE",
        "streetDirectionId": null,
        "streetTypeId": "ST",
        "placeName": "THUNDER BAY",
        "streetNameDisplayText": "NICKLE ST, THUNDER BAY"
      }
    ]
  },
  {
    "postal": "P7G8Y1",
    "result": []
  },
  {
    "postal": "P7G0J5",
    "result": [
      {
        "electoralDistricts": [
          {
            "election": null,
            "id": 106,
            "setId": 0,
            "name": "Thunder Bay—Superior North"
          }
        ],
        "pollDivisionIds": [
          10142372
        ],
        "postalCode": "P7G0J5",
        "streetName": "591",
        "streetDirectionId": null,
        "streetTypeId": "HWY",
        "placeName": "GORHAM",
        "streetNameDisplayText": "591 HWY, GORHAM"
      },
      {
        "electoralDistricts": [
          {
            "election": null,
            "id": 106,
            "setId": 0,
            "name": "Thunder Bay—Superior North"
          }
        ],
        "pollDivisionIds": [
          10142372
        ],
        "postalCode": "P7G0J5",
        "streetName": "HWY 591",
        "streetDirectionId": null,
        "streetTypeId": null,
        "placeName": "GORHAM",
        "streetNameDisplayText": "HWY 591, GORHAM"
      },
      {
        "electoralDistricts": [
          {
            "election": null,
            "id": 106,
            "setId": 0,
            "name": "Thunder Bay—Superior North"
          }
        ],
        "pollDivisionIds": [
          10142372
        ],
        "postalCode": "P7G0J5",
        "streetName": "HWY591",
        "streetDirectionId": null,
        "streetTypeId": null,
        "placeName": "GORHAM",
        "streetNameDisplayText": "HWY591, GORHAM"
      }
    ]
  },
  {
    "postal": "P7G4J1",
    "result": []
  },
  {
    "postal": "P7G1A5",
    "result": [
      {
        "electoralDistricts": [
          {
            "election": null,
            "id": 105,
            "setId": 0,
            "name": "Thunder Bay—Atikokan"
          }
        ],
        "pollDivisionIds": [
          10142311
        ],
        "postalCode": "P7G1A5",
        "streetName": "CHERCOVER",
        "streetDirectionId": null,
        "streetTypeId": "DR",
        "placeName": "THUNDER BAY",
        "streetNameDisplayText": "CHERCOVER DR, THUNDER BAY"
      },
      {
        "electoralDistricts": [
          {
            "election": null,
            "id": 105,
            "setId": 0,
            "name": "Thunder Bay—Atikokan"
          }
        ],
        "pollDivisionIds": [
          10142311
        ],
        "postalCode": "P7G1A5",
        "streetName": "TIMBERLINE",
        "streetDirectionId": null,
        "streetTypeId": "DR",
        "placeName": "THUNDER BAY",
        "streetNameDisplayText": "TIMBERLINE DR, THUNDER BAY"
      }
    ]
  },
  {
    "postal": "P7G6Z6",
    "result": []
  },
  {
    "postal": "P7G5K4",
    "result": []
  },
  {
    "postal": "P7G7R9",
    "result": []
  },
  {
    "postal": "P7G6G4",
    "result": []
  }
]
