[
  {
    "postal": "L9M9J6",
    "result": []
  },
  {
    "postal": "L9M9Z5",
    "result": []
  },
  {
    "postal": "L9M7H8",
    "result": []
  },
  {
    "postal": "L9M0P6",
    "result": [
      {
        "electoralDistricts": [
          {
            "election": null,
            "id": 100,
            "name": "Simcoe North"
          }
        ],
        "pollDivisionIds": [
          10141876
        ],
        "postalCode": "L9M0P6",
        "streetName": "CONCESSION 17",
        "streetDirectionId": "W",
        "streetTypeId": "RD",
        "placeName": "TINY",
        "streetNameDisplayText": "CONCESSION 17 RD W, TINY"
      },
      {
        "electoralDistricts": [
          {
            "election": null,
            "id": 100,
            "name": "Simcoe North"
          }
        ],
        "pollDivisionIds": [
          10141880,
          10141876
        ],
        "postalCode": "L9M0P6",
        "streetName": "CONCESSION 17",
        "streetDirectionId": "W",
        "streetTypeId": null,
        "placeName": "TINY",
        "streetNameDisplayText": "CONCESSION 17 W, TINY"
      },
      {
        "electoralDistricts": [
          {
            "election": null,
            "id": 100,
            "name": "Simcoe North"
          }
        ],
        "pollDivisionIds": [
          10141880
        ],
        "postalCode": "L9M0P6",
        "streetName": "CONCESSION RD 17 WEST",
        "streetDirectionId": "W",
        "streetTypeId": null,
        "placeName": "TINY",
        "streetNameDisplayText": "CONCESSION RD 17 WEST W, TINY"
      }
    ]
  },
  {
    "postal": "L9M0S7",
    "result": [
      {
        "electoralDistricts": [
          {
            "election": null,
            "id": 100,
            "name": "Simcoe North"
          }
        ],
        "pollDivisionIds": [
          10141876
        ],
        "postalCode": "L9M0S7",
        "streetName": "METHODIST POINT",
        "streetDirectionId": null,
        "streetTypeId": "RD",
        "placeName": "TINY",
        "streetNameDisplayText": "METHODIST POINT RD, TINY"
      }
    ]
  },
  {
    "postal": "L9M8B9",
    "result": []
  },
  {
    "postal": "L9M2A6",
    "result": [
      {
        "electoralDistricts": [
          {
            "election": null,
            "id": 100,
            "name": "Simcoe North"
          }
        ],
        "pollDivisionIds": [
          10141882
        ],
        "postalCode": "L9M2A6",
        "streetName": "O'DONNELL",
        "streetDirectionId": null,
        "streetTypeId": "CRT",
        "placeName": "PENETANGUISHENE",
        "streetNameDisplayText": "O'DONNELL CRT, PENETANGUISHENE"
      }
    ]
  },
  {
    "postal": "L9M7V2",
    "result": []
  },
  {
    "postal": "L9M9P4",
    "result": []
  },
  {
    "postal": "L9M6G0",
    "result": []
  },
  {
    "postal": "L9M2K0",
    "result": []
  },
  {
    "postal": "L9M7N6",
    "result": []
  },
  {
    "postal": "L9M5R3",
    "result": []
  },
  {
    "postal": "L9M7K0",
    "result": []
  },
  {
    "postal": "L9M3R2",
    "result": []
  },
  {
    "postal": "L9M0J1",
    "result": [
      {
        "electoralDistricts": [
          {
            "election": null,
            "id": 100,
            "name": "Simcoe North"
          }
        ],
        "pollDivisionIds": [
          10141876
        ],
        "postalCode": "L9M0J1",
        "streetName": "BELLEHUMEUR",
        "streetDirectionId": null,
        "streetTypeId": "RD",
        "placeName": "TINY",
        "streetNameDisplayText": "BELLEHUMEUR RD, TINY"
      },
      {
        "electoralDistricts": [
          {
            "election": null,
            "id": 100,
            "name": "Simcoe North"
          }
        ],
        "pollDivisionIds": [
          10141877,
          10141876
        ],
        "postalCode": "L9M0J1",
        "streetName": "CONCESSION 18",
        "streetDirectionId": "W",
        "streetTypeId": "RD",
        "placeName": "TINY",
        "streetNameDisplayText": "CONCESSION 18 RD W, TINY"
      },
      {
        "electoralDistricts": [
          {
            "election": null,
            "id": 100,
            "name": "Simcoe North"
          }
        ],
        "pollDivisionIds": [
          10141876
        ],
        "postalCode": "L9M0J1",
        "streetName": "CONCESSION 18 RD WEST",
        "streetDirectionId": "W",
        "streetTypeId": null,
        "placeName": "TINY",
        "streetNameDisplayText": "CONCESSION 18 RD WEST W, TINY"
      },
      {
        "electoralDistricts": [
          {
            "election": null,
            "id": 100,
            "name": "Simcoe North"
          }
        ],
        "pollDivisionIds": [
          10141876
        ],
        "postalCode": "L9M0J1",
        "streetName": "CROWN",
        "streetDirectionId": null,
        "streetTypeId": "CRT",
        "placeName": "TINY",
        "streetNameDisplayText": "CROWN CRT, TINY"
      },
      {
        "electoralDistricts": [
          {
            "election": null,
            "id": 100,
            "name": "Simcoe North"
          }
        ],
        "pollDivisionIds": [
          10141876
        ],
        "postalCode": "L9M0J1",
        "streetName": "GEORGIAN",
        "streetDirectionId": null,
        "streetTypeId": "DR",
        "placeName": "TINY",
        "streetNameDisplayText": "GEORGIAN DR, TINY"
      },
      {
        "electoralDistricts": [
          {
            "election": null,
            "id": 100,
            "name": "Simcoe North"
          }
        ],
        "pollDivisionIds": [
          10141876
        ],
        "postalCode": "L9M0J1",
        "streetName": "PARKLANE",
        "streetDirectionId": null,
        "streetTypeId": "CRT",
        "placeName": "TINY",
        "streetNameDisplayText": "PARKLANE CRT, TINY"
      },
      {
        "electoralDistricts": [
          {
            "election": null,
            "id": 100,
            "name": "Simcoe North"
          }
        ],
        "pollDivisionIds": [
          10141876
        ],
        "postalCode": "L9M0J1",
        "streetName": "TINY BEACHES",
        "streetDirectionId": "N",
        "streetTypeId": "RD",
        "placeName": "TINY",
        "streetNameDisplayText": "TINY BEACHES RD N, TINY"
      },
      {
        "electoralDistricts": [
          {
            "election": null,
            "id": 100,
            "name": "Simcoe North"
          }
        ],
        "pollDivisionIds": [
          10141876
        ],
        "postalCode": "L9M0J1",
        "streetName": "TROUT",
        "streetDirectionId": null,
        "streetTypeId": "LANE",
        "placeName": "TINY",
        "streetNameDisplayText": "TROUT LANE, TINY"
      }
    ]
  },
  {
    "postal": "L9M0B0",
    "result": []
  },
  {
    "postal": "L9M5Z2",
    "result": []
  },
  {
    "postal": "L9M7P3",
    "result": []
  },
  {
    "postal": "L9M2K3",
    "result": []
  },
  {
    "postal": "L9M7Y6",
    "result": []
  },
  {
    "postal": "L9M1L9",
    "result": [
      {
        "electoralDistricts": [
          {
            "election": null,
            "id": 100,
            "name": "Simcoe North"
          }
        ],
        "pollDivisionIds": [
          10141882
        ],
        "postalCode": "L9M1L9",
        "streetName": "COUNTY 93",
        "streetDirectionId": null,
        "streetTypeId": "RD",
        "placeName": "PENETANGUISHENE",
        "streetNameDisplayText": "COUNTY 93 RD, PENETANGUISHENE"
      },
      {
        "electoralDistricts": [
          {
            "election": null,
            "id": 100,
            "name": "Simcoe North"
          }
        ],
        "pollDivisionIds": [
          10141882
        ],
        "postalCode": "L9M1L9",
        "streetName": "MAIN",
        "streetDirectionId": null,
        "streetTypeId": "ST",
        "placeName": "PENETANGUISHENE",
        "streetNameDisplayText": "MAIN ST, PENETANGUISHENE"
      }
    ]
  },
  {
    "postal": "L9M8T0",
    "result": []
  },
  {
    "postal": "L9M3K8",
    "result": []
  },
  {
    "postal": "L9M5W9",
    "result": []
  },
  {
    "postal": "L9M6T9",
    "result": []
  },
  {
    "postal": "L9M4H1",
    "result": []
  },
  {
    "postal": "L9M7A2",
    "result": []
  },
  {
    "postal": "L9M5G0",
    "result": []
  },
  {
    "postal": "L9M8V5",
    "result": []
  },
  {
    "postal": "L9M2Y8",
    "result": []
  },
  {
    "postal": "L9M2B6",
    "result": [
      {
        "electoralDistricts": [
          {
            "election": null,
            "id": 100,
            "name": "Simcoe North"
          }
        ],
        "pollDivisionIds": [
          10141882
        ],
        "postalCode": "L9M2B6",
        "streetName": "PINE GROVE",
        "streetDirectionId": null,
        "streetTypeId": "RD",
        "placeName": "PENETANGUISHENE",
        "streetNameDisplayText": "PINE GROVE RD, PENETANGUISHENE"
      }
    ]
  },
  {
    "postal": "L9M4W8",
    "result": []
  },
  {
    "postal": "L9M8H7",
    "result": []
  },
  {
    "postal": "L9M5P1",
    "result": []
  },
  {
    "postal": "L9M2B8",
    "result": [
      {
        "electoralDistricts": [
          {
            "election": null,
            "id": 100,
            "name": "Simcoe North"
          }
        ],
        "pollDivisionIds": [
          10141882
        ],
        "postalCode": "L9M2B8",
        "streetName": "TINNEY",
        "streetDirectionId": null,
        "streetTypeId": "DR",
        "placeName": "PENETANGUISHENE",
        "streetNameDisplayText": "TINNEY DR, PENETANGUISHENE"
      }
    ]
  },
  {
    "postal": "L9M0P2",
    "result": [
      {
        "electoralDistricts": [
          {
            "election": null,
            "id": 100,
            "name": "Simcoe North"
          }
        ],
        "pollDivisionIds": [
          10141876
        ],
        "postalCode": "L9M0P2",
        "streetName": "CONCESSION 17",
        "streetDirectionId": "E",
        "streetTypeId": "RD",
        "placeName": "TINY",
        "streetNameDisplayText": "CONCESSION 17 RD E, TINY"
      }
    ]
  },
  {
    "postal": "L9M9M1",
    "result": []
  },
  {
    "postal": "L9M3G0",
    "result": []
  },
  {
    "postal": "L9M9Z2",
    "result": []
  },
  {
    "postal": "L9M2A0",
    "result": []
  },
  {
    "postal": "L9M6Y0",
    "result": []
  },
  {
    "postal": "L9M2Z8",
    "result": []
  },
  {
    "postal": "L9M7Y3",
    "result": []
  },
  {
    "postal": "L9M6Z5",
    "result": []
  },
  {
    "postal": "L9M6E0",
    "result": []
  },
  {
    "postal": "L9M9B7",
    "result": []
  },
  {
    "postal": "L9M9S5",
    "result": []
  },
  {
    "postal": "L9M3X3",
    "result": []
  },
  {
    "postal": "L9M7R5",
    "result": []
  },
  {
    "postal": "L9M2X3",
    "result": []
  },
  {
    "postal": "L9M8Z9",
    "result": []
  },
  {
    "postal": "L9M0N4",
    "result": [
      {
        "electoralDistricts": [
          {
            "election": null,
            "id": 100,
            "name": "Simcoe North"
          }
        ],
        "pollDivisionIds": [
          10141876
        ],
        "postalCode": "L9M0N4",
        "streetName": "CONCESSION 14",
        "streetDirectionId": "W",
        "streetTypeId": "RD",
        "placeName": "TINY",
        "streetNameDisplayText": "CONCESSION 14 RD W, TINY"
      }
    ]
  },
  {
    "postal": "L9M1K1",
    "result": [
      {
        "electoralDistricts": [
          {
            "election": null,
            "id": 100,
            "name": "Simcoe North"
          }
        ],
        "pollDivisionIds": [
          10141882
        ],
        "postalCode": "L9M1K1",
        "streetName": "JENNINGS",
        "streetDirectionId": null,
        "streetTypeId": "DR",
        "placeName": "PENETANGUISHENE",
        "streetNameDisplayText": "JENNINGS DR, PENETANGUISHENE"
      }
    ]
  },
  {
    "postal": "L9M1S3",
    "result": [
      {
        "electoralDistricts": [
          {
            "election": null,
            "id": 100,
            "name": "Simcoe North"
          }
        ],
        "pollDivisionIds": [
          10141880
        ],
        "postalCode": "L9M1S3",
        "streetName": "CHAMPLAIN",
        "streetDirectionId": null,
        "streetTypeId": "RD",
        "placeName": "PENETANGUISHENE",
        "streetNameDisplayText": "CHAMPLAIN RD, PENETANGUISHENE"
      }
    ]
  },
  {
    "postal": "L9M6M4",
    "result": []
  },
  {
    "postal": "L9M9A9",
    "result": []
  },
  {
    "postal": "L9M9Z9",
    "result": []
  },
  {
    "postal": "L9M6T4",
    "result": []
  },
  {
    "postal": "L9M0B2",
    "result": [
      {
        "electoralDistricts": [
          {
            "election": null,
            "id": 100,
            "name": "Simcoe North"
          }
        ],
        "pollDivisionIds": [
          10141880
        ],
        "postalCode": "L9M0B2",
        "streetName": "BREITHAUPT",
        "streetDirectionId": null,
        "streetTypeId": "CRES",
        "placeName": "TINY",
        "streetNameDisplayText": "BREITHAUPT CRES, TINY"
      },
      {
        "electoralDistricts": [
          {
            "election": null,
            "id": 100,
            "name": "Simcoe North"
          }
        ],
        "pollDivisionIds": [
          10141880
        ],
        "postalCode": "L9M0B2",
        "streetName": "MUSQUAKE",
        "streetDirectionId": null,
        "streetTypeId": "CRT",
        "placeName": "TINY",
        "streetNameDisplayText": "MUSQUAKE CRT, TINY"
      },
      {
        "electoralDistricts": [
          {
            "election": null,
            "id": 100,
            "name": "Simcoe North"
          }
        ],
        "pollDivisionIds": [
          10141880
        ],
        "postalCode": "L9M0B2",
        "streetName": "OJIBWAY",
        "streetDirectionId": null,
        "streetTypeId": "CRT",
        "placeName": "TINY",
        "streetNameDisplayText": "OJIBWAY CRT, TINY"
      },
      {
        "electoralDistricts": [
          {
            "election": null,
            "id": 100,
            "name": "Simcoe North"
          }
        ],
        "pollDivisionIds": [
          10141875
        ],
        "postalCode": "L9M0B2",
        "streetName": "OJIBWAY",
        "streetDirectionId": null,
        "streetTypeId": "LANE",
        "placeName": "TINY",
        "streetNameDisplayText": "OJIBWAY LANE, TINY"
      },
      {
        "electoralDistricts": [
          {
            "election": null,
            "id": 100,
            "name": "Simcoe North"
          }
        ],
        "pollDivisionIds": [
          10141880
        ],
        "postalCode": "L9M0B2",
        "streetName": "ONEIDA",
        "streetDirectionId": null,
        "streetTypeId": "CRES",
        "placeName": "TINY",
        "streetNameDisplayText": "ONEIDA CRES, TINY"
      },
      {
        "electoralDistricts": [
          {
            "election": null,
            "id": 100,
            "name": "Simcoe North"
          }
        ],
        "pollDivisionIds": [
          10141880
        ],
        "postalCode": "L9M0B2",
        "streetName": "WAKUNDA",
        "streetDirectionId": null,
        "streetTypeId": "CRES",
        "placeName": "TINY",
        "streetNameDisplayText": "WAKUNDA CRES, TINY"
      }
    ]
  },
  {
    "postal": "L9M2L9",
    "result": []
  },
  {
    "postal": "L9M8K9",
    "result": []
  },
  {
    "postal": "L9M2H9",
    "result": [
      {
        "electoralDistricts": [
          {
            "election": null,
            "id": 100,
            "name": "Simcoe North"
          }
        ],
        "pollDivisionIds": [
          10141882
        ],
        "postalCode": "L9M2H9",
        "streetName": "DUBE",
        "streetDirectionId": null,
        "streetTypeId": "DR",
        "placeName": "PENETANGUISHENE",
        "streetNameDisplayText": "DUBE DR, PENETANGUISHENE"
      },
      {
        "electoralDistricts": [
          {
            "election": null,
            "id": 100,
            "name": "Simcoe North"
          }
        ],
        "pollDivisionIds": [
          10141882
        ],
        "postalCode": "L9M2H9",
        "streetName": "JAMES",
        "streetDirectionId": null,
        "streetTypeId": "ST",
        "placeName": "PENETANGUISHENE",
        "streetNameDisplayText": "JAMES ST, PENETANGUISHENE"
      },
      {
        "electoralDistricts": [
          {
            "election": null,
            "id": 100,
            "name": "Simcoe North"
          }
        ],
        "pollDivisionIds": [
          10141882
        ],
        "postalCode": "L9M2H9",
        "streetName": "MARCHAND",
        "streetDirectionId": null,
        "streetTypeId": "DR",
        "placeName": "PENETANGUISHENE",
        "streetNameDisplayText": "MARCHAND DR, PENETANGUISHENE"
      }
    ]
  },
  {
    "postal": "L9M3Z6",
    "result": []
  },
  {
    "postal": "L9M3B0",
    "result": []
  },
  {
    "postal": "L9M2H8",
    "result": [
      {
        "electoralDistricts": [
          {
            "election": null,
            "id": 100,
            "name": "Simcoe North"
          }
        ],
        "pollDivisionIds": [
          10141878,
          10141882
        ],
        "postalCode": "L9M2H8",
        "streetName": "BRUNELLE",
        "streetDirectionId": null,
        "streetTypeId": "SIDERD",
        "placeName": "PENETANGUISHENE",
        "streetNameDisplayText": "BRUNELLE SIDERD, PENETANGUISHENE"
      },
      {
        "electoralDistricts": [
          {
            "election": null,
            "id": 100,
            "name": "Simcoe North"
          }
        ],
        "pollDivisionIds": [
          10141882
        ],
        "postalCode": "L9M2H8",
        "streetName": "JAMES",
        "streetDirectionId": null,
        "streetTypeId": "ST",
        "placeName": "PENETANGUISHENE",
        "streetNameDisplayText": "JAMES ST, PENETANGUISHENE"
      },
      {
        "electoralDistricts": [
          {
            "election": null,
            "id": 100,
            "name": "Simcoe North"
          }
        ],
        "pollDivisionIds": [
          10141882
        ],
        "postalCode": "L9M2H8",
        "streetName": "MARIA",
        "streetDirectionId": null,
        "streetTypeId": "ST",
        "placeName": "PENETANGUISHENE",
        "streetNameDisplayText": "MARIA ST, PENETANGUISHENE"
      },
      {
        "electoralDistricts": [
          {
            "election": null,
            "id": 100,
            "name": "Simcoe North"
          }
        ],
        "pollDivisionIds": [
          10141882
        ],
        "postalCode": "L9M2H8",
        "streetName": "MURRAY",
        "streetDirectionId": null,
        "streetTypeId": "RD",
        "placeName": "PENETANGUISHENE",
        "streetNameDisplayText": "MURRAY RD, PENETANGUISHENE"
      }
    ]
  },
  {
    "postal": "L9M3X2",
    "result": []
  },
  {
    "postal": "L9M2E9",
    "result": [
      {
        "electoralDistricts": [
          {
            "election": null,
            "id": 100,
            "name": "Simcoe North"
          }
        ],
        "pollDivisionIds": [
          10141882
        ],
        "postalCode": "L9M2E9",
        "streetName": "TINNEY",
        "streetDirectionId": null,
        "streetTypeId": "DR",
        "placeName": "PENETANGUISHENE",
        "streetNameDisplayText": "TINNEY DR, PENETANGUISHENE"
      }
    ]
  },
  {
    "postal": "L9M9P6",
    "result": []
  },
  {
    "postal": "L9M9E2",
    "result": []
  },
  {
    "postal": "L9M9H2",
    "result": []
  },
  {
    "postal": "L9M1S8",
    "result": [
      {
        "electoralDistricts": [
          {
            "election": null,
            "id": 100,
            "name": "Simcoe North"
          }
        ],
        "pollDivisionIds": [
          10141880
        ],
        "postalCode": "L9M1S8",
        "streetName": "MAIN",
        "streetDirectionId": null,
        "streetTypeId": "ST",
        "placeName": "PENETANGUISHENE",
        "streetNameDisplayText": "MAIN ST, PENETANGUISHENE"
      }
    ]
  },
  {
    "postal": "L9M3M6",
    "result": []
  },
  {
    "postal": "L9M6Z8",
    "result": []
  },
  {
    "postal": "L9M4J2",
    "result": []
  },
  {
    "postal": "L9M9Y1",
    "result": []
  },
  {
    "postal": "L9M8V6",
    "result": []
  },
  {
    "postal": "L9M6B2",
    "result": []
  },
  {
    "postal": "L9M1P8",
    "result": [
      {
        "electoralDistricts": [
          {
            "election": null,
            "id": 100,
            "name": "Simcoe North"
          }
        ],
        "pollDivisionIds": [
          10141882
        ],
        "postalCode": "L9M1P8",
        "streetName": "PARK",
        "streetDirectionId": null,
        "streetTypeId": "ST",
        "placeName": "PENETANGUISHENE",
        "streetNameDisplayText": "PARK ST, PENETANGUISHENE"
      },
      {
        "electoralDistricts": [
          {
            "election": null,
            "id": 100,
            "name": "Simcoe North"
          }
        ],
        "pollDivisionIds": [
          10141880,
          10141882
        ],
        "postalCode": "L9M1P8",
        "streetName": "ROBERT",
        "streetDirectionId": "W",
        "streetTypeId": "ST",
        "placeName": "PENETANGUISHENE",
        "streetNameDisplayText": "ROBERT ST W, PENETANGUISHENE"
      }
    ]
  },
  {
    "postal": "L9M0V8",
    "result": []
  },
  {
    "postal": "L9M4Y0",
    "result": []
  },
  {
    "postal": "L9M2T4",
    "result": []
  },
  {
    "postal": "L9M2S3",
    "result": []
  },
  {
    "postal": "L9M0K0",
    "result": []
  },
  {
    "postal": "L9M5N1",
    "result": []
  },
  {
    "postal": "L9M7T0",
    "result": []
  },
  {
    "postal": "L9M9N2",
    "result": []
  },
  {
    "postal": "L9M5L1",
    "result": []
  },
  {
    "postal": "L9M7G5",
    "result": []
  },
  {
    "postal": "L9M6K2",
    "result": []
  },
  {
    "postal": "L9M6P9",
    "result": []
  },
  {
    "postal": "L9M0E6",
    "result": []
  },
  {
    "postal": "L9M8R9",
    "result": []
  },
  {
    "postal": "L9M3G9",
    "result": []
  },
  {
    "postal": "L9M0V7",
    "result": [
      {
        "electoralDistricts": [
          {
            "election": null,
            "id": 100,
            "name": "Simcoe North"
          }
        ],
        "pollDivisionIds": [
          10141882
        ],
        "postalCode": "L9M0V7",
        "streetName": "HATTON",
        "streetDirectionId": null,
        "streetTypeId": "DR",
        "placeName": "PENETANGUISHENE",
        "streetNameDisplayText": "HATTON DR, PENETANGUISHENE"
      }
    ]
  },
  {
    "postal": "L9M2Z1",
    "result": []
  },
  {
    "postal": "L9M7N1",
    "result": []
  },
  {
    "postal": "L9M3C6",
    "result": []
  },
  {
    "postal": "L9M4M1",
    "result": []
  },
  {
    "postal": "L9M9K2",
    "result": []
  },
  {
    "postal": "L9M9S6",
    "result": []
  },
  {
    "postal": "L9M4X1",
    "result": []
  },
  {
    "postal": "L9M8W2",
    "result": []
  },
  {
    "postal": "L9M7N2",
    "result": []
  },
  {
    "postal": "L9M8S3",
    "result": []
  },
  {
    "postal": "L9M4V0",
    "result": []
  },
  {
    "postal": "L9M6W4",
    "result": []
  },
  {
    "postal": "L9M5M1",
    "result": []
  },
  {
    "postal": "L9M0S4",
    "result": [
      {
        "electoralDistricts": [
          {
            "election": null,
            "id": 100,
            "name": "Simcoe North"
          }
        ],
        "pollDivisionIds": [
          10141880
        ],
        "postalCode": "L9M0S4",
        "streetName": "RUE LAFONTAINE",
        "streetDirectionId": "E",
        "streetTypeId": "RD",
        "placeName": "TINY",
        "streetNameDisplayText": "RUE LAFONTAINE RD E, TINY"
      }
    ]
  },
  {
    "postal": "L9M5X6",
    "result": []
  },
  {
    "postal": "L9M8L5",
    "result": []
  },
  {
    "postal": "L9M5M8",
    "result": []
  },
  {
    "postal": "L9M2G3",
    "result": [
      {
        "electoralDistricts": [
          {
            "election": null,
            "id": 100,
            "name": "Simcoe North"
          }
        ],
        "pollDivisionIds": [
          10141877
        ],
        "postalCode": "L9M2G3",
        "streetName": "COUNTY RD 6",
        "streetDirectionId": null,
        "streetTypeId": null,
        "placeName": "PENETANGUISHENE",
        "streetNameDisplayText": "COUNTY RD 6, PENETANGUISHENE"
      },
      {
        "electoralDistricts": [
          {
            "election": null,
            "id": 100,
            "name": "Simcoe North"
          }
        ],
        "pollDivisionIds": [
          10141882
        ],
        "postalCode": "L9M2G3",
        "streetName": "COUNTY ROAD 93",
        "streetDirectionId": null,
        "streetTypeId": null,
        "placeName": "MIDLAND",
        "streetNameDisplayText": "COUNTY ROAD 93, MIDLAND"
      },
      {
        "electoralDistricts": [
          {
            "election": null,
            "id": 100,
            "name": "Simcoe North"
          }
        ],
        "pollDivisionIds": [
          10141880
        ],
        "postalCode": "L9M2G3",
        "streetName": "LOGMOSS",
        "streetDirectionId": null,
        "streetTypeId": "RD",
        "placeName": "TINY",
        "streetNameDisplayText": "LOGMOSS RD, TINY"
      }
    ]
  },
  {
    "postal": "L9M8E4",
    "result": []
  },
  {
    "postal": "L9M7S9",
    "result": []
  },
  {
    "postal": "L9M1K3",
    "result": [
      {
        "electoralDistricts": [
          {
            "election": null,
            "id": 100,
            "name": "Simcoe North"
          }
        ],
        "pollDivisionIds": [
          10141882
        ],
        "postalCode": "L9M1K3",
        "streetName": "COPELAND",
        "streetDirectionId": null,
        "streetTypeId": "ST",
        "placeName": "PENETANGUISHENE",
        "streetNameDisplayText": "COPELAND ST, PENETANGUISHENE"
      },
      {
        "electoralDistricts": [
          {
            "election": null,
            "id": 100,
            "name": "Simcoe North"
          }
        ],
        "pollDivisionIds": [
          10141882
        ],
        "postalCode": "L9M1K3",
        "streetName": "WRIGHT",
        "streetDirectionId": null,
        "streetTypeId": "CRT",
        "placeName": "PENETANGUISHENE",
        "streetNameDisplayText": "WRIGHT CRT, PENETANGUISHENE"
      }
    ]
  },
  {
    "postal": "L9M4E1",
    "result": []
  },
  {
    "postal": "L9M4R2",
    "result": []
  },
  {
    "postal": "L9M6T0",
    "result": []
  },
  {
    "postal": "L9M3K5",
    "result": []
  },
  {
    "postal": "L9M3S3",
    "result": []
  },
  {
    "postal": "L9M3L4",
    "result": []
  },
  {
    "postal": "L9M9Y2",
    "result": []
  },
  {
    "postal": "L9M1E0",
    "result": []
  },
  {
    "postal": "L9M9A4",
    "result": []
  },
  {
    "postal": "L9M1L3",
    "result": [
      {
        "electoralDistricts": [
          {
            "election": null,
            "id": 100,
            "name": "Simcoe North"
          }
        ],
        "pollDivisionIds": [
          10141882
        ],
        "postalCode": "L9M1L3",
        "streetName": "HARRIET",
        "streetDirectionId": null,
        "streetTypeId": "ST",
        "placeName": "PENETANGUISHENE",
        "streetNameDisplayText": "HARRIET ST, PENETANGUISHENE"
      },
      {
        "electoralDistricts": [
          {
            "election": null,
            "id": 100,
            "name": "Simcoe North"
          }
        ],
        "pollDivisionIds": [
          10141882
        ],
        "postalCode": "L9M1L3",
        "streetName": "MARIA",
        "streetDirectionId": null,
        "streetTypeId": "ST",
        "placeName": "PENETANGUISHENE",
        "streetNameDisplayText": "MARIA ST, PENETANGUISHENE"
      },
      {
        "electoralDistricts": [
          {
            "election": null,
            "id": 100,
            "name": "Simcoe North"
          }
        ],
        "pollDivisionIds": [
          10141882
        ],
        "postalCode": "L9M1L3",
        "streetName": "MOREAU",
        "streetDirectionId": null,
        "streetTypeId": "CRT",
        "placeName": "PENETANGUISHENE",
        "streetNameDisplayText": "MOREAU CRT, PENETANGUISHENE"
      },
      {
        "electoralDistricts": [
          {
            "election": null,
            "id": 100,
            "name": "Simcoe North"
          }
        ],
        "pollDivisionIds": [
          10141882
        ],
        "postalCode": "L9M1L3",
        "streetName": "THOMPSONS",
        "streetDirectionId": null,
        "streetTypeId": "RD",
        "placeName": "PENETANGUISHENE",
        "streetNameDisplayText": "THOMPSONS RD, PENETANGUISHENE"
      }
    ]
  },
  {
    "postal": "L9M6N1",
    "result": []
  },
  {
    "postal": "L9M6G7",
    "result": []
  },
  {
    "postal": "L9M7W1",
    "result": []
  },
  {
    "postal": "L9M4M6",
    "result": []
  },
  {
    "postal": "L9M1K0",
    "result": []
  },
  {
    "postal": "L9M3E2",
    "result": []
  },
  {
    "postal": "L9M5H4",
    "result": []
  },
  {
    "postal": "L9M1K7",
    "result": [
      {
        "electoralDistricts": [
          {
            "election": null,
            "id": 100,
            "name": "Simcoe North"
          }
        ],
        "pollDivisionIds": [
          10141882
        ],
        "postalCode": "L9M1K7",
        "streetName": "LUCY",
        "streetDirectionId": null,
        "streetTypeId": "ST",
        "placeName": "PENETANGUISHENE",
        "streetNameDisplayText": "LUCY ST, PENETANGUISHENE"
      },
      {
        "electoralDistricts": [
          {
            "election": null,
            "id": 100,
            "name": "Simcoe North"
          }
        ],
        "pollDivisionIds": [
          10141882
        ],
        "postalCode": "L9M1K7",
        "streetName": "ROBERT",
        "streetDirectionId": "E",
        "streetTypeId": "ST",
        "placeName": "PENETANGUISHENE",
        "streetNameDisplayText": "ROBERT ST E, PENETANGUISHENE"
      }
    ]
  },
  {
    "postal": "L9M0H0",
    "result": []
  },
  {
    "postal": "L9M0J3",
    "result": [
      {
        "electoralDistricts": [
          {
            "election": null,
            "id": 100,
            "name": "Simcoe North"
          }
        ],
        "pollDivisionIds": [
          10141876
        ],
        "postalCode": "L9M0J3",
        "streetName": "CEDAR POINT",
        "streetDirectionId": null,
        "streetTypeId": "RD",
        "placeName": "TINY",
        "streetNameDisplayText": "CEDAR POINT RD, TINY"
      }
    ]
  },
  {
    "postal": "L9M1X6",
    "result": [
      {
        "electoralDistricts": [
          {
            "election": null,
            "id": 100,
            "name": "Simcoe North"
          }
        ],
        "pollDivisionIds": [
          10141882
        ],
        "postalCode": "L9M1X6",
        "streetName": "TAY POINT",
        "streetDirectionId": null,
        "streetTypeId": "RD",
        "placeName": "PENETANGUISHENE",
        "streetNameDisplayText": "TAY POINT RD, PENETANGUISHENE"
      }
    ]
  },
  {
    "postal": "L9M2Z6",
    "result": []
  },
  {
    "postal": "L9M4R9",
    "result": []
  },
  {
    "postal": "L9M0W8",
    "result": []
  },
  {
    "postal": "L9M1L4",
    "result": [
      {
        "electoralDistricts": [
          {
            "election": null,
            "id": 100,
            "name": "Simcoe North"
          }
        ],
        "pollDivisionIds": [
          10141882
        ],
        "postalCode": "L9M1L4",
        "streetName": "MARIA",
        "streetDirectionId": null,
        "streetTypeId": "ST",
        "placeName": "PENETANGUISHENE",
        "streetNameDisplayText": "MARIA ST, PENETANGUISHENE"
      }
    ]
  },
  {
    "postal": "L9M0C8",
    "result": [
      {
        "electoralDistricts": [
          {
            "election": null,
            "id": 100,
            "name": "Simcoe North"
          }
        ],
        "pollDivisionIds": [
          10141880
        ],
        "postalCode": "L9M0C8",
        "streetName": "AWENDA PARK",
        "streetDirectionId": null,
        "streetTypeId": "RD",
        "placeName": "TINY",
        "streetNameDisplayText": "AWENDA PARK RD, TINY"
      }
    ]
  },
  {
    "postal": "L9M9X7",
    "result": []
  },
  {
    "postal": "L9M4T1",
    "result": []
  },
  {
    "postal": "L9M0M0",
    "result": []
  },
  {
    "postal": "L9M6A2",
    "result": []
  },
  {
    "postal": "L9M9S8",
    "result": []
  },
  {
    "postal": "L9M9T4",
    "result": []
  },
  {
    "postal": "L9M9Y4",
    "result": []
  },
  {
    "postal": "L9M6G5",
    "result": []
  },
  {
    "postal": "L9M6H9",
    "result": []
  },
  {
    "postal": "L9M2P3",
    "result": []
  },
  {
    "postal": "L9M1T6",
    "result": [
      {
        "electoralDistricts": [
          {
            "election": null,
            "id": 100,
            "name": "Simcoe North"
          }
        ],
        "pollDivisionIds": [
          10141882,
          10141880
        ],
        "postalCode": "L9M1T6",
        "streetName": "MAIN",
        "streetDirectionId": null,
        "streetTypeId": "ST",
        "placeName": "PENETANGUISHENE",
        "streetNameDisplayText": "MAIN ST, PENETANGUISHENE"
      }
    ]
  },
  {
    "postal": "L9M4P6",
    "result": []
  },
  {
    "postal": "L9M3K1",
    "result": []
  },
  {
    "postal": "L9M6X4",
    "result": []
  },
  {
    "postal": "L9M4M8",
    "result": []
  },
  {
    "postal": "L9M2Y1",
    "result": []
  },
  {
    "postal": "L9M6M1",
    "result": []
  },
  {
    "postal": "L9M5L8",
    "result": []
  },
  {
    "postal": "L9M3P6",
    "result": []
  },
  {
    "postal": "L9M9A5",
    "result": []
  },
  {
    "postal": "L9M7K1",
    "result": []
  },
  {
    "postal": "L9M3J4",
    "result": []
  },
  {
    "postal": "L9M5E7",
    "result": []
  },
  {
    "postal": "L9M3A7",
    "result": []
  },
  {
    "postal": "L9M1B9",
    "result": [
      {
        "electoralDistricts": [
          {
            "election": null,
            "id": 100,
            "name": "Simcoe North"
          }
        ],
        "pollDivisionIds": [
          10141881
        ],
        "postalCode": "L9M1B9",
        "streetName": "BECK",
        "streetDirectionId": null,
        "streetTypeId": "BLVD",
        "placeName": "PENETANGUISHENE",
        "streetNameDisplayText": "BECK BLVD, PENETANGUISHENE"
      },
      {
        "electoralDistricts": [
          {
            "election": null,
            "id": 100,
            "name": "Simcoe North"
          }
        ],
        "pollDivisionIds": [
          10141881
        ],
        "postalCode": "L9M1B9",
        "streetName": "LEVI SIMON",
        "streetDirectionId": null,
        "streetTypeId": "TRAIL",
        "placeName": "PENETANGUISHENE",
        "streetNameDisplayText": "LEVI SIMON TRAIL, PENETANGUISHENE"
      },
      {
        "electoralDistricts": [
          {
            "election": null,
            "id": 100,
            "name": "Simcoe North"
          }
        ],
        "pollDivisionIds": [
          10141881
        ],
        "postalCode": "L9M1B9",
        "streetName": "WOLFE",
        "streetDirectionId": null,
        "streetTypeId": "ST",
        "placeName": "PENETANGUISHENE",
        "streetNameDisplayText": "WOLFE ST, PENETANGUISHENE"
      }
    ]
  },
  {
    "postal": "L9M9E8",
    "result": []
  },
  {
    "postal": "L9M1C9",
    "result": [
      {
        "electoralDistricts": [
          {
            "election": null,
            "id": 100,
            "name": "Simcoe North"
          }
        ],
        "pollDivisionIds": [
          10141881
        ],
        "postalCode": "L9M1C9",
        "streetName": "LEONARD",
        "streetDirectionId": null,
        "streetTypeId": "AVE",
        "placeName": "PENETANGUISHENE",
        "streetNameDisplayText": "LEONARD AVE, PENETANGUISHENE"
      },
      {
        "electoralDistricts": [
          {
            "election": null,
            "id": 100,
            "name": "Simcoe North"
          }
        ],
        "pollDivisionIds": [
          10141881
        ],
        "postalCode": "L9M1C9",
        "streetName": "MCGUIRE",
        "streetDirectionId": null,
        "streetTypeId": "RD",
        "placeName": "PENETANGUISHENE",
        "streetNameDisplayText": "MCGUIRE RD, PENETANGUISHENE"
      },
      {
        "electoralDistricts": [
          {
            "election": null,
            "id": 100,
            "name": "Simcoe North"
          }
        ],
        "pollDivisionIds": [
          10141881
        ],
        "postalCode": "L9M1C9",
        "streetName": "YEO",
        "streetDirectionId": null,
        "streetTypeId": "ST",
        "placeName": "PENETANGUISHENE",
        "streetNameDisplayText": "YEO ST, PENETANGUISHENE"
      }
    ]
  },
  {
    "postal": "L9M3B5",
    "result": []
  },
  {
    "postal": "L9M8R0",
    "result": []
  },
  {
    "postal": "L9M3P2",
    "result": []
  },
  {
    "postal": "L9M5V4",
    "result": []
  },
  {
    "postal": "L9M4H0",
    "result": []
  },
  {
    "postal": "L9M4S7",
    "result": []
  },
  {
    "postal": "L9M6C2",
    "result": []
  },
  {
    "postal": "L9M8W3",
    "result": []
  },
  {
    "postal": "L9M4M5",
    "result": []
  },
  {
    "postal": "L9M5T1",
    "result": []
  },
  {
    "postal": "L9M3B3",
    "result": []
  },
  {
    "postal": "L9M6C6",
    "result": []
  },
  {
    "postal": "L9M7N8",
    "result": []
  },
  {
    "postal": "L9M2Y3",
    "result": []
  },
  {
    "postal": "L9M2R6",
    "result": []
  },
  {
    "postal": "L9M7N3",
    "result": []
  },
  {
    "postal": "L9M8J2",
    "result": []
  },
  {
    "postal": "L9M6A9",
    "result": []
  },
  {
    "postal": "L9M3V2",
    "result": []
  },
  {
    "postal": "L9M2N3",
    "result": []
  },
  {
    "postal": "L9M1S5",
    "result": [
      {
        "electoralDistricts": [
          {
            "election": null,
            "id": 100,
            "name": "Simcoe North"
          }
        ],
        "pollDivisionIds": [
          10141880
        ],
        "postalCode": "L9M1S5",
        "streetName": "CHAMBERLAIN",
        "streetDirectionId": null,
        "streetTypeId": "RD",
        "placeName": "PENETANGUISHENE",
        "streetNameDisplayText": "CHAMBERLAIN RD, PENETANGUISHENE"
      },
      {
        "electoralDistricts": [
          {
            "election": null,
            "id": 100,
            "name": "Simcoe North"
          }
        ],
        "pollDivisionIds": [
          10141880
        ],
        "postalCode": "L9M1S5",
        "streetName": "CHAMPLAIN",
        "streetDirectionId": null,
        "streetTypeId": "RD",
        "placeName": "PENETANGUISHENE",
        "streetNameDisplayText": "CHAMPLAIN RD, PENETANGUISHENE"
      },
      {
        "electoralDistricts": [
          {
            "election": null,
            "id": 100,
            "name": "Simcoe North"
          }
        ],
        "pollDivisionIds": [
          10141880
        ],
        "postalCode": "L9M1S5",
        "streetName": "MIDDLE",
        "streetDirectionId": null,
        "streetTypeId": "RD",
        "placeName": "PENETANGUISHENE",
        "streetNameDisplayText": "MIDDLE RD, PENETANGUISHENE"
      }
    ]
  },
  {
    "postal": "L9M4T7",
    "result": []
  },
  {
    "postal": "L9M6Y7",
    "result": []
  },
  {
    "postal": "L9M0W7",
    "result": []
  },
  {
    "postal": "L9M2W9",
    "result": []
  },
  {
    "postal": "L9M8V0",
    "result": []
  },
  {
    "postal": "L9M0H4",
    "result": [
      {
        "electoralDistricts": [
          {
            "election": null,
            "id": 100,
            "name": "Simcoe North"
          }
        ],
        "pollDivisionIds": [
          10141876
        ],
        "postalCode": "L9M0H4",
        "streetName": "CAPE COD",
        "streetDirectionId": null,
        "streetTypeId": "CRT",
        "placeName": "TINY",
        "streetNameDisplayText": "CAPE COD CRT, TINY"
      },
      {
        "electoralDistricts": [
          {
            "election": null,
            "id": 100,
            "name": "Simcoe North"
          }
        ],
        "pollDivisionIds": [
          10141876
        ],
        "postalCode": "L9M0H4",
        "streetName": "DE PARC",
        "streetDirectionId": null,
        "streetTypeId": "RUE",
        "placeName": "TINY",
        "streetNameDisplayText": "DE PARC RUE, TINY"
      },
      {
        "electoralDistricts": [
          {
            "election": null,
            "id": 100,
            "name": "Simcoe North"
          }
        ],
        "pollDivisionIds": [
          10141876
        ],
        "postalCode": "L9M0H4",
        "streetName": "ELM",
        "streetDirectionId": null,
        "streetTypeId": "LANE",
        "placeName": "TINY",
        "streetNameDisplayText": "ELM LANE, TINY"
      },
      {
        "electoralDistricts": [
          {
            "election": null,
            "id": 100,
            "name": "Simcoe North"
          }
        ],
        "pollDivisionIds": [
          10141876
        ],
        "postalCode": "L9M0H4",
        "streetName": "FOREST",
        "streetDirectionId": null,
        "streetTypeId": "CIR",
        "placeName": "TINY",
        "streetNameDisplayText": "FOREST CIR, TINY"
      },
      {
        "electoralDistricts": [
          {
            "election": null,
            "id": 100,
            "name": "Simcoe North"
          }
        ],
        "pollDivisionIds": [
          10141876
        ],
        "postalCode": "L9M0H4",
        "streetName": "HURONIA",
        "streetDirectionId": null,
        "streetTypeId": "CRT",
        "placeName": "TINY",
        "streetNameDisplayText": "HURONIA CRT, TINY"
      },
      {
        "electoralDistricts": [
          {
            "election": null,
            "id": 100,
            "name": "Simcoe North"
          }
        ],
        "pollDivisionIds": [
          10141876
        ],
        "postalCode": "L9M0H4",
        "streetName": "NATURE",
        "streetDirectionId": null,
        "streetTypeId": "LANE",
        "placeName": "TINY",
        "streetNameDisplayText": "NATURE LANE, TINY"
      },
      {
        "electoralDistricts": [
          {
            "election": null,
            "id": 100,
            "name": "Simcoe North"
          }
        ],
        "pollDivisionIds": [
          10141876
        ],
        "postalCode": "L9M0H4",
        "streetName": "NOTTAWASAGA",
        "streetDirectionId": null,
        "streetTypeId": "CRT",
        "placeName": "TINY",
        "streetNameDisplayText": "NOTTAWASAGA CRT, TINY"
      },
      {
        "electoralDistricts": [
          {
            "election": null,
            "id": 102,
            "name": "Stormont—Dundas—South Glengarry"
          },
          {
            "election": null,
            "id": 100,
            "name": "Simcoe North"
          }
        ],
        "pollDivisionIds": [
          10142066,
          10141876
        ],
        "postalCode": "L9M0H4",
        "streetName": "TALL PINES",
        "streetDirectionId": null,
        "streetTypeId": "DR",
        "placeName": "TINY",
        "streetNameDisplayText": "TALL PINES DR, TINY"
      }
    ]
  },
  {
    "postal": "L9M2T1",
    "result": []
  },
  {
    "postal": "L9M1B1",
    "result": [
      {
        "electoralDistricts": [
          {
            "election": null,
            "id": 100,
            "name": "Simcoe North"
          }
        ],
        "pollDivisionIds": [
          10141881
        ],
        "postalCode": "L9M1B1",
        "streetName": "BROCK",
        "streetDirectionId": null,
        "streetTypeId": "ST",
        "placeName": "PENETANGUESHENE",
        "streetNameDisplayText": "BROCK ST, PENETANGUESHENE"
      },
      {
        "electoralDistricts": [
          {
            "election": null,
            "id": 100,
            "name": "Simcoe North"
          }
        ],
        "pollDivisionIds": [
          10141880,
          10141881
        ],
        "postalCode": "L9M1B1",
        "streetName": "BROCK",
        "streetDirectionId": null,
        "streetTypeId": "ST",
        "placeName": "PENETANGUISHENE",
        "streetNameDisplayText": "BROCK ST, PENETANGUISHENE"
      },
      {
        "electoralDistricts": [
          {
            "election": null,
            "id": 100,
            "name": "Simcoe North"
          }
        ],
        "pollDivisionIds": [
          10141881
        ],
        "postalCode": "L9M1B1",
        "streetName": "LORNE",
        "streetDirectionId": null,
        "streetTypeId": "AVE",
        "placeName": "PENETANGUISHENE",
        "streetNameDisplayText": "LORNE AVE, PENETANGUISHENE"
      },
      {
        "electoralDistricts": [
          {
            "election": null,
            "id": 100,
            "name": "Simcoe North"
          }
        ],
        "pollDivisionIds": [
          10141881
        ],
        "postalCode": "L9M1B1",
        "streetName": "LOUISE",
        "streetDirectionId": null,
        "streetTypeId": "CRES",
        "placeName": "PENETANGUISHENE",
        "streetNameDisplayText": "LOUISE CRES, PENETANGUISHENE"
      },
      {
        "electoralDistricts": [
          {
            "election": null,
            "id": 100,
            "name": "Simcoe North"
          }
        ],
        "pollDivisionIds": [
          10141881,
          10141880
        ],
        "postalCode": "L9M1B1",
        "streetName": "ROBERT",
        "streetDirectionId": "E",
        "streetTypeId": "ST",
        "placeName": "PENETANGUISHENE",
        "streetNameDisplayText": "ROBERT ST E, PENETANGUISHENE"
      }
    ]
  },
  {
    "postal": "L9M8B6",
    "result": []
  },
  {
    "postal": "L9M6H1",
    "result": []
  },
  {
    "postal": "L9M8T8",
    "result": []
  },
  {
    "postal": "L9M0T4",
    "result": [
      {
        "electoralDistricts": [
          {
            "election": null,
            "id": 100,
            "name": "Simcoe North"
          }
        ],
        "pollDivisionIds": [
          10141876
        ],
        "postalCode": "L9M0T4",
        "streetName": "THUNDER BEACH",
        "streetDirectionId": null,
        "streetTypeId": "RD",
        "placeName": "TINY",
        "streetNameDisplayText": "THUNDER BEACH RD, TINY"
      }
    ]
  },
  {
    "postal": "L9M2C4",
    "result": [
      {
        "electoralDistricts": [
          {
            "election": null,
            "id": 100,
            "name": "Simcoe North"
          }
        ],
        "pollDivisionIds": [
          10141882
        ],
        "postalCode": "L9M2C4",
        "streetName": "ZOSCHKE",
        "streetDirectionId": null,
        "streetTypeId": "DR",
        "placeName": "PENETANGUISHENE",
        "streetNameDisplayText": "ZOSCHKE DR, PENETANGUISHENE"
      }
    ]
  },
  {
    "postal": "L9M8N3",
    "result": []
  },
  {
    "postal": "L9M4L8",
    "result": []
  },
  {
    "postal": "L9M2B5",
    "result": [
      {
        "electoralDistricts": [
          {
            "election": null,
            "id": 100,
            "name": "Simcoe North"
          }
        ],
        "pollDivisionIds": [
          10141882
        ],
        "postalCode": "L9M2B5",
        "streetName": "PINE GROVE",
        "streetDirectionId": null,
        "streetTypeId": "RD",
        "placeName": "PENETANGUISHENE",
        "streetNameDisplayText": "PINE GROVE RD, PENETANGUISHENE"
      },
      {
        "electoralDistricts": [
          {
            "election": null,
            "id": 100,
            "name": "Simcoe North"
          }
        ],
        "pollDivisionIds": [
          10141882
        ],
        "postalCode": "L9M2B5",
        "streetName": "PINEGROVE",
        "streetDirectionId": null,
        "streetTypeId": "LANE",
        "placeName": "PENETANGUISHENE",
        "streetNameDisplayText": "PINEGROVE LANE, PENETANGUISHENE"
      },
      {
        "electoralDistricts": [
          {
            "election": null,
            "id": 100,
            "name": "Simcoe North"
          }
        ],
        "pollDivisionIds": [
          10141882
        ],
        "postalCode": "L9M2B5",
        "streetName": "PINEGROVE",
        "streetDirectionId": null,
        "streetTypeId": "RD",
        "placeName": "PENETANGUISHENE",
        "streetNameDisplayText": "PINEGROVE RD, PENETANGUISHENE"
      }
    ]
  },
  {
    "postal": "L9M3H1",
    "result": []
  },
  {
    "postal": "L9M4Y1",
    "result": []
  },
  {
    "postal": "L9M7E2",
    "result": []
  },
  {
    "postal": "L9M2P5",
    "result": []
  },
  {
    "postal": "L9M8R7",
    "result": []
  },
  {
    "postal": "L9M9P1",
    "result": []
  },
  {
    "postal": "L9M3B8",
    "result": []
  },
  {
    "postal": "L9M3P7",
    "result": []
  },
  {
    "postal": "L9M9B2",
    "result": []
  },
  {
    "postal": "L9M6Z3",
    "result": []
  },
  {
    "postal": "L9M4N5",
    "result": []
  },
  {
    "postal": "L9M8T3",
    "result": []
  },
  {
    "postal": "L9M1V2",
    "result": [
      {
        "electoralDistricts": [
          {
            "election": null,
            "id": 100,
            "name": "Simcoe North"
          }
        ],
        "pollDivisionIds": [
          10141880
        ],
        "postalCode": "L9M1V2",
        "streetName": "SIMCOE",
        "streetDirectionId": null,
        "streetTypeId": "ST",
        "placeName": "PENETANGUISHENE",
        "streetNameDisplayText": "SIMCOE ST, PENETANGUISHENE"
      }
    ]
  },
  {
    "postal": "L9M1Y0",
    "result": []
  },
  {
    "postal": "L9M3G6",
    "result": []
  },
  {
    "postal": "L9M3H7",
    "result": []
  },
  {
    "postal": "L9M7X8",
    "result": []
  },
  {
    "postal": "L9M0C7",
    "result": []
  },
  {
    "postal": "L9M0W9",
    "result": []
  },
  {
    "postal": "L9M8E6",
    "result": []
  },
  {
    "postal": "L9M9Z8",
    "result": []
  },
  {
    "postal": "L9M3P4",
    "result": []
  },
  {
    "postal": "L9M6L8",
    "result": []
  },
  {
    "postal": "L9M2R4",
    "result": []
  },
  {
    "postal": "L9M2W1",
    "result": []
  },
  {
    "postal": "L9M9H8",
    "result": []
  },
  {
    "postal": "L9M8X9",
    "result": []
  },
  {
    "postal": "L9M7H4",
    "result": []
  },
  {
    "postal": "L9M3J1",
    "result": []
  },
  {
    "postal": "L9M1P4",
    "result": [
      {
        "electoralDistricts": [
          {
            "election": null,
            "id": 100,
            "name": "Simcoe North"
          }
        ],
        "pollDivisionIds": [
          10141882
        ],
        "postalCode": "L9M1P4",
        "streetName": "BENSON",
        "streetDirectionId": null,
        "streetTypeId": "ST",
        "placeName": "PENETANGUISHENE",
        "streetNameDisplayText": "BENSON ST, PENETANGUISHENE"
      },
      {
        "electoralDistricts": [
          {
            "election": null,
            "id": 100,
            "name": "Simcoe North"
          }
        ],
        "pollDivisionIds": [
          10141882
        ],
        "postalCode": "L9M1P4",
        "streetName": "DUPUIS",
        "streetDirectionId": null,
        "streetTypeId": "DR",
        "placeName": "PENETANGUISHENE",
        "streetNameDisplayText": "DUPUIS DR, PENETANGUISHENE"
      },
      {
        "electoralDistricts": [
          {
            "election": null,
            "id": 100,
            "name": "Simcoe North"
          }
        ],
        "pollDivisionIds": [
          10141880,
          10141882
        ],
        "postalCode": "L9M1P4",
        "streetName": "POYNTZ",
        "streetDirectionId": null,
        "streetTypeId": "ST",
        "placeName": "PENETANGUISHENE",
        "streetNameDisplayText": "POYNTZ ST, PENETANGUISHENE"
      }
    ]
  },
  {
    "postal": "L9M2A3",
    "result": [
      {
        "electoralDistricts": [
          {
            "election": null,
            "id": 100,
            "name": "Simcoe North"
          }
        ],
        "pollDivisionIds": [
          10141882
        ],
        "postalCode": "L9M2A3",
        "streetName": "FORESTDALE",
        "streetDirectionId": null,
        "streetTypeId": "DR",
        "placeName": "PENETANGUISHENE",
        "streetNameDisplayText": "FORESTDALE DR, PENETANGUISHENE"
      }
    ]
  },
  {
    "postal": "L9M0Z1",
    "result": []
  },
  {
    "postal": "L9M1C1",
    "result": [
      {
        "electoralDistricts": [
          {
            "election": null,
            "id": 100,
            "name": "Simcoe North"
          }
        ],
        "pollDivisionIds": [
          10141925
        ],
        "postalCode": "L9M1C1",
        "streetName": "BECK",
        "streetDirectionId": null,
        "streetTypeId": "BLVD",
        "placeName": "PENETANGUISHENE",
        "streetNameDisplayText": "BECK BLVD, PENETANGUISHENE"
      },
      {
        "electoralDistricts": [
          {
            "election": null,
            "id": 100,
            "name": "Simcoe North"
          }
        ],
        "pollDivisionIds": [
          10141881
        ],
        "postalCode": "L9M1C1",
        "streetName": "BURKE",
        "streetDirectionId": null,
        "streetTypeId": "ST",
        "placeName": "PENETANGUISHENE",
        "streetNameDisplayText": "BURKE ST, PENETANGUISHENE"
      },
      {
        "electoralDistricts": [
          {
            "election": null,
            "id": 100,
            "name": "Simcoe North"
          }
        ],
        "pollDivisionIds": [
          10141881
        ],
        "postalCode": "L9M1C1",
        "streetName": "CHATHAM",
        "streetDirectionId": null,
        "streetTypeId": "ST",
        "placeName": "PENETANGUISHENE",
        "streetNameDisplayText": "CHATHAM ST, PENETANGUISHENE"
      }
    ]
  },
  {
    "postal": "L9M0H3",
    "result": [
      {
        "electoralDistricts": [
          {
            "election": null,
            "id": 100,
            "name": "Simcoe North"
          }
        ],
        "pollDivisionIds": [
          10141876
        ],
        "postalCode": "L9M0H3",
        "streetName": "BOURGEOIS",
        "streetDirectionId": null,
        "streetTypeId": "CRT",
        "placeName": "TINY",
        "streetNameDisplayText": "BOURGEOIS CRT, TINY"
      },
      {
        "electoralDistricts": [
          {
            "election": null,
            "id": 100,
            "name": "Simcoe North"
          }
        ],
        "pollDivisionIds": [
          10141876
        ],
        "postalCode": "L9M0H3",
        "streetName": "CELESTINE",
        "streetDirectionId": null,
        "streetTypeId": "CRT",
        "placeName": "TINY",
        "streetNameDisplayText": "CELESTINE CRT, TINY"
      },
      {
        "electoralDistricts": [
          {
            "election": null,
            "id": 100,
            "name": "Simcoe North"
          }
        ],
        "pollDivisionIds": [
          10141876
        ],
        "postalCode": "L9M0H3",
        "streetName": "CRANBROOKE",
        "streetDirectionId": null,
        "streetTypeId": "CRT",
        "placeName": "TINY",
        "streetNameDisplayText": "CRANBROOKE CRT, TINY"
      },
      {
        "electoralDistricts": [
          {
            "election": null,
            "id": 100,
            "name": "Simcoe North"
          }
        ],
        "pollDivisionIds": [
          10141876
        ],
        "postalCode": "L9M0H3",
        "streetName": "DE LAC",
        "streetDirectionId": null,
        "streetTypeId": "RUE",
        "placeName": "TINY",
        "streetNameDisplayText": "DE LAC RUE, TINY"
      },
      {
        "electoralDistricts": [
          {
            "election": null,
            "id": 100,
            "name": "Simcoe North"
          }
        ],
        "pollDivisionIds": [
          10141876
        ],
        "postalCode": "L9M0H3",
        "streetName": "DELBROOKE",
        "streetDirectionId": null,
        "streetTypeId": "CRT",
        "placeName": "TINY",
        "streetNameDisplayText": "DELBROOKE CRT, TINY"
      },
      {
        "electoralDistricts": [
          {
            "election": null,
            "id": 100,
            "name": "Simcoe North"
          }
        ],
        "pollDivisionIds": [
          10141876
        ],
        "postalCode": "L9M0H3",
        "streetName": "DUQUETTE",
        "streetDirectionId": null,
        "streetTypeId": "CRT",
        "placeName": "TINY",
        "streetNameDisplayText": "DUQUETTE CRT, TINY"
      },
      {
        "electoralDistricts": [
          {
            "election": null,
            "id": 100,
            "name": "Simcoe North"
          }
        ],
        "pollDivisionIds": [
          10141876
        ],
        "postalCode": "L9M0H3",
        "streetName": "GARY",
        "streetDirectionId": null,
        "streetTypeId": "CRT",
        "placeName": "TINY",
        "streetNameDisplayText": "GARY CRT, TINY"
      },
      {
        "electoralDistricts": [
          {
            "election": null,
            "id": 100,
            "name": "Simcoe North"
          }
        ],
        "pollDivisionIds": [
          10141876
        ],
        "postalCode": "L9M0H3",
        "streetName": "LAFONTAINE",
        "streetDirectionId": "W",
        "streetTypeId": "RD",
        "placeName": "TINY",
        "streetNameDisplayText": "LAFONTAINE RD W, TINY"
      },
      {
        "electoralDistricts": [
          {
            "election": null,
            "id": 100,
            "name": "Simcoe North"
          }
        ],
        "pollDivisionIds": [
          10141876
        ],
        "postalCode": "L9M0H3",
        "streetName": "LANNAN",
        "streetDirectionId": null,
        "streetTypeId": "DR",
        "placeName": "TINY",
        "streetNameDisplayText": "LANNAN DR, TINY"
      },
      {
        "electoralDistricts": [
          {
            "election": null,
            "id": 100,
            "name": "Simcoe North"
          }
        ],
        "pollDivisionIds": [
          10141876
        ],
        "postalCode": "L9M0H3",
        "streetName": "MARCHAND",
        "streetDirectionId": null,
        "streetTypeId": "RD",
        "placeName": "TINY",
        "streetNameDisplayText": "MARCHAND RD, TINY"
      },
      {
        "electoralDistricts": [
          {
            "election": null,
            "id": 100,
            "name": "Simcoe North"
          }
        ],
        "pollDivisionIds": [
          10141879,
          10141876
        ],
        "postalCode": "L9M0H3",
        "streetName": "MOREAU",
        "streetDirectionId": null,
        "streetTypeId": "PKY",
        "placeName": "TINY",
        "streetNameDisplayText": "MOREAU PKY, TINY"
      },
      {
        "electoralDistricts": [
          {
            "election": null,
            "id": 100,
            "name": "Simcoe North"
          }
        ],
        "pollDivisionIds": [
          10141876
        ],
        "postalCode": "L9M0H3",
        "streetName": "RUE LAFONTAINE",
        "streetDirectionId": "W",
        "streetTypeId": "RD",
        "placeName": "TINY",
        "streetNameDisplayText": "RUE LAFONTAINE RD W, TINY"
      },
      {
        "electoralDistricts": [
          {
            "election": null,
            "id": 100,
            "name": "Simcoe North"
          }
        ],
        "pollDivisionIds": [
          10141876
        ],
        "postalCode": "L9M0H3",
        "streetName": "TINY BEACHES",
        "streetDirectionId": "N",
        "streetTypeId": "RD",
        "placeName": "TINY",
        "streetNameDisplayText": "TINY BEACHES RD N, TINY"
      }
    ]
  },
  {
    "postal": "L9M7B0",
    "result": []
  },
  {
    "postal": "L9M5K2",
    "result": []
  },
  {
    "postal": "L9M1E9",
    "result": [
      {
        "electoralDistricts": [
          {
            "election": null,
            "id": 100,
            "name": "Simcoe North"
          }
        ],
        "pollDivisionIds": [
          10141881
        ],
        "postalCode": "L9M1E9",
        "streetName": "BROAD",
        "streetDirectionId": null,
        "streetTypeId": "ST",
        "placeName": "PENETANGUISHENE",
        "streetNameDisplayText": "BROAD ST, PENETANGUISHENE"
      },
      {
        "electoralDistricts": [
          {
            "election": null,
            "id": 100,
            "name": "Simcoe North"
          }
        ],
        "pollDivisionIds": [
          10141881
        ],
        "postalCode": "L9M1E9",
        "streetName": "FOX",
        "streetDirectionId": null,
        "streetTypeId": "ST",
        "placeName": "PENETANGUISHENE",
        "streetNameDisplayText": "FOX ST, PENETANGUISHENE"
      }
    ]
  },
  {
    "postal": "L9M9W7",
    "result": []
  },
  {
    "postal": "L9M5W6",
    "result": []
  },
  {
    "postal": "L9M6S6",
    "result": []
  },
  {
    "postal": "L9M2P8",
    "result": []
  },
  {
    "postal": "L9M4P8",
    "result": []
  },
  {
    "postal": "L9M0V9",
    "result": []
  },
  {
    "postal": "L9M5Y2",
    "result": []
  },
  {
    "postal": "L9M7Z7",
    "result": []
  },
  {
    "postal": "L9M6Y8",
    "result": []
  },
  {
    "postal": "L9M2G7",
    "result": [
      {
        "electoralDistricts": [
          {
            "election": null,
            "id": 100,
            "name": "Simcoe North"
          }
        ],
        "pollDivisionIds": [
          10141882
        ],
        "postalCode": "L9M2G7",
        "streetName": "CHARLES",
        "streetDirectionId": null,
        "streetTypeId": "ST",
        "placeName": "PENETANGUISHENE",
        "streetNameDisplayText": "CHARLES ST, PENETANGUISHENE"
      },
      {
        "electoralDistricts": [
          {
            "election": null,
            "id": 100,
            "name": "Simcoe North"
          }
        ],
        "pollDivisionIds": [
          10141882
        ],
        "postalCode": "L9M2G7",
        "streetName": "JAMES",
        "streetDirectionId": null,
        "streetTypeId": "ST",
        "placeName": "PENETANGUISHENE",
        "streetNameDisplayText": "JAMES ST, PENETANGUISHENE"
      },
      {
        "electoralDistricts": [
          {
            "election": null,
            "id": 100,
            "name": "Simcoe North"
          }
        ],
        "pollDivisionIds": [
          10141882
        ],
        "postalCode": "L9M2G7",
        "streetName": "MARIA",
        "streetDirectionId": null,
        "streetTypeId": "ST",
        "placeName": "PENETANGUISHENE",
        "streetNameDisplayText": "MARIA ST, PENETANGUISHENE"
      }
    ]
  },
  {
    "postal": "L9M8C1",
    "result": []
  },
  {
    "postal": "L9M5C5",
    "result": []
  },
  {
    "postal": "L9M2X8",
    "result": []
  },
  {
    "postal": "L9M1W5",
    "result": [
      {
        "electoralDistricts": [
          {
            "election": null,
            "id": 100,
            "name": "Simcoe North"
          }
        ],
        "pollDivisionIds": [
          10141882
        ],
        "postalCode": "L9M1W5",
        "streetName": "WOZNIAK",
        "streetDirectionId": null,
        "streetTypeId": "RD",
        "placeName": "PENETANGUISHENE",
        "streetNameDisplayText": "WOZNIAK RD, PENETANGUISHENE"
      }
    ]
  },
  {
    "postal": "L9M7G0",
    "result": []
  },
  {
    "postal": "L9M8J8",
    "result": []
  },
  {
    "postal": "L9M3Y0",
    "result": []
  },
  {
    "postal": "L9M9T7",
    "result": []
  },
  {
    "postal": "L9M5P4",
    "result": []
  },
  {
    "postal": "L9M4B0",
    "result": []
  },
  {
    "postal": "L9M9N8",
    "result": []
  },
  {
    "postal": "L9M4A7",
    "result": []
  },
  {
    "postal": "L9M4H9",
    "result": []
  },
  {
    "postal": "L9M6X1",
    "result": []
  },
  {
    "postal": "L9M9Y7",
    "result": []
  },
  {
    "postal": "L9M2Y5",
    "result": []
  },
  {
    "postal": "L9M8L7",
    "result": []
  },
  {
    "postal": "L9M2A8",
    "result": [
      {
        "electoralDistricts": [
          {
            "election": null,
            "id": 100,
            "name": "Simcoe North"
          }
        ],
        "pollDivisionIds": [
          10141882
        ],
        "postalCode": "L9M2A8",
        "streetName": "SANDY BAY",
        "streetDirectionId": null,
        "streetTypeId": "RD",
        "placeName": "PENETANGUISHENE",
        "streetNameDisplayText": "SANDY BAY RD, PENETANGUISHENE"
      }
    ]
  },
  {
    "postal": "L9M2K9",
    "result": []
  },
  {
    "postal": "L9M3E5",
    "result": []
  },
  {
    "postal": "L9M8N6",
    "result": []
  },
  {
    "postal": "L9M8J4",
    "result": []
  },
  {
    "postal": "L9M4R7",
    "result": []
  },
  {
    "postal": "L9M9K1",
    "result": []
  },
  {
    "postal": "L9M8E1",
    "result": []
  },
  {
    "postal": "L9M0R1",
    "result": [
      {
        "electoralDistricts": [
          {
            "election": null,
            "id": 100,
            "name": "Simcoe North"
          }
        ],
        "pollDivisionIds": [
          10141877
        ],
        "postalCode": "L9M0R1",
        "streetName": "COTE DE LA DALLE",
        "streetDirectionId": null,
        "streetTypeId": null,
        "placeName": "TINY",
        "streetNameDisplayText": "COTE DE LA DALLE, TINY"
      }
    ]
  },
  {
    "postal": "L9M4J3",
    "result": []
  },
  {
    "postal": "L9M7E7",
    "result": []
  },
  {
    "postal": "L9M0J0",
    "result": []
  },
  {
    "postal": "L9M7R8",
    "result": []
  },
  {
    "postal": "L9M9X0",
    "result": []
  },
  {
    "postal": "L9M7P6",
    "result": []
  },
  {
    "postal": "L9M0R7",
    "result": [
      {
        "electoralDistricts": [
          {
            "election": null,
            "id": 100,
            "name": "Simcoe North"
          }
        ],
        "pollDivisionIds": [
          10141876
        ],
        "postalCode": "L9M0R7",
        "streetName": "CHEMIN DU LOUP",
        "streetDirectionId": null,
        "streetTypeId": "RD",
        "placeName": "TINY",
        "streetNameDisplayText": "CHEMIN DU LOUP RD, TINY"
      }
    ]
  },
  {
    "postal": "L9M5W1",
    "result": []
  },
  {
    "postal": "L9M0K4",
    "result": [
      {
        "electoralDistricts": [
          {
            "election": null,
            "id": 100,
            "name": "Simcoe North"
          }
        ],
        "pollDivisionIds": [
          10141876
        ],
        "postalCode": "L9M0K4",
        "streetName": "CONCESSION 15",
        "streetDirectionId": "W",
        "streetTypeId": "RD",
        "placeName": "TINY",
        "streetNameDisplayText": "CONCESSION 15 RD W, TINY"
      },
      {
        "electoralDistricts": [
          {
            "election": null,
            "id": 100,
            "name": "Simcoe North"
          }
        ],
        "pollDivisionIds": [
          10141876
        ],
        "postalCode": "L9M0K4",
        "streetName": "CONCESSION 15",
        "streetDirectionId": "W",
        "streetTypeId": null,
        "placeName": "TINY",
        "streetNameDisplayText": "CONCESSION 15 W, TINY"
      }
    ]
  },
  {
    "postal": "L9M7N9",
    "result": []
  },
  {
    "postal": "L9M1N0",
    "result": []
  },
  {
    "postal": "L9M6P3",
    "result": []
  },
  {
    "postal": "L9M5A1",
    "result": []
  },
  {
    "postal": "L9M9M9",
    "result": []
  },
  {
    "postal": "L9M7T6",
    "result": []
  },
  {
    "postal": "L9M3X0",
    "result": []
  },
  {
    "postal": "L9M2T0",
    "result": []
  },
  {
    "postal": "L9M5X9",
    "result": []
  },
  {
    "postal": "L9M2R3",
    "result": []
  },
  {
    "postal": "L9M5N2",
    "result": []
  },
  {
    "postal": "L9M4Y7",
    "result": []
  },
  {
    "postal": "L9M7M0",
    "result": []
  },
  {
    "postal": "L9M8P3",
    "result": []
  },
  {
    "postal": "L9M3N3",
    "result": []
  },
  {
    "postal": "L9M7S3",
    "result": []
  },
  {
    "postal": "L9M3V9",
    "result": []
  },
  {
    "postal": "L9M9N7",
    "result": []
  },
  {
    "postal": "L9M0G4",
    "result": [
      {
        "electoralDistricts": [
          {
            "election": null,
            "id": 100,
            "name": "Simcoe North"
          }
        ],
        "pollDivisionIds": [
          10141880
        ],
        "postalCode": "L9M0G4",
        "streetName": "MACAVALLEY",
        "streetDirectionId": null,
        "streetTypeId": "RD",
        "placeName": "TINY",
        "streetNameDisplayText": "MACAVALLEY RD, TINY"
      }
    ]
  },
  {
    "postal": "L9M2E2",
    "result": []
  },
  {
    "postal": "L9M7W8",
    "result": []
  },
  {
    "postal": "L9M7M5",
    "result": []
  },
  {
    "postal": "L9M5W8",
    "result": []
  },
  {
    "postal": "L9M5E5",
    "result": []
  },
  {
    "postal": "L9M1P9",
    "result": [
      {
        "electoralDistricts": [
          {
            "election": null,
            "id": 100,
            "name": "Simcoe North"
          }
        ],
        "pollDivisionIds": [
          10141882
        ],
        "postalCode": "L9M1P9",
        "streetName": "LAFONTAINE",
        "streetDirectionId": "E",
        "streetTypeId": "RD",
        "placeName": "PENETANGUISHENE",
        "streetNameDisplayText": "LAFONTAINE RD E, PENETANGUISHENE"
      },
      {
        "electoralDistricts": [
          {
            "election": null,
            "id": 100,
            "name": "Simcoe North"
          }
        ],
        "pollDivisionIds": [
          10141882
        ],
        "postalCode": "L9M1P9",
        "streetName": "ROBERT",
        "streetDirectionId": "W",
        "streetTypeId": "ST",
        "placeName": "PENETANGUISHENE",
        "streetNameDisplayText": "ROBERT ST W, PENETANGUISHENE"
      },
      {
        "electoralDistricts": [
          {
            "election": null,
            "id": 100,
            "name": "Simcoe North"
          }
        ],
        "pollDivisionIds": [
          10141880,
          10141882
        ],
        "postalCode": "L9M1P9",
        "streetName": "RUE LAFONTAINE",
        "streetDirectionId": "E",
        "streetTypeId": "RD",
        "placeName": "PENETANGUISHENE",
        "streetNameDisplayText": "RUE LAFONTAINE RD E, PENETANGUISHENE"
      }
    ]
  },
  {
    "postal": "L9M8V8",
    "result": []
  },
  {
    "postal": "L9M9G8",
    "result": []
  },
  {
    "postal": "L9M8H9",
    "result": []
  },
  {
    "postal": "L9M1Z1",
    "result": [
      {
        "electoralDistricts": [
          {
            "election": null,
            "id": 100,
            "name": "Simcoe North"
          }
        ],
        "pollDivisionIds": [
          10141882
        ],
        "postalCode": "L9M1Z1",
        "streetName": "GILWOOD PARK",
        "streetDirectionId": null,
        "streetTypeId": "DR",
        "placeName": "PENETANGUISHENE",
        "streetNameDisplayText": "GILWOOD PARK DR, PENETANGUISHENE"
      }
    ]
  },
  {
    "postal": "L9M8M3",
    "result": []
  },
  {
    "postal": "L9M5H6",
    "result": []
  },
  {
    "postal": "L9M7W7",
    "result": []
  },
  {
    "postal": "L9M4L0",
    "result": []
  },
  {
    "postal": "L9M2N1",
    "result": []
  },
  {
    "postal": "L9M2H4",
    "result": [
      {
        "electoralDistricts": [
          {
            "election": null,
            "id": 100,
            "name": "Simcoe North"
          }
        ],
        "pollDivisionIds": [
          10141882
        ],
        "postalCode": "L9M2H4",
        "streetName": "FULLER",
        "streetDirectionId": null,
        "streetTypeId": "AVE",
        "placeName": "PENETANGUISHENE",
        "streetNameDisplayText": "FULLER AVE, PENETANGUISHENE"
      }
    ]
  },
  {
    "postal": "L9M5C8",
    "result": []
  },
  {
    "postal": "L9M8B0",
    "result": []
  },
  {
    "postal": "L9M1T4",
    "result": [
      {
        "electoralDistricts": [
          {
            "election": null,
            "id": 100,
            "name": "Simcoe North"
          }
        ],
        "pollDivisionIds": [
          10141880
        ],
        "postalCode": "L9M1T4",
        "streetName": "MAIN",
        "streetDirectionId": null,
        "streetTypeId": "ST",
        "placeName": "PENETANGUISHENE",
        "streetNameDisplayText": "MAIN ST, PENETANGUISHENE"
      }
    ]
  },
  {
    "postal": "L9M7N7",
    "result": []
  },
  {
    "postal": "L9M4L3",
    "result": []
  },
  {
    "postal": "L9M2N2",
    "result": []
  },
  {
    "postal": "L9M4N8",
    "result": []
  },
  {
    "postal": "L9M3M5",
    "result": []
  },
  {
    "postal": "L9M6H7",
    "result": []
  },
  {
    "postal": "L9M8Y8",
    "result": []
  },
  {
    "postal": "L9M5R9",
    "result": []
  },
  {
    "postal": "L9M8G3",
    "result": []
  },
  {
    "postal": "L9M4N7",
    "result": []
  },
  {
    "postal": "L9M0B9",
    "result": [
      {
        "electoralDistricts": [
          {
            "election": null,
            "id": 100,
            "name": "Simcoe North"
          }
        ],
        "pollDivisionIds": [
          10141880
        ],
        "postalCode": "L9M0B9",
        "streetName": "17",
        "streetDirectionId": "E",
        "streetTypeId": "CONC",
        "placeName": "TINY",
        "streetNameDisplayText": "17 CONC E, TINY"
      },
      {
        "electoralDistricts": [
          {
            "election": null,
            "id": 100,
            "name": "Simcoe North"
          }
        ],
        "pollDivisionIds": [
          10141880
        ],
        "postalCode": "L9M0B9",
        "streetName": "ALLPORT",
        "streetDirectionId": null,
        "streetTypeId": "RD",
        "placeName": "TINY",
        "streetNameDisplayText": "ALLPORT RD, TINY"
      },
      {
        "electoralDistricts": [
          {
            "election": null,
            "id": 100,
            "name": "Simcoe North"
          }
        ],
        "pollDivisionIds": [
          10141880
        ],
        "postalCode": "L9M0B9",
        "streetName": "AWENDA PARK",
        "streetDirectionId": null,
        "streetTypeId": "RD",
        "placeName": "TINY",
        "streetNameDisplayText": "AWENDA PARK RD, TINY"
      },
      {
        "electoralDistricts": [
          {
            "election": null,
            "id": 100,
            "name": "Simcoe North"
          }
        ],
        "pollDivisionIds": [
          10141880
        ],
        "postalCode": "L9M0B9",
        "streetName": "BLUE JAY",
        "streetDirectionId": null,
        "streetTypeId": "CRT",
        "placeName": "TINY",
        "streetNameDisplayText": "BLUE JAY CRT, TINY"
      },
      {
        "electoralDistricts": [
          {
            "election": null,
            "id": 100,
            "name": "Simcoe North"
          }
        ],
        "pollDivisionIds": [
          10141880
        ],
        "postalCode": "L9M0B9",
        "streetName": "CONCESSION 17",
        "streetDirectionId": "E",
        "streetTypeId": null,
        "placeName": "TINY",
        "streetNameDisplayText": "CONCESSION 17 E, TINY"
      },
      {
        "electoralDistricts": [
          {
            "election": null,
            "id": 100,
            "name": "Simcoe North"
          }
        ],
        "pollDivisionIds": [
          10141880
        ],
        "postalCode": "L9M0B9",
        "streetName": "FARLAIN LAKE",
        "streetDirectionId": "W",
        "streetTypeId": "RD",
        "placeName": "TINY",
        "streetNameDisplayText": "FARLAIN LAKE RD W, TINY"
      },
      {
        "electoralDistricts": [
          {
            "election": null,
            "id": 100,
            "name": "Simcoe North"
          }
        ],
        "pollDivisionIds": [
          10141880
        ],
        "postalCode": "L9M0B9",
        "streetName": "LAKEVIEW",
        "streetDirectionId": null,
        "streetTypeId": "CRES",
        "placeName": "TINY",
        "streetNameDisplayText": "LAKEVIEW CRES, TINY"
      },
      {
        "electoralDistricts": [
          {
            "election": null,
            "id": 100,
            "name": "Simcoe North"
          }
        ],
        "pollDivisionIds": [
          10141880
        ],
        "postalCode": "L9M0B9",
        "streetName": "ROBIN",
        "streetDirectionId": null,
        "streetTypeId": "CRT",
        "placeName": "TINY",
        "streetNameDisplayText": "ROBIN CRT, TINY"
      },
      {
        "electoralDistricts": [
          {
            "election": null,
            "id": 100,
            "name": "Simcoe North"
          }
        ],
        "pollDivisionIds": [
          10141880
        ],
        "postalCode": "L9M0B9",
        "streetName": "TIMCOURT",
        "streetDirectionId": null,
        "streetTypeId": "DR",
        "placeName": "TINY",
        "streetNameDisplayText": "TIMCOURT DR, TINY"
      }
    ]
  },
  {
    "postal": "L9M9K7",
    "result": []
  },
  {
    "postal": "L9M9K9",
    "result": []
  },
  {
    "postal": "L9M3Z2",
    "result": []
  },
  {
    "postal": "L9M6W7",
    "result": []
  },
  {
    "postal": "L9M0P1",
    "result": [
      {
        "electoralDistricts": [
          {
            "election": null,
            "id": 100,
            "name": "Simcoe North"
          }
        ],
        "pollDivisionIds": [
          10141880
        ],
        "postalCode": "L9M0P1",
        "streetName": "CONCESSION 16",
        "streetDirectionId": "E",
        "streetTypeId": "RD",
        "placeName": "TINY",
        "streetNameDisplayText": "CONCESSION 16 RD E, TINY"
      }
    ]
  },
  {
    "postal": "L9M3A0",
    "result": []
  },
  {
    "postal": "L9M8L9",
    "result": []
  },
  {
    "postal": "L9M6X0",
    "result": []
  },
  {
    "postal": "L9M3E9",
    "result": []
  },
  {
    "postal": "L9M0S5",
    "result": [
      {
        "electoralDistricts": [
          {
            "election": null,
            "id": 100,
            "name": "Simcoe North"
          }
        ],
        "pollDivisionIds": [
          10141877
        ],
        "postalCode": "L9M0S5",
        "streetName": "RUE LAFONTAINE",
        "streetDirectionId": "E",
        "streetTypeId": "RD",
        "placeName": "TINY",
        "streetNameDisplayText": "RUE LAFONTAINE RD E, TINY"
      }
    ]
  },
  {
    "postal": "L9M1A2",
    "result": []
  },
  {
    "postal": "L9M5V8",
    "result": []
  },
  {
    "postal": "L9M8C5",
    "result": []
  },
  {
    "postal": "L9M6N0",
    "result": []
  },
  {
    "postal": "L9M9E6",
    "result": []
  },
  {
    "postal": "L9M5J7",
    "result": []
  },
  {
    "postal": "L9M2R2",
    "result": []
  },
  {
    "postal": "L9M0P5",
    "result": [
      {
        "electoralDistricts": [
          {
            "election": null,
            "id": 100,
            "name": "Simcoe North"
          }
        ],
        "pollDivisionIds": [
          10141876
        ],
        "postalCode": "L9M0P5",
        "streetName": "CONCESSION 17",
        "streetDirectionId": "W",
        "streetTypeId": "RD",
        "placeName": "TINY",
        "streetNameDisplayText": "CONCESSION 17 RD W, TINY"
      }
    ]
  },
  {
    "postal": "L9M5A7",
    "result": []
  },
  {
    "postal": "L9M1G1",
    "result": [
      {
        "electoralDistricts": [
          {
            "election": null,
            "id": 100,
            "name": "Simcoe North"
          }
        ],
        "pollDivisionIds": [
          10141881
        ],
        "postalCode": "L9M1G1",
        "streetName": "BROAD",
        "streetDirectionId": null,
        "streetTypeId": "ST",
        "placeName": "PENETANGUISHENE",
        "streetNameDisplayText": "BROAD ST, PENETANGUISHENE"
      },
      {
        "electoralDistricts": [
          {
            "election": null,
            "id": 100,
            "name": "Simcoe North"
          }
        ],
        "pollDivisionIds": [
          10141881
        ],
        "postalCode": "L9M1G1",
        "streetName": "JURY",
        "streetDirectionId": null,
        "streetTypeId": "DR",
        "placeName": "PENETANGUISHENE",
        "streetNameDisplayText": "JURY DR, PENETANGUISHENE"
      }
    ]
  },
  {
    "postal": "L9M9R6",
    "result": []
  },
  {
    "postal": "L9M4Z9",
    "result": []
  },
  {
    "postal": "L9M1V5",
    "result": [
      {
        "electoralDistricts": [
          {
            "election": null,
            "id": 100,
            "name": "Simcoe North"
          }
        ],
        "pollDivisionIds": [
          10141880
        ],
        "postalCode": "L9M1V5",
        "streetName": "WATER",
        "streetDirectionId": null,
        "streetTypeId": "ST",
        "placeName": "PENETANGUISHENE",
        "streetNameDisplayText": "WATER ST, PENETANGUISHENE"
      }
    ]
  },
  {
    "postal": "L9M9Y5",
    "result": []
  },
  {
    "postal": "L9M1P2",
    "result": [
      {
        "electoralDistricts": [
          {
            "election": null,
            "id": 100,
            "name": "Simcoe North"
          }
        ],
        "pollDivisionIds": [
          10141880
        ],
        "postalCode": "L9M1P2",
        "streetName": "ROBERT",
        "streetDirectionId": "W",
        "streetTypeId": "ST",
        "placeName": "PENETANGUISHENE",
        "streetNameDisplayText": "ROBERT ST W, PENETANGUISHENE"
      }
    ]
  },
  {
    "postal": "L9M5X0",
    "result": []
  },
  {
    "postal": "L9M7B8",
    "result": []
  },
  {
    "postal": "L9M0C6",
    "result": [
      {
        "electoralDistricts": [
          {
            "election": null,
            "id": 100,
            "name": "Simcoe North"
          }
        ],
        "pollDivisionIds": [
          10141880
        ],
        "postalCode": "L9M0C6",
        "streetName": "CHAMPLAIN",
        "streetDirectionId": null,
        "streetTypeId": "RD",
        "placeName": "TINY",
        "streetNameDisplayText": "CHAMPLAIN RD, TINY"
      },
      {
        "electoralDistricts": [
          {
            "election": null,
            "id": 100,
            "name": "Simcoe North"
          }
        ],
        "pollDivisionIds": [
          10141880
        ],
        "postalCode": "L9M0C6",
        "streetName": "COUCHICHING",
        "streetDirectionId": null,
        "streetTypeId": "CRES",
        "placeName": "TINY",
        "streetNameDisplayText": "COUCHICHING CRES, TINY"
      },
      {
        "electoralDistricts": [
          {
            "election": null,
            "id": 100,
            "name": "Simcoe North"
          }
        ],
        "pollDivisionIds": [
          10141880
        ],
        "postalCode": "L9M0C6",
        "streetName": "IROQUOIS",
        "streetDirectionId": null,
        "streetTypeId": "CRES",
        "placeName": "TINY",
        "streetNameDisplayText": "IROQUOIS CRES, TINY"
      },
      {
        "electoralDistricts": [
          {
            "election": null,
            "id": 100,
            "name": "Simcoe North"
          }
        ],
        "pollDivisionIds": [
          10141880
        ],
        "postalCode": "L9M0C6",
        "streetName": "MANITOU",
        "streetDirectionId": null,
        "streetTypeId": "CRES",
        "placeName": "TINY",
        "streetNameDisplayText": "MANITOU CRES, TINY"
      }
    ]
  },
  {
    "postal": "L9M6G1",
    "result": []
  },
  {
    "postal": "L9M3K3",
    "result": []
  },
  {
    "postal": "L9M9R0",
    "result": []
  },
  {
    "postal": "L9M4R8",
    "result": []
  },
  {
    "postal": "L9M5P9",
    "result": []
  },
  {
    "postal": "L9M8N4",
    "result": []
  },
  {
    "postal": "L9M8H4",
    "result": []
  },
  {
    "postal": "L9M4V1",
    "result": []
  },
  {
    "postal": "L9M1K5",
    "result": [
      {
        "electoralDistricts": [
          {
            "election": null,
            "id": 100,
            "name": "Simcoe North"
          }
        ],
        "pollDivisionIds": [
          10141882
        ],
        "postalCode": "L9M1K5",
        "streetName": "ANNE",
        "streetDirectionId": null,
        "streetTypeId": "ST",
        "placeName": "PENETANGUISHENE",
        "streetNameDisplayText": "ANNE ST, PENETANGUISHENE"
      },
      {
        "electoralDistricts": [
          {
            "election": null,
            "id": 100,
            "name": "Simcoe North"
          }
        ],
        "pollDivisionIds": [
          10141882
        ],
        "postalCode": "L9M1K5",
        "streetName": "JEFFERY",
        "streetDirectionId": null,
        "streetTypeId": "ST",
        "placeName": "PENETANGUISHENE",
        "streetNameDisplayText": "JEFFERY ST, PENETANGUISHENE"
      }
    ]
  },
  {
    "postal": "L9M1Z5",
    "result": []
  },
  {
    "postal": "L9M9L9",
    "result": []
  },
  {
    "postal": "L9M5L2",
    "result": []
  },
  {
    "postal": "L9M0M2",
    "result": [
      {
        "electoralDistricts": [
          {
            "election": null,
            "id": 100,
            "name": "Simcoe North"
          }
        ],
        "pollDivisionIds": [
          10141877
        ],
        "postalCode": "L9M0M2",
        "streetName": "BAYWOOD",
        "streetDirectionId": null,
        "streetTypeId": "GATE",
        "placeName": "TINY",
        "streetNameDisplayText": "BAYWOOD GATE, TINY"
      },
      {
        "electoralDistricts": [
          {
            "election": null,
            "id": 100,
            "name": "Simcoe North"
          }
        ],
        "pollDivisionIds": [
          10141877
        ],
        "postalCode": "L9M0M2",
        "streetName": "COPELAND CREEK",
        "streetDirectionId": null,
        "streetTypeId": "DR",
        "placeName": "TINY",
        "streetNameDisplayText": "COPELAND CREEK DR, TINY"
      },
      {
        "electoralDistricts": [
          {
            "election": null,
            "id": 100,
            "name": "Simcoe North"
          }
        ],
        "pollDivisionIds": [
          10141877
        ],
        "postalCode": "L9M0M2",
        "streetName": "MEADOWBROOK",
        "streetDirectionId": null,
        "streetTypeId": "BLVD",
        "placeName": "TINY",
        "streetNameDisplayText": "MEADOWBROOK BLVD, TINY"
      }
    ]
  },
  {
    "postal": "L9M1K8",
    "result": [
      {
        "electoralDistricts": [
          {
            "election": null,
            "id": 100,
            "name": "Simcoe North"
          }
        ],
        "pollDivisionIds": [
          10141926
        ],
        "postalCode": "L9M1K8",
        "streetName": "HARRIET",
        "streetDirectionId": null,
        "streetTypeId": "ST",
        "placeName": "PENETANGUISHENE",
        "streetNameDisplayText": "HARRIET ST, PENETANGUISHENE"
      }
    ]
  },
  {
    "postal": "L9M3M7",
    "result": []
  },
  {
    "postal": "L9M1B2",
    "result": [
      {
        "electoralDistricts": [
          {
            "election": null,
            "id": 100,
            "name": "Simcoe North"
          }
        ],
        "pollDivisionIds": [
          10141881
        ],
        "postalCode": "L9M1B2",
        "streetName": "BRULE",
        "streetDirectionId": null,
        "streetTypeId": "ST",
        "placeName": "PENETANGUISHENE",
        "streetNameDisplayText": "BRULE ST, PENETANGUISHENE"
      },
      {
        "electoralDistricts": [
          {
            "election": null,
            "id": 100,
            "name": "Simcoe North"
          }
        ],
        "pollDivisionIds": [
          10141881
        ],
        "postalCode": "L9M1B2",
        "streetName": "BURKE",
        "streetDirectionId": null,
        "streetTypeId": "ST",
        "placeName": "PENETANGUISHENE",
        "streetNameDisplayText": "BURKE ST, PENETANGUISHENE"
      },
      {
        "electoralDistricts": [
          {
            "election": null,
            "id": 100,
            "name": "Simcoe North"
          }
        ],
        "pollDivisionIds": [
          10141881
        ],
        "postalCode": "L9M1B2",
        "streetName": "COUNTRY CLUB",
        "streetDirectionId": null,
        "streetTypeId": "CRT",
        "placeName": "PENETANGUISHENE",
        "streetNameDisplayText": "COUNTRY CLUB CRT, PENETANGUISHENE"
      },
      {
        "electoralDistricts": [
          {
            "election": null,
            "id": 100,
            "name": "Simcoe North"
          }
        ],
        "pollDivisionIds": [
          10141881
        ],
        "postalCode": "L9M1B2",
        "streetName": "LORNE",
        "streetDirectionId": null,
        "streetTypeId": "AVE",
        "placeName": "PENETANGUISHENE",
        "streetNameDisplayText": "LORNE AVE, PENETANGUISHENE"
      }
    ]
  },
  {
    "postal": "L9M0H9",
    "result": [
      {
        "electoralDistricts": [
          {
            "election": null,
            "id": 100,
            "name": "Simcoe North"
          }
        ],
        "pollDivisionIds": [
          10141876
        ],
        "postalCode": "L9M0H9",
        "streetName": "DESCROCHES",
        "streetDirectionId": null,
        "streetTypeId": "TRAIL",
        "placeName": "TINY",
        "streetNameDisplayText": "DESCROCHES TRAIL, TINY"
      },
      {
        "electoralDistricts": [
          {
            "election": null,
            "id": 100,
            "name": "Simcoe North"
          }
        ],
        "pollDivisionIds": [
          10141876,
          10141882
        ],
        "postalCode": "L9M0H9",
        "streetName": "DESROCHES",
        "streetDirectionId": null,
        "streetTypeId": "TRAIL",
        "placeName": "TINY",
        "streetNameDisplayText": "DESROCHES TRAIL, TINY"
      },
      {
        "electoralDistricts": [
          {
            "election": null,
            "id": 100,
            "name": "Simcoe North"
          }
        ],
        "pollDivisionIds": [
          10141876
        ],
        "postalCode": "L9M0H9",
        "streetName": "GIGNAC",
        "streetDirectionId": null,
        "streetTypeId": "CRT",
        "placeName": "TINY",
        "streetNameDisplayText": "GIGNAC CRT, TINY"
      },
      {
        "electoralDistricts": [
          {
            "election": null,
            "id": 100,
            "name": "Simcoe North"
          }
        ],
        "pollDivisionIds": [
          10141876
        ],
        "postalCode": "L9M0H9",
        "streetName": "MACEDONIA",
        "streetDirectionId": null,
        "streetTypeId": "CIR",
        "placeName": "TINY",
        "streetNameDisplayText": "MACEDONIA CIR, TINY"
      }
    ]
  },
  {
    "postal": "L9M8M4",
    "result": []
  },
  {
    "postal": "L9M2M5",
    "result": []
  },
  {
    "postal": "L9M0T9",
    "result": []
  },
  {
    "postal": "L9M3P1",
    "result": []
  },
  {
    "postal": "L9M1R6",
    "result": [
      {
        "electoralDistricts": [
          {
            "election": null,
            "id": 100,
            "name": "Simcoe North"
          }
        ],
        "pollDivisionIds": [
          10141880
        ],
        "postalCode": "L9M1R6",
        "streetName": "SIMCOE",
        "streetDirectionId": null,
        "streetTypeId": "ST",
        "placeName": "PENETANGUISHENE",
        "streetNameDisplayText": "SIMCOE ST, PENETANGUISHENE"
      }
    ]
  },
  {
    "postal": "L9M9V5",
    "result": []
  },
  {
    "postal": "L9M9T0",
    "result": []
  },
  {
    "postal": "L9M0A9",
    "result": [
      {
        "electoralDistricts": [
          {
            "election": null,
            "id": 100,
            "name": "Simcoe North"
          }
        ],
        "pollDivisionIds": [
          10141875
        ],
        "postalCode": "L9M0A9",
        "streetName": "EPINGISHMOK MIIKAN",
        "streetDirectionId": null,
        "streetTypeId": null,
        "placeName": "CHRISTIAN ISLAND",
        "streetNameDisplayText": "EPINGISHMOK MIIKAN, CHRISTIAN ISLAND"
      },
      {
        "electoralDistricts": [
          {
            "election": null,
            "id": 100,
            "name": "Simcoe North"
          }
        ],
        "pollDivisionIds": [
          10141875
        ],
        "postalCode": "L9M0A9",
        "streetName": "EPINGISHOK MIIKAN",
        "streetDirectionId": null,
        "streetTypeId": null,
        "placeName": "CHRISTIAN ISLAND 30",
        "streetNameDisplayText": "EPINGISHOK MIIKAN, CHRISTIAN ISLAND 30"
      },
      {
        "electoralDistricts": [
          {
            "election": null,
            "id": 100,
            "name": "Simcoe North"
          }
        ],
        "pollDivisionIds": [
          10141875
        ],
        "postalCode": "L9M0A9",
        "streetName": "GAAKAN MIIKAANS",
        "streetDirectionId": null,
        "streetTypeId": null,
        "placeName": "CEDAR POINT",
        "streetNameDisplayText": "GAAKAN MIIKAANS, CEDAR POINT"
      },
      {
        "electoralDistricts": [
          {
            "election": null,
            "id": 100,
            "name": "Simcoe North"
          }
        ],
        "pollDivisionIds": [
          10141875
        ],
        "postalCode": "L9M0A9",
        "streetName": "GAAKAN MIIKAANS",
        "streetDirectionId": null,
        "streetTypeId": null,
        "placeName": "CHRISTIAN ISLAND",
        "streetNameDisplayText": "GAAKAN MIIKAANS, CHRISTIAN ISLAND"
      },
      {
        "electoralDistricts": [
          {
            "election": null,
            "id": 100,
            "name": "Simcoe North"
          }
        ],
        "pollDivisionIds": [
          10141875
        ],
        "postalCode": "L9M0A9",
        "streetName": "GAAKAN MIIKAANS",
        "streetDirectionId": null,
        "streetTypeId": null,
        "placeName": "PENETANGUISHENE",
        "streetNameDisplayText": "GAAKAN MIIKAANS, PENETANGUISHENE"
      },
      {
        "electoralDistricts": [
          {
            "election": null,
            "id": 100,
            "name": "Simcoe North"
          }
        ],
        "pollDivisionIds": [
          10141875
        ],
        "postalCode": "L9M0A9",
        "streetName": "GAAKAN MIIKAANS",
        "streetDirectionId": null,
        "streetTypeId": null,
        "placeName": "TINY",
        "streetNameDisplayText": "GAAKAN MIIKAANS, TINY"
      },
      {
        "electoralDistricts": [
          {
            "election": null,
            "id": 100,
            "name": "Simcoe North"
          }
        ],
        "pollDivisionIds": [
          10141875
        ],
        "postalCode": "L9M0A9",
        "streetName": "GAAKAN MIIKAN",
        "streetDirectionId": null,
        "streetTypeId": null,
        "placeName": "CHRISTIAN ISLAND 30",
        "streetNameDisplayText": "GAAKAN MIIKAN, CHRISTIAN ISLAND 30"
      },
      {
        "electoralDistricts": [
          {
            "election": null,
            "id": 100,
            "name": "Simcoe North"
          }
        ],
        "pollDivisionIds": [
          10141875
        ],
        "postalCode": "L9M0A9",
        "streetName": "GAAKEN MIIKAANS",
        "streetDirectionId": null,
        "streetTypeId": null,
        "placeName": "CHRISTIAN ISLAND 30",
        "streetNameDisplayText": "GAAKEN MIIKAANS, CHRISTIAN ISLAND 30"
      },
      {
        "electoralDistricts": [
          {
            "election": null,
            "id": 100,
            "name": "Simcoe North"
          }
        ],
        "pollDivisionIds": [
          10141875,
          10141876
        ],
        "postalCode": "L9M0A9",
        "streetName": "HURON",
        "streetDirectionId": null,
        "streetTypeId": "ST",
        "placeName": "CHRISTIAN ISLAND",
        "streetNameDisplayText": "HURON ST, CHRISTIAN ISLAND"
      },
      {
        "electoralDistricts": [
          {
            "election": null,
            "id": 100,
            "name": "Simcoe North"
          }
        ],
        "pollDivisionIds": [
          10141875
        ],
        "postalCode": "L9M0A9",
        "streetName": "JIIGBIK MIIKAANS",
        "streetDirectionId": null,
        "streetTypeId": "ST",
        "placeName": "CHRISTIAN ISLAND 30",
        "streetNameDisplayText": "JIIGBIK MIIKAANS ST, CHRISTIAN ISLAND 30"
      },
      {
        "electoralDistricts": [
          {
            "election": null,
            "id": 100,
            "name": "Simcoe North"
          }
        ],
        "pollDivisionIds": [
          10141875
        ],
        "postalCode": "L9M0A9",
        "streetName": "JIIGBIK MIIKAANS",
        "streetDirectionId": null,
        "streetTypeId": null,
        "placeName": "CHRISTIAN ISLAND 30",
        "streetNameDisplayText": "JIIGBIK MIIKAANS, CHRISTIAN ISLAND 30"
      },
      {
        "electoralDistricts": [
          {
            "election": null,
            "id": 100,
            "name": "Simcoe North"
          }
        ],
        "pollDivisionIds": [
          10141875
        ],
        "postalCode": "L9M0A9",
        "streetName": "JIIGBIK MIIKAANS",
        "streetDirectionId": null,
        "streetTypeId": null,
        "placeName": "TINY",
        "streetNameDisplayText": "JIIGBIK MIIKAANS, TINY"
      },
      {
        "electoralDistricts": [
          {
            "election": null,
            "id": 100,
            "name": "Simcoe North"
          }
        ],
        "pollDivisionIds": [
          10141875
        ],
        "postalCode": "L9M0A9",
        "streetName": "KATE KEGWIN",
        "streetDirectionId": null,
        "streetTypeId": "ST",
        "placeName": "TINY",
        "streetNameDisplayText": "KATE KEGWIN ST, TINY"
      },
      {
        "electoralDistricts": [
          {
            "election": null,
            "id": 100,
            "name": "Simcoe North"
          }
        ],
        "pollDivisionIds": [
          10141875
        ],
        "postalCode": "L9M0A9",
        "streetName": "KCHI SIN MIIKAN",
        "streetDirectionId": null,
        "streetTypeId": null,
        "placeName": "CHRISTIAN ISLAND",
        "streetNameDisplayText": "KCHI SIN MIIKAN, CHRISTIAN ISLAND"
      },
      {
        "electoralDistricts": [
          {
            "election": null,
            "id": 100,
            "name": "Simcoe North"
          }
        ],
        "pollDivisionIds": [
          10141875
        ],
        "postalCode": "L9M0A9",
        "streetName": "KCHI SIN MIIKAN",
        "streetDirectionId": null,
        "streetTypeId": null,
        "placeName": "TINY",
        "streetNameDisplayText": "KCHI SIN MIIKAN, TINY"
      },
      {
        "electoralDistricts": [
          {
            "election": null,
            "id": 100,
            "name": "Simcoe North"
          }
        ],
        "pollDivisionIds": [
          10141875
        ],
        "postalCode": "L9M0A9",
        "streetName": "KCHI SIN",
        "streetDirectionId": null,
        "streetTypeId": "ST",
        "placeName": "TINY",
        "streetNameDisplayText": "KCHI SIN ST, TINY"
      },
      {
        "electoralDistricts": [
          {
            "election": null,
            "id": 100,
            "name": "Simcoe North"
          }
        ],
        "pollDivisionIds": [
          10141875
        ],
        "postalCode": "L9M0A9",
        "streetName": "KCHISIN MIIKAN",
        "streetDirectionId": null,
        "streetTypeId": null,
        "placeName": "CHRISTIAN ISLAND 30",
        "streetNameDisplayText": "KCHISIN MIIKAN, CHRISTIAN ISLAND 30"
      },
      {
        "electoralDistricts": [
          {
            "election": null,
            "id": 100,
            "name": "Simcoe North"
          }
        ],
        "pollDivisionIds": [
          10141875
        ],
        "postalCode": "L9M0A9",
        "streetName": "KCHI-SIN MIIKAN",
        "streetDirectionId": null,
        "streetTypeId": null,
        "placeName": "CHRISTIAN ISLAND 30",
        "streetNameDisplayText": "KCHI-SIN MIIKAN, CHRISTIAN ISLAND 30"
      },
      {
        "electoralDistricts": [
          {
            "election": null,
            "id": 100,
            "name": "Simcoe North"
          }
        ],
        "pollDivisionIds": [
          10141875
        ],
        "postalCode": "L9M0A9",
        "streetName": "KHINGWAK MIIKAN",
        "streetDirectionId": null,
        "streetTypeId": null,
        "placeName": "CHRISTIAN ISLAND 30",
        "streetNameDisplayText": "KHINGWAK MIIKAN, CHRISTIAN ISLAND 30"
      },
      {
        "electoralDistricts": [
          {
            "election": null,
            "id": 100,
            "name": "Simcoe North"
          }
        ],
        "pollDivisionIds": [
          10141875
        ],
        "postalCode": "L9M0A9",
        "streetName": "KIIWEDIN MIIKAN MIIKAN",
        "streetDirectionId": null,
        "streetTypeId": null,
        "placeName": "CHRISTIAN ISLAND",
        "streetNameDisplayText": "KIIWEDIN MIIKAN MIIKAN, CHRISTIAN ISLAND"
      },
      {
        "electoralDistricts": [
          {
            "election": null,
            "id": 100,
            "name": "Simcoe North"
          }
        ],
        "pollDivisionIds": [
          10141875
        ],
        "postalCode": "L9M0A9",
        "streetName": "KIIWEDIN MIIKAN MIIKAN",
        "streetDirectionId": null,
        "streetTypeId": null,
        "placeName": "CHRISTIAN ISLAND 30",
        "streetNameDisplayText": "KIIWEDIN MIIKAN MIIKAN, CHRISTIAN ISLAND 30"
      },
      {
        "electoralDistricts": [
          {
            "election": null,
            "id": 100,
            "name": "Simcoe North"
          }
        ],
        "pollDivisionIds": [
          10141875
        ],
        "postalCode": "L9M0A9",
        "streetName": "KIIWEDIN MIIKAN",
        "streetDirectionId": null,
        "streetTypeId": null,
        "placeName": "CHRISTIAN ISLAND",
        "streetNameDisplayText": "KIIWEDIN MIIKAN, CHRISTIAN ISLAND"
      },
      {
        "electoralDistricts": [
          {
            "election": null,
            "id": 100,
            "name": "Simcoe North"
          }
        ],
        "pollDivisionIds": [
          10141875
        ],
        "postalCode": "L9M0A9",
        "streetName": "KIIWEDIN MIIKAN",
        "streetDirectionId": null,
        "streetTypeId": null,
        "placeName": "TINY",
        "streetNameDisplayText": "KIIWEDIN MIIKAN, TINY"
      },
      {
        "electoralDistricts": [
          {
            "election": null,
            "id": 100,
            "name": "Simcoe North"
          }
        ],
        "pollDivisionIds": [
          10141875
        ],
        "postalCode": "L9M0A9",
        "streetName": "MEGYAAKWAA MIIKAN",
        "streetDirectionId": null,
        "streetTypeId": "RD",
        "placeName": "CHRISTIAN ISLAND",
        "streetNameDisplayText": "MEGYAAKWAA MIIKAN RD, CHRISTIAN ISLAND"
      },
      {
        "electoralDistricts": [
          {
            "election": null,
            "id": 100,
            "name": "Simcoe North"
          }
        ],
        "pollDivisionIds": [
          10141875
        ],
        "postalCode": "L9M0A9",
        "streetName": "MEGYAAKWAA MIIKAN",
        "streetDirectionId": null,
        "streetTypeId": "ST",
        "placeName": "TINY",
        "streetNameDisplayText": "MEGYAAKWAA MIIKAN ST, TINY"
      },
      {
        "electoralDistricts": [
          {
            "election": null,
            "id": 100,
            "name": "Simcoe North"
          }
        ],
        "pollDivisionIds": [
          10141875
        ],
        "postalCode": "L9M0A9",
        "streetName": "MEGYAAKWAA MIIKAN",
        "streetDirectionId": null,
        "streetTypeId": null,
        "placeName": "CHRISTIAN ISLAND",
        "streetNameDisplayText": "MEGYAAKWAA MIIKAN, CHRISTIAN ISLAND"
      },
      {
        "electoralDistricts": [
          {
            "election": null,
            "id": 100,
            "name": "Simcoe North"
          }
        ],
        "pollDivisionIds": [
          10141875
        ],
        "postalCode": "L9M0A9",
        "streetName": "MEGYAAKWAA MILKAN",
        "streetDirectionId": null,
        "streetTypeId": null,
        "placeName": "TINY",
        "streetNameDisplayText": "MEGYAAKWAA MILKAN, TINY"
      },
      {
        "electoralDistricts": [
          {
            "election": null,
            "id": 100,
            "name": "Simcoe North"
          }
        ],
        "pollDivisionIds": [
          10141875
        ],
        "postalCode": "L9M0A9",
        "streetName": "MEGYAAKWAA",
        "streetDirectionId": null,
        "streetTypeId": null,
        "placeName": "PENETANGUISHENE",
        "streetNameDisplayText": "MEGYAAKWAA, PENETANGUISHENE"
      },
      {
        "electoralDistricts": [
          {
            "election": null,
            "id": 100,
            "name": "Simcoe North"
          }
        ],
        "pollDivisionIds": [
          10141875
        ],
        "postalCode": "L9M0A9",
        "streetName": "MEYGYAAKWAA",
        "streetDirectionId": null,
        "streetTypeId": null,
        "placeName": "PENETANGUISHENE",
        "streetNameDisplayText": "MEYGYAAKWAA, PENETANGUISHENE"
      },
      {
        "electoralDistricts": [
          {
            "election": null,
            "id": 100,
            "name": "Simcoe North"
          }
        ],
        "pollDivisionIds": [
          10141875
        ],
        "postalCode": "L9M0A9",
        "streetName": "MKADE KEGWIIN MIIKAAN",
        "streetDirectionId": null,
        "streetTypeId": null,
        "placeName": "CHRISTIAN ISLAND",
        "streetNameDisplayText": "MKADE KEGWIIN MIIKAAN, CHRISTIAN ISLAND"
      },
      {
        "electoralDistricts": [
          {
            "election": null,
            "id": 100,
            "name": "Simcoe North"
          }
        ],
        "pollDivisionIds": [
          10141875
        ],
        "postalCode": "L9M0A9",
        "streetName": "MKADE KEGWIIN MIIKAAN",
        "streetDirectionId": null,
        "streetTypeId": null,
        "placeName": "CHRISTIAN ISLAND 30",
        "streetNameDisplayText": "MKADE KEGWIIN MIIKAAN, CHRISTIAN ISLAND 30"
      },
      {
        "electoralDistricts": [
          {
            "election": null,
            "id": 100,
            "name": "Simcoe North"
          }
        ],
        "pollDivisionIds": [
          10141875
        ],
        "postalCode": "L9M0A9",
        "streetName": "MKADE KEGWIN MIIKAN",
        "streetDirectionId": null,
        "streetTypeId": null,
        "placeName": "CHRISTIAN ISLAND",
        "streetNameDisplayText": "MKADE KEGWIN MIIKAN, CHRISTIAN ISLAND"
      },
      {
        "electoralDistricts": [
          {
            "election": null,
            "id": 100,
            "name": "Simcoe North"
          }
        ],
        "pollDivisionIds": [
          10141875
        ],
        "postalCode": "L9M0A9",
        "streetName": "MKADE KEGWIN MIIKAN",
        "streetDirectionId": null,
        "streetTypeId": null,
        "placeName": "CHRISTIAN ISLAND 30",
        "streetNameDisplayText": "MKADE KEGWIN MIIKAN, CHRISTIAN ISLAND 30"
      },
      {
        "electoralDistricts": [
          {
            "election": null,
            "id": 100,
            "name": "Simcoe North"
          }
        ],
        "pollDivisionIds": [
          10141875
        ],
        "postalCode": "L9M0A9",
        "streetName": "MKADE-KEGWIN MIIKAN",
        "streetDirectionId": null,
        "streetTypeId": null,
        "placeName": "CHRISTIAN ISLAND 30",
        "streetNameDisplayText": "MKADE-KEGWIN MIIKAN, CHRISTIAN ISLAND 30"
      },
      {
        "electoralDistricts": [
          {
            "election": null,
            "id": 100,
            "name": "Simcoe North"
          }
        ],
        "pollDivisionIds": [
          10141875
        ],
        "postalCode": "L9M0A9",
        "streetName": "MKADE-KEGWIN MIIKAN",
        "streetDirectionId": null,
        "streetTypeId": null,
        "placeName": "PENETANGUISHENE",
        "streetNameDisplayText": "MKADE-KEGWIN MIIKAN, PENETANGUISHENE"
      },
      {
        "electoralDistricts": [
          {
            "election": null,
            "id": 100,
            "name": "Simcoe North"
          }
        ],
        "pollDivisionIds": [
          10141875
        ],
        "postalCode": "L9M0A9",
        "streetName": "MKADE-KEGWIN MIIKKAN",
        "streetDirectionId": null,
        "streetTypeId": null,
        "placeName": "PENETANGUISHENE",
        "streetNameDisplayText": "MKADE-KEGWIN MIIKKAN, PENETANGUISHENE"
      },
      {
        "electoralDistricts": [
          {
            "election": null,
            "id": 100,
            "name": "Simcoe North"
          }
        ],
        "pollDivisionIds": [
          10141875
        ],
        "postalCode": "L9M0A9",
        "streetName": "NAAB KWENGAA MIIKAANS",
        "streetDirectionId": null,
        "streetTypeId": null,
        "placeName": "CHRISTIAN ISLAND 30",
        "streetNameDisplayText": "NAAB KWENGAA MIIKAANS, CHRISTIAN ISLAND 30"
      },
      {
        "electoralDistricts": [
          {
            "election": null,
            "id": 100,
            "name": "Simcoe North"
          }
        ],
        "pollDivisionIds": [
          10141875
        ],
        "postalCode": "L9M0A9",
        "streetName": "NAABKWANGEMAA MIIKAAN",
        "streetDirectionId": null,
        "streetTypeId": null,
        "placeName": "TINY",
        "streetNameDisplayText": "NAABKWANGEMAA MIIKAAN, TINY"
      },
      {
        "electoralDistricts": [
          {
            "election": null,
            "id": 100,
            "name": "Simcoe North"
          }
        ],
        "pollDivisionIds": [
          10141875
        ],
        "postalCode": "L9M0A9",
        "streetName": "NAABKWANGEMAA MIIKAANS",
        "streetDirectionId": null,
        "streetTypeId": null,
        "placeName": "CHRISTIAN ISLAND",
        "streetNameDisplayText": "NAABKWANGEMAA MIIKAANS, CHRISTIAN ISLAND"
      },
      {
        "electoralDistricts": [
          {
            "election": null,
            "id": 100,
            "name": "Simcoe North"
          }
        ],
        "pollDivisionIds": [
          10141875
        ],
        "postalCode": "L9M0A9",
        "streetName": "NAABKWANGEMAA MIIKAANS",
        "streetDirectionId": null,
        "streetTypeId": null,
        "placeName": "TINY",
        "streetNameDisplayText": "NAABKWANGEMAA MIIKAANS, TINY"
      },
      {
        "electoralDistricts": [
          {
            "election": null,
            "id": 100,
            "name": "Simcoe North"
          }
        ],
        "pollDivisionIds": [
          10141875
        ],
        "postalCode": "L9M0A9",
        "streetName": "NAABKWANGEMAA MIIKAN",
        "streetDirectionId": null,
        "streetTypeId": null,
        "placeName": "CHRISTIAN ISLAND 30",
        "streetNameDisplayText": "NAABKWANGEMAA MIIKAN, CHRISTIAN ISLAND 30"
      },
      {
        "electoralDistricts": [
          {
            "election": null,
            "id": 100,
            "name": "Simcoe North"
          }
        ],
        "pollDivisionIds": [
          10141875
        ],
        "postalCode": "L9M0A9",
        "streetName": "NAABKWANGEMAA MIIKANS",
        "streetDirectionId": null,
        "streetTypeId": null,
        "placeName": "PENETANGUISHENE",
        "streetNameDisplayText": "NAABKWANGEMAA MIIKANS, PENETANGUISHENE"
      },
      {
        "electoralDistricts": [
          {
            "election": null,
            "id": 100,
            "name": "Simcoe North"
          }
        ],
        "pollDivisionIds": [
          10141875
        ],
        "postalCode": "L9M0A9",
        "streetName": "NAABKWANGEMAA MIIKANS",
        "streetDirectionId": null,
        "streetTypeId": null,
        "placeName": "TINY",
        "streetNameDisplayText": "NAABKWANGEMAA MIIKANS, TINY"
      },
      {
        "electoralDistricts": [
          {
            "election": null,
            "id": 100,
            "name": "Simcoe North"
          }
        ],
        "pollDivisionIds": [
          10141875
        ],
        "postalCode": "L9M0A9",
        "streetName": "NAABKWENGAA MIIKAANS",
        "streetDirectionId": null,
        "streetTypeId": null,
        "placeName": "CHRISTIAN ISLAND 30",
        "streetNameDisplayText": "NAABKWENGAA MIIKAANS, CHRISTIAN ISLAND 30"
      },
      {
        "electoralDistricts": [
          {
            "election": null,
            "id": 100,
            "name": "Simcoe North"
          }
        ],
        "pollDivisionIds": [
          10141875
        ],
        "postalCode": "L9M0A9",
        "streetName": "NIIGGIG MIIKAN",
        "streetDirectionId": null,
        "streetTypeId": null,
        "placeName": "CHRISTIAN ISLAND 30",
        "streetNameDisplayText": "NIIGGIG MIIKAN, CHRISTIAN ISLAND 30"
      },
      {
        "electoralDistricts": [
          {
            "election": null,
            "id": 100,
            "name": "Simcoe North"
          }
        ],
        "pollDivisionIds": [
          10141875
        ],
        "postalCode": "L9M0A9",
        "streetName": "NIIGIG MIIKAN",
        "streetDirectionId": null,
        "streetTypeId": null,
        "placeName": "CHRISTIAN ISLAND",
        "streetNameDisplayText": "NIIGIG MIIKAN, CHRISTIAN ISLAND"
      },
      {
        "electoralDistricts": [
          {
            "election": null,
            "id": 100,
            "name": "Simcoe North"
          }
        ],
        "pollDivisionIds": [
          10141875
        ],
        "postalCode": "L9M0A9",
        "streetName": "NIIGIG MIIKAN",
        "streetDirectionId": null,
        "streetTypeId": null,
        "placeName": "CHRISTIAN ISLAND 30",
        "streetNameDisplayText": "NIIGIG MIIKAN, CHRISTIAN ISLAND 30"
      },
      {
        "electoralDistricts": [
          {
            "election": null,
            "id": 100,
            "name": "Simcoe North"
          }
        ],
        "pollDivisionIds": [
          10141875
        ],
        "postalCode": "L9M0A9",
        "streetName": "NIIGIGMIIKAN",
        "streetDirectionId": null,
        "streetTypeId": null,
        "placeName": "CHRISTIAN ISLAND 30",
        "streetNameDisplayText": "NIIGIGMIIKAN, CHRISTIAN ISLAND 30"
      },
      {
        "electoralDistricts": [
          {
            "election": null,
            "id": 100,
            "name": "Simcoe North"
          }
        ],
        "pollDivisionIds": [
          10141875
        ],
        "postalCode": "L9M0A9",
        "streetName": "O'GEMAA MIIKAN",
        "streetDirectionId": null,
        "streetTypeId": null,
        "placeName": "CHRISTIAN ISLAND",
        "streetNameDisplayText": "O'GEMAA MIIKAN, CHRISTIAN ISLAND"
      },
      {
        "electoralDistricts": [
          {
            "election": null,
            "id": 100,
            "name": "Simcoe North"
          }
        ],
        "pollDivisionIds": [
          10141875
        ],
        "postalCode": "L9M0A9",
        "streetName": "O'GEMMA MIIKAN",
        "streetDirectionId": null,
        "streetTypeId": null,
        "placeName": "CHRISTIAN ISLAND 30",
        "streetNameDisplayText": "O'GEMMA MIIKAN, CHRISTIAN ISLAND 30"
      },
      {
        "electoralDistricts": [
          {
            "election": null,
            "id": 100,
            "name": "Simcoe North"
          }
        ],
        "pollDivisionIds": [
          10141875
        ],
        "postalCode": "L9M0A9",
        "streetName": "QUAKOMOOK MIIKAANS",
        "streetDirectionId": null,
        "streetTypeId": null,
        "placeName": "CHRISTIAN ISLAND",
        "streetNameDisplayText": "QUAKOMOOK MIIKAANS, CHRISTIAN ISLAND"
      },
      {
        "electoralDistricts": [
          {
            "election": null,
            "id": 100,
            "name": "Simcoe North"
          }
        ],
        "pollDivisionIds": [
          10141875
        ],
        "postalCode": "L9M0A9",
        "streetName": "QUA-KO-MOOK MIIKAANS",
        "streetDirectionId": null,
        "streetTypeId": null,
        "placeName": "TINY",
        "streetNameDisplayText": "QUA-KO-MOOK MIIKAANS, TINY"
      },
      {
        "electoralDistricts": [
          {
            "election": null,
            "id": 100,
            "name": "Simcoe North"
          }
        ],
        "pollDivisionIds": [
          10141875
        ],
        "postalCode": "L9M0A9",
        "streetName": "QUAKOMOOKO MIIKAANS",
        "streetDirectionId": null,
        "streetTypeId": null,
        "placeName": "CHRISTIAN ISLAND 30",
        "streetNameDisplayText": "QUAKOMOOKO MIIKAANS, CHRISTIAN ISLAND 30"
      },
      {
        "electoralDistricts": [
          {
            "election": null,
            "id": 100,
            "name": "Simcoe North"
          }
        ],
        "pollDivisionIds": [
          10141875
        ],
        "postalCode": "L9M0A9",
        "streetName": "SHKI MIIKAN",
        "streetDirectionId": null,
        "streetTypeId": null,
        "placeName": "CHRISTIAN ISLAND 30",
        "streetNameDisplayText": "SHKI MIIKAN, CHRISTIAN ISLAND 30"
      },
      {
        "electoralDistricts": [
          {
            "election": null,
            "id": 100,
            "name": "Simcoe North"
          }
        ],
        "pollDivisionIds": [
          10141875
        ],
        "postalCode": "L9M0A9",
        "streetName": "SHKI MIIKAN",
        "streetDirectionId": null,
        "streetTypeId": null,
        "placeName": "TINY",
        "streetNameDisplayText": "SHKI MIIKAN, TINY"
      },
      {
        "electoralDistricts": [
          {
            "election": null,
            "id": 100,
            "name": "Simcoe North"
          }
        ],
        "pollDivisionIds": [
          10141875
        ],
        "postalCode": "L9M0A9",
        "streetName": "WAABZESHIIN MIIKAANS",
        "streetDirectionId": null,
        "streetTypeId": null,
        "placeName": "CHRISTIAN ISLAND",
        "streetNameDisplayText": "WAABZESHIIN MIIKAANS, CHRISTIAN ISLAND"
      },
      {
        "electoralDistricts": [
          {
            "election": null,
            "id": 100,
            "name": "Simcoe North"
          }
        ],
        "pollDivisionIds": [
          10141875
        ],
        "postalCode": "L9M0A9",
        "streetName": "WAABZESHIN MIIKAANS",
        "streetDirectionId": null,
        "streetTypeId": null,
        "placeName": "CHRISTIAN ISLAND 30",
        "streetNameDisplayText": "WAABZESHIN MIIKAANS, CHRISTIAN ISLAND 30"
      },
      {
        "electoralDistricts": [
          {
            "election": null,
            "id": 100,
            "name": "Simcoe North"
          }
        ],
        "pollDivisionIds": [
          10141875
        ],
        "postalCode": "L9M0A9",
        "streetName": "ZHIMAAGNISH MIIKAANS",
        "streetDirectionId": null,
        "streetTypeId": null,
        "placeName": "TINY",
        "streetNameDisplayText": "ZHIMAAGNISH MIIKAANS, TINY"
      },
      {
        "electoralDistricts": [
          {
            "election": null,
            "id": 100,
            "name": "Simcoe North"
          }
        ],
        "pollDivisionIds": [
          10141875
        ],
        "postalCode": "L9M0A9",
        "streetName": "ZHINGWAK MIIKAN",
        "streetDirectionId": null,
        "streetTypeId": null,
        "placeName": "CHRISTIAN ISLAND",
        "streetNameDisplayText": "ZHINGWAK MIIKAN, CHRISTIAN ISLAND"
      },
      {
        "electoralDistricts": [
          {
            "election": null,
            "id": 100,
            "name": "Simcoe North"
          }
        ],
        "pollDivisionIds": [
          10141875
        ],
        "postalCode": "L9M0A9",
        "streetName": "ZHINGWAUK MIIKAN",
        "streetDirectionId": null,
        "streetTypeId": null,
        "placeName": "CHRISTIAN ISLAND 30",
        "streetNameDisplayText": "ZHINGWAUK MIIKAN, CHRISTIAN ISLAND 30"
      }
    ]
  },
  {
    "postal": "L9M1M3",
    "result": [
      {
        "electoralDistricts": [
          {
            "election": null,
            "id": 100,
            "name": "Simcoe North"
          }
        ],
        "pollDivisionIds": [
          10141880
        ],
        "postalCode": "L9M1M3",
        "streetName": "POYNTZ",
        "streetDirectionId": null,
        "streetTypeId": "ST",
        "placeName": "PENETANGUISHENE",
        "streetNameDisplayText": "POYNTZ ST, PENETANGUISHENE"
      }
    ]
  },
  {
    "postal": "L9M1W8",
    "result": [
      {
        "electoralDistricts": [
          {
            "election": null,
            "id": 100,
            "name": "Simcoe North"
          }
        ],
        "pollDivisionIds": [
          10141882
        ],
        "postalCode": "L9M1W8",
        "streetName": "POLISH",
        "streetDirectionId": null,
        "streetTypeId": "AVE",
        "placeName": "PENETANGUISHENE",
        "streetNameDisplayText": "POLISH AVE, PENETANGUISHENE"
      }
    ]
  },
  {
    "postal": "L9M9J1",
    "result": []
  },
  {
    "postal": "L9M8N5",
    "result": []
  },
  {
    "postal": "L9M5X1",
    "result": []
  },
  {
    "postal": "L9M6S2",
    "result": []
  },
  {
    "postal": "L9M2A2",
    "result": [
      {
        "electoralDistricts": [
          {
            "election": null,
            "id": 100,
            "name": "Simcoe North"
          }
        ],
        "pollDivisionIds": [
          10141882
        ],
        "postalCode": "L9M2A2",
        "streetName": "FORESTDALE",
        "streetDirectionId": null,
        "streetTypeId": "DR",
        "placeName": "PENETANGUISHENE",
        "streetNameDisplayText": "FORESTDALE DR, PENETANGUISHENE"
      }
    ]
  },
  {
    "postal": "L9M6A6",
    "result": []
  },
  {
    "postal": "L9M0S3",
    "result": [
      {
        "electoralDistricts": [
          {
            "election": null,
            "id": 100,
            "name": "Simcoe North"
          }
        ],
        "pollDivisionIds": [
          10141880
        ],
        "postalCode": "L9M0S3",
        "streetName": "RUE LAFONTAINE",
        "streetDirectionId": "E",
        "streetTypeId": "RD",
        "placeName": "TINY",
        "streetNameDisplayText": "RUE LAFONTAINE RD E, TINY"
      }
    ]
  },
  {
    "postal": "L9M3E7",
    "result": []
  },
  {
    "postal": "L9M5R7",
    "result": []
  },
  {
    "postal": "L9M3R6",
    "result": []
  },
  {
    "postal": "L9M6K4",
    "result": []
  },
  {
    "postal": "L9M2W5",
    "result": []
  },
  {
    "postal": "L9M8W4",
    "result": []
  },
  {
    "postal": "L9M9C2",
    "result": []
  },
  {
    "postal": "L9M2C0",
    "result": []
  },
  {
    "postal": "L9M0E1",
    "result": [
      {
        "electoralDistricts": [
          {
            "election": null,
            "id": 100,
            "name": "Simcoe North"
          }
        ],
        "pollDivisionIds": [
          10141880
        ],
        "postalCode": "L9M0E1",
        "streetName": "BRULE",
        "streetDirectionId": null,
        "streetTypeId": "CIR",
        "placeName": "TINY",
        "streetNameDisplayText": "BRULE CIR, TINY"
      },
      {
        "electoralDistricts": [
          {
            "election": null,
            "id": 100,
            "name": "Simcoe North"
          }
        ],
        "pollDivisionIds": [
          10141880
        ],
        "postalCode": "L9M0E1",
        "streetName": "CHAMPLAIN",
        "streetDirectionId": null,
        "streetTypeId": "RD",
        "placeName": "TINY",
        "streetNameDisplayText": "CHAMPLAIN RD, TINY"
      },
      {
        "electoralDistricts": [
          {
            "election": null,
            "id": 100,
            "name": "Simcoe North"
          }
        ],
        "pollDivisionIds": [
          10141880
        ],
        "postalCode": "L9M0E1",
        "streetName": "COUTNAC",
        "streetDirectionId": null,
        "streetTypeId": "CRES",
        "placeName": "TINY",
        "streetNameDisplayText": "COUTNAC CRES, TINY"
      },
      {
        "electoralDistricts": [
          {
            "election": null,
            "id": 100,
            "name": "Simcoe North"
          }
        ],
        "pollDivisionIds": [
          10141880
        ],
        "postalCode": "L9M0E1",
        "streetName": "RADISON",
        "streetDirectionId": null,
        "streetTypeId": "TRAIL",
        "placeName": "TINY",
        "streetNameDisplayText": "RADISON TRAIL, TINY"
      },
      {
        "electoralDistricts": [
          {
            "election": null,
            "id": 100,
            "name": "Simcoe North"
          }
        ],
        "pollDivisionIds": [
          10141880
        ],
        "postalCode": "L9M0E1",
        "streetName": "RICHELIEU",
        "streetDirectionId": null,
        "streetTypeId": "TRAIL",
        "placeName": "TINY",
        "streetNameDisplayText": "RICHELIEU TRAIL, TINY"
      },
      {
        "electoralDistricts": [
          {
            "election": null,
            "id": 100,
            "name": "Simcoe North"
          }
        ],
        "pollDivisionIds": [
          10141880
        ],
        "postalCode": "L9M0E1",
        "streetName": "ROBERVAL",
        "streetDirectionId": null,
        "streetTypeId": "CIR",
        "placeName": "TINY",
        "streetNameDisplayText": "ROBERVAL CIR, TINY"
      },
      {
        "electoralDistricts": [
          {
            "election": null,
            "id": 100,
            "name": "Simcoe North"
          }
        ],
        "pollDivisionIds": [
          10141880
        ],
        "postalCode": "L9M0E1",
        "streetName": "TALON",
        "streetDirectionId": null,
        "streetTypeId": "TRAIL",
        "placeName": "TINY",
        "streetNameDisplayText": "TALON TRAIL, TINY"
      }
    ]
  },
  {
    "postal": "L9M1K9",
    "result": [
      {
        "electoralDistricts": [
          {
            "election": null,
            "id": 100,
            "name": "Simcoe North"
          }
        ],
        "pollDivisionIds": [
          10141882
        ],
        "postalCode": "L9M1K9",
        "streetName": "HARRIET",
        "streetDirectionId": null,
        "streetTypeId": "ST",
        "placeName": "PENETANGUISHENE",
        "streetNameDisplayText": "HARRIET ST, PENETANGUISHENE"
      },
      {
        "electoralDistricts": [
          {
            "election": null,
            "id": 100,
            "name": "Simcoe North"
          }
        ],
        "pollDivisionIds": [
          10141882
        ],
        "postalCode": "L9M1K9",
        "streetName": "ROBERT",
        "streetDirectionId": "E",
        "streetTypeId": "ST",
        "placeName": "PENETANGUISHENE",
        "streetNameDisplayText": "ROBERT ST E, PENETANGUISHENE"
      }
    ]
  },
  {
    "postal": "L9M1G7",
    "result": [
      {
        "electoralDistricts": [
          {
            "election": null,
            "id": 100,
            "name": "Simcoe North"
          }
        ],
        "pollDivisionIds": [
          10141881
        ],
        "postalCode": "L9M1G7",
        "streetName": "CAMBRIDGE",
        "streetDirectionId": null,
        "streetTypeId": "ST",
        "placeName": "PENETANGUISHENE",
        "streetNameDisplayText": "CAMBRIDGE ST, PENETANGUISHENE"
      },
      {
        "electoralDistricts": [
          {
            "election": null,
            "id": 100,
            "name": "Simcoe North"
          }
        ],
        "pollDivisionIds": [
          10141881,
          10141882
        ],
        "postalCode": "L9M1G7",
        "streetName": "FULLER",
        "streetDirectionId": null,
        "streetTypeId": "AVE",
        "placeName": "PENETANGUISHENE",
        "streetNameDisplayText": "FULLER AVE, PENETANGUISHENE"
      }
    ]
  },
  {
    "postal": "L9M4E9",
    "result": []
  },
  {
    "postal": "L9M9P0",
    "result": []
  },
  {
    "postal": "L9M5H3",
    "result": []
  },
  {
    "postal": "L9M9X6",
    "result": []
  },
  {
    "postal": "L9M5N7",
    "result": []
  },
  {
    "postal": "L9M5A6",
    "result": []
  },
  {
    "postal": "L9M4M0",
    "result": []
  },
  {
    "postal": "L9M3V6",
    "result": []
  },
  {
    "postal": "L9M1L7",
    "result": [
      {
        "electoralDistricts": [
          {
            "election": null,
            "id": 100,
            "name": "Simcoe North"
          }
        ],
        "pollDivisionIds": [
          10141882
        ],
        "postalCode": "L9M1L7",
        "streetName": "EDWARD",
        "streetDirectionId": null,
        "streetTypeId": "ST",
        "placeName": "PENETANGUISHENE",
        "streetNameDisplayText": "EDWARD ST, PENETANGUISHENE"
      },
      {
        "electoralDistricts": [
          {
            "election": null,
            "id": 100,
            "name": "Simcoe North"
          }
        ],
        "pollDivisionIds": [
          10141882
        ],
        "postalCode": "L9M1L7",
        "streetName": "MAIN",
        "streetDirectionId": null,
        "streetTypeId": "ST",
        "placeName": "PENETANGUISHENE",
        "streetNameDisplayText": "MAIN ST, PENETANGUISHENE"
      },
      {
        "electoralDistricts": [
          {
            "election": null,
            "id": 100,
            "name": "Simcoe North"
          }
        ],
        "pollDivisionIds": [
          10141882
        ],
        "postalCode": "L9M1L7",
        "streetName": "MARIA",
        "streetDirectionId": null,
        "streetTypeId": "ST",
        "placeName": "PENETANGUISHENE",
        "streetNameDisplayText": "MARIA ST, PENETANGUISHENE"
      }
    ]
  },
  {
    "postal": "L9M2P9",
    "result": []
  },
  {
    "postal": "L9M5T4",
    "result": []
  },
  {
    "postal": "L9M5Z1",
    "result": []
  },
  {
    "postal": "L9M2X0",
    "result": []
  },
  {
    "postal": "L9M6Z2",
    "result": []
  },
  {
    "postal": "L9M0E0",
    "result": []
  },
  {
    "postal": "L9M3Z5",
    "result": []
  },
  {
    "postal": "L9M8H3",
    "result": []
  },
  {
    "postal": "L9M7S6",
    "result": []
  },
  {
    "postal": "L9M4C1",
    "result": []
  },
  {
    "postal": "L9M3K2",
    "result": []
  },
  {
    "postal": "L9M1Y5",
    "result": [
      {
        "electoralDistricts": [
          {
            "election": null,
            "id": 100,
            "name": "Simcoe North"
          }
        ],
        "pollDivisionIds": [
          10141882
        ],
        "postalCode": "L9M1Y5",
        "streetName": "SANDY BAY",
        "streetDirectionId": null,
        "streetTypeId": "RD",
        "placeName": "PENETANGUISHENE",
        "streetNameDisplayText": "SANDY BAY RD, PENETANGUISHENE"
      }
    ]
  },
  {
    "postal": "L9M6P6",
    "result": []
  },
  {
    "postal": "L9M3N9",
    "result": []
  },
  {
    "postal": "L9M3W2",
    "result": []
  },
  {
    "postal": "L9M6H8",
    "result": []
  },
  {
    "postal": "L9M9T3",
    "result": []
  },
  {
    "postal": "L9M5L9",
    "result": []
  },
  {
    "postal": "L9M7X7",
    "result": []
  },
  {
    "postal": "L9M3J5",
    "result": []
  },
  {
    "postal": "L9M4J5",
    "result": []
  },
  {
    "postal": "L9M6J2",
    "result": []
  },
  {
    "postal": "L9M5V6",
    "result": []
  },
  {
    "postal": "L9M3N2",
    "result": []
  },
  {
    "postal": "L9M3B1",
    "result": []
  },
  {
    "postal": "L9M8B5",
    "result": []
  },
  {
    "postal": "L9M0K1",
    "result": [
      {
        "electoralDistricts": [
          {
            "election": null,
            "id": 100,
            "name": "Simcoe North"
          }
        ],
        "pollDivisionIds": [
          10141876
        ],
        "postalCode": "L9M0K1",
        "streetName": "CEDAR POINT",
        "streetDirectionId": null,
        "streetTypeId": "RD",
        "placeName": "TINY",
        "streetNameDisplayText": "CEDAR POINT RD, TINY"
      }
    ]
  },
  {
    "postal": "L9M7M7",
    "result": []
  },
  {
    "postal": "L9M2M2",
    "result": []
  },
  {
    "postal": "L9M9N3",
    "result": []
  },
  {
    "postal": "L9M4Y8",
    "result": []
  },
  {
    "postal": "L9M3V7",
    "result": []
  },
  {
    "postal": "L9M8Z1",
    "result": []
  },
  {
    "postal": "L9M7B3",
    "result": []
  },
  {
    "postal": "L9M3A8",
    "result": []
  },
  {
    "postal": "L9M7V5",
    "result": []
  },
  {
    "postal": "L9M2T2",
    "result": []
  },
  {
    "postal": "L9M6L3",
    "result": []
  },
  {
    "postal": "L9M0L2",
    "result": [
      {
        "electoralDistricts": [
          {
            "election": null,
            "id": 100,
            "name": "Simcoe North"
          }
        ],
        "pollDivisionIds": [
          10141876
        ],
        "postalCode": "L9M0L2",
        "streetName": "CONCESSION 19",
        "streetDirectionId": "W",
        "streetTypeId": "RD",
        "placeName": "TINY",
        "streetNameDisplayText": "CONCESSION 19 RD W, TINY"
      }
    ]
  },
  {
    "postal": "L9M5Y8",
    "result": []
  },
  {
    "postal": "L9M0B8",
    "result": [
      {
        "electoralDistricts": [
          {
            "election": null,
            "id": 100,
            "name": "Simcoe North"
          }
        ],
        "pollDivisionIds": [
          10141880
        ],
        "postalCode": "L9M0B8",
        "streetName": "BEAUFORT",
        "streetDirectionId": null,
        "streetTypeId": "CRES",
        "placeName": "TINY",
        "streetNameDisplayText": "BEAUFORT CRES, TINY"
      },
      {
        "electoralDistricts": [
          {
            "election": null,
            "id": 100,
            "name": "Simcoe North"
          }
        ],
        "pollDivisionIds": [
          10141880
        ],
        "postalCode": "L9M0B8",
        "streetName": "TOANCHE",
        "streetDirectionId": null,
        "streetTypeId": "TRAIL",
        "placeName": "TINY",
        "streetNameDisplayText": "TOANCHE TRAIL, TINY"
      }
    ]
  },
  {
    "postal": "L9M6R5",
    "result": []
  },
  {
    "postal": "L9M8W6",
    "result": []
  },
  {
    "postal": "L9M8G6",
    "result": []
  },
  {
    "postal": "L9M6X3",
    "result": []
  },
  {
    "postal": "L9M7R7",
    "result": []
  },
  {
    "postal": "L9M4B6",
    "result": []
  },
  {
    "postal": "L9M3P9",
    "result": []
  },
  {
    "postal": "L9M2T3",
    "result": []
  },
  {
    "postal": "L9M1M4",
    "result": [
      {
        "electoralDistricts": [
          {
            "election": null,
            "id": 100,
            "name": "Simcoe North"
          }
        ],
        "pollDivisionIds": [
          10141882,
          10141880
        ],
        "postalCode": "L9M1M4",
        "streetName": "POYNTZ",
        "streetDirectionId": null,
        "streetTypeId": "ST",
        "placeName": "PENETANGUISHENE",
        "streetNameDisplayText": "POYNTZ ST, PENETANGUISHENE"
      }
    ]
  },
  {
    "postal": "L9M0H1",
    "result": [
      {
        "electoralDistricts": [
          {
            "election": null,
            "id": 100,
            "name": "Simcoe North"
          }
        ],
        "pollDivisionIds": [
          10141876
        ],
        "postalCode": "L9M0H1",
        "streetName": "CEDAR POINT",
        "streetDirectionId": null,
        "streetTypeId": "RD",
        "placeName": "TINY",
        "streetNameDisplayText": "CEDAR POINT RD, TINY"
      },
      {
        "electoralDistricts": [
          {
            "election": null,
            "id": 100,
            "name": "Simcoe North"
          }
        ],
        "pollDivisionIds": [
          10141876
        ],
        "postalCode": "L9M0H1",
        "streetName": "ERIC",
        "streetDirectionId": null,
        "streetTypeId": "RUE",
        "placeName": "TINY",
        "streetNameDisplayText": "ERIC RUE, TINY"
      },
      {
        "electoralDistricts": [
          {
            "election": null,
            "id": 100,
            "name": "Simcoe North"
          }
        ],
        "pollDivisionIds": [
          10141876
        ],
        "postalCode": "L9M0H1",
        "streetName": "LAFONTAINE",
        "streetDirectionId": "W",
        "streetTypeId": "RD",
        "placeName": "PENETANGUISHENE",
        "streetNameDisplayText": "LAFONTAINE RD W, PENETANGUISHENE"
      },
      {
        "electoralDistricts": [
          {
            "election": null,
            "id": 100,
            "name": "Simcoe North"
          }
        ],
        "pollDivisionIds": [
          10141876
        ],
        "postalCode": "L9M0H1",
        "streetName": "LAFONTAINE",
        "streetDirectionId": "W",
        "streetTypeId": "RD",
        "placeName": "TINY",
        "streetNameDisplayText": "LAFONTAINE RD W, TINY"
      },
      {
        "electoralDistricts": [
          {
            "election": null,
            "id": 100,
            "name": "Simcoe North"
          }
        ],
        "pollDivisionIds": [
          10141876
        ],
        "postalCode": "L9M0H1",
        "streetName": "RUE ERIC",
        "streetDirectionId": null,
        "streetTypeId": null,
        "placeName": "TINY",
        "streetNameDisplayText": "RUE ERIC, TINY"
      },
      {
        "electoralDistricts": [
          {
            "election": null,
            "id": 100,
            "name": "Simcoe North"
          }
        ],
        "pollDivisionIds": [
          10141876
        ],
        "postalCode": "L9M0H1",
        "streetName": "RUE HELENE",
        "streetDirectionId": null,
        "streetTypeId": null,
        "placeName": "TINY",
        "streetNameDisplayText": "RUE HELENE, TINY"
      },
      {
        "electoralDistricts": [
          {
            "election": null,
            "id": 100,
            "name": "Simcoe North"
          }
        ],
        "pollDivisionIds": [
          10141876
        ],
        "postalCode": "L9M0H1",
        "streetName": "RUE LAFONTAINE",
        "streetDirectionId": "W",
        "streetTypeId": "RD",
        "placeName": "TINY",
        "streetNameDisplayText": "RUE LAFONTAINE RD W, TINY"
      }
    ]
  },
  {
    "postal": "L9M9W3",
    "result": []
  },
  {
    "postal": "L9M6P1",
    "result": []
  },
  {
    "postal": "L9M7G2",
    "result": []
  },
  {
    "postal": "L9M4J9",
    "result": []
  },
  {
    "postal": "L9M9E4",
    "result": []
  },
  {
    "postal": "L9M8H0",
    "result": []
  },
  {
    "postal": "L9M4M7",
    "result": []
  },
  {
    "postal": "L9M2G9",
    "result": [
      {
        "electoralDistricts": [
          {
            "election": null,
            "id": 100,
            "name": "Simcoe North"
          }
        ],
        "pollDivisionIds": [
          10141882
        ],
        "postalCode": "L9M2G9",
        "streetName": "ARLYNN",
        "streetDirectionId": null,
        "streetTypeId": "CRES",
        "placeName": "PENETANGUISHENE",
        "streetNameDisplayText": "ARLYNN CRES, PENETANGUISHENE"
      }
    ]
  },
  {
    "postal": "L9M8T2",
    "result": []
  },
  {
    "postal": "L9M7G7",
    "result": []
  },
  {
    "postal": "L9M4Z3",
    "result": []
  },
  {
    "postal": "L9M5B3",
    "result": []
  },
  {
    "postal": "L9M1S7",
    "result": [
      {
        "electoralDistricts": [
          {
            "election": null,
            "id": 100,
            "name": "Simcoe North"
          }
        ],
        "pollDivisionIds": [
          10141880
        ],
        "postalCode": "L9M1S7",
        "streetName": "MAIN",
        "streetDirectionId": null,
        "streetTypeId": "ST",
        "placeName": "PENETANGUISHENE",
        "streetNameDisplayText": "MAIN ST, PENETANGUISHENE"
      }
    ]
  },
  {
    "postal": "L9M2N7",
    "result": []
  },
  {
    "postal": "L9M0H8",
    "result": [
      {
        "electoralDistricts": [
          {
            "election": null,
            "id": 100,
            "name": "Simcoe North"
          }
        ],
        "pollDivisionIds": [
          10141876
        ],
        "postalCode": "L9M0H8",
        "streetName": "BAYSIDE",
        "streetDirectionId": null,
        "streetTypeId": "RD",
        "placeName": "TINY",
        "streetNameDisplayText": "BAYSIDE RD, TINY"
      },
      {
        "electoralDistricts": [
          {
            "election": null,
            "id": 100,
            "name": "Simcoe North"
          }
        ],
        "pollDivisionIds": [
          10141876
        ],
        "postalCode": "L9M0H8",
        "streetName": "CHARLEBOIS",
        "streetDirectionId": null,
        "streetTypeId": "CRT",
        "placeName": "TINY",
        "streetNameDisplayText": "CHARLEBOIS CRT, TINY"
      },
      {
        "electoralDistricts": [
          {
            "election": null,
            "id": 100,
            "name": "Simcoe North"
          }
        ],
        "pollDivisionIds": [
          10141876
        ],
        "postalCode": "L9M0H8",
        "streetName": "CONCESSION 18",
        "streetDirectionId": "W",
        "streetTypeId": "RD",
        "placeName": "TINY",
        "streetNameDisplayText": "CONCESSION 18 RD W, TINY"
      },
      {
        "electoralDistricts": [
          {
            "election": null,
            "id": 100,
            "name": "Simcoe North"
          }
        ],
        "pollDivisionIds": [
          10141876
        ],
        "postalCode": "L9M0H8",
        "streetName": "CONCESSION 19",
        "streetDirectionId": "W",
        "streetTypeId": "RD",
        "placeName": "TINY",
        "streetNameDisplayText": "CONCESSION 19 RD W, TINY"
      },
      {
        "electoralDistricts": [
          {
            "election": null,
            "id": 100,
            "name": "Simcoe North"
          }
        ],
        "pollDivisionIds": [
          10141876
        ],
        "postalCode": "L9M0H8",
        "streetName": "GLEN CEDAR",
        "streetDirectionId": null,
        "streetTypeId": "DR",
        "placeName": "TINY",
        "streetNameDisplayText": "GLEN CEDAR DR, TINY"
      },
      {
        "electoralDistricts": [
          {
            "election": null,
            "id": 100,
            "name": "Simcoe North"
          }
        ],
        "pollDivisionIds": [
          10141876
        ],
        "postalCode": "L9M0H8",
        "streetName": "LAKELAND",
        "streetDirectionId": null,
        "streetTypeId": "DR",
        "placeName": "TINY",
        "streetNameDisplayText": "LAKELAND DR, TINY"
      },
      {
        "electoralDistricts": [
          {
            "election": null,
            "id": 100,
            "name": "Simcoe North"
          }
        ],
        "pollDivisionIds": [
          10141876
        ],
        "postalCode": "L9M0H8",
        "streetName": "MARINELAND",
        "streetDirectionId": null,
        "streetTypeId": "RD",
        "placeName": "TINY",
        "streetNameDisplayText": "MARINELAND RD, TINY"
      },
      {
        "electoralDistricts": [
          {
            "election": null,
            "id": 100,
            "name": "Simcoe North"
          }
        ],
        "pollDivisionIds": [
          10141876
        ],
        "postalCode": "L9M0H8",
        "streetName": "MULBERRY",
        "streetDirectionId": null,
        "streetTypeId": "CRT",
        "placeName": "TINY",
        "streetNameDisplayText": "MULBERRY CRT, TINY"
      },
      {
        "electoralDistricts": [
          {
            "election": null,
            "id": 100,
            "name": "Simcoe North"
          }
        ],
        "pollDivisionIds": [
          10141876
        ],
        "postalCode": "L9M0H8",
        "streetName": "RAVEN HILL",
        "streetDirectionId": null,
        "streetTypeId": "DR",
        "placeName": "TINY",
        "streetNameDisplayText": "RAVEN HILL DR, TINY"
      },
      {
        "electoralDistricts": [
          {
            "election": null,
            "id": 100,
            "name": "Simcoe North"
          }
        ],
        "pollDivisionIds": [
          10141876
        ],
        "postalCode": "L9M0H8",
        "streetName": "TINY BEACHES",
        "streetDirectionId": "N",
        "streetTypeId": "RD",
        "placeName": "TINY",
        "streetNameDisplayText": "TINY BEACHES RD N, TINY"
      }
    ]
  },
  {
    "postal": "L9M7Z4",
    "result": []
  },
  {
    "postal": "L9M7B1",
    "result": []
  },
  {
    "postal": "L9M7P8",
    "result": []
  },
  {
    "postal": "L9M7N0",
    "result": []
  },
  {
    "postal": "L9M3Y5",
    "result": []
  },
  {
    "postal": "L9M6K1",
    "result": []
  },
  {
    "postal": "L9M9X5",
    "result": []
  },
  {
    "postal": "L9M7S5",
    "result": []
  },
  {
    "postal": "L9M0A4",
    "result": [
      {
        "electoralDistricts": [
          {
            "election": null,
            "id": 100,
            "name": "Simcoe North"
          }
        ],
        "pollDivisionIds": [
          10141881
        ],
        "postalCode": "L9M0A4",
        "streetName": "BAY MOORINGS",
        "streetDirectionId": null,
        "streetTypeId": "BLVD",
        "placeName": "PENETANGUISHENE",
        "streetNameDisplayText": "BAY MOORINGS BLVD, PENETANGUISHENE"
      },
      {
        "electoralDistricts": [
          {
            "election": null,
            "id": 100,
            "name": "Simcoe North"
          }
        ],
        "pollDivisionIds": [
          10141881
        ],
        "postalCode": "L9M0A4",
        "streetName": "GREW",
        "streetDirectionId": null,
        "streetTypeId": "CRES",
        "placeName": "PENETANGUISHENE",
        "streetNameDisplayText": "GREW CRES, PENETANGUISHENE"
      }
    ]
  },
  {
    "postal": "L9M4T5",
    "result": []
  },
  {
    "postal": "L9M5K1",
    "result": []
  },
  {
    "postal": "L9M0Z9",
    "result": []
  },
  {
    "postal": "L9M7T2",
    "result": []
  },
  {
    "postal": "L9M1L5",
    "result": [
      {
        "electoralDistricts": [
          {
            "election": null,
            "id": 100,
            "name": "Simcoe North"
          }
        ],
        "pollDivisionIds": [
          10141882
        ],
        "postalCode": "L9M1L5",
        "streetName": "JEFFERY",
        "streetDirectionId": null,
        "streetTypeId": "ST",
        "placeName": "PENETANGUISHENE",
        "streetNameDisplayText": "JEFFERY ST, PENETANGUISHENE"
      },
      {
        "electoralDistricts": [
          {
            "election": null,
            "id": 100,
            "name": "Simcoe North"
          }
        ],
        "pollDivisionIds": [
          10141882
        ],
        "postalCode": "L9M1L5",
        "streetName": "MAIN",
        "streetDirectionId": null,
        "streetTypeId": "ST",
        "placeName": "PENETANGUISHENE",
        "streetNameDisplayText": "MAIN ST, PENETANGUISHENE"
      },
      {
        "electoralDistricts": [
          {
            "election": null,
            "id": 100,
            "name": "Simcoe North"
          }
        ],
        "pollDivisionIds": [
          10141882
        ],
        "postalCode": "L9M1L5",
        "streetName": "MARIA",
        "streetDirectionId": null,
        "streetTypeId": "ST",
        "placeName": "PENETANGUISHENE",
        "streetNameDisplayText": "MARIA ST, PENETANGUISHENE"
      }
    ]
  },
  {
    "postal": "L9M3N5",
    "result": []
  },
  {
    "postal": "L9M6H4",
    "result": []
  },
  {
    "postal": "L9M5A5",
    "result": []
  },
  {
    "postal": "L9M3R9",
    "result": []
  },
  {
    "postal": "L9M7L8",
    "result": []
  },
  {
    "postal": "L9M6T6",
    "result": []
  },
  {
    "postal": "L9M7Y7",
    "result": []
  },
  {
    "postal": "L9M3M8",
    "result": []
  },
  {
    "postal": "L9M2E0",
    "result": []
  },
  {
    "postal": "L9M4B5",
    "result": []
  },
  {
    "postal": "L9M1J3",
    "result": [
      {
        "electoralDistricts": [
          {
            "election": null,
            "id": 100,
            "name": "Simcoe North"
          }
        ],
        "pollDivisionIds": [
          10141882
        ],
        "postalCode": "L9M1J3",
        "streetName": "BONAVENTURE",
        "streetDirectionId": null,
        "streetTypeId": "PL",
        "placeName": "PENETANGUISHENE",
        "streetNameDisplayText": "BONAVENTURE PL, PENETANGUISHENE"
      },
      {
        "electoralDistricts": [
          {
            "election": null,
            "id": 100,
            "name": "Simcoe North"
          }
        ],
        "pollDivisionIds": [
          10141882
        ],
        "postalCode": "L9M1J3",
        "streetName": "DUNLOP",
        "streetDirectionId": null,
        "streetTypeId": "ST",
        "placeName": "PENETANGUISHENE",
        "streetNameDisplayText": "DUNLOP ST, PENETANGUISHENE"
      },
      {
        "electoralDistricts": [
          {
            "election": null,
            "id": 100,
            "name": "Simcoe North"
          }
        ],
        "pollDivisionIds": [
          10141882
        ],
        "postalCode": "L9M1J3",
        "streetName": "EDWARD",
        "streetDirectionId": null,
        "streetTypeId": "ST",
        "placeName": "PENETANGUISHENE",
        "streetNameDisplayText": "EDWARD ST, PENETANGUISHENE"
      }
    ]
  },
  {
    "postal": "L9M5S6",
    "result": []
  },
  {
    "postal": "L9M8P7",
    "result": []
  },
  {
    "postal": "L9M7S7",
    "result": []
  },
  {
    "postal": "L9M4C2",
    "result": []
  },
  {
    "postal": "L9M5Y0",
    "result": []
  },
  {
    "postal": "L9M2V7",
    "result": []
  },
  {
    "postal": "L9M8P5",
    "result": []
  },
  {
    "postal": "L9M5P5",
    "result": []
  },
  {
    "postal": "L9M5Z0",
    "result": []
  },
  {
    "postal": "L9M9B0",
    "result": []
  },
  {
    "postal": "L9M1L0",
    "result": []
  },
  {
    "postal": "L9M0B5",
    "result": [
      {
        "electoralDistricts": [
          {
            "election": null,
            "id": 100,
            "name": "Simcoe North"
          }
        ],
        "pollDivisionIds": [
          10141880
        ],
        "postalCode": "L9M0B5",
        "streetName": "CONCESSION 17",
        "streetDirectionId": "E",
        "streetTypeId": null,
        "placeName": "TINY",
        "streetNameDisplayText": "CONCESSION 17 E, TINY"
      },
      {
        "electoralDistricts": [
          {
            "election": null,
            "id": 100,
            "name": "Simcoe North"
          }
        ],
        "pollDivisionIds": [
          10141880
        ],
        "postalCode": "L9M0B5",
        "streetName": "CONCESSION 17",
        "streetDirectionId": "E",
        "streetTypeId": "RD",
        "placeName": "TINY",
        "streetNameDisplayText": "CONCESSION 17 RD E, TINY"
      },
      {
        "electoralDistricts": [
          {
            "election": null,
            "id": 100,
            "name": "Simcoe North"
          }
        ],
        "pollDivisionIds": [
          10141880
        ],
        "postalCode": "L9M0B5",
        "streetName": "CONCESSION 17 RD EAST",
        "streetDirectionId": null,
        "streetTypeId": null,
        "placeName": "TINY",
        "streetNameDisplayText": "CONCESSION 17 RD EAST, TINY"
      },
      {
        "electoralDistricts": [
          {
            "election": null,
            "id": 100,
            "name": "Simcoe North"
          }
        ],
        "pollDivisionIds": [
          10141880
        ],
        "postalCode": "L9M0B5",
        "streetName": "FAIRLAWN",
        "streetDirectionId": null,
        "streetTypeId": "GROVE",
        "placeName": "TINY",
        "streetNameDisplayText": "FAIRLAWN GROVE, TINY"
      },
      {
        "electoralDistricts": [
          {
            "election": null,
            "id": 100,
            "name": "Simcoe North"
          }
        ],
        "pollDivisionIds": [
          10141880
        ],
        "postalCode": "L9M0B5",
        "streetName": "FARLAIN LAKE",
        "streetDirectionId": "E",
        "streetTypeId": "RD",
        "placeName": "TINY",
        "streetNameDisplayText": "FARLAIN LAKE RD E, TINY"
      },
      {
        "electoralDistricts": [
          {
            "election": null,
            "id": 100,
            "name": "Simcoe North"
          }
        ],
        "pollDivisionIds": [
          10141880
        ],
        "postalCode": "L9M0B5",
        "streetName": "HOLLAND",
        "streetDirectionId": null,
        "streetTypeId": "DR",
        "placeName": "TINY",
        "streetNameDisplayText": "HOLLAND DR, TINY"
      },
      {
        "electoralDistricts": [
          {
            "election": null,
            "id": 100,
            "name": "Simcoe North"
          }
        ],
        "pollDivisionIds": [
          10141880
        ],
        "postalCode": "L9M0B5",
        "streetName": "MUNDY",
        "streetDirectionId": null,
        "streetTypeId": "AVE",
        "placeName": "TINY",
        "streetNameDisplayText": "MUNDY AVE, TINY"
      },
      {
        "electoralDistricts": [
          {
            "election": null,
            "id": 100,
            "name": "Simcoe North"
          }
        ],
        "pollDivisionIds": [
          10141880
        ],
        "postalCode": "L9M0B5",
        "streetName": "NEEDLE",
        "streetDirectionId": null,
        "streetTypeId": "RD",
        "placeName": "TINY",
        "streetNameDisplayText": "NEEDLE RD, TINY"
      },
      {
        "electoralDistricts": [
          {
            "election": null,
            "id": 100,
            "name": "Simcoe North"
          }
        ],
        "pollDivisionIds": [
          10141880
        ],
        "postalCode": "L9M0B5",
        "streetName": "ROSEDALE",
        "streetDirectionId": null,
        "streetTypeId": "DR",
        "placeName": "TINY",
        "streetNameDisplayText": "ROSEDALE DR, TINY"
      }
    ]
  },
  {
    "postal": "L9M3L2",
    "result": []
  },
  {
    "postal": "L9M3B7",
    "result": []
  },
  {
    "postal": "L9M8L1",
    "result": []
  },
  {
    "postal": "L9M5M4",
    "result": []
  },
  {
    "postal": "L9M4G9",
    "result": []
  },
  {
    "postal": "L9M0P0",
    "result": []
  },
  {
    "postal": "L9M8G2",
    "result": []
  },
  {
    "postal": "L9M1V9",
    "result": [
      {
        "electoralDistricts": [
          {
            "election": null,
            "id": 100,
            "name": "Simcoe North"
          }
        ],
        "pollDivisionIds": [
          10141881
        ],
        "postalCode": "L9M1V9",
        "streetName": "BYRNES",
        "streetDirectionId": null,
        "streetTypeId": "CRES",
        "placeName": "PENETANGUISHENE",
        "streetNameDisplayText": "BYRNES CRES, PENETANGUISHENE"
      },
      {
        "electoralDistricts": [
          {
            "election": null,
            "id": 100,
            "name": "Simcoe North"
          }
        ],
        "pollDivisionIds": [
          10141881
        ],
        "postalCode": "L9M1V9",
        "streetName": "OXLEY",
        "streetDirectionId": null,
        "streetTypeId": "DR",
        "placeName": "PENETANGUISHENE",
        "streetNameDisplayText": "OXLEY DR, PENETANGUISHENE"
      }
    ]
  },
  {
    "postal": "L9M8N8",
    "result": []
  },
  {
    "postal": "L9M6S8",
    "result": []
  },
  {
    "postal": "L9M8H2",
    "result": []
  },
  {
    "postal": "L9M5R8",
    "result": []
  },
  {
    "postal": "L9M5L4",
    "result": []
  },
  {
    "postal": "L9M9E1",
    "result": []
  },
  {
    "postal": "L9M1C4",
    "result": [
      {
        "electoralDistricts": [
          {
            "election": null,
            "id": 100,
            "name": "Simcoe North"
          }
        ],
        "pollDivisionIds": [
          10141881
        ],
        "postalCode": "L9M1C4",
        "streetName": "BURKE",
        "streetDirectionId": null,
        "streetTypeId": "ST",
        "placeName": "PENETANGUISHENE",
        "streetNameDisplayText": "BURKE ST, PENETANGUISHENE"
      },
      {
        "electoralDistricts": [
          {
            "election": null,
            "id": 100,
            "name": "Simcoe North"
          }
        ],
        "pollDivisionIds": [
          10141881
        ],
        "postalCode": "L9M1C4",
        "streetName": "PEEL",
        "streetDirectionId": null,
        "streetTypeId": "ST",
        "placeName": "PENETANGUISHENE",
        "streetNameDisplayText": "PEEL ST, PENETANGUISHENE"
      },
      {
        "electoralDistricts": [
          {
            "election": null,
            "id": 100,
            "name": "Simcoe North"
          }
        ],
        "pollDivisionIds": [
          10141881
        ],
        "postalCode": "L9M1C4",
        "streetName": "SHERIDAN",
        "streetDirectionId": null,
        "streetTypeId": "ST",
        "placeName": "PENETANGUISHENE",
        "streetNameDisplayText": "SHERIDAN ST, PENETANGUISHENE"
      }
    ]
  },
  {
    "postal": "L9M8W5",
    "result": []
  },
  {
    "postal": "L9M1Y4",
    "result": [
      {
        "electoralDistricts": [
          {
            "election": null,
            "id": 100,
            "name": "Simcoe North"
          }
        ],
        "pollDivisionIds": [
          10141882
        ],
        "postalCode": "L9M1Y4",
        "streetName": "GORDON",
        "streetDirectionId": null,
        "streetTypeId": "DR",
        "placeName": "PENETANGUISHENE",
        "streetNameDisplayText": "GORDON DR, PENETANGUISHENE"
      }
    ]
  },
  {
    "postal": "L9M1C0",
    "result": []
  },
  {
    "postal": "L9M2J2",
    "result": [
      {
        "electoralDistricts": [
          {
            "election": null,
            "id": 100,
            "name": "Simcoe North"
          }
        ],
        "pollDivisionIds": [
          10141882
        ],
        "postalCode": "L9M2J2",
        "streetName": "MARCHAND",
        "streetDirectionId": null,
        "streetTypeId": "DR",
        "placeName": "PENETANGUISHENE",
        "streetNameDisplayText": "MARCHAND DR, PENETANGUISHENE"
      }
    ]
  },
  {
    "postal": "L9M2J0",
    "result": []
  },
  {
    "postal": "L9M7A3",
    "result": []
  },
  {
    "postal": "L9M8M1",
    "result": []
  },
  {
    "postal": "L9M7T9",
    "result": []
  },
  {
    "postal": "L9M6C0",
    "result": []
  },
  {
    "postal": "L9M7X1",
    "result": []
  },
  {
    "postal": "L9M0G1",
    "result": [
      {
        "electoralDistricts": [
          {
            "election": null,
            "id": 100,
            "name": "Simcoe North"
          }
        ],
        "pollDivisionIds": [
          10141880
        ],
        "postalCode": "L9M0G1",
        "streetName": "16",
        "streetDirectionId": "E",
        "streetTypeId": "CONC",
        "placeName": "TINY",
        "streetNameDisplayText": "16 CONC E, TINY"
      },
      {
        "electoralDistricts": [
          {
            "election": null,
            "id": 100,
            "name": "Simcoe North"
          }
        ],
        "pollDivisionIds": [
          10141880
        ],
        "postalCode": "L9M0G1",
        "streetName": "CONCESSION 16",
        "streetDirectionId": "E",
        "streetTypeId": null,
        "placeName": "TINY",
        "streetNameDisplayText": "CONCESSION 16 E, TINY"
      },
      {
        "electoralDistricts": [
          {
            "election": null,
            "id": 100,
            "name": "Simcoe North"
          }
        ],
        "pollDivisionIds": [
          10141880
        ],
        "postalCode": "L9M0G1",
        "streetName": "CONCESSION 16",
        "streetDirectionId": "E",
        "streetTypeId": "RD",
        "placeName": "TINY",
        "streetNameDisplayText": "CONCESSION 16 RD E, TINY"
      }
    ]
  },
  {
    "postal": "L9M4X2",
    "result": []
  },
  {
    "postal": "L9M0N6",
    "result": [
      {
        "electoralDistricts": [
          {
            "election": null,
            "id": 100,
            "name": "Simcoe North"
          }
        ],
        "pollDivisionIds": [
          10141876
        ],
        "postalCode": "L9M0N6",
        "streetName": "CHEMIN DU LOUP",
        "streetDirectionId": null,
        "streetTypeId": "RD",
        "placeName": "TINY",
        "streetNameDisplayText": "CHEMIN DU LOUP RD, TINY"
      },
      {
        "electoralDistricts": [
          {
            "election": null,
            "id": 100,
            "name": "Simcoe North"
          }
        ],
        "pollDivisionIds": [
          10141880,
          10141876
        ],
        "postalCode": "L9M0N6",
        "streetName": "CONCESSION 15",
        "streetDirectionId": "E",
        "streetTypeId": "RD",
        "placeName": "TINY",
        "streetNameDisplayText": "CONCESSION 15 RD E, TINY"
      }
    ]
  },
  {
    "postal": "L9M8E3",
    "result": []
  },
  {
    "postal": "L9M5S8",
    "result": []
  },
  {
    "postal": "L9M0R0",
    "result": []
  },
  {
    "postal": "L9M6J6",
    "result": []
  },
  {
    "postal": "L9M4B4",
    "result": []
  },
  {
    "postal": "L9M7E3",
    "result": []
  },
  {
    "postal": "L9M3N6",
    "result": []
  },
  {
    "postal": "L9M3X6",
    "result": []
  },
  {
    "postal": "L9M8L0",
    "result": []
  },
  {
    "postal": "L9M8N1",
    "result": []
  },
  {
    "postal": "L9M4J0",
    "result": []
  },
  {
    "postal": "L9M0X7",
    "result": []
  },
  {
    "postal": "L9M6S4",
    "result": []
  },
  {
    "postal": "L9M0Z0",
    "result": []
  },
  {
    "postal": "L9M9X8",
    "result": []
  },
  {
    "postal": "L9M3H3",
    "result": []
  },
  {
    "postal": "L9M7S2",
    "result": []
  },
  {
    "postal": "L9M3T3",
    "result": []
  },
  {
    "postal": "L9M9P3",
    "result": []
  },
  {
    "postal": "L9M4H8",
    "result": []
  },
  {
    "postal": "L9M6R1",
    "result": []
  },
  {
    "postal": "L9M1S0",
    "result": []
  },
  {
    "postal": "L9M3W8",
    "result": []
  },
  {
    "postal": "L9M4S3",
    "result": []
  },
  {
    "postal": "L9M1B6",
    "result": [
      {
        "electoralDistricts": [
          {
            "election": null,
            "id": 100,
            "name": "Simcoe North"
          }
        ],
        "pollDivisionIds": [
          10141881
        ],
        "postalCode": "L9M1B6",
        "streetName": "VICTORY",
        "streetDirectionId": null,
        "streetTypeId": "CRES",
        "placeName": "PENETANGUISHENE",
        "streetNameDisplayText": "VICTORY CRES, PENETANGUISHENE"
      }
    ]
  },
  {
    "postal": "L9M8R3",
    "result": []
  },
  {
    "postal": "L9M4V9",
    "result": []
  },
  {
    "postal": "L9M9W4",
    "result": []
  },
  {
    "postal": "L9M3T4",
    "result": []
  },
  {
    "postal": "L9M5C7",
    "result": []
  },
  {
    "postal": "L9M3Y1",
    "result": []
  },
  {
    "postal": "L9M5V0",
    "result": []
  },
  {
    "postal": "L9M8G8",
    "result": []
  },
  {
    "postal": "L9M8B1",
    "result": []
  },
  {
    "postal": "L9M4P5",
    "result": []
  },
  {
    "postal": "L9M7B2",
    "result": []
  },
  {
    "postal": "L9M0R2",
    "result": [
      {
        "electoralDistricts": [
          {
            "election": null,
            "id": 100,
            "name": "Simcoe North"
          }
        ],
        "pollDivisionIds": [
          10141877
        ],
        "postalCode": "L9M0R2",
        "streetName": "COUNTY RD 6",
        "streetDirectionId": "N",
        "streetTypeId": null,
        "placeName": "TINY",
        "streetNameDisplayText": "COUNTY RD 6 N, TINY"
      },
      {
        "electoralDistricts": [
          {
            "election": null,
            "id": 100,
            "name": "Simcoe North"
          }
        ],
        "pollDivisionIds": [
          10141877
        ],
        "postalCode": "L9M0R2",
        "streetName": "COUNTY ROAD 6",
        "streetDirectionId": "N",
        "streetTypeId": null,
        "placeName": "TINY",
        "streetNameDisplayText": "COUNTY ROAD 6 N, TINY"
      }
    ]
  },
  {
    "postal": "L9M4M4",
    "result": []
  },
  {
    "postal": "L9M7M4",
    "result": []
  },
  {
    "postal": "L9M9S7",
    "result": []
  },
  {
    "postal": "L9M5Z7",
    "result": []
  },
  {
    "postal": "L9M7J7",
    "result": []
  },
  {
    "postal": "L9M8R8",
    "result": []
  },
  {
    "postal": "L9M9X1",
    "result": []
  },
  {
    "postal": "L9M5M9",
    "result": []
  },
  {
    "postal": "L9M9B4",
    "result": []
  },
  {
    "postal": "L9M0L9",
    "result": [
      {
        "electoralDistricts": [
          {
            "election": null,
            "id": 100,
            "name": "Simcoe North"
          }
        ],
        "pollDivisionIds": [
          10141876
        ],
        "postalCode": "L9M0L9",
        "streetName": "PINE GROVE",
        "streetDirectionId": null,
        "streetTypeId": "DR",
        "placeName": "TINY",
        "streetNameDisplayText": "PINE GROVE DR, TINY"
      }
    ]
  },
  {
    "postal": "L9M9G4",
    "result": []
  },
  {
    "postal": "L9M1J4",
    "result": [
      {
        "electoralDistricts": [
          {
            "election": null,
            "id": 100,
            "name": "Simcoe North"
          }
        ],
        "pollDivisionIds": [
          10141882
        ],
        "postalCode": "L9M1J4",
        "streetName": "BRIDLE",
        "streetDirectionId": null,
        "streetTypeId": "RD",
        "placeName": "PENETANGUISHENE",
        "streetNameDisplayText": "BRIDLE RD, PENETANGUISHENE"
      },
      {
        "electoralDistricts": [
          {
            "election": null,
            "id": 100,
            "name": "Simcoe North"
          }
        ],
        "pollDivisionIds": [
          10141882
        ],
        "postalCode": "L9M1J4",
        "streetName": "SULKY",
        "streetDirectionId": null,
        "streetTypeId": "DR",
        "placeName": "PENETANGUISHENE",
        "streetNameDisplayText": "SULKY DR, PENETANGUISHENE"
      }
    ]
  },
  {
    "postal": "L9M0W6",
    "result": []
  }
]
