[
  {
    "postal": "P2B9J6",
    "result": []
  },
  {
    "postal": "P2B9Z5",
    "result": []
  },
  {
    "postal": "P2B7H8",
    "result": []
  },
  {
    "postal": "P2B0P6",
    "result": []
  },
  {
    "postal": "P2B0S7",
    "result": []
  },
  {
    "postal": "P2B8B9",
    "result": []
  },
  {
    "postal": "P2B2A6",
    "result": [
      {
        "electoralDistricts": [
          {
            "election": null,
            "id": 107,
            "name": "Timiskaming—Cochrane"
          }
        ],
        "pollDivisionIds": [
          10142455
        ],
        "postalCode": "P2B2A6",
        "streetName": "WILLIAM",
        "streetDirectionId": null,
        "streetTypeId": "ST",
        "placeName": "STURGEON FALLS",
        "streetNameDisplayText": "WILLIAM ST, STURGEON FALLS"
      }
    ]
  },
  {
    "postal": "P2B7V2",
    "result": []
  },
  {
    "postal": "P2B9P4",
    "result": []
  },
  {
    "postal": "P2B6G0",
    "result": []
  },
  {
    "postal": "P2B2K0",
    "result": []
  },
  {
    "postal": "P2B7N6",
    "result": []
  },
  {
    "postal": "P2B5R3",
    "result": []
  },
  {
    "postal": "P2B7K0",
    "result": []
  },
  {
    "postal": "P2B3R2",
    "result": []
  },
  {
    "postal": "P2B0J1",
    "result": []
  },
  {
    "postal": "P2B0B0",
    "result": []
  },
  {
    "postal": "P2B5Z2",
    "result": []
  },
  {
    "postal": "P2B7P3",
    "result": []
  },
  {
    "postal": "P2B2K3",
    "result": [
      {
        "electoralDistricts": [
          {
            "election": null,
            "id": 107,
            "name": "Timiskaming—Cochrane"
          }
        ],
        "pollDivisionIds": [
          10142456,
          10142398
        ],
        "postalCode": "P2B2K3",
        "streetName": "EVANSVILLE",
        "streetDirectionId": null,
        "streetTypeId": "DR",
        "placeName": "STURGEON FALLS",
        "streetNameDisplayText": "EVANSVILLE DR, STURGEON FALLS"
      }
    ]
  },
  {
    "postal": "P2B7Y6",
    "result": []
  },
  {
    "postal": "P2B1L9",
    "result": [
      {
        "electoralDistricts": [
          {
            "election": null,
            "id": 107,
            "name": "Timiskaming—Cochrane"
          }
        ],
        "pollDivisionIds": [
          10142454
        ],
        "postalCode": "P2B1L9",
        "streetName": "LEVESQUE",
        "streetDirectionId": null,
        "streetTypeId": "ST",
        "placeName": "STURGEON FALLS",
        "streetNameDisplayText": "LEVESQUE ST, STURGEON FALLS"
      },
      {
        "electoralDistricts": [
          {
            "election": null,
            "id": 107,
            "name": "Timiskaming—Cochrane"
          }
        ],
        "pollDivisionIds": [
          10142454
        ],
        "postalCode": "P2B1L9",
        "streetName": "LÉVESQUE",
        "streetDirectionId": null,
        "streetTypeId": "ST",
        "placeName": "STURGEON FALLS",
        "streetNameDisplayText": "LÉVESQUE ST, STURGEON FALLS"
      }
    ]
  },
  {
    "postal": "P2B8T0",
    "result": []
  },
  {
    "postal": "P2B3K8",
    "result": [
      {
        "electoralDistricts": [
          {
            "election": null,
            "id": 107,
            "name": "Timiskaming—Cochrane"
          }
        ],
        "pollDivisionIds": [
          10142461,
          10142456
        ],
        "postalCode": "P2B3K8",
        "streetName": "17",
        "streetDirectionId": "E",
        "streetTypeId": "HWY",
        "placeName": "STURGEON FALLS",
        "streetNameDisplayText": "17 HWY E, STURGEON FALLS"
      },
      {
        "electoralDistricts": [
          {
            "election": null,
            "id": 107,
            "name": "Timiskaming—Cochrane"
          }
        ],
        "pollDivisionIds": [
          10142461
        ],
        "postalCode": "P2B3K8",
        "streetName": "17",
        "streetDirectionId": "W",
        "streetTypeId": "HWY",
        "placeName": "STURGEON FALLS",
        "streetNameDisplayText": "17 HWY W, STURGEON FALLS"
      },
      {
        "electoralDistricts": [
          {
            "election": null,
            "id": 107,
            "name": "Timiskaming—Cochrane"
          }
        ],
        "pollDivisionIds": [
          10142456
        ],
        "postalCode": "P2B3K8",
        "streetName": "HWY 17E",
        "streetDirectionId": "E",
        "streetTypeId": "HWY",
        "placeName": "STURGEON FALLS",
        "streetNameDisplayText": "HWY 17E HWY E, STURGEON FALLS"
      }
    ]
  },
  {
    "postal": "P2B5W9",
    "result": []
  },
  {
    "postal": "P2B6T9",
    "result": []
  },
  {
    "postal": "P2B4H1",
    "result": []
  },
  {
    "postal": "P2B7A2",
    "result": []
  },
  {
    "postal": "P2B5G0",
    "result": []
  },
  {
    "postal": "P2B8V5",
    "result": []
  },
  {
    "postal": "P2B2Y8",
    "result": [
      {
        "electoralDistricts": [
          {
            "election": null,
            "id": 107,
            "name": "Timiskaming—Cochrane"
          }
        ],
        "pollDivisionIds": [
          10142455
        ],
        "postalCode": "P2B2Y8",
        "streetName": "HOLDITCH",
        "streetDirectionId": null,
        "streetTypeId": "ST",
        "placeName": "STURGEON FALLS",
        "streetNameDisplayText": "HOLDITCH ST, STURGEON FALLS"
      }
    ]
  },
  {
    "postal": "P2B2B6",
    "result": [
      {
        "electoralDistricts": [
          {
            "election": null,
            "id": 107,
            "name": "Timiskaming—Cochrane"
          }
        ],
        "pollDivisionIds": [
          10142456
        ],
        "postalCode": "P2B2B6",
        "streetName": "WILLIAM",
        "streetDirectionId": null,
        "streetTypeId": "ST",
        "placeName": "STURGEON FALLS",
        "streetNameDisplayText": "WILLIAM ST, STURGEON FALLS"
      }
    ]
  },
  {
    "postal": "P2B4W8",
    "result": []
  },
  {
    "postal": "P2B8H7",
    "result": []
  },
  {
    "postal": "P2B5P1",
    "result": []
  },
  {
    "postal": "P2B2B8",
    "result": [
      {
        "electoralDistricts": [
          {
            "election": null,
            "id": 107,
            "name": "Timiskaming—Cochrane"
          }
        ],
        "pollDivisionIds": [
          10142456
        ],
        "postalCode": "P2B2B8",
        "streetName": "WILLIAM",
        "streetDirectionId": null,
        "streetTypeId": "ST",
        "placeName": "STURGEON FALLS",
        "streetNameDisplayText": "WILLIAM ST, STURGEON FALLS"
      }
    ]
  },
  {
    "postal": "P2B0P2",
    "result": []
  },
  {
    "postal": "P2B9M1",
    "result": []
  },
  {
    "postal": "P2B3G0",
    "result": []
  },
  {
    "postal": "P2B9Z2",
    "result": []
  },
  {
    "postal": "P2B2A0",
    "result": []
  },
  {
    "postal": "P2B6Y0",
    "result": []
  },
  {
    "postal": "P2B2Z8",
    "result": [
      {
        "electoralDistricts": [
          {
            "election": null,
            "id": 107,
            "name": "Timiskaming—Cochrane"
          }
        ],
        "pollDivisionIds": [
          10142456
        ],
        "postalCode": "P2B2Z8",
        "streetName": "ETHEL",
        "streetDirectionId": null,
        "streetTypeId": "ST",
        "placeName": "STURGEON FALLS",
        "streetNameDisplayText": "ETHEL ST, STURGEON FALLS"
      }
    ]
  },
  {
    "postal": "P2B7Y3",
    "result": []
  },
  {
    "postal": "P2B6Z5",
    "result": []
  },
  {
    "postal": "P2B6E0",
    "result": []
  },
  {
    "postal": "P2B9B7",
    "result": []
  },
  {
    "postal": "P2B9S5",
    "result": []
  },
  {
    "postal": "P2B3X3",
    "result": []
  },
  {
    "postal": "P2B7R5",
    "result": []
  },
  {
    "postal": "P2B2X3",
    "result": [
      {
        "electoralDistricts": [
          {
            "election": null,
            "id": 107,
            "name": "Timiskaming—Cochrane"
          }
        ],
        "pollDivisionIds": [
          10142461
        ],
        "postalCode": "P2B2X3",
        "streetName": "LAC DES DEUX-MILLES",
        "streetDirectionId": null,
        "streetTypeId": "RD",
        "placeName": "STURGEON FALLS",
        "streetNameDisplayText": "LAC DES DEUX-MILLES RD, STURGEON FALLS"
      },
      {
        "electoralDistricts": [
          {
            "election": null,
            "id": 107,
            "name": "Timiskaming—Cochrane"
          }
        ],
        "pollDivisionIds": [
          10142461
        ],
        "postalCode": "P2B2X3",
        "streetName": "LAC DEUX MILLES",
        "streetDirectionId": null,
        "streetTypeId": "CH",
        "placeName": "STURGEON FALLS",
        "streetNameDisplayText": "LAC DEUX MILLES CH, STURGEON FALLS"
      }
    ]
  },
  {
    "postal": "P2B8Z9",
    "result": []
  },
  {
    "postal": "P2B0N4",
    "result": []
  },
  {
    "postal": "P2B1K1",
    "result": [
      {
        "electoralDistricts": [
          {
            "election": null,
            "id": 107,
            "name": "Timiskaming—Cochrane"
          }
        ],
        "pollDivisionIds": [
          10142456
        ],
        "postalCode": "P2B1K1",
        "streetName": "NIPISSING",
        "streetDirectionId": null,
        "streetTypeId": "ST",
        "placeName": "STURGEON FALLS",
        "streetNameDisplayText": "NIPISSING ST, STURGEON FALLS"
      }
    ]
  },
  {
    "postal": "P2B1S3",
    "result": [
      {
        "electoralDistricts": [
          {
            "election": null,
            "id": 107,
            "name": "Timiskaming—Cochrane"
          }
        ],
        "pollDivisionIds": [
          10142454
        ],
        "postalCode": "P2B1S3",
        "streetName": "HOLDITCH",
        "streetDirectionId": null,
        "streetTypeId": "ST",
        "placeName": "STURGEON FALLS",
        "streetNameDisplayText": "HOLDITCH ST, STURGEON FALLS"
      }
    ]
  },
  {
    "postal": "P2B6M4",
    "result": []
  },
  {
    "postal": "P2B9A9",
    "result": []
  },
  {
    "postal": "P2B9Z9",
    "result": []
  },
  {
    "postal": "P2B6T4",
    "result": []
  },
  {
    "postal": "P2B0B2",
    "result": []
  },
  {
    "postal": "P2B2L9",
    "result": [
      {
        "electoralDistricts": [
          {
            "election": null,
            "id": 107,
            "name": "Timiskaming—Cochrane"
          }
        ],
        "pollDivisionIds": [
          10142461
        ],
        "postalCode": "P2B2L9",
        "streetName": "CHAMPAGNE",
        "streetDirectionId": null,
        "streetTypeId": "RD",
        "placeName": "STURGEON FALLS",
        "streetNameDisplayText": "CHAMPAGNE RD, STURGEON FALLS"
      }
    ]
  },
  {
    "postal": "P2B8K9",
    "result": []
  },
  {
    "postal": "P2B2H9",
    "result": [
      {
        "electoralDistricts": [
          {
            "election": null,
            "id": 107,
            "name": "Timiskaming—Cochrane"
          }
        ],
        "pollDivisionIds": [
          10142456
        ],
        "postalCode": "P2B2H9",
        "streetName": "FRONT",
        "streetDirectionId": null,
        "streetTypeId": "ST",
        "placeName": "STURGEON FALLS",
        "streetNameDisplayText": "FRONT ST, STURGEON FALLS"
      }
    ]
  },
  {
    "postal": "P2B3Z6",
    "result": []
  },
  {
    "postal": "P2B3B0",
    "result": []
  },
  {
    "postal": "P2B2H8",
    "result": [
      {
        "electoralDistricts": [
          {
            "election": null,
            "id": 107,
            "name": "Timiskaming—Cochrane"
          }
        ],
        "pollDivisionIds": [
          10142456
        ],
        "postalCode": "P2B2H8",
        "streetName": "FRONT",
        "streetDirectionId": null,
        "streetTypeId": "ST",
        "placeName": "STURGEON FALLS",
        "streetNameDisplayText": "FRONT ST, STURGEON FALLS"
      }
    ]
  },
  {
    "postal": "P2B3X2",
    "result": []
  },
  {
    "postal": "P2B2E9",
    "result": []
  },
  {
    "postal": "P2B9P6",
    "result": []
  },
  {
    "postal": "P2B9E2",
    "result": []
  },
  {
    "postal": "P2B9H2",
    "result": []
  },
  {
    "postal": "P2B1S8",
    "result": [
      {
        "electoralDistricts": [
          {
            "election": null,
            "id": 107,
            "name": "Timiskaming—Cochrane"
          }
        ],
        "pollDivisionIds": [
          10142455
        ],
        "postalCode": "P2B1S8",
        "streetName": "HOLDITCH",
        "streetDirectionId": null,
        "streetTypeId": "ST",
        "placeName": "STURGEON FALLS",
        "streetNameDisplayText": "HOLDITCH ST, STURGEON FALLS"
      }
    ]
  },
  {
    "postal": "P2B3M6",
    "result": [
      {
        "electoralDistricts": [
          {
            "election": null,
            "id": 107,
            "name": "Timiskaming—Cochrane"
          }
        ],
        "pollDivisionIds": [
          10142461,
          10142398
        ],
        "postalCode": "P2B3M6",
        "streetName": "DEMERS",
        "streetDirectionId": null,
        "streetTypeId": "ST",
        "placeName": "STURGEON FALLS",
        "streetNameDisplayText": "DEMERS ST, STURGEON FALLS"
      }
    ]
  },
  {
    "postal": "P2B6Z8",
    "result": []
  },
  {
    "postal": "P2B4J2",
    "result": []
  },
  {
    "postal": "P2B9Y1",
    "result": []
  },
  {
    "postal": "P2B8V6",
    "result": []
  },
  {
    "postal": "P2B6B2",
    "result": []
  },
  {
    "postal": "P2B1P8",
    "result": [
      {
        "electoralDistricts": [
          {
            "election": null,
            "id": 107,
            "name": "Timiskaming—Cochrane"
          }
        ],
        "pollDivisionIds": [
          10142454
        ],
        "postalCode": "P2B1P8",
        "streetName": "KING",
        "streetDirectionId": null,
        "streetTypeId": "ST",
        "placeName": "STURGEON FALLS",
        "streetNameDisplayText": "KING ST, STURGEON FALLS"
      }
    ]
  },
  {
    "postal": "P2B0V8",
    "result": []
  },
  {
    "postal": "P2B4Y0",
    "result": []
  },
  {
    "postal": "P2B2T4",
    "result": [
      {
        "electoralDistricts": [
          {
            "election": null,
            "id": 107,
            "name": "Timiskaming—Cochrane"
          }
        ],
        "pollDivisionIds": [
          10142461
        ],
        "postalCode": "P2B2T4",
        "streetName": "SALTER",
        "streetDirectionId": null,
        "streetTypeId": "ST",
        "placeName": "STURGEON FALLS",
        "streetNameDisplayText": "SALTER ST, STURGEON FALLS"
      }
    ]
  },
  {
    "postal": "P2B2S3",
    "result": [
      {
        "electoralDistricts": [
          {
            "election": null,
            "id": 107,
            "name": "Timiskaming—Cochrane"
          }
        ],
        "pollDivisionIds": [
          10142455
        ],
        "postalCode": "P2B2S3",
        "streetName": "WILLIAM",
        "streetDirectionId": null,
        "streetTypeId": "ST",
        "placeName": "STURGEON FALLS",
        "streetNameDisplayText": "WILLIAM ST, STURGEON FALLS"
      }
    ]
  },
  {
    "postal": "P2B0K0",
    "result": []
  },
  {
    "postal": "P2B5N1",
    "result": []
  },
  {
    "postal": "P2B7T0",
    "result": []
  },
  {
    "postal": "P2B9N2",
    "result": []
  },
  {
    "postal": "P2B5L1",
    "result": []
  },
  {
    "postal": "P2B7G5",
    "result": []
  },
  {
    "postal": "P2B6K2",
    "result": []
  },
  {
    "postal": "P2B6P9",
    "result": []
  },
  {
    "postal": "P2B0E6",
    "result": []
  },
  {
    "postal": "P2B8R9",
    "result": []
  },
  {
    "postal": "P2B3G9",
    "result": [
      {
        "electoralDistricts": [
          {
            "election": null,
            "id": 107,
            "name": "Timiskaming—Cochrane"
          }
        ],
        "pollDivisionIds": [
          10142461
        ],
        "postalCode": "P2B3G9",
        "streetName": "BRIDGE",
        "streetDirectionId": null,
        "streetTypeId": "ST",
        "placeName": "STURGEON FALLS",
        "streetNameDisplayText": "BRIDGE ST, STURGEON FALLS"
      },
      {
        "electoralDistricts": [
          {
            "election": null,
            "id": 107,
            "name": "Timiskaming—Cochrane"
          }
        ],
        "pollDivisionIds": [
          10142461
        ],
        "postalCode": "P2B3G9",
        "streetName": "FLORAL",
        "streetDirectionId": null,
        "streetTypeId": "ST",
        "placeName": "STURGEON FALLS",
        "streetNameDisplayText": "FLORAL ST, STURGEON FALLS"
      },
      {
        "electoralDistricts": [
          {
            "election": null,
            "id": 107,
            "name": "Timiskaming—Cochrane"
          }
        ],
        "pollDivisionIds": [
          10142461
        ],
        "postalCode": "P2B3G9",
        "streetName": "MONTREAL",
        "streetDirectionId": null,
        "streetTypeId": "ST",
        "placeName": "STURGEON FALLS",
        "streetNameDisplayText": "MONTREAL ST, STURGEON FALLS"
      },
      {
        "electoralDistricts": [
          {
            "election": null,
            "id": 107,
            "name": "Timiskaming—Cochrane"
          }
        ],
        "pollDivisionIds": [
          10142461
        ],
        "postalCode": "P2B3G9",
        "streetName": "OTTAWA",
        "streetDirectionId": null,
        "streetTypeId": "ST",
        "placeName": "STURGEON FALLS",
        "streetNameDisplayText": "OTTAWA ST, STURGEON FALLS"
      }
    ]
  },
  {
    "postal": "P2B0V7",
    "result": []
  },
  {
    "postal": "P2B2Z1",
    "result": [
      {
        "electoralDistricts": [
          {
            "election": null,
            "id": 107,
            "name": "Timiskaming—Cochrane"
          }
        ],
        "pollDivisionIds": [
          10142456,
          10142461
        ],
        "postalCode": "P2B2Z1",
        "streetName": "COURSOL",
        "streetDirectionId": null,
        "streetTypeId": "RD",
        "placeName": "STURGEON FALLS",
        "streetNameDisplayText": "COURSOL RD, STURGEON FALLS"
      }
    ]
  },
  {
    "postal": "P2B7N1",
    "result": []
  },
  {
    "postal": "P2B3C6",
    "result": [
      {
        "electoralDistricts": [
          {
            "election": null,
            "id": 107,
            "name": "Timiskaming—Cochrane"
          }
        ],
        "pollDivisionIds": [
          10142461
        ],
        "postalCode": "P2B3C6",
        "streetName": "NIPISSING",
        "streetDirectionId": null,
        "streetTypeId": "ST",
        "placeName": "STURGEON FALLS",
        "streetNameDisplayText": "NIPISSING ST, STURGEON FALLS"
      },
      {
        "electoralDistricts": [
          {
            "election": null,
            "id": 107,
            "name": "Timiskaming—Cochrane"
          }
        ],
        "pollDivisionIds": [
          10142461
        ],
        "postalCode": "P2B3C6",
        "streetName": "THIRD",
        "streetDirectionId": null,
        "streetTypeId": "RUE",
        "placeName": "STURGEON FALLS",
        "streetNameDisplayText": "THIRD RUE, STURGEON FALLS"
      },
      {
        "electoralDistricts": [
          {
            "election": null,
            "id": 107,
            "name": "Timiskaming—Cochrane"
          }
        ],
        "pollDivisionIds": [
          10142461
        ],
        "postalCode": "P2B3C6",
        "streetName": "THIRD",
        "streetDirectionId": null,
        "streetTypeId": "ST",
        "placeName": "STURGEON FALLS",
        "streetNameDisplayText": "THIRD ST, STURGEON FALLS"
      }
    ]
  },
  {
    "postal": "P2B4M1",
    "result": []
  },
  {
    "postal": "P2B9K2",
    "result": []
  },
  {
    "postal": "P2B9S6",
    "result": []
  },
  {
    "postal": "P2B4X1",
    "result": []
  },
  {
    "postal": "P2B8W2",
    "result": []
  },
  {
    "postal": "P2B7N2",
    "result": []
  },
  {
    "postal": "P2B8S3",
    "result": []
  },
  {
    "postal": "P2B4V0",
    "result": []
  },
  {
    "postal": "P2B6W4",
    "result": []
  },
  {
    "postal": "P2B5M1",
    "result": []
  },
  {
    "postal": "P2B0S4",
    "result": []
  },
  {
    "postal": "P2B5X6",
    "result": []
  },
  {
    "postal": "P2B8L5",
    "result": []
  },
  {
    "postal": "P2B5M8",
    "result": []
  },
  {
    "postal": "P2B2G3",
    "result": [
      {
        "electoralDistricts": [
          {
            "election": null,
            "id": 107,
            "name": "Timiskaming—Cochrane"
          }
        ],
        "pollDivisionIds": [
          10142454
        ],
        "postalCode": "P2B2G3",
        "streetName": "PARKER",
        "streetDirectionId": null,
        "streetTypeId": "ST",
        "placeName": "STURGEON FALLS",
        "streetNameDisplayText": "PARKER ST, STURGEON FALLS"
      }
    ]
  },
  {
    "postal": "P2B8E4",
    "result": []
  },
  {
    "postal": "P2B7S9",
    "result": []
  },
  {
    "postal": "P2B1K3",
    "result": [
      {
        "electoralDistricts": [
          {
            "election": null,
            "id": 107,
            "name": "Timiskaming—Cochrane"
          }
        ],
        "pollDivisionIds": [
          10142456
        ],
        "postalCode": "P2B1K3",
        "streetName": "NIPISSING",
        "streetDirectionId": null,
        "streetTypeId": "ST",
        "placeName": "STURGEON FALLS",
        "streetNameDisplayText": "NIPISSING ST, STURGEON FALLS"
      }
    ]
  },
  {
    "postal": "P2B4E1",
    "result": []
  },
  {
    "postal": "P2B4R2",
    "result": []
  },
  {
    "postal": "P2B6T0",
    "result": []
  },
  {
    "postal": "P2B3K5",
    "result": [
      {
        "electoralDistricts": [
          {
            "election": null,
            "id": 107,
            "name": "Timiskaming—Cochrane"
          }
        ],
        "pollDivisionIds": [
          10142461
        ],
        "postalCode": "P2B3K5",
        "streetName": "BALSAM",
        "streetDirectionId": null,
        "streetTypeId": "CRT",
        "placeName": "STUIRGEON FALLS",
        "streetNameDisplayText": "BALSAM CRT, STUIRGEON FALLS"
      },
      {
        "electoralDistricts": [
          {
            "election": null,
            "id": 107,
            "name": "Timiskaming—Cochrane"
          }
        ],
        "pollDivisionIds": [
          10143527
        ],
        "postalCode": "P2B3K5",
        "streetName": "LAC CLAIR",
        "streetDirectionId": null,
        "streetTypeId": "RD",
        "placeName": "STURGEON FALLS",
        "streetNameDisplayText": "LAC CLAIR RD, STURGEON FALLS"
      },
      {
        "electoralDistricts": [
          {
            "election": null,
            "id": 107,
            "name": "Timiskaming—Cochrane"
          }
        ],
        "pollDivisionIds": [
          10142461
        ],
        "postalCode": "P2B3K5",
        "streetName": "STEWART",
        "streetDirectionId": null,
        "streetTypeId": "RD",
        "placeName": "STURGEON FALLS",
        "streetNameDisplayText": "STEWART RD, STURGEON FALLS"
      }
    ]
  },
  {
    "postal": "P2B3S3",
    "result": []
  },
  {
    "postal": "P2B3L4",
    "result": [
      {
        "electoralDistricts": [
          {
            "election": null,
            "id": 107,
            "name": "Timiskaming—Cochrane"
          }
        ],
        "pollDivisionIds": [
          10142461
        ],
        "postalCode": "P2B3L4",
        "streetName": "FRONT",
        "streetDirectionId": null,
        "streetTypeId": "ST",
        "placeName": "STURGEON FALLS",
        "streetNameDisplayText": "FRONT ST, STURGEON FALLS"
      },
      {
        "electoralDistricts": [
          {
            "election": null,
            "id": 107,
            "name": "Timiskaming—Cochrane"
          }
        ],
        "pollDivisionIds": [
          10142461
        ],
        "postalCode": "P2B3L4",
        "streetName": "FRONT",
        "streetDirectionId": null,
        "streetTypeId": "ST",
        "placeName": "WEST NIPISSING",
        "streetNameDisplayText": "FRONT ST, WEST NIPISSING"
      }
    ]
  },
  {
    "postal": "P2B9Y2",
    "result": []
  },
  {
    "postal": "P2B1E0",
    "result": []
  },
  {
    "postal": "P2B9A4",
    "result": []
  },
  {
    "postal": "P2B1L3",
    "result": [
      {
        "electoralDistricts": [
          {
            "election": null,
            "id": 107,
            "name": "Timiskaming—Cochrane"
          }
        ],
        "pollDivisionIds": [
          10142455
        ],
        "postalCode": "P2B1L3",
        "streetName": "PARKER",
        "streetDirectionId": null,
        "streetTypeId": "ST",
        "placeName": "STURGEON FALLS",
        "streetNameDisplayText": "PARKER ST, STURGEON FALLS"
      }
    ]
  },
  {
    "postal": "P2B6N1",
    "result": []
  },
  {
    "postal": "P2B6G7",
    "result": []
  },
  {
    "postal": "P2B7W1",
    "result": []
  },
  {
    "postal": "P2B4M6",
    "result": []
  },
  {
    "postal": "P2B1K0",
    "result": []
  },
  {
    "postal": "P2B3E2",
    "result": [
      {
        "electoralDistricts": [
          {
            "election": null,
            "id": 107,
            "name": "Timiskaming—Cochrane"
          }
        ],
        "pollDivisionIds": [
          10142461
        ],
        "postalCode": "P2B3E2",
        "streetName": "FOURTH",
        "streetDirectionId": null,
        "streetTypeId": "ST",
        "placeName": "STURGEON FALLS",
        "streetNameDisplayText": "FOURTH ST, STURGEON FALLS"
      },
      {
        "electoralDistricts": [
          {
            "election": null,
            "id": 107,
            "name": "Timiskaming—Cochrane"
          }
        ],
        "pollDivisionIds": [
          10142461
        ],
        "postalCode": "P2B3E2",
        "streetName": "MCKEE",
        "streetDirectionId": null,
        "streetTypeId": "CRES",
        "placeName": "STURGEON FALLS",
        "streetNameDisplayText": "MCKEE CRES, STURGEON FALLS"
      },
      {
        "electoralDistricts": [
          {
            "election": null,
            "id": 107,
            "name": "Timiskaming—Cochrane"
          }
        ],
        "pollDivisionIds": [
          10142461
        ],
        "postalCode": "P2B3E2",
        "streetName": "NIPISSING",
        "streetDirectionId": null,
        "streetTypeId": "ST",
        "placeName": "STURGEON FALLS",
        "streetNameDisplayText": "NIPISSING ST, STURGEON FALLS"
      }
    ]
  },
  {
    "postal": "P2B5H4",
    "result": []
  },
  {
    "postal": "P2B1K7",
    "result": [
      {
        "electoralDistricts": [
          {
            "election": null,
            "id": 107,
            "name": "Timiskaming—Cochrane"
          }
        ],
        "pollDivisionIds": [
          10142454
        ],
        "postalCode": "P2B1K7",
        "streetName": "PARKER",
        "streetDirectionId": null,
        "streetTypeId": "ST",
        "placeName": "STURGEON FALLS",
        "streetNameDisplayText": "PARKER ST, STURGEON FALLS"
      }
    ]
  },
  {
    "postal": "P2B0H0",
    "result": []
  },
  {
    "postal": "P2B0J3",
    "result": []
  },
  {
    "postal": "P2B1X6",
    "result": [
      {
        "electoralDistricts": [
          {
            "election": null,
            "id": 107,
            "name": "Timiskaming—Cochrane"
          }
        ],
        "pollDivisionIds": [
          10142456
        ],
        "postalCode": "P2B1X6",
        "streetName": "CHATEAU",
        "streetDirectionId": null,
        "streetTypeId": "TERR",
        "placeName": "STURGEON FALLS",
        "streetNameDisplayText": "CHATEAU TERR, STURGEON FALLS"
      }
    ]
  },
  {
    "postal": "P2B2Z6",
    "result": [
      {
        "electoralDistricts": [
          {
            "election": null,
            "id": 107,
            "name": "Timiskaming—Cochrane"
          }
        ],
        "pollDivisionIds": [
          10142455
        ],
        "postalCode": "P2B2Z6",
        "streetName": "MAIN",
        "streetDirectionId": null,
        "streetTypeId": "ST",
        "placeName": "STURGEON FALLS",
        "streetNameDisplayText": "MAIN ST, STURGEON FALLS"
      }
    ]
  },
  {
    "postal": "P2B4R9",
    "result": []
  },
  {
    "postal": "P2B0W8",
    "result": []
  },
  {
    "postal": "P2B1L4",
    "result": [
      {
        "electoralDistricts": [
          {
            "election": null,
            "id": 107,
            "name": "Timiskaming—Cochrane"
          }
        ],
        "pollDivisionIds": [
          10142455
        ],
        "postalCode": "P2B1L4",
        "streetName": "PARKER",
        "streetDirectionId": null,
        "streetTypeId": "ST",
        "placeName": "STURGEON FALLS",
        "streetNameDisplayText": "PARKER ST, STURGEON FALLS"
      }
    ]
  },
  {
    "postal": "P2B0C8",
    "result": []
  },
  {
    "postal": "P2B9X7",
    "result": []
  },
  {
    "postal": "P2B4T1",
    "result": []
  },
  {
    "postal": "P2B0M0",
    "result": []
  },
  {
    "postal": "P2B6A2",
    "result": []
  },
  {
    "postal": "P2B9S8",
    "result": []
  },
  {
    "postal": "P2B9T4",
    "result": []
  },
  {
    "postal": "P2B9Y4",
    "result": []
  },
  {
    "postal": "P2B6G5",
    "result": []
  },
  {
    "postal": "P2B6H9",
    "result": []
  },
  {
    "postal": "P2B2P3",
    "result": [
      {
        "electoralDistricts": [
          {
            "election": null,
            "id": 107,
            "name": "Timiskaming—Cochrane"
          }
        ],
        "pollDivisionIds": [
          10142461
        ],
        "postalCode": "P2B2P3",
        "streetName": "LEVERT",
        "streetDirectionId": null,
        "streetTypeId": "DR",
        "placeName": "STURGEON FALLS",
        "streetNameDisplayText": "LEVERT DR, STURGEON FALLS"
      }
    ]
  },
  {
    "postal": "P2B1T6",
    "result": [
      {
        "electoralDistricts": [
          {
            "election": null,
            "id": 107,
            "name": "Timiskaming—Cochrane"
          }
        ],
        "pollDivisionIds": [
          10142456
        ],
        "postalCode": "P2B1T6",
        "streetName": "BOURGAULT",
        "streetDirectionId": null,
        "streetTypeId": "ST",
        "placeName": "STURGEON FALLS",
        "streetNameDisplayText": "BOURGAULT ST, STURGEON FALLS"
      }
    ]
  },
  {
    "postal": "P2B4P6",
    "result": []
  },
  {
    "postal": "P2B3K1",
    "result": [
      {
        "electoralDistricts": [
          {
            "election": null,
            "id": 107,
            "name": "Timiskaming—Cochrane"
          }
        ],
        "pollDivisionIds": [
          10142461
        ],
        "postalCode": "P2B3K1",
        "streetName": "STEWART RD PO BOX 6081",
        "streetDirectionId": null,
        "streetTypeId": null,
        "placeName": "STURGEON FALLS ON.",
        "streetNameDisplayText": "STEWART RD PO BOX 6081, STURGEON FALLS ON."
      },
      {
        "electoralDistricts": [
          {
            "election": null,
            "id": 72,
            "name": "Nipissing"
          }
        ],
        "pollDivisionIds": [
          10140158
        ],
        "postalCode": "P2B3K1",
        "streetName": "TED COMMANDA",
        "streetDirectionId": null,
        "streetTypeId": "DR",
        "placeName": "STURGEON FALLS",
        "streetNameDisplayText": "TED COMMANDA DR, STURGEON FALLS"
      }
    ]
  },
  {
    "postal": "P2B6X4",
    "result": []
  },
  {
    "postal": "P2B4M8",
    "result": []
  },
  {
    "postal": "P2B2Y1",
    "result": [
      {
        "electoralDistricts": [
          {
            "election": null,
            "id": 107,
            "name": "Timiskaming—Cochrane"
          }
        ],
        "pollDivisionIds": [
          10142461
        ],
        "postalCode": "P2B2Y1",
        "streetName": "DU LAC",
        "streetDirectionId": null,
        "streetTypeId": "PROM",
        "placeName": "STURGEON FALLS",
        "streetNameDisplayText": "DU LAC PROM, STURGEON FALLS"
      }
    ]
  },
  {
    "postal": "P2B6M1",
    "result": []
  },
  {
    "postal": "P2B5L8",
    "result": []
  },
  {
    "postal": "P2B3P6",
    "result": []
  },
  {
    "postal": "P2B9A5",
    "result": []
  },
  {
    "postal": "P2B7K1",
    "result": []
  },
  {
    "postal": "P2B3J4",
    "result": [
      {
        "electoralDistricts": [
          {
            "election": null,
            "id": 107,
            "name": "Timiskaming—Cochrane"
          }
        ],
        "pollDivisionIds": [
          10142456
        ],
        "postalCode": "P2B3J4",
        "streetName": "GOULARD",
        "streetDirectionId": null,
        "streetTypeId": "RD",
        "placeName": "STURGEON FALLS",
        "streetNameDisplayText": "GOULARD RD, STURGEON FALLS"
      }
    ]
  },
  {
    "postal": "P2B5E7",
    "result": []
  },
  {
    "postal": "P2B3A7",
    "result": [
      {
        "electoralDistricts": [
          {
            "election": null,
            "id": 107,
            "name": "Timiskaming—Cochrane"
          }
        ],
        "pollDivisionIds": [
          10142461
        ],
        "postalCode": "P2B3A7",
        "streetName": "LEVESQUE",
        "streetDirectionId": null,
        "streetTypeId": "ST",
        "placeName": "STURGEON FALLS",
        "streetNameDisplayText": "LEVESQUE ST, STURGEON FALLS"
      },
      {
        "electoralDistricts": [
          {
            "election": null,
            "id": 107,
            "name": "Timiskaming—Cochrane"
          }
        ],
        "pollDivisionIds": [
          10142461
        ],
        "postalCode": "P2B3A7",
        "streetName": "LÉVESQUE",
        "streetDirectionId": null,
        "streetTypeId": "ST",
        "placeName": "STURGEON FALLS",
        "streetNameDisplayText": "LÉVESQUE ST, STURGEON FALLS"
      },
      {
        "electoralDistricts": [
          {
            "election": null,
            "id": 107,
            "name": "Timiskaming—Cochrane"
          }
        ],
        "pollDivisionIds": [
          10142461
        ],
        "postalCode": "P2B3A7",
        "streetName": "NIPISSING",
        "streetDirectionId": null,
        "streetTypeId": "ST",
        "placeName": "STURGEON FALLS",
        "streetNameDisplayText": "NIPISSING ST, STURGEON FALLS"
      },
      {
        "electoralDistricts": [
          {
            "election": null,
            "id": 107,
            "name": "Timiskaming—Cochrane"
          }
        ],
        "pollDivisionIds": [
          10142461
        ],
        "postalCode": "P2B3A7",
        "streetName": "PARKER",
        "streetDirectionId": null,
        "streetTypeId": "ST",
        "placeName": "STURGEON FALLS",
        "streetNameDisplayText": "PARKER ST, STURGEON FALLS"
      },
      {
        "electoralDistricts": [
          {
            "election": null,
            "id": 107,
            "name": "Timiskaming—Cochrane"
          }
        ],
        "pollDivisionIds": [
          10142461
        ],
        "postalCode": "P2B3A7",
        "streetName": "SECOND",
        "streetDirectionId": null,
        "streetTypeId": "ST",
        "placeName": "STURGEON FALLS",
        "streetNameDisplayText": "SECOND ST, STURGEON FALLS"
      },
      {
        "electoralDistricts": [
          {
            "election": null,
            "id": 107,
            "name": "Timiskaming—Cochrane"
          }
        ],
        "pollDivisionIds": [
          10142461
        ],
        "postalCode": "P2B3A7",
        "streetName": "THIRD",
        "streetDirectionId": null,
        "streetTypeId": "ST",
        "placeName": "STURGEON FALLS",
        "streetNameDisplayText": "THIRD ST, STURGEON FALLS"
      }
    ]
  },
  {
    "postal": "P2B1B9",
    "result": [
      {
        "electoralDistricts": [
          {
            "election": null,
            "id": 107,
            "name": "Timiskaming—Cochrane"
          }
        ],
        "pollDivisionIds": [
          10142461
        ],
        "postalCode": "P2B1B9",
        "streetName": "MICHAUD",
        "streetDirectionId": null,
        "streetTypeId": "RD",
        "placeName": "STURGEON FALLS",
        "streetNameDisplayText": "MICHAUD RD, STURGEON FALLS"
      },
      {
        "electoralDistricts": [
          {
            "election": null,
            "id": 107,
            "name": "Timiskaming—Cochrane"
          }
        ],
        "pollDivisionIds": [
          10142456
        ],
        "postalCode": "P2B1B9",
        "streetName": "MICHAUD",
        "streetDirectionId": null,
        "streetTypeId": "ST",
        "placeName": "STURGEON FALLS",
        "streetNameDisplayText": "MICHAUD ST, STURGEON FALLS"
      }
    ]
  },
  {
    "postal": "P2B9E8",
    "result": []
  },
  {
    "postal": "P2B1C9",
    "result": [
      {
        "electoralDistricts": [
          {
            "election": null,
            "id": 107,
            "name": "Timiskaming—Cochrane"
          }
        ],
        "pollDivisionIds": [
          10142456
        ],
        "postalCode": "P2B1C9",
        "streetName": "ARTHUR",
        "streetDirectionId": null,
        "streetTypeId": "ST",
        "placeName": "STURGEON FALLS",
        "streetNameDisplayText": "ARTHUR ST, STURGEON FALLS"
      }
    ]
  },
  {
    "postal": "P2B3B5",
    "result": [
      {
        "electoralDistricts": [
          {
            "election": null,
            "id": 107,
            "name": "Timiskaming—Cochrane"
          }
        ],
        "pollDivisionIds": [
          10142461
        ],
        "postalCode": "P2B3B5",
        "streetName": "SALTER",
        "streetDirectionId": null,
        "streetTypeId": "ST",
        "placeName": "STURGEON FALLS",
        "streetNameDisplayText": "SALTER ST, STURGEON FALLS"
      },
      {
        "electoralDistricts": [
          {
            "election": null,
            "id": 107,
            "name": "Timiskaming—Cochrane"
          }
        ],
        "pollDivisionIds": [
          10142461
        ],
        "postalCode": "P2B3B5",
        "streetName": "SALTER",
        "streetDirectionId": null,
        "streetTypeId": "ST",
        "placeName": "STURGEON FALLS ON.",
        "streetNameDisplayText": "SALTER ST, STURGEON FALLS ON."
      }
    ]
  },
  {
    "postal": "P2B8R0",
    "result": []
  },
  {
    "postal": "P2B3P2",
    "result": []
  },
  {
    "postal": "P2B5V4",
    "result": []
  },
  {
    "postal": "P2B4H0",
    "result": []
  },
  {
    "postal": "P2B4S7",
    "result": []
  },
  {
    "postal": "P2B6C2",
    "result": []
  },
  {
    "postal": "P2B8W3",
    "result": []
  },
  {
    "postal": "P2B4M5",
    "result": []
  },
  {
    "postal": "P2B5T1",
    "result": []
  },
  {
    "postal": "P2B3B3",
    "result": [
      {
        "electoralDistricts": [
          {
            "election": null,
            "id": 107,
            "name": "Timiskaming—Cochrane"
          }
        ],
        "pollDivisionIds": [
          10142461
        ],
        "postalCode": "P2B3B3",
        "streetName": "LILLIE",
        "streetDirectionId": null,
        "streetTypeId": "ST",
        "placeName": "STURGEON FALLS",
        "streetNameDisplayText": "LILLIE ST, STURGEON FALLS"
      },
      {
        "electoralDistricts": [
          {
            "election": null,
            "id": 107,
            "name": "Timiskaming—Cochrane"
          }
        ],
        "pollDivisionIds": [
          10142461
        ],
        "postalCode": "P2B3B3",
        "streetName": "NIPISSING",
        "streetDirectionId": null,
        "streetTypeId": "ST",
        "placeName": "STURGEON FALLS",
        "streetNameDisplayText": "NIPISSING ST, STURGEON FALLS"
      },
      {
        "electoralDistricts": [
          {
            "election": null,
            "id": 107,
            "name": "Timiskaming—Cochrane"
          }
        ],
        "pollDivisionIds": [
          10142461
        ],
        "postalCode": "P2B3B3",
        "streetName": "SALTER",
        "streetDirectionId": null,
        "streetTypeId": "ST",
        "placeName": "STURGEON FALLS",
        "streetNameDisplayText": "SALTER ST, STURGEON FALLS"
      }
    ]
  },
  {
    "postal": "P2B6C6",
    "result": []
  },
  {
    "postal": "P2B7N8",
    "result": []
  },
  {
    "postal": "P2B2Y3",
    "result": [
      {
        "electoralDistricts": [
          {
            "election": null,
            "id": 107,
            "name": "Timiskaming—Cochrane"
          }
        ],
        "pollDivisionIds": [
          10142454
        ],
        "postalCode": "P2B2Y3",
        "streetName": "HOLDITCH",
        "streetDirectionId": null,
        "streetTypeId": "ST",
        "placeName": "STURGEON FALLS",
        "streetNameDisplayText": "HOLDITCH ST, STURGEON FALLS"
      }
    ]
  },
  {
    "postal": "P2B2R6",
    "result": [
      {
        "electoralDistricts": [
          {
            "election": null,
            "id": 107,
            "name": "Timiskaming—Cochrane"
          }
        ],
        "pollDivisionIds": [
          10142461
        ],
        "postalCode": "P2B2R6",
        "streetName": "DRIVE IN",
        "streetDirectionId": null,
        "streetTypeId": "RD",
        "placeName": "STURGEON FALLS",
        "streetNameDisplayText": "DRIVE IN RD, STURGEON FALLS"
      },
      {
        "electoralDistricts": [
          {
            "election": null,
            "id": 107,
            "name": "Timiskaming—Cochrane"
          }
        ],
        "pollDivisionIds": [
          10142461
        ],
        "postalCode": "P2B2R6",
        "streetName": "DRIVE-IN",
        "streetDirectionId": null,
        "streetTypeId": "RD",
        "placeName": "STURGEON FALLS",
        "streetNameDisplayText": "DRIVE-IN RD, STURGEON FALLS"
      }
    ]
  },
  {
    "postal": "P2B7N3",
    "result": []
  },
  {
    "postal": "P2B8J2",
    "result": []
  },
  {
    "postal": "P2B6A9",
    "result": []
  },
  {
    "postal": "P2B3V2",
    "result": []
  },
  {
    "postal": "P2B2N3",
    "result": [
      {
        "electoralDistricts": [
          {
            "election": null,
            "id": 107,
            "name": "Timiskaming—Cochrane"
          }
        ],
        "pollDivisionIds": [
          10142461
        ],
        "postalCode": "P2B2N3",
        "streetName": "LEBLANC",
        "streetDirectionId": null,
        "streetTypeId": "RD",
        "placeName": "STURGEON FALLS",
        "streetNameDisplayText": "LEBLANC RD, STURGEON FALLS"
      }
    ]
  },
  {
    "postal": "P2B1S5",
    "result": [
      {
        "electoralDistricts": [
          {
            "election": null,
            "id": 107,
            "name": "Timiskaming—Cochrane"
          }
        ],
        "pollDivisionIds": [
          10142454
        ],
        "postalCode": "P2B1S5",
        "streetName": "HOLDITCH",
        "streetDirectionId": null,
        "streetTypeId": "ST",
        "placeName": "STURGEON FALLS",
        "streetNameDisplayText": "HOLDITCH ST, STURGEON FALLS"
      }
    ]
  },
  {
    "postal": "P2B4T7",
    "result": []
  },
  {
    "postal": "P2B6Y7",
    "result": []
  },
  {
    "postal": "P2B0W7",
    "result": []
  },
  {
    "postal": "P2B2W9",
    "result": [
      {
        "electoralDistricts": [
          {
            "election": null,
            "id": 107,
            "name": "Timiskaming—Cochrane"
          }
        ],
        "pollDivisionIds": [
          10142461
        ],
        "postalCode": "P2B2W9",
        "streetName": "MARLEAU",
        "streetDirectionId": null,
        "streetTypeId": "RD",
        "placeName": "STURGEON FALLS",
        "streetNameDisplayText": "MARLEAU RD, STURGEON FALLS"
      }
    ]
  },
  {
    "postal": "P2B8V0",
    "result": []
  },
  {
    "postal": "P2B0H4",
    "result": []
  },
  {
    "postal": "P2B2T1",
    "result": [
      {
        "electoralDistricts": [
          {
            "election": null,
            "id": 107,
            "name": "Timiskaming—Cochrane"
          }
        ],
        "pollDivisionIds": [
          10142456
        ],
        "postalCode": "P2B2T1",
        "streetName": "GOLF COURSE",
        "streetDirectionId": null,
        "streetTypeId": "RD",
        "placeName": "STURGEON FALLS",
        "streetNameDisplayText": "GOLF COURSE RD, STURGEON FALLS"
      }
    ]
  },
  {
    "postal": "P2B1B1",
    "result": [
      {
        "electoralDistricts": [
          {
            "election": null,
            "id": 107,
            "name": "Timiskaming—Cochrane"
          }
        ],
        "pollDivisionIds": [
          10142456
        ],
        "postalCode": "P2B1B1",
        "streetName": "CARRIE",
        "streetDirectionId": null,
        "streetTypeId": "ST",
        "placeName": "STURGEON FALLS",
        "streetNameDisplayText": "CARRIE ST, STURGEON FALLS"
      }
    ]
  },
  {
    "postal": "P2B8B6",
    "result": []
  },
  {
    "postal": "P2B6H1",
    "result": []
  },
  {
    "postal": "P2B8T8",
    "result": []
  },
  {
    "postal": "P2B0T4",
    "result": []
  },
  {
    "postal": "P2B2C4",
    "result": [
      {
        "electoralDistricts": [
          {
            "election": null,
            "id": 107,
            "name": "Timiskaming—Cochrane"
          }
        ],
        "pollDivisionIds": [
          10142455
        ],
        "postalCode": "P2B2C4",
        "streetName": "QUEEN",
        "streetDirectionId": null,
        "streetTypeId": "ST",
        "placeName": "STURGEON FALLS",
        "streetNameDisplayText": "QUEEN ST, STURGEON FALLS"
      }
    ]
  },
  {
    "postal": "P2B8N3",
    "result": []
  },
  {
    "postal": "P2B4L8",
    "result": []
  },
  {
    "postal": "P2B2B5",
    "result": [
      {
        "electoralDistricts": [
          {
            "election": null,
            "id": 107,
            "name": "Timiskaming—Cochrane"
          }
        ],
        "pollDivisionIds": [
          10142456,
          10142461
        ],
        "postalCode": "P2B2B5",
        "streetName": "WILLIAM",
        "streetDirectionId": null,
        "streetTypeId": "ST",
        "placeName": "STURGEON FALLS",
        "streetNameDisplayText": "WILLIAM ST, STURGEON FALLS"
      }
    ]
  },
  {
    "postal": "P2B3H1",
    "result": [
      {
        "electoralDistricts": [
          {
            "election": null,
            "id": 107,
            "name": "Timiskaming—Cochrane"
          }
        ],
        "pollDivisionIds": [
          10142461
        ],
        "postalCode": "P2B3H1",
        "streetName": "ABITIBI",
        "streetDirectionId": null,
        "streetTypeId": "ST",
        "placeName": "STURGEON FALLS",
        "streetNameDisplayText": "ABITIBI ST, STURGEON FALLS"
      },
      {
        "electoralDistricts": [
          {
            "election": null,
            "id": 107,
            "name": "Timiskaming—Cochrane"
          }
        ],
        "pollDivisionIds": [
          10142461
        ],
        "postalCode": "P2B3H1",
        "streetName": "IMPERIAL",
        "streetDirectionId": null,
        "streetTypeId": "ST",
        "placeName": "STURGEON FALLS",
        "streetNameDisplayText": "IMPERIAL ST, STURGEON FALLS"
      },
      {
        "electoralDistricts": [
          {
            "election": null,
            "id": 107,
            "name": "Timiskaming—Cochrane"
          }
        ],
        "pollDivisionIds": [
          10142461
        ],
        "postalCode": "P2B3H1",
        "streetName": "MONTREAL",
        "streetDirectionId": null,
        "streetTypeId": "ST",
        "placeName": "STURGEON FALLS",
        "streetNameDisplayText": "MONTREAL ST, STURGEON FALLS"
      },
      {
        "electoralDistricts": [
          {
            "election": null,
            "id": 107,
            "name": "Timiskaming—Cochrane"
          }
        ],
        "pollDivisionIds": [
          10142461
        ],
        "postalCode": "P2B3H1",
        "streetName": "OTTAWA",
        "streetDirectionId": null,
        "streetTypeId": "ST",
        "placeName": "STURGEON FALLS",
        "streetNameDisplayText": "OTTAWA ST, STURGEON FALLS"
      }
    ]
  },
  {
    "postal": "P2B4Y1",
    "result": []
  },
  {
    "postal": "P2B7E2",
    "result": []
  },
  {
    "postal": "P2B2P5",
    "result": [
      {
        "electoralDistricts": [
          {
            "election": null,
            "id": 107,
            "name": "Timiskaming—Cochrane"
          }
        ],
        "pollDivisionIds": [
          10142461
        ],
        "postalCode": "P2B2P5",
        "streetName": "SABOURIN",
        "streetDirectionId": null,
        "streetTypeId": "RD",
        "placeName": "STURGEON FALLS",
        "streetNameDisplayText": "SABOURIN RD, STURGEON FALLS"
      }
    ]
  },
  {
    "postal": "P2B8R7",
    "result": []
  },
  {
    "postal": "P2B9P1",
    "result": []
  },
  {
    "postal": "P2B3B8",
    "result": [
      {
        "electoralDistricts": [
          {
            "election": null,
            "id": 107,
            "name": "Timiskaming—Cochrane"
          }
        ],
        "pollDivisionIds": [
          10142461
        ],
        "postalCode": "P2B3B8",
        "streetName": "J.B. ALAIN",
        "streetDirectionId": null,
        "streetTypeId": "ST",
        "placeName": "STURGEON FALLS",
        "streetNameDisplayText": "J.B. ALAIN ST, STURGEON FALLS"
      },
      {
        "electoralDistricts": [
          {
            "election": null,
            "id": 107,
            "name": "Timiskaming—Cochrane"
          }
        ],
        "pollDivisionIds": [
          10142461
        ],
        "postalCode": "P2B3B8",
        "streetName": "SPRINGER",
        "streetDirectionId": null,
        "streetTypeId": "ST",
        "placeName": "STURGEON FALLS",
        "streetNameDisplayText": "SPRINGER ST, STURGEON FALLS"
      }
    ]
  },
  {
    "postal": "P2B3P7",
    "result": []
  },
  {
    "postal": "P2B9B2",
    "result": []
  },
  {
    "postal": "P2B6Z3",
    "result": []
  },
  {
    "postal": "P2B4N5",
    "result": []
  },
  {
    "postal": "P2B8T3",
    "result": []
  },
  {
    "postal": "P2B1V2",
    "result": [
      {
        "electoralDistricts": [
          {
            "election": null,
            "id": 107,
            "name": "Timiskaming—Cochrane"
          }
        ],
        "pollDivisionIds": [
          10142454
        ],
        "postalCode": "P2B1V2",
        "streetName": "ETHEL",
        "streetDirectionId": null,
        "streetTypeId": "ST",
        "placeName": "STURGEON FALLS",
        "streetNameDisplayText": "ETHEL ST, STURGEON FALLS"
      }
    ]
  },
  {
    "postal": "P2B1Y0",
    "result": []
  },
  {
    "postal": "P2B3G6",
    "result": [
      {
        "electoralDistricts": [
          {
            "election": null,
            "id": 107,
            "name": "Timiskaming—Cochrane"
          }
        ],
        "pollDivisionIds": [
          10142461
        ],
        "postalCode": "P2B3G6",
        "streetName": "BAY",
        "streetDirectionId": null,
        "streetTypeId": "ST",
        "placeName": "STURGEON FALLS",
        "streetNameDisplayText": "BAY ST, STURGEON FALLS"
      },
      {
        "electoralDistricts": [
          {
            "election": null,
            "id": 107,
            "name": "Timiskaming—Cochrane"
          }
        ],
        "pollDivisionIds": [
          10142461
        ],
        "postalCode": "P2B3G6",
        "streetName": "OTTAWA",
        "streetDirectionId": null,
        "streetTypeId": "ST",
        "placeName": "STURGEON FALLS",
        "streetNameDisplayText": "OTTAWA ST, STURGEON FALLS"
      }
    ]
  },
  {
    "postal": "P2B3H7",
    "result": [
      {
        "electoralDistricts": [
          {
            "election": null,
            "id": 107,
            "name": "Timiskaming—Cochrane"
          }
        ],
        "pollDivisionIds": [
          10142461
        ],
        "postalCode": "P2B3H7",
        "streetName": "CACHE BAY",
        "streetDirectionId": null,
        "streetTypeId": "RD",
        "placeName": "STURGEON FALLS",
        "streetNameDisplayText": "CACHE BAY RD, STURGEON FALLS"
      },
      {
        "electoralDistricts": [
          {
            "election": null,
            "id": 107,
            "name": "Timiskaming—Cochrane"
          }
        ],
        "pollDivisionIds": [
          10142461
        ],
        "postalCode": "P2B3H7",
        "streetName": "TAMERACK",
        "streetDirectionId": null,
        "streetTypeId": "AVE",
        "placeName": "STURGEON FALLS",
        "streetNameDisplayText": "TAMERACK AVE, STURGEON FALLS"
      }
    ]
  },
  {
    "postal": "P2B7X8",
    "result": []
  },
  {
    "postal": "P2B0C7",
    "result": []
  },
  {
    "postal": "P2B0W9",
    "result": []
  },
  {
    "postal": "P2B8E6",
    "result": []
  },
  {
    "postal": "P2B9Z8",
    "result": []
  },
  {
    "postal": "P2B3P4",
    "result": []
  },
  {
    "postal": "P2B6L8",
    "result": []
  },
  {
    "postal": "P2B2R4",
    "result": [
      {
        "electoralDistricts": [
          {
            "election": null,
            "id": 107,
            "name": "Timiskaming—Cochrane"
          }
        ],
        "pollDivisionIds": [
          10142461
        ],
        "postalCode": "P2B2R4",
        "streetName": "DRIVE IN",
        "streetDirectionId": null,
        "streetTypeId": "RD",
        "placeName": "STURGEON FALLS",
        "streetNameDisplayText": "DRIVE IN RD, STURGEON FALLS"
      },
      {
        "electoralDistricts": [
          {
            "election": null,
            "id": 107,
            "name": "Timiskaming—Cochrane"
          }
        ],
        "pollDivisionIds": [
          10142461
        ],
        "postalCode": "P2B2R4",
        "streetName": "DRIVE-IN",
        "streetDirectionId": null,
        "streetTypeId": "RD",
        "placeName": "STURGEON FALLS",
        "streetNameDisplayText": "DRIVE-IN RD, STURGEON FALLS"
      }
    ]
  },
  {
    "postal": "P2B2W1",
    "result": [
      {
        "electoralDistricts": [
          {
            "election": null,
            "id": 107,
            "name": "Timiskaming—Cochrane"
          }
        ],
        "pollDivisionIds": [
          10142461
        ],
        "postalCode": "P2B2W1",
        "streetName": "QUESNEL",
        "streetDirectionId": null,
        "streetTypeId": "RD",
        "placeName": "STURGEON FALLS",
        "streetNameDisplayText": "QUESNEL RD, STURGEON FALLS"
      }
    ]
  },
  {
    "postal": "P2B9H8",
    "result": []
  },
  {
    "postal": "P2B8X9",
    "result": []
  },
  {
    "postal": "P2B7H4",
    "result": []
  },
  {
    "postal": "P2B3J1",
    "result": [
      {
        "electoralDistricts": [
          {
            "election": null,
            "id": 107,
            "name": "Timiskaming—Cochrane"
          }
        ],
        "pollDivisionIds": [
          10142461
        ],
        "postalCode": "P2B3J1",
        "streetName": "CACHE BAY",
        "streetDirectionId": null,
        "streetTypeId": "RD",
        "placeName": "STURGEON FALLS",
        "streetNameDisplayText": "CACHE BAY RD, STURGEON FALLS"
      },
      {
        "electoralDistricts": [
          {
            "election": null,
            "id": 107,
            "name": "Timiskaming—Cochrane"
          }
        ],
        "pollDivisionIds": [
          10142461
        ],
        "postalCode": "P2B3J1",
        "streetName": "DUFFERIN",
        "streetDirectionId": null,
        "streetTypeId": "ST",
        "placeName": "STURGEON FALLS",
        "streetNameDisplayText": "DUFFERIN ST, STURGEON FALLS"
      },
      {
        "electoralDistricts": [
          {
            "election": null,
            "id": 107,
            "name": "Timiskaming—Cochrane"
          }
        ],
        "pollDivisionIds": [
          10142461
        ],
        "postalCode": "P2B3J1",
        "streetName": "SIMCOE",
        "streetDirectionId": null,
        "streetTypeId": "ST",
        "placeName": "STURGEON FALLS",
        "streetNameDisplayText": "SIMCOE ST, STURGEON FALLS"
      },
      {
        "electoralDistricts": [
          {
            "election": null,
            "id": 107,
            "name": "Timiskaming—Cochrane"
          }
        ],
        "pollDivisionIds": [
          10142461
        ],
        "postalCode": "P2B3J1",
        "streetName": "TORONTO",
        "streetDirectionId": null,
        "streetTypeId": "ST",
        "placeName": "STURGEON FALLS",
        "streetNameDisplayText": "TORONTO ST, STURGEON FALLS"
      }
    ]
  },
  {
    "postal": "P2B1P4",
    "result": [
      {
        "electoralDistricts": [
          {
            "election": null,
            "id": 107,
            "name": "Timiskaming—Cochrane"
          }
        ],
        "pollDivisionIds": [
          10142455
        ],
        "postalCode": "P2B1P4",
        "streetName": "MAIN",
        "streetDirectionId": null,
        "streetTypeId": "ST",
        "placeName": "STURGEON FALLS",
        "streetNameDisplayText": "MAIN ST, STURGEON FALLS"
      }
    ]
  },
  {
    "postal": "P2B2A3",
    "result": [
      {
        "electoralDistricts": [
          {
            "election": null,
            "id": 107,
            "name": "Timiskaming—Cochrane"
          }
        ],
        "pollDivisionIds": [
          10142455
        ],
        "postalCode": "P2B2A3",
        "streetName": "WILLIAM",
        "streetDirectionId": null,
        "streetTypeId": "ST",
        "placeName": "STURGEON FALLS",
        "streetNameDisplayText": "WILLIAM ST, STURGEON FALLS"
      }
    ]
  },
  {
    "postal": "P2B0Z1",
    "result": []
  },
  {
    "postal": "P2B1C1",
    "result": [
      {
        "electoralDistricts": [
          {
            "election": null,
            "id": 107,
            "name": "Timiskaming—Cochrane"
          }
        ],
        "pollDivisionIds": [
          10142456
        ],
        "postalCode": "P2B1C1",
        "streetName": "MICHAUD",
        "streetDirectionId": null,
        "streetTypeId": "ST",
        "placeName": "STURGEON FALLS",
        "streetNameDisplayText": "MICHAUD ST, STURGEON FALLS"
      }
    ]
  },
  {
    "postal": "P2B0H3",
    "result": []
  },
  {
    "postal": "P2B7B0",
    "result": []
  },
  {
    "postal": "P2B5K2",
    "result": []
  },
  {
    "postal": "P2B1E9",
    "result": [
      {
        "electoralDistricts": [
          {
            "election": null,
            "id": 107,
            "name": "Timiskaming—Cochrane"
          }
        ],
        "pollDivisionIds": [
          10142456
        ],
        "postalCode": "P2B1E9",
        "streetName": "ARTHUR",
        "streetDirectionId": null,
        "streetTypeId": "ST",
        "placeName": "STURGEON FALLS",
        "streetNameDisplayText": "ARTHUR ST, STURGEON FALLS"
      }
    ]
  },
  {
    "postal": "P2B9W7",
    "result": []
  },
  {
    "postal": "P2B5W6",
    "result": []
  },
  {
    "postal": "P2B6S6",
    "result": []
  },
  {
    "postal": "P2B2P8",
    "result": [
      {
        "electoralDistricts": [
          {
            "election": null,
            "id": 107,
            "name": "Timiskaming—Cochrane"
          }
        ],
        "pollDivisionIds": [
          10142461
        ],
        "postalCode": "P2B2P8",
        "streetName": "SABOURIN",
        "streetDirectionId": null,
        "streetTypeId": "RD",
        "placeName": "STURGEON FALLS",
        "streetNameDisplayText": "SABOURIN RD, STURGEON FALLS"
      }
    ]
  },
  {
    "postal": "P2B4P8",
    "result": []
  },
  {
    "postal": "P2B0V9",
    "result": []
  },
  {
    "postal": "P2B5Y2",
    "result": []
  },
  {
    "postal": "P2B7Z7",
    "result": []
  },
  {
    "postal": "P2B6Y8",
    "result": []
  },
  {
    "postal": "P2B2G7",
    "result": [
      {
        "electoralDistricts": [
          {
            "election": null,
            "id": 107,
            "name": "Timiskaming—Cochrane"
          }
        ],
        "pollDivisionIds": [
          10142455
        ],
        "postalCode": "P2B2G7",
        "streetName": "FRONT",
        "streetDirectionId": null,
        "streetTypeId": "ST",
        "placeName": "STURGEON FALLS",
        "streetNameDisplayText": "FRONT ST, STURGEON FALLS"
      }
    ]
  },
  {
    "postal": "P2B8C1",
    "result": []
  },
  {
    "postal": "P2B5C5",
    "result": []
  },
  {
    "postal": "P2B2X8",
    "result": [
      {
        "electoralDistricts": [
          {
            "election": null,
            "id": 107,
            "name": "Timiskaming—Cochrane"
          }
        ],
        "pollDivisionIds": [
          10142461
        ],
        "postalCode": "P2B2X8",
        "streetName": "DU LAC",
        "streetDirectionId": null,
        "streetTypeId": "PROM",
        "placeName": "STURGEON FALLS",
        "streetNameDisplayText": "DU LAC PROM, STURGEON FALLS"
      },
      {
        "electoralDistricts": [
          {
            "election": null,
            "id": 107,
            "name": "Timiskaming—Cochrane"
          }
        ],
        "pollDivisionIds": [
          10142456
        ],
        "postalCode": "P2B2X8",
        "streetName": "PROMENADE DU LAC",
        "streetDirectionId": null,
        "streetTypeId": "PROM",
        "placeName": "STURGEON FALLS",
        "streetNameDisplayText": "PROMENADE DU LAC PROM, STURGEON FALLS"
      }
    ]
  },
  {
    "postal": "P2B1W5",
    "result": [
      {
        "electoralDistricts": [
          {
            "election": null,
            "id": 107,
            "name": "Timiskaming—Cochrane"
          }
        ],
        "pollDivisionIds": [
          10142454
        ],
        "postalCode": "P2B1W5",
        "streetName": "MARKET",
        "streetDirectionId": null,
        "streetTypeId": "ST",
        "placeName": "STURGEON FALLS",
        "streetNameDisplayText": "MARKET ST, STURGEON FALLS"
      }
    ]
  },
  {
    "postal": "P2B7G0",
    "result": []
  },
  {
    "postal": "P2B8J8",
    "result": []
  },
  {
    "postal": "P2B3Y0",
    "result": []
  },
  {
    "postal": "P2B9T7",
    "result": []
  },
  {
    "postal": "P2B5P4",
    "result": []
  },
  {
    "postal": "P2B4B0",
    "result": []
  },
  {
    "postal": "P2B9N8",
    "result": []
  },
  {
    "postal": "P2B4A7",
    "result": []
  },
  {
    "postal": "P2B4H9",
    "result": []
  },
  {
    "postal": "P2B6X1",
    "result": []
  },
  {
    "postal": "P2B9Y7",
    "result": []
  },
  {
    "postal": "P2B2Y5",
    "result": [
      {
        "electoralDistricts": [
          {
            "election": null,
            "id": 107,
            "name": "Timiskaming—Cochrane"
          }
        ],
        "pollDivisionIds": [
          10142454
        ],
        "postalCode": "P2B2Y5",
        "streetName": "PARKER",
        "streetDirectionId": null,
        "streetTypeId": "ST",
        "placeName": "STURGEON FALLS",
        "streetNameDisplayText": "PARKER ST, STURGEON FALLS"
      }
    ]
  },
  {
    "postal": "P2B8L7",
    "result": []
  },
  {
    "postal": "P2B2A8",
    "result": [
      {
        "electoralDistricts": [
          {
            "election": null,
            "id": 107,
            "name": "Timiskaming—Cochrane"
          }
        ],
        "pollDivisionIds": [
          10142455
        ],
        "postalCode": "P2B2A8",
        "streetName": "WILLIAM",
        "streetDirectionId": null,
        "streetTypeId": "ST",
        "placeName": "STURGEON FALLS",
        "streetNameDisplayText": "WILLIAM ST, STURGEON FALLS"
      }
    ]
  },
  {
    "postal": "P2B2K9",
    "result": [
      {
        "electoralDistricts": [
          {
            "election": null,
            "id": 107,
            "name": "Timiskaming—Cochrane"
          }
        ],
        "pollDivisionIds": [
          10142461
        ],
        "postalCode": "P2B2K9",
        "streetName": "NIPISSING",
        "streetDirectionId": null,
        "streetTypeId": "RD",
        "placeName": "STURGEON FALLS",
        "streetNameDisplayText": "NIPISSING RD, STURGEON FALLS"
      },
      {
        "electoralDistricts": [
          {
            "election": null,
            "id": 107,
            "name": "Timiskaming—Cochrane"
          }
        ],
        "pollDivisionIds": [
          10142461
        ],
        "postalCode": "P2B2K9",
        "streetName": "NIPISSING",
        "streetDirectionId": "S",
        "streetTypeId": "ST",
        "placeName": "STURGEON FALLS",
        "streetNameDisplayText": "NIPISSING ST S, STURGEON FALLS"
      },
      {
        "electoralDistricts": [
          {
            "election": null,
            "id": 107,
            "name": "Timiskaming—Cochrane"
          }
        ],
        "pollDivisionIds": [
          10142461
        ],
        "postalCode": "P2B2K9",
        "streetName": "NIPISSING ST SOUTH",
        "streetDirectionId": "S",
        "streetTypeId": "ST",
        "placeName": "STURGEON FALLS",
        "streetNameDisplayText": "NIPISSING ST SOUTH ST S, STURGEON FALLS"
      }
    ]
  },
  {
    "postal": "P2B3E5",
    "result": [
      {
        "electoralDistricts": [
          {
            "election": null,
            "id": 107,
            "name": "Timiskaming—Cochrane"
          }
        ],
        "pollDivisionIds": [
          10142461
        ],
        "postalCode": "P2B3E5",
        "streetName": "AUBREY",
        "streetDirectionId": null,
        "streetTypeId": "ST",
        "placeName": "STURGEON FALLS",
        "streetNameDisplayText": "AUBREY ST, STURGEON FALLS"
      },
      {
        "electoralDistricts": [
          {
            "election": null,
            "id": 107,
            "name": "Timiskaming—Cochrane"
          }
        ],
        "pollDivisionIds": [
          10142461
        ],
        "postalCode": "P2B3E5",
        "streetName": "JANEN",
        "streetDirectionId": null,
        "streetTypeId": "ST",
        "placeName": "STURGEON FALLS",
        "streetNameDisplayText": "JANEN ST, STURGEON FALLS"
      },
      {
        "electoralDistricts": [
          {
            "election": null,
            "id": 107,
            "name": "Timiskaming—Cochrane"
          }
        ],
        "pollDivisionIds": [
          10142461
        ],
        "postalCode": "P2B3E5",
        "streetName": "LEVIS",
        "streetDirectionId": null,
        "streetTypeId": "ST",
        "placeName": "STURGEON FALLS",
        "streetNameDisplayText": "LEVIS ST, STURGEON FALLS"
      }
    ]
  },
  {
    "postal": "P2B8N6",
    "result": []
  },
  {
    "postal": "P2B8J4",
    "result": []
  },
  {
    "postal": "P2B4R7",
    "result": []
  },
  {
    "postal": "P2B9K1",
    "result": []
  },
  {
    "postal": "P2B8E1",
    "result": []
  },
  {
    "postal": "P2B0R1",
    "result": []
  },
  {
    "postal": "P2B4J3",
    "result": []
  },
  {
    "postal": "P2B7E7",
    "result": []
  },
  {
    "postal": "P2B0J0",
    "result": []
  },
  {
    "postal": "P2B7R8",
    "result": []
  },
  {
    "postal": "P2B9X0",
    "result": []
  },
  {
    "postal": "P2B7P6",
    "result": []
  },
  {
    "postal": "P2B0R7",
    "result": []
  },
  {
    "postal": "P2B5W1",
    "result": []
  },
  {
    "postal": "P2B0K4",
    "result": []
  },
  {
    "postal": "P2B7N9",
    "result": []
  },
  {
    "postal": "P2B1N0",
    "result": []
  },
  {
    "postal": "P2B6P3",
    "result": []
  },
  {
    "postal": "P2B5A1",
    "result": []
  },
  {
    "postal": "P2B9M9",
    "result": []
  },
  {
    "postal": "P2B7T6",
    "result": []
  },
  {
    "postal": "P2B3X0",
    "result": []
  },
  {
    "postal": "P2B2T0",
    "result": []
  },
  {
    "postal": "P2B5X9",
    "result": []
  },
  {
    "postal": "P2B2R3",
    "result": [
      {
        "electoralDistricts": [
          {
            "election": null,
            "id": 107,
            "name": "Timiskaming—Cochrane"
          }
        ],
        "pollDivisionIds": [
          10142461
        ],
        "postalCode": "P2B2R3",
        "streetName": "DRIVE IN",
        "streetDirectionId": null,
        "streetTypeId": "RD",
        "placeName": "STURGEON FALLS",
        "streetNameDisplayText": "DRIVE IN RD, STURGEON FALLS"
      },
      {
        "electoralDistricts": [
          {
            "election": null,
            "id": 107,
            "name": "Timiskaming—Cochrane"
          }
        ],
        "pollDivisionIds": [
          10142461
        ],
        "postalCode": "P2B2R3",
        "streetName": "DRIVE-IN",
        "streetDirectionId": null,
        "streetTypeId": "RD",
        "placeName": "STURGEON FALLS",
        "streetNameDisplayText": "DRIVE-IN RD, STURGEON FALLS"
      }
    ]
  },
  {
    "postal": "P2B5N2",
    "result": []
  },
  {
    "postal": "P2B4Y7",
    "result": []
  },
  {
    "postal": "P2B7M0",
    "result": []
  },
  {
    "postal": "P2B8P3",
    "result": []
  },
  {
    "postal": "P2B3N3",
    "result": [
      {
        "electoralDistricts": [
          {
            "election": null,
            "id": 107,
            "name": "Timiskaming—Cochrane"
          }
        ],
        "pollDivisionIds": [
          10142461
        ],
        "postalCode": "P2B3N3",
        "streetName": "SANDHILL",
        "streetDirectionId": null,
        "streetTypeId": "RD",
        "placeName": "STURGEON FALLS",
        "streetNameDisplayText": "SANDHILL RD, STURGEON FALLS"
      }
    ]
  },
  {
    "postal": "P2B7S3",
    "result": []
  },
  {
    "postal": "P2B3V9",
    "result": []
  },
  {
    "postal": "P2B9N7",
    "result": []
  },
  {
    "postal": "P2B0G4",
    "result": []
  },
  {
    "postal": "P2B2E2",
    "result": [
      {
        "electoralDistricts": [
          {
            "election": null,
            "id": 107,
            "name": "Timiskaming—Cochrane"
          }
        ],
        "pollDivisionIds": [
          10142455
        ],
        "postalCode": "P2B2E2",
        "streetName": "QUEEN",
        "streetDirectionId": null,
        "streetTypeId": "ST",
        "placeName": "STURGEON FALLS",
        "streetNameDisplayText": "QUEEN ST, STURGEON FALLS"
      }
    ]
  },
  {
    "postal": "P2B7W8",
    "result": []
  },
  {
    "postal": "P2B7M5",
    "result": []
  },
  {
    "postal": "P2B5W8",
    "result": []
  },
  {
    "postal": "P2B5E5",
    "result": []
  },
  {
    "postal": "P2B1P9",
    "result": [
      {
        "electoralDistricts": [
          {
            "election": null,
            "id": 107,
            "name": "Timiskaming—Cochrane"
          }
        ],
        "pollDivisionIds": [
          10142454
        ],
        "postalCode": "P2B1P9",
        "streetName": "KING",
        "streetDirectionId": null,
        "streetTypeId": "ST",
        "placeName": "STURGEON FALLS",
        "streetNameDisplayText": "KING ST, STURGEON FALLS"
      }
    ]
  },
  {
    "postal": "P2B8V8",
    "result": []
  },
  {
    "postal": "P2B9G8",
    "result": []
  },
  {
    "postal": "P2B8H9",
    "result": []
  },
  {
    "postal": "P2B1Z1",
    "result": [
      {
        "electoralDistricts": [
          {
            "election": null,
            "id": 107,
            "name": "Timiskaming—Cochrane"
          }
        ],
        "pollDivisionIds": [
          10142456
        ],
        "postalCode": "P2B1Z1",
        "streetName": "JOHN",
        "streetDirectionId": null,
        "streetTypeId": "ST",
        "placeName": "STURGEON FALLS",
        "streetNameDisplayText": "JOHN ST, STURGEON FALLS"
      }
    ]
  },
  {
    "postal": "P2B8M3",
    "result": []
  },
  {
    "postal": "P2B5H6",
    "result": []
  },
  {
    "postal": "P2B7W7",
    "result": []
  },
  {
    "postal": "P2B4L0",
    "result": []
  },
  {
    "postal": "P2B2N1",
    "result": [
      {
        "electoralDistricts": [
          {
            "election": null,
            "id": 107,
            "name": "Timiskaming—Cochrane"
          }
        ],
        "pollDivisionIds": [
          10142461
        ],
        "postalCode": "P2B2N1",
        "streetName": "DELORME",
        "streetDirectionId": null,
        "streetTypeId": "RD",
        "placeName": "STURGEON FALLS",
        "streetNameDisplayText": "DELORME RD, STURGEON FALLS"
      }
    ]
  },
  {
    "postal": "P2B2H4",
    "result": [
      {
        "electoralDistricts": [
          {
            "election": null,
            "id": 107,
            "name": "Timiskaming—Cochrane"
          }
        ],
        "pollDivisionIds": [
          10142455
        ],
        "postalCode": "P2B2H4",
        "streetName": "FRONT",
        "streetDirectionId": null,
        "streetTypeId": "ST",
        "placeName": "STURGEON FALLS",
        "streetNameDisplayText": "FRONT ST, STURGEON FALLS"
      }
    ]
  },
  {
    "postal": "P2B5C8",
    "result": []
  },
  {
    "postal": "P2B8B0",
    "result": []
  },
  {
    "postal": "P2B1T4",
    "result": [
      {
        "electoralDistricts": [
          {
            "election": null,
            "id": 107,
            "name": "Timiskaming—Cochrane"
          }
        ],
        "pollDivisionIds": [
          10142455
        ],
        "postalCode": "P2B1T4",
        "streetName": "RIVER",
        "streetDirectionId": null,
        "streetTypeId": "ST",
        "placeName": "STURGEON FALLS",
        "streetNameDisplayText": "RIVER ST, STURGEON FALLS"
      }
    ]
  },
  {
    "postal": "P2B7N7",
    "result": []
  },
  {
    "postal": "P2B4L3",
    "result": []
  },
  {
    "postal": "P2B2N2",
    "result": [
      {
        "electoralDistricts": [
          {
            "election": null,
            "id": 107,
            "name": "Timiskaming—Cochrane"
          }
        ],
        "pollDivisionIds": [
          10142461
        ],
        "postalCode": "P2B2N2",
        "streetName": "LEBLANC",
        "streetDirectionId": null,
        "streetTypeId": "RD",
        "placeName": "STURGEON FALLS",
        "streetNameDisplayText": "LEBLANC RD, STURGEON FALLS"
      }
    ]
  },
  {
    "postal": "P2B4N8",
    "result": []
  },
  {
    "postal": "P2B3M5",
    "result": []
  },
  {
    "postal": "P2B6H7",
    "result": []
  },
  {
    "postal": "P2B8Y8",
    "result": []
  },
  {
    "postal": "P2B5R9",
    "result": []
  },
  {
    "postal": "P2B8G3",
    "result": []
  },
  {
    "postal": "P2B4N7",
    "result": []
  },
  {
    "postal": "P2B0B9",
    "result": []
  },
  {
    "postal": "P2B9K7",
    "result": []
  },
  {
    "postal": "P2B9K9",
    "result": []
  },
  {
    "postal": "P2B3Z2",
    "result": []
  },
  {
    "postal": "P2B6W7",
    "result": []
  },
  {
    "postal": "P2B0P1",
    "result": []
  },
  {
    "postal": "P2B3A0",
    "result": []
  },
  {
    "postal": "P2B8L9",
    "result": []
  },
  {
    "postal": "P2B6X0",
    "result": []
  },
  {
    "postal": "P2B3E9",
    "result": [
      {
        "electoralDistricts": [
          {
            "election": null,
            "id": 107,
            "name": "Timiskaming—Cochrane"
          }
        ],
        "pollDivisionIds": [
          10142461
        ],
        "postalCode": "P2B3E9",
        "streetName": "RIVER FRONT",
        "streetDirectionId": null,
        "streetTypeId": "DR",
        "placeName": "STURGEON FALLS",
        "streetNameDisplayText": "RIVER FRONT DR, STURGEON FALLS"
      }
    ]
  },
  {
    "postal": "P2B0S5",
    "result": []
  },
  {
    "postal": "P2B1A2",
    "result": [
      {
        "electoralDistricts": [
          {
            "election": null,
            "id": 107,
            "name": "Timiskaming—Cochrane"
          }
        ],
        "pollDivisionIds": [
          10142456
        ],
        "postalCode": "P2B1A2",
        "streetName": "O'HARA",
        "streetDirectionId": null,
        "streetTypeId": "ST",
        "placeName": "STURGEON FALLS",
        "streetNameDisplayText": "O'HARA ST, STURGEON FALLS"
      }
    ]
  },
  {
    "postal": "P2B5V8",
    "result": []
  },
  {
    "postal": "P2B8C5",
    "result": []
  },
  {
    "postal": "P2B6N0",
    "result": []
  },
  {
    "postal": "P2B9E6",
    "result": []
  },
  {
    "postal": "P2B5J7",
    "result": []
  },
  {
    "postal": "P2B2R2",
    "result": [
      {
        "electoralDistricts": [
          {
            "election": null,
            "id": 107,
            "name": "Timiskaming—Cochrane"
          }
        ],
        "pollDivisionIds": [
          10142461
        ],
        "postalCode": "P2B2R2",
        "streetName": "DRIVE IN",
        "streetDirectionId": null,
        "streetTypeId": "RD",
        "placeName": "STURGEON FALLS",
        "streetNameDisplayText": "DRIVE IN RD, STURGEON FALLS"
      }
    ]
  },
  {
    "postal": "P2B0P5",
    "result": []
  },
  {
    "postal": "P2B5A7",
    "result": []
  },
  {
    "postal": "P2B1G1",
    "result": [
      {
        "electoralDistricts": [
          {
            "election": null,
            "id": 107,
            "name": "Timiskaming—Cochrane"
          }
        ],
        "pollDivisionIds": [
          10142456
        ],
        "postalCode": "P2B1G1",
        "streetName": "ARTHUR",
        "streetDirectionId": null,
        "streetTypeId": "ST",
        "placeName": "STURGEON FALLS",
        "streetNameDisplayText": "ARTHUR ST, STURGEON FALLS"
      }
    ]
  },
  {
    "postal": "P2B9R6",
    "result": []
  },
  {
    "postal": "P2B4Z9",
    "result": []
  },
  {
    "postal": "P2B1V5",
    "result": [
      {
        "electoralDistricts": [
          {
            "election": null,
            "id": 107,
            "name": "Timiskaming—Cochrane"
          }
        ],
        "pollDivisionIds": [
          10142456
        ],
        "postalCode": "P2B1V5",
        "streetName": "ETHEL",
        "streetDirectionId": null,
        "streetTypeId": "ST",
        "placeName": "STURGEON FALLS",
        "streetNameDisplayText": "ETHEL ST, STURGEON FALLS"
      }
    ]
  },
  {
    "postal": "P2B9Y5",
    "result": []
  },
  {
    "postal": "P2B1P2",
    "result": [
      {
        "electoralDistricts": [
          {
            "election": null,
            "id": 107,
            "name": "Timiskaming—Cochrane"
          }
        ],
        "pollDivisionIds": [
          10142455
        ],
        "postalCode": "P2B1P2",
        "streetName": "MAIN",
        "streetDirectionId": null,
        "streetTypeId": "ST",
        "placeName": "STURGEON FALLS",
        "streetNameDisplayText": "MAIN ST, STURGEON FALLS"
      }
    ]
  },
  {
    "postal": "P2B5X0",
    "result": []
  },
  {
    "postal": "P2B7B8",
    "result": []
  },
  {
    "postal": "P2B0C6",
    "result": []
  },
  {
    "postal": "P2B6G1",
    "result": []
  },
  {
    "postal": "P2B3K3",
    "result": [
      {
        "electoralDistricts": [
          {
            "election": null,
            "id": 72,
            "name": "Nipissing"
          }
        ],
        "pollDivisionIds": [
          10140158
        ],
        "postalCode": "P2B3K3",
        "streetName": "ALEX",
        "streetDirectionId": null,
        "streetTypeId": "ST",
        "placeName": "GARDEN VILLAGE",
        "streetNameDisplayText": "ALEX ST, GARDEN VILLAGE"
      },
      {
        "electoralDistricts": [
          {
            "election": null,
            "id": 72,
            "name": "Nipissing"
          }
        ],
        "pollDivisionIds": [
          10140158
        ],
        "postalCode": "P2B3K3",
        "streetName": "ALEX",
        "streetDirectionId": null,
        "streetTypeId": "ST",
        "placeName": "STURGEON FALLS",
        "streetNameDisplayText": "ALEX ST, STURGEON FALLS"
      },
      {
        "electoralDistricts": [
          {
            "election": null,
            "id": 72,
            "name": "Nipissing"
          }
        ],
        "pollDivisionIds": [
          10140158
        ],
        "postalCode": "P2B3K3",
        "streetName": "BERNARD",
        "streetDirectionId": null,
        "streetTypeId": "ST",
        "placeName": "GARDEN VILLAGE",
        "streetNameDisplayText": "BERNARD ST, GARDEN VILLAGE"
      },
      {
        "electoralDistricts": [
          {
            "election": null,
            "id": 72,
            "name": "Nipissing"
          }
        ],
        "pollDivisionIds": [
          10140158
        ],
        "postalCode": "P2B3K3",
        "streetName": "CHARLES",
        "streetDirectionId": null,
        "streetTypeId": "ST",
        "placeName": "GARDEN VILLAGE",
        "streetNameDisplayText": "CHARLES ST, GARDEN VILLAGE"
      },
      {
        "electoralDistricts": [
          {
            "election": null,
            "id": 72,
            "name": "Nipissing"
          }
        ],
        "pollDivisionIds": [
          10140158
        ],
        "postalCode": "P2B3K3",
        "streetName": "CHARLES",
        "streetDirectionId": null,
        "streetTypeId": "ST",
        "placeName": "STURGEON FALLS",
        "streetNameDisplayText": "CHARLES ST, STURGEON FALLS"
      },
      {
        "electoralDistricts": [
          {
            "election": null,
            "id": 72,
            "name": "Nipissing"
          }
        ],
        "pollDivisionIds": [
          10140158
        ],
        "postalCode": "P2B3K3",
        "streetName": "TED COMMANDA",
        "streetDirectionId": null,
        "streetTypeId": "DR",
        "placeName": "GARDEN VILLAGE",
        "streetNameDisplayText": "TED COMMANDA DR, GARDEN VILLAGE"
      },
      {
        "electoralDistricts": [
          {
            "election": null,
            "id": 72,
            "name": "Nipissing"
          }
        ],
        "pollDivisionIds": [
          10140158
        ],
        "postalCode": "P2B3K3",
        "streetName": "TED COMMANDA",
        "streetDirectionId": null,
        "streetTypeId": "DR",
        "placeName": "NORTH BAY",
        "streetNameDisplayText": "TED COMMANDA DR, NORTH BAY"
      },
      {
        "electoralDistricts": [
          {
            "election": null,
            "id": 72,
            "name": "Nipissing"
          }
        ],
        "pollDivisionIds": [
          10140158
        ],
        "postalCode": "P2B3K3",
        "streetName": "TED COMMANDA",
        "streetDirectionId": null,
        "streetTypeId": "DR",
        "placeName": "STURGEON FALLS",
        "streetNameDisplayText": "TED COMMANDA DR, STURGEON FALLS"
      }
    ]
  },
  {
    "postal": "P2B9R0",
    "result": []
  },
  {
    "postal": "P2B4R8",
    "result": []
  },
  {
    "postal": "P2B5P9",
    "result": []
  },
  {
    "postal": "P2B8N4",
    "result": []
  },
  {
    "postal": "P2B8H4",
    "result": []
  },
  {
    "postal": "P2B4V1",
    "result": []
  },
  {
    "postal": "P2B1K5",
    "result": [
      {
        "electoralDistricts": [
          {
            "election": null,
            "id": 107,
            "name": "Timiskaming—Cochrane"
          }
        ],
        "pollDivisionIds": [
          10142456
        ],
        "postalCode": "P2B1K5",
        "streetName": "NIPISSING",
        "streetDirectionId": null,
        "streetTypeId": "ST",
        "placeName": "STURGEON FALLS",
        "streetNameDisplayText": "NIPISSING ST, STURGEON FALLS"
      }
    ]
  },
  {
    "postal": "P2B1Z5",
    "result": [
      {
        "electoralDistricts": [
          {
            "election": null,
            "id": 107,
            "name": "Timiskaming—Cochrane"
          }
        ],
        "pollDivisionIds": [
          10142456
        ],
        "postalCode": "P2B1Z5",
        "streetName": "JOHN",
        "streetDirectionId": null,
        "streetTypeId": "ST",
        "placeName": "STURGEON FALLS",
        "streetNameDisplayText": "JOHN ST, STURGEON FALLS"
      }
    ]
  },
  {
    "postal": "P2B9L9",
    "result": []
  },
  {
    "postal": "P2B5L2",
    "result": []
  },
  {
    "postal": "P2B0M2",
    "result": []
  },
  {
    "postal": "P2B1K8",
    "result": [
      {
        "electoralDistricts": [
          {
            "election": null,
            "id": 107,
            "name": "Timiskaming—Cochrane"
          }
        ],
        "pollDivisionIds": [
          10142454
        ],
        "postalCode": "P2B1K8",
        "streetName": "PARKER",
        "streetDirectionId": null,
        "streetTypeId": "ST",
        "placeName": "STURGEON FALLS",
        "streetNameDisplayText": "PARKER ST, STURGEON FALLS"
      }
    ]
  },
  {
    "postal": "P2B3M7",
    "result": [
      {
        "electoralDistricts": [
          {
            "election": null,
            "id": 72,
            "name": "Nipissing"
          }
        ],
        "pollDivisionIds": [
          10140158
        ],
        "postalCode": "P2B3M7",
        "streetName": "SANDY FALLS",
        "streetDirectionId": null,
        "streetTypeId": "RD",
        "placeName": "GARDEN VILLAGE",
        "streetNameDisplayText": "SANDY FALLS RD, GARDEN VILLAGE"
      },
      {
        "electoralDistricts": [
          {
            "election": null,
            "id": 107,
            "name": "Timiskaming—Cochrane"
          }
        ],
        "pollDivisionIds": [
          10142456
        ],
        "postalCode": "P2B3M7",
        "streetName": "SANDY FALLS",
        "streetDirectionId": null,
        "streetTypeId": "RD",
        "placeName": "STURGEON FALLS",
        "streetNameDisplayText": "SANDY FALLS RD, STURGEON FALLS"
      }
    ]
  },
  {
    "postal": "P2B1B2",
    "result": [
      {
        "electoralDistricts": [
          {
            "election": null,
            "id": 107,
            "name": "Timiskaming—Cochrane"
          }
        ],
        "pollDivisionIds": [
          10142456
        ],
        "postalCode": "P2B1B2",
        "streetName": "CARRIE",
        "streetDirectionId": null,
        "streetTypeId": "ST",
        "placeName": "STURGEON FALLS",
        "streetNameDisplayText": "CARRIE ST, STURGEON FALLS"
      }
    ]
  },
  {
    "postal": "P2B0H9",
    "result": []
  },
  {
    "postal": "P2B8M4",
    "result": []
  },
  {
    "postal": "P2B2M5",
    "result": [
      {
        "electoralDistricts": [
          {
            "election": null,
            "id": 107,
            "name": "Timiskaming—Cochrane"
          }
        ],
        "pollDivisionIds": [
          10142461
        ],
        "postalCode": "P2B2M5",
        "streetName": "GLENROCK",
        "streetDirectionId": null,
        "streetTypeId": "RD",
        "placeName": "STURGEON FALLS",
        "streetNameDisplayText": "GLENROCK RD, STURGEON FALLS"
      }
    ]
  },
  {
    "postal": "P2B0T9",
    "result": []
  },
  {
    "postal": "P2B3P1",
    "result": []
  },
  {
    "postal": "P2B1R6",
    "result": [
      {
        "electoralDistricts": [
          {
            "election": null,
            "id": 107,
            "name": "Timiskaming—Cochrane"
          }
        ],
        "pollDivisionIds": [
          10142455
        ],
        "postalCode": "P2B1R6",
        "streetName": "KING",
        "streetDirectionId": null,
        "streetTypeId": "ST",
        "placeName": "STURGEON FALLS",
        "streetNameDisplayText": "KING ST, STURGEON FALLS"
      }
    ]
  },
  {
    "postal": "P2B9V5",
    "result": []
  },
  {
    "postal": "P2B9T0",
    "result": []
  },
  {
    "postal": "P2B0A9",
    "result": []
  },
  {
    "postal": "P2B1M3",
    "result": []
  },
  {
    "postal": "P2B1W8",
    "result": [
      {
        "electoralDistricts": [
          {
            "election": null,
            "id": 107,
            "name": "Timiskaming—Cochrane"
          }
        ],
        "pollDivisionIds": [
          10142454
        ],
        "postalCode": "P2B1W8",
        "streetName": "MARKET",
        "streetDirectionId": null,
        "streetTypeId": "ST",
        "placeName": "STURGEON FALLS",
        "streetNameDisplayText": "MARKET ST, STURGEON FALLS"
      }
    ]
  },
  {
    "postal": "P2B9J1",
    "result": []
  },
  {
    "postal": "P2B8N5",
    "result": []
  },
  {
    "postal": "P2B5X1",
    "result": []
  },
  {
    "postal": "P2B6S2",
    "result": []
  },
  {
    "postal": "P2B2A2",
    "result": [
      {
        "electoralDistricts": [
          {
            "election": null,
            "id": 107,
            "name": "Timiskaming—Cochrane"
          }
        ],
        "pollDivisionIds": [
          10142455
        ],
        "postalCode": "P2B2A2",
        "streetName": "WILLIAM",
        "streetDirectionId": null,
        "streetTypeId": "ST",
        "placeName": "STURGEON FALLS",
        "streetNameDisplayText": "WILLIAM ST, STURGEON FALLS"
      }
    ]
  },
  {
    "postal": "P2B6A6",
    "result": []
  },
  {
    "postal": "P2B0S3",
    "result": []
  },
  {
    "postal": "P2B3E7",
    "result": [
      {
        "electoralDistricts": [
          {
            "election": null,
            "id": 107,
            "name": "Timiskaming—Cochrane"
          }
        ],
        "pollDivisionIds": [
          10142461
        ],
        "postalCode": "P2B3E7",
        "streetName": "ROY",
        "streetDirectionId": null,
        "streetTypeId": "ST",
        "placeName": "STURGEON FALLS",
        "streetNameDisplayText": "ROY ST, STURGEON FALLS"
      }
    ]
  },
  {
    "postal": "P2B5R7",
    "result": []
  },
  {
    "postal": "P2B3R6",
    "result": []
  },
  {
    "postal": "P2B6K4",
    "result": []
  },
  {
    "postal": "P2B2W5",
    "result": [
      {
        "electoralDistricts": [
          {
            "election": null,
            "id": 107,
            "name": "Timiskaming—Cochrane"
          }
        ],
        "pollDivisionIds": [
          10142461
        ],
        "postalCode": "P2B2W5",
        "streetName": "GARDEN VILLAGE",
        "streetDirectionId": null,
        "streetTypeId": "RD",
        "placeName": "STURGEON FALLS",
        "streetNameDisplayText": "GARDEN VILLAGE RD, STURGEON FALLS"
      }
    ]
  },
  {
    "postal": "P2B8W4",
    "result": []
  },
  {
    "postal": "P2B9C2",
    "result": []
  },
  {
    "postal": "P2B2C0",
    "result": []
  },
  {
    "postal": "P2B0E1",
    "result": []
  },
  {
    "postal": "P2B1K9",
    "result": [
      {
        "electoralDistricts": [
          {
            "election": null,
            "id": 107,
            "name": "Timiskaming—Cochrane"
          }
        ],
        "pollDivisionIds": [
          10142454
        ],
        "postalCode": "P2B1K9",
        "streetName": "PARKER",
        "streetDirectionId": null,
        "streetTypeId": "ST",
        "placeName": "STURGEON FALLS",
        "streetNameDisplayText": "PARKER ST, STURGEON FALLS"
      }
    ]
  },
  {
    "postal": "P2B1G7",
    "result": [
      {
        "electoralDistricts": [
          {
            "election": null,
            "id": 107,
            "name": "Timiskaming—Cochrane"
          }
        ],
        "pollDivisionIds": [
          10142456
        ],
        "postalCode": "P2B1G7",
        "streetName": "CHURCH",
        "streetDirectionId": null,
        "streetTypeId": "ST",
        "placeName": "STURGEON FALLS",
        "streetNameDisplayText": "CHURCH ST, STURGEON FALLS"
      }
    ]
  },
  {
    "postal": "P2B4E9",
    "result": []
  },
  {
    "postal": "P2B9P0",
    "result": []
  },
  {
    "postal": "P2B5H3",
    "result": []
  },
  {
    "postal": "P2B9X6",
    "result": []
  },
  {
    "postal": "P2B5N7",
    "result": []
  },
  {
    "postal": "P2B5A6",
    "result": []
  },
  {
    "postal": "P2B4M0",
    "result": []
  },
  {
    "postal": "P2B3V6",
    "result": []
  },
  {
    "postal": "P2B1L7",
    "result": [
      {
        "electoralDistricts": [
          {
            "election": null,
            "id": 107,
            "name": "Timiskaming—Cochrane"
          }
        ],
        "pollDivisionIds": [
          10142455
        ],
        "postalCode": "P2B1L7",
        "streetName": "PARKER",
        "streetDirectionId": null,
        "streetTypeId": "ST",
        "placeName": "STURGEON FALLS",
        "streetNameDisplayText": "PARKER ST, STURGEON FALLS"
      }
    ]
  },
  {
    "postal": "P2B2P9",
    "result": [
      {
        "electoralDistricts": [
          {
            "election": null,
            "id": 107,
            "name": "Timiskaming—Cochrane"
          }
        ],
        "pollDivisionIds": [
          10142461
        ],
        "postalCode": "P2B2P9",
        "streetName": "SABOURIN",
        "streetDirectionId": null,
        "streetTypeId": "RD",
        "placeName": "STURGEON FALLS",
        "streetNameDisplayText": "SABOURIN RD, STURGEON FALLS"
      }
    ]
  },
  {
    "postal": "P2B5T4",
    "result": []
  },
  {
    "postal": "P2B5Z1",
    "result": []
  },
  {
    "postal": "P2B2X0",
    "result": []
  },
  {
    "postal": "P2B6Z2",
    "result": []
  },
  {
    "postal": "P2B0E0",
    "result": []
  },
  {
    "postal": "P2B3Z5",
    "result": []
  },
  {
    "postal": "P2B8H3",
    "result": []
  },
  {
    "postal": "P2B7S6",
    "result": []
  },
  {
    "postal": "P2B4C1",
    "result": []
  },
  {
    "postal": "P2B3K2",
    "result": [
      {
        "electoralDistricts": [
          {
            "election": null,
            "id": 72,
            "name": "Nipissing"
          }
        ],
        "pollDivisionIds": [
          10140158
        ],
        "postalCode": "P2B3K2",
        "streetName": "CRANBERRY",
        "streetDirectionId": null,
        "streetTypeId": "CRES",
        "placeName": "STURGEON FALLS",
        "streetNameDisplayText": "CRANBERRY CRES, STURGEON FALLS"
      },
      {
        "electoralDistricts": [
          {
            "election": null,
            "id": 72,
            "name": "Nipissing"
          }
        ],
        "pollDivisionIds": [
          10140158
        ],
        "postalCode": "P2B3K2",
        "streetName": "CRANBERRY",
        "streetDirectionId": null,
        "streetTypeId": "ST",
        "placeName": "GARDEN VILLAGE",
        "streetNameDisplayText": "CRANBERRY ST, GARDEN VILLAGE"
      },
      {
        "electoralDistricts": [
          {
            "election": null,
            "id": 72,
            "name": "Nipissing"
          }
        ],
        "pollDivisionIds": [
          10140158,
          10140159
        ],
        "postalCode": "P2B3K2",
        "streetName": "CRANBERRY",
        "streetDirectionId": null,
        "streetTypeId": "ST",
        "placeName": "STURGEON FALLS",
        "streetNameDisplayText": "CRANBERRY ST, STURGEON FALLS"
      },
      {
        "electoralDistricts": [
          {
            "election": null,
            "id": 72,
            "name": "Nipissing"
          }
        ],
        "pollDivisionIds": [
          10140158
        ],
        "postalCode": "P2B3K2",
        "streetName": "EMERY",
        "streetDirectionId": null,
        "streetTypeId": "DR",
        "placeName": "GARDEN VILLAGE",
        "streetNameDisplayText": "EMERY DR, GARDEN VILLAGE"
      },
      {
        "electoralDistricts": [
          {
            "election": null,
            "id": 72,
            "name": "Nipissing"
          }
        ],
        "pollDivisionIds": [
          10140158
        ],
        "postalCode": "P2B3K2",
        "streetName": "FRED",
        "streetDirectionId": null,
        "streetTypeId": "AVE",
        "placeName": "GARDEN VILLAGE",
        "streetNameDisplayText": "FRED AVE, GARDEN VILLAGE"
      },
      {
        "electoralDistricts": [
          {
            "election": null,
            "id": 72,
            "name": "Nipissing"
          }
        ],
        "pollDivisionIds": [
          10140158
        ],
        "postalCode": "P2B3K2",
        "streetName": "PHILIP",
        "streetDirectionId": null,
        "streetTypeId": "AVE",
        "placeName": "GARDEN VILLAGE",
        "streetNameDisplayText": "PHILIP AVE, GARDEN VILLAGE"
      },
      {
        "electoralDistricts": [
          {
            "election": null,
            "id": 72,
            "name": "Nipissing"
          }
        ],
        "pollDivisionIds": [
          10140158
        ],
        "postalCode": "P2B3K2",
        "streetName": "SEMO",
        "streetDirectionId": null,
        "streetTypeId": "RD",
        "placeName": "GARDEN VILLAGE",
        "streetNameDisplayText": "SEMO RD, GARDEN VILLAGE"
      },
      {
        "electoralDistricts": [
          {
            "election": null,
            "id": 72,
            "name": "Nipissing"
          }
        ],
        "pollDivisionIds": [
          10140158
        ],
        "postalCode": "P2B3K2",
        "streetName": "TED COMMANDA",
        "streetDirectionId": null,
        "streetTypeId": "DR",
        "placeName": "GARDEN VILLAGE",
        "streetNameDisplayText": "TED COMMANDA DR, GARDEN VILLAGE"
      },
      {
        "electoralDistricts": [
          {
            "election": null,
            "id": 72,
            "name": "Nipissing"
          }
        ],
        "pollDivisionIds": [
          10140158
        ],
        "postalCode": "P2B3K2",
        "streetName": "TED COMMANDA",
        "streetDirectionId": null,
        "streetTypeId": "DR",
        "placeName": "NORTH BAY",
        "streetNameDisplayText": "TED COMMANDA DR, NORTH BAY"
      }
    ]
  },
  {
    "postal": "P2B1Y5",
    "result": [
      {
        "electoralDistricts": [
          {
            "election": null,
            "id": 107,
            "name": "Timiskaming—Cochrane"
          }
        ],
        "pollDivisionIds": [
          10142455
        ],
        "postalCode": "P2B1Y5",
        "streetName": "JOHN",
        "streetDirectionId": null,
        "streetTypeId": "ST",
        "placeName": "STURGEON FALLS",
        "streetNameDisplayText": "JOHN ST, STURGEON FALLS"
      }
    ]
  },
  {
    "postal": "P2B6P6",
    "result": []
  },
  {
    "postal": "P2B3N9",
    "result": []
  },
  {
    "postal": "P2B3W2",
    "result": []
  },
  {
    "postal": "P2B6H8",
    "result": []
  },
  {
    "postal": "P2B9T3",
    "result": []
  },
  {
    "postal": "P2B5L9",
    "result": []
  },
  {
    "postal": "P2B7X7",
    "result": []
  },
  {
    "postal": "P2B3J5",
    "result": [
      {
        "electoralDistricts": [
          {
            "election": null,
            "id": 107,
            "name": "Timiskaming—Cochrane"
          }
        ],
        "pollDivisionIds": [
          10142456
        ],
        "postalCode": "P2B3J5",
        "streetName": "COURSOL",
        "streetDirectionId": null,
        "streetTypeId": "RD",
        "placeName": "STURGEON FALLS",
        "streetNameDisplayText": "COURSOL RD, STURGEON FALLS"
      },
      {
        "electoralDistricts": [
          {
            "election": null,
            "id": 107,
            "name": "Timiskaming—Cochrane"
          }
        ],
        "pollDivisionIds": [
          10142456
        ],
        "postalCode": "P2B3J5",
        "streetName": "RIVET",
        "streetDirectionId": null,
        "streetTypeId": "ST",
        "placeName": "STURGEON FALLS",
        "streetNameDisplayText": "RIVET ST, STURGEON FALLS"
      }
    ]
  },
  {
    "postal": "P2B4J5",
    "result": []
  },
  {
    "postal": "P2B6J2",
    "result": []
  },
  {
    "postal": "P2B5V6",
    "result": []
  },
  {
    "postal": "P2B3N2",
    "result": [
      {
        "electoralDistricts": [
          {
            "election": null,
            "id": 107,
            "name": "Timiskaming—Cochrane"
          }
        ],
        "pollDivisionIds": [
          10142461
        ],
        "postalCode": "P2B3N2",
        "streetName": "PIERRE",
        "streetDirectionId": null,
        "streetTypeId": "RD",
        "placeName": "STURGEON FALLS",
        "streetNameDisplayText": "PIERRE RD, STURGEON FALLS"
      }
    ]
  },
  {
    "postal": "P2B3B1",
    "result": [
      {
        "electoralDistricts": [
          {
            "election": null,
            "id": 107,
            "name": "Timiskaming—Cochrane"
          }
        ],
        "pollDivisionIds": [
          10142461
        ],
        "postalCode": "P2B3B1",
        "streetName": "NIPISSING",
        "streetDirectionId": null,
        "streetTypeId": "ST",
        "placeName": "STURGEON FALLS",
        "streetNameDisplayText": "NIPISSING ST, STURGEON FALLS"
      },
      {
        "electoralDistricts": [
          {
            "election": null,
            "id": 107,
            "name": "Timiskaming—Cochrane"
          }
        ],
        "pollDivisionIds": [
          10142461
        ],
        "postalCode": "P2B3B1",
        "streetName": "RAILWAY",
        "streetDirectionId": null,
        "streetTypeId": "ST",
        "placeName": "STURGEON FALLS",
        "streetNameDisplayText": "RAILWAY ST, STURGEON FALLS"
      }
    ]
  },
  {
    "postal": "P2B8B5",
    "result": []
  },
  {
    "postal": "P2B0K1",
    "result": []
  },
  {
    "postal": "P2B7M7",
    "result": []
  },
  {
    "postal": "P2B2M2",
    "result": [
      {
        "electoralDistricts": [
          {
            "election": null,
            "id": 107,
            "name": "Timiskaming—Cochrane"
          }
        ],
        "pollDivisionIds": [
          10142461
        ],
        "postalCode": "P2B2M2",
        "streetName": "SANDHILL",
        "streetDirectionId": null,
        "streetTypeId": "RD",
        "placeName": "STURGEON FALLS",
        "streetNameDisplayText": "SANDHILL RD, STURGEON FALLS"
      }
    ]
  },
  {
    "postal": "P2B9N3",
    "result": []
  },
  {
    "postal": "P2B4Y8",
    "result": []
  },
  {
    "postal": "P2B3V7",
    "result": []
  },
  {
    "postal": "P2B8Z1",
    "result": []
  },
  {
    "postal": "P2B7B3",
    "result": []
  },
  {
    "postal": "P2B3A8",
    "result": [
      {
        "electoralDistricts": [
          {
            "election": null,
            "id": 107,
            "name": "Timiskaming—Cochrane"
          }
        ],
        "pollDivisionIds": [
          10142461
        ],
        "postalCode": "P2B3A8",
        "streetName": "RIVER",
        "streetDirectionId": null,
        "streetTypeId": "ST",
        "placeName": "STURGEON FALLS",
        "streetNameDisplayText": "RIVER ST, STURGEON FALLS"
      },
      {
        "electoralDistricts": [
          {
            "election": null,
            "id": 107,
            "name": "Timiskaming—Cochrane"
          }
        ],
        "pollDivisionIds": [
          10142461
        ],
        "postalCode": "P2B3A8",
        "streetName": "SECOND",
        "streetDirectionId": null,
        "streetTypeId": "ST",
        "placeName": "STURGEON FALLS",
        "streetNameDisplayText": "SECOND ST, STURGEON FALLS"
      }
    ]
  },
  {
    "postal": "P2B7V5",
    "result": []
  },
  {
    "postal": "P2B2T2",
    "result": [
      {
        "electoralDistricts": [
          {
            "election": null,
            "id": 107,
            "name": "Timiskaming—Cochrane"
          }
        ],
        "pollDivisionIds": [
          10142461
        ],
        "postalCode": "P2B2T2",
        "streetName": "GOLF COURSE",
        "streetDirectionId": null,
        "streetTypeId": "RD",
        "placeName": "STURGEON FALLS",
        "streetNameDisplayText": "GOLF COURSE RD, STURGEON FALLS"
      }
    ]
  },
  {
    "postal": "P2B6L3",
    "result": []
  },
  {
    "postal": "P2B0L2",
    "result": []
  },
  {
    "postal": "P2B5Y8",
    "result": []
  },
  {
    "postal": "P2B0B8",
    "result": []
  },
  {
    "postal": "P2B6R5",
    "result": []
  },
  {
    "postal": "P2B8W6",
    "result": []
  },
  {
    "postal": "P2B8G6",
    "result": []
  },
  {
    "postal": "P2B6X3",
    "result": []
  },
  {
    "postal": "P2B7R7",
    "result": []
  },
  {
    "postal": "P2B4B6",
    "result": []
  },
  {
    "postal": "P2B3P9",
    "result": []
  },
  {
    "postal": "P2B2T3",
    "result": [
      {
        "electoralDistricts": [
          {
            "election": null,
            "id": 107,
            "name": "Timiskaming—Cochrane"
          }
        ],
        "pollDivisionIds": [
          10142461
        ],
        "postalCode": "P2B2T3",
        "streetName": "SALTER",
        "streetDirectionId": null,
        "streetTypeId": "ST",
        "placeName": "STURGEON FALLS",
        "streetNameDisplayText": "SALTER ST, STURGEON FALLS"
      }
    ]
  },
  {
    "postal": "P2B1M4",
    "result": [
      {
        "electoralDistricts": [
          {
            "election": null,
            "id": 107,
            "name": "Timiskaming—Cochrane"
          }
        ],
        "pollDivisionIds": [
          10142461,
          10142455
        ],
        "postalCode": "P2B1M4",
        "streetName": "LEVESQUE",
        "streetDirectionId": null,
        "streetTypeId": "ST",
        "placeName": "STURGEON FALLS",
        "streetNameDisplayText": "LEVESQUE ST, STURGEON FALLS"
      },
      {
        "electoralDistricts": [
          {
            "election": null,
            "id": 107,
            "name": "Timiskaming—Cochrane"
          }
        ],
        "pollDivisionIds": [
          10142455
        ],
        "postalCode": "P2B1M4",
        "streetName": "LÉVESQUE",
        "streetDirectionId": null,
        "streetTypeId": "ST",
        "placeName": "STURGEON FALLS",
        "streetNameDisplayText": "LÉVESQUE ST, STURGEON FALLS"
      }
    ]
  },
  {
    "postal": "P2B0H1",
    "result": []
  },
  {
    "postal": "P2B9W3",
    "result": []
  },
  {
    "postal": "P2B6P1",
    "result": []
  },
  {
    "postal": "P2B7G2",
    "result": []
  },
  {
    "postal": "P2B4J9",
    "result": []
  },
  {
    "postal": "P2B9E4",
    "result": []
  },
  {
    "postal": "P2B8H0",
    "result": []
  },
  {
    "postal": "P2B4M7",
    "result": []
  },
  {
    "postal": "P2B2G9",
    "result": [
      {
        "electoralDistricts": [
          {
            "election": null,
            "id": 107,
            "name": "Timiskaming—Cochrane"
          }
        ],
        "pollDivisionIds": [
          10142455
        ],
        "postalCode": "P2B2G9",
        "streetName": "FRONT",
        "streetDirectionId": null,
        "streetTypeId": "ST",
        "placeName": "STURGEON FALLS",
        "streetNameDisplayText": "FRONT ST, STURGEON FALLS"
      }
    ]
  },
  {
    "postal": "P2B8T2",
    "result": []
  },
  {
    "postal": "P2B7G7",
    "result": []
  },
  {
    "postal": "P2B4Z3",
    "result": []
  },
  {
    "postal": "P2B5B3",
    "result": []
  },
  {
    "postal": "P2B1S7",
    "result": [
      {
        "electoralDistricts": [
          {
            "election": null,
            "id": 107,
            "name": "Timiskaming—Cochrane"
          }
        ],
        "pollDivisionIds": [
          10142455
        ],
        "postalCode": "P2B1S7",
        "streetName": "HOLDITCH",
        "streetDirectionId": null,
        "streetTypeId": "ST",
        "placeName": "STURGEON FALLS",
        "streetNameDisplayText": "HOLDITCH ST, STURGEON FALLS"
      }
    ]
  },
  {
    "postal": "P2B2N7",
    "result": [
      {
        "electoralDistricts": [
          {
            "election": null,
            "id": 107,
            "name": "Timiskaming—Cochrane"
          }
        ],
        "pollDivisionIds": [
          10142461
        ],
        "postalCode": "P2B2N7",
        "streetName": "CONCORD",
        "streetDirectionId": null,
        "streetTypeId": "RD",
        "placeName": "STURGEON FALLS",
        "streetNameDisplayText": "CONCORD RD, STURGEON FALLS"
      },
      {
        "electoralDistricts": [
          {
            "election": null,
            "id": 107,
            "name": "Timiskaming—Cochrane"
          }
        ],
        "pollDivisionIds": [
          10142461
        ],
        "postalCode": "P2B2N7",
        "streetName": "CONCORD",
        "streetDirectionId": null,
        "streetTypeId": "RD",
        "placeName": "STURGEON FALLS ON.",
        "streetNameDisplayText": "CONCORD RD, STURGEON FALLS ON."
      },
      {
        "electoralDistricts": [
          {
            "election": null,
            "id": 107,
            "name": "Timiskaming—Cochrane"
          }
        ],
        "pollDivisionIds": [
          10142461
        ],
        "postalCode": "P2B2N7",
        "streetName": "FORT",
        "streetDirectionId": null,
        "streetTypeId": "RD",
        "placeName": "STURGEON FALLS",
        "streetNameDisplayText": "FORT RD, STURGEON FALLS"
      }
    ]
  },
  {
    "postal": "P2B0H8",
    "result": []
  },
  {
    "postal": "P2B7Z4",
    "result": []
  },
  {
    "postal": "P2B7B1",
    "result": []
  },
  {
    "postal": "P2B7P8",
    "result": []
  },
  {
    "postal": "P2B7N0",
    "result": []
  },
  {
    "postal": "P2B3Y5",
    "result": []
  },
  {
    "postal": "P2B6K1",
    "result": []
  },
  {
    "postal": "P2B9X5",
    "result": []
  },
  {
    "postal": "P2B7S5",
    "result": []
  },
  {
    "postal": "P2B0A4",
    "result": []
  },
  {
    "postal": "P2B4T5",
    "result": []
  },
  {
    "postal": "P2B5K1",
    "result": []
  },
  {
    "postal": "P2B0Z9",
    "result": []
  },
  {
    "postal": "P2B7T2",
    "result": []
  },
  {
    "postal": "P2B1L5",
    "result": [
      {
        "electoralDistricts": [
          {
            "election": null,
            "id": 107,
            "name": "Timiskaming—Cochrane"
          }
        ],
        "pollDivisionIds": [
          10142455
        ],
        "postalCode": "P2B1L5",
        "streetName": "PARKER",
        "streetDirectionId": null,
        "streetTypeId": "ST",
        "placeName": "STURGEON FALLS",
        "streetNameDisplayText": "PARKER ST, STURGEON FALLS"
      }
    ]
  },
  {
    "postal": "P2B3N5",
    "result": [
      {
        "electoralDistricts": [
          {
            "election": null,
            "id": 107,
            "name": "Timiskaming—Cochrane"
          }
        ],
        "pollDivisionIds": [
          10142461
        ],
        "postalCode": "P2B3N5",
        "streetName": "CHAMPAGNE",
        "streetDirectionId": null,
        "streetTypeId": "RD",
        "placeName": "STURGEON FALLS",
        "streetNameDisplayText": "CHAMPAGNE RD, STURGEON FALLS"
      }
    ]
  },
  {
    "postal": "P2B6H4",
    "result": []
  },
  {
    "postal": "P2B5A5",
    "result": []
  },
  {
    "postal": "P2B3R9",
    "result": []
  },
  {
    "postal": "P2B7L8",
    "result": []
  },
  {
    "postal": "P2B6T6",
    "result": []
  },
  {
    "postal": "P2B7Y7",
    "result": []
  },
  {
    "postal": "P2B3M8",
    "result": [
      {
        "electoralDistricts": [
          {
            "election": null,
            "id": 107,
            "name": "Timiskaming—Cochrane"
          }
        ],
        "pollDivisionIds": [
          10142456
        ],
        "postalCode": "P2B3M8",
        "streetName": "CLARK",
        "streetDirectionId": null,
        "streetTypeId": "ST",
        "placeName": "STURGEON FALLS",
        "streetNameDisplayText": "CLARK ST, STURGEON FALLS"
      }
    ]
  },
  {
    "postal": "P2B2E0",
    "result": []
  },
  {
    "postal": "P2B4B5",
    "result": []
  },
  {
    "postal": "P2B1J3",
    "result": [
      {
        "electoralDistricts": [
          {
            "election": null,
            "id": 107,
            "name": "Timiskaming—Cochrane"
          }
        ],
        "pollDivisionIds": [
          10142456
        ],
        "postalCode": "P2B1J3",
        "streetName": "NIPISSING",
        "streetDirectionId": null,
        "streetTypeId": "ST",
        "placeName": "STURGEON FALLS",
        "streetNameDisplayText": "NIPISSING ST, STURGEON FALLS"
      }
    ]
  },
  {
    "postal": "P2B5S6",
    "result": []
  },
  {
    "postal": "P2B8P7",
    "result": []
  },
  {
    "postal": "P2B7S7",
    "result": []
  },
  {
    "postal": "P2B4C2",
    "result": []
  },
  {
    "postal": "P2B5Y0",
    "result": []
  },
  {
    "postal": "P2B2V7",
    "result": [
      {
        "electoralDistricts": [
          {
            "election": null,
            "id": 107,
            "name": "Timiskaming—Cochrane"
          }
        ],
        "pollDivisionIds": [
          10142461
        ],
        "postalCode": "P2B2V7",
        "streetName": "QUESNEL",
        "streetDirectionId": null,
        "streetTypeId": "RD",
        "placeName": "STURGEON FALLS",
        "streetNameDisplayText": "QUESNEL RD, STURGEON FALLS"
      }
    ]
  },
  {
    "postal": "P2B8P5",
    "result": []
  },
  {
    "postal": "P2B5P5",
    "result": []
  },
  {
    "postal": "P2B5Z0",
    "result": []
  },
  {
    "postal": "P2B9B0",
    "result": []
  },
  {
    "postal": "P2B1L0",
    "result": []
  },
  {
    "postal": "P2B0B5",
    "result": [
      {
        "electoralDistricts": [
          {
            "election": null,
            "id": 107,
            "name": "Timiskaming—Cochrane"
          }
        ],
        "pollDivisionIds": [
          10142398
        ],
        "postalCode": "P2B0B5",
        "streetName": "DOVECOURT",
        "streetDirectionId": null,
        "streetTypeId": "RD",
        "placeName": "STURGEON FALLS",
        "streetNameDisplayText": "DOVECOURT RD, STURGEON FALLS"
      },
      {
        "electoralDistricts": [
          {
            "election": null,
            "id": 107,
            "name": "Timiskaming—Cochrane"
          }
        ],
        "pollDivisionIds": [
          10142398,
          10142461
        ],
        "postalCode": "P2B0B5",
        "streetName": "DOVERCOURT",
        "streetDirectionId": null,
        "streetTypeId": "RD",
        "placeName": "STURGEON FALLS",
        "streetNameDisplayText": "DOVERCOURT RD, STURGEON FALLS"
      },
      {
        "electoralDistricts": [
          {
            "election": null,
            "id": 107,
            "name": "Timiskaming—Cochrane"
          }
        ],
        "pollDivisionIds": [
          10142461
        ],
        "postalCode": "P2B0B5",
        "streetName": "TORONTO",
        "streetDirectionId": null,
        "streetTypeId": "ST",
        "placeName": "STURGEON FALLS",
        "streetNameDisplayText": "TORONTO ST, STURGEON FALLS"
      }
    ]
  },
  {
    "postal": "P2B3L2",
    "result": [
      {
        "electoralDistricts": [
          {
            "election": null,
            "id": 107,
            "name": "Timiskaming—Cochrane"
          }
        ],
        "pollDivisionIds": [
          10142456
        ],
        "postalCode": "P2B3L2",
        "streetName": "QUEEN",
        "streetDirectionId": null,
        "streetTypeId": "ST",
        "placeName": "STURGEON FALLS",
        "streetNameDisplayText": "QUEEN ST, STURGEON FALLS"
      }
    ]
  },
  {
    "postal": "P2B3B7",
    "result": [
      {
        "electoralDistricts": [
          {
            "election": null,
            "id": 107,
            "name": "Timiskaming—Cochrane"
          }
        ],
        "pollDivisionIds": [
          10142461
        ],
        "postalCode": "P2B3B7",
        "streetName": "COURSOL",
        "streetDirectionId": null,
        "streetTypeId": "RD",
        "placeName": "STURGEON FALLS",
        "streetNameDisplayText": "COURSOL RD, STURGEON FALLS"
      },
      {
        "electoralDistricts": [
          {
            "election": null,
            "id": 107,
            "name": "Timiskaming—Cochrane"
          }
        ],
        "pollDivisionIds": [
          10142461
        ],
        "postalCode": "P2B3B7",
        "streetName": "PARK",
        "streetDirectionId": null,
        "streetTypeId": "ST",
        "placeName": "STURGEON FALLS",
        "streetNameDisplayText": "PARK ST, STURGEON FALLS"
      },
      {
        "electoralDistricts": [
          {
            "election": null,
            "id": 107,
            "name": "Timiskaming—Cochrane"
          }
        ],
        "pollDivisionIds": [
          10142461
        ],
        "postalCode": "P2B3B7",
        "streetName": "SALTER",
        "streetDirectionId": null,
        "streetTypeId": "ST",
        "placeName": "STURGEON FALLS",
        "streetNameDisplayText": "SALTER ST, STURGEON FALLS"
      }
    ]
  },
  {
    "postal": "P2B8L1",
    "result": []
  },
  {
    "postal": "P2B5M4",
    "result": []
  },
  {
    "postal": "P2B4G9",
    "result": []
  },
  {
    "postal": "P2B0P0",
    "result": []
  },
  {
    "postal": "P2B8G2",
    "result": []
  },
  {
    "postal": "P2B1V9",
    "result": [
      {
        "electoralDistricts": [
          {
            "election": null,
            "id": 107,
            "name": "Timiskaming—Cochrane"
          }
        ],
        "pollDivisionIds": [
          10142456
        ],
        "postalCode": "P2B1V9",
        "streetName": "ETHEL",
        "streetDirectionId": null,
        "streetTypeId": "ST",
        "placeName": "STURGEON FALLS",
        "streetNameDisplayText": "ETHEL ST, STURGEON FALLS"
      }
    ]
  },
  {
    "postal": "P2B8N8",
    "result": []
  },
  {
    "postal": "P2B6S8",
    "result": []
  },
  {
    "postal": "P2B8H2",
    "result": []
  },
  {
    "postal": "P2B5R8",
    "result": []
  },
  {
    "postal": "P2B5L4",
    "result": []
  },
  {
    "postal": "P2B9E1",
    "result": []
  },
  {
    "postal": "P2B1C4",
    "result": [
      {
        "electoralDistricts": [
          {
            "election": null,
            "id": 107,
            "name": "Timiskaming—Cochrane"
          }
        ],
        "pollDivisionIds": [
          10142456
        ],
        "postalCode": "P2B1C4",
        "streetName": "MICHAUD",
        "streetDirectionId": null,
        "streetTypeId": "ST",
        "placeName": "STURGEON FALLS",
        "streetNameDisplayText": "MICHAUD ST, STURGEON FALLS"
      }
    ]
  },
  {
    "postal": "P2B8W5",
    "result": []
  },
  {
    "postal": "P2B1Y4",
    "result": [
      {
        "electoralDistricts": [
          {
            "election": null,
            "id": 107,
            "name": "Timiskaming—Cochrane"
          }
        ],
        "pollDivisionIds": [
          10142454
        ],
        "postalCode": "P2B1Y4",
        "streetName": "JOHN",
        "streetDirectionId": null,
        "streetTypeId": "ST",
        "placeName": "STURGEON FALLS",
        "streetNameDisplayText": "JOHN ST, STURGEON FALLS"
      }
    ]
  },
  {
    "postal": "P2B1C0",
    "result": []
  },
  {
    "postal": "P2B2J2",
    "result": [
      {
        "electoralDistricts": [
          {
            "election": null,
            "id": 107,
            "name": "Timiskaming—Cochrane"
          }
        ],
        "pollDivisionIds": [
          10142456
        ],
        "postalCode": "P2B2J2",
        "streetName": "FRONT",
        "streetDirectionId": null,
        "streetTypeId": "ST",
        "placeName": "STURGEON FALLS",
        "streetNameDisplayText": "FRONT ST, STURGEON FALLS"
      }
    ]
  },
  {
    "postal": "P2B2J0",
    "result": []
  },
  {
    "postal": "P2B7A3",
    "result": []
  },
  {
    "postal": "P2B8M1",
    "result": []
  },
  {
    "postal": "P2B7T9",
    "result": []
  },
  {
    "postal": "P2B6C0",
    "result": []
  },
  {
    "postal": "P2B7X1",
    "result": []
  },
  {
    "postal": "P2B0G1",
    "result": []
  },
  {
    "postal": "P2B4X2",
    "result": []
  },
  {
    "postal": "P2B0N6",
    "result": []
  },
  {
    "postal": "P2B8E3",
    "result": []
  },
  {
    "postal": "P2B5S8",
    "result": []
  },
  {
    "postal": "P2B0R0",
    "result": []
  },
  {
    "postal": "P2B6J6",
    "result": []
  },
  {
    "postal": "P2B4B4",
    "result": []
  },
  {
    "postal": "P2B7E3",
    "result": []
  },
  {
    "postal": "P2B3N6",
    "result": [
      {
        "electoralDistricts": [
          {
            "election": null,
            "id": 107,
            "name": "Timiskaming—Cochrane"
          }
        ],
        "pollDivisionIds": [
          10142461
        ],
        "postalCode": "P2B3N6",
        "streetName": "BIRCH",
        "streetDirectionId": null,
        "streetTypeId": "CRT",
        "placeName": "STURGEON FALLS",
        "streetNameDisplayText": "BIRCH CRT, STURGEON FALLS"
      },
      {
        "electoralDistricts": [
          {
            "election": null,
            "id": 107,
            "name": "Timiskaming—Cochrane"
          }
        ],
        "pollDivisionIds": [
          10142461
        ],
        "postalCode": "P2B3N6",
        "streetName": "MONTREAL",
        "streetDirectionId": null,
        "streetTypeId": "ST",
        "placeName": "STURGEON FALLS",
        "streetNameDisplayText": "MONTREAL ST, STURGEON FALLS"
      },
      {
        "electoralDistricts": [
          {
            "election": null,
            "id": 107,
            "name": "Timiskaming—Cochrane"
          }
        ],
        "pollDivisionIds": [
          10142461
        ],
        "postalCode": "P2B3N6",
        "streetName": "SPRUCE",
        "streetDirectionId": null,
        "streetTypeId": "CRT",
        "placeName": "STURGEON FALLS",
        "streetNameDisplayText": "SPRUCE CRT, STURGEON FALLS"
      }
    ]
  },
  {
    "postal": "P2B3X6",
    "result": []
  },
  {
    "postal": "P2B8L0",
    "result": []
  },
  {
    "postal": "P2B8N1",
    "result": []
  },
  {
    "postal": "P2B4J0",
    "result": []
  },
  {
    "postal": "P2B0X7",
    "result": []
  },
  {
    "postal": "P2B6S4",
    "result": []
  },
  {
    "postal": "P2B0Z0",
    "result": []
  },
  {
    "postal": "P2B9X8",
    "result": []
  },
  {
    "postal": "P2B3H3",
    "result": [
      {
        "electoralDistricts": [
          {
            "election": null,
            "id": 107,
            "name": "Timiskaming—Cochrane"
          }
        ],
        "pollDivisionIds": [
          10142461
        ],
        "postalCode": "P2B3H3",
        "streetName": "CEDAR GROVE",
        "streetDirectionId": null,
        "streetTypeId": "DR",
        "placeName": "STURGEON FALLS",
        "streetNameDisplayText": "CEDAR GROVE DR, STURGEON FALLS"
      },
      {
        "electoralDistricts": [
          {
            "election": null,
            "id": 107,
            "name": "Timiskaming—Cochrane"
          }
        ],
        "pollDivisionIds": [
          10142461
        ],
        "postalCode": "P2B3H3",
        "streetName": "PINE",
        "streetDirectionId": null,
        "streetTypeId": "AVE",
        "placeName": "STURGEON FALLS",
        "streetNameDisplayText": "PINE AVE, STURGEON FALLS"
      },
      {
        "electoralDistricts": [
          {
            "election": null,
            "id": 107,
            "name": "Timiskaming—Cochrane"
          }
        ],
        "pollDivisionIds": [
          10142461
        ],
        "postalCode": "P2B3H3",
        "streetName": "TAMERACK",
        "streetDirectionId": null,
        "streetTypeId": "AVE",
        "placeName": "STURGEON FALLS",
        "streetNameDisplayText": "TAMERACK AVE, STURGEON FALLS"
      }
    ]
  },
  {
    "postal": "P2B7S2",
    "result": []
  },
  {
    "postal": "P2B3T3",
    "result": []
  },
  {
    "postal": "P2B9P3",
    "result": []
  },
  {
    "postal": "P2B4H8",
    "result": []
  },
  {
    "postal": "P2B6R1",
    "result": []
  },
  {
    "postal": "P2B1S0",
    "result": []
  },
  {
    "postal": "P2B3W8",
    "result": []
  },
  {
    "postal": "P2B4S3",
    "result": []
  },
  {
    "postal": "P2B1B6",
    "result": [
      {
        "electoralDistricts": [
          {
            "election": null,
            "id": 107,
            "name": "Timiskaming—Cochrane"
          }
        ],
        "pollDivisionIds": [
          10142456
        ],
        "postalCode": "P2B1B6",
        "streetName": "MICHAUD",
        "streetDirectionId": null,
        "streetTypeId": "ST",
        "placeName": "STURGEON FALLS",
        "streetNameDisplayText": "MICHAUD ST, STURGEON FALLS"
      }
    ]
  },
  {
    "postal": "P2B8R3",
    "result": []
  },
  {
    "postal": "P2B4V9",
    "result": []
  },
  {
    "postal": "P2B9W4",
    "result": []
  },
  {
    "postal": "P2B3T4",
    "result": []
  },
  {
    "postal": "P2B5C7",
    "result": []
  },
  {
    "postal": "P2B3Y1",
    "result": []
  },
  {
    "postal": "P2B5V0",
    "result": []
  },
  {
    "postal": "P2B8G8",
    "result": []
  },
  {
    "postal": "P2B8B1",
    "result": []
  },
  {
    "postal": "P2B4P5",
    "result": []
  },
  {
    "postal": "P2B7B2",
    "result": []
  },
  {
    "postal": "P2B0R2",
    "result": []
  },
  {
    "postal": "P2B4M4",
    "result": []
  },
  {
    "postal": "P2B7M4",
    "result": []
  },
  {
    "postal": "P2B9S7",
    "result": []
  },
  {
    "postal": "P2B5Z7",
    "result": []
  },
  {
    "postal": "P2B7J7",
    "result": []
  },
  {
    "postal": "P2B8R8",
    "result": []
  },
  {
    "postal": "P2B9X1",
    "result": []
  },
  {
    "postal": "P2B5M9",
    "result": []
  },
  {
    "postal": "P2B9B4",
    "result": []
  },
  {
    "postal": "P2B0L9",
    "result": []
  },
  {
    "postal": "P2B9G4",
    "result": []
  },
  {
    "postal": "P2B1J4",
    "result": [
      {
        "electoralDistricts": [
          {
            "election": null,
            "id": 107,
            "name": "Timiskaming—Cochrane"
          }
        ],
        "pollDivisionIds": [
          10142454
        ],
        "postalCode": "P2B1J4",
        "streetName": "NIPISSING",
        "streetDirectionId": null,
        "streetTypeId": "ST",
        "placeName": "STURGEON FALLS",
        "streetNameDisplayText": "NIPISSING ST, STURGEON FALLS"
      }
    ]
  },
  {
    "postal": "P2B0W6",
    "result": []
  }
]
