[
  {
    "postal": "N9B9J6",
    "result": []
  },
  {
    "postal": "N9B9Z5",
    "result": []
  },
  {
    "postal": "N9B7H8",
    "result": []
  },
  {
    "postal": "N9B0P6",
    "result": []
  },
  {
    "postal": "N9B0S7",
    "result": []
  },
  {
    "postal": "N9B8B9",
    "result": []
  },
  {
    "postal": "N9B2A6",
    "result": [
      {
        "electoralDistricts": [
          {
            "election": null,
            "id": 119,
            "name": "Windsor West"
          }
        ],
        "pollDivisionIds": [
          10142783
        ],
        "postalCode": "N9B2A6",
        "streetName": "MCKAY",
        "streetDirectionId": null,
        "streetTypeId": "AVE",
        "placeName": "WINDSOR",
        "streetNameDisplayText": "MCKAY AVE, WINDSOR"
      }
    ]
  },
  {
    "postal": "N9B7V2",
    "result": []
  },
  {
    "postal": "N9B9P4",
    "result": []
  },
  {
    "postal": "N9B6G0",
    "result": []
  },
  {
    "postal": "N9B2K0",
    "result": []
  },
  {
    "postal": "N9B7N6",
    "result": []
  },
  {
    "postal": "N9B5R3",
    "result": []
  },
  {
    "postal": "N9B7K0",
    "result": []
  },
  {
    "postal": "N9B3R2",
    "result": [
      {
        "electoralDistricts": [
          {
            "election": null,
            "id": 119,
            "name": "Windsor West"
          }
        ],
        "pollDivisionIds": [
          10142778
        ],
        "postalCode": "N9B3R2",
        "streetName": "TECUMSEH",
        "streetDirectionId": "W",
        "streetTypeId": "RD",
        "placeName": "WINDSOR",
        "streetNameDisplayText": "TECUMSEH RD W, WINDSOR"
      }
    ]
  },
  {
    "postal": "N9B0J1",
    "result": []
  },
  {
    "postal": "N9B0B0",
    "result": []
  },
  {
    "postal": "N9B5Z2",
    "result": []
  },
  {
    "postal": "N9B7P3",
    "result": []
  },
  {
    "postal": "N9B2K3",
    "result": [
      {
        "electoralDistricts": [
          {
            "election": null,
            "id": 119,
            "name": "Windsor West"
          }
        ],
        "pollDivisionIds": [
          10142782
        ],
        "postalCode": "N9B2K3",
        "streetName": "CAMPBELL",
        "streetDirectionId": null,
        "streetTypeId": "AVE",
        "placeName": "WINDSOR",
        "streetNameDisplayText": "CAMPBELL AVE, WINDSOR"
      }
    ]
  },
  {
    "postal": "N9B7Y6",
    "result": []
  },
  {
    "postal": "N9B1L9",
    "result": [
      {
        "electoralDistricts": [
          {
            "election": null,
            "id": 119,
            "name": "Windsor West"
          }
        ],
        "pollDivisionIds": [
          10142783
        ],
        "postalCode": "N9B1L9",
        "streetName": "COLLEGE",
        "streetDirectionId": null,
        "streetTypeId": "AVE",
        "placeName": "WINDSOR",
        "streetNameDisplayText": "COLLEGE AVE, WINDSOR"
      }
    ]
  },
  {
    "postal": "N9B8T0",
    "result": []
  },
  {
    "postal": "N9B3K8",
    "result": [
      {
        "electoralDistricts": [
          {
            "election": null,
            "id": 119,
            "name": "Windsor West"
          }
        ],
        "pollDivisionIds": [
          10142782
        ],
        "postalCode": "N9B3K8",
        "streetName": "ST CLAIR",
        "streetDirectionId": null,
        "streetTypeId": "AVE",
        "placeName": "WINDSOR",
        "streetNameDisplayText": "ST CLAIR AVE, WINDSOR"
      }
    ]
  },
  {
    "postal": "N9B5W9",
    "result": []
  },
  {
    "postal": "N9B6T9",
    "result": []
  },
  {
    "postal": "N9B4H1",
    "result": []
  },
  {
    "postal": "N9B7A2",
    "result": []
  },
  {
    "postal": "N9B5G0",
    "result": []
  },
  {
    "postal": "N9B8V5",
    "result": []
  },
  {
    "postal": "N9B2Y8",
    "result": []
  },
  {
    "postal": "N9B2B6",
    "result": [
      {
        "electoralDistricts": [
          {
            "election": null,
            "id": 119,
            "name": "Windsor West"
          }
        ],
        "pollDivisionIds": [
          10142781
        ],
        "postalCode": "N9B2B6",
        "streetName": "CURRY",
        "streetDirectionId": null,
        "streetTypeId": "AVE",
        "placeName": "WINDSOR",
        "streetNameDisplayText": "CURRY AVE, WINDSOR"
      }
    ]
  },
  {
    "postal": "N9B4W8",
    "result": []
  },
  {
    "postal": "N9B8H7",
    "result": []
  },
  {
    "postal": "N9B5P1",
    "result": []
  },
  {
    "postal": "N9B2B8",
    "result": [
      {
        "electoralDistricts": [
          {
            "election": null,
            "id": 119,
            "name": "Windsor West"
          }
        ],
        "pollDivisionIds": [
          10142781
        ],
        "postalCode": "N9B2B8",
        "streetName": "CURRY",
        "streetDirectionId": null,
        "streetTypeId": "AVE",
        "placeName": "WINDSOR",
        "streetNameDisplayText": "CURRY AVE, WINDSOR"
      }
    ]
  },
  {
    "postal": "N9B0P2",
    "result": []
  },
  {
    "postal": "N9B9M1",
    "result": []
  },
  {
    "postal": "N9B3G0",
    "result": []
  },
  {
    "postal": "N9B9Z2",
    "result": []
  },
  {
    "postal": "N9B2A0",
    "result": []
  },
  {
    "postal": "N9B6Y0",
    "result": []
  },
  {
    "postal": "N9B2Z8",
    "result": [
      {
        "electoralDistricts": [
          {
            "election": null,
            "id": 119,
            "name": "Windsor West"
          }
        ],
        "pollDivisionIds": [
          10142778
        ],
        "postalCode": "N9B2Z8",
        "streetName": "CALIFORNIA",
        "streetDirectionId": null,
        "streetTypeId": "AVE",
        "placeName": "WINDSOR",
        "streetNameDisplayText": "CALIFORNIA AVE, WINDSOR"
      }
    ]
  },
  {
    "postal": "N9B7Y3",
    "result": []
  },
  {
    "postal": "N9B6Z5",
    "result": []
  },
  {
    "postal": "N9B6E0",
    "result": []
  },
  {
    "postal": "N9B9B7",
    "result": []
  },
  {
    "postal": "N9B9S5",
    "result": []
  },
  {
    "postal": "N9B3X3",
    "result": [
      {
        "electoralDistricts": [
          {
            "election": null,
            "id": 119,
            "name": "Windsor West"
          }
        ],
        "pollDivisionIds": [
          10142788
        ],
        "postalCode": "N9B3X3",
        "streetName": "CURRY",
        "streetDirectionId": null,
        "streetTypeId": "AVE",
        "placeName": "WINDSOR",
        "streetNameDisplayText": "CURRY AVE, WINDSOR"
      },
      {
        "electoralDistricts": [
          {
            "election": null,
            "id": 119,
            "name": "Windsor West"
          }
        ],
        "pollDivisionIds": [
          10142788
        ],
        "postalCode": "N9B3X3",
        "streetName": "EVERTS",
        "streetDirectionId": null,
        "streetTypeId": "AVE",
        "placeName": "WINDSOR",
        "streetNameDisplayText": "EVERTS AVE, WINDSOR"
      },
      {
        "electoralDistricts": [
          {
            "election": null,
            "id": 119,
            "name": "Windsor West"
          }
        ],
        "pollDivisionIds": [
          10142788
        ],
        "postalCode": "N9B3X3",
        "streetName": "MARK",
        "streetDirectionId": null,
        "streetTypeId": "AVE",
        "placeName": "WINDSOR",
        "streetNameDisplayText": "MARK AVE, WINDSOR"
      }
    ]
  },
  {
    "postal": "N9B7R5",
    "result": []
  },
  {
    "postal": "N9B2X3",
    "result": [
      {
        "electoralDistricts": [
          {
            "election": null,
            "id": 119,
            "name": "Windsor West"
          }
        ],
        "pollDivisionIds": [
          10142779
        ],
        "postalCode": "N9B2X3",
        "streetName": "ASKIN",
        "streetDirectionId": null,
        "streetTypeId": "AVE",
        "placeName": "WINDSOR",
        "streetNameDisplayText": "ASKIN AVE, WINDSOR"
      }
    ]
  },
  {
    "postal": "N9B8Z9",
    "result": []
  },
  {
    "postal": "N9B0N4",
    "result": []
  },
  {
    "postal": "N9B1K1",
    "result": [
      {
        "electoralDistricts": [
          {
            "election": null,
            "id": 119,
            "name": "Windsor West"
          }
        ],
        "pollDivisionIds": [
          10142780
        ],
        "postalCode": "N9B1K1",
        "streetName": "WYANDOTTE",
        "streetDirectionId": "W",
        "streetTypeId": "ST",
        "placeName": "WINDSOR",
        "streetNameDisplayText": "WYANDOTTE ST W, WINDSOR"
      }
    ]
  },
  {
    "postal": "N9B1S3",
    "result": [
      {
        "electoralDistricts": [
          {
            "election": null,
            "id": 119,
            "name": "Windsor West"
          }
        ],
        "pollDivisionIds": [
          10142783
        ],
        "postalCode": "N9B1S3",
        "streetName": "PELLETIER",
        "streetDirectionId": null,
        "streetTypeId": "ST",
        "placeName": "WINDSOR",
        "streetNameDisplayText": "PELLETIER ST, WINDSOR"
      }
    ]
  },
  {
    "postal": "N9B6M4",
    "result": []
  },
  {
    "postal": "N9B9A9",
    "result": []
  },
  {
    "postal": "N9B9Z9",
    "result": []
  },
  {
    "postal": "N9B6T4",
    "result": []
  },
  {
    "postal": "N9B0B2",
    "result": [
      {
        "electoralDistricts": [
          {
            "election": null,
            "id": 119,
            "name": "Windsor West"
          }
        ],
        "pollDivisionIds": [
          10142784
        ],
        "postalCode": "N9B0B2",
        "streetName": "PARTINGTON",
        "streetDirectionId": null,
        "streetTypeId": "AVE",
        "placeName": "WINDSOR",
        "streetNameDisplayText": "PARTINGTON AVE, WINDSOR"
      }
    ]
  },
  {
    "postal": "N9B2L9",
    "result": [
      {
        "electoralDistricts": [
          {
            "election": null,
            "id": 119,
            "name": "Windsor West"
          }
        ],
        "pollDivisionIds": [
          10142783
        ],
        "postalCode": "N9B2L9",
        "streetName": "JOSEPHINE",
        "streetDirectionId": null,
        "streetTypeId": "AVE",
        "placeName": "WINDSOR",
        "streetNameDisplayText": "JOSEPHINE AVE, WINDSOR"
      }
    ]
  },
  {
    "postal": "N9B8K9",
    "result": []
  },
  {
    "postal": "N9B2H9",
    "result": [
      {
        "electoralDistricts": [
          {
            "election": null,
            "id": 119,
            "name": "Windsor West"
          }
        ],
        "pollDivisionIds": [
          10142783,
          10142781
        ],
        "postalCode": "N9B2H9",
        "streetName": "CAMPBELL",
        "streetDirectionId": null,
        "streetTypeId": "AVE",
        "placeName": "WINDSOR",
        "streetNameDisplayText": "CAMPBELL AVE, WINDSOR"
      }
    ]
  },
  {
    "postal": "N9B3Z6",
    "result": []
  },
  {
    "postal": "N9B3B0",
    "result": []
  },
  {
    "postal": "N9B2H8",
    "result": [
      {
        "electoralDistricts": [
          {
            "election": null,
            "id": 119,
            "name": "Windsor West"
          }
        ],
        "pollDivisionIds": [
          10142783,
          10142780
        ],
        "postalCode": "N9B2H8",
        "streetName": "CAMPBELL",
        "streetDirectionId": null,
        "streetTypeId": "AVE",
        "placeName": "WINDSOR",
        "streetNameDisplayText": "CAMPBELL AVE, WINDSOR"
      }
    ]
  },
  {
    "postal": "N9B3X2",
    "result": [
      {
        "electoralDistricts": [
          {
            "election": null,
            "id": 119,
            "name": "Windsor West"
          }
        ],
        "pollDivisionIds": [
          10142788
        ],
        "postalCode": "N9B3X2",
        "streetName": "PARTINGTON",
        "streetDirectionId": null,
        "streetTypeId": "AVE",
        "placeName": "WINDSOR",
        "streetNameDisplayText": "PARTINGTON AVE, WINDSOR"
      }
    ]
  },
  {
    "postal": "N9B2E9",
    "result": [
      {
        "electoralDistricts": [
          {
            "election": null,
            "id": 119,
            "name": "Windsor West"
          }
        ],
        "pollDivisionIds": [
          10142781
        ],
        "postalCode": "N9B2E9",
        "streetName": "MCEWAN",
        "streetDirectionId": null,
        "streetTypeId": "AVE",
        "placeName": "WINDSOR",
        "streetNameDisplayText": "MCEWAN AVE, WINDSOR"
      }
    ]
  },
  {
    "postal": "N9B9P6",
    "result": []
  },
  {
    "postal": "N9B9E2",
    "result": []
  },
  {
    "postal": "N9B9H2",
    "result": []
  },
  {
    "postal": "N9B1S8",
    "result": [
      {
        "electoralDistricts": [
          {
            "election": null,
            "id": 119,
            "name": "Windsor West"
          }
        ],
        "pollDivisionIds": [
          10142783
        ],
        "postalCode": "N9B1S8",
        "streetName": "LEDUC",
        "streetDirectionId": null,
        "streetTypeId": "ST",
        "placeName": "WINDSOR",
        "streetNameDisplayText": "LEDUC ST, WINDSOR"
      }
    ]
  },
  {
    "postal": "N9B3M6",
    "result": []
  },
  {
    "postal": "N9B6Z8",
    "result": []
  },
  {
    "postal": "N9B4J2",
    "result": []
  },
  {
    "postal": "N9B9Y1",
    "result": []
  },
  {
    "postal": "N9B8V6",
    "result": []
  },
  {
    "postal": "N9B6B2",
    "result": []
  },
  {
    "postal": "N9B1P8",
    "result": [
      {
        "electoralDistricts": [
          {
            "election": null,
            "id": 119,
            "name": "Windsor West"
          }
        ],
        "pollDivisionIds": [
          10142778
        ],
        "postalCode": "N9B1P8",
        "streetName": "GROVE",
        "streetDirectionId": null,
        "streetTypeId": "AVE",
        "placeName": "WINDSOR",
        "streetNameDisplayText": "GROVE AVE, WINDSOR"
      }
    ]
  },
  {
    "postal": "N9B0V8",
    "result": []
  },
  {
    "postal": "N9B4Y0",
    "result": []
  },
  {
    "postal": "N9B2T4",
    "result": [
      {
        "electoralDistricts": [
          {
            "election": null,
            "id": 119,
            "name": "Windsor West"
          }
        ],
        "pollDivisionIds": [
          10142780,
          10142779
        ],
        "postalCode": "N9B2T4",
        "streetName": "RANDOLPH",
        "streetDirectionId": null,
        "streetTypeId": "AVE",
        "placeName": "WINDSOR",
        "streetNameDisplayText": "RANDOLPH AVE, WINDSOR"
      }
    ]
  },
  {
    "postal": "N9B2S3",
    "result": [
      {
        "electoralDistricts": [
          {
            "election": null,
            "id": 119,
            "name": "Windsor West"
          }
        ],
        "pollDivisionIds": [
          10142778
        ],
        "postalCode": "N9B2S3",
        "streetName": "RANKIN",
        "streetDirectionId": null,
        "streetTypeId": "AVE",
        "placeName": "WINDSOR",
        "streetNameDisplayText": "RANKIN AVE, WINDSOR"
      }
    ]
  },
  {
    "postal": "N9B0K0",
    "result": []
  },
  {
    "postal": "N9B5N1",
    "result": []
  },
  {
    "postal": "N9B7T0",
    "result": []
  },
  {
    "postal": "N9B9N2",
    "result": []
  },
  {
    "postal": "N9B5L1",
    "result": []
  },
  {
    "postal": "N9B7G5",
    "result": []
  },
  {
    "postal": "N9B6K2",
    "result": []
  },
  {
    "postal": "N9B6P9",
    "result": []
  },
  {
    "postal": "N9B0E6",
    "result": []
  },
  {
    "postal": "N9B8R9",
    "result": []
  },
  {
    "postal": "N9B3G9",
    "result": []
  },
  {
    "postal": "N9B0V7",
    "result": []
  },
  {
    "postal": "N9B2Z1",
    "result": []
  },
  {
    "postal": "N9B7N1",
    "result": []
  },
  {
    "postal": "N9B3C6",
    "result": [
      {
        "electoralDistricts": [
          {
            "election": null,
            "id": 119,
            "name": "Windsor West"
          }
        ],
        "pollDivisionIds": [
          10142778
        ],
        "postalCode": "N9B3C6",
        "streetName": "TILSTON",
        "streetDirectionId": null,
        "streetTypeId": "DR",
        "placeName": "WINDSOR",
        "streetNameDisplayText": "TILSTON DR, WINDSOR"
      }
    ]
  },
  {
    "postal": "N9B4M1",
    "result": []
  },
  {
    "postal": "N9B9K2",
    "result": []
  },
  {
    "postal": "N9B9S6",
    "result": []
  },
  {
    "postal": "N9B4X1",
    "result": []
  },
  {
    "postal": "N9B8W2",
    "result": []
  },
  {
    "postal": "N9B7N2",
    "result": []
  },
  {
    "postal": "N9B8S3",
    "result": []
  },
  {
    "postal": "N9B4V0",
    "result": []
  },
  {
    "postal": "N9B6W4",
    "result": []
  },
  {
    "postal": "N9B5M1",
    "result": []
  },
  {
    "postal": "N9B0S4",
    "result": []
  },
  {
    "postal": "N9B5X6",
    "result": []
  },
  {
    "postal": "N9B8L5",
    "result": []
  },
  {
    "postal": "N9B5M8",
    "result": []
  },
  {
    "postal": "N9B2G3",
    "result": [
      {
        "electoralDistricts": [
          {
            "election": null,
            "id": 119,
            "name": "Windsor West"
          }
        ],
        "pollDivisionIds": [
          10142783
        ],
        "postalCode": "N9B2G3",
        "streetName": "MCEWAN",
        "streetDirectionId": null,
        "streetTypeId": "AVE",
        "placeName": "WINDSOR",
        "streetNameDisplayText": "MCEWAN AVE, WINDSOR"
      }
    ]
  },
  {
    "postal": "N9B8E4",
    "result": []
  },
  {
    "postal": "N9B7S9",
    "result": []
  },
  {
    "postal": "N9B1K3",
    "result": [
      {
        "electoralDistricts": [
          {
            "election": null,
            "id": 119,
            "name": "Windsor West"
          }
        ],
        "pollDivisionIds": [
          10142780
        ],
        "postalCode": "N9B1K3",
        "streetName": "WYANDOTTE",
        "streetDirectionId": "W",
        "streetTypeId": "ST",
        "placeName": "WINDSOR",
        "streetNameDisplayText": "WYANDOTTE ST W, WINDSOR"
      }
    ]
  },
  {
    "postal": "N9B4E1",
    "result": []
  },
  {
    "postal": "N9B4R2",
    "result": []
  },
  {
    "postal": "N9B6T0",
    "result": []
  },
  {
    "postal": "N9B3K5",
    "result": [
      {
        "electoralDistricts": [
          {
            "election": null,
            "id": 119,
            "name": "Windsor West"
          }
        ],
        "pollDivisionIds": [
          10142782
        ],
        "postalCode": "N9B3K5",
        "streetName": "ST PATRICK'S",
        "streetDirectionId": null,
        "streetTypeId": "AVE",
        "placeName": "WINDSOR",
        "streetNameDisplayText": "ST PATRICK'S AVE, WINDSOR"
      }
    ]
  },
  {
    "postal": "N9B3S3",
    "result": [
      {
        "electoralDistricts": [
          {
            "election": null,
            "id": 119,
            "name": "Windsor West"
          }
        ],
        "pollDivisionIds": [
          10142782
        ],
        "postalCode": "N9B3S3",
        "streetName": "ASKIN",
        "streetDirectionId": null,
        "streetTypeId": "AVE",
        "placeName": "WINDSOR",
        "streetNameDisplayText": "ASKIN AVE, WINDSOR"
      }
    ]
  },
  {
    "postal": "N9B3L4",
    "result": [
      {
        "electoralDistricts": [
          {
            "election": null,
            "id": 119,
            "name": "Windsor West"
          }
        ],
        "pollDivisionIds": [
          10142782
        ],
        "postalCode": "N9B3L4",
        "streetName": "BETTS",
        "streetDirectionId": null,
        "streetTypeId": "AVE",
        "placeName": "WINDSOR",
        "streetNameDisplayText": "BETTS AVE, WINDSOR"
      }
    ]
  },
  {
    "postal": "N9B9Y2",
    "result": []
  },
  {
    "postal": "N9B1E0",
    "result": []
  },
  {
    "postal": "N9B9A4",
    "result": []
  },
  {
    "postal": "N9B1L3",
    "result": [
      {
        "electoralDistricts": [
          {
            "election": null,
            "id": 119,
            "name": "Windsor West"
          }
        ],
        "pollDivisionIds": [
          10142780
        ],
        "postalCode": "N9B1L3",
        "streetName": "ROONEY",
        "streetDirectionId": null,
        "streetTypeId": "ST",
        "placeName": "WINDSOR",
        "streetNameDisplayText": "ROONEY ST, WINDSOR"
      }
    ]
  },
  {
    "postal": "N9B6N1",
    "result": []
  },
  {
    "postal": "N9B6G7",
    "result": []
  },
  {
    "postal": "N9B7W1",
    "result": []
  },
  {
    "postal": "N9B4M6",
    "result": []
  },
  {
    "postal": "N9B1K0",
    "result": []
  },
  {
    "postal": "N9B3E2",
    "result": [
      {
        "electoralDistricts": [
          {
            "election": null,
            "id": 119,
            "name": "Windsor West"
          }
        ],
        "pollDivisionIds": [
          10142782
        ],
        "postalCode": "N9B3E2",
        "streetName": "EVERTS",
        "streetDirectionId": null,
        "streetTypeId": "AVE",
        "placeName": "WINDSOR",
        "streetNameDisplayText": "EVERTS AVE, WINDSOR"
      }
    ]
  },
  {
    "postal": "N9B5H4",
    "result": []
  },
  {
    "postal": "N9B1K7",
    "result": [
      {
        "electoralDistricts": [
          {
            "election": null,
            "id": 119,
            "name": "Windsor West"
          }
        ],
        "pollDivisionIds": [
          10142781
        ],
        "postalCode": "N9B1K7",
        "streetName": "ROONEY",
        "streetDirectionId": null,
        "streetTypeId": "ST",
        "placeName": "WINDSOR",
        "streetNameDisplayText": "ROONEY ST, WINDSOR"
      }
    ]
  },
  {
    "postal": "N9B0H0",
    "result": []
  },
  {
    "postal": "N9B0J3",
    "result": []
  },
  {
    "postal": "N9B1X6",
    "result": [
      {
        "electoralDistricts": [
          {
            "election": null,
            "id": 119,
            "name": "Windsor West"
          }
        ],
        "pollDivisionIds": [
          10142784
        ],
        "postalCode": "N9B1X6",
        "streetName": "TOTTEN",
        "streetDirectionId": null,
        "streetTypeId": "ST",
        "placeName": "WINDSOR",
        "streetNameDisplayText": "TOTTEN ST, WINDSOR"
      }
    ]
  },
  {
    "postal": "N9B2Z6",
    "result": [
      {
        "electoralDistricts": [
          {
            "election": null,
            "id": 119,
            "name": "Windsor West"
          }
        ],
        "pollDivisionIds": [
          10142778
        ],
        "postalCode": "N9B2Z6",
        "streetName": "CALIFORNIA",
        "streetDirectionId": null,
        "streetTypeId": "AVE",
        "placeName": "WINDSOR",
        "streetNameDisplayText": "CALIFORNIA AVE, WINDSOR"
      }
    ]
  },
  {
    "postal": "N9B4R9",
    "result": []
  },
  {
    "postal": "N9B0W8",
    "result": []
  },
  {
    "postal": "N9B1L4",
    "result": [
      {
        "electoralDistricts": [
          {
            "election": null,
            "id": 119,
            "name": "Windsor West"
          }
        ],
        "pollDivisionIds": [
          10142780
        ],
        "postalCode": "N9B1L4",
        "streetName": "ROONEY",
        "streetDirectionId": null,
        "streetTypeId": "ST",
        "placeName": "WINDSOR",
        "streetNameDisplayText": "ROONEY ST, WINDSOR"
      }
    ]
  },
  {
    "postal": "N9B0C8",
    "result": []
  },
  {
    "postal": "N9B9X7",
    "result": []
  },
  {
    "postal": "N9B4T1",
    "result": []
  },
  {
    "postal": "N9B0M0",
    "result": []
  },
  {
    "postal": "N9B6A2",
    "result": []
  },
  {
    "postal": "N9B9S8",
    "result": []
  },
  {
    "postal": "N9B9T4",
    "result": []
  },
  {
    "postal": "N9B9Y4",
    "result": []
  },
  {
    "postal": "N9B6G5",
    "result": []
  },
  {
    "postal": "N9B6H9",
    "result": []
  },
  {
    "postal": "N9B2P3",
    "result": [
      {
        "electoralDistricts": [
          {
            "election": null,
            "id": 119,
            "name": "Windsor West"
          }
        ],
        "pollDivisionIds": [
          10142778
        ],
        "postalCode": "N9B2P3",
        "streetName": "PARTINGTON",
        "streetDirectionId": null,
        "streetTypeId": "AVE",
        "placeName": "WINDSOR",
        "streetNameDisplayText": "PARTINGTON AVE, WINDSOR"
      }
    ]
  },
  {
    "postal": "N9B1T6",
    "result": [
      {
        "electoralDistricts": [
          {
            "election": null,
            "id": 119,
            "name": "Windsor West"
          }
        ],
        "pollDivisionIds": [
          10142783
        ],
        "postalCode": "N9B1T6",
        "streetName": "TECUMSEH",
        "streetDirectionId": "W",
        "streetTypeId": "RD",
        "placeName": "WINDSOR",
        "streetNameDisplayText": "TECUMSEH RD W, WINDSOR"
      }
    ]
  },
  {
    "postal": "N9B4P6",
    "result": []
  },
  {
    "postal": "N9B3K1",
    "result": []
  },
  {
    "postal": "N9B6X4",
    "result": []
  },
  {
    "postal": "N9B4M8",
    "result": []
  },
  {
    "postal": "N9B2Y1",
    "result": [
      {
        "electoralDistricts": [
          {
            "election": null,
            "id": 119,
            "name": "Windsor West"
          }
        ],
        "pollDivisionIds": [
          10142778
        ],
        "postalCode": "N9B2Y1",
        "streetName": "ASKIN",
        "streetDirectionId": null,
        "streetTypeId": "AVE",
        "placeName": "WINDSOR",
        "streetNameDisplayText": "ASKIN AVE, WINDSOR"
      }
    ]
  },
  {
    "postal": "N9B6M1",
    "result": []
  },
  {
    "postal": "N9B5L8",
    "result": []
  },
  {
    "postal": "N9B3P6",
    "result": [
      {
        "electoralDistricts": [
          {
            "election": null,
            "id": 119,
            "name": "Windsor West"
          }
        ],
        "pollDivisionIds": [
          10142792
        ],
        "postalCode": "N9B3P6",
        "streetName": "ALEXANDRA",
        "streetDirectionId": null,
        "streetTypeId": "AVE",
        "placeName": "WINDSOR",
        "streetNameDisplayText": "ALEXANDRA AVE, WINDSOR"
      },
      {
        "electoralDistricts": [
          {
            "election": null,
            "id": 119,
            "name": "Windsor West"
          }
        ],
        "pollDivisionIds": [
          10142792
        ],
        "postalCode": "N9B3P6",
        "streetName": "SOUTH CAMERON",
        "streetDirectionId": null,
        "streetTypeId": "BLVD",
        "placeName": "WINDSOR",
        "streetNameDisplayText": "SOUTH CAMERON BLVD, WINDSOR"
      },
      {
        "electoralDistricts": [
          {
            "election": null,
            "id": 119,
            "name": "Windsor West"
          }
        ],
        "pollDivisionIds": [
          10142780
        ],
        "postalCode": "N9B3P6",
        "streetName": "SUNSET",
        "streetDirectionId": null,
        "streetTypeId": "AVE",
        "placeName": "WINDSOR",
        "streetNameDisplayText": "SUNSET AVE, WINDSOR"
      }
    ]
  },
  {
    "postal": "N9B9A5",
    "result": []
  },
  {
    "postal": "N9B7K1",
    "result": []
  },
  {
    "postal": "N9B3J4",
    "result": [
      {
        "electoralDistricts": [
          {
            "election": null,
            "id": 119,
            "name": "Windsor West"
          }
        ],
        "pollDivisionIds": [
          10142792
        ],
        "postalCode": "N9B3J4",
        "streetName": "LONGFELLOW",
        "streetDirectionId": null,
        "streetTypeId": "AVE",
        "placeName": "WINDSOR",
        "streetNameDisplayText": "LONGFELLOW AVE, WINDSOR"
      }
    ]
  },
  {
    "postal": "N9B5E7",
    "result": []
  },
  {
    "postal": "N9B3A7",
    "result": [
      {
        "electoralDistricts": [
          {
            "election": null,
            "id": 119,
            "name": "Windsor West"
          }
        ],
        "pollDivisionIds": [
          10142779
        ],
        "postalCode": "N9B3A7",
        "streetName": "SUNSET",
        "streetDirectionId": null,
        "streetTypeId": "AVE",
        "placeName": "WINDSOR",
        "streetNameDisplayText": "SUNSET AVE, WINDSOR"
      }
    ]
  },
  {
    "postal": "N9B1B9",
    "result": [
      {
        "electoralDistricts": [
          {
            "election": null,
            "id": 119,
            "name": "Windsor West"
          }
        ],
        "pollDivisionIds": [
          10142779
        ],
        "postalCode": "N9B1B9",
        "streetName": "UNIVERSITY",
        "streetDirectionId": "W",
        "streetTypeId": "AVE",
        "placeName": "WINDSOR",
        "streetNameDisplayText": "UNIVERSITY AVE W, WINDSOR"
      }
    ]
  },
  {
    "postal": "N9B9E8",
    "result": []
  },
  {
    "postal": "N9B1C9",
    "result": [
      {
        "electoralDistricts": [
          {
            "election": null,
            "id": 119,
            "name": "Windsor West"
          }
        ],
        "pollDivisionIds": [
          10142780
        ],
        "postalCode": "N9B1C9",
        "streetName": "UNIVERSITY",
        "streetDirectionId": "W",
        "streetTypeId": "AVE",
        "placeName": "WINDSOR",
        "streetNameDisplayText": "UNIVERSITY AVE W, WINDSOR"
      }
    ]
  },
  {
    "postal": "N9B3B5",
    "result": [
      {
        "electoralDistricts": [
          {
            "election": null,
            "id": 119,
            "name": "Windsor West"
          }
        ],
        "pollDivisionIds": [
          10142780
        ],
        "postalCode": "N9B3B5",
        "streetName": "SUNSET",
        "streetDirectionId": null,
        "streetTypeId": "AVE",
        "placeName": "WINDSOR",
        "streetNameDisplayText": "SUNSET AVE, WINDSOR"
      }
    ]
  },
  {
    "postal": "N9B8R0",
    "result": []
  },
  {
    "postal": "N9B3P2",
    "result": [
      {
        "electoralDistricts": [
          {
            "election": null,
            "id": 119,
            "name": "Windsor West"
          }
        ],
        "pollDivisionIds": [
          10142784
        ],
        "postalCode": "N9B3P2",
        "streetName": "MCKAY",
        "streetDirectionId": null,
        "streetTypeId": "AVE",
        "placeName": "WINDSOR",
        "streetNameDisplayText": "MCKAY AVE, WINDSOR"
      }
    ]
  },
  {
    "postal": "N9B5V4",
    "result": []
  },
  {
    "postal": "N9B4H0",
    "result": []
  },
  {
    "postal": "N9B4S7",
    "result": []
  },
  {
    "postal": "N9B6C2",
    "result": []
  },
  {
    "postal": "N9B8W3",
    "result": []
  },
  {
    "postal": "N9B4M5",
    "result": []
  },
  {
    "postal": "N9B5T1",
    "result": []
  },
  {
    "postal": "N9B3B3",
    "result": [
      {
        "electoralDistricts": [
          {
            "election": null,
            "id": 119,
            "name": "Windsor West"
          }
        ],
        "pollDivisionIds": [
          10142780
        ],
        "postalCode": "N9B3B3",
        "streetName": "SUNSET",
        "streetDirectionId": null,
        "streetTypeId": "AVE",
        "placeName": "WINDSOR",
        "streetNameDisplayText": "SUNSET AVE, WINDSOR"
      }
    ]
  },
  {
    "postal": "N9B6C6",
    "result": []
  },
  {
    "postal": "N9B7N8",
    "result": []
  },
  {
    "postal": "N9B2Y3",
    "result": [
      {
        "electoralDistricts": [
          {
            "election": null,
            "id": 119,
            "name": "Windsor West"
          }
        ],
        "pollDivisionIds": [
          10142778
        ],
        "postalCode": "N9B2Y3",
        "streetName": "ASKIN",
        "streetDirectionId": null,
        "streetTypeId": "AVE",
        "placeName": "WINDSOR",
        "streetNameDisplayText": "ASKIN AVE, WINDSOR"
      }
    ]
  },
  {
    "postal": "N9B2R6",
    "result": [
      {
        "electoralDistricts": [
          {
            "election": null,
            "id": 119,
            "name": "Windsor West"
          }
        ],
        "pollDivisionIds": [
          10142780
        ],
        "postalCode": "N9B2R6",
        "streetName": "RANKIN",
        "streetDirectionId": null,
        "streetTypeId": "AVE",
        "placeName": "WINDSOR",
        "streetNameDisplayText": "RANKIN AVE, WINDSOR"
      }
    ]
  },
  {
    "postal": "N9B7N3",
    "result": []
  },
  {
    "postal": "N9B8J2",
    "result": []
  },
  {
    "postal": "N9B6A9",
    "result": []
  },
  {
    "postal": "N9B3V2",
    "result": [
      {
        "electoralDistricts": [
          {
            "election": null,
            "id": 119,
            "name": "Windsor West"
          }
        ],
        "pollDivisionIds": [
          10142782
        ],
        "postalCode": "N9B3V2",
        "streetName": "RANKIN",
        "streetDirectionId": null,
        "streetTypeId": "AVE",
        "placeName": "WINDSOR",
        "streetNameDisplayText": "RANKIN AVE, WINDSOR"
      }
    ]
  },
  {
    "postal": "N9B2N3",
    "result": [
      {
        "electoralDistricts": [
          {
            "election": null,
            "id": 119,
            "name": "Windsor West"
          }
        ],
        "pollDivisionIds": [
          10142783
        ],
        "postalCode": "N9B2N3",
        "streetName": "BRIDGE",
        "streetDirectionId": null,
        "streetTypeId": "AVE",
        "placeName": "WINDSOR",
        "streetNameDisplayText": "BRIDGE AVE, WINDSOR"
      }
    ]
  },
  {
    "postal": "N9B1S5",
    "result": [
      {
        "electoralDistricts": [
          {
            "election": null,
            "id": 119,
            "name": "Windsor West"
          }
        ],
        "pollDivisionIds": [
          10142783
        ],
        "postalCode": "N9B1S5",
        "streetName": "PELLETIER",
        "streetDirectionId": null,
        "streetTypeId": "ST",
        "placeName": "WINDSOR",
        "streetNameDisplayText": "PELLETIER ST, WINDSOR"
      }
    ]
  },
  {
    "postal": "N9B4T7",
    "result": []
  },
  {
    "postal": "N9B6Y7",
    "result": []
  },
  {
    "postal": "N9B0W7",
    "result": []
  },
  {
    "postal": "N9B2W9",
    "result": [
      {
        "electoralDistricts": [
          {
            "election": null,
            "id": 119,
            "name": "Windsor West"
          }
        ],
        "pollDivisionIds": [
          10142779
        ],
        "postalCode": "N9B2W9",
        "streetName": "ASKIN",
        "streetDirectionId": null,
        "streetTypeId": "AVE",
        "placeName": "WINDSOR",
        "streetNameDisplayText": "ASKIN AVE, WINDSOR"
      }
    ]
  },
  {
    "postal": "N9B8V0",
    "result": []
  },
  {
    "postal": "N9B0H4",
    "result": []
  },
  {
    "postal": "N9B2T1",
    "result": []
  },
  {
    "postal": "N9B1B1",
    "result": [
      {
        "electoralDistricts": [
          {
            "election": null,
            "id": 119,
            "name": "Windsor West"
          }
        ],
        "pollDivisionIds": [
          10142779
        ],
        "postalCode": "N9B1B1",
        "streetName": "RIVERSIDE",
        "streetDirectionId": "W",
        "streetTypeId": "DR",
        "placeName": "WINDSOR",
        "streetNameDisplayText": "RIVERSIDE DR W, WINDSOR"
      }
    ]
  },
  {
    "postal": "N9B8B6",
    "result": []
  },
  {
    "postal": "N9B6H1",
    "result": []
  },
  {
    "postal": "N9B8T8",
    "result": []
  },
  {
    "postal": "N9B0T4",
    "result": []
  },
  {
    "postal": "N9B2C4",
    "result": [
      {
        "electoralDistricts": [
          {
            "election": null,
            "id": 119,
            "name": "Windsor West"
          }
        ],
        "pollDivisionIds": [
          10142783
        ],
        "postalCode": "N9B2C4",
        "streetName": "CURRY",
        "streetDirectionId": null,
        "streetTypeId": "AVE",
        "placeName": "WINDSOR",
        "streetNameDisplayText": "CURRY AVE, WINDSOR"
      }
    ]
  },
  {
    "postal": "N9B8N3",
    "result": []
  },
  {
    "postal": "N9B4L8",
    "result": []
  },
  {
    "postal": "N9B2B5",
    "result": [
      {
        "electoralDistricts": [
          {
            "election": null,
            "id": 119,
            "name": "Windsor West"
          }
        ],
        "pollDivisionIds": [
          10142779
        ],
        "postalCode": "N9B2B5",
        "streetName": "CURRY",
        "streetDirectionId": null,
        "streetTypeId": "AVE",
        "placeName": "WINDSOR",
        "streetNameDisplayText": "CURRY AVE, WINDSOR"
      }
    ]
  },
  {
    "postal": "N9B3H1",
    "result": []
  },
  {
    "postal": "N9B4Y1",
    "result": []
  },
  {
    "postal": "N9B7E2",
    "result": []
  },
  {
    "postal": "N9B2P5",
    "result": [
      {
        "electoralDistricts": [
          {
            "election": null,
            "id": 119,
            "name": "Windsor West"
          }
        ],
        "pollDivisionIds": [
          10142778
        ],
        "postalCode": "N9B2P5",
        "streetName": "PARTINGTON",
        "streetDirectionId": null,
        "streetTypeId": "AVE",
        "placeName": "WINDSOR",
        "streetNameDisplayText": "PARTINGTON AVE, WINDSOR"
      }
    ]
  },
  {
    "postal": "N9B8R7",
    "result": []
  },
  {
    "postal": "N9B9P1",
    "result": []
  },
  {
    "postal": "N9B3B8",
    "result": [
      {
        "electoralDistricts": [
          {
            "election": null,
            "id": 119,
            "name": "Windsor West"
          }
        ],
        "pollDivisionIds": [
          10142779
        ],
        "postalCode": "N9B3B8",
        "streetName": "PATRICIA",
        "streetDirectionId": null,
        "streetTypeId": "RD",
        "placeName": "WINDSOR",
        "streetNameDisplayText": "PATRICIA RD, WINDSOR"
      }
    ]
  },
  {
    "postal": "N9B3P7",
    "result": [
      {
        "electoralDistricts": [
          {
            "election": null,
            "id": 119,
            "name": "Windsor West"
          }
        ],
        "pollDivisionIds": [
          10142781
        ],
        "postalCode": "N9B3P7",
        "streetName": "WYANDOTTE",
        "streetDirectionId": "W",
        "streetTypeId": "ST",
        "placeName": "WINDSOR",
        "streetNameDisplayText": "WYANDOTTE ST W, WINDSOR"
      }
    ]
  },
  {
    "postal": "N9B9B2",
    "result": []
  },
  {
    "postal": "N9B6Z3",
    "result": []
  },
  {
    "postal": "N9B4N5",
    "result": []
  },
  {
    "postal": "N9B8T3",
    "result": []
  },
  {
    "postal": "N9B1V2",
    "result": [
      {
        "electoralDistricts": [
          {
            "election": null,
            "id": 119,
            "name": "Windsor West"
          }
        ],
        "pollDivisionIds": [
          10142783
        ],
        "postalCode": "N9B1V2",
        "streetName": "TECUMSEH",
        "streetDirectionId": "W",
        "streetTypeId": "RD",
        "placeName": "WINDSOR",
        "streetNameDisplayText": "TECUMSEH RD W, WINDSOR"
      }
    ]
  },
  {
    "postal": "N9B1Y0",
    "result": []
  },
  {
    "postal": "N9B3G6",
    "result": [
      {
        "electoralDistricts": [
          {
            "election": null,
            "id": 119,
            "name": "Windsor West"
          }
        ],
        "pollDivisionIds": [
          10142782
        ],
        "postalCode": "N9B3G6",
        "streetName": "MARK",
        "streetDirectionId": null,
        "streetTypeId": "AVE",
        "placeName": "WINDSOR",
        "streetNameDisplayText": "MARK AVE, WINDSOR"
      }
    ]
  },
  {
    "postal": "N9B3H7",
    "result": [
      {
        "electoralDistricts": [
          {
            "election": null,
            "id": 119,
            "name": "Windsor West"
          }
        ],
        "pollDivisionIds": [
          10142792
        ],
        "postalCode": "N9B3H7",
        "streetName": "DOMINION",
        "streetDirectionId": null,
        "streetTypeId": "BLVD",
        "placeName": "WINDSOR",
        "streetNameDisplayText": "DOMINION BLVD, WINDSOR"
      }
    ]
  },
  {
    "postal": "N9B7X8",
    "result": []
  },
  {
    "postal": "N9B0C7",
    "result": []
  },
  {
    "postal": "N9B0W9",
    "result": []
  },
  {
    "postal": "N9B8E6",
    "result": []
  },
  {
    "postal": "N9B9Z8",
    "result": []
  },
  {
    "postal": "N9B3P4",
    "result": [
      {
        "electoralDistricts": [
          {
            "election": null,
            "id": 119,
            "name": "Windsor West"
          }
        ],
        "pollDivisionIds": [
          10142779
        ],
        "postalCode": "N9B3P4",
        "streetName": "PATRICIA",
        "streetDirectionId": null,
        "streetTypeId": "RD",
        "placeName": "WINDSOR",
        "streetNameDisplayText": "PATRICIA RD, WINDSOR"
      },
      {
        "electoralDistricts": [
          {
            "election": null,
            "id": 119,
            "name": "Windsor West"
          }
        ],
        "pollDivisionIds": [
          10142779,
          10142776,
          10142780
        ],
        "postalCode": "N9B3P4",
        "streetName": "SUNSET",
        "streetDirectionId": null,
        "streetTypeId": "AVE",
        "placeName": "WINDSOR",
        "streetNameDisplayText": "SUNSET AVE, WINDSOR"
      }
    ]
  },
  {
    "postal": "N9B6L8",
    "result": []
  },
  {
    "postal": "N9B2R4",
    "result": [
      {
        "electoralDistricts": [
          {
            "election": null,
            "id": 119,
            "name": "Windsor West"
          }
        ],
        "pollDivisionIds": [
          10142779
        ],
        "postalCode": "N9B2R4",
        "streetName": "RANKIN",
        "streetDirectionId": null,
        "streetTypeId": "AVE",
        "placeName": "WINDSOR",
        "streetNameDisplayText": "RANKIN AVE, WINDSOR"
      }
    ]
  },
  {
    "postal": "N9B2W1",
    "result": [
      {
        "electoralDistricts": [
          {
            "election": null,
            "id": 119,
            "name": "Windsor West"
          }
        ],
        "pollDivisionIds": [
          10142784
        ],
        "postalCode": "N9B2W1",
        "streetName": "RANDOLPH",
        "streetDirectionId": null,
        "streetTypeId": "AVE",
        "placeName": "WINDSOR",
        "streetNameDisplayText": "RANDOLPH AVE, WINDSOR"
      }
    ]
  },
  {
    "postal": "N9B9H8",
    "result": []
  },
  {
    "postal": "N9B8X9",
    "result": []
  },
  {
    "postal": "N9B7H4",
    "result": []
  },
  {
    "postal": "N9B3J1",
    "result": [
      {
        "electoralDistricts": [
          {
            "election": null,
            "id": 119,
            "name": "Windsor West"
          }
        ],
        "pollDivisionIds": [
          10142788,
          10142792
        ],
        "postalCode": "N9B3J1",
        "streetName": "DOMINION",
        "streetDirectionId": null,
        "streetTypeId": "BLVD",
        "placeName": "WINDSOR",
        "streetNameDisplayText": "DOMINION BLVD, WINDSOR"
      }
    ]
  },
  {
    "postal": "N9B1P4",
    "result": [
      {
        "electoralDistricts": [
          {
            "election": null,
            "id": 119,
            "name": "Windsor West"
          }
        ],
        "pollDivisionIds": [
          10142783
        ],
        "postalCode": "N9B1P4",
        "streetName": "GROVE",
        "streetDirectionId": null,
        "streetTypeId": "AVE",
        "placeName": "WINDSOR",
        "streetNameDisplayText": "GROVE AVE, WINDSOR"
      }
    ]
  },
  {
    "postal": "N9B2A3",
    "result": [
      {
        "electoralDistricts": [
          {
            "election": null,
            "id": 119,
            "name": "Windsor West"
          }
        ],
        "pollDivisionIds": [
          10142783
        ],
        "postalCode": "N9B2A3",
        "streetName": "MCKAY",
        "streetDirectionId": null,
        "streetTypeId": "AVE",
        "placeName": "WINDSOR",
        "streetNameDisplayText": "MCKAY AVE, WINDSOR"
      }
    ]
  },
  {
    "postal": "N9B0Z1",
    "result": []
  },
  {
    "postal": "N9B1C1",
    "result": [
      {
        "electoralDistricts": [
          {
            "election": null,
            "id": 119,
            "name": "Windsor West"
          }
        ],
        "pollDivisionIds": [
          10142781
        ],
        "postalCode": "N9B1C1",
        "streetName": "UNIVERSITY",
        "streetDirectionId": "W",
        "streetTypeId": "AVE",
        "placeName": "WINDSOR",
        "streetNameDisplayText": "UNIVERSITY AVE W, WINDSOR"
      }
    ]
  },
  {
    "postal": "N9B0H3",
    "result": []
  },
  {
    "postal": "N9B7B0",
    "result": []
  },
  {
    "postal": "N9B5K2",
    "result": []
  },
  {
    "postal": "N9B1E9",
    "result": [
      {
        "electoralDistricts": [
          {
            "election": null,
            "id": 119,
            "name": "Windsor West"
          }
        ],
        "pollDivisionIds": [
          10142779
        ],
        "postalCode": "N9B1E9",
        "streetName": "UNIVERSITY",
        "streetDirectionId": "W",
        "streetTypeId": "AVE",
        "placeName": "WINDSOR",
        "streetNameDisplayText": "UNIVERSITY AVE W, WINDSOR"
      }
    ]
  },
  {
    "postal": "N9B9W7",
    "result": []
  },
  {
    "postal": "N9B5W6",
    "result": []
  },
  {
    "postal": "N9B6S6",
    "result": []
  },
  {
    "postal": "N9B2P8",
    "result": [
      {
        "electoralDistricts": [
          {
            "election": null,
            "id": 119,
            "name": "Windsor West"
          }
        ],
        "pollDivisionIds": [
          10142782
        ],
        "postalCode": "N9B2P8",
        "streetName": "PARTINGTON",
        "streetDirectionId": null,
        "streetTypeId": "AVE",
        "placeName": "WINDSOR",
        "streetNameDisplayText": "PARTINGTON AVE, WINDSOR"
      }
    ]
  },
  {
    "postal": "N9B4P8",
    "result": []
  },
  {
    "postal": "N9B0V9",
    "result": []
  },
  {
    "postal": "N9B5Y2",
    "result": []
  },
  {
    "postal": "N9B7Z7",
    "result": []
  },
  {
    "postal": "N9B6Y8",
    "result": []
  },
  {
    "postal": "N9B2G7",
    "result": [
      {
        "electoralDistricts": [
          {
            "election": null,
            "id": 119,
            "name": "Windsor West"
          }
        ],
        "pollDivisionIds": [
          10142783
        ],
        "postalCode": "N9B2G7",
        "streetName": "MCEWAN",
        "streetDirectionId": null,
        "streetTypeId": "AVE",
        "placeName": "WINDSOR",
        "streetNameDisplayText": "MCEWAN AVE, WINDSOR"
      }
    ]
  },
  {
    "postal": "N9B8C1",
    "result": []
  },
  {
    "postal": "N9B5C5",
    "result": []
  },
  {
    "postal": "N9B2X8",
    "result": [
      {
        "electoralDistricts": [
          {
            "election": null,
            "id": 119,
            "name": "Windsor West"
          }
        ],
        "pollDivisionIds": [
          10142778
        ],
        "postalCode": "N9B2X8",
        "streetName": "ASKIN",
        "streetDirectionId": null,
        "streetTypeId": "AVE",
        "placeName": "WINDSOR",
        "streetNameDisplayText": "ASKIN AVE, WINDSOR"
      }
    ]
  },
  {
    "postal": "N9B1W5",
    "result": []
  },
  {
    "postal": "N9B7G0",
    "result": []
  },
  {
    "postal": "N9B8J8",
    "result": []
  },
  {
    "postal": "N9B3Y0",
    "result": []
  },
  {
    "postal": "N9B9T7",
    "result": []
  },
  {
    "postal": "N9B5P4",
    "result": []
  },
  {
    "postal": "N9B4B0",
    "result": []
  },
  {
    "postal": "N9B9N8",
    "result": []
  },
  {
    "postal": "N9B4A7",
    "result": []
  },
  {
    "postal": "N9B4H9",
    "result": []
  },
  {
    "postal": "N9B6X1",
    "result": []
  },
  {
    "postal": "N9B9Y7",
    "result": []
  },
  {
    "postal": "N9B2Y5",
    "result": [
      {
        "electoralDistricts": [
          {
            "election": null,
            "id": 119,
            "name": "Windsor West"
          }
        ],
        "pollDivisionIds": [
          10142779
        ],
        "postalCode": "N9B2Y5",
        "streetName": "CALIFORNIA",
        "streetDirectionId": null,
        "streetTypeId": "AVE",
        "placeName": "WINDSOR",
        "streetNameDisplayText": "CALIFORNIA AVE, WINDSOR"
      }
    ]
  },
  {
    "postal": "N9B8L7",
    "result": []
  },
  {
    "postal": "N9B2A8",
    "result": [
      {
        "electoralDistricts": [
          {
            "election": null,
            "id": 119,
            "name": "Windsor West"
          }
        ],
        "pollDivisionIds": [
          10142783
        ],
        "postalCode": "N9B2A8",
        "streetName": "MCKAY",
        "streetDirectionId": null,
        "streetTypeId": "AVE",
        "placeName": "WINDSOR",
        "streetNameDisplayText": "MCKAY AVE, WINDSOR"
      }
    ]
  },
  {
    "postal": "N9B2K9",
    "result": [
      {
        "electoralDistricts": [
          {
            "election": null,
            "id": 119,
            "name": "Windsor West"
          }
        ],
        "pollDivisionIds": [
          10142780
        ],
        "postalCode": "N9B2K9",
        "streetName": "JOSEPHINE",
        "streetDirectionId": null,
        "streetTypeId": "AVE",
        "placeName": "WINDSOR",
        "streetNameDisplayText": "JOSEPHINE AVE, WINDSOR"
      }
    ]
  },
  {
    "postal": "N9B3E5",
    "result": [
      {
        "electoralDistricts": [
          {
            "election": null,
            "id": 119,
            "name": "Windsor West"
          }
        ],
        "pollDivisionIds": [
          10142782
        ],
        "postalCode": "N9B3E5",
        "streetName": "EVERTS",
        "streetDirectionId": null,
        "streetTypeId": "AVE",
        "placeName": "WINDSOR",
        "streetNameDisplayText": "EVERTS AVE, WINDSOR"
      }
    ]
  },
  {
    "postal": "N9B8N6",
    "result": []
  },
  {
    "postal": "N9B8J4",
    "result": []
  },
  {
    "postal": "N9B4R7",
    "result": []
  },
  {
    "postal": "N9B9K1",
    "result": []
  },
  {
    "postal": "N9B8E1",
    "result": []
  },
  {
    "postal": "N9B0R1",
    "result": []
  },
  {
    "postal": "N9B4J3",
    "result": []
  },
  {
    "postal": "N9B7E7",
    "result": []
  },
  {
    "postal": "N9B0J0",
    "result": []
  },
  {
    "postal": "N9B7R8",
    "result": []
  },
  {
    "postal": "N9B9X0",
    "result": []
  },
  {
    "postal": "N9B7P6",
    "result": []
  },
  {
    "postal": "N9B0R7",
    "result": []
  },
  {
    "postal": "N9B5W1",
    "result": []
  },
  {
    "postal": "N9B0K4",
    "result": []
  },
  {
    "postal": "N9B7N9",
    "result": []
  },
  {
    "postal": "N9B1N0",
    "result": []
  },
  {
    "postal": "N9B6P3",
    "result": []
  },
  {
    "postal": "N9B5A1",
    "result": []
  },
  {
    "postal": "N9B9M9",
    "result": []
  },
  {
    "postal": "N9B7T6",
    "result": []
  },
  {
    "postal": "N9B3X0",
    "result": []
  },
  {
    "postal": "N9B2T0",
    "result": []
  },
  {
    "postal": "N9B5X9",
    "result": []
  },
  {
    "postal": "N9B2R3",
    "result": [
      {
        "electoralDistricts": [
          {
            "election": null,
            "id": 119,
            "name": "Windsor West"
          }
        ],
        "pollDivisionIds": [
          10142784
        ],
        "postalCode": "N9B2R3",
        "streetName": "PARTINGTON",
        "streetDirectionId": null,
        "streetTypeId": "AVE",
        "placeName": "WINDSOR",
        "streetNameDisplayText": "PARTINGTON AVE, WINDSOR"
      }
    ]
  },
  {
    "postal": "N9B5N2",
    "result": []
  },
  {
    "postal": "N9B4Y7",
    "result": []
  },
  {
    "postal": "N9B7M0",
    "result": []
  },
  {
    "postal": "N9B8P3",
    "result": []
  },
  {
    "postal": "N9B3N3",
    "result": [
      {
        "electoralDistricts": [
          {
            "election": null,
            "id": 119,
            "name": "Windsor West"
          }
        ],
        "pollDivisionIds": [
          10142784
        ],
        "postalCode": "N9B3N3",
        "streetName": "TOTTEN",
        "streetDirectionId": null,
        "streetTypeId": "ST",
        "placeName": "WINDSOR",
        "streetNameDisplayText": "TOTTEN ST, WINDSOR"
      }
    ]
  },
  {
    "postal": "N9B7S3",
    "result": []
  },
  {
    "postal": "N9B3V9",
    "result": [
      {
        "electoralDistricts": [
          {
            "election": null,
            "id": 119,
            "name": "Windsor West"
          }
        ],
        "pollDivisionIds": [
          10142788
        ],
        "postalCode": "N9B3V9",
        "streetName": "RANDOLPH",
        "streetDirectionId": null,
        "streetTypeId": "AVE",
        "placeName": "WINDSOR",
        "streetNameDisplayText": "RANDOLPH AVE, WINDSOR"
      },
      {
        "electoralDistricts": [
          {
            "election": null,
            "id": 119,
            "name": "Windsor West"
          }
        ],
        "pollDivisionIds": [
          10142788
        ],
        "postalCode": "N9B3V9",
        "streetName": "RANKIN",
        "streetDirectionId": null,
        "streetTypeId": "AVE",
        "placeName": "WINDSOR",
        "streetNameDisplayText": "RANKIN AVE, WINDSOR"
      }
    ]
  },
  {
    "postal": "N9B9N7",
    "result": []
  },
  {
    "postal": "N9B0G4",
    "result": []
  },
  {
    "postal": "N9B2E2",
    "result": [
      {
        "electoralDistricts": [
          {
            "election": null,
            "id": 119,
            "name": "Windsor West"
          }
        ],
        "pollDivisionIds": [
          10142783
        ],
        "postalCode": "N9B2E2",
        "streetName": "CURRY",
        "streetDirectionId": null,
        "streetTypeId": "AVE",
        "placeName": "WINDSOR",
        "streetNameDisplayText": "CURRY AVE, WINDSOR"
      }
    ]
  },
  {
    "postal": "N9B7W8",
    "result": []
  },
  {
    "postal": "N9B7M5",
    "result": []
  },
  {
    "postal": "N9B5W8",
    "result": []
  },
  {
    "postal": "N9B5E5",
    "result": []
  },
  {
    "postal": "N9B1P9",
    "result": [
      {
        "electoralDistricts": [
          {
            "election": null,
            "id": 119,
            "name": "Windsor West"
          }
        ],
        "pollDivisionIds": [
          10142778
        ],
        "postalCode": "N9B1P9",
        "streetName": "GROVE",
        "streetDirectionId": null,
        "streetTypeId": "AVE",
        "placeName": "WINDSOR",
        "streetNameDisplayText": "GROVE AVE, WINDSOR"
      }
    ]
  },
  {
    "postal": "N9B8V8",
    "result": []
  },
  {
    "postal": "N9B9G8",
    "result": []
  },
  {
    "postal": "N9B8H9",
    "result": []
  },
  {
    "postal": "N9B1Z1",
    "result": [
      {
        "electoralDistricts": [
          {
            "election": null,
            "id": 119,
            "name": "Windsor West"
          }
        ],
        "pollDivisionIds": [
          10142781
        ],
        "postalCode": "N9B1Z1",
        "streetName": "CAMERON",
        "streetDirectionId": null,
        "streetTypeId": "AVE",
        "placeName": "WINDSOR",
        "streetNameDisplayText": "CAMERON AVE, WINDSOR"
      }
    ]
  },
  {
    "postal": "N9B8M3",
    "result": []
  },
  {
    "postal": "N9B5H6",
    "result": []
  },
  {
    "postal": "N9B7W7",
    "result": []
  },
  {
    "postal": "N9B4L0",
    "result": []
  },
  {
    "postal": "N9B2N1",
    "result": [
      {
        "electoralDistricts": [
          {
            "election": null,
            "id": 119,
            "name": "Windsor West"
          }
        ],
        "pollDivisionIds": [
          10142783
        ],
        "postalCode": "N9B2N1",
        "streetName": "BRIDGE",
        "streetDirectionId": null,
        "streetTypeId": "AVE",
        "placeName": "WINDSOR",
        "streetNameDisplayText": "BRIDGE AVE, WINDSOR"
      }
    ]
  },
  {
    "postal": "N9B2H4",
    "result": [
      {
        "electoralDistricts": [
          {
            "election": null,
            "id": 119,
            "name": "Windsor West"
          }
        ],
        "pollDivisionIds": [
          10142781
        ],
        "postalCode": "N9B2H4",
        "streetName": "CAMPBELL",
        "streetDirectionId": null,
        "streetTypeId": "AVE",
        "placeName": "WINDSOR",
        "streetNameDisplayText": "CAMPBELL AVE, WINDSOR"
      }
    ]
  },
  {
    "postal": "N9B5C8",
    "result": []
  },
  {
    "postal": "N9B8B0",
    "result": []
  },
  {
    "postal": "N9B1T4",
    "result": [
      {
        "electoralDistricts": [
          {
            "election": null,
            "id": 119,
            "name": "Windsor West"
          }
        ],
        "pollDivisionIds": [
          10142783
        ],
        "postalCode": "N9B1T4",
        "streetName": "TECUMSEH",
        "streetDirectionId": "W",
        "streetTypeId": "BLVD",
        "placeName": "WINDSOR",
        "streetNameDisplayText": "TECUMSEH BLVD W, WINDSOR"
      },
      {
        "electoralDistricts": [
          {
            "election": null,
            "id": 119,
            "name": "Windsor West"
          }
        ],
        "pollDivisionIds": [
          10142783
        ],
        "postalCode": "N9B1T4",
        "streetName": "TECUMSEH",
        "streetDirectionId": "W",
        "streetTypeId": "RD",
        "placeName": "WINDSOR",
        "streetNameDisplayText": "TECUMSEH RD W, WINDSOR"
      }
    ]
  },
  {
    "postal": "N9B7N7",
    "result": []
  },
  {
    "postal": "N9B4L3",
    "result": []
  },
  {
    "postal": "N9B2N2",
    "result": [
      {
        "electoralDistricts": [
          {
            "election": null,
            "id": 119,
            "name": "Windsor West"
          }
        ],
        "pollDivisionIds": [
          10142783
        ],
        "postalCode": "N9B2N2",
        "streetName": "BRIDGE",
        "streetDirectionId": null,
        "streetTypeId": "AVE",
        "placeName": "WINDSOR",
        "streetNameDisplayText": "BRIDGE AVE, WINDSOR"
      }
    ]
  },
  {
    "postal": "N9B4N8",
    "result": []
  },
  {
    "postal": "N9B3M5",
    "result": []
  },
  {
    "postal": "N9B6H7",
    "result": []
  },
  {
    "postal": "N9B8Y8",
    "result": []
  },
  {
    "postal": "N9B5R9",
    "result": []
  },
  {
    "postal": "N9B8G3",
    "result": []
  },
  {
    "postal": "N9B4N7",
    "result": []
  },
  {
    "postal": "N9B0B9",
    "result": [
      {
        "electoralDistricts": [
          {
            "election": null,
            "id": 119,
            "name": "Windsor West"
          }
        ],
        "pollDivisionIds": [
          10142784
        ],
        "postalCode": "N9B0B9",
        "streetName": "EVERTS",
        "streetDirectionId": null,
        "streetTypeId": "AVE",
        "placeName": "WINDSOR",
        "streetNameDisplayText": "EVERTS AVE, WINDSOR"
      },
      {
        "electoralDistricts": [
          {
            "election": null,
            "id": 119,
            "name": "Windsor West"
          }
        ],
        "pollDivisionIds": [
          10142784
        ],
        "postalCode": "N9B0B9",
        "streetName": "MANITOBA",
        "streetDirectionId": null,
        "streetTypeId": "ST",
        "placeName": "WINDSOR",
        "streetNameDisplayText": "MANITOBA ST, WINDSOR"
      },
      {
        "electoralDistricts": [
          {
            "election": null,
            "id": 119,
            "name": "Windsor West"
          }
        ],
        "pollDivisionIds": [
          10142784
        ],
        "postalCode": "N9B0B9",
        "streetName": "MARK",
        "streetDirectionId": null,
        "streetTypeId": "AVE",
        "placeName": "WINDSOR",
        "streetNameDisplayText": "MARK AVE, WINDSOR"
      }
    ]
  },
  {
    "postal": "N9B9K7",
    "result": []
  },
  {
    "postal": "N9B9K9",
    "result": []
  },
  {
    "postal": "N9B3Z2",
    "result": []
  },
  {
    "postal": "N9B6W7",
    "result": []
  },
  {
    "postal": "N9B0P1",
    "result": []
  },
  {
    "postal": "N9B3A0",
    "result": []
  },
  {
    "postal": "N9B8L9",
    "result": []
  },
  {
    "postal": "N9B6X0",
    "result": []
  },
  {
    "postal": "N9B3E9",
    "result": []
  },
  {
    "postal": "N9B0S5",
    "result": []
  },
  {
    "postal": "N9B1A2",
    "result": [
      {
        "electoralDistricts": [
          {
            "election": null,
            "id": 119,
            "name": "Windsor West"
          }
        ],
        "pollDivisionIds": [
          10142779
        ],
        "postalCode": "N9B1A2",
        "streetName": "RIVERSIDE",
        "streetDirectionId": "W",
        "streetTypeId": "DR",
        "placeName": "WINDSOR",
        "streetNameDisplayText": "RIVERSIDE DR W, WINDSOR"
      }
    ]
  },
  {
    "postal": "N9B5V8",
    "result": []
  },
  {
    "postal": "N9B8C5",
    "result": []
  },
  {
    "postal": "N9B6N0",
    "result": []
  },
  {
    "postal": "N9B9E6",
    "result": []
  },
  {
    "postal": "N9B5J7",
    "result": []
  },
  {
    "postal": "N9B2R2",
    "result": [
      {
        "electoralDistricts": [
          {
            "election": null,
            "id": 119,
            "name": "Windsor West"
          }
        ],
        "pollDivisionIds": [
          10142784
        ],
        "postalCode": "N9B2R2",
        "streetName": "PARTINGTON",
        "streetDirectionId": null,
        "streetTypeId": "AVE",
        "placeName": "WINDSOR",
        "streetNameDisplayText": "PARTINGTON AVE, WINDSOR"
      }
    ]
  },
  {
    "postal": "N9B0P5",
    "result": []
  },
  {
    "postal": "N9B5A7",
    "result": []
  },
  {
    "postal": "N9B1G1",
    "result": []
  },
  {
    "postal": "N9B9R6",
    "result": []
  },
  {
    "postal": "N9B4Z9",
    "result": []
  },
  {
    "postal": "N9B1V5",
    "result": []
  },
  {
    "postal": "N9B9Y5",
    "result": []
  },
  {
    "postal": "N9B1P2",
    "result": [
      {
        "electoralDistricts": [
          {
            "election": null,
            "id": 119,
            "name": "Windsor West"
          }
        ],
        "pollDivisionIds": [
          10142783
        ],
        "postalCode": "N9B1P2",
        "streetName": "GROVE",
        "streetDirectionId": null,
        "streetTypeId": "AVE",
        "placeName": "WINDSOR",
        "streetNameDisplayText": "GROVE AVE, WINDSOR"
      }
    ]
  },
  {
    "postal": "N9B5X0",
    "result": []
  },
  {
    "postal": "N9B7B8",
    "result": []
  },
  {
    "postal": "N9B0C6",
    "result": []
  },
  {
    "postal": "N9B6G1",
    "result": []
  },
  {
    "postal": "N9B3K3",
    "result": [
      {
        "electoralDistricts": [
          {
            "election": null,
            "id": 119,
            "name": "Windsor West"
          }
        ],
        "pollDivisionIds": [
          10142782
        ],
        "postalCode": "N9B3K3",
        "streetName": "ST PATRICK'S",
        "streetDirectionId": null,
        "streetTypeId": "AVE",
        "placeName": "WINDSOR",
        "streetNameDisplayText": "ST PATRICK'S AVE, WINDSOR"
      }
    ]
  },
  {
    "postal": "N9B9R0",
    "result": []
  },
  {
    "postal": "N9B4R8",
    "result": []
  },
  {
    "postal": "N9B5P9",
    "result": []
  },
  {
    "postal": "N9B8N4",
    "result": []
  },
  {
    "postal": "N9B8H4",
    "result": []
  },
  {
    "postal": "N9B4V1",
    "result": []
  },
  {
    "postal": "N9B1K5",
    "result": []
  },
  {
    "postal": "N9B1Z5",
    "result": [
      {
        "electoralDistricts": [
          {
            "election": null,
            "id": 119,
            "name": "Windsor West"
          }
        ],
        "pollDivisionIds": [
          10142781
        ],
        "postalCode": "N9B1Z5",
        "streetName": "MCKAY",
        "streetDirectionId": null,
        "streetTypeId": "AVE",
        "placeName": "WINDSOR",
        "streetNameDisplayText": "MCKAY AVE, WINDSOR"
      }
    ]
  },
  {
    "postal": "N9B9L9",
    "result": []
  },
  {
    "postal": "N9B5L2",
    "result": []
  },
  {
    "postal": "N9B0M2",
    "result": []
  },
  {
    "postal": "N9B1K8",
    "result": [
      {
        "electoralDistricts": [
          {
            "election": null,
            "id": 119,
            "name": "Windsor West"
          }
        ],
        "pollDivisionIds": [
          10142781
        ],
        "postalCode": "N9B1K8",
        "streetName": "ROONEY",
        "streetDirectionId": null,
        "streetTypeId": "ST",
        "placeName": "WINDSOR",
        "streetNameDisplayText": "ROONEY ST, WINDSOR"
      }
    ]
  },
  {
    "postal": "N9B3M7",
    "result": [
      {
        "electoralDistricts": [
          {
            "election": null,
            "id": 119,
            "name": "Windsor West"
          }
        ],
        "pollDivisionIds": [
          10142783
        ],
        "postalCode": "N9B3M7",
        "streetName": "CAMPBELL",
        "streetDirectionId": null,
        "streetTypeId": "AVE",
        "placeName": "WINDSOR",
        "streetNameDisplayText": "CAMPBELL AVE, WINDSOR"
      }
    ]
  },
  {
    "postal": "N9B1B2",
    "result": [
      {
        "electoralDistricts": [
          {
            "election": null,
            "id": 119,
            "name": "Windsor West"
          }
        ],
        "pollDivisionIds": [
          10142779
        ],
        "postalCode": "N9B1B2",
        "streetName": "RIVERSIDE",
        "streetDirectionId": "W",
        "streetTypeId": "DR",
        "placeName": "WINDSOR",
        "streetNameDisplayText": "RIVERSIDE DR W, WINDSOR"
      }
    ]
  },
  {
    "postal": "N9B0H9",
    "result": []
  },
  {
    "postal": "N9B8M4",
    "result": []
  },
  {
    "postal": "N9B2M5",
    "result": [
      {
        "electoralDistricts": [
          {
            "election": null,
            "id": 119,
            "name": "Windsor West"
          }
        ],
        "pollDivisionIds": [
          10142780
        ],
        "postalCode": "N9B2M5",
        "streetName": "BRIDGE",
        "streetDirectionId": null,
        "streetTypeId": "AVE",
        "placeName": "WINDSOR",
        "streetNameDisplayText": "BRIDGE AVE, WINDSOR"
      }
    ]
  },
  {
    "postal": "N9B0T9",
    "result": []
  },
  {
    "postal": "N9B3P1",
    "result": [
      {
        "electoralDistricts": [
          {
            "election": null,
            "id": 119,
            "name": "Windsor West"
          }
        ],
        "pollDivisionIds": [
          10142782
        ],
        "postalCode": "N9B3P1",
        "streetName": "CURRY",
        "streetDirectionId": null,
        "streetTypeId": "AVE",
        "placeName": "WINDSOR",
        "streetNameDisplayText": "CURRY AVE, WINDSOR"
      }
    ]
  },
  {
    "postal": "N9B1R6",
    "result": [
      {
        "electoralDistricts": [
          {
            "election": null,
            "id": 119,
            "name": "Windsor West"
          }
        ],
        "pollDivisionIds": [
          10142783
        ],
        "postalCode": "N9B1R6",
        "streetName": "TAYLOR",
        "streetDirectionId": null,
        "streetTypeId": "AVE",
        "placeName": "WINDSOR",
        "streetNameDisplayText": "TAYLOR AVE, WINDSOR"
      }
    ]
  },
  {
    "postal": "N9B9V5",
    "result": []
  },
  {
    "postal": "N9B9T0",
    "result": []
  },
  {
    "postal": "N9B0A9",
    "result": [
      {
        "electoralDistricts": [
          {
            "election": null,
            "id": 119,
            "name": "Windsor West"
          }
        ],
        "pollDivisionIds": [
          10142782
        ],
        "postalCode": "N9B0A9",
        "streetName": "TOTTEN",
        "streetDirectionId": null,
        "streetTypeId": "ST",
        "placeName": "WINDSOR",
        "streetNameDisplayText": "TOTTEN ST, WINDSOR"
      }
    ]
  },
  {
    "postal": "N9B1M3",
    "result": [
      {
        "electoralDistricts": [
          {
            "election": null,
            "id": 119,
            "name": "Windsor West"
          }
        ],
        "pollDivisionIds": [
          10142783
        ],
        "postalCode": "N9B1M3",
        "streetName": "COLLEGE",
        "streetDirectionId": null,
        "streetTypeId": "AVE",
        "placeName": "WINDSOR",
        "streetNameDisplayText": "COLLEGE AVE, WINDSOR"
      }
    ]
  },
  {
    "postal": "N9B1W8",
    "result": [
      {
        "electoralDistricts": [
          {
            "election": null,
            "id": 119,
            "name": "Windsor West"
          }
        ],
        "pollDivisionIds": [
          10142782
        ],
        "postalCode": "N9B1W8",
        "streetName": "ALGONQUIN",
        "streetDirectionId": null,
        "streetTypeId": "ST",
        "placeName": "WINDSOR",
        "streetNameDisplayText": "ALGONQUIN ST, WINDSOR"
      }
    ]
  },
  {
    "postal": "N9B9J1",
    "result": []
  },
  {
    "postal": "N9B8N5",
    "result": []
  },
  {
    "postal": "N9B5X1",
    "result": []
  },
  {
    "postal": "N9B6S2",
    "result": []
  },
  {
    "postal": "N9B2A2",
    "result": [
      {
        "electoralDistricts": [
          {
            "election": null,
            "id": 119,
            "name": "Windsor West"
          }
        ],
        "pollDivisionIds": [
          10142783
        ],
        "postalCode": "N9B2A2",
        "streetName": "MCKAY",
        "streetDirectionId": null,
        "streetTypeId": "AVE",
        "placeName": "WINDSOR",
        "streetNameDisplayText": "MCKAY AVE, WINDSOR"
      }
    ]
  },
  {
    "postal": "N9B6A6",
    "result": []
  },
  {
    "postal": "N9B0S3",
    "result": []
  },
  {
    "postal": "N9B3E7",
    "result": [
      {
        "electoralDistricts": [
          {
            "election": null,
            "id": 119,
            "name": "Windsor West"
          }
        ],
        "pollDivisionIds": [
          10142784
        ],
        "postalCode": "N9B3E7",
        "streetName": "EVERTS",
        "streetDirectionId": null,
        "streetTypeId": "AVE",
        "placeName": "WINDSOR",
        "streetNameDisplayText": "EVERTS AVE, WINDSOR"
      }
    ]
  },
  {
    "postal": "N9B5R7",
    "result": []
  },
  {
    "postal": "N9B3R6",
    "result": [
      {
        "electoralDistricts": [
          {
            "election": null,
            "id": 119,
            "name": "Windsor West"
          }
        ],
        "pollDivisionIds": [
          10142782
        ],
        "postalCode": "N9B3R6",
        "streetName": "TECUMSEH",
        "streetDirectionId": "W",
        "streetTypeId": "RD",
        "placeName": "WINDSOR",
        "streetNameDisplayText": "TECUMSEH RD W, WINDSOR"
      }
    ]
  },
  {
    "postal": "N9B6K4",
    "result": []
  },
  {
    "postal": "N9B2W5",
    "result": [
      {
        "electoralDistricts": [
          {
            "election": null,
            "id": 119,
            "name": "Windsor West"
          }
        ],
        "pollDivisionIds": [
          10142784
        ],
        "postalCode": "N9B2W5",
        "streetName": "RANDOLPH",
        "streetDirectionId": null,
        "streetTypeId": "AVE",
        "placeName": "WINDSOR",
        "streetNameDisplayText": "RANDOLPH AVE, WINDSOR"
      }
    ]
  },
  {
    "postal": "N9B8W4",
    "result": []
  },
  {
    "postal": "N9B9C2",
    "result": []
  },
  {
    "postal": "N9B2C0",
    "result": []
  },
  {
    "postal": "N9B0E1",
    "result": []
  },
  {
    "postal": "N9B1K9",
    "result": [
      {
        "electoralDistricts": [
          {
            "election": null,
            "id": 119,
            "name": "Windsor West"
          }
        ],
        "pollDivisionIds": [
          10142781
        ],
        "postalCode": "N9B1K9",
        "streetName": "ROONEY",
        "streetDirectionId": null,
        "streetTypeId": "ST",
        "placeName": "WINDSOR",
        "streetNameDisplayText": "ROONEY ST, WINDSOR"
      }
    ]
  },
  {
    "postal": "N9B1G7",
    "result": [
      {
        "electoralDistricts": [
          {
            "election": null,
            "id": 119,
            "name": "Windsor West"
          }
        ],
        "pollDivisionIds": [
          10142781
        ],
        "postalCode": "N9B1G7",
        "streetName": "MARTINDALE",
        "streetDirectionId": null,
        "streetTypeId": "ST",
        "placeName": "WINDSOR",
        "streetNameDisplayText": "MARTINDALE ST, WINDSOR"
      }
    ]
  },
  {
    "postal": "N9B4E9",
    "result": []
  },
  {
    "postal": "N9B9P0",
    "result": []
  },
  {
    "postal": "N9B5H3",
    "result": []
  },
  {
    "postal": "N9B9X6",
    "result": []
  },
  {
    "postal": "N9B5N7",
    "result": []
  },
  {
    "postal": "N9B5A6",
    "result": []
  },
  {
    "postal": "N9B4M0",
    "result": []
  },
  {
    "postal": "N9B3V6",
    "result": [
      {
        "electoralDistricts": [
          {
            "election": null,
            "id": 119,
            "name": "Windsor West"
          }
        ],
        "pollDivisionIds": [
          10142782
        ],
        "postalCode": "N9B3V6",
        "streetName": "RANKIN",
        "streetDirectionId": null,
        "streetTypeId": "AVE",
        "placeName": "WINDSOR",
        "streetNameDisplayText": "RANKIN AVE, WINDSOR"
      }
    ]
  },
  {
    "postal": "N9B1L7",
    "result": [
      {
        "electoralDistricts": [
          {
            "election": null,
            "id": 119,
            "name": "Windsor West"
          }
        ],
        "pollDivisionIds": [
          10142780
        ],
        "postalCode": "N9B1L7",
        "streetName": "UNION",
        "streetDirectionId": null,
        "streetTypeId": "ST",
        "placeName": "WINDSOR",
        "streetNameDisplayText": "UNION ST, WINDSOR"
      }
    ]
  },
  {
    "postal": "N9B2P9",
    "result": [
      {
        "electoralDistricts": [
          {
            "election": null,
            "id": 119,
            "name": "Windsor West"
          }
        ],
        "pollDivisionIds": [
          10142782
        ],
        "postalCode": "N9B2P9",
        "streetName": "PARTINGTON",
        "streetDirectionId": null,
        "streetTypeId": "AVE",
        "placeName": "WINDSOR",
        "streetNameDisplayText": "PARTINGTON AVE, WINDSOR"
      }
    ]
  },
  {
    "postal": "N9B5T4",
    "result": []
  },
  {
    "postal": "N9B5Z1",
    "result": []
  },
  {
    "postal": "N9B2X0",
    "result": []
  },
  {
    "postal": "N9B6Z2",
    "result": []
  },
  {
    "postal": "N9B0E0",
    "result": []
  },
  {
    "postal": "N9B3Z5",
    "result": []
  },
  {
    "postal": "N9B8H3",
    "result": []
  },
  {
    "postal": "N9B7S6",
    "result": []
  },
  {
    "postal": "N9B4C1",
    "result": []
  },
  {
    "postal": "N9B3K2",
    "result": []
  },
  {
    "postal": "N9B1Y5",
    "result": [
      {
        "electoralDistricts": [
          {
            "election": null,
            "id": 119,
            "name": "Windsor West"
          }
        ],
        "pollDivisionIds": [
          10142779
        ],
        "postalCode": "N9B1Y5",
        "streetName": "CAMERON",
        "streetDirectionId": null,
        "streetTypeId": "AVE",
        "placeName": "WINDSOR",
        "streetNameDisplayText": "CAMERON AVE, WINDSOR"
      }
    ]
  },
  {
    "postal": "N9B6P6",
    "result": []
  },
  {
    "postal": "N9B3N9",
    "result": [
      {
        "electoralDistricts": [
          {
            "election": null,
            "id": 119,
            "name": "Windsor West"
          }
        ],
        "pollDivisionIds": [
          10142784
        ],
        "postalCode": "N9B3N9",
        "streetName": "CURRY",
        "streetDirectionId": null,
        "streetTypeId": "AVE",
        "placeName": "WINDSOR",
        "streetNameDisplayText": "CURRY AVE, WINDSOR"
      }
    ]
  },
  {
    "postal": "N9B3W2",
    "result": [
      {
        "electoralDistricts": [
          {
            "election": null,
            "id": 119,
            "name": "Windsor West"
          }
        ],
        "pollDivisionIds": [
          10142784
        ],
        "postalCode": "N9B3W2",
        "streetName": "DAYTONA",
        "streetDirectionId": null,
        "streetTypeId": "AVE",
        "placeName": "WINDSOR",
        "streetNameDisplayText": "DAYTONA AVE, WINDSOR"
      }
    ]
  },
  {
    "postal": "N9B6H8",
    "result": []
  },
  {
    "postal": "N9B9T3",
    "result": []
  },
  {
    "postal": "N9B5L9",
    "result": []
  },
  {
    "postal": "N9B7X7",
    "result": []
  },
  {
    "postal": "N9B3J5",
    "result": [
      {
        "electoralDistricts": [
          {
            "election": null,
            "id": 119,
            "name": "Windsor West"
          }
        ],
        "pollDivisionIds": [
          10142792
        ],
        "postalCode": "N9B3J5",
        "streetName": "LONGFELLOW",
        "streetDirectionId": null,
        "streetTypeId": "AVE",
        "placeName": "WINDSOR",
        "streetNameDisplayText": "LONGFELLOW AVE, WINDSOR"
      }
    ]
  },
  {
    "postal": "N9B4J5",
    "result": []
  },
  {
    "postal": "N9B6J2",
    "result": []
  },
  {
    "postal": "N9B5V6",
    "result": []
  },
  {
    "postal": "N9B3N2",
    "result": [
      {
        "electoralDistricts": [
          {
            "election": null,
            "id": 119,
            "name": "Windsor West"
          }
        ],
        "pollDivisionIds": [
          10142782
        ],
        "postalCode": "N9B3N2",
        "streetName": "GLENWOOD",
        "streetDirectionId": null,
        "streetTypeId": "AVE",
        "placeName": "WINDSOR",
        "streetNameDisplayText": "GLENWOOD AVE, WINDSOR"
      }
    ]
  },
  {
    "postal": "N9B3B1",
    "result": []
  },
  {
    "postal": "N9B8B5",
    "result": []
  },
  {
    "postal": "N9B0K1",
    "result": []
  },
  {
    "postal": "N9B7M7",
    "result": []
  },
  {
    "postal": "N9B2M2",
    "result": [
      {
        "electoralDistricts": [
          {
            "election": null,
            "id": 119,
            "name": "Windsor West"
          }
        ],
        "pollDivisionIds": [
          10142779
        ],
        "postalCode": "N9B2M2",
        "streetName": "BRIDGE",
        "streetDirectionId": null,
        "streetTypeId": "AVE",
        "placeName": "WINDSOR",
        "streetNameDisplayText": "BRIDGE AVE, WINDSOR"
      }
    ]
  },
  {
    "postal": "N9B9N3",
    "result": []
  },
  {
    "postal": "N9B4Y8",
    "result": []
  },
  {
    "postal": "N9B3V7",
    "result": [
      {
        "electoralDistricts": [
          {
            "election": null,
            "id": 119,
            "name": "Windsor West"
          }
        ],
        "pollDivisionIds": [
          10142784
        ],
        "postalCode": "N9B3V7",
        "streetName": "DAYTONA",
        "streetDirectionId": null,
        "streetTypeId": "AVE",
        "placeName": "WINDSOR",
        "streetNameDisplayText": "DAYTONA AVE, WINDSOR"
      }
    ]
  },
  {
    "postal": "N9B8Z1",
    "result": []
  },
  {
    "postal": "N9B7B3",
    "result": []
  },
  {
    "postal": "N9B3A8",
    "result": []
  },
  {
    "postal": "N9B7V5",
    "result": []
  },
  {
    "postal": "N9B2T2",
    "result": [
      {
        "electoralDistricts": [
          {
            "election": null,
            "id": 119,
            "name": "Windsor West"
          }
        ],
        "pollDivisionIds": [
          10142779
        ],
        "postalCode": "N9B2T2",
        "streetName": "RANDOLPH",
        "streetDirectionId": null,
        "streetTypeId": "PL",
        "placeName": "WINDSOR",
        "streetNameDisplayText": "RANDOLPH PL, WINDSOR"
      }
    ]
  },
  {
    "postal": "N9B6L3",
    "result": []
  },
  {
    "postal": "N9B0L2",
    "result": []
  },
  {
    "postal": "N9B5Y8",
    "result": []
  },
  {
    "postal": "N9B0B8",
    "result": []
  },
  {
    "postal": "N9B6R5",
    "result": []
  },
  {
    "postal": "N9B8W6",
    "result": []
  },
  {
    "postal": "N9B8G6",
    "result": []
  },
  {
    "postal": "N9B6X3",
    "result": []
  },
  {
    "postal": "N9B7R7",
    "result": []
  },
  {
    "postal": "N9B4B6",
    "result": []
  },
  {
    "postal": "N9B3P9",
    "result": []
  },
  {
    "postal": "N9B2T3",
    "result": [
      {
        "electoralDistricts": [
          {
            "election": null,
            "id": 119,
            "name": "Windsor West"
          }
        ],
        "pollDivisionIds": [
          10142779
        ],
        "postalCode": "N9B2T3",
        "streetName": "RANDOLPH",
        "streetDirectionId": null,
        "streetTypeId": "PL",
        "placeName": "WINDSOR",
        "streetNameDisplayText": "RANDOLPH PL, WINDSOR"
      }
    ]
  },
  {
    "postal": "N9B1M4",
    "result": [
      {
        "electoralDistricts": [
          {
            "election": null,
            "id": 119,
            "name": "Windsor West"
          }
        ],
        "pollDivisionIds": [
          10142783
        ],
        "postalCode": "N9B1M4",
        "streetName": "COLLEGE",
        "streetDirectionId": null,
        "streetTypeId": "AVE",
        "placeName": "WINDSOR",
        "streetNameDisplayText": "COLLEGE AVE, WINDSOR"
      }
    ]
  },
  {
    "postal": "N9B0H1",
    "result": []
  },
  {
    "postal": "N9B9W3",
    "result": []
  },
  {
    "postal": "N9B6P1",
    "result": []
  },
  {
    "postal": "N9B7G2",
    "result": []
  },
  {
    "postal": "N9B4J9",
    "result": []
  },
  {
    "postal": "N9B9E4",
    "result": []
  },
  {
    "postal": "N9B8H0",
    "result": []
  },
  {
    "postal": "N9B4M7",
    "result": []
  },
  {
    "postal": "N9B2G9",
    "result": [
      {
        "electoralDistricts": [
          {
            "election": null,
            "id": 119,
            "name": "Windsor West"
          }
        ],
        "pollDivisionIds": [
          10142783
        ],
        "postalCode": "N9B2G9",
        "streetName": "MCEWAN",
        "streetDirectionId": null,
        "streetTypeId": "AVE",
        "placeName": "WINDSOR",
        "streetNameDisplayText": "MCEWAN AVE, WINDSOR"
      }
    ]
  },
  {
    "postal": "N9B8T2",
    "result": []
  },
  {
    "postal": "N9B7G7",
    "result": []
  },
  {
    "postal": "N9B4Z3",
    "result": []
  },
  {
    "postal": "N9B5B3",
    "result": []
  },
  {
    "postal": "N9B1S7",
    "result": [
      {
        "electoralDistricts": [
          {
            "election": null,
            "id": 119,
            "name": "Windsor West"
          }
        ],
        "pollDivisionIds": [
          10142783
        ],
        "postalCode": "N9B1S7",
        "streetName": "PELLETIER",
        "streetDirectionId": null,
        "streetTypeId": "ST",
        "placeName": "WINDSOR",
        "streetNameDisplayText": "PELLETIER ST, WINDSOR"
      }
    ]
  },
  {
    "postal": "N9B2N7",
    "result": [
      {
        "electoralDistricts": [
          {
            "election": null,
            "id": 119,
            "name": "Windsor West"
          }
        ],
        "pollDivisionIds": [
          10142780
        ],
        "postalCode": "N9B2N7",
        "streetName": "PARTINGTON",
        "streetDirectionId": null,
        "streetTypeId": "AVE",
        "placeName": "WINDSOR",
        "streetNameDisplayText": "PARTINGTON AVE, WINDSOR"
      }
    ]
  },
  {
    "postal": "N9B0H8",
    "result": []
  },
  {
    "postal": "N9B7Z4",
    "result": []
  },
  {
    "postal": "N9B7B1",
    "result": []
  },
  {
    "postal": "N9B7P8",
    "result": []
  },
  {
    "postal": "N9B7N0",
    "result": []
  },
  {
    "postal": "N9B3Y5",
    "result": [
      {
        "electoralDistricts": [
          {
            "election": null,
            "id": 119,
            "name": "Windsor West"
          }
        ],
        "pollDivisionIds": [
          10142788
        ],
        "postalCode": "N9B3Y5",
        "streetName": "ASKIN",
        "streetDirectionId": null,
        "streetTypeId": "AVE",
        "placeName": "WINDSOR",
        "streetNameDisplayText": "ASKIN AVE, WINDSOR"
      },
      {
        "electoralDistricts": [
          {
            "election": null,
            "id": 119,
            "name": "Windsor West"
          }
        ],
        "pollDivisionIds": [
          10142788
        ],
        "postalCode": "N9B3Y5",
        "streetName": "ST PATRICK'S",
        "streetDirectionId": null,
        "streetTypeId": "AVE",
        "placeName": "WINDSOR",
        "streetNameDisplayText": "ST PATRICK'S AVE, WINDSOR"
      }
    ]
  },
  {
    "postal": "N9B6K1",
    "result": []
  },
  {
    "postal": "N9B9X5",
    "result": []
  },
  {
    "postal": "N9B7S5",
    "result": []
  },
  {
    "postal": "N9B0A4",
    "result": [
      {
        "electoralDistricts": [
          {
            "election": null,
            "id": 119,
            "name": "Windsor West"
          }
        ],
        "pollDivisionIds": [
          10142784
        ],
        "postalCode": "N9B0A4",
        "streetName": "NORTHWAY",
        "streetDirectionId": null,
        "streetTypeId": "AVE",
        "placeName": "WINDSOR",
        "streetNameDisplayText": "NORTHWAY AVE, WINDSOR"
      }
    ]
  },
  {
    "postal": "N9B4T5",
    "result": []
  },
  {
    "postal": "N9B5K1",
    "result": []
  },
  {
    "postal": "N9B0Z9",
    "result": []
  },
  {
    "postal": "N9B7T2",
    "result": []
  },
  {
    "postal": "N9B1L5",
    "result": [
      {
        "electoralDistricts": [
          {
            "election": null,
            "id": 119,
            "name": "Windsor West"
          }
        ],
        "pollDivisionIds": [
          10142780
        ],
        "postalCode": "N9B1L5",
        "streetName": "ROONEY",
        "streetDirectionId": null,
        "streetTypeId": "ST",
        "placeName": "WINDSOR",
        "streetNameDisplayText": "ROONEY ST, WINDSOR"
      }
    ]
  },
  {
    "postal": "N9B3N5",
    "result": []
  },
  {
    "postal": "N9B6H4",
    "result": []
  },
  {
    "postal": "N9B5A5",
    "result": []
  },
  {
    "postal": "N9B3R9",
    "result": [
      {
        "electoralDistricts": [
          {
            "election": null,
            "id": 119,
            "name": "Windsor West"
          }
        ],
        "pollDivisionIds": [
          10142779
        ],
        "postalCode": "N9B3R9",
        "streetName": "RIVERSIDE",
        "streetDirectionId": "W",
        "streetTypeId": "DR",
        "placeName": "WINDSOR",
        "streetNameDisplayText": "RIVERSIDE DR W, WINDSOR"
      }
    ]
  },
  {
    "postal": "N9B7L8",
    "result": []
  },
  {
    "postal": "N9B6T6",
    "result": []
  },
  {
    "postal": "N9B7Y7",
    "result": []
  },
  {
    "postal": "N9B3M8",
    "result": []
  },
  {
    "postal": "N9B2E0",
    "result": []
  },
  {
    "postal": "N9B4B5",
    "result": []
  },
  {
    "postal": "N9B1J3",
    "result": [
      {
        "electoralDistricts": [
          {
            "election": null,
            "id": 119,
            "name": "Windsor West"
          }
        ],
        "pollDivisionIds": [
          10142780
        ],
        "postalCode": "N9B1J3",
        "streetName": "WYANDOTTE",
        "streetDirectionId": "W",
        "streetTypeId": "ST",
        "placeName": "WINDSOR",
        "streetNameDisplayText": "WYANDOTTE ST W, WINDSOR"
      }
    ]
  },
  {
    "postal": "N9B5S6",
    "result": []
  },
  {
    "postal": "N9B8P7",
    "result": []
  },
  {
    "postal": "N9B7S7",
    "result": []
  },
  {
    "postal": "N9B4C2",
    "result": []
  },
  {
    "postal": "N9B5Y0",
    "result": []
  },
  {
    "postal": "N9B2V7",
    "result": [
      {
        "electoralDistricts": [
          {
            "election": null,
            "id": 119,
            "name": "Windsor West"
          }
        ],
        "pollDivisionIds": [
          10142782
        ],
        "postalCode": "N9B2V7",
        "streetName": "RANDOLPH",
        "streetDirectionId": null,
        "streetTypeId": "AVE",
        "placeName": "WINDSOR",
        "streetNameDisplayText": "RANDOLPH AVE, WINDSOR"
      }
    ]
  },
  {
    "postal": "N9B8P5",
    "result": []
  },
  {
    "postal": "N9B5P5",
    "result": []
  },
  {
    "postal": "N9B5Z0",
    "result": []
  },
  {
    "postal": "N9B9B0",
    "result": []
  },
  {
    "postal": "N9B1L0",
    "result": []
  },
  {
    "postal": "N9B0B5",
    "result": []
  },
  {
    "postal": "N9B3L2",
    "result": [
      {
        "electoralDistricts": [
          {
            "election": null,
            "id": 119,
            "name": "Windsor West"
          }
        ],
        "pollDivisionIds": [
          10142782
        ],
        "postalCode": "N9B3L2",
        "streetName": "BETTS",
        "streetDirectionId": null,
        "streetTypeId": "AVE",
        "placeName": "WINDSOR",
        "streetNameDisplayText": "BETTS AVE, WINDSOR"
      }
    ]
  },
  {
    "postal": "N9B3B7",
    "result": [
      {
        "electoralDistricts": [
          {
            "election": null,
            "id": 119,
            "name": "Windsor West"
          }
        ],
        "pollDivisionIds": [
          10142780
        ],
        "postalCode": "N9B3B7",
        "streetName": "SUNSET",
        "streetDirectionId": null,
        "streetTypeId": "AVE",
        "placeName": "WINDSOR",
        "streetNameDisplayText": "SUNSET AVE, WINDSOR"
      }
    ]
  },
  {
    "postal": "N9B8L1",
    "result": []
  },
  {
    "postal": "N9B5M4",
    "result": []
  },
  {
    "postal": "N9B4G9",
    "result": []
  },
  {
    "postal": "N9B0P0",
    "result": []
  },
  {
    "postal": "N9B8G2",
    "result": []
  },
  {
    "postal": "N9B1V9",
    "result": [
      {
        "electoralDistricts": [
          {
            "election": null,
            "id": 119,
            "name": "Windsor West"
          }
        ],
        "pollDivisionIds": [
          10142782
        ],
        "postalCode": "N9B1V9",
        "streetName": "TECUMSEH",
        "streetDirectionId": "W",
        "streetTypeId": "RD",
        "placeName": "WINDSOR",
        "streetNameDisplayText": "TECUMSEH RD W, WINDSOR"
      }
    ]
  },
  {
    "postal": "N9B8N8",
    "result": []
  },
  {
    "postal": "N9B6S8",
    "result": []
  },
  {
    "postal": "N9B8H2",
    "result": []
  },
  {
    "postal": "N9B5R8",
    "result": []
  },
  {
    "postal": "N9B5L4",
    "result": []
  },
  {
    "postal": "N9B9E1",
    "result": []
  },
  {
    "postal": "N9B1C4",
    "result": [
      {
        "electoralDistricts": [
          {
            "election": null,
            "id": 119,
            "name": "Windsor West"
          }
        ],
        "pollDivisionIds": [
          10142779
        ],
        "postalCode": "N9B1C4",
        "streetName": "UNIVERSITY",
        "streetDirectionId": "W",
        "streetTypeId": "AVE",
        "placeName": "WINDSOR",
        "streetNameDisplayText": "UNIVERSITY AVE W, WINDSOR"
      }
    ]
  },
  {
    "postal": "N9B8W5",
    "result": []
  },
  {
    "postal": "N9B1Y4",
    "result": []
  },
  {
    "postal": "N9B1C0",
    "result": []
  },
  {
    "postal": "N9B2J2",
    "result": [
      {
        "electoralDistricts": [
          {
            "election": null,
            "id": 119,
            "name": "Windsor West"
          }
        ],
        "pollDivisionIds": [
          10142783
        ],
        "postalCode": "N9B2J2",
        "streetName": "CAMPBELL",
        "streetDirectionId": null,
        "streetTypeId": "AVE",
        "placeName": "WINDSOR",
        "streetNameDisplayText": "CAMPBELL AVE, WINDSOR"
      }
    ]
  },
  {
    "postal": "N9B2J0",
    "result": []
  },
  {
    "postal": "N9B7A3",
    "result": []
  },
  {
    "postal": "N9B8M1",
    "result": []
  },
  {
    "postal": "N9B7T9",
    "result": []
  },
  {
    "postal": "N9B6C0",
    "result": []
  },
  {
    "postal": "N9B7X1",
    "result": []
  },
  {
    "postal": "N9B0G1",
    "result": []
  },
  {
    "postal": "N9B4X2",
    "result": []
  },
  {
    "postal": "N9B0N6",
    "result": []
  },
  {
    "postal": "N9B8E3",
    "result": []
  },
  {
    "postal": "N9B5S8",
    "result": []
  },
  {
    "postal": "N9B0R0",
    "result": []
  },
  {
    "postal": "N9B6J6",
    "result": []
  },
  {
    "postal": "N9B4B4",
    "result": []
  },
  {
    "postal": "N9B7E3",
    "result": []
  },
  {
    "postal": "N9B3N6",
    "result": [
      {
        "electoralDistricts": [
          {
            "election": null,
            "id": 119,
            "name": "Windsor West"
          }
        ],
        "pollDivisionIds": [
          10142782
        ],
        "postalCode": "N9B3N6",
        "streetName": "CURRY",
        "streetDirectionId": null,
        "streetTypeId": "AVE",
        "placeName": "WINDSOR",
        "streetNameDisplayText": "CURRY AVE, WINDSOR"
      }
    ]
  },
  {
    "postal": "N9B3X6",
    "result": [
      {
        "electoralDistricts": [
          {
            "election": null,
            "id": 119,
            "name": "Windsor West"
          }
        ],
        "pollDivisionIds": [
          10142784
        ],
        "postalCode": "N9B3X6",
        "streetName": "EVERTS",
        "streetDirectionId": null,
        "streetTypeId": "AVE",
        "placeName": "WINDSOR",
        "streetNameDisplayText": "EVERTS AVE, WINDSOR"
      },
      {
        "electoralDistricts": [
          {
            "election": null,
            "id": 119,
            "name": "Windsor West"
          }
        ],
        "pollDivisionIds": [
          10142784
        ],
        "postalCode": "N9B3X6",
        "streetName": "MARK",
        "streetDirectionId": null,
        "streetTypeId": "AVE",
        "placeName": "WINDSOR",
        "streetNameDisplayText": "MARK AVE, WINDSOR"
      }
    ]
  },
  {
    "postal": "N9B8L0",
    "result": []
  },
  {
    "postal": "N9B8N1",
    "result": []
  },
  {
    "postal": "N9B4J0",
    "result": []
  },
  {
    "postal": "N9B0X7",
    "result": []
  },
  {
    "postal": "N9B6S4",
    "result": []
  },
  {
    "postal": "N9B0Z0",
    "result": []
  },
  {
    "postal": "N9B9X8",
    "result": []
  },
  {
    "postal": "N9B3H3",
    "result": [
      {
        "electoralDistricts": [
          {
            "election": null,
            "id": 119,
            "name": "Windsor West"
          }
        ],
        "pollDivisionIds": [
          10142782
        ],
        "postalCode": "N9B3H3",
        "streetName": "ROXBOROUGH",
        "streetDirectionId": null,
        "streetTypeId": "BLVD",
        "placeName": "WINDSOR",
        "streetNameDisplayText": "ROXBOROUGH BLVD, WINDSOR"
      }
    ]
  },
  {
    "postal": "N9B7S2",
    "result": []
  },
  {
    "postal": "N9B3T3",
    "result": [
      {
        "electoralDistricts": [
          {
            "election": null,
            "id": 119,
            "name": "Windsor West"
          }
        ],
        "pollDivisionIds": [
          10142780
        ],
        "postalCode": "N9B3T3",
        "streetName": "CALIFORNIA",
        "streetDirectionId": null,
        "streetTypeId": "AVE",
        "placeName": "WINDSOR",
        "streetNameDisplayText": "CALIFORNIA AVE, WINDSOR"
      }
    ]
  },
  {
    "postal": "N9B9P3",
    "result": []
  },
  {
    "postal": "N9B4H8",
    "result": []
  },
  {
    "postal": "N9B6R1",
    "result": []
  },
  {
    "postal": "N9B1S0",
    "result": []
  },
  {
    "postal": "N9B3W8",
    "result": [
      {
        "electoralDistricts": [
          {
            "election": null,
            "id": 119,
            "name": "Windsor West"
          }
        ],
        "pollDivisionIds": [
          10142788
        ],
        "postalCode": "N9B3W8",
        "streetName": "DOBRICH",
        "streetDirectionId": null,
        "streetTypeId": "ST",
        "placeName": "WINDSOR",
        "streetNameDisplayText": "DOBRICH ST, WINDSOR"
      },
      {
        "electoralDistricts": [
          {
            "election": null,
            "id": 119,
            "name": "Windsor West"
          }
        ],
        "pollDivisionIds": [
          10142788
        ],
        "postalCode": "N9B3W8",
        "streetName": "MARK",
        "streetDirectionId": null,
        "streetTypeId": "AVE",
        "placeName": "WINDSOR",
        "streetNameDisplayText": "MARK AVE, WINDSOR"
      }
    ]
  },
  {
    "postal": "N9B4S3",
    "result": []
  },
  {
    "postal": "N9B1B6",
    "result": [
      {
        "electoralDistricts": [
          {
            "election": null,
            "id": 119,
            "name": "Windsor West"
          }
        ],
        "pollDivisionIds": [
          10142781
        ],
        "postalCode": "N9B1B6",
        "streetName": "UNIVERSITY",
        "streetDirectionId": "W",
        "streetTypeId": "AVE",
        "placeName": "WINDSOR",
        "streetNameDisplayText": "UNIVERSITY AVE W, WINDSOR"
      }
    ]
  },
  {
    "postal": "N9B8R3",
    "result": []
  },
  {
    "postal": "N9B4V9",
    "result": []
  },
  {
    "postal": "N9B9W4",
    "result": []
  },
  {
    "postal": "N9B3T4",
    "result": [
      {
        "electoralDistricts": [
          {
            "election": null,
            "id": 119,
            "name": "Windsor West"
          }
        ],
        "pollDivisionIds": [
          10142779
        ],
        "postalCode": "N9B3T4",
        "streetName": "SUNSET",
        "streetDirectionId": null,
        "streetTypeId": "AVE",
        "placeName": "WINDSOR",
        "streetNameDisplayText": "SUNSET AVE, WINDSOR"
      }
    ]
  },
  {
    "postal": "N9B5C7",
    "result": []
  },
  {
    "postal": "N9B3Y1",
    "result": []
  },
  {
    "postal": "N9B5V0",
    "result": []
  },
  {
    "postal": "N9B8G8",
    "result": []
  },
  {
    "postal": "N9B8B1",
    "result": []
  },
  {
    "postal": "N9B4P5",
    "result": []
  },
  {
    "postal": "N9B7B2",
    "result": []
  },
  {
    "postal": "N9B0R2",
    "result": []
  },
  {
    "postal": "N9B4M4",
    "result": []
  },
  {
    "postal": "N9B7M4",
    "result": []
  },
  {
    "postal": "N9B9S7",
    "result": []
  },
  {
    "postal": "N9B5Z7",
    "result": []
  },
  {
    "postal": "N9B7J7",
    "result": []
  },
  {
    "postal": "N9B8R8",
    "result": []
  },
  {
    "postal": "N9B9X1",
    "result": []
  },
  {
    "postal": "N9B5M9",
    "result": []
  },
  {
    "postal": "N9B9B4",
    "result": []
  },
  {
    "postal": "N9B0L9",
    "result": []
  },
  {
    "postal": "N9B9G4",
    "result": []
  },
  {
    "postal": "N9B1J4",
    "result": [
      {
        "electoralDistricts": [
          {
            "election": null,
            "id": 119,
            "name": "Windsor West"
          }
        ],
        "pollDivisionIds": [
          10142780
        ],
        "postalCode": "N9B1J4",
        "streetName": "WYANDOTTE",
        "streetDirectionId": "W",
        "streetTypeId": "ST",
        "placeName": "WINDSOR",
        "streetNameDisplayText": "WYANDOTTE ST W, WINDSOR"
      }
    ]
  },
  {
    "postal": "N9B0W6",
    "result": []
  },
  {
    "postal": "N9B4C5",
    "result": []
  },
  {
    "postal": "N9B7E4",
    "result": []
  },
  {
    "postal": "N9B1R9",
    "result": [
      {
        "electoralDistricts": [
          {
            "election": null,
            "id": 119,
            "setId": 0,
            "name": "Windsor West"
          }
        ],
        "pollDivisionIds": [
          10142783
        ],
        "postalCode": "N9B1R9",
        "streetName": "PELLETIER",
        "streetDirectionId": null,
        "streetTypeId": "ST",
        "placeName": "WINDSOR",
        "streetNameDisplayText": "PELLETIER ST, WINDSOR"
      }
    ]
  },
  {
    "postal": "N9B2P0",
    "result": []
  },
  {
    "postal": "N9B5S4",
    "result": []
  },
  {
    "postal": "N9B5K8",
    "result": []
  },
  {
    "postal": "N9B8K4",
    "result": []
  },
  {
    "postal": "N9B7C1",
    "result": []
  },
  {
    "postal": "N9B7K9",
    "result": []
  },
  {
    "postal": "N9B5J1",
    "result": []
  },
  {
    "postal": "N9B4P9",
    "result": []
  },
  {
    "postal": "N9B0N2",
    "result": []
  },
  {
    "postal": "N9B2G6",
    "result": [
      {
        "electoralDistricts": [
          {
            "election": null,
            "id": 119,
            "setId": 0,
            "name": "Windsor West"
          }
        ],
        "pollDivisionIds": [
          10142783
        ],
        "postalCode": "N9B2G6",
        "streetName": "MCEWAN",
        "streetDirectionId": null,
        "streetTypeId": "AVE",
        "placeName": "WINDSOR",
        "streetNameDisplayText": "MCEWAN AVE, WINDSOR"
      }
    ]
  },
  {
    "postal": "N9B6P4",
    "result": []
  },
  {
    "postal": "N9B3J0",
    "result": []
  },
  {
    "postal": "N9B8X4",
    "result": []
  },
  {
    "postal": "N9B1Y3",
    "result": [
      {
        "electoralDistricts": [
          {
            "election": null,
            "id": 119,
            "setId": 0,
            "name": "Windsor West"
          }
        ],
        "pollDivisionIds": [
          10142784
        ],
        "postalCode": "N9B1Y3",
        "streetName": "KENORA",
        "streetDirectionId": null,
        "streetTypeId": "ST",
        "placeName": "WINDSOR",
        "streetNameDisplayText": "KENORA ST, WINDSOR"
      }
    ]
  },
  {
    "postal": "N9B1A8",
    "result": [
      {
        "electoralDistricts": [
          {
            "election": null,
            "id": 119,
            "setId": 0,
            "name": "Windsor West"
          }
        ],
        "pollDivisionIds": [
          10142779
        ],
        "postalCode": "N9B1A8",
        "streetName": "RIVERSIDE",
        "streetDirectionId": "W",
        "streetTypeId": "DR",
        "placeName": "WINDSOR",
        "streetNameDisplayText": "RIVERSIDE DR W, WINDSOR"
      }
    ]
  },
  {
    "postal": "N9B6Y5",
    "result": []
  },
  {
    "postal": "N9B0J6",
    "result": []
  },
  {
    "postal": "N9B2C9",
    "result": [
      {
        "electoralDistricts": [
          {
            "election": null,
            "id": 119,
            "setId": 0,
            "name": "Windsor West"
          }
        ],
        "pollDivisionIds": [
          10142783
        ],
        "postalCode": "N9B2C9",
        "streetName": "CURRY",
        "streetDirectionId": null,
        "streetTypeId": "AVE",
        "placeName": "WINDSOR",
        "streetNameDisplayText": "CURRY AVE, WINDSOR"
      }
    ]
  },
  {
    "postal": "N9B8J6",
    "result": []
  },
  {
    "postal": "N9B8T4",
    "result": []
  },
  {
    "postal": "N9B1P7",
    "result": [
      {
        "electoralDistricts": [
          {
            "election": null,
            "id": 119,
            "setId": 0,
            "name": "Windsor West"
          }
        ],
        "pollDivisionIds": [
          10142783
        ],
        "postalCode": "N9B1P7",
        "streetName": "GROVE",
        "streetDirectionId": null,
        "streetTypeId": "AVE",
        "placeName": "WINDSOR",
        "streetNameDisplayText": "GROVE AVE, WINDSOR"
      }
    ]
  },
  {
    "postal": "N9B9V9",
    "result": []
  },
  {
    "postal": "N9B0M1",
    "result": []
  },
  {
    "postal": "N9B6K5",
    "result": []
  },
  {
    "postal": "N9B2T5",
    "result": [
      {
        "electoralDistricts": [
          {
            "election": null,
            "id": 119,
            "setId": 0,
            "name": "Windsor West"
          }
        ],
        "pollDivisionIds": [
          10142779
        ],
        "postalCode": "N9B2T5",
        "streetName": "RANDOLPH",
        "streetDirectionId": null,
        "streetTypeId": "AVE",
        "placeName": "WINDSOR",
        "streetNameDisplayText": "RANDOLPH AVE, WINDSOR"
      }
    ]
  },
  {
    "postal": "N9B7E9",
    "result": []
  },
  {
    "postal": "N9B5K5",
    "result": []
  },
  {
    "postal": "N9B3R5",
    "result": [
      {
        "electoralDistricts": [
          {
            "election": null,
            "id": 119,
            "setId": 0,
            "name": "Windsor West"
          }
        ],
        "pollDivisionIds": [
          10142779
        ],
        "postalCode": "N9B3R5",
        "streetName": "ASKIN",
        "streetDirectionId": null,
        "streetTypeId": "AVE",
        "placeName": "WINDSOR",
        "streetNameDisplayText": "ASKIN AVE, WINDSOR"
      }
    ]
  },
  {
    "postal": "N9B5B1",
    "result": []
  },
  {
    "postal": "N9B2P1",
    "result": [
      {
        "electoralDistricts": [
          {
            "election": null,
            "id": 119,
            "setId": 0,
            "name": "Windsor West"
          }
        ],
        "pollDivisionIds": [
          10142778
        ],
        "postalCode": "N9B2P1",
        "streetName": "PARTINGTON",
        "streetDirectionId": null,
        "streetTypeId": "AVE",
        "placeName": "WINDSOR",
        "streetNameDisplayText": "PARTINGTON AVE, WINDSOR"
      }
    ]
  },
  {
    "postal": "N9B7L0",
    "result": []
  },
  {
    "postal": "N9B3L6",
    "result": [
      {
        "electoralDistricts": [
          {
            "election": null,
            "id": 119,
            "setId": 0,
            "name": "Windsor West"
          }
        ],
        "pollDivisionIds": [
          10142784
        ],
        "postalCode": "N9B3L6",
        "streetName": "BETTS",
        "streetDirectionId": null,
        "streetTypeId": "AVE",
        "placeName": "WINDSOR",
        "streetNameDisplayText": "BETTS AVE, WINDSOR"
      }
    ]
  },
  {
    "postal": "N9B2A4",
    "result": [
      {
        "electoralDistricts": [
          {
            "election": null,
            "id": 119,
            "setId": 0,
            "name": "Windsor West"
          }
        ],
        "pollDivisionIds": [
          10142783
        ],
        "postalCode": "N9B2A4",
        "streetName": "MCKAY",
        "streetDirectionId": null,
        "streetTypeId": "AVE",
        "placeName": "WINDSOR",
        "streetNameDisplayText": "MCKAY AVE, WINDSOR"
      }
    ]
  },
  {
    "postal": "N9B8S0",
    "result": []
  },
  {
    "postal": "N9B3L5",
    "result": [
      {
        "electoralDistricts": [
          {
            "election": null,
            "id": 119,
            "setId": 0,
            "name": "Windsor West"
          }
        ],
        "pollDivisionIds": [
          10142782
        ],
        "postalCode": "N9B3L5",
        "streetName": "BETTS",
        "streetDirectionId": null,
        "streetTypeId": "AVE",
        "placeName": "WINDSOR",
        "streetNameDisplayText": "BETTS AVE, WINDSOR"
      }
    ]
  },
  {
    "postal": "N9B2R5",
    "result": [
      {
        "electoralDistricts": [
          {
            "election": null,
            "id": 119,
            "setId": 0,
            "name": "Windsor West"
          }
        ],
        "pollDivisionIds": [
          10142779
        ],
        "postalCode": "N9B2R5",
        "streetName": "RANKIN",
        "streetDirectionId": null,
        "streetTypeId": "AVE",
        "placeName": "WINDSOR",
        "streetNameDisplayText": "RANKIN AVE, WINDSOR"
      }
    ]
  },
  {
    "postal": "N9B9T6",
    "result": []
  },
  {
    "postal": "N9B8Z2",
    "result": []
  },
  {
    "postal": "N9B0E9",
    "result": []
  },
  {
    "postal": "N9B8C0",
    "result": []
  },
  {
    "postal": "N9B3K7",
    "result": [
      {
        "electoralDistricts": [
          {
            "election": null,
            "id": 119,
            "setId": 0,
            "name": "Windsor West"
          }
        ],
        "pollDivisionIds": [
          10142782
        ],
        "postalCode": "N9B3K7",
        "streetName": "ST CLAIR",
        "streetDirectionId": null,
        "streetTypeId": "AVE",
        "placeName": "WINDSOR",
        "streetNameDisplayText": "ST CLAIR AVE, WINDSOR"
      }
    ]
  },
  {
    "postal": "N9B2H3",
    "result": [
      {
        "electoralDistricts": [
          {
            "election": null,
            "id": 119,
            "setId": 0,
            "name": "Windsor West"
          }
        ],
        "pollDivisionIds": [
          10142781
        ],
        "postalCode": "N9B2H3",
        "streetName": "CAMPBELL",
        "streetDirectionId": null,
        "streetTypeId": "AVE",
        "placeName": "WINDSOR",
        "streetNameDisplayText": "CAMPBELL AVE, WINDSOR"
      }
    ]
  },
  {
    "postal": "N9B2Y6",
    "result": []
  },
  {
    "postal": "N9B7M2",
    "result": []
  },
  {
    "postal": "N9B6E2",
    "result": []
  },
  {
    "postal": "N9B3R0",
    "result": []
  },
  {
    "postal": "N9B4J7",
    "result": []
  },
  {
    "postal": "N9B6N8",
    "result": []
  },
  {
    "postal": "N9B0J7",
    "result": []
  },
  {
    "postal": "N9B7P2",
    "result": []
  },
  {
    "postal": "N9B3T8",
    "result": []
  },
  {
    "postal": "N9B3S7",
    "result": [
      {
        "electoralDistricts": [
          {
            "election": null,
            "id": 119,
            "setId": 0,
            "name": "Windsor West"
          }
        ],
        "pollDivisionIds": [
          10142780
        ],
        "postalCode": "N9B3S7",
        "streetName": "UNION",
        "streetDirectionId": null,
        "streetTypeId": "ST",
        "placeName": "WINDSOR",
        "streetNameDisplayText": "UNION ST, WINDSOR"
      }
    ]
  },
  {
    "postal": "N9B2S7",
    "result": [
      {
        "electoralDistricts": [
          {
            "election": null,
            "id": 119,
            "setId": 0,
            "name": "Windsor West"
          }
        ],
        "pollDivisionIds": [
          10142778
        ],
        "postalCode": "N9B2S7",
        "streetName": "RANKIN",
        "streetDirectionId": null,
        "streetTypeId": "AVE",
        "placeName": "WINDSOR",
        "streetNameDisplayText": "RANKIN AVE, WINDSOR"
      }
    ]
  },
  {
    "postal": "N9B1S4",
    "result": [
      {
        "electoralDistricts": [
          {
            "election": null,
            "id": 119,
            "setId": 0,
            "name": "Windsor West"
          }
        ],
        "pollDivisionIds": [
          10142783
        ],
        "postalCode": "N9B1S4",
        "streetName": "PELLETIER",
        "streetDirectionId": null,
        "streetTypeId": "ST",
        "placeName": "WINDSOR",
        "streetNameDisplayText": "PELLETIER ST, WINDSOR"
      }
    ]
  },
  {
    "postal": "N9B1L8",
    "result": [
      {
        "electoralDistricts": [
          {
            "election": null,
            "id": 119,
            "setId": 0,
            "name": "Windsor West"
          }
        ],
        "pollDivisionIds": [
          10142780
        ],
        "postalCode": "N9B1L8",
        "streetName": "UNION",
        "streetDirectionId": null,
        "streetTypeId": "ST",
        "placeName": "WINDSOR",
        "streetNameDisplayText": "UNION ST, WINDSOR"
      }
    ]
  },
  {
    "postal": "N9B8E9",
    "result": []
  },
  {
    "postal": "N9B0T0",
    "result": []
  },
  {
    "postal": "N9B3G4",
    "result": [
      {
        "electoralDistricts": [
          {
            "election": null,
            "id": 119,
            "setId": 0,
            "name": "Windsor West"
          }
        ],
        "pollDivisionIds": [
          10142782
        ],
        "postalCode": "N9B3G4",
        "streetName": "MARK",
        "streetDirectionId": null,
        "streetTypeId": "AVE",
        "placeName": "WINDSOR",
        "streetNameDisplayText": "MARK AVE, WINDSOR"
      }
    ]
  },
  {
    "postal": "N9B0V6",
    "result": []
  },
  {
    "postal": "N9B4W1",
    "result": []
  },
  {
    "postal": "N9B9G9",
    "result": []
  },
  {
    "postal": "N9B5W4",
    "result": []
  },
  {
    "postal": "N9B7M8",
    "result": []
  },
  {
    "postal": "N9B2C2",
    "result": [
      {
        "electoralDistricts": [
          {
            "election": null,
            "id": 119,
            "setId": 0,
            "name": "Windsor West"
          }
        ],
        "pollDivisionIds": [
          10142783
        ],
        "postalCode": "N9B2C2",
        "streetName": "CURRY",
        "streetDirectionId": null,
        "streetTypeId": "AVE",
        "placeName": "WINDSOR",
        "streetNameDisplayText": "CURRY AVE, WINDSOR"
      }
    ]
  },
  {
    "postal": "N9B4Y2",
    "result": []
  },
  {
    "postal": "N9B9X9",
    "result": []
  },
  {
    "postal": "N9B3T0",
    "result": []
  },
  {
    "postal": "N9B4T8",
    "result": []
  },
  {
    "postal": "N9B9C4",
    "result": []
  },
  {
    "postal": "N9B8P2",
    "result": []
  },
  {
    "postal": "N9B0Y8",
    "result": []
  },
  {
    "postal": "N9B1G8",
    "result": [
      {
        "electoralDistricts": [
          {
            "election": null,
            "id": 119,
            "setId": 0,
            "name": "Windsor West"
          }
        ],
        "pollDivisionIds": [
          10142779
        ],
        "postalCode": "N9B1G8",
        "streetName": "FANCHETTE",
        "streetDirectionId": null,
        "streetTypeId": "ST",
        "placeName": "WINDSOR",
        "streetNameDisplayText": "FANCHETTE ST, WINDSOR"
      }
    ]
  },
  {
    "postal": "N9B2T6",
    "result": [
      {
        "electoralDistricts": [
          {
            "election": null,
            "id": 119,
            "setId": 0,
            "name": "Windsor West"
          }
        ],
        "pollDivisionIds": [
          10142780
        ],
        "postalCode": "N9B2T6",
        "streetName": "RANDOLPH",
        "streetDirectionId": null,
        "streetTypeId": "AVE",
        "placeName": "WINDSOR",
        "streetNameDisplayText": "RANDOLPH AVE, WINDSOR"
      }
    ]
  },
  {
    "postal": "N9B1N7",
    "result": [
      {
        "electoralDistricts": [
          {
            "election": null,
            "id": 119,
            "setId": 0,
            "name": "Windsor West"
          }
        ],
        "pollDivisionIds": [
          10142783
        ],
        "postalCode": "N9B1N7",
        "streetName": "ADANAC",
        "streetDirectionId": null,
        "streetTypeId": "AVE",
        "placeName": "WINDSOR",
        "streetNameDisplayText": "ADANAC AVE, WINDSOR"
      }
    ]
  },
  {
    "postal": "N9B0L6",
    "result": []
  },
  {
    "postal": "N9B9V4",
    "result": []
  },
  {
    "postal": "N9B2V1",
    "result": [
      {
        "electoralDistricts": [
          {
            "election": null,
            "id": 119,
            "setId": 0,
            "name": "Windsor West"
          }
        ],
        "pollDivisionIds": [
          10142778
        ],
        "postalCode": "N9B2V1",
        "streetName": "RANDOLPH",
        "streetDirectionId": null,
        "streetTypeId": "AVE",
        "placeName": "WINDSOR",
        "streetNameDisplayText": "RANDOLPH AVE, WINDSOR"
      }
    ]
  },
  {
    "postal": "N9B3L8",
    "result": [
      {
        "electoralDistricts": [
          {
            "election": null,
            "id": 119,
            "setId": 0,
            "name": "Windsor West"
          }
        ],
        "pollDivisionIds": [
          10142782
        ],
        "postalCode": "N9B3L8",
        "streetName": "NORTHWAY",
        "streetDirectionId": null,
        "streetTypeId": "AVE",
        "placeName": "WINDSOR",
        "streetNameDisplayText": "NORTHWAY AVE, WINDSOR"
      }
    ]
  },
  {
    "postal": "N9B2R8",
    "result": [
      {
        "electoralDistricts": [
          {
            "election": null,
            "id": 119,
            "setId": 0,
            "name": "Windsor West"
          }
        ],
        "pollDivisionIds": [
          10142780
        ],
        "postalCode": "N9B2R8",
        "streetName": "RANKIN",
        "streetDirectionId": null,
        "streetTypeId": "AVE",
        "placeName": "WINDSOR",
        "streetNameDisplayText": "RANKIN AVE, WINDSOR"
      }
    ]
  },
  {
    "postal": "N9B5C1",
    "result": []
  },
  {
    "postal": "N9B4W3",
    "result": []
  },
  {
    "postal": "N9B5X5",
    "result": []
  },
  {
    "postal": "N9B9W5",
    "result": []
  },
  {
    "postal": "N9B3C4",
    "result": [
      {
        "electoralDistricts": [
          {
            "election": null,
            "id": 119,
            "setId": 0,
            "name": "Windsor West"
          }
        ],
        "pollDivisionIds": [
          10142778
        ],
        "postalCode": "N9B3C4",
        "streetName": "MERRITT",
        "streetDirectionId": null,
        "streetTypeId": "DR",
        "placeName": "WINDSOR",
        "streetNameDisplayText": "MERRITT DR, WINDSOR"
      }
    ]
  },
  {
    "postal": "N9B1N6",
    "result": [
      {
        "electoralDistricts": [
          {
            "election": null,
            "id": 119,
            "setId": 0,
            "name": "Windsor West"
          }
        ],
        "pollDivisionIds": [
          10142783
        ],
        "postalCode": "N9B1N6",
        "streetName": "ADANAC",
        "streetDirectionId": null,
        "streetTypeId": "AVE",
        "placeName": "WINDSOR",
        "streetNameDisplayText": "ADANAC AVE, WINDSOR"
      }
    ]
  },
  {
    "postal": "N9B9S9",
    "result": []
  },
  {
    "postal": "N9B9M2",
    "result": []
  },
  {
    "postal": "N9B8Y4",
    "result": []
  },
  {
    "postal": "N9B7S4",
    "result": []
  },
  {
    "postal": "N9B0K6",
    "result": []
  },
  {
    "postal": "N9B1W3",
    "result": [
      {
        "electoralDistricts": [
          {
            "election": null,
            "id": 119,
            "setId": 0,
            "name": "Windsor West"
          }
        ],
        "pollDivisionIds": [
          10142778
        ],
        "postalCode": "N9B1W3",
        "streetName": "TECUMSEH",
        "streetDirectionId": "W",
        "streetTypeId": "RD",
        "placeName": "WINDSOR",
        "streetNameDisplayText": "TECUMSEH RD W, WINDSOR"
      }
    ]
  },
  {
    "postal": "N9B7R2",
    "result": []
  },
  {
    "postal": "N9B2Y9",
    "result": [
      {
        "electoralDistricts": [
          {
            "election": null,
            "id": 119,
            "setId": 0,
            "name": "Windsor West"
          }
        ],
        "pollDivisionIds": [
          10142779
        ],
        "postalCode": "N9B2Y9",
        "streetName": "CALIFORNIA",
        "streetDirectionId": null,
        "streetTypeId": "AVE",
        "placeName": "WINDSOR",
        "streetNameDisplayText": "CALIFORNIA AVE, WINDSOR"
      }
    ]
  },
  {
    "postal": "N9B7G4",
    "result": []
  },
  {
    "postal": "N9B7E5",
    "result": []
  },
  {
    "postal": "N9B9G2",
    "result": []
  },
  {
    "postal": "N9B7Y8",
    "result": []
  },
  {
    "postal": "N9B9V2",
    "result": []
  },
  {
    "postal": "N9B3T7",
    "result": [
      {
        "electoralDistricts": [
          {
            "election": null,
            "id": 119,
            "setId": 0,
            "name": "Windsor West"
          }
        ],
        "pollDivisionIds": [
          10142784
        ],
        "postalCode": "N9B3T7",
        "streetName": "ST CLAIR",
        "streetDirectionId": null,
        "streetTypeId": "AVE",
        "placeName": "WINDSOR",
        "streetNameDisplayText": "ST CLAIR AVE, WINDSOR"
      }
    ]
  },
  {
    "postal": "N9B1H0",
    "result": []
  },
  {
    "postal": "N9B1M7",
    "result": [
      {
        "electoralDistricts": [
          {
            "election": null,
            "id": 119,
            "setId": 0,
            "name": "Windsor West"
          }
        ],
        "pollDivisionIds": [
          10142778
        ],
        "postalCode": "N9B1M7",
        "streetName": "COLLEGE",
        "streetDirectionId": null,
        "streetTypeId": "AVE",
        "placeName": "WINDSOR",
        "streetNameDisplayText": "COLLEGE AVE, WINDSOR"
      }
    ]
  },
  {
    "postal": "N9B8V4",
    "result": []
  },
  {
    "postal": "N9B4M2",
    "result": []
  },
  {
    "postal": "N9B0X2",
    "result": []
  },
  {
    "postal": "N9B5Z4",
    "result": []
  },
  {
    "postal": "N9B6V4",
    "result": []
  },
  {
    "postal": "N9B8J3",
    "result": []
  },
  {
    "postal": "N9B8E5",
    "result": []
  },
  {
    "postal": "N9B2V5",
    "result": [
      {
        "electoralDistricts": [
          {
            "election": null,
            "id": 119,
            "setId": 0,
            "name": "Windsor West"
          }
        ],
        "pollDivisionIds": [
          10142782
        ],
        "postalCode": "N9B2V5",
        "streetName": "RANDOLPH",
        "streetDirectionId": null,
        "streetTypeId": "AVE",
        "placeName": "WINDSOR",
        "streetNameDisplayText": "RANDOLPH AVE, WINDSOR"
      }
    ]
  },
  {
    "postal": "N9B7S1",
    "result": []
  },
  {
    "postal": "N9B6V3",
    "result": []
  },
  {
    "postal": "N9B2L8",
    "result": [
      {
        "electoralDistricts": [
          {
            "election": null,
            "id": 119,
            "setId": 0,
            "name": "Windsor West"
          }
        ],
        "pollDivisionIds": [
          10142783
        ],
        "postalCode": "N9B2L8",
        "streetName": "JOSEPHINE",
        "streetDirectionId": null,
        "streetTypeId": "AVE",
        "placeName": "WINDSOR",
        "streetNameDisplayText": "JOSEPHINE AVE, WINDSOR"
      }
    ]
  },
  {
    "postal": "N9B9V0",
    "result": []
  },
  {
    "postal": "N9B3M4",
    "result": [
      {
        "electoralDistricts": [
          {
            "election": null,
            "id": 119,
            "setId": 0,
            "name": "Windsor West"
          }
        ],
        "pollDivisionIds": [
          10142782
        ],
        "postalCode": "N9B3M4",
        "streetName": "DAYTONA",
        "streetDirectionId": null,
        "streetTypeId": "AVE",
        "placeName": "WINDSOR",
        "streetNameDisplayText": "DAYTONA AVE, WINDSOR"
      }
    ]
  },
  {
    "postal": "N9B5B2",
    "result": []
  },
  {
    "postal": "N9B3X5",
    "result": [
      {
        "electoralDistricts": [
          {
            "election": null,
            "id": 119,
            "setId": 0,
            "name": "Windsor West"
          }
        ],
        "pollDivisionIds": [
          10142784
        ],
        "postalCode": "N9B3X5",
        "streetName": "CURRY",
        "streetDirectionId": null,
        "streetTypeId": "AVE",
        "placeName": "WINDSOR",
        "streetNameDisplayText": "CURRY AVE, WINDSOR"
      },
      {
        "electoralDistricts": [
          {
            "election": null,
            "id": 119,
            "setId": 0,
            "name": "Windsor West"
          }
        ],
        "pollDivisionIds": [
          10142784
        ],
        "postalCode": "N9B3X5",
        "streetName": "EVERTS",
        "streetDirectionId": null,
        "streetTypeId": "AVE",
        "placeName": "WINDSOR",
        "streetNameDisplayText": "EVERTS AVE, WINDSOR"
      }
    ]
  },
  {
    "postal": "N9B9R7",
    "result": []
  },
  {
    "postal": "N9B2X2",
    "result": [
      {
        "electoralDistricts": [
          {
            "election": null,
            "id": 119,
            "setId": 0,
            "name": "Windsor West"
          }
        ],
        "pollDivisionIds": [
          10142779
        ],
        "postalCode": "N9B2X2",
        "streetName": "ASKIN",
        "streetDirectionId": null,
        "streetTypeId": "AVE",
        "placeName": "WINDSOR",
        "streetNameDisplayText": "ASKIN AVE, WINDSOR"
      }
    ]
  },
  {
    "postal": "N9B8Z6",
    "result": []
  },
  {
    "postal": "N9B4R4",
    "result": []
  },
  {
    "postal": "N9B2R1",
    "result": [
      {
        "electoralDistricts": [
          {
            "election": null,
            "id": 119,
            "setId": 0,
            "name": "Windsor West"
          }
        ],
        "pollDivisionIds": [
          10142782
        ],
        "postalCode": "N9B2R1",
        "streetName": "PARTINGTON",
        "streetDirectionId": null,
        "streetTypeId": "AVE",
        "placeName": "WINDSOR",
        "streetNameDisplayText": "PARTINGTON AVE, WINDSOR"
      }
    ]
  },
  {
    "postal": "N9B3R8",
    "result": [
      {
        "electoralDistricts": [
          {
            "election": null,
            "id": 119,
            "setId": 0,
            "name": "Windsor West"
          }
        ],
        "pollDivisionIds": [
          10142816
        ],
        "postalCode": "N9B3R8",
        "streetName": "BRIDGE",
        "streetDirectionId": null,
        "streetTypeId": "AVE",
        "placeName": "WINDSOR",
        "streetNameDisplayText": "BRIDGE AVE, WINDSOR"
      }
    ]
  },
  {
    "postal": "N9B9A1",
    "result": []
  },
  {
    "postal": "N9B8L3",
    "result": []
  },
  {
    "postal": "N9B9K4",
    "result": []
  },
  {
    "postal": "N9B9S3",
    "result": []
  },
  {
    "postal": "N9B8N7",
    "result": []
  },
  {
    "postal": "N9B1C6",
    "result": [
      {
        "electoralDistricts": [
          {
            "election": null,
            "id": 119,
            "setId": 0,
            "name": "Windsor West"
          }
        ],
        "pollDivisionIds": [
          10142779
        ],
        "postalCode": "N9B1C6",
        "streetName": "UNIVERSITY",
        "streetDirectionId": "W",
        "streetTypeId": "AVE",
        "placeName": "WINDSOR",
        "streetNameDisplayText": "UNIVERSITY AVE W, WINDSOR"
      }
    ]
  },
  {
    "postal": "N9B3Z8",
    "result": []
  },
  {
    "postal": "N9B8G5",
    "result": []
  },
  {
    "postal": "N9B5R6",
    "result": []
  },
  {
    "postal": "N9B2W3",
    "result": [
      {
        "electoralDistricts": [
          {
            "election": null,
            "id": 119,
            "setId": 0,
            "name": "Windsor West"
          }
        ],
        "pollDivisionIds": [
          10142784
        ],
        "postalCode": "N9B2W3",
        "streetName": "RANDOLPH",
        "streetDirectionId": null,
        "streetTypeId": "AVE",
        "placeName": "WINDSOR",
        "streetNameDisplayText": "RANDOLPH AVE, WINDSOR"
      }
    ]
  },
  {
    "postal": "N9B0A0",
    "result": []
  },
  {
    "postal": "N9B6P8",
    "result": []
  },
  {
    "postal": "N9B8N9",
    "result": []
  },
  {
    "postal": "N9B0S9",
    "result": []
  },
  {
    "postal": "N9B8G0",
    "result": []
  },
  {
    "postal": "N9B8C7",
    "result": []
  },
  {
    "postal": "N9B5X8",
    "result": []
  },
  {
    "postal": "N9B7E8",
    "result": []
  },
  {
    "postal": "N9B6X2",
    "result": []
  },
  {
    "postal": "N9B4C6",
    "result": []
  },
  {
    "postal": "N9B7H2",
    "result": []
  },
  {
    "postal": "N9B4R0",
    "result": []
  },
  {
    "postal": "N9B6J3",
    "result": []
  },
  {
    "postal": "N9B4B8",
    "result": []
  },
  {
    "postal": "N9B6H6",
    "result": []
  },
  {
    "postal": "N9B0S1",
    "result": []
  },
  {
    "postal": "N9B4E3",
    "result": []
  },
  {
    "postal": "N9B7K2",
    "result": []
  },
  {
    "postal": "N9B7T8",
    "result": []
  },
  {
    "postal": "N9B0J9",
    "result": []
  },
  {
    "postal": "N9B5J9",
    "result": []
  },
  {
    "postal": "N9B5S7",
    "result": []
  },
  {
    "postal": "N9B0G9",
    "result": []
  },
  {
    "postal": "N9B3J9",
    "result": []
  },
  {
    "postal": "N9B2Y0",
    "result": []
  },
  {
    "postal": "N9B8X5",
    "result": []
  },
  {
    "postal": "N9B2M7",
    "result": [
      {
        "electoralDistricts": [
          {
            "election": null,
            "id": 119,
            "setId": 0,
            "name": "Windsor West"
          }
        ],
        "pollDivisionIds": [
          10142780
        ],
        "postalCode": "N9B2M7",
        "streetName": "BRIDGE",
        "streetDirectionId": null,
        "streetTypeId": "AVE",
        "placeName": "WINDSOR",
        "streetNameDisplayText": "BRIDGE AVE, WINDSOR"
      }
    ]
  },
  {
    "postal": "N9B9Z3",
    "result": []
  },
  {
    "postal": "N9B7W2",
    "result": []
  },
  {
    "postal": "N9B3W0",
    "result": []
  },
  {
    "postal": "N9B3M1",
    "result": [
      {
        "electoralDistricts": [
          {
            "election": null,
            "id": 119,
            "setId": 0,
            "name": "Windsor West"
          }
        ],
        "pollDivisionIds": [
          10142784
        ],
        "postalCode": "N9B3M1",
        "streetName": "NORTHWAY",
        "streetDirectionId": null,
        "streetTypeId": "AVE",
        "placeName": "WINDSOR",
        "streetNameDisplayText": "NORTHWAY AVE, WINDSOR"
      }
    ]
  },
  {
    "postal": "N9B6A5",
    "result": []
  },
  {
    "postal": "N9B2M9",
    "result": [
      {
        "electoralDistricts": [
          {
            "election": null,
            "id": 119,
            "setId": 0,
            "name": "Windsor West"
          }
        ],
        "pollDivisionIds": [
          10142783
        ],
        "postalCode": "N9B2M9",
        "streetName": "BRIDGE",
        "streetDirectionId": null,
        "streetTypeId": "AVE",
        "placeName": "WINDSOR",
        "streetNameDisplayText": "BRIDGE AVE, WINDSOR"
      }
    ]
  },
  {
    "postal": "N9B5C3",
    "result": []
  },
  {
    "postal": "N9B0Y6",
    "result": []
  },
  {
    "postal": "N9B9H7",
    "result": []
  },
  {
    "postal": "N9B3L0",
    "result": []
  },
  {
    "postal": "N9B5N9",
    "result": []
  },
  {
    "postal": "N9B5E3",
    "result": []
  },
  {
    "postal": "N9B7M9",
    "result": []
  },
  {
    "postal": "N9B8N2",
    "result": []
  },
  {
    "postal": "N9B9H3",
    "result": []
  },
  {
    "postal": "N9B2K8",
    "result": [
      {
        "electoralDistricts": [
          {
            "election": null,
            "id": 119,
            "setId": 0,
            "name": "Windsor West"
          }
        ],
        "pollDivisionIds": [
          10142779
        ],
        "postalCode": "N9B2K8",
        "streetName": "JOSEPHINE",
        "streetDirectionId": null,
        "streetTypeId": "AVE",
        "placeName": "WINDSOR",
        "streetNameDisplayText": "JOSEPHINE AVE, WINDSOR"
      }
    ]
  },
  {
    "postal": "N9B9L0",
    "result": []
  },
  {
    "postal": "N9B6L9",
    "result": []
  },
  {
    "postal": "N9B6A8",
    "result": []
  },
  {
    "postal": "N9B2K6",
    "result": [
      {
        "electoralDistricts": [
          {
            "election": null,
            "id": 119,
            "setId": 0,
            "name": "Windsor West"
          }
        ],
        "pollDivisionIds": [
          10142782
        ],
        "postalCode": "N9B2K6",
        "streetName": "CAMPBELL",
        "streetDirectionId": null,
        "streetTypeId": "AVE",
        "placeName": "WINDSOR",
        "streetNameDisplayText": "CAMPBELL AVE, WINDSOR"
      }
    ]
  },
  {
    "postal": "N9B2M0",
    "result": []
  },
  {
    "postal": "N9B5X7",
    "result": []
  },
  {
    "postal": "N9B0M7",
    "result": []
  },
  {
    "postal": "N9B7A6",
    "result": []
  },
  {
    "postal": "N9B3C5",
    "result": [
      {
        "electoralDistricts": [
          {
            "election": null,
            "id": 119,
            "setId": 0,
            "name": "Windsor West"
          }
        ],
        "pollDivisionIds": [
          10142778
        ],
        "postalCode": "N9B3C5",
        "streetName": "MERRITT",
        "streetDirectionId": null,
        "streetTypeId": "DR",
        "placeName": "WINDSOR",
        "streetNameDisplayText": "MERRITT DR, WINDSOR"
      }
    ]
  },
  {
    "postal": "N9B2P2",
    "result": [
      {
        "electoralDistricts": [
          {
            "election": null,
            "id": 119,
            "setId": 0,
            "name": "Windsor West"
          }
        ],
        "pollDivisionIds": [
          10142783
        ],
        "postalCode": "N9B2P2",
        "streetName": "PARTINGTON",
        "streetDirectionId": null,
        "streetTypeId": "AVE",
        "placeName": "WINDSOR",
        "streetNameDisplayText": "PARTINGTON AVE, WINDSOR"
      }
    ]
  },
  {
    "postal": "N9B9N4",
    "result": []
  },
  {
    "postal": "N9B3M9",
    "result": [
      {
        "electoralDistricts": [
          {
            "election": null,
            "id": 119,
            "setId": 0,
            "name": "Windsor West"
          }
        ],
        "pollDivisionIds": [
          10142783
        ],
        "postalCode": "N9B3M9",
        "streetName": "COLLEGE",
        "streetDirectionId": null,
        "streetTypeId": "AVE",
        "placeName": "WINDSOR",
        "streetNameDisplayText": "COLLEGE AVE, WINDSOR"
      }
    ]
  },
  {
    "postal": "N9B8K6",
    "result": []
  },
  {
    "postal": "N9B1L2",
    "result": [
      {
        "electoralDistricts": [
          {
            "election": null,
            "id": 119,
            "setId": 0,
            "name": "Windsor West"
          }
        ],
        "pollDivisionIds": [
          10142780
        ],
        "postalCode": "N9B1L2",
        "streetName": "ROONEY",
        "streetDirectionId": null,
        "streetTypeId": "ST",
        "placeName": "WINDSOR",
        "streetNameDisplayText": "ROONEY ST, WINDSOR"
      }
    ]
  },
  {
    "postal": "N9B2Z9",
    "result": [
      {
        "electoralDistricts": [
          {
            "election": null,
            "id": 119,
            "setId": 0,
            "name": "Windsor West"
          }
        ],
        "pollDivisionIds": [
          10142778
        ],
        "postalCode": "N9B2Z9",
        "streetName": "CALIFORNIA",
        "streetDirectionId": null,
        "streetTypeId": "AVE",
        "placeName": "WINDSOR",
        "streetNameDisplayText": "CALIFORNIA AVE, WINDSOR"
      }
    ]
  },
  {
    "postal": "N9B2S2",
    "result": [
      {
        "electoralDistricts": [
          {
            "election": null,
            "id": 119,
            "setId": 0,
            "name": "Windsor West"
          }
        ],
        "pollDivisionIds": [
          10142778
        ],
        "postalCode": "N9B2S2",
        "streetName": "RANKIN",
        "streetDirectionId": null,
        "streetTypeId": "AVE",
        "placeName": "WINDSOR",
        "streetNameDisplayText": "RANKIN AVE, WINDSOR"
      }
    ]
  },
  {
    "postal": "N9B2W2",
    "result": [
      {
        "electoralDistricts": [
          {
            "election": null,
            "id": 119,
            "setId": 0,
            "name": "Windsor West"
          }
        ],
        "pollDivisionIds": [
          10142784
        ],
        "postalCode": "N9B2W2",
        "streetName": "RANDOLPH",
        "streetDirectionId": null,
        "streetTypeId": "AVE",
        "placeName": "WINDSOR",
        "streetNameDisplayText": "RANDOLPH AVE, WINDSOR"
      }
    ]
  },
  {
    "postal": "N9B2C3",
    "result": [
      {
        "electoralDistricts": [
          {
            "election": null,
            "id": 119,
            "setId": 0,
            "name": "Windsor West"
          }
        ],
        "pollDivisionIds": [
          10142783
        ],
        "postalCode": "N9B2C3",
        "streetName": "CURRY",
        "streetDirectionId": null,
        "streetTypeId": "AVE",
        "placeName": "WINDSOR",
        "streetNameDisplayText": "CURRY AVE, WINDSOR"
      }
    ]
  },
  {
    "postal": "N9B6L7",
    "result": []
  },
  {
    "postal": "N9B3K0",
    "result": []
  },
  {
    "postal": "N9B3C1",
    "result": []
  },
  {
    "postal": "N9B6M9",
    "result": []
  },
  {
    "postal": "N9B4N9",
    "result": []
  },
  {
    "postal": "N9B3Y7",
    "result": []
  },
  {
    "postal": "N9B2A9",
    "result": [
      {
        "electoralDistricts": [
          {
            "election": null,
            "id": 119,
            "setId": 0,
            "name": "Windsor West"
          }
        ],
        "pollDivisionIds": [
          10142783
        ],
        "postalCode": "N9B2A9",
        "streetName": "MCKAY",
        "streetDirectionId": null,
        "streetTypeId": "AVE",
        "placeName": "WINDSOR",
        "streetNameDisplayText": "MCKAY AVE, WINDSOR"
      }
    ]
  },
  {
    "postal": "N9B6H5",
    "result": []
  },
  {
    "postal": "N9B8B4",
    "result": []
  },
  {
    "postal": "N9B4Z2",
    "result": []
  },
  {
    "postal": "N9B9J0",
    "result": []
  },
  {
    "postal": "N9B7V7",
    "result": []
  },
  {
    "postal": "N9B5T5",
    "result": []
  },
  {
    "postal": "N9B4W5",
    "result": []
  },
  {
    "postal": "N9B1T8",
    "result": [
      {
        "electoralDistricts": [
          {
            "election": null,
            "id": 119,
            "setId": 0,
            "name": "Windsor West"
          }
        ],
        "pollDivisionIds": [
          10142783
        ],
        "postalCode": "N9B1T8",
        "streetName": "TECUMSEH",
        "streetDirectionId": "W",
        "streetTypeId": "RD",
        "placeName": "WINDSOR",
        "streetNameDisplayText": "TECUMSEH RD W, WINDSOR"
      }
    ]
  },
  {
    "postal": "N9B9G6",
    "result": []
  },
  {
    "postal": "N9B1H3",
    "result": [
      {
        "electoralDistricts": [
          {
            "election": null,
            "id": 119,
            "setId": 0,
            "name": "Windsor West"
          }
        ],
        "pollDivisionIds": [
          10142781
        ],
        "postalCode": "N9B1H3",
        "streetName": "WYANDOTTE",
        "streetDirectionId": "W",
        "streetTypeId": "ST",
        "placeName": "WINDSOR",
        "streetNameDisplayText": "WYANDOTTE ST W, WINDSOR"
      }
    ]
  },
  {
    "postal": "N9B5R5",
    "result": []
  },
  {
    "postal": "N9B8A4",
    "result": []
  },
  {
    "postal": "N9B3T6",
    "result": [
      {
        "electoralDistricts": [
          {
            "election": null,
            "id": 119,
            "setId": 0,
            "name": "Windsor West"
          }
        ],
        "pollDivisionIds": [
          10142783
        ],
        "postalCode": "N9B3T6",
        "streetName": "COLLEGE",
        "streetDirectionId": null,
        "streetTypeId": "AVE",
        "placeName": "WINDSOR",
        "streetNameDisplayText": "COLLEGE AVE, WINDSOR"
      }
    ]
  },
  {
    "postal": "N9B9W8",
    "result": []
  },
  {
    "postal": "N9B0N3",
    "result": []
  },
  {
    "postal": "N9B7V0",
    "result": []
  },
  {
    "postal": "N9B8T5",
    "result": []
  },
  {
    "postal": "N9B5N3",
    "result": []
  },
  {
    "postal": "N9B5G9",
    "result": []
  },
  {
    "postal": "N9B3X8",
    "result": [
      {
        "electoralDistricts": [
          {
            "election": null,
            "id": 119,
            "setId": 0,
            "name": "Windsor West"
          }
        ],
        "pollDivisionIds": [
          10142784
        ],
        "postalCode": "N9B3X8",
        "streetName": "CURRY",
        "streetDirectionId": null,
        "streetTypeId": "AVE",
        "placeName": "WINDSOR",
        "streetNameDisplayText": "CURRY AVE, WINDSOR"
      },
      {
        "electoralDistricts": [
          {
            "election": null,
            "id": 119,
            "setId": 0,
            "name": "Windsor West"
          }
        ],
        "pollDivisionIds": [
          10142784
        ],
        "postalCode": "N9B3X8",
        "streetName": "EVERTS",
        "streetDirectionId": null,
        "streetTypeId": "AVE",
        "placeName": "WINDSOR",
        "streetNameDisplayText": "EVERTS AVE, WINDSOR"
      },
      {
        "electoralDistricts": [
          {
            "election": null,
            "id": 119,
            "setId": 0,
            "name": "Windsor West"
          }
        ],
        "pollDivisionIds": [
          10142784
        ],
        "postalCode": "N9B3X8",
        "streetName": "KENORA",
        "streetDirectionId": null,
        "streetTypeId": "ST",
        "placeName": "WINDSOR",
        "streetNameDisplayText": "KENORA ST, WINDSOR"
      }
    ]
  },
  {
    "postal": "N9B9R3",
    "result": []
  },
  {
    "postal": "N9B2S1",
    "result": [
      {
        "electoralDistricts": [
          {
            "election": null,
            "id": 119,
            "setId": 0,
            "name": "Windsor West"
          }
        ],
        "pollDivisionIds": [
          10142778
        ],
        "postalCode": "N9B2S1",
        "streetName": "RANKIN",
        "streetDirectionId": null,
        "streetTypeId": "AVE",
        "placeName": "WINDSOR",
        "streetNameDisplayText": "RANKIN AVE, WINDSOR"
      }
    ]
  },
  {
    "postal": "N9B9J7",
    "result": []
  },
  {
    "postal": "N9B2J3",
    "result": [
      {
        "electoralDistricts": [
          {
            "election": null,
            "id": 119,
            "setId": 0,
            "name": "Windsor West"
          }
        ],
        "pollDivisionIds": [
          10142783
        ],
        "postalCode": "N9B2J3",
        "streetName": "CAMPBELL",
        "streetDirectionId": null,
        "streetTypeId": "AVE",
        "placeName": "WINDSOR",
        "streetNameDisplayText": "CAMPBELL AVE, WINDSOR"
      }
    ]
  },
  {
    "postal": "N9B3B6",
    "result": [
      {
        "electoralDistricts": [
          {
            "election": null,
            "id": 119,
            "setId": 0,
            "name": "Windsor West"
          }
        ],
        "pollDivisionIds": [
          10142780
        ],
        "postalCode": "N9B3B6",
        "streetName": "SUNSET",
        "streetDirectionId": null,
        "streetTypeId": "AVE",
        "placeName": "WINDSOR",
        "streetNameDisplayText": "SUNSET AVE, WINDSOR"
      }
    ]
  },
  {
    "postal": "N9B8J0",
    "result": []
  },
  {
    "postal": "N9B7R4",
    "result": []
  },
  {
    "postal": "N9B8K8",
    "result": []
  },
  {
    "postal": "N9B4P3",
    "result": []
  },
  {
    "postal": "N9B0A2",
    "result": []
  },
  {
    "postal": "N9B2G2",
    "result": [
      {
        "electoralDistricts": [
          {
            "election": null,
            "id": 119,
            "setId": 0,
            "name": "Windsor West"
          }
        ],
        "pollDivisionIds": [
          10142783
        ],
        "postalCode": "N9B2G2",
        "streetName": "MCEWAN",
        "streetDirectionId": null,
        "streetTypeId": "AVE",
        "placeName": "WINDSOR",
        "streetNameDisplayText": "MCEWAN AVE, WINDSOR"
      }
    ]
  },
  {
    "postal": "N9B5Y9",
    "result": []
  },
  {
    "postal": "N9B7X0",
    "result": []
  },
  {
    "postal": "N9B7W3",
    "result": []
  },
  {
    "postal": "N9B7X5",
    "result": []
  },
  {
    "postal": "N9B5K6",
    "result": []
  },
  {
    "postal": "N9B5B6",
    "result": []
  },
  {
    "postal": "N9B7Z0",
    "result": []
  },
  {
    "postal": "N9B9H6",
    "result": []
  },
  {
    "postal": "N9B1B4",
    "result": [
      {
        "electoralDistricts": [
          {
            "election": null,
            "id": 119,
            "setId": 0,
            "name": "Windsor West"
          }
        ],
        "pollDivisionIds": [
          10142779
        ],
        "postalCode": "N9B1B4",
        "streetName": "RIVERSIDE",
        "streetDirectionId": "W",
        "streetTypeId": "DR",
        "placeName": "WINDSOR",
        "streetNameDisplayText": "RIVERSIDE DR W, WINDSOR"
      }
    ]
  },
  {
    "postal": "N9B1A0",
    "result": []
  },
  {
    "postal": "N9B9A0",
    "result": []
  },
  {
    "postal": "N9B1M6",
    "result": [
      {
        "electoralDistricts": [
          {
            "election": null,
            "id": 119,
            "setId": 0,
            "name": "Windsor West"
          }
        ],
        "pollDivisionIds": [
          10142778
        ],
        "postalCode": "N9B1M6",
        "streetName": "COLLEGE",
        "streetDirectionId": null,
        "streetTypeId": "AVE",
        "placeName": "WINDSOR",
        "streetNameDisplayText": "COLLEGE AVE, WINDSOR"
      }
    ]
  },
  {
    "postal": "N9B5H0",
    "result": []
  },
  {
    "postal": "N9B1K6",
    "result": [
      {
        "electoralDistricts": [
          {
            "election": null,
            "id": 119,
            "setId": 0,
            "name": "Windsor West"
          }
        ],
        "pollDivisionIds": [
          10142780
        ],
        "postalCode": "N9B1K6",
        "streetName": "WYANDOTTE",
        "streetDirectionId": "W",
        "streetTypeId": "ST",
        "placeName": "WINDSOR",
        "streetNameDisplayText": "WYANDOTTE ST W, WINDSOR"
      }
    ]
  },
  {
    "postal": "N9B5E1",
    "result": []
  },
  {
    "postal": "N9B3T9",
    "result": [
      {
        "electoralDistricts": [
          {
            "election": null,
            "id": 119,
            "setId": 0,
            "name": "Windsor West"
          }
        ],
        "pollDivisionIds": [
          10142784
        ],
        "postalCode": "N9B3T9",
        "streetName": "ASKIN",
        "streetDirectionId": null,
        "streetTypeId": "AVE",
        "placeName": "WINDSOR",
        "streetNameDisplayText": "ASKIN AVE, WINDSOR"
      }
    ]
  },
  {
    "postal": "N9B2M6",
    "result": [
      {
        "electoralDistricts": [
          {
            "election": null,
            "id": 119,
            "setId": 0,
            "name": "Windsor West"
          }
        ],
        "pollDivisionIds": [
          10142780
        ],
        "postalCode": "N9B2M6",
        "streetName": "BRIDGE",
        "streetDirectionId": null,
        "streetTypeId": "AVE",
        "placeName": "WINDSOR",
        "streetNameDisplayText": "BRIDGE AVE, WINDSOR"
      }
    ]
  },
  {
    "postal": "N9B0G5",
    "result": []
  },
  {
    "postal": "N9B0Y2",
    "result": []
  },
  {
    "postal": "N9B2Y7",
    "result": [
      {
        "electoralDistricts": [
          {
            "election": null,
            "id": 119,
            "setId": 0,
            "name": "Windsor West"
          }
        ],
        "pollDivisionIds": [
          10142779
        ],
        "postalCode": "N9B2Y7",
        "streetName": "CALIFORNIA",
        "streetDirectionId": null,
        "streetTypeId": "AVE",
        "placeName": "WINDSOR",
        "streetNameDisplayText": "CALIFORNIA AVE, WINDSOR"
      },
      {
        "electoralDistricts": [
          {
            "election": null,
            "id": 27,
            "setId": 0,
            "name": "Essex"
          }
        ],
        "pollDivisionIds": [
          10138021
        ],
        "postalCode": "N9B2Y7",
        "streetName": "ESSEX COUNTY RD 18",
        "streetDirectionId": null,
        "streetTypeId": null,
        "placeName": "AMHERSTBURG",
        "streetNameDisplayText": "ESSEX COUNTY RD 18, AMHERSTBURG"
      }
    ]
  },
  {
    "postal": "N9B2J7",
    "result": [
      {
        "electoralDistricts": [
          {
            "election": null,
            "id": 119,
            "setId": 0,
            "name": "Windsor West"
          }
        ],
        "pollDivisionIds": [
          10142783
        ],
        "postalCode": "N9B2J7",
        "streetName": "CAMPBELL",
        "streetDirectionId": null,
        "streetTypeId": "AVE",
        "placeName": "WINDSOR",
        "streetNameDisplayText": "CAMPBELL AVE, WINDSOR"
      }
    ]
  },
  {
    "postal": "N9B4K7",
    "result": []
  },
  {
    "postal": "N9B7P9",
    "result": []
  },
  {
    "postal": "N9B8X0",
    "result": []
  },
  {
    "postal": "N9B3X1",
    "result": []
  },
  {
    "postal": "N9B1R5",
    "result": [
      {
        "electoralDistricts": [
          {
            "election": null,
            "id": 119,
            "setId": 0,
            "name": "Windsor West"
          }
        ],
        "pollDivisionIds": [
          10142778
        ],
        "postalCode": "N9B1R5",
        "streetName": "GIRARDOT",
        "streetDirectionId": null,
        "streetTypeId": "ST",
        "placeName": "WINDSOR",
        "streetNameDisplayText": "GIRARDOT ST, WINDSOR"
      }
    ]
  },
  {
    "postal": "N9B6X6",
    "result": []
  },
  {
    "postal": "N9B0Y1",
    "result": []
  },
  {
    "postal": "N9B8G1",
    "result": []
  },
  {
    "postal": "N9B3J3",
    "result": [
      {
        "electoralDistricts": [
          {
            "election": null,
            "id": 119,
            "setId": 0,
            "name": "Windsor West"
          }
        ],
        "pollDivisionIds": [
          10142792
        ],
        "postalCode": "N9B3J3",
        "streetName": "LONGFELLOW",
        "streetDirectionId": null,
        "streetTypeId": "AVE",
        "placeName": "WINDSOR",
        "streetNameDisplayText": "LONGFELLOW AVE, WINDSOR"
      }
    ]
  },
  {
    "postal": "N9B8C2",
    "result": []
  },
  {
    "postal": "N9B4X9",
    "result": []
  },
  {
    "postal": "N9B6G9",
    "result": []
  },
  {
    "postal": "N9B4M3",
    "result": []
  },
  {
    "postal": "N9B9P7",
    "result": []
  },
  {
    "postal": "N9B4E5",
    "result": []
  },
  {
    "postal": "N9B5K9",
    "result": []
  },
  {
    "postal": "N9B2V2",
    "result": [
      {
        "electoralDistricts": [
          {
            "election": null,
            "id": 119,
            "setId": 0,
            "name": "Windsor West"
          }
        ],
        "pollDivisionIds": [
          10142778
        ],
        "postalCode": "N9B2V2",
        "streetName": "RANDOLPH",
        "streetDirectionId": null,
        "streetTypeId": "AVE",
        "placeName": "WINDSOR",
        "streetNameDisplayText": "RANDOLPH AVE, WINDSOR"
      }
    ]
  },
  {
    "postal": "N9B2N9",
    "result": [
      {
        "electoralDistricts": [
          {
            "election": null,
            "id": 119,
            "setId": 0,
            "name": "Windsor West"
          }
        ],
        "pollDivisionIds": [
          10142780
        ],
        "postalCode": "N9B2N9",
        "streetName": "PARTINGTON",
        "streetDirectionId": null,
        "streetTypeId": "AVE",
        "placeName": "WINDSOR",
        "streetNameDisplayText": "PARTINGTON AVE, WINDSOR"
      }
    ]
  },
  {
    "postal": "N9B6L4",
    "result": []
  },
  {
    "postal": "N9B8E0",
    "result": []
  },
  {
    "postal": "N9B0N0",
    "result": []
  },
  {
    "postal": "N9B6R0",
    "result": []
  },
  {
    "postal": "N9B9C1",
    "result": []
  },
  {
    "postal": "N9B4H4",
    "result": []
  },
  {
    "postal": "N9B5W3",
    "result": []
  },
  {
    "postal": "N9B9N9",
    "result": []
  },
  {
    "postal": "N9B1V7",
    "result": [
      {
        "electoralDistricts": [
          {
            "election": null,
            "id": 119,
            "setId": 0,
            "name": "Windsor West"
          }
        ],
        "pollDivisionIds": [
          10142782
        ],
        "postalCode": "N9B1V7",
        "streetName": "TECUMSEH",
        "streetDirectionId": "W",
        "streetTypeId": "RD",
        "placeName": "WINDSOR",
        "streetNameDisplayText": "TECUMSEH RD W, WINDSOR"
      }
    ]
  },
  {
    "postal": "N9B8J1",
    "result": []
  },
  {
    "postal": "N9B5V9",
    "result": []
  },
  {
    "postal": "N9B2S8",
    "result": [
      {
        "electoralDistricts": [
          {
            "election": null,
            "id": 119,
            "setId": 0,
            "name": "Windsor West"
          }
        ],
        "pollDivisionIds": [
          10142782
        ],
        "postalCode": "N9B2S8",
        "streetName": "RANKIN",
        "streetDirectionId": null,
        "streetTypeId": "AVE",
        "placeName": "WINDSOR",
        "streetNameDisplayText": "RANKIN AVE, WINDSOR"
      }
    ]
  },
  {
    "postal": "N9B6P0",
    "result": []
  },
  {
    "postal": "N9B4J8",
    "result": []
  },
  {
    "postal": "N9B0N1",
    "result": []
  },
  {
    "postal": "N9B1Y7",
    "result": [
      {
        "electoralDistricts": [
          {
            "election": null,
            "id": 119,
            "setId": 0,
            "name": "Windsor West"
          }
        ],
        "pollDivisionIds": [
          10142781
        ],
        "postalCode": "N9B1Y7",
        "streetName": "CAMERON",
        "streetDirectionId": null,
        "streetTypeId": "AVE",
        "placeName": "WINDSOR",
        "streetNameDisplayText": "CAMERON AVE, WINDSOR"
      }
    ]
  },
  {
    "postal": "N9B7W5",
    "result": []
  },
  {
    "postal": "N9B3Z1",
    "result": []
  },
  {
    "postal": "N9B7M6",
    "result": []
  },
  {
    "postal": "N9B1W7",
    "result": [
      {
        "electoralDistricts": [
          {
            "election": null,
            "id": 119,
            "setId": 0,
            "name": "Windsor West"
          }
        ],
        "pollDivisionIds": [
          10142782
        ],
        "postalCode": "N9B1W7",
        "streetName": "ALGONQUIN",
        "streetDirectionId": null,
        "streetTypeId": "ST",
        "placeName": "WINDSOR",
        "streetNameDisplayText": "ALGONQUIN ST, WINDSOR"
      }
    ]
  },
  {
    "postal": "N9B1X1",
    "result": [
      {
        "electoralDistricts": [
          {
            "election": null,
            "id": 119,
            "setId": 0,
            "name": "Windsor West"
          }
        ],
        "pollDivisionIds": [
          10142784
        ],
        "postalCode": "N9B1X1",
        "streetName": "TOTTEN",
        "streetDirectionId": null,
        "streetTypeId": "ST",
        "placeName": "WINDSOR",
        "streetNameDisplayText": "TOTTEN ST, WINDSOR"
      }
    ]
  },
  {
    "postal": "N9B0C1",
    "result": []
  },
  {
    "postal": "N9B4N3",
    "result": []
  },
  {
    "postal": "N9B4S8",
    "result": []
  },
  {
    "postal": "N9B1H6",
    "result": [
      {
        "electoralDistricts": [
          {
            "election": null,
            "id": 118,
            "setId": 0,
            "name": "WindsorTecumseh"
          }
        ],
        "pollDivisionIds": [
          10142710
        ],
        "postalCode": "N9B1H6",
        "streetName": "WYANDOTTE",
        "streetDirectionId": "E",
        "streetTypeId": "ST",
        "placeName": "WINDSOR",
        "streetNameDisplayText": "WYANDOTTE ST E, WINDSOR"
      },
      {
        "electoralDistricts": [
          {
            "election": null,
            "id": 119,
            "setId": 0,
            "name": "Windsor West"
          }
        ],
        "pollDivisionIds": [
          10142781
        ],
        "postalCode": "N9B1H6",
        "streetName": "WYANDOTTE",
        "streetDirectionId": "W",
        "streetTypeId": "ST",
        "placeName": "WINDSOR",
        "streetNameDisplayText": "WYANDOTTE ST W, WINDSOR"
      }
    ]
  },
  {
    "postal": "N9B2Z4",
    "result": []
  },
  {
    "postal": "N9B7K3",
    "result": []
  },
  {
    "postal": "N9B8A2",
    "result": []
  },
  {
    "postal": "N9B6J1",
    "result": []
  },
  {
    "postal": "N9B5Z6",
    "result": []
  },
  {
    "postal": "N9B3Z0",
    "result": []
  },
  {
    "postal": "N9B8M0",
    "result": []
  },
  {
    "postal": "N9B1Z6",
    "result": [
      {
        "electoralDistricts": [
          {
            "election": null,
            "id": 119,
            "setId": 0,
            "name": "Windsor West"
          }
        ],
        "pollDivisionIds": [
          10142781
        ],
        "postalCode": "N9B1Z6",
        "streetName": "MCKAY",
        "streetDirectionId": null,
        "streetTypeId": "AVE",
        "placeName": "WINDSOR",
        "streetNameDisplayText": "MCKAY AVE, WINDSOR"
      }
    ]
  },
  {
    "postal": "N9B8K7",
    "result": []
  },
  {
    "postal": "N9B1N3",
    "result": [
      {
        "electoralDistricts": [
          {
            "election": null,
            "id": 119,
            "setId": 0,
            "name": "Windsor West"
          }
        ],
        "pollDivisionIds": [
          10142783
        ],
        "postalCode": "N9B1N3",
        "streetName": "ADANAC",
        "streetDirectionId": null,
        "streetTypeId": "AVE",
        "placeName": "WINDSOR",
        "streetNameDisplayText": "ADANAC AVE, WINDSOR"
      }
    ]
  },
  {
    "postal": "N9B9S2",
    "result": []
  },
  {
    "postal": "N9B2K1",
    "result": [
      {
        "electoralDistricts": [
          {
            "election": null,
            "id": 119,
            "setId": 0,
            "name": "Windsor West"
          }
        ],
        "pollDivisionIds": [
          10142782
        ],
        "postalCode": "N9B2K1",
        "streetName": "CAMPBELL",
        "streetDirectionId": null,
        "streetTypeId": "AVE",
        "placeName": "WINDSOR",
        "streetNameDisplayText": "CAMPBELL AVE, WINDSOR"
      }
    ]
  },
  {
    "postal": "N9B1E8",
    "result": [
      {
        "electoralDistricts": [
          {
            "election": null,
            "id": 119,
            "setId": 0,
            "name": "Windsor West"
          }
        ],
        "pollDivisionIds": [
          10142779
        ],
        "postalCode": "N9B1E8",
        "streetName": "UNIVERSITY",
        "streetDirectionId": "W",
        "streetTypeId": "AVE",
        "placeName": "WINDSOR",
        "streetNameDisplayText": "UNIVERSITY AVE W, WINDSOR"
      }
    ]
  },
  {
    "postal": "N9B9B8",
    "result": []
  },
  {
    "postal": "N9B7X4",
    "result": []
  },
  {
    "postal": "N9B1Z4",
    "result": [
      {
        "electoralDistricts": [
          {
            "election": null,
            "id": 119,
            "setId": 0,
            "name": "Windsor West"
          }
        ],
        "pollDivisionIds": [
          10142779
        ],
        "postalCode": "N9B1Z4",
        "streetName": "MCKAY",
        "streetDirectionId": null,
        "streetTypeId": "AVE",
        "placeName": "WINDSOR",
        "streetNameDisplayText": "MCKAY AVE, WINDSOR"
      }
    ]
  },
  {
    "postal": "N9B2C7",
    "result": [
      {
        "electoralDistricts": [
          {
            "election": null,
            "id": 119,
            "setId": 0,
            "name": "Windsor West"
          }
        ],
        "pollDivisionIds": [
          10142783
        ],
        "postalCode": "N9B2C7",
        "streetName": "CURRY",
        "streetDirectionId": null,
        "streetTypeId": "AVE",
        "placeName": "WINDSOR",
        "streetNameDisplayText": "CURRY AVE, WINDSOR"
      }
    ]
  },
  {
    "postal": "N9B2E7",
    "result": [
      {
        "electoralDistricts": [
          {
            "election": null,
            "id": 119,
            "setId": 0,
            "name": "Windsor West"
          }
        ],
        "pollDivisionIds": [
          10142781
        ],
        "postalCode": "N9B2E7",
        "streetName": "MCEWAN",
        "streetDirectionId": null,
        "streetTypeId": "AVE",
        "placeName": "WINDSOR",
        "streetNameDisplayText": "MCEWAN AVE, WINDSOR"
      }
    ]
  },
  {
    "postal": "N9B3R1",
    "result": []
  },
  {
    "postal": "N9B4K4",
    "result": []
  },
  {
    "postal": "N9B9G3",
    "result": []
  },
  {
    "postal": "N9B6C9",
    "result": []
  },
  {
    "postal": "N9B9H5",
    "result": []
  },
  {
    "postal": "N9B1P5",
    "result": [
      {
        "electoralDistricts": [
          {
            "election": null,
            "id": 119,
            "setId": 0,
            "name": "Windsor West"
          }
        ],
        "pollDivisionIds": [
          10142783
        ],
        "postalCode": "N9B1P5",
        "streetName": "GROVE",
        "streetDirectionId": null,
        "streetTypeId": "AVE",
        "placeName": "WINDSOR",
        "streetNameDisplayText": "GROVE AVE, WINDSOR"
      }
    ]
  },
  {
    "postal": "N9B2J5",
    "result": [
      {
        "electoralDistricts": [
          {
            "election": null,
            "id": 119,
            "setId": 0,
            "name": "Windsor West"
          }
        ],
        "pollDivisionIds": [
          10142783
        ],
        "postalCode": "N9B2J5",
        "streetName": "CAMPBELL",
        "streetDirectionId": null,
        "streetTypeId": "AVE",
        "placeName": "WINDSOR",
        "streetNameDisplayText": "CAMPBELL AVE, WINDSOR"
      }
    ]
  },
  {
    "postal": "N9B4W6",
    "result": []
  },
  {
    "postal": "N9B8M8",
    "result": []
  },
  {
    "postal": "N9B6C5",
    "result": []
  },
  {
    "postal": "N9B9H0",
    "result": []
  },
  {
    "postal": "N9B1X8",
    "result": []
  },
  {
    "postal": "N9B3H4",
    "result": []
  },
  {
    "postal": "N9B4E7",
    "result": []
  },
  {
    "postal": "N9B8A0",
    "result": []
  },
  {
    "postal": "N9B1Z7",
    "result": [
      {
        "electoralDistricts": [
          {
            "election": null,
            "id": 119,
            "setId": 0,
            "name": "Windsor West"
          }
        ],
        "pollDivisionIds": [
          10142781
        ],
        "postalCode": "N9B1Z7",
        "streetName": "MCKAY",
        "streetDirectionId": null,
        "streetTypeId": "AVE",
        "placeName": "WINDSOR",
        "streetNameDisplayText": "MCKAY AVE, WINDSOR"
      }
    ]
  },
  {
    "postal": "N9B7Z3",
    "result": []
  },
  {
    "postal": "N9B0L7",
    "result": []
  },
  {
    "postal": "N9B2C6",
    "result": [
      {
        "electoralDistricts": [
          {
            "election": null,
            "id": 119,
            "setId": 0,
            "name": "Windsor West"
          }
        ],
        "pollDivisionIds": [
          10142783
        ],
        "postalCode": "N9B2C6",
        "streetName": "CURRY",
        "streetDirectionId": null,
        "streetTypeId": "AVE",
        "placeName": "WINDSOR",
        "streetNameDisplayText": "CURRY AVE, WINDSOR"
      }
    ]
  },
  {
    "postal": "N9B6M3",
    "result": []
  },
  {
    "postal": "N9B2J1",
    "result": [
      {
        "electoralDistricts": [
          {
            "election": null,
            "id": 119,
            "setId": 0,
            "name": "Windsor West"
          }
        ],
        "pollDivisionIds": [
          10142783
        ],
        "postalCode": "N9B2J1",
        "streetName": "CAMPBELL",
        "streetDirectionId": null,
        "streetTypeId": "AVE",
        "placeName": "WINDSOR",
        "streetNameDisplayText": "CAMPBELL AVE, WINDSOR"
      }
    ]
  },
  {
    "postal": "N9B3E3",
    "result": [
      {
        "electoralDistricts": [
          {
            "election": null,
            "id": 119,
            "setId": 0,
            "name": "Windsor West"
          }
        ],
        "pollDivisionIds": [
          10142782
        ],
        "postalCode": "N9B3E3",
        "streetName": "EVERTS",
        "streetDirectionId": null,
        "streetTypeId": "AVE",
        "placeName": "WINDSOR",
        "streetNameDisplayText": "EVERTS AVE, WINDSOR"
      }
    ]
  },
  {
    "postal": "N9B6Z9",
    "result": []
  },
  {
    "postal": "N9B3M3",
    "result": []
  },
  {
    "postal": "N9B9B1",
    "result": []
  },
  {
    "postal": "N9B9J5",
    "result": []
  },
  {
    "postal": "N9B4V8",
    "result": []
  },
  {
    "postal": "N9B6W2",
    "result": []
  },
  {
    "postal": "N9B0V5",
    "result": []
  },
  {
    "postal": "N9B0Z8",
    "result": []
  },
  {
    "postal": "N9B5G2",
    "result": []
  },
  {
    "postal": "N9B4N4",
    "result": []
  },
  {
    "postal": "N9B8G7",
    "result": []
  },
  {
    "postal": "N9B8W1",
    "result": []
  },
  {
    "postal": "N9B1S6",
    "result": [
      {
        "electoralDistricts": [
          {
            "election": null,
            "id": 119,
            "setId": 0,
            "name": "Windsor West"
          }
        ],
        "pollDivisionIds": [
          10142783
        ],
        "postalCode": "N9B1S6",
        "streetName": "PELLETIER",
        "streetDirectionId": null,
        "streetTypeId": "ST",
        "placeName": "WINDSOR",
        "streetNameDisplayText": "PELLETIER ST, WINDSOR"
      }
    ]
  },
  {
    "postal": "N9B4E0",
    "result": []
  },
  {
    "postal": "N9B4L9",
    "result": []
  },
  {
    "postal": "N9B5Z9",
    "result": []
  },
  {
    "postal": "N9B5V3",
    "result": []
  },
  {
    "postal": "N9B4V2",
    "result": []
  },
  {
    "postal": "N9B7C0",
    "result": []
  },
  {
    "postal": "N9B6L0",
    "result": []
  },
  {
    "postal": "N9B1S9",
    "result": [
      {
        "electoralDistricts": [
          {
            "election": null,
            "id": 119,
            "setId": 0,
            "name": "Windsor West"
          }
        ],
        "pollDivisionIds": [
          10142783
        ],
        "postalCode": "N9B1S9",
        "streetName": "LEDUC",
        "streetDirectionId": null,
        "streetTypeId": "ST",
        "placeName": "WINDSOR",
        "streetNameDisplayText": "LEDUC ST, WINDSOR"
      }
    ]
  },
  {
    "postal": "N9B7R6",
    "result": []
  },
  {
    "postal": "N9B7J0",
    "result": []
  },
  {
    "postal": "N9B5M0",
    "result": []
  },
  {
    "postal": "N9B2E5",
    "result": [
      {
        "electoralDistricts": [
          {
            "election": null,
            "id": 119,
            "setId": 0,
            "name": "Windsor West"
          }
        ],
        "pollDivisionIds": [
          10142781
        ],
        "postalCode": "N9B2E5",
        "streetName": "MCEWAN",
        "streetDirectionId": null,
        "streetTypeId": "AVE",
        "placeName": "WINDSOR",
        "streetNameDisplayText": "MCEWAN AVE, WINDSOR"
      }
    ]
  },
  {
    "postal": "N9B7C7",
    "result": []
  },
  {
    "postal": "N9B5C0",
    "result": []
  },
  {
    "postal": "N9B8V9",
    "result": []
  },
  {
    "postal": "N9B7E0",
    "result": []
  },
  {
    "postal": "N9B6R4",
    "result": []
  },
  {
    "postal": "N9B3Z7",
    "result": []
  },
  {
    "postal": "N9B1J9",
    "result": [
      {
        "electoralDistricts": [
          {
            "election": null,
            "id": 119,
            "setId": 0,
            "name": "Windsor West"
          }
        ],
        "pollDivisionIds": [
          10142780
        ],
        "postalCode": "N9B1J9",
        "streetName": "WYANDOTTE",
        "streetDirectionId": "W",
        "streetTypeId": "ST",
        "placeName": "WINDSOR",
        "streetNameDisplayText": "WYANDOTTE ST W, WINDSOR"
      }
    ]
  },
  {
    "postal": "N9B7K6",
    "result": []
  },
  {
    "postal": "N9B7Y5",
    "result": []
  },
  {
    "postal": "N9B1B7",
    "result": [
      {
        "electoralDistricts": [
          {
            "election": null,
            "id": 119,
            "setId": 0,
            "name": "Windsor West"
          }
        ],
        "pollDivisionIds": [
          10142779
        ],
        "postalCode": "N9B1B7",
        "streetName": "UNIVERSITY",
        "streetDirectionId": "W",
        "streetTypeId": "AVE",
        "placeName": "WINDSOR",
        "streetNameDisplayText": "UNIVERSITY AVE W, WINDSOR"
      }
    ]
  },
  {
    "postal": "N9B4S9",
    "result": []
  },
  {
    "postal": "N9B9R9",
    "result": []
  },
  {
    "postal": "N9B5K7",
    "result": []
  },
  {
    "postal": "N9B6P2",
    "result": []
  },
  {
    "postal": "N9B2C5",
    "result": [
      {
        "electoralDistricts": [
          {
            "election": null,
            "id": 119,
            "setId": 0,
            "name": "Windsor West"
          }
        ],
        "pollDivisionIds": [
          10142783
        ],
        "postalCode": "N9B2C5",
        "streetName": "CURRY",
        "streetDirectionId": null,
        "streetTypeId": "AVE",
        "placeName": "WINDSOR",
        "streetNameDisplayText": "CURRY AVE, WINDSOR"
      }
    ]
  },
  {
    "postal": "N9B2N0",
    "result": []
  },
  {
    "postal": "N9B1G0",
    "result": []
  },
  {
    "postal": "N9B4K5",
    "result": []
  },
  {
    "postal": "N9B9B5",
    "result": []
  },
  {
    "postal": "N9B6T5",
    "result": []
  },
  {
    "postal": "N9B1N8",
    "result": [
      {
        "electoralDistricts": [
          {
            "election": null,
            "id": 119,
            "setId": 0,
            "name": "Windsor West"
          }
        ],
        "pollDivisionIds": [
          10142778
        ],
        "postalCode": "N9B1N8",
        "streetName": "VERCHERES",
        "streetDirectionId": null,
        "streetTypeId": "AVE",
        "placeName": "WINDSOR",
        "streetNameDisplayText": "VERCHERES AVE, WINDSOR"
      }
    ]
  },
  {
    "postal": "N9B0C0",
    "result": []
  },
  {
    "postal": "N9B0R9",
    "result": []
  },
  {
    "postal": "N9B7L1",
    "result": []
  },
  {
    "postal": "N9B3Y8",
    "result": []
  },
  {
    "postal": "N9B7X9",
    "result": []
  },
  {
    "postal": "N9B1A7",
    "result": [
      {
        "electoralDistricts": [
          {
            "election": null,
            "id": 118,
            "setId": 0,
            "name": "WindsorTecumseh"
          }
        ],
        "pollDivisionIds": [
          10142710
        ],
        "postalCode": "N9B1A7",
        "streetName": "RIVERSIDE",
        "streetDirectionId": "E",
        "streetTypeId": "DR",
        "placeName": "WINDSOR",
        "streetNameDisplayText": "RIVERSIDE DR E, WINDSOR"
      },
      {
        "electoralDistricts": [
          {
            "election": null,
            "id": 119,
            "setId": 0,
            "name": "Windsor West"
          }
        ],
        "pollDivisionIds": [
          10142779
        ],
        "postalCode": "N9B1A7",
        "streetName": "RIVERSIDE",
        "streetDirectionId": "W",
        "streetTypeId": "DR",
        "placeName": "WINDSOR",
        "streetNameDisplayText": "RIVERSIDE DR W, WINDSOR"
      }
    ]
  },
  {
    "postal": "N9B2T9",
    "result": [
      {
        "electoralDistricts": [
          {
            "election": null,
            "id": 119,
            "setId": 0,
            "name": "Windsor West"
          }
        ],
        "pollDivisionIds": [
          10142778,
          10142780
        ],
        "postalCode": "N9B2T9",
        "streetName": "RANDOLPH",
        "streetDirectionId": null,
        "streetTypeId": "AVE",
        "placeName": "WINDSOR",
        "streetNameDisplayText": "RANDOLPH AVE, WINDSOR"
      }
    ]
  },
  {
    "postal": "N9B2E6",
    "result": [
      {
        "electoralDistricts": [
          {
            "election": null,
            "id": 119,
            "setId": 0,
            "name": "Windsor West"
          }
        ],
        "pollDivisionIds": [
          10142781,
          10142779
        ],
        "postalCode": "N9B2E6",
        "streetName": "MCEWAN",
        "streetDirectionId": null,
        "streetTypeId": "AVE",
        "placeName": "WINDSOR",
        "streetNameDisplayText": "MCEWAN AVE, WINDSOR"
      }
    ]
  },
  {
    "postal": "N9B8Y1",
    "result": []
  },
  {
    "postal": "N9B0J5",
    "result": []
  },
  {
    "postal": "N9B4J1",
    "result": []
  },
  {
    "postal": "N9B1A5",
    "result": [
      {
        "electoralDistricts": [
          {
            "election": null,
            "id": 119,
            "setId": 0,
            "name": "Windsor West"
          }
        ],
        "pollDivisionIds": [
          10142779
        ],
        "postalCode": "N9B1A5",
        "streetName": "RIVERSIDE",
        "streetDirectionId": "W",
        "streetTypeId": "DR",
        "placeName": "WINDSOR",
        "streetNameDisplayText": "RIVERSIDE DR W, WINDSOR"
      }
    ]
  },
  {
    "postal": "N9B6Z6",
    "result": []
  },
  {
    "postal": "N9B5K4",
    "result": []
  },
  {
    "postal": "N9B7R9",
    "result": []
  },
  {
    "postal": "N9B6G4",
    "result": []
  }
]
