[
  {
    "postal": "K7V9J6",
    "result": []
  },
  {
    "postal": "K7V9Z5",
    "result": []
  },
  {
    "postal": "K7V7H8",
    "result": []
  },
  {
    "postal": "K7V0P6",
    "result": []
  },
  {
    "postal": "K7V0S7",
    "result": []
  },
  {
    "postal": "K7V8B9",
    "result": []
  },
  {
    "postal": "K7V2A6",
    "result": [
      {
        "electoralDistricts": [
          {
            "election": null,
            "id": 88,
            "name": "Renfrew—Nipissing—Pembroke"
          }
        ],
        "pollDivisionIds": [
          10141232
        ],
        "postalCode": "K7V2A6",
        "streetName": "QUEEN",
        "streetDirectionId": "S",
        "streetTypeId": "ST",
        "placeName": "RENFREW",
        "streetNameDisplayText": "QUEEN ST S, RENFREW"
      }
    ]
  },
  {
    "postal": "K7V7V2",
    "result": []
  },
  {
    "postal": "K7V9P4",
    "result": []
  },
  {
    "postal": "K7V6G0",
    "result": []
  },
  {
    "postal": "K7V2K0",
    "result": []
  },
  {
    "postal": "K7V7N6",
    "result": []
  },
  {
    "postal": "K7V5R3",
    "result": []
  },
  {
    "postal": "K7V7K0",
    "result": []
  },
  {
    "postal": "K7V3R2",
    "result": [
      {
        "electoralDistricts": [
          {
            "election": null,
            "id": 88,
            "name": "Renfrew—Nipissing—Pembroke"
          }
        ],
        "pollDivisionIds": [
          10141232
        ],
        "postalCode": "K7V3R2",
        "streetName": "BRIDGE",
        "streetDirectionId": null,
        "streetTypeId": "ST",
        "placeName": "RENFREW",
        "streetNameDisplayText": "BRIDGE ST, RENFREW"
      }
    ]
  },
  {
    "postal": "K7V0J1",
    "result": []
  },
  {
    "postal": "K7V0B0",
    "result": []
  },
  {
    "postal": "K7V5Z2",
    "result": []
  },
  {
    "postal": "K7V7P3",
    "result": []
  },
  {
    "postal": "K7V2K3",
    "result": [
      {
        "electoralDistricts": [
          {
            "election": null,
            "id": 88,
            "name": "Renfrew—Nipissing—Pembroke"
          }
        ],
        "pollDivisionIds": [
          10141232
        ],
        "postalCode": "K7V2K3",
        "streetName": "JUNE",
        "streetDirectionId": null,
        "streetTypeId": "ST",
        "placeName": "RENFREW",
        "streetNameDisplayText": "JUNE ST, RENFREW"
      }
    ]
  },
  {
    "postal": "K7V7Y6",
    "result": []
  },
  {
    "postal": "K7V1L9",
    "result": [
      {
        "electoralDistricts": [
          {
            "election": null,
            "id": 88,
            "name": "Renfrew—Nipissing—Pembroke"
          }
        ],
        "pollDivisionIds": [
          10141231
        ],
        "postalCode": "K7V1L9",
        "streetName": "MOORE",
        "streetDirectionId": null,
        "streetTypeId": "ST",
        "placeName": "RENFREW",
        "streetNameDisplayText": "MOORE ST, RENFREW"
      }
    ]
  },
  {
    "postal": "K7V8T0",
    "result": []
  },
  {
    "postal": "K7V3K8",
    "result": [
      {
        "electoralDistricts": [
          {
            "election": null,
            "id": 88,
            "name": "Renfrew—Nipissing—Pembroke"
          }
        ],
        "pollDivisionIds": [
          10141232
        ],
        "postalCode": "K7V3K8",
        "streetName": "MUNROE",
        "streetDirectionId": "W",
        "streetTypeId": "AVE",
        "placeName": "RENFREW",
        "streetNameDisplayText": "MUNROE AVE W, RENFREW"
      }
    ]
  },
  {
    "postal": "K7V5W9",
    "result": []
  },
  {
    "postal": "K7V6T9",
    "result": []
  },
  {
    "postal": "K7V4H1",
    "result": []
  },
  {
    "postal": "K7V7A2",
    "result": []
  },
  {
    "postal": "K7V5G0",
    "result": []
  },
  {
    "postal": "K7V8V5",
    "result": []
  },
  {
    "postal": "K7V2Y8",
    "result": [
      {
        "electoralDistricts": [
          {
            "election": null,
            "id": 88,
            "name": "Renfrew—Nipissing—Pembroke"
          }
        ],
        "pollDivisionIds": [
          10141233
        ],
        "postalCode": "K7V2Y8",
        "streetName": "MCNAB",
        "streetDirectionId": null,
        "streetTypeId": "AVE",
        "placeName": "RENFREW",
        "streetNameDisplayText": "MCNAB AVE, RENFREW"
      }
    ]
  },
  {
    "postal": "K7V2B6",
    "result": [
      {
        "electoralDistricts": [
          {
            "election": null,
            "id": 88,
            "name": "Renfrew—Nipissing—Pembroke"
          }
        ],
        "pollDivisionIds": [
          10141231
        ],
        "postalCode": "K7V2B6",
        "streetName": "BALDWIN",
        "streetDirectionId": null,
        "streetTypeId": "ST",
        "placeName": "RENFREW",
        "streetNameDisplayText": "BALDWIN ST, RENFREW"
      }
    ]
  },
  {
    "postal": "K7V4W8",
    "result": []
  },
  {
    "postal": "K7V8H7",
    "result": []
  },
  {
    "postal": "K7V5P1",
    "result": []
  },
  {
    "postal": "K7V2B8",
    "result": [
      {
        "electoralDistricts": [
          {
            "election": null,
            "id": 88,
            "name": "Renfrew—Nipissing—Pembroke"
          }
        ],
        "pollDivisionIds": [
          10141231
        ],
        "postalCode": "K7V2B8",
        "streetName": "BALDWIN",
        "streetDirectionId": null,
        "streetTypeId": "ST",
        "placeName": "RENFREW",
        "streetNameDisplayText": "BALDWIN ST, RENFREW"
      }
    ]
  },
  {
    "postal": "K7V0P2",
    "result": []
  },
  {
    "postal": "K7V9M1",
    "result": []
  },
  {
    "postal": "K7V3G0",
    "result": []
  },
  {
    "postal": "K7V9Z2",
    "result": []
  },
  {
    "postal": "K7V2A0",
    "result": []
  },
  {
    "postal": "K7V6Y0",
    "result": []
  },
  {
    "postal": "K7V2Z8",
    "result": []
  },
  {
    "postal": "K7V7Y3",
    "result": []
  },
  {
    "postal": "K7V6Z5",
    "result": []
  },
  {
    "postal": "K7V6E0",
    "result": []
  },
  {
    "postal": "K7V9B7",
    "result": []
  },
  {
    "postal": "K7V9S5",
    "result": []
  },
  {
    "postal": "K7V3X3",
    "result": [
      {
        "electoralDistricts": [
          {
            "election": null,
            "id": 88,
            "name": "Renfrew—Nipissing—Pembroke"
          }
        ],
        "pollDivisionIds": [
          10141231
        ],
        "postalCode": "K7V3X3",
        "streetName": "MCANDREW",
        "streetDirectionId": null,
        "streetTypeId": "AVE",
        "placeName": "RENFREW",
        "streetNameDisplayText": "MCANDREW AVE, RENFREW"
      }
    ]
  },
  {
    "postal": "K7V7R5",
    "result": []
  },
  {
    "postal": "K7V2X3",
    "result": [
      {
        "electoralDistricts": [
          {
            "election": null,
            "id": 88,
            "name": "Renfrew—Nipissing—Pembroke"
          }
        ],
        "pollDivisionIds": [
          10141233
        ],
        "postalCode": "K7V2X3",
        "streetName": "SIDNEY",
        "streetDirectionId": null,
        "streetTypeId": "AVE",
        "placeName": "RENFREW",
        "streetNameDisplayText": "SIDNEY AVE, RENFREW"
      }
    ]
  },
  {
    "postal": "K7V8Z9",
    "result": []
  },
  {
    "postal": "K7V0N4",
    "result": []
  },
  {
    "postal": "K7V1K1",
    "result": [
      {
        "electoralDistricts": [
          {
            "election": null,
            "id": 88,
            "name": "Renfrew—Nipissing—Pembroke"
          }
        ],
        "pollDivisionIds": [
          10141233
        ],
        "postalCode": "K7V1K1",
        "streetName": "BARR",
        "streetDirectionId": null,
        "streetTypeId": "ST",
        "placeName": "RENFREW",
        "streetNameDisplayText": "BARR ST, RENFREW"
      }
    ]
  },
  {
    "postal": "K7V1S3",
    "result": [
      {
        "electoralDistricts": [
          {
            "election": null,
            "id": 88,
            "name": "Renfrew—Nipissing—Pembroke"
          }
        ],
        "pollDivisionIds": [
          10141233
        ],
        "postalCode": "K7V1S3",
        "streetName": "RAGLAN",
        "streetDirectionId": "S",
        "streetTypeId": "ST",
        "placeName": "RENFREW",
        "streetNameDisplayText": "RAGLAN ST S, RENFREW"
      }
    ]
  },
  {
    "postal": "K7V6M4",
    "result": []
  },
  {
    "postal": "K7V9A9",
    "result": []
  },
  {
    "postal": "K7V9Z9",
    "result": []
  },
  {
    "postal": "K7V6T4",
    "result": []
  },
  {
    "postal": "K7V0B2",
    "result": [
      {
        "electoralDistricts": [
          {
            "election": null,
            "id": 88,
            "name": "Renfrew—Nipissing—Pembroke"
          }
        ],
        "pollDivisionIds": [
          10141235
        ],
        "postalCode": "K7V0B2",
        "streetName": "MASK",
        "streetDirectionId": null,
        "streetTypeId": "RD",
        "placeName": "RENFREW",
        "streetNameDisplayText": "MASK RD, RENFREW"
      }
    ]
  },
  {
    "postal": "K7V2L9",
    "result": [
      {
        "electoralDistricts": [
          {
            "election": null,
            "id": 88,
            "name": "Renfrew—Nipissing—Pembroke"
          }
        ],
        "pollDivisionIds": [
          10141233
        ],
        "postalCode": "K7V2L9",
        "streetName": "GRAHAM",
        "streetDirectionId": null,
        "streetTypeId": "AVE",
        "placeName": "RENFREW",
        "streetNameDisplayText": "GRAHAM AVE, RENFREW"
      }
    ]
  },
  {
    "postal": "K7V8K9",
    "result": []
  },
  {
    "postal": "K7V2H9",
    "result": [
      {
        "electoralDistricts": [
          {
            "election": null,
            "id": 88,
            "name": "Renfrew—Nipissing—Pembroke"
          }
        ],
        "pollDivisionIds": [
          10141232
        ],
        "postalCode": "K7V2H9",
        "streetName": "ROSS",
        "streetDirectionId": null,
        "streetTypeId": "ST",
        "placeName": "RENFREW",
        "streetNameDisplayText": "ROSS ST, RENFREW"
      }
    ]
  },
  {
    "postal": "K7V3Z6",
    "result": [
      {
        "electoralDistricts": [
          {
            "election": null,
            "id": 88,
            "name": "Renfrew—Nipissing—Pembroke"
          }
        ],
        "pollDivisionIds": [
          10141231
        ],
        "postalCode": "K7V3Z6",
        "streetName": "60",
        "streetDirectionId": null,
        "streetTypeId": "HWY",
        "placeName": "RENFREW",
        "streetNameDisplayText": "60 HWY, RENFREW"
      },
      {
        "electoralDistricts": [
          {
            "election": null,
            "id": 88,
            "name": "Renfrew—Nipissing—Pembroke"
          }
        ],
        "pollDivisionIds": [
          10141231
        ],
        "postalCode": "K7V3Z6",
        "streetName": "BARR",
        "streetDirectionId": null,
        "streetTypeId": "LINE",
        "placeName": "RENFREW",
        "streetNameDisplayText": "BARR LINE, RENFREW"
      },
      {
        "electoralDistricts": [
          {
            "election": null,
            "id": 88,
            "name": "Renfrew—Nipissing—Pembroke"
          }
        ],
        "pollDivisionIds": [
          10141231
        ],
        "postalCode": "K7V3Z6",
        "streetName": "BONNECHERE",
        "streetDirectionId": null,
        "streetTypeId": "RD",
        "placeName": "RENFREW",
        "streetNameDisplayText": "BONNECHERE RD, RENFREW"
      },
      {
        "electoralDistricts": [
          {
            "election": null,
            "id": 88,
            "name": "Renfrew—Nipissing—Pembroke"
          }
        ],
        "pollDivisionIds": [
          10141231
        ],
        "postalCode": "K7V3Z6",
        "streetName": "BRISCOE",
        "streetDirectionId": null,
        "streetTypeId": "RD",
        "placeName": "RENFREW",
        "streetNameDisplayText": "BRISCOE RD, RENFREW"
      },
      {
        "electoralDistricts": [
          {
            "election": null,
            "id": 88,
            "name": "Renfrew—Nipissing—Pembroke"
          }
        ],
        "pollDivisionIds": [
          10141235
        ],
        "postalCode": "K7V3Z6",
        "streetName": "BURNSTOWN",
        "streetDirectionId": null,
        "streetTypeId": "RD",
        "placeName": "RENFREW",
        "streetNameDisplayText": "BURNSTOWN RD, RENFREW"
      },
      {
        "electoralDistricts": [
          {
            "election": null,
            "id": 88,
            "name": "Renfrew—Nipissing—Pembroke"
          }
        ],
        "pollDivisionIds": [
          10141231,
          10141245
        ],
        "postalCode": "K7V3Z6",
        "streetName": "BUTLER",
        "streetDirectionId": null,
        "streetTypeId": "RD",
        "placeName": "RENFREW",
        "streetNameDisplayText": "BUTLER RD, RENFREW"
      },
      {
        "electoralDistricts": [
          {
            "election": null,
            "id": 88,
            "name": "Renfrew—Nipissing—Pembroke"
          }
        ],
        "pollDivisionIds": [
          10141231
        ],
        "postalCode": "K7V3Z6",
        "streetName": "CHEESE FACTORY",
        "streetDirectionId": null,
        "streetTypeId": "RD",
        "placeName": "RENFREW",
        "streetNameDisplayText": "CHEESE FACTORY RD, RENFREW"
      },
      {
        "electoralDistricts": [
          {
            "election": null,
            "id": 88,
            "name": "Renfrew—Nipissing—Pembroke"
          }
        ],
        "pollDivisionIds": [
          10141231
        ],
        "postalCode": "K7V3Z6",
        "streetName": "COTIEVILLE",
        "streetDirectionId": null,
        "streetTypeId": "RD",
        "placeName": "RENFREW",
        "streetNameDisplayText": "COTIEVILLE RD, RENFREW"
      },
      {
        "electoralDistricts": [
          {
            "election": null,
            "id": 88,
            "name": "Renfrew—Nipissing—Pembroke"
          }
        ],
        "pollDivisionIds": [
          10141231
        ],
        "postalCode": "K7V3Z6",
        "streetName": "CROZIER",
        "streetDirectionId": null,
        "streetTypeId": "LINE",
        "placeName": "RENFREW",
        "streetNameDisplayText": "CROZIER LINE, RENFREW"
      },
      {
        "electoralDistricts": [
          {
            "election": null,
            "id": 88,
            "name": "Renfrew—Nipissing—Pembroke"
          }
        ],
        "pollDivisionIds": [
          10141231,
          10141233
        ],
        "postalCode": "K7V3Z6",
        "streetName": "ELLIOT",
        "streetDirectionId": null,
        "streetTypeId": "CRES",
        "placeName": "RENFREW",
        "streetNameDisplayText": "ELLIOT CRES, RENFREW"
      },
      {
        "electoralDistricts": [
          {
            "election": null,
            "id": 88,
            "name": "Renfrew—Nipissing—Pembroke"
          }
        ],
        "pollDivisionIds": [
          10141231
        ],
        "postalCode": "K7V3Z6",
        "streetName": "GERALD",
        "streetDirectionId": null,
        "streetTypeId": "ST",
        "placeName": "RENFREW",
        "streetNameDisplayText": "GERALD ST, RENFREW"
      },
      {
        "electoralDistricts": [
          {
            "election": null,
            "id": 88,
            "name": "Renfrew—Nipissing—Pembroke"
          }
        ],
        "pollDivisionIds": [
          10141235
        ],
        "postalCode": "K7V3Z6",
        "streetName": "GILLAN",
        "streetDirectionId": null,
        "streetTypeId": "RD",
        "placeName": "RENFREW",
        "streetNameDisplayText": "GILLAN RD, RENFREW"
      },
      {
        "electoralDistricts": [
          {
            "election": null,
            "id": 88,
            "name": "Renfrew—Nipissing—Pembroke"
          }
        ],
        "pollDivisionIds": [
          10141231
        ],
        "postalCode": "K7V3Z6",
        "streetName": "GOLF COURSE",
        "streetDirectionId": null,
        "streetTypeId": "RD",
        "placeName": "RENFREW",
        "streetNameDisplayText": "GOLF COURSE RD, RENFREW"
      },
      {
        "electoralDistricts": [
          {
            "election": null,
            "id": 88,
            "name": "Renfrew—Nipissing—Pembroke"
          }
        ],
        "pollDivisionIds": [
          10141231,
          10141223
        ],
        "postalCode": "K7V3Z6",
        "streetName": "HALEY",
        "streetDirectionId": null,
        "streetTypeId": "RD",
        "placeName": "RENFREW",
        "streetNameDisplayText": "HALEY RD, RENFREW"
      },
      {
        "electoralDistricts": [
          {
            "election": null,
            "id": 88,
            "name": "Renfrew—Nipissing—Pembroke"
          }
        ],
        "pollDivisionIds": [
          10141234,
          10141231
        ],
        "postalCode": "K7V3Z6",
        "streetName": "HAROLD",
        "streetDirectionId": null,
        "streetTypeId": "AVE",
        "placeName": "RENFREW",
        "streetNameDisplayText": "HAROLD AVE, RENFREW"
      },
      {
        "electoralDistricts": [
          {
            "election": null,
            "id": 88,
            "name": "Renfrew—Nipissing—Pembroke"
          }
        ],
        "pollDivisionIds": [
          10141231
        ],
        "postalCode": "K7V3Z6",
        "streetName": "HARPER",
        "streetDirectionId": null,
        "streetTypeId": "AVE",
        "placeName": "RENFREW",
        "streetNameDisplayText": "HARPER AVE, RENFREW"
      },
      {
        "electoralDistricts": [
          {
            "election": null,
            "id": 88,
            "name": "Renfrew—Nipissing—Pembroke"
          }
        ],
        "pollDivisionIds": [
          10141231
        ],
        "postalCode": "K7V3Z6",
        "streetName": "HARVEYS",
        "streetDirectionId": null,
        "streetTypeId": "CRES",
        "placeName": "RENFREW",
        "streetNameDisplayText": "HARVEYS CRES, RENFREW"
      },
      {
        "electoralDistricts": [
          {
            "election": null,
            "id": 88,
            "name": "Renfrew—Nipissing—Pembroke"
          }
        ],
        "pollDivisionIds": [
          10141231
        ],
        "postalCode": "K7V3Z6",
        "streetName": "HIGHWAY 60",
        "streetDirectionId": null,
        "streetTypeId": "RD",
        "placeName": "RENFREW",
        "streetNameDisplayText": "HIGHWAY 60 RD, RENFREW"
      },
      {
        "electoralDistricts": [
          {
            "election": null,
            "id": 88,
            "name": "Renfrew—Nipissing—Pembroke"
          }
        ],
        "pollDivisionIds": [
          10141234
        ],
        "postalCode": "K7V3Z6",
        "streetName": "HWY 60",
        "streetDirectionId": null,
        "streetTypeId": "FRONT",
        "placeName": "RENFREW",
        "streetNameDisplayText": "HWY 60 FRONT, RENFREW"
      },
      {
        "electoralDistricts": [
          {
            "election": null,
            "id": 88,
            "name": "Renfrew—Nipissing—Pembroke"
          }
        ],
        "pollDivisionIds": [
          10141245
        ],
        "postalCode": "K7V3Z6",
        "streetName": "HWY 60",
        "streetDirectionId": "E",
        "streetTypeId": "RD",
        "placeName": "RENFREW",
        "streetNameDisplayText": "HWY 60 RD E, RENFREW"
      },
      {
        "electoralDistricts": [
          {
            "election": null,
            "id": 88,
            "name": "Renfrew—Nipissing—Pembroke"
          }
        ],
        "pollDivisionIds": [
          10141231
        ],
        "postalCode": "K7V3Z6",
        "streetName": "HWY 60",
        "streetDirectionId": null,
        "streetTypeId": "RD",
        "placeName": "RENFREW",
        "streetNameDisplayText": "HWY 60 RD, RENFREW"
      },
      {
        "electoralDistricts": [
          {
            "election": null,
            "id": 88,
            "name": "Renfrew—Nipissing—Pembroke"
          }
        ],
        "pollDivisionIds": [
          10141231
        ],
        "postalCode": "K7V3Z6",
        "streetName": "HWY 60",
        "streetDirectionId": null,
        "streetTypeId": null,
        "placeName": "RENFREW",
        "streetNameDisplayText": "HWY 60, RENFREW"
      },
      {
        "electoralDistricts": [
          {
            "election": null,
            "id": 88,
            "name": "Renfrew—Nipissing—Pembroke"
          }
        ],
        "pollDivisionIds": [
          10141245
        ],
        "postalCode": "K7V3Z6",
        "streetName": "HYGHWAY 60",
        "streetDirectionId": null,
        "streetTypeId": null,
        "placeName": "RENFREW",
        "streetNameDisplayText": "HYGHWAY 60, RENFREW"
      },
      {
        "electoralDistricts": [
          {
            "election": null,
            "id": 88,
            "name": "Renfrew—Nipissing—Pembroke"
          }
        ],
        "pollDivisionIds": [
          10141234
        ],
        "postalCode": "K7V3Z6",
        "streetName": "KASABOSKI",
        "streetDirectionId": null,
        "streetTypeId": "RD",
        "placeName": "RENFREW",
        "streetNameDisplayText": "KASABOSKI RD, RENFREW"
      },
      {
        "electoralDistricts": [
          {
            "election": null,
            "id": 88,
            "name": "Renfrew—Nipissing—Pembroke"
          }
        ],
        "pollDivisionIds": [
          10141231
        ],
        "postalCode": "K7V3Z6",
        "streetName": "LESLIE",
        "streetDirectionId": null,
        "streetTypeId": "AVE",
        "placeName": "RENFREW",
        "streetNameDisplayText": "LESLIE AVE, RENFREW"
      },
      {
        "electoralDistricts": [
          {
            "election": null,
            "id": 88,
            "name": "Renfrew—Nipissing—Pembroke"
          }
        ],
        "pollDivisionIds": [
          10141231
        ],
        "postalCode": "K7V3Z6",
        "streetName": "MADELEINE",
        "streetDirectionId": null,
        "streetTypeId": "ST",
        "placeName": "RENFREW",
        "streetNameDisplayText": "MADELEINE ST, RENFREW"
      },
      {
        "electoralDistricts": [
          {
            "election": null,
            "id": 88,
            "name": "Renfrew—Nipissing—Pembroke"
          }
        ],
        "pollDivisionIds": [
          10141231
        ],
        "postalCode": "K7V3Z6",
        "streetName": "MCBRIDE",
        "streetDirectionId": null,
        "streetTypeId": "RD",
        "placeName": "RENFREW",
        "streetNameDisplayText": "MCBRIDE RD, RENFREW"
      },
      {
        "electoralDistricts": [
          {
            "election": null,
            "id": 88,
            "name": "Renfrew—Nipissing—Pembroke"
          }
        ],
        "pollDivisionIds": [
          10141233
        ],
        "postalCode": "K7V3Z6",
        "streetName": "MURIEL",
        "streetDirectionId": null,
        "streetTypeId": "AVE",
        "placeName": "RENFREW",
        "streetNameDisplayText": "MURIEL AVE, RENFREW"
      },
      {
        "electoralDistricts": [
          {
            "election": null,
            "id": 88,
            "name": "Renfrew—Nipissing—Pembroke"
          }
        ],
        "pollDivisionIds": [
          10141230,
          10141245,
          10141231
        ],
        "postalCode": "K7V3Z6",
        "streetName": "NORTHCOTE RINK",
        "streetDirectionId": null,
        "streetTypeId": "RD",
        "placeName": "RENFREW",
        "streetNameDisplayText": "NORTHCOTE RINK RD, RENFREW"
      },
      {
        "electoralDistricts": [
          {
            "election": null,
            "id": 88,
            "name": "Renfrew—Nipissing—Pembroke"
          }
        ],
        "pollDivisionIds": [
          10141231,
          10141223
        ],
        "postalCode": "K7V3Z6",
        "streetName": "ORIN",
        "streetDirectionId": null,
        "streetTypeId": "RD",
        "placeName": "RENFREW",
        "streetNameDisplayText": "ORIN RD, RENFREW"
      },
      {
        "electoralDistricts": [
          {
            "election": null,
            "id": 88,
            "name": "Renfrew—Nipissing—Pembroke"
          }
        ],
        "pollDivisionIds": [
          10141234,
          10141231
        ],
        "postalCode": "K7V3Z6",
        "streetName": "PINNACLE",
        "streetDirectionId": null,
        "streetTypeId": "RD",
        "placeName": "RENFREW",
        "streetNameDisplayText": "PINNACLE RD, RENFREW"
      },
      {
        "electoralDistricts": [
          {
            "election": null,
            "id": 88,
            "name": "Renfrew—Nipissing—Pembroke"
          }
        ],
        "pollDivisionIds": [
          10141231
        ],
        "postalCode": "K7V3Z6",
        "streetName": "PLAUNT",
        "streetDirectionId": null,
        "streetTypeId": "RD",
        "placeName": "RENFREW",
        "streetNameDisplayText": "PLAUNT RD, RENFREW"
      },
      {
        "electoralDistricts": [
          {
            "election": null,
            "id": 88,
            "name": "Renfrew—Nipissing—Pembroke"
          }
        ],
        "pollDivisionIds": [
          10141231
        ],
        "postalCode": "K7V3Z6",
        "streetName": "PRICE",
        "streetDirectionId": null,
        "streetTypeId": "RD",
        "placeName": "RENFREW",
        "streetNameDisplayText": "PRICE RD, RENFREW"
      },
      {
        "electoralDistricts": [
          {
            "election": null,
            "id": 88,
            "name": "Renfrew—Nipissing—Pembroke"
          }
        ],
        "pollDivisionIds": [
          10141235
        ],
        "postalCode": "K7V3Z6",
        "streetName": "PUCKER",
        "streetDirectionId": null,
        "streetTypeId": "ST",
        "placeName": "MCNAB/BRAESIDE",
        "streetNameDisplayText": "PUCKER ST, MCNAB/BRAESIDE"
      },
      {
        "electoralDistricts": [
          {
            "election": null,
            "id": 88,
            "name": "Renfrew—Nipissing—Pembroke"
          }
        ],
        "pollDivisionIds": [
          10141226
        ],
        "postalCode": "K7V3Z6",
        "streetName": "SHERWOOD",
        "streetDirectionId": null,
        "streetTypeId": "DR",
        "placeName": "RENFREW",
        "streetNameDisplayText": "SHERWOOD DR, RENFREW"
      },
      {
        "electoralDistricts": [
          {
            "election": null,
            "id": 88,
            "name": "Renfrew—Nipissing—Pembroke"
          }
        ],
        "pollDivisionIds": [
          10141231
        ],
        "postalCode": "K7V3Z6",
        "streetName": "SHERWOOD",
        "streetDirectionId": null,
        "streetTypeId": "ST",
        "placeName": "RENFREW",
        "streetNameDisplayText": "SHERWOOD ST, RENFREW"
      },
      {
        "electoralDistricts": [
          {
            "election": null,
            "id": 88,
            "name": "Renfrew—Nipissing—Pembroke"
          }
        ],
        "pollDivisionIds": [
          10141245
        ],
        "postalCode": "K7V3Z6",
        "streetName": "TRIPLE H",
        "streetDirectionId": null,
        "streetTypeId": "LANE",
        "placeName": "RENFREW",
        "streetNameDisplayText": "TRIPLE H LANE, RENFREW"
      },
      {
        "electoralDistricts": [
          {
            "election": null,
            "id": 88,
            "name": "Renfrew—Nipissing—Pembroke"
          }
        ],
        "pollDivisionIds": [
          10141235,
          10141234
        ],
        "postalCode": "K7V3Z6",
        "streetName": "WHITTON",
        "streetDirectionId": null,
        "streetTypeId": "RD",
        "placeName": "HORTON",
        "streetNameDisplayText": "WHITTON RD, HORTON"
      },
      {
        "electoralDistricts": [
          {
            "election": null,
            "id": 88,
            "name": "Renfrew—Nipissing—Pembroke"
          }
        ],
        "pollDivisionIds": [
          10141235,
          10141234
        ],
        "postalCode": "K7V3Z6",
        "streetName": "WHITTON",
        "streetDirectionId": null,
        "streetTypeId": "RD",
        "placeName": "RENFREW",
        "streetNameDisplayText": "WHITTON RD, RENFREW"
      }
    ]
  },
  {
    "postal": "K7V3B0",
    "result": []
  },
  {
    "postal": "K7V2H8",
    "result": [
      {
        "electoralDistricts": [
          {
            "election": null,
            "id": 88,
            "name": "Renfrew—Nipissing—Pembroke"
          }
        ],
        "pollDivisionIds": [
          10141232
        ],
        "postalCode": "K7V2H8",
        "streetName": "ROSS",
        "streetDirectionId": null,
        "streetTypeId": "ST",
        "placeName": "RENFREW",
        "streetNameDisplayText": "ROSS ST, RENFREW"
      }
    ]
  },
  {
    "postal": "K7V3X2",
    "result": [
      {
        "electoralDistricts": [
          {
            "election": null,
            "id": 88,
            "name": "Renfrew—Nipissing—Pembroke"
          }
        ],
        "pollDivisionIds": [
          10141231
        ],
        "postalCode": "K7V3X2",
        "streetName": "MCANDREW",
        "streetDirectionId": null,
        "streetTypeId": "AVE",
        "placeName": "RENFREW",
        "streetNameDisplayText": "MCANDREW AVE, RENFREW"
      }
    ]
  },
  {
    "postal": "K7V2E9",
    "result": [
      {
        "electoralDistricts": [
          {
            "election": null,
            "id": 88,
            "name": "Renfrew—Nipissing—Pembroke"
          }
        ],
        "pollDivisionIds": [
          10141232
        ],
        "postalCode": "K7V2E9",
        "streetName": "BANK",
        "streetDirectionId": "S",
        "streetTypeId": "ST",
        "placeName": "RENFREW",
        "streetNameDisplayText": "BANK ST S, RENFREW"
      }
    ]
  },
  {
    "postal": "K7V9P6",
    "result": []
  },
  {
    "postal": "K7V9E2",
    "result": []
  },
  {
    "postal": "K7V9H2",
    "result": []
  },
  {
    "postal": "K7V1S8",
    "result": [
      {
        "electoralDistricts": [
          {
            "election": null,
            "id": 88,
            "name": "Renfrew—Nipissing—Pembroke"
          }
        ],
        "pollDivisionIds": [
          10141232
        ],
        "postalCode": "K7V1S8",
        "streetName": "ARGYLE",
        "streetDirectionId": "N",
        "streetTypeId": "ST",
        "placeName": "RENFREW",
        "streetNameDisplayText": "ARGYLE ST N, RENFREW"
      }
    ]
  },
  {
    "postal": "K7V3M6",
    "result": [
      {
        "electoralDistricts": [
          {
            "election": null,
            "id": 88,
            "name": "Renfrew—Nipissing—Pembroke"
          }
        ],
        "pollDivisionIds": [
          10141232
        ],
        "postalCode": "K7V3M6",
        "streetName": "LISGAR",
        "streetDirectionId": null,
        "streetTypeId": "AVE",
        "placeName": "RENFREW",
        "streetNameDisplayText": "LISGAR AVE, RENFREW"
      }
    ]
  },
  {
    "postal": "K7V6Z8",
    "result": []
  },
  {
    "postal": "K7V4J2",
    "result": [
      {
        "electoralDistricts": [
          {
            "election": null,
            "id": 88,
            "name": "Renfrew—Nipissing—Pembroke"
          }
        ],
        "pollDivisionIds": [
          10141233
        ],
        "postalCode": "K7V4J2",
        "streetName": "MCLEAN",
        "streetDirectionId": null,
        "streetTypeId": "ST",
        "placeName": "RENFREW",
        "streetNameDisplayText": "MCLEAN ST, RENFREW"
      }
    ]
  },
  {
    "postal": "K7V9Y1",
    "result": []
  },
  {
    "postal": "K7V8V6",
    "result": []
  },
  {
    "postal": "K7V6B2",
    "result": []
  },
  {
    "postal": "K7V1P8",
    "result": [
      {
        "electoralDistricts": [
          {
            "election": null,
            "id": 88,
            "name": "Renfrew—Nipissing—Pembroke"
          }
        ],
        "pollDivisionIds": [
          10141232
        ],
        "postalCode": "K7V1P8",
        "streetName": "RAGLAN",
        "streetDirectionId": "S",
        "streetTypeId": "ST",
        "placeName": "RENFREW",
        "streetNameDisplayText": "RAGLAN ST S, RENFREW"
      }
    ]
  },
  {
    "postal": "K7V0V8",
    "result": []
  },
  {
    "postal": "K7V4Y0",
    "result": []
  },
  {
    "postal": "K7V2T4",
    "result": [
      {
        "electoralDistricts": [
          {
            "election": null,
            "id": 88,
            "name": "Renfrew—Nipissing—Pembroke"
          }
        ],
        "pollDivisionIds": [
          10141232
        ],
        "postalCode": "K7V2T4",
        "streetName": "OPEONGO",
        "streetDirectionId": null,
        "streetTypeId": "RD",
        "placeName": "RENFREW",
        "streetNameDisplayText": "OPEONGO RD, RENFREW"
      }
    ]
  },
  {
    "postal": "K7V2S3",
    "result": [
      {
        "electoralDistricts": [
          {
            "election": null,
            "id": 88,
            "name": "Renfrew—Nipissing—Pembroke"
          }
        ],
        "pollDivisionIds": [
          10141233
        ],
        "postalCode": "K7V2S3",
        "streetName": "HALL",
        "streetDirectionId": "E",
        "streetTypeId": "AVE",
        "placeName": "RENFREW",
        "streetNameDisplayText": "HALL AVE E, RENFREW"
      }
    ]
  },
  {
    "postal": "K7V0K0",
    "result": []
  },
  {
    "postal": "K7V5N1",
    "result": []
  },
  {
    "postal": "K7V7T0",
    "result": []
  },
  {
    "postal": "K7V9N2",
    "result": []
  },
  {
    "postal": "K7V5L1",
    "result": []
  },
  {
    "postal": "K7V7G5",
    "result": []
  },
  {
    "postal": "K7V6K2",
    "result": []
  },
  {
    "postal": "K7V6P9",
    "result": []
  },
  {
    "postal": "K7V0E6",
    "result": []
  },
  {
    "postal": "K7V8R9",
    "result": []
  },
  {
    "postal": "K7V3G9",
    "result": [
      {
        "electoralDistricts": [
          {
            "election": null,
            "id": 88,
            "name": "Renfrew—Nipissing—Pembroke"
          }
        ],
        "pollDivisionIds": [
          10141232
        ],
        "postalCode": "K7V3G9",
        "streetName": "PATRICK",
        "streetDirectionId": null,
        "streetTypeId": "AVE",
        "placeName": "RENFREW",
        "streetNameDisplayText": "PATRICK AVE, RENFREW"
      }
    ]
  },
  {
    "postal": "K7V0V7",
    "result": []
  },
  {
    "postal": "K7V2Z1",
    "result": [
      {
        "electoralDistricts": [
          {
            "election": null,
            "id": 88,
            "name": "Renfrew—Nipissing—Pembroke"
          }
        ],
        "pollDivisionIds": [
          10141233
        ],
        "postalCode": "K7V2Z1",
        "streetName": "MCNAB",
        "streetDirectionId": null,
        "streetTypeId": "AVE",
        "placeName": "RENFREW",
        "streetNameDisplayText": "MCNAB AVE, RENFREW"
      },
      {
        "electoralDistricts": [
          {
            "election": null,
            "id": 88,
            "name": "Renfrew—Nipissing—Pembroke"
          }
        ],
        "pollDivisionIds": [
          10141233
        ],
        "postalCode": "K7V2Z1",
        "streetName": "MCNAB",
        "streetDirectionId": null,
        "streetTypeId": "CRES",
        "placeName": "RENFREW",
        "streetNameDisplayText": "MCNAB CRES, RENFREW"
      }
    ]
  },
  {
    "postal": "K7V7N1",
    "result": []
  },
  {
    "postal": "K7V3C6",
    "result": [
      {
        "electoralDistricts": [
          {
            "election": null,
            "id": 88,
            "name": "Renfrew—Nipissing—Pembroke"
          }
        ],
        "pollDivisionIds": [
          10141233
        ],
        "postalCode": "K7V3C6",
        "streetName": "HARRY",
        "streetDirectionId": null,
        "streetTypeId": "ST",
        "placeName": "RENFREW",
        "streetNameDisplayText": "HARRY ST, RENFREW"
      }
    ]
  },
  {
    "postal": "K7V4M1",
    "result": [
      {
        "electoralDistricts": [
          {
            "election": null,
            "id": 88,
            "name": "Renfrew—Nipissing—Pembroke"
          }
        ],
        "pollDivisionIds": [
          10141232
        ],
        "postalCode": "K7V4M1",
        "streetName": "CARSWELL",
        "streetDirectionId": null,
        "streetTypeId": "ST",
        "placeName": "RENFREW",
        "streetNameDisplayText": "CARSWELL ST, RENFREW"
      }
    ]
  },
  {
    "postal": "K7V9K2",
    "result": []
  },
  {
    "postal": "K7V9S6",
    "result": []
  },
  {
    "postal": "K7V4X1",
    "result": []
  },
  {
    "postal": "K7V8W2",
    "result": []
  },
  {
    "postal": "K7V7N2",
    "result": []
  },
  {
    "postal": "K7V8S3",
    "result": []
  },
  {
    "postal": "K7V4V0",
    "result": []
  },
  {
    "postal": "K7V6W4",
    "result": []
  },
  {
    "postal": "K7V5M1",
    "result": []
  },
  {
    "postal": "K7V0S4",
    "result": []
  },
  {
    "postal": "K7V5X6",
    "result": []
  },
  {
    "postal": "K7V8L5",
    "result": []
  },
  {
    "postal": "K7V5M8",
    "result": []
  },
  {
    "postal": "K7V2G3",
    "result": [
      {
        "electoralDistricts": [
          {
            "election": null,
            "id": 88,
            "name": "Renfrew—Nipissing—Pembroke"
          }
        ],
        "pollDivisionIds": [
          10141232
        ],
        "postalCode": "K7V2G3",
        "streetName": "CARSWELL",
        "streetDirectionId": null,
        "streetTypeId": "ST",
        "placeName": "RENFREW",
        "streetNameDisplayText": "CARSWELL ST, RENFREW"
      }
    ]
  },
  {
    "postal": "K7V8E4",
    "result": []
  },
  {
    "postal": "K7V7S9",
    "result": []
  },
  {
    "postal": "K7V1K3",
    "result": [
      {
        "electoralDistricts": [
          {
            "election": null,
            "id": 88,
            "name": "Renfrew—Nipissing—Pembroke"
          }
        ],
        "pollDivisionIds": [
          10141233
        ],
        "postalCode": "K7V1K3",
        "streetName": "LYNN",
        "streetDirectionId": null,
        "streetTypeId": "ST",
        "placeName": "RENFREW",
        "streetNameDisplayText": "LYNN ST, RENFREW"
      }
    ]
  },
  {
    "postal": "K7V4E1",
    "result": [
      {
        "electoralDistricts": [
          {
            "election": null,
            "id": 88,
            "name": "Renfrew—Nipissing—Pembroke"
          }
        ],
        "pollDivisionIds": [
          10141233
        ],
        "postalCode": "K7V4E1",
        "streetName": "FIRST",
        "streetDirectionId": null,
        "streetTypeId": "ST",
        "placeName": "RENFREW",
        "streetNameDisplayText": "FIRST ST, RENFREW"
      }
    ]
  },
  {
    "postal": "K7V4R2",
    "result": []
  },
  {
    "postal": "K7V6T0",
    "result": []
  },
  {
    "postal": "K7V3K5",
    "result": [
      {
        "electoralDistricts": [
          {
            "election": null,
            "id": 88,
            "name": "Renfrew—Nipissing—Pembroke"
          }
        ],
        "pollDivisionIds": [
          10141232
        ],
        "postalCode": "K7V3K5",
        "streetName": "MUNROE",
        "streetDirectionId": "E",
        "streetTypeId": "AVE",
        "placeName": "RENFREW",
        "streetNameDisplayText": "MUNROE AVE E, RENFREW"
      }
    ]
  },
  {
    "postal": "K7V3S3",
    "result": [
      {
        "electoralDistricts": [
          {
            "election": null,
            "id": 88,
            "name": "Renfrew—Nipissing—Pembroke"
          }
        ],
        "pollDivisionIds": [
          10141231
        ],
        "postalCode": "K7V3S3",
        "streetName": "ARTHUR",
        "streetDirectionId": null,
        "streetTypeId": "AVE",
        "placeName": "RENFREW",
        "streetNameDisplayText": "ARTHUR AVE, RENFREW"
      }
    ]
  },
  {
    "postal": "K7V3L4",
    "result": [
      {
        "electoralDistricts": [
          {
            "election": null,
            "id": 88,
            "name": "Renfrew—Nipissing—Pembroke"
          }
        ],
        "pollDivisionIds": [
          10141232
        ],
        "postalCode": "K7V3L4",
        "streetName": "MUNROE",
        "streetDirectionId": "W",
        "streetTypeId": "AVE",
        "placeName": "RENFREW",
        "streetNameDisplayText": "MUNROE AVE W, RENFREW"
      }
    ]
  },
  {
    "postal": "K7V9Y2",
    "result": []
  },
  {
    "postal": "K7V1E0",
    "result": []
  },
  {
    "postal": "K7V9A4",
    "result": []
  },
  {
    "postal": "K7V1L3",
    "result": [
      {
        "electoralDistricts": [
          {
            "election": null,
            "id": 88,
            "name": "Renfrew—Nipissing—Pembroke"
          }
        ],
        "pollDivisionIds": [
          10141233
        ],
        "postalCode": "K7V1L3",
        "streetName": "XAVIER",
        "streetDirectionId": null,
        "streetTypeId": "ST",
        "placeName": "RENFREW",
        "streetNameDisplayText": "XAVIER ST, RENFREW"
      }
    ]
  },
  {
    "postal": "K7V6N1",
    "result": []
  },
  {
    "postal": "K7V6G7",
    "result": []
  },
  {
    "postal": "K7V7W1",
    "result": []
  },
  {
    "postal": "K7V4M6",
    "result": [
      {
        "electoralDistricts": [
          {
            "election": null,
            "id": 88,
            "name": "Renfrew—Nipissing—Pembroke"
          }
        ],
        "pollDivisionIds": [
          10141233
        ],
        "postalCode": "K7V4M6",
        "streetName": "KEDROSKY",
        "streetDirectionId": null,
        "streetTypeId": "DR",
        "placeName": "RENFREW",
        "streetNameDisplayText": "KEDROSKY DR, RENFREW"
      }
    ]
  },
  {
    "postal": "K7V1K0",
    "result": []
  },
  {
    "postal": "K7V3E2",
    "result": [
      {
        "electoralDistricts": [
          {
            "election": null,
            "id": 88,
            "name": "Renfrew—Nipissing—Pembroke"
          }
        ],
        "pollDivisionIds": [
          10141233
        ],
        "postalCode": "K7V3E2",
        "streetName": "HARRY",
        "streetDirectionId": null,
        "streetTypeId": "ST",
        "placeName": "RENFREW",
        "streetNameDisplayText": "HARRY ST, RENFREW"
      }
    ]
  },
  {
    "postal": "K7V5H4",
    "result": []
  },
  {
    "postal": "K7V1K7",
    "result": [
      {
        "electoralDistricts": [
          {
            "election": null,
            "id": 88,
            "name": "Renfrew—Nipissing—Pembroke"
          }
        ],
        "pollDivisionIds": [
          10141233
        ],
        "postalCode": "K7V1K7",
        "streetName": "FIRST",
        "streetDirectionId": null,
        "streetTypeId": "ST",
        "placeName": "RENFREW",
        "streetNameDisplayText": "FIRST ST, RENFREW"
      }
    ]
  },
  {
    "postal": "K7V0H0",
    "result": []
  },
  {
    "postal": "K7V0J3",
    "result": []
  },
  {
    "postal": "K7V1X6",
    "result": [
      {
        "electoralDistricts": [
          {
            "election": null,
            "id": 88,
            "name": "Renfrew—Nipissing—Pembroke"
          }
        ],
        "pollDivisionIds": [
          10141231
        ],
        "postalCode": "K7V1X6",
        "streetName": "STEWART",
        "streetDirectionId": null,
        "streetTypeId": "ST",
        "placeName": "RENFREW",
        "streetNameDisplayText": "STEWART ST, RENFREW"
      }
    ]
  },
  {
    "postal": "K7V2Z6",
    "result": [
      {
        "electoralDistricts": [
          {
            "election": null,
            "id": 88,
            "name": "Renfrew—Nipissing—Pembroke"
          }
        ],
        "pollDivisionIds": [
          10141233
        ],
        "postalCode": "K7V2Z6",
        "streetName": "WILLIAM",
        "streetDirectionId": null,
        "streetTypeId": "AVE",
        "placeName": "RENFREW",
        "streetNameDisplayText": "WILLIAM AVE, RENFREW"
      }
    ]
  },
  {
    "postal": "K7V4R9",
    "result": []
  },
  {
    "postal": "K7V0W8",
    "result": []
  },
  {
    "postal": "K7V1L4",
    "result": [
      {
        "electoralDistricts": [
          {
            "election": null,
            "id": 88,
            "name": "Renfrew—Nipissing—Pembroke"
          }
        ],
        "pollDivisionIds": [
          10141233
        ],
        "postalCode": "K7V1L4",
        "streetName": "XAVIER",
        "streetDirectionId": null,
        "streetTypeId": "ST",
        "placeName": "RENFREW",
        "streetNameDisplayText": "XAVIER ST, RENFREW"
      }
    ]
  },
  {
    "postal": "K7V0C8",
    "result": []
  },
  {
    "postal": "K7V9X7",
    "result": []
  },
  {
    "postal": "K7V4T1",
    "result": []
  },
  {
    "postal": "K7V0M0",
    "result": []
  },
  {
    "postal": "K7V6A2",
    "result": []
  },
  {
    "postal": "K7V9S8",
    "result": []
  },
  {
    "postal": "K7V9T4",
    "result": []
  },
  {
    "postal": "K7V9Y4",
    "result": []
  },
  {
    "postal": "K7V6G5",
    "result": []
  },
  {
    "postal": "K7V6H9",
    "result": []
  },
  {
    "postal": "K7V2P3",
    "result": [
      {
        "electoralDistricts": [
          {
            "election": null,
            "id": 88,
            "name": "Renfrew—Nipissing—Pembroke"
          }
        ],
        "pollDivisionIds": [
          10141233
        ],
        "postalCode": "K7V2P3",
        "streetName": "GRANT",
        "streetDirectionId": null,
        "streetTypeId": "BLVD",
        "placeName": "RENFREW",
        "streetNameDisplayText": "GRANT BLVD, RENFREW"
      }
    ]
  },
  {
    "postal": "K7V1T6",
    "result": [
      {
        "electoralDistricts": [
          {
            "election": null,
            "id": 88,
            "name": "Renfrew—Nipissing—Pembroke"
          }
        ],
        "pollDivisionIds": [
          10141233
        ],
        "postalCode": "K7V1T6",
        "streetName": "ARGYLE",
        "streetDirectionId": "S",
        "streetTypeId": "ST",
        "placeName": "RENFREW",
        "streetNameDisplayText": "ARGYLE ST S, RENFREW"
      }
    ]
  },
  {
    "postal": "K7V4P6",
    "result": []
  },
  {
    "postal": "K7V3K1",
    "result": [
      {
        "electoralDistricts": [
          {
            "election": null,
            "id": 88,
            "name": "Renfrew—Nipissing—Pembroke"
          }
        ],
        "pollDivisionIds": [
          10141232
        ],
        "postalCode": "K7V3K1",
        "streetName": "MUNROE",
        "streetDirectionId": "E",
        "streetTypeId": "AVE",
        "placeName": "RENFREW",
        "streetNameDisplayText": "MUNROE AVE E, RENFREW"
      }
    ]
  },
  {
    "postal": "K7V6X4",
    "result": []
  },
  {
    "postal": "K7V4M8",
    "result": [
      {
        "electoralDistricts": [
          {
            "election": null,
            "id": 88,
            "name": "Renfrew—Nipissing—Pembroke"
          }
        ],
        "pollDivisionIds": [
          10141233
        ],
        "postalCode": "K7V4M8",
        "streetName": "HARAMIS",
        "streetDirectionId": null,
        "streetTypeId": "DR",
        "placeName": "RENFREW",
        "streetNameDisplayText": "HARAMIS DR, RENFREW"
      }
    ]
  },
  {
    "postal": "K7V2Y1",
    "result": [
      {
        "electoralDistricts": [
          {
            "election": null,
            "id": 88,
            "name": "Renfrew—Nipissing—Pembroke"
          }
        ],
        "pollDivisionIds": [
          10141232
        ],
        "postalCode": "K7V2Y1",
        "streetName": "RENFREW",
        "streetDirectionId": "W",
        "streetTypeId": "AVE",
        "placeName": "RENFREW",
        "streetNameDisplayText": "RENFREW AVE W, RENFREW"
      }
    ]
  },
  {
    "postal": "K7V6M1",
    "result": []
  },
  {
    "postal": "K7V5L8",
    "result": []
  },
  {
    "postal": "K7V3P6",
    "result": [
      {
        "electoralDistricts": [
          {
            "election": null,
            "id": 88,
            "name": "Renfrew—Nipissing—Pembroke"
          }
        ],
        "pollDivisionIds": [
          10141232
        ],
        "postalCode": "K7V3P6",
        "streetName": "MARY",
        "streetDirectionId": null,
        "streetTypeId": "AVE",
        "placeName": "RENFREW",
        "streetNameDisplayText": "MARY AVE, RENFREW"
      }
    ]
  },
  {
    "postal": "K7V9A5",
    "result": []
  },
  {
    "postal": "K7V7K1",
    "result": []
  },
  {
    "postal": "K7V3J4",
    "result": [
      {
        "electoralDistricts": [
          {
            "election": null,
            "id": 88,
            "name": "Renfrew—Nipissing—Pembroke"
          }
        ],
        "pollDivisionIds": [
          10141232
        ],
        "postalCode": "K7V3J4",
        "streetName": "HAIG",
        "streetDirectionId": null,
        "streetTypeId": "AVE",
        "placeName": "RENFREW",
        "streetNameDisplayText": "HAIG AVE, RENFREW"
      }
    ]
  },
  {
    "postal": "K7V5E7",
    "result": []
  },
  {
    "postal": "K7V3A7",
    "result": [
      {
        "electoralDistricts": [
          {
            "election": null,
            "id": 88,
            "name": "Renfrew—Nipissing—Pembroke"
          }
        ],
        "pollDivisionIds": [
          10141233
        ],
        "postalCode": "K7V3A7",
        "streetName": "JOE",
        "streetDirectionId": null,
        "streetTypeId": "AVE",
        "placeName": "RENFREW",
        "streetNameDisplayText": "JOE AVE, RENFREW"
      }
    ]
  },
  {
    "postal": "K7V1B9",
    "result": [
      {
        "electoralDistricts": [
          {
            "election": null,
            "id": 88,
            "name": "Renfrew—Nipissing—Pembroke"
          }
        ],
        "pollDivisionIds": [
          10141233
        ],
        "postalCode": "K7V1B9",
        "streetName": "CORONATION",
        "streetDirectionId": null,
        "streetTypeId": "ST",
        "placeName": "RENFREW",
        "streetNameDisplayText": "CORONATION ST, RENFREW"
      }
    ]
  },
  {
    "postal": "K7V9E8",
    "result": []
  },
  {
    "postal": "K7V1C9",
    "result": [
      {
        "electoralDistricts": [
          {
            "election": null,
            "id": 88,
            "name": "Renfrew—Nipissing—Pembroke"
          }
        ],
        "pollDivisionIds": [
          10141233
        ],
        "postalCode": "K7V1C9",
        "streetName": "RAVINE",
        "streetDirectionId": null,
        "streetTypeId": "DR",
        "placeName": "RENFREW",
        "streetNameDisplayText": "RAVINE DR, RENFREW"
      }
    ]
  },
  {
    "postal": "K7V3B5",
    "result": [
      {
        "electoralDistricts": [
          {
            "election": null,
            "id": 88,
            "name": "Renfrew—Nipissing—Pembroke"
          }
        ],
        "pollDivisionIds": [
          10141232
        ],
        "postalCode": "K7V3B5",
        "streetName": "THOMPSON",
        "streetDirectionId": null,
        "streetTypeId": "AVE",
        "placeName": "RENFREW",
        "streetNameDisplayText": "THOMPSON AVE, RENFREW"
      }
    ]
  },
  {
    "postal": "K7V8R0",
    "result": []
  },
  {
    "postal": "K7V3P2",
    "result": [
      {
        "electoralDistricts": [
          {
            "election": null,
            "id": 88,
            "name": "Renfrew—Nipissing—Pembroke"
          }
        ],
        "pollDivisionIds": [
          10141232
        ],
        "postalCode": "K7V3P2",
        "streetName": "MARY",
        "streetDirectionId": null,
        "streetTypeId": "AVE",
        "placeName": "RENFREW",
        "streetNameDisplayText": "MARY AVE, RENFREW"
      }
    ]
  },
  {
    "postal": "K7V5V4",
    "result": []
  },
  {
    "postal": "K7V4H0",
    "result": []
  },
  {
    "postal": "K7V4S7",
    "result": []
  },
  {
    "postal": "K7V6C2",
    "result": []
  },
  {
    "postal": "K7V8W3",
    "result": []
  },
  {
    "postal": "K7V4M5",
    "result": [
      {
        "electoralDistricts": [
          {
            "election": null,
            "id": 88,
            "name": "Renfrew—Nipissing—Pembroke"
          }
        ],
        "pollDivisionIds": [
          10141233
        ],
        "postalCode": "K7V4M5",
        "streetName": "KEDROSKY",
        "streetDirectionId": null,
        "streetTypeId": "DR",
        "placeName": "RENFREW",
        "streetNameDisplayText": "KEDROSKY DR, RENFREW"
      }
    ]
  },
  {
    "postal": "K7V5T1",
    "result": []
  },
  {
    "postal": "K7V3B3",
    "result": [
      {
        "electoralDistricts": [
          {
            "election": null,
            "id": 88,
            "name": "Renfrew—Nipissing—Pembroke"
          }
        ],
        "pollDivisionIds": [
          10141233
        ],
        "postalCode": "K7V3B3",
        "streetName": "RAILWAY",
        "streetDirectionId": null,
        "streetTypeId": "AVE",
        "placeName": "RENFREW",
        "streetNameDisplayText": "RAILWAY AVE, RENFREW"
      },
      {
        "electoralDistricts": [
          {
            "election": null,
            "id": 88,
            "name": "Renfrew—Nipissing—Pembroke"
          }
        ],
        "pollDivisionIds": [
          10141190
        ],
        "postalCode": "K7V3B3",
        "streetName": "RAILWAY",
        "streetDirectionId": null,
        "streetTypeId": "ST",
        "placeName": "RENFREW",
        "streetNameDisplayText": "RAILWAY ST, RENFREW"
      }
    ]
  },
  {
    "postal": "K7V6C6",
    "result": []
  },
  {
    "postal": "K7V7N8",
    "result": []
  },
  {
    "postal": "K7V2Y3",
    "result": [
      {
        "electoralDistricts": [
          {
            "election": null,
            "id": 88,
            "name": "Renfrew—Nipissing—Pembroke"
          }
        ],
        "pollDivisionIds": [
          10141232
        ],
        "postalCode": "K7V2Y3",
        "streetName": "RENFREW",
        "streetDirectionId": "W",
        "streetTypeId": "AVE",
        "placeName": "RENFREW",
        "streetNameDisplayText": "RENFREW AVE W, RENFREW"
      }
    ]
  },
  {
    "postal": "K7V2R6",
    "result": []
  },
  {
    "postal": "K7V7N3",
    "result": []
  },
  {
    "postal": "K7V8J2",
    "result": []
  },
  {
    "postal": "K7V6A9",
    "result": []
  },
  {
    "postal": "K7V3V2",
    "result": [
      {
        "electoralDistricts": [
          {
            "election": null,
            "id": 88,
            "name": "Renfrew—Nipissing—Pembroke"
          }
        ],
        "pollDivisionIds": [
          10141231
        ],
        "postalCode": "K7V3V2",
        "streetName": "ELGIN",
        "streetDirectionId": "W",
        "streetTypeId": "AVE",
        "placeName": "RENFREW",
        "streetNameDisplayText": "ELGIN AVE W, RENFREW"
      },
      {
        "electoralDistricts": [
          {
            "election": null,
            "id": 88,
            "name": "Renfrew—Nipissing—Pembroke"
          }
        ],
        "pollDivisionIds": [
          10141231
        ],
        "postalCode": "K7V3V2",
        "streetName": "ELGIN",
        "streetDirectionId": null,
        "streetTypeId": "AVE",
        "placeName": "RENFREW",
        "streetNameDisplayText": "ELGIN AVE, RENFREW"
      }
    ]
  },
  {
    "postal": "K7V2N3",
    "result": [
      {
        "electoralDistricts": [
          {
            "election": null,
            "id": 88,
            "name": "Renfrew—Nipissing—Pembroke"
          }
        ],
        "pollDivisionIds": [
          10141233
        ],
        "postalCode": "K7V2N3",
        "streetName": "WADE",
        "streetDirectionId": null,
        "streetTypeId": "AVE",
        "placeName": "RENFREW",
        "streetNameDisplayText": "WADE AVE, RENFREW"
      }
    ]
  },
  {
    "postal": "K7V1S5",
    "result": [
      {
        "electoralDistricts": [
          {
            "election": null,
            "id": 88,
            "name": "Renfrew—Nipissing—Pembroke"
          }
        ],
        "pollDivisionIds": [
          10141233
        ],
        "postalCode": "K7V1S5",
        "streetName": "RAGLAN",
        "streetDirectionId": "S",
        "streetTypeId": "ST",
        "placeName": "RENFREW",
        "streetNameDisplayText": "RAGLAN ST S, RENFREW"
      }
    ]
  },
  {
    "postal": "K7V4T7",
    "result": []
  },
  {
    "postal": "K7V6Y7",
    "result": []
  },
  {
    "postal": "K7V0W7",
    "result": []
  },
  {
    "postal": "K7V2W9",
    "result": [
      {
        "electoralDistricts": [
          {
            "election": null,
            "id": 88,
            "name": "Renfrew—Nipissing—Pembroke"
          }
        ],
        "pollDivisionIds": [
          10141233
        ],
        "postalCode": "K7V2W9",
        "streetName": "RENFREW",
        "streetDirectionId": "E",
        "streetTypeId": "AVE",
        "placeName": "RENFREW",
        "streetNameDisplayText": "RENFREW AVE E, RENFREW"
      }
    ]
  },
  {
    "postal": "K7V8V0",
    "result": []
  },
  {
    "postal": "K7V0H4",
    "result": []
  },
  {
    "postal": "K7V2T1",
    "result": []
  },
  {
    "postal": "K7V1B1",
    "result": [
      {
        "electoralDistricts": [
          {
            "election": null,
            "id": 88,
            "name": "Renfrew—Nipissing—Pembroke"
          }
        ],
        "pollDivisionIds": [
          10141233
        ],
        "postalCode": "K7V1B1",
        "streetName": "MCLEAN",
        "streetDirectionId": null,
        "streetTypeId": "ST",
        "placeName": "RENFREW",
        "streetNameDisplayText": "MCLEAN ST, RENFREW"
      }
    ]
  },
  {
    "postal": "K7V8B6",
    "result": []
  },
  {
    "postal": "K7V6H1",
    "result": []
  },
  {
    "postal": "K7V8T8",
    "result": []
  },
  {
    "postal": "K7V0T4",
    "result": []
  },
  {
    "postal": "K7V2C4",
    "result": [
      {
        "electoralDistricts": [
          {
            "election": null,
            "id": 88,
            "name": "Renfrew—Nipissing—Pembroke"
          }
        ],
        "pollDivisionIds": [
          10141231
        ],
        "postalCode": "K7V2C4",
        "streetName": "BALDWIN",
        "streetDirectionId": null,
        "streetTypeId": "ST",
        "placeName": "RENFREW",
        "streetNameDisplayText": "BALDWIN ST, RENFREW"
      }
    ]
  },
  {
    "postal": "K7V8N3",
    "result": []
  },
  {
    "postal": "K7V4L8",
    "result": [
      {
        "electoralDistricts": [
          {
            "election": null,
            "id": 88,
            "name": "Renfrew—Nipissing—Pembroke"
          }
        ],
        "pollDivisionIds": [
          10141231
        ],
        "postalCode": "K7V4L8",
        "streetName": "BRUCE",
        "streetDirectionId": null,
        "streetTypeId": "ST",
        "placeName": "RENFREW",
        "streetNameDisplayText": "BRUCE ST, RENFREW"
      }
    ]
  },
  {
    "postal": "K7V2B5",
    "result": [
      {
        "electoralDistricts": [
          {
            "election": null,
            "id": 88,
            "name": "Renfrew—Nipissing—Pembroke"
          }
        ],
        "pollDivisionIds": [
          10141231
        ],
        "postalCode": "K7V2B5",
        "streetName": "BALDWIN",
        "streetDirectionId": null,
        "streetTypeId": "ST",
        "placeName": "RENFREW",
        "streetNameDisplayText": "BALDWIN ST, RENFREW"
      }
    ]
  },
  {
    "postal": "K7V3H1",
    "result": [
      {
        "electoralDistricts": [
          {
            "election": null,
            "id": 88,
            "name": "Renfrew—Nipissing—Pembroke"
          }
        ],
        "pollDivisionIds": [
          10141232
        ],
        "postalCode": "K7V3H1",
        "streetName": "PATRICK",
        "streetDirectionId": null,
        "streetTypeId": "AVE",
        "placeName": "RENFREW",
        "streetNameDisplayText": "PATRICK AVE, RENFREW"
      }
    ]
  },
  {
    "postal": "K7V4Y1",
    "result": []
  },
  {
    "postal": "K7V7E2",
    "result": []
  },
  {
    "postal": "K7V2P5",
    "result": [
      {
        "electoralDistricts": [
          {
            "election": null,
            "id": 88,
            "name": "Renfrew—Nipissing—Pembroke"
          }
        ],
        "pollDivisionIds": [
          10141233
        ],
        "postalCode": "K7V2P5",
        "streetName": "SIMPSON",
        "streetDirectionId": null,
        "streetTypeId": "AVE",
        "placeName": "RENFREW",
        "streetNameDisplayText": "SIMPSON AVE, RENFREW"
      }
    ]
  },
  {
    "postal": "K7V8R7",
    "result": []
  },
  {
    "postal": "K7V9P1",
    "result": []
  },
  {
    "postal": "K7V3B8",
    "result": [
      {
        "electoralDistricts": [
          {
            "election": null,
            "id": 88,
            "name": "Renfrew—Nipissing—Pembroke"
          }
        ],
        "pollDivisionIds": [
          10141233
        ],
        "postalCode": "K7V3B8",
        "streetName": "DUKE",
        "streetDirectionId": null,
        "streetTypeId": "AVE",
        "placeName": "RENFREW",
        "streetNameDisplayText": "DUKE AVE, RENFREW"
      }
    ]
  },
  {
    "postal": "K7V3P7",
    "result": [
      {
        "electoralDistricts": [
          {
            "election": null,
            "id": 88,
            "name": "Renfrew—Nipissing—Pembroke"
          }
        ],
        "pollDivisionIds": [
          10141232
        ],
        "postalCode": "K7V3P7",
        "streetName": "MARY",
        "streetDirectionId": null,
        "streetTypeId": "AVE",
        "placeName": "RENFREW",
        "streetNameDisplayText": "MARY AVE, RENFREW"
      }
    ]
  },
  {
    "postal": "K7V9B2",
    "result": []
  },
  {
    "postal": "K7V6Z3",
    "result": []
  },
  {
    "postal": "K7V4N5",
    "result": []
  },
  {
    "postal": "K7V8T3",
    "result": []
  },
  {
    "postal": "K7V1V2",
    "result": [
      {
        "electoralDistricts": [
          {
            "election": null,
            "id": 88,
            "name": "Renfrew—Nipissing—Pembroke"
          }
        ],
        "pollDivisionIds": [
          10141233
        ],
        "postalCode": "K7V1V2",
        "streetName": "YORK",
        "streetDirectionId": null,
        "streetTypeId": "ST",
        "placeName": "RENFREW",
        "streetNameDisplayText": "YORK ST, RENFREW"
      }
    ]
  },
  {
    "postal": "K7V1Y0",
    "result": []
  },
  {
    "postal": "K7V3G6",
    "result": [
      {
        "electoralDistricts": [
          {
            "election": null,
            "id": 88,
            "name": "Renfrew—Nipissing—Pembroke"
          }
        ],
        "pollDivisionIds": [
          10141233
        ],
        "postalCode": "K7V3G6",
        "streetName": "PATRICK",
        "streetDirectionId": null,
        "streetTypeId": "AVE",
        "placeName": "RENFREW",
        "streetNameDisplayText": "PATRICK AVE, RENFREW"
      }
    ]
  },
  {
    "postal": "K7V3H7",
    "result": [
      {
        "electoralDistricts": [
          {
            "election": null,
            "id": 88,
            "name": "Renfrew—Nipissing—Pembroke"
          }
        ],
        "pollDivisionIds": [
          10141232
        ],
        "postalCode": "K7V3H7",
        "streetName": "PATRICK",
        "streetDirectionId": null,
        "streetTypeId": "AVE",
        "placeName": "RENFREW",
        "streetNameDisplayText": "PATRICK AVE, RENFREW"
      }
    ]
  },
  {
    "postal": "K7V7X8",
    "result": []
  },
  {
    "postal": "K7V0C7",
    "result": []
  },
  {
    "postal": "K7V0W9",
    "result": []
  },
  {
    "postal": "K7V8E6",
    "result": []
  },
  {
    "postal": "K7V9Z8",
    "result": []
  },
  {
    "postal": "K7V3P4",
    "result": [
      {
        "electoralDistricts": [
          {
            "election": null,
            "id": 88,
            "name": "Renfrew—Nipissing—Pembroke"
          }
        ],
        "pollDivisionIds": [
          10141232
        ],
        "postalCode": "K7V3P4",
        "streetName": "MARY",
        "streetDirectionId": null,
        "streetTypeId": "AVE",
        "placeName": "RENFREW",
        "streetNameDisplayText": "MARY AVE, RENFREW"
      }
    ]
  },
  {
    "postal": "K7V6L8",
    "result": []
  },
  {
    "postal": "K7V2R4",
    "result": [
      {
        "electoralDistricts": [
          {
            "election": null,
            "id": 88,
            "name": "Renfrew—Nipissing—Pembroke"
          }
        ],
        "pollDivisionIds": [
          10141233
        ],
        "postalCode": "K7V2R4",
        "streetName": "COUMBES",
        "streetDirectionId": null,
        "streetTypeId": "ST",
        "placeName": "RENFREW",
        "streetNameDisplayText": "COUMBES ST, RENFREW"
      },
      {
        "electoralDistricts": [
          {
            "election": null,
            "id": 88,
            "name": "Renfrew—Nipissing—Pembroke"
          }
        ],
        "pollDivisionIds": [
          10141233
        ],
        "postalCode": "K7V2R4",
        "streetName": "VETERANS MEMORIAL",
        "streetDirectionId": null,
        "streetTypeId": "BLVD",
        "placeName": "RENFREW",
        "streetNameDisplayText": "VETERANS MEMORIAL BLVD, RENFREW"
      },
      {
        "electoralDistricts": [
          {
            "election": null,
            "id": 88,
            "name": "Renfrew—Nipissing—Pembroke"
          }
        ],
        "pollDivisionIds": [
          10141233
        ],
        "postalCode": "K7V2R4",
        "streetName": "VETERAN'S MEMORIAL",
        "streetDirectionId": null,
        "streetTypeId": "BLVD",
        "placeName": "RENFREW",
        "streetNameDisplayText": "VETERAN'S MEMORIAL BLVD, RENFREW"
      }
    ]
  },
  {
    "postal": "K7V2W1",
    "result": [
      {
        "electoralDistricts": [
          {
            "election": null,
            "id": 88,
            "name": "Renfrew—Nipissing—Pembroke"
          }
        ],
        "pollDivisionIds": [
          10141233
        ],
        "postalCode": "K7V2W1",
        "streetName": "QUARRY",
        "streetDirectionId": null,
        "streetTypeId": "AVE",
        "placeName": "RENFREW",
        "streetNameDisplayText": "QUARRY AVE, RENFREW"
      }
    ]
  },
  {
    "postal": "K7V9H8",
    "result": []
  },
  {
    "postal": "K7V8X9",
    "result": []
  },
  {
    "postal": "K7V7H4",
    "result": []
  },
  {
    "postal": "K7V3J1",
    "result": [
      {
        "electoralDistricts": [
          {
            "election": null,
            "id": 88,
            "name": "Renfrew—Nipissing—Pembroke"
          }
        ],
        "pollDivisionIds": [
          10141233
        ],
        "postalCode": "K7V3J1",
        "streetName": "CHARLES",
        "streetDirectionId": null,
        "streetTypeId": "AVE",
        "placeName": "RENFREW",
        "streetNameDisplayText": "CHARLES AVE, RENFREW"
      }
    ]
  },
  {
    "postal": "K7V1P4",
    "result": [
      {
        "electoralDistricts": [
          {
            "election": null,
            "id": 88,
            "name": "Renfrew—Nipissing—Pembroke"
          }
        ],
        "pollDivisionIds": [
          10141231
        ],
        "postalCode": "K7V1P4",
        "streetName": "RAGLAN",
        "streetDirectionId": "N",
        "streetTypeId": "ST",
        "placeName": "RENFREW",
        "streetNameDisplayText": "RAGLAN ST N, RENFREW"
      }
    ]
  },
  {
    "postal": "K7V2A3",
    "result": [
      {
        "electoralDistricts": [
          {
            "election": null,
            "id": 88,
            "name": "Renfrew—Nipissing—Pembroke"
          }
        ],
        "pollDivisionIds": [
          10141232
        ],
        "postalCode": "K7V2A3",
        "streetName": "QUEEN",
        "streetDirectionId": "N",
        "streetTypeId": "ST",
        "placeName": "RENFREW",
        "streetNameDisplayText": "QUEEN ST N, RENFREW"
      }
    ]
  },
  {
    "postal": "K7V0Z1",
    "result": []
  },
  {
    "postal": "K7V1C1",
    "result": [
      {
        "electoralDistricts": [
          {
            "election": null,
            "id": 88,
            "name": "Renfrew—Nipissing—Pembroke"
          }
        ],
        "pollDivisionIds": [
          10141233
        ],
        "postalCode": "K7V1C1",
        "streetName": "FRANCIS",
        "streetDirectionId": null,
        "streetTypeId": "ST",
        "placeName": "RENFREW",
        "streetNameDisplayText": "FRANCIS ST, RENFREW"
      }
    ]
  },
  {
    "postal": "K7V0H3",
    "result": []
  },
  {
    "postal": "K7V7B0",
    "result": []
  },
  {
    "postal": "K7V5K2",
    "result": []
  },
  {
    "postal": "K7V1E9",
    "result": [
      {
        "electoralDistricts": [
          {
            "election": null,
            "id": 88,
            "name": "Renfrew—Nipissing—Pembroke"
          }
        ],
        "pollDivisionIds": [
          10141235
        ],
        "postalCode": "K7V1E9",
        "streetName": "KING",
        "streetDirectionId": null,
        "streetTypeId": "ST",
        "placeName": "RENFREW",
        "streetNameDisplayText": "KING ST, RENFREW"
      }
    ]
  },
  {
    "postal": "K7V9W7",
    "result": []
  },
  {
    "postal": "K7V5W6",
    "result": []
  },
  {
    "postal": "K7V6S6",
    "result": []
  },
  {
    "postal": "K7V2P8",
    "result": [
      {
        "electoralDistricts": [
          {
            "election": null,
            "id": 88,
            "name": "Renfrew—Nipissing—Pembroke"
          }
        ],
        "pollDivisionIds": [
          10141233
        ],
        "postalCode": "K7V2P8",
        "streetName": "PINE",
        "streetDirectionId": null,
        "streetTypeId": "AVE",
        "placeName": "RENFREW",
        "streetNameDisplayText": "PINE AVE, RENFREW"
      }
    ]
  },
  {
    "postal": "K7V4P8",
    "result": []
  },
  {
    "postal": "K7V0V9",
    "result": []
  },
  {
    "postal": "K7V5Y2",
    "result": []
  },
  {
    "postal": "K7V7Z7",
    "result": []
  },
  {
    "postal": "K7V6Y8",
    "result": []
  },
  {
    "postal": "K7V2G7",
    "result": [
      {
        "electoralDistricts": [
          {
            "election": null,
            "id": 88,
            "name": "Renfrew—Nipissing—Pembroke"
          }
        ],
        "pollDivisionIds": [
          10141231
        ],
        "postalCode": "K7V2G7",
        "streetName": "ROUSSELLE",
        "streetDirectionId": null,
        "streetTypeId": "ST",
        "placeName": "RENFREW",
        "streetNameDisplayText": "ROUSSELLE ST, RENFREW"
      }
    ]
  },
  {
    "postal": "K7V8C1",
    "result": []
  },
  {
    "postal": "K7V5C5",
    "result": []
  },
  {
    "postal": "K7V2X8",
    "result": [
      {
        "electoralDistricts": [
          {
            "election": null,
            "id": 88,
            "name": "Renfrew—Nipissing—Pembroke"
          }
        ],
        "pollDivisionIds": [
          10141233
        ],
        "postalCode": "K7V2X8",
        "streetName": "RENFREW",
        "streetDirectionId": "W",
        "streetTypeId": "AVE",
        "placeName": "RENFREW",
        "streetNameDisplayText": "RENFREW AVE W, RENFREW"
      }
    ]
  },
  {
    "postal": "K7V1W5",
    "result": [
      {
        "electoralDistricts": [
          {
            "election": null,
            "id": 88,
            "name": "Renfrew—Nipissing—Pembroke"
          }
        ],
        "pollDivisionIds": [
          10141232
        ],
        "postalCode": "K7V1W5",
        "streetName": "LOCHIEL",
        "streetDirectionId": "S",
        "streetTypeId": "ST",
        "placeName": "RENFREW",
        "streetNameDisplayText": "LOCHIEL ST S, RENFREW"
      }
    ]
  },
  {
    "postal": "K7V7G0",
    "result": []
  },
  {
    "postal": "K7V8J8",
    "result": []
  },
  {
    "postal": "K7V3Y0",
    "result": []
  },
  {
    "postal": "K7V9T7",
    "result": []
  },
  {
    "postal": "K7V5P4",
    "result": []
  },
  {
    "postal": "K7V4B0",
    "result": []
  },
  {
    "postal": "K7V9N8",
    "result": []
  },
  {
    "postal": "K7V4A7",
    "result": []
  },
  {
    "postal": "K7V4H9",
    "result": []
  },
  {
    "postal": "K7V6X1",
    "result": []
  },
  {
    "postal": "K7V9Y7",
    "result": []
  },
  {
    "postal": "K7V2Y5",
    "result": []
  },
  {
    "postal": "K7V8L7",
    "result": []
  },
  {
    "postal": "K7V2A8",
    "result": [
      {
        "electoralDistricts": [
          {
            "election": null,
            "id": 88,
            "name": "Renfrew—Nipissing—Pembroke"
          }
        ],
        "pollDivisionIds": [
          10141232
        ],
        "postalCode": "K7V2A8",
        "streetName": "QUEEN",
        "streetDirectionId": "S",
        "streetTypeId": "ST",
        "placeName": "RENFREW",
        "streetNameDisplayText": "QUEEN ST S, RENFREW"
      }
    ]
  },
  {
    "postal": "K7V2K9",
    "result": [
      {
        "electoralDistricts": [
          {
            "election": null,
            "id": 88,
            "name": "Renfrew—Nipissing—Pembroke"
          }
        ],
        "pollDivisionIds": [
          10141232
        ],
        "postalCode": "K7V2K9",
        "streetName": "DUFFERIN",
        "streetDirectionId": null,
        "streetTypeId": "ST",
        "placeName": "RENFREW",
        "streetNameDisplayText": "DUFFERIN ST, RENFREW"
      }
    ]
  },
  {
    "postal": "K7V3E5",
    "result": [
      {
        "electoralDistricts": [
          {
            "election": null,
            "id": 88,
            "name": "Renfrew—Nipissing—Pembroke"
          }
        ],
        "pollDivisionIds": [
          10141233
        ],
        "postalCode": "K7V3E5",
        "streetName": "HARRY",
        "streetDirectionId": null,
        "streetTypeId": "ST",
        "placeName": "RENFREW",
        "streetNameDisplayText": "HARRY ST, RENFREW"
      }
    ]
  },
  {
    "postal": "K7V8N6",
    "result": []
  },
  {
    "postal": "K7V8J4",
    "result": []
  },
  {
    "postal": "K7V4R7",
    "result": []
  },
  {
    "postal": "K7V9K1",
    "result": []
  },
  {
    "postal": "K7V8E1",
    "result": []
  },
  {
    "postal": "K7V0R1",
    "result": []
  },
  {
    "postal": "K7V4J3",
    "result": []
  },
  {
    "postal": "K7V7E7",
    "result": []
  },
  {
    "postal": "K7V0J0",
    "result": []
  },
  {
    "postal": "K7V7R8",
    "result": []
  },
  {
    "postal": "K7V9X0",
    "result": []
  },
  {
    "postal": "K7V7P6",
    "result": []
  },
  {
    "postal": "K7V0R7",
    "result": []
  },
  {
    "postal": "K7V5W1",
    "result": []
  },
  {
    "postal": "K7V0K4",
    "result": []
  },
  {
    "postal": "K7V7N9",
    "result": []
  },
  {
    "postal": "K7V1N0",
    "result": []
  },
  {
    "postal": "K7V6P3",
    "result": []
  },
  {
    "postal": "K7V5A1",
    "result": []
  },
  {
    "postal": "K7V9M9",
    "result": []
  },
  {
    "postal": "K7V7T6",
    "result": []
  },
  {
    "postal": "K7V3X0",
    "result": []
  },
  {
    "postal": "K7V2T0",
    "result": []
  },
  {
    "postal": "K7V5X9",
    "result": []
  },
  {
    "postal": "K7V2R3",
    "result": [
      {
        "electoralDistricts": [
          {
            "election": null,
            "id": 88,
            "name": "Renfrew—Nipissing—Pembroke"
          }
        ],
        "pollDivisionIds": [
          10141235
        ],
        "postalCode": "K7V2R3",
        "streetName": "JORDAN",
        "streetDirectionId": null,
        "streetTypeId": "AVE",
        "placeName": "RENFREW",
        "streetNameDisplayText": "JORDAN AVE, RENFREW"
      }
    ]
  },
  {
    "postal": "K7V5N2",
    "result": []
  },
  {
    "postal": "K7V4Y7",
    "result": []
  },
  {
    "postal": "K7V7M0",
    "result": []
  },
  {
    "postal": "K7V8P3",
    "result": []
  },
  {
    "postal": "K7V3N3",
    "result": [
      {
        "electoralDistricts": [
          {
            "election": null,
            "id": 88,
            "name": "Renfrew—Nipissing—Pembroke"
          }
        ],
        "pollDivisionIds": [
          10141232
        ],
        "postalCode": "K7V3N3",
        "streetName": "LISGAR",
        "streetDirectionId": null,
        "streetTypeId": "AVE",
        "placeName": "RENFREW",
        "streetNameDisplayText": "LISGAR AVE, RENFREW"
      }
    ]
  },
  {
    "postal": "K7V7S3",
    "result": []
  },
  {
    "postal": "K7V3V9",
    "result": [
      {
        "electoralDistricts": [
          {
            "election": null,
            "id": 88,
            "name": "Renfrew—Nipissing—Pembroke"
          }
        ],
        "pollDivisionIds": [
          10141231
        ],
        "postalCode": "K7V3V9",
        "streetName": "BRUCE",
        "streetDirectionId": null,
        "streetTypeId": "ST",
        "placeName": "RENFREW",
        "streetNameDisplayText": "BRUCE ST, RENFREW"
      }
    ]
  },
  {
    "postal": "K7V9N7",
    "result": []
  },
  {
    "postal": "K7V0G4",
    "result": []
  },
  {
    "postal": "K7V2E2",
    "result": [
      {
        "electoralDistricts": [
          {
            "election": null,
            "id": 88,
            "name": "Renfrew—Nipissing—Pembroke"
          }
        ],
        "pollDivisionIds": [
          10141232
        ],
        "postalCode": "K7V2E2",
        "streetName": "BANK",
        "streetDirectionId": "N",
        "streetTypeId": "ST",
        "placeName": "RENFREW",
        "streetNameDisplayText": "BANK ST N, RENFREW"
      }
    ]
  },
  {
    "postal": "K7V7W8",
    "result": []
  },
  {
    "postal": "K7V7M5",
    "result": []
  },
  {
    "postal": "K7V5W8",
    "result": []
  },
  {
    "postal": "K7V5E5",
    "result": []
  },
  {
    "postal": "K7V1P9",
    "result": [
      {
        "electoralDistricts": [
          {
            "election": null,
            "id": 88,
            "name": "Renfrew—Nipissing—Pembroke"
          }
        ],
        "pollDivisionIds": [
          10141233
        ],
        "postalCode": "K7V1P9",
        "streetName": "RAGLAN",
        "streetDirectionId": "S",
        "streetTypeId": "ST",
        "placeName": "RENFREW",
        "streetNameDisplayText": "RAGLAN ST S, RENFREW"
      }
    ]
  },
  {
    "postal": "K7V8V8",
    "result": []
  },
  {
    "postal": "K7V9G8",
    "result": []
  },
  {
    "postal": "K7V8H9",
    "result": []
  },
  {
    "postal": "K7V1Z1",
    "result": [
      {
        "electoralDistricts": [
          {
            "election": null,
            "id": 88,
            "name": "Renfrew—Nipissing—Pembroke"
          }
        ],
        "pollDivisionIds": [
          10141232
        ],
        "postalCode": "K7V1Z1",
        "streetName": "BONNECHERE",
        "streetDirectionId": "S",
        "streetTypeId": "ST",
        "placeName": "RENFREW",
        "streetNameDisplayText": "BONNECHERE ST S, RENFREW"
      }
    ]
  },
  {
    "postal": "K7V8M3",
    "result": []
  },
  {
    "postal": "K7V5H6",
    "result": []
  },
  {
    "postal": "K7V7W7",
    "result": []
  },
  {
    "postal": "K7V4L0",
    "result": []
  },
  {
    "postal": "K7V2N1",
    "result": [
      {
        "electoralDistricts": [
          {
            "election": null,
            "id": 88,
            "name": "Renfrew—Nipissing—Pembroke"
          }
        ],
        "pollDivisionIds": [
          10141232
        ],
        "postalCode": "K7V2N1",
        "streetName": "DUFFERIN",
        "streetDirectionId": null,
        "streetTypeId": "ST",
        "placeName": "RENFREW",
        "streetNameDisplayText": "DUFFERIN ST, RENFREW"
      }
    ]
  },
  {
    "postal": "K7V2H4",
    "result": [
      {
        "electoralDistricts": [
          {
            "election": null,
            "id": 88,
            "name": "Renfrew—Nipissing—Pembroke"
          }
        ],
        "pollDivisionIds": [
          10141232
        ],
        "postalCode": "K7V2H4",
        "streetName": "FAREWELL",
        "streetDirectionId": null,
        "streetTypeId": "ST",
        "placeName": "RENFREW",
        "streetNameDisplayText": "FAREWELL ST, RENFREW"
      }
    ]
  },
  {
    "postal": "K7V5C8",
    "result": []
  },
  {
    "postal": "K7V8B0",
    "result": []
  },
  {
    "postal": "K7V1T4",
    "result": [
      {
        "electoralDistricts": [
          {
            "election": null,
            "id": 88,
            "name": "Renfrew—Nipissing—Pembroke"
          }
        ],
        "pollDivisionIds": [
          10141233
        ],
        "postalCode": "K7V1T4",
        "streetName": "ARGYLE",
        "streetDirectionId": "S",
        "streetTypeId": "ST",
        "placeName": "RENFREW",
        "streetNameDisplayText": "ARGYLE ST S, RENFREW"
      }
    ]
  },
  {
    "postal": "K7V7N7",
    "result": []
  },
  {
    "postal": "K7V4L3",
    "result": [
      {
        "electoralDistricts": [
          {
            "election": null,
            "id": 88,
            "name": "Renfrew—Nipissing—Pembroke"
          }
        ],
        "pollDivisionIds": [
          10141234,
          10141235
        ],
        "postalCode": "K7V4L3",
        "streetName": "GILLAN",
        "streetDirectionId": null,
        "streetTypeId": "RD",
        "placeName": "RENFREW",
        "streetNameDisplayText": "GILLAN RD, RENFREW"
      },
      {
        "electoralDistricts": [
          {
            "election": null,
            "id": 88,
            "name": "Renfrew—Nipissing—Pembroke"
          }
        ],
        "pollDivisionIds": [
          10141235
        ],
        "postalCode": "K7V4L3",
        "streetName": "MAYHEW",
        "streetDirectionId": null,
        "streetTypeId": "ST",
        "placeName": "RENFREW",
        "streetNameDisplayText": "MAYHEW ST, RENFREW"
      }
    ]
  },
  {
    "postal": "K7V2N2",
    "result": [
      {
        "electoralDistricts": [
          {
            "election": null,
            "id": 88,
            "name": "Renfrew—Nipissing—Pembroke"
          }
        ],
        "pollDivisionIds": [
          10141233
        ],
        "postalCode": "K7V2N2",
        "streetName": "WADE",
        "streetDirectionId": null,
        "streetTypeId": "AVE",
        "placeName": "RENFREW",
        "streetNameDisplayText": "WADE AVE, RENFREW"
      }
    ]
  },
  {
    "postal": "K7V4N8",
    "result": []
  },
  {
    "postal": "K7V3M5",
    "result": [
      {
        "electoralDistricts": [
          {
            "election": null,
            "id": 88,
            "name": "Renfrew—Nipissing—Pembroke"
          }
        ],
        "pollDivisionIds": [
          10141232
        ],
        "postalCode": "K7V3M5",
        "streetName": "LISGAR",
        "streetDirectionId": null,
        "streetTypeId": "AVE",
        "placeName": "RENFREW",
        "streetNameDisplayText": "LISGAR AVE, RENFREW"
      }
    ]
  },
  {
    "postal": "K7V6H7",
    "result": []
  },
  {
    "postal": "K7V8Y8",
    "result": []
  },
  {
    "postal": "K7V5R9",
    "result": []
  },
  {
    "postal": "K7V8G3",
    "result": []
  },
  {
    "postal": "K7V4N7",
    "result": []
  },
  {
    "postal": "K7V0B9",
    "result": []
  },
  {
    "postal": "K7V9K7",
    "result": []
  },
  {
    "postal": "K7V9K9",
    "result": []
  },
  {
    "postal": "K7V3Z2",
    "result": [
      {
        "electoralDistricts": [
          {
            "election": null,
            "id": 88,
            "name": "Renfrew—Nipissing—Pembroke"
          }
        ],
        "pollDivisionIds": [
          10141235
        ],
        "postalCode": "K7V3Z2",
        "streetName": "O'BRIEN",
        "streetDirectionId": null,
        "streetTypeId": "RD",
        "placeName": "RENFREW",
        "streetNameDisplayText": "O'BRIEN RD, RENFREW"
      }
    ]
  },
  {
    "postal": "K7V6W7",
    "result": []
  },
  {
    "postal": "K7V0P1",
    "result": []
  },
  {
    "postal": "K7V3A0",
    "result": []
  },
  {
    "postal": "K7V8L9",
    "result": []
  },
  {
    "postal": "K7V6X0",
    "result": []
  },
  {
    "postal": "K7V3E9",
    "result": [
      {
        "electoralDistricts": [
          {
            "election": null,
            "id": 88,
            "name": "Renfrew—Nipissing—Pembroke"
          }
        ],
        "pollDivisionIds": [
          10141232
        ],
        "postalCode": "K7V3E9",
        "streetName": "CROSS",
        "streetDirectionId": null,
        "streetTypeId": "AVE",
        "placeName": "RENFREW",
        "streetNameDisplayText": "CROSS AVE, RENFREW"
      }
    ]
  },
  {
    "postal": "K7V0S5",
    "result": []
  },
  {
    "postal": "K7V1A2",
    "result": [
      {
        "electoralDistricts": [
          {
            "election": null,
            "id": 88,
            "name": "Renfrew—Nipissing—Pembroke"
          }
        ],
        "pollDivisionIds": [
          10141233
        ],
        "postalCode": "K7V1A2",
        "streetName": "MARTIN",
        "streetDirectionId": null,
        "streetTypeId": "ST",
        "placeName": "RENFREW",
        "streetNameDisplayText": "MARTIN ST, RENFREW"
      }
    ]
  },
  {
    "postal": "K7V5V8",
    "result": []
  },
  {
    "postal": "K7V8C5",
    "result": []
  },
  {
    "postal": "K7V6N0",
    "result": []
  },
  {
    "postal": "K7V9E6",
    "result": []
  },
  {
    "postal": "K7V5J7",
    "result": []
  },
  {
    "postal": "K7V2R2",
    "result": [
      {
        "electoralDistricts": [
          {
            "election": null,
            "id": 88,
            "name": "Renfrew—Nipissing—Pembroke"
          }
        ],
        "pollDivisionIds": [
          10141235
        ],
        "postalCode": "K7V2R2",
        "streetName": "JORDAN",
        "streetDirectionId": null,
        "streetTypeId": "AVE",
        "placeName": "RENFREW",
        "streetNameDisplayText": "JORDAN AVE, RENFREW"
      }
    ]
  },
  {
    "postal": "K7V0P5",
    "result": []
  },
  {
    "postal": "K7V5A7",
    "result": []
  },
  {
    "postal": "K7V1G1",
    "result": [
      {
        "electoralDistricts": [
          {
            "election": null,
            "id": 88,
            "name": "Renfrew—Nipissing—Pembroke"
          }
        ],
        "pollDivisionIds": [
          10141235
        ],
        "postalCode": "K7V1G1",
        "streetName": "BARNET",
        "streetDirectionId": null,
        "streetTypeId": "BLVD",
        "placeName": "RENFREW",
        "streetNameDisplayText": "BARNET BLVD, RENFREW"
      }
    ]
  },
  {
    "postal": "K7V9R6",
    "result": []
  },
  {
    "postal": "K7V4Z9",
    "result": []
  },
  {
    "postal": "K7V1V5",
    "result": [
      {
        "electoralDistricts": [
          {
            "election": null,
            "id": 88,
            "name": "Renfrew—Nipissing—Pembroke"
          }
        ],
        "pollDivisionIds": [
          10141231
        ],
        "postalCode": "K7V1V5",
        "streetName": "ALBERT",
        "streetDirectionId": null,
        "streetTypeId": "ST",
        "placeName": "RENFREW",
        "streetNameDisplayText": "ALBERT ST, RENFREW"
      }
    ]
  },
  {
    "postal": "K7V9Y5",
    "result": []
  },
  {
    "postal": "K7V1P2",
    "result": [
      {
        "electoralDistricts": [
          {
            "election": null,
            "id": 88,
            "name": "Renfrew—Nipissing—Pembroke"
          }
        ],
        "pollDivisionIds": [
          10141231
        ],
        "postalCode": "K7V1P2",
        "streetName": "RAGLAN",
        "streetDirectionId": "N",
        "streetTypeId": "ST",
        "placeName": "RENFREW",
        "streetNameDisplayText": "RAGLAN ST N, RENFREW"
      }
    ]
  },
  {
    "postal": "K7V5X0",
    "result": []
  },
  {
    "postal": "K7V7B8",
    "result": []
  },
  {
    "postal": "K7V0C6",
    "result": []
  },
  {
    "postal": "K7V6G1",
    "result": []
  },
  {
    "postal": "K7V3K3",
    "result": [
      {
        "electoralDistricts": [
          {
            "election": null,
            "id": 88,
            "name": "Renfrew—Nipissing—Pembroke"
          }
        ],
        "pollDivisionIds": [
          10141233
        ],
        "postalCode": "K7V3K3",
        "streetName": "MUNROE",
        "streetDirectionId": "E",
        "streetTypeId": "AVE",
        "placeName": "RENFREW",
        "streetNameDisplayText": "MUNROE AVE E, RENFREW"
      }
    ]
  },
  {
    "postal": "K7V9R0",
    "result": []
  },
  {
    "postal": "K7V4R8",
    "result": []
  },
  {
    "postal": "K7V5P9",
    "result": []
  },
  {
    "postal": "K7V8N4",
    "result": []
  },
  {
    "postal": "K7V8H4",
    "result": []
  },
  {
    "postal": "K7V4V1",
    "result": []
  },
  {
    "postal": "K7V1K5",
    "result": [
      {
        "electoralDistricts": [
          {
            "election": null,
            "id": 88,
            "name": "Renfrew—Nipissing—Pembroke"
          }
        ],
        "pollDivisionIds": [
          10141233
        ],
        "postalCode": "K7V1K5",
        "streetName": "LYNN",
        "streetDirectionId": null,
        "streetTypeId": "ST",
        "placeName": "RENFREW",
        "streetNameDisplayText": "LYNN ST, RENFREW"
      }
    ]
  },
  {
    "postal": "K7V1Z5",
    "result": [
      {
        "electoralDistricts": [
          {
            "election": null,
            "id": 88,
            "name": "Renfrew—Nipissing—Pembroke"
          }
        ],
        "pollDivisionIds": [
          10141229
        ],
        "postalCode": "K7V1Z5",
        "streetName": "BONNECHERE",
        "streetDirectionId": "E",
        "streetTypeId": "ST",
        "placeName": "RENFREW",
        "streetNameDisplayText": "BONNECHERE ST E, RENFREW"
      },
      {
        "electoralDistricts": [
          {
            "election": null,
            "id": 88,
            "name": "Renfrew—Nipissing—Pembroke"
          }
        ],
        "pollDivisionIds": [
          10141229,
          10141232
        ],
        "postalCode": "K7V1Z5",
        "streetName": "BONNECHERE",
        "streetDirectionId": "S",
        "streetTypeId": "ST",
        "placeName": "RENFREW",
        "streetNameDisplayText": "BONNECHERE ST S, RENFREW"
      }
    ]
  },
  {
    "postal": "K7V9L9",
    "result": []
  },
  {
    "postal": "K7V5L2",
    "result": []
  },
  {
    "postal": "K7V0M2",
    "result": []
  },
  {
    "postal": "K7V1K8",
    "result": [
      {
        "electoralDistricts": [
          {
            "election": null,
            "id": 88,
            "name": "Renfrew—Nipissing—Pembroke"
          }
        ],
        "pollDivisionIds": [
          10141232
        ],
        "postalCode": "K7V1K8",
        "streetName": "LORNE",
        "streetDirectionId": "N",
        "streetTypeId": "ST",
        "placeName": "RENFREW",
        "streetNameDisplayText": "LORNE ST N, RENFREW"
      }
    ]
  },
  {
    "postal": "K7V3M7",
    "result": [
      {
        "electoralDistricts": [
          {
            "election": null,
            "id": 88,
            "name": "Renfrew—Nipissing—Pembroke"
          }
        ],
        "pollDivisionIds": [
          10141232
        ],
        "postalCode": "K7V3M7",
        "streetName": "LISGAR",
        "streetDirectionId": null,
        "streetTypeId": "AVE",
        "placeName": "RENFREW",
        "streetNameDisplayText": "LISGAR AVE, RENFREW"
      }
    ]
  },
  {
    "postal": "K7V1B2",
    "result": [
      {
        "electoralDistricts": [
          {
            "election": null,
            "id": 88,
            "name": "Renfrew—Nipissing—Pembroke"
          }
        ],
        "pollDivisionIds": [
          10141233
        ],
        "postalCode": "K7V1B2",
        "streetName": "MCLEAN",
        "streetDirectionId": null,
        "streetTypeId": "ST",
        "placeName": "RENFREW",
        "streetNameDisplayText": "MCLEAN ST, RENFREW"
      }
    ]
  },
  {
    "postal": "K7V0H9",
    "result": []
  },
  {
    "postal": "K7V8M4",
    "result": []
  },
  {
    "postal": "K7V2M5",
    "result": [
      {
        "electoralDistricts": [
          {
            "election": null,
            "id": 88,
            "name": "Renfrew—Nipissing—Pembroke"
          }
        ],
        "pollDivisionIds": [
          10141233
        ],
        "postalCode": "K7V2M5",
        "streetName": "BARNET",
        "streetDirectionId": null,
        "streetTypeId": "BLVD",
        "placeName": "RENFREW",
        "streetNameDisplayText": "BARNET BLVD, RENFREW"
      }
    ]
  },
  {
    "postal": "K7V0T9",
    "result": []
  },
  {
    "postal": "K7V3P1",
    "result": [
      {
        "electoralDistricts": [
          {
            "election": null,
            "id": 88,
            "name": "Renfrew—Nipissing—Pembroke"
          }
        ],
        "pollDivisionIds": [
          10141232
        ],
        "postalCode": "K7V3P1",
        "streetName": "BARRY",
        "streetDirectionId": null,
        "streetTypeId": "AVE",
        "placeName": "RENFREW",
        "streetNameDisplayText": "BARRY AVE, RENFREW"
      }
    ]
  },
  {
    "postal": "K7V1R6",
    "result": [
      {
        "electoralDistricts": [
          {
            "election": null,
            "id": 88,
            "name": "Renfrew—Nipissing—Pembroke"
          }
        ],
        "pollDivisionIds": [
          10141233
        ],
        "postalCode": "K7V1R6",
        "streetName": "RAGLAN",
        "streetDirectionId": "S",
        "streetTypeId": "ST",
        "placeName": "RENFREW",
        "streetNameDisplayText": "RAGLAN ST S, RENFREW"
      }
    ]
  },
  {
    "postal": "K7V9V5",
    "result": []
  },
  {
    "postal": "K7V9T0",
    "result": []
  },
  {
    "postal": "K7V0A9",
    "result": [
      {
        "electoralDistricts": [
          {
            "election": null,
            "id": 88,
            "name": "Renfrew—Nipissing—Pembroke"
          }
        ],
        "pollDivisionIds": [
          10141235
        ],
        "postalCode": "K7V0A9",
        "streetName": "BARNET",
        "streetDirectionId": null,
        "streetTypeId": "BLVD",
        "placeName": "RENFREW",
        "streetNameDisplayText": "BARNET BLVD, RENFREW"
      }
    ]
  },
  {
    "postal": "K7V1M3",
    "result": [
      {
        "electoralDistricts": [
          {
            "election": null,
            "id": 88,
            "name": "Renfrew—Nipissing—Pembroke"
          }
        ],
        "pollDivisionIds": [
          10141232
        ],
        "postalCode": "K7V1M3",
        "streetName": "PLAUNT",
        "streetDirectionId": "N",
        "streetTypeId": "ST",
        "placeName": "RENFREW",
        "streetNameDisplayText": "PLAUNT ST N, RENFREW"
      }
    ]
  },
  {
    "postal": "K7V1W8",
    "result": [
      {
        "electoralDistricts": [
          {
            "election": null,
            "id": 88,
            "name": "Renfrew—Nipissing—Pembroke"
          }
        ],
        "pollDivisionIds": [
          10141232
        ],
        "postalCode": "K7V1W8",
        "streetName": "LOCHIEL",
        "streetDirectionId": "S",
        "streetTypeId": "ST",
        "placeName": "RENFREW",
        "streetNameDisplayText": "LOCHIEL ST S, RENFREW"
      }
    ]
  },
  {
    "postal": "K7V9J1",
    "result": []
  },
  {
    "postal": "K7V8N5",
    "result": []
  },
  {
    "postal": "K7V5X1",
    "result": []
  },
  {
    "postal": "K7V6S2",
    "result": []
  },
  {
    "postal": "K7V2A2",
    "result": [
      {
        "electoralDistricts": [
          {
            "election": null,
            "id": 88,
            "name": "Renfrew—Nipissing—Pembroke"
          }
        ],
        "pollDivisionIds": [
          10141232
        ],
        "postalCode": "K7V2A2",
        "streetName": "QUEEN",
        "streetDirectionId": "N",
        "streetTypeId": "ST",
        "placeName": "RENFREW",
        "streetNameDisplayText": "QUEEN ST N, RENFREW"
      }
    ]
  },
  {
    "postal": "K7V6A6",
    "result": []
  },
  {
    "postal": "K7V0S3",
    "result": []
  },
  {
    "postal": "K7V3E7",
    "result": [
      {
        "electoralDistricts": [
          {
            "election": null,
            "id": 88,
            "name": "Renfrew—Nipissing—Pembroke"
          }
        ],
        "pollDivisionIds": [
          10141233
        ],
        "postalCode": "K7V3E7",
        "streetName": "ALLAN",
        "streetDirectionId": null,
        "streetTypeId": "AVE",
        "placeName": "RENFREW",
        "streetNameDisplayText": "ALLAN AVE, RENFREW"
      }
    ]
  },
  {
    "postal": "K7V5R7",
    "result": []
  },
  {
    "postal": "K7V3R6",
    "result": [
      {
        "electoralDistricts": [
          {
            "election": null,
            "id": 88,
            "name": "Renfrew—Nipissing—Pembroke"
          }
        ],
        "pollDivisionIds": [
          10141231
        ],
        "postalCode": "K7V3R6",
        "streetName": "READY",
        "streetDirectionId": null,
        "streetTypeId": "AVE",
        "placeName": "RENFREW",
        "streetNameDisplayText": "READY AVE, RENFREW"
      }
    ]
  },
  {
    "postal": "K7V6K4",
    "result": []
  },
  {
    "postal": "K7V2W5",
    "result": []
  },
  {
    "postal": "K7V8W4",
    "result": []
  },
  {
    "postal": "K7V9C2",
    "result": []
  },
  {
    "postal": "K7V2C0",
    "result": []
  },
  {
    "postal": "K7V0E1",
    "result": []
  },
  {
    "postal": "K7V1K9",
    "result": [
      {
        "electoralDistricts": [
          {
            "election": null,
            "id": 88,
            "name": "Renfrew—Nipissing—Pembroke"
          }
        ],
        "pollDivisionIds": [
          10141232
        ],
        "postalCode": "K7V1K9",
        "streetName": "LORNE",
        "streetDirectionId": "N",
        "streetTypeId": "ST",
        "placeName": "RENFREW",
        "streetNameDisplayText": "LORNE ST N, RENFREW"
      }
    ]
  },
  {
    "postal": "K7V1G7",
    "result": [
      {
        "electoralDistricts": [
          {
            "election": null,
            "id": 88,
            "name": "Renfrew—Nipissing—Pembroke"
          }
        ],
        "pollDivisionIds": [
          10141235
        ],
        "postalCode": "K7V1G7",
        "streetName": "NEW",
        "streetDirectionId": null,
        "streetTypeId": "ST",
        "placeName": "RENFREW",
        "streetNameDisplayText": "NEW ST, RENFREW"
      }
    ]
  },
  {
    "postal": "K7V4E9",
    "result": [
      {
        "electoralDistricts": [
          {
            "election": null,
            "id": 88,
            "name": "Renfrew—Nipissing—Pembroke"
          }
        ],
        "pollDivisionIds": [
          10141233
        ],
        "postalCode": "K7V4E9",
        "streetName": "MURIEL",
        "streetDirectionId": null,
        "streetTypeId": "AVE",
        "placeName": "RENFREW",
        "streetNameDisplayText": "MURIEL AVE, RENFREW"
      }
    ]
  },
  {
    "postal": "K7V9P0",
    "result": []
  },
  {
    "postal": "K7V5H3",
    "result": []
  },
  {
    "postal": "K7V9X6",
    "result": []
  },
  {
    "postal": "K7V5N7",
    "result": []
  },
  {
    "postal": "K7V5A6",
    "result": []
  },
  {
    "postal": "K7V4M0",
    "result": []
  },
  {
    "postal": "K7V3V6",
    "result": [
      {
        "electoralDistricts": [
          {
            "election": null,
            "id": 88,
            "name": "Renfrew—Nipissing—Pembroke"
          }
        ],
        "pollDivisionIds": [
          10141231
        ],
        "postalCode": "K7V3V6",
        "streetName": "CAMERON",
        "streetDirectionId": null,
        "streetTypeId": "AVE",
        "placeName": "RENFREW",
        "streetNameDisplayText": "CAMERON AVE, RENFREW"
      },
      {
        "electoralDistricts": [
          {
            "election": null,
            "id": 88,
            "name": "Renfrew—Nipissing—Pembroke"
          }
        ],
        "pollDivisionIds": [
          10141231
        ],
        "postalCode": "K7V3V6",
        "streetName": "CAMERON",
        "streetDirectionId": null,
        "streetTypeId": "ST",
        "placeName": "RENFREW",
        "streetNameDisplayText": "CAMERON ST, RENFREW"
      }
    ]
  },
  {
    "postal": "K7V1L7",
    "result": [
      {
        "electoralDistricts": [
          {
            "election": null,
            "id": 88,
            "name": "Renfrew—Nipissing—Pembroke"
          }
        ],
        "pollDivisionIds": [
          10141231
        ],
        "postalCode": "K7V1L7",
        "streetName": "MOORE",
        "streetDirectionId": null,
        "streetTypeId": "ST",
        "placeName": "RENFREW",
        "streetNameDisplayText": "MOORE ST, RENFREW"
      }
    ]
  },
  {
    "postal": "K7V2P9",
    "result": [
      {
        "electoralDistricts": [
          {
            "election": null,
            "id": 88,
            "name": "Renfrew—Nipissing—Pembroke"
          }
        ],
        "pollDivisionIds": [
          10141233
        ],
        "postalCode": "K7V2P9",
        "streetName": "PINE",
        "streetDirectionId": null,
        "streetTypeId": "AVE",
        "placeName": "RENFREW",
        "streetNameDisplayText": "PINE AVE, RENFREW"
      }
    ]
  },
  {
    "postal": "K7V5T4",
    "result": []
  },
  {
    "postal": "K7V5Z1",
    "result": []
  },
  {
    "postal": "K7V2X0",
    "result": []
  },
  {
    "postal": "K7V6Z2",
    "result": []
  },
  {
    "postal": "K7V0E0",
    "result": []
  },
  {
    "postal": "K7V3Z5",
    "result": [
      {
        "electoralDistricts": [
          {
            "election": null,
            "id": 88,
            "name": "Renfrew—Nipissing—Pembroke"
          }
        ],
        "pollDivisionIds": [
          10141245
        ],
        "postalCode": "K7V3Z5",
        "streetName": "132",
        "streetDirectionId": null,
        "streetTypeId": "HWY",
        "placeName": "RENFREW",
        "streetNameDisplayText": "132 HWY, RENFREW"
      },
      {
        "electoralDistricts": [
          {
            "election": null,
            "id": 88,
            "name": "Renfrew—Nipissing—Pembroke"
          }
        ],
        "pollDivisionIds": [
          10141245
        ],
        "postalCode": "K7V3Z5",
        "streetName": "BERLANQUET",
        "streetDirectionId": null,
        "streetTypeId": "RD",
        "placeName": "RENFREW",
        "streetNameDisplayText": "BERLANQUET RD, RENFREW"
      },
      {
        "electoralDistricts": [
          {
            "election": null,
            "id": 88,
            "name": "Renfrew—Nipissing—Pembroke"
          }
        ],
        "pollDivisionIds": [
          10141245
        ],
        "postalCode": "K7V3Z5",
        "streetName": "BILLY JOHN",
        "streetDirectionId": null,
        "streetTypeId": "LANE",
        "placeName": "RENFREW",
        "streetNameDisplayText": "BILLY JOHN LANE, RENFREW"
      },
      {
        "electoralDistricts": [
          {
            "election": null,
            "id": 88,
            "name": "Renfrew—Nipissing—Pembroke"
          }
        ],
        "pollDivisionIds": [
          10141245
        ],
        "postalCode": "K7V3Z5",
        "streetName": "BONNECHERE",
        "streetDirectionId": null,
        "streetTypeId": "RD",
        "placeName": "RENFREW",
        "streetNameDisplayText": "BONNECHERE RD, RENFREW"
      },
      {
        "electoralDistricts": [
          {
            "election": null,
            "id": 88,
            "name": "Renfrew—Nipissing—Pembroke"
          }
        ],
        "pollDivisionIds": [
          10141245
        ],
        "postalCode": "K7V3Z5",
        "streetName": "CAMPBELL",
        "streetDirectionId": null,
        "streetTypeId": "LINE",
        "placeName": "RENFREW",
        "streetNameDisplayText": "CAMPBELL LINE, RENFREW"
      },
      {
        "electoralDistricts": [
          {
            "election": null,
            "id": 88,
            "name": "Renfrew—Nipissing—Pembroke"
          }
        ],
        "pollDivisionIds": [
          10141245
        ],
        "postalCode": "K7V3Z5",
        "streetName": "COLTON",
        "streetDirectionId": null,
        "streetTypeId": "RD",
        "placeName": "RENFREW",
        "streetNameDisplayText": "COLTON RD, RENFREW"
      },
      {
        "electoralDistricts": [
          {
            "election": null,
            "id": 88,
            "name": "Renfrew—Nipissing—Pembroke"
          }
        ],
        "pollDivisionIds": [
          10141245
        ],
        "postalCode": "K7V3Z5",
        "streetName": "CRUISE",
        "streetDirectionId": null,
        "streetTypeId": "LANE",
        "placeName": "RENFREW",
        "streetNameDisplayText": "CRUISE LANE, RENFREW"
      },
      {
        "electoralDistricts": [
          {
            "election": null,
            "id": 88,
            "name": "Renfrew—Nipissing—Pembroke"
          }
        ],
        "pollDivisionIds": [
          10141245
        ],
        "postalCode": "K7V3Z5",
        "streetName": "CULHANE",
        "streetDirectionId": null,
        "streetTypeId": "RD",
        "placeName": "RENFREW",
        "streetNameDisplayText": "CULHANE RD, RENFREW"
      },
      {
        "electoralDistricts": [
          {
            "election": null,
            "id": 88,
            "name": "Renfrew—Nipissing—Pembroke"
          }
        ],
        "pollDivisionIds": [
          10141245
        ],
        "postalCode": "K7V3Z5",
        "streetName": "DESMOND",
        "streetDirectionId": null,
        "streetTypeId": "RD",
        "placeName": "RENFREW",
        "streetNameDisplayText": "DESMOND RD, RENFREW"
      },
      {
        "electoralDistricts": [
          {
            "election": null,
            "id": 88,
            "name": "Renfrew—Nipissing—Pembroke"
          }
        ],
        "pollDivisionIds": [
          10141245
        ],
        "postalCode": "K7V3Z5",
        "streetName": "ENRIGHT",
        "streetDirectionId": null,
        "streetTypeId": "RD",
        "placeName": "RENFREW",
        "streetNameDisplayText": "ENRIGHT RD, RENFREW"
      },
      {
        "electoralDistricts": [
          {
            "election": null,
            "id": 88,
            "name": "Renfrew—Nipissing—Pembroke"
          }
        ],
        "pollDivisionIds": [
          10141245
        ],
        "postalCode": "K7V3Z5",
        "streetName": "FENNESSY",
        "streetDirectionId": null,
        "streetTypeId": "LANE",
        "placeName": "RENFREW",
        "streetNameDisplayText": "FENNESSY LANE, RENFREW"
      },
      {
        "electoralDistricts": [
          {
            "election": null,
            "id": 88,
            "name": "Renfrew—Nipissing—Pembroke"
          }
        ],
        "pollDivisionIds": [
          10141245
        ],
        "postalCode": "K7V3Z5",
        "streetName": "FOY",
        "streetDirectionId": null,
        "streetTypeId": "RD",
        "placeName": "RENFREW",
        "streetNameDisplayText": "FOY RD, RENFREW"
      },
      {
        "electoralDistricts": [
          {
            "election": null,
            "id": 88,
            "name": "Renfrew—Nipissing—Pembroke"
          }
        ],
        "pollDivisionIds": [
          10141245
        ],
        "postalCode": "K7V3Z5",
        "streetName": "FREAMO",
        "streetDirectionId": null,
        "streetTypeId": "LANE",
        "placeName": "RENFREW",
        "streetNameDisplayText": "FREAMO LANE, RENFREW"
      },
      {
        "electoralDistricts": [
          {
            "election": null,
            "id": 88,
            "name": "Renfrew—Nipissing—Pembroke"
          }
        ],
        "pollDivisionIds": [
          10141245
        ],
        "postalCode": "K7V3Z5",
        "streetName": "FREAMO",
        "streetDirectionId": null,
        "streetTypeId": "RD",
        "placeName": "RENFREW",
        "streetNameDisplayText": "FREAMO RD, RENFREW"
      },
      {
        "electoralDistricts": [
          {
            "election": null,
            "id": 88,
            "name": "Renfrew—Nipissing—Pembroke"
          }
        ],
        "pollDivisionIds": [
          10141245
        ],
        "postalCode": "K7V3Z5",
        "streetName": "FULTON",
        "streetDirectionId": null,
        "streetTypeId": "RD",
        "placeName": "RENFREW",
        "streetNameDisplayText": "FULTON RD, RENFREW"
      },
      {
        "electoralDistricts": [
          {
            "election": null,
            "id": 88,
            "name": "Renfrew—Nipissing—Pembroke"
          }
        ],
        "pollDivisionIds": [
          10141245
        ],
        "postalCode": "K7V3Z5",
        "streetName": "GAUTHIER",
        "streetDirectionId": null,
        "streetTypeId": "RD",
        "placeName": "RENFREW",
        "streetNameDisplayText": "GAUTHIER RD, RENFREW"
      },
      {
        "electoralDistricts": [
          {
            "election": null,
            "id": 88,
            "name": "Renfrew—Nipissing—Pembroke"
          }
        ],
        "pollDivisionIds": [
          10141245
        ],
        "postalCode": "K7V3Z5",
        "streetName": "GORDON HEYMANS",
        "streetDirectionId": null,
        "streetTypeId": "LANE",
        "placeName": "RENFREW",
        "streetNameDisplayText": "GORDON HEYMANS LANE, RENFREW"
      },
      {
        "electoralDistricts": [
          {
            "election": null,
            "id": 88,
            "name": "Renfrew—Nipissing—Pembroke"
          }
        ],
        "pollDivisionIds": [
          10141245
        ],
        "postalCode": "K7V3Z5",
        "streetName": "HWY 132",
        "streetDirectionId": null,
        "streetTypeId": "RD",
        "placeName": "RENFREW",
        "streetNameDisplayText": "HWY 132 RD, RENFREW"
      },
      {
        "electoralDistricts": [
          {
            "election": null,
            "id": 88,
            "name": "Renfrew—Nipissing—Pembroke"
          }
        ],
        "pollDivisionIds": [
          10141245
        ],
        "postalCode": "K7V3Z5",
        "streetName": "HWY 132",
        "streetDirectionId": null,
        "streetTypeId": null,
        "placeName": "RENFREW",
        "streetNameDisplayText": "HWY 132, RENFREW"
      },
      {
        "electoralDistricts": [
          {
            "election": null,
            "id": 88,
            "name": "Renfrew—Nipissing—Pembroke"
          }
        ],
        "pollDivisionIds": [
          10141245
        ],
        "postalCode": "K7V3Z5",
        "streetName": "KENNELLY",
        "streetDirectionId": null,
        "streetTypeId": "RD",
        "placeName": "RENFREW",
        "streetNameDisplayText": "KENNELLY RD, RENFREW"
      },
      {
        "electoralDistricts": [
          {
            "election": null,
            "id": 88,
            "name": "Renfrew—Nipissing—Pembroke"
          }
        ],
        "pollDivisionIds": [
          10141245
        ],
        "postalCode": "K7V3Z5",
        "streetName": "LAUREL",
        "streetDirectionId": null,
        "streetTypeId": "CRES",
        "placeName": "RENFREW",
        "streetNameDisplayText": "LAUREL CRES, RENFREW"
      },
      {
        "electoralDistricts": [
          {
            "election": null,
            "id": 88,
            "name": "Renfrew—Nipissing—Pembroke"
          }
        ],
        "pollDivisionIds": [
          10141245
        ],
        "postalCode": "K7V3Z5",
        "streetName": "LOON CALL",
        "streetDirectionId": null,
        "streetTypeId": "WAY",
        "placeName": "RENFREW",
        "streetNameDisplayText": "LOON CALL WAY, RENFREW"
      },
      {
        "electoralDistricts": [
          {
            "election": null,
            "id": 88,
            "name": "Renfrew—Nipissing—Pembroke"
          }
        ],
        "pollDivisionIds": [
          10141245
        ],
        "postalCode": "K7V3Z5",
        "streetName": "LYNCH",
        "streetDirectionId": null,
        "streetTypeId": "RD",
        "placeName": "RENFREW",
        "streetNameDisplayText": "LYNCH RD, RENFREW"
      },
      {
        "electoralDistricts": [
          {
            "election": null,
            "id": 88,
            "name": "Renfrew—Nipissing—Pembroke"
          }
        ],
        "pollDivisionIds": [
          10141245
        ],
        "postalCode": "K7V3Z5",
        "streetName": "MCCUAIG",
        "streetDirectionId": null,
        "streetTypeId": "RD",
        "placeName": "RENFREW",
        "streetNameDisplayText": "MCCUAIG RD, RENFREW"
      },
      {
        "electoralDistricts": [
          {
            "election": null,
            "id": 88,
            "name": "Renfrew—Nipissing—Pembroke"
          }
        ],
        "pollDivisionIds": [
          10141245
        ],
        "postalCode": "K7V3Z5",
        "streetName": "MCLAREN",
        "streetDirectionId": null,
        "streetTypeId": "RD",
        "placeName": "RENFREW",
        "streetNameDisplayText": "MCLAREN RD, RENFREW"
      },
      {
        "electoralDistricts": [
          {
            "election": null,
            "id": 88,
            "name": "Renfrew—Nipissing—Pembroke"
          }
        ],
        "pollDivisionIds": [
          10141245
        ],
        "postalCode": "K7V3Z5",
        "streetName": "MCNULTY",
        "streetDirectionId": null,
        "streetTypeId": "RD",
        "placeName": "RENFREW",
        "streetNameDisplayText": "MCNULTY RD, RENFREW"
      },
      {
        "electoralDistricts": [
          {
            "election": null,
            "id": 88,
            "name": "Renfrew—Nipissing—Pembroke"
          }
        ],
        "pollDivisionIds": [
          10141245
        ],
        "postalCode": "K7V3Z5",
        "streetName": "MORREST",
        "streetDirectionId": null,
        "streetTypeId": "LANE",
        "placeName": "RENFREW",
        "streetNameDisplayText": "MORREST LANE, RENFREW"
      },
      {
        "electoralDistricts": [
          {
            "election": null,
            "id": 88,
            "name": "Renfrew—Nipissing—Pembroke"
          }
        ],
        "pollDivisionIds": [
          10141245
        ],
        "postalCode": "K7V3Z5",
        "streetName": "OPEONGO",
        "streetDirectionId": null,
        "streetTypeId": "RD",
        "placeName": "RENFREW",
        "streetNameDisplayText": "OPEONGO RD, RENFREW"
      },
      {
        "electoralDistricts": [
          {
            "election": null,
            "id": 88,
            "name": "Renfrew—Nipissing—Pembroke"
          }
        ],
        "pollDivisionIds": [
          10141245
        ],
        "postalCode": "K7V3Z5",
        "streetName": "RACCOON",
        "streetDirectionId": null,
        "streetTypeId": "LANE",
        "placeName": "RENFREW",
        "streetNameDisplayText": "RACCOON LANE, RENFREW"
      },
      {
        "electoralDistricts": [
          {
            "election": null,
            "id": 88,
            "name": "Renfrew—Nipissing—Pembroke"
          }
        ],
        "pollDivisionIds": [
          10141245
        ],
        "postalCode": "K7V3Z5",
        "streetName": "RACOON",
        "streetDirectionId": null,
        "streetTypeId": "RD",
        "placeName": "RENFREW",
        "streetNameDisplayText": "RACOON RD, RENFREW"
      },
      {
        "electoralDistricts": [
          {
            "election": null,
            "id": 88,
            "name": "Renfrew—Nipissing—Pembroke"
          }
        ],
        "pollDivisionIds": [
          10141245
        ],
        "postalCode": "K7V3Z5",
        "streetName": "REID",
        "streetDirectionId": null,
        "streetTypeId": "RD",
        "placeName": "RENFREW",
        "streetNameDisplayText": "REID RD, RENFREW"
      },
      {
        "electoralDistricts": [
          {
            "election": null,
            "id": 88,
            "name": "Renfrew—Nipissing—Pembroke"
          }
        ],
        "pollDivisionIds": [
          10141245
        ],
        "postalCode": "K7V3Z5",
        "streetName": "RIDDELL",
        "streetDirectionId": null,
        "streetTypeId": "RD",
        "placeName": "RENFREW",
        "streetNameDisplayText": "RIDDELL RD, RENFREW"
      },
      {
        "electoralDistricts": [
          {
            "election": null,
            "id": 88,
            "name": "Renfrew—Nipissing—Pembroke"
          }
        ],
        "pollDivisionIds": [
          10141232
        ],
        "postalCode": "K7V3Z5",
        "streetName": "RIVERVIEW",
        "streetDirectionId": null,
        "streetTypeId": "CRES",
        "placeName": "RENFREW",
        "streetNameDisplayText": "RIVERVIEW CRES, RENFREW"
      },
      {
        "electoralDistricts": [
          {
            "election": null,
            "id": 88,
            "name": "Renfrew—Nipissing—Pembroke"
          }
        ],
        "pollDivisionIds": [
          10141232,
          10141245
        ],
        "postalCode": "K7V3Z5",
        "streetName": "RIVERVIEW",
        "streetDirectionId": null,
        "streetTypeId": "DR",
        "placeName": "RENFREW",
        "streetNameDisplayText": "RIVERVIEW DR, RENFREW"
      },
      {
        "electoralDistricts": [
          {
            "election": null,
            "id": 88,
            "name": "Renfrew—Nipissing—Pembroke"
          }
        ],
        "pollDivisionIds": [
          10141229
        ],
        "postalCode": "K7V3Z5",
        "streetName": "RIVERVIEW",
        "streetDirectionId": null,
        "streetTypeId": "PL",
        "placeName": "EGANVILLE",
        "streetNameDisplayText": "RIVERVIEW PL, EGANVILLE"
      },
      {
        "electoralDistricts": [
          {
            "election": null,
            "id": 88,
            "name": "Renfrew—Nipissing—Pembroke"
          }
        ],
        "pollDivisionIds": [
          10141229
        ],
        "postalCode": "K7V3Z5",
        "streetName": "RIVERVIEW",
        "streetDirectionId": null,
        "streetTypeId": "PL",
        "placeName": "RENFREW",
        "streetNameDisplayText": "RIVERVIEW PL, RENFREW"
      },
      {
        "electoralDistricts": [
          {
            "election": null,
            "id": 88,
            "name": "Renfrew—Nipissing—Pembroke"
          }
        ],
        "pollDivisionIds": [
          10141245
        ],
        "postalCode": "K7V3Z5",
        "streetName": "SAMMON",
        "streetDirectionId": null,
        "streetTypeId": "RD",
        "placeName": "RENFREW",
        "streetNameDisplayText": "SAMMON RD, RENFREW"
      },
      {
        "electoralDistricts": [
          {
            "election": null,
            "id": 88,
            "name": "Renfrew—Nipissing—Pembroke"
          }
        ],
        "pollDivisionIds": [
          10141245
        ],
        "postalCode": "K7V3Z5",
        "streetName": "SOUTH MCNAUGHTON",
        "streetDirectionId": null,
        "streetTypeId": "RD",
        "placeName": "RENFREW",
        "streetNameDisplayText": "SOUTH MCNAUGHTON RD, RENFREW"
      },
      {
        "electoralDistricts": [
          {
            "election": null,
            "id": 88,
            "name": "Renfrew—Nipissing—Pembroke"
          }
        ],
        "pollDivisionIds": [
          10141245
        ],
        "postalCode": "K7V3Z5",
        "streetName": "STONE",
        "streetDirectionId": null,
        "streetTypeId": "RD",
        "placeName": "RENFREW",
        "streetNameDisplayText": "STONE RD, RENFREW"
      },
      {
        "electoralDistricts": [
          {
            "election": null,
            "id": 88,
            "name": "Renfrew—Nipissing—Pembroke"
          }
        ],
        "pollDivisionIds": [
          10141245
        ],
        "postalCode": "K7V3Z5",
        "streetName": "WALKER",
        "streetDirectionId": null,
        "streetTypeId": "RD",
        "placeName": "RENFREW",
        "streetNameDisplayText": "WALKER RD, RENFREW"
      },
      {
        "electoralDistricts": [
          {
            "election": null,
            "id": 88,
            "name": "Renfrew—Nipissing—Pembroke"
          }
        ],
        "pollDivisionIds": [
          10141245
        ],
        "postalCode": "K7V3Z5",
        "streetName": "WHITE BIRCH",
        "streetDirectionId": null,
        "streetTypeId": "LANE",
        "placeName": "RENFREW",
        "streetNameDisplayText": "WHITE BIRCH LANE, RENFREW"
      }
    ]
  },
  {
    "postal": "K7V8H3",
    "result": []
  },
  {
    "postal": "K7V7S6",
    "result": []
  },
  {
    "postal": "K7V4C1",
    "result": [
      {
        "electoralDistricts": [
          {
            "election": null,
            "id": 88,
            "name": "Renfrew—Nipissing—Pembroke"
          }
        ],
        "pollDivisionIds": [
          10141233
        ],
        "postalCode": "K7V4C1",
        "streetName": "MASSEY",
        "streetDirectionId": null,
        "streetTypeId": "CRES",
        "placeName": "RENFREW",
        "streetNameDisplayText": "MASSEY CRES, RENFREW"
      }
    ]
  },
  {
    "postal": "K7V3K2",
    "result": [
      {
        "electoralDistricts": [
          {
            "election": null,
            "id": 88,
            "name": "Renfrew—Nipissing—Pembroke"
          }
        ],
        "pollDivisionIds": [
          10141233
        ],
        "postalCode": "K7V3K2",
        "streetName": "MUNROE",
        "streetDirectionId": "E",
        "streetTypeId": "AVE",
        "placeName": "RENFREW",
        "streetNameDisplayText": "MUNROE AVE E, RENFREW"
      }
    ]
  },
  {
    "postal": "K7V1Y5",
    "result": [
      {
        "electoralDistricts": [
          {
            "election": null,
            "id": 88,
            "name": "Renfrew—Nipissing—Pembroke"
          }
        ],
        "pollDivisionIds": [
          10141231
        ],
        "postalCode": "K7V1Y5",
        "streetName": "STEWART",
        "streetDirectionId": null,
        "streetTypeId": "ST",
        "placeName": "RENFREW",
        "streetNameDisplayText": "STEWART ST, RENFREW"
      }
    ]
  },
  {
    "postal": "K7V6P6",
    "result": []
  },
  {
    "postal": "K7V3N9",
    "result": []
  },
  {
    "postal": "K7V3W2",
    "result": [
      {
        "electoralDistricts": [
          {
            "election": null,
            "id": 88,
            "name": "Renfrew—Nipissing—Pembroke"
          }
        ],
        "pollDivisionIds": [
          10141231
        ],
        "postalCode": "K7V3W2",
        "streetName": "BRUCE",
        "streetDirectionId": null,
        "streetTypeId": "ST",
        "placeName": "RENFREW",
        "streetNameDisplayText": "BRUCE ST, RENFREW"
      }
    ]
  },
  {
    "postal": "K7V6H8",
    "result": []
  },
  {
    "postal": "K7V9T3",
    "result": []
  },
  {
    "postal": "K7V5L9",
    "result": []
  },
  {
    "postal": "K7V7X7",
    "result": []
  },
  {
    "postal": "K7V3J5",
    "result": [
      {
        "electoralDistricts": [
          {
            "election": null,
            "id": 88,
            "name": "Renfrew—Nipissing—Pembroke"
          }
        ],
        "pollDivisionIds": [
          10141232
        ],
        "postalCode": "K7V3J5",
        "streetName": "HAIG",
        "streetDirectionId": null,
        "streetTypeId": "AVE",
        "placeName": "RENFREW",
        "streetNameDisplayText": "HAIG AVE, RENFREW"
      }
    ]
  },
  {
    "postal": "K7V4J5",
    "result": [
      {
        "electoralDistricts": [
          {
            "election": null,
            "id": 88,
            "name": "Renfrew—Nipissing—Pembroke"
          }
        ],
        "pollDivisionIds": [
          10141232
        ],
        "postalCode": "K7V4J5",
        "streetName": "VIMY",
        "streetDirectionId": "S",
        "streetTypeId": "BLVD",
        "placeName": "RENFREW",
        "streetNameDisplayText": "VIMY BLVD S, RENFREW"
      }
    ]
  },
  {
    "postal": "K7V6J2",
    "result": []
  },
  {
    "postal": "K7V5V6",
    "result": []
  },
  {
    "postal": "K7V3N2",
    "result": [
      {
        "electoralDistricts": [
          {
            "election": null,
            "id": 88,
            "name": "Renfrew—Nipissing—Pembroke"
          }
        ],
        "pollDivisionIds": [
          10141232
        ],
        "postalCode": "K7V3N2",
        "streetName": "LISGAR",
        "streetDirectionId": null,
        "streetTypeId": "AVE",
        "placeName": "RENFREW",
        "streetNameDisplayText": "LISGAR AVE, RENFREW"
      }
    ]
  },
  {
    "postal": "K7V3B1",
    "result": [
      {
        "electoralDistricts": [
          {
            "election": null,
            "id": 88,
            "name": "Renfrew—Nipissing—Pembroke"
          }
        ],
        "pollDivisionIds": [
          10141233
        ],
        "postalCode": "K7V3B1",
        "streetName": "RAILWAY",
        "streetDirectionId": null,
        "streetTypeId": "AVE",
        "placeName": "RENFREW",
        "streetNameDisplayText": "RAILWAY AVE, RENFREW"
      },
      {
        "electoralDistricts": [
          {
            "election": null,
            "id": 88,
            "name": "Renfrew—Nipissing—Pembroke"
          }
        ],
        "pollDivisionIds": [
          10141190
        ],
        "postalCode": "K7V3B1",
        "streetName": "RAILWAY",
        "streetDirectionId": null,
        "streetTypeId": "ST",
        "placeName": "RENFREW",
        "streetNameDisplayText": "RAILWAY ST, RENFREW"
      }
    ]
  },
  {
    "postal": "K7V8B5",
    "result": []
  },
  {
    "postal": "K7V0K1",
    "result": []
  },
  {
    "postal": "K7V7M7",
    "result": []
  },
  {
    "postal": "K7V2M2",
    "result": [
      {
        "electoralDistricts": [
          {
            "election": null,
            "id": 88,
            "name": "Renfrew—Nipissing—Pembroke"
          }
        ],
        "pollDivisionIds": [
          10141233
        ],
        "postalCode": "K7V2M2",
        "streetName": "MCGARRY",
        "streetDirectionId": null,
        "streetTypeId": "AVE",
        "placeName": "RENFREW",
        "streetNameDisplayText": "MCGARRY AVE, RENFREW"
      }
    ]
  },
  {
    "postal": "K7V9N3",
    "result": []
  },
  {
    "postal": "K7V4Y8",
    "result": []
  },
  {
    "postal": "K7V3V7",
    "result": [
      {
        "electoralDistricts": [
          {
            "election": null,
            "id": 88,
            "name": "Renfrew—Nipissing—Pembroke"
          }
        ],
        "pollDivisionIds": [
          10141231
        ],
        "postalCode": "K7V3V7",
        "streetName": "CAMERON",
        "streetDirectionId": null,
        "streetTypeId": "AVE",
        "placeName": "RENFREW",
        "streetNameDisplayText": "CAMERON AVE, RENFREW"
      }
    ]
  },
  {
    "postal": "K7V8Z1",
    "result": []
  },
  {
    "postal": "K7V7B3",
    "result": []
  },
  {
    "postal": "K7V3A8",
    "result": []
  },
  {
    "postal": "K7V7V5",
    "result": []
  },
  {
    "postal": "K7V2T2",
    "result": [
      {
        "electoralDistricts": [
          {
            "election": null,
            "id": 88,
            "name": "Renfrew—Nipissing—Pembroke"
          }
        ],
        "pollDivisionIds": [
          10141232,
          10141233
        ],
        "postalCode": "K7V2T2",
        "streetName": "OPEONGO",
        "streetDirectionId": null,
        "streetTypeId": "RD",
        "placeName": "RENFREW",
        "streetNameDisplayText": "OPEONGO RD, RENFREW"
      }
    ]
  },
  {
    "postal": "K7V6L3",
    "result": []
  },
  {
    "postal": "K7V0L2",
    "result": []
  },
  {
    "postal": "K7V5Y8",
    "result": []
  },
  {
    "postal": "K7V0B8",
    "result": []
  },
  {
    "postal": "K7V6R5",
    "result": []
  },
  {
    "postal": "K7V8W6",
    "result": []
  },
  {
    "postal": "K7V8G6",
    "result": []
  },
  {
    "postal": "K7V6X3",
    "result": []
  },
  {
    "postal": "K7V7R7",
    "result": []
  },
  {
    "postal": "K7V4B6",
    "result": [
      {
        "electoralDistricts": [
          {
            "election": null,
            "id": 88,
            "name": "Renfrew—Nipissing—Pembroke"
          }
        ],
        "pollDivisionIds": [
          10141233
        ],
        "postalCode": "K7V4B6",
        "streetName": "AIRTH",
        "streetDirectionId": "W",
        "streetTypeId": "BLVD",
        "placeName": "RENFREW",
        "streetNameDisplayText": "AIRTH BLVD W, RENFREW"
      }
    ]
  },
  {
    "postal": "K7V3P9",
    "result": [
      {
        "electoralDistricts": [
          {
            "election": null,
            "id": 88,
            "name": "Renfrew—Nipissing—Pembroke"
          }
        ],
        "pollDivisionIds": [
          10141232
        ],
        "postalCode": "K7V3P9",
        "streetName": "O'GORMAN",
        "streetDirectionId": null,
        "streetTypeId": "AVE",
        "placeName": "RENFREW",
        "streetNameDisplayText": "O'GORMAN AVE, RENFREW"
      }
    ]
  },
  {
    "postal": "K7V2T3",
    "result": []
  },
  {
    "postal": "K7V1M4",
    "result": [
      {
        "electoralDistricts": [
          {
            "election": null,
            "id": 88,
            "name": "Renfrew—Nipissing—Pembroke"
          }
        ],
        "pollDivisionIds": [
          10141232
        ],
        "postalCode": "K7V1M4",
        "streetName": "PLAUNT",
        "streetDirectionId": "N",
        "streetTypeId": "ST",
        "placeName": "RENFREW",
        "streetNameDisplayText": "PLAUNT ST N, RENFREW"
      }
    ]
  },
  {
    "postal": "K7V0H1",
    "result": []
  },
  {
    "postal": "K7V9W3",
    "result": []
  },
  {
    "postal": "K7V6P1",
    "result": []
  },
  {
    "postal": "K7V7G2",
    "result": []
  },
  {
    "postal": "K7V4J9",
    "result": [
      {
        "electoralDistricts": [
          {
            "election": null,
            "id": 88,
            "name": "Renfrew—Nipissing—Pembroke"
          }
        ],
        "pollDivisionIds": [
          10141235
        ],
        "postalCode": "K7V4J9",
        "streetName": "MCDOUGALL",
        "streetDirectionId": null,
        "streetTypeId": "RD",
        "placeName": "RENFREW",
        "streetNameDisplayText": "MCDOUGALL RD, RENFREW"
      }
    ]
  },
  {
    "postal": "K7V9E4",
    "result": []
  },
  {
    "postal": "K7V8H0",
    "result": []
  },
  {
    "postal": "K7V4M7",
    "result": [
      {
        "electoralDistricts": [
          {
            "election": null,
            "id": 88,
            "name": "Renfrew—Nipissing—Pembroke"
          }
        ],
        "pollDivisionIds": [
          10141235
        ],
        "postalCode": "K7V4M7",
        "streetName": "HALL",
        "streetDirectionId": "E",
        "streetTypeId": "AVE",
        "placeName": "RENFREW",
        "streetNameDisplayText": "HALL AVE E, RENFREW"
      }
    ]
  },
  {
    "postal": "K7V2G9",
    "result": [
      {
        "electoralDistricts": [
          {
            "election": null,
            "id": 88,
            "name": "Renfrew—Nipissing—Pembroke"
          }
        ],
        "pollDivisionIds": [
          10141231
        ],
        "postalCode": "K7V2G9",
        "streetName": "ABERDEEN",
        "streetDirectionId": null,
        "streetTypeId": "ST",
        "placeName": "RENFREW",
        "streetNameDisplayText": "ABERDEEN ST, RENFREW"
      }
    ]
  },
  {
    "postal": "K7V8T2",
    "result": []
  },
  {
    "postal": "K7V7G7",
    "result": []
  },
  {
    "postal": "K7V4Z3",
    "result": []
  },
  {
    "postal": "K7V5B3",
    "result": []
  },
  {
    "postal": "K7V1S7",
    "result": [
      {
        "electoralDistricts": [
          {
            "election": null,
            "id": 88,
            "name": "Renfrew—Nipissing—Pembroke"
          }
        ],
        "pollDivisionIds": [
          10141232
        ],
        "postalCode": "K7V1S7",
        "streetName": "ARGYLE",
        "streetDirectionId": "N",
        "streetTypeId": "ST",
        "placeName": "RENFREW",
        "streetNameDisplayText": "ARGYLE ST N, RENFREW"
      }
    ]
  },
  {
    "postal": "K7V2N7",
    "result": [
      {
        "electoralDistricts": [
          {
            "election": null,
            "id": 88,
            "name": "Renfrew—Nipissing—Pembroke"
          }
        ],
        "pollDivisionIds": [
          10141233
        ],
        "postalCode": "K7V2N7",
        "streetName": "WADE",
        "streetDirectionId": null,
        "streetTypeId": "AVE",
        "placeName": "RENFREW",
        "streetNameDisplayText": "WADE AVE, RENFREW"
      }
    ]
  },
  {
    "postal": "K7V0H8",
    "result": []
  },
  {
    "postal": "K7V7Z4",
    "result": []
  },
  {
    "postal": "K7V7B1",
    "result": []
  },
  {
    "postal": "K7V7P8",
    "result": []
  },
  {
    "postal": "K7V7N0",
    "result": []
  },
  {
    "postal": "K7V3Y5",
    "result": [
      {
        "electoralDistricts": [
          {
            "election": null,
            "id": 88,
            "name": "Renfrew—Nipissing—Pembroke"
          }
        ],
        "pollDivisionIds": [
          10141231
        ],
        "postalCode": "K7V3Y5",
        "streetName": "BASSWOOD",
        "streetDirectionId": null,
        "streetTypeId": "AVE",
        "placeName": "RENFREW",
        "streetNameDisplayText": "BASSWOOD AVE, RENFREW"
      }
    ]
  },
  {
    "postal": "K7V6K1",
    "result": []
  },
  {
    "postal": "K7V9X5",
    "result": []
  },
  {
    "postal": "K7V7S5",
    "result": []
  },
  {
    "postal": "K7V0A4",
    "result": []
  },
  {
    "postal": "K7V4T5",
    "result": []
  },
  {
    "postal": "K7V5K1",
    "result": []
  },
  {
    "postal": "K7V0Z9",
    "result": []
  },
  {
    "postal": "K7V7T2",
    "result": []
  },
  {
    "postal": "K7V1L5",
    "result": [
      {
        "electoralDistricts": [
          {
            "election": null,
            "id": 88,
            "name": "Renfrew—Nipissing—Pembroke"
          }
        ],
        "pollDivisionIds": [
          10141231
        ],
        "postalCode": "K7V1L5",
        "streetName": "ARTHUR",
        "streetDirectionId": null,
        "streetTypeId": "AVE",
        "placeName": "RENFREW",
        "streetNameDisplayText": "ARTHUR AVE, RENFREW"
      }
    ]
  },
  {
    "postal": "K7V3N5",
    "result": [
      {
        "electoralDistricts": [
          {
            "election": null,
            "id": 88,
            "name": "Renfrew—Nipissing—Pembroke"
          }
        ],
        "pollDivisionIds": [
          10141232
        ],
        "postalCode": "K7V3N5",
        "streetName": "LISGAR",
        "streetDirectionId": null,
        "streetTypeId": "AVE",
        "placeName": "RENFREW",
        "streetNameDisplayText": "LISGAR AVE, RENFREW"
      }
    ]
  },
  {
    "postal": "K7V6H4",
    "result": []
  },
  {
    "postal": "K7V5A5",
    "result": []
  },
  {
    "postal": "K7V3R9",
    "result": [
      {
        "electoralDistricts": [
          {
            "election": null,
            "id": 88,
            "name": "Renfrew—Nipissing—Pembroke"
          }
        ],
        "pollDivisionIds": [
          10141231
        ],
        "postalCode": "K7V3R9",
        "streetName": "ARTHUR",
        "streetDirectionId": "W",
        "streetTypeId": "AVE",
        "placeName": "RENFREW",
        "streetNameDisplayText": "ARTHUR AVE W, RENFREW"
      },
      {
        "electoralDistricts": [
          {
            "election": null,
            "id": 88,
            "name": "Renfrew—Nipissing—Pembroke"
          }
        ],
        "pollDivisionIds": [
          10141231
        ],
        "postalCode": "K7V3R9",
        "streetName": "ARTHUR",
        "streetDirectionId": null,
        "streetTypeId": "AVE",
        "placeName": "RENFREW",
        "streetNameDisplayText": "ARTHUR AVE, RENFREW"
      }
    ]
  },
  {
    "postal": "K7V7L8",
    "result": []
  },
  {
    "postal": "K7V6T6",
    "result": []
  },
  {
    "postal": "K7V7Y7",
    "result": []
  },
  {
    "postal": "K7V3M8",
    "result": [
      {
        "electoralDistricts": [
          {
            "election": null,
            "id": 88,
            "name": "Renfrew—Nipissing—Pembroke"
          }
        ],
        "pollDivisionIds": [
          10141232
        ],
        "postalCode": "K7V3M8",
        "streetName": "LISGAR",
        "streetDirectionId": null,
        "streetTypeId": "AVE",
        "placeName": "RENFREW",
        "streetNameDisplayText": "LISGAR AVE, RENFREW"
      }
    ]
  },
  {
    "postal": "K7V2E0",
    "result": []
  },
  {
    "postal": "K7V4B5",
    "result": [
      {
        "electoralDistricts": [
          {
            "election": null,
            "id": 88,
            "name": "Renfrew—Nipissing—Pembroke"
          }
        ],
        "pollDivisionIds": [
          10141233
        ],
        "postalCode": "K7V4B5",
        "streetName": "AIRTH",
        "streetDirectionId": "W",
        "streetTypeId": "BLVD",
        "placeName": "RENFREW",
        "streetNameDisplayText": "AIRTH BLVD W, RENFREW"
      }
    ]
  },
  {
    "postal": "K7V1J3",
    "result": [
      {
        "electoralDistricts": [
          {
            "election": null,
            "id": 88,
            "name": "Renfrew—Nipissing—Pembroke"
          }
        ],
        "pollDivisionIds": [
          10141233
        ],
        "postalCode": "K7V1J3",
        "streetName": "PETER",
        "streetDirectionId": null,
        "streetTypeId": "ST",
        "placeName": "RENFREW",
        "streetNameDisplayText": "PETER ST, RENFREW"
      }
    ]
  },
  {
    "postal": "K7V5S6",
    "result": []
  },
  {
    "postal": "K7V8P7",
    "result": []
  },
  {
    "postal": "K7V7S7",
    "result": []
  },
  {
    "postal": "K7V4C2",
    "result": [
      {
        "electoralDistricts": [
          {
            "election": null,
            "id": 88,
            "name": "Renfrew—Nipissing—Pembroke"
          }
        ],
        "pollDivisionIds": [
          10141233
        ],
        "postalCode": "K7V4C2",
        "streetName": "MASSEY",
        "streetDirectionId": null,
        "streetTypeId": "CRES",
        "placeName": "RENFREW",
        "streetNameDisplayText": "MASSEY CRES, RENFREW"
      }
    ]
  },
  {
    "postal": "K7V5Y0",
    "result": []
  },
  {
    "postal": "K7V2V7",
    "result": [
      {
        "electoralDistricts": [
          {
            "election": null,
            "id": 88,
            "name": "Renfrew—Nipissing—Pembroke"
          }
        ],
        "pollDivisionIds": [
          10141232
        ],
        "postalCode": "K7V2V7",
        "streetName": "PRINCE",
        "streetDirectionId": "W",
        "streetTypeId": "AVE",
        "placeName": "RENFREW",
        "streetNameDisplayText": "PRINCE AVE W, RENFREW"
      }
    ]
  },
  {
    "postal": "K7V8P5",
    "result": []
  },
  {
    "postal": "K7V5P5",
    "result": []
  },
  {
    "postal": "K7V5Z0",
    "result": []
  },
  {
    "postal": "K7V9B0",
    "result": []
  },
  {
    "postal": "K7V1L0",
    "result": []
  },
  {
    "postal": "K7V0B5",
    "result": []
  },
  {
    "postal": "K7V3L2",
    "result": [
      {
        "electoralDistricts": [
          {
            "election": null,
            "id": 88,
            "name": "Renfrew—Nipissing—Pembroke"
          }
        ],
        "pollDivisionIds": [
          10141232
        ],
        "postalCode": "K7V3L2",
        "streetName": "MUNROE",
        "streetDirectionId": "W",
        "streetTypeId": "AVE",
        "placeName": "RENFREW",
        "streetNameDisplayText": "MUNROE AVE W, RENFREW"
      }
    ]
  },
  {
    "postal": "K7V3B7",
    "result": [
      {
        "electoralDistricts": [
          {
            "election": null,
            "id": 88,
            "name": "Renfrew—Nipissing—Pembroke"
          }
        ],
        "pollDivisionIds": [
          10141232
        ],
        "postalCode": "K7V3B7",
        "streetName": "THOMPSON",
        "streetDirectionId": null,
        "streetTypeId": "AVE",
        "placeName": "RENFREW",
        "streetNameDisplayText": "THOMPSON AVE, RENFREW"
      }
    ]
  },
  {
    "postal": "K7V8L1",
    "result": []
  },
  {
    "postal": "K7V5M4",
    "result": []
  },
  {
    "postal": "K7V4G9",
    "result": [
      {
        "electoralDistricts": [
          {
            "election": null,
            "id": 88,
            "name": "Renfrew—Nipissing—Pembroke"
          }
        ],
        "pollDivisionIds": [
          10141235
        ],
        "postalCode": "K7V4G9",
        "streetName": "ROBERT",
        "streetDirectionId": null,
        "streetTypeId": "DR",
        "placeName": "RENFREW",
        "streetNameDisplayText": "ROBERT DR, RENFREW"
      }
    ]
  },
  {
    "postal": "K7V0P0",
    "result": []
  },
  {
    "postal": "K7V8G2",
    "result": []
  },
  {
    "postal": "K7V1V9",
    "result": [
      {
        "electoralDistricts": [
          {
            "election": null,
            "id": 88,
            "name": "Renfrew—Nipissing—Pembroke"
          }
        ],
        "pollDivisionIds": [
          10141232
        ],
        "postalCode": "K7V1V9",
        "streetName": "LOCHIEL",
        "streetDirectionId": "N",
        "streetTypeId": "ST",
        "placeName": "RENFREW",
        "streetNameDisplayText": "LOCHIEL ST N, RENFREW"
      }
    ]
  },
  {
    "postal": "K7V8N8",
    "result": []
  },
  {
    "postal": "K7V6S8",
    "result": []
  },
  {
    "postal": "K7V8H2",
    "result": []
  },
  {
    "postal": "K7V5R8",
    "result": []
  },
  {
    "postal": "K7V5L4",
    "result": []
  },
  {
    "postal": "K7V9E1",
    "result": []
  },
  {
    "postal": "K7V1C4",
    "result": [
      {
        "electoralDistricts": [
          {
            "election": null,
            "id": 88,
            "name": "Renfrew—Nipissing—Pembroke"
          }
        ],
        "pollDivisionIds": [
          10141233
        ],
        "postalCode": "K7V1C4",
        "streetName": "FRANCIS",
        "streetDirectionId": null,
        "streetTypeId": "ST",
        "placeName": "RENFREW",
        "streetNameDisplayText": "FRANCIS ST, RENFREW"
      }
    ]
  },
  {
    "postal": "K7V8W5",
    "result": []
  },
  {
    "postal": "K7V1Y4",
    "result": [
      {
        "electoralDistricts": [
          {
            "election": null,
            "id": 88,
            "name": "Renfrew—Nipissing—Pembroke"
          }
        ],
        "pollDivisionIds": [
          10141231
        ],
        "postalCode": "K7V1Y4",
        "streetName": "STEWART",
        "streetDirectionId": null,
        "streetTypeId": "ST",
        "placeName": "RENFREW",
        "streetNameDisplayText": "STEWART ST, RENFREW"
      }
    ]
  },
  {
    "postal": "K7V1C0",
    "result": []
  },
  {
    "postal": "K7V2J2",
    "result": [
      {
        "electoralDistricts": [
          {
            "election": null,
            "id": 88,
            "name": "Renfrew—Nipissing—Pembroke"
          }
        ],
        "pollDivisionIds": [
          10141232
        ],
        "postalCode": "K7V2J2",
        "streetName": "ROSS",
        "streetDirectionId": null,
        "streetTypeId": "ST",
        "placeName": "RENFREW",
        "streetNameDisplayText": "ROSS ST, RENFREW"
      }
    ]
  },
  {
    "postal": "K7V2J0",
    "result": []
  },
  {
    "postal": "K7V7A3",
    "result": []
  },
  {
    "postal": "K7V8M1",
    "result": []
  },
  {
    "postal": "K7V7T9",
    "result": []
  },
  {
    "postal": "K7V6C0",
    "result": []
  },
  {
    "postal": "K7V7X1",
    "result": []
  },
  {
    "postal": "K7V0G1",
    "result": []
  },
  {
    "postal": "K7V4X2",
    "result": []
  },
  {
    "postal": "K7V0N6",
    "result": []
  },
  {
    "postal": "K7V8E3",
    "result": []
  },
  {
    "postal": "K7V5S8",
    "result": []
  },
  {
    "postal": "K7V0R0",
    "result": []
  },
  {
    "postal": "K7V6J6",
    "result": []
  },
  {
    "postal": "K7V4B4",
    "result": [
      {
        "electoralDistricts": [
          {
            "election": null,
            "id": 88,
            "name": "Renfrew—Nipissing—Pembroke"
          }
        ],
        "pollDivisionIds": [
          10141235
        ],
        "postalCode": "K7V4B4",
        "streetName": "VETERANS MEMORIAL",
        "streetDirectionId": null,
        "streetTypeId": "BLVD",
        "placeName": "RENFREW",
        "streetNameDisplayText": "VETERANS MEMORIAL BLVD, RENFREW"
      }
    ]
  },
  {
    "postal": "K7V7E3",
    "result": []
  },
  {
    "postal": "K7V3N6",
    "result": [
      {
        "electoralDistricts": [
          {
            "election": null,
            "id": 88,
            "name": "Renfrew—Nipissing—Pembroke"
          }
        ],
        "pollDivisionIds": [
          10141245,
          10141232
        ],
        "postalCode": "K7V3N6",
        "streetName": "LISGAR",
        "streetDirectionId": null,
        "streetTypeId": "AVE",
        "placeName": "RENFREW",
        "streetNameDisplayText": "LISGAR AVE, RENFREW"
      }
    ]
  },
  {
    "postal": "K7V3X6",
    "result": [
      {
        "electoralDistricts": [
          {
            "election": null,
            "id": 88,
            "name": "Renfrew—Nipissing—Pembroke"
          }
        ],
        "pollDivisionIds": [
          10141231
        ],
        "postalCode": "K7V3X6",
        "streetName": "GRIGG",
        "streetDirectionId": null,
        "streetTypeId": "AVE",
        "placeName": "RENFREW",
        "streetNameDisplayText": "GRIGG AVE, RENFREW"
      }
    ]
  },
  {
    "postal": "K7V8L0",
    "result": []
  },
  {
    "postal": "K7V8N1",
    "result": []
  },
  {
    "postal": "K7V4J0",
    "result": []
  },
  {
    "postal": "K7V0X7",
    "result": []
  },
  {
    "postal": "K7V6S4",
    "result": []
  },
  {
    "postal": "K7V0Z0",
    "result": []
  },
  {
    "postal": "K7V9X8",
    "result": []
  },
  {
    "postal": "K7V3H3",
    "result": [
      {
        "electoralDistricts": [
          {
            "election": null,
            "id": 88,
            "name": "Renfrew—Nipissing—Pembroke"
          }
        ],
        "pollDivisionIds": [
          10141232
        ],
        "postalCode": "K7V3H3",
        "streetName": "PATRICK",
        "streetDirectionId": null,
        "streetTypeId": "AVE",
        "placeName": "RENFREW",
        "streetNameDisplayText": "PATRICK AVE, RENFREW"
      }
    ]
  },
  {
    "postal": "K7V7S2",
    "result": []
  },
  {
    "postal": "K7V3T3",
    "result": [
      {
        "electoralDistricts": [
          {
            "election": null,
            "id": 88,
            "name": "Renfrew—Nipissing—Pembroke"
          }
        ],
        "pollDivisionIds": [
          10141231
        ],
        "postalCode": "K7V3T3",
        "streetName": "HINCKS",
        "streetDirectionId": "W",
        "streetTypeId": "AVE",
        "placeName": "RENFREW",
        "streetNameDisplayText": "HINCKS AVE W, RENFREW"
      }
    ]
  },
  {
    "postal": "K7V9P3",
    "result": []
  },
  {
    "postal": "K7V4H8",
    "result": [
      {
        "electoralDistricts": [
          {
            "election": null,
            "id": 88,
            "name": "Renfrew—Nipissing—Pembroke"
          }
        ],
        "pollDivisionIds": [
          10141235
        ],
        "postalCode": "K7V4H8",
        "streetName": "HILLSVIEW",
        "streetDirectionId": null,
        "streetTypeId": "ST",
        "placeName": "RENFREW",
        "streetNameDisplayText": "HILLSVIEW ST, RENFREW"
      }
    ]
  },
  {
    "postal": "K7V6R1",
    "result": []
  },
  {
    "postal": "K7V1S0",
    "result": []
  },
  {
    "postal": "K7V3W8",
    "result": [
      {
        "electoralDistricts": [
          {
            "election": null,
            "id": 88,
            "name": "Renfrew—Nipissing—Pembroke"
          }
        ],
        "pollDivisionIds": [
          10141231
        ],
        "postalCode": "K7V3W8",
        "streetName": "TASSE",
        "streetDirectionId": null,
        "streetTypeId": "AVE",
        "placeName": "RENFREW",
        "streetNameDisplayText": "TASSE AVE, RENFREW"
      }
    ]
  },
  {
    "postal": "K7V4S3",
    "result": []
  },
  {
    "postal": "K7V1B6",
    "result": [
      {
        "electoralDistricts": [
          {
            "election": null,
            "id": 88,
            "name": "Renfrew—Nipissing—Pembroke"
          }
        ],
        "pollDivisionIds": [
          10141235
        ],
        "postalCode": "K7V1B6",
        "streetName": "SEVENTH",
        "streetDirectionId": null,
        "streetTypeId": "ST",
        "placeName": "RENFREW",
        "streetNameDisplayText": "SEVENTH ST, RENFREW"
      }
    ]
  },
  {
    "postal": "K7V8R3",
    "result": []
  },
  {
    "postal": "K7V4V9",
    "result": []
  },
  {
    "postal": "K7V9W4",
    "result": []
  },
  {
    "postal": "K7V3T4",
    "result": [
      {
        "electoralDistricts": [
          {
            "election": null,
            "id": 88,
            "name": "Renfrew—Nipissing—Pembroke"
          }
        ],
        "pollDivisionIds": [
          10141231
        ],
        "postalCode": "K7V3T4",
        "streetName": "ELGIN",
        "streetDirectionId": "E",
        "streetTypeId": "AVE",
        "placeName": "RENFREW",
        "streetNameDisplayText": "ELGIN AVE E, RENFREW"
      }
    ]
  },
  {
    "postal": "K7V5C7",
    "result": []
  },
  {
    "postal": "K7V3Y1",
    "result": [
      {
        "electoralDistricts": [
          {
            "election": null,
            "id": 88,
            "name": "Renfrew—Nipissing—Pembroke"
          }
        ],
        "pollDivisionIds": [
          10141231
        ],
        "postalCode": "K7V3Y1",
        "streetName": "MASON",
        "streetDirectionId": null,
        "streetTypeId": "AVE",
        "placeName": "RENFREW",
        "streetNameDisplayText": "MASON AVE, RENFREW"
      }
    ]
  },
  {
    "postal": "K7V5V0",
    "result": []
  },
  {
    "postal": "K7V8G8",
    "result": []
  },
  {
    "postal": "K7V8B1",
    "result": []
  },
  {
    "postal": "K7V4P5",
    "result": []
  },
  {
    "postal": "K7V7B2",
    "result": []
  },
  {
    "postal": "K7V0R2",
    "result": []
  },
  {
    "postal": "K7V4M4",
    "result": [
      {
        "electoralDistricts": [
          {
            "election": null,
            "id": 88,
            "name": "Renfrew—Nipissing—Pembroke"
          }
        ],
        "pollDivisionIds": [
          10141233
        ],
        "postalCode": "K7V4M4",
        "streetName": "HARAMIS",
        "streetDirectionId": null,
        "streetTypeId": "DR",
        "placeName": "RENFREW",
        "streetNameDisplayText": "HARAMIS DR, RENFREW"
      }
    ]
  },
  {
    "postal": "K7V7M4",
    "result": []
  },
  {
    "postal": "K7V9S7",
    "result": []
  },
  {
    "postal": "K7V5Z7",
    "result": []
  },
  {
    "postal": "K7V7J7",
    "result": []
  },
  {
    "postal": "K7V8R8",
    "result": []
  },
  {
    "postal": "K7V9X1",
    "result": []
  },
  {
    "postal": "K7V5M9",
    "result": []
  },
  {
    "postal": "K7V9B4",
    "result": []
  },
  {
    "postal": "K7V0L9",
    "result": []
  },
  {
    "postal": "K7V9G4",
    "result": []
  },
  {
    "postal": "K7V1J4",
    "result": [
      {
        "electoralDistricts": [
          {
            "election": null,
            "id": 88,
            "name": "Renfrew—Nipissing—Pembroke"
          }
        ],
        "pollDivisionIds": [
          10141232
        ],
        "postalCode": "K7V1J4",
        "streetName": "STEVENSON",
        "streetDirectionId": null,
        "streetTypeId": "CRES",
        "placeName": "RENFREW",
        "streetNameDisplayText": "STEVENSON CRES, RENFREW"
      }
    ]
  },
  {
    "postal": "K7V0W6",
    "result": []
  }
]
