[
  {
    "postal": "K1S9J6",
    "result": []
  },
  {
    "postal": "K1S9Z5",
    "result": []
  },
  {
    "postal": "K1S7H8",
    "result": []
  },
  {
    "postal": "K1S0P6",
    "result": [
      {
        "electoralDistricts": [
          {
            "election": null,
            "id": 78,
            "name": "Ottawa Centre"
          }
        ],
        "pollDivisionIds": [
          10140573
        ],
        "postalCode": "K1S0P6",
        "streetName": "SOUTHERN",
        "streetDirectionId": null,
        "streetTypeId": "DR",
        "placeName": "OTTAWA",
        "streetNameDisplayText": "SOUTHERN DR, OTTAWA"
      }
    ]
  },
  {
    "postal": "K1S0S7",
    "result": [
      {
        "electoralDistricts": [
          {
            "election": null,
            "id": 78,
            "name": "Ottawa Centre"
          }
        ],
        "pollDivisionIds": [
          10140565
        ],
        "postalCode": "K1S0S7",
        "streetName": "SUNNYSIDE",
        "streetDirectionId": null,
        "streetTypeId": "AVE",
        "placeName": "OTTAWA",
        "streetNameDisplayText": "SUNNYSIDE AVE, OTTAWA"
      }
    ]
  },
  {
    "postal": "K1S8B9",
    "result": []
  },
  {
    "postal": "K1S2A6",
    "result": [
      {
        "electoralDistricts": [
          {
            "election": null,
            "id": 78,
            "name": "Ottawa Centre"
          }
        ],
        "pollDivisionIds": [
          10140556
        ],
        "postalCode": "K1S2A6",
        "streetName": "POWELL",
        "streetDirectionId": null,
        "streetTypeId": "AVE",
        "placeName": "OTTAWA",
        "streetNameDisplayText": "POWELL AVE, OTTAWA"
      }
    ]
  },
  {
    "postal": "K1S7V2",
    "result": []
  },
  {
    "postal": "K1S9P4",
    "result": []
  },
  {
    "postal": "K1S6G0",
    "result": []
  },
  {
    "postal": "K1S2K0",
    "result": []
  },
  {
    "postal": "K1S7N6",
    "result": []
  },
  {
    "postal": "K1S5R3",
    "result": []
  },
  {
    "postal": "K1S7K0",
    "result": []
  },
  {
    "postal": "K1S3R2",
    "result": [
      {
        "electoralDistricts": [
          {
            "election": null,
            "id": 78,
            "name": "Ottawa Centre"
          }
        ],
        "pollDivisionIds": [
          10140570
        ],
        "postalCode": "K1S3R2",
        "streetName": "O'CONNOR",
        "streetDirectionId": null,
        "streetTypeId": "ST",
        "placeName": "OTTAWA",
        "streetNameDisplayText": "O'CONNOR ST, OTTAWA"
      }
    ]
  },
  {
    "postal": "K1S0J1",
    "result": [
      {
        "electoralDistricts": [
          {
            "election": null,
            "id": 78,
            "name": "Ottawa Centre"
          }
        ],
        "pollDivisionIds": [
          10140574
        ],
        "postalCode": "K1S0J1",
        "streetName": "MCNAUGHTON",
        "streetDirectionId": null,
        "streetTypeId": "AVE",
        "placeName": "OTTAWA",
        "streetNameDisplayText": "MCNAUGHTON AVE, OTTAWA"
      }
    ]
  },
  {
    "postal": "K1S0B0",
    "result": []
  },
  {
    "postal": "K1S5Z2",
    "result": []
  },
  {
    "postal": "K1S7P3",
    "result": []
  },
  {
    "postal": "K1S2K3",
    "result": [
      {
        "electoralDistricts": [
          {
            "election": null,
            "id": 78,
            "name": "Ottawa Centre"
          }
        ],
        "pollDivisionIds": [
          10140566
        ],
        "postalCode": "K1S2K3",
        "streetName": "THIRD",
        "streetDirectionId": null,
        "streetTypeId": "AVE",
        "placeName": "OTTAWA",
        "streetNameDisplayText": "THIRD AVE, OTTAWA"
      }
    ]
  },
  {
    "postal": "K1S7Y6",
    "result": []
  },
  {
    "postal": "K1S1L9",
    "result": [
      {
        "electoralDistricts": [
          {
            "election": null,
            "id": 78,
            "name": "Ottawa Centre"
          }
        ],
        "pollDivisionIds": [
          10140574
        ],
        "postalCode": "K1S1L9",
        "streetName": "BROWN",
        "streetDirectionId": null,
        "streetTypeId": "ST",
        "placeName": "OTTAWA",
        "streetNameDisplayText": "BROWN ST, OTTAWA"
      }
    ]
  },
  {
    "postal": "K1S8T0",
    "result": []
  },
  {
    "postal": "K1S3K8",
    "result": [
      {
        "electoralDistricts": [
          {
            "election": null,
            "id": 78,
            "name": "Ottawa Centre"
          }
        ],
        "pollDivisionIds": [
          10140556
        ],
        "postalCode": "K1S3K8",
        "streetName": "PAMILLA",
        "streetDirectionId": null,
        "streetTypeId": "ST",
        "placeName": "OTTAWA",
        "streetNameDisplayText": "PAMILLA ST, OTTAWA"
      }
    ]
  },
  {
    "postal": "K1S5W9",
    "result": []
  },
  {
    "postal": "K1S6T9",
    "result": []
  },
  {
    "postal": "K1S4H1",
    "result": [
      {
        "electoralDistricts": [
          {
            "election": null,
            "id": 78,
            "name": "Ottawa Centre"
          }
        ],
        "pollDivisionIds": [
          10140560
        ],
        "postalCode": "K1S4H1",
        "streetName": "BRONSON",
        "streetDirectionId": null,
        "streetTypeId": "AVE",
        "placeName": "OTTAWA",
        "streetNameDisplayText": "BRONSON AVE, OTTAWA"
      }
    ]
  },
  {
    "postal": "K1S7A2",
    "result": []
  },
  {
    "postal": "K1S5G0",
    "result": []
  },
  {
    "postal": "K1S8V5",
    "result": []
  },
  {
    "postal": "K1S2Y8",
    "result": [
      {
        "electoralDistricts": [
          {
            "election": null,
            "id": 78,
            "name": "Ottawa Centre"
          }
        ],
        "pollDivisionIds": [
          10140571
        ],
        "postalCode": "K1S2Y8",
        "streetName": "HOPEWELL",
        "streetDirectionId": null,
        "streetTypeId": "AVE",
        "placeName": "OTTAWA",
        "streetNameDisplayText": "HOPEWELL AVE, OTTAWA"
      }
    ]
  },
  {
    "postal": "K1S2B6",
    "result": [
      {
        "electoralDistricts": [
          {
            "election": null,
            "id": 78,
            "name": "Ottawa Centre"
          }
        ],
        "pollDivisionIds": [
          10140560
        ],
        "postalCode": "K1S2B6",
        "streetName": "CLEMOW",
        "streetDirectionId": null,
        "streetTypeId": "AVE",
        "placeName": "OTTAWA",
        "streetNameDisplayText": "CLEMOW AVE, OTTAWA"
      }
    ]
  },
  {
    "postal": "K1S4W8",
    "result": [
      {
        "electoralDistricts": [
          {
            "election": null,
            "id": 78,
            "name": "Ottawa Centre"
          }
        ],
        "pollDivisionIds": [
          10140565
        ],
        "postalCode": "K1S4W8",
        "streetName": "SENECA",
        "streetDirectionId": null,
        "streetTypeId": "ST",
        "placeName": "OTTAWA",
        "streetNameDisplayText": "SENECA ST, OTTAWA"
      }
    ]
  },
  {
    "postal": "K1S8H7",
    "result": []
  },
  {
    "postal": "K1S5P1",
    "result": []
  },
  {
    "postal": "K1S2B8",
    "result": [
      {
        "electoralDistricts": [
          {
            "election": null,
            "id": 78,
            "name": "Ottawa Centre"
          }
        ],
        "pollDivisionIds": [
          10140560
        ],
        "postalCode": "K1S2B8",
        "streetName": "CLEMOW",
        "streetDirectionId": null,
        "streetTypeId": "AVE",
        "placeName": "OTTAWA",
        "streetNameDisplayText": "CLEMOW AVE, OTTAWA"
      }
    ]
  },
  {
    "postal": "K1S0P2",
    "result": [
      {
        "electoralDistricts": [
          {
            "election": null,
            "id": 78,
            "name": "Ottawa Centre"
          }
        ],
        "pollDivisionIds": [
          10140573
        ],
        "postalCode": "K1S0P2",
        "streetName": "AVENUE",
        "streetDirectionId": null,
        "streetTypeId": "RD",
        "placeName": "OTTAWA",
        "streetNameDisplayText": "AVENUE RD, OTTAWA"
      }
    ]
  },
  {
    "postal": "K1S9M1",
    "result": []
  },
  {
    "postal": "K1S3G0",
    "result": []
  },
  {
    "postal": "K1S9Z2",
    "result": []
  },
  {
    "postal": "K1S2A0",
    "result": []
  },
  {
    "postal": "K1S6Y0",
    "result": []
  },
  {
    "postal": "K1S2Z8",
    "result": [
      {
        "electoralDistricts": [
          {
            "election": null,
            "id": 78,
            "name": "Ottawa Centre"
          }
        ],
        "pollDivisionIds": [
          10140571
        ],
        "postalCode": "K1S2Z8",
        "streetName": "GLEN",
        "streetDirectionId": null,
        "streetTypeId": "AVE",
        "placeName": "OTTAWA",
        "streetNameDisplayText": "GLEN AVE, OTTAWA"
      }
    ]
  },
  {
    "postal": "K1S7Y3",
    "result": []
  },
  {
    "postal": "K1S6Z5",
    "result": []
  },
  {
    "postal": "K1S6E0",
    "result": []
  },
  {
    "postal": "K1S9B7",
    "result": []
  },
  {
    "postal": "K1S9S5",
    "result": []
  },
  {
    "postal": "K1S3X3",
    "result": [
      {
        "electoralDistricts": [
          {
            "election": null,
            "id": 78,
            "name": "Ottawa Centre"
          }
        ],
        "pollDivisionIds": [
          10140571
        ],
        "postalCode": "K1S3X3",
        "streetName": "BANK",
        "streetDirectionId": null,
        "streetTypeId": "ST",
        "placeName": "OTTAWA",
        "streetNameDisplayText": "BANK ST, OTTAWA"
      }
    ]
  },
  {
    "postal": "K1S7R5",
    "result": []
  },
  {
    "postal": "K1S2X3",
    "result": [
      {
        "electoralDistricts": [
          {
            "election": null,
            "id": 78,
            "name": "Ottawa Centre"
          }
        ],
        "pollDivisionIds": [
          10140571
        ],
        "postalCode": "K1S2X3",
        "streetName": "AYLMER",
        "streetDirectionId": null,
        "streetTypeId": "AVE",
        "placeName": "OTTAWA",
        "streetNameDisplayText": "AYLMER AVE, OTTAWA"
      }
    ]
  },
  {
    "postal": "K1S8Z9",
    "result": []
  },
  {
    "postal": "K1S0N4",
    "result": [
      {
        "electoralDistricts": [
          {
            "election": null,
            "id": 78,
            "name": "Ottawa Centre"
          }
        ],
        "pollDivisionIds": [
          10140574
        ],
        "postalCode": "K1S0N4",
        "streetName": "TORONTO",
        "streetDirectionId": null,
        "streetTypeId": "ST",
        "placeName": "OTTAWA",
        "streetNameDisplayText": "TORONTO ST, OTTAWA"
      }
    ]
  },
  {
    "postal": "K1S1K1",
    "result": [
      {
        "electoralDistricts": [
          {
            "election": null,
            "id": 78,
            "name": "Ottawa Centre"
          }
        ],
        "pollDivisionIds": [
          10140574
        ],
        "postalCode": "K1S1K1",
        "streetName": "DRUMMOND",
        "streetDirectionId": null,
        "streetTypeId": "ST",
        "placeName": "OTTAWA",
        "streetNameDisplayText": "DRUMMOND ST, OTTAWA"
      }
    ]
  },
  {
    "postal": "K1S1S3",
    "result": [
      {
        "electoralDistricts": [
          {
            "election": null,
            "id": 78,
            "name": "Ottawa Centre"
          }
        ],
        "pollDivisionIds": [
          10140573
        ],
        "postalCode": "K1S1S3",
        "streetName": "RIVERDALE",
        "streetDirectionId": null,
        "streetTypeId": "AVE",
        "placeName": "OTTAWA",
        "streetNameDisplayText": "RIVERDALE AVE, OTTAWA"
      }
    ]
  },
  {
    "postal": "K1S6M4",
    "result": []
  },
  {
    "postal": "K1S9A9",
    "result": []
  },
  {
    "postal": "K1S9Z9",
    "result": []
  },
  {
    "postal": "K1S6T4",
    "result": []
  },
  {
    "postal": "K1S0B2",
    "result": [
      {
        "electoralDistricts": [
          {
            "election": null,
            "id": 78,
            "name": "Ottawa Centre"
          }
        ],
        "pollDivisionIds": [
          10143893
        ],
        "postalCode": "K1S0B2",
        "streetName": "HAWTHORNE",
        "streetDirectionId": null,
        "streetTypeId": "AVE",
        "placeName": "OTTAWA",
        "streetNameDisplayText": "HAWTHORNE AVE, OTTAWA"
      }
    ]
  },
  {
    "postal": "K1S2L9",
    "result": [
      {
        "electoralDistricts": [
          {
            "election": null,
            "id": 78,
            "name": "Ottawa Centre"
          }
        ],
        "pollDivisionIds": [
          10140566
        ],
        "postalCode": "K1S2L9",
        "streetName": "FOURTH",
        "streetDirectionId": null,
        "streetTypeId": "AVE",
        "placeName": "OTTAWA",
        "streetNameDisplayText": "FOURTH AVE, OTTAWA"
      }
    ]
  },
  {
    "postal": "K1S8K9",
    "result": []
  },
  {
    "postal": "K1S2H9",
    "result": [
      {
        "electoralDistricts": [
          {
            "election": null,
            "id": 78,
            "name": "Ottawa Centre"
          }
        ],
        "pollDivisionIds": [
          10140560
        ],
        "postalCode": "K1S2H9",
        "streetName": "SECOND",
        "streetDirectionId": null,
        "streetTypeId": "AVE",
        "placeName": "OTTAWA",
        "streetNameDisplayText": "SECOND AVE, OTTAWA"
      }
    ]
  },
  {
    "postal": "K1S3Z6",
    "result": []
  },
  {
    "postal": "K1S3B0",
    "result": []
  },
  {
    "postal": "K1S2H8",
    "result": [
      {
        "electoralDistricts": [
          {
            "election": null,
            "id": 78,
            "name": "Ottawa Centre"
          }
        ],
        "pollDivisionIds": [
          10140560
        ],
        "postalCode": "K1S2H8",
        "streetName": "SECOND",
        "streetDirectionId": null,
        "streetTypeId": "AVE",
        "placeName": "OTTAWA",
        "streetNameDisplayText": "SECOND AVE, OTTAWA"
      }
    ]
  },
  {
    "postal": "K1S3X2",
    "result": [
      {
        "electoralDistricts": [
          {
            "election": null,
            "id": 78,
            "name": "Ottawa Centre"
          }
        ],
        "pollDivisionIds": [
          10140571
        ],
        "postalCode": "K1S3X2",
        "streetName": "BANK",
        "streetDirectionId": null,
        "streetTypeId": "ST",
        "placeName": "OTTAWA",
        "streetNameDisplayText": "BANK ST, OTTAWA"
      }
    ]
  },
  {
    "postal": "K1S2E9",
    "result": []
  },
  {
    "postal": "K1S9P6",
    "result": []
  },
  {
    "postal": "K1S9E2",
    "result": []
  },
  {
    "postal": "K1S9H2",
    "result": []
  },
  {
    "postal": "K1S1S8",
    "result": [
      {
        "electoralDistricts": [
          {
            "election": null,
            "id": 78,
            "name": "Ottawa Centre"
          }
        ],
        "pollDivisionIds": [
          10140573
        ],
        "postalCode": "K1S1S8",
        "streetName": "BELLWOOD",
        "streetDirectionId": null,
        "streetTypeId": "AVE",
        "placeName": "OTTAWA",
        "streetNameDisplayText": "BELLWOOD AVE, OTTAWA"
      }
    ]
  },
  {
    "postal": "K1S3M6",
    "result": [
      {
        "electoralDistricts": [
          {
            "election": null,
            "id": 78,
            "name": "Ottawa Centre"
          }
        ],
        "pollDivisionIds": [
          10140570
        ],
        "postalCode": "K1S3M6",
        "streetName": "QUEEN ELIZABETH",
        "streetDirectionId": null,
        "streetTypeId": "DR",
        "placeName": "OTTAWA",
        "streetNameDisplayText": "QUEEN ELIZABETH DR, OTTAWA"
      }
    ]
  },
  {
    "postal": "K1S6Z8",
    "result": []
  },
  {
    "postal": "K1S4J2",
    "result": []
  },
  {
    "postal": "K1S9Y1",
    "result": []
  },
  {
    "postal": "K1S8V6",
    "result": []
  },
  {
    "postal": "K1S6B2",
    "result": []
  },
  {
    "postal": "K1S1P8",
    "result": [
      {
        "electoralDistricts": [
          {
            "election": null,
            "id": 78,
            "name": "Ottawa Centre"
          }
        ],
        "pollDivisionIds": [
          10140573
        ],
        "postalCode": "K1S1P8",
        "streetName": "BRISTOL",
        "streetDirectionId": null,
        "streetTypeId": "AVE",
        "placeName": "OTTAWA",
        "streetNameDisplayText": "BRISTOL AVE, OTTAWA"
      }
    ]
  },
  {
    "postal": "K1S0V8",
    "result": [
      {
        "electoralDistricts": [
          {
            "election": null,
            "id": 78,
            "name": "Ottawa Centre"
          }
        ],
        "pollDivisionIds": [
          10140573
        ],
        "postalCode": "K1S0V8",
        "streetName": "BELMONT",
        "streetDirectionId": null,
        "streetTypeId": "AVE",
        "placeName": "OTTAWA",
        "streetNameDisplayText": "BELMONT AVE, OTTAWA"
      }
    ]
  },
  {
    "postal": "K1S4Y0",
    "result": []
  },
  {
    "postal": "K1S2T4",
    "result": [
      {
        "electoralDistricts": [
          {
            "election": null,
            "id": 78,
            "name": "Ottawa Centre"
          }
        ],
        "pollDivisionIds": [
          10140566
        ],
        "postalCode": "K1S2T4",
        "streetName": "WILTON",
        "streetDirectionId": null,
        "streetTypeId": "CRES",
        "placeName": "OTTAWA",
        "streetNameDisplayText": "WILTON CRES, OTTAWA"
      }
    ]
  },
  {
    "postal": "K1S2S3",
    "result": [
      {
        "electoralDistricts": [
          {
            "election": null,
            "id": 78,
            "name": "Ottawa Centre"
          }
        ],
        "pollDivisionIds": [
          10140566
        ],
        "postalCode": "K1S2S3",
        "streetName": "ELLA",
        "streetDirectionId": null,
        "streetTypeId": "ST",
        "placeName": "OTTAWA",
        "streetNameDisplayText": "ELLA ST, OTTAWA"
      }
    ]
  },
  {
    "postal": "K1S0K0",
    "result": []
  },
  {
    "postal": "K1S5N1",
    "result": []
  },
  {
    "postal": "K1S7T0",
    "result": []
  },
  {
    "postal": "K1S9N2",
    "result": []
  },
  {
    "postal": "K1S5L1",
    "result": []
  },
  {
    "postal": "K1S7G5",
    "result": []
  },
  {
    "postal": "K1S6K2",
    "result": []
  },
  {
    "postal": "K1S6P9",
    "result": []
  },
  {
    "postal": "K1S0E6",
    "result": [
      {
        "electoralDistricts": [
          {
            "election": null,
            "id": 78,
            "name": "Ottawa Centre"
          }
        ],
        "pollDivisionIds": [
          10143720
        ],
        "postalCode": "K1S0E6",
        "streetName": "OBLATS",
        "streetDirectionId": null,
        "streetTypeId": "AVE",
        "placeName": "OTTAWA",
        "streetNameDisplayText": "OBLATS AVE, OTTAWA"
      }
    ]
  },
  {
    "postal": "K1S8R9",
    "result": []
  },
  {
    "postal": "K1S3G9",
    "result": [
      {
        "electoralDistricts": [
          {
            "election": null,
            "id": 78,
            "name": "Ottawa Centre"
          }
        ],
        "pollDivisionIds": [
          10140560
        ],
        "postalCode": "K1S3G9",
        "streetName": "OLD SUNSET",
        "streetDirectionId": null,
        "streetTypeId": "BLVD",
        "placeName": "OTTAWA",
        "streetNameDisplayText": "OLD SUNSET BLVD, OTTAWA"
      }
    ]
  },
  {
    "postal": "K1S0V7",
    "result": [
      {
        "electoralDistricts": [
          {
            "election": null,
            "id": 78,
            "name": "Ottawa Centre"
          }
        ],
        "pollDivisionIds": [
          10140573
        ],
        "postalCode": "K1S0V7",
        "streetName": "BELMONT",
        "streetDirectionId": null,
        "streetTypeId": "AVE",
        "placeName": "OTTAWA",
        "streetNameDisplayText": "BELMONT AVE, OTTAWA"
      }
    ]
  },
  {
    "postal": "K1S2Z1",
    "result": [
      {
        "electoralDistricts": [
          {
            "election": null,
            "id": 78,
            "name": "Ottawa Centre"
          }
        ],
        "pollDivisionIds": [
          10140571
        ],
        "postalCode": "K1S2Z1",
        "streetName": "HOPEWELL",
        "streetDirectionId": null,
        "streetTypeId": "AVE",
        "placeName": "OTTAWA",
        "streetNameDisplayText": "HOPEWELL AVE, OTTAWA"
      }
    ]
  },
  {
    "postal": "K1S7N1",
    "result": []
  },
  {
    "postal": "K1S3C6",
    "result": [
      {
        "electoralDistricts": [
          {
            "election": null,
            "id": 78,
            "name": "Ottawa Centre"
          }
        ],
        "pollDivisionIds": [
          10140571
        ],
        "postalCode": "K1S3C6",
        "streetName": "WARRINGTON",
        "streetDirectionId": null,
        "streetTypeId": "DR",
        "placeName": "OTTAWA",
        "streetNameDisplayText": "WARRINGTON DR, OTTAWA"
      }
    ]
  },
  {
    "postal": "K1S4M1",
    "result": [
      {
        "electoralDistricts": [
          {
            "election": null,
            "id": 78,
            "name": "Ottawa Centre"
          }
        ],
        "pollDivisionIds": [
          10140556
        ],
        "postalCode": "K1S4M1",
        "streetName": "ROCHESTER",
        "streetDirectionId": null,
        "streetTypeId": "ST",
        "placeName": "OTTAWA",
        "streetNameDisplayText": "ROCHESTER ST, OTTAWA"
      }
    ]
  },
  {
    "postal": "K1S9K2",
    "result": []
  },
  {
    "postal": "K1S9S6",
    "result": []
  },
  {
    "postal": "K1S4X1",
    "result": [
      {
        "electoralDistricts": [
          {
            "election": null,
            "id": 78,
            "name": "Ottawa Centre"
          }
        ],
        "pollDivisionIds": [
          10140565
        ],
        "postalCode": "K1S4X1",
        "streetName": "SENECA",
        "streetDirectionId": null,
        "streetTypeId": "ST",
        "placeName": "OTTAWA",
        "streetNameDisplayText": "SENECA ST, OTTAWA"
      }
    ]
  },
  {
    "postal": "K1S8W2",
    "result": []
  },
  {
    "postal": "K1S7N2",
    "result": []
  },
  {
    "postal": "K1S8S3",
    "result": []
  },
  {
    "postal": "K1S4V0",
    "result": []
  },
  {
    "postal": "K1S6W4",
    "result": []
  },
  {
    "postal": "K1S5M1",
    "result": [
      {
        "electoralDistricts": [
          {
            "election": null,
            "id": 78,
            "name": "Ottawa Centre"
          }
        ],
        "pollDivisionIds": [
          10143893
        ],
        "postalCode": "K1S5M1",
        "streetName": "LEES",
        "streetDirectionId": null,
        "streetTypeId": "AVE",
        "placeName": "OTTAWA",
        "streetNameDisplayText": "LEES AVE, OTTAWA"
      }
    ]
  },
  {
    "postal": "K1S0S4",
    "result": [
      {
        "electoralDistricts": [
          {
            "election": null,
            "id": 78,
            "name": "Ottawa Centre"
          }
        ],
        "pollDivisionIds": [
          10140571
        ],
        "postalCode": "K1S0S4",
        "streetName": "SUNNYSIDE",
        "streetDirectionId": null,
        "streetTypeId": "AVE",
        "placeName": "OTTAWA",
        "streetNameDisplayText": "SUNNYSIDE AVE, OTTAWA"
      }
    ]
  },
  {
    "postal": "K1S5X6",
    "result": []
  },
  {
    "postal": "K1S8L5",
    "result": []
  },
  {
    "postal": "K1S5M8",
    "result": [
      {
        "electoralDistricts": [
          {
            "election": null,
            "id": 78,
            "name": "Ottawa Centre"
          }
        ],
        "pollDivisionIds": [
          10140565
        ],
        "postalCode": "K1S5M8",
        "streetName": "WOODBINE",
        "streetDirectionId": null,
        "streetTypeId": "PL",
        "placeName": "OTTAWA",
        "streetNameDisplayText": "WOODBINE PL, OTTAWA"
      }
    ]
  },
  {
    "postal": "K1S2G3",
    "result": [
      {
        "electoralDistricts": [
          {
            "election": null,
            "id": 78,
            "name": "Ottawa Centre"
          }
        ],
        "pollDivisionIds": [
          10140569
        ],
        "postalCode": "K1S2G3",
        "streetName": "FIRST",
        "streetDirectionId": null,
        "streetTypeId": "AVE",
        "placeName": "OTTAWA",
        "streetNameDisplayText": "FIRST AVE, OTTAWA"
      }
    ]
  },
  {
    "postal": "K1S8E4",
    "result": []
  },
  {
    "postal": "K1S7S9",
    "result": []
  },
  {
    "postal": "K1S1K3",
    "result": [
      {
        "electoralDistricts": [
          {
            "election": null,
            "id": 78,
            "name": "Ottawa Centre"
          }
        ],
        "pollDivisionIds": [
          10140574
        ],
        "postalCode": "K1S1K3",
        "streetName": "DRUMMOND",
        "streetDirectionId": null,
        "streetTypeId": "ST",
        "placeName": "OTTAWA",
        "streetNameDisplayText": "DRUMMOND ST, OTTAWA"
      }
    ]
  },
  {
    "postal": "K1S4E1",
    "result": [
      {
        "electoralDistricts": [
          {
            "election": null,
            "id": 78,
            "name": "Ottawa Centre"
          }
        ],
        "pollDivisionIds": [
          10140566
        ],
        "postalCode": "K1S4E1",
        "streetName": "MURIEL",
        "streetDirectionId": null,
        "streetTypeId": "ST",
        "placeName": "OTTAWA",
        "streetNameDisplayText": "MURIEL ST, OTTAWA"
      }
    ]
  },
  {
    "postal": "K1S4R2",
    "result": [
      {
        "electoralDistricts": [
          {
            "election": null,
            "id": 78,
            "name": "Ottawa Centre"
          }
        ],
        "pollDivisionIds": [
          10140571
        ],
        "postalCode": "K1S4R2",
        "streetName": "GALT",
        "streetDirectionId": null,
        "streetTypeId": "ST",
        "placeName": "OTTAWA",
        "streetNameDisplayText": "GALT ST, OTTAWA"
      }
    ]
  },
  {
    "postal": "K1S6T0",
    "result": []
  },
  {
    "postal": "K1S3K5",
    "result": [
      {
        "electoralDistricts": [
          {
            "election": null,
            "id": 78,
            "name": "Ottawa Centre"
          }
        ],
        "pollDivisionIds": [
          10140556
        ],
        "postalCode": "K1S3K5",
        "streetName": "NORMAN",
        "streetDirectionId": null,
        "streetTypeId": "ST",
        "placeName": "OTTAWA",
        "streetNameDisplayText": "NORMAN ST, OTTAWA"
      }
    ]
  },
  {
    "postal": "K1S3S3",
    "result": [
      {
        "electoralDistricts": [
          {
            "election": null,
            "id": 78,
            "name": "Ottawa Centre"
          }
        ],
        "pollDivisionIds": [
          10140569
        ],
        "postalCode": "K1S3S3",
        "streetName": "RUPERT",
        "streetDirectionId": null,
        "streetTypeId": "ST",
        "placeName": "OTTAWA",
        "streetNameDisplayText": "RUPERT ST, OTTAWA"
      }
    ]
  },
  {
    "postal": "K1S3L4",
    "result": [
      {
        "electoralDistricts": [
          {
            "election": null,
            "id": 78,
            "name": "Ottawa Centre"
          }
        ],
        "pollDivisionIds": [
          10140556
        ],
        "postalCode": "K1S3L4",
        "streetName": "ADELINE",
        "streetDirectionId": null,
        "streetTypeId": "ST",
        "placeName": "OTTAWA",
        "streetNameDisplayText": "ADELINE ST, OTTAWA"
      }
    ]
  },
  {
    "postal": "K1S9Y2",
    "result": []
  },
  {
    "postal": "K1S1E0",
    "result": []
  },
  {
    "postal": "K1S9A4",
    "result": []
  },
  {
    "postal": "K1S1L3",
    "result": [
      {
        "electoralDistricts": [
          {
            "election": null,
            "id": 78,
            "name": "Ottawa Centre"
          }
        ],
        "pollDivisionIds": [
          10140574
        ],
        "postalCode": "K1S1L3",
        "streetName": "MUTCHMOR",
        "streetDirectionId": null,
        "streetTypeId": "RD",
        "placeName": "OTTAWA",
        "streetNameDisplayText": "MUTCHMOR RD, OTTAWA"
      }
    ]
  },
  {
    "postal": "K1S6N1",
    "result": []
  },
  {
    "postal": "K1S6G7",
    "result": []
  },
  {
    "postal": "K1S7W1",
    "result": []
  },
  {
    "postal": "K1S4M6",
    "result": [
      {
        "electoralDistricts": [
          {
            "election": null,
            "id": 78,
            "name": "Ottawa Centre"
          }
        ],
        "pollDivisionIds": [
          10140556
        ],
        "postalCode": "K1S4M6",
        "streetName": "PRESTON",
        "streetDirectionId": null,
        "streetTypeId": "ST",
        "placeName": "OTTAWA",
        "streetNameDisplayText": "PRESTON ST, OTTAWA"
      }
    ]
  },
  {
    "postal": "K1S1K0",
    "result": []
  },
  {
    "postal": "K1S3E2",
    "result": [
      {
        "electoralDistricts": [
          {
            "election": null,
            "id": 78,
            "name": "Ottawa Centre"
          }
        ],
        "pollDivisionIds": [
          10140556
        ],
        "postalCode": "K1S3E2",
        "streetName": "PLYMOUTH",
        "streetDirectionId": null,
        "streetTypeId": "ST",
        "placeName": "OTTAWA",
        "streetNameDisplayText": "PLYMOUTH ST, OTTAWA"
      }
    ]
  },
  {
    "postal": "K1S5H4",
    "result": [
      {
        "electoralDistricts": [
          {
            "election": null,
            "id": 78,
            "name": "Ottawa Centre"
          }
        ],
        "pollDivisionIds": [
          10140556
        ],
        "postalCode": "K1S5H4",
        "streetName": "CARLING",
        "streetDirectionId": null,
        "streetTypeId": "AVE",
        "placeName": "OTTAWA",
        "streetNameDisplayText": "CARLING AVE, OTTAWA"
      }
    ]
  },
  {
    "postal": "K1S1K7",
    "result": [
      {
        "electoralDistricts": [
          {
            "election": null,
            "id": 78,
            "name": "Ottawa Centre"
          }
        ],
        "pollDivisionIds": [
          10140574
        ],
        "postalCode": "K1S1K7",
        "streetName": "MCGILLIVRAY",
        "streetDirectionId": null,
        "streetTypeId": "ST",
        "placeName": "OTTAWA",
        "streetNameDisplayText": "MCGILLIVRAY ST, OTTAWA"
      }
    ]
  },
  {
    "postal": "K1S0H0",
    "result": []
  },
  {
    "postal": "K1S0J3",
    "result": [
      {
        "electoralDistricts": [
          {
            "election": null,
            "id": 78,
            "name": "Ottawa Centre"
          }
        ],
        "pollDivisionIds": [
          10140574
        ],
        "postalCode": "K1S0J3",
        "streetName": "LETCHWORTH",
        "streetDirectionId": null,
        "streetTypeId": "RD",
        "placeName": "OTTAWA",
        "streetNameDisplayText": "LETCHWORTH RD, OTTAWA"
      }
    ]
  },
  {
    "postal": "K1S1X6",
    "result": [
      {
        "electoralDistricts": [
          {
            "election": null,
            "id": 78,
            "name": "Ottawa Centre"
          }
        ],
        "pollDivisionIds": [
          10140570
        ],
        "postalCode": "K1S1X6",
        "streetName": "STRATHCONA",
        "streetDirectionId": null,
        "streetTypeId": "AVE",
        "placeName": "OTTAWA",
        "streetNameDisplayText": "STRATHCONA AVE, OTTAWA"
      }
    ]
  },
  {
    "postal": "K1S2Z6",
    "result": [
      {
        "electoralDistricts": [
          {
            "election": null,
            "id": 78,
            "name": "Ottawa Centre"
          }
        ],
        "pollDivisionIds": [
          10140571
        ],
        "postalCode": "K1S2Z6",
        "streetName": "GLEN",
        "streetDirectionId": null,
        "streetTypeId": "AVE",
        "placeName": "OTTAWA",
        "streetNameDisplayText": "GLEN AVE, OTTAWA"
      }
    ]
  },
  {
    "postal": "K1S4R9",
    "result": [
      {
        "electoralDistricts": [
          {
            "election": null,
            "id": 78,
            "name": "Ottawa Centre"
          }
        ],
        "pollDivisionIds": [
          10140571
        ],
        "postalCode": "K1S4R9",
        "streetName": "GROSVENOR",
        "streetDirectionId": null,
        "streetTypeId": "AVE",
        "placeName": "OTTAWA",
        "streetNameDisplayText": "GROSVENOR AVE, OTTAWA"
      }
    ]
  },
  {
    "postal": "K1S0W8",
    "result": [
      {
        "electoralDistricts": [
          {
            "election": null,
            "id": 78,
            "name": "Ottawa Centre"
          }
        ],
        "pollDivisionIds": [
          10140571
        ],
        "postalCode": "K1S0W8",
        "streetName": "CAMERON",
        "streetDirectionId": null,
        "streetTypeId": "AVE",
        "placeName": "OTTAWA",
        "streetNameDisplayText": "CAMERON AVE, OTTAWA"
      }
    ]
  },
  {
    "postal": "K1S1L4",
    "result": [
      {
        "electoralDistricts": [
          {
            "election": null,
            "id": 78,
            "name": "Ottawa Centre"
          }
        ],
        "pollDivisionIds": [
          10140574
        ],
        "postalCode": "K1S1L4",
        "streetName": "MUTCHMOR",
        "streetDirectionId": null,
        "streetTypeId": "RD",
        "placeName": "OTTAWA",
        "streetNameDisplayText": "MUTCHMOR RD, OTTAWA"
      }
    ]
  },
  {
    "postal": "K1S0C8",
    "result": [
      {
        "electoralDistricts": [
          {
            "election": null,
            "id": 78,
            "name": "Ottawa Centre"
          }
        ],
        "pollDivisionIds": [
          10143893
        ],
        "postalCode": "K1S0C8",
        "streetName": "EVELYN",
        "streetDirectionId": null,
        "streetTypeId": "AVE",
        "placeName": "OTTAWA",
        "streetNameDisplayText": "EVELYN AVE, OTTAWA"
      }
    ]
  },
  {
    "postal": "K1S9X7",
    "result": []
  },
  {
    "postal": "K1S4T1",
    "result": [
      {
        "electoralDistricts": [
          {
            "election": null,
            "id": 78,
            "name": "Ottawa Centre"
          }
        ],
        "pollDivisionIds": [
          10140571
        ],
        "postalCode": "K1S4T1",
        "streetName": "GROSVENOR",
        "streetDirectionId": null,
        "streetTypeId": "AVE",
        "placeName": "OTTAWA",
        "streetNameDisplayText": "GROSVENOR AVE, OTTAWA"
      }
    ]
  },
  {
    "postal": "K1S0M0",
    "result": []
  },
  {
    "postal": "K1S6A2",
    "result": []
  },
  {
    "postal": "K1S9S8",
    "result": []
  },
  {
    "postal": "K1S9T4",
    "result": []
  },
  {
    "postal": "K1S9Y4",
    "result": []
  },
  {
    "postal": "K1S6G5",
    "result": []
  },
  {
    "postal": "K1S6H9",
    "result": []
  },
  {
    "postal": "K1S2P3",
    "result": [
      {
        "electoralDistricts": [
          {
            "election": null,
            "id": 78,
            "name": "Ottawa Centre"
          }
        ],
        "pollDivisionIds": [
          10140566
        ],
        "postalCode": "K1S2P3",
        "streetName": "HOLMWOOD",
        "streetDirectionId": null,
        "streetTypeId": "AVE",
        "placeName": "OTTAWA",
        "streetNameDisplayText": "HOLMWOOD AVE, OTTAWA"
      }
    ]
  },
  {
    "postal": "K1S1T6",
    "result": [
      {
        "electoralDistricts": [
          {
            "election": null,
            "id": 78,
            "name": "Ottawa Centre"
          }
        ],
        "pollDivisionIds": [
          10140573
        ],
        "postalCode": "K1S1T6",
        "streetName": "WILLARD",
        "streetDirectionId": null,
        "streetTypeId": "ST",
        "placeName": "OTTAWA",
        "streetNameDisplayText": "WILLARD ST, OTTAWA"
      }
    ]
  },
  {
    "postal": "K1S4P6",
    "result": [
      {
        "electoralDistricts": [
          {
            "election": null,
            "id": 78,
            "name": "Ottawa Centre"
          }
        ],
        "pollDivisionIds": [
          10140551
        ],
        "postalCode": "K1S4P6",
        "streetName": "LORETTA",
        "streetDirectionId": "S",
        "streetTypeId": "AVE",
        "placeName": "OTTAWA",
        "streetNameDisplayText": "LORETTA AVE S, OTTAWA"
      }
    ]
  },
  {
    "postal": "K1S3K1",
    "result": [
      {
        "electoralDistricts": [
          {
            "election": null,
            "id": 78,
            "name": "Ottawa Centre"
          }
        ],
        "pollDivisionIds": [
          10140551
        ],
        "postalCode": "K1S3K1",
        "streetName": "BEECH",
        "streetDirectionId": null,
        "streetTypeId": "ST",
        "placeName": "OTTAWA",
        "streetNameDisplayText": "BEECH ST, OTTAWA"
      }
    ]
  },
  {
    "postal": "K1S6X4",
    "result": []
  },
  {
    "postal": "K1S4M8",
    "result": [
      {
        "electoralDistricts": [
          {
            "election": null,
            "id": 78,
            "name": "Ottawa Centre"
          }
        ],
        "pollDivisionIds": [
          10140556
        ],
        "postalCode": "K1S4M8",
        "streetName": "PRESTON",
        "streetDirectionId": null,
        "streetTypeId": "ST",
        "placeName": "OTTAWA",
        "streetNameDisplayText": "PRESTON ST, OTTAWA"
      }
    ]
  },
  {
    "postal": "K1S2Y1",
    "result": [
      {
        "electoralDistricts": [
          {
            "election": null,
            "id": 78,
            "name": "Ottawa Centre"
          }
        ],
        "pollDivisionIds": [
          10140565
        ],
        "postalCode": "K1S2Y1",
        "streetName": "AYLMER",
        "streetDirectionId": null,
        "streetTypeId": "AVE",
        "placeName": "OTTAWA",
        "streetNameDisplayText": "AYLMER AVE, OTTAWA"
      }
    ]
  },
  {
    "postal": "K1S6M1",
    "result": []
  },
  {
    "postal": "K1S5L8",
    "result": [
      {
        "electoralDistricts": [
          {
            "election": null,
            "id": 78,
            "name": "Ottawa Centre"
          }
        ],
        "pollDivisionIds": [
          10140556
        ],
        "postalCode": "K1S5L8",
        "streetName": "LEBRETON",
        "streetDirectionId": "S",
        "streetTypeId": "ST",
        "placeName": "OTTAWA",
        "streetNameDisplayText": "LEBRETON ST S, OTTAWA"
      }
    ]
  },
  {
    "postal": "K1S3P6",
    "result": [
      {
        "electoralDistricts": [
          {
            "election": null,
            "id": 78,
            "name": "Ottawa Centre"
          }
        ],
        "pollDivisionIds": [
          10140570
        ],
        "postalCode": "K1S3P6",
        "streetName": "O'CONNOR",
        "streetDirectionId": null,
        "streetTypeId": "ST",
        "placeName": "OTTAWA",
        "streetNameDisplayText": "O'CONNOR ST, OTTAWA"
      }
    ]
  },
  {
    "postal": "K1S9A5",
    "result": []
  },
  {
    "postal": "K1S7K1",
    "result": []
  },
  {
    "postal": "K1S3J4",
    "result": []
  },
  {
    "postal": "K1S5E7",
    "result": [
      {
        "electoralDistricts": [
          {
            "election": null,
            "id": 78,
            "name": "Ottawa Centre"
          }
        ],
        "pollDivisionIds": [
          10140570
        ],
        "postalCode": "K1S5E7",
        "streetName": "O'CONNOR",
        "streetDirectionId": null,
        "streetTypeId": "ST",
        "placeName": "OTTAWA",
        "streetNameDisplayText": "O'CONNOR ST, OTTAWA"
      }
    ]
  },
  {
    "postal": "K1S3A7",
    "result": [
      {
        "electoralDistricts": [
          {
            "election": null,
            "id": 78,
            "name": "Ottawa Centre"
          }
        ],
        "pollDivisionIds": [
          10140571
        ],
        "postalCode": "K1S3A7",
        "streetName": "GROVE",
        "streetDirectionId": null,
        "streetTypeId": "AVE",
        "placeName": "OTTAWA",
        "streetNameDisplayText": "GROVE AVE, OTTAWA"
      }
    ]
  },
  {
    "postal": "K1S1B9",
    "result": [
      {
        "electoralDistricts": [
          {
            "election": null,
            "id": 78,
            "name": "Ottawa Centre"
          }
        ],
        "pollDivisionIds": [
          10143893
        ],
        "postalCode": "K1S1B9",
        "streetName": "MAIN",
        "streetDirectionId": null,
        "streetTypeId": "ST",
        "placeName": "OTTAWA",
        "streetNameDisplayText": "MAIN ST, OTTAWA"
      }
    ]
  },
  {
    "postal": "K1S9E8",
    "result": []
  },
  {
    "postal": "K1S1C9",
    "result": [
      {
        "electoralDistricts": [
          {
            "election": null,
            "id": 78,
            "name": "Ottawa Centre"
          }
        ],
        "pollDivisionIds": [
          10140574
        ],
        "postalCode": "K1S1C9",
        "streetName": "MAIN",
        "streetDirectionId": null,
        "streetTypeId": "ST",
        "placeName": "OTTAWA",
        "streetNameDisplayText": "MAIN ST, OTTAWA"
      }
    ]
  },
  {
    "postal": "K1S3B5",
    "result": [
      {
        "electoralDistricts": [
          {
            "election": null,
            "id": 78,
            "name": "Ottawa Centre"
          }
        ],
        "pollDivisionIds": [
          10140571
        ],
        "postalCode": "K1S3B5",
        "streetName": "OSSINGTON",
        "streetDirectionId": null,
        "streetTypeId": "AVE",
        "placeName": "OTTAWA",
        "streetNameDisplayText": "OSSINGTON AVE, OTTAWA"
      }
    ]
  },
  {
    "postal": "K1S8R0",
    "result": []
  },
  {
    "postal": "K1S3P2",
    "result": [
      {
        "electoralDistricts": [
          {
            "election": null,
            "id": 78,
            "name": "Ottawa Centre"
          }
        ],
        "pollDivisionIds": [
          10140570
        ],
        "postalCode": "K1S3P2",
        "streetName": "METCALFE",
        "streetDirectionId": null,
        "streetTypeId": "ST",
        "placeName": "OTTAWA",
        "streetNameDisplayText": "METCALFE ST, OTTAWA"
      }
    ]
  },
  {
    "postal": "K1S5V4",
    "result": [
      {
        "electoralDistricts": [
          {
            "election": null,
            "id": 78,
            "name": "Ottawa Centre"
          }
        ],
        "pollDivisionIds": [
          10140565
        ],
        "postalCode": "K1S5V4",
        "streetName": "CARLYLE",
        "streetDirectionId": null,
        "streetTypeId": "AVE",
        "placeName": "OTTAWA",
        "streetNameDisplayText": "CARLYLE AVE, OTTAWA"
      }
    ]
  },
  {
    "postal": "K1S4H0",
    "result": []
  },
  {
    "postal": "K1S4S7",
    "result": [
      {
        "electoralDistricts": [
          {
            "election": null,
            "id": 78,
            "name": "Ottawa Centre"
          }
        ],
        "pollDivisionIds": [
          10140571
        ],
        "postalCode": "K1S4S7",
        "streetName": "GROSVENOR",
        "streetDirectionId": null,
        "streetTypeId": "AVE",
        "placeName": "OTTAWA",
        "streetNameDisplayText": "GROSVENOR AVE, OTTAWA"
      }
    ]
  },
  {
    "postal": "K1S6C2",
    "result": []
  },
  {
    "postal": "K1S8W3",
    "result": []
  },
  {
    "postal": "K1S4M5",
    "result": [
      {
        "electoralDistricts": [
          {
            "election": null,
            "id": 78,
            "name": "Ottawa Centre"
          }
        ],
        "pollDivisionIds": [
          10140573
        ],
        "postalCode": "K1S4M5",
        "streetName": "BRISTOL",
        "streetDirectionId": null,
        "streetTypeId": "AVE",
        "placeName": "OTTAWA",
        "streetNameDisplayText": "BRISTOL AVE, OTTAWA"
      }
    ]
  },
  {
    "postal": "K1S5T1",
    "result": [
      {
        "electoralDistricts": [
          {
            "election": null,
            "id": 78,
            "name": "Ottawa Centre"
          }
        ],
        "pollDivisionIds": [
          10140565
        ],
        "postalCode": "K1S5T1",
        "streetName": "BREWER",
        "streetDirectionId": null,
        "streetTypeId": "WAY",
        "placeName": "OTTAWA",
        "streetNameDisplayText": "BREWER WAY, OTTAWA"
      }
    ]
  },
  {
    "postal": "K1S3B3",
    "result": [
      {
        "electoralDistricts": [
          {
            "election": null,
            "id": 78,
            "name": "Ottawa Centre"
          }
        ],
        "pollDivisionIds": [
          10140571
        ],
        "postalCode": "K1S3B3",
        "streetName": "OSSINGTON",
        "streetDirectionId": null,
        "streetTypeId": "AVE",
        "placeName": "OTTAWA",
        "streetNameDisplayText": "OSSINGTON AVE, OTTAWA"
      }
    ]
  },
  {
    "postal": "K1S6C6",
    "result": []
  },
  {
    "postal": "K1S7N8",
    "result": []
  },
  {
    "postal": "K1S2Y3",
    "result": [
      {
        "electoralDistricts": [
          {
            "election": null,
            "id": 78,
            "name": "Ottawa Centre"
          }
        ],
        "pollDivisionIds": [
          10140565
        ],
        "postalCode": "K1S2Y3",
        "streetName": "AYLMER",
        "streetDirectionId": null,
        "streetTypeId": "AVE",
        "placeName": "OTTAWA",
        "streetNameDisplayText": "AYLMER AVE, OTTAWA"
      }
    ]
  },
  {
    "postal": "K1S2R6",
    "result": [
      {
        "electoralDistricts": [
          {
            "election": null,
            "id": 78,
            "name": "Ottawa Centre"
          }
        ],
        "pollDivisionIds": [
          10140569
        ],
        "postalCode": "K1S2R6",
        "streetName": "CLAREY",
        "streetDirectionId": null,
        "streetTypeId": "AVE",
        "placeName": "OTTAWA",
        "streetNameDisplayText": "CLAREY AVE, OTTAWA"
      }
    ]
  },
  {
    "postal": "K1S7N3",
    "result": []
  },
  {
    "postal": "K1S8J2",
    "result": []
  },
  {
    "postal": "K1S6A9",
    "result": []
  },
  {
    "postal": "K1S3V2",
    "result": [
      {
        "electoralDistricts": [
          {
            "election": null,
            "id": 78,
            "name": "Ottawa Centre"
          }
        ],
        "pollDivisionIds": [
          10140560
        ],
        "postalCode": "K1S3V2",
        "streetName": "BANK",
        "streetDirectionId": null,
        "streetTypeId": "ST",
        "placeName": "OTTAWA",
        "streetNameDisplayText": "BANK ST, OTTAWA"
      }
    ]
  },
  {
    "postal": "K1S2N3",
    "result": [
      {
        "electoralDistricts": [
          {
            "election": null,
            "id": 78,
            "name": "Ottawa Centre"
          }
        ],
        "pollDivisionIds": [
          10140566
        ],
        "postalCode": "K1S2N3",
        "streetName": "FIFTH",
        "streetDirectionId": null,
        "streetTypeId": "AVE",
        "placeName": "OTTAWA",
        "streetNameDisplayText": "FIFTH AVE, OTTAWA"
      }
    ]
  },
  {
    "postal": "K1S1S5",
    "result": [
      {
        "electoralDistricts": [
          {
            "election": null,
            "id": 78,
            "name": "Ottawa Centre"
          }
        ],
        "pollDivisionIds": [
          10140573
        ],
        "postalCode": "K1S1S5",
        "streetName": "RIVERDALE",
        "streetDirectionId": null,
        "streetTypeId": "AVE",
        "placeName": "OTTAWA",
        "streetNameDisplayText": "RIVERDALE AVE, OTTAWA"
      }
    ]
  },
  {
    "postal": "K1S4T7",
    "result": [
      {
        "electoralDistricts": [
          {
            "election": null,
            "id": 78,
            "name": "Ottawa Centre"
          }
        ],
        "pollDivisionIds": [
          10140565
        ],
        "postalCode": "K1S4T7",
        "streetName": "LEONARD",
        "streetDirectionId": null,
        "streetTypeId": "AVE",
        "placeName": "OTTAWA",
        "streetNameDisplayText": "LEONARD AVE, OTTAWA"
      }
    ]
  },
  {
    "postal": "K1S6Y7",
    "result": []
  },
  {
    "postal": "K1S0W7",
    "result": [
      {
        "electoralDistricts": [
          {
            "election": null,
            "id": 78,
            "name": "Ottawa Centre"
          }
        ],
        "pollDivisionIds": [
          10140573
        ],
        "postalCode": "K1S0W7",
        "streetName": "CAMERON",
        "streetDirectionId": null,
        "streetTypeId": "AVE",
        "placeName": "OTTAWA",
        "streetNameDisplayText": "CAMERON AVE, OTTAWA"
      }
    ]
  },
  {
    "postal": "K1S2W9",
    "result": [
      {
        "electoralDistricts": [
          {
            "election": null,
            "id": 78,
            "name": "Ottawa Centre"
          }
        ],
        "pollDivisionIds": [
          10140571
        ],
        "postalCode": "K1S2W9",
        "streetName": "AYLMER",
        "streetDirectionId": null,
        "streetTypeId": "AVE",
        "placeName": "OTTAWA",
        "streetNameDisplayText": "AYLMER AVE, OTTAWA"
      }
    ]
  },
  {
    "postal": "K1S8V0",
    "result": []
  },
  {
    "postal": "K1S0H4",
    "result": [
      {
        "electoralDistricts": [
          {
            "election": null,
            "id": 78,
            "name": "Ottawa Centre"
          }
        ],
        "pollDivisionIds": [
          10140574
        ],
        "postalCode": "K1S0H4",
        "streetName": "CLEGG",
        "streetDirectionId": null,
        "streetTypeId": "ST",
        "placeName": "OTTAWA",
        "streetNameDisplayText": "CLEGG ST, OTTAWA"
      }
    ]
  },
  {
    "postal": "K1S2T1",
    "result": [
      {
        "electoralDistricts": [
          {
            "election": null,
            "id": 78,
            "name": "Ottawa Centre"
          }
        ],
        "pollDivisionIds": [
          10140566
        ],
        "postalCode": "K1S2T1",
        "streetName": "OAKLAND",
        "streetDirectionId": null,
        "streetTypeId": "AVE",
        "placeName": "OTTAWA",
        "streetNameDisplayText": "OAKLAND AVE, OTTAWA"
      }
    ]
  },
  {
    "postal": "K1S1B1",
    "result": [
      {
        "electoralDistricts": [
          {
            "election": null,
            "id": 78,
            "name": "Ottawa Centre"
          }
        ],
        "pollDivisionIds": [
          10143893
        ],
        "postalCode": "K1S1B1",
        "streetName": "MAIN",
        "streetDirectionId": null,
        "streetTypeId": "ST",
        "placeName": "OTTAWA",
        "streetNameDisplayText": "MAIN ST, OTTAWA"
      }
    ]
  },
  {
    "postal": "K1S8B6",
    "result": []
  },
  {
    "postal": "K1S6H1",
    "result": []
  },
  {
    "postal": "K1S8T8",
    "result": []
  },
  {
    "postal": "K1S0T4",
    "result": [
      {
        "electoralDistricts": [
          {
            "election": null,
            "id": 78,
            "name": "Ottawa Centre"
          }
        ],
        "pollDivisionIds": [
          10140573
        ],
        "postalCode": "K1S0T4",
        "streetName": "BRIGHTON",
        "streetDirectionId": null,
        "streetTypeId": "AVE",
        "placeName": "OTTAWA",
        "streetNameDisplayText": "BRIGHTON AVE, OTTAWA"
      }
    ]
  },
  {
    "postal": "K1S2C4",
    "result": [
      {
        "electoralDistricts": [
          {
            "election": null,
            "id": 78,
            "name": "Ottawa Centre"
          }
        ],
        "pollDivisionIds": [
          10140560
        ],
        "postalCode": "K1S2C4",
        "streetName": "GLEBE",
        "streetDirectionId": null,
        "streetTypeId": "AVE",
        "placeName": "OTTAWA",
        "streetNameDisplayText": "GLEBE AVE, OTTAWA"
      }
    ]
  },
  {
    "postal": "K1S8N3",
    "result": []
  },
  {
    "postal": "K1S4L8",
    "result": [
      {
        "electoralDistricts": [
          {
            "election": null,
            "id": 78,
            "name": "Ottawa Centre"
          }
        ],
        "pollDivisionIds": [
          10140556
        ],
        "postalCode": "K1S4L8",
        "streetName": "ROCHESTER",
        "streetDirectionId": null,
        "streetTypeId": "ST",
        "placeName": "OTTAWA",
        "streetNameDisplayText": "ROCHESTER ST, OTTAWA"
      }
    ]
  },
  {
    "postal": "K1S2B5",
    "result": [
      {
        "electoralDistricts": [
          {
            "election": null,
            "id": 78,
            "name": "Ottawa Centre"
          }
        ],
        "pollDivisionIds": [
          10140560
        ],
        "postalCode": "K1S2B5",
        "streetName": "CLEMOW",
        "streetDirectionId": null,
        "streetTypeId": "AVE",
        "placeName": "OTTAWA",
        "streetNameDisplayText": "CLEMOW AVE, OTTAWA"
      }
    ]
  },
  {
    "postal": "K1S3H1",
    "result": [
      {
        "electoralDistricts": [
          {
            "election": null,
            "id": 78,
            "name": "Ottawa Centre"
          }
        ],
        "pollDivisionIds": [
          10140560
        ],
        "postalCode": "K1S3H1",
        "streetName": "LAKESIDE",
        "streetDirectionId": null,
        "streetTypeId": "AVE",
        "placeName": "OTTAWA",
        "streetNameDisplayText": "LAKESIDE AVE, OTTAWA"
      }
    ]
  },
  {
    "postal": "K1S4Y1",
    "result": [
      {
        "electoralDistricts": [
          {
            "election": null,
            "id": 78,
            "name": "Ottawa Centre"
          }
        ],
        "pollDivisionIds": [
          10140565
        ],
        "postalCode": "K1S4Y1",
        "streetName": "CARLYLE",
        "streetDirectionId": null,
        "streetTypeId": "AVE",
        "placeName": "OTTAWA",
        "streetNameDisplayText": "CARLYLE AVE, OTTAWA"
      }
    ]
  },
  {
    "postal": "K1S7E2",
    "result": []
  },
  {
    "postal": "K1S2P5",
    "result": [
      {
        "electoralDistricts": [
          {
            "election": null,
            "id": 78,
            "name": "Ottawa Centre"
          }
        ],
        "pollDivisionIds": [
          10140569,
          10140566
        ],
        "postalCode": "K1S2P5",
        "streetName": "HOLMWOOD",
        "streetDirectionId": null,
        "streetTypeId": "AVE",
        "placeName": "OTTAWA",
        "streetNameDisplayText": "HOLMWOOD AVE, OTTAWA"
      }
    ]
  },
  {
    "postal": "K1S8R7",
    "result": []
  },
  {
    "postal": "K1S9P1",
    "result": []
  },
  {
    "postal": "K1S3B8",
    "result": [
      {
        "electoralDistricts": [
          {
            "election": null,
            "id": 78,
            "name": "Ottawa Centre"
          }
        ],
        "pollDivisionIds": [
          10140565
        ],
        "postalCode": "K1S3B8",
        "streetName": "OSSINGTON",
        "streetDirectionId": null,
        "streetTypeId": "AVE",
        "placeName": "OTTAWA",
        "streetNameDisplayText": "OSSINGTON AVE, OTTAWA"
      }
    ]
  },
  {
    "postal": "K1S3P7",
    "result": [
      {
        "electoralDistricts": [
          {
            "election": null,
            "id": 78,
            "name": "Ottawa Centre"
          }
        ],
        "pollDivisionIds": [
          10140569
        ],
        "postalCode": "K1S3P7",
        "streetName": "O'CONNOR",
        "streetDirectionId": null,
        "streetTypeId": "ST",
        "placeName": "OTTAWA",
        "streetNameDisplayText": "O'CONNOR ST, OTTAWA"
      }
    ]
  },
  {
    "postal": "K1S9B2",
    "result": []
  },
  {
    "postal": "K1S6Z3",
    "result": []
  },
  {
    "postal": "K1S4N5",
    "result": [
      {
        "electoralDistricts": [
          {
            "election": null,
            "id": 78,
            "name": "Ottawa Centre"
          }
        ],
        "pollDivisionIds": [
          10140556
        ],
        "postalCode": "K1S4N5",
        "streetName": "PRESTON",
        "streetDirectionId": null,
        "streetTypeId": "ST",
        "placeName": "OTTAWA",
        "streetNameDisplayText": "PRESTON ST, OTTAWA"
      }
    ]
  },
  {
    "postal": "K1S8T3",
    "result": []
  },
  {
    "postal": "K1S1V2",
    "result": [
      {
        "electoralDistricts": [
          {
            "election": null,
            "id": 78,
            "name": "Ottawa Centre"
          }
        ],
        "pollDivisionIds": [
          10140573
        ],
        "postalCode": "K1S1V2",
        "streetName": "RIDEAU RIVER",
        "streetDirectionId": null,
        "streetTypeId": "DR",
        "placeName": "OTTAWA",
        "streetNameDisplayText": "RIDEAU RIVER DR, OTTAWA"
      }
    ]
  },
  {
    "postal": "K1S1Y0",
    "result": []
  },
  {
    "postal": "K1S3G6",
    "result": [
      {
        "electoralDistricts": [
          {
            "election": null,
            "id": 78,
            "name": "Ottawa Centre"
          }
        ],
        "pollDivisionIds": [
          10140560
        ],
        "postalCode": "K1S3G6",
        "streetName": "MADAWASKA",
        "streetDirectionId": null,
        "streetTypeId": "DR",
        "placeName": "OTTAWA",
        "streetNameDisplayText": "MADAWASKA DR, OTTAWA"
      }
    ]
  },
  {
    "postal": "K1S3H7",
    "result": [
      {
        "electoralDistricts": [
          {
            "election": null,
            "id": 78,
            "name": "Ottawa Centre"
          }
        ],
        "pollDivisionIds": [
          10140551
        ],
        "postalCode": "K1S3H7",
        "streetName": "YOUNG",
        "streetDirectionId": null,
        "streetTypeId": "ST",
        "placeName": "OTTAWA",
        "streetNameDisplayText": "YOUNG ST, OTTAWA"
      }
    ]
  },
  {
    "postal": "K1S7X8",
    "result": []
  },
  {
    "postal": "K1S0C7",
    "result": [
      {
        "electoralDistricts": [
          {
            "election": null,
            "id": 78,
            "name": "Ottawa Centre"
          }
        ],
        "pollDivisionIds": [
          10143893
        ],
        "postalCode": "K1S0C7",
        "streetName": "EVELYN",
        "streetDirectionId": null,
        "streetTypeId": "AVE",
        "placeName": "OTTAWA",
        "streetNameDisplayText": "EVELYN AVE, OTTAWA"
      }
    ]
  },
  {
    "postal": "K1S0W9",
    "result": [
      {
        "electoralDistricts": [
          {
            "election": null,
            "id": 78,
            "name": "Ottawa Centre"
          }
        ],
        "pollDivisionIds": [
          10140571
        ],
        "postalCode": "K1S0W9",
        "streetName": "CAMERON",
        "streetDirectionId": null,
        "streetTypeId": "AVE",
        "placeName": "OTTAWA",
        "streetNameDisplayText": "CAMERON AVE, OTTAWA"
      }
    ]
  },
  {
    "postal": "K1S8E6",
    "result": []
  },
  {
    "postal": "K1S9Z8",
    "result": []
  },
  {
    "postal": "K1S3P4",
    "result": [
      {
        "electoralDistricts": [
          {
            "election": null,
            "id": 78,
            "name": "Ottawa Centre"
          }
        ],
        "pollDivisionIds": [
          10140569
        ],
        "postalCode": "K1S3P4",
        "streetName": "O'CONNOR",
        "streetDirectionId": null,
        "streetTypeId": "ST",
        "placeName": "OTTAWA",
        "streetNameDisplayText": "O'CONNOR ST, OTTAWA"
      }
    ]
  },
  {
    "postal": "K1S6L8",
    "result": []
  },
  {
    "postal": "K1S2R4",
    "result": [
      {
        "electoralDistricts": [
          {
            "election": null,
            "id": 78,
            "name": "Ottawa Centre"
          }
        ],
        "pollDivisionIds": [
          10140569
        ],
        "postalCode": "K1S2R4",
        "streetName": "REGENT",
        "streetDirectionId": null,
        "streetTypeId": "ST",
        "placeName": "OTTAWA",
        "streetNameDisplayText": "REGENT ST, OTTAWA"
      }
    ]
  },
  {
    "postal": "K1S2W1",
    "result": [
      {
        "electoralDistricts": [
          {
            "election": null,
            "id": 78,
            "name": "Ottawa Centre"
          }
        ],
        "pollDivisionIds": [
          10140565
        ],
        "postalCode": "K1S2W1",
        "streetName": "DOWNING",
        "streetDirectionId": null,
        "streetTypeId": "ST",
        "placeName": "OTTAWA",
        "streetNameDisplayText": "DOWNING ST, OTTAWA"
      }
    ]
  },
  {
    "postal": "K1S9H8",
    "result": []
  },
  {
    "postal": "K1S8X9",
    "result": []
  },
  {
    "postal": "K1S7H4",
    "result": []
  },
  {
    "postal": "K1S3J1",
    "result": [
      {
        "electoralDistricts": [
          {
            "election": null,
            "id": 78,
            "name": "Ottawa Centre"
          }
        ],
        "pollDivisionIds": [
          10140556
        ],
        "postalCode": "K1S3J1",
        "streetName": "GEORGE",
        "streetDirectionId": "W",
        "streetTypeId": "ST",
        "placeName": "OTTAWA",
        "streetNameDisplayText": "GEORGE ST W, OTTAWA"
      }
    ]
  },
  {
    "postal": "K1S1P4",
    "result": [
      {
        "electoralDistricts": [
          {
            "election": null,
            "id": 78,
            "name": "Ottawa Centre"
          }
        ],
        "pollDivisionIds": [
          10140573
        ],
        "postalCode": "K1S1P4",
        "streetName": "BRISTOL",
        "streetDirectionId": null,
        "streetTypeId": "AVE",
        "placeName": "OTTAWA",
        "streetNameDisplayText": "BRISTOL AVE, OTTAWA"
      }
    ]
  },
  {
    "postal": "K1S2A3",
    "result": [
      {
        "electoralDistricts": [
          {
            "election": null,
            "id": 78,
            "name": "Ottawa Centre"
          }
        ],
        "pollDivisionIds": [
          10140560
        ],
        "postalCode": "K1S2A3",
        "streetName": "POWELL",
        "streetDirectionId": null,
        "streetTypeId": "AVE",
        "placeName": "OTTAWA",
        "streetNameDisplayText": "POWELL AVE, OTTAWA"
      }
    ]
  },
  {
    "postal": "K1S0Z1",
    "result": [
      {
        "electoralDistricts": [
          {
            "election": null,
            "id": 78,
            "name": "Ottawa Centre"
          }
        ],
        "pollDivisionIds": [
          10143893
        ],
        "postalCode": "K1S0Z1",
        "streetName": "CONCORD",
        "streetDirectionId": "S",
        "streetTypeId": "ST",
        "placeName": "OTTAWA",
        "streetNameDisplayText": "CONCORD ST S, OTTAWA"
      }
    ]
  },
  {
    "postal": "K1S1C1",
    "result": [
      {
        "electoralDistricts": [
          {
            "election": null,
            "id": 78,
            "name": "Ottawa Centre"
          }
        ],
        "pollDivisionIds": [
          10143893
        ],
        "postalCode": "K1S1C1",
        "streetName": "MAIN",
        "streetDirectionId": null,
        "streetTypeId": "ST",
        "placeName": "OTTAWA",
        "streetNameDisplayText": "MAIN ST, OTTAWA"
      }
    ]
  },
  {
    "postal": "K1S0H3",
    "result": [
      {
        "electoralDistricts": [
          {
            "election": null,
            "id": 78,
            "name": "Ottawa Centre"
          }
        ],
        "pollDivisionIds": [
          10140574
        ],
        "postalCode": "K1S0H3",
        "streetName": "CLEGG",
        "streetDirectionId": null,
        "streetTypeId": "ST",
        "placeName": "OTTAWA",
        "streetNameDisplayText": "CLEGG ST, OTTAWA"
      }
    ]
  },
  {
    "postal": "K1S7B0",
    "result": []
  },
  {
    "postal": "K1S5K2",
    "result": [
      {
        "electoralDistricts": [
          {
            "election": null,
            "id": 78,
            "name": "Ottawa Centre"
          }
        ],
        "pollDivisionIds": [
          10140556
        ],
        "postalCode": "K1S5K2",
        "streetName": "ROCHESTER",
        "streetDirectionId": null,
        "streetTypeId": "ST",
        "placeName": "OTTAWA",
        "streetNameDisplayText": "ROCHESTER ST, OTTAWA"
      }
    ]
  },
  {
    "postal": "K1S1E9",
    "result": [
      {
        "electoralDistricts": [
          {
            "election": null,
            "id": 78,
            "name": "Ottawa Centre"
          }
        ],
        "pollDivisionIds": [
          10140574
        ],
        "postalCode": "K1S1E9",
        "streetName": "ONSLOW",
        "streetDirectionId": null,
        "streetTypeId": "CRES",
        "placeName": "OTTAWA",
        "streetNameDisplayText": "ONSLOW CRES, OTTAWA"
      }
    ]
  },
  {
    "postal": "K1S9W7",
    "result": []
  },
  {
    "postal": "K1S5W6",
    "result": [
      {
        "electoralDistricts": [
          {
            "election": null,
            "id": 78,
            "name": "Ottawa Centre"
          }
        ],
        "pollDivisionIds": [
          10143893
        ],
        "postalCode": "K1S5W6",
        "streetName": "GREENFIELD",
        "streetDirectionId": null,
        "streetTypeId": "AVE",
        "placeName": "OTTAWA",
        "streetNameDisplayText": "GREENFIELD AVE, OTTAWA"
      }
    ]
  },
  {
    "postal": "K1S6S6",
    "result": []
  },
  {
    "postal": "K1S2P8",
    "result": [
      {
        "electoralDistricts": [
          {
            "election": null,
            "id": 78,
            "name": "Ottawa Centre"
          }
        ],
        "pollDivisionIds": [
          10140566
        ],
        "postalCode": "K1S2P8",
        "streetName": "HOLMWOOD",
        "streetDirectionId": null,
        "streetTypeId": "AVE",
        "placeName": "OTTAWA",
        "streetNameDisplayText": "HOLMWOOD AVE, OTTAWA"
      }
    ]
  },
  {
    "postal": "K1S4P8",
    "result": [
      {
        "electoralDistricts": [
          {
            "election": null,
            "id": 78,
            "name": "Ottawa Centre"
          }
        ],
        "pollDivisionIds": [
          10140551
        ],
        "postalCode": "K1S4P8",
        "streetName": "LORETTA",
        "streetDirectionId": "S",
        "streetTypeId": "AVE",
        "placeName": "OTTAWA",
        "streetNameDisplayText": "LORETTA AVE S, OTTAWA"
      }
    ]
  },
  {
    "postal": "K1S0V9",
    "result": [
      {
        "electoralDistricts": [
          {
            "election": null,
            "id": 78,
            "name": "Ottawa Centre"
          }
        ],
        "pollDivisionIds": [
          10140573
        ],
        "postalCode": "K1S0V9",
        "streetName": "BELMONT",
        "streetDirectionId": null,
        "streetTypeId": "AVE",
        "placeName": "OTTAWA",
        "streetNameDisplayText": "BELMONT AVE, OTTAWA"
      }
    ]
  },
  {
    "postal": "K1S5Y2",
    "result": []
  },
  {
    "postal": "K1S7Z7",
    "result": []
  },
  {
    "postal": "K1S6Y8",
    "result": []
  },
  {
    "postal": "K1S2G7",
    "result": [
      {
        "electoralDistricts": [
          {
            "election": null,
            "id": 78,
            "name": "Ottawa Centre"
          }
        ],
        "pollDivisionIds": [
          10140560
        ],
        "postalCode": "K1S2G7",
        "streetName": "FIRST",
        "streetDirectionId": null,
        "streetTypeId": "AVE",
        "placeName": "OTTAWA",
        "streetNameDisplayText": "FIRST AVE, OTTAWA"
      }
    ]
  },
  {
    "postal": "K1S8C1",
    "result": []
  },
  {
    "postal": "K1S5C5",
    "result": [
      {
        "electoralDistricts": [
          {
            "election": null,
            "id": 78,
            "name": "Ottawa Centre"
          }
        ],
        "pollDivisionIds": [
          10140571
        ],
        "postalCode": "K1S5C5",
        "streetName": "COLONEL BY",
        "streetDirectionId": null,
        "streetTypeId": "DR",
        "placeName": "OTTAWA",
        "streetNameDisplayText": "COLONEL BY DR, OTTAWA"
      }
    ]
  },
  {
    "postal": "K1S2X8",
    "result": [
      {
        "electoralDistricts": [
          {
            "election": null,
            "id": 78,
            "name": "Ottawa Centre"
          }
        ],
        "pollDivisionIds": [
          10140565
        ],
        "postalCode": "K1S2X8",
        "streetName": "AYLMER",
        "streetDirectionId": null,
        "streetTypeId": "AVE",
        "placeName": "OTTAWA",
        "streetNameDisplayText": "AYLMER AVE, OTTAWA"
      }
    ]
  },
  {
    "postal": "K1S1W5",
    "result": [
      {
        "electoralDistricts": [
          {
            "election": null,
            "id": 78,
            "name": "Ottawa Centre"
          }
        ],
        "pollDivisionIds": [
          10140560
        ],
        "postalCode": "K1S1W5",
        "streetName": "GLENDALE",
        "streetDirectionId": null,
        "streetTypeId": "AVE",
        "placeName": "OTTAWA",
        "streetNameDisplayText": "GLENDALE AVE, OTTAWA"
      }
    ]
  },
  {
    "postal": "K1S7G0",
    "result": []
  },
  {
    "postal": "K1S8J8",
    "result": []
  },
  {
    "postal": "K1S3Y0",
    "result": []
  },
  {
    "postal": "K1S9T7",
    "result": []
  },
  {
    "postal": "K1S5P4",
    "result": [
      {
        "electoralDistricts": [
          {
            "election": null,
            "id": 78,
            "name": "Ottawa Centre"
          }
        ],
        "pollDivisionIds": [
          10143893
        ],
        "postalCode": "K1S5P4",
        "streetName": "MAIN",
        "streetDirectionId": null,
        "streetTypeId": "ST",
        "placeName": "OTTAWA",
        "streetNameDisplayText": "MAIN ST, OTTAWA"
      }
    ]
  },
  {
    "postal": "K1S4B0",
    "result": []
  },
  {
    "postal": "K1S9N8",
    "result": []
  },
  {
    "postal": "K1S4A7",
    "result": [
      {
        "electoralDistricts": [
          {
            "election": null,
            "id": 78,
            "name": "Ottawa Centre"
          }
        ],
        "pollDivisionIds": [
          10140566
        ],
        "postalCode": "K1S4A7",
        "streetName": "MORRIS",
        "streetDirectionId": null,
        "streetTypeId": "ST",
        "placeName": "OTTAWA",
        "streetNameDisplayText": "MORRIS ST, OTTAWA"
      }
    ]
  },
  {
    "postal": "K1S4H9",
    "result": []
  },
  {
    "postal": "K1S6X1",
    "result": []
  },
  {
    "postal": "K1S9Y7",
    "result": []
  },
  {
    "postal": "K1S2Y5",
    "result": [
      {
        "electoralDistricts": [
          {
            "election": null,
            "id": 78,
            "name": "Ottawa Centre"
          }
        ],
        "pollDivisionIds": [
          10140565
        ],
        "postalCode": "K1S2Y5",
        "streetName": "AYLMER",
        "streetDirectionId": null,
        "streetTypeId": "AVE",
        "placeName": "OTTAWA",
        "streetNameDisplayText": "AYLMER AVE, OTTAWA"
      }
    ]
  },
  {
    "postal": "K1S8L7",
    "result": []
  },
  {
    "postal": "K1S2A8",
    "result": [
      {
        "electoralDistricts": [
          {
            "election": null,
            "id": 78,
            "name": "Ottawa Centre"
          }
        ],
        "pollDivisionIds": [
          10140556
        ],
        "postalCode": "K1S2A8",
        "streetName": "POWELL",
        "streetDirectionId": null,
        "streetTypeId": "AVE",
        "placeName": "OTTAWA",
        "streetNameDisplayText": "POWELL AVE, OTTAWA"
      }
    ]
  },
  {
    "postal": "K1S2K9",
    "result": [
      {
        "electoralDistricts": [
          {
            "election": null,
            "id": 78,
            "name": "Ottawa Centre"
          }
        ],
        "pollDivisionIds": [
          10140570
        ],
        "postalCode": "K1S2K9",
        "streetName": "FOURTH",
        "streetDirectionId": null,
        "streetTypeId": "AVE",
        "placeName": "OTTAWA",
        "streetNameDisplayText": "FOURTH AVE, OTTAWA"
      }
    ]
  },
  {
    "postal": "K1S3E5",
    "result": [
      {
        "electoralDistricts": [
          {
            "election": null,
            "id": 78,
            "name": "Ottawa Centre"
          }
        ],
        "pollDivisionIds": [
          10140556
        ],
        "postalCode": "K1S3E5",
        "streetName": "PLYMOUTH",
        "streetDirectionId": null,
        "streetTypeId": "ST",
        "placeName": "OTTAWA",
        "streetNameDisplayText": "PLYMOUTH ST, OTTAWA"
      }
    ]
  },
  {
    "postal": "K1S8N6",
    "result": []
  },
  {
    "postal": "K1S8J4",
    "result": []
  },
  {
    "postal": "K1S4R7",
    "result": [
      {
        "electoralDistricts": [
          {
            "election": null,
            "id": 78,
            "name": "Ottawa Centre"
          }
        ],
        "pollDivisionIds": [
          10140571
        ],
        "postalCode": "K1S4R7",
        "streetName": "BARTON",
        "streetDirectionId": null,
        "streetTypeId": "ST",
        "placeName": "OTTAWA",
        "streetNameDisplayText": "BARTON ST, OTTAWA"
      }
    ]
  },
  {
    "postal": "K1S9K1",
    "result": []
  },
  {
    "postal": "K1S8E1",
    "result": []
  },
  {
    "postal": "K1S0R1",
    "result": [
      {
        "electoralDistricts": [
          {
            "election": null,
            "id": 78,
            "name": "Ottawa Centre"
          }
        ],
        "pollDivisionIds": [
          10140573
        ],
        "postalCode": "K1S0R1",
        "streetName": "SUNNYSIDE",
        "streetDirectionId": null,
        "streetTypeId": "AVE",
        "placeName": "OTTAWA",
        "streetNameDisplayText": "SUNNYSIDE AVE, OTTAWA"
      },
      {
        "electoralDistricts": [
          {
            "election": null,
            "id": 78,
            "name": "Ottawa Centre"
          }
        ],
        "pollDivisionIds": [
          10140573
        ],
        "postalCode": "K1S0R1",
        "streetName": "SUNNYSIDE",
        "streetDirectionId": null,
        "streetTypeId": "DR",
        "placeName": "OTTAWA",
        "streetNameDisplayText": "SUNNYSIDE DR, OTTAWA"
      }
    ]
  },
  {
    "postal": "K1S4J3",
    "result": [
      {
        "electoralDistricts": [
          {
            "election": null,
            "id": 78,
            "name": "Ottawa Centre"
          }
        ],
        "pollDivisionIds": [
          10140556
        ],
        "postalCode": "K1S4J3",
        "streetName": "CAMBRIDGE",
        "streetDirectionId": "S",
        "streetTypeId": "ST",
        "placeName": "OTTAWA",
        "streetNameDisplayText": "CAMBRIDGE ST S, OTTAWA"
      },
      {
        "electoralDistricts": [
          {
            "election": null,
            "id": 78,
            "name": "Ottawa Centre"
          }
        ],
        "pollDivisionIds": [
          10140556
        ],
        "postalCode": "K1S4J3",
        "streetName": "CAMBRIDGE ST.",
        "streetDirectionId": "S",
        "streetTypeId": "ST",
        "placeName": "OTTAWA",
        "streetNameDisplayText": "CAMBRIDGE ST. ST S, OTTAWA"
      }
    ]
  },
  {
    "postal": "K1S7E7",
    "result": []
  },
  {
    "postal": "K1S0J0",
    "result": []
  },
  {
    "postal": "K1S7R8",
    "result": []
  },
  {
    "postal": "K1S9X0",
    "result": []
  },
  {
    "postal": "K1S7P6",
    "result": []
  },
  {
    "postal": "K1S0R7",
    "result": [
      {
        "electoralDistricts": [
          {
            "election": null,
            "id": 78,
            "name": "Ottawa Centre"
          }
        ],
        "pollDivisionIds": [
          10140573
        ],
        "postalCode": "K1S0R7",
        "streetName": "SUNNYSIDE",
        "streetDirectionId": null,
        "streetTypeId": "AVE",
        "placeName": "OTTAWA",
        "streetNameDisplayText": "SUNNYSIDE AVE, OTTAWA"
      }
    ]
  },
  {
    "postal": "K1S5W1",
    "result": [
      {
        "electoralDistricts": [
          {
            "election": null,
            "id": 78,
            "name": "Ottawa Centre"
          }
        ],
        "pollDivisionIds": [
          10143893
        ],
        "postalCode": "K1S5W1",
        "streetName": "OBLATS",
        "streetDirectionId": null,
        "streetTypeId": "AVE",
        "placeName": "OTTAWA",
        "streetNameDisplayText": "OBLATS AVE, OTTAWA"
      }
    ]
  },
  {
    "postal": "K1S0K4",
    "result": [
      {
        "electoralDistricts": [
          {
            "election": null,
            "id": 78,
            "name": "Ottawa Centre"
          }
        ],
        "pollDivisionIds": [
          10140574
        ],
        "postalCode": "K1S0K4",
        "streetName": "BECKWITH",
        "streetDirectionId": null,
        "streetTypeId": "RD",
        "placeName": "OTTAWA",
        "streetNameDisplayText": "BECKWITH RD, OTTAWA"
      }
    ]
  },
  {
    "postal": "K1S7N9",
    "result": []
  },
  {
    "postal": "K1S1N0",
    "result": []
  },
  {
    "postal": "K1S6P3",
    "result": []
  },
  {
    "postal": "K1S5A1",
    "result": [
      {
        "electoralDistricts": [
          {
            "election": null,
            "id": 78,
            "name": "Ottawa Centre"
          }
        ],
        "pollDivisionIds": [
          10140571
        ],
        "postalCode": "K1S5A1",
        "streetName": "MARCO",
        "streetDirectionId": null,
        "streetTypeId": "LANE",
        "placeName": "OTTAWA",
        "streetNameDisplayText": "MARCO LANE, OTTAWA"
      }
    ]
  },
  {
    "postal": "K1S9M9",
    "result": []
  },
  {
    "postal": "K1S7T6",
    "result": []
  },
  {
    "postal": "K1S3X0",
    "result": []
  },
  {
    "postal": "K1S2T0",
    "result": []
  },
  {
    "postal": "K1S5X9",
    "result": []
  },
  {
    "postal": "K1S2R3",
    "result": [
      {
        "electoralDistricts": [
          {
            "election": null,
            "id": 78,
            "name": "Ottawa Centre"
          }
        ],
        "pollDivisionIds": [
          10140566
        ],
        "postalCode": "K1S2R3",
        "streetName": "HOLMWOOD",
        "streetDirectionId": null,
        "streetTypeId": "AVE",
        "placeName": "OTTAWA",
        "streetNameDisplayText": "HOLMWOOD AVE, OTTAWA"
      }
    ]
  },
  {
    "postal": "K1S5N2",
    "result": []
  },
  {
    "postal": "K1S4Y7",
    "result": [
      {
        "electoralDistricts": [
          {
            "election": null,
            "id": 78,
            "name": "Ottawa Centre"
          }
        ],
        "pollDivisionIds": [
          10140565
        ],
        "postalCode": "K1S4Y7",
        "streetName": "FULTON",
        "streetDirectionId": null,
        "streetTypeId": "AVE",
        "placeName": "OTTAWA",
        "streetNameDisplayText": "FULTON AVE, OTTAWA"
      }
    ]
  },
  {
    "postal": "K1S7M0",
    "result": []
  },
  {
    "postal": "K1S8P3",
    "result": []
  },
  {
    "postal": "K1S3N3",
    "result": [
      {
        "electoralDistricts": [
          {
            "election": null,
            "id": 78,
            "name": "Ottawa Centre"
          }
        ],
        "pollDivisionIds": [
          10140566
        ],
        "postalCode": "K1S3N3",
        "streetName": "QUEEN ELIZABETH",
        "streetDirectionId": null,
        "streetTypeId": "PL",
        "placeName": "OTTAWA",
        "streetNameDisplayText": "QUEEN ELIZABETH PL, OTTAWA"
      }
    ]
  },
  {
    "postal": "K1S7S3",
    "result": []
  },
  {
    "postal": "K1S3V9",
    "result": [
      {
        "electoralDistricts": [
          {
            "election": null,
            "id": 78,
            "name": "Ottawa Centre"
          }
        ],
        "pollDivisionIds": [
          10140569
        ],
        "postalCode": "K1S3V9",
        "streetName": "BANK",
        "streetDirectionId": null,
        "streetTypeId": "ST",
        "placeName": "OTTAWA",
        "streetNameDisplayText": "BANK ST, OTTAWA"
      }
    ]
  },
  {
    "postal": "K1S9N7",
    "result": []
  },
  {
    "postal": "K1S0G4",
    "result": [
      {
        "electoralDistricts": [
          {
            "election": null,
            "id": 78,
            "name": "Ottawa Centre"
          }
        ],
        "pollDivisionIds": [
          10140574
        ],
        "postalCode": "K1S0G4",
        "streetName": "HAZEL",
        "streetDirectionId": null,
        "streetTypeId": "ST",
        "placeName": "OTTAWA",
        "streetNameDisplayText": "HAZEL ST, OTTAWA"
      }
    ]
  },
  {
    "postal": "K1S2E2",
    "result": [
      {
        "electoralDistricts": [
          {
            "election": null,
            "id": 78,
            "name": "Ottawa Centre"
          }
        ],
        "pollDivisionIds": [
          10140560
        ],
        "postalCode": "K1S2E2",
        "streetName": "CARLING",
        "streetDirectionId": null,
        "streetTypeId": "AVE",
        "placeName": "OTTAWA",
        "streetNameDisplayText": "CARLING AVE, OTTAWA"
      }
    ]
  },
  {
    "postal": "K1S7W8",
    "result": []
  },
  {
    "postal": "K1S7M5",
    "result": []
  },
  {
    "postal": "K1S5W8",
    "result": []
  },
  {
    "postal": "K1S5E5",
    "result": []
  },
  {
    "postal": "K1S1P9",
    "result": [
      {
        "electoralDistricts": [
          {
            "election": null,
            "id": 78,
            "name": "Ottawa Centre"
          }
        ],
        "pollDivisionIds": [
          10140574
        ],
        "postalCode": "K1S1P9",
        "streetName": "RIVERDALE",
        "streetDirectionId": null,
        "streetTypeId": "AVE",
        "placeName": "OTTAWA",
        "streetNameDisplayText": "RIVERDALE AVE, OTTAWA"
      }
    ]
  },
  {
    "postal": "K1S8V8",
    "result": []
  },
  {
    "postal": "K1S9G8",
    "result": []
  },
  {
    "postal": "K1S8H9",
    "result": []
  },
  {
    "postal": "K1S1Z1",
    "result": [
      {
        "electoralDistricts": [
          {
            "election": null,
            "id": 78,
            "name": "Ottawa Centre"
          }
        ],
        "pollDivisionIds": [
          10140570
        ],
        "postalCode": "K1S1Z1",
        "streetName": "LINDEN",
        "streetDirectionId": null,
        "streetTypeId": "TERR",
        "placeName": "OTTAWA",
        "streetNameDisplayText": "LINDEN TERR, OTTAWA"
      }
    ]
  },
  {
    "postal": "K1S8M3",
    "result": []
  },
  {
    "postal": "K1S5H6",
    "result": [
      {
        "electoralDistricts": [
          {
            "election": null,
            "id": 78,
            "name": "Ottawa Centre"
          }
        ],
        "pollDivisionIds": [
          10140570
        ],
        "postalCode": "K1S5H6",
        "streetName": "O'CONNOR",
        "streetDirectionId": null,
        "streetTypeId": "ST",
        "placeName": "OTTAWA",
        "streetNameDisplayText": "O'CONNOR ST, OTTAWA"
      }
    ]
  },
  {
    "postal": "K1S7W7",
    "result": []
  },
  {
    "postal": "K1S4L0",
    "result": []
  },
  {
    "postal": "K1S2N1",
    "result": [
      {
        "electoralDistricts": [
          {
            "election": null,
            "id": 78,
            "name": "Ottawa Centre"
          }
        ],
        "pollDivisionIds": [
          10140566
        ],
        "postalCode": "K1S2N1",
        "streetName": "FIFTH",
        "streetDirectionId": null,
        "streetTypeId": "AVE",
        "placeName": "OTTAWA",
        "streetNameDisplayText": "FIFTH AVE, OTTAWA"
      }
    ]
  },
  {
    "postal": "K1S2H4",
    "result": [
      {
        "electoralDistricts": [
          {
            "election": null,
            "id": 78,
            "name": "Ottawa Centre"
          }
        ],
        "pollDivisionIds": [
          10140569
        ],
        "postalCode": "K1S2H4",
        "streetName": "SECOND",
        "streetDirectionId": null,
        "streetTypeId": "AVE",
        "placeName": "OTTAWA",
        "streetNameDisplayText": "SECOND AVE, OTTAWA"
      }
    ]
  },
  {
    "postal": "K1S5C8",
    "result": [
      {
        "electoralDistricts": [
          {
            "election": null,
            "id": 78,
            "name": "Ottawa Centre"
          }
        ],
        "pollDivisionIds": [
          10140565
        ],
        "postalCode": "K1S5C8",
        "streetName": "COLONEL BY",
        "streetDirectionId": null,
        "streetTypeId": "DR",
        "placeName": "OTTAWA",
        "streetNameDisplayText": "COLONEL BY DR, OTTAWA"
      }
    ]
  },
  {
    "postal": "K1S8B0",
    "result": []
  },
  {
    "postal": "K1S1T4",
    "result": [
      {
        "electoralDistricts": [
          {
            "election": null,
            "id": 78,
            "name": "Ottawa Centre"
          }
        ],
        "pollDivisionIds": [
          10140573
        ],
        "postalCode": "K1S1T4",
        "streetName": "WILLARD",
        "streetDirectionId": null,
        "streetTypeId": "ST",
        "placeName": "OTTAWA",
        "streetNameDisplayText": "WILLARD ST, OTTAWA"
      }
    ]
  },
  {
    "postal": "K1S7N7",
    "result": []
  },
  {
    "postal": "K1S4L3",
    "result": [
      {
        "electoralDistricts": [
          {
            "election": null,
            "id": 78,
            "name": "Ottawa Centre"
          }
        ],
        "pollDivisionIds": [
          10140560
        ],
        "postalCode": "K1S4L3",
        "streetName": "DOW'S LAKE",
        "streetDirectionId": null,
        "streetTypeId": "RD",
        "placeName": "OTTAWA",
        "streetNameDisplayText": "DOW'S LAKE RD, OTTAWA"
      }
    ]
  },
  {
    "postal": "K1S2N2",
    "result": [
      {
        "electoralDistricts": [
          {
            "election": null,
            "id": 78,
            "name": "Ottawa Centre"
          }
        ],
        "pollDivisionIds": [
          10140566
        ],
        "postalCode": "K1S2N2",
        "streetName": "FIFTH",
        "streetDirectionId": null,
        "streetTypeId": "AVE",
        "placeName": "OTTAWA",
        "streetNameDisplayText": "FIFTH AVE, OTTAWA"
      }
    ]
  },
  {
    "postal": "K1S4N8",
    "result": [
      {
        "electoralDistricts": [
          {
            "election": null,
            "id": 78,
            "name": "Ottawa Centre"
          }
        ],
        "pollDivisionIds": [
          10140556
        ],
        "postalCode": "K1S4N8",
        "streetName": "PRESTON",
        "streetDirectionId": null,
        "streetTypeId": "ST",
        "placeName": "OTTAWA",
        "streetNameDisplayText": "PRESTON ST, OTTAWA"
      }
    ]
  },
  {
    "postal": "K1S3M5",
    "result": [
      {
        "electoralDistricts": [
          {
            "election": null,
            "id": 78,
            "name": "Ottawa Centre"
          }
        ],
        "pollDivisionIds": [
          10140570
        ],
        "postalCode": "K1S3M5",
        "streetName": "QUEEN ELIZABETH",
        "streetDirectionId": null,
        "streetTypeId": "DR",
        "placeName": "OTTAWA",
        "streetNameDisplayText": "QUEEN ELIZABETH DR, OTTAWA"
      }
    ]
  },
  {
    "postal": "K1S6H7",
    "result": []
  },
  {
    "postal": "K1S8Y8",
    "result": []
  },
  {
    "postal": "K1S5R9",
    "result": [
      {
        "electoralDistricts": [
          {
            "election": null,
            "id": 78,
            "name": "Ottawa Centre"
          }
        ],
        "pollDivisionIds": [
          10140565
        ],
        "postalCode": "K1S5R9",
        "streetName": "HOPEWELL",
        "streetDirectionId": null,
        "streetTypeId": "AVE",
        "placeName": "OTTAWA",
        "streetNameDisplayText": "HOPEWELL AVE, OTTAWA"
      }
    ]
  },
  {
    "postal": "K1S8G3",
    "result": []
  },
  {
    "postal": "K1S4N7",
    "result": [
      {
        "electoralDistricts": [
          {
            "election": null,
            "id": 78,
            "name": "Ottawa Centre"
          }
        ],
        "pollDivisionIds": [
          10140556
        ],
        "postalCode": "K1S4N7",
        "streetName": "PRESTON",
        "streetDirectionId": null,
        "streetTypeId": "ST",
        "placeName": "OTTAWA",
        "streetNameDisplayText": "PRESTON ST, OTTAWA"
      }
    ]
  },
  {
    "postal": "K1S0B9",
    "result": [
      {
        "electoralDistricts": [
          {
            "election": null,
            "id": 78,
            "name": "Ottawa Centre"
          }
        ],
        "pollDivisionIds": [
          10143893
        ],
        "postalCode": "K1S0B9",
        "streetName": "LEES",
        "streetDirectionId": null,
        "streetTypeId": "AVE",
        "placeName": "OTTAWA",
        "streetNameDisplayText": "LEES AVE, OTTAWA"
      }
    ]
  },
  {
    "postal": "K1S9K7",
    "result": []
  },
  {
    "postal": "K1S9K9",
    "result": []
  },
  {
    "postal": "K1S3Z2",
    "result": [
      {
        "electoralDistricts": [
          {
            "election": null,
            "id": 78,
            "name": "Ottawa Centre"
          }
        ],
        "pollDivisionIds": [
          10140560
        ],
        "postalCode": "K1S3Z2",
        "streetName": "LYON",
        "streetDirectionId": "S",
        "streetTypeId": "ST",
        "placeName": "OTTAWA",
        "streetNameDisplayText": "LYON ST S, OTTAWA"
      }
    ]
  },
  {
    "postal": "K1S6W7",
    "result": []
  },
  {
    "postal": "K1S0P1",
    "result": [
      {
        "electoralDistricts": [
          {
            "election": null,
            "id": 78,
            "name": "Ottawa Centre"
          }
        ],
        "pollDivisionIds": [
          10140574
        ],
        "postalCode": "K1S0P1",
        "streetName": "AVENUE",
        "streetDirectionId": null,
        "streetTypeId": "RD",
        "placeName": "OTTAWA",
        "streetNameDisplayText": "AVENUE RD, OTTAWA"
      }
    ]
  },
  {
    "postal": "K1S3A0",
    "result": []
  },
  {
    "postal": "K1S8L9",
    "result": []
  },
  {
    "postal": "K1S6X0",
    "result": []
  },
  {
    "postal": "K1S3E9",
    "result": [
      {
        "electoralDistricts": [
          {
            "election": null,
            "id": 78,
            "name": "Ottawa Centre"
          }
        ],
        "pollDivisionIds": [
          10140556
        ],
        "postalCode": "K1S3E9",
        "streetName": "MACLEAN",
        "streetDirectionId": null,
        "streetTypeId": "ST",
        "placeName": "OTTAWA",
        "streetNameDisplayText": "MACLEAN ST, OTTAWA"
      }
    ]
  },
  {
    "postal": "K1S0S5",
    "result": [
      {
        "electoralDistricts": [
          {
            "election": null,
            "id": 78,
            "name": "Ottawa Centre"
          }
        ],
        "pollDivisionIds": [
          10140565
        ],
        "postalCode": "K1S0S5",
        "streetName": "SUNNYSIDE",
        "streetDirectionId": null,
        "streetTypeId": "AVE",
        "placeName": "OTTAWA",
        "streetNameDisplayText": "SUNNYSIDE AVE, OTTAWA"
      }
    ]
  },
  {
    "postal": "K1S1A2",
    "result": [
      {
        "electoralDistricts": [
          {
            "election": null,
            "id": 78,
            "name": "Ottawa Centre"
          }
        ],
        "pollDivisionIds": [
          10143893
        ],
        "postalCode": "K1S1A2",
        "streetName": "SIMCOE",
        "streetDirectionId": null,
        "streetTypeId": "ST",
        "placeName": "OTTAWA",
        "streetNameDisplayText": "SIMCOE ST, OTTAWA"
      }
    ]
  },
  {
    "postal": "K1S5V8",
    "result": [
      {
        "electoralDistricts": [
          {
            "election": null,
            "id": 78,
            "name": "Ottawa Centre"
          }
        ],
        "pollDivisionIds": [
          10143893
        ],
        "postalCode": "K1S5V8",
        "streetName": "OBLATS",
        "streetDirectionId": null,
        "streetTypeId": "AVE",
        "placeName": "OTTAWA",
        "streetNameDisplayText": "OBLATS AVE, OTTAWA"
      }
    ]
  },
  {
    "postal": "K1S8C5",
    "result": []
  },
  {
    "postal": "K1S6N0",
    "result": []
  },
  {
    "postal": "K1S9E6",
    "result": []
  },
  {
    "postal": "K1S5J7",
    "result": []
  },
  {
    "postal": "K1S2R2",
    "result": [
      {
        "electoralDistricts": [
          {
            "election": null,
            "id": 78,
            "name": "Ottawa Centre"
          }
        ],
        "pollDivisionIds": [
          10140566,
          10140614
        ],
        "postalCode": "K1S2R2",
        "streetName": "HOLMWOOD",
        "streetDirectionId": null,
        "streetTypeId": "AVE",
        "placeName": "OTTAWA",
        "streetNameDisplayText": "HOLMWOOD AVE, OTTAWA"
      }
    ]
  },
  {
    "postal": "K1S0P5",
    "result": [
      {
        "electoralDistricts": [
          {
            "election": null,
            "id": 78,
            "name": "Ottawa Centre"
          }
        ],
        "pollDivisionIds": [
          10140573
        ],
        "postalCode": "K1S0P5",
        "streetName": "SOUTHERN",
        "streetDirectionId": null,
        "streetTypeId": "DR",
        "placeName": "OTTAWA",
        "streetNameDisplayText": "SOUTHERN DR, OTTAWA"
      }
    ]
  },
  {
    "postal": "K1S5A7",
    "result": [
      {
        "electoralDistricts": [
          {
            "election": null,
            "id": 78,
            "name": "Ottawa Centre"
          }
        ],
        "pollDivisionIds": [
          10140642
        ],
        "postalCode": "K1S5A7",
        "streetName": "MONK",
        "streetDirectionId": null,
        "streetTypeId": "ST",
        "placeName": "OTTAWA",
        "streetNameDisplayText": "MONK ST, OTTAWA"
      }
    ]
  },
  {
    "postal": "K1S1G1",
    "result": [
      {
        "electoralDistricts": [
          {
            "election": null,
            "id": 78,
            "name": "Ottawa Centre"
          }
        ],
        "pollDivisionIds": [
          10140574
        ],
        "postalCode": "K1S1G1",
        "streetName": "ONSLOW",
        "streetDirectionId": null,
        "streetTypeId": "CRES",
        "placeName": "OTTAWA",
        "streetNameDisplayText": "ONSLOW CRES, OTTAWA"
      }
    ]
  },
  {
    "postal": "K1S9R6",
    "result": []
  },
  {
    "postal": "K1S4Z9",
    "result": [
      {
        "electoralDistricts": [
          {
            "election": null,
            "id": 78,
            "name": "Ottawa Centre"
          }
        ],
        "pollDivisionIds": [
          10140571
        ],
        "postalCode": "K1S4Z9",
        "streetName": "OSBORNE",
        "streetDirectionId": null,
        "streetTypeId": "ST",
        "placeName": "OTTAWA",
        "streetNameDisplayText": "OSBORNE ST, OTTAWA"
      }
    ]
  },
  {
    "postal": "K1S1V5",
    "result": [
      {
        "electoralDistricts": [
          {
            "election": null,
            "id": 78,
            "name": "Ottawa Centre"
          }
        ],
        "pollDivisionIds": [
          10140639,
          10140570
        ],
        "postalCode": "K1S1V5",
        "streetName": "ISABELLA",
        "streetDirectionId": null,
        "streetTypeId": "ST",
        "placeName": "OTTAWA",
        "streetNameDisplayText": "ISABELLA ST, OTTAWA"
      }
    ]
  },
  {
    "postal": "K1S9Y5",
    "result": []
  },
  {
    "postal": "K1S1P2",
    "result": [
      {
        "electoralDistricts": [
          {
            "election": null,
            "id": 78,
            "name": "Ottawa Centre"
          }
        ],
        "pollDivisionIds": [
          10140574
        ],
        "postalCode": "K1S1P2",
        "streetName": "ECHO",
        "streetDirectionId": null,
        "streetTypeId": "DR",
        "placeName": "OTTAWA",
        "streetNameDisplayText": "ECHO DR, OTTAWA"
      }
    ]
  },
  {
    "postal": "K1S5X0",
    "result": []
  },
  {
    "postal": "K1S7B8",
    "result": []
  },
  {
    "postal": "K1S0C6",
    "result": [
      {
        "electoralDistricts": [
          {
            "election": null,
            "id": 78,
            "name": "Ottawa Centre"
          }
        ],
        "pollDivisionIds": [
          10143893
        ],
        "postalCode": "K1S0C6",
        "streetName": "EVELYN",
        "streetDirectionId": null,
        "streetTypeId": "AVE",
        "placeName": "OTTAWA",
        "streetNameDisplayText": "EVELYN AVE, OTTAWA"
      }
    ]
  },
  {
    "postal": "K1S6G1",
    "result": []
  },
  {
    "postal": "K1S3K3",
    "result": [
      {
        "electoralDistricts": [
          {
            "election": null,
            "id": 78,
            "name": "Ottawa Centre"
          }
        ],
        "pollDivisionIds": [
          10140556
        ],
        "postalCode": "K1S3K3",
        "streetName": "NORMAN",
        "streetDirectionId": null,
        "streetTypeId": "ST",
        "placeName": "OTTAWA",
        "streetNameDisplayText": "NORMAN ST, OTTAWA"
      }
    ]
  },
  {
    "postal": "K1S9R0",
    "result": []
  },
  {
    "postal": "K1S4R8",
    "result": [
      {
        "electoralDistricts": [
          {
            "election": null,
            "id": 78,
            "name": "Ottawa Centre"
          }
        ],
        "pollDivisionIds": [
          10140571
        ],
        "postalCode": "K1S4R8",
        "streetName": "GROSVENOR",
        "streetDirectionId": null,
        "streetTypeId": "AVE",
        "placeName": "OTTAWA",
        "streetNameDisplayText": "GROSVENOR AVE, OTTAWA"
      }
    ]
  },
  {
    "postal": "K1S5P9",
    "result": [
      {
        "electoralDistricts": [
          {
            "election": null,
            "id": 78,
            "name": "Ottawa Centre"
          }
        ],
        "pollDivisionIds": [
          10140574
        ],
        "postalCode": "K1S5P9",
        "streetName": "MAZENDO",
        "streetDirectionId": null,
        "streetTypeId": null,
        "placeName": "OTTAWA",
        "streetNameDisplayText": "MAZENDO, OTTAWA"
      }
    ]
  },
  {
    "postal": "K1S8N4",
    "result": []
  },
  {
    "postal": "K1S8H4",
    "result": []
  },
  {
    "postal": "K1S4V1",
    "result": [
      {
        "electoralDistricts": [
          {
            "election": null,
            "id": 78,
            "name": "Ottawa Centre"
          }
        ],
        "pollDivisionIds": [
          10140571
        ],
        "postalCode": "K1S4V1",
        "streetName": "LEONARD",
        "streetDirectionId": null,
        "streetTypeId": "AVE",
        "placeName": "OTTAWA",
        "streetNameDisplayText": "LEONARD AVE, OTTAWA"
      }
    ]
  },
  {
    "postal": "K1S1K5",
    "result": [
      {
        "electoralDistricts": [
          {
            "election": null,
            "id": 78,
            "name": "Ottawa Centre"
          }
        ],
        "pollDivisionIds": [
          10140574
        ],
        "postalCode": "K1S1K5",
        "streetName": "MCGILLIVRAY",
        "streetDirectionId": null,
        "streetTypeId": "ST",
        "placeName": "OTTAWA",
        "streetNameDisplayText": "MCGILLIVRAY ST, OTTAWA"
      }
    ]
  },
  {
    "postal": "K1S1Z5",
    "result": [
      {
        "electoralDistricts": [
          {
            "election": null,
            "id": 78,
            "name": "Ottawa Centre"
          }
        ],
        "pollDivisionIds": [
          10140560
        ],
        "postalCode": "K1S1Z5",
        "streetName": "RENFREW",
        "streetDirectionId": null,
        "streetTypeId": "AVE",
        "placeName": "OTTAWA",
        "streetNameDisplayText": "RENFREW AVE, OTTAWA"
      }
    ]
  },
  {
    "postal": "K1S9L9",
    "result": []
  },
  {
    "postal": "K1S5L2",
    "result": [
      {
        "electoralDistricts": [
          {
            "election": null,
            "id": 78,
            "name": "Ottawa Centre"
          }
        ],
        "pollDivisionIds": [
          10143893
        ],
        "postalCode": "K1S5L2",
        "streetName": "GREENFIELD",
        "streetDirectionId": null,
        "streetTypeId": "AVE",
        "placeName": "OTTAWA",
        "streetNameDisplayText": "GREENFIELD AVE, OTTAWA"
      }
    ]
  },
  {
    "postal": "K1S0M2",
    "result": [
      {
        "electoralDistricts": [
          {
            "election": null,
            "id": 78,
            "name": "Ottawa Centre"
          }
        ],
        "pollDivisionIds": [
          10140574
        ],
        "postalCode": "K1S0M2",
        "streetName": "ELLIOT",
        "streetDirectionId": null,
        "streetTypeId": "AVE",
        "placeName": "OTTAWA",
        "streetNameDisplayText": "ELLIOT AVE, OTTAWA"
      }
    ]
  },
  {
    "postal": "K1S1K8",
    "result": [
      {
        "electoralDistricts": [
          {
            "election": null,
            "id": 78,
            "name": "Ottawa Centre"
          }
        ],
        "pollDivisionIds": [
          10140574
        ],
        "postalCode": "K1S1K8",
        "streetName": "MCGILLIVRAY",
        "streetDirectionId": null,
        "streetTypeId": "ST",
        "placeName": "OTTAWA",
        "streetNameDisplayText": "MCGILLIVRAY ST, OTTAWA"
      }
    ]
  },
  {
    "postal": "K1S3M7",
    "result": [
      {
        "electoralDistricts": [
          {
            "election": null,
            "id": 78,
            "name": "Ottawa Centre"
          }
        ],
        "pollDivisionIds": [
          10140570
        ],
        "postalCode": "K1S3M7",
        "streetName": "QUEEN ELIZABETH",
        "streetDirectionId": null,
        "streetTypeId": "DR",
        "placeName": "OTTAWA",
        "streetNameDisplayText": "QUEEN ELIZABETH DR, OTTAWA"
      }
    ]
  },
  {
    "postal": "K1S1B2",
    "result": [
      {
        "electoralDistricts": [
          {
            "election": null,
            "id": 78,
            "name": "Ottawa Centre"
          }
        ],
        "pollDivisionIds": [
          10143893
        ],
        "postalCode": "K1S1B2",
        "streetName": "MAIN",
        "streetDirectionId": null,
        "streetTypeId": "ST",
        "placeName": "OTTAWA",
        "streetNameDisplayText": "MAIN ST, OTTAWA"
      }
    ]
  },
  {
    "postal": "K1S0H9",
    "result": [
      {
        "electoralDistricts": [
          {
            "election": null,
            "id": 78,
            "name": "Ottawa Centre"
          }
        ],
        "pollDivisionIds": [
          10140574
        ],
        "postalCode": "K1S0H9",
        "streetName": "CLEGG",
        "streetDirectionId": null,
        "streetTypeId": "ST",
        "placeName": "OTTAWA",
        "streetNameDisplayText": "CLEGG ST, OTTAWA"
      }
    ]
  },
  {
    "postal": "K1S8M4",
    "result": []
  },
  {
    "postal": "K1S2M5",
    "result": [
      {
        "electoralDistricts": [
          {
            "election": null,
            "id": 78,
            "name": "Ottawa Centre"
          }
        ],
        "pollDivisionIds": [
          10140569
        ],
        "postalCode": "K1S2M5",
        "streetName": "FIFTH",
        "streetDirectionId": null,
        "streetTypeId": "AVE",
        "placeName": "OTTAWA",
        "streetNameDisplayText": "FIFTH AVE, OTTAWA"
      }
    ]
  },
  {
    "postal": "K1S0T9",
    "result": [
      {
        "electoralDistricts": [
          {
            "election": null,
            "id": 78,
            "name": "Ottawa Centre"
          }
        ],
        "pollDivisionIds": [
          10140573
        ],
        "postalCode": "K1S0T9",
        "streetName": "BELMONT",
        "streetDirectionId": null,
        "streetTypeId": "AVE",
        "placeName": "OTTAWA",
        "streetNameDisplayText": "BELMONT AVE, OTTAWA"
      }
    ]
  },
  {
    "postal": "K1S3P1",
    "result": [
      {
        "electoralDistricts": [
          {
            "election": null,
            "id": 78,
            "name": "Ottawa Centre"
          }
        ],
        "pollDivisionIds": [
          10140570
        ],
        "postalCode": "K1S3P1",
        "streetName": "METCALFE",
        "streetDirectionId": null,
        "streetTypeId": "ST",
        "placeName": "OTTAWA",
        "streetNameDisplayText": "METCALFE ST, OTTAWA"
      }
    ]
  },
  {
    "postal": "K1S1R6",
    "result": [
      {
        "electoralDistricts": [
          {
            "election": null,
            "id": 78,
            "name": "Ottawa Centre"
          }
        ],
        "pollDivisionIds": [
          10140573
        ],
        "postalCode": "K1S1R6",
        "streetName": "RIVERDALE",
        "streetDirectionId": null,
        "streetTypeId": "AVE",
        "placeName": "OTTAWA",
        "streetNameDisplayText": "RIVERDALE AVE, OTTAWA"
      }
    ]
  },
  {
    "postal": "K1S9V5",
    "result": []
  },
  {
    "postal": "K1S9T0",
    "result": []
  },
  {
    "postal": "K1S0A9",
    "result": [
      {
        "electoralDistricts": [
          {
            "election": null,
            "id": 78,
            "name": "Ottawa Centre"
          }
        ],
        "pollDivisionIds": [
          10143893
        ],
        "postalCode": "K1S0A9",
        "streetName": "HAWTHORNE",
        "streetDirectionId": null,
        "streetTypeId": "AVE",
        "placeName": "OTTAWA",
        "streetNameDisplayText": "HAWTHORNE AVE, OTTAWA"
      }
    ]
  },
  {
    "postal": "K1S1M3",
    "result": [
      {
        "electoralDistricts": [
          {
            "election": null,
            "id": 78,
            "name": "Ottawa Centre"
          }
        ],
        "pollDivisionIds": [
          10140574
        ],
        "postalCode": "K1S1M3",
        "streetName": "GLENVIEW",
        "streetDirectionId": null,
        "streetTypeId": "AVE",
        "placeName": "OTTAWA",
        "streetNameDisplayText": "GLENVIEW AVE, OTTAWA"
      }
    ]
  },
  {
    "postal": "K1S1W8",
    "result": [
      {
        "electoralDistricts": [
          {
            "election": null,
            "id": 78,
            "name": "Ottawa Centre"
          }
        ],
        "pollDivisionIds": [
          10140570
        ],
        "postalCode": "K1S1W8",
        "streetName": "PRETORIA",
        "streetDirectionId": null,
        "streetTypeId": "AVE",
        "placeName": "OTTAWA",
        "streetNameDisplayText": "PRETORIA AVE, OTTAWA"
      }
    ]
  },
  {
    "postal": "K1S9J1",
    "result": []
  },
  {
    "postal": "K1S8N5",
    "result": []
  },
  {
    "postal": "K1S5X1",
    "result": [
      {
        "electoralDistricts": [
          {
            "election": null,
            "id": 78,
            "name": "Ottawa Centre"
          }
        ],
        "pollDivisionIds": [
          10140560
        ],
        "postalCode": "K1S5X1",
        "streetName": "CAMBRIDGE",
        "streetDirectionId": "S",
        "streetTypeId": "ST",
        "placeName": "OTTAWA",
        "streetNameDisplayText": "CAMBRIDGE ST S, OTTAWA"
      }
    ]
  },
  {
    "postal": "K1S6S2",
    "result": []
  },
  {
    "postal": "K1S2A2",
    "result": [
      {
        "electoralDistricts": [
          {
            "election": null,
            "id": 78,
            "name": "Ottawa Centre"
          }
        ],
        "pollDivisionIds": [
          10140560
        ],
        "postalCode": "K1S2A2",
        "streetName": "POWELL",
        "streetDirectionId": null,
        "streetTypeId": "AVE",
        "placeName": "OTTAWA",
        "streetNameDisplayText": "POWELL AVE, OTTAWA"
      }
    ]
  },
  {
    "postal": "K1S6A6",
    "result": []
  },
  {
    "postal": "K1S0S3",
    "result": [
      {
        "electoralDistricts": [
          {
            "election": null,
            "id": 78,
            "name": "Ottawa Centre"
          }
        ],
        "pollDivisionIds": [
          10140571
        ],
        "postalCode": "K1S0S3",
        "streetName": "SUNNYSIDE",
        "streetDirectionId": null,
        "streetTypeId": "AVE",
        "placeName": "OTTAWA",
        "streetNameDisplayText": "SUNNYSIDE AVE, OTTAWA"
      }
    ]
  },
  {
    "postal": "K1S3E7",
    "result": [
      {
        "electoralDistricts": [
          {
            "election": null,
            "id": 78,
            "name": "Ottawa Centre"
          }
        ],
        "pollDivisionIds": [
          10140556
        ],
        "postalCode": "K1S3E7",
        "streetName": "HENRY",
        "streetDirectionId": null,
        "streetTypeId": "ST",
        "placeName": "OTTAWA",
        "streetNameDisplayText": "HENRY ST, OTTAWA"
      }
    ]
  },
  {
    "postal": "K1S5R7",
    "result": []
  },
  {
    "postal": "K1S3R6",
    "result": [
      {
        "electoralDistricts": [
          {
            "election": null,
            "id": 78,
            "name": "Ottawa Centre"
          }
        ],
        "pollDivisionIds": [
          10140570
        ],
        "postalCode": "K1S3R6",
        "streetName": "O'CONNOR",
        "streetDirectionId": null,
        "streetTypeId": "ST",
        "placeName": "OTTAWA",
        "streetNameDisplayText": "O'CONNOR ST, OTTAWA"
      }
    ]
  },
  {
    "postal": "K1S6K4",
    "result": []
  },
  {
    "postal": "K1S2W5",
    "result": [
      {
        "electoralDistricts": [
          {
            "election": null,
            "id": 78,
            "name": "Ottawa Centre"
          }
        ],
        "pollDivisionIds": [
          10140565
        ],
        "postalCode": "K1S2W5",
        "streetName": "PANSY",
        "streetDirectionId": null,
        "streetTypeId": "AVE",
        "placeName": "OTTAWA",
        "streetNameDisplayText": "PANSY AVE, OTTAWA"
      }
    ]
  },
  {
    "postal": "K1S8W4",
    "result": []
  },
  {
    "postal": "K1S9C2",
    "result": []
  },
  {
    "postal": "K1S2C0",
    "result": []
  },
  {
    "postal": "K1S0E1",
    "result": [
      {
        "electoralDistricts": [
          {
            "election": null,
            "id": 78,
            "name": "Ottawa Centre"
          }
        ],
        "pollDivisionIds": [
          10143893
        ],
        "postalCode": "K1S0E1",
        "streetName": "EVELYN",
        "streetDirectionId": null,
        "streetTypeId": "AVE",
        "placeName": "OTTAWA",
        "streetNameDisplayText": "EVELYN AVE, OTTAWA"
      }
    ]
  },
  {
    "postal": "K1S1K9",
    "result": [
      {
        "electoralDistricts": [
          {
            "election": null,
            "id": 78,
            "name": "Ottawa Centre"
          }
        ],
        "pollDivisionIds": [
          10140574
        ],
        "postalCode": "K1S1K9",
        "streetName": "MCGILLIVRAY",
        "streetDirectionId": null,
        "streetTypeId": "ST",
        "placeName": "OTTAWA",
        "streetNameDisplayText": "MCGILLIVRAY ST, OTTAWA"
      }
    ]
  },
  {
    "postal": "K1S1G7",
    "result": [
      {
        "electoralDistricts": [
          {
            "election": null,
            "id": 78,
            "name": "Ottawa Centre"
          }
        ],
        "pollDivisionIds": [
          10140574
        ],
        "postalCode": "K1S1G7",
        "streetName": "BULLOCK",
        "streetDirectionId": null,
        "streetTypeId": "AVE",
        "placeName": "OTTAWA",
        "streetNameDisplayText": "BULLOCK AVE, OTTAWA"
      }
    ]
  },
  {
    "postal": "K1S4E9",
    "result": [
      {
        "electoralDistricts": [
          {
            "election": null,
            "id": 78,
            "name": "Ottawa Centre"
          }
        ],
        "pollDivisionIds": [
          10140556
        ],
        "postalCode": "K1S4E9",
        "streetName": "BRONSON",
        "streetDirectionId": null,
        "streetTypeId": "AVE",
        "placeName": "OTTAWA",
        "streetNameDisplayText": "BRONSON AVE, OTTAWA"
      }
    ]
  },
  {
    "postal": "K1S9P0",
    "result": []
  },
  {
    "postal": "K1S5H3",
    "result": [
      {
        "electoralDistricts": [
          {
            "election": null,
            "id": 78,
            "name": "Ottawa Centre"
          }
        ],
        "pollDivisionIds": [
          10140574
        ],
        "postalCode": "K1S5H3",
        "streetName": "JEREMIAH KEALEY",
        "streetDirectionId": null,
        "streetTypeId": "ST",
        "placeName": "OTTAWA",
        "streetNameDisplayText": "JEREMIAH KEALEY ST, OTTAWA"
      },
      {
        "electoralDistricts": [
          {
            "election": null,
            "id": 78,
            "name": "Ottawa Centre"
          }
        ],
        "pollDivisionIds": [
          10140569
        ],
        "postalCode": "K1S5H3",
        "streetName": "O'CONNOR",
        "streetDirectionId": null,
        "streetTypeId": "ST",
        "placeName": "OTTAWA",
        "streetNameDisplayText": "O'CONNOR ST, OTTAWA"
      }
    ]
  },
  {
    "postal": "K1S9X6",
    "result": []
  },
  {
    "postal": "K1S5N7",
    "result": [
      {
        "electoralDistricts": [
          {
            "election": null,
            "id": 78,
            "name": "Ottawa Centre"
          }
        ],
        "pollDivisionIds": [
          10140551
        ],
        "postalCode": "K1S5N7",
        "streetName": "LORETTA",
        "streetDirectionId": "S",
        "streetTypeId": "AVE",
        "placeName": "OTTAWA",
        "streetNameDisplayText": "LORETTA AVE S, OTTAWA"
      }
    ]
  },
  {
    "postal": "K1S5A6",
    "result": [
      {
        "electoralDistricts": [
          {
            "election": null,
            "id": 78,
            "name": "Ottawa Centre"
          }
        ],
        "pollDivisionIds": [
          10143893
        ],
        "postalCode": "K1S5A6",
        "streetName": "EVELYN",
        "streetDirectionId": null,
        "streetTypeId": "AVE",
        "placeName": "OTTAWA",
        "streetNameDisplayText": "EVELYN AVE, OTTAWA"
      }
    ]
  },
  {
    "postal": "K1S4M0",
    "result": []
  },
  {
    "postal": "K1S3V6",
    "result": [
      {
        "electoralDistricts": [
          {
            "election": null,
            "id": 78,
            "name": "Ottawa Centre"
          }
        ],
        "pollDivisionIds": [
          10140560
        ],
        "postalCode": "K1S3V6",
        "streetName": "BANK",
        "streetDirectionId": null,
        "streetTypeId": "ST",
        "placeName": "OTTAWA",
        "streetNameDisplayText": "BANK ST, OTTAWA"
      }
    ]
  },
  {
    "postal": "K1S1L7",
    "result": [
      {
        "electoralDistricts": [
          {
            "election": null,
            "id": 78,
            "name": "Ottawa Centre"
          }
        ],
        "pollDivisionIds": [
          10140574
        ],
        "postalCode": "K1S1L7",
        "streetName": "MUTCHMOR",
        "streetDirectionId": null,
        "streetTypeId": "RD",
        "placeName": "OTTAWA",
        "streetNameDisplayText": "MUTCHMOR RD, OTTAWA"
      }
    ]
  },
  {
    "postal": "K1S2P9",
    "result": [
      {
        "electoralDistricts": [
          {
            "election": null,
            "id": 78,
            "name": "Ottawa Centre"
          }
        ],
        "pollDivisionIds": [
          10140566
        ],
        "postalCode": "K1S2P9",
        "streetName": "HOLMWOOD",
        "streetDirectionId": null,
        "streetTypeId": "AVE",
        "placeName": "OTTAWA",
        "streetNameDisplayText": "HOLMWOOD AVE, OTTAWA"
      }
    ]
  },
  {
    "postal": "K1S5T4",
    "result": [
      {
        "electoralDistricts": [
          {
            "election": null,
            "id": 78,
            "name": "Ottawa Centre"
          }
        ],
        "pollDivisionIds": [
          10140556
        ],
        "postalCode": "K1S5T4",
        "streetName": "POWELL",
        "streetDirectionId": null,
        "streetTypeId": "AVE",
        "placeName": "OTTAWA",
        "streetNameDisplayText": "POWELL AVE, OTTAWA"
      }
    ]
  },
  {
    "postal": "K1S5Z1",
    "result": []
  },
  {
    "postal": "K1S2X0",
    "result": []
  },
  {
    "postal": "K1S6Z2",
    "result": []
  },
  {
    "postal": "K1S0E0",
    "result": []
  },
  {
    "postal": "K1S3Z5",
    "result": [
      {
        "electoralDistricts": [
          {
            "election": null,
            "id": 78,
            "name": "Ottawa Centre"
          }
        ],
        "pollDivisionIds": [
          10140560
        ],
        "postalCode": "K1S3Z5",
        "streetName": "LYON",
        "streetDirectionId": "S",
        "streetTypeId": "ST",
        "placeName": "OTTAWA",
        "streetNameDisplayText": "LYON ST S, OTTAWA"
      }
    ]
  },
  {
    "postal": "K1S8H3",
    "result": []
  },
  {
    "postal": "K1S7S6",
    "result": []
  },
  {
    "postal": "K1S4C1",
    "result": [
      {
        "electoralDistricts": [
          {
            "election": null,
            "id": 78,
            "name": "Ottawa Centre"
          }
        ],
        "pollDivisionIds": [
          10140566
        ],
        "postalCode": "K1S4C1",
        "streetName": "CRAIG",
        "streetDirectionId": null,
        "streetTypeId": "ST",
        "placeName": "OTTAWA",
        "streetNameDisplayText": "CRAIG ST, OTTAWA"
      }
    ]
  },
  {
    "postal": "K1S3K2",
    "result": [
      {
        "electoralDistricts": [
          {
            "election": null,
            "id": 78,
            "name": "Ottawa Centre"
          }
        ],
        "pollDivisionIds": [
          10140551
        ],
        "postalCode": "K1S3K2",
        "streetName": "BEECH",
        "streetDirectionId": null,
        "streetTypeId": "ST",
        "placeName": "OTTAWA",
        "streetNameDisplayText": "BEECH ST, OTTAWA"
      }
    ]
  },
  {
    "postal": "K1S1Y5",
    "result": [
      {
        "electoralDistricts": [
          {
            "election": null,
            "id": 78,
            "name": "Ottawa Centre"
          }
        ],
        "pollDivisionIds": [
          10140569
        ],
        "postalCode": "K1S1Y5",
        "streetName": "PATTERSON",
        "streetDirectionId": null,
        "streetTypeId": "AVE",
        "placeName": "OTTAWA",
        "streetNameDisplayText": "PATTERSON AVE, OTTAWA"
      }
    ]
  },
  {
    "postal": "K1S6P6",
    "result": []
  },
  {
    "postal": "K1S3N9",
    "result": [
      {
        "electoralDistricts": [
          {
            "election": null,
            "id": 78,
            "name": "Ottawa Centre"
          }
        ],
        "pollDivisionIds": [
          10140570
        ],
        "postalCode": "K1S3N9",
        "streetName": "METCALFE",
        "streetDirectionId": null,
        "streetTypeId": "ST",
        "placeName": "OTTAWA",
        "streetNameDisplayText": "METCALFE ST, OTTAWA"
      }
    ]
  },
  {
    "postal": "K1S3W2",
    "result": [
      {
        "electoralDistricts": [
          {
            "election": null,
            "id": 78,
            "name": "Ottawa Centre"
          }
        ],
        "pollDivisionIds": [
          10140569
        ],
        "postalCode": "K1S3W2",
        "streetName": "BANK",
        "streetDirectionId": null,
        "streetTypeId": "ST",
        "placeName": "OTTAWA",
        "streetNameDisplayText": "BANK ST, OTTAWA"
      }
    ]
  },
  {
    "postal": "K1S6H8",
    "result": []
  },
  {
    "postal": "K1S9T3",
    "result": []
  },
  {
    "postal": "K1S5L9",
    "result": [
      {
        "electoralDistricts": [
          {
            "election": null,
            "id": 78,
            "name": "Ottawa Centre"
          }
        ],
        "pollDivisionIds": [
          10143893
        ],
        "postalCode": "K1S5L9",
        "streetName": "SIMCOE",
        "streetDirectionId": null,
        "streetTypeId": "ST",
        "placeName": "OTTAWA",
        "streetNameDisplayText": "SIMCOE ST, OTTAWA"
      }
    ]
  },
  {
    "postal": "K1S7X7",
    "result": []
  },
  {
    "postal": "K1S3J5",
    "result": [
      {
        "electoralDistricts": [
          {
            "election": null,
            "id": 78,
            "name": "Ottawa Centre"
          }
        ],
        "pollDivisionIds": [
          10140556
        ],
        "postalCode": "K1S3J5",
        "streetName": "ABERDEEN",
        "streetDirectionId": null,
        "streetTypeId": "ST",
        "placeName": "OTTAWA",
        "streetNameDisplayText": "ABERDEEN ST, OTTAWA"
      }
    ]
  },
  {
    "postal": "K1S4J5",
    "result": [
      {
        "electoralDistricts": [
          {
            "election": null,
            "id": 78,
            "name": "Ottawa Centre"
          }
        ],
        "pollDivisionIds": [
          10140560
        ],
        "postalCode": "K1S4J5",
        "streetName": "CAMBRIDGE",
        "streetDirectionId": "S",
        "streetTypeId": "ST",
        "placeName": "OTTAWA",
        "streetNameDisplayText": "CAMBRIDGE ST S, OTTAWA"
      }
    ]
  },
  {
    "postal": "K1S6J2",
    "result": []
  },
  {
    "postal": "K1S5V6",
    "result": [
      {
        "electoralDistricts": [
          {
            "election": null,
            "id": 78,
            "name": "Ottawa Centre"
          }
        ],
        "pollDivisionIds": [
          10143893
        ],
        "postalCode": "K1S5V6",
        "streetName": "EVELYN",
        "streetDirectionId": null,
        "streetTypeId": "AVE",
        "placeName": "OTTAWA",
        "streetNameDisplayText": "EVELYN AVE, OTTAWA"
      }
    ]
  },
  {
    "postal": "K1S3N2",
    "result": []
  },
  {
    "postal": "K1S3B1",
    "result": [
      {
        "electoralDistricts": [
          {
            "election": null,
            "id": 78,
            "name": "Ottawa Centre"
          }
        ],
        "pollDivisionIds": [
          10140565
        ],
        "postalCode": "K1S3B1",
        "streetName": "GROVE",
        "streetDirectionId": null,
        "streetTypeId": "AVE",
        "placeName": "OTTAWA",
        "streetNameDisplayText": "GROVE AVE, OTTAWA"
      }
    ]
  },
  {
    "postal": "K1S8B5",
    "result": []
  },
  {
    "postal": "K1S0K1",
    "result": [
      {
        "electoralDistricts": [
          {
            "election": null,
            "id": 78,
            "name": "Ottawa Centre"
          }
        ],
        "pollDivisionIds": [
          10140574
        ],
        "postalCode": "K1S0K1",
        "streetName": "BOWER",
        "streetDirectionId": null,
        "streetTypeId": "AVE",
        "placeName": "OTTAWA",
        "streetNameDisplayText": "BOWER AVE, OTTAWA"
      }
    ]
  },
  {
    "postal": "K1S7M7",
    "result": []
  },
  {
    "postal": "K1S2M2",
    "result": [
      {
        "electoralDistricts": [
          {
            "election": null,
            "id": 78,
            "name": "Ottawa Centre"
          }
        ],
        "pollDivisionIds": [
          10140570
        ],
        "postalCode": "K1S2M2",
        "streetName": "FIFTH",
        "streetDirectionId": null,
        "streetTypeId": "AVE",
        "placeName": "OTTAWA",
        "streetNameDisplayText": "FIFTH AVE, OTTAWA"
      }
    ]
  },
  {
    "postal": "K1S9N3",
    "result": []
  },
  {
    "postal": "K1S4Y8",
    "result": [
      {
        "electoralDistricts": [
          {
            "election": null,
            "id": 78,
            "name": "Ottawa Centre"
          }
        ],
        "pollDivisionIds": [
          10140565
        ],
        "postalCode": "K1S4Y8",
        "streetName": "FULTON",
        "streetDirectionId": null,
        "streetTypeId": "AVE",
        "placeName": "OTTAWA",
        "streetNameDisplayText": "FULTON AVE, OTTAWA"
      }
    ]
  },
  {
    "postal": "K1S3V7",
    "result": [
      {
        "electoralDistricts": [
          {
            "election": null,
            "id": 78,
            "name": "Ottawa Centre"
          }
        ],
        "pollDivisionIds": [
          10140569
        ],
        "postalCode": "K1S3V7",
        "streetName": "BANK",
        "streetDirectionId": null,
        "streetTypeId": "ST",
        "placeName": "OTTAWA",
        "streetNameDisplayText": "BANK ST, OTTAWA"
      }
    ]
  },
  {
    "postal": "K1S8Z1",
    "result": []
  },
  {
    "postal": "K1S7B3",
    "result": []
  },
  {
    "postal": "K1S3A8",
    "result": [
      {
        "electoralDistricts": [
          {
            "election": null,
            "id": 78,
            "name": "Ottawa Centre"
          }
        ],
        "pollDivisionIds": [
          10140571
        ],
        "postalCode": "K1S3A8",
        "streetName": "GROVE",
        "streetDirectionId": null,
        "streetTypeId": "AVE",
        "placeName": "OTTAWA",
        "streetNameDisplayText": "GROVE AVE, OTTAWA"
      }
    ]
  },
  {
    "postal": "K1S7V5",
    "result": []
  },
  {
    "postal": "K1S2T2",
    "result": [
      {
        "electoralDistricts": [
          {
            "election": null,
            "id": 78,
            "name": "Ottawa Centre"
          }
        ],
        "pollDivisionIds": [
          10140566
        ],
        "postalCode": "K1S2T2",
        "streetName": "OAKLAND",
        "streetDirectionId": null,
        "streetTypeId": "AVE",
        "placeName": "OTTAWA",
        "streetNameDisplayText": "OAKLAND AVE, OTTAWA"
      }
    ]
  },
  {
    "postal": "K1S6L3",
    "result": []
  },
  {
    "postal": "K1S0L2",
    "result": [
      {
        "electoralDistricts": [
          {
            "election": null,
            "id": 78,
            "name": "Ottawa Centre"
          }
        ],
        "pollDivisionIds": [
          10140574
        ],
        "postalCode": "K1S0L2",
        "streetName": "MASON",
        "streetDirectionId": null,
        "streetTypeId": "TERR",
        "placeName": "OTTAWA",
        "streetNameDisplayText": "MASON TERR, OTTAWA"
      }
    ]
  },
  {
    "postal": "K1S5Y8",
    "result": []
  },
  {
    "postal": "K1S0B8",
    "result": [
      {
        "electoralDistricts": [
          {
            "election": null,
            "id": 78,
            "name": "Ottawa Centre"
          }
        ],
        "pollDivisionIds": [
          10143893
        ],
        "postalCode": "K1S0B8",
        "streetName": "LEES",
        "streetDirectionId": null,
        "streetTypeId": "AVE",
        "placeName": "OTTAWA",
        "streetNameDisplayText": "LEES AVE, OTTAWA"
      }
    ]
  },
  {
    "postal": "K1S6R5",
    "result": []
  },
  {
    "postal": "K1S8W6",
    "result": []
  },
  {
    "postal": "K1S8G6",
    "result": []
  },
  {
    "postal": "K1S6X3",
    "result": []
  },
  {
    "postal": "K1S7R7",
    "result": []
  },
  {
    "postal": "K1S4B6",
    "result": [
      {
        "electoralDistricts": [
          {
            "election": null,
            "id": 78,
            "name": "Ottawa Centre"
          }
        ],
        "pollDivisionIds": [
          10140566
        ],
        "postalCode": "K1S4B6",
        "streetName": "CRAIG",
        "streetDirectionId": null,
        "streetTypeId": "ST",
        "placeName": "OTTAWA",
        "streetNameDisplayText": "CRAIG ST, OTTAWA"
      }
    ]
  },
  {
    "postal": "K1S3P9",
    "result": [
      {
        "electoralDistricts": [
          {
            "election": null,
            "id": 78,
            "name": "Ottawa Centre"
          }
        ],
        "pollDivisionIds": [
          10140569
        ],
        "postalCode": "K1S3P9",
        "streetName": "O'CONNOR",
        "streetDirectionId": null,
        "streetTypeId": "ST",
        "placeName": "OTTAWA",
        "streetNameDisplayText": "O'CONNOR ST, OTTAWA"
      }
    ]
  },
  {
    "postal": "K1S2T3",
    "result": [
      {
        "electoralDistricts": [
          {
            "election": null,
            "id": 78,
            "name": "Ottawa Centre"
          }
        ],
        "pollDivisionIds": [
          10140566
        ],
        "postalCode": "K1S2T3",
        "streetName": "WILTON",
        "streetDirectionId": null,
        "streetTypeId": "CRES",
        "placeName": "OTTAWA",
        "streetNameDisplayText": "WILTON CRES, OTTAWA"
      }
    ]
  },
  {
    "postal": "K1S1M4",
    "result": [
      {
        "electoralDistricts": [
          {
            "election": null,
            "id": 78,
            "name": "Ottawa Centre"
          }
        ],
        "pollDivisionIds": [
          10140574
        ],
        "postalCode": "K1S1M4",
        "streetName": "GLENVIEW",
        "streetDirectionId": null,
        "streetTypeId": "AVE",
        "placeName": "OTTAWA",
        "streetNameDisplayText": "GLENVIEW AVE, OTTAWA"
      }
    ]
  },
  {
    "postal": "K1S0H1",
    "result": [
      {
        "electoralDistricts": [
          {
            "election": null,
            "id": 78,
            "name": "Ottawa Centre"
          }
        ],
        "pollDivisionIds": [
          10140574
        ],
        "postalCode": "K1S0H1",
        "streetName": "HERRIDGE",
        "streetDirectionId": null,
        "streetTypeId": "ST",
        "placeName": "OTTAWA",
        "streetNameDisplayText": "HERRIDGE ST, OTTAWA"
      }
    ]
  },
  {
    "postal": "K1S9W3",
    "result": []
  },
  {
    "postal": "K1S6P1",
    "result": []
  },
  {
    "postal": "K1S7G2",
    "result": []
  },
  {
    "postal": "K1S4J9",
    "result": [
      {
        "electoralDistricts": [
          {
            "election": null,
            "id": 78,
            "name": "Ottawa Centre"
          }
        ],
        "pollDivisionIds": [
          10140556
        ],
        "postalCode": "K1S4J9",
        "streetName": "BELL",
        "streetDirectionId": "S",
        "streetTypeId": "ST",
        "placeName": "OTTAWA",
        "streetNameDisplayText": "BELL ST S, OTTAWA"
      }
    ]
  },
  {
    "postal": "K1S9E4",
    "result": []
  },
  {
    "postal": "K1S8H0",
    "result": []
  },
  {
    "postal": "K1S4M7",
    "result": [
      {
        "electoralDistricts": [
          {
            "election": null,
            "id": 78,
            "name": "Ottawa Centre"
          }
        ],
        "pollDivisionIds": [
          10140556
        ],
        "postalCode": "K1S4M7",
        "streetName": "PRESTON",
        "streetDirectionId": null,
        "streetTypeId": "ST",
        "placeName": "OTTAWA",
        "streetNameDisplayText": "PRESTON ST, OTTAWA"
      }
    ]
  },
  {
    "postal": "K1S2G9",
    "result": [
      {
        "electoralDistricts": [
          {
            "election": null,
            "id": 78,
            "name": "Ottawa Centre"
          }
        ],
        "pollDivisionIds": [
          10140560
        ],
        "postalCode": "K1S2G9",
        "streetName": "FIRST",
        "streetDirectionId": null,
        "streetTypeId": "AVE",
        "placeName": "OTTAWA",
        "streetNameDisplayText": "FIRST AVE, OTTAWA"
      }
    ]
  },
  {
    "postal": "K1S8T2",
    "result": []
  },
  {
    "postal": "K1S7G7",
    "result": []
  },
  {
    "postal": "K1S4Z3",
    "result": [
      {
        "electoralDistricts": [
          {
            "election": null,
            "id": 78,
            "name": "Ottawa Centre"
          }
        ],
        "pollDivisionIds": [
          10140571
        ],
        "postalCode": "K1S4Z3",
        "streetName": "HARVARD",
        "streetDirectionId": null,
        "streetTypeId": "AVE",
        "placeName": "OTTAWA",
        "streetNameDisplayText": "HARVARD AVE, OTTAWA"
      }
    ]
  },
  {
    "postal": "K1S5B3",
    "result": []
  },
  {
    "postal": "K1S1S7",
    "result": [
      {
        "electoralDistricts": [
          {
            "election": null,
            "id": 78,
            "name": "Ottawa Centre"
          }
        ],
        "pollDivisionIds": [
          10140573
        ],
        "postalCode": "K1S1S7",
        "streetName": "BELLWOOD",
        "streetDirectionId": null,
        "streetTypeId": "AVE",
        "placeName": "OTTAWA",
        "streetNameDisplayText": "BELLWOOD AVE, OTTAWA"
      }
    ]
  },
  {
    "postal": "K1S2N7",
    "result": [
      {
        "electoralDistricts": [
          {
            "election": null,
            "id": 78,
            "name": "Ottawa Centre"
          }
        ],
        "pollDivisionIds": [
          10140566
        ],
        "postalCode": "K1S2N7",
        "streetName": "FIFTH",
        "streetDirectionId": null,
        "streetTypeId": "AVE",
        "placeName": "OTTAWA",
        "streetNameDisplayText": "FIFTH AVE, OTTAWA"
      }
    ]
  },
  {
    "postal": "K1S0H8",
    "result": [
      {
        "electoralDistricts": [
          {
            "election": null,
            "id": 78,
            "name": "Ottawa Centre"
          }
        ],
        "pollDivisionIds": [
          10140574
        ],
        "postalCode": "K1S0H8",
        "streetName": "CLEGG",
        "streetDirectionId": null,
        "streetTypeId": "ST",
        "placeName": "OTTAWA",
        "streetNameDisplayText": "CLEGG ST, OTTAWA"
      }
    ]
  },
  {
    "postal": "K1S7Z4",
    "result": []
  },
  {
    "postal": "K1S7B1",
    "result": []
  },
  {
    "postal": "K1S7P8",
    "result": []
  },
  {
    "postal": "K1S7N0",
    "result": []
  },
  {
    "postal": "K1S3Y5",
    "result": [
      {
        "electoralDistricts": [
          {
            "election": null,
            "id": 78,
            "name": "Ottawa Centre"
          }
        ],
        "pollDivisionIds": [
          10140566
        ],
        "postalCode": "K1S3Y5",
        "streetName": "MONK",
        "streetDirectionId": null,
        "streetTypeId": "ST",
        "placeName": "OTTAWA",
        "streetNameDisplayText": "MONK ST, OTTAWA"
      }
    ]
  },
  {
    "postal": "K1S6K1",
    "result": []
  },
  {
    "postal": "K1S9X5",
    "result": []
  },
  {
    "postal": "K1S7S5",
    "result": []
  },
  {
    "postal": "K1S0A4",
    "result": [
      {
        "electoralDistricts": [
          {
            "election": null,
            "id": 78,
            "name": "Ottawa Centre"
          }
        ],
        "pollDivisionIds": [
          10143893
        ],
        "postalCode": "K1S0A4",
        "streetName": "HAVELOCK",
        "streetDirectionId": null,
        "streetTypeId": "ST",
        "placeName": "OTTAWA",
        "streetNameDisplayText": "HAVELOCK ST, OTTAWA"
      }
    ]
  },
  {
    "postal": "K1S4T5",
    "result": [
      {
        "electoralDistricts": [
          {
            "election": null,
            "id": 78,
            "name": "Ottawa Centre"
          }
        ],
        "pollDivisionIds": [
          10140571
        ],
        "postalCode": "K1S4T5",
        "streetName": "ROSEDALE",
        "streetDirectionId": null,
        "streetTypeId": "AVE",
        "placeName": "OTTAWA",
        "streetNameDisplayText": "ROSEDALE AVE, OTTAWA"
      }
    ]
  },
  {
    "postal": "K1S5K1",
    "result": [
      {
        "electoralDistricts": [
          {
            "election": null,
            "id": 78,
            "name": "Ottawa Centre"
          }
        ],
        "pollDivisionIds": [
          10143893
        ],
        "postalCode": "K1S5K1",
        "streetName": "EVELYN",
        "streetDirectionId": null,
        "streetTypeId": "AVE",
        "placeName": "OTTAWA",
        "streetNameDisplayText": "EVELYN AVE, OTTAWA"
      }
    ]
  },
  {
    "postal": "K1S0Z9",
    "result": [
      {
        "electoralDistricts": [
          {
            "election": null,
            "id": 78,
            "name": "Ottawa Centre"
          }
        ],
        "pollDivisionIds": [
          10143893
        ],
        "postalCode": "K1S0Z9",
        "streetName": "CHESTNUT",
        "streetDirectionId": null,
        "streetTypeId": "ST",
        "placeName": "OTTAWA",
        "streetNameDisplayText": "CHESTNUT ST, OTTAWA"
      }
    ]
  },
  {
    "postal": "K1S7T2",
    "result": []
  },
  {
    "postal": "K1S1L5",
    "result": [
      {
        "electoralDistricts": [
          {
            "election": null,
            "id": 78,
            "name": "Ottawa Centre"
          }
        ],
        "pollDivisionIds": [
          10140574
        ],
        "postalCode": "K1S1L5",
        "streetName": "MUTCHMOR",
        "streetDirectionId": null,
        "streetTypeId": "RD",
        "placeName": "OTTAWA",
        "streetNameDisplayText": "MUTCHMOR RD, OTTAWA"
      }
    ]
  },
  {
    "postal": "K1S3N5",
    "result": [
      {
        "electoralDistricts": [
          {
            "election": null,
            "id": 78,
            "name": "Ottawa Centre"
          }
        ],
        "pollDivisionIds": [
          10140566
        ],
        "postalCode": "K1S3N5",
        "streetName": "QUEEN ELIZABETH",
        "streetDirectionId": null,
        "streetTypeId": "DR",
        "placeName": "OTTAWA",
        "streetNameDisplayText": "QUEEN ELIZABETH DR, OTTAWA"
      }
    ]
  },
  {
    "postal": "K1S6H4",
    "result": []
  },
  {
    "postal": "K1S5A5",
    "result": [
      {
        "electoralDistricts": [
          {
            "election": null,
            "id": 78,
            "name": "Ottawa Centre"
          }
        ],
        "pollDivisionIds": [
          10140551
        ],
        "postalCode": "K1S5A5",
        "streetName": "LORETTA",
        "streetDirectionId": "S",
        "streetTypeId": "AVE",
        "placeName": "OTTAWA",
        "streetNameDisplayText": "LORETTA AVE S, OTTAWA"
      }
    ]
  },
  {
    "postal": "K1S3R9",
    "result": [
      {
        "electoralDistricts": [
          {
            "election": null,
            "id": 78,
            "name": "Ottawa Centre"
          }
        ],
        "pollDivisionIds": [
          10140569
        ],
        "postalCode": "K1S3R9",
        "streetName": "ADELAIDE",
        "streetDirectionId": null,
        "streetTypeId": "ST",
        "placeName": "OTTAWA",
        "streetNameDisplayText": "ADELAIDE ST, OTTAWA"
      }
    ]
  },
  {
    "postal": "K1S7L8",
    "result": []
  },
  {
    "postal": "K1S6T6",
    "result": []
  },
  {
    "postal": "K1S7Y7",
    "result": []
  },
  {
    "postal": "K1S3M8",
    "result": [
      {
        "electoralDistricts": [
          {
            "election": null,
            "id": 78,
            "name": "Ottawa Centre"
          }
        ],
        "pollDivisionIds": [
          10140570
        ],
        "postalCode": "K1S3M8",
        "streetName": "QUEEN ELIZABETH",
        "streetDirectionId": null,
        "streetTypeId": "DR",
        "placeName": "OTTAWA",
        "streetNameDisplayText": "QUEEN ELIZABETH DR, OTTAWA"
      }
    ]
  },
  {
    "postal": "K1S2E0",
    "result": []
  },
  {
    "postal": "K1S4B5",
    "result": [
      {
        "electoralDistricts": [
          {
            "election": null,
            "id": 78,
            "name": "Ottawa Centre"
          }
        ],
        "pollDivisionIds": [
          10140566
        ],
        "postalCode": "K1S4B5",
        "streetName": "PERCY",
        "streetDirectionId": null,
        "streetTypeId": "ST",
        "placeName": "OTTAWA",
        "streetNameDisplayText": "PERCY ST, OTTAWA"
      }
    ]
  },
  {
    "postal": "K1S1J3",
    "result": [
      {
        "electoralDistricts": [
          {
            "election": null,
            "id": 78,
            "name": "Ottawa Centre"
          }
        ],
        "pollDivisionIds": [
          10143893
        ],
        "postalCode": "K1S1J3",
        "streetName": "GLENORA",
        "streetDirectionId": null,
        "streetTypeId": "ST",
        "placeName": "OTTAWA",
        "streetNameDisplayText": "GLENORA ST, OTTAWA"
      }
    ]
  },
  {
    "postal": "K1S5S6",
    "result": []
  },
  {
    "postal": "K1S8P7",
    "result": []
  },
  {
    "postal": "K1S7S7",
    "result": []
  },
  {
    "postal": "K1S4C2",
    "result": [
      {
        "electoralDistricts": [
          {
            "election": null,
            "id": 78,
            "name": "Ottawa Centre"
          }
        ],
        "pollDivisionIds": [
          10140560
        ],
        "postalCode": "K1S4C2",
        "streetName": "CHRYSLER",
        "streetDirectionId": null,
        "streetTypeId": "ST",
        "placeName": "OTTAWA",
        "streetNameDisplayText": "CHRYSLER ST, OTTAWA"
      }
    ]
  },
  {
    "postal": "K1S5Y0",
    "result": []
  },
  {
    "postal": "K1S2V7",
    "result": [
      {
        "electoralDistricts": [
          {
            "election": null,
            "id": 78,
            "name": "Ottawa Centre"
          }
        ],
        "pollDivisionIds": [
          10140566
        ],
        "postalCode": "K1S2V7",
        "streetName": "BROADWAY",
        "streetDirectionId": null,
        "streetTypeId": "AVE",
        "placeName": "OTTAWA",
        "streetNameDisplayText": "BROADWAY AVE, OTTAWA"
      }
    ]
  },
  {
    "postal": "K1S8P5",
    "result": []
  },
  {
    "postal": "K1S5P5",
    "result": []
  },
  {
    "postal": "K1S5Z0",
    "result": []
  },
  {
    "postal": "K1S9B0",
    "result": []
  },
  {
    "postal": "K1S1L0",
    "result": []
  },
  {
    "postal": "K1S0B5",
    "result": [
      {
        "electoralDistricts": [
          {
            "election": null,
            "id": 78,
            "name": "Ottawa Centre"
          }
        ],
        "pollDivisionIds": [
          10143893
        ],
        "postalCode": "K1S0B5",
        "streetName": "HAWTHORNE",
        "streetDirectionId": null,
        "streetTypeId": "AVE",
        "placeName": "OTTAWA",
        "streetNameDisplayText": "HAWTHORNE AVE, OTTAWA"
      }
    ]
  },
  {
    "postal": "K1S3L2",
    "result": [
      {
        "electoralDistricts": [
          {
            "election": null,
            "id": 78,
            "name": "Ottawa Centre"
          }
        ],
        "pollDivisionIds": [
          10140556
        ],
        "postalCode": "K1S3L2",
        "streetName": "ADELINE",
        "streetDirectionId": null,
        "streetTypeId": "ST",
        "placeName": "OTTAWA",
        "streetNameDisplayText": "ADELINE ST, OTTAWA"
      }
    ]
  },
  {
    "postal": "K1S3B7",
    "result": [
      {
        "electoralDistricts": [
          {
            "election": null,
            "id": 78,
            "name": "Ottawa Centre"
          }
        ],
        "pollDivisionIds": [
          10140565
        ],
        "postalCode": "K1S3B7",
        "streetName": "OSSINGTON",
        "streetDirectionId": null,
        "streetTypeId": "AVE",
        "placeName": "OTTAWA",
        "streetNameDisplayText": "OSSINGTON AVE, OTTAWA"
      }
    ]
  },
  {
    "postal": "K1S8L1",
    "result": []
  },
  {
    "postal": "K1S5M4",
    "result": []
  },
  {
    "postal": "K1S4G9",
    "result": [
      {
        "electoralDistricts": [
          {
            "election": null,
            "id": 78,
            "name": "Ottawa Centre"
          }
        ],
        "pollDivisionIds": [
          10140566
        ],
        "postalCode": "K1S4G9",
        "streetName": "BRONSON",
        "streetDirectionId": null,
        "streetTypeId": "AVE",
        "placeName": "OTTAWA",
        "streetNameDisplayText": "BRONSON AVE, OTTAWA"
      }
    ]
  },
  {
    "postal": "K1S0P0",
    "result": []
  },
  {
    "postal": "K1S8G2",
    "result": []
  },
  {
    "postal": "K1S1V9",
    "result": [
      {
        "electoralDistricts": [
          {
            "election": null,
            "id": 78,
            "name": "Ottawa Centre"
          }
        ],
        "pollDivisionIds": [
          10140560
        ],
        "postalCode": "K1S1V9",
        "streetName": "CHAMBERLAIN",
        "streetDirectionId": null,
        "streetTypeId": "AVE",
        "placeName": "OTTAWA",
        "streetNameDisplayText": "CHAMBERLAIN AVE, OTTAWA"
      }
    ]
  },
  {
    "postal": "K1S8N8",
    "result": []
  },
  {
    "postal": "K1S6S8",
    "result": []
  },
  {
    "postal": "K1S8H2",
    "result": []
  },
  {
    "postal": "K1S5R8",
    "result": [
      {
        "electoralDistricts": [
          {
            "election": null,
            "id": 78,
            "name": "Ottawa Centre"
          }
        ],
        "pollDivisionIds": [
          10140565
        ],
        "postalCode": "K1S5R8",
        "streetName": "SUNNYSIDE",
        "streetDirectionId": null,
        "streetTypeId": "AVE",
        "placeName": "OTTAWA",
        "streetNameDisplayText": "SUNNYSIDE AVE, OTTAWA"
      }
    ]
  },
  {
    "postal": "K1S5L4",
    "result": [
      {
        "electoralDistricts": [
          {
            "election": null,
            "id": 78,
            "name": "Ottawa Centre"
          }
        ],
        "pollDivisionIds": [
          10140566
        ],
        "postalCode": "K1S5L4",
        "streetName": "RALPH",
        "streetDirectionId": null,
        "streetTypeId": "ST",
        "placeName": "OTTAWA",
        "streetNameDisplayText": "RALPH ST, OTTAWA"
      }
    ]
  },
  {
    "postal": "K1S9E1",
    "result": []
  },
  {
    "postal": "K1S1C4",
    "result": [
      {
        "electoralDistricts": [
          {
            "election": null,
            "id": 78,
            "name": "Ottawa Centre"
          }
        ],
        "pollDivisionIds": [
          10140574
        ],
        "postalCode": "K1S1C4",
        "streetName": "MAIN",
        "streetDirectionId": null,
        "streetTypeId": "ST",
        "placeName": "OTTAWA",
        "streetNameDisplayText": "MAIN ST, OTTAWA"
      }
    ]
  },
  {
    "postal": "K1S8W5",
    "result": []
  },
  {
    "postal": "K1S1Y4",
    "result": [
      {
        "electoralDistricts": [
          {
            "election": null,
            "id": 78,
            "name": "Ottawa Centre"
          }
        ],
        "pollDivisionIds": [
          10140569
        ],
        "postalCode": "K1S1Y4",
        "streetName": "PATTERSON",
        "streetDirectionId": null,
        "streetTypeId": "AVE",
        "placeName": "OTTAWA",
        "streetNameDisplayText": "PATTERSON AVE, OTTAWA"
      },
      {
        "electoralDistricts": [
          {
            "election": null,
            "id": 78,
            "name": "Ottawa Centre"
          }
        ],
        "pollDivisionIds": [
          10140569
        ],
        "postalCode": "K1S1Y4",
        "streetName": "PATTERSON",
        "streetDirectionId": null,
        "streetTypeId": "ST",
        "placeName": "OTTAWA",
        "streetNameDisplayText": "PATTERSON ST, OTTAWA"
      }
    ]
  },
  {
    "postal": "K1S1C0",
    "result": []
  },
  {
    "postal": "K1S2J2",
    "result": [
      {
        "electoralDistricts": [
          {
            "election": null,
            "id": 78,
            "name": "Ottawa Centre"
          }
        ],
        "pollDivisionIds": [
          10140560
        ],
        "postalCode": "K1S2J2",
        "streetName": "SECOND",
        "streetDirectionId": null,
        "streetTypeId": "AVE",
        "placeName": "OTTAWA",
        "streetNameDisplayText": "SECOND AVE, OTTAWA"
      }
    ]
  },
  {
    "postal": "K1S2J0",
    "result": []
  },
  {
    "postal": "K1S7A3",
    "result": []
  },
  {
    "postal": "K1S8M1",
    "result": []
  },
  {
    "postal": "K1S7T9",
    "result": []
  },
  {
    "postal": "K1S6C0",
    "result": []
  },
  {
    "postal": "K1S7X1",
    "result": []
  },
  {
    "postal": "K1S0G1",
    "result": [
      {
        "electoralDistricts": [
          {
            "election": null,
            "id": 78,
            "name": "Ottawa Centre"
          }
        ],
        "pollDivisionIds": [
          10143893
        ],
        "postalCode": "K1S0G1",
        "streetName": "HAZEL",
        "streetDirectionId": null,
        "streetTypeId": "ST",
        "placeName": "OTTAWA",
        "streetNameDisplayText": "HAZEL ST, OTTAWA"
      }
    ]
  },
  {
    "postal": "K1S4X2",
    "result": [
      {
        "electoralDistricts": [
          {
            "election": null,
            "id": 78,
            "name": "Ottawa Centre"
          }
        ],
        "pollDivisionIds": [
          10140565
        ],
        "postalCode": "K1S4X2",
        "streetName": "SENECA",
        "streetDirectionId": null,
        "streetTypeId": "ST",
        "placeName": "OTTAWA",
        "streetNameDisplayText": "SENECA ST, OTTAWA"
      }
    ]
  },
  {
    "postal": "K1S0N6",
    "result": [
      {
        "electoralDistricts": [
          {
            "election": null,
            "id": 78,
            "name": "Ottawa Centre"
          }
        ],
        "pollDivisionIds": [
          10140573
        ],
        "postalCode": "K1S0N6",
        "streetName": "AVENUE",
        "streetDirectionId": null,
        "streetTypeId": "RD",
        "placeName": "OTTAWA",
        "streetNameDisplayText": "AVENUE RD, OTTAWA"
      }
    ]
  },
  {
    "postal": "K1S8E3",
    "result": []
  },
  {
    "postal": "K1S5S8",
    "result": [
      {
        "electoralDistricts": [
          {
            "election": null,
            "id": 78,
            "name": "Ottawa Centre"
          }
        ],
        "pollDivisionIds": [
          10140551
        ],
        "postalCode": "K1S5S8",
        "streetName": "CARLING",
        "streetDirectionId": null,
        "streetTypeId": "AVE",
        "placeName": "OTTAWA",
        "streetNameDisplayText": "CARLING AVE, OTTAWA"
      }
    ]
  },
  {
    "postal": "K1S0R0",
    "result": []
  },
  {
    "postal": "K1S6J6",
    "result": []
  },
  {
    "postal": "K1S4B4",
    "result": [
      {
        "electoralDistricts": [
          {
            "election": null,
            "id": 78,
            "name": "Ottawa Centre"
          }
        ],
        "pollDivisionIds": [
          10140566
        ],
        "postalCode": "K1S4B4",
        "streetName": "PERCY",
        "streetDirectionId": null,
        "streetTypeId": "ST",
        "placeName": "OTTAWA",
        "streetNameDisplayText": "PERCY ST, OTTAWA"
      }
    ]
  },
  {
    "postal": "K1S7E3",
    "result": []
  },
  {
    "postal": "K1S3N6",
    "result": [
      {
        "electoralDistricts": [
          {
            "election": null,
            "id": 78,
            "name": "Ottawa Centre"
          }
        ],
        "pollDivisionIds": [
          10140639,
          10140567
        ],
        "postalCode": "K1S3N6",
        "streetName": "METCALFE",
        "streetDirectionId": null,
        "streetTypeId": "ST",
        "placeName": "OTTAWA",
        "streetNameDisplayText": "METCALFE ST, OTTAWA"
      }
    ]
  },
  {
    "postal": "K1S3X6",
    "result": [
      {
        "electoralDistricts": [
          {
            "election": null,
            "id": 78,
            "name": "Ottawa Centre"
          }
        ],
        "pollDivisionIds": [
          10140571
        ],
        "postalCode": "K1S3X6",
        "streetName": "BANK",
        "streetDirectionId": null,
        "streetTypeId": "ST",
        "placeName": "OTTAWA",
        "streetNameDisplayText": "BANK ST, OTTAWA"
      }
    ]
  },
  {
    "postal": "K1S8L0",
    "result": []
  },
  {
    "postal": "K1S8N1",
    "result": []
  },
  {
    "postal": "K1S4J0",
    "result": []
  },
  {
    "postal": "K1S0X7",
    "result": [
      {
        "electoralDistricts": [
          {
            "election": null,
            "id": 78,
            "name": "Ottawa Centre"
          }
        ],
        "pollDivisionIds": [
          10143893
        ],
        "postalCode": "K1S0X7",
        "streetName": "GREENFIELD",
        "streetDirectionId": null,
        "streetTypeId": "AVE",
        "placeName": "OTTAWA",
        "streetNameDisplayText": "GREENFIELD AVE, OTTAWA"
      }
    ]
  },
  {
    "postal": "K1S6S4",
    "result": []
  },
  {
    "postal": "K1S0Z0",
    "result": []
  },
  {
    "postal": "K1S9X8",
    "result": []
  },
  {
    "postal": "K1S3H3",
    "result": [
      {
        "electoralDistricts": [
          {
            "election": null,
            "id": 78,
            "name": "Ottawa Centre"
          }
        ],
        "pollDivisionIds": [
          10140560
        ],
        "postalCode": "K1S3H3",
        "streetName": "LAKEVIEW",
        "streetDirectionId": null,
        "streetTypeId": "TERR",
        "placeName": "OTTAWA",
        "streetNameDisplayText": "LAKEVIEW TERR, OTTAWA"
      }
    ]
  },
  {
    "postal": "K1S7S2",
    "result": []
  },
  {
    "postal": "K1S3T3",
    "result": [
      {
        "electoralDistricts": [
          {
            "election": null,
            "id": 78,
            "name": "Ottawa Centre"
          }
        ],
        "pollDivisionIds": [
          10140560
        ],
        "postalCode": "K1S3T3",
        "streetName": "BANK",
        "streetDirectionId": null,
        "streetTypeId": "ST",
        "placeName": "OTTAWA",
        "streetNameDisplayText": "BANK ST, OTTAWA"
      }
    ]
  },
  {
    "postal": "K1S9P3",
    "result": []
  },
  {
    "postal": "K1S4H8",
    "result": [
      {
        "electoralDistricts": [
          {
            "election": null,
            "id": 78,
            "name": "Ottawa Centre"
          }
        ],
        "pollDivisionIds": [
          10140556
        ],
        "postalCode": "K1S4H8",
        "streetName": "CAMBRIDGE",
        "streetDirectionId": "S",
        "streetTypeId": "ST",
        "placeName": "OTTAWA",
        "streetNameDisplayText": "CAMBRIDGE ST S, OTTAWA"
      },
      {
        "electoralDistricts": [
          {
            "election": null,
            "id": 78,
            "name": "Ottawa Centre"
          }
        ],
        "pollDivisionIds": [
          10140556
        ],
        "postalCode": "K1S4H8",
        "streetName": "CAMBRIDGE ST S.",
        "streetDirectionId": "S",
        "streetTypeId": "ST",
        "placeName": "OTTAWA",
        "streetNameDisplayText": "CAMBRIDGE ST S. ST S, OTTAWA"
      }
    ]
  },
  {
    "postal": "K1S6R1",
    "result": []
  },
  {
    "postal": "K1S1S0",
    "result": []
  },
  {
    "postal": "K1S3W8",
    "result": [
      {
        "electoralDistricts": [
          {
            "election": null,
            "id": 78,
            "name": "Ottawa Centre"
          }
        ],
        "pollDivisionIds": [
          10140566
        ],
        "postalCode": "K1S3W8",
        "streetName": "BANK",
        "streetDirectionId": null,
        "streetTypeId": "ST",
        "placeName": "OTTAWA",
        "streetNameDisplayText": "BANK ST, OTTAWA"
      }
    ]
  },
  {
    "postal": "K1S4S3",
    "result": [
      {
        "electoralDistricts": [
          {
            "election": null,
            "id": 78,
            "name": "Ottawa Centre"
          }
        ],
        "pollDivisionIds": [
          10140571
        ],
        "postalCode": "K1S4S3",
        "streetName": "GROSVENOR",
        "streetDirectionId": null,
        "streetTypeId": "AVE",
        "placeName": "OTTAWA",
        "streetNameDisplayText": "GROSVENOR AVE, OTTAWA"
      }
    ]
  },
  {
    "postal": "K1S1B6",
    "result": [
      {
        "electoralDistricts": [
          {
            "election": null,
            "id": 78,
            "name": "Ottawa Centre"
          }
        ],
        "pollDivisionIds": [
          10143893
        ],
        "postalCode": "K1S1B6",
        "streetName": "MAIN",
        "streetDirectionId": null,
        "streetTypeId": "ST",
        "placeName": "OTTAWA",
        "streetNameDisplayText": "MAIN ST, OTTAWA"
      }
    ]
  },
  {
    "postal": "K1S8R3",
    "result": []
  },
  {
    "postal": "K1S4V9",
    "result": [
      {
        "electoralDistricts": [
          {
            "election": null,
            "id": 78,
            "name": "Ottawa Centre"
          }
        ],
        "pollDivisionIds": [
          10140565
        ],
        "postalCode": "K1S4V9",
        "streetName": "ROSLYN",
        "streetDirectionId": null,
        "streetTypeId": "AVE",
        "placeName": "OTTAWA",
        "streetNameDisplayText": "ROSLYN AVE, OTTAWA"
      }
    ]
  },
  {
    "postal": "K1S9W4",
    "result": []
  },
  {
    "postal": "K1S3T4",
    "result": [
      {
        "electoralDistricts": [
          {
            "election": null,
            "id": 78,
            "name": "Ottawa Centre"
          }
        ],
        "pollDivisionIds": [
          10140569,
          10140560
        ],
        "postalCode": "K1S3T4",
        "streetName": "BANK",
        "streetDirectionId": null,
        "streetTypeId": "ST",
        "placeName": "OTTAWA",
        "streetNameDisplayText": "BANK ST, OTTAWA"
      }
    ]
  },
  {
    "postal": "K1S5C7",
    "result": [
      {
        "electoralDistricts": [
          {
            "election": null,
            "id": 78,
            "name": "Ottawa Centre"
          }
        ],
        "pollDivisionIds": [
          10140565
        ],
        "postalCode": "K1S5C7",
        "streetName": "COLONEL BY",
        "streetDirectionId": null,
        "streetTypeId": "DR",
        "placeName": "OTTAWA",
        "streetNameDisplayText": "COLONEL BY DR, OTTAWA"
      }
    ]
  },
  {
    "postal": "K1S3Y1",
    "result": [
      {
        "electoralDistricts": [
          {
            "election": null,
            "id": 78,
            "name": "Ottawa Centre"
          }
        ],
        "pollDivisionIds": [
          10140571
        ],
        "postalCode": "K1S3Y1",
        "streetName": "BANK",
        "streetDirectionId": null,
        "streetTypeId": "ST",
        "placeName": "OTTAWA",
        "streetNameDisplayText": "BANK ST, OTTAWA"
      }
    ]
  },
  {
    "postal": "K1S5V0",
    "result": []
  },
  {
    "postal": "K1S8G8",
    "result": []
  },
  {
    "postal": "K1S8B1",
    "result": []
  },
  {
    "postal": "K1S4P5",
    "result": []
  },
  {
    "postal": "K1S7B2",
    "result": []
  },
  {
    "postal": "K1S0R2",
    "result": [
      {
        "electoralDistricts": [
          {
            "election": null,
            "id": 78,
            "name": "Ottawa Centre"
          }
        ],
        "pollDivisionIds": [
          10140573
        ],
        "postalCode": "K1S0R2",
        "streetName": "SUNNYSIDE",
        "streetDirectionId": null,
        "streetTypeId": "AVE",
        "placeName": "OTTAWA",
        "streetNameDisplayText": "SUNNYSIDE AVE, OTTAWA"
      },
      {
        "electoralDistricts": [
          {
            "election": null,
            "id": 78,
            "name": "Ottawa Centre"
          }
        ],
        "pollDivisionIds": [
          10140573
        ],
        "postalCode": "K1S0R2",
        "streetName": "SUNNYSIDE",
        "streetDirectionId": null,
        "streetTypeId": "DR",
        "placeName": "OTTAWA",
        "streetNameDisplayText": "SUNNYSIDE DR, OTTAWA"
      }
    ]
  },
  {
    "postal": "K1S4M4",
    "result": [
      {
        "electoralDistricts": [
          {
            "election": null,
            "id": 78,
            "name": "Ottawa Centre"
          }
        ],
        "pollDivisionIds": [
          10140556
        ],
        "postalCode": "K1S4M4",
        "streetName": "NORFOLK",
        "streetDirectionId": null,
        "streetTypeId": "AVE",
        "placeName": "OTTAWA",
        "streetNameDisplayText": "NORFOLK AVE, OTTAWA"
      }
    ]
  },
  {
    "postal": "K1S7M4",
    "result": []
  },
  {
    "postal": "K1S9S7",
    "result": []
  },
  {
    "postal": "K1S5Z7",
    "result": []
  },
  {
    "postal": "K1S7J7",
    "result": []
  },
  {
    "postal": "K1S8R8",
    "result": []
  },
  {
    "postal": "K1S9X1",
    "result": []
  },
  {
    "postal": "K1S5M9",
    "result": [
      {
        "electoralDistricts": [
          {
            "election": null,
            "id": 78,
            "name": "Ottawa Centre"
          }
        ],
        "pollDivisionIds": [
          10140565
        ],
        "postalCode": "K1S5M9",
        "streetName": "WOODBINE",
        "streetDirectionId": null,
        "streetTypeId": "PL",
        "placeName": "OTTAWA",
        "streetNameDisplayText": "WOODBINE PL, OTTAWA"
      }
    ]
  },
  {
    "postal": "K1S9B4",
    "result": []
  },
  {
    "postal": "K1S0L9",
    "result": [
      {
        "electoralDistricts": [
          {
            "election": null,
            "id": 78,
            "name": "Ottawa Centre"
          }
        ],
        "pollDivisionIds": [
          10140574
        ],
        "postalCode": "K1S0L9",
        "streetName": "BELGRAVE",
        "streetDirectionId": null,
        "streetTypeId": "RD",
        "placeName": "OTTAWA",
        "streetNameDisplayText": "BELGRAVE RD, OTTAWA"
      }
    ]
  },
  {
    "postal": "K1S9G4",
    "result": []
  },
  {
    "postal": "K1S1J4",
    "result": [
      {
        "electoralDistricts": [
          {
            "election": null,
            "id": 78,
            "name": "Ottawa Centre"
          }
        ],
        "pollDivisionIds": [
          10140574
        ],
        "postalCode": "K1S1J4",
        "streetName": "GLENORA",
        "streetDirectionId": null,
        "streetTypeId": "AVE",
        "placeName": "OTTAWA",
        "streetNameDisplayText": "GLENORA AVE, OTTAWA"
      },
      {
        "electoralDistricts": [
          {
            "election": null,
            "id": 78,
            "name": "Ottawa Centre"
          }
        ],
        "pollDivisionIds": [
          10140574
        ],
        "postalCode": "K1S1J4",
        "streetName": "GLENORA",
        "streetDirectionId": null,
        "streetTypeId": "ST",
        "placeName": "OTTAWA",
        "streetNameDisplayText": "GLENORA ST, OTTAWA"
      }
    ]
  },
  {
    "postal": "K1S0W6",
    "result": [
      {
        "electoralDistricts": [
          {
            "election": null,
            "id": 78,
            "name": "Ottawa Centre"
          }
        ],
        "pollDivisionIds": [
          10140573
        ],
        "postalCode": "K1S0W6",
        "streetName": "CAMERON",
        "streetDirectionId": null,
        "streetTypeId": "AVE",
        "placeName": "OTTAWA",
        "streetNameDisplayText": "CAMERON AVE, OTTAWA"
      }
    ]
  }
]
