[
  {
    "postal": "K8N9J6",
    "result": []
  },
  {
    "postal": "K8N9Z5",
    "result": []
  },
  {
    "postal": "K8N7H8",
    "result": []
  },
  {
    "postal": "K8N0P6",
    "result": [
      {
        "electoralDistricts": [
          {
            "election": null,
            "id": 40,
            "name": "Hastings—Lennox and Addington"
          }
        ],
        "pollDivisionIds": [
          10138776
        ],
        "postalCode": "K8N0P6",
        "streetName": "SCOTT",
        "streetDirectionId": null,
        "streetTypeId": "DR",
        "placeName": "BELLEVILLE",
        "streetNameDisplayText": "SCOTT DR, BELLEVILLE"
      }
    ]
  },
  {
    "postal": "K8N0S7",
    "result": []
  },
  {
    "postal": "K8N8B9",
    "result": []
  },
  {
    "postal": "K8N2A6",
    "result": []
  },
  {
    "postal": "K8N7V2",
    "result": []
  },
  {
    "postal": "K8N9P4",
    "result": []
  },
  {
    "postal": "K8N6G0",
    "result": []
  },
  {
    "postal": "K8N2K0",
    "result": []
  },
  {
    "postal": "K8N7N6",
    "result": []
  },
  {
    "postal": "K8N5R3",
    "result": [
      {
        "electoralDistricts": [
          {
            "election": null,
            "id": 6,
            "name": "Bay of Quinte"
          }
        ],
        "pollDivisionIds": [
          10136976
        ],
        "postalCode": "K8N5R3",
        "streetName": "GEORGIAN",
        "streetDirectionId": null,
        "streetTypeId": "CRT",
        "placeName": "BELLEVILLE",
        "streetNameDisplayText": "GEORGIAN CRT, BELLEVILLE"
      }
    ]
  },
  {
    "postal": "K8N7K0",
    "result": []
  },
  {
    "postal": "K8N3R2",
    "result": [
      {
        "electoralDistricts": [
          {
            "election": null,
            "id": 6,
            "name": "Bay of Quinte"
          }
        ],
        "pollDivisionIds": [
          10136974
        ],
        "postalCode": "K8N3R2",
        "streetName": "FOSTER",
        "streetDirectionId": null,
        "streetTypeId": "AVE",
        "placeName": "BELLEVILLE",
        "streetNameDisplayText": "FOSTER AVE, BELLEVILLE"
      }
    ]
  },
  {
    "postal": "K8N0J1",
    "result": []
  },
  {
    "postal": "K8N0B0",
    "result": []
  },
  {
    "postal": "K8N5Z2",
    "result": [
      {
        "electoralDistricts": [
          {
            "election": null,
            "id": 6,
            "name": "Bay of Quinte"
          }
        ],
        "pollDivisionIds": [
          10136968
        ],
        "postalCode": "K8N5Z2",
        "streetName": "HICKORY",
        "streetDirectionId": null,
        "streetTypeId": "GROVE",
        "placeName": "BELLEVILLE",
        "streetNameDisplayText": "HICKORY GROVE, BELLEVILLE"
      }
    ]
  },
  {
    "postal": "K8N7P3",
    "result": []
  },
  {
    "postal": "K8N2K3",
    "result": [
      {
        "electoralDistricts": [
          {
            "election": null,
            "id": 6,
            "name": "Bay of Quinte"
          }
        ],
        "pollDivisionIds": [
          10136975
        ],
        "postalCode": "K8N2K3",
        "streetName": "PORTER",
        "streetDirectionId": null,
        "streetTypeId": "AVE",
        "placeName": "BELLEVILLE",
        "streetNameDisplayText": "PORTER AVE, BELLEVILLE"
      }
    ]
  },
  {
    "postal": "K8N7Y6",
    "result": []
  },
  {
    "postal": "K8N1L9",
    "result": [
      {
        "electoralDistricts": [
          {
            "election": null,
            "id": 6,
            "name": "Bay of Quinte"
          }
        ],
        "pollDivisionIds": [
          10136974,
          10137022
        ],
        "postalCode": "K8N1L9",
        "streetName": "BRIDGE",
        "streetDirectionId": "E",
        "streetTypeId": "ST",
        "placeName": "BELLEVILLE",
        "streetNameDisplayText": "BRIDGE ST E, BELLEVILLE"
      }
    ]
  },
  {
    "postal": "K8N8T0",
    "result": []
  },
  {
    "postal": "K8N3K8",
    "result": [
      {
        "electoralDistricts": [
          {
            "election": null,
            "id": 6,
            "name": "Bay of Quinte"
          }
        ],
        "pollDivisionIds": [
          10136974
        ],
        "postalCode": "K8N3K8",
        "streetName": "BURRELL",
        "streetDirectionId": null,
        "streetTypeId": "ST",
        "placeName": "BELLEVILLE",
        "streetNameDisplayText": "BURRELL ST, BELLEVILLE"
      }
    ]
  },
  {
    "postal": "K8N5W9",
    "result": [
      {
        "electoralDistricts": [
          {
            "election": null,
            "id": 6,
            "name": "Bay of Quinte"
          }
        ],
        "pollDivisionIds": [
          10136968
        ],
        "postalCode": "K8N5W9",
        "streetName": "HICKORY",
        "streetDirectionId": null,
        "streetTypeId": "GROVE",
        "placeName": "BELLEVILLE",
        "streetNameDisplayText": "HICKORY GROVE, BELLEVILLE"
      },
      {
        "electoralDistricts": [
          {
            "election": null,
            "id": 6,
            "name": "Bay of Quinte"
          }
        ],
        "pollDivisionIds": [
          10136968
        ],
        "postalCode": "K8N5W9",
        "streetName": "LINDEN",
        "streetDirectionId": null,
        "streetTypeId": "LANE",
        "placeName": "BELLEVILLE",
        "streetNameDisplayText": "LINDEN LANE, BELLEVILLE"
      },
      {
        "electoralDistricts": [
          {
            "election": null,
            "id": 6,
            "name": "Bay of Quinte"
          }
        ],
        "pollDivisionIds": [
          10136976,
          10136968
        ],
        "postalCode": "K8N5W9",
        "streetName": "OAK RIDGE",
        "streetDirectionId": null,
        "streetTypeId": "BLVD",
        "placeName": "BELLEVILLE",
        "streetNameDisplayText": "OAK RIDGE BLVD, BELLEVILLE"
      }
    ]
  },
  {
    "postal": "K8N6T9",
    "result": []
  },
  {
    "postal": "K8N4H1",
    "result": [
      {
        "electoralDistricts": [
          {
            "election": null,
            "id": 6,
            "name": "Bay of Quinte"
          }
        ],
        "pollDivisionIds": [
          10136975
        ],
        "postalCode": "K8N4H1",
        "streetName": "HERCHIMER",
        "streetDirectionId": null,
        "streetTypeId": "AVE",
        "placeName": "BELLEVILLE",
        "streetNameDisplayText": "HERCHIMER AVE, BELLEVILLE"
      }
    ]
  },
  {
    "postal": "K8N7A2",
    "result": []
  },
  {
    "postal": "K8N5G0",
    "result": []
  },
  {
    "postal": "K8N8V5",
    "result": []
  },
  {
    "postal": "K8N2Y8",
    "result": [
      {
        "electoralDistricts": [
          {
            "election": null,
            "id": 6,
            "name": "Bay of Quinte"
          }
        ],
        "pollDivisionIds": [
          10136974
        ],
        "postalCode": "K8N2Y8",
        "streetName": "FRONT",
        "streetDirectionId": null,
        "streetTypeId": "ST",
        "placeName": "BELLEVILLE",
        "streetNameDisplayText": "FRONT ST, BELLEVILLE"
      }
    ]
  },
  {
    "postal": "K8N2B6",
    "result": [
      {
        "electoralDistricts": [
          {
            "election": null,
            "id": 6,
            "name": "Bay of Quinte"
          }
        ],
        "pollDivisionIds": [
          10136974
        ],
        "postalCode": "K8N2B6",
        "streetName": "VICTORIA",
        "streetDirectionId": null,
        "streetTypeId": "AVE",
        "placeName": "BELLEVILLE",
        "streetNameDisplayText": "VICTORIA AVE, BELLEVILLE"
      }
    ]
  },
  {
    "postal": "K8N4W8",
    "result": [
      {
        "electoralDistricts": [
          {
            "election": null,
            "id": 6,
            "name": "Bay of Quinte"
          }
        ],
        "pollDivisionIds": [
          10136967
        ],
        "postalCode": "K8N4W8",
        "streetName": "CENTRE",
        "streetDirectionId": null,
        "streetTypeId": "ST",
        "placeName": "BELLEVILLE",
        "streetNameDisplayText": "CENTRE ST, BELLEVILLE"
      }
    ]
  },
  {
    "postal": "K8N8H7",
    "result": []
  },
  {
    "postal": "K8N5P1",
    "result": [
      {
        "electoralDistricts": [
          {
            "election": null,
            "id": 6,
            "name": "Bay of Quinte"
          }
        ],
        "pollDivisionIds": [
          10136976
        ],
        "postalCode": "K8N5P1",
        "streetName": "HAIG",
        "streetDirectionId": null,
        "streetTypeId": "RD",
        "placeName": "BELLEVILLE",
        "streetNameDisplayText": "HAIG RD, BELLEVILLE"
      }
    ]
  },
  {
    "postal": "K8N2B8",
    "result": []
  },
  {
    "postal": "K8N0P2",
    "result": [
      {
        "electoralDistricts": [
          {
            "election": null,
            "id": 40,
            "name": "Hastings—Lennox and Addington"
          }
        ],
        "pollDivisionIds": [
          10138776
        ],
        "postalCode": "K8N0P2",
        "streetName": "FARNHAM",
        "streetDirectionId": null,
        "streetTypeId": "RD",
        "placeName": "BELLEVILLE",
        "streetNameDisplayText": "FARNHAM RD, BELLEVILLE"
      }
    ]
  },
  {
    "postal": "K8N9M1",
    "result": []
  },
  {
    "postal": "K8N3G0",
    "result": []
  },
  {
    "postal": "K8N9Z2",
    "result": []
  },
  {
    "postal": "K8N2A0",
    "result": []
  },
  {
    "postal": "K8N6Y0",
    "result": []
  },
  {
    "postal": "K8N2Z8",
    "result": [
      {
        "electoralDistricts": [
          {
            "election": null,
            "id": 6,
            "name": "Bay of Quinte"
          }
        ],
        "pollDivisionIds": [
          10136967,
          10136969
        ],
        "postalCode": "K8N2Z8",
        "streetName": "FRONT",
        "streetDirectionId": "N",
        "streetTypeId": "ST",
        "placeName": "BELLEVILLE",
        "streetNameDisplayText": "FRONT ST N, BELLEVILLE"
      },
      {
        "electoralDistricts": [
          {
            "election": null,
            "id": 6,
            "name": "Bay of Quinte"
          }
        ],
        "pollDivisionIds": [
          10136974
        ],
        "postalCode": "K8N2Z8",
        "streetName": "FRONT",
        "streetDirectionId": null,
        "streetTypeId": "ST",
        "placeName": "BELLEVILLE",
        "streetNameDisplayText": "FRONT ST, BELLEVILLE"
      }
    ]
  },
  {
    "postal": "K8N7Y3",
    "result": []
  },
  {
    "postal": "K8N6Z5",
    "result": []
  },
  {
    "postal": "K8N6E0",
    "result": []
  },
  {
    "postal": "K8N9B7",
    "result": []
  },
  {
    "postal": "K8N9S5",
    "result": []
  },
  {
    "postal": "K8N3X3",
    "result": [
      {
        "electoralDistricts": [
          {
            "election": null,
            "id": 6,
            "name": "Bay of Quinte"
          }
        ],
        "pollDivisionIds": [
          10136978
        ],
        "postalCode": "K8N3X3",
        "streetName": "DUFFERIN",
        "streetDirectionId": null,
        "streetTypeId": "AVE",
        "placeName": "BELLEVILLE",
        "streetNameDisplayText": "DUFFERIN AVE, BELLEVILLE"
      }
    ]
  },
  {
    "postal": "K8N7R5",
    "result": []
  },
  {
    "postal": "K8N2X3",
    "result": [
      {
        "electoralDistricts": [
          {
            "election": null,
            "id": 6,
            "name": "Bay of Quinte"
          }
        ],
        "pollDivisionIds": [
          10136967,
          10136971
        ],
        "postalCode": "K8N2X3",
        "streetName": "MCFARLAND",
        "streetDirectionId": null,
        "streetTypeId": "DR",
        "placeName": "BELLEVILLE",
        "streetNameDisplayText": "MCFARLAND DR, BELLEVILLE"
      }
    ]
  },
  {
    "postal": "K8N8Z9",
    "result": []
  },
  {
    "postal": "K8N0N4",
    "result": [
      {
        "electoralDistricts": [
          {
            "election": null,
            "id": 40,
            "name": "Hastings—Lennox and Addington"
          }
        ],
        "pollDivisionIds": [
          10138776
        ],
        "postalCode": "K8N0N4",
        "streetName": "MAITLAND",
        "streetDirectionId": null,
        "streetTypeId": "DR",
        "placeName": "BELLEVILLE",
        "streetNameDisplayText": "MAITLAND DR, BELLEVILLE"
      }
    ]
  },
  {
    "postal": "K8N1K1",
    "result": [
      {
        "electoralDistricts": [
          {
            "election": null,
            "id": 6,
            "name": "Bay of Quinte"
          }
        ],
        "pollDivisionIds": [
          10136976
        ],
        "postalCode": "K8N1K1",
        "streetName": "MUNRO",
        "streetDirectionId": null,
        "streetTypeId": "AVE",
        "placeName": "BELLEVILLE",
        "streetNameDisplayText": "MUNRO AVE, BELLEVILLE"
      }
    ]
  },
  {
    "postal": "K8N1S3",
    "result": [
      {
        "electoralDistricts": [
          {
            "election": null,
            "id": 6,
            "name": "Bay of Quinte"
          }
        ],
        "pollDivisionIds": [
          10136976
        ],
        "postalCode": "K8N1S3",
        "streetName": "BRIDGE",
        "streetDirectionId": "E",
        "streetTypeId": "ST",
        "placeName": "BELLEVILLE",
        "streetNameDisplayText": "BRIDGE ST E, BELLEVILLE"
      }
    ]
  },
  {
    "postal": "K8N6M4",
    "result": []
  },
  {
    "postal": "K8N9A9",
    "result": []
  },
  {
    "postal": "K8N9Z9",
    "result": []
  },
  {
    "postal": "K8N6T4",
    "result": []
  },
  {
    "postal": "K8N0B2",
    "result": [
      {
        "electoralDistricts": [
          {
            "election": null,
            "id": 40,
            "name": "Hastings—Lennox and Addington"
          }
        ],
        "pollDivisionIds": [
          10138776
        ],
        "postalCode": "K8N0B2",
        "streetName": "HAMPTON RIDGE",
        "streetDirectionId": null,
        "streetTypeId": "DR",
        "placeName": "BELLEVILLE",
        "streetNameDisplayText": "HAMPTON RIDGE DR, BELLEVILLE"
      },
      {
        "electoralDistricts": [
          {
            "election": null,
            "id": 40,
            "name": "Hastings—Lennox and Addington"
          }
        ],
        "pollDivisionIds": [
          10138776
        ],
        "postalCode": "K8N0B2",
        "streetName": "PRINCETON",
        "streetDirectionId": null,
        "streetTypeId": "PL",
        "placeName": "BELLEVILLE",
        "streetNameDisplayText": "PRINCETON PL, BELLEVILLE"
      }
    ]
  },
  {
    "postal": "K8N2L9",
    "result": [
      {
        "electoralDistricts": [
          {
            "election": null,
            "id": 6,
            "name": "Bay of Quinte"
          }
        ],
        "pollDivisionIds": [
          10136974
        ],
        "postalCode": "K8N2L9",
        "streetName": "PINE",
        "streetDirectionId": null,
        "streetTypeId": "ST",
        "placeName": "BELLEVILLE",
        "streetNameDisplayText": "PINE ST, BELLEVILLE"
      }
    ]
  },
  {
    "postal": "K8N8K9",
    "result": []
  },
  {
    "postal": "K8N2H9",
    "result": [
      {
        "electoralDistricts": [
          {
            "election": null,
            "id": 6,
            "name": "Bay of Quinte"
          }
        ],
        "pollDivisionIds": [
          10136974
        ],
        "postalCode": "K8N2H9",
        "streetName": "FORIN",
        "streetDirectionId": null,
        "streetTypeId": "ST",
        "placeName": "BELLEVILLE",
        "streetNameDisplayText": "FORIN ST, BELLEVILLE"
      }
    ]
  },
  {
    "postal": "K8N3Z6",
    "result": [
      {
        "electoralDistricts": [
          {
            "election": null,
            "id": 6,
            "name": "Bay of Quinte"
          }
        ],
        "pollDivisionIds": [
          10136971
        ],
        "postalCode": "K8N3Z6",
        "streetName": "MACDONALD",
        "streetDirectionId": null,
        "streetTypeId": "AVE",
        "placeName": "BELLEVILLE",
        "streetNameDisplayText": "MACDONALD AVE, BELLEVILLE"
      }
    ]
  },
  {
    "postal": "K8N3B0",
    "result": []
  },
  {
    "postal": "K8N2H8",
    "result": [
      {
        "electoralDistricts": [
          {
            "election": null,
            "id": 6,
            "name": "Bay of Quinte"
          }
        ],
        "pollDivisionIds": [
          10136974
        ],
        "postalCode": "K8N2H8",
        "streetName": "FORIN",
        "streetDirectionId": null,
        "streetTypeId": "ST",
        "placeName": "BELLEVILLE",
        "streetNameDisplayText": "FORIN ST, BELLEVILLE"
      }
    ]
  },
  {
    "postal": "K8N3X2",
    "result": [
      {
        "electoralDistricts": [
          {
            "election": null,
            "id": 6,
            "name": "Bay of Quinte"
          }
        ],
        "pollDivisionIds": [
          10136978
        ],
        "postalCode": "K8N3X2",
        "streetName": "DUFFERIN",
        "streetDirectionId": null,
        "streetTypeId": "AVE",
        "placeName": "BELLEVILLE",
        "streetNameDisplayText": "DUFFERIN AVE, BELLEVILLE"
      }
    ]
  },
  {
    "postal": "K8N2E9",
    "result": [
      {
        "electoralDistricts": [
          {
            "election": null,
            "id": 6,
            "name": "Bay of Quinte"
          }
        ],
        "pollDivisionIds": [
          10136975
        ],
        "postalCode": "K8N2E9",
        "streetName": "VICTORIA",
        "streetDirectionId": null,
        "streetTypeId": "AVE",
        "placeName": "BELLEVILLE",
        "streetNameDisplayText": "VICTORIA AVE, BELLEVILLE"
      }
    ]
  },
  {
    "postal": "K8N9P6",
    "result": []
  },
  {
    "postal": "K8N9E2",
    "result": []
  },
  {
    "postal": "K8N9H2",
    "result": []
  },
  {
    "postal": "K8N1S8",
    "result": [
      {
        "electoralDistricts": [
          {
            "election": null,
            "id": 6,
            "name": "Bay of Quinte"
          }
        ],
        "pollDivisionIds": [
          10136974
        ],
        "postalCode": "K8N1S8",
        "streetName": "CAMPBELL",
        "streetDirectionId": null,
        "streetTypeId": "ST",
        "placeName": "BELLEVILLE",
        "streetNameDisplayText": "CAMPBELL ST, BELLEVILLE"
      }
    ]
  },
  {
    "postal": "K8N3M6",
    "result": [
      {
        "electoralDistricts": [
          {
            "election": null,
            "id": 6,
            "name": "Bay of Quinte"
          }
        ],
        "pollDivisionIds": [
          10136974
        ],
        "postalCode": "K8N3M6",
        "streetName": "CHARLES",
        "streetDirectionId": null,
        "streetTypeId": "ST",
        "placeName": "BELLEVILLE",
        "streetNameDisplayText": "CHARLES ST, BELLEVILLE"
      }
    ]
  },
  {
    "postal": "K8N6Z8",
    "result": []
  },
  {
    "postal": "K8N4J2",
    "result": [
      {
        "electoralDistricts": [
          {
            "election": null,
            "id": 6,
            "name": "Bay of Quinte"
          }
        ],
        "pollDivisionIds": [
          10136976
        ],
        "postalCode": "K8N4J2",
        "streetName": "PLAZA",
        "streetDirectionId": null,
        "streetTypeId": "SQ",
        "placeName": "BELLEVILLE",
        "streetNameDisplayText": "PLAZA SQ, BELLEVILLE"
      }
    ]
  },
  {
    "postal": "K8N9Y1",
    "result": []
  },
  {
    "postal": "K8N8V6",
    "result": []
  },
  {
    "postal": "K8N6B2",
    "result": []
  },
  {
    "postal": "K8N1P8",
    "result": [
      {
        "electoralDistricts": [
          {
            "election": null,
            "id": 6,
            "name": "Bay of Quinte"
          }
        ],
        "pollDivisionIds": [
          10136975
        ],
        "postalCode": "K8N1P8",
        "streetName": "BRIDGE",
        "streetDirectionId": "E",
        "streetTypeId": "ST",
        "placeName": "BELLEVILLE",
        "streetNameDisplayText": "BRIDGE ST E, BELLEVILLE"
      }
    ]
  },
  {
    "postal": "K8N0V8",
    "result": []
  },
  {
    "postal": "K8N4Y0",
    "result": []
  },
  {
    "postal": "K8N2T4",
    "result": []
  },
  {
    "postal": "K8N2S3",
    "result": [
      {
        "electoralDistricts": [
          {
            "election": null,
            "id": 6,
            "name": "Bay of Quinte"
          }
        ],
        "pollDivisionIds": [
          10136974
        ],
        "postalCode": "K8N2S3",
        "streetName": "STATION",
        "streetDirectionId": null,
        "streetTypeId": "ST",
        "placeName": "BELLEVILLE",
        "streetNameDisplayText": "STATION ST, BELLEVILLE"
      }
    ]
  },
  {
    "postal": "K8N0K0",
    "result": []
  },
  {
    "postal": "K8N5N1",
    "result": [
      {
        "electoralDistricts": [
          {
            "election": null,
            "id": 6,
            "name": "Bay of Quinte"
          }
        ],
        "pollDivisionIds": [
          10136976
        ],
        "postalCode": "K8N5N1",
        "streetName": "BRADGATE",
        "streetDirectionId": null,
        "streetTypeId": "RD",
        "placeName": "BELLEVILLE",
        "streetNameDisplayText": "BRADGATE RD, BELLEVILLE"
      }
    ]
  },
  {
    "postal": "K8N7T0",
    "result": []
  },
  {
    "postal": "K8N9N2",
    "result": []
  },
  {
    "postal": "K8N5L1",
    "result": [
      {
        "electoralDistricts": [
          {
            "election": null,
            "id": 6,
            "name": "Bay of Quinte"
          }
        ],
        "pollDivisionIds": [
          10136975
        ],
        "postalCode": "K8N5L1",
        "streetName": "SINGLETON",
        "streetDirectionId": null,
        "streetTypeId": "DR",
        "placeName": "BELLEVILLE",
        "streetNameDisplayText": "SINGLETON DR, BELLEVILLE"
      }
    ]
  },
  {
    "postal": "K8N7G5",
    "result": []
  },
  {
    "postal": "K8N6K2",
    "result": []
  },
  {
    "postal": "K8N6P9",
    "result": []
  },
  {
    "postal": "K8N0E6",
    "result": [
      {
        "electoralDistricts": [
          {
            "election": null,
            "id": 40,
            "name": "Hastings—Lennox and Addington"
          }
        ],
        "pollDivisionIds": [
          10138776
        ],
        "postalCode": "K8N0E6",
        "streetName": "HAMPTON RIDGE",
        "streetDirectionId": null,
        "streetTypeId": "DR",
        "placeName": "BELLEVILLE",
        "streetNameDisplayText": "HAMPTON RIDGE DR, BELLEVILLE"
      }
    ]
  },
  {
    "postal": "K8N8R9",
    "result": []
  },
  {
    "postal": "K8N3G9",
    "result": [
      {
        "electoralDistricts": [
          {
            "election": null,
            "id": 6,
            "name": "Bay of Quinte"
          }
        ],
        "pollDivisionIds": [
          10136978
        ],
        "postalCode": "K8N3G9",
        "streetName": "GEORGE",
        "streetDirectionId": "S",
        "streetTypeId": "ST",
        "placeName": "BELLEVILLE",
        "streetNameDisplayText": "GEORGE ST S, BELLEVILLE"
      }
    ]
  },
  {
    "postal": "K8N0V7",
    "result": []
  },
  {
    "postal": "K8N2Z1",
    "result": []
  },
  {
    "postal": "K8N7N1",
    "result": []
  },
  {
    "postal": "K8N3C6",
    "result": [
      {
        "electoralDistricts": [
          {
            "election": null,
            "id": 6,
            "name": "Bay of Quinte"
          }
        ],
        "pollDivisionIds": [
          10136974
        ],
        "postalCode": "K8N3C6",
        "streetName": "CHURCH",
        "streetDirectionId": null,
        "streetTypeId": "ST",
        "placeName": "BELLEVILLE",
        "streetNameDisplayText": "CHURCH ST, BELLEVILLE"
      }
    ]
  },
  {
    "postal": "K8N4M1",
    "result": [
      {
        "electoralDistricts": [
          {
            "election": null,
            "id": 6,
            "name": "Bay of Quinte"
          }
        ],
        "pollDivisionIds": [
          10136975
        ],
        "postalCode": "K8N4M1",
        "streetName": "FARLEY",
        "streetDirectionId": null,
        "streetTypeId": "AVE",
        "placeName": "BELLEVILLE",
        "streetNameDisplayText": "FARLEY AVE, BELLEVILLE"
      }
    ]
  },
  {
    "postal": "K8N9K2",
    "result": []
  },
  {
    "postal": "K8N9S6",
    "result": []
  },
  {
    "postal": "K8N4X1",
    "result": [
      {
        "electoralDistricts": [
          {
            "election": null,
            "id": 6,
            "name": "Bay of Quinte"
          }
        ],
        "pollDivisionIds": [
          10136971
        ],
        "postalCode": "K8N4X1",
        "streetName": "PEARL",
        "streetDirectionId": null,
        "streetTypeId": "ST",
        "placeName": "BELLEVILLE",
        "streetNameDisplayText": "PEARL ST, BELLEVILLE"
      }
    ]
  },
  {
    "postal": "K8N8W2",
    "result": []
  },
  {
    "postal": "K8N7N2",
    "result": []
  },
  {
    "postal": "K8N8S3",
    "result": []
  },
  {
    "postal": "K8N4V0",
    "result": []
  },
  {
    "postal": "K8N6W4",
    "result": []
  },
  {
    "postal": "K8N5M1",
    "result": [
      {
        "electoralDistricts": [
          {
            "election": null,
            "id": 6,
            "name": "Bay of Quinte"
          }
        ],
        "pollDivisionIds": [
          10137007
        ],
        "postalCode": "K8N5M1",
        "streetName": "HERCHIMER",
        "streetDirectionId": null,
        "streetTypeId": "AVE",
        "placeName": "BELLEVILLE",
        "streetNameDisplayText": "HERCHIMER AVE, BELLEVILLE"
      }
    ]
  },
  {
    "postal": "K8N0S4",
    "result": []
  },
  {
    "postal": "K8N5X6",
    "result": [
      {
        "electoralDistricts": [
          {
            "election": null,
            "id": 6,
            "name": "Bay of Quinte"
          }
        ],
        "pollDivisionIds": [
          10136968,
          10136976
        ],
        "postalCode": "K8N5X6",
        "streetName": "HICKORY",
        "streetDirectionId": null,
        "streetTypeId": "GROVE",
        "placeName": "BELLEVILLE",
        "streetNameDisplayText": "HICKORY GROVE, BELLEVILLE"
      },
      {
        "electoralDistricts": [
          {
            "election": null,
            "id": 6,
            "name": "Bay of Quinte"
          }
        ],
        "pollDivisionIds": [
          10136976,
          10136968
        ],
        "postalCode": "K8N5X6",
        "streetName": "SUMAC",
        "streetDirectionId": null,
        "streetTypeId": "TERR",
        "placeName": "BELLEVILLE",
        "streetNameDisplayText": "SUMAC TERR, BELLEVILLE"
      }
    ]
  },
  {
    "postal": "K8N8L5",
    "result": []
  },
  {
    "postal": "K8N5M8",
    "result": []
  },
  {
    "postal": "K8N2G3",
    "result": [
      {
        "electoralDistricts": [
          {
            "election": null,
            "id": 6,
            "name": "Bay of Quinte"
          }
        ],
        "pollDivisionIds": [
          10136975
        ],
        "postalCode": "K8N2G3",
        "streetName": "VICTORIA",
        "streetDirectionId": null,
        "streetTypeId": "AVE",
        "placeName": "BELLEVILLE",
        "streetNameDisplayText": "VICTORIA AVE, BELLEVILLE"
      }
    ]
  },
  {
    "postal": "K8N8E4",
    "result": []
  },
  {
    "postal": "K8N7S9",
    "result": []
  },
  {
    "postal": "K8N1K3",
    "result": [
      {
        "electoralDistricts": [
          {
            "election": null,
            "id": 6,
            "name": "Bay of Quinte"
          }
        ],
        "pollDivisionIds": [
          10136976
        ],
        "postalCode": "K8N1K3",
        "streetName": "MUNRO",
        "streetDirectionId": null,
        "streetTypeId": "AVE",
        "placeName": "BELLEVILLE",
        "streetNameDisplayText": "MUNRO AVE, BELLEVILLE"
      }
    ]
  },
  {
    "postal": "K8N4E1",
    "result": [
      {
        "electoralDistricts": [
          {
            "election": null,
            "id": 6,
            "name": "Bay of Quinte"
          }
        ],
        "pollDivisionIds": [
          10136975
        ],
        "postalCode": "K8N4E1",
        "streetName": "HUMEWOOD",
        "streetDirectionId": null,
        "streetTypeId": "DR",
        "placeName": "BELLEVILLE",
        "streetNameDisplayText": "HUMEWOOD DR, BELLEVILLE"
      }
    ]
  },
  {
    "postal": "K8N4R2",
    "result": [
      {
        "electoralDistricts": [
          {
            "election": null,
            "id": 6,
            "name": "Bay of Quinte"
          }
        ],
        "pollDivisionIds": [
          10136976
        ],
        "postalCode": "K8N4R2",
        "streetName": "HAIG",
        "streetDirectionId": null,
        "streetTypeId": "RD",
        "placeName": "BELLEVILLE",
        "streetNameDisplayText": "HAIG RD, BELLEVILLE"
      }
    ]
  },
  {
    "postal": "K8N6T0",
    "result": []
  },
  {
    "postal": "K8N3K5",
    "result": [
      {
        "electoralDistricts": [
          {
            "election": null,
            "id": 6,
            "name": "Bay of Quinte"
          }
        ],
        "pollDivisionIds": [
          10136974
        ],
        "postalCode": "K8N3K5",
        "streetName": "WILLIAM",
        "streetDirectionId": null,
        "streetTypeId": "ST",
        "placeName": "BELLEVILLE",
        "streetNameDisplayText": "WILLIAM ST, BELLEVILLE"
      }
    ]
  },
  {
    "postal": "K8N3S3",
    "result": [
      {
        "electoralDistricts": [
          {
            "election": null,
            "id": 6,
            "name": "Bay of Quinte"
          }
        ],
        "pollDivisionIds": [
          10136974
        ],
        "postalCode": "K8N3S3",
        "streetName": "CHATHAM",
        "streetDirectionId": null,
        "streetTypeId": "ST",
        "placeName": "BELLEVILLE",
        "streetNameDisplayText": "CHATHAM ST, BELLEVILLE"
      }
    ]
  },
  {
    "postal": "K8N3L4",
    "result": [
      {
        "electoralDistricts": [
          {
            "election": null,
            "id": 6,
            "name": "Bay of Quinte"
          }
        ],
        "pollDivisionIds": [
          10136974
        ],
        "postalCode": "K8N3L4",
        "streetName": "ANN",
        "streetDirectionId": null,
        "streetTypeId": "ST",
        "placeName": "BELLEVILLE",
        "streetNameDisplayText": "ANN ST, BELLEVILLE"
      }
    ]
  },
  {
    "postal": "K8N9Y2",
    "result": []
  },
  {
    "postal": "K8N1E0",
    "result": []
  },
  {
    "postal": "K8N9A4",
    "result": []
  },
  {
    "postal": "K8N1L3",
    "result": []
  },
  {
    "postal": "K8N6N1",
    "result": []
  },
  {
    "postal": "K8N6G7",
    "result": []
  },
  {
    "postal": "K8N7W1",
    "result": []
  },
  {
    "postal": "K8N4M6",
    "result": [
      {
        "electoralDistricts": [
          {
            "election": null,
            "id": 6,
            "name": "Bay of Quinte"
          }
        ],
        "pollDivisionIds": [
          10136976
        ],
        "postalCode": "K8N4M6",
        "streetName": "ALFRED",
        "streetDirectionId": null,
        "streetTypeId": "DR",
        "placeName": "BELLEVILLE",
        "streetNameDisplayText": "ALFRED DR, BELLEVILLE"
      }
    ]
  },
  {
    "postal": "K8N1K0",
    "result": []
  },
  {
    "postal": "K8N3E2",
    "result": [
      {
        "electoralDistricts": [
          {
            "election": null,
            "id": 6,
            "name": "Bay of Quinte"
          }
        ],
        "pollDivisionIds": [
          10136974
        ],
        "postalCode": "K8N3E2",
        "streetName": "HILLCREST",
        "streetDirectionId": null,
        "streetTypeId": "AVE",
        "placeName": "BELLEVILLE",
        "streetNameDisplayText": "HILLCREST AVE, BELLEVILLE"
      }
    ]
  },
  {
    "postal": "K8N5H4",
    "result": [
      {
        "electoralDistricts": [
          {
            "election": null,
            "id": 6,
            "name": "Bay of Quinte"
          }
        ],
        "pollDivisionIds": [
          10136976
        ],
        "postalCode": "K8N5H4",
        "streetName": "SINGLETON",
        "streetDirectionId": null,
        "streetTypeId": "DR",
        "placeName": "BELLEVILLE",
        "streetNameDisplayText": "SINGLETON DR, BELLEVILLE"
      }
    ]
  },
  {
    "postal": "K8N1K7",
    "result": [
      {
        "electoralDistricts": [
          {
            "election": null,
            "id": 6,
            "name": "Bay of Quinte"
          }
        ],
        "pollDivisionIds": [
          10136976
        ],
        "postalCode": "K8N1K7",
        "streetName": "ELIZABETH",
        "streetDirectionId": null,
        "streetTypeId": "CRES",
        "placeName": "BELLEVILLE",
        "streetNameDisplayText": "ELIZABETH CRES, BELLEVILLE"
      }
    ]
  },
  {
    "postal": "K8N0H0",
    "result": []
  },
  {
    "postal": "K8N0J3",
    "result": [
      {
        "electoralDistricts": [
          {
            "election": null,
            "id": 40,
            "name": "Hastings—Lennox and Addington"
          }
        ],
        "pollDivisionIds": [
          10138776
        ],
        "postalCode": "K8N0J3",
        "streetName": "COTTONWOOD",
        "streetDirectionId": null,
        "streetTypeId": "DR",
        "placeName": "BELLEVILLE",
        "streetNameDisplayText": "COTTONWOOD DR, BELLEVILLE"
      }
    ]
  },
  {
    "postal": "K8N1X6",
    "result": [
      {
        "electoralDistricts": [
          {
            "election": null,
            "id": 6,
            "name": "Bay of Quinte"
          }
        ],
        "pollDivisionIds": [
          10136976
        ],
        "postalCode": "K8N1X6",
        "streetName": "NORTHWOOD",
        "streetDirectionId": null,
        "streetTypeId": "CRES",
        "placeName": "BELLEVILLE",
        "streetNameDisplayText": "NORTHWOOD CRES, BELLEVILLE"
      }
    ]
  },
  {
    "postal": "K8N2Z6",
    "result": [
      {
        "electoralDistricts": [
          {
            "election": null,
            "id": 6,
            "name": "Bay of Quinte"
          }
        ],
        "pollDivisionIds": [
          10136969
        ],
        "postalCode": "K8N2Z6",
        "streetName": "FRONT",
        "streetDirectionId": "N",
        "streetTypeId": "ST",
        "placeName": "BELLEVILLE",
        "streetNameDisplayText": "FRONT ST N, BELLEVILLE"
      },
      {
        "electoralDistricts": [
          {
            "election": null,
            "id": 6,
            "name": "Bay of Quinte"
          }
        ],
        "pollDivisionIds": [
          10136969,
          10136974
        ],
        "postalCode": "K8N2Z6",
        "streetName": "FRONT",
        "streetDirectionId": null,
        "streetTypeId": "ST",
        "placeName": "BELLEVILLE",
        "streetNameDisplayText": "FRONT ST, BELLEVILLE"
      }
    ]
  },
  {
    "postal": "K8N4R9",
    "result": [
      {
        "electoralDistricts": [
          {
            "election": null,
            "id": 6,
            "name": "Bay of Quinte"
          }
        ],
        "pollDivisionIds": [
          10136978
        ],
        "postalCode": "K8N4R9",
        "streetName": "FOURTH",
        "streetDirectionId": null,
        "streetTypeId": "ST",
        "placeName": "BELLEVILLE",
        "streetNameDisplayText": "FOURTH ST, BELLEVILLE"
      }
    ]
  },
  {
    "postal": "K8N0W8",
    "result": []
  },
  {
    "postal": "K8N1L4",
    "result": []
  },
  {
    "postal": "K8N0C8",
    "result": []
  },
  {
    "postal": "K8N9X7",
    "result": []
  },
  {
    "postal": "K8N4T1",
    "result": [
      {
        "electoralDistricts": [
          {
            "election": null,
            "id": 6,
            "name": "Bay of Quinte"
          }
        ],
        "pollDivisionIds": [
          10136971
        ],
        "postalCode": "K8N4T1",
        "streetName": "STOKES",
        "streetDirectionId": null,
        "streetTypeId": "ST",
        "placeName": "BELLEVILLE",
        "streetNameDisplayText": "STOKES ST, BELLEVILLE"
      }
    ]
  },
  {
    "postal": "K8N0M0",
    "result": []
  },
  {
    "postal": "K8N6A2",
    "result": []
  },
  {
    "postal": "K8N9S8",
    "result": []
  },
  {
    "postal": "K8N9T4",
    "result": []
  },
  {
    "postal": "K8N9Y4",
    "result": []
  },
  {
    "postal": "K8N6G5",
    "result": []
  },
  {
    "postal": "K8N6H9",
    "result": []
  },
  {
    "postal": "K8N2P3",
    "result": [
      {
        "electoralDistricts": [
          {
            "election": null,
            "id": 6,
            "name": "Bay of Quinte"
          }
        ],
        "pollDivisionIds": [
          10136971
        ],
        "postalCode": "K8N2P3",
        "streetName": "RUSSELL",
        "streetDirectionId": null,
        "streetTypeId": "ST",
        "placeName": "BELLEVILLE",
        "streetNameDisplayText": "RUSSELL ST, BELLEVILLE"
      }
    ]
  },
  {
    "postal": "K8N1T6",
    "result": [
      {
        "electoralDistricts": [
          {
            "election": null,
            "id": 6,
            "name": "Bay of Quinte"
          }
        ],
        "pollDivisionIds": [
          10136974
        ],
        "postalCode": "K8N1T6",
        "streetName": "QUEEN",
        "streetDirectionId": null,
        "streetTypeId": "ST",
        "placeName": "BELLEVILLE",
        "streetNameDisplayText": "QUEEN ST, BELLEVILLE"
      }
    ]
  },
  {
    "postal": "K8N4P6",
    "result": [
      {
        "electoralDistricts": [
          {
            "election": null,
            "id": 6,
            "name": "Bay of Quinte"
          }
        ],
        "pollDivisionIds": [
          10136968
        ],
        "postalCode": "K8N4P6",
        "streetName": "HAIG",
        "streetDirectionId": null,
        "streetTypeId": "RD",
        "placeName": "BELLEVILLE",
        "streetNameDisplayText": "HAIG RD, BELLEVILLE"
      }
    ]
  },
  {
    "postal": "K8N3K1",
    "result": [
      {
        "electoralDistricts": [
          {
            "election": null,
            "id": 6,
            "name": "Bay of Quinte"
          }
        ],
        "pollDivisionIds": [
          10136974
        ],
        "postalCode": "K8N3K1",
        "streetName": "WILLIAM",
        "streetDirectionId": null,
        "streetTypeId": "ST",
        "placeName": "BELLEVILLE",
        "streetNameDisplayText": "WILLIAM ST, BELLEVILLE"
      }
    ]
  },
  {
    "postal": "K8N6X4",
    "result": []
  },
  {
    "postal": "K8N4M8",
    "result": [
      {
        "electoralDistricts": [
          {
            "election": null,
            "id": 6,
            "name": "Bay of Quinte"
          }
        ],
        "pollDivisionIds": [
          10136976
        ],
        "postalCode": "K8N4M8",
        "streetName": "BRADGATE",
        "streetDirectionId": null,
        "streetTypeId": "RD",
        "placeName": "BELLEVILLE",
        "streetNameDisplayText": "BRADGATE RD, BELLEVILLE"
      }
    ]
  },
  {
    "postal": "K8N2Y1",
    "result": [
      {
        "electoralDistricts": [
          {
            "election": null,
            "id": 6,
            "name": "Bay of Quinte"
          }
        ],
        "pollDivisionIds": [
          10136967
        ],
        "postalCode": "K8N2Y1",
        "streetName": "CLIFFORD",
        "streetDirectionId": null,
        "streetTypeId": "ST",
        "placeName": "BELLEVILLE",
        "streetNameDisplayText": "CLIFFORD ST, BELLEVILLE"
      }
    ]
  },
  {
    "postal": "K8N6M1",
    "result": []
  },
  {
    "postal": "K8N5L8",
    "result": [
      {
        "electoralDistricts": [
          {
            "election": null,
            "id": 6,
            "name": "Bay of Quinte"
          }
        ],
        "pollDivisionIds": [
          10137006
        ],
        "postalCode": "K8N5L8",
        "streetName": "DUNDAS",
        "streetDirectionId": "E",
        "streetTypeId": "ST",
        "placeName": "BELLEVILLE",
        "streetNameDisplayText": "DUNDAS ST E, BELLEVILLE"
      }
    ]
  },
  {
    "postal": "K8N3P6",
    "result": [
      {
        "electoralDistricts": [
          {
            "election": null,
            "id": 6,
            "name": "Bay of Quinte"
          }
        ],
        "pollDivisionIds": [
          10136978
        ],
        "postalCode": "K8N3P6",
        "streetName": "FOSTER",
        "streetDirectionId": "S",
        "streetTypeId": "AVE",
        "placeName": "BELLEVILLE",
        "streetNameDisplayText": "FOSTER AVE S, BELLEVILLE"
      }
    ]
  },
  {
    "postal": "K8N9A5",
    "result": []
  },
  {
    "postal": "K8N7K1",
    "result": []
  },
  {
    "postal": "K8N3J4",
    "result": [
      {
        "electoralDistricts": [
          {
            "election": null,
            "id": 6,
            "name": "Bay of Quinte"
          }
        ],
        "pollDivisionIds": [
          10136974
        ],
        "postalCode": "K8N3J4",
        "streetName": "GREAT ST JAMES",
        "streetDirectionId": null,
        "streetTypeId": "ST",
        "placeName": "BELLEVILLE",
        "streetNameDisplayText": "GREAT ST JAMES ST, BELLEVILLE"
      }
    ]
  },
  {
    "postal": "K8N5E7",
    "result": [
      {
        "electoralDistricts": [
          {
            "election": null,
            "id": 6,
            "name": "Bay of Quinte"
          }
        ],
        "pollDivisionIds": [
          10136976
        ],
        "postalCode": "K8N5E7",
        "streetName": "VICTORIA",
        "streetDirectionId": null,
        "streetTypeId": "AVE",
        "placeName": "BELLEVILLE",
        "streetNameDisplayText": "VICTORIA AVE, BELLEVILLE"
      }
    ]
  },
  {
    "postal": "K8N3A7",
    "result": [
      {
        "electoralDistricts": [
          {
            "election": null,
            "id": 6,
            "name": "Bay of Quinte"
          }
        ],
        "pollDivisionIds": [
          10136974
        ],
        "postalCode": "K8N3A7",
        "streetName": "PINNACLE",
        "streetDirectionId": null,
        "streetTypeId": "ST",
        "placeName": "BELLEVILLE",
        "streetNameDisplayText": "PINNACLE ST, BELLEVILLE"
      }
    ]
  },
  {
    "postal": "K8N1B9",
    "result": [
      {
        "electoralDistricts": [
          {
            "election": null,
            "id": 6,
            "name": "Bay of Quinte"
          }
        ],
        "pollDivisionIds": [
          10136978
        ],
        "postalCode": "K8N1B9",
        "streetName": "DUNDAS",
        "streetDirectionId": "E",
        "streetTypeId": "ST",
        "placeName": "BELLEVILLE",
        "streetNameDisplayText": "DUNDAS ST E, BELLEVILLE"
      }
    ]
  },
  {
    "postal": "K8N9E8",
    "result": []
  },
  {
    "postal": "K8N1C9",
    "result": [
      {
        "electoralDistricts": [
          {
            "election": null,
            "id": 6,
            "name": "Bay of Quinte"
          }
        ],
        "pollDivisionIds": [
          10136978
        ],
        "postalCode": "K8N1C9",
        "streetName": "DUNDAS",
        "streetDirectionId": "E",
        "streetTypeId": "ST",
        "placeName": "BELLEVILLE",
        "streetNameDisplayText": "DUNDAS ST E, BELLEVILLE"
      }
    ]
  },
  {
    "postal": "K8N3B5",
    "result": [
      {
        "electoralDistricts": [
          {
            "election": null,
            "id": 6,
            "name": "Bay of Quinte"
          }
        ],
        "pollDivisionIds": [
          10136978
        ],
        "postalCode": "K8N3B5",
        "streetName": "CHURCH",
        "streetDirectionId": "S",
        "streetTypeId": "ST",
        "placeName": "BELLEVILLE",
        "streetNameDisplayText": "CHURCH ST S, BELLEVILLE"
      }
    ]
  },
  {
    "postal": "K8N8R0",
    "result": []
  },
  {
    "postal": "K8N3P2",
    "result": [
      {
        "electoralDistricts": [
          {
            "election": null,
            "id": 6,
            "name": "Bay of Quinte"
          }
        ],
        "pollDivisionIds": [
          10136974
        ],
        "postalCode": "K8N3P2",
        "streetName": "ALBERT",
        "streetDirectionId": null,
        "streetTypeId": "ST",
        "placeName": "BELLEVILLE",
        "streetNameDisplayText": "ALBERT ST, BELLEVILLE"
      }
    ]
  },
  {
    "postal": "K8N5V4",
    "result": [
      {
        "electoralDistricts": [
          {
            "election": null,
            "id": 6,
            "name": "Bay of Quinte"
          }
        ],
        "pollDivisionIds": [
          10136971
        ],
        "postalCode": "K8N5V4",
        "streetName": "RUSSELL",
        "streetDirectionId": null,
        "streetTypeId": "ST",
        "placeName": "BELLEVILLE",
        "streetNameDisplayText": "RUSSELL ST, BELLEVILLE"
      }
    ]
  },
  {
    "postal": "K8N4H0",
    "result": []
  },
  {
    "postal": "K8N4S7",
    "result": [
      {
        "electoralDistricts": [
          {
            "election": null,
            "id": 6,
            "name": "Bay of Quinte"
          }
        ],
        "pollDivisionIds": [
          10136975
        ],
        "postalCode": "K8N4S7",
        "streetName": "EDWARD",
        "streetDirectionId": null,
        "streetTypeId": "ST",
        "placeName": "BELLEVILLE",
        "streetNameDisplayText": "EDWARD ST, BELLEVILLE"
      }
    ]
  },
  {
    "postal": "K8N6C2",
    "result": []
  },
  {
    "postal": "K8N8W3",
    "result": []
  },
  {
    "postal": "K8N4M5",
    "result": [
      {
        "electoralDistricts": [
          {
            "election": null,
            "id": 6,
            "name": "Bay of Quinte"
          }
        ],
        "pollDivisionIds": [
          10136976
        ],
        "postalCode": "K8N4M5",
        "streetName": "FOREST HILL",
        "streetDirectionId": null,
        "streetTypeId": "CRES",
        "placeName": "BELLEVILLE",
        "streetNameDisplayText": "FOREST HILL CRES, BELLEVILLE"
      }
    ]
  },
  {
    "postal": "K8N5T1",
    "result": [
      {
        "electoralDistricts": [
          {
            "election": null,
            "id": 6,
            "name": "Bay of Quinte"
          }
        ],
        "pollDivisionIds": [
          10136968
        ],
        "postalCode": "K8N5T1",
        "streetName": "COLLEGE",
        "streetDirectionId": "E",
        "streetTypeId": "ST",
        "placeName": "BELLEVILLE",
        "streetNameDisplayText": "COLLEGE ST E, BELLEVILLE"
      }
    ]
  },
  {
    "postal": "K8N3B3",
    "result": [
      {
        "electoralDistricts": [
          {
            "election": null,
            "id": 6,
            "name": "Bay of Quinte"
          }
        ],
        "pollDivisionIds": [
          10136974
        ],
        "postalCode": "K8N3B3",
        "streetName": "PINNACLE",
        "streetDirectionId": null,
        "streetTypeId": "ST",
        "placeName": "BELLEVILLE",
        "streetNameDisplayText": "PINNACLE ST, BELLEVILLE"
      }
    ]
  },
  {
    "postal": "K8N6C6",
    "result": []
  },
  {
    "postal": "K8N7N8",
    "result": []
  },
  {
    "postal": "K8N2Y3",
    "result": [
      {
        "electoralDistricts": [
          {
            "election": null,
            "id": 6,
            "name": "Bay of Quinte"
          }
        ],
        "pollDivisionIds": [
          10136978
        ],
        "postalCode": "K8N2Y3",
        "streetName": "FRONT",
        "streetDirectionId": "S",
        "streetTypeId": "ST",
        "placeName": "BELLEVILLE",
        "streetNameDisplayText": "FRONT ST S, BELLEVILLE"
      },
      {
        "electoralDistricts": [
          {
            "election": null,
            "id": 6,
            "name": "Bay of Quinte"
          }
        ],
        "pollDivisionIds": [
          10136978
        ],
        "postalCode": "K8N2Y3",
        "streetName": "SOUTH FRONT",
        "streetDirectionId": null,
        "streetTypeId": "ST",
        "placeName": "BELLEVILLE",
        "streetNameDisplayText": "SOUTH FRONT ST, BELLEVILLE"
      }
    ]
  },
  {
    "postal": "K8N2R6",
    "result": [
      {
        "electoralDistricts": [
          {
            "election": null,
            "id": 6,
            "name": "Bay of Quinte"
          }
        ],
        "pollDivisionIds": [
          10136971
        ],
        "postalCode": "K8N2R6",
        "streetName": "LIME",
        "streetDirectionId": null,
        "streetTypeId": "ST",
        "placeName": "BELLEVILLE",
        "streetNameDisplayText": "LIME ST, BELLEVILLE"
      }
    ]
  },
  {
    "postal": "K8N7N3",
    "result": []
  },
  {
    "postal": "K8N8J2",
    "result": []
  },
  {
    "postal": "K8N6A9",
    "result": []
  },
  {
    "postal": "K8N3V2",
    "result": [
      {
        "electoralDistricts": [
          {
            "election": null,
            "id": 6,
            "name": "Bay of Quinte"
          }
        ],
        "pollDivisionIds": [
          10136974
        ],
        "postalCode": "K8N3V2",
        "streetName": "BLEECKER",
        "streetDirectionId": null,
        "streetTypeId": "AVE",
        "placeName": "BELLEVILLE",
        "streetNameDisplayText": "BLEECKER AVE, BELLEVILLE"
      }
    ]
  },
  {
    "postal": "K8N2N3",
    "result": [
      {
        "electoralDistricts": [
          {
            "election": null,
            "id": 6,
            "name": "Bay of Quinte"
          }
        ],
        "pollDivisionIds": [
          10136971
        ],
        "postalCode": "K8N2N3",
        "streetName": "PINE",
        "streetDirectionId": null,
        "streetTypeId": "ST",
        "placeName": "BELLEVILLE",
        "streetNameDisplayText": "PINE ST, BELLEVILLE"
      }
    ]
  },
  {
    "postal": "K8N1S5",
    "result": [
      {
        "electoralDistricts": [
          {
            "election": null,
            "id": 6,
            "name": "Bay of Quinte"
          }
        ],
        "pollDivisionIds": [
          10136968
        ],
        "postalCode": "K8N1S5",
        "streetName": "BRIDGE",
        "streetDirectionId": "E",
        "streetTypeId": "ST",
        "placeName": "BELLEVILLE",
        "streetNameDisplayText": "BRIDGE ST E, BELLEVILLE"
      }
    ]
  },
  {
    "postal": "K8N4T7",
    "result": [
      {
        "electoralDistricts": [
          {
            "election": null,
            "id": 6,
            "name": "Bay of Quinte"
          }
        ],
        "pollDivisionIds": [
          10136971
        ],
        "postalCode": "K8N4T7",
        "streetName": "CANNIFTON",
        "streetDirectionId": null,
        "streetTypeId": "RD",
        "placeName": "BELLEVILLE",
        "streetNameDisplayText": "CANNIFTON RD, BELLEVILLE"
      }
    ]
  },
  {
    "postal": "K8N6Y7",
    "result": []
  },
  {
    "postal": "K8N0W7",
    "result": []
  },
  {
    "postal": "K8N2W9",
    "result": [
      {
        "electoralDistricts": [
          {
            "election": null,
            "id": 6,
            "name": "Bay of Quinte"
          }
        ],
        "pollDivisionIds": [
          10136971
        ],
        "postalCode": "K8N2W9",
        "streetName": "SAFE",
        "streetDirectionId": null,
        "streetTypeId": "BLVD",
        "placeName": "BELLEVILLE",
        "streetNameDisplayText": "SAFE BLVD, BELLEVILLE"
      }
    ]
  },
  {
    "postal": "K8N8V0",
    "result": []
  },
  {
    "postal": "K8N0H4",
    "result": [
      {
        "electoralDistricts": [
          {
            "election": null,
            "id": 40,
            "name": "Hastings—Lennox and Addington"
          }
        ],
        "pollDivisionIds": [
          10138776
        ],
        "postalCode": "K8N0H4",
        "streetName": "BEVAN",
        "streetDirectionId": null,
        "streetTypeId": "DR",
        "placeName": "BELLEVILLE",
        "streetNameDisplayText": "BEVAN DR, BELLEVILLE"
      }
    ]
  },
  {
    "postal": "K8N2T1",
    "result": [
      {
        "electoralDistricts": [
          {
            "election": null,
            "id": 6,
            "name": "Bay of Quinte"
          }
        ],
        "pollDivisionIds": [
          10136971
        ],
        "postalCode": "K8N2T1",
        "streetName": "STATION",
        "streetDirectionId": null,
        "streetTypeId": "ST",
        "placeName": "BELLEVILLE",
        "streetNameDisplayText": "STATION ST, BELLEVILLE"
      }
    ]
  },
  {
    "postal": "K8N1B1",
    "result": []
  },
  {
    "postal": "K8N8B6",
    "result": []
  },
  {
    "postal": "K8N6H1",
    "result": []
  },
  {
    "postal": "K8N8T8",
    "result": []
  },
  {
    "postal": "K8N0T4",
    "result": []
  },
  {
    "postal": "K8N2C4",
    "result": [
      {
        "electoralDistricts": [
          {
            "election": null,
            "id": 6,
            "name": "Bay of Quinte"
          }
        ],
        "pollDivisionIds": [
          10136978
        ],
        "postalCode": "K8N2C4",
        "streetName": "VICTORIA",
        "streetDirectionId": null,
        "streetTypeId": "AVE",
        "placeName": "BELLEVILLE",
        "streetNameDisplayText": "VICTORIA AVE, BELLEVILLE"
      }
    ]
  },
  {
    "postal": "K8N8N3",
    "result": []
  },
  {
    "postal": "K8N4L8",
    "result": [
      {
        "electoralDistricts": [
          {
            "election": null,
            "id": 6,
            "name": "Bay of Quinte"
          }
        ],
        "pollDivisionIds": [
          10136976
        ],
        "postalCode": "K8N4L8",
        "streetName": "FARLEY",
        "streetDirectionId": null,
        "streetTypeId": "AVE",
        "placeName": "BELLEVILLE",
        "streetNameDisplayText": "FARLEY AVE, BELLEVILLE"
      }
    ]
  },
  {
    "postal": "K8N2B5",
    "result": [
      {
        "electoralDistricts": [
          {
            "election": null,
            "id": 6,
            "name": "Bay of Quinte"
          }
        ],
        "pollDivisionIds": [
          10136974
        ],
        "postalCode": "K8N2B5",
        "streetName": "VICTORIA",
        "streetDirectionId": null,
        "streetTypeId": "AVE",
        "placeName": "BELLEVILLE",
        "streetNameDisplayText": "VICTORIA AVE, BELLEVILLE"
      }
    ]
  },
  {
    "postal": "K8N3H1",
    "result": [
      {
        "electoralDistricts": [
          {
            "election": null,
            "id": 6,
            "name": "Bay of Quinte"
          }
        ],
        "pollDivisionIds": [
          10136974
        ],
        "postalCode": "K8N3H1",
        "streetName": "GEORGE",
        "streetDirectionId": null,
        "streetTypeId": "ST",
        "placeName": "BELLEVILLE",
        "streetNameDisplayText": "GEORGE ST, BELLEVILLE"
      }
    ]
  },
  {
    "postal": "K8N4Y1",
    "result": [
      {
        "electoralDistricts": [
          {
            "election": null,
            "id": 6,
            "name": "Bay of Quinte"
          }
        ],
        "pollDivisionIds": [
          10136971
        ],
        "postalCode": "K8N4Y1",
        "streetName": "WEST",
        "streetDirectionId": null,
        "streetTypeId": "ST",
        "placeName": "BELLEVILLE",
        "streetNameDisplayText": "WEST ST, BELLEVILLE"
      }
    ]
  },
  {
    "postal": "K8N7E2",
    "result": []
  },
  {
    "postal": "K8N2P5",
    "result": [
      {
        "electoralDistricts": [
          {
            "election": null,
            "id": 6,
            "name": "Bay of Quinte"
          }
        ],
        "pollDivisionIds": [
          10136971
        ],
        "postalCode": "K8N2P5",
        "streetName": "EMILY",
        "streetDirectionId": null,
        "streetTypeId": "ST",
        "placeName": "BELLEVILLE",
        "streetNameDisplayText": "EMILY ST, BELLEVILLE"
      }
    ]
  },
  {
    "postal": "K8N8R7",
    "result": []
  },
  {
    "postal": "K8N9P1",
    "result": []
  },
  {
    "postal": "K8N3B8",
    "result": [
      {
        "electoralDistricts": [
          {
            "election": null,
            "id": 6,
            "name": "Bay of Quinte"
          }
        ],
        "pollDivisionIds": [
          10136978
        ],
        "postalCode": "K8N3B8",
        "streetName": "CHURCH",
        "streetDirectionId": "S",
        "streetTypeId": "ST",
        "placeName": "BELLEVILLE",
        "streetNameDisplayText": "CHURCH ST S, BELLEVILLE"
      }
    ]
  },
  {
    "postal": "K8N3P7",
    "result": [
      {
        "electoralDistricts": [
          {
            "election": null,
            "id": 6,
            "name": "Bay of Quinte"
          }
        ],
        "pollDivisionIds": [
          10136978
        ],
        "postalCode": "K8N3P7",
        "streetName": "FOSTER",
        "streetDirectionId": "S",
        "streetTypeId": "AVE",
        "placeName": "BELLEVILLE",
        "streetNameDisplayText": "FOSTER AVE S, BELLEVILLE"
      }
    ]
  },
  {
    "postal": "K8N9B2",
    "result": []
  },
  {
    "postal": "K8N6Z3",
    "result": []
  },
  {
    "postal": "K8N4N5",
    "result": [
      {
        "electoralDistricts": [
          {
            "election": null,
            "id": 6,
            "name": "Bay of Quinte"
          }
        ],
        "pollDivisionIds": [
          10136976
        ],
        "postalCode": "K8N4N5",
        "streetName": "STANLEY PARK",
        "streetDirectionId": null,
        "streetTypeId": "DR",
        "placeName": "BELLEVILLE",
        "streetNameDisplayText": "STANLEY PARK DR, BELLEVILLE"
      }
    ]
  },
  {
    "postal": "K8N8T3",
    "result": []
  },
  {
    "postal": "K8N1V2",
    "result": [
      {
        "electoralDistricts": [
          {
            "election": null,
            "id": 6,
            "name": "Bay of Quinte"
          }
        ],
        "pollDivisionIds": [
          10136974
        ],
        "postalCode": "K8N1V2",
        "streetName": "QUEEN",
        "streetDirectionId": null,
        "streetTypeId": "ST",
        "placeName": "BELLEVILLE",
        "streetNameDisplayText": "QUEEN ST, BELLEVILLE"
      }
    ]
  },
  {
    "postal": "K8N1Y0",
    "result": []
  },
  {
    "postal": "K8N3G6",
    "result": [
      {
        "electoralDistricts": [
          {
            "election": null,
            "id": 6,
            "name": "Bay of Quinte"
          }
        ],
        "pollDivisionIds": [
          10136978
        ],
        "postalCode": "K8N3G6",
        "streetName": "GEORGE",
        "streetDirectionId": "S",
        "streetTypeId": "ST",
        "placeName": "BELLEVILLE",
        "streetNameDisplayText": "GEORGE ST S, BELLEVILLE"
      }
    ]
  },
  {
    "postal": "K8N3H7",
    "result": [
      {
        "electoralDistricts": [
          {
            "election": null,
            "id": 6,
            "name": "Bay of Quinte"
          }
        ],
        "pollDivisionIds": [
          10136974,
          10136978
        ],
        "postalCode": "K8N3H7",
        "streetName": "GEORGE",
        "streetDirectionId": null,
        "streetTypeId": "ST",
        "placeName": "BELLEVILLE",
        "streetNameDisplayText": "GEORGE ST, BELLEVILLE"
      }
    ]
  },
  {
    "postal": "K8N7X8",
    "result": []
  },
  {
    "postal": "K8N0C7",
    "result": [
      {
        "electoralDistricts": [
          {
            "election": null,
            "id": 6,
            "name": "Bay of Quinte"
          }
        ],
        "pollDivisionIds": [
          10136971
        ],
        "postalCode": "K8N0C7",
        "streetName": "GREENHILL",
        "streetDirectionId": null,
        "streetTypeId": "LANE",
        "placeName": "BELLEVILLE",
        "streetNameDisplayText": "GREENHILL LANE, BELLEVILLE"
      }
    ]
  },
  {
    "postal": "K8N0W9",
    "result": []
  },
  {
    "postal": "K8N8E6",
    "result": []
  },
  {
    "postal": "K8N9Z8",
    "result": []
  },
  {
    "postal": "K8N3P4",
    "result": [
      {
        "electoralDistricts": [
          {
            "election": null,
            "id": 6,
            "name": "Bay of Quinte"
          }
        ],
        "pollDivisionIds": [
          10136978
        ],
        "postalCode": "K8N3P4",
        "streetName": "FOSTER",
        "streetDirectionId": "S",
        "streetTypeId": "AVE",
        "placeName": "BELLEVILLE",
        "streetNameDisplayText": "FOSTER AVE S, BELLEVILLE"
      }
    ]
  },
  {
    "postal": "K8N6L8",
    "result": []
  },
  {
    "postal": "K8N2R4",
    "result": [
      {
        "electoralDistricts": [
          {
            "election": null,
            "id": 6,
            "name": "Bay of Quinte"
          }
        ],
        "pollDivisionIds": [
          10136971
        ],
        "postalCode": "K8N2R4",
        "streetName": "BRASSEY",
        "streetDirectionId": null,
        "streetTypeId": "ST",
        "placeName": "BELLEVILLE",
        "streetNameDisplayText": "BRASSEY ST, BELLEVILLE"
      }
    ]
  },
  {
    "postal": "K8N2W1",
    "result": [
      {
        "electoralDistricts": [
          {
            "election": null,
            "id": 6,
            "name": "Bay of Quinte"
          }
        ],
        "pollDivisionIds": [
          10136967,
          10136971
        ],
        "postalCode": "K8N2W1",
        "streetName": "BYRON",
        "streetDirectionId": null,
        "streetTypeId": "ST",
        "placeName": "BELLEVILLE",
        "streetNameDisplayText": "BYRON ST, BELLEVILLE"
      }
    ]
  },
  {
    "postal": "K8N9H8",
    "result": []
  },
  {
    "postal": "K8N8X9",
    "result": []
  },
  {
    "postal": "K8N7H4",
    "result": []
  },
  {
    "postal": "K8N3J1",
    "result": [
      {
        "electoralDistricts": [
          {
            "election": null,
            "id": 6,
            "name": "Bay of Quinte"
          }
        ],
        "pollDivisionIds": [
          10136974
        ],
        "postalCode": "K8N3J1",
        "streetName": "MOUNT PLEASANT",
        "streetDirectionId": null,
        "streetTypeId": "RD",
        "placeName": "BELLEVILLE",
        "streetNameDisplayText": "MOUNT PLEASANT RD, BELLEVILLE"
      }
    ]
  },
  {
    "postal": "K8N1P4",
    "result": [
      {
        "electoralDistricts": [
          {
            "election": null,
            "id": 6,
            "name": "Bay of Quinte"
          }
        ],
        "pollDivisionIds": [
          10136978
        ],
        "postalCode": "K8N1P4",
        "streetName": "BRIDGE",
        "streetDirectionId": "E",
        "streetTypeId": "ST",
        "placeName": "BELLEVILLE",
        "streetNameDisplayText": "BRIDGE ST E, BELLEVILLE"
      }
    ]
  },
  {
    "postal": "K8N2A3",
    "result": [
      {
        "electoralDistricts": [
          {
            "election": null,
            "id": 6,
            "name": "Bay of Quinte"
          }
        ],
        "pollDivisionIds": [
          10136974
        ],
        "postalCode": "K8N2A3",
        "streetName": "VICTORIA",
        "streetDirectionId": null,
        "streetTypeId": "AVE",
        "placeName": "BELLEVILLE",
        "streetNameDisplayText": "VICTORIA AVE, BELLEVILLE"
      }
    ]
  },
  {
    "postal": "K8N0Z1",
    "result": []
  },
  {
    "postal": "K8N1C1",
    "result": [
      {
        "electoralDistricts": [
          {
            "election": null,
            "id": 6,
            "name": "Bay of Quinte"
          }
        ],
        "pollDivisionIds": [
          10136974
        ],
        "postalCode": "K8N1C1",
        "streetName": "DUNDAS",
        "streetDirectionId": "E",
        "streetTypeId": "ST",
        "placeName": "BELLEVILLE",
        "streetNameDisplayText": "DUNDAS ST E, BELLEVILLE"
      }
    ]
  },
  {
    "postal": "K8N0H3",
    "result": [
      {
        "electoralDistricts": [
          {
            "election": null,
            "id": 40,
            "name": "Hastings—Lennox and Addington"
          }
        ],
        "pollDivisionIds": [
          10138776,
          10138721
        ],
        "postalCode": "K8N0H3",
        "streetName": "BEVAN",
        "streetDirectionId": null,
        "streetTypeId": "DR",
        "placeName": "BELLEVILLE",
        "streetNameDisplayText": "BEVAN DR, BELLEVILLE"
      }
    ]
  },
  {
    "postal": "K8N7B0",
    "result": []
  },
  {
    "postal": "K8N5K2",
    "result": [
      {
        "electoralDistricts": [
          {
            "election": null,
            "id": 6,
            "name": "Bay of Quinte"
          }
        ],
        "pollDivisionIds": [
          10136976
        ],
        "postalCode": "K8N5K2",
        "streetName": "HAIG",
        "streetDirectionId": null,
        "streetTypeId": "RD",
        "placeName": "BELLEVILLE",
        "streetNameDisplayText": "HAIG RD, BELLEVILLE"
      }
    ]
  },
  {
    "postal": "K8N1E9",
    "result": [
      {
        "electoralDistricts": [
          {
            "election": null,
            "id": 6,
            "name": "Bay of Quinte"
          }
        ],
        "pollDivisionIds": [
          10136975
        ],
        "postalCode": "K8N1E9",
        "streetName": "DUNDAS",
        "streetDirectionId": "E",
        "streetTypeId": "ST",
        "placeName": "BELLEVILLE",
        "streetNameDisplayText": "DUNDAS ST E, BELLEVILLE"
      }
    ]
  },
  {
    "postal": "K8N9W7",
    "result": []
  },
  {
    "postal": "K8N5W6",
    "result": []
  },
  {
    "postal": "K8N6S6",
    "result": []
  },
  {
    "postal": "K8N2P8",
    "result": [
      {
        "electoralDistricts": [
          {
            "election": null,
            "id": 6,
            "name": "Bay of Quinte"
          }
        ],
        "pollDivisionIds": [
          10136971
        ],
        "postalCode": "K8N2P8",
        "streetName": "EMILY",
        "streetDirectionId": null,
        "streetTypeId": "ST",
        "placeName": "BELLEVILLE",
        "streetNameDisplayText": "EMILY ST, BELLEVILLE"
      }
    ]
  },
  {
    "postal": "K8N4P8",
    "result": [
      {
        "electoralDistricts": [
          {
            "election": null,
            "id": 6,
            "name": "Bay of Quinte"
          }
        ],
        "pollDivisionIds": [
          10136968
        ],
        "postalCode": "K8N4P8",
        "streetName": "HAIG",
        "streetDirectionId": null,
        "streetTypeId": "RD",
        "placeName": "BELLEVILLE",
        "streetNameDisplayText": "HAIG RD, BELLEVILLE"
      }
    ]
  },
  {
    "postal": "K8N0V9",
    "result": []
  },
  {
    "postal": "K8N5Y2",
    "result": [
      {
        "electoralDistricts": [
          {
            "election": null,
            "id": 6,
            "name": "Bay of Quinte"
          }
        ],
        "pollDivisionIds": [
          10136968
        ],
        "postalCode": "K8N5Y2",
        "streetName": "HEMLOCK",
        "streetDirectionId": null,
        "streetTypeId": "CRES",
        "placeName": "BELLEVILLE",
        "streetNameDisplayText": "HEMLOCK CRES, BELLEVILLE"
      },
      {
        "electoralDistricts": [
          {
            "election": null,
            "id": 6,
            "name": "Bay of Quinte"
          }
        ],
        "pollDivisionIds": [
          10136968
        ],
        "postalCode": "K8N5Y2",
        "streetName": "HICKORY",
        "streetDirectionId": null,
        "streetTypeId": "GROVE",
        "placeName": "BELLEVILLE",
        "streetNameDisplayText": "HICKORY GROVE, BELLEVILLE"
      }
    ]
  },
  {
    "postal": "K8N7Z7",
    "result": []
  },
  {
    "postal": "K8N6Y8",
    "result": []
  },
  {
    "postal": "K8N2G7",
    "result": [
      {
        "electoralDistricts": [
          {
            "election": null,
            "id": 6,
            "name": "Bay of Quinte"
          }
        ],
        "pollDivisionIds": [
          10136976
        ],
        "postalCode": "K8N2G7",
        "streetName": "VICTORIA",
        "streetDirectionId": null,
        "streetTypeId": "AVE",
        "placeName": "BELLEVILLE",
        "streetNameDisplayText": "VICTORIA AVE, BELLEVILLE"
      }
    ]
  },
  {
    "postal": "K8N8C1",
    "result": []
  },
  {
    "postal": "K8N5C5",
    "result": []
  },
  {
    "postal": "K8N2X8",
    "result": [
      {
        "electoralDistricts": [
          {
            "election": null,
            "id": 6,
            "name": "Bay of Quinte"
          }
        ],
        "pollDivisionIds": [
          10136971
        ],
        "postalCode": "K8N2X8",
        "streetName": "TICE",
        "streetDirectionId": null,
        "streetTypeId": "CRES",
        "placeName": "BELLEVILLE",
        "streetNameDisplayText": "TICE CRES, BELLEVILLE"
      }
    ]
  },
  {
    "postal": "K8N1W5",
    "result": [
      {
        "electoralDistricts": [
          {
            "election": null,
            "id": 6,
            "name": "Bay of Quinte"
          }
        ],
        "pollDivisionIds": [
          10136975
        ],
        "postalCode": "K8N1W5",
        "streetName": "CRESTVIEW",
        "streetDirectionId": null,
        "streetTypeId": "AVE",
        "placeName": "BELLEVILLE",
        "streetNameDisplayText": "CRESTVIEW AVE, BELLEVILLE"
      }
    ]
  },
  {
    "postal": "K8N7G0",
    "result": []
  },
  {
    "postal": "K8N8J8",
    "result": []
  },
  {
    "postal": "K8N3Y0",
    "result": []
  },
  {
    "postal": "K8N9T7",
    "result": []
  },
  {
    "postal": "K8N5P4",
    "result": [
      {
        "electoralDistricts": [
          {
            "election": null,
            "id": 6,
            "name": "Bay of Quinte"
          }
        ],
        "pollDivisionIds": [
          10136978
        ],
        "postalCode": "K8N5P4",
        "streetName": "FRONT",
        "streetDirectionId": "S",
        "streetTypeId": "ST",
        "placeName": "BELLEVILLE",
        "streetNameDisplayText": "FRONT ST S, BELLEVILLE"
      }
    ]
  },
  {
    "postal": "K8N4B0",
    "result": []
  },
  {
    "postal": "K8N9N8",
    "result": []
  },
  {
    "postal": "K8N4A7",
    "result": [
      {
        "electoralDistricts": [
          {
            "election": null,
            "id": 6,
            "name": "Bay of Quinte"
          }
        ],
        "pollDivisionIds": [
          10136978
        ],
        "postalCode": "K8N4A7",
        "streetName": "GOLFDALE",
        "streetDirectionId": null,
        "streetTypeId": "RD",
        "placeName": "BELLEVILLE",
        "streetNameDisplayText": "GOLFDALE RD, BELLEVILLE"
      }
    ]
  },
  {
    "postal": "K8N4H9",
    "result": [
      {
        "electoralDistricts": [
          {
            "election": null,
            "id": 6,
            "name": "Bay of Quinte"
          }
        ],
        "pollDivisionIds": [
          10136975
        ],
        "postalCode": "K8N4H9",
        "streetName": "STRATHCONA",
        "streetDirectionId": null,
        "streetTypeId": "DR",
        "placeName": "BELLEVILLE",
        "streetNameDisplayText": "STRATHCONA DR, BELLEVILLE"
      }
    ]
  },
  {
    "postal": "K8N6X1",
    "result": []
  },
  {
    "postal": "K8N9Y7",
    "result": []
  },
  {
    "postal": "K8N2Y5",
    "result": [
      {
        "electoralDistricts": [
          {
            "election": null,
            "id": 6,
            "name": "Bay of Quinte"
          }
        ],
        "pollDivisionIds": [
          10136978
        ],
        "postalCode": "K8N2Y5",
        "streetName": "FRONT",
        "streetDirectionId": "S",
        "streetTypeId": "ST",
        "placeName": "BELLEVILLE",
        "streetNameDisplayText": "FRONT ST S, BELLEVILLE"
      },
      {
        "electoralDistricts": [
          {
            "election": null,
            "id": 6,
            "name": "Bay of Quinte"
          }
        ],
        "pollDivisionIds": [
          10136970,
          10136973
        ],
        "postalCode": "K8N2Y5",
        "streetName": "NORTH FRONT",
        "streetDirectionId": null,
        "streetTypeId": "ST",
        "placeName": "BELLEVILLE",
        "streetNameDisplayText": "NORTH FRONT ST, BELLEVILLE"
      },
      {
        "electoralDistricts": [
          {
            "election": null,
            "id": 6,
            "name": "Bay of Quinte"
          }
        ],
        "pollDivisionIds": [
          10136978
        ],
        "postalCode": "K8N2Y5",
        "streetName": "SOUTH FRONT",
        "streetDirectionId": null,
        "streetTypeId": "ST",
        "placeName": "BELLEVILLE",
        "streetNameDisplayText": "SOUTH FRONT ST, BELLEVILLE"
      }
    ]
  },
  {
    "postal": "K8N8L7",
    "result": []
  },
  {
    "postal": "K8N2A8",
    "result": [
      {
        "electoralDistricts": [
          {
            "election": null,
            "id": 6,
            "name": "Bay of Quinte"
          }
        ],
        "pollDivisionIds": [
          10136974
        ],
        "postalCode": "K8N2A8",
        "streetName": "VICTORIA",
        "streetDirectionId": null,
        "streetTypeId": "AVE",
        "placeName": "BELLEVILLE",
        "streetNameDisplayText": "VICTORIA AVE, BELLEVILLE"
      }
    ]
  },
  {
    "postal": "K8N2K9",
    "result": [
      {
        "electoralDistricts": [
          {
            "election": null,
            "id": 6,
            "name": "Bay of Quinte"
          }
        ],
        "pollDivisionIds": [
          10136976
        ],
        "postalCode": "K8N2K9",
        "streetName": "EDGEHILL",
        "streetDirectionId": null,
        "streetTypeId": "RD",
        "placeName": "BELLEVILLE",
        "streetNameDisplayText": "EDGEHILL RD, BELLEVILLE"
      }
    ]
  },
  {
    "postal": "K8N3E5",
    "result": [
      {
        "electoralDistricts": [
          {
            "election": null,
            "id": 6,
            "name": "Bay of Quinte"
          }
        ],
        "pollDivisionIds": [
          10136978
        ],
        "postalCode": "K8N3E5",
        "streetName": "JOHN",
        "streetDirectionId": "S",
        "streetTypeId": "ST",
        "placeName": "BELLEVILLE",
        "streetNameDisplayText": "JOHN ST S, BELLEVILLE"
      }
    ]
  },
  {
    "postal": "K8N8N6",
    "result": []
  },
  {
    "postal": "K8N8J4",
    "result": []
  },
  {
    "postal": "K8N4R7",
    "result": [
      {
        "electoralDistricts": [
          {
            "election": null,
            "id": 6,
            "name": "Bay of Quinte"
          }
        ],
        "pollDivisionIds": [
          10136981
        ],
        "postalCode": "K8N4R7",
        "streetName": "COUNTY 3",
        "streetDirectionId": null,
        "streetTypeId": "RD",
        "placeName": "BELLEVILLE",
        "streetNameDisplayText": "COUNTY 3 RD, BELLEVILLE"
      },
      {
        "electoralDistricts": [
          {
            "election": null,
            "id": 6,
            "name": "Bay of Quinte"
          }
        ],
        "pollDivisionIds": [
          10136978
        ],
        "postalCode": "K8N4R7",
        "streetName": "THIRD",
        "streetDirectionId": null,
        "streetTypeId": "ST",
        "placeName": "BELLEVILLE",
        "streetNameDisplayText": "THIRD ST, BELLEVILLE"
      }
    ]
  },
  {
    "postal": "K8N9K1",
    "result": []
  },
  {
    "postal": "K8N8E1",
    "result": []
  },
  {
    "postal": "K8N0R1",
    "result": []
  },
  {
    "postal": "K8N4J3",
    "result": [
      {
        "electoralDistricts": [
          {
            "election": null,
            "id": 6,
            "name": "Bay of Quinte"
          }
        ],
        "pollDivisionIds": [
          10136976
        ],
        "postalCode": "K8N4J3",
        "streetName": "PLAZA",
        "streetDirectionId": null,
        "streetTypeId": "SQ",
        "placeName": "BELLEVILLE",
        "streetNameDisplayText": "PLAZA SQ, BELLEVILLE"
      }
    ]
  },
  {
    "postal": "K8N7E7",
    "result": []
  },
  {
    "postal": "K8N0J0",
    "result": []
  },
  {
    "postal": "K8N7R8",
    "result": []
  },
  {
    "postal": "K8N9X0",
    "result": []
  },
  {
    "postal": "K8N7P6",
    "result": []
  },
  {
    "postal": "K8N0R7",
    "result": []
  },
  {
    "postal": "K8N5W1",
    "result": [
      {
        "electoralDistricts": [
          {
            "election": null,
            "id": 6,
            "name": "Bay of Quinte"
          }
        ],
        "pollDivisionIds": [
          10136976
        ],
        "postalCode": "K8N5W1",
        "streetName": "OAK RIDGE",
        "streetDirectionId": null,
        "streetTypeId": "BLVD",
        "placeName": "BELLEVILLE",
        "streetNameDisplayText": "OAK RIDGE BLVD, BELLEVILLE"
      }
    ]
  },
  {
    "postal": "K8N0K4",
    "result": [
      {
        "electoralDistricts": [
          {
            "election": null,
            "id": 40,
            "name": "Hastings—Lennox and Addington"
          }
        ],
        "pollDivisionIds": [
          10138776
        ],
        "postalCode": "K8N0K4",
        "streetName": "REDWOOD",
        "streetDirectionId": null,
        "streetTypeId": "DR",
        "placeName": "BELLEVILLE",
        "streetNameDisplayText": "REDWOOD DR, BELLEVILLE"
      }
    ]
  },
  {
    "postal": "K8N7N9",
    "result": []
  },
  {
    "postal": "K8N1N0",
    "result": []
  },
  {
    "postal": "K8N6P3",
    "result": []
  },
  {
    "postal": "K8N5A1",
    "result": []
  },
  {
    "postal": "K8N9M9",
    "result": []
  },
  {
    "postal": "K8N7T6",
    "result": []
  },
  {
    "postal": "K8N3X0",
    "result": []
  },
  {
    "postal": "K8N2T0",
    "result": []
  },
  {
    "postal": "K8N5X9",
    "result": [
      {
        "electoralDistricts": [
          {
            "election": null,
            "id": 6,
            "name": "Bay of Quinte"
          }
        ],
        "pollDivisionIds": [
          10136975
        ],
        "postalCode": "K8N5X9",
        "streetName": "PINEGROVE",
        "streetDirectionId": null,
        "streetTypeId": "CRT",
        "placeName": "BELLEVILLE",
        "streetNameDisplayText": "PINEGROVE CRT, BELLEVILLE"
      }
    ]
  },
  {
    "postal": "K8N2R3",
    "result": [
      {
        "electoralDistricts": [
          {
            "election": null,
            "id": 6,
            "name": "Bay of Quinte"
          }
        ],
        "pollDivisionIds": [
          10136971
        ],
        "postalCode": "K8N2R3",
        "streetName": "BRASSEY",
        "streetDirectionId": null,
        "streetTypeId": "ST",
        "placeName": "BELLEVILLE",
        "streetNameDisplayText": "BRASSEY ST, BELLEVILLE"
      }
    ]
  },
  {
    "postal": "K8N5N2",
    "result": [
      {
        "electoralDistricts": [
          {
            "election": null,
            "id": 6,
            "name": "Bay of Quinte"
          }
        ],
        "pollDivisionIds": [
          10136976
        ],
        "postalCode": "K8N5N2",
        "streetName": "CAMBRIDGE",
        "streetDirectionId": null,
        "streetTypeId": "CRT",
        "placeName": "BELLEVILLE",
        "streetNameDisplayText": "CAMBRIDGE CRT, BELLEVILLE"
      }
    ]
  },
  {
    "postal": "K8N4Y7",
    "result": []
  },
  {
    "postal": "K8N7M0",
    "result": []
  },
  {
    "postal": "K8N8P3",
    "result": []
  },
  {
    "postal": "K8N3N3",
    "result": [
      {
        "electoralDistricts": [
          {
            "election": null,
            "id": 6,
            "name": "Bay of Quinte"
          }
        ],
        "pollDivisionIds": [
          10136978
        ],
        "postalCode": "K8N3N3",
        "streetName": "NEWBERRY",
        "streetDirectionId": null,
        "streetTypeId": "ST",
        "placeName": "BELLEVILLE",
        "streetNameDisplayText": "NEWBERRY ST, BELLEVILLE"
      }
    ]
  },
  {
    "postal": "K8N7S3",
    "result": []
  },
  {
    "postal": "K8N3V9",
    "result": [
      {
        "electoralDistricts": [
          {
            "election": null,
            "id": 6,
            "name": "Bay of Quinte"
          }
        ],
        "pollDivisionIds": [
          10136971
        ],
        "postalCode": "K8N3V9",
        "streetName": "BLEECKER",
        "streetDirectionId": null,
        "streetTypeId": "AVE",
        "placeName": "BELLEVILLE",
        "streetNameDisplayText": "BLEECKER AVE, BELLEVILLE"
      }
    ]
  },
  {
    "postal": "K8N9N7",
    "result": []
  },
  {
    "postal": "K8N0G4",
    "result": [
      {
        "electoralDistricts": [
          {
            "election": null,
            "id": 6,
            "name": "Bay of Quinte"
          }
        ],
        "pollDivisionIds": [
          10136971,
          10136975
        ],
        "postalCode": "K8N0G4",
        "streetName": "LANARK",
        "streetDirectionId": null,
        "streetTypeId": "DR",
        "placeName": "BELLEVILLE",
        "streetNameDisplayText": "LANARK DR, BELLEVILLE"
      }
    ]
  },
  {
    "postal": "K8N2E2",
    "result": [
      {
        "electoralDistricts": [
          {
            "election": null,
            "id": 6,
            "name": "Bay of Quinte"
          }
        ],
        "pollDivisionIds": [
          10136975
        ],
        "postalCode": "K8N2E2",
        "streetName": "VICTORIA",
        "streetDirectionId": null,
        "streetTypeId": "AVE",
        "placeName": "BELLEVILLE",
        "streetNameDisplayText": "VICTORIA AVE, BELLEVILLE"
      }
    ]
  },
  {
    "postal": "K8N7W8",
    "result": []
  },
  {
    "postal": "K8N7M5",
    "result": []
  },
  {
    "postal": "K8N5W8",
    "result": [
      {
        "electoralDistricts": [
          {
            "election": null,
            "id": 6,
            "name": "Bay of Quinte"
          }
        ],
        "pollDivisionIds": [
          10136967
        ],
        "postalCode": "K8N5W8",
        "streetName": "CENTRE",
        "streetDirectionId": null,
        "streetTypeId": "ST",
        "placeName": "BELLEVILLE",
        "streetNameDisplayText": "CENTRE ST, BELLEVILLE"
      }
    ]
  },
  {
    "postal": "K8N5E5",
    "result": [
      {
        "electoralDistricts": [
          {
            "election": null,
            "id": 6,
            "name": "Bay of Quinte"
          }
        ],
        "pollDivisionIds": [
          10136976
        ],
        "postalCode": "K8N5E5",
        "streetName": "HAIG",
        "streetDirectionId": null,
        "streetTypeId": "RD",
        "placeName": "BELLEVILLE",
        "streetNameDisplayText": "HAIG RD, BELLEVILLE"
      }
    ]
  },
  {
    "postal": "K8N1P9",
    "result": [
      {
        "electoralDistricts": [
          {
            "election": null,
            "id": 6,
            "name": "Bay of Quinte"
          }
        ],
        "pollDivisionIds": [
          10136975,
          10136976
        ],
        "postalCode": "K8N1P9",
        "streetName": "BRIDGE",
        "streetDirectionId": "E",
        "streetTypeId": "ST",
        "placeName": "BELLEVILLE",
        "streetNameDisplayText": "BRIDGE ST E, BELLEVILLE"
      },
      {
        "electoralDistricts": [
          {
            "election": null,
            "id": 6,
            "name": "Bay of Quinte"
          }
        ],
        "pollDivisionIds": [
          10136972
        ],
        "postalCode": "K8N1P9",
        "streetName": "BRIDGE",
        "streetDirectionId": "W",
        "streetTypeId": "ST",
        "placeName": "BELLEVILLE",
        "streetNameDisplayText": "BRIDGE ST W, BELLEVILLE"
      }
    ]
  },
  {
    "postal": "K8N8V8",
    "result": []
  },
  {
    "postal": "K8N9G8",
    "result": []
  },
  {
    "postal": "K8N8H9",
    "result": []
  },
  {
    "postal": "K8N1Z1",
    "result": [
      {
        "electoralDistricts": [
          {
            "election": null,
            "id": 6,
            "name": "Bay of Quinte"
          }
        ],
        "pollDivisionIds": [
          10136976
        ],
        "postalCode": "K8N1Z1",
        "streetName": "RICHMOND",
        "streetDirectionId": null,
        "streetTypeId": "GROVE",
        "placeName": "BELLEVILLE",
        "streetNameDisplayText": "RICHMOND GROVE, BELLEVILLE"
      }
    ]
  },
  {
    "postal": "K8N8M3",
    "result": []
  },
  {
    "postal": "K8N5H6",
    "result": [
      {
        "electoralDistricts": [
          {
            "election": null,
            "id": 6,
            "name": "Bay of Quinte"
          }
        ],
        "pollDivisionIds": [
          10136975,
          10137008
        ],
        "postalCode": "K8N5H6",
        "streetName": "BRIDGE",
        "streetDirectionId": "E",
        "streetTypeId": "ST",
        "placeName": "BELLEVILLE",
        "streetNameDisplayText": "BRIDGE ST E, BELLEVILLE"
      }
    ]
  },
  {
    "postal": "K8N7W7",
    "result": []
  },
  {
    "postal": "K8N4L0",
    "result": []
  },
  {
    "postal": "K8N2N1",
    "result": [
      {
        "electoralDistricts": [
          {
            "election": null,
            "id": 6,
            "name": "Bay of Quinte"
          }
        ],
        "pollDivisionIds": [
          10136971
        ],
        "postalCode": "K8N2N1",
        "streetName": "PINE",
        "streetDirectionId": null,
        "streetTypeId": "ST",
        "placeName": "BELLEVILLE",
        "streetNameDisplayText": "PINE ST, BELLEVILLE"
      }
    ]
  },
  {
    "postal": "K8N2H4",
    "result": [
      {
        "electoralDistricts": [
          {
            "election": null,
            "id": 6,
            "name": "Bay of Quinte"
          }
        ],
        "pollDivisionIds": [
          10136974
        ],
        "postalCode": "K8N2H4",
        "streetName": "ALEXANDER",
        "streetDirectionId": null,
        "streetTypeId": "ST",
        "placeName": "BELLEVILLE",
        "streetNameDisplayText": "ALEXANDER ST, BELLEVILLE"
      }
    ]
  },
  {
    "postal": "K8N5C8",
    "result": []
  },
  {
    "postal": "K8N8B0",
    "result": []
  },
  {
    "postal": "K8N1T4",
    "result": [
      {
        "electoralDistricts": [
          {
            "election": null,
            "id": 6,
            "name": "Bay of Quinte"
          }
        ],
        "pollDivisionIds": [
          10136974
        ],
        "postalCode": "K8N1T4",
        "streetName": "QUEEN",
        "streetDirectionId": null,
        "streetTypeId": "ST",
        "placeName": "BELLEVILLE",
        "streetNameDisplayText": "QUEEN ST, BELLEVILLE"
      },
      {
        "electoralDistricts": [
          {
            "election": null,
            "id": 40,
            "name": "Hastings—Lennox and Addington"
          }
        ],
        "pollDivisionIds": [
          10138763
        ],
        "postalCode": "K8N1T4",
        "streetName": "THURLOW QUEEN",
        "streetDirectionId": null,
        "streetTypeId": "ST",
        "placeName": "BELLEVILLE",
        "streetNameDisplayText": "THURLOW QUEEN ST, BELLEVILLE"
      }
    ]
  },
  {
    "postal": "K8N7N7",
    "result": []
  },
  {
    "postal": "K8N4L3",
    "result": [
      {
        "electoralDistricts": [
          {
            "election": null,
            "id": 6,
            "name": "Bay of Quinte"
          }
        ],
        "pollDivisionIds": [
          10136976
        ],
        "postalCode": "K8N4L3",
        "streetName": "FARLEY",
        "streetDirectionId": null,
        "streetTypeId": "AVE",
        "placeName": "BELLEVILLE",
        "streetNameDisplayText": "FARLEY AVE, BELLEVILLE"
      }
    ]
  },
  {
    "postal": "K8N2N2",
    "result": [
      {
        "electoralDistricts": [
          {
            "election": null,
            "id": 6,
            "name": "Bay of Quinte"
          }
        ],
        "pollDivisionIds": [
          10136971
        ],
        "postalCode": "K8N2N2",
        "streetName": "PINE",
        "streetDirectionId": null,
        "streetTypeId": "ST",
        "placeName": "BELLEVILLE",
        "streetNameDisplayText": "PINE ST, BELLEVILLE"
      }
    ]
  },
  {
    "postal": "K8N4N8",
    "result": [
      {
        "electoralDistricts": [
          {
            "election": null,
            "id": 6,
            "name": "Bay of Quinte"
          }
        ],
        "pollDivisionIds": [
          10136976
        ],
        "postalCode": "K8N4N8",
        "streetName": "PARROTT",
        "streetDirectionId": null,
        "streetTypeId": "DR",
        "placeName": "BELLEVILLE",
        "streetNameDisplayText": "PARROTT DR, BELLEVILLE"
      }
    ]
  },
  {
    "postal": "K8N3M5",
    "result": [
      {
        "electoralDistricts": [
          {
            "election": null,
            "id": 6,
            "name": "Bay of Quinte"
          }
        ],
        "pollDivisionIds": [
          10136974
        ],
        "postalCode": "K8N3M5",
        "streetName": "CHARLES",
        "streetDirectionId": null,
        "streetTypeId": "ST",
        "placeName": "BELLEVILLE",
        "streetNameDisplayText": "CHARLES ST, BELLEVILLE"
      }
    ]
  },
  {
    "postal": "K8N6H7",
    "result": []
  },
  {
    "postal": "K8N8Y8",
    "result": []
  },
  {
    "postal": "K8N5R9",
    "result": [
      {
        "electoralDistricts": [
          {
            "election": null,
            "id": 6,
            "name": "Bay of Quinte"
          }
        ],
        "pollDivisionIds": [
          10136971
        ],
        "postalCode": "K8N5R9",
        "streetName": "DUSSEK",
        "streetDirectionId": null,
        "streetTypeId": "ST",
        "placeName": "BELLEVILLE",
        "streetNameDisplayText": "DUSSEK ST, BELLEVILLE"
      }
    ]
  },
  {
    "postal": "K8N8G3",
    "result": []
  },
  {
    "postal": "K8N4N7",
    "result": [
      {
        "electoralDistricts": [
          {
            "election": null,
            "id": 6,
            "name": "Bay of Quinte"
          }
        ],
        "pollDivisionIds": [
          10136976,
          10136965
        ],
        "postalCode": "K8N4N7",
        "streetName": "PARK",
        "streetDirectionId": null,
        "streetTypeId": "LANE",
        "placeName": "BELLEVILLE",
        "streetNameDisplayText": "PARK LANE, BELLEVILLE"
      }
    ]
  },
  {
    "postal": "K8N0B9",
    "result": [
      {
        "electoralDistricts": [
          {
            "election": null,
            "id": 6,
            "name": "Bay of Quinte"
          }
        ],
        "pollDivisionIds": [
          10136971
        ],
        "postalCode": "K8N0B9",
        "streetName": "CROSBIE",
        "streetDirectionId": null,
        "streetTypeId": "CRT",
        "placeName": "BELLEVILLE",
        "streetNameDisplayText": "CROSBIE CRT, BELLEVILLE"
      },
      {
        "electoralDistricts": [
          {
            "election": null,
            "id": 6,
            "name": "Bay of Quinte"
          }
        ],
        "pollDivisionIds": [
          10136976,
          10136971
        ],
        "postalCode": "K8N0B9",
        "streetName": "FARLEY",
        "streetDirectionId": null,
        "streetTypeId": "AVE",
        "placeName": "BELLEVILLE",
        "streetNameDisplayText": "FARLEY AVE, BELLEVILLE"
      },
      {
        "electoralDistricts": [
          {
            "election": null,
            "id": 6,
            "name": "Bay of Quinte"
          }
        ],
        "pollDivisionIds": [
          10136971
        ],
        "postalCode": "K8N0B9",
        "streetName": "KAWARTHA",
        "streetDirectionId": null,
        "streetTypeId": "CRT",
        "placeName": "BELLEVILLE",
        "streetNameDisplayText": "KAWARTHA CRT, BELLEVILLE"
      }
    ]
  },
  {
    "postal": "K8N9K7",
    "result": []
  },
  {
    "postal": "K8N9K9",
    "result": []
  },
  {
    "postal": "K8N3Z2",
    "result": [
      {
        "electoralDistricts": [
          {
            "election": null,
            "id": 6,
            "name": "Bay of Quinte"
          }
        ],
        "pollDivisionIds": [
          10136974
        ],
        "postalCode": "K8N3Z2",
        "streetName": "MACDONALD",
        "streetDirectionId": null,
        "streetTypeId": "AVE",
        "placeName": "BELLEVILLE",
        "streetNameDisplayText": "MACDONALD AVE, BELLEVILLE"
      }
    ]
  },
  {
    "postal": "K8N6W7",
    "result": []
  },
  {
    "postal": "K8N0P1",
    "result": [
      {
        "electoralDistricts": [
          {
            "election": null,
            "id": 40,
            "name": "Hastings—Lennox and Addington"
          }
        ],
        "pollDivisionIds": [
          10138776
        ],
        "postalCode": "K8N0P1",
        "streetName": "FARNHAM",
        "streetDirectionId": null,
        "streetTypeId": "RD",
        "placeName": "BELLEVILLE",
        "streetNameDisplayText": "FARNHAM RD, BELLEVILLE"
      }
    ]
  },
  {
    "postal": "K8N3A0",
    "result": []
  },
  {
    "postal": "K8N8L9",
    "result": []
  },
  {
    "postal": "K8N6X0",
    "result": []
  },
  {
    "postal": "K8N3E9",
    "result": [
      {
        "electoralDistricts": [
          {
            "election": null,
            "id": 6,
            "name": "Bay of Quinte"
          }
        ],
        "pollDivisionIds": [
          10136974
        ],
        "postalCode": "K8N3E9",
        "streetName": "JOHN",
        "streetDirectionId": null,
        "streetTypeId": "ST",
        "placeName": "BELLEVILLE",
        "streetNameDisplayText": "JOHN ST, BELLEVILLE"
      }
    ]
  },
  {
    "postal": "K8N0S5",
    "result": []
  },
  {
    "postal": "K8N1A2",
    "result": [
      {
        "electoralDistricts": [
          {
            "election": null,
            "id": 6,
            "name": "Bay of Quinte"
          }
        ],
        "pollDivisionIds": [
          10136978
        ],
        "postalCode": "K8N1A2",
        "streetName": "FRANKLIN",
        "streetDirectionId": null,
        "streetTypeId": "ST",
        "placeName": "BELLEVILLE",
        "streetNameDisplayText": "FRANKLIN ST, BELLEVILLE"
      }
    ]
  },
  {
    "postal": "K8N5V8",
    "result": [
      {
        "electoralDistricts": [
          {
            "election": null,
            "id": 6,
            "name": "Bay of Quinte"
          }
        ],
        "pollDivisionIds": [
          10136971
        ],
        "postalCode": "K8N5V8",
        "streetName": "GOLFDALE",
        "streetDirectionId": null,
        "streetTypeId": "RD",
        "placeName": "BELLEVILLE",
        "streetNameDisplayText": "GOLFDALE RD, BELLEVILLE"
      }
    ]
  },
  {
    "postal": "K8N8C5",
    "result": []
  },
  {
    "postal": "K8N6N0",
    "result": []
  },
  {
    "postal": "K8N9E6",
    "result": []
  },
  {
    "postal": "K8N5J7",
    "result": [
      {
        "electoralDistricts": [
          {
            "election": null,
            "id": 6,
            "name": "Bay of Quinte"
          }
        ],
        "pollDivisionIds": [
          10136976
        ],
        "postalCode": "K8N5J7",
        "streetName": "BRIARWOOD",
        "streetDirectionId": null,
        "streetTypeId": "CRES",
        "placeName": "BELLEVILLE",
        "streetNameDisplayText": "BRIARWOOD CRES, BELLEVILLE"
      }
    ]
  },
  {
    "postal": "K8N2R2",
    "result": [
      {
        "electoralDistricts": [
          {
            "election": null,
            "id": 6,
            "name": "Bay of Quinte"
          }
        ],
        "pollDivisionIds": [
          10136971
        ],
        "postalCode": "K8N2R2",
        "streetName": "EMILY",
        "streetDirectionId": null,
        "streetTypeId": "ST",
        "placeName": "BELLEVILLE",
        "streetNameDisplayText": "EMILY ST, BELLEVILLE"
      }
    ]
  },
  {
    "postal": "K8N0P5",
    "result": [
      {
        "electoralDistricts": [
          {
            "election": null,
            "id": 40,
            "name": "Hastings—Lennox and Addington"
          }
        ],
        "pollDivisionIds": [
          10138776
        ],
        "postalCode": "K8N0P5",
        "streetName": "MINERAL",
        "streetDirectionId": null,
        "streetTypeId": "RD",
        "placeName": "BELLEVILLE",
        "streetNameDisplayText": "MINERAL RD, BELLEVILLE"
      }
    ]
  },
  {
    "postal": "K8N5A7",
    "result": []
  },
  {
    "postal": "K8N1G1",
    "result": [
      {
        "electoralDistricts": [
          {
            "election": null,
            "id": 6,
            "name": "Bay of Quinte"
          }
        ],
        "pollDivisionIds": [
          10136975
        ],
        "postalCode": "K8N1G1",
        "streetName": "DUNDAS",
        "streetDirectionId": "E",
        "streetTypeId": "ST",
        "placeName": "BELLEVILLE",
        "streetNameDisplayText": "DUNDAS ST E, BELLEVILLE"
      }
    ]
  },
  {
    "postal": "K8N9R6",
    "result": []
  },
  {
    "postal": "K8N4Z9",
    "result": []
  },
  {
    "postal": "K8N1V5",
    "result": [
      {
        "electoralDistricts": [
          {
            "election": null,
            "id": 6,
            "name": "Bay of Quinte"
          }
        ],
        "pollDivisionIds": [
          10136974
        ],
        "postalCode": "K8N1V5",
        "streetName": "QUEEN",
        "streetDirectionId": null,
        "streetTypeId": "ST",
        "placeName": "BELLEVILLE",
        "streetNameDisplayText": "QUEEN ST, BELLEVILLE"
      }
    ]
  },
  {
    "postal": "K8N9Y5",
    "result": []
  },
  {
    "postal": "K8N1P2",
    "result": [
      {
        "electoralDistricts": [
          {
            "election": null,
            "id": 6,
            "name": "Bay of Quinte"
          }
        ],
        "pollDivisionIds": [
          10136978
        ],
        "postalCode": "K8N1P2",
        "streetName": "BRIDGE",
        "streetDirectionId": "E",
        "streetTypeId": "ST",
        "placeName": "BELLEVILLE",
        "streetNameDisplayText": "BRIDGE ST E, BELLEVILLE"
      }
    ]
  },
  {
    "postal": "K8N5X0",
    "result": []
  },
  {
    "postal": "K8N7B8",
    "result": []
  },
  {
    "postal": "K8N0C6",
    "result": [
      {
        "electoralDistricts": [
          {
            "election": null,
            "id": 40,
            "name": "Hastings—Lennox and Addington"
          }
        ],
        "pollDivisionIds": [
          10138776
        ],
        "postalCode": "K8N0C6",
        "streetName": "SCENIC",
        "streetDirectionId": null,
        "streetTypeId": "DR",
        "placeName": "BELLEVILLE",
        "streetNameDisplayText": "SCENIC DR, BELLEVILLE"
      }
    ]
  },
  {
    "postal": "K8N6G1",
    "result": []
  },
  {
    "postal": "K8N3K3",
    "result": [
      {
        "electoralDistricts": [
          {
            "election": null,
            "id": 6,
            "name": "Bay of Quinte"
          }
        ],
        "pollDivisionIds": [
          10136974
        ],
        "postalCode": "K8N3K3",
        "streetName": "WILLIAM",
        "streetDirectionId": null,
        "streetTypeId": "ST",
        "placeName": "BELLEVILLE",
        "streetNameDisplayText": "WILLIAM ST, BELLEVILLE"
      }
    ]
  },
  {
    "postal": "K8N9R0",
    "result": []
  },
  {
    "postal": "K8N4R8",
    "result": [
      {
        "electoralDistricts": [
          {
            "election": null,
            "id": 6,
            "name": "Bay of Quinte"
          }
        ],
        "pollDivisionIds": [
          10136968
        ],
        "postalCode": "K8N4R8",
        "streetName": "OLD 2",
        "streetDirectionId": null,
        "streetTypeId": "HWY",
        "placeName": "BELLEVILLE",
        "streetNameDisplayText": "OLD 2 HWY, BELLEVILLE"
      },
      {
        "electoralDistricts": [
          {
            "election": null,
            "id": 6,
            "name": "Bay of Quinte"
          }
        ],
        "pollDivisionIds": [
          10136978
        ],
        "postalCode": "K8N4R8",
        "streetName": "THIRD",
        "streetDirectionId": null,
        "streetTypeId": "ST",
        "placeName": "BELLEVILLE",
        "streetNameDisplayText": "THIRD ST, BELLEVILLE"
      }
    ]
  },
  {
    "postal": "K8N5P9",
    "result": [
      {
        "electoralDistricts": [
          {
            "election": null,
            "id": 6,
            "name": "Bay of Quinte"
          }
        ],
        "pollDivisionIds": [
          10136976
        ],
        "postalCode": "K8N5P9",
        "streetName": "DUNDAS",
        "streetDirectionId": "E",
        "streetTypeId": "ST",
        "placeName": "BELLEVILLE",
        "streetNameDisplayText": "DUNDAS ST E, BELLEVILLE"
      }
    ]
  },
  {
    "postal": "K8N8N4",
    "result": []
  },
  {
    "postal": "K8N8H4",
    "result": []
  },
  {
    "postal": "K8N4V1",
    "result": [
      {
        "electoralDistricts": [
          {
            "election": null,
            "id": 6,
            "name": "Bay of Quinte"
          }
        ],
        "pollDivisionIds": [
          10136971
        ],
        "postalCode": "K8N4V1",
        "streetName": "CANNIFTON",
        "streetDirectionId": null,
        "streetTypeId": "RD",
        "placeName": "BELLEVILLE",
        "streetNameDisplayText": "CANNIFTON RD, BELLEVILLE"
      }
    ]
  },
  {
    "postal": "K8N1K5",
    "result": [
      {
        "electoralDistricts": [
          {
            "election": null,
            "id": 6,
            "name": "Bay of Quinte"
          }
        ],
        "pollDivisionIds": [
          10136976
        ],
        "postalCode": "K8N1K5",
        "streetName": "ELIZABETH",
        "streetDirectionId": null,
        "streetTypeId": "CRES",
        "placeName": "BELLEVILLE",
        "streetNameDisplayText": "ELIZABETH CRES, BELLEVILLE"
      }
    ]
  },
  {
    "postal": "K8N1Z5",
    "result": [
      {
        "electoralDistricts": [
          {
            "election": null,
            "id": 6,
            "name": "Bay of Quinte"
          }
        ],
        "pollDivisionIds": [
          10136974
        ],
        "postalCode": "K8N1Z5",
        "streetName": "VICTORIA",
        "streetDirectionId": null,
        "streetTypeId": "AVE",
        "placeName": "BELLEVILLE",
        "streetNameDisplayText": "VICTORIA AVE, BELLEVILLE"
      }
    ]
  },
  {
    "postal": "K8N9L9",
    "result": []
  },
  {
    "postal": "K8N5L2",
    "result": [
      {
        "electoralDistricts": [
          {
            "election": null,
            "id": 6,
            "name": "Bay of Quinte"
          }
        ],
        "pollDivisionIds": [
          10137005
        ],
        "postalCode": "K8N5L2",
        "streetName": "DUNDAS",
        "streetDirectionId": "E",
        "streetTypeId": "ST",
        "placeName": "BELLEVILLE",
        "streetNameDisplayText": "DUNDAS ST E, BELLEVILLE"
      }
    ]
  },
  {
    "postal": "K8N0M2",
    "result": [
      {
        "electoralDistricts": [
          {
            "election": null,
            "id": 40,
            "name": "Hastings—Lennox and Addington"
          }
        ],
        "pollDivisionIds": [
          10138776
        ],
        "postalCode": "K8N0M2",
        "streetName": "SUNNINGDALE",
        "streetDirectionId": null,
        "streetTypeId": "DR",
        "placeName": "BELLEVILLE",
        "streetNameDisplayText": "SUNNINGDALE DR, BELLEVILLE"
      }
    ]
  },
  {
    "postal": "K8N1K8",
    "result": [
      {
        "electoralDistricts": [
          {
            "election": null,
            "id": 6,
            "name": "Bay of Quinte"
          }
        ],
        "pollDivisionIds": [
          10136968
        ],
        "postalCode": "K8N1K8",
        "streetName": "WHALEN",
        "streetDirectionId": null,
        "streetTypeId": "CRT",
        "placeName": "BELLEVILLE",
        "streetNameDisplayText": "WHALEN CRT, BELLEVILLE"
      }
    ]
  },
  {
    "postal": "K8N3M7",
    "result": [
      {
        "electoralDistricts": [
          {
            "election": null,
            "id": 6,
            "name": "Bay of Quinte"
          }
        ],
        "pollDivisionIds": [
          10136974
        ],
        "postalCode": "K8N3M7",
        "streetName": "CHARLES",
        "streetDirectionId": null,
        "streetTypeId": "ST",
        "placeName": "BELLEVILLE",
        "streetNameDisplayText": "CHARLES ST, BELLEVILLE"
      }
    ]
  },
  {
    "postal": "K8N1B2",
    "result": [
      {
        "electoralDistricts": [
          {
            "election": null,
            "id": 6,
            "name": "Bay of Quinte"
          }
        ],
        "pollDivisionIds": [
          10136978
        ],
        "postalCode": "K8N1B2",
        "streetName": "ST PAUL",
        "streetDirectionId": null,
        "streetTypeId": "ST",
        "placeName": "BELLEVILLE",
        "streetNameDisplayText": "ST PAUL ST, BELLEVILLE"
      }
    ]
  },
  {
    "postal": "K8N0H9",
    "result": [
      {
        "electoralDistricts": [
          {
            "election": null,
            "id": 40,
            "name": "Hastings—Lennox and Addington"
          }
        ],
        "pollDivisionIds": [
          10138776
        ],
        "postalCode": "K8N0H9",
        "streetName": "WIMS",
        "streetDirectionId": null,
        "streetTypeId": "WAY",
        "placeName": "BELLEVILLE",
        "streetNameDisplayText": "WIMS WAY, BELLEVILLE"
      }
    ]
  },
  {
    "postal": "K8N8M4",
    "result": []
  },
  {
    "postal": "K8N2M5",
    "result": [
      {
        "electoralDistricts": [
          {
            "election": null,
            "id": 6,
            "name": "Bay of Quinte"
          }
        ],
        "pollDivisionIds": [
          10136974
        ],
        "postalCode": "K8N2M5",
        "streetName": "PINE",
        "streetDirectionId": null,
        "streetTypeId": "ST",
        "placeName": "BELLEVILLE",
        "streetNameDisplayText": "PINE ST, BELLEVILLE"
      }
    ]
  },
  {
    "postal": "K8N0T9",
    "result": []
  },
  {
    "postal": "K8N3P1",
    "result": [
      {
        "electoralDistricts": [
          {
            "election": null,
            "id": 6,
            "name": "Bay of Quinte"
          }
        ],
        "pollDivisionIds": [
          10136974
        ],
        "postalCode": "K8N3P1",
        "streetName": "ALBERT",
        "streetDirectionId": null,
        "streetTypeId": "ST",
        "placeName": "BELLEVILLE",
        "streetNameDisplayText": "ALBERT ST, BELLEVILLE"
      }
    ]
  },
  {
    "postal": "K8N1R6",
    "result": [
      {
        "electoralDistricts": [
          {
            "election": null,
            "id": 6,
            "name": "Bay of Quinte"
          }
        ],
        "pollDivisionIds": [
          10136976
        ],
        "postalCode": "K8N1R6",
        "streetName": "BRIDGE",
        "streetDirectionId": "E",
        "streetTypeId": "ST",
        "placeName": "BELLEVILLE",
        "streetNameDisplayText": "BRIDGE ST E, BELLEVILLE"
      }
    ]
  },
  {
    "postal": "K8N9V5",
    "result": []
  },
  {
    "postal": "K8N9T0",
    "result": []
  },
  {
    "postal": "K8N0A9",
    "result": [
      {
        "electoralDistricts": [
          {
            "election": null,
            "id": 6,
            "name": "Bay of Quinte"
          }
        ],
        "pollDivisionIds": [
          10136978,
          10136974
        ],
        "postalCode": "K8N0A9",
        "streetName": "CHURCH",
        "streetDirectionId": "S",
        "streetTypeId": "ST",
        "placeName": "BELLEVILLE",
        "streetNameDisplayText": "CHURCH ST S, BELLEVILLE"
      },
      {
        "electoralDistricts": [
          {
            "election": null,
            "id": 6,
            "name": "Bay of Quinte"
          }
        ],
        "pollDivisionIds": [
          10136957
        ],
        "postalCode": "K8N0A9",
        "streetName": "CHURCH",
        "streetDirectionId": null,
        "streetTypeId": "ST",
        "placeName": "BELLEVILLE",
        "streetNameDisplayText": "CHURCH ST, BELLEVILLE"
      },
      {
        "electoralDistricts": [
          {
            "election": null,
            "id": 6,
            "name": "Bay of Quinte"
          }
        ],
        "pollDivisionIds": [
          10136978
        ],
        "postalCode": "K8N0A9",
        "streetName": "SOUTH CHURCH",
        "streetDirectionId": "S",
        "streetTypeId": "LANE",
        "placeName": "BELLEVILLE",
        "streetNameDisplayText": "SOUTH CHURCH LANE S, BELLEVILLE"
      },
      {
        "electoralDistricts": [
          {
            "election": null,
            "id": 6,
            "name": "Bay of Quinte"
          }
        ],
        "pollDivisionIds": [
          10136952,
          10136974
        ],
        "postalCode": "K8N0A9",
        "streetName": "SOUTH CHURCH",
        "streetDirectionId": null,
        "streetTypeId": "ST",
        "placeName": "BELLEVILLE",
        "streetNameDisplayText": "SOUTH CHURCH ST, BELLEVILLE"
      }
    ]
  },
  {
    "postal": "K8N1M3",
    "result": [
      {
        "electoralDistricts": [
          {
            "election": null,
            "id": 6,
            "name": "Bay of Quinte"
          }
        ],
        "pollDivisionIds": [
          10136974
        ],
        "postalCode": "K8N1M3",
        "streetName": "BRIDGE",
        "streetDirectionId": "E",
        "streetTypeId": "ST",
        "placeName": "BELLEVILLE",
        "streetNameDisplayText": "BRIDGE ST E, BELLEVILLE"
      }
    ]
  },
  {
    "postal": "K8N1W8",
    "result": [
      {
        "electoralDistricts": [
          {
            "election": null,
            "id": 6,
            "name": "Bay of Quinte"
          }
        ],
        "pollDivisionIds": [
          10136975
        ],
        "postalCode": "K8N1W8",
        "streetName": "CRESTVIEW",
        "streetDirectionId": null,
        "streetTypeId": "AVE",
        "placeName": "BELLEVILLE",
        "streetNameDisplayText": "CRESTVIEW AVE, BELLEVILLE"
      }
    ]
  },
  {
    "postal": "K8N9J1",
    "result": []
  },
  {
    "postal": "K8N8N5",
    "result": []
  },
  {
    "postal": "K8N5X1",
    "result": [
      {
        "electoralDistricts": [
          {
            "election": null,
            "id": 6,
            "name": "Bay of Quinte"
          }
        ],
        "pollDivisionIds": [
          10136967
        ],
        "postalCode": "K8N5X1",
        "streetName": "LIDDLE",
        "streetDirectionId": null,
        "streetTypeId": "LANE",
        "placeName": "BELLEVILLE",
        "streetNameDisplayText": "LIDDLE LANE, BELLEVILLE"
      }
    ]
  },
  {
    "postal": "K8N6S2",
    "result": []
  },
  {
    "postal": "K8N2A2",
    "result": [
      {
        "electoralDistricts": [
          {
            "election": null,
            "id": 6,
            "name": "Bay of Quinte"
          }
        ],
        "pollDivisionIds": [
          10136974
        ],
        "postalCode": "K8N2A2",
        "streetName": "VICTORIA",
        "streetDirectionId": null,
        "streetTypeId": "AVE",
        "placeName": "BELLEVILLE",
        "streetNameDisplayText": "VICTORIA AVE, BELLEVILLE"
      }
    ]
  },
  {
    "postal": "K8N6A6",
    "result": []
  },
  {
    "postal": "K8N0S3",
    "result": []
  },
  {
    "postal": "K8N3E7",
    "result": [
      {
        "electoralDistricts": [
          {
            "election": null,
            "id": 6,
            "name": "Bay of Quinte"
          }
        ],
        "pollDivisionIds": [
          10136974
        ],
        "postalCode": "K8N3E7",
        "streetName": "JOHN",
        "streetDirectionId": null,
        "streetTypeId": "ST",
        "placeName": "BELLEVILLE",
        "streetNameDisplayText": "JOHN ST, BELLEVILLE"
      }
    ]
  },
  {
    "postal": "K8N5R7",
    "result": [
      {
        "electoralDistricts": [
          {
            "election": null,
            "id": 6,
            "name": "Bay of Quinte"
          }
        ],
        "pollDivisionIds": [
          10136968
        ],
        "postalCode": "K8N5R7",
        "streetName": "HAIG",
        "streetDirectionId": null,
        "streetTypeId": "RD",
        "placeName": "BELLEVILLE",
        "streetNameDisplayText": "HAIG RD, BELLEVILLE"
      }
    ]
  },
  {
    "postal": "K8N3R6",
    "result": [
      {
        "electoralDistricts": [
          {
            "election": null,
            "id": 6,
            "name": "Bay of Quinte"
          }
        ],
        "pollDivisionIds": [
          10136974
        ],
        "postalCode": "K8N3R6",
        "streetName": "FOSTER",
        "streetDirectionId": null,
        "streetTypeId": "AVE",
        "placeName": "BELLEVILLE",
        "streetNameDisplayText": "FOSTER AVE, BELLEVILLE"
      }
    ]
  },
  {
    "postal": "K8N6K4",
    "result": []
  },
  {
    "postal": "K8N2W5",
    "result": [
      {
        "electoralDistricts": [
          {
            "election": null,
            "id": 6,
            "name": "Bay of Quinte"
          }
        ],
        "pollDivisionIds": [
          10136971
        ],
        "postalCode": "K8N2W5",
        "streetName": "BYRON",
        "streetDirectionId": null,
        "streetTypeId": "ST",
        "placeName": "BELLEVILLE",
        "streetNameDisplayText": "BYRON ST, BELLEVILLE"
      }
    ]
  },
  {
    "postal": "K8N8W4",
    "result": []
  },
  {
    "postal": "K8N9C2",
    "result": []
  },
  {
    "postal": "K8N2C0",
    "result": []
  },
  {
    "postal": "K8N0E1",
    "result": []
  },
  {
    "postal": "K8N1K9",
    "result": [
      {
        "electoralDistricts": [
          {
            "election": null,
            "id": 6,
            "name": "Bay of Quinte"
          }
        ],
        "pollDivisionIds": [
          10136968
        ],
        "postalCode": "K8N1K9",
        "streetName": "JANLYN",
        "streetDirectionId": null,
        "streetTypeId": "CRES",
        "placeName": "BELLEVILLE",
        "streetNameDisplayText": "JANLYN CRES, BELLEVILLE"
      }
    ]
  },
  {
    "postal": "K8N1G7",
    "result": [
      {
        "electoralDistricts": [
          {
            "election": null,
            "id": 6,
            "name": "Bay of Quinte"
          }
        ],
        "pollDivisionIds": [
          10136976
        ],
        "postalCode": "K8N1G7",
        "streetName": "DUNDAS",
        "streetDirectionId": "E",
        "streetTypeId": "ST",
        "placeName": "BELLEVILLE",
        "streetNameDisplayText": "DUNDAS ST E, BELLEVILLE"
      }
    ]
  },
  {
    "postal": "K8N4E9",
    "result": [
      {
        "electoralDistricts": [
          {
            "election": null,
            "id": 6,
            "name": "Bay of Quinte"
          }
        ],
        "pollDivisionIds": [
          10136975
        ],
        "postalCode": "K8N4E9",
        "streetName": "ROSEWOOD",
        "streetDirectionId": null,
        "streetTypeId": "AVE",
        "placeName": "BELLEVILLE",
        "streetNameDisplayText": "ROSEWOOD AVE, BELLEVILLE"
      }
    ]
  },
  {
    "postal": "K8N9P0",
    "result": []
  },
  {
    "postal": "K8N5H3",
    "result": [
      {
        "electoralDistricts": [
          {
            "election": null,
            "id": 6,
            "name": "Bay of Quinte"
          }
        ],
        "pollDivisionIds": [
          10136976
        ],
        "postalCode": "K8N5H3",
        "streetName": "MELROSE",
        "streetDirectionId": null,
        "streetTypeId": "CRES",
        "placeName": "BELLEVILLE",
        "streetNameDisplayText": "MELROSE CRES, BELLEVILLE"
      }
    ]
  },
  {
    "postal": "K8N9X6",
    "result": []
  },
  {
    "postal": "K8N5N7",
    "result": [
      {
        "electoralDistricts": [
          {
            "election": null,
            "id": 6,
            "name": "Bay of Quinte"
          }
        ],
        "pollDivisionIds": [
          10136978
        ],
        "postalCode": "K8N5N7",
        "streetName": "KEEGAN",
        "streetDirectionId": null,
        "streetTypeId": "PKY",
        "placeName": "BELLEVILLE",
        "streetNameDisplayText": "KEEGAN PKY, BELLEVILLE"
      }
    ]
  },
  {
    "postal": "K8N5A6",
    "result": [
      {
        "electoralDistricts": [
          {
            "election": null,
            "id": 6,
            "name": "Bay of Quinte"
          }
        ],
        "pollDivisionIds": [
          10136974
        ],
        "postalCode": "K8N5A6",
        "streetName": "FRONT",
        "streetDirectionId": null,
        "streetTypeId": "ST",
        "placeName": "BELLEVILLE",
        "streetNameDisplayText": "FRONT ST, BELLEVILLE"
      }
    ]
  },
  {
    "postal": "K8N4M0",
    "result": []
  },
  {
    "postal": "K8N3V6",
    "result": [
      {
        "electoralDistricts": [
          {
            "election": null,
            "id": 6,
            "name": "Bay of Quinte"
          }
        ],
        "pollDivisionIds": [
          10136971
        ],
        "postalCode": "K8N3V6",
        "streetName": "BLEECKER",
        "streetDirectionId": null,
        "streetTypeId": "AVE",
        "placeName": "BELLEVILLE",
        "streetNameDisplayText": "BLEECKER AVE, BELLEVILLE"
      }
    ]
  },
  {
    "postal": "K8N1L7",
    "result": [
      {
        "electoralDistricts": [
          {
            "election": null,
            "id": 6,
            "name": "Bay of Quinte"
          }
        ],
        "pollDivisionIds": [
          10136974
        ],
        "postalCode": "K8N1L7",
        "streetName": "BRIDGE",
        "streetDirectionId": "E",
        "streetTypeId": "ST",
        "placeName": "BELLEVILLE",
        "streetNameDisplayText": "BRIDGE ST E, BELLEVILLE"
      }
    ]
  },
  {
    "postal": "K8N2P9",
    "result": [
      {
        "electoralDistricts": [
          {
            "election": null,
            "id": 6,
            "name": "Bay of Quinte"
          }
        ],
        "pollDivisionIds": [
          10136971
        ],
        "postalCode": "K8N2P9",
        "streetName": "EMILY",
        "streetDirectionId": null,
        "streetTypeId": "ST",
        "placeName": "BELLEVILLE",
        "streetNameDisplayText": "EMILY ST, BELLEVILLE"
      }
    ]
  },
  {
    "postal": "K8N5T4",
    "result": [
      {
        "electoralDistricts": [
          {
            "election": null,
            "id": 6,
            "name": "Bay of Quinte"
          }
        ],
        "pollDivisionIds": [
          10136968
        ],
        "postalCode": "K8N5T4",
        "streetName": "JAMIESON BONE",
        "streetDirectionId": null,
        "streetTypeId": "RD",
        "placeName": "BELLEVILLE",
        "streetNameDisplayText": "JAMIESON BONE RD, BELLEVILLE"
      }
    ]
  },
  {
    "postal": "K8N5Z1",
    "result": [
      {
        "electoralDistricts": [
          {
            "election": null,
            "id": 6,
            "name": "Bay of Quinte"
          }
        ],
        "pollDivisionIds": [
          10136968
        ],
        "postalCode": "K8N5Z1",
        "streetName": "SPRUCE",
        "streetDirectionId": null,
        "streetTypeId": "GDNS",
        "placeName": "BELLEVILLE",
        "streetNameDisplayText": "SPRUCE GDNS, BELLEVILLE"
      }
    ]
  },
  {
    "postal": "K8N2X0",
    "result": []
  },
  {
    "postal": "K8N6Z2",
    "result": []
  },
  {
    "postal": "K8N0E0",
    "result": []
  },
  {
    "postal": "K8N3Z5",
    "result": [
      {
        "electoralDistricts": [
          {
            "election": null,
            "id": 6,
            "name": "Bay of Quinte"
          }
        ],
        "pollDivisionIds": [
          10136971
        ],
        "postalCode": "K8N3Z5",
        "streetName": "MACDONALD",
        "streetDirectionId": null,
        "streetTypeId": "AVE",
        "placeName": "BELLEVILLE",
        "streetNameDisplayText": "MACDONALD AVE, BELLEVILLE"
      }
    ]
  },
  {
    "postal": "K8N8H3",
    "result": []
  },
  {
    "postal": "K8N7S6",
    "result": []
  },
  {
    "postal": "K8N4C1",
    "result": [
      {
        "electoralDistricts": [
          {
            "election": null,
            "id": 6,
            "name": "Bay of Quinte"
          }
        ],
        "pollDivisionIds": [
          10136975
        ],
        "postalCode": "K8N4C1",
        "streetName": "BERTRAM",
        "streetDirectionId": null,
        "streetTypeId": "BLVD",
        "placeName": "BELLEVILLE",
        "streetNameDisplayText": "BERTRAM BLVD, BELLEVILLE"
      }
    ]
  },
  {
    "postal": "K8N3K2",
    "result": [
      {
        "electoralDistricts": [
          {
            "election": null,
            "id": 6,
            "name": "Bay of Quinte"
          }
        ],
        "pollDivisionIds": [
          10136974
        ],
        "postalCode": "K8N3K2",
        "streetName": "WILLIAM",
        "streetDirectionId": null,
        "streetTypeId": "ST",
        "placeName": "BELLEVILLE",
        "streetNameDisplayText": "WILLIAM ST, BELLEVILLE"
      }
    ]
  },
  {
    "postal": "K8N1Y5",
    "result": [
      {
        "electoralDistricts": [
          {
            "election": null,
            "id": 6,
            "name": "Bay of Quinte"
          }
        ],
        "pollDivisionIds": [
          10136968
        ],
        "postalCode": "K8N1Y5",
        "streetName": "JOYCE",
        "streetDirectionId": null,
        "streetTypeId": "CRES",
        "placeName": "BELLEVILLE",
        "streetNameDisplayText": "JOYCE CRES, BELLEVILLE"
      }
    ]
  },
  {
    "postal": "K8N6P6",
    "result": []
  },
  {
    "postal": "K8N3N9",
    "result": [
      {
        "electoralDistricts": [
          {
            "election": null,
            "id": 6,
            "name": "Bay of Quinte"
          }
        ],
        "pollDivisionIds": [
          10136974
        ],
        "postalCode": "K8N3N9",
        "streetName": "ALBERT",
        "streetDirectionId": null,
        "streetTypeId": "ST",
        "placeName": "BELLEVILLE",
        "streetNameDisplayText": "ALBERT ST, BELLEVILLE"
      }
    ]
  },
  {
    "postal": "K8N3W2",
    "result": [
      {
        "electoralDistricts": [
          {
            "election": null,
            "id": 6,
            "name": "Bay of Quinte"
          }
        ],
        "pollDivisionIds": [
          10136971
        ],
        "postalCode": "K8N3W2",
        "streetName": "BLEECKER",
        "streetDirectionId": null,
        "streetTypeId": "AVE",
        "placeName": "BELLEVILLE",
        "streetNameDisplayText": "BLEECKER AVE, BELLEVILLE"
      }
    ]
  },
  {
    "postal": "K8N6H8",
    "result": []
  },
  {
    "postal": "K8N9T3",
    "result": []
  },
  {
    "postal": "K8N5L9",
    "result": [
      {
        "electoralDistricts": [
          {
            "election": null,
            "id": 6,
            "name": "Bay of Quinte"
          }
        ],
        "pollDivisionIds": [
          10137003
        ],
        "postalCode": "K8N5L9",
        "streetName": "FRONT",
        "streetDirectionId": null,
        "streetTypeId": "ST",
        "placeName": "BELLEVILLE",
        "streetNameDisplayText": "FRONT ST, BELLEVILLE"
      }
    ]
  },
  {
    "postal": "K8N7X7",
    "result": []
  },
  {
    "postal": "K8N3J5",
    "result": [
      {
        "electoralDistricts": [
          {
            "election": null,
            "id": 6,
            "name": "Bay of Quinte"
          }
        ],
        "pollDivisionIds": [
          10136974
        ],
        "postalCode": "K8N3J5",
        "streetName": "GREAT ST JAMES",
        "streetDirectionId": null,
        "streetTypeId": "ST",
        "placeName": "BELLEVILLE",
        "streetNameDisplayText": "GREAT ST JAMES ST, BELLEVILLE"
      }
    ]
  },
  {
    "postal": "K8N4J5",
    "result": [
      {
        "electoralDistricts": [
          {
            "election": null,
            "id": 6,
            "name": "Bay of Quinte"
          }
        ],
        "pollDivisionIds": [
          10136975
        ],
        "postalCode": "K8N4J5",
        "streetName": "ROLLINS",
        "streetDirectionId": null,
        "streetTypeId": "DR",
        "placeName": "BELLEVILLE",
        "streetNameDisplayText": "ROLLINS DR, BELLEVILLE"
      }
    ]
  },
  {
    "postal": "K8N6J2",
    "result": []
  },
  {
    "postal": "K8N5V6",
    "result": []
  },
  {
    "postal": "K8N3N2",
    "result": [
      {
        "electoralDistricts": [
          {
            "election": null,
            "id": 6,
            "name": "Bay of Quinte"
          }
        ],
        "pollDivisionIds": [
          10136978
        ],
        "postalCode": "K8N3N2",
        "streetName": "NEWBERRY",
        "streetDirectionId": null,
        "streetTypeId": "ST",
        "placeName": "BELLEVILLE",
        "streetNameDisplayText": "NEWBERRY ST, BELLEVILLE"
      }
    ]
  },
  {
    "postal": "K8N3B1",
    "result": [
      {
        "electoralDistricts": [
          {
            "election": null,
            "id": 6,
            "name": "Bay of Quinte"
          }
        ],
        "pollDivisionIds": [
          10136974
        ],
        "postalCode": "K8N3B1",
        "streetName": "PINNACLE",
        "streetDirectionId": null,
        "streetTypeId": "ST",
        "placeName": "BELLEVILLE",
        "streetNameDisplayText": "PINNACLE ST, BELLEVILLE"
      }
    ]
  },
  {
    "postal": "K8N8B5",
    "result": []
  },
  {
    "postal": "K8N0K1",
    "result": []
  },
  {
    "postal": "K8N7M7",
    "result": []
  },
  {
    "postal": "K8N2M2",
    "result": [
      {
        "electoralDistricts": [
          {
            "election": null,
            "id": 6,
            "name": "Bay of Quinte"
          }
        ],
        "pollDivisionIds": [
          10136971
        ],
        "postalCode": "K8N2M2",
        "streetName": "PINE",
        "streetDirectionId": null,
        "streetTypeId": "ST",
        "placeName": "BELLEVILLE",
        "streetNameDisplayText": "PINE ST, BELLEVILLE"
      }
    ]
  },
  {
    "postal": "K8N9N3",
    "result": []
  },
  {
    "postal": "K8N4Y8",
    "result": []
  },
  {
    "postal": "K8N3V7",
    "result": [
      {
        "electoralDistricts": [
          {
            "election": null,
            "id": 6,
            "name": "Bay of Quinte"
          }
        ],
        "pollDivisionIds": [
          10136971
        ],
        "postalCode": "K8N3V7",
        "streetName": "BLEECKER",
        "streetDirectionId": null,
        "streetTypeId": "AVE",
        "placeName": "BELLEVILLE",
        "streetNameDisplayText": "BLEECKER AVE, BELLEVILLE"
      }
    ]
  },
  {
    "postal": "K8N8Z1",
    "result": []
  },
  {
    "postal": "K8N7B3",
    "result": []
  },
  {
    "postal": "K8N3A8",
    "result": []
  },
  {
    "postal": "K8N7V5",
    "result": []
  },
  {
    "postal": "K8N2T2",
    "result": [
      {
        "electoralDistricts": [
          {
            "election": null,
            "id": 6,
            "name": "Bay of Quinte"
          }
        ],
        "pollDivisionIds": [
          10136971
        ],
        "postalCode": "K8N2T2",
        "streetName": "STATION",
        "streetDirectionId": null,
        "streetTypeId": "ST",
        "placeName": "BELLEVILLE",
        "streetNameDisplayText": "STATION ST, BELLEVILLE"
      }
    ]
  },
  {
    "postal": "K8N6L3",
    "result": []
  },
  {
    "postal": "K8N0L2",
    "result": [
      {
        "electoralDistricts": [
          {
            "election": null,
            "id": 6,
            "name": "Bay of Quinte"
          }
        ],
        "pollDivisionIds": [
          10136971
        ],
        "postalCode": "K8N0L2",
        "streetName": "HERCHIMER",
        "streetDirectionId": null,
        "streetTypeId": "AVE",
        "placeName": "BELLEVILLE",
        "streetNameDisplayText": "HERCHIMER AVE, BELLEVILLE"
      },
      {
        "electoralDistricts": [
          {
            "election": null,
            "id": 6,
            "name": "Bay of Quinte"
          }
        ],
        "pollDivisionIds": [
          10136971
        ],
        "postalCode": "K8N0L2",
        "streetName": "STATION",
        "streetDirectionId": null,
        "streetTypeId": "ST",
        "placeName": "BELLEVILLE",
        "streetNameDisplayText": "STATION ST, BELLEVILLE"
      }
    ]
  },
  {
    "postal": "K8N5Y8",
    "result": [
      {
        "electoralDistricts": [
          {
            "election": null,
            "id": 6,
            "name": "Bay of Quinte"
          }
        ],
        "pollDivisionIds": [
          10136971
        ],
        "postalCode": "K8N5Y8",
        "streetName": "ALBION",
        "streetDirectionId": null,
        "streetTypeId": "ST",
        "placeName": "BELLEVILLE",
        "streetNameDisplayText": "ALBION ST, BELLEVILLE"
      }
    ]
  },
  {
    "postal": "K8N0B8",
    "result": [
      {
        "electoralDistricts": [
          {
            "election": null,
            "id": 6,
            "name": "Bay of Quinte"
          }
        ],
        "pollDivisionIds": [
          10136968
        ],
        "postalCode": "K8N0B8",
        "streetName": "MERCEDES",
        "streetDirectionId": null,
        "streetTypeId": "DR",
        "placeName": "BELLEVILLE",
        "streetNameDisplayText": "MERCEDES DR, BELLEVILLE"
      },
      {
        "electoralDistricts": [
          {
            "election": null,
            "id": 6,
            "name": "Bay of Quinte"
          }
        ],
        "pollDivisionIds": [
          10136968,
          10136976
        ],
        "postalCode": "K8N0B8",
        "streetName": "TESSA",
        "streetDirectionId": null,
        "streetTypeId": "BLVD",
        "placeName": "BELLEVILLE",
        "streetNameDisplayText": "TESSA BLVD, BELLEVILLE"
      }
    ]
  },
  {
    "postal": "K8N6R5",
    "result": []
  },
  {
    "postal": "K8N8W6",
    "result": []
  },
  {
    "postal": "K8N8G6",
    "result": []
  },
  {
    "postal": "K8N6X3",
    "result": []
  },
  {
    "postal": "K8N7R7",
    "result": []
  },
  {
    "postal": "K8N4B6",
    "result": [
      {
        "electoralDistricts": [
          {
            "election": null,
            "id": 6,
            "name": "Bay of Quinte"
          }
        ],
        "pollDivisionIds": [
          10136975
        ],
        "postalCode": "K8N4B6",
        "streetName": "GREENLAWN",
        "streetDirectionId": null,
        "streetTypeId": "AVE",
        "placeName": "BELLEVILLE",
        "streetNameDisplayText": "GREENLAWN AVE, BELLEVILLE"
      }
    ]
  },
  {
    "postal": "K8N3P9",
    "result": [
      {
        "electoralDistricts": [
          {
            "election": null,
            "id": 6,
            "name": "Bay of Quinte"
          }
        ],
        "pollDivisionIds": [
          10136974
        ],
        "postalCode": "K8N3P9",
        "streetName": "FOSTER",
        "streetDirectionId": null,
        "streetTypeId": "AVE",
        "placeName": "BELLEVILLE",
        "streetNameDisplayText": "FOSTER AVE, BELLEVILLE"
      }
    ]
  },
  {
    "postal": "K8N2T3",
    "result": [
      {
        "electoralDistricts": [
          {
            "election": null,
            "id": 6,
            "name": "Bay of Quinte"
          }
        ],
        "pollDivisionIds": [
          10136971
        ],
        "postalCode": "K8N2T3",
        "streetName": "STATION",
        "streetDirectionId": null,
        "streetTypeId": "ST",
        "placeName": "BELLEVILLE",
        "streetNameDisplayText": "STATION ST, BELLEVILLE"
      }
    ]
  },
  {
    "postal": "K8N1M4",
    "result": [
      {
        "electoralDistricts": [
          {
            "election": null,
            "id": 6,
            "name": "Bay of Quinte"
          }
        ],
        "pollDivisionIds": [
          10136974
        ],
        "postalCode": "K8N1M4",
        "streetName": "BRIDGE",
        "streetDirectionId": "E",
        "streetTypeId": "ST",
        "placeName": "BELLEVILLE",
        "streetNameDisplayText": "BRIDGE ST E, BELLEVILLE"
      }
    ]
  },
  {
    "postal": "K8N0H1",
    "result": [
      {
        "electoralDistricts": [
          {
            "election": null,
            "id": 40,
            "name": "Hastings—Lennox and Addington"
          }
        ],
        "pollDivisionIds": [
          10138776
        ],
        "postalCode": "K8N0H1",
        "streetName": "CHARLESTON",
        "streetDirectionId": null,
        "streetTypeId": "CRT",
        "placeName": "BELLEVILLE",
        "streetNameDisplayText": "CHARLESTON CRT, BELLEVILLE"
      }
    ]
  },
  {
    "postal": "K8N9W3",
    "result": []
  },
  {
    "postal": "K8N6P1",
    "result": []
  },
  {
    "postal": "K8N7G2",
    "result": []
  },
  {
    "postal": "K8N4J9",
    "result": [
      {
        "electoralDistricts": [
          {
            "election": null,
            "id": 6,
            "name": "Bay of Quinte"
          }
        ],
        "pollDivisionIds": [
          10136975
        ],
        "postalCode": "K8N4J9",
        "streetName": "CHELFORD",
        "streetDirectionId": null,
        "streetTypeId": "CRES",
        "placeName": "BELLEVILLE",
        "streetNameDisplayText": "CHELFORD CRES, BELLEVILLE"
      }
    ]
  },
  {
    "postal": "K8N9E4",
    "result": []
  },
  {
    "postal": "K8N8H0",
    "result": []
  },
  {
    "postal": "K8N4M7",
    "result": [
      {
        "electoralDistricts": [
          {
            "election": null,
            "id": 6,
            "name": "Bay of Quinte"
          }
        ],
        "pollDivisionIds": [
          10136976
        ],
        "postalCode": "K8N4M7",
        "streetName": "ALFRED",
        "streetDirectionId": null,
        "streetTypeId": "DR",
        "placeName": "BELLEVILLE",
        "streetNameDisplayText": "ALFRED DR, BELLEVILLE"
      }
    ]
  },
  {
    "postal": "K8N2G9",
    "result": [
      {
        "electoralDistricts": [
          {
            "election": null,
            "id": 6,
            "name": "Bay of Quinte"
          }
        ],
        "pollDivisionIds": [
          10136976
        ],
        "postalCode": "K8N2G9",
        "streetName": "VICTORIA",
        "streetDirectionId": null,
        "streetTypeId": "AVE",
        "placeName": "BELLEVILLE",
        "streetNameDisplayText": "VICTORIA AVE, BELLEVILLE"
      }
    ]
  },
  {
    "postal": "K8N8T2",
    "result": []
  },
  {
    "postal": "K8N7G7",
    "result": []
  },
  {
    "postal": "K8N4Z3",
    "result": [
      {
        "electoralDistricts": [
          {
            "election": null,
            "id": 6,
            "name": "Bay of Quinte"
          }
        ],
        "pollDivisionIds": [
          10136965
        ],
        "postalCode": "K8N4Z3",
        "streetName": "ANNETTE",
        "streetDirectionId": null,
        "streetTypeId": "BLVD",
        "placeName": "BELLEVILLE",
        "streetNameDisplayText": "ANNETTE BLVD, BELLEVILLE"
      },
      {
        "electoralDistricts": [
          {
            "election": null,
            "id": 6,
            "name": "Bay of Quinte"
          }
        ],
        "pollDivisionIds": [
          10136965
        ],
        "postalCode": "K8N4Z3",
        "streetName": "ARBOUR",
        "streetDirectionId": null,
        "streetTypeId": "LANE",
        "placeName": "BELLEVILLE",
        "streetNameDisplayText": "ARBOUR LANE, BELLEVILLE"
      },
      {
        "electoralDistricts": [
          {
            "election": null,
            "id": 6,
            "name": "Bay of Quinte"
          }
        ],
        "pollDivisionIds": [
          10136965
        ],
        "postalCode": "K8N4Z3",
        "streetName": "BLUEJAY",
        "streetDirectionId": null,
        "streetTypeId": "LANE",
        "placeName": "BELLEVILLE",
        "streetNameDisplayText": "BLUEJAY LANE, BELLEVILLE"
      },
      {
        "electoralDistricts": [
          {
            "election": null,
            "id": 6,
            "name": "Bay of Quinte"
          }
        ],
        "pollDivisionIds": [
          10136965
        ],
        "postalCode": "K8N4Z3",
        "streetName": "BOWLING GREEN",
        "streetDirectionId": null,
        "streetTypeId": "CRES",
        "placeName": "BELLEVILLE",
        "streetNameDisplayText": "BOWLING GREEN CRES, BELLEVILLE"
      },
      {
        "electoralDistricts": [
          {
            "election": null,
            "id": 6,
            "name": "Bay of Quinte"
          }
        ],
        "pollDivisionIds": [
          10136965
        ],
        "postalCode": "K8N4Z3",
        "streetName": "CARDINAL",
        "streetDirectionId": null,
        "streetTypeId": "LANE",
        "placeName": "BELLEVILLE",
        "streetNameDisplayText": "CARDINAL LANE, BELLEVILLE"
      },
      {
        "electoralDistricts": [
          {
            "election": null,
            "id": 6,
            "name": "Bay of Quinte"
          }
        ],
        "pollDivisionIds": [
          10136965
        ],
        "postalCode": "K8N4Z3",
        "streetName": "CHAPEL",
        "streetDirectionId": null,
        "streetTypeId": "BLVD",
        "placeName": "BELLEVILLE",
        "streetNameDisplayText": "CHAPEL BLVD, BELLEVILLE"
      },
      {
        "electoralDistricts": [
          {
            "election": null,
            "id": 6,
            "name": "Bay of Quinte"
          }
        ],
        "pollDivisionIds": [
          10136965
        ],
        "postalCode": "K8N4Z3",
        "streetName": "DOVE",
        "streetDirectionId": null,
        "streetTypeId": "LANE",
        "placeName": "BELLEVILLE",
        "streetNameDisplayText": "DOVE LANE, BELLEVILLE"
      },
      {
        "electoralDistricts": [
          {
            "election": null,
            "id": 6,
            "name": "Bay of Quinte"
          }
        ],
        "pollDivisionIds": [
          10136965
        ],
        "postalCode": "K8N4Z3",
        "streetName": "EASTVIEW",
        "streetDirectionId": null,
        "streetTypeId": "BLVD",
        "placeName": "BELLEVILLE",
        "streetNameDisplayText": "EASTVIEW BLVD, BELLEVILLE"
      },
      {
        "electoralDistricts": [
          {
            "election": null,
            "id": 6,
            "name": "Bay of Quinte"
          }
        ],
        "pollDivisionIds": [
          10136965
        ],
        "postalCode": "K8N4Z3",
        "streetName": "FINCH",
        "streetDirectionId": null,
        "streetTypeId": "LANE",
        "placeName": "BELLEVILLE",
        "streetNameDisplayText": "FINCH LANE, BELLEVILLE"
      },
      {
        "electoralDistricts": [
          {
            "election": null,
            "id": 6,
            "name": "Bay of Quinte"
          }
        ],
        "pollDivisionIds": [
          10136965
        ],
        "postalCode": "K8N4Z3",
        "streetName": "GARDEN",
        "streetDirectionId": null,
        "streetTypeId": "BLVD",
        "placeName": "BELLEVILLE",
        "streetNameDisplayText": "GARDEN BLVD, BELLEVILLE"
      },
      {
        "electoralDistricts": [
          {
            "election": null,
            "id": 6,
            "name": "Bay of Quinte"
          }
        ],
        "pollDivisionIds": [
          10136965
        ],
        "postalCode": "K8N4Z3",
        "streetName": "GROUSE",
        "streetDirectionId": null,
        "streetTypeId": "LANE",
        "placeName": "BELLEVILLE",
        "streetNameDisplayText": "GROUSE LANE, BELLEVILLE"
      },
      {
        "electoralDistricts": [
          {
            "election": null,
            "id": 6,
            "name": "Bay of Quinte"
          }
        ],
        "pollDivisionIds": [
          10136965
        ],
        "postalCode": "K8N4Z3",
        "streetName": "HEATHER",
        "streetDirectionId": null,
        "streetTypeId": "LANE",
        "placeName": "BELLEVILLE",
        "streetNameDisplayText": "HEATHER LANE, BELLEVILLE"
      },
      {
        "electoralDistricts": [
          {
            "election": null,
            "id": 6,
            "name": "Bay of Quinte"
          }
        ],
        "pollDivisionIds": [
          10136965
        ],
        "postalCode": "K8N4Z3",
        "streetName": "HERON",
        "streetDirectionId": null,
        "streetTypeId": "LANE",
        "placeName": "BELLEVILLE",
        "streetNameDisplayText": "HERON LANE, BELLEVILLE"
      },
      {
        "electoralDistricts": [
          {
            "election": null,
            "id": 6,
            "name": "Bay of Quinte"
          }
        ],
        "pollDivisionIds": [
          10136965
        ],
        "postalCode": "K8N4Z3",
        "streetName": "INDIGO",
        "streetDirectionId": null,
        "streetTypeId": "LANE",
        "placeName": "BELLEVILLE",
        "streetNameDisplayText": "INDIGO LANE, BELLEVILLE"
      },
      {
        "electoralDistricts": [
          {
            "election": null,
            "id": 6,
            "name": "Bay of Quinte"
          }
        ],
        "pollDivisionIds": [
          10136965
        ],
        "postalCode": "K8N4Z3",
        "streetName": "JUNIPER",
        "streetDirectionId": null,
        "streetTypeId": "LANE",
        "placeName": "BELLEVILLE",
        "streetNameDisplayText": "JUNIPER LANE, BELLEVILLE"
      },
      {
        "electoralDistricts": [
          {
            "election": null,
            "id": 6,
            "name": "Bay of Quinte"
          }
        ],
        "pollDivisionIds": [
          10136965
        ],
        "postalCode": "K8N4Z3",
        "streetName": "KENNETH",
        "streetDirectionId": null,
        "streetTypeId": "BLVD",
        "placeName": "BELLEVILLE",
        "streetNameDisplayText": "KENNETH BLVD, BELLEVILLE"
      },
      {
        "electoralDistricts": [
          {
            "election": null,
            "id": 6,
            "name": "Bay of Quinte"
          }
        ],
        "pollDivisionIds": [
          10136965
        ],
        "postalCode": "K8N4Z3",
        "streetName": "KILLDEER",
        "streetDirectionId": null,
        "streetTypeId": "LANE",
        "placeName": "BELLEVILLE",
        "streetNameDisplayText": "KILLDEER LANE, BELLEVILLE"
      },
      {
        "electoralDistricts": [
          {
            "election": null,
            "id": 6,
            "name": "Bay of Quinte"
          }
        ],
        "pollDivisionIds": [
          10136965
        ],
        "postalCode": "K8N4Z3",
        "streetName": "LILAC",
        "streetDirectionId": null,
        "streetTypeId": "LANE",
        "placeName": "BELLEVILLE",
        "streetNameDisplayText": "LILAC LANE, BELLEVILLE"
      },
      {
        "electoralDistricts": [
          {
            "election": null,
            "id": 6,
            "name": "Bay of Quinte"
          }
        ],
        "pollDivisionIds": [
          10136965
        ],
        "postalCode": "K8N4Z3",
        "streetName": "LINDEN",
        "streetDirectionId": null,
        "streetTypeId": "BLVD",
        "placeName": "BELLEVILLE",
        "streetNameDisplayText": "LINDEN BLVD, BELLEVILLE"
      },
      {
        "electoralDistricts": [
          {
            "election": null,
            "id": 6,
            "name": "Bay of Quinte"
          }
        ],
        "pollDivisionIds": [
          10136965
        ],
        "postalCode": "K8N4Z3",
        "streetName": "MEADOW",
        "streetDirectionId": null,
        "streetTypeId": "BLVD",
        "placeName": "BELLEVILLE",
        "streetNameDisplayText": "MEADOW BLVD, BELLEVILLE"
      },
      {
        "electoralDistricts": [
          {
            "election": null,
            "id": 6,
            "name": "Bay of Quinte"
          }
        ],
        "pollDivisionIds": [
          10136965
        ],
        "postalCode": "K8N4Z3",
        "streetName": "MOSS",
        "streetDirectionId": null,
        "streetTypeId": "LANE",
        "placeName": "BELLEVILLE",
        "streetNameDisplayText": "MOSS LANE, BELLEVILLE"
      },
      {
        "electoralDistricts": [
          {
            "election": null,
            "id": 6,
            "name": "Bay of Quinte"
          }
        ],
        "pollDivisionIds": [
          10136965
        ],
        "postalCode": "K8N4Z3",
        "streetName": "NIGHTINGALE",
        "streetDirectionId": null,
        "streetTypeId": "LANE",
        "placeName": "BELLEVILLE",
        "streetNameDisplayText": "NIGHTINGALE LANE, BELLEVILLE"
      },
      {
        "electoralDistricts": [
          {
            "election": null,
            "id": 6,
            "name": "Bay of Quinte"
          }
        ],
        "pollDivisionIds": [
          10136965
        ],
        "postalCode": "K8N4Z3",
        "streetName": "ORIOLE",
        "streetDirectionId": null,
        "streetTypeId": "LANE",
        "placeName": "BELLEVILLE",
        "streetNameDisplayText": "ORIOLE LANE, BELLEVILLE"
      },
      {
        "electoralDistricts": [
          {
            "election": null,
            "id": 6,
            "name": "Bay of Quinte"
          }
        ],
        "pollDivisionIds": [
          10136965
        ],
        "postalCode": "K8N4Z3",
        "streetName": "PARK",
        "streetDirectionId": null,
        "streetTypeId": "LANE",
        "placeName": "BELLEVILLE",
        "streetNameDisplayText": "PARK LANE, BELLEVILLE"
      },
      {
        "electoralDistricts": [
          {
            "election": null,
            "id": 6,
            "name": "Bay of Quinte"
          }
        ],
        "pollDivisionIds": [
          10136965
        ],
        "postalCode": "K8N4Z3",
        "streetName": "PARTRIDGE",
        "streetDirectionId": null,
        "streetTypeId": "LANE",
        "placeName": "BELLEVILLE",
        "streetNameDisplayText": "PARTRIDGE LANE, BELLEVILLE"
      },
      {
        "electoralDistricts": [
          {
            "election": null,
            "id": 6,
            "name": "Bay of Quinte"
          }
        ],
        "pollDivisionIds": [
          10136965
        ],
        "postalCode": "K8N4Z3",
        "streetName": "PATHWAY",
        "streetDirectionId": null,
        "streetTypeId": "LANE",
        "placeName": "BELLEVILLE",
        "streetNameDisplayText": "PATHWAY LANE, BELLEVILLE"
      },
      {
        "electoralDistricts": [
          {
            "election": null,
            "id": 6,
            "name": "Bay of Quinte"
          }
        ],
        "pollDivisionIds": [
          10136965
        ],
        "postalCode": "K8N4Z3",
        "streetName": "SANDPIPER",
        "streetDirectionId": null,
        "streetTypeId": "LANE",
        "placeName": "BELLEVILLE",
        "streetNameDisplayText": "SANDPIPER LANE, BELLEVILLE"
      },
      {
        "electoralDistricts": [
          {
            "election": null,
            "id": 6,
            "name": "Bay of Quinte"
          }
        ],
        "pollDivisionIds": [
          10136965
        ],
        "postalCode": "K8N4Z3",
        "streetName": "SPRUCE",
        "streetDirectionId": null,
        "streetTypeId": "LANE",
        "placeName": "BELLEVILLE",
        "streetNameDisplayText": "SPRUCE LANE, BELLEVILLE"
      },
      {
        "electoralDistricts": [
          {
            "election": null,
            "id": 6,
            "name": "Bay of Quinte"
          }
        ],
        "pollDivisionIds": [
          10136965
        ],
        "postalCode": "K8N4Z3",
        "streetName": "THRUSH",
        "streetDirectionId": null,
        "streetTypeId": "LANE",
        "placeName": "BELLEVILLE",
        "streetNameDisplayText": "THRUSH LANE, BELLEVILLE"
      },
      {
        "electoralDistricts": [
          {
            "election": null,
            "id": 6,
            "name": "Bay of Quinte"
          }
        ],
        "pollDivisionIds": [
          10136965
        ],
        "postalCode": "K8N4Z3",
        "streetName": "WARBLER",
        "streetDirectionId": null,
        "streetTypeId": "LANE",
        "placeName": "BELLEVILLE",
        "streetNameDisplayText": "WARBLER LANE, BELLEVILLE"
      },
      {
        "electoralDistricts": [
          {
            "election": null,
            "id": 6,
            "name": "Bay of Quinte"
          }
        ],
        "pollDivisionIds": [
          10136965
        ],
        "postalCode": "K8N4Z3",
        "streetName": "WESTVIEW",
        "streetDirectionId": null,
        "streetTypeId": "BLVD",
        "placeName": "BELLEVILLE",
        "streetNameDisplayText": "WESTVIEW BLVD, BELLEVILLE"
      }
    ]
  },
  {
    "postal": "K8N5B3",
    "result": []
  },
  {
    "postal": "K8N1S7",
    "result": []
  },
  {
    "postal": "K8N2N7",
    "result": [
      {
        "electoralDistricts": [
          {
            "election": null,
            "id": 6,
            "name": "Bay of Quinte"
          }
        ],
        "pollDivisionIds": [
          10136971
        ],
        "postalCode": "K8N2N7",
        "streetName": "MEYERS",
        "streetDirectionId": null,
        "streetTypeId": "ST",
        "placeName": "BELLEVILLE",
        "streetNameDisplayText": "MEYERS ST, BELLEVILLE"
      }
    ]
  },
  {
    "postal": "K8N0H8",
    "result": [
      {
        "electoralDistricts": [
          {
            "election": null,
            "id": 40,
            "name": "Hastings—Lennox and Addington"
          }
        ],
        "pollDivisionIds": [
          10138776
        ],
        "postalCode": "K8N0H8",
        "streetName": "WIMS",
        "streetDirectionId": null,
        "streetTypeId": "WAY",
        "placeName": "BELLEVILLE",
        "streetNameDisplayText": "WIMS WAY, BELLEVILLE"
      }
    ]
  },
  {
    "postal": "K8N7Z4",
    "result": []
  },
  {
    "postal": "K8N7B1",
    "result": []
  },
  {
    "postal": "K8N7P8",
    "result": []
  },
  {
    "postal": "K8N7N0",
    "result": []
  },
  {
    "postal": "K8N3Y5",
    "result": [
      {
        "electoralDistricts": [
          {
            "election": null,
            "id": 6,
            "name": "Bay of Quinte"
          }
        ],
        "pollDivisionIds": [
          10136975
        ],
        "postalCode": "K8N3Y5",
        "streetName": "MACDONALD",
        "streetDirectionId": null,
        "streetTypeId": "AVE",
        "placeName": "BELLEVILLE",
        "streetNameDisplayText": "MACDONALD AVE, BELLEVILLE"
      }
    ]
  },
  {
    "postal": "K8N6K1",
    "result": []
  },
  {
    "postal": "K8N9X5",
    "result": []
  },
  {
    "postal": "K8N7S5",
    "result": []
  },
  {
    "postal": "K8N0A4",
    "result": [
      {
        "electoralDistricts": [
          {
            "election": null,
            "id": 6,
            "name": "Bay of Quinte"
          }
        ],
        "pollDivisionIds": [
          10136971
        ],
        "postalCode": "K8N0A4",
        "streetName": "PINE",
        "streetDirectionId": null,
        "streetTypeId": "ST",
        "placeName": "BELLEVILLE",
        "streetNameDisplayText": "PINE ST, BELLEVILLE"
      }
    ]
  },
  {
    "postal": "K8N4T5",
    "result": [
      {
        "electoralDistricts": [
          {
            "election": null,
            "id": 6,
            "name": "Bay of Quinte"
          }
        ],
        "pollDivisionIds": [
          10136971
        ],
        "postalCode": "K8N4T5",
        "streetName": "JONES",
        "streetDirectionId": null,
        "streetTypeId": "ST",
        "placeName": "BELLEVILLE",
        "streetNameDisplayText": "JONES ST, BELLEVILLE"
      }
    ]
  },
  {
    "postal": "K8N5K1",
    "result": []
  },
  {
    "postal": "K8N0Z9",
    "result": []
  },
  {
    "postal": "K8N7T2",
    "result": []
  },
  {
    "postal": "K8N1L5",
    "result": [
      {
        "electoralDistricts": [
          {
            "election": null,
            "id": 6,
            "name": "Bay of Quinte"
          }
        ],
        "pollDivisionIds": [
          10136974
        ],
        "postalCode": "K8N1L5",
        "streetName": "BRIDGE",
        "streetDirectionId": "E",
        "streetTypeId": "ST",
        "placeName": "BELLEVILLE",
        "streetNameDisplayText": "BRIDGE ST E, BELLEVILLE"
      }
    ]
  },
  {
    "postal": "K8N3N5",
    "result": [
      {
        "electoralDistricts": [
          {
            "election": null,
            "id": 6,
            "name": "Bay of Quinte"
          }
        ],
        "pollDivisionIds": [
          10136974
        ],
        "postalCode": "K8N3N5",
        "streetName": "ALBERT",
        "streetDirectionId": null,
        "streetTypeId": "ST",
        "placeName": "BELLEVILLE",
        "streetNameDisplayText": "ALBERT ST, BELLEVILLE"
      }
    ]
  },
  {
    "postal": "K8N6H4",
    "result": []
  },
  {
    "postal": "K8N5A5",
    "result": []
  },
  {
    "postal": "K8N3R9",
    "result": [
      {
        "electoralDistricts": [
          {
            "election": null,
            "id": 6,
            "name": "Bay of Quinte"
          }
        ],
        "pollDivisionIds": [
          10136974
        ],
        "postalCode": "K8N3R9",
        "streetName": "BURNHAM",
        "streetDirectionId": null,
        "streetTypeId": "ST",
        "placeName": "BELLEVILLE",
        "streetNameDisplayText": "BURNHAM ST, BELLEVILLE"
      }
    ]
  },
  {
    "postal": "K8N7L8",
    "result": []
  },
  {
    "postal": "K8N6T6",
    "result": []
  },
  {
    "postal": "K8N7Y7",
    "result": []
  },
  {
    "postal": "K8N3M8",
    "result": [
      {
        "electoralDistricts": [
          {
            "election": null,
            "id": 6,
            "name": "Bay of Quinte"
          }
        ],
        "pollDivisionIds": [
          10136974
        ],
        "postalCode": "K8N3M8",
        "streetName": "CHARLES",
        "streetDirectionId": null,
        "streetTypeId": "ST",
        "placeName": "BELLEVILLE",
        "streetNameDisplayText": "CHARLES ST, BELLEVILLE"
      }
    ]
  },
  {
    "postal": "K8N2E0",
    "result": []
  },
  {
    "postal": "K8N4B5",
    "result": [
      {
        "electoralDistricts": [
          {
            "election": null,
            "id": 6,
            "name": "Bay of Quinte"
          }
        ],
        "pollDivisionIds": [
          10136975
        ],
        "postalCode": "K8N4B5",
        "streetName": "GREENLAWN",
        "streetDirectionId": null,
        "streetTypeId": "AVE",
        "placeName": "BELLEVILLE",
        "streetNameDisplayText": "GREENLAWN AVE, BELLEVILLE"
      }
    ]
  },
  {
    "postal": "K8N1J3",
    "result": [
      {
        "electoralDistricts": [
          {
            "election": null,
            "id": 6,
            "name": "Bay of Quinte"
          }
        ],
        "pollDivisionIds": [
          10136975
        ],
        "postalCode": "K8N1J3",
        "streetName": "HASTINGS",
        "streetDirectionId": null,
        "streetTypeId": "DR",
        "placeName": "BELLEVILLE",
        "streetNameDisplayText": "HASTINGS DR, BELLEVILLE"
      }
    ]
  },
  {
    "postal": "K8N5S6",
    "result": [
      {
        "electoralDistricts": [
          {
            "election": null,
            "id": 6,
            "name": "Bay of Quinte"
          }
        ],
        "pollDivisionIds": [
          10136967
        ],
        "postalCode": "K8N5S6",
        "streetName": "UNIVERSITY",
        "streetDirectionId": null,
        "streetTypeId": "AVE",
        "placeName": "BELLEVILLE",
        "streetNameDisplayText": "UNIVERSITY AVE, BELLEVILLE"
      }
    ]
  },
  {
    "postal": "K8N8P7",
    "result": []
  },
  {
    "postal": "K8N7S7",
    "result": []
  },
  {
    "postal": "K8N4C2",
    "result": [
      {
        "electoralDistricts": [
          {
            "election": null,
            "id": 6,
            "name": "Bay of Quinte"
          }
        ],
        "pollDivisionIds": [
          10136975
        ],
        "postalCode": "K8N4C2",
        "streetName": "BERTRAM",
        "streetDirectionId": null,
        "streetTypeId": "BLVD",
        "placeName": "BELLEVILLE",
        "streetNameDisplayText": "BERTRAM BLVD, BELLEVILLE"
      }
    ]
  },
  {
    "postal": "K8N5Y0",
    "result": []
  },
  {
    "postal": "K8N2V7",
    "result": [
      {
        "electoralDistricts": [
          {
            "election": null,
            "id": 6,
            "name": "Bay of Quinte"
          }
        ],
        "pollDivisionIds": [
          10136971
        ],
        "postalCode": "K8N2V7",
        "streetName": "COLLEGE",
        "streetDirectionId": "E",
        "streetTypeId": "ST",
        "placeName": "BELLEVILLE",
        "streetNameDisplayText": "COLLEGE ST E, BELLEVILLE"
      }
    ]
  },
  {
    "postal": "K8N8P5",
    "result": []
  },
  {
    "postal": "K8N5P5",
    "result": []
  },
  {
    "postal": "K8N5Z0",
    "result": []
  },
  {
    "postal": "K8N9B0",
    "result": []
  },
  {
    "postal": "K8N1L0",
    "result": []
  },
  {
    "postal": "K8N0B5",
    "result": [
      {
        "electoralDistricts": [
          {
            "election": null,
            "id": 6,
            "name": "Bay of Quinte"
          }
        ],
        "pollDivisionIds": [
          10136972,
          10136968,
          10136974
        ],
        "postalCode": "K8N0B5",
        "streetName": "SPRUCE",
        "streetDirectionId": null,
        "streetTypeId": "GDNS",
        "placeName": "BELLEVILLE",
        "streetNameDisplayText": "SPRUCE GDNS, BELLEVILLE"
      }
    ]
  },
  {
    "postal": "K8N3L2",
    "result": [
      {
        "electoralDistricts": [
          {
            "election": null,
            "id": 6,
            "name": "Bay of Quinte"
          }
        ],
        "pollDivisionIds": [
          10136974
        ],
        "postalCode": "K8N3L2",
        "streetName": "ANN",
        "streetDirectionId": null,
        "streetTypeId": "ST",
        "placeName": "BELLEVILLE",
        "streetNameDisplayText": "ANN ST, BELLEVILLE"
      }
    ]
  },
  {
    "postal": "K8N3B7",
    "result": [
      {
        "electoralDistricts": [
          {
            "election": null,
            "id": 6,
            "name": "Bay of Quinte"
          }
        ],
        "pollDivisionIds": [
          10136978
        ],
        "postalCode": "K8N3B7",
        "streetName": "CHURCH",
        "streetDirectionId": "S",
        "streetTypeId": "ST",
        "placeName": "BELLEVILLE",
        "streetNameDisplayText": "CHURCH ST S, BELLEVILLE"
      }
    ]
  },
  {
    "postal": "K8N8L1",
    "result": []
  },
  {
    "postal": "K8N5M4",
    "result": [
      {
        "electoralDistricts": [
          {
            "election": null,
            "id": 6,
            "name": "Bay of Quinte"
          }
        ],
        "pollDivisionIds": [
          10137002
        ],
        "postalCode": "K8N5M4",
        "streetName": "FRONT",
        "streetDirectionId": null,
        "streetTypeId": "ST",
        "placeName": "BELLEVILLE",
        "streetNameDisplayText": "FRONT ST, BELLEVILLE"
      }
    ]
  },
  {
    "postal": "K8N4G9",
    "result": [
      {
        "electoralDistricts": [
          {
            "election": null,
            "id": 6,
            "name": "Bay of Quinte"
          }
        ],
        "pollDivisionIds": [
          10136975
        ],
        "postalCode": "K8N4G9",
        "streetName": "HERCHIMER",
        "streetDirectionId": null,
        "streetTypeId": "AVE",
        "placeName": "BELLEVILLE",
        "streetNameDisplayText": "HERCHIMER AVE, BELLEVILLE"
      }
    ]
  },
  {
    "postal": "K8N0P0",
    "result": []
  },
  {
    "postal": "K8N8G2",
    "result": []
  },
  {
    "postal": "K8N1V9",
    "result": [
      {
        "electoralDistricts": [
          {
            "election": null,
            "id": 6,
            "name": "Bay of Quinte"
          }
        ],
        "pollDivisionIds": [
          10136978
        ],
        "postalCode": "K8N1V9",
        "streetName": "QUEEN",
        "streetDirectionId": null,
        "streetTypeId": "ST",
        "placeName": "BELLEVILLE",
        "streetNameDisplayText": "QUEEN ST, BELLEVILLE"
      }
    ]
  },
  {
    "postal": "K8N8N8",
    "result": []
  },
  {
    "postal": "K8N6S8",
    "result": []
  },
  {
    "postal": "K8N8H2",
    "result": []
  },
  {
    "postal": "K8N5R8",
    "result": [
      {
        "electoralDistricts": [
          {
            "election": null,
            "id": 6,
            "name": "Bay of Quinte"
          }
        ],
        "pollDivisionIds": [
          10136971
        ],
        "postalCode": "K8N5R8",
        "streetName": "DUSSEK",
        "streetDirectionId": null,
        "streetTypeId": "ST",
        "placeName": "BELLEVILLE",
        "streetNameDisplayText": "DUSSEK ST, BELLEVILLE"
      }
    ]
  },
  {
    "postal": "K8N5L4",
    "result": [
      {
        "electoralDistricts": [
          {
            "election": null,
            "id": 6,
            "name": "Bay of Quinte"
          }
        ],
        "pollDivisionIds": [
          10136976
        ],
        "postalCode": "K8N5L4",
        "streetName": "BRIMLEY",
        "streetDirectionId": null,
        "streetTypeId": "CRT",
        "placeName": "BELLEVILLE",
        "streetNameDisplayText": "BRIMLEY CRT, BELLEVILLE"
      }
    ]
  },
  {
    "postal": "K8N9E1",
    "result": []
  },
  {
    "postal": "K8N1C4",
    "result": [
      {
        "electoralDistricts": [
          {
            "election": null,
            "id": 6,
            "name": "Bay of Quinte"
          }
        ],
        "pollDivisionIds": [
          10136974
        ],
        "postalCode": "K8N1C4",
        "streetName": "DUNDAS",
        "streetDirectionId": "E",
        "streetTypeId": "ST",
        "placeName": "BELLEVILLE",
        "streetNameDisplayText": "DUNDAS ST E, BELLEVILLE"
      }
    ]
  },
  {
    "postal": "K8N8W5",
    "result": []
  },
  {
    "postal": "K8N1Y4",
    "result": [
      {
        "electoralDistricts": [
          {
            "election": null,
            "id": 6,
            "name": "Bay of Quinte"
          }
        ],
        "pollDivisionIds": [
          10136976
        ],
        "postalCode": "K8N1Y4",
        "streetName": "SUNSET",
        "streetDirectionId": null,
        "streetTypeId": "DR",
        "placeName": "BELLEVILLE",
        "streetNameDisplayText": "SUNSET DR, BELLEVILLE"
      }
    ]
  },
  {
    "postal": "K8N1C0",
    "result": []
  },
  {
    "postal": "K8N2J2",
    "result": [
      {
        "electoralDistricts": [
          {
            "election": null,
            "id": 6,
            "name": "Bay of Quinte"
          }
        ],
        "pollDivisionIds": [
          10136971
        ],
        "postalCode": "K8N2J2",
        "streetName": "MIKEL",
        "streetDirectionId": null,
        "streetTypeId": "AVE",
        "placeName": "BELLEVILLE",
        "streetNameDisplayText": "MIKEL AVE, BELLEVILLE"
      }
    ]
  },
  {
    "postal": "K8N2J0",
    "result": []
  },
  {
    "postal": "K8N7A3",
    "result": []
  },
  {
    "postal": "K8N8M1",
    "result": []
  },
  {
    "postal": "K8N7T9",
    "result": []
  },
  {
    "postal": "K8N6C0",
    "result": []
  },
  {
    "postal": "K8N7X1",
    "result": []
  },
  {
    "postal": "K8N0G1",
    "result": []
  },
  {
    "postal": "K8N4X2",
    "result": [
      {
        "electoralDistricts": [
          {
            "election": null,
            "id": 6,
            "name": "Bay of Quinte"
          }
        ],
        "pollDivisionIds": [
          10136971
        ],
        "postalCode": "K8N4X2",
        "streetName": "PEARL",
        "streetDirectionId": null,
        "streetTypeId": "ST",
        "placeName": "BELLEVILLE",
        "streetNameDisplayText": "PEARL ST, BELLEVILLE"
      }
    ]
  },
  {
    "postal": "K8N0N6",
    "result": [
      {
        "electoralDistricts": [
          {
            "election": null,
            "id": 40,
            "name": "Hastings—Lennox and Addington"
          }
        ],
        "pollDivisionIds": [
          10138776
        ],
        "postalCode": "K8N0N6",
        "streetName": "PARKS",
        "streetDirectionId": null,
        "streetTypeId": "DR",
        "placeName": "BELLEVILLE",
        "streetNameDisplayText": "PARKS DR, BELLEVILLE"
      }
    ]
  },
  {
    "postal": "K8N8E3",
    "result": []
  },
  {
    "postal": "K8N5S8",
    "result": [
      {
        "electoralDistricts": [
          {
            "election": null,
            "id": 6,
            "name": "Bay of Quinte"
          }
        ],
        "pollDivisionIds": [
          10136968
        ],
        "postalCode": "K8N5S8",
        "streetName": "JAMIESON BONE",
        "streetDirectionId": null,
        "streetTypeId": "RD",
        "placeName": "BELLEVILLE",
        "streetNameDisplayText": "JAMIESON BONE RD, BELLEVILLE"
      }
    ]
  },
  {
    "postal": "K8N0R0",
    "result": []
  },
  {
    "postal": "K8N6J6",
    "result": []
  },
  {
    "postal": "K8N4B4",
    "result": [
      {
        "electoralDistricts": [
          {
            "election": null,
            "id": 6,
            "name": "Bay of Quinte"
          }
        ],
        "pollDivisionIds": [
          10136975
        ],
        "postalCode": "K8N4B4",
        "streetName": "FAIRWAY",
        "streetDirectionId": null,
        "streetTypeId": "AVE",
        "placeName": "BELLEVILLE",
        "streetNameDisplayText": "FAIRWAY AVE, BELLEVILLE"
      }
    ]
  },
  {
    "postal": "K8N7E3",
    "result": []
  },
  {
    "postal": "K8N3N6",
    "result": [
      {
        "electoralDistricts": [
          {
            "election": null,
            "id": 6,
            "name": "Bay of Quinte"
          }
        ],
        "pollDivisionIds": [
          10136974
        ],
        "postalCode": "K8N3N6",
        "streetName": "ALBERT",
        "streetDirectionId": null,
        "streetTypeId": "ST",
        "placeName": "BELLEVILLE",
        "streetNameDisplayText": "ALBERT ST, BELLEVILLE"
      }
    ]
  },
  {
    "postal": "K8N3X6",
    "result": [
      {
        "electoralDistricts": [
          {
            "election": null,
            "id": 6,
            "name": "Bay of Quinte"
          }
        ],
        "pollDivisionIds": [
          10136974
        ],
        "postalCode": "K8N3X6",
        "streetName": "DUFFERIN",
        "streetDirectionId": null,
        "streetTypeId": "AVE",
        "placeName": "BELLEVILLE",
        "streetNameDisplayText": "DUFFERIN AVE, BELLEVILLE"
      }
    ]
  },
  {
    "postal": "K8N8L0",
    "result": []
  },
  {
    "postal": "K8N8N1",
    "result": []
  },
  {
    "postal": "K8N4J0",
    "result": []
  },
  {
    "postal": "K8N0X7",
    "result": []
  },
  {
    "postal": "K8N6S4",
    "result": []
  },
  {
    "postal": "K8N0Z0",
    "result": []
  },
  {
    "postal": "K8N9X8",
    "result": []
  },
  {
    "postal": "K8N3H3",
    "result": []
  },
  {
    "postal": "K8N7S2",
    "result": []
  },
  {
    "postal": "K8N3T3",
    "result": [
      {
        "electoralDistricts": [
          {
            "election": null,
            "id": 6,
            "name": "Bay of Quinte"
          }
        ],
        "pollDivisionIds": [
          10136971
        ],
        "postalCode": "K8N3T3",
        "streetName": "LINGHAM",
        "streetDirectionId": null,
        "streetTypeId": "ST",
        "placeName": "BELLEVILLE",
        "streetNameDisplayText": "LINGHAM ST, BELLEVILLE"
      }
    ]
  },
  {
    "postal": "K8N9P3",
    "result": []
  },
  {
    "postal": "K8N4H8",
    "result": [
      {
        "electoralDistricts": [
          {
            "election": null,
            "id": 6,
            "name": "Bay of Quinte"
          }
        ],
        "pollDivisionIds": [
          10136975
        ],
        "postalCode": "K8N4H8",
        "streetName": "ELEANOR",
        "streetDirectionId": null,
        "streetTypeId": "GDNS",
        "placeName": "BELLEVILLE",
        "streetNameDisplayText": "ELEANOR GDNS, BELLEVILLE"
      }
    ]
  },
  {
    "postal": "K8N6R1",
    "result": []
  },
  {
    "postal": "K8N1S0",
    "result": []
  },
  {
    "postal": "K8N3W8",
    "result": [
      {
        "electoralDistricts": [
          {
            "election": null,
            "id": 6,
            "name": "Bay of Quinte"
          }
        ],
        "pollDivisionIds": [
          10136971
        ],
        "postalCode": "K8N3W8",
        "streetName": "BETTES",
        "streetDirectionId": null,
        "streetTypeId": "ST",
        "placeName": "BELLEVILLE",
        "streetNameDisplayText": "BETTES ST, BELLEVILLE"
      }
    ]
  },
  {
    "postal": "K8N4S3",
    "result": [
      {
        "electoralDistricts": [
          {
            "election": null,
            "id": 6,
            "name": "Bay of Quinte"
          }
        ],
        "pollDivisionIds": [
          10136978
        ],
        "postalCode": "K8N4S3",
        "streetName": "FIFTH",
        "streetDirectionId": null,
        "streetTypeId": "ST",
        "placeName": "BELLEVILLE",
        "streetNameDisplayText": "FIFTH ST, BELLEVILLE"
      },
      {
        "electoralDistricts": [
          {
            "election": null,
            "id": 6,
            "name": "Bay of Quinte"
          }
        ],
        "pollDivisionIds": [
          10136965,
          10136968
        ],
        "postalCode": "K8N4S3",
        "streetName": "OLD 2",
        "streetDirectionId": null,
        "streetTypeId": "HWY",
        "placeName": "BELLEVILLE",
        "streetNameDisplayText": "OLD 2 HWY, BELLEVILLE"
      }
    ]
  },
  {
    "postal": "K8N1B6",
    "result": [
      {
        "electoralDistricts": [
          {
            "election": null,
            "id": 6,
            "name": "Bay of Quinte"
          }
        ],
        "pollDivisionIds": [
          10136974
        ],
        "postalCode": "K8N1B6",
        "streetName": "DUNDAS",
        "streetDirectionId": "E",
        "streetTypeId": "ST",
        "placeName": "BELLEVILLE",
        "streetNameDisplayText": "DUNDAS ST E, BELLEVILLE"
      }
    ]
  },
  {
    "postal": "K8N8R3",
    "result": []
  },
  {
    "postal": "K8N4V9",
    "result": [
      {
        "electoralDistricts": [
          {
            "election": null,
            "id": 6,
            "name": "Bay of Quinte"
          }
        ],
        "pollDivisionIds": [
          10136967
        ],
        "postalCode": "K8N4V9",
        "streetName": "CANNIFTON",
        "streetDirectionId": null,
        "streetTypeId": "RD",
        "placeName": "BELLEVILLE",
        "streetNameDisplayText": "CANNIFTON RD, BELLEVILLE"
      }
    ]
  },
  {
    "postal": "K8N9W4",
    "result": []
  },
  {
    "postal": "K8N3T4",
    "result": [
      {
        "electoralDistricts": [
          {
            "election": null,
            "id": 6,
            "name": "Bay of Quinte"
          }
        ],
        "pollDivisionIds": [
          10136971
        ],
        "postalCode": "K8N3T4",
        "streetName": "LINGHAM",
        "streetDirectionId": null,
        "streetTypeId": "ST",
        "placeName": "BELLEVILLE",
        "streetNameDisplayText": "LINGHAM ST, BELLEVILLE"
      }
    ]
  },
  {
    "postal": "K8N5C7",
    "result": []
  },
  {
    "postal": "K8N3Y1",
    "result": [
      {
        "electoralDistricts": [
          {
            "election": null,
            "id": 6,
            "name": "Bay of Quinte"
          }
        ],
        "pollDivisionIds": [
          10136971
        ],
        "postalCode": "K8N3Y1",
        "streetName": "DUFFERIN",
        "streetDirectionId": null,
        "streetTypeId": "AVE",
        "placeName": "BELLEVILLE",
        "streetNameDisplayText": "DUFFERIN AVE, BELLEVILLE"
      }
    ]
  },
  {
    "postal": "K8N5V0",
    "result": []
  },
  {
    "postal": "K8N8G8",
    "result": []
  },
  {
    "postal": "K8N8B1",
    "result": []
  },
  {
    "postal": "K8N4P5",
    "result": [
      {
        "electoralDistricts": [
          {
            "election": null,
            "id": 6,
            "name": "Bay of Quinte"
          }
        ],
        "pollDivisionIds": [
          10136968
        ],
        "postalCode": "K8N4P5",
        "streetName": "HAIG",
        "streetDirectionId": null,
        "streetTypeId": "RD",
        "placeName": "BELLEVILLE",
        "streetNameDisplayText": "HAIG RD, BELLEVILLE"
      }
    ]
  },
  {
    "postal": "K8N7B2",
    "result": []
  },
  {
    "postal": "K8N0R2",
    "result": [
      {
        "electoralDistricts": [
          {
            "election": null,
            "id": 6,
            "name": "Bay of Quinte"
          }
        ],
        "pollDivisionIds": [
          10136967
        ],
        "postalCode": "K8N0R2",
        "streetName": "CENTRE",
        "streetDirectionId": null,
        "streetTypeId": "ST",
        "placeName": "BELLEVILLE",
        "streetNameDisplayText": "CENTRE ST, BELLEVILLE"
      }
    ]
  },
  {
    "postal": "K8N4M4",
    "result": [
      {
        "electoralDistricts": [
          {
            "election": null,
            "id": 6,
            "name": "Bay of Quinte"
          }
        ],
        "pollDivisionIds": [
          10136976
        ],
        "postalCode": "K8N4M4",
        "streetName": "FOREST HILL",
        "streetDirectionId": null,
        "streetTypeId": "CRES",
        "placeName": "BELLEVILLE",
        "streetNameDisplayText": "FOREST HILL CRES, BELLEVILLE"
      }
    ]
  },
  {
    "postal": "K8N7M4",
    "result": []
  },
  {
    "postal": "K8N9S7",
    "result": []
  },
  {
    "postal": "K8N5Z7",
    "result": []
  },
  {
    "postal": "K8N7J7",
    "result": []
  },
  {
    "postal": "K8N8R8",
    "result": []
  },
  {
    "postal": "K8N9X1",
    "result": []
  },
  {
    "postal": "K8N5M9",
    "result": []
  },
  {
    "postal": "K8N9B4",
    "result": []
  },
  {
    "postal": "K8N0L9",
    "result": [
      {
        "electoralDistricts": [
          {
            "election": null,
            "id": 40,
            "name": "Hastings—Lennox and Addington"
          }
        ],
        "pollDivisionIds": [
          10138776
        ],
        "postalCode": "K8N0L9",
        "streetName": "62",
        "streetDirectionId": null,
        "streetTypeId": "HWY",
        "placeName": "BELLEVILLE",
        "streetNameDisplayText": "62 HWY, BELLEVILLE"
      },
      {
        "electoralDistricts": [
          {
            "election": null,
            "id": 40,
            "name": "Hastings—Lennox and Addington"
          }
        ],
        "pollDivisionIds": [
          10138776
        ],
        "postalCode": "K8N0L9",
        "streetName": "ROY",
        "streetDirectionId": null,
        "streetTypeId": "BLVD",
        "placeName": "BELLEVILLE",
        "streetNameDisplayText": "ROY BLVD, BELLEVILLE"
      }
    ]
  },
  {
    "postal": "K8N9G4",
    "result": []
  },
  {
    "postal": "K8N1J4",
    "result": [
      {
        "electoralDistricts": [
          {
            "election": null,
            "id": 6,
            "name": "Bay of Quinte"
          }
        ],
        "pollDivisionIds": [
          10136975
        ],
        "postalCode": "K8N1J4",
        "streetName": "HASTINGS",
        "streetDirectionId": null,
        "streetTypeId": "DR",
        "placeName": "BELLEVILLE",
        "streetNameDisplayText": "HASTINGS DR, BELLEVILLE"
      }
    ]
  },
  {
    "postal": "K8N0W6",
    "result": []
  }
]
