[
  {
    "postal": "L0N1A0",
    "result": [
      {
        "electoralDistricts": [
          {
            "election": null,
            "id": 23,
            "name": "Dufferin—Caledon"
          }
        ],
        "pollDivisionIds": [
          10137800,
          10137803
        ],
        "postalCode": "L0N1A0",
        "streetName": "CHARLESTON",
        "streetDirectionId": null,
        "streetTypeId": "SIDERD",
        "placeName": "ALTON",
        "streetNameDisplayText": "CHARLESTON SIDERD, ALTON"
      },
      {
        "electoralDistricts": [
          {
            "election": null,
            "id": 23,
            "name": "Dufferin—Caledon"
          }
        ],
        "pollDivisionIds": [
          10137799
        ],
        "postalCode": "L0N1A0",
        "streetName": "FLAHERTY",
        "streetDirectionId": null,
        "streetTypeId": "LANE",
        "placeName": "ALTON",
        "streetNameDisplayText": "FLAHERTY LANE, ALTON"
      },
      {
        "electoralDistricts": [
          {
            "election": null,
            "id": 23,
            "name": "Dufferin—Caledon"
          }
        ],
        "pollDivisionIds": [
          10137800
        ],
        "postalCode": "L0N1A0",
        "streetName": "MAIN",
        "streetDirectionId": null,
        "streetTypeId": "ST",
        "placeName": "ALTON",
        "streetNameDisplayText": "MAIN ST, ALTON"
      },
      {
        "electoralDistricts": [
          {
            "election": null,
            "id": 23,
            "name": "Dufferin—Caledon"
          }
        ],
        "pollDivisionIds": [
          10137800
        ],
        "postalCode": "L0N1A0",
        "streetName": "MISSISSAUGA",
        "streetDirectionId": null,
        "streetTypeId": "RD",
        "placeName": "ALTON",
        "streetNameDisplayText": "MISSISSAUGA RD, ALTON"
      },
      {
        "electoralDistricts": [
          {
            "election": null,
            "id": 23,
            "name": "Dufferin—Caledon"
          }
        ],
        "pollDivisionIds": [
          10137799
        ],
        "postalCode": "L0N1A0",
        "streetName": "PORTERFIELD",
        "streetDirectionId": null,
        "streetTypeId": "RD",
        "placeName": "ALTON",
        "streetNameDisplayText": "PORTERFIELD RD, ALTON"
      },
      {
        "electoralDistricts": [
          {
            "election": null,
            "id": 23,
            "name": "Dufferin—Caledon"
          }
        ],
        "pollDivisionIds": [
          10137800
        ],
        "postalCode": "L0N1A0",
        "streetName": "QUEEN",
        "streetDirectionId": "E",
        "streetTypeId": "ST",
        "placeName": "ALTON",
        "streetNameDisplayText": "QUEEN ST E, ALTON"
      },
      {
        "electoralDistricts": [
          {
            "election": null,
            "id": 23,
            "name": "Dufferin—Caledon"
          }
        ],
        "pollDivisionIds": [
          10137800
        ],
        "postalCode": "L0N1A0",
        "streetName": "QUEEN",
        "streetDirectionId": "W",
        "streetTypeId": "ST",
        "placeName": "ALTON",
        "streetNameDisplayText": "QUEEN ST W, ALTON"
      },
      {
        "electoralDistricts": [
          {
            "election": null,
            "id": 23,
            "name": "Dufferin—Caledon"
          }
        ],
        "pollDivisionIds": [
          10137799
        ],
        "postalCode": "L0N1A0",
        "streetName": "WILLOUGHBY",
        "streetDirectionId": null,
        "streetTypeId": "RD",
        "placeName": "ALTON",
        "streetNameDisplayText": "WILLOUGHBY RD, ALTON"
      },
      {
        "electoralDistricts": [
          {
            "election": null,
            "id": 23,
            "name": "Dufferin—Caledon"
          },
          {
            "election": null,
            "id": 115,
            "name": "Wellington—Halton Hills"
          }
        ],
        "pollDivisionIds": [
          10137800,
          10142570
        ],
        "postalCode": "L0N1A0",
        "streetName": "WINSTON CHURCHILL",
        "streetDirectionId": null,
        "streetTypeId": "BLVD",
        "placeName": "ALTON",
        "streetNameDisplayText": "WINSTON CHURCHILL BLVD, ALTON"
      },
      {
        "electoralDistricts": [
          {
            "election": null,
            "id": 115,
            "name": "Wellington—Halton Hills"
          }
        ],
        "pollDivisionIds": [
          10142572
        ],
        "postalCode": "L0N1A0",
        "streetName": "WINSTON CHURCHILL",
        "streetDirectionId": null,
        "streetTypeId": "BLVD",
        "placeName": "ERIN",
        "streetNameDisplayText": "WINSTON CHURCHILL BLVD, ERIN"
      }
    ]
  },
  {
    "postal": "L0N1B0",
    "result": []
  },
  {
    "postal": "L0N1C0",
    "result": []
  },
  {
    "postal": "L0N1E0",
    "result": [
      {
        "electoralDistricts": [
          {
            "election": null,
            "id": 99,
            "name": "Simcoe—Grey"
          }
        ],
        "pollDivisionIds": [
          10141859
        ],
        "postalCode": "L0N1E0",
        "streetName": "9",
        "streetDirectionId": null,
        "streetTypeId": "HWY",
        "placeName": "CALEDON EAST",
        "streetNameDisplayText": "9 HWY, CALEDON EAST"
      },
      {
        "electoralDistricts": [
          {
            "election": null,
            "id": 23,
            "name": "Dufferin—Caledon"
          }
        ],
        "pollDivisionIds": [
          10143845,
          10137801
        ],
        "postalCode": "L0N1E0",
        "streetName": "AIRPORT",
        "streetDirectionId": null,
        "streetTypeId": "RD",
        "placeName": "CALEDON EAST",
        "streetNameDisplayText": "AIRPORT RD, CALEDON EAST"
      },
      {
        "electoralDistricts": [
          {
            "election": null,
            "id": 23,
            "name": "Dufferin—Caledon"
          }
        ],
        "pollDivisionIds": [
          10137805
        ],
        "postalCode": "L0N1E0",
        "streetName": "BARTLEY",
        "streetDirectionId": null,
        "streetTypeId": "DR",
        "placeName": "CALEDON EAST",
        "streetNameDisplayText": "BARTLEY DR, CALEDON EAST"
      },
      {
        "electoralDistricts": [
          {
            "election": null,
            "id": 23,
            "name": "Dufferin—Caledon"
          }
        ],
        "pollDivisionIds": [
          10137801
        ],
        "postalCode": "L0N1E0",
        "streetName": "CHARLESTON",
        "streetDirectionId": null,
        "streetTypeId": "SIDERD",
        "placeName": "CALEDON EAST",
        "streetNameDisplayText": "CHARLESTON SIDERD, CALEDON EAST"
      },
      {
        "electoralDistricts": [
          {
            "election": null,
            "id": 23,
            "name": "Dufferin—Caledon"
          }
        ],
        "pollDivisionIds": [
          10137801
        ],
        "postalCode": "L0N1E0",
        "streetName": "ESCARPMENT",
        "streetDirectionId": null,
        "streetTypeId": "SIDERD",
        "placeName": "CALEDON VILLAGE",
        "streetNameDisplayText": "ESCARPMENT SIDERD, CALEDON VILLAGE"
      },
      {
        "electoralDistricts": [
          {
            "election": null,
            "id": 23,
            "name": "Dufferin—Caledon"
          },
          {
            "election": null,
            "id": 99,
            "name": "Simcoe—Grey"
          }
        ],
        "pollDivisionIds": [
          10137796,
          10141859
        ],
        "postalCode": "L0N1E0",
        "streetName": "HIGHWAY 9",
        "streetDirectionId": null,
        "streetTypeId": null,
        "placeName": "CALEDON EAST",
        "streetNameDisplayText": "HIGHWAY 9, CALEDON EAST"
      },
      {
        "electoralDistricts": [
          {
            "election": null,
            "id": 23,
            "name": "Dufferin—Caledon"
          }
        ],
        "pollDivisionIds": [
          10137801
        ],
        "postalCode": "L0N1E0",
        "streetName": "HORSESHOE HILL",
        "streetDirectionId": null,
        "streetTypeId": "RD",
        "placeName": "CALEDON VILLAGE",
        "streetNameDisplayText": "HORSESHOE HILL RD, CALEDON VILLAGE"
      },
      {
        "electoralDistricts": [
          {
            "election": null,
            "id": 23,
            "name": "Dufferin—Caledon"
          }
        ],
        "pollDivisionIds": [
          10137803
        ],
        "postalCode": "L0N1E0",
        "streetName": "MISSISSAUGA",
        "streetDirectionId": null,
        "streetTypeId": "RD",
        "placeName": "ALTON",
        "streetNameDisplayText": "MISSISSAUGA RD, ALTON"
      },
      {
        "electoralDistricts": [
          {
            "election": null,
            "id": 23,
            "name": "Dufferin—Caledon"
          }
        ],
        "pollDivisionIds": [
          10137801
        ],
        "postalCode": "L0N1E0",
        "streetName": "ST ANDREW'S",
        "streetDirectionId": null,
        "streetTypeId": "RD",
        "placeName": "CALEDON EAST",
        "streetNameDisplayText": "ST ANDREW'S RD, CALEDON EAST"
      }
    ]
  },
  {
    "postal": "L0N1G0",
    "result": [
      {
        "electoralDistricts": [
          {
            "election": null,
            "id": 23,
            "name": "Dufferin—Caledon"
          }
        ],
        "pollDivisionIds": [
          10137783,
          10137782
        ],
        "postalCode": "L0N1G0",
        "streetName": "10",
        "streetDirectionId": null,
        "streetTypeId": "LINE",
        "placeName": "GRAND VALLEY",
        "streetNameDisplayText": "10 LINE, GRAND VALLEY"
      },
      {
        "electoralDistricts": [
          {
            "election": null,
            "id": 23,
            "name": "Dufferin—Caledon"
          }
        ],
        "pollDivisionIds": [
          10137783
        ],
        "postalCode": "L0N1G0",
        "streetName": "10",
        "streetDirectionId": null,
        "streetTypeId": "LINE",
        "placeName": "SHELBURNE",
        "streetNameDisplayText": "10 LINE, SHELBURNE"
      },
      {
        "electoralDistricts": [
          {
            "election": null,
            "id": 23,
            "name": "Dufferin—Caledon"
          }
        ],
        "pollDivisionIds": [
          10137797
        ],
        "postalCode": "L0N1G0",
        "streetName": "10",
        "streetDirectionId": null,
        "streetTypeId": "SIDERD",
        "placeName": "GRAND VALLEY",
        "streetNameDisplayText": "10 SIDERD, GRAND VALLEY"
      },
      {
        "electoralDistricts": [
          {
            "election": null,
            "id": 23,
            "name": "Dufferin—Caledon"
          }
        ],
        "pollDivisionIds": [
          10137797
        ],
        "postalCode": "L0N1G0",
        "streetName": "109 COUNTY",
        "streetDirectionId": null,
        "streetTypeId": "RD",
        "placeName": "GRAND VALLEY",
        "streetNameDisplayText": "109 COUNTY RD, GRAND VALLEY"
      },
      {
        "electoralDistricts": [
          {
            "election": null,
            "id": 23,
            "name": "Dufferin—Caledon"
          }
        ],
        "pollDivisionIds": [
          10137783,
          10137782
        ],
        "postalCode": "L0N1G0",
        "streetName": "10TH",
        "streetDirectionId": null,
        "streetTypeId": "LINE",
        "placeName": "GRAND VALLEY",
        "streetNameDisplayText": "10TH LINE, GRAND VALLEY"
      },
      {
        "electoralDistricts": [
          {
            "election": null,
            "id": 23,
            "name": "Dufferin—Caledon"
          }
        ],
        "pollDivisionIds": [
          10137783
        ],
        "postalCode": "L0N1G0",
        "streetName": "10TH",
        "streetDirectionId": null,
        "streetTypeId": "LINE",
        "placeName": "SHELBURNE",
        "streetNameDisplayText": "10TH LINE, SHELBURNE"
      },
      {
        "electoralDistricts": [
          {
            "election": null,
            "id": 23,
            "name": "Dufferin—Caledon"
          }
        ],
        "pollDivisionIds": [
          10137797
        ],
        "postalCode": "L0N1G0",
        "streetName": "10TH",
        "streetDirectionId": null,
        "streetTypeId": "SIDERD",
        "placeName": "ORANGEVILLE",
        "streetNameDisplayText": "10TH SIDERD, ORANGEVILLE"
      },
      {
        "electoralDistricts": [
          {
            "election": null,
            "id": 23,
            "name": "Dufferin—Caledon"
          }
        ],
        "pollDivisionIds": [
          10137797
        ],
        "postalCode": "L0N1G0",
        "streetName": "12",
        "streetDirectionId": null,
        "streetTypeId": "LINE",
        "placeName": "GRAND VALLEY",
        "streetNameDisplayText": "12 LINE, GRAND VALLEY"
      },
      {
        "electoralDistricts": [
          {
            "election": null,
            "id": 23,
            "name": "Dufferin—Caledon"
          }
        ],
        "pollDivisionIds": [
          10137781
        ],
        "postalCode": "L0N1G0",
        "streetName": "12+13 CONC",
        "streetDirectionId": null,
        "streetTypeId": "RD",
        "placeName": "GRAND VALLEY",
        "streetNameDisplayText": "12+13 CONC RD, GRAND VALLEY"
      },
      {
        "electoralDistricts": [
          {
            "election": null,
            "id": 23,
            "name": "Dufferin—Caledon"
          }
        ],
        "pollDivisionIds": [
          10137781
        ],
        "postalCode": "L0N1G0",
        "streetName": "15 COUNTY",
        "streetDirectionId": null,
        "streetTypeId": "RD",
        "placeName": "GRAND VALLEY",
        "streetNameDisplayText": "15 COUNTY RD, GRAND VALLEY"
      },
      {
        "electoralDistricts": [
          {
            "election": null,
            "id": 23,
            "name": "Dufferin—Caledon"
          }
        ],
        "pollDivisionIds": [
          10137797
        ],
        "postalCode": "L0N1G0",
        "streetName": "15",
        "streetDirectionId": null,
        "streetTypeId": "SIDERD",
        "placeName": "GRAND VALLEY",
        "streetNameDisplayText": "15 SIDERD, GRAND VALLEY"
      },
      {
        "electoralDistricts": [
          {
            "election": null,
            "id": 23,
            "name": "Dufferin—Caledon"
          }
        ],
        "pollDivisionIds": [
          10137783
        ],
        "postalCode": "L0N1G0",
        "streetName": "15TH",
        "streetDirectionId": null,
        "streetTypeId": "SIDERD",
        "placeName": "GRAND VALLEY",
        "streetNameDisplayText": "15TH SIDERD, GRAND VALLEY"
      },
      {
        "electoralDistricts": [
          {
            "election": null,
            "id": 23,
            "name": "Dufferin—Caledon"
          }
        ],
        "pollDivisionIds": [
          10137782
        ],
        "postalCode": "L0N1G0",
        "streetName": "2+3 CONC",
        "streetDirectionId": null,
        "streetTypeId": "RD",
        "placeName": "GRAND VALLEY",
        "streetNameDisplayText": "2+3 CONC RD, GRAND VALLEY"
      },
      {
        "electoralDistricts": [
          {
            "election": null,
            "id": 23,
            "name": "Dufferin—Caledon"
          }
        ],
        "pollDivisionIds": [
          10137782
        ],
        "postalCode": "L0N1G0",
        "streetName": "2+3 CONCESSION",
        "streetDirectionId": null,
        "streetTypeId": "RD",
        "placeName": "GRAND VALLEY",
        "streetNameDisplayText": "2+3 CONCESSION RD, GRAND VALLEY"
      },
      {
        "electoralDistricts": [
          {
            "election": null,
            "id": 23,
            "name": "Dufferin—Caledon"
          }
        ],
        "pollDivisionIds": [
          10137783
        ],
        "postalCode": "L0N1G0",
        "streetName": "20",
        "streetDirectionId": null,
        "streetTypeId": "SIDERD",
        "placeName": "ORANGEVILLE",
        "streetNameDisplayText": "20 SIDERD, ORANGEVILLE"
      },
      {
        "electoralDistricts": [
          {
            "election": null,
            "id": 23,
            "name": "Dufferin—Caledon"
          }
        ],
        "pollDivisionIds": [
          10137783
        ],
        "postalCode": "L0N1G0",
        "streetName": "20TH",
        "streetDirectionId": null,
        "streetTypeId": "SIDERD",
        "placeName": "GRAND VALLEY",
        "streetNameDisplayText": "20TH SIDERD, GRAND VALLEY"
      },
      {
        "electoralDistricts": [
          {
            "election": null,
            "id": 23,
            "name": "Dufferin—Caledon"
          }
        ],
        "pollDivisionIds": [
          10137782
        ],
        "postalCode": "L0N1G0",
        "streetName": "24+25",
        "streetDirectionId": null,
        "streetTypeId": "SIDERD",
        "placeName": "GRAND VALLEY",
        "streetNameDisplayText": "24+25 SIDERD, GRAND VALLEY"
      },
      {
        "electoralDistricts": [
          {
            "election": null,
            "id": 23,
            "name": "Dufferin—Caledon"
          }
        ],
        "pollDivisionIds": [
          10137782
        ],
        "postalCode": "L0N1G0",
        "streetName": "25 COUNTY",
        "streetDirectionId": null,
        "streetTypeId": "RD",
        "placeName": "GRAND VALLEY",
        "streetNameDisplayText": "25 COUNTY RD, GRAND VALLEY"
      },
      {
        "electoralDistricts": [
          {
            "election": null,
            "id": 23,
            "name": "Dufferin—Caledon"
          }
        ],
        "pollDivisionIds": [
          10137782
        ],
        "postalCode": "L0N1G0",
        "streetName": "25",
        "streetDirectionId": null,
        "streetTypeId": "HWY",
        "placeName": "GRAND VALLEY",
        "streetNameDisplayText": "25 HWY, GRAND VALLEY"
      },
      {
        "electoralDistricts": [
          {
            "election": null,
            "id": 23,
            "name": "Dufferin—Caledon"
          }
        ],
        "pollDivisionIds": [
          10137782,
          10137781
        ],
        "postalCode": "L0N1G0",
        "streetName": "27+28",
        "streetDirectionId": null,
        "streetTypeId": "SIDERD",
        "placeName": "GRAND VALLEY",
        "streetNameDisplayText": "27+28 SIDERD, GRAND VALLEY"
      },
      {
        "electoralDistricts": [
          {
            "election": null,
            "id": 23,
            "name": "Dufferin—Caledon"
          }
        ],
        "pollDivisionIds": [
          10137777
        ],
        "postalCode": "L0N1G0",
        "streetName": "270",
        "streetDirectionId": null,
        "streetTypeId": "SIDERD",
        "placeName": "DUNDALK",
        "streetNameDisplayText": "270 SIDERD, DUNDALK"
      },
      {
        "electoralDistricts": [
          {
            "election": null,
            "id": 23,
            "name": "Dufferin—Caledon"
          }
        ],
        "pollDivisionIds": [
          10137782
        ],
        "postalCode": "L0N1G0",
        "streetName": "3+4 CONC",
        "streetDirectionId": null,
        "streetTypeId": "RD",
        "placeName": "GRAND VALLEY",
        "streetNameDisplayText": "3+4 CONC RD, GRAND VALLEY"
      },
      {
        "electoralDistricts": [
          {
            "election": null,
            "id": 23,
            "name": "Dufferin—Caledon"
          }
        ],
        "pollDivisionIds": [
          10137782
        ],
        "postalCode": "L0N1G0",
        "streetName": "4+5 CONC",
        "streetDirectionId": null,
        "streetTypeId": "RD",
        "placeName": "GRAND VALLEY",
        "streetNameDisplayText": "4+5 CONC RD, GRAND VALLEY"
      },
      {
        "electoralDistricts": [
          {
            "election": null,
            "id": 23,
            "name": "Dufferin—Caledon"
          }
        ],
        "pollDivisionIds": [
          10137782
        ],
        "postalCode": "L0N1G0",
        "streetName": "4+5 CONCESSION",
        "streetDirectionId": null,
        "streetTypeId": "RD",
        "placeName": "GRAND VALLEY",
        "streetNameDisplayText": "4+5 CONCESSION RD, GRAND VALLEY"
      },
      {
        "electoralDistricts": [
          {
            "election": null,
            "id": 23,
            "name": "Dufferin—Caledon"
          }
        ],
        "pollDivisionIds": [
          10137797
        ],
        "postalCode": "L0N1G0",
        "streetName": "5 COUNTY",
        "streetDirectionId": null,
        "streetTypeId": "RD",
        "placeName": "BELWOOD",
        "streetNameDisplayText": "5 COUNTY RD, BELWOOD"
      },
      {
        "electoralDistricts": [
          {
            "election": null,
            "id": 23,
            "name": "Dufferin—Caledon"
          }
        ],
        "pollDivisionIds": [
          10137783
        ],
        "postalCode": "L0N1G0",
        "streetName": "5TH",
        "streetDirectionId": null,
        "streetTypeId": "SIDERD",
        "placeName": "GRAND VALLEY",
        "streetNameDisplayText": "5TH SIDERD, GRAND VALLEY"
      },
      {
        "electoralDistricts": [
          {
            "election": null,
            "id": 23,
            "name": "Dufferin—Caledon"
          }
        ],
        "pollDivisionIds": [
          10137783
        ],
        "postalCode": "L0N1G0",
        "streetName": "8",
        "streetDirectionId": null,
        "streetTypeId": "LINE",
        "placeName": "GRAND VALLEY",
        "streetNameDisplayText": "8 LINE, GRAND VALLEY"
      },
      {
        "electoralDistricts": [
          {
            "election": null,
            "id": 23,
            "name": "Dufferin—Caledon"
          }
        ],
        "pollDivisionIds": [
          10137783
        ],
        "postalCode": "L0N1G0",
        "streetName": "8",
        "streetDirectionId": null,
        "streetTypeId": "LINE",
        "placeName": "ORANGEVILLE",
        "streetNameDisplayText": "8 LINE, ORANGEVILLE"
      },
      {
        "electoralDistricts": [
          {
            "election": null,
            "id": 23,
            "name": "Dufferin—Caledon"
          }
        ],
        "pollDivisionIds": [
          10137781
        ],
        "postalCode": "L0N1G0",
        "streetName": "8+9 CONCESSION",
        "streetDirectionId": null,
        "streetTypeId": "RD",
        "placeName": "GRAND VALLEY",
        "streetNameDisplayText": "8+9 CONCESSION RD, GRAND VALLEY"
      },
      {
        "electoralDistricts": [
          {
            "election": null,
            "id": 23,
            "name": "Dufferin—Caledon"
          }
        ],
        "pollDivisionIds": [
          10137783
        ],
        "postalCode": "L0N1G0",
        "streetName": "8TH",
        "streetDirectionId": null,
        "streetTypeId": "LINE",
        "placeName": "GRAND VALLEY",
        "streetNameDisplayText": "8TH LINE, GRAND VALLEY"
      },
      {
        "electoralDistricts": [
          {
            "election": null,
            "id": 23,
            "name": "Dufferin—Caledon"
          }
        ],
        "pollDivisionIds": [
          10137783
        ],
        "postalCode": "L0N1G0",
        "streetName": "9",
        "streetDirectionId": null,
        "streetTypeId": "LINE",
        "placeName": "GRAND VALLEY",
        "streetNameDisplayText": "9 LINE, GRAND VALLEY"
      },
      {
        "electoralDistricts": [
          {
            "election": null,
            "id": 23,
            "name": "Dufferin—Caledon"
          }
        ],
        "pollDivisionIds": [
          10137782,
          10137783
        ],
        "postalCode": "L0N1G0",
        "streetName": "9TH",
        "streetDirectionId": null,
        "streetTypeId": "LINE",
        "placeName": "GRAND VALLEY",
        "streetNameDisplayText": "9TH LINE, GRAND VALLEY"
      },
      {
        "electoralDistricts": [
          {
            "election": null,
            "id": 23,
            "name": "Dufferin—Caledon"
          }
        ],
        "pollDivisionIds": [
          10137782
        ],
        "postalCode": "L0N1G0",
        "streetName": "AMARANTH",
        "streetDirectionId": "E",
        "streetTypeId": "ST",
        "placeName": "GRAND VALLEY",
        "streetNameDisplayText": "AMARANTH ST E, GRAND VALLEY"
      },
      {
        "electoralDistricts": [
          {
            "election": null,
            "id": 23,
            "name": "Dufferin—Caledon"
          }
        ],
        "pollDivisionIds": [
          10137782,
          10137781,
          10137783
        ],
        "postalCode": "L0N1G0",
        "streetName": "AMARANTH-EAST LUTHER",
        "streetDirectionId": null,
        "streetTypeId": "TLINE",
        "placeName": "GRAND VALLEY",
        "streetNameDisplayText": "AMARANTH-EAST LUTHER TLINE, GRAND VALLEY"
      },
      {
        "electoralDistricts": [
          {
            "election": null,
            "id": 23,
            "name": "Dufferin—Caledon"
          }
        ],
        "pollDivisionIds": [
          10137782
        ],
        "postalCode": "L0N1G0",
        "streetName": "CONCESSION 2+3",
        "streetDirectionId": null,
        "streetTypeId": "RD",
        "placeName": "GRAND VALLEY",
        "streetNameDisplayText": "CONCESSION 2+3 RD, GRAND VALLEY"
      },
      {
        "electoralDistricts": [
          {
            "election": null,
            "id": 23,
            "name": "Dufferin—Caledon"
          }
        ],
        "pollDivisionIds": [
          10137781,
          10137782
        ],
        "postalCode": "L0N1G0",
        "streetName": "CONCESSION 6+7",
        "streetDirectionId": null,
        "streetTypeId": "RD",
        "placeName": "GRAND VALLEY",
        "streetNameDisplayText": "CONCESSION 6+7 RD, GRAND VALLEY"
      },
      {
        "electoralDistricts": [
          {
            "election": null,
            "id": 23,
            "name": "Dufferin—Caledon"
          }
        ],
        "pollDivisionIds": [
          10137781
        ],
        "postalCode": "L0N1G0",
        "streetName": "CONCESSION 8+9",
        "streetDirectionId": null,
        "streetTypeId": "RD",
        "placeName": "GRAND VALLEY",
        "streetNameDisplayText": "CONCESSION 8+9 RD, GRAND VALLEY"
      },
      {
        "electoralDistricts": [
          {
            "election": null,
            "id": 23,
            "name": "Dufferin—Caledon"
          }
        ],
        "pollDivisionIds": [
          10137782
        ],
        "postalCode": "L0N1G0",
        "streetName": "COUNTY 10",
        "streetDirectionId": null,
        "streetTypeId": "RD",
        "placeName": "GRAND VALLEY",
        "streetNameDisplayText": "COUNTY 10 RD, GRAND VALLEY"
      },
      {
        "electoralDistricts": [
          {
            "election": null,
            "id": 23,
            "name": "Dufferin—Caledon"
          }
        ],
        "pollDivisionIds": [
          10137781
        ],
        "postalCode": "L0N1G0",
        "streetName": "COUNTY 15",
        "streetDirectionId": null,
        "streetTypeId": "RD",
        "placeName": "GRAND VALLEY",
        "streetNameDisplayText": "COUNTY 15 RD, GRAND VALLEY"
      },
      {
        "electoralDistricts": [
          {
            "election": null,
            "id": 23,
            "name": "Dufferin—Caledon"
          }
        ],
        "pollDivisionIds": [
          10137781,
          10137782
        ],
        "postalCode": "L0N1G0",
        "streetName": "COUNTY 25",
        "streetDirectionId": null,
        "streetTypeId": "RD",
        "placeName": "GRAND VALLEY",
        "streetNameDisplayText": "COUNTY 25 RD, GRAND VALLEY"
      },
      {
        "electoralDistricts": [
          {
            "election": null,
            "id": 115,
            "name": "Wellington—Halton Hills"
          }
        ],
        "pollDivisionIds": [
          10142556
        ],
        "postalCode": "L0N1G0",
        "streetName": "EAST GARAFRAXA",
        "streetDirectionId": null,
        "streetTypeId": "TLINE",
        "placeName": "GRAND VALLEY",
        "streetNameDisplayText": "EAST GARAFRAXA TLINE, GRAND VALLEY"
      },
      {
        "electoralDistricts": [
          {
            "election": null,
            "id": 23,
            "name": "Dufferin—Caledon"
          }
        ],
        "pollDivisionIds": [
          10137782
        ],
        "postalCode": "L0N1G0",
        "streetName": "EMMA",
        "streetDirectionId": "S",
        "streetTypeId": "ST",
        "placeName": "GRAND VALLEY",
        "streetNameDisplayText": "EMMA ST S, GRAND VALLEY"
      },
      {
        "electoralDistricts": [
          {
            "election": null,
            "id": 23,
            "name": "Dufferin—Caledon"
          }
        ],
        "pollDivisionIds": [
          10137782
        ],
        "postalCode": "L0N1G0",
        "streetName": "GRANDVIEW",
        "streetDirectionId": null,
        "streetTypeId": "RD",
        "placeName": "GRAND VALLEY",
        "streetNameDisplayText": "GRANDVIEW RD, GRAND VALLEY"
      },
      {
        "electoralDistricts": [
          {
            "election": null,
            "id": 23,
            "name": "Dufferin—Caledon"
          }
        ],
        "pollDivisionIds": [
          10137781
        ],
        "postalCode": "L0N1G0",
        "streetName": "HILL TOWN",
        "streetDirectionId": null,
        "streetTypeId": "DR",
        "placeName": "GRAND VALLEY",
        "streetNameDisplayText": "HILL TOWN DR, GRAND VALLEY"
      },
      {
        "electoralDistricts": [
          {
            "election": null,
            "id": 23,
            "name": "Dufferin—Caledon"
          }
        ],
        "pollDivisionIds": [
          10137782
        ],
        "postalCode": "L0N1G0",
        "streetName": "INDUSTRIAL",
        "streetDirectionId": null,
        "streetTypeId": "DR",
        "placeName": "GRAND VALLEY",
        "streetNameDisplayText": "INDUSTRIAL DR, GRAND VALLEY"
      },
      {
        "electoralDistricts": [
          {
            "election": null,
            "id": 23,
            "name": "Dufferin—Caledon"
          }
        ],
        "pollDivisionIds": [
          10137782
        ],
        "postalCode": "L0N1G0",
        "streetName": "MAIN",
        "streetDirectionId": "N",
        "streetTypeId": "ST",
        "placeName": "GRAND VALLEY",
        "streetNameDisplayText": "MAIN ST N, GRAND VALLEY"
      },
      {
        "electoralDistricts": [
          {
            "election": null,
            "id": 23,
            "name": "Dufferin—Caledon"
          }
        ],
        "pollDivisionIds": [
          10137782
        ],
        "postalCode": "L0N1G0",
        "streetName": "MAIN",
        "streetDirectionId": null,
        "streetTypeId": "ST",
        "placeName": "GRAND VALLEY",
        "streetNameDisplayText": "MAIN ST, GRAND VALLEY"
      },
      {
        "electoralDistricts": [
          {
            "election": null,
            "id": 23,
            "name": "Dufferin—Caledon"
          }
        ],
        "pollDivisionIds": [
          10137797
        ],
        "postalCode": "L0N1G0",
        "streetName": "ORANGEVILLE-FERGUS",
        "streetDirectionId": null,
        "streetTypeId": "RD",
        "placeName": "ORTON",
        "streetNameDisplayText": "ORANGEVILLE-FERGUS RD, ORTON"
      },
      {
        "electoralDistricts": [
          {
            "election": null,
            "id": 23,
            "name": "Dufferin—Caledon"
          }
        ],
        "pollDivisionIds": [
          10137782
        ],
        "postalCode": "L0N1G0",
        "streetName": "RIVER",
        "streetDirectionId": null,
        "streetTypeId": "ST",
        "placeName": "GRAND VALLEY",
        "streetNameDisplayText": "RIVER ST, GRAND VALLEY"
      },
      {
        "electoralDistricts": [
          {
            "election": null,
            "id": 23,
            "name": "Dufferin—Caledon"
          }
        ],
        "pollDivisionIds": [
          10137782
        ],
        "postalCode": "L0N1G0",
        "streetName": "STATION",
        "streetDirectionId": null,
        "streetTypeId": "ST",
        "placeName": "GRAND VALLEY",
        "streetNameDisplayText": "STATION ST, GRAND VALLEY"
      },
      {
        "electoralDistricts": [
          {
            "election": null,
            "id": 23,
            "name": "Dufferin—Caledon"
          }
        ],
        "pollDivisionIds": [
          10137782
        ],
        "postalCode": "L0N1G0",
        "streetName": "WEBB",
        "streetDirectionId": null,
        "streetTypeId": "ST",
        "placeName": "GRAND VALLEY",
        "streetNameDisplayText": "WEBB ST, GRAND VALLEY"
      },
      {
        "electoralDistricts": [
          {
            "election": null,
            "id": 23,
            "name": "Dufferin—Caledon"
          }
        ],
        "pollDivisionIds": [
          10137797
        ],
        "postalCode": "L0N1G0",
        "streetName": "WELLINGTON RD 109",
        "streetDirectionId": null,
        "streetTypeId": null,
        "placeName": "GRAND VALLEY",
        "streetNameDisplayText": "WELLINGTON RD 109, GRAND VALLEY"
      },
      {
        "electoralDistricts": [
          {
            "election": null,
            "id": 23,
            "name": "Dufferin—Caledon"
          }
        ],
        "pollDivisionIds": [
          10137781
        ],
        "postalCode": "L0N1G0",
        "streetName": "WILLOW",
        "streetDirectionId": null,
        "streetTypeId": "CIR",
        "placeName": "GRAND VALLEY",
        "streetNameDisplayText": "WILLOW CIR, GRAND VALLEY"
      }
    ]
  },
  {
    "postal": "L0N1H0",
    "result": [
      {
        "electoralDistricts": [
          {
            "election": null,
            "id": 23,
            "name": "Dufferin—Caledon"
          }
        ],
        "pollDivisionIds": [
          10137779
        ],
        "postalCode": "L0N1H0",
        "streetName": "1",
        "streetDirectionId": "E",
        "streetTypeId": "LINE",
        "placeName": "SHELBURNE",
        "streetNameDisplayText": "1 LINE E, SHELBURNE"
      },
      {
        "electoralDistricts": [
          {
            "election": null,
            "id": 23,
            "name": "Dufferin—Caledon"
          }
        ],
        "pollDivisionIds": [
          10137779
        ],
        "postalCode": "L0N1H0",
        "streetName": "21 COUNTY",
        "streetDirectionId": null,
        "streetTypeId": "RD",
        "placeName": "HONEYWOOD",
        "streetNameDisplayText": "21 COUNTY RD, HONEYWOOD"
      },
      {
        "electoralDistricts": [
          {
            "election": null,
            "id": 23,
            "name": "Dufferin—Caledon"
          }
        ],
        "pollDivisionIds": [
          10137779
        ],
        "postalCode": "L0N1H0",
        "streetName": "COUNTY 21",
        "streetDirectionId": null,
        "streetTypeId": "RD",
        "placeName": "SHELBURNE",
        "streetNameDisplayText": "COUNTY 21 RD, SHELBURNE"
      },
      {
        "electoralDistricts": [
          {
            "election": null,
            "id": 23,
            "name": "Dufferin—Caledon"
          }
        ],
        "pollDivisionIds": [
          10137779
        ],
        "postalCode": "L0N1H0",
        "streetName": "MULMUR-MELANCTHON",
        "streetDirectionId": null,
        "streetTypeId": "TLINE",
        "placeName": "SHELBURNE",
        "streetNameDisplayText": "MULMUR-MELANCTHON TLINE, SHELBURNE"
      }
    ]
  },
  {
    "postal": "L0N1J0",
    "result": [
      {
        "electoralDistricts": [
          {
            "election": null,
            "id": 23,
            "name": "Dufferin—Caledon"
          }
        ],
        "pollDivisionIds": [
          10137778
        ],
        "postalCode": "L0N1J0",
        "streetName": "ADDESON",
        "streetDirectionId": null,
        "streetTypeId": "ST",
        "placeName": "HORNINGS MILLS",
        "streetNameDisplayText": "ADDESON ST, HORNINGS MILLS"
      },
      {
        "electoralDistricts": [
          {
            "election": null,
            "id": 23,
            "name": "Dufferin—Caledon"
          }
        ],
        "pollDivisionIds": [
          10137778
        ],
        "postalCode": "L0N1J0",
        "streetName": "CHARLES",
        "streetDirectionId": "W",
        "streetTypeId": "ST",
        "placeName": "HORNINGS MILLS",
        "streetNameDisplayText": "CHARLES ST W, HORNINGS MILLS"
      },
      {
        "electoralDistricts": [
          {
            "election": null,
            "id": 23,
            "name": "Dufferin—Caledon"
          }
        ],
        "pollDivisionIds": [
          10137778
        ],
        "postalCode": "L0N1J0",
        "streetName": "CHARLES",
        "streetDirectionId": "W",
        "streetTypeId": "ST",
        "placeName": "MELANCTHON",
        "streetNameDisplayText": "CHARLES ST W, MELANCTHON"
      },
      {
        "electoralDistricts": [
          {
            "election": null,
            "id": 23,
            "name": "Dufferin—Caledon"
          }
        ],
        "pollDivisionIds": [
          10137778
        ],
        "postalCode": "L0N1J0",
        "streetName": "MAIN",
        "streetDirectionId": null,
        "streetTypeId": "ST",
        "placeName": "HORNINGS MILLS",
        "streetNameDisplayText": "MAIN ST, HORNINGS MILLS"
      }
    ]
  },
  {
    "postal": "L0N1K0",
    "result": []
  },
  {
    "postal": "L0N1L0",
    "result": [
      {
        "electoralDistricts": [
          {
            "election": null,
            "id": 23,
            "name": "Dufferin—Caledon"
          }
        ],
        "pollDivisionIds": [
          10137783
        ],
        "postalCode": "L0N1L0",
        "streetName": "12 COUNTY",
        "streetDirectionId": null,
        "streetTypeId": "RD",
        "placeName": "ORANGEVILLE",
        "streetNameDisplayText": "12 COUNTY RD, ORANGEVILLE"
      },
      {
        "electoralDistricts": [
          {
            "election": null,
            "id": 23,
            "name": "Dufferin—Caledon"
          }
        ],
        "pollDivisionIds": [
          10137783
        ],
        "postalCode": "L0N1L0",
        "streetName": "COUNTY 12",
        "streetDirectionId": null,
        "streetTypeId": null,
        "placeName": "AMARANTH",
        "streetNameDisplayText": "COUNTY 12, AMARANTH"
      },
      {
        "electoralDistricts": [
          {
            "election": null,
            "id": 23,
            "name": "Dufferin—Caledon"
          }
        ],
        "pollDivisionIds": [
          10137783
        ],
        "postalCode": "L0N1L0",
        "streetName": "HORNETT",
        "streetDirectionId": null,
        "streetTypeId": "LANE",
        "placeName": "ORANGEVILLE",
        "streetNameDisplayText": "HORNETT LANE, ORANGEVILLE"
      }
    ]
  },
  {
    "postal": "L0N1M0",
    "result": [
      {
        "electoralDistricts": [
          {
            "election": null,
            "id": 99,
            "name": "Simcoe—Grey"
          }
        ],
        "pollDivisionIds": [
          10141848
        ],
        "postalCode": "L0N1M0",
        "streetName": "COUNTY 5",
        "streetDirectionId": null,
        "streetTypeId": "RD",
        "placeName": "MANSFIELD",
        "streetNameDisplayText": "COUNTY 5 RD, MANSFIELD"
      },
      {
        "electoralDistricts": [
          {
            "election": null,
            "id": 99,
            "name": "Simcoe—Grey"
          }
        ],
        "pollDivisionIds": [
          10141848
        ],
        "postalCode": "L0N1M0",
        "streetName": "COUNTY ROAD 5",
        "streetDirectionId": null,
        "streetTypeId": null,
        "placeName": "MANSFIELD",
        "streetNameDisplayText": "COUNTY ROAD 5, MANSFIELD"
      },
      {
        "electoralDistricts": [
          {
            "election": null,
            "id": 99,
            "name": "Simcoe—Grey"
          }
        ],
        "pollDivisionIds": [
          10141849,
          10141848
        ],
        "postalCode": "L0N1M0",
        "streetName": "MULMUR-TOSORONTIO",
        "streetDirectionId": null,
        "streetTypeId": "TLINE",
        "placeName": "MANSFIELD",
        "streetNameDisplayText": "MULMUR-TOSORONTIO TLINE, MANSFIELD"
      },
      {
        "electoralDistricts": [
          {
            "election": null,
            "id": 99,
            "name": "Simcoe—Grey"
          }
        ],
        "pollDivisionIds": [
          10141824
        ],
        "postalCode": "L0N1M0",
        "streetName": "SIMCOE COUNTY RD5",
        "streetDirectionId": null,
        "streetTypeId": null,
        "placeName": "MANSFIELD",
        "streetNameDisplayText": "SIMCOE COUNTY RD5, MANSFIELD"
      }
    ]
  },
  {
    "postal": "L0N1N0",
    "result": [
      {
        "electoralDistricts": [
          {
            "election": null,
            "id": 23,
            "name": "Dufferin—Caledon"
          }
        ],
        "pollDivisionIds": [
          10137797
        ],
        "postalCode": "L0N1N0",
        "streetName": "10TH",
        "streetDirectionId": null,
        "streetTypeId": "LINE",
        "placeName": "ORTON",
        "streetNameDisplayText": "10TH LINE, ORTON"
      },
      {
        "electoralDistricts": [
          {
            "election": null,
            "id": 23,
            "name": "Dufferin—Caledon"
          }
        ],
        "pollDivisionIds": [
          10137797
        ],
        "postalCode": "L0N1N0",
        "streetName": "11",
        "streetDirectionId": null,
        "streetTypeId": "LINE",
        "placeName": "ORTON",
        "streetNameDisplayText": "11 LINE, ORTON"
      },
      {
        "electoralDistricts": [
          {
            "election": null,
            "id": 23,
            "name": "Dufferin—Caledon"
          }
        ],
        "pollDivisionIds": [
          10137797
        ],
        "postalCode": "L0N1N0",
        "streetName": "11TH",
        "streetDirectionId": null,
        "streetTypeId": "LINE",
        "placeName": "ORTON",
        "streetNameDisplayText": "11TH LINE, ORTON"
      },
      {
        "electoralDistricts": [
          {
            "election": null,
            "id": 23,
            "name": "Dufferin—Caledon"
          }
        ],
        "pollDivisionIds": [
          10137797
        ],
        "postalCode": "L0N1N0",
        "streetName": "12",
        "streetDirectionId": null,
        "streetTypeId": "LINE",
        "placeName": "ORTON",
        "streetNameDisplayText": "12 LINE, ORTON"
      },
      {
        "electoralDistricts": [
          {
            "election": null,
            "id": 115,
            "name": "Wellington—Halton Hills"
          }
        ],
        "pollDivisionIds": [
          10142570
        ],
        "postalCode": "L0N1N0",
        "streetName": "1ST",
        "streetDirectionId": null,
        "streetTypeId": "LINE",
        "placeName": "ORTON",
        "streetNameDisplayText": "1ST LINE, ORTON"
      },
      {
        "electoralDistricts": [
          {
            "election": null,
            "id": 23,
            "name": "Dufferin—Caledon"
          }
        ],
        "pollDivisionIds": [
          10137797
        ],
        "postalCode": "L0N1N0",
        "streetName": "20",
        "streetDirectionId": null,
        "streetTypeId": "SIDERD",
        "placeName": "ORTON",
        "streetNameDisplayText": "20 SIDERD, ORTON"
      },
      {
        "electoralDistricts": [
          {
            "election": null,
            "id": 115,
            "name": "Wellington—Halton Hills"
          }
        ],
        "pollDivisionIds": [
          10142570
        ],
        "postalCode": "L0N1N0",
        "streetName": "24 WELLINGTON",
        "streetDirectionId": null,
        "streetTypeId": "RD",
        "placeName": "HILLSBURGH",
        "streetNameDisplayText": "24 WELLINGTON RD, HILLSBURGH"
      },
      {
        "electoralDistricts": [
          {
            "election": null,
            "id": 115,
            "name": "Wellington—Halton Hills"
          }
        ],
        "pollDivisionIds": [
          10142570
        ],
        "postalCode": "L0N1N0",
        "streetName": "27",
        "streetDirectionId": null,
        "streetTypeId": "SIDERD",
        "placeName": "ORTON",
        "streetNameDisplayText": "27 SIDERD, ORTON"
      },
      {
        "electoralDistricts": [
          {
            "election": null,
            "id": 115,
            "name": "Wellington—Halton Hills"
          }
        ],
        "pollDivisionIds": [
          10142570
        ],
        "postalCode": "L0N1N0",
        "streetName": "27 SIDEROAD",
        "streetDirectionId": null,
        "streetTypeId": null,
        "placeName": "ORTON",
        "streetNameDisplayText": "27 SIDEROAD, ORTON"
      },
      {
        "electoralDistricts": [
          {
            "election": null,
            "id": 115,
            "name": "Wellington—Halton Hills"
          }
        ],
        "pollDivisionIds": [
          10142570
        ],
        "postalCode": "L0N1N0",
        "streetName": "27TH",
        "streetDirectionId": null,
        "streetTypeId": "SIDERD",
        "placeName": "ORTON",
        "streetNameDisplayText": "27TH SIDERD, ORTON"
      },
      {
        "electoralDistricts": [
          {
            "election": null,
            "id": 115,
            "name": "Wellington—Halton Hills"
          }
        ],
        "pollDivisionIds": [
          10142570
        ],
        "postalCode": "L0N1N0",
        "streetName": "27TH. SDRD RR1",
        "streetDirectionId": null,
        "streetTypeId": null,
        "placeName": "ORTON",
        "streetNameDisplayText": "27TH. SDRD RR1, ORTON"
      },
      {
        "electoralDistricts": [
          {
            "election": null,
            "id": 115,
            "name": "Wellington—Halton Hills"
          }
        ],
        "pollDivisionIds": [
          10142570
        ],
        "postalCode": "L0N1N0",
        "streetName": "27TH. SDRD",
        "streetDirectionId": null,
        "streetTypeId": null,
        "placeName": "ORTON",
        "streetNameDisplayText": "27TH. SDRD, ORTON"
      },
      {
        "electoralDistricts": [
          {
            "election": null,
            "id": 115,
            "name": "Wellington—Halton Hills"
          }
        ],
        "pollDivisionIds": [
          10142570
        ],
        "postalCode": "L0N1N0",
        "streetName": "2-LINE R1",
        "streetDirectionId": null,
        "streetTypeId": null,
        "placeName": "ORTON",
        "streetNameDisplayText": "2-LINE R1, ORTON"
      },
      {
        "electoralDistricts": [
          {
            "election": null,
            "id": 115,
            "name": "Wellington—Halton Hills"
          }
        ],
        "pollDivisionIds": [
          10142561
        ],
        "postalCode": "L0N1N0",
        "streetName": "2ND",
        "streetDirectionId": null,
        "streetTypeId": "LINE",
        "placeName": "ORTON",
        "streetNameDisplayText": "2ND LINE, ORTON"
      },
      {
        "electoralDistricts": [
          {
            "election": null,
            "id": 115,
            "name": "Wellington—Halton Hills"
          }
        ],
        "pollDivisionIds": [
          10142570
        ],
        "postalCode": "L0N1N0",
        "streetName": "4TH",
        "streetDirectionId": null,
        "streetTypeId": "LINE",
        "placeName": "ORTON",
        "streetNameDisplayText": "4TH LINE, ORTON"
      },
      {
        "electoralDistricts": [
          {
            "election": null,
            "id": 23,
            "name": "Dufferin—Caledon"
          }
        ],
        "pollDivisionIds": [
          10137797
        ],
        "postalCode": "L0N1N0",
        "streetName": "COUNTY 3",
        "streetDirectionId": null,
        "streetTypeId": "RD",
        "placeName": "GRAND VALLEY",
        "streetNameDisplayText": "COUNTY 3 RD, GRAND VALLEY"
      },
      {
        "electoralDistricts": [
          {
            "election": null,
            "id": 23,
            "name": "Dufferin—Caledon"
          }
        ],
        "pollDivisionIds": [
          10137797
        ],
        "postalCode": "L0N1N0",
        "streetName": "COUNTY 3",
        "streetDirectionId": null,
        "streetTypeId": "RD",
        "placeName": "ORTON",
        "streetNameDisplayText": "COUNTY 3 RD, ORTON"
      },
      {
        "electoralDistricts": [
          {
            "election": null,
            "id": 115,
            "name": "Wellington—Halton Hills"
          }
        ],
        "pollDivisionIds": [
          10142570
        ],
        "postalCode": "L0N1N0",
        "streetName": "ELIZABETH",
        "streetDirectionId": null,
        "streetTypeId": "CRES",
        "placeName": "ORTON",
        "streetNameDisplayText": "ELIZABETH CRES, ORTON"
      },
      {
        "electoralDistricts": [
          {
            "election": null,
            "id": 115,
            "name": "Wellington—Halton Hills"
          }
        ],
        "pollDivisionIds": [
          10142556
        ],
        "postalCode": "L0N1N0",
        "streetName": "ERAMOSA-GARAFRAXA",
        "streetDirectionId": null,
        "streetTypeId": "TLINE",
        "placeName": "BELWOOD",
        "streetNameDisplayText": "ERAMOSA-GARAFRAXA TLINE, BELWOOD"
      },
      {
        "electoralDistricts": [
          {
            "election": null,
            "id": 115,
            "name": "Wellington—Halton Hills"
          }
        ],
        "pollDivisionIds": [
          10142570
        ],
        "postalCode": "L0N1N0",
        "streetName": "ERIN GARAFRAXA TLINE",
        "streetDirectionId": null,
        "streetTypeId": "TLINE",
        "placeName": "ORTON",
        "streetNameDisplayText": "ERIN GARAFRAXA TLINE TLINE, ORTON"
      },
      {
        "electoralDistricts": [
          {
            "election": null,
            "id": 115,
            "name": "Wellington—Halton Hills"
          }
        ],
        "pollDivisionIds": [
          10142570
        ],
        "postalCode": "L0N1N0",
        "streetName": "ERIN GARAFRAXA",
        "streetDirectionId": null,
        "streetTypeId": "TLINE",
        "placeName": "ORTON",
        "streetNameDisplayText": "ERIN GARAFRAXA TLINE, ORTON"
      },
      {
        "electoralDistricts": [
          {
            "election": null,
            "id": 115,
            "name": "Wellington—Halton Hills"
          }
        ],
        "pollDivisionIds": [
          10142570
        ],
        "postalCode": "L0N1N0",
        "streetName": "ERIN-EAST GARAFRAXA",
        "streetDirectionId": null,
        "streetTypeId": "TLINE",
        "placeName": "ORTON",
        "streetNameDisplayText": "ERIN-EAST GARAFRAXA TLINE, ORTON"
      },
      {
        "electoralDistricts": [
          {
            "election": null,
            "id": 115,
            "name": "Wellington—Halton Hills"
          }
        ],
        "pollDivisionIds": [
          10142570
        ],
        "postalCode": "L0N1N0",
        "streetName": "ERIN-GARAFRAXA",
        "streetDirectionId": null,
        "streetTypeId": "TLINE",
        "placeName": "HILLSBURGH",
        "streetNameDisplayText": "ERIN-GARAFRAXA TLINE, HILLSBURGH"
      },
      {
        "electoralDistricts": [
          {
            "election": null,
            "id": 115,
            "name": "Wellington—Halton Hills"
          }
        ],
        "pollDivisionIds": [
          10142570
        ],
        "postalCode": "L0N1N0",
        "streetName": "ERIN-GARAFRAXA",
        "streetDirectionId": null,
        "streetTypeId": "TLINE",
        "placeName": "ORTON",
        "streetNameDisplayText": "ERIN-GARAFRAXA TLINE, ORTON"
      },
      {
        "electoralDistricts": [
          {
            "election": null,
            "id": 115,
            "name": "Wellington—Halton Hills"
          }
        ],
        "pollDivisionIds": [
          10142570
        ],
        "postalCode": "L0N1N0",
        "streetName": "FIFTH",
        "streetDirectionId": null,
        "streetTypeId": "LINE",
        "placeName": "ORTON",
        "streetNameDisplayText": "FIFTH LINE, ORTON"
      },
      {
        "electoralDistricts": [
          {
            "election": null,
            "id": 115,
            "name": "Wellington—Halton Hills"
          }
        ],
        "pollDivisionIds": [
          10142571
        ],
        "postalCode": "L0N1N0",
        "streetName": "FIRST",
        "streetDirectionId": null,
        "streetTypeId": "LINE",
        "placeName": "ACTON",
        "streetNameDisplayText": "FIRST LINE, ACTON"
      },
      {
        "electoralDistricts": [
          {
            "election": null,
            "id": 115,
            "name": "Wellington—Halton Hills"
          }
        ],
        "pollDivisionIds": [
          10142571,
          10142570,
          10142557
        ],
        "postalCode": "L0N1N0",
        "streetName": "FIRST",
        "streetDirectionId": null,
        "streetTypeId": "LINE",
        "placeName": "ORTON",
        "streetNameDisplayText": "FIRST LINE, ORTON"
      },
      {
        "electoralDistricts": [
          {
            "election": null,
            "id": 115,
            "name": "Wellington—Halton Hills"
          }
        ],
        "pollDivisionIds": [
          10142570
        ],
        "postalCode": "L0N1N0",
        "streetName": "FOURTH",
        "streetDirectionId": null,
        "streetTypeId": "LINE",
        "placeName": "ORTON",
        "streetNameDisplayText": "FOURTH LINE, ORTON"
      },
      {
        "electoralDistricts": [
          {
            "election": null,
            "id": 23,
            "name": "Dufferin—Caledon"
          }
        ],
        "pollDivisionIds": [
          10137797
        ],
        "postalCode": "L0N1N0",
        "streetName": "ORANGEVILLE-FERGUS",
        "streetDirectionId": null,
        "streetTypeId": "RD",
        "placeName": "BELWOOD",
        "streetNameDisplayText": "ORANGEVILLE-FERGUS RD, BELWOOD"
      },
      {
        "electoralDistricts": [
          {
            "election": null,
            "id": 23,
            "name": "Dufferin—Caledon"
          }
        ],
        "pollDivisionIds": [
          10137797
        ],
        "postalCode": "L0N1N0",
        "streetName": "ORANGEVILLE-FERGUS",
        "streetDirectionId": null,
        "streetTypeId": "RD",
        "placeName": "ORTON",
        "streetNameDisplayText": "ORANGEVILLE-FERGUS RD, ORTON"
      },
      {
        "electoralDistricts": [
          {
            "election": null,
            "id": 115,
            "name": "Wellington—Halton Hills"
          }
        ],
        "pollDivisionIds": [
          10142570,
          10142571
        ],
        "postalCode": "L0N1N0",
        "streetName": "SECOND",
        "streetDirectionId": null,
        "streetTypeId": "LINE",
        "placeName": "ORTON",
        "streetNameDisplayText": "SECOND LINE, ORTON"
      },
      {
        "electoralDistricts": [
          {
            "election": null,
            "id": 115,
            "name": "Wellington—Halton Hills"
          }
        ],
        "pollDivisionIds": [
          10142570
        ],
        "postalCode": "L0N1N0",
        "streetName": "SECOUND",
        "streetDirectionId": null,
        "streetTypeId": "LINE",
        "placeName": "ORTON",
        "streetNameDisplayText": "SECOUND LINE, ORTON"
      },
      {
        "electoralDistricts": [
          {
            "election": null,
            "id": 115,
            "name": "Wellington—Halton Hills"
          }
        ],
        "pollDivisionIds": [
          10142570
        ],
        "postalCode": "L0N1N0",
        "streetName": "SIDEROAD 27",
        "streetDirectionId": null,
        "streetTypeId": null,
        "placeName": "ORTON",
        "streetNameDisplayText": "SIDEROAD 27, ORTON"
      },
      {
        "electoralDistricts": [
          {
            "election": null,
            "id": 115,
            "name": "Wellington—Halton Hills"
          }
        ],
        "pollDivisionIds": [
          10142570
        ],
        "postalCode": "L0N1N0",
        "streetName": "SIXTH",
        "streetDirectionId": null,
        "streetTypeId": "LINE",
        "placeName": "ORTON",
        "streetNameDisplayText": "SIXTH LINE, ORTON"
      },
      {
        "electoralDistricts": [
          {
            "election": null,
            "id": 115,
            "name": "Wellington—Halton Hills"
          }
        ],
        "pollDivisionIds": [
          10142570
        ],
        "postalCode": "L0N1N0",
        "streetName": "THIRD",
        "streetDirectionId": null,
        "streetTypeId": "LINE",
        "placeName": "ORTON",
        "streetNameDisplayText": "THIRD LINE, ORTON"
      },
      {
        "electoralDistricts": [
          {
            "election": null,
            "id": 115,
            "name": "Wellington—Halton Hills"
          }
        ],
        "pollDivisionIds": [
          10142570
        ],
        "postalCode": "L0N1N0",
        "streetName": "TOWNLINE",
        "streetDirectionId": null,
        "streetTypeId": "RD",
        "placeName": "ORTON",
        "streetNameDisplayText": "TOWNLINE RD, ORTON"
      },
      {
        "electoralDistricts": [
          {
            "election": null,
            "id": 115,
            "name": "Wellington—Halton Hills"
          }
        ],
        "pollDivisionIds": [
          10142570
        ],
        "postalCode": "L0N1N0",
        "streetName": "TRAFALGAR",
        "streetDirectionId": null,
        "streetTypeId": "RD",
        "placeName": "ORTON",
        "streetNameDisplayText": "TRAFALGAR RD, ORTON"
      },
      {
        "electoralDistricts": [
          {
            "election": null,
            "id": 115,
            "name": "Wellington—Halton Hills"
          }
        ],
        "pollDivisionIds": [
          10142570
        ],
        "postalCode": "L0N1N0",
        "streetName": "WELLINGTON 24",
        "streetDirectionId": null,
        "streetTypeId": "RD",
        "placeName": "ORTON",
        "streetNameDisplayText": "WELLINGTON 24 RD, ORTON"
      },
      {
        "electoralDistricts": [
          {
            "election": null,
            "id": 115,
            "name": "Wellington—Halton Hills"
          }
        ],
        "pollDivisionIds": [
          10142570,
          10142571
        ],
        "postalCode": "L0N1N0",
        "streetName": "WELLINGTON RD 22",
        "streetDirectionId": null,
        "streetTypeId": null,
        "placeName": "ORTON",
        "streetNameDisplayText": "WELLINGTON RD 22, ORTON"
      },
      {
        "electoralDistricts": [
          {
            "election": null,
            "id": 115,
            "name": "Wellington—Halton Hills"
          }
        ],
        "pollDivisionIds": [
          10142570
        ],
        "postalCode": "L0N1N0",
        "streetName": "WELLINGTON RD 24",
        "streetDirectionId": null,
        "streetTypeId": "RD",
        "placeName": "ORTON",
        "streetNameDisplayText": "WELLINGTON RD 24 RD, ORTON"
      },
      {
        "electoralDistricts": [
          {
            "election": null,
            "id": 115,
            "name": "Wellington—Halton Hills"
          }
        ],
        "pollDivisionIds": [
          10142570
        ],
        "postalCode": "L0N1N0",
        "streetName": "WELLINGTON RD.22",
        "streetDirectionId": null,
        "streetTypeId": "RD",
        "placeName": "ORTON",
        "streetNameDisplayText": "WELLINGTON RD.22 RD, ORTON"
      }
    ]
  },
  {
    "postal": "L0N1P0",
    "result": [
      {
        "electoralDistricts": [
          {
            "election": null,
            "id": 99,
            "name": "Simcoe—Grey"
          }
        ],
        "pollDivisionIds": [
          10141859,
          10141849
        ],
        "postalCode": "L0N1P0",
        "streetName": "10 ADJALA",
        "streetDirectionId": null,
        "streetTypeId": "SIDERD",
        "placeName": "PALGRAVE",
        "streetNameDisplayText": "10 ADJALA SIDERD, PALGRAVE"
      },
      {
        "electoralDistricts": [
          {
            "election": null,
            "id": 99,
            "name": "Simcoe—Grey"
          }
        ],
        "pollDivisionIds": [
          10141859
        ],
        "postalCode": "L0N1P0",
        "streetName": "10 SIDEROAD ADJALA",
        "streetDirectionId": null,
        "streetTypeId": null,
        "placeName": "PALGRAVE",
        "streetNameDisplayText": "10 SIDEROAD ADJALA, PALGRAVE"
      },
      {
        "electoralDistricts": [
          {
            "election": null,
            "id": 99,
            "name": "Simcoe—Grey"
          }
        ],
        "pollDivisionIds": [
          10141859,
          10141849
        ],
        "postalCode": "L0N1P0",
        "streetName": "2",
        "streetDirectionId": null,
        "streetTypeId": "CONC",
        "placeName": "PALGRAVE",
        "streetNameDisplayText": "2 CONC, PALGRAVE"
      },
      {
        "electoralDistricts": [
          {
            "election": null,
            "id": 99,
            "name": "Simcoe—Grey"
          }
        ],
        "pollDivisionIds": [
          10141859
        ],
        "postalCode": "L0N1P0",
        "streetName": "2ND",
        "streetDirectionId": null,
        "streetTypeId": "CONC",
        "placeName": "PALGRAVE",
        "streetNameDisplayText": "2ND CONC, PALGRAVE"
      },
      {
        "electoralDistricts": [
          {
            "election": null,
            "id": 99,
            "name": "Simcoe—Grey"
          }
        ],
        "pollDivisionIds": [
          10141859
        ],
        "postalCode": "L0N1P0",
        "streetName": "2ND",
        "streetDirectionId": null,
        "streetTypeId": "LINE",
        "placeName": "PALGRAVE",
        "streetNameDisplayText": "2ND LINE, PALGRAVE"
      },
      {
        "electoralDistricts": [
          {
            "election": null,
            "id": 99,
            "name": "Simcoe—Grey"
          }
        ],
        "pollDivisionIds": [
          10141859
        ],
        "postalCode": "L0N1P0",
        "streetName": "3",
        "streetDirectionId": null,
        "streetTypeId": "CONC",
        "placeName": "ADJALA",
        "streetNameDisplayText": "3 CONC, ADJALA"
      },
      {
        "electoralDistricts": [
          {
            "election": null,
            "id": 99,
            "name": "Simcoe—Grey"
          }
        ],
        "pollDivisionIds": [
          10141849,
          10141859
        ],
        "postalCode": "L0N1P0",
        "streetName": "3",
        "streetDirectionId": null,
        "streetTypeId": "CONC",
        "placeName": "PALGRAVE",
        "streetNameDisplayText": "3 CONC, PALGRAVE"
      },
      {
        "electoralDistricts": [
          {
            "election": null,
            "id": 99,
            "name": "Simcoe—Grey"
          }
        ],
        "pollDivisionIds": [
          10141859
        ],
        "postalCode": "L0N1P0",
        "streetName": "3 LINE ADJALA",
        "streetDirectionId": null,
        "streetTypeId": "LINE",
        "placeName": "ADJALA",
        "streetNameDisplayText": "3 LINE ADJALA LINE, ADJALA"
      },
      {
        "electoralDistricts": [
          {
            "election": null,
            "id": 99,
            "name": "Simcoe—Grey"
          }
        ],
        "pollDivisionIds": [
          10141824,
          10141859
        ],
        "postalCode": "L0N1P0",
        "streetName": "5",
        "streetDirectionId": null,
        "streetTypeId": "SIDERD",
        "placeName": "PALGRAVE",
        "streetNameDisplayText": "5 SIDERD, PALGRAVE"
      },
      {
        "electoralDistricts": [
          {
            "election": null,
            "id": 99,
            "name": "Simcoe—Grey"
          }
        ],
        "pollDivisionIds": [
          10141859
        ],
        "postalCode": "L0N1P0",
        "streetName": "5 SIDEROAD ADJALA",
        "streetDirectionId": null,
        "streetTypeId": null,
        "placeName": "PALGRAVE",
        "streetNameDisplayText": "5 SIDEROAD ADJALA, PALGRAVE"
      },
      {
        "electoralDistricts": [
          {
            "election": null,
            "id": 23,
            "name": "Dufferin—Caledon"
          }
        ],
        "pollDivisionIds": [
          10137805
        ],
        "postalCode": "L0N1P0",
        "streetName": "50",
        "streetDirectionId": null,
        "streetTypeId": "HWY",
        "placeName": "BOLTON",
        "streetNameDisplayText": "50 HWY, BOLTON"
      },
      {
        "electoralDistricts": [
          {
            "election": null,
            "id": 23,
            "name": "Dufferin—Caledon"
          }
        ],
        "pollDivisionIds": [
          10137805
        ],
        "postalCode": "L0N1P0",
        "streetName": "50",
        "streetDirectionId": null,
        "streetTypeId": "HWY",
        "placeName": "PALGRAVE",
        "streetNameDisplayText": "50 HWY, PALGRAVE"
      },
      {
        "electoralDistricts": [
          {
            "election": null,
            "id": 23,
            "name": "Dufferin—Caledon"
          }
        ],
        "pollDivisionIds": [
          10137805
        ],
        "postalCode": "L0N1P0",
        "streetName": "50 REGIONAL",
        "streetDirectionId": null,
        "streetTypeId": "RD",
        "placeName": "PALGRAVE",
        "streetNameDisplayText": "50 REGIONAL RD, PALGRAVE"
      },
      {
        "electoralDistricts": [
          {
            "election": null,
            "id": 99,
            "name": "Simcoe—Grey"
          }
        ],
        "pollDivisionIds": [
          10141859
        ],
        "postalCode": "L0N1P0",
        "streetName": "5TH",
        "streetDirectionId": null,
        "streetTypeId": "SIDERD",
        "placeName": "PALGRAVE",
        "streetNameDisplayText": "5TH SIDERD, PALGRAVE"
      },
      {
        "electoralDistricts": [
          {
            "election": null,
            "id": 99,
            "name": "Simcoe—Grey"
          }
        ],
        "pollDivisionIds": [
          10141859
        ],
        "postalCode": "L0N1P0",
        "streetName": "5TH SIDEROAD ADJ",
        "streetDirectionId": null,
        "streetTypeId": null,
        "placeName": "PALGRAVE",
        "streetNameDisplayText": "5TH SIDEROAD ADJ, PALGRAVE"
      },
      {
        "electoralDistricts": [
          {
            "election": null,
            "id": 99,
            "name": "Simcoe—Grey"
          }
        ],
        "pollDivisionIds": [
          10141859
        ],
        "postalCode": "L0N1P0",
        "streetName": "9",
        "streetDirectionId": null,
        "streetTypeId": "HWY",
        "placeName": "CALEDON EAST",
        "streetNameDisplayText": "9 HWY, CALEDON EAST"
      },
      {
        "electoralDistricts": [
          {
            "election": null,
            "id": 99,
            "name": "Simcoe—Grey"
          }
        ],
        "pollDivisionIds": [
          10141859
        ],
        "postalCode": "L0N1P0",
        "streetName": "9",
        "streetDirectionId": null,
        "streetTypeId": "HWY",
        "placeName": "PALGRAVE",
        "streetNameDisplayText": "9 HWY, PALGRAVE"
      },
      {
        "electoralDistricts": [
          {
            "election": null,
            "id": 99,
            "name": "Simcoe—Grey"
          }
        ],
        "pollDivisionIds": [
          10141859
        ],
        "postalCode": "L0N1P0",
        "streetName": "BALLYCROY",
        "streetDirectionId": null,
        "streetTypeId": "RD",
        "placeName": "PALGRAVE",
        "streetNameDisplayText": "BALLYCROY RD, PALGRAVE"
      },
      {
        "electoralDistricts": [
          {
            "election": null,
            "id": 99,
            "name": "Simcoe—Grey"
          }
        ],
        "pollDivisionIds": [
          10141849
        ],
        "postalCode": "L0N1P0",
        "streetName": "CON 3",
        "streetDirectionId": null,
        "streetTypeId": null,
        "placeName": "PALGRAVE",
        "streetNameDisplayText": "CON 3, PALGRAVE"
      },
      {
        "electoralDistricts": [
          {
            "election": null,
            "id": 99,
            "name": "Simcoe—Grey"
          }
        ],
        "pollDivisionIds": [
          10141859
        ],
        "postalCode": "L0N1P0",
        "streetName": "CONC 3",
        "streetDirectionId": null,
        "streetTypeId": "CONC",
        "placeName": "ADJALA",
        "streetNameDisplayText": "CONC 3 CONC, ADJALA"
      },
      {
        "electoralDistricts": [
          {
            "election": null,
            "id": 99,
            "name": "Simcoe—Grey"
          }
        ],
        "pollDivisionIds": [
          10141859
        ],
        "postalCode": "L0N1P0",
        "streetName": "CONC 7",
        "streetDirectionId": null,
        "streetTypeId": "CONC",
        "placeName": "ADJALA-TOSORONTIO",
        "streetNameDisplayText": "CONC 7 CONC, ADJALA-TOSORONTIO"
      },
      {
        "electoralDistricts": [
          {
            "election": null,
            "id": 99,
            "name": "Simcoe—Grey"
          }
        ],
        "pollDivisionIds": [
          10141859
        ],
        "postalCode": "L0N1P0",
        "streetName": "CONC RD 2",
        "streetDirectionId": null,
        "streetTypeId": "RD",
        "placeName": "ADJALA",
        "streetNameDisplayText": "CONC RD 2 RD, ADJALA"
      },
      {
        "electoralDistricts": [
          {
            "election": null,
            "id": 99,
            "name": "Simcoe—Grey"
          }
        ],
        "pollDivisionIds": [
          10141859
        ],
        "postalCode": "L0N1P0",
        "streetName": "CONC RD 3",
        "streetDirectionId": null,
        "streetTypeId": "RD",
        "placeName": "ADJALA",
        "streetNameDisplayText": "CONC RD 3 RD, ADJALA"
      },
      {
        "electoralDistricts": [
          {
            "election": null,
            "id": 99,
            "name": "Simcoe—Grey"
          }
        ],
        "pollDivisionIds": [
          10141859
        ],
        "postalCode": "L0N1P0",
        "streetName": "CONC ROAD 3",
        "streetDirectionId": null,
        "streetTypeId": "CONC",
        "placeName": "ADJALA",
        "streetNameDisplayText": "CONC ROAD 3 CONC, ADJALA"
      },
      {
        "electoralDistricts": [
          {
            "election": null,
            "id": 99,
            "name": "Simcoe—Grey"
          }
        ],
        "pollDivisionIds": [
          10141849,
          10141859
        ],
        "postalCode": "L0N1P0",
        "streetName": "CONCESSION 2",
        "streetDirectionId": null,
        "streetTypeId": "RD",
        "placeName": "PALGRAVE",
        "streetNameDisplayText": "CONCESSION 2 RD, PALGRAVE"
      },
      {
        "electoralDistricts": [
          {
            "election": null,
            "id": 99,
            "name": "Simcoe—Grey"
          }
        ],
        "pollDivisionIds": [
          10141859
        ],
        "postalCode": "L0N1P0",
        "streetName": "CONCESSION 3 NOTTAWASAGA",
        "streetDirectionId": "S",
        "streetTypeId": "RD",
        "placeName": "ADJALA",
        "streetNameDisplayText": "CONCESSION 3 NOTTAWASAGA RD S, ADJALA"
      },
      {
        "electoralDistricts": [
          {
            "election": null,
            "id": 99,
            "name": "Simcoe—Grey"
          }
        ],
        "pollDivisionIds": [
          10141849,
          10141859
        ],
        "postalCode": "L0N1P0",
        "streetName": "CONCESSION 3",
        "streetDirectionId": null,
        "streetTypeId": "RD",
        "placeName": "PALGRAVE",
        "streetNameDisplayText": "CONCESSION 3 RD, PALGRAVE"
      },
      {
        "electoralDistricts": [
          {
            "election": null,
            "id": 99,
            "name": "Simcoe—Grey"
          }
        ],
        "pollDivisionIds": [
          10141849,
          10141859
        ],
        "postalCode": "L0N1P0",
        "streetName": "CONCESSION 4",
        "streetDirectionId": null,
        "streetTypeId": "RD",
        "placeName": "LORETTO",
        "streetNameDisplayText": "CONCESSION 4 RD, LORETTO"
      },
      {
        "electoralDistricts": [
          {
            "election": null,
            "id": 99,
            "name": "Simcoe—Grey"
          }
        ],
        "pollDivisionIds": [
          10141859
        ],
        "postalCode": "L0N1P0",
        "streetName": "CONCESSION 5",
        "streetDirectionId": null,
        "streetTypeId": "RD",
        "placeName": "LORETTO",
        "streetNameDisplayText": "CONCESSION 5 RD, LORETTO"
      },
      {
        "electoralDistricts": [
          {
            "election": null,
            "id": 99,
            "name": "Simcoe—Grey"
          }
        ],
        "pollDivisionIds": [
          10141859
        ],
        "postalCode": "L0N1P0",
        "streetName": "CONCESSION 7",
        "streetDirectionId": null,
        "streetTypeId": "RD",
        "placeName": "PALGRAVE",
        "streetNameDisplayText": "CONCESSION 7 RD, PALGRAVE"
      },
      {
        "electoralDistricts": [
          {
            "election": null,
            "id": 99,
            "name": "Simcoe—Grey"
          }
        ],
        "pollDivisionIds": [
          10141859
        ],
        "postalCode": "L0N1P0",
        "streetName": "CONCESSION RD 3",
        "streetDirectionId": null,
        "streetTypeId": null,
        "placeName": "PALGRAVE",
        "streetNameDisplayText": "CONCESSION RD 3, PALGRAVE"
      },
      {
        "electoralDistricts": [
          {
            "election": null,
            "id": 99,
            "name": "Simcoe—Grey"
          }
        ],
        "pollDivisionIds": [
          10141859
        ],
        "postalCode": "L0N1P0",
        "streetName": "CONCESSION ROAD 2",
        "streetDirectionId": null,
        "streetTypeId": "CONC",
        "placeName": "PALGRAVE",
        "streetNameDisplayText": "CONCESSION ROAD 2 CONC, PALGRAVE"
      },
      {
        "electoralDistricts": [
          {
            "election": null,
            "id": 99,
            "name": "Simcoe—Grey"
          }
        ],
        "pollDivisionIds": [
          10141859
        ],
        "postalCode": "L0N1P0",
        "streetName": "CONCESSION ROAD 3",
        "streetDirectionId": null,
        "streetTypeId": "CONC",
        "placeName": "PALGRAVE",
        "streetNameDisplayText": "CONCESSION ROAD 3 CONC, PALGRAVE"
      },
      {
        "electoralDistricts": [
          {
            "election": null,
            "id": 99,
            "name": "Simcoe—Grey"
          }
        ],
        "pollDivisionIds": [
          10141859
        ],
        "postalCode": "L0N1P0",
        "streetName": "CONCESSION ROAD 7",
        "streetDirectionId": null,
        "streetTypeId": "CONC",
        "placeName": "PALGRAVE",
        "streetNameDisplayText": "CONCESSION ROAD 7 CONC, PALGRAVE"
      },
      {
        "electoralDistricts": [
          {
            "election": null,
            "id": 99,
            "name": "Simcoe—Grey"
          }
        ],
        "pollDivisionIds": [
          10141849
        ],
        "postalCode": "L0N1P0",
        "streetName": "COTTAGE",
        "streetDirectionId": null,
        "streetTypeId": "RD",
        "placeName": "PALGRAVE",
        "streetNameDisplayText": "COTTAGE RD, PALGRAVE"
      },
      {
        "electoralDistricts": [
          {
            "election": null,
            "id": 99,
            "name": "Simcoe—Grey"
          }
        ],
        "pollDivisionIds": [
          10141849
        ],
        "postalCode": "L0N1P0",
        "streetName": "COUNTY 1",
        "streetDirectionId": null,
        "streetTypeId": "RD",
        "placeName": "PALGRAVE",
        "streetNameDisplayText": "COUNTY 1 RD, PALGRAVE"
      },
      {
        "electoralDistricts": [
          {
            "election": null,
            "id": 99,
            "name": "Simcoe—Grey"
          }
        ],
        "pollDivisionIds": [
          10141859
        ],
        "postalCode": "L0N1P0",
        "streetName": "COUNTY 14",
        "streetDirectionId": null,
        "streetTypeId": "RD",
        "placeName": "TOTTENHAM",
        "streetNameDisplayText": "COUNTY 14 RD, TOTTENHAM"
      },
      {
        "electoralDistricts": [
          {
            "election": null,
            "id": 99,
            "name": "Simcoe—Grey"
          }
        ],
        "pollDivisionIds": [
          10141859
        ],
        "postalCode": "L0N1P0",
        "streetName": "COUNTY 50",
        "streetDirectionId": null,
        "streetTypeId": "RD",
        "placeName": "PALGRAVE",
        "streetNameDisplayText": "COUNTY 50 RD, PALGRAVE"
      },
      {
        "electoralDistricts": [
          {
            "election": null,
            "id": 99,
            "name": "Simcoe—Grey"
          }
        ],
        "pollDivisionIds": [
          10141849
        ],
        "postalCode": "L0N1P0",
        "streetName": "COUNTY ROAD 1",
        "streetDirectionId": null,
        "streetTypeId": null,
        "placeName": "PALGRAVE",
        "streetNameDisplayText": "COUNTY ROAD 1, PALGRAVE"
      },
      {
        "electoralDistricts": [
          {
            "election": null,
            "id": 121,
            "name": "York—Simcoe"
          }
        ],
        "pollDivisionIds": [
          10142909
        ],
        "postalCode": "L0N1P0",
        "streetName": "COUNTY ROAD 27",
        "streetDirectionId": null,
        "streetTypeId": null,
        "placeName": "BRADFORD",
        "streetNameDisplayText": "COUNTY ROAD 27, BRADFORD"
      },
      {
        "electoralDistricts": [
          {
            "election": null,
            "id": 99,
            "name": "Simcoe—Grey"
          }
        ],
        "pollDivisionIds": [
          10141859
        ],
        "postalCode": "L0N1P0",
        "streetName": "COUNTY ROAD 50",
        "streetDirectionId": null,
        "streetTypeId": null,
        "placeName": "PALGRAVE",
        "streetNameDisplayText": "COUNTY ROAD 50, PALGRAVE"
      },
      {
        "electoralDistricts": [
          {
            "election": null,
            "id": 23,
            "name": "Dufferin—Caledon"
          }
        ],
        "pollDivisionIds": [
          10137805
        ],
        "postalCode": "L0N1P0",
        "streetName": "FINNERTY",
        "streetDirectionId": null,
        "streetTypeId": "SIDERD",
        "placeName": "PALGRAVE",
        "streetNameDisplayText": "FINNERTY SIDERD, PALGRAVE"
      },
      {
        "electoralDistricts": [
          {
            "election": null,
            "id": 99,
            "name": "Simcoe—Grey"
          }
        ],
        "pollDivisionIds": [
          10141859
        ],
        "postalCode": "L0N1P0",
        "streetName": "HIGHWAY 50",
        "streetDirectionId": null,
        "streetTypeId": null,
        "placeName": "PALGRAVE",
        "streetNameDisplayText": "HIGHWAY 50, PALGRAVE"
      },
      {
        "electoralDistricts": [
          {
            "election": null,
            "id": 23,
            "name": "Dufferin—Caledon"
          }
        ],
        "pollDivisionIds": [
          10137805
        ],
        "postalCode": "L0N1P0",
        "streetName": "HIGHWAY 9",
        "streetDirectionId": null,
        "streetTypeId": null,
        "placeName": "CALEDON",
        "streetNameDisplayText": "HIGHWAY 9, CALEDON"
      },
      {
        "electoralDistricts": [
          {
            "election": null,
            "id": 99,
            "name": "Simcoe—Grey"
          }
        ],
        "pollDivisionIds": [
          10141859
        ],
        "postalCode": "L0N1P0",
        "streetName": "HIGHWAY 9",
        "streetDirectionId": null,
        "streetTypeId": null,
        "placeName": "PALGRAVE",
        "streetNameDisplayText": "HIGHWAY 9, PALGRAVE"
      },
      {
        "electoralDistricts": [
          {
            "election": null,
            "id": 99,
            "name": "Simcoe—Grey"
          }
        ],
        "pollDivisionIds": [
          10141859
        ],
        "postalCode": "L0N1P0",
        "streetName": "HUMBER HEIGHTS",
        "streetDirectionId": null,
        "streetTypeId": "TRAIL",
        "placeName": "PALGRAVE",
        "streetNameDisplayText": "HUMBER HEIGHTS TRAIL, PALGRAVE"
      },
      {
        "electoralDistricts": [
          {
            "election": null,
            "id": 99,
            "name": "Simcoe—Grey"
          }
        ],
        "pollDivisionIds": [
          10141859
        ],
        "postalCode": "L0N1P0",
        "streetName": "HWY 9",
        "streetDirectionId": null,
        "streetTypeId": "HWY",
        "placeName": "PALGRAVE",
        "streetNameDisplayText": "HWY 9 HWY, PALGRAVE"
      },
      {
        "electoralDistricts": [
          {
            "election": null,
            "id": 99,
            "name": "Simcoe—Grey"
          }
        ],
        "pollDivisionIds": [
          10141859
        ],
        "postalCode": "L0N1P0",
        "streetName": "HWY 9",
        "streetDirectionId": null,
        "streetTypeId": null,
        "placeName": "PALGRAVE",
        "streetNameDisplayText": "HWY 9, PALGRAVE"
      },
      {
        "electoralDistricts": [
          {
            "election": null,
            "id": 23,
            "name": "Dufferin—Caledon"
          }
        ],
        "pollDivisionIds": [
          10137805
        ],
        "postalCode": "L0N1P0",
        "streetName": "REGIONAL RD 50",
        "streetDirectionId": null,
        "streetTypeId": null,
        "placeName": "PALGRAVE",
        "streetNameDisplayText": "REGIONAL RD 50, PALGRAVE"
      },
      {
        "electoralDistricts": [
          {
            "election": null,
            "id": 99,
            "name": "Simcoe—Grey"
          }
        ],
        "pollDivisionIds": [
          10141849
        ],
        "postalCode": "L0N1P0",
        "streetName": "RIVER",
        "streetDirectionId": "W",
        "streetTypeId": "RD",
        "placeName": "PALGRAVE",
        "streetNameDisplayText": "RIVER RD W, PALGRAVE"
      },
      {
        "electoralDistricts": [
          {
            "election": null,
            "id": 99,
            "name": "Simcoe—Grey"
          }
        ],
        "pollDivisionIds": [
          10141824
        ],
        "postalCode": "L0N1P0",
        "streetName": "SIDEROAD",
        "streetDirectionId": null,
        "streetTypeId": null,
        "placeName": "PALGRAVE",
        "streetNameDisplayText": "SIDEROAD, PALGRAVE"
      },
      {
        "electoralDistricts": [
          {
            "election": null,
            "id": 99,
            "name": "Simcoe—Grey"
          }
        ],
        "pollDivisionIds": [
          10141859
        ],
        "postalCode": "L0N1P0",
        "streetName": "SOUTH LAKE",
        "streetDirectionId": null,
        "streetTypeId": "RD",
        "placeName": "PALGRAVE",
        "streetNameDisplayText": "SOUTH LAKE RD, PALGRAVE"
      },
      {
        "electoralDistricts": [
          {
            "election": null,
            "id": 99,
            "name": "Simcoe—Grey"
          }
        ],
        "pollDivisionIds": [
          10141859
        ],
        "postalCode": "L0N1P0",
        "streetName": "TENTH",
        "streetDirectionId": null,
        "streetTypeId": "SIDERD",
        "placeName": "PALGRAVE",
        "streetNameDisplayText": "TENTH SIDERD, PALGRAVE"
      }
    ]
  },
  {
    "postal": "L0N1R0",
    "result": [
      {
        "electoralDistricts": [
          {
            "election": null,
            "id": 99,
            "name": "Simcoe—Grey"
          }
        ],
        "pollDivisionIds": [
          10141849
        ],
        "postalCode": "L0N1R0",
        "streetName": "25 ADJALA",
        "streetDirectionId": null,
        "streetTypeId": "SIDERD",
        "placeName": "ROSEMONT",
        "streetNameDisplayText": "25 ADJALA SIDERD, ROSEMONT"
      },
      {
        "electoralDistricts": [
          {
            "election": null,
            "id": 23,
            "name": "Dufferin—Caledon"
          }
        ],
        "pollDivisionIds": [
          10137785
        ],
        "postalCode": "L0N1R0",
        "streetName": "25",
        "streetDirectionId": null,
        "streetTypeId": "SIDERD",
        "placeName": "ORANGEVILLE",
        "streetNameDisplayText": "25 SIDERD, ORANGEVILLE"
      },
      {
        "electoralDistricts": [
          {
            "election": null,
            "id": 23,
            "name": "Dufferin—Caledon"
          }
        ],
        "pollDivisionIds": [
          10137780
        ],
        "postalCode": "L0N1R0",
        "streetName": "30",
        "streetDirectionId": null,
        "streetTypeId": "SIDERD",
        "placeName": "ROSEMONT",
        "streetNameDisplayText": "30 SIDERD, ROSEMONT"
      },
      {
        "electoralDistricts": [
          {
            "election": null,
            "id": 23,
            "name": "Dufferin—Caledon"
          }
        ],
        "pollDivisionIds": [
          10137780
        ],
        "postalCode": "L0N1R0",
        "streetName": "30 SIDEROAD ADJALA",
        "streetDirectionId": null,
        "streetTypeId": null,
        "placeName": "ROSEMONT",
        "streetNameDisplayText": "30 SIDEROAD ADJALA, ROSEMONT"
      },
      {
        "electoralDistricts": [
          {
            "election": null,
            "id": 23,
            "name": "Dufferin—Caledon"
          }
        ],
        "pollDivisionIds": [
          10137780
        ],
        "postalCode": "L0N1R0",
        "streetName": "4",
        "streetDirectionId": "E",
        "streetTypeId": "LINE",
        "placeName": "ROSEMONT",
        "streetNameDisplayText": "4 LINE E, ROSEMONT"
      },
      {
        "electoralDistricts": [
          {
            "election": null,
            "id": 23,
            "name": "Dufferin—Caledon"
          }
        ],
        "pollDivisionIds": [
          10137780
        ],
        "postalCode": "L0N1R0",
        "streetName": "5",
        "streetDirectionId": "E",
        "streetTypeId": "LINE",
        "placeName": "ROSEMONT",
        "streetNameDisplayText": "5 LINE E, ROSEMONT"
      },
      {
        "electoralDistricts": [
          {
            "election": null,
            "id": 23,
            "name": "Dufferin—Caledon"
          }
        ],
        "pollDivisionIds": [
          10137780
        ],
        "postalCode": "L0N1R0",
        "streetName": "5TH",
        "streetDirectionId": "E",
        "streetTypeId": "LINE",
        "placeName": "MONO",
        "streetNameDisplayText": "5TH LINE E, MONO"
      },
      {
        "electoralDistricts": [
          {
            "election": null,
            "id": 23,
            "name": "Dufferin—Caledon"
          }
        ],
        "pollDivisionIds": [
          10137780
        ],
        "postalCode": "L0N1R0",
        "streetName": "7",
        "streetDirectionId": "E",
        "streetTypeId": "LINE",
        "placeName": "ROSEMONT",
        "streetNameDisplayText": "7 LINE E, ROSEMONT"
      },
      {
        "electoralDistricts": [
          {
            "election": null,
            "id": 99,
            "name": "Simcoe—Grey"
          }
        ],
        "pollDivisionIds": [
          10141849
        ],
        "postalCode": "L0N1R0",
        "streetName": "89",
        "streetDirectionId": null,
        "streetTypeId": "HWY",
        "placeName": "EVERETT",
        "streetNameDisplayText": "89 HWY, EVERETT"
      },
      {
        "electoralDistricts": [
          {
            "election": null,
            "id": 23,
            "name": "Dufferin—Caledon"
          },
          {
            "election": null,
            "id": 99,
            "name": "Simcoe—Grey"
          }
        ],
        "pollDivisionIds": [
          10137780,
          10141849
        ],
        "postalCode": "L0N1R0",
        "streetName": "89",
        "streetDirectionId": null,
        "streetTypeId": "HWY",
        "placeName": "ROSEMONT",
        "streetNameDisplayText": "89 HWY, ROSEMONT"
      },
      {
        "electoralDistricts": [
          {
            "election": null,
            "id": 23,
            "name": "Dufferin—Caledon"
          }
        ],
        "pollDivisionIds": [
          10137780
        ],
        "postalCode": "L0N1R0",
        "streetName": "AIRPORT",
        "streetDirectionId": null,
        "streetTypeId": "RD",
        "placeName": "ROSEMONT",
        "streetNameDisplayText": "AIRPORT RD, ROSEMONT"
      },
      {
        "electoralDistricts": [
          {
            "election": null,
            "id": 99,
            "name": "Simcoe—Grey"
          }
        ],
        "pollDivisionIds": [
          10141849
        ],
        "postalCode": "L0N1R0",
        "streetName": "CONCESSION 2",
        "streetDirectionId": null,
        "streetTypeId": "RD",
        "placeName": "EVERETT",
        "streetNameDisplayText": "CONCESSION 2 RD, EVERETT"
      },
      {
        "electoralDistricts": [
          {
            "election": null,
            "id": 23,
            "name": "Dufferin—Caledon"
          }
        ],
        "pollDivisionIds": [
          10137780
        ],
        "postalCode": "L0N1R0",
        "streetName": "HIGHWAY 89",
        "streetDirectionId": null,
        "streetTypeId": null,
        "placeName": "ROSEMONT",
        "streetNameDisplayText": "HIGHWAY 89, ROSEMONT"
      },
      {
        "electoralDistricts": [
          {
            "election": null,
            "id": 99,
            "name": "Simcoe—Grey"
          }
        ],
        "pollDivisionIds": [
          10141824,
          10141849
        ],
        "postalCode": "L0N1R0",
        "streetName": "HWY 89",
        "streetDirectionId": null,
        "streetTypeId": "HWY",
        "placeName": "ROSEMONT",
        "streetNameDisplayText": "HWY 89 HWY, ROSEMONT"
      },
      {
        "electoralDistricts": [
          {
            "election": null,
            "id": 99,
            "name": "Simcoe—Grey"
          }
        ],
        "pollDivisionIds": [
          10141849
        ],
        "postalCode": "L0N1R0",
        "streetName": "JAMIESON",
        "streetDirectionId": null,
        "streetTypeId": "DR",
        "placeName": "ROSEMONT",
        "streetNameDisplayText": "JAMIESON DR, ROSEMONT"
      },
      {
        "electoralDistricts": [
          {
            "election": null,
            "id": 99,
            "name": "Simcoe—Grey"
          },
          {
            "election": null,
            "id": 23,
            "name": "Dufferin—Caledon"
          }
        ],
        "pollDivisionIds": [
          10141849,
          10137780
        ],
        "postalCode": "L0N1R0",
        "streetName": "MONO-ADJALA",
        "streetDirectionId": null,
        "streetTypeId": "TLINE",
        "placeName": "ROSEMONT",
        "streetNameDisplayText": "MONO-ADJALA TLINE, ROSEMONT"
      },
      {
        "electoralDistricts": [
          {
            "election": null,
            "id": 99,
            "name": "Simcoe—Grey"
          }
        ],
        "pollDivisionIds": [
          10141849
        ],
        "postalCode": "L0N1R0",
        "streetName": "MUL/TOSORONTIO TNLN",
        "streetDirectionId": null,
        "streetTypeId": null,
        "placeName": "ROSEMONT",
        "streetNameDisplayText": "MUL/TOSORONTIO TNLN, ROSEMONT"
      },
      {
        "electoralDistricts": [
          {
            "election": null,
            "id": 99,
            "name": "Simcoe—Grey"
          }
        ],
        "pollDivisionIds": [
          10141849
        ],
        "postalCode": "L0N1R0",
        "streetName": "MULMUR/TOS TNLN",
        "streetDirectionId": null,
        "streetTypeId": null,
        "placeName": "ROSEMONT",
        "streetNameDisplayText": "MULMUR/TOS TNLN, ROSEMONT"
      },
      {
        "electoralDistricts": [
          {
            "election": null,
            "id": 99,
            "name": "Simcoe—Grey"
          }
        ],
        "pollDivisionIds": [
          10141849
        ],
        "postalCode": "L0N1R0",
        "streetName": "MULMUR-TOSORONTIO",
        "streetDirectionId": null,
        "streetTypeId": "TLINE",
        "placeName": "EVERETT",
        "streetNameDisplayText": "MULMUR-TOSORONTIO TLINE, EVERETT"
      },
      {
        "electoralDistricts": [
          {
            "election": null,
            "id": 99,
            "name": "Simcoe—Grey"
          }
        ],
        "pollDivisionIds": [
          10141849
        ],
        "postalCode": "L0N1R0",
        "streetName": "MULMUR-TOSORONTIO",
        "streetDirectionId": null,
        "streetTypeId": "TLINE",
        "placeName": "ROSEMONT",
        "streetNameDisplayText": "MULMUR-TOSORONTIO TLINE, ROSEMONT"
      },
      {
        "electoralDistricts": [
          {
            "election": null,
            "id": 99,
            "name": "Simcoe—Grey"
          }
        ],
        "pollDivisionIds": [
          10141849
        ],
        "postalCode": "L0N1R0",
        "streetName": "ROSEMONT HEIGHTS",
        "streetDirectionId": null,
        "streetTypeId": "DR",
        "placeName": "ROSEMONT",
        "streetNameDisplayText": "ROSEMONT HEIGHTS DR, ROSEMONT"
      }
    ]
  },
  {
    "postal": "L0N1S0",
    "result": [
      {
        "electoralDistricts": [
          {
            "election": null,
            "id": 23,
            "name": "Dufferin—Caledon"
          }
        ],
        "pollDivisionIds": [
          10137783
        ],
        "postalCode": "L0N1S0",
        "streetName": "12 COUNTY",
        "streetDirectionId": null,
        "streetTypeId": "RD",
        "placeName": "SHELBURNE",
        "streetNameDisplayText": "12 COUNTY RD, SHELBURNE"
      },
      {
        "electoralDistricts": [
          {
            "election": null,
            "id": 23,
            "name": "Dufferin—Caledon"
          }
        ],
        "pollDivisionIds": [
          10137779
        ],
        "postalCode": "L0N1S0",
        "streetName": "17 COUNTY",
        "streetDirectionId": null,
        "streetTypeId": "RD",
        "placeName": "MANSFIELD",
        "streetNameDisplayText": "17 COUNTY RD, MANSFIELD"
      },
      {
        "electoralDistricts": [
          {
            "election": null,
            "id": 23,
            "name": "Dufferin—Caledon"
          }
        ],
        "pollDivisionIds": [
          10137780,
          10137779,
          10137785
        ],
        "postalCode": "L0N1S0",
        "streetName": "2",
        "streetDirectionId": "E",
        "streetTypeId": "LINE",
        "placeName": "SHELBURNE",
        "streetNameDisplayText": "2 LINE E, SHELBURNE"
      },
      {
        "electoralDistricts": [
          {
            "election": null,
            "id": 23,
            "name": "Dufferin—Caledon"
          }
        ],
        "pollDivisionIds": [
          10137779,
          10137780
        ],
        "postalCode": "L0N1S0",
        "streetName": "2",
        "streetDirectionId": "W",
        "streetTypeId": "LINE",
        "placeName": "SHELBURNE",
        "streetNameDisplayText": "2 LINE W, SHELBURNE"
      },
      {
        "electoralDistricts": [
          {
            "election": null,
            "id": 23,
            "name": "Dufferin—Caledon"
          }
        ],
        "pollDivisionIds": [
          10137783
        ],
        "postalCode": "L0N1S0",
        "streetName": "20",
        "streetDirectionId": null,
        "streetTypeId": "SIDERD",
        "placeName": "ORANGEVILLE",
        "streetNameDisplayText": "20 SIDERD, ORANGEVILLE"
      },
      {
        "electoralDistricts": [
          {
            "election": null,
            "id": 23,
            "name": "Dufferin—Caledon"
          }
        ],
        "pollDivisionIds": [
          10137783
        ],
        "postalCode": "L0N1S0",
        "streetName": "25TH",
        "streetDirectionId": null,
        "streetTypeId": "SIDERD",
        "placeName": "ORANGEVILLE",
        "streetNameDisplayText": "25TH SIDERD, ORANGEVILLE"
      },
      {
        "electoralDistricts": [
          {
            "election": null,
            "id": 23,
            "name": "Dufferin—Caledon"
          }
        ],
        "pollDivisionIds": [
          10137780,
          10137779
        ],
        "postalCode": "L0N1S0",
        "streetName": "2ND",
        "streetDirectionId": "E",
        "streetTypeId": "LINE",
        "placeName": "SHELBURNE",
        "streetNameDisplayText": "2ND LINE E, SHELBURNE"
      },
      {
        "electoralDistricts": [
          {
            "election": null,
            "id": 23,
            "name": "Dufferin—Caledon"
          }
        ],
        "pollDivisionIds": [
          10137780
        ],
        "postalCode": "L0N1S0",
        "streetName": "2ND",
        "streetDirectionId": "W",
        "streetTypeId": "LINE",
        "placeName": "SHELBURNE",
        "streetNameDisplayText": "2ND LINE W, SHELBURNE"
      },
      {
        "electoralDistricts": [
          {
            "election": null,
            "id": 23,
            "name": "Dufferin—Caledon"
          }
        ],
        "pollDivisionIds": [
          10137780,
          10137784,
          10137783
        ],
        "postalCode": "L0N1S0",
        "streetName": "30",
        "streetDirectionId": null,
        "streetTypeId": "SIDERD",
        "placeName": "SHELBURNE",
        "streetNameDisplayText": "30 SIDERD, SHELBURNE"
      },
      {
        "electoralDistricts": [
          {
            "election": null,
            "id": 23,
            "name": "Dufferin—Caledon"
          }
        ],
        "pollDivisionIds": [
          10137780
        ],
        "postalCode": "L0N1S0",
        "streetName": "30TH",
        "streetDirectionId": null,
        "streetTypeId": "SIDERD",
        "placeName": "SHELBURNE",
        "streetNameDisplayText": "30TH SIDERD, SHELBURNE"
      },
      {
        "electoralDistricts": [
          {
            "election": null,
            "id": 23,
            "name": "Dufferin—Caledon"
          }
        ],
        "pollDivisionIds": [
          10137779
        ],
        "postalCode": "L0N1S0",
        "streetName": "5TH",
        "streetDirectionId": null,
        "streetTypeId": "SIDERD",
        "placeName": "SHELBURNE",
        "streetNameDisplayText": "5TH SIDERD, SHELBURNE"
      },
      {
        "electoralDistricts": [
          {
            "election": null,
            "id": 23,
            "name": "Dufferin—Caledon"
          }
        ],
        "pollDivisionIds": [
          10137783
        ],
        "postalCode": "L0N1S0",
        "streetName": "AMARANTH-EAST LUTHER",
        "streetDirectionId": null,
        "streetTypeId": "TLINE",
        "placeName": "SHELBURNE",
        "streetNameDisplayText": "AMARANTH-EAST LUTHER TLINE, SHELBURNE"
      },
      {
        "electoralDistricts": [
          {
            "election": null,
            "id": 23,
            "name": "Dufferin—Caledon"
          }
        ],
        "pollDivisionIds": [
          10137784
        ],
        "postalCode": "L0N1S0",
        "streetName": "COUNTY 11",
        "streetDirectionId": null,
        "streetTypeId": "RD",
        "placeName": "SHELBURNE",
        "streetNameDisplayText": "COUNTY 11 RD, SHELBURNE"
      },
      {
        "electoralDistricts": [
          {
            "election": null,
            "id": 23,
            "name": "Dufferin—Caledon"
          }
        ],
        "pollDivisionIds": [
          10137780
        ],
        "postalCode": "L0N1S0",
        "streetName": "HIGHWAY 89",
        "streetDirectionId": null,
        "streetTypeId": null,
        "placeName": "ROSEMONT",
        "streetNameDisplayText": "HIGHWAY 89, ROSEMONT"
      },
      {
        "electoralDistricts": [
          {
            "election": null,
            "id": 23,
            "name": "Dufferin—Caledon"
          }
        ],
        "pollDivisionIds": [
          10137780
        ],
        "postalCode": "L0N1S0",
        "streetName": "HURONTARIO",
        "streetDirectionId": null,
        "streetTypeId": "ST",
        "placeName": "SHELBURNE",
        "streetNameDisplayText": "HURONTARIO ST, SHELBURNE"
      },
      {
        "electoralDistricts": [
          {
            "election": null,
            "id": 23,
            "name": "Dufferin—Caledon"
          }
        ],
        "pollDivisionIds": [
          10137778
        ],
        "postalCode": "L0N1S0",
        "streetName": "JAMES",
        "streetDirectionId": "N",
        "streetTypeId": "ST",
        "placeName": "SHELBURNE",
        "streetNameDisplayText": "JAMES ST N, SHELBURNE"
      },
      {
        "electoralDistricts": [
          {
            "election": null,
            "id": 99,
            "name": "Simcoe—Grey"
          }
        ],
        "pollDivisionIds": [
          10141840
        ],
        "postalCode": "L0N1S0",
        "streetName": "LAVENDER HILL",
        "streetDirectionId": null,
        "streetTypeId": "RD",
        "placeName": "CREEMORE",
        "streetNameDisplayText": "LAVENDER HILL RD, CREEMORE"
      },
      {
        "electoralDistricts": [
          {
            "election": null,
            "id": 23,
            "name": "Dufferin—Caledon"
          }
        ],
        "pollDivisionIds": [
          10137778
        ],
        "postalCode": "L0N1S0",
        "streetName": "OWEN SOUND",
        "streetDirectionId": null,
        "streetTypeId": "ST",
        "placeName": "SHELBURNE",
        "streetNameDisplayText": "OWEN SOUND ST, SHELBURNE"
      }
    ]
  }
]
