[
  {
    "postal": "M6K9J6",
    "result": []
  },
  {
    "postal": "M6K9Z5",
    "result": []
  },
  {
    "postal": "M6K7H8",
    "result": []
  },
  {
    "postal": "M6K0P6",
    "result": []
  },
  {
    "postal": "M6K0S7",
    "result": []
  },
  {
    "postal": "M6K8B9",
    "result": []
  },
  {
    "postal": "M6K2A6",
    "result": [
      {
        "electoralDistricts": [
          {
            "election": null,
            "id": 19,
            "name": "Davenport"
          }
        ],
        "pollDivisionIds": [
          10136104
        ],
        "postalCode": "M6K2A6",
        "streetName": "DUFFERIN",
        "streetDirectionId": null,
        "streetTypeId": "ST",
        "placeName": "TORONTO",
        "streetNameDisplayText": "DUFFERIN ST, TORONTO"
      }
    ]
  },
  {
    "postal": "M6K7V2",
    "result": []
  },
  {
    "postal": "M6K9P4",
    "result": []
  },
  {
    "postal": "M6K6G0",
    "result": []
  },
  {
    "postal": "M6K2K0",
    "result": []
  },
  {
    "postal": "M6K7N6",
    "result": []
  },
  {
    "postal": "M6K5R3",
    "result": []
  },
  {
    "postal": "M6K7K0",
    "result": []
  },
  {
    "postal": "M6K3R2",
    "result": [
      {
        "electoralDistricts": [
          {
            "election": null,
            "id": 112,
            "name": "University—Rosedale"
          },
          {
            "election": null,
            "id": 101,
            "name": "Spadina—Fort York"
          }
        ],
        "pollDivisionIds": [
          10136402,
          10141954
        ],
        "postalCode": "M6K3R2",
        "streetName": "EAST LIBERTY",
        "streetDirectionId": null,
        "streetTypeId": "ST",
        "placeName": "TORONTO",
        "streetNameDisplayText": "EAST LIBERTY ST, TORONTO"
      },
      {
        "electoralDistricts": [
          {
            "election": null,
            "id": 101,
            "name": "Spadina—Fort York"
          }
        ],
        "pollDivisionIds": [
          10141954,
          10141953
        ],
        "postalCode": "M6K3R2",
        "streetName": "EAST LIBERTY",
        "streetDirectionId": null,
        "streetTypeId": "ST",
        "placeName": "TORONTO, ON",
        "streetNameDisplayText": "EAST LIBERTY ST, TORONTO, ON"
      },
      {
        "electoralDistricts": [
          {
            "election": null,
            "id": 101,
            "name": "Spadina—Fort York"
          }
        ],
        "pollDivisionIds": [
          10141954
        ],
        "postalCode": "M6K3R2",
        "streetName": "LIBERTY",
        "streetDirectionId": null,
        "streetTypeId": "ST",
        "placeName": "TORONTO",
        "streetNameDisplayText": "LIBERTY ST, TORONTO"
      }
    ]
  },
  {
    "postal": "M6K0J1",
    "result": []
  },
  {
    "postal": "M6K0B0",
    "result": []
  },
  {
    "postal": "M6K5Z2",
    "result": []
  },
  {
    "postal": "M6K7P3",
    "result": []
  },
  {
    "postal": "M6K2K3",
    "result": [
      {
        "electoralDistricts": [
          {
            "election": null,
            "id": 83,
            "name": "Parkdale—High Park"
          }
        ],
        "pollDivisionIds": [
          10126449
        ],
        "postalCode": "M6K2K3",
        "streetName": "SPENCER",
        "streetDirectionId": null,
        "streetTypeId": "AVE",
        "placeName": "TORONTO",
        "streetNameDisplayText": "SPENCER AVE, TORONTO"
      }
    ]
  },
  {
    "postal": "M6K7Y6",
    "result": []
  },
  {
    "postal": "M6K1L9",
    "result": [
      {
        "electoralDistricts": [
          {
            "election": null,
            "id": 83,
            "name": "Parkdale—High Park"
          }
        ],
        "pollDivisionIds": [
          10126445
        ],
        "postalCode": "M6K1L9",
        "streetName": "QUEEN",
        "streetDirectionId": "W",
        "streetTypeId": "ST",
        "placeName": "TORONTO",
        "streetNameDisplayText": "QUEEN ST W, TORONTO"
      }
    ]
  },
  {
    "postal": "M6K8T0",
    "result": []
  },
  {
    "postal": "M6K3K8",
    "result": [
      {
        "electoralDistricts": [
          {
            "election": null,
            "id": 19,
            "name": "Davenport"
          }
        ],
        "pollDivisionIds": [
          10136104
        ],
        "postalCode": "M6K3K8",
        "streetName": "BROCKTON",
        "streetDirectionId": null,
        "streetTypeId": "AVE",
        "placeName": "TORONTO",
        "streetNameDisplayText": "BROCKTON AVE, TORONTO"
      }
    ]
  },
  {
    "postal": "M6K5W9",
    "result": []
  },
  {
    "postal": "M6K6T9",
    "result": []
  },
  {
    "postal": "M6K4H1",
    "result": []
  },
  {
    "postal": "M6K7A2",
    "result": []
  },
  {
    "postal": "M6K5G0",
    "result": []
  },
  {
    "postal": "M6K8V5",
    "result": []
  },
  {
    "postal": "M6K2Y8",
    "result": [
      {
        "electoralDistricts": [
          {
            "election": null,
            "id": 83,
            "name": "Parkdale—High Park"
          }
        ],
        "pollDivisionIds": [
          10126446
        ],
        "postalCode": "M6K2Y8",
        "streetName": "JAMESON",
        "streetDirectionId": null,
        "streetTypeId": "AVE",
        "placeName": "TORONTO",
        "streetNameDisplayText": "JAMESON AVE, TORONTO"
      }
    ]
  },
  {
    "postal": "M6K2B6",
    "result": [
      {
        "electoralDistricts": [
          {
            "election": null,
            "id": 19,
            "name": "Davenport"
          }
        ],
        "pollDivisionIds": [
          10136103
        ],
        "postalCode": "M6K2B6",
        "streetName": "DUFFERIN",
        "streetDirectionId": null,
        "streetTypeId": "ST",
        "placeName": "TORONTO",
        "streetNameDisplayText": "DUFFERIN ST, TORONTO"
      }
    ]
  },
  {
    "postal": "M6K4W8",
    "result": []
  },
  {
    "postal": "M6K8H7",
    "result": []
  },
  {
    "postal": "M6K5P1",
    "result": []
  },
  {
    "postal": "M6K2B8",
    "result": [
      {
        "electoralDistricts": [
          {
            "election": null,
            "id": 83,
            "name": "Parkdale—High Park"
          }
        ],
        "pollDivisionIds": [
          10126447
        ],
        "postalCode": "M6K2B8",
        "streetName": "MELBOURNE",
        "streetDirectionId": null,
        "streetTypeId": "PL",
        "placeName": "TORONTO",
        "streetNameDisplayText": "MELBOURNE PL, TORONTO"
      }
    ]
  },
  {
    "postal": "M6K0P2",
    "result": []
  },
  {
    "postal": "M6K9M1",
    "result": []
  },
  {
    "postal": "M6K3G0",
    "result": []
  },
  {
    "postal": "M6K9Z2",
    "result": []
  },
  {
    "postal": "M6K2A0",
    "result": []
  },
  {
    "postal": "M6K6Y0",
    "result": []
  },
  {
    "postal": "M6K2Z8",
    "result": [
      {
        "electoralDistricts": [
          {
            "election": null,
            "id": 83,
            "name": "Parkdale—High Park"
          }
        ],
        "pollDivisionIds": [
          10126446
        ],
        "postalCode": "M6K2Z8",
        "streetName": "MAYNARD",
        "streetDirectionId": null,
        "streetTypeId": "AVE",
        "placeName": "TORONTO",
        "streetNameDisplayText": "MAYNARD AVE, TORONTO"
      }
    ]
  },
  {
    "postal": "M6K7Y3",
    "result": []
  },
  {
    "postal": "M6K6Z5",
    "result": []
  },
  {
    "postal": "M6K6E0",
    "result": []
  },
  {
    "postal": "M6K9B7",
    "result": []
  },
  {
    "postal": "M6K9S5",
    "result": []
  },
  {
    "postal": "M6K3X3",
    "result": []
  },
  {
    "postal": "M6K7R5",
    "result": []
  },
  {
    "postal": "M6K2X3",
    "result": [
      {
        "electoralDistricts": [
          {
            "election": null,
            "id": 83,
            "name": "Parkdale—High Park"
          }
        ],
        "pollDivisionIds": [
          10126448
        ],
        "postalCode": "M6K2X3",
        "streetName": "JAMESON",
        "streetDirectionId": null,
        "streetTypeId": "AVE",
        "placeName": "TORONTO",
        "streetNameDisplayText": "JAMESON AVE, TORONTO"
      }
    ]
  },
  {
    "postal": "M6K8Z9",
    "result": []
  },
  {
    "postal": "M6K0N4",
    "result": []
  },
  {
    "postal": "M6K1K1",
    "result": [
      {
        "electoralDistricts": [
          {
            "election": null,
            "id": 83,
            "name": "Parkdale—High Park"
          }
        ],
        "pollDivisionIds": [
          10126448,
          10126447
        ],
        "postalCode": "M6K1K1",
        "streetName": "MELBOURNE",
        "streetDirectionId": null,
        "streetTypeId": "AVE",
        "placeName": "TORONTO",
        "streetNameDisplayText": "MELBOURNE AVE, TORONTO"
      }
    ]
  },
  {
    "postal": "M6K1S3",
    "result": [
      {
        "electoralDistricts": [
          {
            "election": null,
            "id": 19,
            "name": "Davenport"
          }
        ],
        "pollDivisionIds": [
          10136104
        ],
        "postalCode": "M6K1S3",
        "streetName": "MARSHALL",
        "streetDirectionId": null,
        "streetTypeId": "ST",
        "placeName": "TORONTO",
        "streetNameDisplayText": "MARSHALL ST, TORONTO"
      }
    ]
  },
  {
    "postal": "M6K6M4",
    "result": []
  },
  {
    "postal": "M6K9A9",
    "result": []
  },
  {
    "postal": "M6K9Z9",
    "result": []
  },
  {
    "postal": "M6K6T4",
    "result": []
  },
  {
    "postal": "M6K0B2",
    "result": []
  },
  {
    "postal": "M6K2L9",
    "result": [
      {
        "electoralDistricts": [
          {
            "election": null,
            "id": 19,
            "name": "Davenport"
          }
        ],
        "pollDivisionIds": [
          10136104
        ],
        "postalCode": "M6K2L9",
        "streetName": "BROCK",
        "streetDirectionId": null,
        "streetTypeId": "AVE",
        "placeName": "TORONTO",
        "streetNameDisplayText": "BROCK AVE, TORONTO"
      }
    ]
  },
  {
    "postal": "M6K8K9",
    "result": []
  },
  {
    "postal": "M6K2H9",
    "result": [
      {
        "electoralDistricts": [
          {
            "election": null,
            "id": 83,
            "name": "Parkdale—High Park"
          }
        ],
        "pollDivisionIds": [
          10126447
        ],
        "postalCode": "M6K2H9",
        "streetName": "ELM GROVE",
        "streetDirectionId": null,
        "streetTypeId": "AVE",
        "placeName": "TORONTO",
        "streetNameDisplayText": "ELM GROVE AVE, TORONTO"
      }
    ]
  },
  {
    "postal": "M6K3Z6",
    "result": []
  },
  {
    "postal": "M6K3B0",
    "result": []
  },
  {
    "postal": "M6K2H8",
    "result": [
      {
        "electoralDistricts": [
          {
            "election": null,
            "id": 83,
            "name": "Parkdale—High Park"
          }
        ],
        "pollDivisionIds": [
          10126447
        ],
        "postalCode": "M6K2H8",
        "streetName": "STRICKLAND",
        "streetDirectionId": null,
        "streetTypeId": "AVE",
        "placeName": "TORONTO",
        "streetNameDisplayText": "STRICKLAND AVE, TORONTO"
      }
    ]
  },
  {
    "postal": "M6K3X2",
    "result": []
  },
  {
    "postal": "M6K2E9",
    "result": [
      {
        "electoralDistricts": [
          {
            "election": null,
            "id": 83,
            "name": "Parkdale—High Park"
          }
        ],
        "pollDivisionIds": [
          10126449
        ],
        "postalCode": "M6K2E9",
        "streetName": "TYNDALL",
        "streetDirectionId": null,
        "streetTypeId": "AVE",
        "placeName": "TORONTO",
        "streetNameDisplayText": "TYNDALL AVE, TORONTO"
      }
    ]
  },
  {
    "postal": "M6K9P6",
    "result": []
  },
  {
    "postal": "M6K9E2",
    "result": []
  },
  {
    "postal": "M6K9H2",
    "result": []
  },
  {
    "postal": "M6K1S8",
    "result": [
      {
        "electoralDistricts": [
          {
            "election": null,
            "id": 19,
            "name": "Davenport"
          }
        ],
        "pollDivisionIds": [
          10136104
        ],
        "postalCode": "M6K1S8",
        "streetName": "SHIRLEY",
        "streetDirectionId": null,
        "streetTypeId": "ST",
        "placeName": "TORONTO",
        "streetNameDisplayText": "SHIRLEY ST, TORONTO"
      }
    ]
  },
  {
    "postal": "M6K3M6",
    "result": [
      {
        "electoralDistricts": [
          {
            "election": null,
            "id": 101,
            "name": "Spadina—Fort York"
          }
        ],
        "pollDivisionIds": [
          10141956
        ],
        "postalCode": "M6K3M6",
        "streetName": "STRACHAN",
        "streetDirectionId": null,
        "streetTypeId": "AVE",
        "placeName": "TORONTO",
        "streetNameDisplayText": "STRACHAN AVE, TORONTO"
      }
    ]
  },
  {
    "postal": "M6K6Z8",
    "result": []
  },
  {
    "postal": "M6K4J2",
    "result": []
  },
  {
    "postal": "M6K9Y1",
    "result": []
  },
  {
    "postal": "M6K8V6",
    "result": []
  },
  {
    "postal": "M6K6B2",
    "result": []
  },
  {
    "postal": "M6K1P8",
    "result": [
      {
        "electoralDistricts": [
          {
            "election": null,
            "id": 19,
            "name": "Davenport"
          }
        ],
        "pollDivisionIds": [
          10136104
        ],
        "postalCode": "M6K1P8",
        "streetName": "MIDDLETON",
        "streetDirectionId": null,
        "streetTypeId": "ST",
        "placeName": "TORONTO",
        "streetNameDisplayText": "MIDDLETON ST, TORONTO"
      }
    ]
  },
  {
    "postal": "M6K0V8",
    "result": []
  },
  {
    "postal": "M6K4Y0",
    "result": []
  },
  {
    "postal": "M6K2T4",
    "result": [
      {
        "electoralDistricts": [
          {
            "election": null,
            "id": 83,
            "name": "Parkdale—High Park"
          }
        ],
        "pollDivisionIds": [
          10126478,
          10126445
        ],
        "postalCode": "M6K2T4",
        "streetName": "WEST LODGE",
        "streetDirectionId": null,
        "streetTypeId": "AVE",
        "placeName": "TORONTO",
        "streetNameDisplayText": "WEST LODGE AVE, TORONTO"
      }
    ]
  },
  {
    "postal": "M6K2S3",
    "result": [
      {
        "electoralDistricts": [
          {
            "election": null,
            "id": 19,
            "name": "Davenport"
          }
        ],
        "pollDivisionIds": [
          10136104
        ],
        "postalCode": "M6K2S3",
        "streetName": "SAINT CLARENS",
        "streetDirectionId": null,
        "streetTypeId": "AVE",
        "placeName": "TORONTO",
        "streetNameDisplayText": "SAINT CLARENS AVE, TORONTO"
      },
      {
        "electoralDistricts": [
          {
            "election": null,
            "id": 19,
            "name": "Davenport"
          }
        ],
        "pollDivisionIds": [
          10136104
        ],
        "postalCode": "M6K2S3",
        "streetName": "ST CLARENS",
        "streetDirectionId": null,
        "streetTypeId": "AVE",
        "placeName": "TORONTO",
        "streetNameDisplayText": "ST CLARENS AVE, TORONTO"
      }
    ]
  },
  {
    "postal": "M6K0K0",
    "result": []
  },
  {
    "postal": "M6K5N1",
    "result": []
  },
  {
    "postal": "M6K7T0",
    "result": []
  },
  {
    "postal": "M6K9N2",
    "result": []
  },
  {
    "postal": "M6K5L1",
    "result": []
  },
  {
    "postal": "M6K7G5",
    "result": []
  },
  {
    "postal": "M6K6K2",
    "result": []
  },
  {
    "postal": "M6K6P9",
    "result": []
  },
  {
    "postal": "M6K0E6",
    "result": []
  },
  {
    "postal": "M6K8R9",
    "result": []
  },
  {
    "postal": "M6K3G9",
    "result": [
      {
        "electoralDistricts": [
          {
            "election": null,
            "id": 101,
            "name": "Spadina—Fort York"
          }
        ],
        "pollDivisionIds": [
          10141956
        ],
        "postalCode": "M6K3G9",
        "streetName": "KING",
        "streetDirectionId": "W",
        "streetTypeId": "ST",
        "placeName": "TORONTO",
        "streetNameDisplayText": "KING ST W, TORONTO"
      }
    ]
  },
  {
    "postal": "M6K0V7",
    "result": []
  },
  {
    "postal": "M6K2Z1",
    "result": [
      {
        "electoralDistricts": [
          {
            "election": null,
            "id": 83,
            "name": "Parkdale—High Park"
          }
        ],
        "pollDivisionIds": [
          10126446
        ],
        "postalCode": "M6K2Z1",
        "streetName": "JAMESON",
        "streetDirectionId": null,
        "streetTypeId": "AVE",
        "placeName": "TORONTO",
        "streetNameDisplayText": "JAMESON AVE, TORONTO"
      }
    ]
  },
  {
    "postal": "M6K7N1",
    "result": []
  },
  {
    "postal": "M6K3C6",
    "result": [
      {
        "electoralDistricts": [
          {
            "election": null,
            "id": 19,
            "name": "Davenport"
          }
        ],
        "pollDivisionIds": [
          10136104
        ],
        "postalCode": "M6K3C6",
        "streetName": "LANSDOWNE",
        "streetDirectionId": null,
        "streetTypeId": "AVE",
        "placeName": "TORONTO",
        "streetNameDisplayText": "LANSDOWNE AVE, TORONTO"
      }
    ]
  },
  {
    "postal": "M6K4M1",
    "result": []
  },
  {
    "postal": "M6K9K2",
    "result": []
  },
  {
    "postal": "M6K9S6",
    "result": []
  },
  {
    "postal": "M6K4X1",
    "result": []
  },
  {
    "postal": "M6K8W2",
    "result": []
  },
  {
    "postal": "M6K7N2",
    "result": []
  },
  {
    "postal": "M6K8S3",
    "result": []
  },
  {
    "postal": "M6K4V0",
    "result": []
  },
  {
    "postal": "M6K6W4",
    "result": []
  },
  {
    "postal": "M6K5M1",
    "result": []
  },
  {
    "postal": "M6K0S4",
    "result": []
  },
  {
    "postal": "M6K5X6",
    "result": []
  },
  {
    "postal": "M6K8L5",
    "result": []
  },
  {
    "postal": "M6K5M8",
    "result": []
  },
  {
    "postal": "M6K2G3",
    "result": [
      {
        "electoralDistricts": [
          {
            "election": null,
            "id": 83,
            "name": "Parkdale—High Park"
          }
        ],
        "pollDivisionIds": [
          10126480
        ],
        "postalCode": "M6K2G3",
        "streetName": "TYNDALL",
        "streetDirectionId": null,
        "streetTypeId": "AVE",
        "placeName": "TORONTO",
        "streetNameDisplayText": "TYNDALL AVE, TORONTO"
      }
    ]
  },
  {
    "postal": "M6K8E4",
    "result": []
  },
  {
    "postal": "M6K7S9",
    "result": []
  },
  {
    "postal": "M6K1K3",
    "result": [
      {
        "electoralDistricts": [
          {
            "election": null,
            "id": 83,
            "name": "Parkdale—High Park"
          }
        ],
        "pollDivisionIds": [
          10126447
        ],
        "postalCode": "M6K1K3",
        "streetName": "MELBOURNE",
        "streetDirectionId": null,
        "streetTypeId": "AVE",
        "placeName": "TORONTO",
        "streetNameDisplayText": "MELBOURNE AVE, TORONTO"
      }
    ]
  },
  {
    "postal": "M6K4E1",
    "result": []
  },
  {
    "postal": "M6K4R2",
    "result": []
  },
  {
    "postal": "M6K6T0",
    "result": []
  },
  {
    "postal": "M6K3K5",
    "result": [
      {
        "electoralDistricts": [
          {
            "election": null,
            "id": 83,
            "name": "Parkdale—High Park"
          }
        ],
        "pollDivisionIds": [
          10126491
        ],
        "postalCode": "M6K3K5",
        "streetName": "KING",
        "streetDirectionId": "W",
        "streetTypeId": "ST",
        "placeName": "TORONTO",
        "streetNameDisplayText": "KING ST W, TORONTO"
      }
    ]
  },
  {
    "postal": "M6K3S3",
    "result": [
      {
        "electoralDistricts": [
          {
            "election": null,
            "id": 101,
            "name": "Spadina—Fort York"
          }
        ],
        "pollDivisionIds": [
          10141953
        ],
        "postalCode": "M6K3S3",
        "streetName": "HANNA",
        "streetDirectionId": null,
        "streetTypeId": "AVE",
        "placeName": "TORONTO",
        "streetNameDisplayText": "HANNA AVE, TORONTO"
      }
    ]
  },
  {
    "postal": "M6K3L4",
    "result": [
      {
        "electoralDistricts": [
          {
            "election": null,
            "id": 83,
            "name": "Parkdale—High Park"
          }
        ],
        "pollDivisionIds": [
          10126447
        ],
        "postalCode": "M6K3L4",
        "streetName": "MILKY",
        "streetDirectionId": null,
        "streetTypeId": "WAY",
        "placeName": "TORONTO",
        "streetNameDisplayText": "MILKY WAY, TORONTO"
      }
    ]
  },
  {
    "postal": "M6K9Y2",
    "result": []
  },
  {
    "postal": "M6K1E0",
    "result": []
  },
  {
    "postal": "M6K9A4",
    "result": []
  },
  {
    "postal": "M6K1L3",
    "result": [
      {
        "electoralDistricts": [
          {
            "election": null,
            "id": 83,
            "name": "Parkdale—High Park"
          }
        ],
        "pollDivisionIds": [
          10126447
        ],
        "postalCode": "M6K1L3",
        "streetName": "QUEEN",
        "streetDirectionId": "W",
        "streetTypeId": "ST",
        "placeName": "TORONTO",
        "streetNameDisplayText": "QUEEN ST W, TORONTO"
      }
    ]
  },
  {
    "postal": "M6K6N1",
    "result": []
  },
  {
    "postal": "M6K6G7",
    "result": []
  },
  {
    "postal": "M6K7W1",
    "result": []
  },
  {
    "postal": "M6K4M6",
    "result": []
  },
  {
    "postal": "M6K1K0",
    "result": []
  },
  {
    "postal": "M6K3E2",
    "result": []
  },
  {
    "postal": "M6K5H4",
    "result": []
  },
  {
    "postal": "M6K1K7",
    "result": [
      {
        "electoralDistricts": [
          {
            "election": null,
            "id": 83,
            "name": "Parkdale—High Park"
          }
        ],
        "pollDivisionIds": [
          10126447
        ],
        "postalCode": "M6K1K7",
        "streetName": "MELBOURNE",
        "streetDirectionId": null,
        "streetTypeId": "AVE",
        "placeName": "TORONTO",
        "streetNameDisplayText": "MELBOURNE AVE, TORONTO"
      }
    ]
  },
  {
    "postal": "M6K0H0",
    "result": []
  },
  {
    "postal": "M6K0J3",
    "result": []
  },
  {
    "postal": "M6K1X6",
    "result": []
  },
  {
    "postal": "M6K2Z6",
    "result": [
      {
        "electoralDistricts": [
          {
            "election": null,
            "id": 83,
            "name": "Parkdale—High Park"
          }
        ],
        "pollDivisionIds": [
          10126446
        ],
        "postalCode": "M6K2Z6",
        "streetName": "JAMESON",
        "streetDirectionId": null,
        "streetTypeId": "AVE",
        "placeName": "TORONTO",
        "streetNameDisplayText": "JAMESON AVE, TORONTO"
      }
    ]
  },
  {
    "postal": "M6K4R9",
    "result": []
  },
  {
    "postal": "M6K0W8",
    "result": []
  },
  {
    "postal": "M6K1L4",
    "result": [
      {
        "electoralDistricts": [
          {
            "election": null,
            "id": 83,
            "name": "Parkdale—High Park"
          }
        ],
        "pollDivisionIds": [
          10126447
        ],
        "postalCode": "M6K1L4",
        "streetName": "QUEEN",
        "streetDirectionId": "W",
        "streetTypeId": "ST",
        "placeName": "TORONTO",
        "streetNameDisplayText": "QUEEN ST W, TORONTO"
      }
    ]
  },
  {
    "postal": "M6K0C8",
    "result": [
      {
        "electoralDistricts": [
          {
            "election": null,
            "id": 101,
            "name": "Spadina—Fort York"
          }
        ],
        "pollDivisionIds": [
          10141964
        ],
        "postalCode": "M6K0C8",
        "streetName": "ORDNANCE",
        "streetDirectionId": null,
        "streetTypeId": "ST",
        "placeName": "TORONTO",
        "streetNameDisplayText": "ORDNANCE ST, TORONTO"
      }
    ]
  },
  {
    "postal": "M6K9X7",
    "result": []
  },
  {
    "postal": "M6K4T1",
    "result": []
  },
  {
    "postal": "M6K0M0",
    "result": []
  },
  {
    "postal": "M6K6A2",
    "result": []
  },
  {
    "postal": "M6K9S8",
    "result": []
  },
  {
    "postal": "M6K9T4",
    "result": []
  },
  {
    "postal": "M6K9Y4",
    "result": []
  },
  {
    "postal": "M6K6G5",
    "result": []
  },
  {
    "postal": "M6K6H9",
    "result": []
  },
  {
    "postal": "M6K2P3",
    "result": [
      {
        "electoralDistricts": [
          {
            "election": null,
            "id": 19,
            "name": "Davenport"
          }
        ],
        "pollDivisionIds": [
          10136104
        ],
        "postalCode": "M6K2P3",
        "streetName": "MARGUERETTA",
        "streetDirectionId": null,
        "streetTypeId": "ST",
        "placeName": "TORONTO",
        "streetNameDisplayText": "MARGUERETTA ST, TORONTO"
      }
    ]
  },
  {
    "postal": "M6K1T6",
    "result": [
      {
        "electoralDistricts": [
          {
            "election": null,
            "id": 19,
            "name": "Davenport"
          }
        ],
        "pollDivisionIds": [
          10136104
        ],
        "postalCode": "M6K1T6",
        "streetName": "DUNDAS",
        "streetDirectionId": "W",
        "streetTypeId": "ST",
        "placeName": "TORONTO",
        "streetNameDisplayText": "DUNDAS ST W, TORONTO"
      }
    ]
  },
  {
    "postal": "M6K4P6",
    "result": []
  },
  {
    "postal": "M6K3K1",
    "result": []
  },
  {
    "postal": "M6K6X4",
    "result": []
  },
  {
    "postal": "M6K4M8",
    "result": []
  },
  {
    "postal": "M6K2Y1",
    "result": [
      {
        "electoralDistricts": [
          {
            "election": null,
            "id": 83,
            "name": "Parkdale—High Park"
          }
        ],
        "pollDivisionIds": [
          10126448
        ],
        "postalCode": "M6K2Y1",
        "streetName": "JAMESON",
        "streetDirectionId": null,
        "streetTypeId": "AVE",
        "placeName": "TORONTO",
        "streetNameDisplayText": "JAMESON AVE, TORONTO"
      }
    ]
  },
  {
    "postal": "M6K6M1",
    "result": []
  },
  {
    "postal": "M6K5L8",
    "result": []
  },
  {
    "postal": "M6K3P6",
    "result": [
      {
        "electoralDistricts": [
          {
            "election": null,
            "id": 101,
            "name": "Spadina—Fort York"
          }
        ],
        "pollDivisionIds": [
          10141953
        ],
        "postalCode": "M6K3P6",
        "streetName": "EAST LIBERTY",
        "streetDirectionId": null,
        "streetTypeId": "ST",
        "placeName": "TORONTO",
        "streetNameDisplayText": "EAST LIBERTY ST, TORONTO"
      }
    ]
  },
  {
    "postal": "M6K9A5",
    "result": []
  },
  {
    "postal": "M6K7K1",
    "result": []
  },
  {
    "postal": "M6K3J4",
    "result": []
  },
  {
    "postal": "M6K5E7",
    "result": []
  },
  {
    "postal": "M6K3A7",
    "result": [
      {
        "electoralDistricts": [
          {
            "election": null,
            "id": 83,
            "name": "Parkdale—High Park"
          }
        ],
        "pollDivisionIds": [
          10126446
        ],
        "postalCode": "M6K3A7",
        "streetName": "DOWLING",
        "streetDirectionId": null,
        "streetTypeId": "AVE",
        "placeName": "TORONTO",
        "streetNameDisplayText": "DOWLING AVE, TORONTO"
      }
    ]
  },
  {
    "postal": "M6K1B9",
    "result": [
      {
        "electoralDistricts": [
          {
            "election": null,
            "id": 83,
            "name": "Parkdale—High Park"
          }
        ],
        "pollDivisionIds": [
          10126449,
          10126448
        ],
        "postalCode": "M6K1B9",
        "streetName": "SPRINGHURST",
        "streetDirectionId": null,
        "streetTypeId": "AVE",
        "placeName": "TORONTO",
        "streetNameDisplayText": "SPRINGHURST AVE, TORONTO"
      }
    ]
  },
  {
    "postal": "M6K9E8",
    "result": []
  },
  {
    "postal": "M6K1C9",
    "result": [
      {
        "electoralDistricts": [
          {
            "election": null,
            "id": 83,
            "name": "Parkdale—High Park"
          }
        ],
        "pollDivisionIds": [
          10126448
        ],
        "postalCode": "M6K1C9",
        "streetName": "GLENAVON",
        "streetDirectionId": null,
        "streetTypeId": "RD",
        "placeName": "TORONTO",
        "streetNameDisplayText": "GLENAVON RD, TORONTO"
      }
    ]
  },
  {
    "postal": "M6K3B5",
    "result": [
      {
        "electoralDistricts": [
          {
            "election": null,
            "id": 83,
            "name": "Parkdale—High Park"
          }
        ],
        "pollDivisionIds": [
          10140949
        ],
        "postalCode": "M6K3B5",
        "streetName": "WILSON PARK",
        "streetDirectionId": null,
        "streetTypeId": "RD",
        "placeName": "TORONTO",
        "streetNameDisplayText": "WILSON PARK RD, TORONTO"
      }
    ]
  },
  {
    "postal": "M6K8R0",
    "result": []
  },
  {
    "postal": "M6K3P2",
    "result": [
      {
        "electoralDistricts": [
          {
            "election": null,
            "id": 101,
            "name": "Spadina—Fort York"
          }
        ],
        "pollDivisionIds": [
          10141943,
          10141957
        ],
        "postalCode": "M6K3P2",
        "streetName": "EAST LIBERTY",
        "streetDirectionId": null,
        "streetTypeId": "ST",
        "placeName": "TORONTO",
        "streetNameDisplayText": "EAST LIBERTY ST, TORONTO"
      }
    ]
  },
  {
    "postal": "M6K5V4",
    "result": []
  },
  {
    "postal": "M6K4H0",
    "result": []
  },
  {
    "postal": "M6K4S7",
    "result": []
  },
  {
    "postal": "M6K6C2",
    "result": []
  },
  {
    "postal": "M6K8W3",
    "result": []
  },
  {
    "postal": "M6K4M5",
    "result": []
  },
  {
    "postal": "M6K5T1",
    "result": []
  },
  {
    "postal": "M6K3B3",
    "result": [
      {
        "electoralDistricts": [
          {
            "election": null,
            "id": 83,
            "name": "Parkdale—High Park"
          }
        ],
        "pollDivisionIds": [
          10126446
        ],
        "postalCode": "M6K3B3",
        "streetName": "BEATY",
        "streetDirectionId": null,
        "streetTypeId": "AVE",
        "placeName": "TORONTO",
        "streetNameDisplayText": "BEATY AVE, TORONTO"
      }
    ]
  },
  {
    "postal": "M6K6C6",
    "result": []
  },
  {
    "postal": "M6K7N8",
    "result": []
  },
  {
    "postal": "M6K2Y3",
    "result": [
      {
        "electoralDistricts": [
          {
            "election": null,
            "id": 83,
            "name": "Parkdale—High Park"
          }
        ],
        "pollDivisionIds": [
          10126446
        ],
        "postalCode": "M6K2Y3",
        "streetName": "JAMESON",
        "streetDirectionId": null,
        "streetTypeId": "AVE",
        "placeName": "TORONTO",
        "streetNameDisplayText": "JAMESON AVE, TORONTO"
      }
    ]
  },
  {
    "postal": "M6K2R6",
    "result": [
      {
        "electoralDistricts": [
          {
            "election": null,
            "id": 83,
            "name": "Parkdale—High Park"
          }
        ],
        "pollDivisionIds": [
          10126449,
          10126448,
          10126494,
          10126493
        ],
        "postalCode": "M6K2R6",
        "streetName": "DUNN",
        "streetDirectionId": null,
        "streetTypeId": "AVE",
        "placeName": "TORONTO",
        "streetNameDisplayText": "DUNN AVE, TORONTO"
      }
    ]
  },
  {
    "postal": "M6K7N3",
    "result": []
  },
  {
    "postal": "M6K8J2",
    "result": []
  },
  {
    "postal": "M6K6A9",
    "result": []
  },
  {
    "postal": "M6K3V2",
    "result": []
  },
  {
    "postal": "M6K2N3",
    "result": [
      {
        "electoralDistricts": [
          {
            "election": null,
            "id": 83,
            "name": "Parkdale—High Park"
          }
        ],
        "pollDivisionIds": [
          10126449
        ],
        "postalCode": "M6K2N3",
        "streetName": "COWAN",
        "streetDirectionId": null,
        "streetTypeId": "AVE",
        "placeName": "TORONTO",
        "streetNameDisplayText": "COWAN AVE, TORONTO"
      }
    ]
  },
  {
    "postal": "M6K1S5",
    "result": [
      {
        "electoralDistricts": [
          {
            "election": null,
            "id": 19,
            "name": "Davenport"
          }
        ],
        "pollDivisionIds": [
          10136104
        ],
        "postalCode": "M6K1S5",
        "streetName": "BROCKTON",
        "streetDirectionId": null,
        "streetTypeId": "AVE",
        "placeName": "TORONTO",
        "streetNameDisplayText": "BROCKTON AVE, TORONTO"
      }
    ]
  },
  {
    "postal": "M6K4T7",
    "result": []
  },
  {
    "postal": "M6K6Y7",
    "result": []
  },
  {
    "postal": "M6K0W7",
    "result": []
  },
  {
    "postal": "M6K2W9",
    "result": [
      {
        "electoralDistricts": [
          {
            "election": null,
            "id": 83,
            "name": "Parkdale—High Park"
          }
        ],
        "pollDivisionIds": [
          10126446,
          10126448
        ],
        "postalCode": "M6K2W9",
        "streetName": "JAMESON",
        "streetDirectionId": null,
        "streetTypeId": "AVE",
        "placeName": "TORONTO",
        "streetNameDisplayText": "JAMESON AVE, TORONTO"
      }
    ]
  },
  {
    "postal": "M6K8V0",
    "result": []
  },
  {
    "postal": "M6K0H4",
    "result": []
  },
  {
    "postal": "M6K2T1",
    "result": []
  },
  {
    "postal": "M6K1B1",
    "result": [
      {
        "electoralDistricts": [
          {
            "election": null,
            "id": 83,
            "name": "Parkdale—High Park"
          }
        ],
        "pollDivisionIds": [
          10126449
        ],
        "postalCode": "M6K1B1",
        "streetName": "SPRINGHURST",
        "streetDirectionId": null,
        "streetTypeId": "AVE",
        "placeName": "TORONTO",
        "streetNameDisplayText": "SPRINGHURST AVE, TORONTO"
      }
    ]
  },
  {
    "postal": "M6K8B6",
    "result": []
  },
  {
    "postal": "M6K6H1",
    "result": []
  },
  {
    "postal": "M6K8T8",
    "result": []
  },
  {
    "postal": "M6K0T4",
    "result": []
  },
  {
    "postal": "M6K2C4",
    "result": [
      {
        "electoralDistricts": [
          {
            "election": null,
            "id": 83,
            "name": "Parkdale—High Park"
          }
        ],
        "pollDivisionIds": [
          10126447
        ],
        "postalCode": "M6K2C4",
        "streetName": "GWYNNE",
        "streetDirectionId": null,
        "streetTypeId": "AVE",
        "placeName": "TORONTO",
        "streetNameDisplayText": "GWYNNE AVE, TORONTO"
      }
    ]
  },
  {
    "postal": "M6K8N3",
    "result": []
  },
  {
    "postal": "M6K4L8",
    "result": []
  },
  {
    "postal": "M6K2B5",
    "result": [
      {
        "electoralDistricts": [
          {
            "election": null,
            "id": 19,
            "name": "Davenport"
          }
        ],
        "pollDivisionIds": [
          10136099
        ],
        "postalCode": "M6K2B5",
        "streetName": "DUFFERIN",
        "streetDirectionId": null,
        "streetTypeId": "ST",
        "placeName": "TORONTO",
        "streetNameDisplayText": "DUFFERIN ST, TORONTO"
      }
    ]
  },
  {
    "postal": "M6K3H1",
    "result": [
      {
        "electoralDistricts": [
          {
            "election": null,
            "id": 101,
            "name": "Spadina—Fort York"
          }
        ],
        "pollDivisionIds": [
          10141953
        ],
        "postalCode": "M6K3H1",
        "streetName": "PARDEE",
        "streetDirectionId": null,
        "streetTypeId": "AVE",
        "placeName": "TORONTO",
        "streetNameDisplayText": "PARDEE AVE, TORONTO"
      }
    ]
  },
  {
    "postal": "M6K4Y1",
    "result": []
  },
  {
    "postal": "M6K7E2",
    "result": []
  },
  {
    "postal": "M6K2P5",
    "result": [
      {
        "electoralDistricts": [
          {
            "election": null,
            "id": 19,
            "name": "Davenport"
          }
        ],
        "pollDivisionIds": [
          10136099
        ],
        "postalCode": "M6K2P5",
        "streetName": "MARGUERETTA",
        "streetDirectionId": null,
        "streetTypeId": "ST",
        "placeName": "TORONTO",
        "streetNameDisplayText": "MARGUERETTA ST, TORONTO"
      }
    ]
  },
  {
    "postal": "M6K8R7",
    "result": []
  },
  {
    "postal": "M6K9P1",
    "result": []
  },
  {
    "postal": "M6K3B8",
    "result": [
      {
        "electoralDistricts": [
          {
            "election": null,
            "id": 83,
            "name": "Parkdale—High Park"
          }
        ],
        "pollDivisionIds": [
          10140949
        ],
        "postalCode": "M6K3B8",
        "streetName": "TRILLER",
        "streetDirectionId": null,
        "streetTypeId": "AVE",
        "placeName": "TORONTO",
        "streetNameDisplayText": "TRILLER AVE, TORONTO"
      }
    ]
  },
  {
    "postal": "M6K3P7",
    "result": []
  },
  {
    "postal": "M6K9B2",
    "result": []
  },
  {
    "postal": "M6K6Z3",
    "result": []
  },
  {
    "postal": "M6K4N5",
    "result": []
  },
  {
    "postal": "M6K8T3",
    "result": []
  },
  {
    "postal": "M6K1V2",
    "result": [
      {
        "electoralDistricts": [
          {
            "election": null,
            "id": 19,
            "name": "Davenport"
          }
        ],
        "pollDivisionIds": [
          10136104,
          10136099
        ],
        "postalCode": "M6K1V2",
        "streetName": "DUNDAS",
        "streetDirectionId": "W",
        "streetTypeId": "ST",
        "placeName": "TORONTO",
        "streetNameDisplayText": "DUNDAS ST W, TORONTO"
      }
    ]
  },
  {
    "postal": "M6K1Y0",
    "result": []
  },
  {
    "postal": "M6K3G6",
    "result": [
      {
        "electoralDistricts": [
          {
            "election": null,
            "id": 19,
            "name": "Davenport"
          }
        ],
        "pollDivisionIds": [
          10136099
        ],
        "postalCode": "M6K3G6",
        "streetName": "BOLAND",
        "streetDirectionId": null,
        "streetTypeId": "LANE",
        "placeName": "TORONTO",
        "streetNameDisplayText": "BOLAND LANE, TORONTO"
      }
    ]
  },
  {
    "postal": "M6K3H7",
    "result": [
      {
        "electoralDistricts": [
          {
            "election": null,
            "id": 101,
            "name": "Spadina—Fort York"
          }
        ],
        "pollDivisionIds": [
          10141953
        ],
        "postalCode": "M6K3H7",
        "streetName": "DUFFERIN",
        "streetDirectionId": null,
        "streetTypeId": "ST",
        "placeName": "TORONTO",
        "streetNameDisplayText": "DUFFERIN ST, TORONTO"
      }
    ]
  },
  {
    "postal": "M6K7X8",
    "result": []
  },
  {
    "postal": "M6K0C7",
    "result": []
  },
  {
    "postal": "M6K0W9",
    "result": []
  },
  {
    "postal": "M6K8E6",
    "result": []
  },
  {
    "postal": "M6K9Z8",
    "result": []
  },
  {
    "postal": "M6K3P4",
    "result": [
      {
        "electoralDistricts": [
          {
            "election": null,
            "id": 101,
            "name": "Spadina—Fort York"
          }
        ],
        "pollDivisionIds": [
          10141953
        ],
        "postalCode": "M6K3P4",
        "streetName": "PIRANDELLO",
        "streetDirectionId": null,
        "streetTypeId": "ST",
        "placeName": "TORONTO",
        "streetNameDisplayText": "PIRANDELLO ST, TORONTO"
      }
    ]
  },
  {
    "postal": "M6K6L8",
    "result": []
  },
  {
    "postal": "M6K2R4",
    "result": [
      {
        "electoralDistricts": [
          {
            "election": null,
            "id": 83,
            "name": "Parkdale—High Park"
          }
        ],
        "pollDivisionIds": [
          10126445
        ],
        "postalCode": "M6K2R4",
        "streetName": "O'HARA",
        "streetDirectionId": null,
        "streetTypeId": "AVE",
        "placeName": "TORONTO",
        "streetNameDisplayText": "O'HARA AVE, TORONTO"
      }
    ]
  },
  {
    "postal": "M6K2W1",
    "result": [
      {
        "electoralDistricts": [
          {
            "election": null,
            "id": 83,
            "name": "Parkdale—High Park"
          }
        ],
        "pollDivisionIds": [
          10126424
        ],
        "postalCode": "M6K2W1",
        "streetName": "LANDSDOWNE",
        "streetDirectionId": null,
        "streetTypeId": "AVE",
        "placeName": "TORONTO",
        "streetNameDisplayText": "LANDSDOWNE AVE, TORONTO"
      },
      {
        "electoralDistricts": [
          {
            "election": null,
            "id": 83,
            "name": "Parkdale—High Park"
          }
        ],
        "pollDivisionIds": [
          10126445
        ],
        "postalCode": "M6K2W1",
        "streetName": "LANSDOWNE",
        "streetDirectionId": null,
        "streetTypeId": "AVE",
        "placeName": "TORONTO",
        "streetNameDisplayText": "LANSDOWNE AVE, TORONTO"
      }
    ]
  },
  {
    "postal": "M6K9H8",
    "result": []
  },
  {
    "postal": "M6K8X9",
    "result": []
  },
  {
    "postal": "M6K7H4",
    "result": []
  },
  {
    "postal": "M6K3J1",
    "result": [
      {
        "electoralDistricts": [
          {
            "election": null,
            "id": 101,
            "name": "Spadina—Fort York"
          }
        ],
        "pollDivisionIds": [
          10141953
        ],
        "postalCode": "M6K3J1",
        "streetName": "DUFFERIN",
        "streetDirectionId": null,
        "streetTypeId": "ST",
        "placeName": "TORONTO",
        "streetNameDisplayText": "DUFFERIN ST, TORONTO"
      }
    ]
  },
  {
    "postal": "M6K1P4",
    "result": [
      {
        "electoralDistricts": [
          {
            "election": null,
            "id": 19,
            "name": "Davenport"
          }
        ],
        "pollDivisionIds": [
          10136104
        ],
        "postalCode": "M6K1P4",
        "streetName": "FLORENCE",
        "streetDirectionId": null,
        "streetTypeId": "ST",
        "placeName": "TORONTO",
        "streetNameDisplayText": "FLORENCE ST, TORONTO"
      }
    ]
  },
  {
    "postal": "M6K2A3",
    "result": [
      {
        "electoralDistricts": [
          {
            "election": null,
            "id": 19,
            "name": "Davenport"
          }
        ],
        "pollDivisionIds": [
          10136104
        ],
        "postalCode": "M6K2A3",
        "streetName": "DUFFERIN",
        "streetDirectionId": null,
        "streetTypeId": "ST",
        "placeName": "TORONTO",
        "streetNameDisplayText": "DUFFERIN ST, TORONTO"
      }
    ]
  },
  {
    "postal": "M6K0Z1",
    "result": []
  },
  {
    "postal": "M6K1C1",
    "result": [
      {
        "electoralDistricts": [
          {
            "election": null,
            "id": 83,
            "name": "Parkdale—High Park"
          }
        ],
        "pollDivisionIds": [
          10126448
        ],
        "postalCode": "M6K1C1",
        "streetName": "SPRINGHURST",
        "streetDirectionId": null,
        "streetTypeId": "AVE",
        "placeName": "TORONTO",
        "streetNameDisplayText": "SPRINGHURST AVE, TORONTO"
      }
    ]
  },
  {
    "postal": "M6K0H3",
    "result": []
  },
  {
    "postal": "M6K7B0",
    "result": []
  },
  {
    "postal": "M6K5K2",
    "result": []
  },
  {
    "postal": "M6K1E9",
    "result": [
      {
        "electoralDistricts": [
          {
            "election": null,
            "id": 101,
            "name": "Spadina—Fort York"
          }
        ],
        "pollDivisionIds": [
          10141953
        ],
        "postalCode": "M6K1E9",
        "streetName": "KING",
        "streetDirectionId": "W",
        "streetTypeId": "ST",
        "placeName": "TORONTO",
        "streetNameDisplayText": "KING ST W, TORONTO"
      }
    ]
  },
  {
    "postal": "M6K9W7",
    "result": []
  },
  {
    "postal": "M6K5W6",
    "result": []
  },
  {
    "postal": "M6K6S6",
    "result": []
  },
  {
    "postal": "M6K2P8",
    "result": [
      {
        "electoralDistricts": [
          {
            "election": null,
            "id": 83,
            "name": "Parkdale—High Park"
          }
        ],
        "pollDivisionIds": [
          10126445
        ],
        "postalCode": "M6K2P8",
        "streetName": "O'HARA",
        "streetDirectionId": null,
        "streetTypeId": "AVE",
        "placeName": "TORONTO",
        "streetNameDisplayText": "O'HARA AVE, TORONTO"
      }
    ]
  },
  {
    "postal": "M6K4P8",
    "result": []
  },
  {
    "postal": "M6K0V9",
    "result": []
  },
  {
    "postal": "M6K5Y2",
    "result": []
  },
  {
    "postal": "M6K7Z7",
    "result": []
  },
  {
    "postal": "M6K6Y8",
    "result": []
  },
  {
    "postal": "M6K2G7",
    "result": [
      {
        "electoralDistricts": [
          {
            "election": null,
            "id": 19,
            "name": "Davenport"
          }
        ],
        "pollDivisionIds": [
          10136104
        ],
        "postalCode": "M6K2G7",
        "streetName": "SHERIDAN",
        "streetDirectionId": null,
        "streetTypeId": "AVE",
        "placeName": "TORONTO",
        "streetNameDisplayText": "SHERIDAN AVE, TORONTO"
      }
    ]
  },
  {
    "postal": "M6K8C1",
    "result": []
  },
  {
    "postal": "M6K5C5",
    "result": []
  },
  {
    "postal": "M6K2X8",
    "result": [
      {
        "electoralDistricts": [
          {
            "election": null,
            "id": 83,
            "name": "Parkdale—High Park"
          }
        ],
        "pollDivisionIds": [
          10126448
        ],
        "postalCode": "M6K2X8",
        "streetName": "JAMESON",
        "streetDirectionId": null,
        "streetTypeId": "AVE",
        "placeName": "TORONTO",
        "streetNameDisplayText": "JAMESON AVE, TORONTO"
      }
    ]
  },
  {
    "postal": "M6K1W5",
    "result": [
      {
        "electoralDistricts": [
          {
            "election": null,
            "id": 19,
            "name": "Davenport"
          }
        ],
        "pollDivisionIds": [
          10136099
        ],
        "postalCode": "M6K1W5",
        "streetName": "MOUTRAY",
        "streetDirectionId": null,
        "streetTypeId": "ST",
        "placeName": "TORONTO",
        "streetNameDisplayText": "MOUTRAY ST, TORONTO"
      }
    ]
  },
  {
    "postal": "M6K7G0",
    "result": []
  },
  {
    "postal": "M6K8J8",
    "result": []
  },
  {
    "postal": "M6K3Y0",
    "result": []
  },
  {
    "postal": "M6K9T7",
    "result": []
  },
  {
    "postal": "M6K5P4",
    "result": []
  },
  {
    "postal": "M6K4B0",
    "result": []
  },
  {
    "postal": "M6K9N8",
    "result": []
  },
  {
    "postal": "M6K4A7",
    "result": []
  },
  {
    "postal": "M6K4H9",
    "result": []
  },
  {
    "postal": "M6K6X1",
    "result": []
  },
  {
    "postal": "M6K9Y7",
    "result": []
  },
  {
    "postal": "M6K2Y5",
    "result": [
      {
        "electoralDistricts": [
          {
            "election": null,
            "id": 83,
            "name": "Parkdale—High Park"
          }
        ],
        "pollDivisionIds": [
          10126446
        ],
        "postalCode": "M6K2Y5",
        "streetName": "JAMESON",
        "streetDirectionId": null,
        "streetTypeId": "AVE",
        "placeName": "TORONTO",
        "streetNameDisplayText": "JAMESON AVE, TORONTO"
      }
    ]
  },
  {
    "postal": "M6K8L7",
    "result": []
  },
  {
    "postal": "M6K2A8",
    "result": [
      {
        "electoralDistricts": [
          {
            "election": null,
            "id": 19,
            "name": "Davenport"
          }
        ],
        "pollDivisionIds": [
          10143812,
          10136103
        ],
        "postalCode": "M6K2A8",
        "streetName": "DUFFERIN",
        "streetDirectionId": null,
        "streetTypeId": "ST",
        "placeName": "TORONTO",
        "streetNameDisplayText": "DUFFERIN ST, TORONTO"
      }
    ]
  },
  {
    "postal": "M6K2K9",
    "result": [
      {
        "electoralDistricts": [
          {
            "election": null,
            "id": 83,
            "name": "Parkdale—High Park"
          }
        ],
        "pollDivisionIds": [
          10126447
        ],
        "postalCode": "M6K2K9",
        "streetName": "BROCK",
        "streetDirectionId": null,
        "streetTypeId": "AVE",
        "placeName": "TORONTO",
        "streetNameDisplayText": "BROCK AVE, TORONTO"
      }
    ]
  },
  {
    "postal": "M6K3E5",
    "result": [
      {
        "electoralDistricts": [
          {
            "election": null,
            "id": 83,
            "name": "Parkdale—High Park"
          }
        ],
        "pollDivisionIds": [
          10126447
        ],
        "postalCode": "M6K3E5",
        "streetName": "DUFFERIN",
        "streetDirectionId": null,
        "streetTypeId": "ST",
        "placeName": "TORONTO",
        "streetNameDisplayText": "DUFFERIN ST, TORONTO"
      }
    ]
  },
  {
    "postal": "M6K8N6",
    "result": []
  },
  {
    "postal": "M6K8J4",
    "result": []
  },
  {
    "postal": "M6K4R7",
    "result": []
  },
  {
    "postal": "M6K9K1",
    "result": []
  },
  {
    "postal": "M6K8E1",
    "result": []
  },
  {
    "postal": "M6K0R1",
    "result": []
  },
  {
    "postal": "M6K4J3",
    "result": []
  },
  {
    "postal": "M6K7E7",
    "result": []
  },
  {
    "postal": "M6K0J0",
    "result": []
  },
  {
    "postal": "M6K7R8",
    "result": []
  },
  {
    "postal": "M6K9X0",
    "result": []
  },
  {
    "postal": "M6K7P6",
    "result": []
  },
  {
    "postal": "M6K0R7",
    "result": []
  },
  {
    "postal": "M6K5W1",
    "result": []
  },
  {
    "postal": "M6K0K4",
    "result": []
  },
  {
    "postal": "M6K7N9",
    "result": []
  },
  {
    "postal": "M6K1N0",
    "result": []
  },
  {
    "postal": "M6K6P3",
    "result": []
  },
  {
    "postal": "M6K5A1",
    "result": []
  },
  {
    "postal": "M6K9M9",
    "result": []
  },
  {
    "postal": "M6K7T6",
    "result": []
  },
  {
    "postal": "M6K3X0",
    "result": []
  },
  {
    "postal": "M6K2T0",
    "result": []
  },
  {
    "postal": "M6K5X9",
    "result": []
  },
  {
    "postal": "M6K2R3",
    "result": [
      {
        "electoralDistricts": [
          {
            "election": null,
            "id": 83,
            "name": "Parkdale—High Park"
          },
          {
            "election": null,
            "id": 19,
            "name": "Davenport"
          }
        ],
        "pollDivisionIds": [
          10126447,
          10136082
        ],
        "postalCode": "M6K2R3",
        "streetName": "O'HARA",
        "streetDirectionId": null,
        "streetTypeId": "AVE",
        "placeName": "TORONTO",
        "streetNameDisplayText": "O'HARA AVE, TORONTO"
      }
    ]
  },
  {
    "postal": "M6K5N2",
    "result": []
  },
  {
    "postal": "M6K4Y7",
    "result": []
  },
  {
    "postal": "M6K7M0",
    "result": []
  },
  {
    "postal": "M6K8P3",
    "result": []
  },
  {
    "postal": "M6K3N3",
    "result": [
      {
        "electoralDistricts": [
          {
            "election": null,
            "id": 101,
            "name": "Spadina—Fort York"
          }
        ],
        "pollDivisionIds": [
          10141979,
          10141978
        ],
        "postalCode": "M6K3N3",
        "streetName": "KING",
        "streetDirectionId": "W",
        "streetTypeId": "ST",
        "placeName": "TORONTO",
        "streetNameDisplayText": "KING ST W, TORONTO"
      }
    ]
  },
  {
    "postal": "M6K7S3",
    "result": []
  },
  {
    "postal": "M6K3V9",
    "result": []
  },
  {
    "postal": "M6K9N7",
    "result": []
  },
  {
    "postal": "M6K0G4",
    "result": []
  },
  {
    "postal": "M6K2E2",
    "result": [
      {
        "electoralDistricts": [
          {
            "election": null,
            "id": 83,
            "name": "Parkdale—High Park"
          }
        ],
        "pollDivisionIds": [
          10126449,
          10126492
        ],
        "postalCode": "M6K2E2",
        "streetName": "TYNDALL",
        "streetDirectionId": null,
        "streetTypeId": "AVE",
        "placeName": "TORONTO",
        "streetNameDisplayText": "TYNDALL AVE, TORONTO"
      }
    ]
  },
  {
    "postal": "M6K7W8",
    "result": []
  },
  {
    "postal": "M6K7M5",
    "result": []
  },
  {
    "postal": "M6K5W8",
    "result": []
  },
  {
    "postal": "M6K5E5",
    "result": []
  },
  {
    "postal": "M6K1P9",
    "result": [
      {
        "electoralDistricts": [
          {
            "election": null,
            "id": 19,
            "name": "Davenport"
          }
        ],
        "pollDivisionIds": [
          10136104
        ],
        "postalCode": "M6K1P9",
        "streetName": "DELANEY",
        "streetDirectionId": null,
        "streetTypeId": "CRES",
        "placeName": "TORONTO",
        "streetNameDisplayText": "DELANEY CRES, TORONTO"
      }
    ]
  },
  {
    "postal": "M6K8V8",
    "result": []
  },
  {
    "postal": "M6K9G8",
    "result": []
  },
  {
    "postal": "M6K8H9",
    "result": []
  },
  {
    "postal": "M6K1Z1",
    "result": []
  },
  {
    "postal": "M6K8M3",
    "result": []
  },
  {
    "postal": "M6K5H6",
    "result": []
  },
  {
    "postal": "M6K7W7",
    "result": []
  },
  {
    "postal": "M6K4L0",
    "result": []
  },
  {
    "postal": "M6K2N1",
    "result": [
      {
        "electoralDistricts": [
          {
            "election": null,
            "id": 83,
            "name": "Parkdale—High Park"
          }
        ],
        "pollDivisionIds": [
          10126449
        ],
        "postalCode": "M6K2N1",
        "streetName": "COWAN",
        "streetDirectionId": null,
        "streetTypeId": "AVE",
        "placeName": "TORONTO",
        "streetNameDisplayText": "COWAN AVE, TORONTO"
      }
    ]
  },
  {
    "postal": "M6K2H4",
    "result": [
      {
        "electoralDistricts": [
          {
            "election": null,
            "id": 19,
            "name": "Davenport"
          }
        ],
        "pollDivisionIds": [
          10136104
        ],
        "postalCode": "M6K2H4",
        "streetName": "SHERIDAN",
        "streetDirectionId": null,
        "streetTypeId": "AVE",
        "placeName": "TORONTO",
        "streetNameDisplayText": "SHERIDAN AVE, TORONTO"
      }
    ]
  },
  {
    "postal": "M6K5C8",
    "result": []
  },
  {
    "postal": "M6K8B0",
    "result": []
  },
  {
    "postal": "M6K1T4",
    "result": [
      {
        "electoralDistricts": [
          {
            "election": null,
            "id": 19,
            "name": "Davenport"
          }
        ],
        "pollDivisionIds": [
          10136104
        ],
        "postalCode": "M6K1T4",
        "streetName": "HICKSON",
        "streetDirectionId": null,
        "streetTypeId": "ST",
        "placeName": "TORONTO",
        "streetNameDisplayText": "HICKSON ST, TORONTO"
      }
    ]
  },
  {
    "postal": "M6K7N7",
    "result": []
  },
  {
    "postal": "M6K4L3",
    "result": []
  },
  {
    "postal": "M6K2N2",
    "result": [
      {
        "electoralDistricts": [
          {
            "election": null,
            "id": 83,
            "name": "Parkdale—High Park"
          }
        ],
        "pollDivisionIds": [
          10126449
        ],
        "postalCode": "M6K2N2",
        "streetName": "COWAN",
        "streetDirectionId": null,
        "streetTypeId": "AVE",
        "placeName": "TORONTO",
        "streetNameDisplayText": "COWAN AVE, TORONTO"
      }
    ]
  },
  {
    "postal": "M6K4N8",
    "result": []
  },
  {
    "postal": "M6K3M5",
    "result": [
      {
        "electoralDistricts": [
          {
            "election": null,
            "id": 101,
            "name": "Spadina—Fort York"
          }
        ],
        "pollDivisionIds": [
          10141956
        ],
        "postalCode": "M6K3M5",
        "streetName": "CANNIFF",
        "streetDirectionId": null,
        "streetTypeId": "ST",
        "placeName": "TORONTO",
        "streetNameDisplayText": "CANNIFF ST, TORONTO"
      }
    ]
  },
  {
    "postal": "M6K6H7",
    "result": []
  },
  {
    "postal": "M6K8Y8",
    "result": []
  },
  {
    "postal": "M6K5R9",
    "result": []
  },
  {
    "postal": "M6K8G3",
    "result": []
  },
  {
    "postal": "M6K4N7",
    "result": []
  },
  {
    "postal": "M6K0B9",
    "result": [
      {
        "electoralDistricts": [
          {
            "election": null,
            "id": 83,
            "name": "Parkdale—High Park"
          }
        ],
        "pollDivisionIds": [
          10126447
        ],
        "postalCode": "M6K0B9",
        "streetName": "QUEEN",
        "streetDirectionId": "W",
        "streetTypeId": "ST",
        "placeName": "TORONTO",
        "streetNameDisplayText": "QUEEN ST W, TORONTO"
      }
    ]
  },
  {
    "postal": "M6K9K7",
    "result": []
  },
  {
    "postal": "M6K9K9",
    "result": []
  },
  {
    "postal": "M6K3Z2",
    "result": []
  },
  {
    "postal": "M6K6W7",
    "result": []
  },
  {
    "postal": "M6K0P1",
    "result": []
  },
  {
    "postal": "M6K3A0",
    "result": []
  },
  {
    "postal": "M6K8L9",
    "result": []
  },
  {
    "postal": "M6K6X0",
    "result": []
  },
  {
    "postal": "M6K3E9",
    "result": [
      {
        "electoralDistricts": [
          {
            "election": null,
            "id": 101,
            "name": "Spadina—Fort York"
          }
        ],
        "pollDivisionIds": [
          10141953
        ],
        "postalCode": "M6K3E9",
        "streetName": "MOWAT",
        "streetDirectionId": null,
        "streetTypeId": "AVE",
        "placeName": "TORONTO",
        "streetNameDisplayText": "MOWAT AVE, TORONTO"
      }
    ]
  },
  {
    "postal": "M6K0S5",
    "result": []
  },
  {
    "postal": "M6K1A2",
    "result": []
  },
  {
    "postal": "M6K5V8",
    "result": []
  },
  {
    "postal": "M6K8C5",
    "result": []
  },
  {
    "postal": "M6K6N0",
    "result": []
  },
  {
    "postal": "M6K9E6",
    "result": []
  },
  {
    "postal": "M6K5J7",
    "result": []
  },
  {
    "postal": "M6K2R2",
    "result": [
      {
        "electoralDistricts": [
          {
            "election": null,
            "id": 83,
            "name": "Parkdale—High Park"
          }
        ],
        "pollDivisionIds": [
          10126445
        ],
        "postalCode": "M6K2R2",
        "streetName": "O'HARA",
        "streetDirectionId": null,
        "streetTypeId": "AVE",
        "placeName": "TORONTO",
        "streetNameDisplayText": "O'HARA AVE, TORONTO"
      }
    ]
  },
  {
    "postal": "M6K0P5",
    "result": []
  },
  {
    "postal": "M6K5A7",
    "result": []
  },
  {
    "postal": "M6K1G1",
    "result": []
  },
  {
    "postal": "M6K9R6",
    "result": []
  },
  {
    "postal": "M6K4Z9",
    "result": []
  },
  {
    "postal": "M6K1V5",
    "result": [
      {
        "electoralDistricts": [
          {
            "election": null,
            "id": 19,
            "name": "Davenport"
          }
        ],
        "pollDivisionIds": [
          10136099
        ],
        "postalCode": "M6K1V5",
        "streetName": "DUNDAS",
        "streetDirectionId": "W",
        "streetTypeId": "ST",
        "placeName": "TORONTO",
        "streetNameDisplayText": "DUNDAS ST W, TORONTO"
      }
    ]
  },
  {
    "postal": "M6K9Y5",
    "result": []
  },
  {
    "postal": "M6K1P2",
    "result": [
      {
        "electoralDistricts": [
          {
            "election": null,
            "id": 83,
            "name": "Parkdale—High Park"
          }
        ],
        "pollDivisionIds": [
          10126445
        ],
        "postalCode": "M6K1P2",
        "streetName": "CUNNINGHAM",
        "streetDirectionId": null,
        "streetTypeId": "AVE",
        "placeName": "TORONTO",
        "streetNameDisplayText": "CUNNINGHAM AVE, TORONTO"
      }
    ]
  },
  {
    "postal": "M6K5X0",
    "result": []
  },
  {
    "postal": "M6K7B8",
    "result": []
  },
  {
    "postal": "M6K0C6",
    "result": [
      {
        "electoralDistricts": [
          {
            "election": null,
            "id": 101,
            "name": "Spadina—Fort York"
          }
        ],
        "pollDivisionIds": [
          10141949
        ],
        "postalCode": "M6K0C6",
        "streetName": "KING",
        "streetDirectionId": "W",
        "streetTypeId": "ST",
        "placeName": "TORONTO",
        "streetNameDisplayText": "KING ST W, TORONTO"
      }
    ]
  },
  {
    "postal": "M6K6G1",
    "result": []
  },
  {
    "postal": "M6K3K3",
    "result": []
  },
  {
    "postal": "M6K9R0",
    "result": []
  },
  {
    "postal": "M6K4R8",
    "result": []
  },
  {
    "postal": "M6K5P9",
    "result": []
  },
  {
    "postal": "M6K8N4",
    "result": []
  },
  {
    "postal": "M6K8H4",
    "result": []
  },
  {
    "postal": "M6K4V1",
    "result": []
  },
  {
    "postal": "M6K1K5",
    "result": [
      {
        "electoralDistricts": [
          {
            "election": null,
            "id": 83,
            "name": "Parkdale—High Park"
          }
        ],
        "pollDivisionIds": [
          10126447
        ],
        "postalCode": "M6K1K5",
        "streetName": "MELBOURNE",
        "streetDirectionId": null,
        "streetTypeId": "AVE",
        "placeName": "TORONTO",
        "streetNameDisplayText": "MELBOURNE AVE, TORONTO"
      }
    ]
  },
  {
    "postal": "M6K1Z5",
    "result": [
      {
        "electoralDistricts": [
          {
            "election": null,
            "id": 101,
            "name": "Spadina—Fort York"
          }
        ],
        "pollDivisionIds": [
          10141953
        ],
        "postalCode": "M6K1Z5",
        "streetName": "DUFFERIN",
        "streetDirectionId": null,
        "streetTypeId": "ST",
        "placeName": "TORONTO",
        "streetNameDisplayText": "DUFFERIN ST, TORONTO"
      }
    ]
  },
  {
    "postal": "M6K9L9",
    "result": []
  },
  {
    "postal": "M6K5L2",
    "result": []
  },
  {
    "postal": "M6K0M2",
    "result": []
  },
  {
    "postal": "M6K1K8",
    "result": [
      {
        "electoralDistricts": [
          {
            "election": null,
            "id": 83,
            "name": "Parkdale—High Park"
          }
        ],
        "pollDivisionIds": [
          10126446
        ],
        "postalCode": "M6K1K8",
        "streetName": "LAXTON",
        "streetDirectionId": null,
        "streetTypeId": "AVE",
        "placeName": "TORONTO",
        "streetNameDisplayText": "LAXTON AVE, TORONTO"
      }
    ]
  },
  {
    "postal": "M6K3M7",
    "result": []
  },
  {
    "postal": "M6K1B2",
    "result": [
      {
        "electoralDistricts": [
          {
            "election": null,
            "id": 83,
            "name": "Parkdale—High Park"
          }
        ],
        "pollDivisionIds": [
          10126449
        ],
        "postalCode": "M6K1B2",
        "streetName": "SPRINGHURST",
        "streetDirectionId": null,
        "streetTypeId": "AVE",
        "placeName": "TORONTO",
        "streetNameDisplayText": "SPRINGHURST AVE, TORONTO"
      }
    ]
  },
  {
    "postal": "M6K0H9",
    "result": []
  },
  {
    "postal": "M6K8M4",
    "result": []
  },
  {
    "postal": "M6K2M5",
    "result": [
      {
        "electoralDistricts": [
          {
            "election": null,
            "id": 19,
            "name": "Davenport"
          }
        ],
        "pollDivisionIds": [
          10136104
        ],
        "postalCode": "M6K2M5",
        "streetName": "BROCK",
        "streetDirectionId": null,
        "streetTypeId": "AVE",
        "placeName": "TORONTO",
        "streetNameDisplayText": "BROCK AVE, TORONTO"
      }
    ]
  },
  {
    "postal": "M6K0T9",
    "result": []
  },
  {
    "postal": "M6K3P1",
    "result": [
      {
        "electoralDistricts": [
          {
            "election": null,
            "id": 101,
            "name": "Spadina—Fort York"
          }
        ],
        "pollDivisionIds": [
          10141943
        ],
        "postalCode": "M6K3P1",
        "streetName": "WESTERM BATTERY",
        "streetDirectionId": null,
        "streetTypeId": "RD",
        "placeName": "TORONTO",
        "streetNameDisplayText": "WESTERM BATTERY RD, TORONTO"
      },
      {
        "electoralDistricts": [
          {
            "election": null,
            "id": 101,
            "name": "Spadina—Fort York"
          }
        ],
        "pollDivisionIds": [
          10141957
        ],
        "postalCode": "M6K3P1",
        "streetName": "WESTERN BATTERY",
        "streetDirectionId": null,
        "streetTypeId": "RD",
        "placeName": "TORONTO",
        "streetNameDisplayText": "WESTERN BATTERY RD, TORONTO"
      }
    ]
  },
  {
    "postal": "M6K1R6",
    "result": [
      {
        "electoralDistricts": [
          {
            "election": null,
            "id": 19,
            "name": "Davenport"
          }
        ],
        "pollDivisionIds": [
          10136104
        ],
        "postalCode": "M6K1R6",
        "streetName": "WYNDHAM",
        "streetDirectionId": null,
        "streetTypeId": "ST",
        "placeName": "TORONTO",
        "streetNameDisplayText": "WYNDHAM ST, TORONTO"
      }
    ]
  },
  {
    "postal": "M6K9V5",
    "result": []
  },
  {
    "postal": "M6K9T0",
    "result": []
  },
  {
    "postal": "M6K0A9",
    "result": []
  },
  {
    "postal": "M6K1M3",
    "result": [
      {
        "electoralDistricts": [
          {
            "election": null,
            "id": 83,
            "name": "Parkdale—High Park"
          }
        ],
        "pollDivisionIds": [
          10126449,
          10126445,
          10126446
        ],
        "postalCode": "M6K1M3",
        "streetName": "QUEEN",
        "streetDirectionId": "W",
        "streetTypeId": "ST",
        "placeName": "TORONTO",
        "streetNameDisplayText": "QUEEN ST W, TORONTO"
      }
    ]
  },
  {
    "postal": "M6K1W8",
    "result": [
      {
        "electoralDistricts": [
          {
            "election": null,
            "id": 101,
            "name": "Spadina—Fort York"
          }
        ],
        "pollDivisionIds": [
          10141953
        ],
        "postalCode": "M6K1W8",
        "streetName": "HANNA",
        "streetDirectionId": null,
        "streetTypeId": "AVE",
        "placeName": "TORONTO",
        "streetNameDisplayText": "HANNA AVE, TORONTO"
      }
    ]
  },
  {
    "postal": "M6K9J1",
    "result": []
  },
  {
    "postal": "M6K8N5",
    "result": []
  },
  {
    "postal": "M6K5X1",
    "result": []
  },
  {
    "postal": "M6K6S2",
    "result": []
  },
  {
    "postal": "M6K2A2",
    "result": [
      {
        "electoralDistricts": [
          {
            "election": null,
            "id": 19,
            "name": "Davenport"
          }
        ],
        "pollDivisionIds": [
          10143812
        ],
        "postalCode": "M6K2A2",
        "streetName": "DUFFERIN",
        "streetDirectionId": null,
        "streetTypeId": "ST",
        "placeName": "TORONTO",
        "streetNameDisplayText": "DUFFERIN ST, TORONTO"
      }
    ]
  },
  {
    "postal": "M6K6A6",
    "result": []
  },
  {
    "postal": "M6K0S3",
    "result": []
  },
  {
    "postal": "M6K3E7",
    "result": [
      {
        "electoralDistricts": [
          {
            "election": null,
            "id": 101,
            "name": "Spadina—Fort York"
          }
        ],
        "pollDivisionIds": [
          10141953
        ],
        "postalCode": "M6K3E7",
        "streetName": "ATLANTIC",
        "streetDirectionId": null,
        "streetTypeId": "AVE",
        "placeName": "TORONTO",
        "streetNameDisplayText": "ATLANTIC AVE, TORONTO"
      }
    ]
  },
  {
    "postal": "M6K5R7",
    "result": []
  },
  {
    "postal": "M6K3R6",
    "result": [
      {
        "electoralDistricts": [
          {
            "election": null,
            "id": 101,
            "name": "Spadina—Fort York"
          }
        ],
        "pollDivisionIds": [
          10141953
        ],
        "postalCode": "M6K3R6",
        "streetName": "LYNN WILLIAMS",
        "streetDirectionId": null,
        "streetTypeId": "ST",
        "placeName": "TORONTO",
        "streetNameDisplayText": "LYNN WILLIAMS ST, TORONTO"
      }
    ]
  },
  {
    "postal": "M6K6K4",
    "result": []
  },
  {
    "postal": "M6K2W5",
    "result": [
      {
        "electoralDistricts": [
          {
            "election": null,
            "id": 19,
            "name": "Davenport"
          }
        ],
        "pollDivisionIds": [
          10136099
        ],
        "postalCode": "M6K2W5",
        "streetName": "LANSDOWNE",
        "streetDirectionId": null,
        "streetTypeId": "AVE",
        "placeName": "TORONTO",
        "streetNameDisplayText": "LANSDOWNE AVE, TORONTO"
      }
    ]
  },
  {
    "postal": "M6K8W4",
    "result": []
  },
  {
    "postal": "M6K9C2",
    "result": []
  },
  {
    "postal": "M6K2C0",
    "result": []
  },
  {
    "postal": "M6K0E1",
    "result": []
  },
  {
    "postal": "M6K1K9",
    "result": [
      {
        "electoralDistricts": [
          {
            "election": null,
            "id": 83,
            "name": "Parkdale—High Park"
          }
        ],
        "pollDivisionIds": [
          10126446
        ],
        "postalCode": "M6K1K9",
        "streetName": "LAXTON",
        "streetDirectionId": null,
        "streetTypeId": "AVE",
        "placeName": "TORONTO",
        "streetNameDisplayText": "LAXTON AVE, TORONTO"
      }
    ]
  },
  {
    "postal": "M6K1G7",
    "result": [
      {
        "electoralDistricts": [
          {
            "election": null,
            "id": 83,
            "name": "Parkdale—High Park"
          }
        ],
        "pollDivisionIds": [
          10126449
        ],
        "postalCode": "M6K1G7",
        "streetName": "KING",
        "streetDirectionId": "W",
        "streetTypeId": "ST",
        "placeName": "TORONTO",
        "streetNameDisplayText": "KING ST W, TORONTO"
      }
    ]
  },
  {
    "postal": "M6K4E9",
    "result": []
  },
  {
    "postal": "M6K9P0",
    "result": []
  },
  {
    "postal": "M6K5H3",
    "result": []
  },
  {
    "postal": "M6K9X6",
    "result": []
  },
  {
    "postal": "M6K5N7",
    "result": []
  },
  {
    "postal": "M6K5A6",
    "result": []
  },
  {
    "postal": "M6K4M0",
    "result": []
  },
  {
    "postal": "M6K3V6",
    "result": []
  },
  {
    "postal": "M6K1L7",
    "result": [
      {
        "electoralDistricts": [
          {
            "election": null,
            "id": 83,
            "name": "Parkdale—High Park"
          }
        ],
        "pollDivisionIds": [
          10126447
        ],
        "postalCode": "M6K1L7",
        "streetName": "QUEEN",
        "streetDirectionId": "W",
        "streetTypeId": "ST",
        "placeName": "TORONTO",
        "streetNameDisplayText": "QUEEN ST W, TORONTO"
      }
    ]
  },
  {
    "postal": "M6K2P9",
    "result": [
      {
        "electoralDistricts": [
          {
            "election": null,
            "id": 83,
            "name": "Parkdale—High Park"
          }
        ],
        "pollDivisionIds": [
          10126445
        ],
        "postalCode": "M6K2P9",
        "streetName": "OHARA",
        "streetDirectionId": null,
        "streetTypeId": "AVE",
        "placeName": "TORONTO",
        "streetNameDisplayText": "OHARA AVE, TORONTO"
      },
      {
        "electoralDistricts": [
          {
            "election": null,
            "id": 83,
            "name": "Parkdale—High Park"
          }
        ],
        "pollDivisionIds": [
          10126447
        ],
        "postalCode": "M6K2P9",
        "streetName": "O'HARA",
        "streetDirectionId": null,
        "streetTypeId": "AVE",
        "placeName": "TORONTO",
        "streetNameDisplayText": "O'HARA AVE, TORONTO"
      }
    ]
  },
  {
    "postal": "M6K5T4",
    "result": []
  },
  {
    "postal": "M6K5Z1",
    "result": []
  },
  {
    "postal": "M6K2X0",
    "result": []
  },
  {
    "postal": "M6K6Z2",
    "result": []
  },
  {
    "postal": "M6K0E0",
    "result": []
  },
  {
    "postal": "M6K3Z5",
    "result": []
  },
  {
    "postal": "M6K8H3",
    "result": []
  },
  {
    "postal": "M6K7S6",
    "result": []
  },
  {
    "postal": "M6K4C1",
    "result": []
  },
  {
    "postal": "M6K3K2",
    "result": []
  },
  {
    "postal": "M6K1Y5",
    "result": [
      {
        "electoralDistricts": [
          {
            "election": null,
            "id": 101,
            "name": "Spadina—Fort York"
          }
        ],
        "pollDivisionIds": [
          10141949
        ],
        "postalCode": "M6K1Y5",
        "streetName": "JOE SHUSTER",
        "streetDirectionId": null,
        "streetTypeId": "WAY",
        "placeName": "TORONTO",
        "streetNameDisplayText": "JOE SHUSTER WAY, TORONTO"
      }
    ]
  },
  {
    "postal": "M6K6P6",
    "result": []
  },
  {
    "postal": "M6K3N9",
    "result": [
      {
        "electoralDistricts": [
          {
            "election": null,
            "id": 101,
            "name": "Spadina—Fort York"
          }
        ],
        "pollDivisionIds": [
          10141953
        ],
        "postalCode": "M6K3N9",
        "streetName": "WESTERN BATTERY",
        "streetDirectionId": null,
        "streetTypeId": "PK",
        "placeName": "TORONTO",
        "streetNameDisplayText": "WESTERN BATTERY PK, TORONTO"
      },
      {
        "electoralDistricts": [
          {
            "election": null,
            "id": 101,
            "name": "Spadina—Fort York"
          }
        ],
        "pollDivisionIds": [
          10141957
        ],
        "postalCode": "M6K3N9",
        "streetName": "WESTERN BATTERY",
        "streetDirectionId": null,
        "streetTypeId": "RD",
        "placeName": "TORONTO",
        "streetNameDisplayText": "WESTERN BATTERY RD, TORONTO"
      }
    ]
  },
  {
    "postal": "M6K3W2",
    "result": []
  },
  {
    "postal": "M6K6H8",
    "result": []
  },
  {
    "postal": "M6K9T3",
    "result": []
  },
  {
    "postal": "M6K5L9",
    "result": []
  },
  {
    "postal": "M6K7X7",
    "result": []
  },
  {
    "postal": "M6K3J5",
    "result": []
  },
  {
    "postal": "M6K4J5",
    "result": []
  },
  {
    "postal": "M6K6J2",
    "result": []
  },
  {
    "postal": "M6K5V6",
    "result": []
  },
  {
    "postal": "M6K3N2",
    "result": [
      {
        "electoralDistricts": [
          {
            "election": null,
            "id": 101,
            "name": "Spadina—Fort York"
          }
        ],
        "pollDivisionIds": [
          10143934
        ],
        "postalCode": "M6K3N2",
        "streetName": "KING",
        "streetDirectionId": "W",
        "streetTypeId": "ST",
        "placeName": "TORONTO",
        "streetNameDisplayText": "KING ST W, TORONTO"
      }
    ]
  },
  {
    "postal": "M6K3B1",
    "result": [
      {
        "electoralDistricts": [
          {
            "election": null,
            "id": 83,
            "name": "Parkdale—High Park"
          }
        ],
        "pollDivisionIds": [
          10126446
        ],
        "postalCode": "M6K3B1",
        "streetName": "DOWLING",
        "streetDirectionId": null,
        "streetTypeId": "AVE",
        "placeName": "TORONTO",
        "streetNameDisplayText": "DOWLING AVE, TORONTO"
      }
    ]
  },
  {
    "postal": "M6K8B5",
    "result": []
  },
  {
    "postal": "M6K0K1",
    "result": []
  },
  {
    "postal": "M6K7M7",
    "result": []
  },
  {
    "postal": "M6K2M2",
    "result": [
      {
        "electoralDistricts": [
          {
            "election": null,
            "id": 19,
            "name": "Davenport"
          }
        ],
        "pollDivisionIds": [
          10136104
        ],
        "postalCode": "M6K2M2",
        "streetName": "BROCK",
        "streetDirectionId": null,
        "streetTypeId": "AVE",
        "placeName": "TORONTO",
        "streetNameDisplayText": "BROCK AVE, TORONTO"
      }
    ]
  },
  {
    "postal": "M6K9N3",
    "result": []
  },
  {
    "postal": "M6K4Y8",
    "result": []
  },
  {
    "postal": "M6K3V7",
    "result": []
  },
  {
    "postal": "M6K8Z1",
    "result": []
  },
  {
    "postal": "M6K7B3",
    "result": []
  },
  {
    "postal": "M6K3A8",
    "result": [
      {
        "electoralDistricts": [
          {
            "election": null,
            "id": 83,
            "name": "Parkdale—High Park"
          }
        ],
        "pollDivisionIds": [
          10126448,
          10126446
        ],
        "postalCode": "M6K3A8",
        "streetName": "DOWLING",
        "streetDirectionId": null,
        "streetTypeId": "AVE",
        "placeName": "TORONTO",
        "streetNameDisplayText": "DOWLING AVE, TORONTO"
      }
    ]
  },
  {
    "postal": "M6K7V5",
    "result": []
  },
  {
    "postal": "M6K2T2",
    "result": [
      {
        "electoralDistricts": [
          {
            "election": null,
            "id": 83,
            "name": "Parkdale—High Park"
          }
        ],
        "pollDivisionIds": [
          10126478
        ],
        "postalCode": "M6K2T2",
        "streetName": "WEST LODGE",
        "streetDirectionId": null,
        "streetTypeId": "AVE",
        "placeName": "TORONTO",
        "streetNameDisplayText": "WEST LODGE AVE, TORONTO"
      }
    ]
  },
  {
    "postal": "M6K6L3",
    "result": []
  },
  {
    "postal": "M6K0L2",
    "result": []
  },
  {
    "postal": "M6K5Y8",
    "result": []
  },
  {
    "postal": "M6K0B8",
    "result": []
  },
  {
    "postal": "M6K6R5",
    "result": []
  },
  {
    "postal": "M6K8W6",
    "result": []
  },
  {
    "postal": "M6K8G6",
    "result": []
  },
  {
    "postal": "M6K6X3",
    "result": []
  },
  {
    "postal": "M6K7R7",
    "result": []
  },
  {
    "postal": "M6K4B6",
    "result": []
  },
  {
    "postal": "M6K3P9",
    "result": [
      {
        "electoralDistricts": [
          {
            "election": null,
            "id": 101,
            "name": "Spadina—Fort York"
          }
        ],
        "pollDivisionIds": [
          10141986
        ],
        "postalCode": "M6K3P9",
        "streetName": "EAST LIBERTY",
        "streetDirectionId": null,
        "streetTypeId": "ST",
        "placeName": "TORONTO",
        "streetNameDisplayText": "EAST LIBERTY ST, TORONTO"
      }
    ]
  },
  {
    "postal": "M6K2T3",
    "result": [
      {
        "electoralDistricts": [
          {
            "election": null,
            "id": 83,
            "name": "Parkdale—High Park"
          }
        ],
        "pollDivisionIds": [
          10126445
        ],
        "postalCode": "M6K2T3",
        "streetName": "WEST LODGE",
        "streetDirectionId": null,
        "streetTypeId": "AVE",
        "placeName": "TORONTO",
        "streetNameDisplayText": "WEST LODGE AVE, TORONTO"
      }
    ]
  },
  {
    "postal": "M6K1M4",
    "result": [
      {
        "electoralDistricts": [
          {
            "election": null,
            "id": 83,
            "name": "Parkdale—High Park"
          }
        ],
        "pollDivisionIds": [
          10126445
        ],
        "postalCode": "M6K1M4",
        "streetName": "QUEEN",
        "streetDirectionId": "W",
        "streetTypeId": "ST",
        "placeName": "TORONTO",
        "streetNameDisplayText": "QUEEN ST W, TORONTO"
      }
    ]
  },
  {
    "postal": "M6K0H1",
    "result": []
  },
  {
    "postal": "M6K9W3",
    "result": []
  },
  {
    "postal": "M6K6P1",
    "result": []
  },
  {
    "postal": "M6K7G2",
    "result": []
  },
  {
    "postal": "M6K4J9",
    "result": []
  },
  {
    "postal": "M6K9E4",
    "result": []
  },
  {
    "postal": "M6K8H0",
    "result": []
  },
  {
    "postal": "M6K4M7",
    "result": []
  },
  {
    "postal": "M6K2G9",
    "result": [
      {
        "electoralDistricts": [
          {
            "election": null,
            "id": 19,
            "name": "Davenport"
          }
        ],
        "pollDivisionIds": [
          10136104
        ],
        "postalCode": "M6K2G9",
        "streetName": "SHERIDAN",
        "streetDirectionId": null,
        "streetTypeId": "AVE",
        "placeName": "TORONTO",
        "streetNameDisplayText": "SHERIDAN AVE, TORONTO"
      }
    ]
  },
  {
    "postal": "M6K8T2",
    "result": []
  },
  {
    "postal": "M6K7G7",
    "result": []
  },
  {
    "postal": "M6K4Z3",
    "result": []
  },
  {
    "postal": "M6K5B3",
    "result": []
  },
  {
    "postal": "M6K1S7",
    "result": [
      {
        "electoralDistricts": [
          {
            "election": null,
            "id": 19,
            "name": "Davenport"
          }
        ],
        "pollDivisionIds": [
          10136104
        ],
        "postalCode": "M6K1S7",
        "streetName": "SHIRLEY",
        "streetDirectionId": null,
        "streetTypeId": "ST",
        "placeName": "TORONTO",
        "streetNameDisplayText": "SHIRLEY ST, TORONTO"
      }
    ]
  },
  {
    "postal": "M6K2N7",
    "result": [
      {
        "electoralDistricts": [
          {
            "election": null,
            "id": 83,
            "name": "Parkdale—High Park"
          }
        ],
        "pollDivisionIds": [
          10126447
        ],
        "postalCode": "M6K2N7",
        "streetName": "COWAN",
        "streetDirectionId": null,
        "streetTypeId": "AVE",
        "placeName": "TORONTO",
        "streetNameDisplayText": "COWAN AVE, TORONTO"
      }
    ]
  },
  {
    "postal": "M6K0H8",
    "result": []
  },
  {
    "postal": "M6K7Z4",
    "result": []
  },
  {
    "postal": "M6K7B1",
    "result": []
  },
  {
    "postal": "M6K7P8",
    "result": []
  },
  {
    "postal": "M6K7N0",
    "result": []
  },
  {
    "postal": "M6K3Y5",
    "result": []
  },
  {
    "postal": "M6K6K1",
    "result": []
  },
  {
    "postal": "M6K9X5",
    "result": []
  },
  {
    "postal": "M6K7S5",
    "result": []
  },
  {
    "postal": "M6K0A4",
    "result": [
      {
        "electoralDistricts": [
          {
            "election": null,
            "id": 101,
            "name": "Spadina—Fort York"
          }
        ],
        "pollDivisionIds": [
          10141976
        ],
        "postalCode": "M6K0A4",
        "streetName": "JOE SHUSTER",
        "streetDirectionId": null,
        "streetTypeId": "WAY",
        "placeName": "TORONTO",
        "streetNameDisplayText": "JOE SHUSTER WAY, TORONTO"
      }
    ]
  },
  {
    "postal": "M6K4T5",
    "result": []
  },
  {
    "postal": "M6K5K1",
    "result": []
  },
  {
    "postal": "M6K0Z9",
    "result": []
  },
  {
    "postal": "M6K7T2",
    "result": []
  },
  {
    "postal": "M6K1L5",
    "result": [
      {
        "electoralDistricts": [
          {
            "election": null,
            "id": 83,
            "name": "Parkdale—High Park"
          }
        ],
        "pollDivisionIds": [
          10126447
        ],
        "postalCode": "M6K1L5",
        "streetName": "QUEEN",
        "streetDirectionId": "W",
        "streetTypeId": "ST",
        "placeName": "TORONTO",
        "streetNameDisplayText": "QUEEN ST W, TORONTO"
      }
    ]
  },
  {
    "postal": "M6K3N5",
    "result": [
      {
        "electoralDistricts": [
          {
            "election": null,
            "id": 101,
            "name": "Spadina—Fort York"
          }
        ],
        "pollDivisionIds": [
          10141979
        ],
        "postalCode": "M6K3N5",
        "streetName": "SHAW",
        "streetDirectionId": null,
        "streetTypeId": "ST",
        "placeName": "TORONTO",
        "streetNameDisplayText": "SHAW ST, TORONTO"
      }
    ]
  },
  {
    "postal": "M6K6H4",
    "result": []
  },
  {
    "postal": "M6K5A5",
    "result": []
  },
  {
    "postal": "M6K3R9",
    "result": [
      {
        "electoralDistricts": [
          {
            "election": null,
            "id": 101,
            "name": "Spadina—Fort York"
          }
        ],
        "pollDivisionIds": [
          10141982,
          10141954
        ],
        "postalCode": "M6K3R9",
        "streetName": "LYNN WILLIAMS",
        "streetDirectionId": null,
        "streetTypeId": "ST",
        "placeName": "TORONTO",
        "streetNameDisplayText": "LYNN WILLIAMS ST, TORONTO"
      }
    ]
  },
  {
    "postal": "M6K7L8",
    "result": []
  },
  {
    "postal": "M6K6T6",
    "result": []
  },
  {
    "postal": "M6K7Y7",
    "result": []
  },
  {
    "postal": "M6K3M8",
    "result": [
      {
        "electoralDistricts": [
          {
            "election": null,
            "id": 101,
            "name": "Spadina—Fort York"
          }
        ],
        "pollDivisionIds": [
          10141956
        ],
        "postalCode": "M6K3M8",
        "streetName": "KING",
        "streetDirectionId": "W",
        "streetTypeId": "ST",
        "placeName": "TORONTO",
        "streetNameDisplayText": "KING ST W, TORONTO"
      }
    ]
  },
  {
    "postal": "M6K2E0",
    "result": []
  },
  {
    "postal": "M6K4B5",
    "result": []
  },
  {
    "postal": "M6K1J3",
    "result": [
      {
        "electoralDistricts": [
          {
            "election": null,
            "id": 83,
            "name": "Parkdale—High Park"
          }
        ],
        "pollDivisionIds": [
          10126447,
          10126446
        ],
        "postalCode": "M6K1J3",
        "streetName": "KING",
        "streetDirectionId": "W",
        "streetTypeId": "ST",
        "placeName": "TORONTO",
        "streetNameDisplayText": "KING ST W, TORONTO"
      }
    ]
  },
  {
    "postal": "M6K5S6",
    "result": []
  },
  {
    "postal": "M6K8P7",
    "result": []
  },
  {
    "postal": "M6K7S7",
    "result": []
  },
  {
    "postal": "M6K4C2",
    "result": []
  },
  {
    "postal": "M6K5Y0",
    "result": []
  },
  {
    "postal": "M6K2V7",
    "result": [
      {
        "electoralDistricts": [
          {
            "election": null,
            "id": 83,
            "name": "Parkdale—High Park"
          }
        ],
        "pollDivisionIds": [
          10126445
        ],
        "postalCode": "M6K2V7",
        "streetName": "LANSDOWNE",
        "streetDirectionId": null,
        "streetTypeId": "AVE",
        "placeName": "TORONTO",
        "streetNameDisplayText": "LANSDOWNE AVE, TORONTO"
      }
    ]
  },
  {
    "postal": "M6K8P5",
    "result": []
  },
  {
    "postal": "M6K5P5",
    "result": []
  },
  {
    "postal": "M6K5Z0",
    "result": []
  },
  {
    "postal": "M6K9B0",
    "result": []
  },
  {
    "postal": "M6K1L0",
    "result": []
  },
  {
    "postal": "M6K0B5",
    "result": [
      {
        "electoralDistricts": [
          {
            "election": null,
            "id": 101,
            "name": "Spadina—Fort York"
          }
        ],
        "pollDivisionIds": [
          10141953
        ],
        "postalCode": "M6K0B5",
        "streetName": "KING",
        "streetDirectionId": "W",
        "streetTypeId": "ST",
        "placeName": "TORONTO",
        "streetNameDisplayText": "KING ST W, TORONTO"
      }
    ]
  },
  {
    "postal": "M6K3L2",
    "result": [
      {
        "electoralDistricts": [
          {
            "election": null,
            "id": 83,
            "name": "Parkdale—High Park"
          }
        ],
        "pollDivisionIds": [
          10126445
        ],
        "postalCode": "M6K3L2",
        "streetName": "SEAFORTH",
        "streetDirectionId": null,
        "streetTypeId": "AVE",
        "placeName": "TORONTO",
        "streetNameDisplayText": "SEAFORTH AVE, TORONTO"
      }
    ]
  },
  {
    "postal": "M6K3B7",
    "result": [
      {
        "electoralDistricts": [
          {
            "election": null,
            "id": 83,
            "name": "Parkdale—High Park"
          }
        ],
        "pollDivisionIds": [
          10140949
        ],
        "postalCode": "M6K3B7",
        "streetName": "TRILLER",
        "streetDirectionId": null,
        "streetTypeId": "AVE",
        "placeName": "TORONTO",
        "streetNameDisplayText": "TRILLER AVE, TORONTO"
      }
    ]
  },
  {
    "postal": "M6K8L1",
    "result": []
  },
  {
    "postal": "M6K5M4",
    "result": []
  },
  {
    "postal": "M6K4G9",
    "result": []
  },
  {
    "postal": "M6K0P0",
    "result": []
  },
  {
    "postal": "M6K8G2",
    "result": []
  },
  {
    "postal": "M6K1V9",
    "result": [
      {
        "electoralDistricts": [
          {
            "election": null,
            "id": 19,
            "name": "Davenport"
          }
        ],
        "pollDivisionIds": [
          10136104
        ],
        "postalCode": "M6K1V9",
        "streetName": "ATKINS",
        "streetDirectionId": null,
        "streetTypeId": "AVE",
        "placeName": "TORONTO",
        "streetNameDisplayText": "ATKINS AVE, TORONTO"
      }
    ]
  },
  {
    "postal": "M6K8N8",
    "result": []
  },
  {
    "postal": "M6K6S8",
    "result": []
  },
  {
    "postal": "M6K8H2",
    "result": []
  },
  {
    "postal": "M6K5R8",
    "result": []
  },
  {
    "postal": "M6K5L4",
    "result": []
  },
  {
    "postal": "M6K9E1",
    "result": []
  },
  {
    "postal": "M6K1C4",
    "result": [
      {
        "electoralDistricts": [
          {
            "election": null,
            "id": 83,
            "name": "Parkdale—High Park"
          }
        ],
        "pollDivisionIds": [
          10126449
        ],
        "postalCode": "M6K1C4",
        "streetName": "THORBURN",
        "streetDirectionId": null,
        "streetTypeId": "AVE",
        "placeName": "TORONTO",
        "streetNameDisplayText": "THORBURN AVE, TORONTO"
      }
    ]
  },
  {
    "postal": "M6K8W5",
    "result": []
  },
  {
    "postal": "M6K1Y4",
    "result": [
      {
        "electoralDistricts": [
          {
            "election": null,
            "id": 101,
            "name": "Spadina—Fort York"
          }
        ],
        "pollDivisionIds": [
          10141953
        ],
        "postalCode": "M6K1Y4",
        "streetName": "JEFFERSON",
        "streetDirectionId": null,
        "streetTypeId": "AVE",
        "placeName": "TORONTO",
        "streetNameDisplayText": "JEFFERSON AVE, TORONTO"
      }
    ]
  },
  {
    "postal": "M6K1C0",
    "result": []
  },
  {
    "postal": "M6K2J2",
    "result": [
      {
        "electoralDistricts": [
          {
            "election": null,
            "id": 83,
            "name": "Parkdale—High Park"
          }
        ],
        "pollDivisionIds": [
          10126447,
          10126449,
          10126488
        ],
        "postalCode": "M6K2J2",
        "streetName": "ELM GROVE",
        "streetDirectionId": null,
        "streetTypeId": "AVE",
        "placeName": "TORONTO",
        "streetNameDisplayText": "ELM GROVE AVE, TORONTO"
      }
    ]
  },
  {
    "postal": "M6K2J0",
    "result": []
  },
  {
    "postal": "M6K7A3",
    "result": []
  },
  {
    "postal": "M6K8M1",
    "result": []
  },
  {
    "postal": "M6K7T9",
    "result": []
  },
  {
    "postal": "M6K6C0",
    "result": []
  },
  {
    "postal": "M6K7X1",
    "result": []
  },
  {
    "postal": "M6K0G1",
    "result": []
  },
  {
    "postal": "M6K4X2",
    "result": []
  },
  {
    "postal": "M6K0N6",
    "result": []
  },
  {
    "postal": "M6K8E3",
    "result": []
  },
  {
    "postal": "M6K5S8",
    "result": []
  },
  {
    "postal": "M6K0R0",
    "result": []
  },
  {
    "postal": "M6K6J6",
    "result": []
  },
  {
    "postal": "M6K4B4",
    "result": []
  },
  {
    "postal": "M6K7E3",
    "result": []
  },
  {
    "postal": "M6K3N6",
    "result": [
      {
        "electoralDistricts": [
          {
            "election": null,
            "id": 101,
            "name": "Spadina—Fort York"
          }
        ],
        "pollDivisionIds": [
          10141953
        ],
        "postalCode": "M6K3N6",
        "streetName": "LYNN WILLIAMS",
        "streetDirectionId": null,
        "streetTypeId": "ST",
        "placeName": "TORONTO",
        "streetNameDisplayText": "LYNN WILLIAMS ST, TORONTO"
      }
    ]
  },
  {
    "postal": "M6K3X6",
    "result": []
  },
  {
    "postal": "M6K8L0",
    "result": []
  },
  {
    "postal": "M6K8N1",
    "result": []
  },
  {
    "postal": "M6K4J0",
    "result": []
  },
  {
    "postal": "M6K0X7",
    "result": []
  },
  {
    "postal": "M6K6S4",
    "result": []
  },
  {
    "postal": "M6K0Z0",
    "result": []
  },
  {
    "postal": "M6K9X8",
    "result": []
  },
  {
    "postal": "M6K3H3",
    "result": []
  },
  {
    "postal": "M6K7S2",
    "result": []
  },
  {
    "postal": "M6K3T3",
    "result": []
  },
  {
    "postal": "M6K9P3",
    "result": []
  },
  {
    "postal": "M6K4H8",
    "result": []
  },
  {
    "postal": "M6K6R1",
    "result": []
  },
  {
    "postal": "M6K1S0",
    "result": []
  },
  {
    "postal": "M6K3W8",
    "result": []
  },
  {
    "postal": "M6K4S3",
    "result": []
  },
  {
    "postal": "M6K1B6",
    "result": [
      {
        "electoralDistricts": [
          {
            "election": null,
            "id": 83,
            "name": "Parkdale—High Park"
          }
        ],
        "pollDivisionIds": [
          10126449
        ],
        "postalCode": "M6K1B6",
        "streetName": "SPRINGHURST",
        "streetDirectionId": null,
        "streetTypeId": "AVE",
        "placeName": "TORONTO",
        "streetNameDisplayText": "SPRINGHURST AVE, TORONTO"
      }
    ]
  },
  {
    "postal": "M6K8R3",
    "result": []
  },
  {
    "postal": "M6K4V9",
    "result": []
  },
  {
    "postal": "M6K9W4",
    "result": []
  },
  {
    "postal": "M6K3T4",
    "result": []
  },
  {
    "postal": "M6K5C7",
    "result": []
  },
  {
    "postal": "M6K3Y1",
    "result": []
  },
  {
    "postal": "M6K5V0",
    "result": []
  },
  {
    "postal": "M6K8G8",
    "result": []
  },
  {
    "postal": "M6K8B1",
    "result": []
  },
  {
    "postal": "M6K4P5",
    "result": []
  },
  {
    "postal": "M6K7B2",
    "result": []
  },
  {
    "postal": "M6K0R2",
    "result": []
  },
  {
    "postal": "M6K4M4",
    "result": []
  },
  {
    "postal": "M6K7M4",
    "result": []
  },
  {
    "postal": "M6K9S7",
    "result": []
  },
  {
    "postal": "M6K5Z7",
    "result": []
  },
  {
    "postal": "M6K7J7",
    "result": []
  },
  {
    "postal": "M6K8R8",
    "result": []
  },
  {
    "postal": "M6K9X1",
    "result": []
  },
  {
    "postal": "M6K5M9",
    "result": []
  },
  {
    "postal": "M6K9B4",
    "result": []
  },
  {
    "postal": "M6K0L9",
    "result": []
  },
  {
    "postal": "M6K9G4",
    "result": []
  },
  {
    "postal": "M6K1J4",
    "result": [
      {
        "electoralDistricts": [
          {
            "election": null,
            "id": 83,
            "name": "Parkdale—High Park"
          }
        ],
        "pollDivisionIds": [
          10126446,
          10126447,
          10126448
        ],
        "postalCode": "M6K1J4",
        "streetName": "KING",
        "streetDirectionId": "W",
        "streetTypeId": "ST",
        "placeName": "TORONTO",
        "streetNameDisplayText": "KING ST W, TORONTO"
      }
    ]
  },
  {
    "postal": "M6K0W6",
    "result": []
  },
  {
    "postal": "M6K4C5",
    "result": []
  },
  {
    "postal": "M6K7E4",
    "result": []
  },
  {
    "postal": "M6K1R9",
    "result": [
      {
        "electoralDistricts": [
          {
            "election": null,
            "id": 19,
            "name": "Davenport"
          }
        ],
        "pollDivisionIds": [
          10136104
        ],
        "postalCode": "M6K1R9",
        "streetName": "WYNDHAM",
        "streetDirectionId": null,
        "streetTypeId": "ST",
        "placeName": "TORONTO",
        "streetNameDisplayText": "WYNDHAM ST, TORONTO"
      }
    ]
  },
  {
    "postal": "M6K2P0",
    "result": []
  },
  {
    "postal": "M6K5S4",
    "result": []
  },
  {
    "postal": "M6K5K8",
    "result": []
  },
  {
    "postal": "M6K8K4",
    "result": []
  },
  {
    "postal": "M6K7C1",
    "result": []
  },
  {
    "postal": "M6K7K9",
    "result": []
  },
  {
    "postal": "M6K5J1",
    "result": []
  },
  {
    "postal": "M6K4P9",
    "result": []
  },
  {
    "postal": "M6K0N2",
    "result": []
  },
  {
    "postal": "M6K2G6",
    "result": [
      {
        "electoralDistricts": [
          {
            "election": null,
            "id": 19,
            "name": "Davenport"
          }
        ],
        "pollDivisionIds": [
          10136104
        ],
        "postalCode": "M6K2G6",
        "streetName": "SHERIDAN",
        "streetDirectionId": null,
        "streetTypeId": "AVE",
        "placeName": "TORONTO",
        "streetNameDisplayText": "SHERIDAN AVE, TORONTO"
      }
    ]
  },
  {
    "postal": "M6K6P4",
    "result": []
  },
  {
    "postal": "M6K3J0",
    "result": []
  },
  {
    "postal": "M6K8X4",
    "result": []
  },
  {
    "postal": "M6K1Y3",
    "result": [
      {
        "electoralDistricts": [
          {
            "election": null,
            "id": 101,
            "name": "Spadina—Fort York"
          }
        ],
        "pollDivisionIds": [
          10141953
        ],
        "postalCode": "M6K1Y3",
        "streetName": "JEFFERSON",
        "streetDirectionId": null,
        "streetTypeId": "AVE",
        "placeName": "TORONTO",
        "streetNameDisplayText": "JEFFERSON AVE, TORONTO"
      }
    ]
  },
  {
    "postal": "M6K1A8",
    "result": [
      {
        "electoralDistricts": [
          {
            "election": null,
            "id": 83,
            "name": "Parkdale—High Park"
          }
        ],
        "pollDivisionIds": [
          10126449
        ],
        "postalCode": "M6K1A8",
        "streetName": "SPRINGHURST",
        "streetDirectionId": null,
        "streetTypeId": "AVE",
        "placeName": "TORONTO",
        "streetNameDisplayText": "SPRINGHURST AVE, TORONTO"
      }
    ]
  },
  {
    "postal": "M6K6Y5",
    "result": []
  },
  {
    "postal": "M6K0J6",
    "result": []
  },
  {
    "postal": "M6K2C9",
    "result": [
      {
        "electoralDistricts": [
          {
            "election": null,
            "id": 83,
            "name": "Parkdale—High Park"
          }
        ],
        "pollDivisionIds": [
          10126447
        ],
        "postalCode": "M6K2C9",
        "streetName": "NOBLE",
        "streetDirectionId": null,
        "streetTypeId": "ST",
        "placeName": "TORONTO",
        "streetNameDisplayText": "NOBLE ST, TORONTO"
      }
    ]
  },
  {
    "postal": "M6K8J6",
    "result": []
  },
  {
    "postal": "M6K8T4",
    "result": []
  },
  {
    "postal": "M6K1P7",
    "result": [
      {
        "electoralDistricts": [
          {
            "election": null,
            "id": 19,
            "name": "Davenport"
          }
        ],
        "pollDivisionIds": [
          10136104
        ],
        "postalCode": "M6K1P7",
        "streetName": "GORDON",
        "streetDirectionId": null,
        "streetTypeId": "ST",
        "placeName": "TORONTO",
        "streetNameDisplayText": "GORDON ST, TORONTO"
      }
    ]
  },
  {
    "postal": "M6K9V9",
    "result": []
  },
  {
    "postal": "M6K0M1",
    "result": []
  },
  {
    "postal": "M6K6K5",
    "result": []
  },
  {
    "postal": "M6K2T5",
    "result": [
      {
        "electoralDistricts": [
          {
            "election": null,
            "id": 83,
            "name": "Parkdale—High Park"
          }
        ],
        "pollDivisionIds": [
          10126445
        ],
        "postalCode": "M6K2T5",
        "streetName": "WEST LODGE",
        "streetDirectionId": null,
        "streetTypeId": "AVE",
        "placeName": "TORONTO",
        "streetNameDisplayText": "WEST LODGE AVE, TORONTO"
      }
    ]
  },
  {
    "postal": "M6K7E9",
    "result": []
  },
  {
    "postal": "M6K5K5",
    "result": []
  },
  {
    "postal": "M6K3R5",
    "result": [
      {
        "electoralDistricts": [
          {
            "election": null,
            "id": 101,
            "name": "Spadina—Fort York"
          }
        ],
        "pollDivisionIds": [
          10141953,
          10141957
        ],
        "postalCode": "M6K3R5",
        "streetName": "EAST LIBERTY",
        "streetDirectionId": null,
        "streetTypeId": "ST",
        "placeName": "TORONTO",
        "streetNameDisplayText": "EAST LIBERTY ST, TORONTO"
      },
      {
        "electoralDistricts": [
          {
            "election": null,
            "id": 101,
            "name": "Spadina—Fort York"
          }
        ],
        "pollDivisionIds": [
          10141953
        ],
        "postalCode": "M6K3R5",
        "streetName": "LIBERTY",
        "streetDirectionId": null,
        "streetTypeId": "ST",
        "placeName": "TORONTO",
        "streetNameDisplayText": "LIBERTY ST, TORONTO"
      }
    ]
  },
  {
    "postal": "M6K5B1",
    "result": []
  },
  {
    "postal": "M6K2P1",
    "result": [
      {
        "electoralDistricts": [
          {
            "election": null,
            "id": 19,
            "name": "Davenport"
          }
        ],
        "pollDivisionIds": [
          10136104
        ],
        "postalCode": "M6K2P1",
        "streetName": "MECHANIC",
        "streetDirectionId": null,
        "streetTypeId": "AVE",
        "placeName": "TORONTO",
        "streetNameDisplayText": "MECHANIC AVE, TORONTO"
      },
      {
        "electoralDistricts": [
          {
            "election": null,
            "id": 19,
            "name": "Davenport"
          }
        ],
        "pollDivisionIds": [
          10136104
        ],
        "postalCode": "M6K2P1",
        "streetName": "MECHANICS",
        "streetDirectionId": null,
        "streetTypeId": "AVE",
        "placeName": "TORONTO",
        "streetNameDisplayText": "MECHANICS AVE, TORONTO"
      }
    ]
  },
  {
    "postal": "M6K7L0",
    "result": []
  },
  {
    "postal": "M6K3L6",
    "result": []
  },
  {
    "postal": "M6K2A4",
    "result": [
      {
        "electoralDistricts": [
          {
            "election": null,
            "id": 19,
            "name": "Davenport"
          }
        ],
        "pollDivisionIds": [
          10143812
        ],
        "postalCode": "M6K2A4",
        "streetName": "DUFFERIN",
        "streetDirectionId": null,
        "streetTypeId": "ST",
        "placeName": "TORONTO",
        "streetNameDisplayText": "DUFFERIN ST, TORONTO"
      }
    ]
  },
  {
    "postal": "M6K8S0",
    "result": []
  },
  {
    "postal": "M6K3L5",
    "result": [
      {
        "electoralDistricts": [
          {
            "election": null,
            "id": 101,
            "name": "Spadina—Fort York"
          }
        ],
        "pollDivisionIds": [
          10141953
        ],
        "postalCode": "M6K3L5",
        "streetName": "LIBERTY",
        "streetDirectionId": null,
        "streetTypeId": "ST",
        "placeName": "TORONTO",
        "streetNameDisplayText": "LIBERTY ST, TORONTO"
      }
    ]
  },
  {
    "postal": "M6K2R5",
    "result": [
      {
        "electoralDistricts": [
          {
            "election": null,
            "id": 83,
            "name": "Parkdale—High Park"
          }
        ],
        "pollDivisionIds": [
          10126449
        ],
        "postalCode": "M6K2R5",
        "streetName": "DUNN",
        "streetDirectionId": null,
        "streetTypeId": "AVE",
        "placeName": "TORONTO",
        "streetNameDisplayText": "DUNN AVE, TORONTO"
      }
    ]
  },
  {
    "postal": "M6K9T6",
    "result": []
  },
  {
    "postal": "M6K8Z2",
    "result": []
  },
  {
    "postal": "M6K0E9",
    "result": []
  },
  {
    "postal": "M6K8C0",
    "result": []
  },
  {
    "postal": "M6K3K7",
    "result": []
  },
  {
    "postal": "M6K2H3",
    "result": []
  },
  {
    "postal": "M6K2Y6",
    "result": [
      {
        "electoralDistricts": [
          {
            "election": null,
            "id": 83,
            "name": "Parkdale—High Park"
          }
        ],
        "pollDivisionIds": [
          10126446
        ],
        "postalCode": "M6K2Y6",
        "streetName": "JAMESON",
        "streetDirectionId": null,
        "streetTypeId": "AVE",
        "placeName": "TORONTO",
        "streetNameDisplayText": "JAMESON AVE, TORONTO"
      }
    ]
  },
  {
    "postal": "M6K7M2",
    "result": []
  },
  {
    "postal": "M6K6E2",
    "result": []
  },
  {
    "postal": "M6K3R0",
    "result": []
  },
  {
    "postal": "M6K4J7",
    "result": []
  },
  {
    "postal": "M6K6N8",
    "result": []
  },
  {
    "postal": "M6K0J7",
    "result": []
  },
  {
    "postal": "M6K7P2",
    "result": []
  },
  {
    "postal": "M6K3T8",
    "result": []
  },
  {
    "postal": "M6K3S7",
    "result": []
  },
  {
    "postal": "M6K2S7",
    "result": [
      {
        "electoralDistricts": [
          {
            "election": null,
            "id": 19,
            "name": "Davenport"
          }
        ],
        "pollDivisionIds": [
          10136104
        ],
        "postalCode": "M6K2S7",
        "streetName": "SAINT CLARENS",
        "streetDirectionId": null,
        "streetTypeId": "AVE",
        "placeName": "TORONTO",
        "streetNameDisplayText": "SAINT CLARENS AVE, TORONTO"
      }
    ]
  },
  {
    "postal": "M6K1S4",
    "result": [
      {
        "electoralDistricts": [
          {
            "election": null,
            "id": 19,
            "name": "Davenport"
          }
        ],
        "pollDivisionIds": [
          10136104
        ],
        "postalCode": "M6K1S4",
        "streetName": "MARSHALL",
        "streetDirectionId": null,
        "streetTypeId": "ST",
        "placeName": "TORONTO",
        "streetNameDisplayText": "MARSHALL ST, TORONTO"
      }
    ]
  },
  {
    "postal": "M6K1L8",
    "result": [
      {
        "electoralDistricts": [
          {
            "election": null,
            "id": 83,
            "name": "Parkdale—High Park"
          }
        ],
        "pollDivisionIds": [
          10126446
        ],
        "postalCode": "M6K1L8",
        "streetName": "QUEEN",
        "streetDirectionId": "W",
        "streetTypeId": "ST",
        "placeName": "TORONTO",
        "streetNameDisplayText": "QUEEN ST W, TORONTO"
      }
    ]
  },
  {
    "postal": "M6K8E9",
    "result": []
  },
  {
    "postal": "M6K0T0",
    "result": []
  },
  {
    "postal": "M6K3G4",
    "result": [
      {
        "electoralDistricts": [
          {
            "election": null,
            "id": 19,
            "name": "Davenport"
          }
        ],
        "pollDivisionIds": [
          10136104
        ],
        "postalCode": "M6K3G4",
        "streetName": "MOUTRAY",
        "streetDirectionId": null,
        "streetTypeId": "ST",
        "placeName": "TORONTO",
        "streetNameDisplayText": "MOUTRAY ST, TORONTO"
      }
    ]
  },
  {
    "postal": "M6K0V6",
    "result": []
  },
  {
    "postal": "M6K4W1",
    "result": []
  },
  {
    "postal": "M6K9G9",
    "result": []
  },
  {
    "postal": "M6K5W4",
    "result": []
  },
  {
    "postal": "M6K7M8",
    "result": []
  },
  {
    "postal": "M6K2C2",
    "result": [
      {
        "electoralDistricts": [
          {
            "election": null,
            "id": 83,
            "name": "Parkdale—High Park"
          }
        ],
        "pollDivisionIds": [
          10126447
        ],
        "postalCode": "M6K2C2",
        "streetName": "GWYNNE",
        "streetDirectionId": null,
        "streetTypeId": "AVE",
        "placeName": "TORONTO",
        "streetNameDisplayText": "GWYNNE AVE, TORONTO"
      }
    ]
  },
  {
    "postal": "M6K4Y2",
    "result": []
  },
  {
    "postal": "M6K9X9",
    "result": []
  },
  {
    "postal": "M6K3T0",
    "result": []
  },
  {
    "postal": "M6K4T8",
    "result": []
  },
  {
    "postal": "M6K9C4",
    "result": []
  },
  {
    "postal": "M6K8P2",
    "result": []
  },
  {
    "postal": "M6K0Y8",
    "result": []
  },
  {
    "postal": "M6K1G8",
    "result": [
      {
        "electoralDistricts": [
          {
            "election": null,
            "id": 83,
            "name": "Parkdale—High Park"
          }
        ],
        "pollDivisionIds": [
          10126447
        ],
        "postalCode": "M6K1G8",
        "streetName": "KING",
        "streetDirectionId": "W",
        "streetTypeId": "ST",
        "placeName": "TORONTO",
        "streetNameDisplayText": "KING ST W, TORONTO"
      }
    ]
  },
  {
    "postal": "M6K2T6",
    "result": [
      {
        "electoralDistricts": [
          {
            "election": null,
            "id": 83,
            "name": "Parkdale—High Park"
          }
        ],
        "pollDivisionIds": [
          10126445
        ],
        "postalCode": "M6K2T6",
        "streetName": "WEST LODGE",
        "streetDirectionId": null,
        "streetTypeId": "AVE",
        "placeName": "TORONTO",
        "streetNameDisplayText": "WEST LODGE AVE, TORONTO"
      }
    ]
  },
  {
    "postal": "M6K1N7",
    "result": [
      {
        "electoralDistricts": [
          {
            "election": null,
            "id": 83,
            "name": "Parkdale—High Park"
          }
        ],
        "pollDivisionIds": [
          10126445
        ],
        "postalCode": "M6K1N7",
        "streetName": "SEAFORTH",
        "streetDirectionId": null,
        "streetTypeId": "AVE",
        "placeName": "TORONTO",
        "streetNameDisplayText": "SEAFORTH AVE, TORONTO"
      }
    ]
  },
  {
    "postal": "M6K0L6",
    "result": []
  },
  {
    "postal": "M6K9V4",
    "result": []
  },
  {
    "postal": "M6K2V1",
    "result": [
      {
        "electoralDistricts": [
          {
            "election": null,
            "id": 19,
            "name": "Davenport"
          }
        ],
        "pollDivisionIds": [
          10136104
        ],
        "postalCode": "M6K2V1",
        "streetName": "NORTHERN",
        "streetDirectionId": null,
        "streetTypeId": "PL",
        "placeName": "TORONTO",
        "streetNameDisplayText": "NORTHERN PL, TORONTO"
      }
    ]
  },
  {
    "postal": "M6K3L8",
    "result": [
      {
        "electoralDistricts": [
          {
            "election": null,
            "id": 19,
            "name": "Davenport"
          }
        ],
        "pollDivisionIds": [
          10136104
        ],
        "postalCode": "M6K3L8",
        "streetName": "ALMA",
        "streetDirectionId": null,
        "streetTypeId": "AVE",
        "placeName": "TORONTO",
        "streetNameDisplayText": "ALMA AVE, TORONTO"
      }
    ]
  },
  {
    "postal": "M6K2R8",
    "result": [
      {
        "electoralDistricts": [
          {
            "election": null,
            "id": 83,
            "name": "Parkdale—High Park"
          }
        ],
        "pollDivisionIds": [
          10126449
        ],
        "postalCode": "M6K2R8",
        "streetName": "DUNN",
        "streetDirectionId": null,
        "streetTypeId": "AVE",
        "placeName": "TORONTO",
        "streetNameDisplayText": "DUNN AVE, TORONTO"
      }
    ]
  },
  {
    "postal": "M6K5C1",
    "result": []
  },
  {
    "postal": "M6K4W3",
    "result": []
  },
  {
    "postal": "M6K5X5",
    "result": []
  },
  {
    "postal": "M6K9W5",
    "result": []
  },
  {
    "postal": "M6K3C4",
    "result": []
  },
  {
    "postal": "M6K1N6",
    "result": [
      {
        "electoralDistricts": [
          {
            "election": null,
            "id": 83,
            "name": "Parkdale—High Park"
          }
        ],
        "pollDivisionIds": [
          10126445
        ],
        "postalCode": "M6K1N6",
        "streetName": "SEAFORTH",
        "streetDirectionId": null,
        "streetTypeId": "AVE",
        "placeName": "TORONTO",
        "streetNameDisplayText": "SEAFORTH AVE, TORONTO"
      }
    ]
  },
  {
    "postal": "M6K9S9",
    "result": []
  },
  {
    "postal": "M6K9M2",
    "result": []
  },
  {
    "postal": "M6K8Y4",
    "result": []
  },
  {
    "postal": "M6K7S4",
    "result": []
  },
  {
    "postal": "M6K0K6",
    "result": []
  },
  {
    "postal": "M6K1W3",
    "result": [
      {
        "electoralDistricts": [
          {
            "election": null,
            "id": 19,
            "name": "Davenport"
          }
        ],
        "pollDivisionIds": [
          10136099
        ],
        "postalCode": "M6K1W3",
        "streetName": "MOUTRAY",
        "streetDirectionId": null,
        "streetTypeId": "ST",
        "placeName": "TORONTO",
        "streetNameDisplayText": "MOUTRAY ST, TORONTO"
      }
    ]
  },
  {
    "postal": "M6K7R2",
    "result": []
  },
  {
    "postal": "M6K2Y9",
    "result": [
      {
        "electoralDistricts": [
          {
            "election": null,
            "id": 83,
            "name": "Parkdale—High Park"
          }
        ],
        "pollDivisionIds": [
          10126446
        ],
        "postalCode": "M6K2Y9",
        "streetName": "JAMESON",
        "streetDirectionId": null,
        "streetTypeId": "AVE",
        "placeName": "TORONTO",
        "streetNameDisplayText": "JAMESON AVE, TORONTO"
      }
    ]
  },
  {
    "postal": "M6K7G4",
    "result": []
  },
  {
    "postal": "M6K7E5",
    "result": []
  },
  {
    "postal": "M6K9G2",
    "result": []
  },
  {
    "postal": "M6K7Y8",
    "result": []
  },
  {
    "postal": "M6K9V2",
    "result": []
  },
  {
    "postal": "M6K3T7",
    "result": []
  },
  {
    "postal": "M6K1H0",
    "result": []
  },
  {
    "postal": "M6K1M7",
    "result": []
  },
  {
    "postal": "M6K8V4",
    "result": []
  },
  {
    "postal": "M6K4M2",
    "result": []
  },
  {
    "postal": "M6K0X2",
    "result": []
  },
  {
    "postal": "M6K5Z4",
    "result": []
  },
  {
    "postal": "M6K6V4",
    "result": []
  },
  {
    "postal": "M6K8J3",
    "result": []
  },
  {
    "postal": "M6K8E5",
    "result": []
  },
  {
    "postal": "M6K2V5",
    "result": [
      {
        "electoralDistricts": [
          {
            "election": null,
            "id": 83,
            "name": "Parkdale—High Park"
          }
        ],
        "pollDivisionIds": [
          10126446
        ],
        "postalCode": "M6K2V5",
        "streetName": "CLOSE",
        "streetDirectionId": null,
        "streetTypeId": "AVE",
        "placeName": "TORONTO",
        "streetNameDisplayText": "CLOSE AVE, TORONTO"
      }
    ]
  },
  {
    "postal": "M6K7S1",
    "result": []
  },
  {
    "postal": "M6K6V3",
    "result": []
  },
  {
    "postal": "M6K2L8",
    "result": [
      {
        "electoralDistricts": [
          {
            "election": null,
            "id": 19,
            "name": "Davenport"
          }
        ],
        "pollDivisionIds": [
          10136104
        ],
        "postalCode": "M6K2L8",
        "streetName": "BROCK",
        "streetDirectionId": null,
        "streetTypeId": "AVE",
        "placeName": "TORONTO",
        "streetNameDisplayText": "BROCK AVE, TORONTO"
      }
    ]
  },
  {
    "postal": "M6K9V0",
    "result": []
  },
  {
    "postal": "M6K3M4",
    "result": [
      {
        "electoralDistricts": [
          {
            "election": null,
            "id": 101,
            "name": "Spadina—Fort York"
          }
        ],
        "pollDivisionIds": [
          10141979,
          10141956
        ],
        "postalCode": "M6K3M4",
        "streetName": "DOURO",
        "streetDirectionId": null,
        "streetTypeId": "ST",
        "placeName": "TORONTO",
        "streetNameDisplayText": "DOURO ST, TORONTO"
      }
    ]
  },
  {
    "postal": "M6K5B2",
    "result": []
  },
  {
    "postal": "M6K3X5",
    "result": []
  },
  {
    "postal": "M6K9R7",
    "result": []
  },
  {
    "postal": "M6K2X2",
    "result": [
      {
        "electoralDistricts": [
          {
            "election": null,
            "id": 83,
            "name": "Parkdale—High Park"
          }
        ],
        "pollDivisionIds": [
          10126448
        ],
        "postalCode": "M6K2X2",
        "streetName": "JAMESON",
        "streetDirectionId": null,
        "streetTypeId": "AVE",
        "placeName": "TORONTO",
        "streetNameDisplayText": "JAMESON AVE, TORONTO"
      }
    ]
  },
  {
    "postal": "M6K8Z6",
    "result": []
  },
  {
    "postal": "M6K4R4",
    "result": []
  },
  {
    "postal": "M6K2R1",
    "result": [
      {
        "electoralDistricts": [
          {
            "election": null,
            "id": 83,
            "name": "Parkdale—High Park"
          }
        ],
        "pollDivisionIds": [
          10126445
        ],
        "postalCode": "M6K2R1",
        "streetName": "O'HARA",
        "streetDirectionId": null,
        "streetTypeId": "AVE",
        "placeName": "TORONTO",
        "streetNameDisplayText": "O'HARA AVE, TORONTO"
      }
    ]
  },
  {
    "postal": "M6K3R8",
    "result": [
      {
        "electoralDistricts": [
          {
            "election": null,
            "id": 101,
            "name": "Spadina—Fort York"
          }
        ],
        "pollDivisionIds": [
          10141954
        ],
        "postalCode": "M6K3R8",
        "streetName": "WESTERM BATTERY",
        "streetDirectionId": null,
        "streetTypeId": "RD",
        "placeName": "TORONTO",
        "streetNameDisplayText": "WESTERM BATTERY RD, TORONTO"
      },
      {
        "electoralDistricts": [
          {
            "election": null,
            "id": 101,
            "name": "Spadina—Fort York"
          }
        ],
        "pollDivisionIds": [
          10141980
        ],
        "postalCode": "M6K3R8",
        "streetName": "WESTERN BATTERY",
        "streetDirectionId": null,
        "streetTypeId": "PK",
        "placeName": "TORONTO",
        "streetNameDisplayText": "WESTERN BATTERY PK, TORONTO"
      },
      {
        "electoralDistricts": [
          {
            "election": null,
            "id": 101,
            "name": "Spadina—Fort York"
          }
        ],
        "pollDivisionIds": [
          10141980
        ],
        "postalCode": "M6K3R8",
        "streetName": "WESTERN BATTERY",
        "streetDirectionId": null,
        "streetTypeId": "RD",
        "placeName": "TORONTO",
        "streetNameDisplayText": "WESTERN BATTERY RD, TORONTO"
      }
    ]
  },
  {
    "postal": "M6K9A1",
    "result": []
  },
  {
    "postal": "M6K8L3",
    "result": []
  },
  {
    "postal": "M6K9K4",
    "result": []
  },
  {
    "postal": "M6K9S3",
    "result": []
  },
  {
    "postal": "M6K8N7",
    "result": []
  },
  {
    "postal": "M6K1C6",
    "result": [
      {
        "electoralDistricts": [
          {
            "election": null,
            "id": 83,
            "name": "Parkdale—High Park"
          }
        ],
        "pollDivisionIds": [
          10126449
        ],
        "postalCode": "M6K1C6",
        "streetName": "TRENTON",
        "streetDirectionId": null,
        "streetTypeId": "TERR",
        "placeName": "TORONTO",
        "streetNameDisplayText": "TRENTON TERR, TORONTO"
      }
    ]
  },
  {
    "postal": "M6K3Z8",
    "result": []
  },
  {
    "postal": "M6K8G5",
    "result": []
  },
  {
    "postal": "M6K5R6",
    "result": []
  },
  {
    "postal": "M6K2W3",
    "result": []
  },
  {
    "postal": "M6K0A0",
    "result": []
  },
  {
    "postal": "M6K6P8",
    "result": []
  },
  {
    "postal": "M6K8N9",
    "result": []
  },
  {
    "postal": "M6K0S9",
    "result": []
  },
  {
    "postal": "M6K8G0",
    "result": []
  },
  {
    "postal": "M6K8C7",
    "result": []
  },
  {
    "postal": "M6K5X8",
    "result": []
  },
  {
    "postal": "M6K7E8",
    "result": []
  },
  {
    "postal": "M6K6X2",
    "result": []
  },
  {
    "postal": "M6K4C6",
    "result": []
  },
  {
    "postal": "M6K7H2",
    "result": []
  },
  {
    "postal": "M6K4R0",
    "result": []
  },
  {
    "postal": "M6K6J3",
    "result": []
  },
  {
    "postal": "M6K4B8",
    "result": []
  },
  {
    "postal": "M6K6H6",
    "result": []
  },
  {
    "postal": "M6K0S1",
    "result": []
  },
  {
    "postal": "M6K4E3",
    "result": []
  },
  {
    "postal": "M6K7K2",
    "result": []
  },
  {
    "postal": "M6K7T8",
    "result": []
  },
  {
    "postal": "M6K0J9",
    "result": []
  },
  {
    "postal": "M6K5J9",
    "result": []
  },
  {
    "postal": "M6K5S7",
    "result": []
  },
  {
    "postal": "M6K0G9",
    "result": []
  },
  {
    "postal": "M6K3J9",
    "result": [
      {
        "electoralDistricts": [
          {
            "election": null,
            "id": 101,
            "name": "Spadina—Fort York"
          }
        ],
        "pollDivisionIds": [
          10141953
        ],
        "postalCode": "M6K3J9",
        "streetName": "FRASER",
        "streetDirectionId": null,
        "streetTypeId": "AVE",
        "placeName": "TORONTO",
        "streetNameDisplayText": "FRASER AVE, TORONTO"
      }
    ]
  },
  {
    "postal": "M6K2Y0",
    "result": []
  },
  {
    "postal": "M6K8X5",
    "result": []
  },
  {
    "postal": "M6K2M7",
    "result": [
      {
        "electoralDistricts": [
          {
            "election": null,
            "id": 19,
            "name": "Davenport"
          }
        ],
        "pollDivisionIds": [
          10136099
        ],
        "postalCode": "M6K2M7",
        "streetName": "BROCK",
        "streetDirectionId": null,
        "streetTypeId": "AVE",
        "placeName": "TORONTO",
        "streetNameDisplayText": "BROCK AVE, TORONTO"
      }
    ]
  },
  {
    "postal": "M6K9Z3",
    "result": []
  },
  {
    "postal": "M6K7W2",
    "result": []
  },
  {
    "postal": "M6K3W0",
    "result": []
  },
  {
    "postal": "M6K3M1",
    "result": [
      {
        "electoralDistricts": [
          {
            "election": null,
            "id": 101,
            "name": "Spadina—Fort York"
          }
        ],
        "pollDivisionIds": [
          10141953
        ],
        "postalCode": "M6K3M1",
        "streetName": "MOWAT",
        "streetDirectionId": null,
        "streetTypeId": "AVE",
        "placeName": "TORONTO",
        "streetNameDisplayText": "MOWAT AVE, TORONTO"
      }
    ]
  },
  {
    "postal": "M6K6A5",
    "result": []
  },
  {
    "postal": "M6K2M9",
    "result": [
      {
        "electoralDistricts": [
          {
            "election": null,
            "id": 83,
            "name": "Parkdale—High Park"
          }
        ],
        "pollDivisionIds": [
          10126449
        ],
        "postalCode": "M6K2M9",
        "streetName": "COWAN",
        "streetDirectionId": null,
        "streetTypeId": "AVE",
        "placeName": "TORONTO",
        "streetNameDisplayText": "COWAN AVE, TORONTO"
      }
    ]
  },
  {
    "postal": "M6K5C3",
    "result": []
  },
  {
    "postal": "M6K0Y6",
    "result": []
  },
  {
    "postal": "M6K9H7",
    "result": []
  },
  {
    "postal": "M6K3L0",
    "result": []
  },
  {
    "postal": "M6K5N9",
    "result": []
  },
  {
    "postal": "M6K5E3",
    "result": []
  },
  {
    "postal": "M6K7M9",
    "result": []
  },
  {
    "postal": "M6K8N2",
    "result": []
  },
  {
    "postal": "M6K9H3",
    "result": []
  },
  {
    "postal": "M6K2K8",
    "result": [
      {
        "electoralDistricts": [
          {
            "election": null,
            "id": 83,
            "name": "Parkdale—High Park"
          }
        ],
        "pollDivisionIds": [
          10126447
        ],
        "postalCode": "M6K2K8",
        "streetName": "BROCK",
        "streetDirectionId": null,
        "streetTypeId": "AVE",
        "placeName": "TORONTO",
        "streetNameDisplayText": "BROCK AVE, TORONTO"
      },
      {
        "electoralDistricts": [
          {
            "election": null,
            "id": 19,
            "name": "Davenport"
          }
        ],
        "pollDivisionIds": [
          10136099
        ],
        "postalCode": "M6K2K8",
        "streetName": "BROCK",
        "streetDirectionId": null,
        "streetTypeId": "CRES",
        "placeName": "TORONTO",
        "streetNameDisplayText": "BROCK CRES, TORONTO"
      },
      {
        "electoralDistricts": [
          {
            "election": null,
            "id": 111,
            "name": "Toronto—St. Paul's"
          }
        ],
        "pollDivisionIds": [
          10136063
        ],
        "postalCode": "M6K2K8",
        "streetName": "RAGLAN",
        "streetDirectionId": null,
        "streetTypeId": null,
        "placeName": "TORONTO,ON",
        "streetNameDisplayText": "RAGLAN, TORONTO,ON"
      }
    ]
  },
  {
    "postal": "M6K9L0",
    "result": []
  },
  {
    "postal": "M6K6L9",
    "result": []
  },
  {
    "postal": "M6K6A8",
    "result": []
  },
  {
    "postal": "M6K2K6",
    "result": [
      {
        "electoralDistricts": [
          {
            "election": null,
            "id": 83,
            "name": "Parkdale—High Park"
          }
        ],
        "pollDivisionIds": [
          10126447
        ],
        "postalCode": "M6K2K6",
        "streetName": "BROCK",
        "streetDirectionId": null,
        "streetTypeId": "AVE",
        "placeName": "TORONTO",
        "streetNameDisplayText": "BROCK AVE, TORONTO"
      }
    ]
  },
  {
    "postal": "M6K2M0",
    "result": []
  },
  {
    "postal": "M6K5X7",
    "result": []
  },
  {
    "postal": "M6K0M7",
    "result": []
  },
  {
    "postal": "M6K7A6",
    "result": []
  },
  {
    "postal": "M6K3C5",
    "result": [
      {
        "electoralDistricts": [
          {
            "election": null,
            "id": 101,
            "name": "Spadina—Fort York"
          }
        ],
        "pollDivisionIds": [
          10141953
        ],
        "postalCode": "M6K3C5",
        "streetName": "KING",
        "streetDirectionId": "W",
        "streetTypeId": "ST",
        "placeName": "TORONTO",
        "streetNameDisplayText": "KING ST W, TORONTO"
      }
    ]
  },
  {
    "postal": "M6K2P2",
    "result": [
      {
        "electoralDistricts": [
          {
            "election": null,
            "id": 19,
            "name": "Davenport"
          }
        ],
        "pollDivisionIds": [
          10136104
        ],
        "postalCode": "M6K2P2",
        "streetName": "MECHANIC",
        "streetDirectionId": null,
        "streetTypeId": "AVE",
        "placeName": "TORONTO",
        "streetNameDisplayText": "MECHANIC AVE, TORONTO"
      },
      {
        "electoralDistricts": [
          {
            "election": null,
            "id": 19,
            "name": "Davenport"
          }
        ],
        "pollDivisionIds": [
          10136104
        ],
        "postalCode": "M6K2P2",
        "streetName": "MECHANICS",
        "streetDirectionId": null,
        "streetTypeId": "AVE",
        "placeName": "TORONTO",
        "streetNameDisplayText": "MECHANICS AVE, TORONTO"
      }
    ]
  },
  {
    "postal": "M6K9N4",
    "result": []
  },
  {
    "postal": "M6K3M9",
    "result": [
      {
        "electoralDistricts": [
          {
            "election": null,
            "id": 101,
            "setId": 0,
            "name": "Spadina—Fort York"
          }
        ],
        "pollDivisionIds": [
          10141978,
          10141953,
          10141979
        ],
        "postalCode": "M6K3M9",
        "streetName": "KING",
        "streetDirectionId": "W",
        "streetTypeId": "ST",
        "placeName": "TORONTO",
        "streetNameDisplayText": "KING ST W, TORONTO"
      }
    ]
  },
  {
    "postal": "M6K8K6",
    "result": []
  },
  {
    "postal": "M6K1L2",
    "result": [
      {
        "electoralDistricts": [
          {
            "election": null,
            "id": 83,
            "setId": 0,
            "name": "Parkdale—High Park"
          }
        ],
        "pollDivisionIds": [
          10126447
        ],
        "postalCode": "M6K1L2",
        "streetName": "QUEEN",
        "streetDirectionId": "W",
        "streetTypeId": "ST",
        "placeName": "TORONTO",
        "streetNameDisplayText": "QUEEN ST W, TORONTO"
      }
    ]
  },
  {
    "postal": "M6K2Z9",
    "result": [
      {
        "electoralDistricts": [
          {
            "election": null,
            "id": 83,
            "setId": 0,
            "name": "Parkdale—High Park"
          }
        ],
        "pollDivisionIds": [
          10126437
        ],
        "postalCode": "M6K2Z9",
        "streetName": "MAYFIELD",
        "streetDirectionId": null,
        "streetTypeId": "AVE",
        "placeName": "TORONTO",
        "streetNameDisplayText": "MAYFIELD AVE, TORONTO"
      },
      {
        "electoralDistricts": [
          {
            "election": null,
            "id": 83,
            "setId": 0,
            "name": "Parkdale—High Park"
          }
        ],
        "pollDivisionIds": [
          10126446
        ],
        "postalCode": "M6K2Z9",
        "streetName": "MAYNARD",
        "streetDirectionId": null,
        "streetTypeId": "AVE",
        "placeName": "TORONTO",
        "streetNameDisplayText": "MAYNARD AVE, TORONTO"
      }
    ]
  },
  {
    "postal": "M6K2S2",
    "result": [
      {
        "electoralDistricts": [
          {
            "election": null,
            "id": 19,
            "setId": 0,
            "name": "Davenport"
          }
        ],
        "pollDivisionIds": [
          10136104
        ],
        "postalCode": "M6K2S2",
        "streetName": "SAINT CLARENS",
        "streetDirectionId": null,
        "streetTypeId": "AVE",
        "placeName": "TORONTO",
        "streetNameDisplayText": "SAINT CLARENS AVE, TORONTO"
      },
      {
        "electoralDistricts": [
          {
            "election": null,
            "id": 19,
            "setId": 0,
            "name": "Davenport"
          }
        ],
        "pollDivisionIds": [
          10136104
        ],
        "postalCode": "M6K2S2",
        "streetName": "ST CLARENS",
        "streetDirectionId": null,
        "streetTypeId": "AVE",
        "placeName": "TORONTO",
        "streetNameDisplayText": "ST CLARENS AVE, TORONTO"
      }
    ]
  },
  {
    "postal": "M6K2W2",
    "result": [
      {
        "electoralDistricts": [
          {
            "election": null,
            "id": 19,
            "setId": 0,
            "name": "Davenport"
          },
          {
            "election": null,
            "id": 83,
            "setId": 0,
            "name": "Parkdale—High Park"
          }
        ],
        "pollDivisionIds": [
          10136104,
          10126445
        ],
        "postalCode": "M6K2W2",
        "streetName": "LANSDOWNE",
        "streetDirectionId": null,
        "streetTypeId": "AVE",
        "placeName": "TORONTO",
        "streetNameDisplayText": "LANSDOWNE AVE, TORONTO"
      }
    ]
  },
  {
    "postal": "M6K2C3",
    "result": [
      {
        "electoralDistricts": [
          {
            "election": null,
            "id": 83,
            "setId": 0,
            "name": "Parkdale—High Park"
          }
        ],
        "pollDivisionIds": [
          10126447
        ],
        "postalCode": "M6K2C3",
        "streetName": "GWYNNE",
        "streetDirectionId": null,
        "streetTypeId": "AVE",
        "placeName": "TORONTO",
        "streetNameDisplayText": "GWYNNE AVE, TORONTO"
      },
      {
        "electoralDistricts": [
          {
            "election": null,
            "id": 83,
            "setId": 0,
            "name": "Parkdale—High Park"
          }
        ],
        "pollDivisionIds": [
          10126447
        ],
        "postalCode": "M6K2C3",
        "streetName": "GWYNNE AVE.",
        "streetDirectionId": null,
        "streetTypeId": "AVE",
        "placeName": "TORONTO",
        "streetNameDisplayText": "GWYNNE AVE. AVE, TORONTO"
      }
    ]
  },
  {
    "postal": "M6K6L7",
    "result": []
  },
  {
    "postal": "M6K3K0",
    "result": []
  },
  {
    "postal": "M6K3C1",
    "result": [
      {
        "electoralDistricts": [
          {
            "election": null,
            "id": 110,
            "setId": 0,
            "name": "Toronto—Danforth"
          }
        ],
        "pollDivisionIds": [
          10142530
        ],
        "postalCode": "M6K3C1",
        "streetName": "LAKE SHORE",
        "streetDirectionId": "E",
        "streetTypeId": "BLVD",
        "placeName": "TORONTO",
        "streetNameDisplayText": "LAKE SHORE BLVD E, TORONTO"
      },
      {
        "electoralDistricts": [
          {
            "election": null,
            "id": 83,
            "setId": 0,
            "name": "Parkdale—High Park"
          }
        ],
        "pollDivisionIds": [
          10126448
        ],
        "postalCode": "M6K3C1",
        "streetName": "LAKE SHORE",
        "streetDirectionId": "W",
        "streetTypeId": "BLVD",
        "placeName": "TORONTO",
        "streetNameDisplayText": "LAKE SHORE BLVD W, TORONTO"
      }
    ]
  },
  {
    "postal": "M6K6M9",
    "result": []
  },
  {
    "postal": "M6K4N9",
    "result": []
  },
  {
    "postal": "M6K3Y7",
    "result": []
  },
  {
    "postal": "M6K2A9",
    "result": [
      {
        "electoralDistricts": [
          {
            "election": null,
            "id": 111,
            "setId": 0,
            "name": "Toronto—St. Paul's"
          },
          {
            "election": null,
            "id": 19,
            "setId": 0,
            "name": "Davenport"
          }
        ],
        "pollDivisionIds": [
          10143668,
          10136104
        ],
        "postalCode": "M6K2A9",
        "streetName": "DUFFERIN",
        "streetDirectionId": null,
        "streetTypeId": "ST",
        "placeName": "TORONTO",
        "streetNameDisplayText": "DUFFERIN ST, TORONTO"
      }
    ]
  },
  {
    "postal": "M6K6H5",
    "result": []
  },
  {
    "postal": "M6K8B4",
    "result": []
  },
  {
    "postal": "M6K4Z2",
    "result": []
  },
  {
    "postal": "M6K9J0",
    "result": []
  },
  {
    "postal": "M6K7V7",
    "result": []
  },
  {
    "postal": "M6K5T5",
    "result": []
  },
  {
    "postal": "M6K4W5",
    "result": []
  },
  {
    "postal": "M6K1T8",
    "result": [
      {
        "electoralDistricts": [
          {
            "election": null,
            "id": 19,
            "setId": 0,
            "name": "Davenport"
          }
        ],
        "pollDivisionIds": [
          10136104
        ],
        "postalCode": "M6K1T8",
        "streetName": "DUNDAS",
        "streetDirectionId": "W",
        "streetTypeId": "ST",
        "placeName": "TORONTO",
        "streetNameDisplayText": "DUNDAS ST W, TORONTO"
      }
    ]
  },
  {
    "postal": "M6K9G6",
    "result": []
  },
  {
    "postal": "M6K1H3",
    "result": [
      {
        "electoralDistricts": [
          {
            "election": null,
            "id": 83,
            "setId": 0,
            "name": "Parkdale—High Park"
          }
        ],
        "pollDivisionIds": [
          10126446
        ],
        "postalCode": "M6K1H3",
        "streetName": "KING",
        "streetDirectionId": "W",
        "streetTypeId": "ST",
        "placeName": "TORONTO",
        "streetNameDisplayText": "KING ST W, TORONTO"
      }
    ]
  },
  {
    "postal": "M6K5R5",
    "result": []
  },
  {
    "postal": "M6K8A4",
    "result": []
  },
  {
    "postal": "M6K3T6",
    "result": []
  },
  {
    "postal": "M6K9W8",
    "result": []
  },
  {
    "postal": "M6K0N3",
    "result": []
  },
  {
    "postal": "M6K7V0",
    "result": []
  },
  {
    "postal": "M6K8T5",
    "result": []
  },
  {
    "postal": "M6K5N3",
    "result": []
  },
  {
    "postal": "M6K5G9",
    "result": []
  },
  {
    "postal": "M6K3X8",
    "result": []
  },
  {
    "postal": "M6K9R3",
    "result": []
  },
  {
    "postal": "M6K2S1",
    "result": [
      {
        "electoralDistricts": [
          {
            "election": null,
            "id": 83,
            "setId": 0,
            "name": "Parkdale—High Park"
          }
        ],
        "pollDivisionIds": [
          10126446
        ],
        "postalCode": "M6K2S1",
        "streetName": "DUNN",
        "streetDirectionId": null,
        "streetTypeId": "AVE",
        "placeName": "TORONTO",
        "streetNameDisplayText": "DUNN AVE, TORONTO"
      }
    ]
  },
  {
    "postal": "M6K9J7",
    "result": []
  },
  {
    "postal": "M6K2J3",
    "result": [
      {
        "electoralDistricts": [
          {
            "election": null,
            "id": 83,
            "setId": 0,
            "name": "Parkdale—High Park"
          }
        ],
        "pollDivisionIds": [
          10126447
        ],
        "postalCode": "M6K2J3",
        "streetName": "ELM GROVE",
        "streetDirectionId": null,
        "streetTypeId": "AVE",
        "placeName": "TORONTO",
        "streetNameDisplayText": "ELM GROVE AVE, TORONTO"
      }
    ]
  },
  {
    "postal": "M6K3B6",
    "result": [
      {
        "electoralDistricts": [
          {
            "election": null,
            "id": 83,
            "setId": 0,
            "name": "Parkdale—High Park"
          }
        ],
        "pollDivisionIds": [
          10126444
        ],
        "postalCode": "M6K3B6",
        "streetName": "WILSON PARK",
        "streetDirectionId": null,
        "streetTypeId": "RD",
        "placeName": "TORONTO",
        "streetNameDisplayText": "WILSON PARK RD, TORONTO"
      }
    ]
  },
  {
    "postal": "M6K8J0",
    "result": []
  },
  {
    "postal": "M6K7R4",
    "result": []
  },
  {
    "postal": "M6K8K8",
    "result": []
  },
  {
    "postal": "M6K4P3",
    "result": []
  },
  {
    "postal": "M6K0A2",
    "result": [
      {
        "electoralDistricts": [
          {
            "election": null,
            "id": 101,
            "setId": 0,
            "name": "Spadina—Fort York"
          }
        ],
        "pollDivisionIds": [
          10141984,
          10141954,
          10141953
        ],
        "postalCode": "M6K0A2",
        "streetName": "EAST LIBERTY",
        "streetDirectionId": null,
        "streetTypeId": "ST",
        "placeName": "TORONTO",
        "streetNameDisplayText": "EAST LIBERTY ST, TORONTO"
      }
    ]
  },
  {
    "postal": "M6K2G2",
    "result": [
      {
        "electoralDistricts": [
          {
            "election": null,
            "id": 83,
            "setId": 0,
            "name": "Parkdale—High Park"
          }
        ],
        "pollDivisionIds": [
          10126449
        ],
        "postalCode": "M6K2G2",
        "streetName": "TYNDALL",
        "streetDirectionId": null,
        "streetTypeId": "AVE",
        "placeName": "TORONTO",
        "streetNameDisplayText": "TYNDALL AVE, TORONTO"
      }
    ]
  },
  {
    "postal": "M6K5Y9",
    "result": []
  },
  {
    "postal": "M6K7X0",
    "result": []
  },
  {
    "postal": "M6K7W3",
    "result": []
  },
  {
    "postal": "M6K7X5",
    "result": []
  },
  {
    "postal": "M6K5K6",
    "result": []
  },
  {
    "postal": "M6K5B6",
    "result": []
  },
  {
    "postal": "M6K7Z0",
    "result": []
  },
  {
    "postal": "M6K9H6",
    "result": []
  },
  {
    "postal": "M6K1B4",
    "result": [
      {
        "electoralDistricts": [
          {
            "election": null,
            "id": 83,
            "setId": 0,
            "name": "Parkdale—High Park"
          }
        ],
        "pollDivisionIds": [
          10126449
        ],
        "postalCode": "M6K1B4",
        "streetName": "SPRINGHURST",
        "streetDirectionId": null,
        "streetTypeId": "AVE",
        "placeName": "TORONTO",
        "streetNameDisplayText": "SPRINGHURST AVE, TORONTO"
      }
    ]
  },
  {
    "postal": "M6K1A0",
    "result": []
  },
  {
    "postal": "M6K9A0",
    "result": []
  },
  {
    "postal": "M6K1M6",
    "result": [
      {
        "electoralDistricts": [
          {
            "election": null,
            "id": 83,
            "setId": 0,
            "name": "Parkdale—High Park"
          }
        ],
        "pollDivisionIds": [
          10126447
        ],
        "postalCode": "M6K1M6",
        "streetName": "ABBS",
        "streetDirectionId": null,
        "streetTypeId": "ST",
        "placeName": "TORONTO",
        "streetNameDisplayText": "ABBS ST, TORONTO"
      }
    ]
  },
  {
    "postal": "M6K5H0",
    "result": []
  },
  {
    "postal": "M6K1K6",
    "result": [
      {
        "electoralDistricts": [
          {
            "election": null,
            "id": 83,
            "setId": 0,
            "name": "Parkdale—High Park"
          }
        ],
        "pollDivisionIds": [
          10126447
        ],
        "postalCode": "M6K1K6",
        "streetName": "MELBOURNE",
        "streetDirectionId": null,
        "streetTypeId": "AVE",
        "placeName": "TORONTO",
        "streetNameDisplayText": "MELBOURNE AVE, TORONTO"
      }
    ]
  },
  {
    "postal": "M6K5E1",
    "result": []
  },
  {
    "postal": "M6K3T9",
    "result": []
  },
  {
    "postal": "M6K2M6",
    "result": [
      {
        "electoralDistricts": [
          {
            "election": null,
            "id": 19,
            "setId": 0,
            "name": "Davenport"
          }
        ],
        "pollDivisionIds": [
          10136099
        ],
        "postalCode": "M6K2M6",
        "streetName": "BROCK",
        "streetDirectionId": null,
        "streetTypeId": "AVE",
        "placeName": "TORONTO",
        "streetNameDisplayText": "BROCK AVE, TORONTO"
      }
    ]
  },
  {
    "postal": "M6K0G5",
    "result": []
  },
  {
    "postal": "M6K0Y2",
    "result": []
  },
  {
    "postal": "M6K2Y7",
    "result": [
      {
        "electoralDistricts": [
          {
            "election": null,
            "id": 83,
            "setId": 0,
            "name": "Parkdale—High Park"
          }
        ],
        "pollDivisionIds": [
          10126446
        ],
        "postalCode": "M6K2Y7",
        "streetName": "JAMESON",
        "streetDirectionId": null,
        "streetTypeId": "AVE",
        "placeName": "TORONTO",
        "streetNameDisplayText": "JAMESON AVE, TORONTO"
      }
    ]
  },
  {
    "postal": "M6K2J7",
    "result": [
      {
        "electoralDistricts": [
          {
            "election": null,
            "id": 83,
            "setId": 0,
            "name": "Parkdale—High Park"
          }
        ],
        "pollDivisionIds": [
          10126449
        ],
        "postalCode": "M6K2J7",
        "streetName": "SPENCER",
        "streetDirectionId": null,
        "streetTypeId": "AVE",
        "placeName": "TORONTO",
        "streetNameDisplayText": "SPENCER AVE, TORONTO"
      }
    ]
  },
  {
    "postal": "M6K4K7",
    "result": []
  },
  {
    "postal": "M6K7P9",
    "result": []
  },
  {
    "postal": "M6K8X0",
    "result": []
  },
  {
    "postal": "M6K3X1",
    "result": []
  },
  {
    "postal": "M6K1R5",
    "result": [
      {
        "electoralDistricts": [
          {
            "election": null,
            "id": 19,
            "setId": 0,
            "name": "Davenport"
          }
        ],
        "pollDivisionIds": [
          10136104
        ],
        "postalCode": "M6K1R5",
        "streetName": "FRANKISH",
        "streetDirectionId": null,
        "streetTypeId": "AVE",
        "placeName": "TORONTO",
        "streetNameDisplayText": "FRANKISH AVE, TORONTO"
      }
    ]
  },
  {
    "postal": "M6K6X6",
    "result": []
  },
  {
    "postal": "M6K0Y1",
    "result": []
  },
  {
    "postal": "M6K8G1",
    "result": []
  },
  {
    "postal": "M6K3J3",
    "result": []
  },
  {
    "postal": "M6K8C2",
    "result": []
  },
  {
    "postal": "M6K4X9",
    "result": []
  },
  {
    "postal": "M6K6G9",
    "result": []
  },
  {
    "postal": "M6K4M3",
    "result": []
  },
  {
    "postal": "M6K9P7",
    "result": []
  },
  {
    "postal": "M6K4E5",
    "result": []
  },
  {
    "postal": "M6K5K9",
    "result": []
  },
  {
    "postal": "M6K2V2",
    "result": [
      {
        "electoralDistricts": [
          {
            "election": null,
            "id": 83,
            "setId": 0,
            "name": "Parkdale—High Park"
          }
        ],
        "pollDivisionIds": [
          10126448,
          10126449
        ],
        "postalCode": "M6K2V2",
        "streetName": "CLOSE",
        "streetDirectionId": null,
        "streetTypeId": "AVE",
        "placeName": "TORONTO",
        "streetNameDisplayText": "CLOSE AVE, TORONTO"
      }
    ]
  },
  {
    "postal": "M6K2N9",
    "result": [
      {
        "electoralDistricts": [
          {
            "election": null,
            "id": 19,
            "setId": 0,
            "name": "Davenport"
          }
        ],
        "pollDivisionIds": [
          10136104
        ],
        "postalCode": "M6K2N9",
        "streetName": "NORFOLK",
        "streetDirectionId": null,
        "streetTypeId": "ST",
        "placeName": "TORONTO",
        "streetNameDisplayText": "NORFOLK ST, TORONTO"
      }
    ]
  },
  {
    "postal": "M6K6L4",
    "result": []
  },
  {
    "postal": "M6K8E0",
    "result": []
  },
  {
    "postal": "M6K0N0",
    "result": []
  },
  {
    "postal": "M6K6R0",
    "result": []
  },
  {
    "postal": "M6K9C1",
    "result": []
  },
  {
    "postal": "M6K4H4",
    "result": []
  },
  {
    "postal": "M6K5W3",
    "result": []
  },
  {
    "postal": "M6K9N9",
    "result": []
  },
  {
    "postal": "M6K1V7",
    "result": [
      {
        "electoralDistricts": [
          {
            "election": null,
            "id": 19,
            "setId": 0,
            "name": "Davenport"
          }
        ],
        "pollDivisionIds": [
          10136099
        ],
        "postalCode": "M6K1V7",
        "streetName": "FISHER",
        "streetDirectionId": null,
        "streetTypeId": "ST",
        "placeName": "TORONTO",
        "streetNameDisplayText": "FISHER ST, TORONTO"
      }
    ]
  },
  {
    "postal": "M6K8J1",
    "result": []
  },
  {
    "postal": "M6K5V9",
    "result": []
  },
  {
    "postal": "M6K2S8",
    "result": [
      {
        "electoralDistricts": [
          {
            "election": null,
            "id": 19,
            "setId": 0,
            "name": "Davenport"
          }
        ],
        "pollDivisionIds": [
          10136099
        ],
        "postalCode": "M6K2S8",
        "streetName": "SAINT CLARENS",
        "streetDirectionId": null,
        "streetTypeId": "AVE",
        "placeName": "TORONTO",
        "streetNameDisplayText": "SAINT CLARENS AVE, TORONTO"
      }
    ]
  },
  {
    "postal": "M6K6P0",
    "result": []
  },
  {
    "postal": "M6K4J8",
    "result": []
  },
  {
    "postal": "M6K0N1",
    "result": []
  },
  {
    "postal": "M6K1Y7",
    "result": [
      {
        "electoralDistricts": [
          {
            "election": null,
            "id": 101,
            "setId": 0,
            "name": "Spadina—Fort York"
          }
        ],
        "pollDivisionIds": [
          10141953
        ],
        "postalCode": "M6K1Y7",
        "streetName": "FRASER",
        "streetDirectionId": null,
        "streetTypeId": "AVE",
        "placeName": "TORONTO",
        "streetNameDisplayText": "FRASER AVE, TORONTO"
      }
    ]
  },
  {
    "postal": "M6K7W5",
    "result": []
  },
  {
    "postal": "M6K3Z1",
    "result": []
  },
  {
    "postal": "M6K7M6",
    "result": []
  },
  {
    "postal": "M6K1W7",
    "result": [
      {
        "electoralDistricts": [
          {
            "election": null,
            "id": 101,
            "setId": 0,
            "name": "Spadina—Fort York"
          }
        ],
        "pollDivisionIds": [
          10141957,
          10141964
        ],
        "postalCode": "M6K1W7",
        "streetName": "STRACHAN",
        "streetDirectionId": null,
        "streetTypeId": "AVE",
        "placeName": "TORONTO",
        "streetNameDisplayText": "STRACHAN AVE, TORONTO"
      }
    ]
  },
  {
    "postal": "M6K1X1",
    "result": [
      {
        "electoralDistricts": [
          {
            "election": null,
            "id": 101,
            "setId": 0,
            "name": "Spadina—Fort York"
          }
        ],
        "pollDivisionIds": [
          10141953
        ],
        "postalCode": "M6K1X1",
        "streetName": "HANNA",
        "streetDirectionId": null,
        "streetTypeId": "AVE",
        "placeName": "TORONTO",
        "streetNameDisplayText": "HANNA AVE, TORONTO"
      }
    ]
  },
  {
    "postal": "M6K0C1",
    "result": []
  },
  {
    "postal": "M6K4N3",
    "result": []
  },
  {
    "postal": "M6K4S8",
    "result": []
  },
  {
    "postal": "M6K1H6",
    "result": [
      {
        "electoralDistricts": [
          {
            "election": null,
            "id": 83,
            "setId": 0,
            "name": "Parkdale—High Park"
          }
        ],
        "pollDivisionIds": [
          10126448
        ],
        "postalCode": "M6K1H6",
        "streetName": "KING",
        "streetDirectionId": "W",
        "streetTypeId": "ST",
        "placeName": "TORONTO",
        "streetNameDisplayText": "KING ST W, TORONTO"
      }
    ]
  },
  {
    "postal": "M6K2Z4",
    "result": [
      {
        "electoralDistricts": [
          {
            "election": null,
            "id": 83,
            "setId": 0,
            "name": "Parkdale—High Park"
          }
        ],
        "pollDivisionIds": [
          10126446
        ],
        "postalCode": "M6K2Z4",
        "streetName": "JAMESON",
        "streetDirectionId": null,
        "streetTypeId": "AVE",
        "placeName": "TORONTO",
        "streetNameDisplayText": "JAMESON AVE, TORONTO"
      }
    ]
  },
  {
    "postal": "M6K7K3",
    "result": []
  },
  {
    "postal": "M6K8A2",
    "result": []
  },
  {
    "postal": "M6K6J1",
    "result": []
  },
  {
    "postal": "M6K5Z6",
    "result": []
  },
  {
    "postal": "M6K3Z0",
    "result": []
  },
  {
    "postal": "M6K8M0",
    "result": []
  },
  {
    "postal": "M6K1Z6",
    "result": [
      {
        "electoralDistricts": [
          {
            "election": null,
            "id": 83,
            "setId": 0,
            "name": "Parkdale—High Park"
          }
        ],
        "pollDivisionIds": [
          10126447
        ],
        "postalCode": "M6K1Z6",
        "streetName": "DUFFERIN",
        "streetDirectionId": null,
        "streetTypeId": "ST",
        "placeName": "TORONTO",
        "streetNameDisplayText": "DUFFERIN ST, TORONTO"
      }
    ]
  },
  {
    "postal": "M6K8K7",
    "result": []
  },
  {
    "postal": "M6K1N3",
    "result": [
      {
        "electoralDistricts": [
          {
            "election": null,
            "id": 83,
            "setId": 0,
            "name": "Parkdale—High Park"
          }
        ],
        "pollDivisionIds": [
          10126447
        ],
        "postalCode": "M6K1N3",
        "streetName": "EARNBRIDGE",
        "streetDirectionId": null,
        "streetTypeId": "ST",
        "placeName": "TORONTO",
        "streetNameDisplayText": "EARNBRIDGE ST, TORONTO"
      }
    ]
  },
  {
    "postal": "M6K9S2",
    "result": []
  },
  {
    "postal": "M6K2K1",
    "result": [
      {
        "electoralDistricts": [
          {
            "election": null,
            "id": 83,
            "setId": 0,
            "name": "Parkdale—High Park"
          }
        ],
        "pollDivisionIds": [
          10126449
        ],
        "postalCode": "M6K2K1",
        "streetName": "SPENCER",
        "streetDirectionId": null,
        "streetTypeId": "AVE",
        "placeName": "TORONTO",
        "streetNameDisplayText": "SPENCER AVE, TORONTO"
      }
    ]
  },
  {
    "postal": "M6K1E8",
    "result": []
  },
  {
    "postal": "M6K9B8",
    "result": []
  },
  {
    "postal": "M6K7X4",
    "result": []
  },
  {
    "postal": "M6K1Z4",
    "result": [
      {
        "electoralDistricts": [
          {
            "election": null,
            "id": 19,
            "setId": 0,
            "name": "Davenport"
          },
          {
            "election": null,
            "id": 83,
            "setId": 0,
            "name": "Parkdale—High Park"
          }
        ],
        "pollDivisionIds": [
          10136103,
          10126481
        ],
        "postalCode": "M6K1Z4",
        "streetName": "DUFFERIN",
        "streetDirectionId": null,
        "streetTypeId": "ST",
        "placeName": "TORONTO",
        "streetNameDisplayText": "DUFFERIN ST, TORONTO"
      }
    ]
  },
  {
    "postal": "M6K2C7",
    "result": [
      {
        "electoralDistricts": [
          {
            "election": null,
            "id": 83,
            "setId": 0,
            "name": "Parkdale—High Park"
          }
        ],
        "pollDivisionIds": [
          10126447
        ],
        "postalCode": "M6K2C7",
        "streetName": "NOBLE",
        "streetDirectionId": null,
        "streetTypeId": "ST",
        "placeName": "TORONTO",
        "streetNameDisplayText": "NOBLE ST, TORONTO"
      }
    ]
  },
  {
    "postal": "M6K2E7",
    "result": [
      {
        "electoralDistricts": [
          {
            "election": null,
            "id": 83,
            "setId": 0,
            "name": "Parkdale—High Park"
          }
        ],
        "pollDivisionIds": [
          10126449
        ],
        "postalCode": "M6K2E7",
        "streetName": "TYNDALL",
        "streetDirectionId": null,
        "streetTypeId": "AVE",
        "placeName": "TORONTO",
        "streetNameDisplayText": "TYNDALL AVE, TORONTO"
      }
    ]
  },
  {
    "postal": "M6K3R1",
    "result": [
      {
        "electoralDistricts": [
          {
            "election": null,
            "id": 101,
            "setId": 0,
            "name": "Spadina—Fort York"
          }
        ],
        "pollDivisionIds": [
          10141985
        ],
        "postalCode": "M6K3R1",
        "streetName": "EAST LIBERTY",
        "streetDirectionId": null,
        "streetTypeId": "ST",
        "placeName": "TORONTO",
        "streetNameDisplayText": "EAST LIBERTY ST, TORONTO"
      }
    ]
  },
  {
    "postal": "M6K4K4",
    "result": []
  },
  {
    "postal": "M6K9G3",
    "result": []
  },
  {
    "postal": "M6K6C9",
    "result": []
  },
  {
    "postal": "M6K9H5",
    "result": []
  },
  {
    "postal": "M6K1P5",
    "result": [
      {
        "electoralDistricts": [
          {
            "election": null,
            "id": 19,
            "setId": 0,
            "name": "Davenport"
          }
        ],
        "pollDivisionIds": [
          10136104
        ],
        "postalCode": "M6K1P5",
        "streetName": "FLORENCE",
        "streetDirectionId": null,
        "streetTypeId": "ST",
        "placeName": "TORONTO",
        "streetNameDisplayText": "FLORENCE ST, TORONTO"
      }
    ]
  },
  {
    "postal": "M6K2J5",
    "result": [
      {
        "electoralDistricts": [
          {
            "election": null,
            "id": 83,
            "setId": 0,
            "name": "Parkdale—High Park"
          }
        ],
        "pollDivisionIds": [
          10126449
        ],
        "postalCode": "M6K2J5",
        "streetName": "SPENCER",
        "streetDirectionId": null,
        "streetTypeId": "AVE",
        "placeName": "TORONTO",
        "streetNameDisplayText": "SPENCER AVE, TORONTO"
      }
    ]
  },
  {
    "postal": "M6K4W6",
    "result": []
  },
  {
    "postal": "M6K8M8",
    "result": []
  },
  {
    "postal": "M6K6C5",
    "result": []
  },
  {
    "postal": "M6K9H0",
    "result": []
  },
  {
    "postal": "M6K1X8",
    "result": [
      {
        "electoralDistricts": [
          {
            "election": null,
            "id": 101,
            "setId": 0,
            "name": "Spadina—Fort York"
          }
        ],
        "pollDivisionIds": [
          10141953
        ],
        "postalCode": "M6K1X8",
        "streetName": "ATLANTIC",
        "streetDirectionId": null,
        "streetTypeId": "AVE",
        "placeName": "TORONTO",
        "streetNameDisplayText": "ATLANTIC AVE, TORONTO"
      }
    ]
  },
  {
    "postal": "M6K3H4",
    "result": []
  },
  {
    "postal": "M6K4E7",
    "result": []
  },
  {
    "postal": "M6K8A0",
    "result": []
  },
  {
    "postal": "M6K1Z7",
    "result": [
      {
        "electoralDistricts": [
          {
            "election": null,
            "id": 101,
            "setId": 0,
            "name": "Spadina—Fort York"
          }
        ],
        "pollDivisionIds": [
          10141949
        ],
        "postalCode": "M6K1Z7",
        "streetName": "DUFFERIN",
        "streetDirectionId": null,
        "streetTypeId": "ST",
        "placeName": "TORONTO",
        "streetNameDisplayText": "DUFFERIN ST, TORONTO"
      }
    ]
  },
  {
    "postal": "M6K7Z3",
    "result": []
  },
  {
    "postal": "M6K0L7",
    "result": []
  },
  {
    "postal": "M6K2C6",
    "result": [
      {
        "electoralDistricts": [
          {
            "election": null,
            "id": 83,
            "setId": 0,
            "name": "Parkdale—High Park"
          }
        ],
        "pollDivisionIds": [
          10126447
        ],
        "postalCode": "M6K2C6",
        "streetName": "NOBLE",
        "streetDirectionId": null,
        "streetTypeId": "ST",
        "placeName": "TORONTO",
        "streetNameDisplayText": "NOBLE ST, TORONTO"
      }
    ]
  },
  {
    "postal": "M6K6M3",
    "result": []
  },
  {
    "postal": "M6K2J1",
    "result": [
      {
        "electoralDistricts": [
          {
            "election": null,
            "id": 83,
            "setId": 0,
            "name": "Parkdale—High Park"
          }
        ],
        "pollDivisionIds": [
          10126447
        ],
        "postalCode": "M6K2J1",
        "streetName": "ELM GROVE",
        "streetDirectionId": null,
        "streetTypeId": "AVE",
        "placeName": "TORONTO",
        "streetNameDisplayText": "ELM GROVE AVE, TORONTO"
      },
      {
        "electoralDistricts": [
          {
            "election": null,
            "id": 83,
            "setId": 0,
            "name": "Parkdale—High Park"
          }
        ],
        "pollDivisionIds": [
          10126447
        ],
        "postalCode": "M6K2J1",
        "streetName": "ELM",
        "streetDirectionId": null,
        "streetTypeId": "GROVE",
        "placeName": "TORONTO",
        "streetNameDisplayText": "ELM GROVE, TORONTO"
      }
    ]
  },
  {
    "postal": "M6K3E3",
    "result": [
      {
        "electoralDistricts": [
          {
            "election": null,
            "id": 101,
            "setId": 0,
            "name": "Spadina—Fort York"
          }
        ],
        "pollDivisionIds": [
          10141953
        ],
        "postalCode": "M6K3E3",
        "streetName": "MOWAT",
        "streetDirectionId": null,
        "streetTypeId": "AVE",
        "placeName": "TORONTO",
        "streetNameDisplayText": "MOWAT AVE, TORONTO"
      }
    ]
  },
  {
    "postal": "M6K6Z9",
    "result": []
  },
  {
    "postal": "M6K3M3",
    "result": [
      {
        "electoralDistricts": [
          {
            "election": null,
            "id": 101,
            "setId": 0,
            "name": "Spadina—Fort York"
          }
        ],
        "pollDivisionIds": [
          10141956
        ],
        "postalCode": "M6K3M3",
        "streetName": "CRAWFORD",
        "streetDirectionId": null,
        "streetTypeId": "ST",
        "placeName": "TORONTO",
        "streetNameDisplayText": "CRAWFORD ST, TORONTO"
      }
    ]
  },
  {
    "postal": "M6K9B1",
    "result": []
  },
  {
    "postal": "M6K9J5",
    "result": []
  },
  {
    "postal": "M6K4V8",
    "result": []
  },
  {
    "postal": "M6K6W2",
    "result": []
  },
  {
    "postal": "M6K0V5",
    "result": []
  },
  {
    "postal": "M6K0Z8",
    "result": []
  },
  {
    "postal": "M6K5G2",
    "result": []
  },
  {
    "postal": "M6K4N4",
    "result": []
  },
  {
    "postal": "M6K8G7",
    "result": []
  },
  {
    "postal": "M6K8W1",
    "result": []
  },
  {
    "postal": "M6K1S6",
    "result": [
      {
        "electoralDistricts": [
          {
            "election": null,
            "id": 83,
            "setId": 0,
            "name": "Parkdale—High Park"
          }
        ],
        "pollDivisionIds": [
          10126479
        ],
        "postalCode": "M6K1S6",
        "streetName": "DUNN",
        "streetDirectionId": null,
        "streetTypeId": "AVE",
        "placeName": "TORONTO",
        "streetNameDisplayText": "DUNN AVE, TORONTO"
      }
    ]
  },
  {
    "postal": "M6K4E0",
    "result": []
  },
  {
    "postal": "M6K4L9",
    "result": []
  },
  {
    "postal": "M6K5Z9",
    "result": []
  },
  {
    "postal": "M6K5V3",
    "result": []
  },
  {
    "postal": "M6K4V2",
    "result": []
  },
  {
    "postal": "M6K7C0",
    "result": []
  },
  {
    "postal": "M6K6L0",
    "result": []
  },
  {
    "postal": "M6K1S9",
    "result": [
      {
        "electoralDistricts": [
          {
            "election": null,
            "id": 19,
            "setId": 0,
            "name": "Davenport"
          }
        ],
        "pollDivisionIds": [
          10136104
        ],
        "postalCode": "M6K1S9",
        "streetName": "SHIRLEY",
        "streetDirectionId": null,
        "streetTypeId": "ST",
        "placeName": "TORONTO",
        "streetNameDisplayText": "SHIRLEY ST, TORONTO"
      }
    ]
  },
  {
    "postal": "M6K7R6",
    "result": []
  },
  {
    "postal": "M6K7J0",
    "result": []
  },
  {
    "postal": "M6K5M0",
    "result": []
  },
  {
    "postal": "M6K2E5",
    "result": [
      {
        "electoralDistricts": [
          {
            "election": null,
            "id": 83,
            "setId": 0,
            "name": "Parkdale—High Park"
          }
        ],
        "pollDivisionIds": [
          10126449
        ],
        "postalCode": "M6K2E5",
        "streetName": "TYNDALL",
        "streetDirectionId": null,
        "streetTypeId": "AVE",
        "placeName": "TORONTO",
        "streetNameDisplayText": "TYNDALL AVE, TORONTO"
      }
    ]
  },
  {
    "postal": "M6K7C7",
    "result": []
  },
  {
    "postal": "M6K5C0",
    "result": []
  },
  {
    "postal": "M6K8V9",
    "result": []
  },
  {
    "postal": "M6K7E0",
    "result": []
  },
  {
    "postal": "M6K6R4",
    "result": []
  },
  {
    "postal": "M6K3Z7",
    "result": []
  },
  {
    "postal": "M6K1J9",
    "result": [
      {
        "electoralDistricts": [
          {
            "election": null,
            "id": 83,
            "setId": 0,
            "name": "Parkdale—High Park"
          }
        ],
        "pollDivisionIds": [
          10126446
        ],
        "postalCode": "M6K1J9",
        "streetName": "LEOPOLD",
        "streetDirectionId": null,
        "streetTypeId": "ST",
        "placeName": "TORONTO",
        "streetNameDisplayText": "LEOPOLD ST, TORONTO"
      }
    ]
  },
  {
    "postal": "M6K7K6",
    "result": []
  },
  {
    "postal": "M6K7Y5",
    "result": []
  },
  {
    "postal": "M6K1B7",
    "result": [
      {
        "electoralDistricts": [
          {
            "election": null,
            "id": 83,
            "setId": 0,
            "name": "Parkdale—High Park"
          }
        ],
        "pollDivisionIds": [
          10126449
        ],
        "postalCode": "M6K1B7",
        "streetName": "SPRINGHURST",
        "streetDirectionId": null,
        "streetTypeId": "AVE",
        "placeName": "TORONTO",
        "streetNameDisplayText": "SPRINGHURST AVE, TORONTO"
      }
    ]
  },
  {
    "postal": "M6K4S9",
    "result": []
  },
  {
    "postal": "M6K9R9",
    "result": []
  },
  {
    "postal": "M6K5K7",
    "result": []
  },
  {
    "postal": "M6K6P2",
    "result": []
  },
  {
    "postal": "M6K2C5",
    "result": [
      {
        "electoralDistricts": [
          {
            "election": null,
            "id": 83,
            "setId": 0,
            "name": "Parkdale—High Park"
          }
        ],
        "pollDivisionIds": [
          10126447
        ],
        "postalCode": "M6K2C5",
        "streetName": "GWYNNE",
        "streetDirectionId": null,
        "streetTypeId": "AVE",
        "placeName": "TORONTO",
        "streetNameDisplayText": "GWYNNE AVE, TORONTO"
      }
    ]
  },
  {
    "postal": "M6K2N0",
    "result": []
  },
  {
    "postal": "M6K1G0",
    "result": []
  },
  {
    "postal": "M6K4K5",
    "result": []
  },
  {
    "postal": "M6K9B5",
    "result": []
  },
  {
    "postal": "M6K6T5",
    "result": []
  },
  {
    "postal": "M6K1N8",
    "result": [
      {
        "electoralDistricts": [
          {
            "election": null,
            "id": 83,
            "setId": 0,
            "name": "Parkdale—High Park"
          }
        ],
        "pollDivisionIds": [
          10126445
        ],
        "postalCode": "M6K1N8",
        "streetName": "SEAFORTH",
        "streetDirectionId": null,
        "streetTypeId": "AVE",
        "placeName": "TORONTO",
        "streetNameDisplayText": "SEAFORTH AVE, TORONTO"
      }
    ]
  },
  {
    "postal": "M6K0C0",
    "result": []
  },
  {
    "postal": "M6K0R9",
    "result": []
  },
  {
    "postal": "M6K7L1",
    "result": []
  },
  {
    "postal": "M6K3Y8",
    "result": []
  },
  {
    "postal": "M6K7X9",
    "result": []
  },
  {
    "postal": "M6K1A7",
    "result": [
      {
        "electoralDistricts": [
          {
            "election": null,
            "id": 101,
            "setId": 0,
            "name": "Spadina—Fort York"
          }
        ],
        "pollDivisionIds": [
          10141953
        ],
        "postalCode": "M6K1A7",
        "streetName": "LIBERTY",
        "streetDirectionId": null,
        "streetTypeId": "ST",
        "placeName": "TORONTO",
        "streetNameDisplayText": "LIBERTY ST, TORONTO"
      }
    ]
  },
  {
    "postal": "M6K2T9",
    "result": [
      {
        "electoralDistricts": [
          {
            "election": null,
            "id": 19,
            "setId": 0,
            "name": "Davenport"
          }
        ],
        "pollDivisionIds": [
          10136104
        ],
        "postalCode": "M6K2T9",
        "streetName": "NORTHERN",
        "streetDirectionId": null,
        "streetTypeId": "PL",
        "placeName": "TORONTO",
        "streetNameDisplayText": "NORTHERN PL, TORONTO"
      }
    ]
  },
  {
    "postal": "M6K2E6",
    "result": [
      {
        "electoralDistricts": [
          {
            "election": null,
            "id": 83,
            "setId": 0,
            "name": "Parkdale—High Park"
          }
        ],
        "pollDivisionIds": [
          10126449
        ],
        "postalCode": "M6K2E6",
        "streetName": "TYNDALL",
        "streetDirectionId": null,
        "streetTypeId": "AVE",
        "placeName": "TORONTO",
        "streetNameDisplayText": "TYNDALL AVE, TORONTO"
      }
    ]
  },
  {
    "postal": "M6K8Y1",
    "result": []
  },
  {
    "postal": "M6K0J5",
    "result": []
  },
  {
    "postal": "M6K4J1",
    "result": []
  },
  {
    "postal": "M6K1A5",
    "result": []
  },
  {
    "postal": "M6K6Z6",
    "result": []
  },
  {
    "postal": "M6K5K4",
    "result": []
  },
  {
    "postal": "M6K7R9",
    "result": []
  },
  {
    "postal": "M6K6G4",
    "result": []
  }
]
