[
  {
    "postal": "N9J9J6",
    "result": []
  },
  {
    "postal": "N9J9Z5",
    "result": []
  },
  {
    "postal": "N9J7H8",
    "result": []
  },
  {
    "postal": "N9J0P6",
    "result": []
  },
  {
    "postal": "N9J0S7",
    "result": []
  },
  {
    "postal": "N9J8B9",
    "result": []
  },
  {
    "postal": "N9J2A6",
    "result": [
      {
        "electoralDistricts": [
          {
            "election": null,
            "id": 27,
            "name": "Essex"
          }
        ],
        "pollDivisionIds": [
          10138017
        ],
        "postalCode": "N9J2A6",
        "streetName": "FRONT",
        "streetDirectionId": null,
        "streetTypeId": "RD",
        "placeName": "LASALLE",
        "streetNameDisplayText": "FRONT RD, LASALLE"
      }
    ]
  },
  {
    "postal": "N9J7V2",
    "result": []
  },
  {
    "postal": "N9J9P4",
    "result": []
  },
  {
    "postal": "N9J6G0",
    "result": []
  },
  {
    "postal": "N9J2K0",
    "result": []
  },
  {
    "postal": "N9J7N6",
    "result": []
  },
  {
    "postal": "N9J5R3",
    "result": []
  },
  {
    "postal": "N9J7K0",
    "result": []
  },
  {
    "postal": "N9J3R2",
    "result": [
      {
        "electoralDistricts": [
          {
            "election": null,
            "id": 27,
            "name": "Essex"
          }
        ],
        "pollDivisionIds": [
          10138017,
          10138022
        ],
        "postalCode": "N9J3R2",
        "streetName": "GRONDIN",
        "streetDirectionId": null,
        "streetTypeId": "ST",
        "placeName": "LASALLE",
        "streetNameDisplayText": "GRONDIN ST, LASALLE"
      },
      {
        "electoralDistricts": [
          {
            "election": null,
            "id": 27,
            "name": "Essex"
          }
        ],
        "pollDivisionIds": [
          10138017
        ],
        "postalCode": "N9J3R2",
        "streetName": "MERRILL",
        "streetDirectionId": null,
        "streetTypeId": "AVE",
        "placeName": "LASALLE",
        "streetNameDisplayText": "MERRILL AVE, LASALLE"
      },
      {
        "electoralDistricts": [
          {
            "election": null,
            "id": 27,
            "name": "Essex"
          }
        ],
        "pollDivisionIds": [
          10138017
        ],
        "postalCode": "N9J3R2",
        "streetName": "RENE",
        "streetDirectionId": null,
        "streetTypeId": "DR",
        "placeName": "LASALLE",
        "streetNameDisplayText": "RENE DR, LASALLE"
      }
    ]
  },
  {
    "postal": "N9J0J1",
    "result": []
  },
  {
    "postal": "N9J0B0",
    "result": []
  },
  {
    "postal": "N9J5Z2",
    "result": []
  },
  {
    "postal": "N9J7P3",
    "result": []
  },
  {
    "postal": "N9J2K3",
    "result": [
      {
        "electoralDistricts": [
          {
            "election": null,
            "id": 27,
            "name": "Essex"
          }
        ],
        "pollDivisionIds": [
          10138018
        ],
        "postalCode": "N9J2K3",
        "streetName": "TANGLEWOOD",
        "streetDirectionId": null,
        "streetTypeId": "CRES",
        "placeName": "LASALLE",
        "streetNameDisplayText": "TANGLEWOOD CRES, LASALLE"
      },
      {
        "electoralDistricts": [
          {
            "election": null,
            "id": 27,
            "name": "Essex"
          }
        ],
        "pollDivisionIds": [
          10138018
        ],
        "postalCode": "N9J2K3",
        "streetName": "TANGLEWOOD",
        "streetDirectionId": null,
        "streetTypeId": "CRT",
        "placeName": "LASALLE",
        "streetNameDisplayText": "TANGLEWOOD CRT, LASALLE"
      }
    ]
  },
  {
    "postal": "N9J7Y6",
    "result": []
  },
  {
    "postal": "N9J1L9",
    "result": [
      {
        "electoralDistricts": [
          {
            "election": null,
            "id": 27,
            "name": "Essex"
          }
        ],
        "pollDivisionIds": [
          10138017
        ],
        "postalCode": "N9J1L9",
        "streetName": "LAURIER",
        "streetDirectionId": null,
        "streetTypeId": "DR",
        "placeName": "LASALLE",
        "streetNameDisplayText": "LAURIER DR, LASALLE"
      }
    ]
  },
  {
    "postal": "N9J8T0",
    "result": []
  },
  {
    "postal": "N9J3K8",
    "result": [
      {
        "electoralDistricts": [
          {
            "election": null,
            "id": 27,
            "name": "Essex"
          }
        ],
        "pollDivisionIds": [
          10138022
        ],
        "postalCode": "N9J3K8",
        "streetName": "RIVER",
        "streetDirectionId": null,
        "streetTypeId": "AVE",
        "placeName": "LASALLE",
        "streetNameDisplayText": "RIVER AVE, LASALLE"
      }
    ]
  },
  {
    "postal": "N9J5W9",
    "result": []
  },
  {
    "postal": "N9J6T9",
    "result": []
  },
  {
    "postal": "N9J4H1",
    "result": []
  },
  {
    "postal": "N9J7A2",
    "result": []
  },
  {
    "postal": "N9J5G0",
    "result": []
  },
  {
    "postal": "N9J8V5",
    "result": []
  },
  {
    "postal": "N9J2Y8",
    "result": []
  },
  {
    "postal": "N9J2B6",
    "result": [
      {
        "electoralDistricts": [
          {
            "election": null,
            "id": 27,
            "name": "Essex"
          }
        ],
        "pollDivisionIds": [
          10138016
        ],
        "postalCode": "N9J2B6",
        "streetName": "FRONT",
        "streetDirectionId": null,
        "streetTypeId": "RD",
        "placeName": "LASALLE",
        "streetNameDisplayText": "FRONT RD, LASALLE"
      }
    ]
  },
  {
    "postal": "N9J4W8",
    "result": []
  },
  {
    "postal": "N9J8H7",
    "result": []
  },
  {
    "postal": "N9J5P1",
    "result": []
  },
  {
    "postal": "N9J2B8",
    "result": [
      {
        "electoralDistricts": [
          {
            "election": null,
            "id": 27,
            "name": "Essex"
          }
        ],
        "pollDivisionIds": [
          10138017,
          10138016
        ],
        "postalCode": "N9J2B8",
        "streetName": "FRONT",
        "streetDirectionId": null,
        "streetTypeId": "RD",
        "placeName": "LASALLE",
        "streetNameDisplayText": "FRONT RD, LASALLE"
      }
    ]
  },
  {
    "postal": "N9J0P2",
    "result": []
  },
  {
    "postal": "N9J9M1",
    "result": []
  },
  {
    "postal": "N9J3G0",
    "result": []
  },
  {
    "postal": "N9J9Z2",
    "result": []
  },
  {
    "postal": "N9J2A0",
    "result": []
  },
  {
    "postal": "N9J6Y0",
    "result": []
  },
  {
    "postal": "N9J2Z8",
    "result": [
      {
        "electoralDistricts": [
          {
            "election": null,
            "id": 27,
            "name": "Essex"
          }
        ],
        "pollDivisionIds": [
          10138022
        ],
        "postalCode": "N9J2Z8",
        "streetName": "ROSATI",
        "streetDirectionId": null,
        "streetTypeId": "DR",
        "placeName": "LASALLE",
        "streetNameDisplayText": "ROSATI DR, LASALLE"
      }
    ]
  },
  {
    "postal": "N9J7Y3",
    "result": []
  },
  {
    "postal": "N9J6Z5",
    "result": []
  },
  {
    "postal": "N9J6E0",
    "result": []
  },
  {
    "postal": "N9J9B7",
    "result": []
  },
  {
    "postal": "N9J9S5",
    "result": []
  },
  {
    "postal": "N9J3X3",
    "result": [
      {
        "electoralDistricts": [
          {
            "election": null,
            "id": 27,
            "name": "Essex"
          }
        ],
        "pollDivisionIds": [
          10138018
        ],
        "postalCode": "N9J3X3",
        "streetName": "JEWEL",
        "streetDirectionId": null,
        "streetTypeId": "ST",
        "placeName": "LASALLE",
        "streetNameDisplayText": "JEWEL ST, LASALLE"
      },
      {
        "electoralDistricts": [
          {
            "election": null,
            "id": 27,
            "name": "Essex"
          }
        ],
        "pollDivisionIds": [
          10138018
        ],
        "postalCode": "N9J3X3",
        "streetName": "TYLER",
        "streetDirectionId": null,
        "streetTypeId": "RD",
        "placeName": "LASALLE",
        "streetNameDisplayText": "TYLER RD, LASALLE"
      }
    ]
  },
  {
    "postal": "N9J7R5",
    "result": []
  },
  {
    "postal": "N9J2X3",
    "result": [
      {
        "electoralDistricts": [
          {
            "election": null,
            "id": 27,
            "name": "Essex"
          }
        ],
        "pollDivisionIds": [
          10138018
        ],
        "postalCode": "N9J2X3",
        "streetName": "VALLEY",
        "streetDirectionId": null,
        "streetTypeId": "RD",
        "placeName": "LASALLE",
        "streetNameDisplayText": "VALLEY RD, LASALLE"
      }
    ]
  },
  {
    "postal": "N9J8Z9",
    "result": []
  },
  {
    "postal": "N9J0N4",
    "result": []
  },
  {
    "postal": "N9J1K1",
    "result": [
      {
        "electoralDistricts": [
          {
            "election": null,
            "id": 27,
            "name": "Essex"
          }
        ],
        "pollDivisionIds": [
          10138017
        ],
        "postalCode": "N9J1K1",
        "streetName": "LAFFERTY",
        "streetDirectionId": null,
        "streetTypeId": "AVE",
        "placeName": "LASALLE",
        "streetNameDisplayText": "LAFFERTY AVE, LASALLE"
      }
    ]
  },
  {
    "postal": "N9J1S3",
    "result": [
      {
        "electoralDistricts": [
          {
            "election": null,
            "id": 27,
            "name": "Essex"
          }
        ],
        "pollDivisionIds": [
          10138017
        ],
        "postalCode": "N9J1S3",
        "streetName": "DELAWARE",
        "streetDirectionId": null,
        "streetTypeId": "AVE",
        "placeName": "LASALLE",
        "streetNameDisplayText": "DELAWARE AVE, LASALLE"
      },
      {
        "electoralDistricts": [
          {
            "election": null,
            "id": 27,
            "name": "Essex"
          }
        ],
        "pollDivisionIds": [
          10138017
        ],
        "postalCode": "N9J1S3",
        "streetName": "DELAWARE",
        "streetDirectionId": null,
        "streetTypeId": "ST",
        "placeName": "LASALLE",
        "streetNameDisplayText": "DELAWARE ST, LASALLE"
      }
    ]
  },
  {
    "postal": "N9J6M4",
    "result": []
  },
  {
    "postal": "N9J9A9",
    "result": []
  },
  {
    "postal": "N9J9Z9",
    "result": []
  },
  {
    "postal": "N9J6T4",
    "result": []
  },
  {
    "postal": "N9J0B2",
    "result": [
      {
        "electoralDistricts": [
          {
            "election": null,
            "id": 27,
            "name": "Essex"
          }
        ],
        "pollDivisionIds": [
          10138022
        ],
        "postalCode": "N9J0B2",
        "streetName": "OUTRAM",
        "streetDirectionId": null,
        "streetTypeId": "AVE",
        "placeName": "LASALLE",
        "streetNameDisplayText": "OUTRAM AVE, LASALLE"
      }
    ]
  },
  {
    "postal": "N9J2L9",
    "result": [
      {
        "electoralDistricts": [
          {
            "election": null,
            "id": 27,
            "name": "Essex"
          }
        ],
        "pollDivisionIds": [
          10138022
        ],
        "postalCode": "N9J2L9",
        "streetName": "MATCHETTE",
        "streetDirectionId": null,
        "streetTypeId": "RD",
        "placeName": "LASALLE",
        "streetNameDisplayText": "MATCHETTE RD, LASALLE"
      }
    ]
  },
  {
    "postal": "N9J8K9",
    "result": []
  },
  {
    "postal": "N9J2H9",
    "result": [
      {
        "electoralDistricts": [
          {
            "election": null,
            "id": 27,
            "name": "Essex"
          }
        ],
        "pollDivisionIds": [
          10138016
        ],
        "postalCode": "N9J2H9",
        "streetName": "GILBERT",
        "streetDirectionId": null,
        "streetTypeId": "AVE",
        "placeName": "LASALLE",
        "streetNameDisplayText": "GILBERT AVE, LASALLE"
      }
    ]
  },
  {
    "postal": "N9J3Z6",
    "result": [
      {
        "electoralDistricts": [
          {
            "election": null,
            "id": 27,
            "name": "Essex"
          }
        ],
        "pollDivisionIds": [
          10138017
        ],
        "postalCode": "N9J3Z6",
        "streetName": "SUPERIOR",
        "streetDirectionId": null,
        "streetTypeId": "ST",
        "placeName": "LASALLE",
        "streetNameDisplayText": "SUPERIOR ST, LASALLE"
      }
    ]
  },
  {
    "postal": "N9J3B0",
    "result": []
  },
  {
    "postal": "N9J2H8",
    "result": [
      {
        "electoralDistricts": [
          {
            "election": null,
            "id": 27,
            "name": "Essex"
          }
        ],
        "pollDivisionIds": [
          10138016
        ],
        "postalCode": "N9J2H8",
        "streetName": "MAYFAIR",
        "streetDirectionId": null,
        "streetTypeId": "AVE",
        "placeName": "LASALLE",
        "streetNameDisplayText": "MAYFAIR AVE, LASALLE"
      }
    ]
  },
  {
    "postal": "N9J3X2",
    "result": [
      {
        "electoralDistricts": [
          {
            "election": null,
            "id": 27,
            "name": "Essex"
          }
        ],
        "pollDivisionIds": [
          10138018
        ],
        "postalCode": "N9J3X2",
        "streetName": "TYLER",
        "streetDirectionId": null,
        "streetTypeId": "RD",
        "placeName": "LASALLE",
        "streetNameDisplayText": "TYLER RD, LASALLE"
      }
    ]
  },
  {
    "postal": "N9J2E9",
    "result": [
      {
        "electoralDistricts": [
          {
            "election": null,
            "id": 27,
            "name": "Essex"
          }
        ],
        "pollDivisionIds": [
          10138017
        ],
        "postalCode": "N9J2E9",
        "streetName": "MICHIGAN",
        "streetDirectionId": null,
        "streetTypeId": "AVE",
        "placeName": "LASALLE",
        "streetNameDisplayText": "MICHIGAN AVE, LASALLE"
      }
    ]
  },
  {
    "postal": "N9J9P6",
    "result": []
  },
  {
    "postal": "N9J9E2",
    "result": []
  },
  {
    "postal": "N9J9H2",
    "result": []
  },
  {
    "postal": "N9J1S8",
    "result": [
      {
        "electoralDistricts": [
          {
            "election": null,
            "id": 27,
            "name": "Essex"
          }
        ],
        "pollDivisionIds": [
          10138017
        ],
        "postalCode": "N9J1S8",
        "streetName": "SACRED HEART",
        "streetDirectionId": null,
        "streetTypeId": "DR",
        "placeName": "LASALLE",
        "streetNameDisplayText": "SACRED HEART DR, LASALLE"
      }
    ]
  },
  {
    "postal": "N9J3M6",
    "result": [
      {
        "electoralDistricts": [
          {
            "election": null,
            "id": 27,
            "name": "Essex"
          }
        ],
        "pollDivisionIds": [
          10138016
        ],
        "postalCode": "N9J3M6",
        "streetName": "CRYSTAL HARBOUR",
        "streetDirectionId": null,
        "streetTypeId": "DR",
        "placeName": "LASALLE",
        "streetNameDisplayText": "CRYSTAL HARBOUR DR, LASALLE"
      },
      {
        "electoralDistricts": [
          {
            "election": null,
            "id": 27,
            "name": "Essex"
          }
        ],
        "pollDivisionIds": [
          10138017
        ],
        "postalCode": "N9J3M6",
        "streetName": "GRONDIN",
        "streetDirectionId": null,
        "streetTypeId": "ST",
        "placeName": "LASALLE",
        "streetNameDisplayText": "GRONDIN ST, LASALLE"
      }
    ]
  },
  {
    "postal": "N9J6Z8",
    "result": []
  },
  {
    "postal": "N9J4J2",
    "result": []
  },
  {
    "postal": "N9J9Y1",
    "result": []
  },
  {
    "postal": "N9J8V6",
    "result": []
  },
  {
    "postal": "N9J6B2",
    "result": []
  },
  {
    "postal": "N9J1P8",
    "result": [
      {
        "electoralDistricts": [
          {
            "election": null,
            "id": 27,
            "name": "Essex"
          }
        ],
        "pollDivisionIds": [
          10138016
        ],
        "postalCode": "N9J1P8",
        "streetName": "MAPLE",
        "streetDirectionId": null,
        "streetTypeId": "AVE",
        "placeName": "LASALLE",
        "streetNameDisplayText": "MAPLE AVE, LASALLE"
      }
    ]
  },
  {
    "postal": "N9J0V8",
    "result": []
  },
  {
    "postal": "N9J4Y0",
    "result": []
  },
  {
    "postal": "N9J2T4",
    "result": [
      {
        "electoralDistricts": [
          {
            "election": null,
            "id": 27,
            "name": "Essex"
          }
        ],
        "pollDivisionIds": [
          10138018
        ],
        "postalCode": "N9J2T4",
        "streetName": "MALLARD",
        "streetDirectionId": null,
        "streetTypeId": "LANE",
        "placeName": "LASALLE",
        "streetNameDisplayText": "MALLARD LANE, LASALLE"
      }
    ]
  },
  {
    "postal": "N9J2S3",
    "result": [
      {
        "electoralDistricts": [
          {
            "election": null,
            "id": 27,
            "name": "Essex"
          }
        ],
        "pollDivisionIds": [
          10138016
        ],
        "postalCode": "N9J2S3",
        "streetName": "MATCHETTE",
        "streetDirectionId": null,
        "streetTypeId": "RD",
        "placeName": "LASALLE",
        "streetNameDisplayText": "MATCHETTE RD, LASALLE"
      }
    ]
  },
  {
    "postal": "N9J0K0",
    "result": []
  },
  {
    "postal": "N9J5N1",
    "result": []
  },
  {
    "postal": "N9J7T0",
    "result": []
  },
  {
    "postal": "N9J9N2",
    "result": []
  },
  {
    "postal": "N9J5L1",
    "result": []
  },
  {
    "postal": "N9J7G5",
    "result": []
  },
  {
    "postal": "N9J6K2",
    "result": []
  },
  {
    "postal": "N9J6P9",
    "result": []
  },
  {
    "postal": "N9J0E6",
    "result": []
  },
  {
    "postal": "N9J8R9",
    "result": []
  },
  {
    "postal": "N9J3G9",
    "result": [
      {
        "electoralDistricts": [
          {
            "election": null,
            "id": 27,
            "name": "Essex"
          }
        ],
        "pollDivisionIds": [
          10138022
        ],
        "postalCode": "N9J3G9",
        "streetName": "SMITH",
        "streetDirectionId": null,
        "streetTypeId": "CRES",
        "placeName": "LASALLE",
        "streetNameDisplayText": "SMITH CRES, LASALLE"
      }
    ]
  },
  {
    "postal": "N9J0V7",
    "result": []
  },
  {
    "postal": "N9J2Z1",
    "result": []
  },
  {
    "postal": "N9J7N1",
    "result": []
  },
  {
    "postal": "N9J3C6",
    "result": [
      {
        "electoralDistricts": [
          {
            "election": null,
            "id": 27,
            "name": "Essex"
          }
        ],
        "pollDivisionIds": [
          10138022
        ],
        "postalCode": "N9J3C6",
        "streetName": "BOUFFARD",
        "streetDirectionId": null,
        "streetTypeId": "RD",
        "placeName": "LASALLE",
        "streetNameDisplayText": "BOUFFARD RD, LASALLE"
      }
    ]
  },
  {
    "postal": "N9J4M1",
    "result": []
  },
  {
    "postal": "N9J9K2",
    "result": []
  },
  {
    "postal": "N9J9S6",
    "result": []
  },
  {
    "postal": "N9J4X1",
    "result": []
  },
  {
    "postal": "N9J8W2",
    "result": []
  },
  {
    "postal": "N9J7N2",
    "result": []
  },
  {
    "postal": "N9J8S3",
    "result": []
  },
  {
    "postal": "N9J4V0",
    "result": []
  },
  {
    "postal": "N9J6W4",
    "result": []
  },
  {
    "postal": "N9J5M1",
    "result": []
  },
  {
    "postal": "N9J0S4",
    "result": []
  },
  {
    "postal": "N9J5X6",
    "result": []
  },
  {
    "postal": "N9J8L5",
    "result": []
  },
  {
    "postal": "N9J5M8",
    "result": []
  },
  {
    "postal": "N9J2G3",
    "result": [
      {
        "electoralDistricts": [
          {
            "election": null,
            "id": 27,
            "name": "Essex"
          }
        ],
        "pollDivisionIds": [
          10138017
        ],
        "postalCode": "N9J2G3",
        "streetName": "MICHIGAN",
        "streetDirectionId": null,
        "streetTypeId": "AVE",
        "placeName": "LASALLE",
        "streetNameDisplayText": "MICHIGAN AVE, LASALLE"
      }
    ]
  },
  {
    "postal": "N9J8E4",
    "result": []
  },
  {
    "postal": "N9J7S9",
    "result": []
  },
  {
    "postal": "N9J1K3",
    "result": [
      {
        "electoralDistricts": [
          {
            "election": null,
            "id": 27,
            "name": "Essex"
          }
        ],
        "pollDivisionIds": [
          10138017
        ],
        "postalCode": "N9J1K3",
        "streetName": "LAFFERTY",
        "streetDirectionId": null,
        "streetTypeId": "AVE",
        "placeName": "LASALLE",
        "streetNameDisplayText": "LAFFERTY AVE, LASALLE"
      }
    ]
  },
  {
    "postal": "N9J4E1",
    "result": []
  },
  {
    "postal": "N9J4R2",
    "result": []
  },
  {
    "postal": "N9J6T0",
    "result": []
  },
  {
    "postal": "N9J3K5",
    "result": [
      {
        "electoralDistricts": [
          {
            "election": null,
            "id": 27,
            "name": "Essex"
          }
        ],
        "pollDivisionIds": [
          10138016
        ],
        "postalCode": "N9J3K5",
        "streetName": "MAYFAIR",
        "streetDirectionId": null,
        "streetTypeId": "AVE",
        "placeName": "LASALLE",
        "streetNameDisplayText": "MAYFAIR AVE, LASALLE"
      }
    ]
  },
  {
    "postal": "N9J3S3",
    "result": [
      {
        "electoralDistricts": [
          {
            "election": null,
            "id": 27,
            "name": "Essex"
          }
        ],
        "pollDivisionIds": [
          10138017
        ],
        "postalCode": "N9J3S3",
        "streetName": "FIELDS",
        "streetDirectionId": null,
        "streetTypeId": "AVE",
        "placeName": "LASALLE",
        "streetNameDisplayText": "FIELDS AVE, LASALLE"
      },
      {
        "electoralDistricts": [
          {
            "election": null,
            "id": 27,
            "name": "Essex"
          }
        ],
        "pollDivisionIds": [
          10138016
        ],
        "postalCode": "N9J3S3",
        "streetName": "GIGNAC",
        "streetDirectionId": null,
        "streetTypeId": "CRES",
        "placeName": "LASALLE",
        "streetNameDisplayText": "GIGNAC CRES, LASALLE"
      }
    ]
  },
  {
    "postal": "N9J3L4",
    "result": []
  },
  {
    "postal": "N9J9Y2",
    "result": []
  },
  {
    "postal": "N9J1E0",
    "result": []
  },
  {
    "postal": "N9J9A4",
    "result": []
  },
  {
    "postal": "N9J1L3",
    "result": []
  },
  {
    "postal": "N9J6N1",
    "result": []
  },
  {
    "postal": "N9J6G7",
    "result": []
  },
  {
    "postal": "N9J7W1",
    "result": []
  },
  {
    "postal": "N9J4M6",
    "result": []
  },
  {
    "postal": "N9J1K0",
    "result": []
  },
  {
    "postal": "N9J3E2",
    "result": [
      {
        "electoralDistricts": [
          {
            "election": null,
            "id": 27,
            "name": "Essex"
          }
        ],
        "pollDivisionIds": [
          10138018
        ],
        "postalCode": "N9J3E2",
        "streetName": "MARTIN",
        "streetDirectionId": null,
        "streetTypeId": "LANE",
        "placeName": "LASALLE",
        "streetNameDisplayText": "MARTIN LANE, LASALLE"
      },
      {
        "electoralDistricts": [
          {
            "election": null,
            "id": 27,
            "name": "Essex"
          }
        ],
        "pollDivisionIds": [
          10138018
        ],
        "postalCode": "N9J3E2",
        "streetName": "MARTIN",
        "streetDirectionId": null,
        "streetTypeId": "LANE",
        "placeName": "WINDSOR",
        "streetNameDisplayText": "MARTIN LANE, WINDSOR"
      }
    ]
  },
  {
    "postal": "N9J5H4",
    "result": []
  },
  {
    "postal": "N9J1K7",
    "result": [
      {
        "electoralDistricts": [
          {
            "election": null,
            "id": 27,
            "name": "Essex"
          }
        ],
        "pollDivisionIds": [
          10138017
        ],
        "postalCode": "N9J1K7",
        "streetName": "LAFFERTY",
        "streetDirectionId": null,
        "streetTypeId": "AVE",
        "placeName": "LASALLE",
        "streetNameDisplayText": "LAFFERTY AVE, LASALLE"
      }
    ]
  },
  {
    "postal": "N9J0H0",
    "result": []
  },
  {
    "postal": "N9J0J3",
    "result": []
  },
  {
    "postal": "N9J1X6",
    "result": [
      {
        "electoralDistricts": [
          {
            "election": null,
            "id": 27,
            "name": "Essex"
          }
        ],
        "pollDivisionIds": [
          10138023
        ],
        "postalCode": "N9J1X6",
        "streetName": "SPRUCEWOOD",
        "streetDirectionId": null,
        "streetTypeId": "AVE",
        "placeName": "LASALLE",
        "streetNameDisplayText": "SPRUCEWOOD AVE, LASALLE"
      }
    ]
  },
  {
    "postal": "N9J2Z6",
    "result": [
      {
        "electoralDistricts": [
          {
            "election": null,
            "id": 27,
            "name": "Essex"
          }
        ],
        "pollDivisionIds": [
          10138017
        ],
        "postalCode": "N9J2Z6",
        "streetName": "SACRED HEART",
        "streetDirectionId": null,
        "streetTypeId": "DR",
        "placeName": "LASALLE",
        "streetNameDisplayText": "SACRED HEART DR, LASALLE"
      }
    ]
  },
  {
    "postal": "N9J4R9",
    "result": []
  },
  {
    "postal": "N9J0W8",
    "result": []
  },
  {
    "postal": "N9J1L4",
    "result": [
      {
        "electoralDistricts": [
          {
            "election": null,
            "id": 27,
            "name": "Essex"
          }
        ],
        "pollDivisionIds": [
          10138017
        ],
        "postalCode": "N9J1L4",
        "streetName": "LAURIER",
        "streetDirectionId": null,
        "streetTypeId": "DR",
        "placeName": "LASALLE",
        "streetNameDisplayText": "LAURIER DR, LASALLE"
      }
    ]
  },
  {
    "postal": "N9J0C8",
    "result": [
      {
        "electoralDistricts": [
          {
            "election": null,
            "id": 27,
            "name": "Essex"
          }
        ],
        "pollDivisionIds": [
          10138023
        ],
        "postalCode": "N9J0C8",
        "streetName": "NEWMAN",
        "streetDirectionId": null,
        "streetTypeId": "BLVD",
        "placeName": "LASALLE",
        "streetNameDisplayText": "NEWMAN BLVD, LASALLE"
      },
      {
        "electoralDistricts": [
          {
            "election": null,
            "id": 27,
            "name": "Essex"
          }
        ],
        "pollDivisionIds": [
          10138023
        ],
        "postalCode": "N9J0C8",
        "streetName": "NEWMAN",
        "streetDirectionId": null,
        "streetTypeId": "BLVD",
        "placeName": "WINDSOR",
        "streetNameDisplayText": "NEWMAN BLVD, WINDSOR"
      }
    ]
  },
  {
    "postal": "N9J9X7",
    "result": []
  },
  {
    "postal": "N9J4T1",
    "result": []
  },
  {
    "postal": "N9J0M0",
    "result": []
  },
  {
    "postal": "N9J6A2",
    "result": []
  },
  {
    "postal": "N9J9S8",
    "result": []
  },
  {
    "postal": "N9J9T4",
    "result": []
  },
  {
    "postal": "N9J9Y4",
    "result": []
  },
  {
    "postal": "N9J6G5",
    "result": []
  },
  {
    "postal": "N9J6H9",
    "result": []
  },
  {
    "postal": "N9J2P3",
    "result": [
      {
        "electoralDistricts": [
          {
            "election": null,
            "id": 27,
            "name": "Essex"
          }
        ],
        "pollDivisionIds": [
          10138018
        ],
        "postalCode": "N9J2P3",
        "streetName": "FRONT",
        "streetDirectionId": null,
        "streetTypeId": "RD",
        "placeName": "LASALLE",
        "streetNameDisplayText": "FRONT RD, LASALLE"
      }
    ]
  },
  {
    "postal": "N9J1T6",
    "result": [
      {
        "electoralDistricts": [
          {
            "election": null,
            "id": 27,
            "name": "Essex"
          }
        ],
        "pollDivisionIds": [
          10138016
        ],
        "postalCode": "N9J1T6",
        "streetName": "SENATOR",
        "streetDirectionId": null,
        "streetTypeId": "ST",
        "placeName": "LASALLE",
        "streetNameDisplayText": "SENATOR ST, LASALLE"
      }
    ]
  },
  {
    "postal": "N9J4P6",
    "result": []
  },
  {
    "postal": "N9J3K1",
    "result": [
      {
        "electoralDistricts": [
          {
            "election": null,
            "id": 27,
            "name": "Essex"
          }
        ],
        "pollDivisionIds": [
          10138022
        ],
        "postalCode": "N9J3K1",
        "streetName": "BOUFFARD",
        "streetDirectionId": null,
        "streetTypeId": "RD",
        "placeName": "LASALLE",
        "streetNameDisplayText": "BOUFFARD RD, LASALLE"
      }
    ]
  },
  {
    "postal": "N9J6X4",
    "result": []
  },
  {
    "postal": "N9J4M8",
    "result": []
  },
  {
    "postal": "N9J2Y1",
    "result": [
      {
        "electoralDistricts": [
          {
            "election": null,
            "id": 27,
            "name": "Essex"
          }
        ],
        "pollDivisionIds": [
          10138022
        ],
        "postalCode": "N9J2Y1",
        "streetName": "BOUFFARD",
        "streetDirectionId": null,
        "streetTypeId": "RD",
        "placeName": "LASALLE",
        "streetNameDisplayText": "BOUFFARD RD, LASALLE"
      }
    ]
  },
  {
    "postal": "N9J6M1",
    "result": []
  },
  {
    "postal": "N9J5L8",
    "result": []
  },
  {
    "postal": "N9J3P6",
    "result": [
      {
        "electoralDistricts": [
          {
            "election": null,
            "id": 27,
            "name": "Essex"
          }
        ],
        "pollDivisionIds": [
          10138017
        ],
        "postalCode": "N9J3P6",
        "streetName": "CARNEGIE",
        "streetDirectionId": null,
        "streetTypeId": "AVE",
        "placeName": "LASALLE",
        "streetNameDisplayText": "CARNEGIE AVE, LASALLE"
      },
      {
        "electoralDistricts": [
          {
            "election": null,
            "id": 27,
            "name": "Essex"
          }
        ],
        "pollDivisionIds": [
          10138017
        ],
        "postalCode": "N9J3P6",
        "streetName": "FARRELL",
        "streetDirectionId": null,
        "streetTypeId": "AVE",
        "placeName": "LASALLE",
        "streetNameDisplayText": "FARRELL AVE, LASALLE"
      },
      {
        "electoralDistricts": [
          {
            "election": null,
            "id": 27,
            "name": "Essex"
          }
        ],
        "pollDivisionIds": [
          10138017
        ],
        "postalCode": "N9J3P6",
        "streetName": "GRONDIN",
        "streetDirectionId": null,
        "streetTypeId": "AVE",
        "placeName": "LASALLE",
        "streetNameDisplayText": "GRONDIN AVE, LASALLE"
      },
      {
        "electoralDistricts": [
          {
            "election": null,
            "id": 27,
            "name": "Essex"
          }
        ],
        "pollDivisionIds": [
          10138017
        ],
        "postalCode": "N9J3P6",
        "streetName": "GRONDIN",
        "streetDirectionId": null,
        "streetTypeId": "ST",
        "placeName": "LASALLE",
        "streetNameDisplayText": "GRONDIN ST, LASALLE"
      },
      {
        "electoralDistricts": [
          {
            "election": null,
            "id": 27,
            "name": "Essex"
          }
        ],
        "pollDivisionIds": [
          10138017
        ],
        "postalCode": "N9J3P6",
        "streetName": "GRONDIN",
        "streetDirectionId": null,
        "streetTypeId": "ST",
        "placeName": "WINDSOR",
        "streetNameDisplayText": "GRONDIN ST, WINDSOR"
      },
      {
        "electoralDistricts": [
          {
            "election": null,
            "id": 27,
            "name": "Essex"
          }
        ],
        "pollDivisionIds": [
          10138017
        ],
        "postalCode": "N9J3P6",
        "streetName": "VANDERNOOT",
        "streetDirectionId": null,
        "streetTypeId": "AVE",
        "placeName": "LASALLE",
        "streetNameDisplayText": "VANDERNOOT AVE, LASALLE"
      }
    ]
  },
  {
    "postal": "N9J9A5",
    "result": []
  },
  {
    "postal": "N9J7K1",
    "result": []
  },
  {
    "postal": "N9J3J4",
    "result": [
      {
        "electoralDistricts": [
          {
            "election": null,
            "id": 27,
            "name": "Essex"
          }
        ],
        "pollDivisionIds": [
          10138016
        ],
        "postalCode": "N9J3J4",
        "streetName": "INTERNATIONAL",
        "streetDirectionId": null,
        "streetTypeId": "AVE",
        "placeName": "LASALLE",
        "streetNameDisplayText": "INTERNATIONAL AVE, LASALLE"
      }
    ]
  },
  {
    "postal": "N9J5E7",
    "result": []
  },
  {
    "postal": "N9J3A7",
    "result": [
      {
        "electoralDistricts": [
          {
            "election": null,
            "id": 27,
            "name": "Essex"
          }
        ],
        "pollDivisionIds": [
          10138022
        ],
        "postalCode": "N9J3A7",
        "streetName": "RAMBLEWOOD",
        "streetDirectionId": null,
        "streetTypeId": "DR",
        "placeName": "LASALLE",
        "streetNameDisplayText": "RAMBLEWOOD DR, LASALLE"
      }
    ]
  },
  {
    "postal": "N9J1B9",
    "result": [
      {
        "electoralDistricts": [
          {
            "election": null,
            "id": 27,
            "name": "Essex"
          }
        ],
        "pollDivisionIds": [
          10138022
        ],
        "postalCode": "N9J1B9",
        "streetName": "REAUME",
        "streetDirectionId": null,
        "streetTypeId": "RD",
        "placeName": "LASALLE",
        "streetNameDisplayText": "REAUME RD, LASALLE"
      }
    ]
  },
  {
    "postal": "N9J9E8",
    "result": []
  },
  {
    "postal": "N9J1C9",
    "result": [
      {
        "electoralDistricts": [
          {
            "election": null,
            "id": 27,
            "name": "Essex"
          }
        ],
        "pollDivisionIds": [
          10138017
        ],
        "postalCode": "N9J1C9",
        "streetName": "VERMONT",
        "streetDirectionId": null,
        "streetTypeId": "ST",
        "placeName": "LASALLE",
        "streetNameDisplayText": "VERMONT ST, LASALLE"
      }
    ]
  },
  {
    "postal": "N9J3B5",
    "result": [
      {
        "electoralDistricts": [
          {
            "election": null,
            "id": 27,
            "name": "Essex"
          }
        ],
        "pollDivisionIds": [
          10138022
        ],
        "postalCode": "N9J3B5",
        "streetName": "RAMBLEWOOD",
        "streetDirectionId": null,
        "streetTypeId": "DR",
        "placeName": "LASALLE",
        "streetNameDisplayText": "RAMBLEWOOD DR, LASALLE"
      }
    ]
  },
  {
    "postal": "N9J8R0",
    "result": []
  },
  {
    "postal": "N9J3P2",
    "result": [
      {
        "electoralDistricts": [
          {
            "election": null,
            "id": 27,
            "name": "Essex"
          }
        ],
        "pollDivisionIds": [
          10138023
        ],
        "postalCode": "N9J3P2",
        "streetName": "KINGSLEY",
        "streetDirectionId": null,
        "streetTypeId": "AVE",
        "placeName": "LASALLE",
        "streetNameDisplayText": "KINGSLEY AVE, LASALLE"
      }
    ]
  },
  {
    "postal": "N9J5V4",
    "result": []
  },
  {
    "postal": "N9J4H0",
    "result": []
  },
  {
    "postal": "N9J4S7",
    "result": []
  },
  {
    "postal": "N9J6C2",
    "result": []
  },
  {
    "postal": "N9J8W3",
    "result": []
  },
  {
    "postal": "N9J4M5",
    "result": []
  },
  {
    "postal": "N9J5T1",
    "result": []
  },
  {
    "postal": "N9J3B3",
    "result": [
      {
        "electoralDistricts": [
          {
            "election": null,
            "id": 27,
            "name": "Essex"
          }
        ],
        "pollDivisionIds": [
          10138022
        ],
        "postalCode": "N9J3B3",
        "streetName": "RAMBLEWOOD",
        "streetDirectionId": null,
        "streetTypeId": "DR",
        "placeName": "LASALLE",
        "streetNameDisplayText": "RAMBLEWOOD DR, LASALLE"
      }
    ]
  },
  {
    "postal": "N9J6C6",
    "result": []
  },
  {
    "postal": "N9J7N8",
    "result": []
  },
  {
    "postal": "N9J2Y3",
    "result": [
      {
        "electoralDistricts": [
          {
            "election": null,
            "id": 27,
            "name": "Essex"
          }
        ],
        "pollDivisionIds": [
          10138023
        ],
        "postalCode": "N9J2Y3",
        "streetName": "MORTON",
        "streetDirectionId": null,
        "streetTypeId": "DR",
        "placeName": "LASALLE",
        "streetNameDisplayText": "MORTON DR, LASALLE"
      }
    ]
  },
  {
    "postal": "N9J2R6",
    "result": [
      {
        "electoralDistricts": [
          {
            "election": null,
            "id": 27,
            "name": "Essex"
          }
        ],
        "pollDivisionIds": [
          10138022
        ],
        "postalCode": "N9J2R6",
        "streetName": "MATCHETTE",
        "streetDirectionId": null,
        "streetTypeId": "RD",
        "placeName": "LASALLE",
        "streetNameDisplayText": "MATCHETTE RD, LASALLE"
      }
    ]
  },
  {
    "postal": "N9J7N3",
    "result": []
  },
  {
    "postal": "N9J8J2",
    "result": []
  },
  {
    "postal": "N9J6A9",
    "result": []
  },
  {
    "postal": "N9J3V2",
    "result": [
      {
        "electoralDistricts": [
          {
            "election": null,
            "id": 119,
            "name": "Windsor West"
          }
        ],
        "pollDivisionIds": [
          10142777
        ],
        "postalCode": "N9J3V2",
        "streetName": "MORTON",
        "streetDirectionId": null,
        "streetTypeId": "DR",
        "placeName": "WINDSOR",
        "streetNameDisplayText": "MORTON DR, WINDSOR"
      }
    ]
  },
  {
    "postal": "N9J2N3",
    "result": [
      {
        "electoralDistricts": [
          {
            "election": null,
            "id": 27,
            "name": "Essex"
          }
        ],
        "pollDivisionIds": [
          10138018
        ],
        "postalCode": "N9J2N3",
        "streetName": "FRONT",
        "streetDirectionId": null,
        "streetTypeId": "RD",
        "placeName": "LASALLE",
        "streetNameDisplayText": "FRONT RD, LASALLE"
      }
    ]
  },
  {
    "postal": "N9J1S5",
    "result": [
      {
        "electoralDistricts": [
          {
            "election": null,
            "id": 27,
            "name": "Essex"
          }
        ],
        "pollDivisionIds": [
          10138017
        ],
        "postalCode": "N9J1S5",
        "streetName": "DELAWARE",
        "streetDirectionId": null,
        "streetTypeId": "AVE",
        "placeName": "LASALLE",
        "streetNameDisplayText": "DELAWARE AVE, LASALLE"
      }
    ]
  },
  {
    "postal": "N9J4T7",
    "result": []
  },
  {
    "postal": "N9J6Y7",
    "result": []
  },
  {
    "postal": "N9J0W7",
    "result": []
  },
  {
    "postal": "N9J2W9",
    "result": [
      {
        "electoralDistricts": [
          {
            "election": null,
            "id": 27,
            "name": "Essex"
          }
        ],
        "pollDivisionIds": [
          10138018
        ],
        "postalCode": "N9J2W9",
        "streetName": "MARTIN",
        "streetDirectionId": null,
        "streetTypeId": "LANE",
        "placeName": "LASALLE",
        "streetNameDisplayText": "MARTIN LANE, LASALLE"
      }
    ]
  },
  {
    "postal": "N9J8V0",
    "result": []
  },
  {
    "postal": "N9J0H4",
    "result": []
  },
  {
    "postal": "N9J2T1",
    "result": [
      {
        "electoralDistricts": [
          {
            "election": null,
            "id": 27,
            "name": "Essex"
          }
        ],
        "pollDivisionIds": [
          10138018
        ],
        "postalCode": "N9J2T1",
        "streetName": "CANARD",
        "streetDirectionId": null,
        "streetTypeId": "DR",
        "placeName": "LASALLE",
        "streetNameDisplayText": "CANARD DR, LASALLE"
      }
    ]
  },
  {
    "postal": "N9J1B1",
    "result": [
      {
        "electoralDistricts": [
          {
            "election": null,
            "id": 27,
            "name": "Essex"
          }
        ],
        "pollDivisionIds": [
          10138017
        ],
        "postalCode": "N9J1B1",
        "streetName": "REAUME",
        "streetDirectionId": null,
        "streetTypeId": "RD",
        "placeName": "LASALLE",
        "streetNameDisplayText": "REAUME RD, LASALLE"
      }
    ]
  },
  {
    "postal": "N9J8B6",
    "result": []
  },
  {
    "postal": "N9J6H1",
    "result": []
  },
  {
    "postal": "N9J8T8",
    "result": []
  },
  {
    "postal": "N9J0T4",
    "result": []
  },
  {
    "postal": "N9J2C4",
    "result": [
      {
        "electoralDistricts": [
          {
            "election": null,
            "id": 27,
            "name": "Essex"
          }
        ],
        "pollDivisionIds": [
          10138016
        ],
        "postalCode": "N9J2C4",
        "streetName": "FRONT",
        "streetDirectionId": null,
        "streetTypeId": "RD",
        "placeName": "LASALLE",
        "streetNameDisplayText": "FRONT RD, LASALLE"
      }
    ]
  },
  {
    "postal": "N9J8N3",
    "result": []
  },
  {
    "postal": "N9J4L8",
    "result": []
  },
  {
    "postal": "N9J2B5",
    "result": [
      {
        "electoralDistricts": [
          {
            "election": null,
            "id": 27,
            "name": "Essex"
          }
        ],
        "pollDivisionIds": [
          10138017
        ],
        "postalCode": "N9J2B5",
        "streetName": "FRONT",
        "streetDirectionId": null,
        "streetTypeId": "RD",
        "placeName": "LASALLE",
        "streetNameDisplayText": "FRONT RD, LASALLE"
      }
    ]
  },
  {
    "postal": "N9J3H1",
    "result": [
      {
        "electoralDistricts": [
          {
            "election": null,
            "id": 27,
            "name": "Essex"
          }
        ],
        "pollDivisionIds": [
          10138022
        ],
        "postalCode": "N9J3H1",
        "streetName": "GAYLORD",
        "streetDirectionId": null,
        "streetTypeId": "AVE",
        "placeName": "LASALLE",
        "streetNameDisplayText": "GAYLORD AVE, LASALLE"
      },
      {
        "electoralDistricts": [
          {
            "election": null,
            "id": 27,
            "name": "Essex"
          }
        ],
        "pollDivisionIds": [
          10138022
        ],
        "postalCode": "N9J3H1",
        "streetName": "STATE",
        "streetDirectionId": null,
        "streetTypeId": "ST",
        "placeName": "LASALLE",
        "streetNameDisplayText": "STATE ST, LASALLE"
      },
      {
        "electoralDistricts": [
          {
            "election": null,
            "id": 27,
            "name": "Essex"
          }
        ],
        "pollDivisionIds": [
          10138022
        ],
        "postalCode": "N9J3H1",
        "streetName": "VANDERNOOT",
        "streetDirectionId": null,
        "streetTypeId": "AVE",
        "placeName": "LASALLE",
        "streetNameDisplayText": "VANDERNOOT AVE, LASALLE"
      }
    ]
  },
  {
    "postal": "N9J4Y1",
    "result": []
  },
  {
    "postal": "N9J7E2",
    "result": []
  },
  {
    "postal": "N9J2P5",
    "result": [
      {
        "electoralDistricts": [
          {
            "election": null,
            "id": 27,
            "name": "Essex"
          }
        ],
        "pollDivisionIds": [
          10138016
        ],
        "postalCode": "N9J2P5",
        "streetName": "MAPLE",
        "streetDirectionId": null,
        "streetTypeId": "AVE",
        "placeName": "LASALLE",
        "streetNameDisplayText": "MAPLE AVE, LASALLE"
      }
    ]
  },
  {
    "postal": "N9J8R7",
    "result": []
  },
  {
    "postal": "N9J9P1",
    "result": []
  },
  {
    "postal": "N9J3B8",
    "result": [
      {
        "electoralDistricts": [
          {
            "election": null,
            "id": 27,
            "name": "Essex"
          }
        ],
        "pollDivisionIds": [
          10138022
        ],
        "postalCode": "N9J3B8",
        "streetName": "RAMBLEWOOD",
        "streetDirectionId": null,
        "streetTypeId": "DR",
        "placeName": "LASALLE",
        "streetNameDisplayText": "RAMBLEWOOD DR, LASALLE"
      }
    ]
  },
  {
    "postal": "N9J3P7",
    "result": [
      {
        "electoralDistricts": [
          {
            "election": null,
            "id": 27,
            "name": "Essex"
          }
        ],
        "pollDivisionIds": [
          10138017
        ],
        "postalCode": "N9J3P7",
        "streetName": "FARRELL",
        "streetDirectionId": null,
        "streetTypeId": "AVE",
        "placeName": "LASALLE",
        "streetNameDisplayText": "FARRELL AVE, LASALLE"
      },
      {
        "electoralDistricts": [
          {
            "election": null,
            "id": 27,
            "name": "Essex"
          }
        ],
        "pollDivisionIds": [
          10138017
        ],
        "postalCode": "N9J3P7",
        "streetName": "VANDERNOOT",
        "streetDirectionId": null,
        "streetTypeId": "AVE",
        "placeName": "LASALLE",
        "streetNameDisplayText": "VANDERNOOT AVE, LASALLE"
      }
    ]
  },
  {
    "postal": "N9J9B2",
    "result": []
  },
  {
    "postal": "N9J6Z3",
    "result": []
  },
  {
    "postal": "N9J4N5",
    "result": []
  },
  {
    "postal": "N9J8T3",
    "result": []
  },
  {
    "postal": "N9J1V2",
    "result": [
      {
        "electoralDistricts": [
          {
            "election": null,
            "id": 27,
            "name": "Essex"
          }
        ],
        "pollDivisionIds": [
          10138016
        ],
        "postalCode": "N9J1V2",
        "streetName": "GARY",
        "streetDirectionId": null,
        "streetTypeId": "AVE",
        "placeName": "LASALLE",
        "streetNameDisplayText": "GARY AVE, LASALLE"
      }
    ]
  },
  {
    "postal": "N9J1Y0",
    "result": []
  },
  {
    "postal": "N9J3G6",
    "result": [
      {
        "electoralDistricts": [
          {
            "election": null,
            "id": 27,
            "name": "Essex"
          }
        ],
        "pollDivisionIds": [
          10138017
        ],
        "postalCode": "N9J3G6",
        "streetName": "ULSTER",
        "streetDirectionId": null,
        "streetTypeId": "ST",
        "placeName": "LASALLE",
        "streetNameDisplayText": "ULSTER ST, LASALLE"
      }
    ]
  },
  {
    "postal": "N9J3H7",
    "result": [
      {
        "electoralDistricts": [
          {
            "election": null,
            "id": 27,
            "name": "Essex"
          }
        ],
        "pollDivisionIds": [
          10138022
        ],
        "postalCode": "N9J3H7",
        "streetName": "MATCHETTE",
        "streetDirectionId": null,
        "streetTypeId": "RD",
        "placeName": "LASALLE",
        "streetNameDisplayText": "MATCHETTE RD, LASALLE"
      }
    ]
  },
  {
    "postal": "N9J7X8",
    "result": []
  },
  {
    "postal": "N9J0C7",
    "result": [
      {
        "electoralDistricts": [
          {
            "election": null,
            "id": 27,
            "name": "Essex"
          }
        ],
        "pollDivisionIds": [
          10138018,
          10138017
        ],
        "postalCode": "N9J0C7",
        "streetName": "HAZEL",
        "streetDirectionId": null,
        "streetTypeId": "ST",
        "placeName": "LASALLE",
        "streetNameDisplayText": "HAZEL ST, LASALLE"
      }
    ]
  },
  {
    "postal": "N9J0W9",
    "result": []
  },
  {
    "postal": "N9J8E6",
    "result": []
  },
  {
    "postal": "N9J9Z8",
    "result": []
  },
  {
    "postal": "N9J3P4",
    "result": [
      {
        "electoralDistricts": [
          {
            "election": null,
            "id": 27,
            "name": "Essex"
          }
        ],
        "pollDivisionIds": [
          10138023
        ],
        "postalCode": "N9J3P4",
        "streetName": "NORTH WOODMONT",
        "streetDirectionId": null,
        "streetTypeId": "AVE",
        "placeName": "LASALLE",
        "streetNameDisplayText": "NORTH WOODMONT AVE, LASALLE"
      }
    ]
  },
  {
    "postal": "N9J6L8",
    "result": []
  },
  {
    "postal": "N9J2R4",
    "result": [
      {
        "electoralDistricts": [
          {
            "election": null,
            "id": 27,
            "name": "Essex"
          }
        ],
        "pollDivisionIds": [
          10138018
        ],
        "postalCode": "N9J2R4",
        "streetName": "MATCHETTE",
        "streetDirectionId": null,
        "streetTypeId": "RD",
        "placeName": "LASALLE",
        "streetNameDisplayText": "MATCHETTE RD, LASALLE"
      }
    ]
  },
  {
    "postal": "N9J2W1",
    "result": [
      {
        "electoralDistricts": [
          {
            "election": null,
            "id": 27,
            "name": "Essex"
          }
        ],
        "pollDivisionIds": [
          10138018
        ],
        "postalCode": "N9J2W1",
        "streetName": "MALDEN",
        "streetDirectionId": null,
        "streetTypeId": "RD",
        "placeName": "LASALLE",
        "streetNameDisplayText": "MALDEN RD, LASALLE"
      }
    ]
  },
  {
    "postal": "N9J9H8",
    "result": []
  },
  {
    "postal": "N9J8X9",
    "result": []
  },
  {
    "postal": "N9J7H4",
    "result": []
  },
  {
    "postal": "N9J3J1",
    "result": [
      {
        "electoralDistricts": [
          {
            "election": null,
            "id": 27,
            "name": "Essex"
          }
        ],
        "pollDivisionIds": [
          10138022
        ],
        "postalCode": "N9J3J1",
        "streetName": "JAMIE",
        "streetDirectionId": null,
        "streetTypeId": "CRT",
        "placeName": "LASALLE",
        "streetNameDisplayText": "JAMIE CRT, LASALLE"
      },
      {
        "electoralDistricts": [
          {
            "election": null,
            "id": 27,
            "name": "Essex"
          }
        ],
        "pollDivisionIds": [
          10138022
        ],
        "postalCode": "N9J3J1",
        "streetName": "MONTY",
        "streetDirectionId": null,
        "streetTypeId": "ST",
        "placeName": "LASALLE",
        "streetNameDisplayText": "MONTY ST, LASALLE"
      }
    ]
  },
  {
    "postal": "N9J1P4",
    "result": [
      {
        "electoralDistricts": [
          {
            "election": null,
            "id": 27,
            "name": "Essex"
          }
        ],
        "pollDivisionIds": [
          10138017
        ],
        "postalCode": "N9J1P4",
        "streetName": "MAPLE",
        "streetDirectionId": null,
        "streetTypeId": "AVE",
        "placeName": "LASALLE",
        "streetNameDisplayText": "MAPLE AVE, LASALLE"
      }
    ]
  },
  {
    "postal": "N9J2A3",
    "result": [
      {
        "electoralDistricts": [
          {
            "election": null,
            "id": 27,
            "name": "Essex"
          }
        ],
        "pollDivisionIds": [
          10138017
        ],
        "postalCode": "N9J2A3",
        "streetName": "FRONT",
        "streetDirectionId": null,
        "streetTypeId": "RD",
        "placeName": "LASALLE",
        "streetNameDisplayText": "FRONT RD, LASALLE"
      }
    ]
  },
  {
    "postal": "N9J0Z1",
    "result": []
  },
  {
    "postal": "N9J1C1",
    "result": [
      {
        "electoralDistricts": [
          {
            "election": null,
            "id": 27,
            "name": "Essex"
          }
        ],
        "pollDivisionIds": [
          10138022
        ],
        "postalCode": "N9J1C1",
        "streetName": "REAUME",
        "streetDirectionId": null,
        "streetTypeId": "RD",
        "placeName": "LASALLE",
        "streetNameDisplayText": "REAUME RD, LASALLE"
      }
    ]
  },
  {
    "postal": "N9J0H3",
    "result": []
  },
  {
    "postal": "N9J7B0",
    "result": []
  },
  {
    "postal": "N9J5K2",
    "result": []
  },
  {
    "postal": "N9J1E9",
    "result": [
      {
        "electoralDistricts": [
          {
            "election": null,
            "id": 27,
            "name": "Essex"
          }
        ],
        "pollDivisionIds": [
          10138017
        ],
        "postalCode": "N9J1E9",
        "streetName": "BOUFFARD",
        "streetDirectionId": null,
        "streetTypeId": "RD",
        "placeName": "LASALLE",
        "streetNameDisplayText": "BOUFFARD RD, LASALLE"
      }
    ]
  },
  {
    "postal": "N9J9W7",
    "result": []
  },
  {
    "postal": "N9J5W6",
    "result": []
  },
  {
    "postal": "N9J6S6",
    "result": []
  },
  {
    "postal": "N9J2P8",
    "result": [
      {
        "electoralDistricts": [
          {
            "election": null,
            "id": 27,
            "name": "Essex"
          }
        ],
        "pollDivisionIds": [
          10138016
        ],
        "postalCode": "N9J2P8",
        "streetName": "BEACH",
        "streetDirectionId": null,
        "streetTypeId": "LANE",
        "placeName": "LASALLE",
        "streetNameDisplayText": "BEACH LANE, LASALLE"
      }
    ]
  },
  {
    "postal": "N9J4P8",
    "result": []
  },
  {
    "postal": "N9J0V9",
    "result": []
  },
  {
    "postal": "N9J5Y2",
    "result": []
  },
  {
    "postal": "N9J7Z7",
    "result": []
  },
  {
    "postal": "N9J6Y8",
    "result": []
  },
  {
    "postal": "N9J2G7",
    "result": [
      {
        "electoralDistricts": [
          {
            "election": null,
            "id": 27,
            "name": "Essex"
          }
        ],
        "pollDivisionIds": [
          10138017
        ],
        "postalCode": "N9J2G7",
        "streetName": "MICHIGAN",
        "streetDirectionId": null,
        "streetTypeId": "AVE",
        "placeName": "LASALLE",
        "streetNameDisplayText": "MICHIGAN AVE, LASALLE"
      }
    ]
  },
  {
    "postal": "N9J8C1",
    "result": []
  },
  {
    "postal": "N9J5C5",
    "result": []
  },
  {
    "postal": "N9J2X8",
    "result": [
      {
        "electoralDistricts": [
          {
            "election": null,
            "id": 27,
            "name": "Essex"
          }
        ],
        "pollDivisionIds": [
          10138022
        ],
        "postalCode": "N9J2X8",
        "streetName": "GILROY",
        "streetDirectionId": null,
        "streetTypeId": "ST",
        "placeName": "LASALLE",
        "streetNameDisplayText": "GILROY ST, LASALLE"
      }
    ]
  },
  {
    "postal": "N9J1W5",
    "result": [
      {
        "electoralDistricts": [
          {
            "election": null,
            "id": 27,
            "name": "Essex"
          }
        ],
        "pollDivisionIds": [
          10138016
        ],
        "postalCode": "N9J1W5",
        "streetName": "BECHARD BEACH",
        "streetDirectionId": null,
        "streetTypeId": "AVE",
        "placeName": "LASALLE",
        "streetNameDisplayText": "BECHARD BEACH AVE, LASALLE"
      }
    ]
  },
  {
    "postal": "N9J7G0",
    "result": []
  },
  {
    "postal": "N9J8J8",
    "result": []
  },
  {
    "postal": "N9J3Y0",
    "result": []
  },
  {
    "postal": "N9J9T7",
    "result": []
  },
  {
    "postal": "N9J5P4",
    "result": []
  },
  {
    "postal": "N9J4B0",
    "result": []
  },
  {
    "postal": "N9J9N8",
    "result": []
  },
  {
    "postal": "N9J4A7",
    "result": []
  },
  {
    "postal": "N9J4H9",
    "result": []
  },
  {
    "postal": "N9J6X1",
    "result": []
  },
  {
    "postal": "N9J9Y7",
    "result": []
  },
  {
    "postal": "N9J2Y5",
    "result": [
      {
        "electoralDistricts": [
          {
            "election": null,
            "id": 27,
            "name": "Essex"
          }
        ],
        "pollDivisionIds": [
          10138016
        ],
        "postalCode": "N9J2Y5",
        "streetName": "MARCEL",
        "streetDirectionId": null,
        "streetTypeId": "LANE",
        "placeName": "LASALLE",
        "streetNameDisplayText": "MARCEL LANE, LASALLE"
      }
    ]
  },
  {
    "postal": "N9J8L7",
    "result": []
  },
  {
    "postal": "N9J2A8",
    "result": [
      {
        "electoralDistricts": [
          {
            "election": null,
            "id": 27,
            "name": "Essex"
          }
        ],
        "pollDivisionIds": [
          10138017
        ],
        "postalCode": "N9J2A8",
        "streetName": "FRONT",
        "streetDirectionId": null,
        "streetTypeId": "RD",
        "placeName": "LASALLE",
        "streetNameDisplayText": "FRONT RD, LASALLE"
      }
    ]
  },
  {
    "postal": "N9J2K9",
    "result": [
      {
        "electoralDistricts": [
          {
            "election": null,
            "id": 27,
            "name": "Essex"
          }
        ],
        "pollDivisionIds": [
          10138022
        ],
        "postalCode": "N9J2K9",
        "streetName": "MALDEN",
        "streetDirectionId": null,
        "streetTypeId": "RD",
        "placeName": "LASALLE",
        "streetNameDisplayText": "MALDEN RD, LASALLE"
      }
    ]
  },
  {
    "postal": "N9J3E5",
    "result": []
  },
  {
    "postal": "N9J8N6",
    "result": []
  },
  {
    "postal": "N9J8J4",
    "result": []
  },
  {
    "postal": "N9J4R7",
    "result": []
  },
  {
    "postal": "N9J9K1",
    "result": []
  },
  {
    "postal": "N9J8E1",
    "result": []
  },
  {
    "postal": "N9J0R1",
    "result": []
  },
  {
    "postal": "N9J4J3",
    "result": []
  },
  {
    "postal": "N9J7E7",
    "result": []
  },
  {
    "postal": "N9J0J0",
    "result": []
  },
  {
    "postal": "N9J7R8",
    "result": []
  },
  {
    "postal": "N9J9X0",
    "result": []
  },
  {
    "postal": "N9J7P6",
    "result": []
  },
  {
    "postal": "N9J0R7",
    "result": []
  },
  {
    "postal": "N9J5W1",
    "result": []
  },
  {
    "postal": "N9J0K4",
    "result": []
  },
  {
    "postal": "N9J7N9",
    "result": []
  },
  {
    "postal": "N9J1N0",
    "result": []
  },
  {
    "postal": "N9J6P3",
    "result": []
  },
  {
    "postal": "N9J5A1",
    "result": []
  },
  {
    "postal": "N9J9M9",
    "result": []
  },
  {
    "postal": "N9J7T6",
    "result": []
  },
  {
    "postal": "N9J3X0",
    "result": []
  },
  {
    "postal": "N9J2T0",
    "result": []
  },
  {
    "postal": "N9J5X9",
    "result": []
  },
  {
    "postal": "N9J2R3",
    "result": [
      {
        "electoralDistricts": [
          {
            "election": null,
            "id": 27,
            "name": "Essex"
          }
        ],
        "pollDivisionIds": [
          10138018
        ],
        "postalCode": "N9J2R3",
        "streetName": "MATCHETTE",
        "streetDirectionId": null,
        "streetTypeId": "RD",
        "placeName": "LASALLE",
        "streetNameDisplayText": "MATCHETTE RD, LASALLE"
      }
    ]
  },
  {
    "postal": "N9J5N2",
    "result": []
  },
  {
    "postal": "N9J4Y7",
    "result": []
  },
  {
    "postal": "N9J7M0",
    "result": []
  },
  {
    "postal": "N9J8P3",
    "result": []
  },
  {
    "postal": "N9J3N3",
    "result": [
      {
        "electoralDistricts": [
          {
            "election": null,
            "id": 27,
            "name": "Essex"
          }
        ],
        "pollDivisionIds": [
          10138023
        ],
        "postalCode": "N9J3N3",
        "streetName": "CAMEOS",
        "streetDirectionId": null,
        "streetTypeId": "CRES",
        "placeName": "LASALLE",
        "streetNameDisplayText": "CAMEOS CRES, LASALLE"
      },
      {
        "electoralDistricts": [
          {
            "election": null,
            "id": 27,
            "name": "Essex"
          }
        ],
        "pollDivisionIds": [
          10138023
        ],
        "postalCode": "N9J3N3",
        "streetName": "NORMANDY",
        "streetDirectionId": null,
        "streetTypeId": "ST",
        "placeName": "LASALLE",
        "streetNameDisplayText": "NORMANDY ST, LASALLE"
      }
    ]
  },
  {
    "postal": "N9J7S3",
    "result": []
  },
  {
    "postal": "N9J3V9",
    "result": [
      {
        "electoralDistricts": [
          {
            "election": null,
            "id": 27,
            "name": "Essex"
          }
        ],
        "pollDivisionIds": [
          10138023
        ],
        "postalCode": "N9J3V9",
        "streetName": "MATCHETTE",
        "streetDirectionId": null,
        "streetTypeId": "RD",
        "placeName": "LASALLE",
        "streetNameDisplayText": "MATCHETTE RD, LASALLE"
      }
    ]
  },
  {
    "postal": "N9J9N7",
    "result": []
  },
  {
    "postal": "N9J0G4",
    "result": []
  },
  {
    "postal": "N9J2E2",
    "result": [
      {
        "electoralDistricts": [
          {
            "election": null,
            "id": 27,
            "name": "Essex"
          }
        ],
        "pollDivisionIds": [
          10138022
        ],
        "postalCode": "N9J2E2",
        "streetName": "ANTAYA",
        "streetDirectionId": null,
        "streetTypeId": "ST",
        "placeName": "LASALLE",
        "streetNameDisplayText": "ANTAYA ST, LASALLE"
      }
    ]
  },
  {
    "postal": "N9J7W8",
    "result": []
  },
  {
    "postal": "N9J7M5",
    "result": []
  },
  {
    "postal": "N9J5W8",
    "result": []
  },
  {
    "postal": "N9J5E5",
    "result": []
  },
  {
    "postal": "N9J1P9",
    "result": [
      {
        "electoralDistricts": [
          {
            "election": null,
            "id": 27,
            "name": "Essex"
          }
        ],
        "pollDivisionIds": [
          10138016
        ],
        "postalCode": "N9J1P9",
        "streetName": "MAPLE",
        "streetDirectionId": null,
        "streetTypeId": "AVE",
        "placeName": "LASALLE",
        "streetNameDisplayText": "MAPLE AVE, LASALLE"
      }
    ]
  },
  {
    "postal": "N9J8V8",
    "result": []
  },
  {
    "postal": "N9J9G8",
    "result": []
  },
  {
    "postal": "N9J8H9",
    "result": []
  },
  {
    "postal": "N9J1Z1",
    "result": [
      {
        "electoralDistricts": [
          {
            "election": null,
            "id": 27,
            "name": "Essex"
          }
        ],
        "pollDivisionIds": [
          10138018
        ],
        "postalCode": "N9J1Z1",
        "streetName": "GOLF VIEW",
        "streetDirectionId": null,
        "streetTypeId": "DR",
        "placeName": "LASALLE",
        "streetNameDisplayText": "GOLF VIEW DR, LASALLE"
      },
      {
        "electoralDistricts": [
          {
            "election": null,
            "id": 27,
            "name": "Essex"
          }
        ],
        "pollDivisionIds": [
          10138018
        ],
        "postalCode": "N9J1Z1",
        "streetName": "GOLFVIEW",
        "streetDirectionId": null,
        "streetTypeId": "DR",
        "placeName": "LASALLE",
        "streetNameDisplayText": "GOLFVIEW DR, LASALLE"
      }
    ]
  },
  {
    "postal": "N9J8M3",
    "result": []
  },
  {
    "postal": "N9J5H6",
    "result": []
  },
  {
    "postal": "N9J7W7",
    "result": []
  },
  {
    "postal": "N9J4L0",
    "result": []
  },
  {
    "postal": "N9J2N1",
    "result": [
      {
        "electoralDistricts": [
          {
            "election": null,
            "id": 27,
            "name": "Essex"
          }
        ],
        "pollDivisionIds": [
          10138018
        ],
        "postalCode": "N9J2N1",
        "streetName": "FRONT",
        "streetDirectionId": null,
        "streetTypeId": "RD",
        "placeName": "LASALLE",
        "streetNameDisplayText": "FRONT RD, LASALLE"
      }
    ]
  },
  {
    "postal": "N9J2H4",
    "result": [
      {
        "electoralDistricts": [
          {
            "election": null,
            "id": 27,
            "name": "Essex"
          }
        ],
        "pollDivisionIds": [
          10138017
        ],
        "postalCode": "N9J2H4",
        "streetName": "MAYFAIR",
        "streetDirectionId": null,
        "streetTypeId": "AVE",
        "placeName": "LASALLE",
        "streetNameDisplayText": "MAYFAIR AVE, LASALLE"
      }
    ]
  },
  {
    "postal": "N9J5C8",
    "result": []
  },
  {
    "postal": "N9J8B0",
    "result": []
  },
  {
    "postal": "N9J1T4",
    "result": [
      {
        "electoralDistricts": [
          {
            "election": null,
            "id": 27,
            "name": "Essex"
          }
        ],
        "pollDivisionIds": [
          10138017
        ],
        "postalCode": "N9J1T4",
        "streetName": "BOISMIER",
        "streetDirectionId": null,
        "streetTypeId": "AVE",
        "placeName": "LASALLE",
        "streetNameDisplayText": "BOISMIER AVE, LASALLE"
      }
    ]
  },
  {
    "postal": "N9J7N7",
    "result": []
  },
  {
    "postal": "N9J4L3",
    "result": []
  },
  {
    "postal": "N9J2N2",
    "result": [
      {
        "electoralDistricts": [
          {
            "election": null,
            "id": 27,
            "name": "Essex"
          }
        ],
        "pollDivisionIds": [
          10138018
        ],
        "postalCode": "N9J2N2",
        "streetName": "FRONT",
        "streetDirectionId": null,
        "streetTypeId": "RD",
        "placeName": "LASALLE",
        "streetNameDisplayText": "FRONT RD, LASALLE"
      }
    ]
  },
  {
    "postal": "N9J4N8",
    "result": []
  },
  {
    "postal": "N9J3M5",
    "result": [
      {
        "electoralDistricts": [
          {
            "election": null,
            "id": 27,
            "name": "Essex"
          }
        ],
        "pollDivisionIds": [
          10138017
        ],
        "postalCode": "N9J3M5",
        "streetName": "BIRMINGHAM",
        "streetDirectionId": null,
        "streetTypeId": "AVE",
        "placeName": "LASALLE",
        "streetNameDisplayText": "BIRMINGHAM AVE, LASALLE"
      }
    ]
  },
  {
    "postal": "N9J6H7",
    "result": []
  },
  {
    "postal": "N9J8Y8",
    "result": []
  },
  {
    "postal": "N9J5R9",
    "result": []
  },
  {
    "postal": "N9J8G3",
    "result": []
  },
  {
    "postal": "N9J4N7",
    "result": []
  },
  {
    "postal": "N9J0B9",
    "result": [
      {
        "electoralDistricts": [
          {
            "election": null,
            "id": 27,
            "name": "Essex"
          }
        ],
        "pollDivisionIds": [
          10138017,
          10138018
        ],
        "postalCode": "N9J0B9",
        "streetName": "MICHIGAN",
        "streetDirectionId": null,
        "streetTypeId": "AVE",
        "placeName": "LASALLE",
        "streetNameDisplayText": "MICHIGAN AVE, LASALLE"
      },
      {
        "electoralDistricts": [
          {
            "election": null,
            "id": 27,
            "name": "Essex"
          }
        ],
        "pollDivisionIds": [
          10138022,
          10138017
        ],
        "postalCode": "N9J0B9",
        "streetName": "ULSTER",
        "streetDirectionId": null,
        "streetTypeId": "ST",
        "placeName": "LASALLE",
        "streetNameDisplayText": "ULSTER ST, LASALLE"
      }
    ]
  },
  {
    "postal": "N9J9K7",
    "result": []
  },
  {
    "postal": "N9J9K9",
    "result": []
  },
  {
    "postal": "N9J3Z2",
    "result": [
      {
        "electoralDistricts": [
          {
            "election": null,
            "id": 27,
            "name": "Essex"
          }
        ],
        "pollDivisionIds": [
          10138023
        ],
        "postalCode": "N9J3Z2",
        "streetName": "CAMEOS",
        "streetDirectionId": null,
        "streetTypeId": "CRES",
        "placeName": "LASALLE",
        "streetNameDisplayText": "CAMEOS CRES, LASALLE"
      }
    ]
  },
  {
    "postal": "N9J6W7",
    "result": []
  },
  {
    "postal": "N9J0P1",
    "result": []
  },
  {
    "postal": "N9J3A0",
    "result": []
  },
  {
    "postal": "N9J8L9",
    "result": []
  },
  {
    "postal": "N9J6X0",
    "result": []
  },
  {
    "postal": "N9J3E9",
    "result": [
      {
        "electoralDistricts": [
          {
            "election": null,
            "id": 27,
            "name": "Essex"
          }
        ],
        "pollDivisionIds": [
          10138022
        ],
        "postalCode": "N9J3E9",
        "streetName": "LAFFERTY",
        "streetDirectionId": null,
        "streetTypeId": "AVE",
        "placeName": "LASALLE",
        "streetNameDisplayText": "LAFFERTY AVE, LASALLE"
      }
    ]
  },
  {
    "postal": "N9J0S5",
    "result": []
  },
  {
    "postal": "N9J1A2",
    "result": [
      {
        "electoralDistricts": [
          {
            "election": null,
            "id": 27,
            "name": "Essex"
          }
        ],
        "pollDivisionIds": [
          10138022
        ],
        "postalCode": "N9J1A2",
        "streetName": "RIVER",
        "streetDirectionId": null,
        "streetTypeId": "AVE",
        "placeName": "LASALLE",
        "streetNameDisplayText": "RIVER AVE, LASALLE"
      }
    ]
  },
  {
    "postal": "N9J5V8",
    "result": []
  },
  {
    "postal": "N9J8C5",
    "result": []
  },
  {
    "postal": "N9J6N0",
    "result": []
  },
  {
    "postal": "N9J9E6",
    "result": []
  },
  {
    "postal": "N9J5J7",
    "result": []
  },
  {
    "postal": "N9J2R2",
    "result": [
      {
        "electoralDistricts": [
          {
            "election": null,
            "id": 27,
            "name": "Essex"
          }
        ],
        "pollDivisionIds": [
          10138018
        ],
        "postalCode": "N9J2R2",
        "streetName": "MARTIN",
        "streetDirectionId": null,
        "streetTypeId": "LANE",
        "placeName": "LASALLE",
        "streetNameDisplayText": "MARTIN LANE, LASALLE"
      }
    ]
  },
  {
    "postal": "N9J0P5",
    "result": []
  },
  {
    "postal": "N9J5A7",
    "result": []
  },
  {
    "postal": "N9J1G1",
    "result": [
      {
        "electoralDistricts": [
          {
            "election": null,
            "id": 27,
            "name": "Essex"
          }
        ],
        "pollDivisionIds": [
          10138017
        ],
        "postalCode": "N9J1G1",
        "streetName": "BOUFFARD",
        "streetDirectionId": null,
        "streetTypeId": "RD",
        "placeName": "LASALLE",
        "streetNameDisplayText": "BOUFFARD RD, LASALLE"
      }
    ]
  },
  {
    "postal": "N9J9R6",
    "result": []
  },
  {
    "postal": "N9J4Z9",
    "result": []
  },
  {
    "postal": "N9J1V5",
    "result": [
      {
        "electoralDistricts": [
          {
            "election": null,
            "id": 27,
            "name": "Essex"
          }
        ],
        "pollDivisionIds": [
          10138018
        ],
        "postalCode": "N9J1V5",
        "streetName": "VICTORY",
        "streetDirectionId": null,
        "streetTypeId": "ST",
        "placeName": "LASALLE",
        "streetNameDisplayText": "VICTORY ST, LASALLE"
      }
    ]
  },
  {
    "postal": "N9J9Y5",
    "result": []
  },
  {
    "postal": "N9J1P2",
    "result": [
      {
        "electoralDistricts": [
          {
            "election": null,
            "id": 27,
            "name": "Essex"
          }
        ],
        "pollDivisionIds": [
          10138017
        ],
        "postalCode": "N9J1P2",
        "streetName": "MAPLE",
        "streetDirectionId": null,
        "streetTypeId": "AVE",
        "placeName": "LASALLE",
        "streetNameDisplayText": "MAPLE AVE, LASALLE"
      }
    ]
  },
  {
    "postal": "N9J5X0",
    "result": []
  },
  {
    "postal": "N9J7B8",
    "result": []
  },
  {
    "postal": "N9J0C6",
    "result": [
      {
        "electoralDistricts": [
          {
            "election": null,
            "id": 27,
            "name": "Essex"
          }
        ],
        "pollDivisionIds": [
          10138017
        ],
        "postalCode": "N9J0C6",
        "streetName": "ELSWORTH",
        "streetDirectionId": null,
        "streetTypeId": "AVE",
        "placeName": "LASALLE",
        "streetNameDisplayText": "ELSWORTH AVE, LASALLE"
      },
      {
        "electoralDistricts": [
          {
            "election": null,
            "id": 27,
            "name": "Essex"
          }
        ],
        "pollDivisionIds": [
          10138017
        ],
        "postalCode": "N9J0C6",
        "streetName": "ELSWORTH",
        "streetDirectionId": null,
        "streetTypeId": "AVE",
        "placeName": "WINDSOR",
        "streetNameDisplayText": "ELSWORTH AVE, WINDSOR"
      }
    ]
  },
  {
    "postal": "N9J6G1",
    "result": []
  },
  {
    "postal": "N9J3K3",
    "result": [
      {
        "electoralDistricts": [
          {
            "election": null,
            "id": 27,
            "name": "Essex"
          }
        ],
        "pollDivisionIds": [
          10138016
        ],
        "postalCode": "N9J3K3",
        "streetName": "LYONS",
        "streetDirectionId": null,
        "streetTypeId": "AVE",
        "placeName": "LASALLE",
        "streetNameDisplayText": "LYONS AVE, LASALLE"
      },
      {
        "electoralDistricts": [
          {
            "election": null,
            "id": 27,
            "name": "Essex"
          }
        ],
        "pollDivisionIds": [
          10138016
        ],
        "postalCode": "N9J3K3",
        "streetName": "MAPLE",
        "streetDirectionId": null,
        "streetTypeId": "AVE",
        "placeName": "LASALLE",
        "streetNameDisplayText": "MAPLE AVE, LASALLE"
      }
    ]
  },
  {
    "postal": "N9J9R0",
    "result": []
  },
  {
    "postal": "N9J4R8",
    "result": []
  },
  {
    "postal": "N9J5P9",
    "result": []
  },
  {
    "postal": "N9J8N4",
    "result": []
  },
  {
    "postal": "N9J8H4",
    "result": []
  },
  {
    "postal": "N9J4V1",
    "result": []
  },
  {
    "postal": "N9J1K5",
    "result": [
      {
        "electoralDistricts": [
          {
            "election": null,
            "id": 27,
            "name": "Essex"
          }
        ],
        "pollDivisionIds": [
          10138017
        ],
        "postalCode": "N9J1K5",
        "streetName": "LAFFERTY",
        "streetDirectionId": null,
        "streetTypeId": "AVE",
        "placeName": "LASALLE",
        "streetNameDisplayText": "LAFFERTY AVE, LASALLE"
      }
    ]
  },
  {
    "postal": "N9J1Z5",
    "result": [
      {
        "electoralDistricts": [
          {
            "election": null,
            "id": 27,
            "name": "Essex"
          }
        ],
        "pollDivisionIds": [
          10138017
        ],
        "postalCode": "N9J1Z5",
        "streetName": "FRONT",
        "streetDirectionId": null,
        "streetTypeId": "RD",
        "placeName": "LASALLE",
        "streetNameDisplayText": "FRONT RD, LASALLE"
      }
    ]
  },
  {
    "postal": "N9J9L9",
    "result": []
  },
  {
    "postal": "N9J5L2",
    "result": []
  },
  {
    "postal": "N9J0M2",
    "result": []
  },
  {
    "postal": "N9J1K8",
    "result": [
      {
        "electoralDistricts": [
          {
            "election": null,
            "id": 27,
            "name": "Essex"
          }
        ],
        "pollDivisionIds": [
          10138016
        ],
        "postalCode": "N9J1K8",
        "streetName": "LAFFERTY",
        "streetDirectionId": null,
        "streetTypeId": "AVE",
        "placeName": "LASALLE",
        "streetNameDisplayText": "LAFFERTY AVE, LASALLE"
      }
    ]
  },
  {
    "postal": "N9J3M7",
    "result": [
      {
        "electoralDistricts": [
          {
            "election": null,
            "id": 27,
            "name": "Essex"
          }
        ],
        "pollDivisionIds": [
          10138017
        ],
        "postalCode": "N9J3M7",
        "streetName": "GRONDIN",
        "streetDirectionId": null,
        "streetTypeId": "ST",
        "placeName": "LASALLE",
        "streetNameDisplayText": "GRONDIN ST, LASALLE"
      }
    ]
  },
  {
    "postal": "N9J1B2",
    "result": [
      {
        "electoralDistricts": [
          {
            "election": null,
            "id": 27,
            "name": "Essex"
          }
        ],
        "pollDivisionIds": [
          10138022
        ],
        "postalCode": "N9J1B2",
        "streetName": "REAUME",
        "streetDirectionId": null,
        "streetTypeId": "RD",
        "placeName": "LASALLE",
        "streetNameDisplayText": "REAUME RD, LASALLE"
      }
    ]
  },
  {
    "postal": "N9J0H9",
    "result": []
  },
  {
    "postal": "N9J8M4",
    "result": []
  },
  {
    "postal": "N9J2M5",
    "result": [
      {
        "electoralDistricts": [
          {
            "election": null,
            "id": 27,
            "name": "Essex"
          }
        ],
        "pollDivisionIds": [
          10138018
        ],
        "postalCode": "N9J2M5",
        "streetName": "MARTIN",
        "streetDirectionId": null,
        "streetTypeId": "LANE",
        "placeName": "LASALLE",
        "streetNameDisplayText": "MARTIN LANE, LASALLE"
      }
    ]
  },
  {
    "postal": "N9J0T9",
    "result": []
  },
  {
    "postal": "N9J3P1",
    "result": [
      {
        "electoralDistricts": [
          {
            "election": null,
            "id": 27,
            "name": "Essex"
          }
        ],
        "pollDivisionIds": [
          10138018
        ],
        "postalCode": "N9J3P1",
        "streetName": "MATCHETTE",
        "streetDirectionId": null,
        "streetTypeId": "RD",
        "placeName": "LASALLE",
        "streetNameDisplayText": "MATCHETTE RD, LASALLE"
      }
    ]
  },
  {
    "postal": "N9J1R6",
    "result": [
      {
        "electoralDistricts": [
          {
            "election": null,
            "id": 27,
            "name": "Essex"
          }
        ],
        "pollDivisionIds": [
          10138017
        ],
        "postalCode": "N9J1R6",
        "streetName": "KENWOOD",
        "streetDirectionId": null,
        "streetTypeId": "BLVD",
        "placeName": "LASALLE",
        "streetNameDisplayText": "KENWOOD BLVD, LASALLE"
      }
    ]
  },
  {
    "postal": "N9J9V5",
    "result": []
  },
  {
    "postal": "N9J9T0",
    "result": []
  },
  {
    "postal": "N9J0A9",
    "result": [
      {
        "electoralDistricts": [
          {
            "election": null,
            "id": 27,
            "name": "Essex"
          }
        ],
        "pollDivisionIds": [
          10138022
        ],
        "postalCode": "N9J0A9",
        "streetName": "MONTY",
        "streetDirectionId": null,
        "streetTypeId": "ST",
        "placeName": "LASALLE",
        "streetNameDisplayText": "MONTY ST, LASALLE"
      },
      {
        "electoralDistricts": [
          {
            "election": null,
            "id": 27,
            "name": "Essex"
          }
        ],
        "pollDivisionIds": [
          10138022
        ],
        "postalCode": "N9J0A9",
        "streetName": "WOODBRIDGE",
        "streetDirectionId": null,
        "streetTypeId": "AVE",
        "placeName": "LASALLE",
        "streetNameDisplayText": "WOODBRIDGE AVE, LASALLE"
      },
      {
        "electoralDistricts": [
          {
            "election": null,
            "id": 27,
            "name": "Essex"
          }
        ],
        "pollDivisionIds": [
          10138022
        ],
        "postalCode": "N9J0A9",
        "streetName": "WOODBRIDGE",
        "streetDirectionId": null,
        "streetTypeId": "DR",
        "placeName": "LASALLE",
        "streetNameDisplayText": "WOODBRIDGE DR, LASALLE"
      }
    ]
  },
  {
    "postal": "N9J1M3",
    "result": [
      {
        "electoralDistricts": [
          {
            "election": null,
            "id": 27,
            "name": "Essex"
          }
        ],
        "pollDivisionIds": [
          10138016
        ],
        "postalCode": "N9J1M3",
        "streetName": "LAURIER",
        "streetDirectionId": null,
        "streetTypeId": "DR",
        "placeName": "LASALLE",
        "streetNameDisplayText": "LAURIER DR, LASALLE"
      }
    ]
  },
  {
    "postal": "N9J1W8",
    "result": [
      {
        "electoralDistricts": [
          {
            "election": null,
            "id": 27,
            "name": "Essex"
          }
        ],
        "pollDivisionIds": [
          10138018
        ],
        "postalCode": "N9J1W8",
        "streetName": "MARTIN",
        "streetDirectionId": null,
        "streetTypeId": "LANE",
        "placeName": "LASALLE",
        "streetNameDisplayText": "MARTIN LANE, LASALLE"
      }
    ]
  },
  {
    "postal": "N9J9J1",
    "result": []
  },
  {
    "postal": "N9J8N5",
    "result": []
  },
  {
    "postal": "N9J5X1",
    "result": []
  },
  {
    "postal": "N9J6S2",
    "result": []
  },
  {
    "postal": "N9J2A2",
    "result": [
      {
        "electoralDistricts": [
          {
            "election": null,
            "id": 27,
            "name": "Essex"
          }
        ],
        "pollDivisionIds": [
          10138017
        ],
        "postalCode": "N9J2A2",
        "streetName": "FRONT",
        "streetDirectionId": null,
        "streetTypeId": "RD",
        "placeName": "LASALLE",
        "streetNameDisplayText": "FRONT RD, LASALLE"
      }
    ]
  },
  {
    "postal": "N9J6A6",
    "result": []
  },
  {
    "postal": "N9J0S3",
    "result": []
  },
  {
    "postal": "N9J3E7",
    "result": [
      {
        "electoralDistricts": [
          {
            "election": null,
            "id": 27,
            "name": "Essex"
          }
        ],
        "pollDivisionIds": [
          10138022
        ],
        "postalCode": "N9J3E7",
        "streetName": "HURON",
        "streetDirectionId": null,
        "streetTypeId": "ST",
        "placeName": "LASALLE",
        "streetNameDisplayText": "HURON ST, LASALLE"
      }
    ]
  },
  {
    "postal": "N9J5R7",
    "result": []
  },
  {
    "postal": "N9J3R6",
    "result": [
      {
        "electoralDistricts": [
          {
            "election": null,
            "id": 27,
            "name": "Essex"
          }
        ],
        "pollDivisionIds": [
          10138016
        ],
        "postalCode": "N9J3R6",
        "streetName": "CRYSTAL HARBOUR",
        "streetDirectionId": null,
        "streetTypeId": "DR",
        "placeName": "LASALLE",
        "streetNameDisplayText": "CRYSTAL HARBOUR DR, LASALLE"
      }
    ]
  },
  {
    "postal": "N9J6K4",
    "result": []
  },
  {
    "postal": "N9J2W5",
    "result": [
      {
        "electoralDistricts": [
          {
            "election": null,
            "id": 27,
            "name": "Essex"
          }
        ],
        "pollDivisionIds": [
          10138018
        ],
        "postalCode": "N9J2W5",
        "streetName": "MALDEN",
        "streetDirectionId": null,
        "streetTypeId": "RD",
        "placeName": "LASALLE",
        "streetNameDisplayText": "MALDEN RD, LASALLE"
      }
    ]
  },
  {
    "postal": "N9J8W4",
    "result": []
  },
  {
    "postal": "N9J9C2",
    "result": []
  },
  {
    "postal": "N9J2C0",
    "result": []
  },
  {
    "postal": "N9J0E1",
    "result": []
  },
  {
    "postal": "N9J1K9",
    "result": [
      {
        "electoralDistricts": [
          {
            "election": null,
            "id": 27,
            "name": "Essex"
          }
        ],
        "pollDivisionIds": [
          10138016
        ],
        "postalCode": "N9J1K9",
        "streetName": "LAFFERTY",
        "streetDirectionId": null,
        "streetTypeId": "AVE",
        "placeName": "LASALLE",
        "streetNameDisplayText": "LAFFERTY AVE, LASALLE"
      }
    ]
  },
  {
    "postal": "N9J1G7",
    "result": [
      {
        "electoralDistricts": [
          {
            "election": null,
            "id": 27,
            "name": "Essex"
          }
        ],
        "pollDivisionIds": [
          10138022
        ],
        "postalCode": "N9J1G7",
        "streetName": "BOUFFARD",
        "streetDirectionId": null,
        "streetTypeId": "RD",
        "placeName": "LASALLE",
        "streetNameDisplayText": "BOUFFARD RD, LASALLE"
      }
    ]
  },
  {
    "postal": "N9J4E9",
    "result": []
  },
  {
    "postal": "N9J9P0",
    "result": []
  },
  {
    "postal": "N9J5H3",
    "result": []
  },
  {
    "postal": "N9J9X6",
    "result": []
  },
  {
    "postal": "N9J5N7",
    "result": []
  },
  {
    "postal": "N9J5A6",
    "result": []
  },
  {
    "postal": "N9J4M0",
    "result": []
  },
  {
    "postal": "N9J3V6",
    "result": [
      {
        "electoralDistricts": [
          {
            "election": null,
            "id": 27,
            "name": "Essex"
          }
        ],
        "pollDivisionIds": [
          10138022
        ],
        "postalCode": "N9J3V6",
        "streetName": "MORTON",
        "streetDirectionId": null,
        "streetTypeId": "DR",
        "placeName": "LASALLE",
        "streetNameDisplayText": "MORTON DR, LASALLE"
      }
    ]
  },
  {
    "postal": "N9J1L7",
    "result": [
      {
        "electoralDistricts": [
          {
            "election": null,
            "id": 27,
            "name": "Essex"
          }
        ],
        "pollDivisionIds": [
          10138017
        ],
        "postalCode": "N9J1L7",
        "streetName": "LAURIER",
        "streetDirectionId": null,
        "streetTypeId": "DR",
        "placeName": "LASALLE",
        "streetNameDisplayText": "LAURIER DR, LASALLE"
      }
    ]
  },
  {
    "postal": "N9J2P9",
    "result": [
      {
        "electoralDistricts": [
          {
            "election": null,
            "id": 27,
            "name": "Essex"
          }
        ],
        "pollDivisionIds": [
          10138016
        ],
        "postalCode": "N9J2P9",
        "streetName": "MAPLE",
        "streetDirectionId": null,
        "streetTypeId": "AVE",
        "placeName": "LASALLE",
        "streetNameDisplayText": "MAPLE AVE, LASALLE"
      }
    ]
  },
  {
    "postal": "N9J5T4",
    "result": []
  },
  {
    "postal": "N9J5Z1",
    "result": []
  },
  {
    "postal": "N9J2X0",
    "result": []
  },
  {
    "postal": "N9J6Z2",
    "result": []
  },
  {
    "postal": "N9J0E0",
    "result": []
  },
  {
    "postal": "N9J3Z5",
    "result": [
      {
        "electoralDistricts": [
          {
            "election": null,
            "id": 27,
            "name": "Essex"
          }
        ],
        "pollDivisionIds": [
          10138017
        ],
        "postalCode": "N9J3Z5",
        "streetName": "SUPERIOR",
        "streetDirectionId": null,
        "streetTypeId": "ST",
        "placeName": "LASALLE",
        "streetNameDisplayText": "SUPERIOR ST, LASALLE"
      }
    ]
  },
  {
    "postal": "N9J8H3",
    "result": []
  },
  {
    "postal": "N9J7S6",
    "result": []
  },
  {
    "postal": "N9J4C1",
    "result": []
  },
  {
    "postal": "N9J3K2",
    "result": [
      {
        "electoralDistricts": [
          {
            "election": null,
            "id": 27,
            "name": "Essex"
          }
        ],
        "pollDivisionIds": [
          10138022,
          10138018
        ],
        "postalCode": "N9J3K2",
        "streetName": "BOUFFARD",
        "streetDirectionId": null,
        "streetTypeId": "RD",
        "placeName": "LASALLE",
        "streetNameDisplayText": "BOUFFARD RD, LASALLE"
      }
    ]
  },
  {
    "postal": "N9J1Y5",
    "result": [
      {
        "electoralDistricts": [
          {
            "election": null,
            "id": 27,
            "name": "Essex"
          }
        ],
        "pollDivisionIds": [
          10138023
        ],
        "postalCode": "N9J1Y5",
        "streetName": "STUART",
        "streetDirectionId": null,
        "streetTypeId": "BLVD",
        "placeName": "LASALLE",
        "streetNameDisplayText": "STUART BLVD, LASALLE"
      }
    ]
  },
  {
    "postal": "N9J6P6",
    "result": []
  },
  {
    "postal": "N9J3N9",
    "result": [
      {
        "electoralDistricts": [
          {
            "election": null,
            "id": 27,
            "name": "Essex"
          }
        ],
        "pollDivisionIds": [
          10138022
        ],
        "postalCode": "N9J3N9",
        "streetName": "RIVERVILLA",
        "streetDirectionId": null,
        "streetTypeId": "CRT",
        "placeName": "LASALLE",
        "streetNameDisplayText": "RIVERVILLA CRT, LASALLE"
      }
    ]
  },
  {
    "postal": "N9J3W2",
    "result": [
      {
        "electoralDistricts": [
          {
            "election": null,
            "id": 27,
            "name": "Essex"
          }
        ],
        "pollDivisionIds": [
          10138022
        ],
        "postalCode": "N9J3W2",
        "streetName": "MORTON INDUSTRIAL",
        "streetDirectionId": null,
        "streetTypeId": "PKY",
        "placeName": "LASALLE",
        "streetNameDisplayText": "MORTON INDUSTRIAL PKY, LASALLE"
      }
    ]
  },
  {
    "postal": "N9J6H8",
    "result": []
  },
  {
    "postal": "N9J9T3",
    "result": []
  },
  {
    "postal": "N9J5L9",
    "result": []
  },
  {
    "postal": "N9J7X7",
    "result": []
  },
  {
    "postal": "N9J3J5",
    "result": [
      {
        "electoralDistricts": [
          {
            "election": null,
            "id": 27,
            "name": "Essex"
          }
        ],
        "pollDivisionIds": [
          10138016
        ],
        "postalCode": "N9J3J5",
        "streetName": "INTERNATIONAL",
        "streetDirectionId": null,
        "streetTypeId": "AVE",
        "placeName": "LASALLE",
        "streetNameDisplayText": "INTERNATIONAL AVE, LASALLE"
      },
      {
        "electoralDistricts": [
          {
            "election": null,
            "id": 27,
            "name": "Essex"
          }
        ],
        "pollDivisionIds": [
          10138016,
          10138013
        ],
        "postalCode": "N9J3J5",
        "streetName": "SUNNYSIDE",
        "streetDirectionId": null,
        "streetTypeId": "BLVD",
        "placeName": "LASALLE",
        "streetNameDisplayText": "SUNNYSIDE BLVD, LASALLE"
      }
    ]
  },
  {
    "postal": "N9J4J5",
    "result": []
  },
  {
    "postal": "N9J6J2",
    "result": []
  },
  {
    "postal": "N9J5V6",
    "result": []
  },
  {
    "postal": "N9J3N2",
    "result": [
      {
        "electoralDistricts": [
          {
            "election": null,
            "id": 27,
            "name": "Essex"
          }
        ],
        "pollDivisionIds": [
          10138023
        ],
        "postalCode": "N9J3N2",
        "streetName": "KINGSLEY",
        "streetDirectionId": null,
        "streetTypeId": "AVE",
        "placeName": "LASALLE",
        "streetNameDisplayText": "KINGSLEY AVE, LASALLE"
      },
      {
        "electoralDistricts": [
          {
            "election": null,
            "id": 27,
            "name": "Essex"
          }
        ],
        "pollDivisionIds": [
          10138023
        ],
        "postalCode": "N9J3N2",
        "streetName": "LISGAR",
        "streetDirectionId": null,
        "streetTypeId": "DR",
        "placeName": "LASALLE",
        "streetNameDisplayText": "LISGAR DR, LASALLE"
      },
      {
        "electoralDistricts": [
          {
            "election": null,
            "id": 27,
            "name": "Essex"
          }
        ],
        "pollDivisionIds": [
          10138023
        ],
        "postalCode": "N9J3N2",
        "streetName": "NORMANDY",
        "streetDirectionId": null,
        "streetTypeId": "ST",
        "placeName": "LASALLE",
        "streetNameDisplayText": "NORMANDY ST, LASALLE"
      }
    ]
  },
  {
    "postal": "N9J3B1",
    "result": [
      {
        "electoralDistricts": [
          {
            "election": null,
            "id": 27,
            "name": "Essex"
          }
        ],
        "pollDivisionIds": [
          10138022
        ],
        "postalCode": "N9J3B1",
        "streetName": "RAMBLEWOOD",
        "streetDirectionId": null,
        "streetTypeId": "DR",
        "placeName": "LASALLE",
        "streetNameDisplayText": "RAMBLEWOOD DR, LASALLE"
      }
    ]
  },
  {
    "postal": "N9J8B5",
    "result": []
  },
  {
    "postal": "N9J0K1",
    "result": []
  },
  {
    "postal": "N9J7M7",
    "result": []
  },
  {
    "postal": "N9J2M2",
    "result": []
  },
  {
    "postal": "N9J9N3",
    "result": []
  },
  {
    "postal": "N9J4Y8",
    "result": []
  },
  {
    "postal": "N9J3V7",
    "result": [
      {
        "electoralDistricts": [
          {
            "election": null,
            "id": 27,
            "name": "Essex"
          }
        ],
        "pollDivisionIds": [
          10138023
        ],
        "postalCode": "N9J3V7",
        "streetName": "MATCHETTE",
        "streetDirectionId": null,
        "streetTypeId": "RD",
        "placeName": "LASALLE",
        "streetNameDisplayText": "MATCHETTE RD, LASALLE"
      }
    ]
  },
  {
    "postal": "N9J8Z1",
    "result": []
  },
  {
    "postal": "N9J7B3",
    "result": []
  },
  {
    "postal": "N9J3A8",
    "result": [
      {
        "electoralDistricts": [
          {
            "election": null,
            "id": 27,
            "name": "Essex"
          }
        ],
        "pollDivisionIds": [
          10138022
        ],
        "postalCode": "N9J3A8",
        "streetName": "RAMBLEWOOD",
        "streetDirectionId": null,
        "streetTypeId": "DR",
        "placeName": "LASALLE",
        "streetNameDisplayText": "RAMBLEWOOD DR, LASALLE"
      }
    ]
  },
  {
    "postal": "N9J7V5",
    "result": []
  },
  {
    "postal": "N9J2T2",
    "result": [
      {
        "electoralDistricts": [
          {
            "election": null,
            "id": 27,
            "name": "Essex"
          }
        ],
        "pollDivisionIds": [
          10138018
        ],
        "postalCode": "N9J2T2",
        "streetName": "CANARD",
        "streetDirectionId": null,
        "streetTypeId": "DR",
        "placeName": "LASALLE",
        "streetNameDisplayText": "CANARD DR, LASALLE"
      }
    ]
  },
  {
    "postal": "N9J6L3",
    "result": []
  },
  {
    "postal": "N9J0L2",
    "result": []
  },
  {
    "postal": "N9J5Y8",
    "result": []
  },
  {
    "postal": "N9J0B8",
    "result": [
      {
        "electoralDistricts": [
          {
            "election": null,
            "id": 27,
            "name": "Essex"
          }
        ],
        "pollDivisionIds": [
          10138017
        ],
        "postalCode": "N9J0B8",
        "streetName": "BOISMIER",
        "streetDirectionId": null,
        "streetTypeId": "AVE",
        "placeName": "LASALLE",
        "streetNameDisplayText": "BOISMIER AVE, LASALLE"
      }
    ]
  },
  {
    "postal": "N9J6R5",
    "result": []
  },
  {
    "postal": "N9J8W6",
    "result": []
  },
  {
    "postal": "N9J8G6",
    "result": []
  },
  {
    "postal": "N9J6X3",
    "result": []
  },
  {
    "postal": "N9J7R7",
    "result": []
  },
  {
    "postal": "N9J4B6",
    "result": []
  },
  {
    "postal": "N9J3P9",
    "result": [
      {
        "electoralDistricts": [
          {
            "election": null,
            "id": 27,
            "name": "Essex"
          }
        ],
        "pollDivisionIds": [
          10138018,
          10138022
        ],
        "postalCode": "N9J3P9",
        "streetName": "OAKRIDGE",
        "streetDirectionId": null,
        "streetTypeId": "ST",
        "placeName": "LASALLE",
        "streetNameDisplayText": "OAKRIDGE ST, LASALLE"
      },
      {
        "electoralDistricts": [
          {
            "election": null,
            "id": 27,
            "name": "Essex"
          }
        ],
        "pollDivisionIds": [
          10138022
        ],
        "postalCode": "N9J3P9",
        "streetName": "OAKRIDGE",
        "streetDirectionId": null,
        "streetTypeId": "ST",
        "placeName": "WINDSOR",
        "streetNameDisplayText": "OAKRIDGE ST, WINDSOR"
      }
    ]
  },
  {
    "postal": "N9J2T3",
    "result": [
      {
        "electoralDistricts": [
          {
            "election": null,
            "id": 27,
            "name": "Essex"
          }
        ],
        "pollDivisionIds": [
          10138018
        ],
        "postalCode": "N9J2T3",
        "streetName": "MALLARD",
        "streetDirectionId": null,
        "streetTypeId": "LANE",
        "placeName": "LASALLE",
        "streetNameDisplayText": "MALLARD LANE, LASALLE"
      }
    ]
  },
  {
    "postal": "N9J1M4",
    "result": [
      {
        "electoralDistricts": [
          {
            "election": null,
            "id": 27,
            "name": "Essex"
          }
        ],
        "pollDivisionIds": [
          10138017
        ],
        "postalCode": "N9J1M4",
        "streetName": "LAURIER",
        "streetDirectionId": null,
        "streetTypeId": "DR",
        "placeName": "LASALLE",
        "streetNameDisplayText": "LAURIER DR, LASALLE"
      }
    ]
  },
  {
    "postal": "N9J0H1",
    "result": []
  },
  {
    "postal": "N9J9W3",
    "result": []
  },
  {
    "postal": "N9J6P1",
    "result": []
  },
  {
    "postal": "N9J7G2",
    "result": []
  },
  {
    "postal": "N9J4J9",
    "result": []
  },
  {
    "postal": "N9J9E4",
    "result": []
  },
  {
    "postal": "N9J8H0",
    "result": []
  },
  {
    "postal": "N9J4M7",
    "result": []
  },
  {
    "postal": "N9J2G9",
    "result": [
      {
        "electoralDistricts": [
          {
            "election": null,
            "id": 27,
            "name": "Essex"
          }
        ],
        "pollDivisionIds": [
          10138017
        ],
        "postalCode": "N9J2G9",
        "streetName": "MICHIGAN",
        "streetDirectionId": null,
        "streetTypeId": "AVE",
        "placeName": "LASALLE",
        "streetNameDisplayText": "MICHIGAN AVE, LASALLE"
      }
    ]
  },
  {
    "postal": "N9J8T2",
    "result": []
  },
  {
    "postal": "N9J7G7",
    "result": []
  },
  {
    "postal": "N9J4Z3",
    "result": []
  },
  {
    "postal": "N9J5B3",
    "result": []
  },
  {
    "postal": "N9J1S7",
    "result": [
      {
        "electoralDistricts": [
          {
            "election": null,
            "id": 27,
            "name": "Essex"
          }
        ],
        "pollDivisionIds": [
          10138017
        ],
        "postalCode": "N9J1S7",
        "streetName": "SACRED HEART",
        "streetDirectionId": null,
        "streetTypeId": "DR",
        "placeName": "LASALLE",
        "streetNameDisplayText": "SACRED HEART DR, LASALLE"
      }
    ]
  },
  {
    "postal": "N9J2N7",
    "result": [
      {
        "electoralDistricts": [
          {
            "election": null,
            "id": 27,
            "name": "Essex"
          }
        ],
        "pollDivisionIds": [
          10138018
        ],
        "postalCode": "N9J2N7",
        "streetName": "FRONT",
        "streetDirectionId": null,
        "streetTypeId": "RD",
        "placeName": "LASALLE",
        "streetNameDisplayText": "FRONT RD, LASALLE"
      }
    ]
  },
  {
    "postal": "N9J0H8",
    "result": []
  },
  {
    "postal": "N9J7Z4",
    "result": []
  },
  {
    "postal": "N9J7B1",
    "result": []
  },
  {
    "postal": "N9J7P8",
    "result": []
  },
  {
    "postal": "N9J7N0",
    "result": []
  },
  {
    "postal": "N9J3Y5",
    "result": [
      {
        "electoralDistricts": [
          {
            "election": null,
            "id": 27,
            "name": "Essex"
          }
        ],
        "pollDivisionIds": [
          10138016
        ],
        "postalCode": "N9J3Y5",
        "streetName": "LYONESS",
        "streetDirectionId": null,
        "streetTypeId": "CRT",
        "placeName": "LASALLE",
        "streetNameDisplayText": "LYONESS CRT, LASALLE"
      },
      {
        "electoralDistricts": [
          {
            "election": null,
            "id": 27,
            "name": "Essex"
          }
        ],
        "pollDivisionIds": [
          10138016
        ],
        "postalCode": "N9J3Y5",
        "streetName": "LYONS",
        "streetDirectionId": null,
        "streetTypeId": "AVE",
        "placeName": "LASALLE",
        "streetNameDisplayText": "LYONS AVE, LASALLE"
      }
    ]
  },
  {
    "postal": "N9J6K1",
    "result": []
  },
  {
    "postal": "N9J9X5",
    "result": []
  },
  {
    "postal": "N9J7S5",
    "result": []
  },
  {
    "postal": "N9J0A4",
    "result": [
      {
        "electoralDistricts": [
          {
            "election": null,
            "id": 27,
            "name": "Essex"
          }
        ],
        "pollDivisionIds": [
          10138016
        ],
        "postalCode": "N9J0A4",
        "streetName": "DUNN",
        "streetDirectionId": null,
        "streetTypeId": "AVE",
        "placeName": "LASALLE",
        "streetNameDisplayText": "DUNN AVE, LASALLE"
      }
    ]
  },
  {
    "postal": "N9J4T5",
    "result": []
  },
  {
    "postal": "N9J5K1",
    "result": []
  },
  {
    "postal": "N9J0Z9",
    "result": []
  },
  {
    "postal": "N9J7T2",
    "result": []
  },
  {
    "postal": "N9J1L5",
    "result": [
      {
        "electoralDistricts": [
          {
            "election": null,
            "id": 27,
            "name": "Essex"
          }
        ],
        "pollDivisionIds": [
          10138017
        ],
        "postalCode": "N9J1L5",
        "streetName": "LAURIER",
        "streetDirectionId": null,
        "streetTypeId": "DR",
        "placeName": "LASALLE",
        "streetNameDisplayText": "LAURIER DR, LASALLE"
      }
    ]
  },
  {
    "postal": "N9J3N5",
    "result": [
      {
        "electoralDistricts": [
          {
            "election": null,
            "id": 27,
            "name": "Essex"
          }
        ],
        "pollDivisionIds": [
          10138023
        ],
        "postalCode": "N9J3N5",
        "streetName": "CONTE",
        "streetDirectionId": null,
        "streetTypeId": "CRES",
        "placeName": "LASALLE",
        "streetNameDisplayText": "CONTE CRES, LASALLE"
      },
      {
        "electoralDistricts": [
          {
            "election": null,
            "id": 27,
            "name": "Essex"
          }
        ],
        "pollDivisionIds": [
          10138023
        ],
        "postalCode": "N9J3N5",
        "streetName": "CONTE",
        "streetDirectionId": null,
        "streetTypeId": "CRES",
        "placeName": "WINDSOR",
        "streetNameDisplayText": "CONTE CRES, WINDSOR"
      }
    ]
  },
  {
    "postal": "N9J6H4",
    "result": []
  },
  {
    "postal": "N9J5A5",
    "result": []
  },
  {
    "postal": "N9J3R9",
    "result": [
      {
        "electoralDistricts": [
          {
            "election": null,
            "id": 27,
            "name": "Essex"
          }
        ],
        "pollDivisionIds": [
          10138022
        ],
        "postalCode": "N9J3R9",
        "streetName": "OUTRAM",
        "streetDirectionId": null,
        "streetTypeId": "AVE",
        "placeName": "LASALLE",
        "streetNameDisplayText": "OUTRAM AVE, LASALLE"
      }
    ]
  },
  {
    "postal": "N9J7L8",
    "result": []
  },
  {
    "postal": "N9J6T6",
    "result": []
  },
  {
    "postal": "N9J7Y7",
    "result": []
  },
  {
    "postal": "N9J3M8",
    "result": [
      {
        "electoralDistricts": [
          {
            "election": null,
            "id": 27,
            "name": "Essex"
          }
        ],
        "pollDivisionIds": [
          10138016
        ],
        "postalCode": "N9J3M8",
        "streetName": "CRYSTAL HARBOUR",
        "streetDirectionId": null,
        "streetTypeId": "DR",
        "placeName": "LASALLE",
        "streetNameDisplayText": "CRYSTAL HARBOUR DR, LASALLE"
      }
    ]
  },
  {
    "postal": "N9J2E0",
    "result": []
  },
  {
    "postal": "N9J4B5",
    "result": []
  },
  {
    "postal": "N9J1J3",
    "result": [
      {
        "electoralDistricts": [
          {
            "election": null,
            "id": 27,
            "name": "Essex"
          }
        ],
        "pollDivisionIds": [
          10138017
        ],
        "postalCode": "N9J1J3",
        "streetName": "HURON",
        "streetDirectionId": null,
        "streetTypeId": "ST",
        "placeName": "LASALLE",
        "streetNameDisplayText": "HURON ST, LASALLE"
      }
    ]
  },
  {
    "postal": "N9J5S6",
    "result": []
  },
  {
    "postal": "N9J8P7",
    "result": []
  },
  {
    "postal": "N9J7S7",
    "result": []
  },
  {
    "postal": "N9J4C2",
    "result": []
  },
  {
    "postal": "N9J5Y0",
    "result": []
  },
  {
    "postal": "N9J2V7",
    "result": [
      {
        "electoralDistricts": [
          {
            "election": null,
            "id": 27,
            "name": "Essex"
          }
        ],
        "pollDivisionIds": [
          10138018
        ],
        "postalCode": "N9J2V7",
        "streetName": "MALDEN",
        "streetDirectionId": null,
        "streetTypeId": "RD",
        "placeName": "LASALLE",
        "streetNameDisplayText": "MALDEN RD, LASALLE"
      }
    ]
  },
  {
    "postal": "N9J8P5",
    "result": []
  },
  {
    "postal": "N9J5P5",
    "result": []
  },
  {
    "postal": "N9J5Z0",
    "result": []
  },
  {
    "postal": "N9J9B0",
    "result": []
  },
  {
    "postal": "N9J1L0",
    "result": []
  },
  {
    "postal": "N9J0B5",
    "result": []
  },
  {
    "postal": "N9J3L2",
    "result": [
      {
        "electoralDistricts": [
          {
            "election": null,
            "id": 27,
            "name": "Essex"
          }
        ],
        "pollDivisionIds": [
          10138016
        ],
        "postalCode": "N9J3L2",
        "streetName": "MAPLE",
        "streetDirectionId": null,
        "streetTypeId": "AVE",
        "placeName": "LASALLE",
        "streetNameDisplayText": "MAPLE AVE, LASALLE"
      }
    ]
  },
  {
    "postal": "N9J3B7",
    "result": [
      {
        "electoralDistricts": [
          {
            "election": null,
            "id": 27,
            "name": "Essex"
          }
        ],
        "pollDivisionIds": [
          10138022
        ],
        "postalCode": "N9J3B7",
        "streetName": "DARLENE",
        "streetDirectionId": null,
        "streetTypeId": "PL",
        "placeName": "LASALLE",
        "streetNameDisplayText": "DARLENE PL, LASALLE"
      },
      {
        "electoralDistricts": [
          {
            "election": null,
            "id": 27,
            "name": "Essex"
          }
        ],
        "pollDivisionIds": [
          10138022
        ],
        "postalCode": "N9J3B7",
        "streetName": "DARLENE",
        "streetDirectionId": null,
        "streetTypeId": "PLACE",
        "placeName": "LASALLE",
        "streetNameDisplayText": "DARLENE PLACE, LASALLE"
      },
      {
        "electoralDistricts": [
          {
            "election": null,
            "id": 27,
            "name": "Essex"
          }
        ],
        "pollDivisionIds": [
          10138022
        ],
        "postalCode": "N9J3B7",
        "streetName": "RAMBLEWOOD",
        "streetDirectionId": null,
        "streetTypeId": "DR",
        "placeName": "LASALLE",
        "streetNameDisplayText": "RAMBLEWOOD DR, LASALLE"
      }
    ]
  },
  {
    "postal": "N9J8L1",
    "result": []
  },
  {
    "postal": "N9J5M4",
    "result": []
  },
  {
    "postal": "N9J4G9",
    "result": []
  },
  {
    "postal": "N9J0P0",
    "result": []
  },
  {
    "postal": "N9J8G2",
    "result": []
  },
  {
    "postal": "N9J1V9",
    "result": [
      {
        "electoralDistricts": [
          {
            "election": null,
            "id": 27,
            "name": "Essex"
          }
        ],
        "pollDivisionIds": [
          10138018
        ],
        "postalCode": "N9J1V9",
        "streetName": "VICTORY",
        "streetDirectionId": null,
        "streetTypeId": "ST",
        "placeName": "LASALLE",
        "streetNameDisplayText": "VICTORY ST, LASALLE"
      }
    ]
  },
  {
    "postal": "N9J8N8",
    "result": []
  },
  {
    "postal": "N9J6S8",
    "result": []
  },
  {
    "postal": "N9J8H2",
    "result": []
  },
  {
    "postal": "N9J5R8",
    "result": []
  },
  {
    "postal": "N9J5L4",
    "result": []
  },
  {
    "postal": "N9J9E1",
    "result": []
  },
  {
    "postal": "N9J1C4",
    "result": [
      {
        "electoralDistricts": [
          {
            "election": null,
            "id": 27,
            "name": "Essex"
          }
        ],
        "pollDivisionIds": [
          10138017
        ],
        "postalCode": "N9J1C4",
        "streetName": "GRONDIN",
        "streetDirectionId": null,
        "streetTypeId": "ST",
        "placeName": "LASALLE",
        "streetNameDisplayText": "GRONDIN ST, LASALLE"
      },
      {
        "electoralDistricts": [
          {
            "election": null,
            "id": 27,
            "name": "Essex"
          }
        ],
        "pollDivisionIds": [
          10138017
        ],
        "postalCode": "N9J1C4",
        "streetName": "MENARD",
        "streetDirectionId": null,
        "streetTypeId": "LANE",
        "placeName": "LASALLE",
        "streetNameDisplayText": "MENARD LANE, LASALLE"
      }
    ]
  },
  {
    "postal": "N9J8W5",
    "result": []
  },
  {
    "postal": "N9J1Y4",
    "result": [
      {
        "electoralDistricts": [
          {
            "election": null,
            "id": 27,
            "name": "Essex"
          }
        ],
        "pollDivisionIds": [
          10138022,
          10138023
        ],
        "postalCode": "N9J1Y4",
        "streetName": "STUART",
        "streetDirectionId": null,
        "streetTypeId": "BLVD",
        "placeName": "LASALLE",
        "streetNameDisplayText": "STUART BLVD, LASALLE"
      }
    ]
  },
  {
    "postal": "N9J1C0",
    "result": []
  },
  {
    "postal": "N9J2J2",
    "result": []
  },
  {
    "postal": "N9J2J0",
    "result": []
  },
  {
    "postal": "N9J7A3",
    "result": []
  },
  {
    "postal": "N9J8M1",
    "result": []
  },
  {
    "postal": "N9J7T9",
    "result": []
  },
  {
    "postal": "N9J6C0",
    "result": []
  },
  {
    "postal": "N9J7X1",
    "result": []
  },
  {
    "postal": "N9J0G1",
    "result": []
  },
  {
    "postal": "N9J4X2",
    "result": []
  },
  {
    "postal": "N9J0N6",
    "result": []
  },
  {
    "postal": "N9J8E3",
    "result": []
  },
  {
    "postal": "N9J5S8",
    "result": []
  },
  {
    "postal": "N9J0R0",
    "result": []
  },
  {
    "postal": "N9J6J6",
    "result": []
  },
  {
    "postal": "N9J4B4",
    "result": []
  },
  {
    "postal": "N9J7E3",
    "result": []
  },
  {
    "postal": "N9J3N6",
    "result": [
      {
        "electoralDistricts": [
          {
            "election": null,
            "id": 27,
            "name": "Essex"
          }
        ],
        "pollDivisionIds": [
          10138017
        ],
        "postalCode": "N9J3N6",
        "streetName": "GRONDIN",
        "streetDirectionId": null,
        "streetTypeId": "ST",
        "placeName": "LASALLE",
        "streetNameDisplayText": "GRONDIN ST, LASALLE"
      },
      {
        "electoralDistricts": [
          {
            "election": null,
            "id": 27,
            "name": "Essex"
          }
        ],
        "pollDivisionIds": [
          10138017
        ],
        "postalCode": "N9J3N6",
        "streetName": "MERRILL",
        "streetDirectionId": null,
        "streetTypeId": "AVE",
        "placeName": "LASALLE",
        "streetNameDisplayText": "MERRILL AVE, LASALLE"
      }
    ]
  },
  {
    "postal": "N9J3X6",
    "result": [
      {
        "electoralDistricts": [
          {
            "election": null,
            "id": 27,
            "name": "Essex"
          }
        ],
        "pollDivisionIds": [
          10138017
        ],
        "postalCode": "N9J3X6",
        "streetName": "MICHIGAN",
        "streetDirectionId": null,
        "streetTypeId": "AVE",
        "placeName": "LASALLE",
        "streetNameDisplayText": "MICHIGAN AVE, LASALLE"
      }
    ]
  },
  {
    "postal": "N9J8L0",
    "result": []
  },
  {
    "postal": "N9J8N1",
    "result": []
  },
  {
    "postal": "N9J4J0",
    "result": []
  },
  {
    "postal": "N9J0X7",
    "result": []
  },
  {
    "postal": "N9J6S4",
    "result": []
  },
  {
    "postal": "N9J0Z0",
    "result": []
  },
  {
    "postal": "N9J9X8",
    "result": []
  },
  {
    "postal": "N9J3H3",
    "result": [
      {
        "electoralDistricts": [
          {
            "election": null,
            "id": 27,
            "name": "Essex"
          }
        ],
        "pollDivisionIds": [
          10138023
        ],
        "postalCode": "N9J3H3",
        "streetName": "STANTON",
        "streetDirectionId": null,
        "streetTypeId": "AVE",
        "placeName": "LASALLE",
        "streetNameDisplayText": "STANTON AVE, LASALLE"
      },
      {
        "electoralDistricts": [
          {
            "election": null,
            "id": 27,
            "name": "Essex"
          }
        ],
        "pollDivisionIds": [
          10138022,
          10138023
        ],
        "postalCode": "N9J3H3",
        "streetName": "STANTON",
        "streetDirectionId": null,
        "streetTypeId": "ST",
        "placeName": "LASALLE",
        "streetNameDisplayText": "STANTON ST, LASALLE"
      }
    ]
  },
  {
    "postal": "N9J7S2",
    "result": []
  },
  {
    "postal": "N9J3T3",
    "result": [
      {
        "electoralDistricts": [
          {
            "election": null,
            "id": 27,
            "name": "Essex"
          }
        ],
        "pollDivisionIds": [
          10138016
        ],
        "postalCode": "N9J3T3",
        "streetName": "MAYFAIR",
        "streetDirectionId": null,
        "streetTypeId": "AVE",
        "placeName": "LASALLE",
        "streetNameDisplayText": "MAYFAIR AVE, LASALLE"
      }
    ]
  },
  {
    "postal": "N9J9P3",
    "result": []
  },
  {
    "postal": "N9J4H8",
    "result": []
  },
  {
    "postal": "N9J6R1",
    "result": []
  },
  {
    "postal": "N9J1S0",
    "result": []
  },
  {
    "postal": "N9J3W8",
    "result": []
  },
  {
    "postal": "N9J4S3",
    "result": []
  },
  {
    "postal": "N9J1B6",
    "result": [
      {
        "electoralDistricts": [
          {
            "election": null,
            "id": 27,
            "name": "Essex"
          }
        ],
        "pollDivisionIds": [
          10138022
        ],
        "postalCode": "N9J1B6",
        "streetName": "REAUME",
        "streetDirectionId": null,
        "streetTypeId": "RD",
        "placeName": "LASALLE",
        "streetNameDisplayText": "REAUME RD, LASALLE"
      }
    ]
  },
  {
    "postal": "N9J8R3",
    "result": []
  },
  {
    "postal": "N9J4V9",
    "result": []
  },
  {
    "postal": "N9J9W4",
    "result": []
  },
  {
    "postal": "N9J3T4",
    "result": [
      {
        "electoralDistricts": [
          {
            "election": null,
            "id": 27,
            "name": "Essex"
          }
        ],
        "pollDivisionIds": [
          10138018
        ],
        "postalCode": "N9J3T4",
        "streetName": "LAFONTAINE",
        "streetDirectionId": null,
        "streetTypeId": "LANE",
        "placeName": "LASALLE",
        "streetNameDisplayText": "LAFONTAINE LANE, LASALLE"
      }
    ]
  },
  {
    "postal": "N9J5C7",
    "result": []
  },
  {
    "postal": "N9J3Y1",
    "result": [
      {
        "electoralDistricts": [
          {
            "election": null,
            "id": 27,
            "name": "Essex"
          }
        ],
        "pollDivisionIds": [
          10138017
        ],
        "postalCode": "N9J3Y1",
        "streetName": "RIVERVIEW",
        "streetDirectionId": null,
        "streetTypeId": "AVE",
        "placeName": "LASALLE",
        "streetNameDisplayText": "RIVERVIEW AVE, LASALLE"
      }
    ]
  },
  {
    "postal": "N9J5V0",
    "result": []
  },
  {
    "postal": "N9J8G8",
    "result": []
  },
  {
    "postal": "N9J8B1",
    "result": []
  },
  {
    "postal": "N9J4P5",
    "result": []
  },
  {
    "postal": "N9J7B2",
    "result": []
  },
  {
    "postal": "N9J0R2",
    "result": []
  },
  {
    "postal": "N9J4M4",
    "result": []
  },
  {
    "postal": "N9J7M4",
    "result": []
  },
  {
    "postal": "N9J9S7",
    "result": []
  },
  {
    "postal": "N9J5Z7",
    "result": []
  },
  {
    "postal": "N9J7J7",
    "result": []
  },
  {
    "postal": "N9J8R8",
    "result": []
  },
  {
    "postal": "N9J9X1",
    "result": []
  },
  {
    "postal": "N9J5M9",
    "result": []
  },
  {
    "postal": "N9J9B4",
    "result": []
  },
  {
    "postal": "N9J0L9",
    "result": []
  },
  {
    "postal": "N9J9G4",
    "result": []
  },
  {
    "postal": "N9J1J4",
    "result": [
      {
        "electoralDistricts": [
          {
            "election": null,
            "id": 27,
            "name": "Essex"
          }
        ],
        "pollDivisionIds": [
          10138017
        ],
        "postalCode": "N9J1J4",
        "streetName": "HURON",
        "streetDirectionId": null,
        "streetTypeId": "ST",
        "placeName": "LASALLE",
        "streetNameDisplayText": "HURON ST, LASALLE"
      }
    ]
  },
  {
    "postal": "N9J0W6",
    "result": []
  }
]
