[
  {
    "postal": "L2P9J6",
    "result": []
  },
  {
    "postal": "L2P9Z5",
    "result": []
  },
  {
    "postal": "L2P7H8",
    "result": []
  },
  {
    "postal": "L2P0P6",
    "result": []
  },
  {
    "postal": "L2P0S7",
    "result": []
  },
  {
    "postal": "L2P8B9",
    "result": []
  },
  {
    "postal": "L2P2A6",
    "result": [
      {
        "electoralDistricts": [
          {
            "election": null,
            "id": 90,
            "name": "St. Catharines"
          }
        ],
        "pollDivisionIds": [
          10141360
        ],
        "postalCode": "L2P2A6",
        "streetName": "HESSFORD",
        "streetDirectionId": null,
        "streetTypeId": "RD",
        "placeName": "ST CATHARINES",
        "streetNameDisplayText": "HESSFORD RD, ST CATHARINES"
      }
    ]
  },
  {
    "postal": "L2P7V2",
    "result": []
  },
  {
    "postal": "L2P9P4",
    "result": []
  },
  {
    "postal": "L2P6G0",
    "result": []
  },
  {
    "postal": "L2P2K0",
    "result": []
  },
  {
    "postal": "L2P7N6",
    "result": []
  },
  {
    "postal": "L2P5R3",
    "result": []
  },
  {
    "postal": "L2P7K0",
    "result": []
  },
  {
    "postal": "L2P3R2",
    "result": [
      {
        "electoralDistricts": [
          {
            "election": null,
            "id": 90,
            "name": "St. Catharines"
          }
        ],
        "pollDivisionIds": [
          10141354
        ],
        "postalCode": "L2P3R2",
        "streetName": "DERBY",
        "streetDirectionId": null,
        "streetTypeId": "LANE",
        "placeName": "ST CATHARINES",
        "streetNameDisplayText": "DERBY LANE, ST CATHARINES"
      }
    ]
  },
  {
    "postal": "L2P0J1",
    "result": []
  },
  {
    "postal": "L2P0B0",
    "result": []
  },
  {
    "postal": "L2P5Z2",
    "result": []
  },
  {
    "postal": "L2P7P3",
    "result": []
  },
  {
    "postal": "L2P2K3",
    "result": [
      {
        "electoralDistricts": [
          {
            "election": null,
            "id": 90,
            "name": "St. Catharines"
          }
        ],
        "pollDivisionIds": [
          10141359
        ],
        "postalCode": "L2P2K3",
        "streetName": "CAPNER",
        "streetDirectionId": null,
        "streetTypeId": "ST",
        "placeName": "ST CATHARINES",
        "streetNameDisplayText": "CAPNER ST, ST CATHARINES"
      }
    ]
  },
  {
    "postal": "L2P7Y6",
    "result": []
  },
  {
    "postal": "L2P1L9",
    "result": [
      {
        "electoralDistricts": [
          {
            "election": null,
            "id": 90,
            "name": "St. Catharines"
          }
        ],
        "pollDivisionIds": [
          10141359
        ],
        "postalCode": "L2P1L9",
        "streetName": "KESWICK",
        "streetDirectionId": null,
        "streetTypeId": "ST",
        "placeName": "ST CATHARINES",
        "streetNameDisplayText": "KESWICK ST, ST CATHARINES"
      }
    ]
  },
  {
    "postal": "L2P8T0",
    "result": []
  },
  {
    "postal": "L2P3K8",
    "result": [
      {
        "electoralDistricts": [
          {
            "election": null,
            "id": 90,
            "name": "St. Catharines"
          }
        ],
        "pollDivisionIds": [
          10141361
        ],
        "postalCode": "L2P3K8",
        "streetName": "BRACKENCREST",
        "streetDirectionId": null,
        "streetTypeId": "RD",
        "placeName": "ST CATHARINES",
        "streetNameDisplayText": "BRACKENCREST RD, ST CATHARINES"
      }
    ]
  },
  {
    "postal": "L2P5W9",
    "result": []
  },
  {
    "postal": "L2P6T9",
    "result": []
  },
  {
    "postal": "L2P4H1",
    "result": []
  },
  {
    "postal": "L2P7A2",
    "result": []
  },
  {
    "postal": "L2P5G0",
    "result": []
  },
  {
    "postal": "L2P8V5",
    "result": []
  },
  {
    "postal": "L2P2Y8",
    "result": [
      {
        "electoralDistricts": [
          {
            "election": null,
            "id": 90,
            "name": "St. Catharines"
          }
        ],
        "pollDivisionIds": [
          10141354
        ],
        "postalCode": "L2P2Y8",
        "streetName": "GRANTHAM",
        "streetDirectionId": "S",
        "streetTypeId": "AVE",
        "placeName": "ST CATHARINES",
        "streetNameDisplayText": "GRANTHAM AVE S, ST CATHARINES"
      }
    ]
  },
  {
    "postal": "L2P2B6",
    "result": [
      {
        "electoralDistricts": [
          {
            "election": null,
            "id": 90,
            "name": "St. Catharines"
          }
        ],
        "pollDivisionIds": [
          10141363
        ],
        "postalCode": "L2P2B6",
        "streetName": "ELM",
        "streetDirectionId": null,
        "streetTypeId": "ST",
        "placeName": "ST CATHARINES",
        "streetNameDisplayText": "ELM ST, ST CATHARINES"
      }
    ]
  },
  {
    "postal": "L2P4W8",
    "result": []
  },
  {
    "postal": "L2P8H7",
    "result": []
  },
  {
    "postal": "L2P5P1",
    "result": []
  },
  {
    "postal": "L2P2B8",
    "result": [
      {
        "electoralDistricts": [
          {
            "election": null,
            "id": 90,
            "name": "St. Catharines"
          }
        ],
        "pollDivisionIds": [
          10141363
        ],
        "postalCode": "L2P2B8",
        "streetName": "OAKDALE",
        "streetDirectionId": null,
        "streetTypeId": "AVE",
        "placeName": "ST CATHARINES",
        "streetNameDisplayText": "OAKDALE AVE, ST CATHARINES"
      }
    ]
  },
  {
    "postal": "L2P0P2",
    "result": []
  },
  {
    "postal": "L2P9M1",
    "result": []
  },
  {
    "postal": "L2P3G0",
    "result": []
  },
  {
    "postal": "L2P9Z2",
    "result": []
  },
  {
    "postal": "L2P2A0",
    "result": []
  },
  {
    "postal": "L2P6Y0",
    "result": []
  },
  {
    "postal": "L2P2Z8",
    "result": [
      {
        "electoralDistricts": [
          {
            "election": null,
            "id": 90,
            "name": "St. Catharines"
          }
        ],
        "pollDivisionIds": [
          10141354
        ],
        "postalCode": "L2P2Z8",
        "streetName": "EASTCHESTER",
        "streetDirectionId": null,
        "streetTypeId": "AVE",
        "placeName": "ST CATHARINES",
        "streetNameDisplayText": "EASTCHESTER AVE, ST CATHARINES"
      }
    ]
  },
  {
    "postal": "L2P7Y3",
    "result": []
  },
  {
    "postal": "L2P6Z5",
    "result": []
  },
  {
    "postal": "L2P6E0",
    "result": []
  },
  {
    "postal": "L2P9B7",
    "result": []
  },
  {
    "postal": "L2P9S5",
    "result": []
  },
  {
    "postal": "L2P3X3",
    "result": [
      {
        "electoralDistricts": [
          {
            "election": null,
            "id": 90,
            "name": "St. Catharines"
          }
        ],
        "pollDivisionIds": [
          10141361
        ],
        "postalCode": "L2P3X3",
        "streetName": "ST AUGUSTINE",
        "streetDirectionId": null,
        "streetTypeId": "DR",
        "placeName": "ST CATHARINES",
        "streetNameDisplayText": "ST AUGUSTINE DR, ST CATHARINES"
      },
      {
        "electoralDistricts": [
          {
            "election": null,
            "id": 90,
            "name": "St. Catharines"
          }
        ],
        "pollDivisionIds": [
          10141361
        ],
        "postalCode": "L2P3X3",
        "streetName": "ST. AUGUSTINE",
        "streetDirectionId": null,
        "streetTypeId": "DR",
        "placeName": "ST CATHARINES",
        "streetNameDisplayText": "ST. AUGUSTINE DR, ST CATHARINES"
      }
    ]
  },
  {
    "postal": "L2P7R5",
    "result": []
  },
  {
    "postal": "L2P2X3",
    "result": [
      {
        "electoralDistricts": [
          {
            "election": null,
            "id": 90,
            "name": "St. Catharines"
          }
        ],
        "pollDivisionIds": [
          10141359
        ],
        "postalCode": "L2P2X3",
        "streetName": "QUEENSTON",
        "streetDirectionId": null,
        "streetTypeId": "ST",
        "placeName": "ST CATHARINES",
        "streetNameDisplayText": "QUEENSTON ST, ST CATHARINES"
      }
    ]
  },
  {
    "postal": "L2P8Z9",
    "result": []
  },
  {
    "postal": "L2P0N4",
    "result": []
  },
  {
    "postal": "L2P1K1",
    "result": [
      {
        "electoralDistricts": [
          {
            "election": null,
            "id": 90,
            "name": "St. Catharines"
          }
        ],
        "pollDivisionIds": [
          10141363
        ],
        "postalCode": "L2P1K1",
        "streetName": "ALEXANDRA",
        "streetDirectionId": null,
        "streetTypeId": "BLVD",
        "placeName": "ST CATHARINES",
        "streetNameDisplayText": "ALEXANDRA BLVD, ST CATHARINES"
      }
    ]
  },
  {
    "postal": "L2P1S3",
    "result": [
      {
        "electoralDistricts": [
          {
            "election": null,
            "id": 90,
            "name": "St. Catharines"
          }
        ],
        "pollDivisionIds": [
          10141363
        ],
        "postalCode": "L2P1S3",
        "streetName": "ORCHARD",
        "streetDirectionId": null,
        "streetTypeId": "AVE",
        "placeName": "ST CATHARINES",
        "streetNameDisplayText": "ORCHARD AVE, ST CATHARINES"
      }
    ]
  },
  {
    "postal": "L2P6M4",
    "result": []
  },
  {
    "postal": "L2P9A9",
    "result": []
  },
  {
    "postal": "L2P9Z9",
    "result": []
  },
  {
    "postal": "L2P6T4",
    "result": []
  },
  {
    "postal": "L2P0B2",
    "result": [
      {
        "electoralDistricts": [
          {
            "election": null,
            "id": 90,
            "name": "St. Catharines"
          }
        ],
        "pollDivisionIds": [
          10141361
        ],
        "postalCode": "L2P0B2",
        "streetName": "COLONEL LYALL",
        "streetDirectionId": null,
        "streetTypeId": "ST",
        "placeName": "ST CATHARINES",
        "streetNameDisplayText": "COLONEL LYALL ST, ST CATHARINES"
      },
      {
        "electoralDistricts": [
          {
            "election": null,
            "id": 68,
            "name": "Niagara Centre"
          }
        ],
        "pollDivisionIds": [
          10139915
        ],
        "postalCode": "L2P0B2",
        "streetName": "GLENDALE",
        "streetDirectionId": null,
        "streetTypeId": "AVE",
        "placeName": "ST CATHARINES",
        "streetNameDisplayText": "GLENDALE AVE, ST CATHARINES"
      },
      {
        "electoralDistricts": [
          {
            "election": null,
            "id": 90,
            "name": "St. Catharines"
          }
        ],
        "pollDivisionIds": [
          10141361
        ],
        "postalCode": "L2P0B2",
        "streetName": "VALOUR",
        "streetDirectionId": null,
        "streetTypeId": "WAY",
        "placeName": "ST CATHARINES",
        "streetNameDisplayText": "VALOUR WAY, ST CATHARINES"
      }
    ]
  },
  {
    "postal": "L2P2L9",
    "result": [
      {
        "electoralDistricts": [
          {
            "election": null,
            "id": 90,
            "name": "St. Catharines"
          }
        ],
        "pollDivisionIds": [
          10141363
        ],
        "postalCode": "L2P2L9",
        "streetName": "HAIGHT",
        "streetDirectionId": null,
        "streetTypeId": "ST",
        "placeName": "ST CATHARINES",
        "streetNameDisplayText": "HAIGHT ST, ST CATHARINES"
      }
    ]
  },
  {
    "postal": "L2P8K9",
    "result": []
  },
  {
    "postal": "L2P2H9",
    "result": [
      {
        "electoralDistricts": [
          {
            "election": null,
            "id": 90,
            "name": "St. Catharines"
          }
        ],
        "pollDivisionIds": [
          10141363
        ],
        "postalCode": "L2P2H9",
        "streetName": "LINCOLN",
        "streetDirectionId": null,
        "streetTypeId": "AVE",
        "placeName": "ST CATHARINES",
        "streetNameDisplayText": "LINCOLN AVE, ST CATHARINES"
      }
    ]
  },
  {
    "postal": "L2P3Z6",
    "result": []
  },
  {
    "postal": "L2P3B0",
    "result": []
  },
  {
    "postal": "L2P2H8",
    "result": [
      {
        "electoralDistricts": [
          {
            "election": null,
            "id": 90,
            "name": "St. Catharines"
          }
        ],
        "pollDivisionIds": [
          10141363
        ],
        "postalCode": "L2P2H8",
        "streetName": "TURNER",
        "streetDirectionId": null,
        "streetTypeId": "CRES",
        "placeName": "ST CATHARINES",
        "streetNameDisplayText": "TURNER CRES, ST CATHARINES"
      }
    ]
  },
  {
    "postal": "L2P3X2",
    "result": [
      {
        "electoralDistricts": [
          {
            "election": null,
            "id": 90,
            "name": "St. Catharines"
          }
        ],
        "pollDivisionIds": [
          10141361
        ],
        "postalCode": "L2P3X2",
        "streetName": "ST AUGUSTINE",
        "streetDirectionId": null,
        "streetTypeId": "DR",
        "placeName": "ST CATHARINES",
        "streetNameDisplayText": "ST AUGUSTINE DR, ST CATHARINES"
      },
      {
        "electoralDistricts": [
          {
            "election": null,
            "id": 90,
            "name": "St. Catharines"
          }
        ],
        "pollDivisionIds": [
          10141361
        ],
        "postalCode": "L2P3X2",
        "streetName": "ST. AUGUSTINE",
        "streetDirectionId": null,
        "streetTypeId": "DR",
        "placeName": "ST CATHARINES",
        "streetNameDisplayText": "ST. AUGUSTINE DR, ST CATHARINES"
      }
    ]
  },
  {
    "postal": "L2P2E9",
    "result": [
      {
        "electoralDistricts": [
          {
            "election": null,
            "id": 90,
            "name": "St. Catharines"
          }
        ],
        "pollDivisionIds": [
          10141359
        ],
        "postalCode": "L2P2E9",
        "streetName": "ASHFORD",
        "streetDirectionId": null,
        "streetTypeId": "PL",
        "placeName": "ST CATHARINES",
        "streetNameDisplayText": "ASHFORD PL, ST CATHARINES"
      }
    ]
  },
  {
    "postal": "L2P9P6",
    "result": []
  },
  {
    "postal": "L2P9E2",
    "result": []
  },
  {
    "postal": "L2P9H2",
    "result": []
  },
  {
    "postal": "L2P1S8",
    "result": [
      {
        "electoralDistricts": [
          {
            "election": null,
            "id": 90,
            "name": "St. Catharines"
          }
        ],
        "pollDivisionIds": [
          10141361
        ],
        "postalCode": "L2P1S8",
        "streetName": "CARRIAGE",
        "streetDirectionId": null,
        "streetTypeId": "RD",
        "placeName": "ST CATHARINES",
        "streetNameDisplayText": "CARRIAGE RD, ST CATHARINES"
      }
    ]
  },
  {
    "postal": "L2P3M6",
    "result": [
      {
        "electoralDistricts": [
          {
            "election": null,
            "id": 90,
            "name": "St. Catharines"
          }
        ],
        "pollDivisionIds": [
          10141363
        ],
        "postalCode": "L2P3M6",
        "streetName": "CANTERBURY",
        "streetDirectionId": null,
        "streetTypeId": "DR",
        "placeName": "ST CATHARINES",
        "streetNameDisplayText": "CANTERBURY DR, ST CATHARINES"
      }
    ]
  },
  {
    "postal": "L2P6Z8",
    "result": []
  },
  {
    "postal": "L2P4J2",
    "result": []
  },
  {
    "postal": "L2P9Y1",
    "result": []
  },
  {
    "postal": "L2P8V6",
    "result": []
  },
  {
    "postal": "L2P6B2",
    "result": []
  },
  {
    "postal": "L2P1P8",
    "result": [
      {
        "electoralDistricts": [
          {
            "election": null,
            "id": 90,
            "name": "St. Catharines"
          }
        ],
        "pollDivisionIds": [
          10141363
        ],
        "postalCode": "L2P1P8",
        "streetName": "PARK",
        "streetDirectionId": null,
        "streetTypeId": "AVE",
        "placeName": "ST CATHARINES",
        "streetNameDisplayText": "PARK AVE, ST CATHARINES"
      }
    ]
  },
  {
    "postal": "L2P0V8",
    "result": []
  },
  {
    "postal": "L2P4Y0",
    "result": []
  },
  {
    "postal": "L2P2T4",
    "result": [
      {
        "electoralDistricts": [
          {
            "election": null,
            "id": 90,
            "name": "St. Catharines"
          }
        ],
        "pollDivisionIds": [
          10141353
        ],
        "postalCode": "L2P2T4",
        "streetName": "OAKDALE",
        "streetDirectionId": null,
        "streetTypeId": "AVE",
        "placeName": "ST CATHARINES",
        "streetNameDisplayText": "OAKDALE AVE, ST CATHARINES"
      }
    ]
  },
  {
    "postal": "L2P2S3",
    "result": [
      {
        "electoralDistricts": [
          {
            "election": null,
            "id": 90,
            "name": "St. Catharines"
          }
        ],
        "pollDivisionIds": [
          10141359
        ],
        "postalCode": "L2P2S3",
        "streetName": "CLAYBURN",
        "streetDirectionId": null,
        "streetTypeId": "AVE",
        "placeName": "ST CATHARINES",
        "streetNameDisplayText": "CLAYBURN AVE, ST CATHARINES"
      }
    ]
  },
  {
    "postal": "L2P0K0",
    "result": []
  },
  {
    "postal": "L2P5N1",
    "result": []
  },
  {
    "postal": "L2P7T0",
    "result": []
  },
  {
    "postal": "L2P9N2",
    "result": []
  },
  {
    "postal": "L2P5L1",
    "result": []
  },
  {
    "postal": "L2P7G5",
    "result": []
  },
  {
    "postal": "L2P6K2",
    "result": []
  },
  {
    "postal": "L2P6P9",
    "result": []
  },
  {
    "postal": "L2P0E6",
    "result": [
      {
        "electoralDistricts": [
          {
            "election": null,
            "id": 90,
            "name": "St. Catharines"
          }
        ],
        "pollDivisionIds": [
          10141363
        ],
        "postalCode": "L2P0E6",
        "streetName": "ELLIS",
        "streetDirectionId": null,
        "streetTypeId": "AVE",
        "placeName": "ST CATHARINES",
        "streetNameDisplayText": "ELLIS AVE, ST CATHARINES"
      }
    ]
  },
  {
    "postal": "L2P8R9",
    "result": []
  },
  {
    "postal": "L2P3G9",
    "result": [
      {
        "electoralDistricts": [
          {
            "election": null,
            "id": 90,
            "name": "St. Catharines"
          }
        ],
        "pollDivisionIds": [
          10141354
        ],
        "postalCode": "L2P3G9",
        "streetName": "BUNTING",
        "streetDirectionId": null,
        "streetTypeId": "RD",
        "placeName": "ST CATHARINES",
        "streetNameDisplayText": "BUNTING RD, ST CATHARINES"
      }
    ]
  },
  {
    "postal": "L2P0V7",
    "result": []
  },
  {
    "postal": "L2P2Z1",
    "result": [
      {
        "electoralDistricts": [
          {
            "election": null,
            "id": 90,
            "name": "St. Catharines"
          }
        ],
        "pollDivisionIds": [
          10141354
        ],
        "postalCode": "L2P2Z1",
        "streetName": "EASTCHESTER",
        "streetDirectionId": null,
        "streetTypeId": "AVE",
        "placeName": "ST CATHARINES",
        "streetNameDisplayText": "EASTCHESTER AVE, ST CATHARINES"
      }
    ]
  },
  {
    "postal": "L2P7N1",
    "result": []
  },
  {
    "postal": "L2P3C6",
    "result": [
      {
        "electoralDistricts": [
          {
            "election": null,
            "id": 90,
            "name": "St. Catharines"
          }
        ],
        "pollDivisionIds": [
          10141354
        ],
        "postalCode": "L2P3C6",
        "streetName": "LORNE",
        "streetDirectionId": null,
        "streetTypeId": "ST",
        "placeName": "ST CATHARINES",
        "streetNameDisplayText": "LORNE ST, ST CATHARINES"
      }
    ]
  },
  {
    "postal": "L2P4M1",
    "result": []
  },
  {
    "postal": "L2P9K2",
    "result": []
  },
  {
    "postal": "L2P9S6",
    "result": []
  },
  {
    "postal": "L2P4X1",
    "result": []
  },
  {
    "postal": "L2P8W2",
    "result": []
  },
  {
    "postal": "L2P7N2",
    "result": []
  },
  {
    "postal": "L2P8S3",
    "result": []
  },
  {
    "postal": "L2P4V0",
    "result": []
  },
  {
    "postal": "L2P6W4",
    "result": []
  },
  {
    "postal": "L2P5M1",
    "result": []
  },
  {
    "postal": "L2P0S4",
    "result": []
  },
  {
    "postal": "L2P5X6",
    "result": []
  },
  {
    "postal": "L2P8L5",
    "result": []
  },
  {
    "postal": "L2P5M8",
    "result": []
  },
  {
    "postal": "L2P2G3",
    "result": [
      {
        "electoralDistricts": [
          {
            "election": null,
            "id": 90,
            "name": "St. Catharines"
          }
        ],
        "pollDivisionIds": [
          10141363
        ],
        "postalCode": "L2P2G3",
        "streetName": "ABBOT",
        "streetDirectionId": null,
        "streetTypeId": "ST",
        "placeName": "ST CATHARINES",
        "streetNameDisplayText": "ABBOT ST, ST CATHARINES"
      }
    ]
  },
  {
    "postal": "L2P8E4",
    "result": []
  },
  {
    "postal": "L2P7S9",
    "result": []
  },
  {
    "postal": "L2P1K3",
    "result": [
      {
        "electoralDistricts": [
          {
            "election": null,
            "id": 90,
            "name": "St. Catharines"
          }
        ],
        "pollDivisionIds": [
          10141360
        ],
        "postalCode": "L2P1K3",
        "streetName": "HARDWOOD",
        "streetDirectionId": null,
        "streetTypeId": "GROVE",
        "placeName": "ST CATHARINES",
        "streetNameDisplayText": "HARDWOOD GROVE, ST CATHARINES"
      }
    ]
  },
  {
    "postal": "L2P4E1",
    "result": []
  },
  {
    "postal": "L2P4R2",
    "result": []
  },
  {
    "postal": "L2P6T0",
    "result": []
  },
  {
    "postal": "L2P3K5",
    "result": [
      {
        "electoralDistricts": [
          {
            "election": null,
            "id": 90,
            "name": "St. Catharines"
          }
        ],
        "pollDivisionIds": [
          10141359
        ],
        "postalCode": "L2P3K5",
        "streetName": "OAKDALE",
        "streetDirectionId": null,
        "streetTypeId": "AVE",
        "placeName": "ST CATHARINES",
        "streetNameDisplayText": "OAKDALE AVE, ST CATHARINES"
      }
    ]
  },
  {
    "postal": "L2P3S3",
    "result": [
      {
        "electoralDistricts": [
          {
            "election": null,
            "id": 90,
            "name": "St. Catharines"
          }
        ],
        "pollDivisionIds": [
          10141361
        ],
        "postalCode": "L2P3S3",
        "streetName": "WOODROW",
        "streetDirectionId": null,
        "streetTypeId": "ST",
        "placeName": "ST CATHARINES",
        "streetNameDisplayText": "WOODROW ST, ST CATHARINES"
      }
    ]
  },
  {
    "postal": "L2P3L4",
    "result": [
      {
        "electoralDistricts": [
          {
            "election": null,
            "id": 90,
            "name": "St. Catharines"
          }
        ],
        "pollDivisionIds": [
          10141361
        ],
        "postalCode": "L2P3L4",
        "streetName": "RENE",
        "streetDirectionId": null,
        "streetTypeId": "LANE",
        "placeName": "ST CATHARINES",
        "streetNameDisplayText": "RENE LANE, ST CATHARINES"
      }
    ]
  },
  {
    "postal": "L2P9Y2",
    "result": []
  },
  {
    "postal": "L2P1E0",
    "result": []
  },
  {
    "postal": "L2P9A4",
    "result": []
  },
  {
    "postal": "L2P1L3",
    "result": [
      {
        "electoralDistricts": [
          {
            "election": null,
            "id": 90,
            "name": "St. Catharines"
          }
        ],
        "pollDivisionIds": [
          10141360
        ],
        "postalCode": "L2P1L3",
        "streetName": "OAKWOOD",
        "streetDirectionId": null,
        "streetTypeId": "AVE",
        "placeName": "ST CATHARINES",
        "streetNameDisplayText": "OAKWOOD AVE, ST CATHARINES"
      }
    ]
  },
  {
    "postal": "L2P6N1",
    "result": []
  },
  {
    "postal": "L2P6G7",
    "result": []
  },
  {
    "postal": "L2P7W1",
    "result": []
  },
  {
    "postal": "L2P4M6",
    "result": []
  },
  {
    "postal": "L2P1K0",
    "result": []
  },
  {
    "postal": "L2P3E2",
    "result": [
      {
        "electoralDistricts": [
          {
            "election": null,
            "id": 90,
            "name": "St. Catharines"
          }
        ],
        "pollDivisionIds": [
          10141354
        ],
        "postalCode": "L2P3E2",
        "streetName": "CAMERON",
        "streetDirectionId": null,
        "streetTypeId": "RD",
        "placeName": "ST CATHARINES",
        "streetNameDisplayText": "CAMERON RD, ST CATHARINES"
      }
    ]
  },
  {
    "postal": "L2P5H4",
    "result": []
  },
  {
    "postal": "L2P1K7",
    "result": [
      {
        "electoralDistricts": [
          {
            "election": null,
            "id": 90,
            "name": "St. Catharines"
          }
        ],
        "pollDivisionIds": [
          10141360
        ],
        "postalCode": "L2P1K7",
        "streetName": "WARREN",
        "streetDirectionId": null,
        "streetTypeId": "RD",
        "placeName": "ST CATHARINES",
        "streetNameDisplayText": "WARREN RD, ST CATHARINES"
      }
    ]
  },
  {
    "postal": "L2P0H0",
    "result": []
  },
  {
    "postal": "L2P0J3",
    "result": []
  },
  {
    "postal": "L2P1X6",
    "result": [
      {
        "electoralDistricts": [
          {
            "election": null,
            "id": 90,
            "name": "St. Catharines"
          }
        ],
        "pollDivisionIds": [
          10141360
        ],
        "postalCode": "L2P1X6",
        "streetName": "GREENWOOD",
        "streetDirectionId": null,
        "streetTypeId": "AVE",
        "placeName": "ST CATHARINES",
        "streetNameDisplayText": "GREENWOOD AVE, ST CATHARINES"
      }
    ]
  },
  {
    "postal": "L2P2Z6",
    "result": [
      {
        "electoralDistricts": [
          {
            "election": null,
            "id": 90,
            "name": "St. Catharines"
          }
        ],
        "pollDivisionIds": [
          10141354
        ],
        "postalCode": "L2P2Z6",
        "streetName": "EASTCHESTER",
        "streetDirectionId": null,
        "streetTypeId": "AVE",
        "placeName": "ST CATHARINES",
        "streetNameDisplayText": "EASTCHESTER AVE, ST CATHARINES"
      }
    ]
  },
  {
    "postal": "L2P4R9",
    "result": []
  },
  {
    "postal": "L2P0W8",
    "result": []
  },
  {
    "postal": "L2P1L4",
    "result": [
      {
        "electoralDistricts": [
          {
            "election": null,
            "id": 90,
            "name": "St. Catharines"
          }
        ],
        "pollDivisionIds": [
          10141359
        ],
        "postalCode": "L2P1L4",
        "streetName": "BATTERSEA",
        "streetDirectionId": null,
        "streetTypeId": "AVE",
        "placeName": "ST CATHARINES",
        "streetNameDisplayText": "BATTERSEA AVE, ST CATHARINES"
      }
    ]
  },
  {
    "postal": "L2P0C8",
    "result": [
      {
        "electoralDistricts": [
          {
            "election": null,
            "id": 90,
            "name": "St. Catharines"
          }
        ],
        "pollDivisionIds": [
          10141354
        ],
        "postalCode": "L2P0C8",
        "streetName": "GRANTHAM",
        "streetDirectionId": "S",
        "streetTypeId": "AVE",
        "placeName": "ST CATHARINES",
        "streetNameDisplayText": "GRANTHAM AVE S, ST CATHARINES"
      }
    ]
  },
  {
    "postal": "L2P9X7",
    "result": []
  },
  {
    "postal": "L2P4T1",
    "result": []
  },
  {
    "postal": "L2P0M0",
    "result": []
  },
  {
    "postal": "L2P6A2",
    "result": []
  },
  {
    "postal": "L2P9S8",
    "result": []
  },
  {
    "postal": "L2P9T4",
    "result": []
  },
  {
    "postal": "L2P9Y4",
    "result": []
  },
  {
    "postal": "L2P6G5",
    "result": []
  },
  {
    "postal": "L2P6H9",
    "result": []
  },
  {
    "postal": "L2P2P3",
    "result": [
      {
        "electoralDistricts": [
          {
            "election": null,
            "id": 90,
            "name": "St. Catharines"
          }
        ],
        "pollDivisionIds": [
          10141353
        ],
        "postalCode": "L2P2P3",
        "streetName": "BEARD",
        "streetDirectionId": null,
        "streetTypeId": "PL",
        "placeName": "ST CATHARINES",
        "streetNameDisplayText": "BEARD PL, ST CATHARINES"
      }
    ]
  },
  {
    "postal": "L2P1T6",
    "result": [
      {
        "electoralDistricts": [
          {
            "election": null,
            "id": 90,
            "name": "St. Catharines"
          }
        ],
        "pollDivisionIds": [
          10141361
        ],
        "postalCode": "L2P1T6",
        "streetName": "CASCADE",
        "streetDirectionId": null,
        "streetTypeId": "CRT",
        "placeName": "ST CATHARINES",
        "streetNameDisplayText": "CASCADE CRT, ST CATHARINES"
      }
    ]
  },
  {
    "postal": "L2P4P6",
    "result": []
  },
  {
    "postal": "L2P3K1",
    "result": [
      {
        "electoralDistricts": [
          {
            "election": null,
            "id": 90,
            "name": "St. Catharines"
          }
        ],
        "pollDivisionIds": [
          10141354
        ],
        "postalCode": "L2P3K1",
        "streetName": "WOODROW",
        "streetDirectionId": "N",
        "streetTypeId": "ST",
        "placeName": "ST CATHARINES",
        "streetNameDisplayText": "WOODROW ST N, ST CATHARINES"
      }
    ]
  },
  {
    "postal": "L2P6X4",
    "result": []
  },
  {
    "postal": "L2P4M8",
    "result": []
  },
  {
    "postal": "L2P2Y1",
    "result": [
      {
        "electoralDistricts": [
          {
            "election": null,
            "id": 90,
            "name": "St. Catharines"
          }
        ],
        "pollDivisionIds": [
          10141354
        ],
        "postalCode": "L2P2Y1",
        "streetName": "QUEENSTON",
        "streetDirectionId": null,
        "streetTypeId": "ST",
        "placeName": "ST CATHARINES",
        "streetNameDisplayText": "QUEENSTON ST, ST CATHARINES"
      }
    ]
  },
  {
    "postal": "L2P6M1",
    "result": []
  },
  {
    "postal": "L2P5L8",
    "result": []
  },
  {
    "postal": "L2P3P6",
    "result": [
      {
        "electoralDistricts": [
          {
            "election": null,
            "id": 90,
            "name": "St. Catharines"
          }
        ],
        "pollDivisionIds": [
          10141354
        ],
        "postalCode": "L2P3P6",
        "streetName": "SHETLAND",
        "streetDirectionId": null,
        "streetTypeId": "CRES",
        "placeName": "ST CATHARINES",
        "streetNameDisplayText": "SHETLAND CRES, ST CATHARINES"
      }
    ]
  },
  {
    "postal": "L2P9A5",
    "result": []
  },
  {
    "postal": "L2P7K1",
    "result": []
  },
  {
    "postal": "L2P3J4",
    "result": [
      {
        "electoralDistricts": [
          {
            "election": null,
            "id": 90,
            "name": "St. Catharines"
          }
        ],
        "pollDivisionIds": [
          10141354
        ],
        "postalCode": "L2P3J4",
        "streetName": "WRIGHT",
        "streetDirectionId": null,
        "streetTypeId": "ST",
        "placeName": "ST CATHARINES",
        "streetNameDisplayText": "WRIGHT ST, ST CATHARINES"
      }
    ]
  },
  {
    "postal": "L2P5E7",
    "result": []
  },
  {
    "postal": "L2P3A7",
    "result": [
      {
        "electoralDistricts": [
          {
            "election": null,
            "id": 90,
            "name": "St. Catharines"
          }
        ],
        "pollDivisionIds": [
          10141359
        ],
        "postalCode": "L2P3A7",
        "streetName": "RAVINE",
        "streetDirectionId": null,
        "streetTypeId": "RD",
        "placeName": "ST CATHARINES",
        "streetNameDisplayText": "RAVINE RD, ST CATHARINES"
      }
    ]
  },
  {
    "postal": "L2P1B9",
    "result": [
      {
        "electoralDistricts": [
          {
            "election": null,
            "id": 90,
            "name": "St. Catharines"
          }
        ],
        "pollDivisionIds": [
          10141363
        ],
        "postalCode": "L2P1B9",
        "streetName": "FIR",
        "streetDirectionId": null,
        "streetTypeId": "AVE",
        "placeName": "ST CATHARINES",
        "streetNameDisplayText": "FIR AVE, ST CATHARINES"
      }
    ]
  },
  {
    "postal": "L2P9E8",
    "result": []
  },
  {
    "postal": "L2P1C9",
    "result": [
      {
        "electoralDistricts": [
          {
            "election": null,
            "id": 90,
            "name": "St. Catharines"
          }
        ],
        "pollDivisionIds": [
          10141361
        ],
        "postalCode": "L2P1C9",
        "streetName": "GROVE",
        "streetDirectionId": null,
        "streetTypeId": "AVE",
        "placeName": "ST CATHARINES",
        "streetNameDisplayText": "GROVE AVE, ST CATHARINES"
      }
    ]
  },
  {
    "postal": "L2P3B5",
    "result": [
      {
        "electoralDistricts": [
          {
            "election": null,
            "id": 90,
            "name": "St. Catharines"
          }
        ],
        "pollDivisionIds": [
          10141354
        ],
        "postalCode": "L2P3B5",
        "streetName": "CHELSEA",
        "streetDirectionId": null,
        "streetTypeId": "ST",
        "placeName": "ST CATHARINES",
        "streetNameDisplayText": "CHELSEA ST, ST CATHARINES"
      }
    ]
  },
  {
    "postal": "L2P8R0",
    "result": []
  },
  {
    "postal": "L2P3P2",
    "result": [
      {
        "electoralDistricts": [
          {
            "election": null,
            "id": 90,
            "name": "St. Catharines"
          }
        ],
        "pollDivisionIds": [
          10141361,
          10141333
        ],
        "postalCode": "L2P3P2",
        "streetName": "ROCKWOOD",
        "streetDirectionId": null,
        "streetTypeId": "AVE",
        "placeName": "ST CATHARINES",
        "streetNameDisplayText": "ROCKWOOD AVE, ST CATHARINES"
      }
    ]
  },
  {
    "postal": "L2P5V4",
    "result": []
  },
  {
    "postal": "L2P4H0",
    "result": []
  },
  {
    "postal": "L2P4S7",
    "result": []
  },
  {
    "postal": "L2P6C2",
    "result": []
  },
  {
    "postal": "L2P8W3",
    "result": []
  },
  {
    "postal": "L2P4M5",
    "result": []
  },
  {
    "postal": "L2P5T1",
    "result": []
  },
  {
    "postal": "L2P3B3",
    "result": [
      {
        "electoralDistricts": [
          {
            "election": null,
            "id": 90,
            "name": "St. Catharines"
          }
        ],
        "pollDivisionIds": [
          10141354
        ],
        "postalCode": "L2P3B3",
        "streetName": "GRANTHAM",
        "streetDirectionId": "S",
        "streetTypeId": "AVE",
        "placeName": "ST CATHARINES",
        "streetNameDisplayText": "GRANTHAM AVE S, ST CATHARINES"
      }
    ]
  },
  {
    "postal": "L2P6C6",
    "result": []
  },
  {
    "postal": "L2P7N8",
    "result": []
  },
  {
    "postal": "L2P2Y3",
    "result": [
      {
        "electoralDistricts": [
          {
            "election": null,
            "id": 90,
            "name": "St. Catharines"
          }
        ],
        "pollDivisionIds": [
          10141354,
          10141353
        ],
        "postalCode": "L2P2Y3",
        "streetName": "QUEENSTON",
        "streetDirectionId": null,
        "streetTypeId": "ST",
        "placeName": "ST CATHARINES",
        "streetNameDisplayText": "QUEENSTON ST, ST CATHARINES"
      }
    ]
  },
  {
    "postal": "L2P2R6",
    "result": [
      {
        "electoralDistricts": [
          {
            "election": null,
            "id": 90,
            "name": "St. Catharines"
          }
        ],
        "pollDivisionIds": [
          10141353
        ],
        "postalCode": "L2P2R6",
        "streetName": "BLAIN",
        "streetDirectionId": null,
        "streetTypeId": "PL",
        "placeName": "ST CATHARINES",
        "streetNameDisplayText": "BLAIN PL, ST CATHARINES"
      }
    ]
  },
  {
    "postal": "L2P7N3",
    "result": []
  },
  {
    "postal": "L2P8J2",
    "result": []
  },
  {
    "postal": "L2P6A9",
    "result": []
  },
  {
    "postal": "L2P3V2",
    "result": [
      {
        "electoralDistricts": [
          {
            "election": null,
            "id": 90,
            "name": "St. Catharines"
          }
        ],
        "pollDivisionIds": [
          10141360
        ],
        "postalCode": "L2P3V2",
        "streetName": "WOODROW",
        "streetDirectionId": null,
        "streetTypeId": "ST",
        "placeName": "ST CATHARINES",
        "streetNameDisplayText": "WOODROW ST, ST CATHARINES"
      }
    ]
  },
  {
    "postal": "L2P2N3",
    "result": []
  },
  {
    "postal": "L2P1S5",
    "result": [
      {
        "electoralDistricts": [
          {
            "election": null,
            "id": 90,
            "name": "St. Catharines"
          }
        ],
        "pollDivisionIds": [
          10141363
        ],
        "postalCode": "L2P1S5",
        "streetName": "BALSAM",
        "streetDirectionId": null,
        "streetTypeId": "ST",
        "placeName": "ST CATHARINES",
        "streetNameDisplayText": "BALSAM ST, ST CATHARINES"
      }
    ]
  },
  {
    "postal": "L2P4T7",
    "result": []
  },
  {
    "postal": "L2P6Y7",
    "result": []
  },
  {
    "postal": "L2P0W7",
    "result": []
  },
  {
    "postal": "L2P2W9",
    "result": [
      {
        "electoralDistricts": [
          {
            "election": null,
            "id": 90,
            "name": "St. Catharines"
          }
        ],
        "pollDivisionIds": [
          10141354
        ],
        "postalCode": "L2P2W9",
        "streetName": "QUEENSTON",
        "streetDirectionId": null,
        "streetTypeId": "ST",
        "placeName": "ST CATHARINES",
        "streetNameDisplayText": "QUEENSTON ST, ST CATHARINES"
      }
    ]
  },
  {
    "postal": "L2P8V0",
    "result": []
  },
  {
    "postal": "L2P0H4",
    "result": []
  },
  {
    "postal": "L2P2T1",
    "result": [
      {
        "electoralDistricts": [
          {
            "election": null,
            "id": 90,
            "name": "St. Catharines"
          }
        ],
        "pollDivisionIds": [
          10141353
        ],
        "postalCode": "L2P2T1",
        "streetName": "COLLIER",
        "streetDirectionId": null,
        "streetTypeId": "ST",
        "placeName": "ST CATHARINES",
        "streetNameDisplayText": "COLLIER ST, ST CATHARINES"
      }
    ]
  },
  {
    "postal": "L2P1B1",
    "result": [
      {
        "electoralDistricts": [
          {
            "election": null,
            "id": 90,
            "name": "St. Catharines"
          }
        ],
        "pollDivisionIds": [
          10141363
        ],
        "postalCode": "L2P1B1",
        "streetName": "CEDARDALE",
        "streetDirectionId": null,
        "streetTypeId": "AVE",
        "placeName": "ST CATHARINES",
        "streetNameDisplayText": "CEDARDALE AVE, ST CATHARINES"
      }
    ]
  },
  {
    "postal": "L2P8B6",
    "result": []
  },
  {
    "postal": "L2P6H1",
    "result": []
  },
  {
    "postal": "L2P8T8",
    "result": []
  },
  {
    "postal": "L2P0T4",
    "result": []
  },
  {
    "postal": "L2P2C4",
    "result": [
      {
        "electoralDistricts": [
          {
            "election": null,
            "id": 90,
            "name": "St. Catharines"
          }
        ],
        "pollDivisionIds": [
          10141359
        ],
        "postalCode": "L2P2C4",
        "streetName": "INGLEWOOD",
        "streetDirectionId": null,
        "streetTypeId": "RD",
        "placeName": "ST CATHARINES",
        "streetNameDisplayText": "INGLEWOOD RD, ST CATHARINES"
      }
    ]
  },
  {
    "postal": "L2P8N3",
    "result": []
  },
  {
    "postal": "L2P4L8",
    "result": []
  },
  {
    "postal": "L2P2B5",
    "result": [
      {
        "electoralDistricts": [
          {
            "election": null,
            "id": 90,
            "name": "St. Catharines"
          }
        ],
        "pollDivisionIds": [
          10141363
        ],
        "postalCode": "L2P2B5",
        "streetName": "BIRCH",
        "streetDirectionId": null,
        "streetTypeId": "LANE",
        "placeName": "ST CATHARINES",
        "streetNameDisplayText": "BIRCH LANE, ST CATHARINES"
      }
    ]
  },
  {
    "postal": "L2P3H1",
    "result": [
      {
        "electoralDistricts": [
          {
            "election": null,
            "id": 90,
            "name": "St. Catharines"
          }
        ],
        "pollDivisionIds": [
          10141354
        ],
        "postalCode": "L2P3H1",
        "streetName": "GRANTHAM",
        "streetDirectionId": "S",
        "streetTypeId": "AVE",
        "placeName": "ST CATHARINES",
        "streetNameDisplayText": "GRANTHAM AVE S, ST CATHARINES"
      }
    ]
  },
  {
    "postal": "L2P4Y1",
    "result": []
  },
  {
    "postal": "L2P7E2",
    "result": []
  },
  {
    "postal": "L2P2P5",
    "result": [
      {
        "electoralDistricts": [
          {
            "election": null,
            "id": 90,
            "name": "St. Catharines"
          }
        ],
        "pollDivisionIds": [
          10141353
        ],
        "postalCode": "L2P2P5",
        "streetName": "ARGYLE",
        "streetDirectionId": null,
        "streetTypeId": "CRES",
        "placeName": "ST CATHARINES",
        "streetNameDisplayText": "ARGYLE CRES, ST CATHARINES"
      }
    ]
  },
  {
    "postal": "L2P8R7",
    "result": []
  },
  {
    "postal": "L2P9P1",
    "result": []
  },
  {
    "postal": "L2P3B8",
    "result": [
      {
        "electoralDistricts": [
          {
            "election": null,
            "id": 90,
            "name": "St. Catharines"
          }
        ],
        "pollDivisionIds": [
          10141354
        ],
        "postalCode": "L2P3B8",
        "streetName": "CHELSEA",
        "streetDirectionId": null,
        "streetTypeId": "ST",
        "placeName": "ST CATHARINES",
        "streetNameDisplayText": "CHELSEA ST, ST CATHARINES"
      }
    ]
  },
  {
    "postal": "L2P3P7",
    "result": [
      {
        "electoralDistricts": [
          {
            "election": null,
            "id": 90,
            "name": "St. Catharines"
          }
        ],
        "pollDivisionIds": [
          10141354
        ],
        "postalCode": "L2P3P7",
        "streetName": "SHETLAND",
        "streetDirectionId": null,
        "streetTypeId": "CRES",
        "placeName": "ST CATHARINES",
        "streetNameDisplayText": "SHETLAND CRES, ST CATHARINES"
      }
    ]
  },
  {
    "postal": "L2P9B2",
    "result": []
  },
  {
    "postal": "L2P6Z3",
    "result": []
  },
  {
    "postal": "L2P4N5",
    "result": []
  },
  {
    "postal": "L2P8T3",
    "result": []
  },
  {
    "postal": "L2P1V2",
    "result": [
      {
        "electoralDistricts": [
          {
            "election": null,
            "id": 90,
            "name": "St. Catharines"
          }
        ],
        "pollDivisionIds": [
          10141359
        ],
        "postalCode": "L2P1V2",
        "streetName": "FERNDALE",
        "streetDirectionId": null,
        "streetTypeId": "AVE",
        "placeName": "ST CATHARINES",
        "streetNameDisplayText": "FERNDALE AVE, ST CATHARINES"
      }
    ]
  },
  {
    "postal": "L2P1Y0",
    "result": []
  },
  {
    "postal": "L2P3G6",
    "result": [
      {
        "electoralDistricts": [
          {
            "election": null,
            "id": 90,
            "name": "St. Catharines"
          }
        ],
        "pollDivisionIds": [
          10141354
        ],
        "postalCode": "L2P3G6",
        "streetName": "BUNTING",
        "streetDirectionId": null,
        "streetTypeId": "RD",
        "placeName": "ST CATHARINES",
        "streetNameDisplayText": "BUNTING RD, ST CATHARINES"
      }
    ]
  },
  {
    "postal": "L2P3H7",
    "result": [
      {
        "electoralDistricts": [
          {
            "election": null,
            "id": 90,
            "name": "St. Catharines"
          }
        ],
        "pollDivisionIds": [
          10141354
        ],
        "postalCode": "L2P3H7",
        "streetName": "DUNKIRK",
        "streetDirectionId": null,
        "streetTypeId": "RD",
        "placeName": "ST CATHARINES",
        "streetNameDisplayText": "DUNKIRK RD, ST CATHARINES"
      }
    ]
  },
  {
    "postal": "L2P7X8",
    "result": []
  },
  {
    "postal": "L2P0C7",
    "result": [
      {
        "electoralDistricts": [
          {
            "election": null,
            "id": 90,
            "name": "St. Catharines"
          }
        ],
        "pollDivisionIds": [
          10141363
        ],
        "postalCode": "L2P0C7",
        "streetName": "GLORY HILL",
        "streetDirectionId": null,
        "streetTypeId": "RD",
        "placeName": "ST CATHARINES",
        "streetNameDisplayText": "GLORY HILL RD, ST CATHARINES"
      }
    ]
  },
  {
    "postal": "L2P0W9",
    "result": []
  },
  {
    "postal": "L2P8E6",
    "result": []
  },
  {
    "postal": "L2P9Z8",
    "result": []
  },
  {
    "postal": "L2P3P4",
    "result": [
      {
        "electoralDistricts": [
          {
            "election": null,
            "id": 90,
            "name": "St. Catharines"
          }
        ],
        "pollDivisionIds": [
          10141363
        ],
        "postalCode": "L2P3P4",
        "streetName": "GREEN MAPLE",
        "streetDirectionId": null,
        "streetTypeId": "DR",
        "placeName": "ST CATHARINES",
        "streetNameDisplayText": "GREEN MAPLE DR, ST CATHARINES"
      }
    ]
  },
  {
    "postal": "L2P6L8",
    "result": []
  },
  {
    "postal": "L2P2R4",
    "result": [
      {
        "electoralDistricts": [
          {
            "election": null,
            "id": 90,
            "name": "St. Catharines"
          }
        ],
        "pollDivisionIds": [
          10141359
        ],
        "postalCode": "L2P2R4",
        "streetName": "BLAIN",
        "streetDirectionId": null,
        "streetTypeId": "PL",
        "placeName": "ST CATHARINES",
        "streetNameDisplayText": "BLAIN PL, ST CATHARINES"
      }
    ]
  },
  {
    "postal": "L2P2W1",
    "result": [
      {
        "electoralDistricts": [
          {
            "election": null,
            "id": 90,
            "name": "St. Catharines"
          }
        ],
        "pollDivisionIds": [
          10141359
        ],
        "postalCode": "L2P2W1",
        "streetName": "WESTCHESTER",
        "streetDirectionId": null,
        "streetTypeId": "AVE",
        "placeName": "ST CATHARINES",
        "streetNameDisplayText": "WESTCHESTER AVE, ST CATHARINES"
      },
      {
        "electoralDistricts": [
          {
            "election": null,
            "id": 90,
            "name": "St. Catharines"
          }
        ],
        "pollDivisionIds": [
          10141359
        ],
        "postalCode": "L2P2W1",
        "streetName": "WESTCHESTER",
        "streetDirectionId": null,
        "streetTypeId": "CRES",
        "placeName": "ST CATHARINES",
        "streetNameDisplayText": "WESTCHESTER CRES, ST CATHARINES"
      }
    ]
  },
  {
    "postal": "L2P9H8",
    "result": []
  },
  {
    "postal": "L2P8X9",
    "result": []
  },
  {
    "postal": "L2P7H4",
    "result": []
  },
  {
    "postal": "L2P3J1",
    "result": [
      {
        "electoralDistricts": [
          {
            "election": null,
            "id": 90,
            "name": "St. Catharines"
          }
        ],
        "pollDivisionIds": [
          10141354
        ],
        "postalCode": "L2P3J1",
        "streetName": "SMITH",
        "streetDirectionId": null,
        "streetTypeId": "ST",
        "placeName": "ST CATHARINES",
        "streetNameDisplayText": "SMITH ST, ST CATHARINES"
      }
    ]
  },
  {
    "postal": "L2P1P4",
    "result": [
      {
        "electoralDistricts": [
          {
            "election": null,
            "id": 90,
            "name": "St. Catharines"
          }
        ],
        "pollDivisionIds": [
          10141363
        ],
        "postalCode": "L2P1P4",
        "streetName": "MERRITT",
        "streetDirectionId": null,
        "streetTypeId": "ST",
        "placeName": "ST CATHARINES",
        "streetNameDisplayText": "MERRITT ST, ST CATHARINES"
      }
    ]
  },
  {
    "postal": "L2P2A3",
    "result": [
      {
        "electoralDistricts": [
          {
            "election": null,
            "id": 90,
            "name": "St. Catharines"
          }
        ],
        "pollDivisionIds": [
          10141360
        ],
        "postalCode": "L2P2A3",
        "streetName": "WOODROW",
        "streetDirectionId": null,
        "streetTypeId": "ST",
        "placeName": "ST CATHARINES",
        "streetNameDisplayText": "WOODROW ST, ST CATHARINES"
      }
    ]
  },
  {
    "postal": "L2P0Z1",
    "result": []
  },
  {
    "postal": "L2P1C1",
    "result": [
      {
        "electoralDistricts": [
          {
            "election": null,
            "id": 90,
            "name": "St. Catharines"
          }
        ],
        "pollDivisionIds": [
          10141363
        ],
        "postalCode": "L2P1C1",
        "streetName": "FIR",
        "streetDirectionId": null,
        "streetTypeId": "AVE",
        "placeName": "ST CATHARINES",
        "streetNameDisplayText": "FIR AVE, ST CATHARINES"
      }
    ]
  },
  {
    "postal": "L2P0H3",
    "result": []
  },
  {
    "postal": "L2P7B0",
    "result": []
  },
  {
    "postal": "L2P5K2",
    "result": []
  },
  {
    "postal": "L2P1E9",
    "result": [
      {
        "electoralDistricts": [
          {
            "election": null,
            "id": 90,
            "name": "St. Catharines"
          }
        ],
        "pollDivisionIds": [
          10141361
        ],
        "postalCode": "L2P1E9",
        "streetName": "ROCKWOOD",
        "streetDirectionId": null,
        "streetTypeId": "AVE",
        "placeName": "ST CATHARINES",
        "streetNameDisplayText": "ROCKWOOD AVE, ST CATHARINES"
      }
    ]
  },
  {
    "postal": "L2P9W7",
    "result": []
  },
  {
    "postal": "L2P5W6",
    "result": []
  },
  {
    "postal": "L2P6S6",
    "result": []
  },
  {
    "postal": "L2P2P8",
    "result": [
      {
        "electoralDistricts": [
          {
            "election": null,
            "id": 90,
            "name": "St. Catharines"
          }
        ],
        "pollDivisionIds": [
          10141353
        ],
        "postalCode": "L2P2P8",
        "streetName": "PRINCESS",
        "streetDirectionId": null,
        "streetTypeId": "ST",
        "placeName": "ST CATHARINES",
        "streetNameDisplayText": "PRINCESS ST, ST CATHARINES"
      }
    ]
  },
  {
    "postal": "L2P4P8",
    "result": []
  },
  {
    "postal": "L2P0V9",
    "result": []
  },
  {
    "postal": "L2P5Y2",
    "result": []
  },
  {
    "postal": "L2P7Z7",
    "result": []
  },
  {
    "postal": "L2P6Y8",
    "result": []
  },
  {
    "postal": "L2P2G7",
    "result": [
      {
        "electoralDistricts": [
          {
            "election": null,
            "id": 90,
            "name": "St. Catharines"
          }
        ],
        "pollDivisionIds": [
          10141363
        ],
        "postalCode": "L2P2G7",
        "streetName": "SMYTHE",
        "streetDirectionId": null,
        "streetTypeId": "ST",
        "placeName": "ST CATHARINES",
        "streetNameDisplayText": "SMYTHE ST, ST CATHARINES"
      }
    ]
  },
  {
    "postal": "L2P8C1",
    "result": []
  },
  {
    "postal": "L2P5C5",
    "result": []
  },
  {
    "postal": "L2P2X8",
    "result": [
      {
        "electoralDistricts": [
          {
            "election": null,
            "id": 90,
            "name": "St. Catharines"
          }
        ],
        "pollDivisionIds": [
          10141354
        ],
        "postalCode": "L2P2X8",
        "streetName": "QUEENSTON",
        "streetDirectionId": null,
        "streetTypeId": "ST",
        "placeName": "ST CATHARINES",
        "streetNameDisplayText": "QUEENSTON ST, ST CATHARINES"
      }
    ]
  },
  {
    "postal": "L2P1W5",
    "result": [
      {
        "electoralDistricts": [
          {
            "election": null,
            "id": 90,
            "name": "St. Catharines"
          }
        ],
        "pollDivisionIds": [
          10141360
        ],
        "postalCode": "L2P1W5",
        "streetName": "CHRISTOPHER",
        "streetDirectionId": null,
        "streetTypeId": "ST",
        "placeName": "ST CATHARINES",
        "streetNameDisplayText": "CHRISTOPHER ST, ST CATHARINES"
      }
    ]
  },
  {
    "postal": "L2P7G0",
    "result": []
  },
  {
    "postal": "L2P8J8",
    "result": []
  },
  {
    "postal": "L2P3Y0",
    "result": []
  },
  {
    "postal": "L2P9T7",
    "result": []
  },
  {
    "postal": "L2P5P4",
    "result": []
  },
  {
    "postal": "L2P4B0",
    "result": []
  },
  {
    "postal": "L2P9N8",
    "result": []
  },
  {
    "postal": "L2P4A7",
    "result": []
  },
  {
    "postal": "L2P4H9",
    "result": []
  },
  {
    "postal": "L2P6X1",
    "result": []
  },
  {
    "postal": "L2P9Y7",
    "result": []
  },
  {
    "postal": "L2P2Y5",
    "result": [
      {
        "electoralDistricts": [
          {
            "election": null,
            "id": 90,
            "name": "St. Catharines"
          }
        ],
        "pollDivisionIds": [
          10141354
        ],
        "postalCode": "L2P2Y5",
        "streetName": "EASTCHESTER",
        "streetDirectionId": null,
        "streetTypeId": "AVE",
        "placeName": "ST CATHARINES",
        "streetNameDisplayText": "EASTCHESTER AVE, ST CATHARINES"
      }
    ]
  },
  {
    "postal": "L2P8L7",
    "result": []
  },
  {
    "postal": "L2P2A8",
    "result": [
      {
        "electoralDistricts": [
          {
            "election": null,
            "id": 90,
            "name": "St. Catharines"
          }
        ],
        "pollDivisionIds": [
          10141360
        ],
        "postalCode": "L2P2A8",
        "streetName": "DUNDONALD",
        "streetDirectionId": null,
        "streetTypeId": "ST",
        "placeName": "ST CATHARINES",
        "streetNameDisplayText": "DUNDONALD ST, ST CATHARINES"
      }
    ]
  },
  {
    "postal": "L2P2K9",
    "result": [
      {
        "electoralDistricts": [
          {
            "election": null,
            "id": 90,
            "name": "St. Catharines"
          }
        ],
        "pollDivisionIds": [
          10141363
        ],
        "postalCode": "L2P2K9",
        "streetName": "OAKDALE",
        "streetDirectionId": null,
        "streetTypeId": "AVE",
        "placeName": "ST CATHARINES",
        "streetNameDisplayText": "OAKDALE AVE, ST CATHARINES"
      }
    ]
  },
  {
    "postal": "L2P3E5",
    "result": [
      {
        "electoralDistricts": [
          {
            "election": null,
            "id": 90,
            "name": "St. Catharines"
          }
        ],
        "pollDivisionIds": [
          10141354
        ],
        "postalCode": "L2P3E5",
        "streetName": "FRANKLIN",
        "streetDirectionId": null,
        "streetTypeId": "BLVD",
        "placeName": "ST CATHARINES",
        "streetNameDisplayText": "FRANKLIN BLVD, ST CATHARINES"
      }
    ]
  },
  {
    "postal": "L2P8N6",
    "result": []
  },
  {
    "postal": "L2P8J4",
    "result": []
  },
  {
    "postal": "L2P4R7",
    "result": []
  },
  {
    "postal": "L2P9K1",
    "result": []
  },
  {
    "postal": "L2P8E1",
    "result": []
  },
  {
    "postal": "L2P0R1",
    "result": []
  },
  {
    "postal": "L2P4J3",
    "result": []
  },
  {
    "postal": "L2P7E7",
    "result": []
  },
  {
    "postal": "L2P0J0",
    "result": []
  },
  {
    "postal": "L2P7R8",
    "result": []
  },
  {
    "postal": "L2P9X0",
    "result": []
  },
  {
    "postal": "L2P7P6",
    "result": []
  },
  {
    "postal": "L2P0R7",
    "result": []
  },
  {
    "postal": "L2P5W1",
    "result": []
  },
  {
    "postal": "L2P0K4",
    "result": []
  },
  {
    "postal": "L2P7N9",
    "result": []
  },
  {
    "postal": "L2P1N0",
    "result": []
  },
  {
    "postal": "L2P6P3",
    "result": []
  },
  {
    "postal": "L2P5A1",
    "result": []
  },
  {
    "postal": "L2P9M9",
    "result": []
  },
  {
    "postal": "L2P7T6",
    "result": []
  },
  {
    "postal": "L2P3X0",
    "result": []
  },
  {
    "postal": "L2P2T0",
    "result": []
  },
  {
    "postal": "L2P5X9",
    "result": []
  },
  {
    "postal": "L2P2R3",
    "result": [
      {
        "electoralDistricts": [
          {
            "election": null,
            "id": 90,
            "name": "St. Catharines"
          }
        ],
        "pollDivisionIds": [
          10141359
        ],
        "postalCode": "L2P2R3",
        "streetName": "BLAIN",
        "streetDirectionId": null,
        "streetTypeId": "PL",
        "placeName": "ST CATHARINES",
        "streetNameDisplayText": "BLAIN PL, ST CATHARINES"
      }
    ]
  },
  {
    "postal": "L2P5N2",
    "result": []
  },
  {
    "postal": "L2P4Y7",
    "result": []
  },
  {
    "postal": "L2P7M0",
    "result": []
  },
  {
    "postal": "L2P8P3",
    "result": []
  },
  {
    "postal": "L2P3N3",
    "result": [
      {
        "electoralDistricts": [
          {
            "election": null,
            "id": 90,
            "name": "St. Catharines"
          }
        ],
        "pollDivisionIds": [
          10141363
        ],
        "postalCode": "L2P3N3",
        "streetName": "THORNCLIFF",
        "streetDirectionId": null,
        "streetTypeId": "DR",
        "placeName": "ST CATHARINES",
        "streetNameDisplayText": "THORNCLIFF DR, ST CATHARINES"
      }
    ]
  },
  {
    "postal": "L2P7S3",
    "result": []
  },
  {
    "postal": "L2P3V9",
    "result": [
      {
        "electoralDistricts": [
          {
            "election": null,
            "id": 90,
            "name": "St. Catharines"
          }
        ],
        "pollDivisionIds": [
          10141361,
          10141363
        ],
        "postalCode": "L2P3V9",
        "streetName": "ST. AUGUSTINE",
        "streetDirectionId": null,
        "streetTypeId": "DR",
        "placeName": "ST CATHARINES",
        "streetNameDisplayText": "ST. AUGUSTINE DR, ST CATHARINES"
      }
    ]
  },
  {
    "postal": "L2P9N7",
    "result": []
  },
  {
    "postal": "L2P0G4",
    "result": []
  },
  {
    "postal": "L2P2E2",
    "result": [
      {
        "electoralDistricts": [
          {
            "election": null,
            "id": 90,
            "name": "St. Catharines"
          }
        ],
        "pollDivisionIds": [
          10141359
        ],
        "postalCode": "L2P2E2",
        "streetName": "LINCOLN",
        "streetDirectionId": null,
        "streetTypeId": "AVE",
        "placeName": "ST CATHARINES",
        "streetNameDisplayText": "LINCOLN AVE, ST CATHARINES"
      }
    ]
  },
  {
    "postal": "L2P7W8",
    "result": []
  },
  {
    "postal": "L2P7M5",
    "result": []
  },
  {
    "postal": "L2P5W8",
    "result": []
  },
  {
    "postal": "L2P5E5",
    "result": []
  },
  {
    "postal": "L2P1P9",
    "result": [
      {
        "electoralDistricts": [
          {
            "election": null,
            "id": 90,
            "name": "St. Catharines"
          }
        ],
        "pollDivisionIds": [
          10141363
        ],
        "postalCode": "L2P1P9",
        "streetName": "PARK",
        "streetDirectionId": null,
        "streetTypeId": "AVE",
        "placeName": "ST CATHARINES",
        "streetNameDisplayText": "PARK AVE, ST CATHARINES"
      }
    ]
  },
  {
    "postal": "L2P8V8",
    "result": []
  },
  {
    "postal": "L2P9G8",
    "result": []
  },
  {
    "postal": "L2P8H9",
    "result": []
  },
  {
    "postal": "L2P1Z1",
    "result": [
      {
        "electoralDistricts": [
          {
            "election": null,
            "id": 90,
            "name": "St. Catharines"
          }
        ],
        "pollDivisionIds": [
          10141359
        ],
        "postalCode": "L2P1Z1",
        "streetName": "BUNTING",
        "streetDirectionId": null,
        "streetTypeId": "RD",
        "placeName": "ST CATHARINES",
        "streetNameDisplayText": "BUNTING RD, ST CATHARINES"
      }
    ]
  },
  {
    "postal": "L2P8M3",
    "result": []
  },
  {
    "postal": "L2P5H6",
    "result": []
  },
  {
    "postal": "L2P7W7",
    "result": []
  },
  {
    "postal": "L2P4L0",
    "result": []
  },
  {
    "postal": "L2P2N1",
    "result": [
      {
        "electoralDistricts": [
          {
            "election": null,
            "id": 90,
            "name": "St. Catharines"
          }
        ],
        "pollDivisionIds": [
          10141359
        ],
        "postalCode": "L2P2N1",
        "streetName": "MELBOURNE",
        "streetDirectionId": null,
        "streetTypeId": "AVE",
        "placeName": "ST CATHARINES",
        "streetNameDisplayText": "MELBOURNE AVE, ST CATHARINES"
      }
    ]
  },
  {
    "postal": "L2P2H4",
    "result": [
      {
        "electoralDistricts": [
          {
            "election": null,
            "id": 90,
            "name": "St. Catharines"
          }
        ],
        "pollDivisionIds": [
          10141363
        ],
        "postalCode": "L2P2H4",
        "streetName": "PHELPS",
        "streetDirectionId": null,
        "streetTypeId": "ST",
        "placeName": "ST CATHARINES",
        "streetNameDisplayText": "PHELPS ST, ST CATHARINES"
      }
    ]
  },
  {
    "postal": "L2P5C8",
    "result": []
  },
  {
    "postal": "L2P8B0",
    "result": []
  },
  {
    "postal": "L2P1T4",
    "result": [
      {
        "electoralDistricts": [
          {
            "election": null,
            "id": 90,
            "name": "St. Catharines"
          }
        ],
        "pollDivisionIds": [
          10141361
        ],
        "postalCode": "L2P1T4",
        "streetName": "RAMPART",
        "streetDirectionId": null,
        "streetTypeId": "DR",
        "placeName": "ST CATHARINES",
        "streetNameDisplayText": "RAMPART DR, ST CATHARINES"
      }
    ]
  },
  {
    "postal": "L2P7N7",
    "result": []
  },
  {
    "postal": "L2P4L3",
    "result": []
  },
  {
    "postal": "L2P2N2",
    "result": [
      {
        "electoralDistricts": [
          {
            "election": null,
            "id": 90,
            "name": "St. Catharines"
          }
        ],
        "pollDivisionIds": [
          10141359
        ],
        "postalCode": "L2P2N2",
        "streetName": "MELBOURNE",
        "streetDirectionId": null,
        "streetTypeId": "AVE",
        "placeName": "ST CATHARINES",
        "streetNameDisplayText": "MELBOURNE AVE, ST CATHARINES"
      }
    ]
  },
  {
    "postal": "L2P4N8",
    "result": []
  },
  {
    "postal": "L2P3M5",
    "result": [
      {
        "electoralDistricts": [
          {
            "election": null,
            "id": 90,
            "name": "St. Catharines"
          }
        ],
        "pollDivisionIds": [
          10141361
        ],
        "postalCode": "L2P3M5",
        "streetName": "ST ANN'S",
        "streetDirectionId": null,
        "streetTypeId": "CRES",
        "placeName": "ST CATHARINES",
        "streetNameDisplayText": "ST ANN'S CRES, ST CATHARINES"
      }
    ]
  },
  {
    "postal": "L2P6H7",
    "result": []
  },
  {
    "postal": "L2P8Y8",
    "result": []
  },
  {
    "postal": "L2P5R9",
    "result": []
  },
  {
    "postal": "L2P8G3",
    "result": []
  },
  {
    "postal": "L2P4N7",
    "result": []
  },
  {
    "postal": "L2P0B9",
    "result": [
      {
        "electoralDistricts": [
          {
            "election": null,
            "id": 90,
            "name": "St. Catharines"
          }
        ],
        "pollDivisionIds": [
          10141359
        ],
        "postalCode": "L2P0B9",
        "streetName": "GUEST",
        "streetDirectionId": null,
        "streetTypeId": "PL",
        "placeName": "ST CATHARINES",
        "streetNameDisplayText": "GUEST PL, ST CATHARINES"
      }
    ]
  },
  {
    "postal": "L2P9K7",
    "result": []
  },
  {
    "postal": "L2P9K9",
    "result": []
  },
  {
    "postal": "L2P3Z2",
    "result": []
  },
  {
    "postal": "L2P6W7",
    "result": []
  },
  {
    "postal": "L2P0P1",
    "result": []
  },
  {
    "postal": "L2P3A0",
    "result": []
  },
  {
    "postal": "L2P8L9",
    "result": []
  },
  {
    "postal": "L2P6X0",
    "result": []
  },
  {
    "postal": "L2P3E9",
    "result": [
      {
        "electoralDistricts": [
          {
            "election": null,
            "id": 90,
            "name": "St. Catharines"
          }
        ],
        "pollDivisionIds": [
          10141354
        ],
        "postalCode": "L2P3E9",
        "streetName": "ROBERTSON",
        "streetDirectionId": null,
        "streetTypeId": "PL",
        "placeName": "ST CATHARINES",
        "streetNameDisplayText": "ROBERTSON PL, ST CATHARINES"
      }
    ]
  },
  {
    "postal": "L2P0S5",
    "result": []
  },
  {
    "postal": "L2P1A2",
    "result": [
      {
        "electoralDistricts": [
          {
            "election": null,
            "id": 90,
            "name": "St. Catharines"
          }
        ],
        "pollDivisionIds": [
          10141363
        ],
        "postalCode": "L2P1A2",
        "streetName": "ELM",
        "streetDirectionId": null,
        "streetTypeId": "ST",
        "placeName": "ST CATHARINES",
        "streetNameDisplayText": "ELM ST, ST CATHARINES"
      }
    ]
  },
  {
    "postal": "L2P5V8",
    "result": []
  },
  {
    "postal": "L2P8C5",
    "result": []
  },
  {
    "postal": "L2P6N0",
    "result": []
  },
  {
    "postal": "L2P9E6",
    "result": []
  },
  {
    "postal": "L2P5J7",
    "result": []
  },
  {
    "postal": "L2P2R2",
    "result": [
      {
        "electoralDistricts": [
          {
            "election": null,
            "id": 90,
            "name": "St. Catharines"
          },
          {
            "election": null,
            "id": 69,
            "name": "Niagara Falls"
          }
        ],
        "pollDivisionIds": [
          10141351,
          10139989,
          10141359
        ],
        "postalCode": "L2P2R2",
        "streetName": "PRINCESS",
        "streetDirectionId": null,
        "streetTypeId": "ST",
        "placeName": "ST CATHARINES",
        "streetNameDisplayText": "PRINCESS ST, ST CATHARINES"
      }
    ]
  },
  {
    "postal": "L2P0P5",
    "result": []
  },
  {
    "postal": "L2P5A7",
    "result": []
  },
  {
    "postal": "L2P1G1",
    "result": [
      {
        "electoralDistricts": [
          {
            "election": null,
            "id": 90,
            "name": "St. Catharines"
          }
        ],
        "pollDivisionIds": [
          10141363
        ],
        "postalCode": "L2P1G1",
        "streetName": "CLARENDON",
        "streetDirectionId": null,
        "streetTypeId": "AVE",
        "placeName": "ST CATHARINES",
        "streetNameDisplayText": "CLARENDON AVE, ST CATHARINES"
      }
    ]
  },
  {
    "postal": "L2P9R6",
    "result": []
  },
  {
    "postal": "L2P4Z9",
    "result": []
  },
  {
    "postal": "L2P1V5",
    "result": [
      {
        "electoralDistricts": [
          {
            "election": null,
            "id": 90,
            "name": "St. Catharines"
          }
        ],
        "pollDivisionIds": [
          10141360
        ],
        "postalCode": "L2P1V5",
        "streetName": "FERNDALE",
        "streetDirectionId": null,
        "streetTypeId": "AVE",
        "placeName": "ST CATHARINES",
        "streetNameDisplayText": "FERNDALE AVE, ST CATHARINES"
      }
    ]
  },
  {
    "postal": "L2P9Y5",
    "result": []
  },
  {
    "postal": "L2P1P2",
    "result": [
      {
        "electoralDistricts": [
          {
            "election": null,
            "id": 90,
            "name": "St. Catharines"
          }
        ],
        "pollDivisionIds": [
          10141363
        ],
        "postalCode": "L2P1P2",
        "streetName": "MERRITT",
        "streetDirectionId": null,
        "streetTypeId": "ST",
        "placeName": "ST CATHARINES",
        "streetNameDisplayText": "MERRITT ST, ST CATHARINES"
      }
    ]
  },
  {
    "postal": "L2P5X0",
    "result": []
  },
  {
    "postal": "L2P7B8",
    "result": []
  },
  {
    "postal": "L2P0C6",
    "result": [
      {
        "electoralDistricts": [
          {
            "election": null,
            "id": 90,
            "name": "St. Catharines"
          }
        ],
        "pollDivisionIds": [
          10141333,
          10141363
        ],
        "postalCode": "L2P0C6",
        "streetName": "GLORY HILL",
        "streetDirectionId": null,
        "streetTypeId": "RD",
        "placeName": "ST CATHARINES",
        "streetNameDisplayText": "GLORY HILL RD, ST CATHARINES"
      },
      {
        "electoralDistricts": [
          {
            "election": null,
            "id": 90,
            "name": "St. Catharines"
          }
        ],
        "pollDivisionIds": [
          10141363
        ],
        "postalCode": "L2P0C6",
        "streetName": "GLORY",
        "streetDirectionId": null,
        "streetTypeId": "HILL",
        "placeName": "ST CATHARINES",
        "streetNameDisplayText": "GLORY HILL, ST CATHARINES"
      }
    ]
  },
  {
    "postal": "L2P6G1",
    "result": []
  },
  {
    "postal": "L2P3K3",
    "result": [
      {
        "electoralDistricts": [
          {
            "election": null,
            "id": 90,
            "name": "St. Catharines"
          }
        ],
        "pollDivisionIds": [
          10141360
        ],
        "postalCode": "L2P3K3",
        "streetName": "ROCKWOOD",
        "streetDirectionId": null,
        "streetTypeId": "AVE",
        "placeName": "ST CATHARINES",
        "streetNameDisplayText": "ROCKWOOD AVE, ST CATHARINES"
      }
    ]
  },
  {
    "postal": "L2P9R0",
    "result": []
  },
  {
    "postal": "L2P4R8",
    "result": []
  },
  {
    "postal": "L2P5P9",
    "result": []
  },
  {
    "postal": "L2P8N4",
    "result": []
  },
  {
    "postal": "L2P8H4",
    "result": []
  },
  {
    "postal": "L2P4V1",
    "result": []
  },
  {
    "postal": "L2P1K5",
    "result": [
      {
        "electoralDistricts": [
          {
            "election": null,
            "id": 90,
            "name": "St. Catharines"
          }
        ],
        "pollDivisionIds": [
          10141359
        ],
        "postalCode": "L2P1K5",
        "streetName": "WARREN",
        "streetDirectionId": null,
        "streetTypeId": "RD",
        "placeName": "ST CATHARINES",
        "streetNameDisplayText": "WARREN RD, ST CATHARINES"
      }
    ]
  },
  {
    "postal": "L2P1Z5",
    "result": [
      {
        "electoralDistricts": [
          {
            "election": null,
            "id": 90,
            "name": "St. Catharines"
          }
        ],
        "pollDivisionIds": [
          10141354
        ],
        "postalCode": "L2P1Z5",
        "streetName": "BUNTING",
        "streetDirectionId": null,
        "streetTypeId": "RD",
        "placeName": "ST CATHARINES",
        "streetNameDisplayText": "BUNTING RD, ST CATHARINES"
      }
    ]
  },
  {
    "postal": "L2P9L9",
    "result": []
  },
  {
    "postal": "L2P5L2",
    "result": []
  },
  {
    "postal": "L2P0M2",
    "result": []
  },
  {
    "postal": "L2P1K8",
    "result": [
      {
        "electoralDistricts": [
          {
            "election": null,
            "id": 90,
            "name": "St. Catharines"
          }
        ],
        "pollDivisionIds": [
          10141360
        ],
        "postalCode": "L2P1K8",
        "streetName": "WARREN",
        "streetDirectionId": null,
        "streetTypeId": "RD",
        "placeName": "ST CATHARINES",
        "streetNameDisplayText": "WARREN RD, ST CATHARINES"
      }
    ]
  },
  {
    "postal": "L2P3M7",
    "result": [
      {
        "electoralDistricts": [
          {
            "election": null,
            "id": 90,
            "name": "St. Catharines"
          }
        ],
        "pollDivisionIds": [
          10141363
        ],
        "postalCode": "L2P3M7",
        "streetName": "CANTERBURY",
        "streetDirectionId": null,
        "streetTypeId": "DR",
        "placeName": "ST CATHARINES",
        "streetNameDisplayText": "CANTERBURY DR, ST CATHARINES"
      }
    ]
  },
  {
    "postal": "L2P1B2",
    "result": [
      {
        "electoralDistricts": [
          {
            "election": null,
            "id": 90,
            "name": "St. Catharines"
          }
        ],
        "pollDivisionIds": [
          10141363
        ],
        "postalCode": "L2P1B2",
        "streetName": "CEDARDALE",
        "streetDirectionId": null,
        "streetTypeId": "AVE",
        "placeName": "ST CATHARINES",
        "streetNameDisplayText": "CEDARDALE AVE, ST CATHARINES"
      }
    ]
  },
  {
    "postal": "L2P0H9",
    "result": []
  },
  {
    "postal": "L2P8M4",
    "result": []
  },
  {
    "postal": "L2P2M5",
    "result": [
      {
        "electoralDistricts": [
          {
            "election": null,
            "id": 90,
            "name": "St. Catharines"
          }
        ],
        "pollDivisionIds": [
          10141359
        ],
        "postalCode": "L2P2M5",
        "streetName": "BARLEY",
        "streetDirectionId": null,
        "streetTypeId": "DR",
        "placeName": "ST CATHARINES",
        "streetNameDisplayText": "BARLEY DR, ST CATHARINES"
      }
    ]
  },
  {
    "postal": "L2P0T9",
    "result": []
  },
  {
    "postal": "L2P3P1",
    "result": [
      {
        "electoralDistricts": [
          {
            "election": null,
            "id": 90,
            "name": "St. Catharines"
          }
        ],
        "pollDivisionIds": [
          10141363
        ],
        "postalCode": "L2P3P1",
        "streetName": "LORAINE",
        "streetDirectionId": null,
        "streetTypeId": "DR",
        "placeName": "ST CATHARINES",
        "streetNameDisplayText": "LORAINE DR, ST CATHARINES"
      }
    ]
  },
  {
    "postal": "L2P1R6",
    "result": [
      {
        "electoralDistricts": [
          {
            "election": null,
            "id": 90,
            "name": "St. Catharines"
          }
        ],
        "pollDivisionIds": [
          10141363
        ],
        "postalCode": "L2P1R6",
        "streetName": "PARK",
        "streetDirectionId": null,
        "streetTypeId": "AVE",
        "placeName": "ST CATHARINES",
        "streetNameDisplayText": "PARK AVE, ST CATHARINES"
      }
    ]
  },
  {
    "postal": "L2P9V5",
    "result": []
  },
  {
    "postal": "L2P9T0",
    "result": []
  },
  {
    "postal": "L2P0A9",
    "result": [
      {
        "electoralDistricts": [
          {
            "election": null,
            "id": 90,
            "name": "St. Catharines"
          }
        ],
        "pollDivisionIds": [
          10141361
        ],
        "postalCode": "L2P0A9",
        "streetName": "FRED FISHER",
        "streetDirectionId": null,
        "streetTypeId": "CRES",
        "placeName": "ST CATHARINES",
        "streetNameDisplayText": "FRED FISHER CRES, ST CATHARINES"
      }
    ]
  },
  {
    "postal": "L2P1M3",
    "result": [
      {
        "electoralDistricts": [
          {
            "election": null,
            "id": 90,
            "name": "St. Catharines"
          }
        ],
        "pollDivisionIds": [
          10141359
        ],
        "postalCode": "L2P1M3",
        "streetName": "HARTZEL",
        "streetDirectionId": null,
        "streetTypeId": "RD",
        "placeName": "ST CATHARINES",
        "streetNameDisplayText": "HARTZEL RD, ST CATHARINES"
      }
    ]
  },
  {
    "postal": "L2P1W8",
    "result": [
      {
        "electoralDistricts": [
          {
            "election": null,
            "id": 90,
            "name": "St. Catharines"
          }
        ],
        "pollDivisionIds": [
          10141360
        ],
        "postalCode": "L2P1W8",
        "streetName": "BLOOMFIELD",
        "streetDirectionId": null,
        "streetTypeId": "AVE",
        "placeName": "ST CATHARINES",
        "streetNameDisplayText": "BLOOMFIELD AVE, ST CATHARINES"
      }
    ]
  },
  {
    "postal": "L2P9J1",
    "result": []
  },
  {
    "postal": "L2P8N5",
    "result": []
  },
  {
    "postal": "L2P5X1",
    "result": []
  },
  {
    "postal": "L2P6S2",
    "result": []
  },
  {
    "postal": "L2P2A2",
    "result": [
      {
        "electoralDistricts": [
          {
            "election": null,
            "id": 90,
            "name": "St. Catharines"
          }
        ],
        "pollDivisionIds": [
          10141360
        ],
        "postalCode": "L2P2A2",
        "streetName": "WOODROW",
        "streetDirectionId": null,
        "streetTypeId": "ST",
        "placeName": "ST CATHARINES",
        "streetNameDisplayText": "WOODROW ST, ST CATHARINES"
      }
    ]
  },
  {
    "postal": "L2P6A6",
    "result": []
  },
  {
    "postal": "L2P0S3",
    "result": []
  },
  {
    "postal": "L2P3E7",
    "result": [
      {
        "electoralDistricts": [
          {
            "election": null,
            "id": 90,
            "name": "St. Catharines"
          }
        ],
        "pollDivisionIds": [
          10141354
        ],
        "postalCode": "L2P3E7",
        "streetName": "MILTON",
        "streetDirectionId": null,
        "streetTypeId": "RD",
        "placeName": "ST CATHARINES",
        "streetNameDisplayText": "MILTON RD, ST CATHARINES"
      }
    ]
  },
  {
    "postal": "L2P5R7",
    "result": []
  },
  {
    "postal": "L2P3R6",
    "result": [
      {
        "electoralDistricts": [
          {
            "election": null,
            "id": 90,
            "name": "St. Catharines"
          }
        ],
        "pollDivisionIds": [
          10141360
        ],
        "postalCode": "L2P3R6",
        "streetName": "DEBORAH",
        "streetDirectionId": null,
        "streetTypeId": "CRT",
        "placeName": "ST CATHARINES",
        "streetNameDisplayText": "DEBORAH CRT, ST CATHARINES"
      }
    ]
  },
  {
    "postal": "L2P6K4",
    "result": []
  },
  {
    "postal": "L2P2W5",
    "result": [
      {
        "electoralDistricts": [
          {
            "election": null,
            "id": 90,
            "name": "St. Catharines"
          }
        ],
        "pollDivisionIds": [
          10141359
        ],
        "postalCode": "L2P2W5",
        "streetName": "WILLS",
        "streetDirectionId": null,
        "streetTypeId": "ST",
        "placeName": "ST CATHARINES",
        "streetNameDisplayText": "WILLS ST, ST CATHARINES"
      }
    ]
  },
  {
    "postal": "L2P8W4",
    "result": []
  },
  {
    "postal": "L2P9C2",
    "result": []
  },
  {
    "postal": "L2P2C0",
    "result": []
  },
  {
    "postal": "L2P0E1",
    "result": [
      {
        "electoralDistricts": [
          {
            "election": null,
            "id": 90,
            "name": "St. Catharines"
          }
        ],
        "pollDivisionIds": [
          10141354
        ],
        "postalCode": "L2P0E1",
        "streetName": "HOWLAND DR.",
        "streetDirectionId": null,
        "streetTypeId": "DR",
        "placeName": "ST CATHARINES",
        "streetNameDisplayText": "HOWLAND DR. DR, ST CATHARINES"
      },
      {
        "electoralDistricts": [
          {
            "election": null,
            "id": 90,
            "name": "St. Catharines"
          }
        ],
        "pollDivisionIds": [
          10141354
        ],
        "postalCode": "L2P0E1",
        "streetName": "MACKENZIE KING",
        "streetDirectionId": null,
        "streetTypeId": "AVE",
        "placeName": "ST CATHARINES",
        "streetNameDisplayText": "MACKENZIE KING AVE, ST CATHARINES"
      }
    ]
  },
  {
    "postal": "L2P1K9",
    "result": [
      {
        "electoralDistricts": [
          {
            "election": null,
            "id": 90,
            "name": "St. Catharines"
          }
        ],
        "pollDivisionIds": [
          10141359
        ],
        "postalCode": "L2P1K9",
        "streetName": "OAKWOOD",
        "streetDirectionId": null,
        "streetTypeId": "AVE",
        "placeName": "ST CATHARINES",
        "streetNameDisplayText": "OAKWOOD AVE, ST CATHARINES"
      }
    ]
  },
  {
    "postal": "L2P1G7",
    "result": [
      {
        "electoralDistricts": [
          {
            "election": null,
            "id": 90,
            "name": "St. Catharines"
          }
        ],
        "pollDivisionIds": [
          10141360
        ],
        "postalCode": "L2P1G7",
        "streetName": "ADMIRAL",
        "streetDirectionId": null,
        "streetTypeId": "RD",
        "placeName": "ST CATHARINES",
        "streetNameDisplayText": "ADMIRAL RD, ST CATHARINES"
      }
    ]
  },
  {
    "postal": "L2P4E9",
    "result": []
  },
  {
    "postal": "L2P9P0",
    "result": []
  },
  {
    "postal": "L2P5H3",
    "result": []
  },
  {
    "postal": "L2P9X6",
    "result": []
  },
  {
    "postal": "L2P5N7",
    "result": []
  },
  {
    "postal": "L2P5A6",
    "result": []
  },
  {
    "postal": "L2P4M0",
    "result": []
  },
  {
    "postal": "L2P3V6",
    "result": [
      {
        "electoralDistricts": [
          {
            "election": null,
            "id": 90,
            "name": "St. Catharines"
          }
        ],
        "pollDivisionIds": [
          10141360
        ],
        "postalCode": "L2P3V6",
        "streetName": "DUNDONALD",
        "streetDirectionId": null,
        "streetTypeId": "ST",
        "placeName": "ST CATHARINES",
        "streetNameDisplayText": "DUNDONALD ST, ST CATHARINES"
      }
    ]
  },
  {
    "postal": "L2P1L7",
    "result": [
      {
        "electoralDistricts": [
          {
            "election": null,
            "id": 90,
            "name": "St. Catharines"
          }
        ],
        "pollDivisionIds": [
          10141360
        ],
        "postalCode": "L2P1L7",
        "streetName": "BATTERSEA",
        "streetDirectionId": null,
        "streetTypeId": "AVE",
        "placeName": "ST CATHARINES",
        "streetNameDisplayText": "BATTERSEA AVE, ST CATHARINES"
      }
    ]
  },
  {
    "postal": "L2P2P9",
    "result": [
      {
        "electoralDistricts": [
          {
            "election": null,
            "id": 90,
            "name": "St. Catharines"
          }
        ],
        "pollDivisionIds": [
          10141353
        ],
        "postalCode": "L2P2P9",
        "streetName": "PRINCESS",
        "streetDirectionId": null,
        "streetTypeId": "ST",
        "placeName": "ST CATHARINES",
        "streetNameDisplayText": "PRINCESS ST, ST CATHARINES"
      }
    ]
  },
  {
    "postal": "L2P5T4",
    "result": []
  },
  {
    "postal": "L2P5Z1",
    "result": []
  },
  {
    "postal": "L2P2X0",
    "result": []
  },
  {
    "postal": "L2P6Z2",
    "result": []
  },
  {
    "postal": "L2P0E0",
    "result": []
  },
  {
    "postal": "L2P3Z5",
    "result": []
  },
  {
    "postal": "L2P8H3",
    "result": []
  },
  {
    "postal": "L2P7S6",
    "result": []
  },
  {
    "postal": "L2P4C1",
    "result": []
  },
  {
    "postal": "L2P3K2",
    "result": [
      {
        "electoralDistricts": [
          {
            "election": null,
            "id": 90,
            "name": "St. Catharines"
          }
        ],
        "pollDivisionIds": [
          10141360
        ],
        "postalCode": "L2P3K2",
        "streetName": "CARRIAGE",
        "streetDirectionId": null,
        "streetTypeId": "RD",
        "placeName": "ST CATHARINES",
        "streetNameDisplayText": "CARRIAGE RD, ST CATHARINES"
      }
    ]
  },
  {
    "postal": "L2P1Y5",
    "result": [
      {
        "electoralDistricts": [
          {
            "election": null,
            "id": 90,
            "name": "St. Catharines"
          }
        ],
        "pollDivisionIds": [
          10141354
        ],
        "postalCode": "L2P1Y5",
        "streetName": "ROSEDALE",
        "streetDirectionId": null,
        "streetTypeId": "AVE",
        "placeName": "ST CATHARINES",
        "streetNameDisplayText": "ROSEDALE AVE, ST CATHARINES"
      }
    ]
  },
  {
    "postal": "L2P6P6",
    "result": []
  },
  {
    "postal": "L2P3N9",
    "result": [
      {
        "electoralDistricts": [
          {
            "election": null,
            "id": 90,
            "name": "St. Catharines"
          }
        ],
        "pollDivisionIds": [
          10141363
        ],
        "postalCode": "L2P3N9",
        "streetName": "LORAINE",
        "streetDirectionId": null,
        "streetTypeId": "DR",
        "placeName": "ST CATHARINES",
        "streetNameDisplayText": "LORAINE DR, ST CATHARINES"
      }
    ]
  },
  {
    "postal": "L2P3W2",
    "result": [
      {
        "electoralDistricts": [
          {
            "election": null,
            "id": 90,
            "name": "St. Catharines"
          }
        ],
        "pollDivisionIds": [
          10141363
        ],
        "postalCode": "L2P3W2",
        "streetName": "SQUIRES",
        "streetDirectionId": null,
        "streetTypeId": "GATE",
        "placeName": "ST CATHARINES",
        "streetNameDisplayText": "SQUIRES GATE, ST CATHARINES"
      },
      {
        "electoralDistricts": [
          {
            "election": null,
            "id": 90,
            "name": "St. Catharines"
          }
        ],
        "pollDivisionIds": [
          10141361
        ],
        "postalCode": "L2P3W2",
        "streetName": "ST. AUGUSTINE",
        "streetDirectionId": null,
        "streetTypeId": "DR",
        "placeName": "ST CATHARINES",
        "streetNameDisplayText": "ST. AUGUSTINE DR, ST CATHARINES"
      }
    ]
  },
  {
    "postal": "L2P6H8",
    "result": []
  },
  {
    "postal": "L2P9T3",
    "result": []
  },
  {
    "postal": "L2P5L9",
    "result": []
  },
  {
    "postal": "L2P7X7",
    "result": []
  },
  {
    "postal": "L2P3J5",
    "result": [
      {
        "electoralDistricts": [
          {
            "election": null,
            "id": 90,
            "name": "St. Catharines"
          }
        ],
        "pollDivisionIds": [
          10141354
        ],
        "postalCode": "L2P3J5",
        "streetName": "WRIGHT",
        "streetDirectionId": null,
        "streetTypeId": "ST",
        "placeName": "ST CATHARINES",
        "streetNameDisplayText": "WRIGHT ST, ST CATHARINES"
      }
    ]
  },
  {
    "postal": "L2P4J5",
    "result": []
  },
  {
    "postal": "L2P6J2",
    "result": []
  },
  {
    "postal": "L2P5V6",
    "result": []
  },
  {
    "postal": "L2P3N2",
    "result": [
      {
        "electoralDistricts": [
          {
            "election": null,
            "id": 90,
            "name": "St. Catharines"
          }
        ],
        "pollDivisionIds": [
          10141359
        ],
        "postalCode": "L2P3N2",
        "streetName": "THORNCLIFF",
        "streetDirectionId": null,
        "streetTypeId": "DR",
        "placeName": "ST CATHARINES",
        "streetNameDisplayText": "THORNCLIFF DR, ST CATHARINES"
      }
    ]
  },
  {
    "postal": "L2P3B1",
    "result": [
      {
        "electoralDistricts": [
          {
            "election": null,
            "id": 90,
            "name": "St. Catharines"
          }
        ],
        "pollDivisionIds": [
          10141354
        ],
        "postalCode": "L2P3B1",
        "streetName": "GRANTHAM",
        "streetDirectionId": "S",
        "streetTypeId": "AVE",
        "placeName": "ST CATHARINES",
        "streetNameDisplayText": "GRANTHAM AVE S, ST CATHARINES"
      }
    ]
  },
  {
    "postal": "L2P8B5",
    "result": []
  },
  {
    "postal": "L2P0K1",
    "result": []
  },
  {
    "postal": "L2P7M7",
    "result": []
  },
  {
    "postal": "L2P2M2",
    "result": [
      {
        "electoralDistricts": [
          {
            "election": null,
            "id": 90,
            "name": "St. Catharines"
          }
        ],
        "pollDivisionIds": [
          10141363
        ],
        "postalCode": "L2P2M2",
        "streetName": "HAIGHT",
        "streetDirectionId": null,
        "streetTypeId": "ST",
        "placeName": "ST CATHARINES",
        "streetNameDisplayText": "HAIGHT ST, ST CATHARINES"
      }
    ]
  },
  {
    "postal": "L2P9N3",
    "result": []
  },
  {
    "postal": "L2P4Y8",
    "result": []
  },
  {
    "postal": "L2P3V7",
    "result": [
      {
        "electoralDistricts": [
          {
            "election": null,
            "id": 90,
            "name": "St. Catharines"
          }
        ],
        "pollDivisionIds": [
          10141363,
          10141361
        ],
        "postalCode": "L2P3V7",
        "streetName": "ST AUGUSTINE",
        "streetDirectionId": null,
        "streetTypeId": "DR",
        "placeName": "ST CATHARINES",
        "streetNameDisplayText": "ST AUGUSTINE DR, ST CATHARINES"
      },
      {
        "electoralDistricts": [
          {
            "election": null,
            "id": 90,
            "name": "St. Catharines"
          }
        ],
        "pollDivisionIds": [
          10141363
        ],
        "postalCode": "L2P3V7",
        "streetName": "ST. AUGUSTINE",
        "streetDirectionId": null,
        "streetTypeId": "DR",
        "placeName": "ST CATHARINES",
        "streetNameDisplayText": "ST. AUGUSTINE DR, ST CATHARINES"
      }
    ]
  },
  {
    "postal": "L2P8Z1",
    "result": []
  },
  {
    "postal": "L2P7B3",
    "result": []
  },
  {
    "postal": "L2P3A8",
    "result": [
      {
        "electoralDistricts": [
          {
            "election": null,
            "id": 90,
            "name": "St. Catharines"
          }
        ],
        "pollDivisionIds": [
          10141354
        ],
        "postalCode": "L2P3A8",
        "streetName": "BLAIR",
        "streetDirectionId": null,
        "streetTypeId": "CRES",
        "placeName": "ST CATHARINES",
        "streetNameDisplayText": "BLAIR CRES, ST CATHARINES"
      }
    ]
  },
  {
    "postal": "L2P7V5",
    "result": []
  },
  {
    "postal": "L2P2T2",
    "result": [
      {
        "electoralDistricts": [
          {
            "election": null,
            "id": 90,
            "name": "St. Catharines"
          }
        ],
        "pollDivisionIds": [
          10141359
        ],
        "postalCode": "L2P2T2",
        "streetName": "COLLIER",
        "streetDirectionId": null,
        "streetTypeId": "ST",
        "placeName": "ST CATHARINES",
        "streetNameDisplayText": "COLLIER ST, ST CATHARINES"
      }
    ]
  },
  {
    "postal": "L2P6L3",
    "result": []
  },
  {
    "postal": "L2P0L2",
    "result": []
  },
  {
    "postal": "L2P5Y8",
    "result": []
  },
  {
    "postal": "L2P0B8",
    "result": [
      {
        "electoralDistricts": [
          {
            "election": null,
            "id": 90,
            "name": "St. Catharines"
          }
        ],
        "pollDivisionIds": [
          10141359
        ],
        "postalCode": "L2P0B8",
        "streetName": "WOODBURN",
        "streetDirectionId": null,
        "streetTypeId": "AVE",
        "placeName": "ST CATHARINES",
        "streetNameDisplayText": "WOODBURN AVE, ST CATHARINES"
      }
    ]
  },
  {
    "postal": "L2P6R5",
    "result": []
  },
  {
    "postal": "L2P8W6",
    "result": []
  },
  {
    "postal": "L2P8G6",
    "result": []
  },
  {
    "postal": "L2P6X3",
    "result": []
  },
  {
    "postal": "L2P7R7",
    "result": []
  },
  {
    "postal": "L2P4B6",
    "result": []
  },
  {
    "postal": "L2P3P9",
    "result": [
      {
        "electoralDistricts": [
          {
            "election": null,
            "id": 90,
            "name": "St. Catharines"
          }
        ],
        "pollDivisionIds": [
          10141363
        ],
        "postalCode": "L2P3P9",
        "streetName": "GREEN MAPLE",
        "streetDirectionId": null,
        "streetTypeId": "DR",
        "placeName": "ST CATHARINES",
        "streetNameDisplayText": "GREEN MAPLE DR, ST CATHARINES"
      }
    ]
  },
  {
    "postal": "L2P2T3",
    "result": [
      {
        "electoralDistricts": [
          {
            "election": null,
            "id": 90,
            "name": "St. Catharines"
          }
        ],
        "pollDivisionIds": [
          10141359
        ],
        "postalCode": "L2P2T3",
        "streetName": "COLLIER",
        "streetDirectionId": null,
        "streetTypeId": "ST",
        "placeName": "ST CATHARINES",
        "streetNameDisplayText": "COLLIER ST, ST CATHARINES"
      }
    ]
  },
  {
    "postal": "L2P1M4",
    "result": [
      {
        "electoralDistricts": [
          {
            "election": null,
            "id": 90,
            "name": "St. Catharines"
          }
        ],
        "pollDivisionIds": [
          10141359
        ],
        "postalCode": "L2P1M4",
        "streetName": "HARTZEL",
        "streetDirectionId": null,
        "streetTypeId": "RD",
        "placeName": "ST CATHARINES",
        "streetNameDisplayText": "HARTZEL RD, ST CATHARINES"
      }
    ]
  },
  {
    "postal": "L2P0H1",
    "result": []
  },
  {
    "postal": "L2P9W3",
    "result": []
  },
  {
    "postal": "L2P6P1",
    "result": []
  },
  {
    "postal": "L2P7G2",
    "result": []
  },
  {
    "postal": "L2P4J9",
    "result": []
  },
  {
    "postal": "L2P9E4",
    "result": []
  },
  {
    "postal": "L2P8H0",
    "result": []
  },
  {
    "postal": "L2P4M7",
    "result": []
  },
  {
    "postal": "L2P2G9",
    "result": [
      {
        "electoralDistricts": [
          {
            "election": null,
            "id": 90,
            "name": "St. Catharines"
          }
        ],
        "pollDivisionIds": [
          10141363
        ],
        "postalCode": "L2P2G9",
        "streetName": "SMYTHE",
        "streetDirectionId": null,
        "streetTypeId": "ST",
        "placeName": "ST CATHARINES",
        "streetNameDisplayText": "SMYTHE ST, ST CATHARINES"
      }
    ]
  },
  {
    "postal": "L2P8T2",
    "result": []
  },
  {
    "postal": "L2P7G7",
    "result": []
  },
  {
    "postal": "L2P4Z3",
    "result": []
  },
  {
    "postal": "L2P5B3",
    "result": []
  },
  {
    "postal": "L2P1S7",
    "result": [
      {
        "electoralDistricts": [
          {
            "election": null,
            "id": 90,
            "name": "St. Catharines"
          }
        ],
        "pollDivisionIds": [
          10141360
        ],
        "postalCode": "L2P1S7",
        "streetName": "CARRIAGE",
        "streetDirectionId": null,
        "streetTypeId": "RD",
        "placeName": "ST CATHARINES",
        "streetNameDisplayText": "CARRIAGE RD, ST CATHARINES"
      }
    ]
  },
  {
    "postal": "L2P2N7",
    "result": [
      {
        "electoralDistricts": [
          {
            "election": null,
            "id": 90,
            "name": "St. Catharines"
          }
        ],
        "pollDivisionIds": [
          10141359
        ],
        "postalCode": "L2P2N7",
        "streetName": "WESTCHESTER",
        "streetDirectionId": null,
        "streetTypeId": "AVE",
        "placeName": "ST CATHARINES",
        "streetNameDisplayText": "WESTCHESTER AVE, ST CATHARINES"
      },
      {
        "electoralDistricts": [
          {
            "election": null,
            "id": 90,
            "name": "St. Catharines"
          }
        ],
        "pollDivisionIds": [
          10141359
        ],
        "postalCode": "L2P2N7",
        "streetName": "WESTCHESTER",
        "streetDirectionId": null,
        "streetTypeId": "CRES",
        "placeName": "ST CATHARINES",
        "streetNameDisplayText": "WESTCHESTER CRES, ST CATHARINES"
      }
    ]
  },
  {
    "postal": "L2P0H8",
    "result": []
  },
  {
    "postal": "L2P7Z4",
    "result": []
  },
  {
    "postal": "L2P7B1",
    "result": []
  },
  {
    "postal": "L2P7P8",
    "result": []
  },
  {
    "postal": "L2P7N0",
    "result": []
  },
  {
    "postal": "L2P3Y5",
    "result": [
      {
        "electoralDistricts": [
          {
            "election": null,
            "id": 90,
            "name": "St. Catharines"
          }
        ],
        "pollDivisionIds": [
          10141360
        ],
        "postalCode": "L2P3Y5",
        "streetName": "PARK",
        "streetDirectionId": null,
        "streetTypeId": "AVE",
        "placeName": "ST CATHARINES",
        "streetNameDisplayText": "PARK AVE, ST CATHARINES"
      }
    ]
  },
  {
    "postal": "L2P6K1",
    "result": []
  },
  {
    "postal": "L2P9X5",
    "result": []
  },
  {
    "postal": "L2P7S5",
    "result": []
  },
  {
    "postal": "L2P0A4",
    "result": [
      {
        "electoralDistricts": [
          {
            "election": null,
            "id": 90,
            "name": "St. Catharines"
          }
        ],
        "pollDivisionIds": [
          10141354
        ],
        "postalCode": "L2P0A4",
        "streetName": "WILFRID LAURIER",
        "streetDirectionId": null,
        "streetTypeId": "CRES",
        "placeName": "ST CATHARINES",
        "streetNameDisplayText": "WILFRID LAURIER CRES, ST CATHARINES"
      }
    ]
  },
  {
    "postal": "L2P4T5",
    "result": []
  },
  {
    "postal": "L2P5K1",
    "result": []
  },
  {
    "postal": "L2P0Z9",
    "result": []
  },
  {
    "postal": "L2P7T2",
    "result": []
  },
  {
    "postal": "L2P1L5",
    "result": [
      {
        "electoralDistricts": [
          {
            "election": null,
            "id": 90,
            "name": "St. Catharines"
          }
        ],
        "pollDivisionIds": [
          10141359
        ],
        "postalCode": "L2P1L5",
        "streetName": "BATTERSEA",
        "streetDirectionId": null,
        "streetTypeId": "AVE",
        "placeName": "ST CATHARINES",
        "streetNameDisplayText": "BATTERSEA AVE, ST CATHARINES"
      }
    ]
  },
  {
    "postal": "L2P3N5",
    "result": [
      {
        "electoralDistricts": [
          {
            "election": null,
            "id": 90,
            "name": "St. Catharines"
          }
        ],
        "pollDivisionIds": [
          10141363
        ],
        "postalCode": "L2P3N5",
        "streetName": "SEVENOAKS",
        "streetDirectionId": null,
        "streetTypeId": "CIR",
        "placeName": "ST CATHARINES",
        "streetNameDisplayText": "SEVENOAKS CIR, ST CATHARINES"
      }
    ]
  },
  {
    "postal": "L2P6H4",
    "result": []
  },
  {
    "postal": "L2P5A5",
    "result": []
  },
  {
    "postal": "L2P3R9",
    "result": [
      {
        "electoralDistricts": [
          {
            "election": null,
            "id": 90,
            "name": "St. Catharines"
          }
        ],
        "pollDivisionIds": [
          10141360
        ],
        "postalCode": "L2P3R9",
        "streetName": "ROCKWOOD",
        "streetDirectionId": null,
        "streetTypeId": "AVE",
        "placeName": "ST CATHARINES",
        "streetNameDisplayText": "ROCKWOOD AVE, ST CATHARINES"
      }
    ]
  },
  {
    "postal": "L2P7L8",
    "result": []
  },
  {
    "postal": "L2P6T6",
    "result": []
  },
  {
    "postal": "L2P7Y7",
    "result": []
  },
  {
    "postal": "L2P3M8",
    "result": [
      {
        "electoralDistricts": [
          {
            "election": null,
            "id": 90,
            "name": "St. Catharines"
          }
        ],
        "pollDivisionIds": [
          10141363
        ],
        "postalCode": "L2P3M8",
        "streetName": "CANTERBURY",
        "streetDirectionId": null,
        "streetTypeId": "DR",
        "placeName": "ST CATHARINES",
        "streetNameDisplayText": "CANTERBURY DR, ST CATHARINES"
      },
      {
        "electoralDistricts": [
          {
            "election": null,
            "id": 90,
            "name": "St. Catharines"
          }
        ],
        "pollDivisionIds": [
          10141363
        ],
        "postalCode": "L2P3M8",
        "streetName": "CANTERBURY",
        "streetDirectionId": null,
        "streetTypeId": "DR",
        "placeName": "ST. CATHARINES",
        "streetNameDisplayText": "CANTERBURY DR, ST. CATHARINES"
      }
    ]
  },
  {
    "postal": "L2P2E0",
    "result": []
  },
  {
    "postal": "L2P4B5",
    "result": []
  },
  {
    "postal": "L2P1J3",
    "result": [
      {
        "electoralDistricts": [
          {
            "election": null,
            "id": 90,
            "name": "St. Catharines"
          }
        ],
        "pollDivisionIds": [
          10141363
        ],
        "postalCode": "L2P1J3",
        "streetName": "BURNESS",
        "streetDirectionId": null,
        "streetTypeId": "DR",
        "placeName": "ST CATHARINES",
        "streetNameDisplayText": "BURNESS DR, ST CATHARINES"
      }
    ]
  },
  {
    "postal": "L2P5S6",
    "result": []
  },
  {
    "postal": "L2P8P7",
    "result": []
  },
  {
    "postal": "L2P7S7",
    "result": []
  },
  {
    "postal": "L2P4C2",
    "result": []
  },
  {
    "postal": "L2P5Y0",
    "result": []
  },
  {
    "postal": "L2P2V7",
    "result": [
      {
        "electoralDistricts": [
          {
            "election": null,
            "id": 90,
            "name": "St. Catharines"
          }
        ],
        "pollDivisionIds": [
          10141353
        ],
        "postalCode": "L2P2V7",
        "streetName": "EASTCHESTER",
        "streetDirectionId": null,
        "streetTypeId": "AVE",
        "placeName": "ST CATHARINES",
        "streetNameDisplayText": "EASTCHESTER AVE, ST CATHARINES"
      }
    ]
  },
  {
    "postal": "L2P8P5",
    "result": []
  },
  {
    "postal": "L2P5P5",
    "result": []
  },
  {
    "postal": "L2P5Z0",
    "result": []
  },
  {
    "postal": "L2P9B0",
    "result": []
  },
  {
    "postal": "L2P1L0",
    "result": []
  },
  {
    "postal": "L2P0B5",
    "result": [
      {
        "electoralDistricts": [
          {
            "election": null,
            "id": 90,
            "name": "St. Catharines"
          }
        ],
        "pollDivisionIds": [
          10141359
        ],
        "postalCode": "L2P0B5",
        "streetName": "AVERY",
        "streetDirectionId": null,
        "streetTypeId": "CRES",
        "placeName": "ST CATHARINES",
        "streetNameDisplayText": "AVERY CRES, ST CATHARINES"
      }
    ]
  },
  {
    "postal": "L2P3L2",
    "result": [
      {
        "electoralDistricts": [
          {
            "election": null,
            "id": 90,
            "name": "St. Catharines"
          }
        ],
        "pollDivisionIds": [
          10141361
        ],
        "postalCode": "L2P3L2",
        "streetName": "STONEGATE",
        "streetDirectionId": null,
        "streetTypeId": "DR",
        "placeName": "ST CATHARINES",
        "streetNameDisplayText": "STONEGATE DR, ST CATHARINES"
      }
    ]
  },
  {
    "postal": "L2P3B7",
    "result": [
      {
        "electoralDistricts": [
          {
            "election": null,
            "id": 90,
            "name": "St. Catharines"
          }
        ],
        "pollDivisionIds": [
          10141354
        ],
        "postalCode": "L2P3B7",
        "streetName": "CHELSEA",
        "streetDirectionId": null,
        "streetTypeId": "ST",
        "placeName": "ST CATHARINES",
        "streetNameDisplayText": "CHELSEA ST, ST CATHARINES"
      }
    ]
  },
  {
    "postal": "L2P8L1",
    "result": []
  },
  {
    "postal": "L2P5M4",
    "result": []
  },
  {
    "postal": "L2P4G9",
    "result": []
  },
  {
    "postal": "L2P0P0",
    "result": []
  },
  {
    "postal": "L2P8G2",
    "result": []
  },
  {
    "postal": "L2P1V9",
    "result": [
      {
        "electoralDistricts": [
          {
            "election": null,
            "id": 90,
            "name": "St. Catharines"
          }
        ],
        "pollDivisionIds": [
          10141360
        ],
        "postalCode": "L2P1V9",
        "streetName": "FERNDALE",
        "streetDirectionId": null,
        "streetTypeId": "AVE",
        "placeName": "ST CATHARINES",
        "streetNameDisplayText": "FERNDALE AVE, ST CATHARINES"
      }
    ]
  },
  {
    "postal": "L2P8N8",
    "result": []
  },
  {
    "postal": "L2P6S8",
    "result": []
  },
  {
    "postal": "L2P8H2",
    "result": []
  },
  {
    "postal": "L2P5R8",
    "result": []
  },
  {
    "postal": "L2P5L4",
    "result": []
  },
  {
    "postal": "L2P9E1",
    "result": []
  },
  {
    "postal": "L2P1C4",
    "result": []
  },
  {
    "postal": "L2P8W5",
    "result": []
  },
  {
    "postal": "L2P1Y4",
    "result": [
      {
        "electoralDistricts": [
          {
            "election": null,
            "id": 90,
            "name": "St. Catharines"
          }
        ],
        "pollDivisionIds": [
          10141354
        ],
        "postalCode": "L2P1Y4",
        "streetName": "IVY",
        "streetDirectionId": null,
        "streetTypeId": "AVE",
        "placeName": "ST CATHARINES",
        "streetNameDisplayText": "IVY AVE, ST CATHARINES"
      }
    ]
  },
  {
    "postal": "L2P1C0",
    "result": []
  },
  {
    "postal": "L2P2J2",
    "result": [
      {
        "electoralDistricts": [
          {
            "election": null,
            "id": 90,
            "name": "St. Catharines"
          }
        ],
        "pollDivisionIds": [
          10141359
        ],
        "postalCode": "L2P2J2",
        "streetName": "LINCOLN",
        "streetDirectionId": null,
        "streetTypeId": "AVE",
        "placeName": "ST CATHARINES",
        "streetNameDisplayText": "LINCOLN AVE, ST CATHARINES"
      }
    ]
  },
  {
    "postal": "L2P2J0",
    "result": []
  },
  {
    "postal": "L2P7A3",
    "result": []
  },
  {
    "postal": "L2P8M1",
    "result": []
  },
  {
    "postal": "L2P7T9",
    "result": []
  },
  {
    "postal": "L2P6C0",
    "result": []
  },
  {
    "postal": "L2P7X1",
    "result": []
  },
  {
    "postal": "L2P0G1",
    "result": []
  },
  {
    "postal": "L2P4X2",
    "result": []
  },
  {
    "postal": "L2P0N6",
    "result": []
  },
  {
    "postal": "L2P8E3",
    "result": []
  },
  {
    "postal": "L2P5S8",
    "result": []
  },
  {
    "postal": "L2P0R0",
    "result": []
  },
  {
    "postal": "L2P6J6",
    "result": []
  },
  {
    "postal": "L2P4B4",
    "result": []
  },
  {
    "postal": "L2P7E3",
    "result": []
  },
  {
    "postal": "L2P3N6",
    "result": [
      {
        "electoralDistricts": [
          {
            "election": null,
            "id": 90,
            "name": "St. Catharines"
          }
        ],
        "pollDivisionIds": [
          10141363
        ],
        "postalCode": "L2P3N6",
        "streetName": "SEVENOAKS",
        "streetDirectionId": null,
        "streetTypeId": "CIR",
        "placeName": "ST CATHARINES",
        "streetNameDisplayText": "SEVENOAKS CIR, ST CATHARINES"
      }
    ]
  },
  {
    "postal": "L2P3X6",
    "result": [
      {
        "electoralDistricts": [
          {
            "election": null,
            "id": 90,
            "name": "St. Catharines"
          }
        ],
        "pollDivisionIds": [
          10141361,
          10141350
        ],
        "postalCode": "L2P3X6",
        "streetName": "ST AUGUSTINE",
        "streetDirectionId": null,
        "streetTypeId": "DR",
        "placeName": "ST CATHARINES",
        "streetNameDisplayText": "ST AUGUSTINE DR, ST CATHARINES"
      },
      {
        "electoralDistricts": [
          {
            "election": null,
            "id": 90,
            "name": "St. Catharines"
          }
        ],
        "pollDivisionIds": [
          10141361
        ],
        "postalCode": "L2P3X6",
        "streetName": "ST. AUGUSTINE",
        "streetDirectionId": null,
        "streetTypeId": "DR",
        "placeName": "ST CATHARINES",
        "streetNameDisplayText": "ST. AUGUSTINE DR, ST CATHARINES"
      }
    ]
  },
  {
    "postal": "L2P8L0",
    "result": []
  },
  {
    "postal": "L2P8N1",
    "result": []
  },
  {
    "postal": "L2P4J0",
    "result": []
  },
  {
    "postal": "L2P0X7",
    "result": []
  },
  {
    "postal": "L2P6S4",
    "result": []
  },
  {
    "postal": "L2P0Z0",
    "result": []
  },
  {
    "postal": "L2P9X8",
    "result": []
  },
  {
    "postal": "L2P3H3",
    "result": [
      {
        "electoralDistricts": [
          {
            "election": null,
            "id": 90,
            "name": "St. Catharines"
          }
        ],
        "pollDivisionIds": [
          10141354
        ],
        "postalCode": "L2P3H3",
        "streetName": "GRANTHAM",
        "streetDirectionId": "S",
        "streetTypeId": "AVE",
        "placeName": "ST CATHARINES",
        "streetNameDisplayText": "GRANTHAM AVE S, ST CATHARINES"
      }
    ]
  },
  {
    "postal": "L2P7S2",
    "result": []
  },
  {
    "postal": "L2P3T3",
    "result": [
      {
        "electoralDistricts": [
          {
            "election": null,
            "id": 90,
            "name": "St. Catharines"
          }
        ],
        "pollDivisionIds": [
          10141359
        ],
        "postalCode": "L2P3T3",
        "streetName": "OAKDALE",
        "streetDirectionId": null,
        "streetTypeId": "AVE",
        "placeName": "ST CATHARINES",
        "streetNameDisplayText": "OAKDALE AVE, ST CATHARINES"
      }
    ]
  },
  {
    "postal": "L2P9P3",
    "result": []
  },
  {
    "postal": "L2P4H8",
    "result": []
  },
  {
    "postal": "L2P6R1",
    "result": []
  },
  {
    "postal": "L2P1S0",
    "result": []
  },
  {
    "postal": "L2P3W8",
    "result": [
      {
        "electoralDistricts": [
          {
            "election": null,
            "id": 90,
            "name": "St. Catharines"
          }
        ],
        "pollDivisionIds": [
          10141363
        ],
        "postalCode": "L2P3W8",
        "streetName": "AUTUMN",
        "streetDirectionId": null,
        "streetTypeId": "PL",
        "placeName": "ST CATHARINES",
        "streetNameDisplayText": "AUTUMN PL, ST CATHARINES"
      }
    ]
  },
  {
    "postal": "L2P4S3",
    "result": []
  },
  {
    "postal": "L2P1B6",
    "result": [
      {
        "electoralDistricts": [
          {
            "election": null,
            "id": 90,
            "name": "St. Catharines"
          }
        ],
        "pollDivisionIds": [
          10141363
        ],
        "postalCode": "L2P1B6",
        "streetName": "FIR",
        "streetDirectionId": null,
        "streetTypeId": "AVE",
        "placeName": "ST CATHARINES",
        "streetNameDisplayText": "FIR AVE, ST CATHARINES"
      }
    ]
  },
  {
    "postal": "L2P8R3",
    "result": []
  },
  {
    "postal": "L2P4V9",
    "result": []
  },
  {
    "postal": "L2P9W4",
    "result": []
  },
  {
    "postal": "L2P3T4",
    "result": [
      {
        "electoralDistricts": [
          {
            "election": null,
            "id": 90,
            "name": "St. Catharines"
          }
        ],
        "pollDivisionIds": [
          10141360
        ],
        "postalCode": "L2P3T4",
        "streetName": "DUNDONALD",
        "streetDirectionId": null,
        "streetTypeId": "ST",
        "placeName": "ST CATHARINES",
        "streetNameDisplayText": "DUNDONALD ST, ST CATHARINES"
      }
    ]
  },
  {
    "postal": "L2P5C7",
    "result": []
  },
  {
    "postal": "L2P3Y1",
    "result": [
      {
        "electoralDistricts": [
          {
            "election": null,
            "id": 90,
            "name": "St. Catharines"
          }
        ],
        "pollDivisionIds": [
          10141363,
          10141361
        ],
        "postalCode": "L2P3Y1",
        "streetName": "GLENDALE",
        "streetDirectionId": null,
        "streetTypeId": "AVE",
        "placeName": "ST CATHARINES",
        "streetNameDisplayText": "GLENDALE AVE, ST CATHARINES"
      }
    ]
  },
  {
    "postal": "L2P5V0",
    "result": []
  },
  {
    "postal": "L2P8G8",
    "result": []
  },
  {
    "postal": "L2P8B1",
    "result": []
  },
  {
    "postal": "L2P4P5",
    "result": []
  },
  {
    "postal": "L2P7B2",
    "result": []
  },
  {
    "postal": "L2P0R2",
    "result": []
  },
  {
    "postal": "L2P4M4",
    "result": []
  },
  {
    "postal": "L2P7M4",
    "result": []
  },
  {
    "postal": "L2P9S7",
    "result": []
  },
  {
    "postal": "L2P5Z7",
    "result": []
  },
  {
    "postal": "L2P7J7",
    "result": []
  },
  {
    "postal": "L2P8R8",
    "result": []
  },
  {
    "postal": "L2P9X1",
    "result": []
  },
  {
    "postal": "L2P5M9",
    "result": []
  },
  {
    "postal": "L2P9B4",
    "result": []
  },
  {
    "postal": "L2P0L9",
    "result": []
  },
  {
    "postal": "L2P9G4",
    "result": []
  },
  {
    "postal": "L2P1J4",
    "result": [
      {
        "electoralDistricts": [
          {
            "election": null,
            "id": 90,
            "name": "St. Catharines"
          }
        ],
        "pollDivisionIds": [
          10141360
        ],
        "postalCode": "L2P1J4",
        "streetName": "BURNESS",
        "streetDirectionId": null,
        "streetTypeId": "DR",
        "placeName": "ST CATHARINES",
        "streetNameDisplayText": "BURNESS DR, ST CATHARINES"
      }
    ]
  },
  {
    "postal": "L2P0W6",
    "result": []
  },
  {
    "postal": "L2P4C5",
    "result": []
  },
  {
    "postal": "L2P7E4",
    "result": []
  },
  {
    "postal": "L2P1R9",
    "result": [
      {
        "electoralDistricts": [
          {
            "election": null,
            "id": 90,
            "name": "St. Catharines"
          }
        ],
        "pollDivisionIds": [
          10141361
        ],
        "postalCode": "L2P1R9",
        "streetName": "PARK",
        "streetDirectionId": null,
        "streetTypeId": "AVE",
        "placeName": "ST CATHARINES",
        "streetNameDisplayText": "PARK AVE, ST CATHARINES"
      }
    ]
  },
  {
    "postal": "L2P2P0",
    "result": []
  },
  {
    "postal": "L2P5S4",
    "result": []
  },
  {
    "postal": "L2P5K8",
    "result": []
  },
  {
    "postal": "L2P8K4",
    "result": []
  },
  {
    "postal": "L2P7C1",
    "result": []
  },
  {
    "postal": "L2P7K9",
    "result": []
  },
  {
    "postal": "L2P5J1",
    "result": []
  },
  {
    "postal": "L2P4P9",
    "result": []
  },
  {
    "postal": "L2P0N2",
    "result": []
  },
  {
    "postal": "L2P2G6",
    "result": [
      {
        "electoralDistricts": [
          {
            "election": null,
            "id": 90,
            "name": "St. Catharines"
          }
        ],
        "pollDivisionIds": [
          10141363
        ],
        "postalCode": "L2P2G6",
        "streetName": "ROSSIE",
        "streetDirectionId": null,
        "streetTypeId": "PL",
        "placeName": "ST CATHARINES",
        "streetNameDisplayText": "ROSSIE PL, ST CATHARINES"
      }
    ]
  },
  {
    "postal": "L2P6P4",
    "result": []
  },
  {
    "postal": "L2P3J0",
    "result": []
  },
  {
    "postal": "L2P8X4",
    "result": []
  },
  {
    "postal": "L2P1Y3",
    "result": [
      {
        "electoralDistricts": [
          {
            "election": null,
            "id": 90,
            "name": "St. Catharines"
          }
        ],
        "pollDivisionIds": [
          10141360
        ],
        "postalCode": "L2P1Y3",
        "streetName": "IVY",
        "streetDirectionId": null,
        "streetTypeId": "AVE",
        "placeName": "ST CATHARINES",
        "streetNameDisplayText": "IVY AVE, ST CATHARINES"
      }
    ]
  },
  {
    "postal": "L2P1A8",
    "result": [
      {
        "electoralDistricts": [
          {
            "election": null,
            "id": 90,
            "name": "St. Catharines"
          }
        ],
        "pollDivisionIds": [
          10141363
        ],
        "postalCode": "L2P1A8",
        "streetName": "SEYMOUR",
        "streetDirectionId": null,
        "streetTypeId": "AVE",
        "placeName": "ST CATHARINES",
        "streetNameDisplayText": "SEYMOUR AVE, ST CATHARINES"
      }
    ]
  },
  {
    "postal": "L2P6Y5",
    "result": []
  },
  {
    "postal": "L2P0J6",
    "result": []
  },
  {
    "postal": "L2P2C9",
    "result": [
      {
        "electoralDistricts": [
          {
            "election": null,
            "id": 90,
            "name": "St. Catharines"
          }
        ],
        "pollDivisionIds": [
          10141359
        ],
        "postalCode": "L2P2C9",
        "streetName": "LINCOLN",
        "streetDirectionId": null,
        "streetTypeId": "AVE",
        "placeName": "ST CATHARINES",
        "streetNameDisplayText": "LINCOLN AVE, ST CATHARINES"
      }
    ]
  },
  {
    "postal": "L2P8J6",
    "result": []
  },
  {
    "postal": "L2P8T4",
    "result": []
  },
  {
    "postal": "L2P1P7",
    "result": [
      {
        "electoralDistricts": [
          {
            "election": null,
            "id": 90,
            "name": "St. Catharines"
          }
        ],
        "pollDivisionIds": [
          10141363
        ],
        "postalCode": "L2P1P7",
        "streetName": "MERRITT",
        "streetDirectionId": null,
        "streetTypeId": "ST",
        "placeName": "ST CATHARINES",
        "streetNameDisplayText": "MERRITT ST, ST CATHARINES"
      }
    ]
  },
  {
    "postal": "L2P9V9",
    "result": []
  },
  {
    "postal": "L2P0M1",
    "result": []
  },
  {
    "postal": "L2P6K5",
    "result": []
  },
  {
    "postal": "L2P2T5",
    "result": [
      {
        "electoralDistricts": [
          {
            "election": null,
            "id": 90,
            "name": "St. Catharines"
          }
        ],
        "pollDivisionIds": [
          10141353
        ],
        "postalCode": "L2P2T5",
        "streetName": "OAKDALE",
        "streetDirectionId": null,
        "streetTypeId": "AVE",
        "placeName": "ST CATHARINES",
        "streetNameDisplayText": "OAKDALE AVE, ST CATHARINES"
      }
    ]
  },
  {
    "postal": "L2P7E9",
    "result": []
  },
  {
    "postal": "L2P5K5",
    "result": []
  },
  {
    "postal": "L2P3R5",
    "result": [
      {
        "electoralDistricts": [
          {
            "election": null,
            "id": 90,
            "name": "St. Catharines"
          }
        ],
        "pollDivisionIds": [
          10141361
        ],
        "postalCode": "L2P3R5",
        "streetName": "WOODROW",
        "streetDirectionId": null,
        "streetTypeId": "ST",
        "placeName": "ST CATHARINES",
        "streetNameDisplayText": "WOODROW ST, ST CATHARINES"
      }
    ]
  },
  {
    "postal": "L2P5B1",
    "result": []
  },
  {
    "postal": "L2P2P1",
    "result": [
      {
        "electoralDistricts": [
          {
            "election": null,
            "id": 90,
            "name": "St. Catharines"
          }
        ],
        "pollDivisionIds": [
          10141353
        ],
        "postalCode": "L2P2P1",
        "streetName": "BEARD",
        "streetDirectionId": null,
        "streetTypeId": "PL",
        "placeName": "ST CATHARINES",
        "streetNameDisplayText": "BEARD PL, ST CATHARINES"
      }
    ]
  },
  {
    "postal": "L2P7L0",
    "result": []
  },
  {
    "postal": "L2P3L6",
    "result": [
      {
        "electoralDistricts": [
          {
            "election": null,
            "id": 90,
            "name": "St. Catharines"
          }
        ],
        "pollDivisionIds": [
          10141361
        ],
        "postalCode": "L2P3L6",
        "streetName": "ST. AUGUSTINE",
        "streetDirectionId": null,
        "streetTypeId": "DR",
        "placeName": "ST CATHARINES",
        "streetNameDisplayText": "ST. AUGUSTINE DR, ST CATHARINES"
      }
    ]
  },
  {
    "postal": "L2P2A4",
    "result": [
      {
        "electoralDistricts": [
          {
            "election": null,
            "id": 90,
            "name": "St. Catharines"
          }
        ],
        "pollDivisionIds": [
          10141360
        ],
        "postalCode": "L2P2A4",
        "streetName": "WOODROW",
        "streetDirectionId": null,
        "streetTypeId": "ST",
        "placeName": "ST CATHARINES",
        "streetNameDisplayText": "WOODROW ST, ST CATHARINES"
      }
    ]
  },
  {
    "postal": "L2P8S0",
    "result": []
  },
  {
    "postal": "L2P3L5",
    "result": [
      {
        "electoralDistricts": [
          {
            "election": null,
            "id": 90,
            "name": "St. Catharines"
          }
        ],
        "pollDivisionIds": [
          10141361
        ],
        "postalCode": "L2P3L5",
        "streetName": "ST AUGUSTINE",
        "streetDirectionId": null,
        "streetTypeId": "DR",
        "placeName": "ST CATHARINES",
        "streetNameDisplayText": "ST AUGUSTINE DR, ST CATHARINES"
      },
      {
        "electoralDistricts": [
          {
            "election": null,
            "id": 90,
            "name": "St. Catharines"
          }
        ],
        "pollDivisionIds": [
          10141361
        ],
        "postalCode": "L2P3L5",
        "streetName": "ST. AUGUSTINE",
        "streetDirectionId": null,
        "streetTypeId": "DR",
        "placeName": "ST CATHARINES",
        "streetNameDisplayText": "ST. AUGUSTINE DR, ST CATHARINES"
      }
    ]
  },
  {
    "postal": "L2P2R5",
    "result": [
      {
        "electoralDistricts": [
          {
            "election": null,
            "id": 90,
            "name": "St. Catharines"
          }
        ],
        "pollDivisionIds": [
          10141353
        ],
        "postalCode": "L2P2R5",
        "streetName": "BLAIN",
        "streetDirectionId": null,
        "streetTypeId": "PL",
        "placeName": "ST CATHARINES",
        "streetNameDisplayText": "BLAIN PL, ST CATHARINES"
      }
    ]
  },
  {
    "postal": "L2P9T6",
    "result": []
  },
  {
    "postal": "L2P8Z2",
    "result": []
  },
  {
    "postal": "L2P0E9",
    "result": []
  },
  {
    "postal": "L2P8C0",
    "result": []
  },
  {
    "postal": "L2P3K7",
    "result": [
      {
        "electoralDistricts": [
          {
            "election": null,
            "id": 90,
            "name": "St. Catharines"
          }
        ],
        "pollDivisionIds": [
          10141361
        ],
        "postalCode": "L2P3K7",
        "streetName": "BRACKENCREST",
        "streetDirectionId": null,
        "streetTypeId": "RD",
        "placeName": "ST CATHARINES",
        "streetNameDisplayText": "BRACKENCREST RD, ST CATHARINES"
      }
    ]
  },
  {
    "postal": "L2P2H3",
    "result": [
      {
        "electoralDistricts": [
          {
            "election": null,
            "id": 90,
            "name": "St. Catharines"
          }
        ],
        "pollDivisionIds": [
          10141363
        ],
        "postalCode": "L2P2H3",
        "streetName": "ARSENAULT",
        "streetDirectionId": null,
        "streetTypeId": "LANE",
        "placeName": "ST CATHARINES",
        "streetNameDisplayText": "ARSENAULT LANE, ST CATHARINES"
      },
      {
        "electoralDistricts": [
          {
            "election": null,
            "id": 90,
            "name": "St. Catharines"
          }
        ],
        "pollDivisionIds": [
          10141363
        ],
        "postalCode": "L2P2H3",
        "streetName": "DISHER",
        "streetDirectionId": "W",
        "streetTypeId": "ST",
        "placeName": "ST CATHARINES",
        "streetNameDisplayText": "DISHER ST W, ST CATHARINES"
      }
    ]
  },
  {
    "postal": "L2P2Y6",
    "result": [
      {
        "electoralDistricts": [
          {
            "election": null,
            "id": 90,
            "name": "St. Catharines"
          }
        ],
        "pollDivisionIds": [
          10141354
        ],
        "postalCode": "L2P2Y6",
        "streetName": "EASTCHESTER",
        "streetDirectionId": null,
        "streetTypeId": "AVE",
        "placeName": "ST CATHARINES",
        "streetNameDisplayText": "EASTCHESTER AVE, ST CATHARINES"
      }
    ]
  },
  {
    "postal": "L2P7M2",
    "result": []
  },
  {
    "postal": "L2P6E2",
    "result": []
  },
  {
    "postal": "L2P3R0",
    "result": []
  },
  {
    "postal": "L2P4J7",
    "result": []
  },
  {
    "postal": "L2P6N8",
    "result": []
  },
  {
    "postal": "L2P0J7",
    "result": []
  },
  {
    "postal": "L2P7P2",
    "result": []
  },
  {
    "postal": "L2P3T8",
    "result": [
      {
        "electoralDistricts": [
          {
            "election": null,
            "id": 90,
            "name": "St. Catharines"
          }
        ],
        "pollDivisionIds": [
          10141363
        ],
        "postalCode": "L2P3T8",
        "streetName": "ST. AUGUSTINE",
        "streetDirectionId": null,
        "streetTypeId": "DR",
        "placeName": "ST CATHARINES",
        "streetNameDisplayText": "ST. AUGUSTINE DR, ST CATHARINES"
      }
    ]
  },
  {
    "postal": "L2P3S7",
    "result": [
      {
        "electoralDistricts": [
          {
            "election": null,
            "id": 90,
            "name": "St. Catharines"
          }
        ],
        "pollDivisionIds": [
          10141363
        ],
        "postalCode": "L2P3S7",
        "streetName": "CARRIAGE",
        "streetDirectionId": null,
        "streetTypeId": "RD",
        "placeName": "ST CATHARINES",
        "streetNameDisplayText": "CARRIAGE RD, ST CATHARINES"
      }
    ]
  },
  {
    "postal": "L2P2S7",
    "result": [
      {
        "electoralDistricts": [
          {
            "election": null,
            "id": 90,
            "name": "St. Catharines"
          }
        ],
        "pollDivisionIds": [
          10141353
        ],
        "postalCode": "L2P2S7",
        "streetName": "HERRICK",
        "streetDirectionId": null,
        "streetTypeId": "AVE",
        "placeName": "ST CATHARINES",
        "streetNameDisplayText": "HERRICK AVE, ST CATHARINES"
      }
    ]
  },
  {
    "postal": "L2P1S4",
    "result": [
      {
        "electoralDistricts": [
          {
            "election": null,
            "id": 90,
            "name": "St. Catharines"
          }
        ],
        "pollDivisionIds": [
          10141363
        ],
        "postalCode": "L2P1S4",
        "streetName": "ORCHARD",
        "streetDirectionId": null,
        "streetTypeId": "AVE",
        "placeName": "ST CATHARINES",
        "streetNameDisplayText": "ORCHARD AVE, ST CATHARINES"
      }
    ]
  },
  {
    "postal": "L2P1L8",
    "result": [
      {
        "electoralDistricts": [
          {
            "election": null,
            "id": 90,
            "name": "St. Catharines"
          }
        ],
        "pollDivisionIds": [
          10141359
        ],
        "postalCode": "L2P1L8",
        "streetName": "KESWICK",
        "streetDirectionId": null,
        "streetTypeId": "ST",
        "placeName": "ST CATHARINES",
        "streetNameDisplayText": "KESWICK ST, ST CATHARINES"
      }
    ]
  },
  {
    "postal": "L2P8E9",
    "result": []
  },
  {
    "postal": "L2P0T0",
    "result": []
  },
  {
    "postal": "L2P3G4",
    "result": [
      {
        "electoralDistricts": [
          {
            "election": null,
            "id": 90,
            "name": "St. Catharines"
          }
        ],
        "pollDivisionIds": [
          10141354
        ],
        "postalCode": "L2P3G4",
        "streetName": "MCPHAIL",
        "streetDirectionId": null,
        "streetTypeId": "CRES",
        "placeName": "ST CATHARINES",
        "streetNameDisplayText": "MCPHAIL CRES, ST CATHARINES"
      }
    ]
  },
  {
    "postal": "L2P0V6",
    "result": []
  },
  {
    "postal": "L2P4W1",
    "result": []
  },
  {
    "postal": "L2P9G9",
    "result": []
  },
  {
    "postal": "L2P5W4",
    "result": []
  },
  {
    "postal": "L2P7M8",
    "result": []
  },
  {
    "postal": "L2P2C2",
    "result": [
      {
        "electoralDistricts": [
          {
            "election": null,
            "id": 90,
            "name": "St. Catharines"
          }
        ],
        "pollDivisionIds": [
          10141363
        ],
        "postalCode": "L2P2C2",
        "streetName": "THORNCLIFF",
        "streetDirectionId": null,
        "streetTypeId": "DR",
        "placeName": "ST CATHARINES",
        "streetNameDisplayText": "THORNCLIFF DR, ST CATHARINES"
      }
    ]
  },
  {
    "postal": "L2P4Y2",
    "result": []
  },
  {
    "postal": "L2P9X9",
    "result": []
  },
  {
    "postal": "L2P3T0",
    "result": []
  },
  {
    "postal": "L2P4T8",
    "result": []
  },
  {
    "postal": "L2P9C4",
    "result": []
  },
  {
    "postal": "L2P8P2",
    "result": []
  },
  {
    "postal": "L2P0Y8",
    "result": []
  },
  {
    "postal": "L2P1G8",
    "result": [
      {
        "electoralDistricts": [
          {
            "election": null,
            "id": 90,
            "name": "St. Catharines"
          }
        ],
        "pollDivisionIds": [
          10141363
        ],
        "postalCode": "L2P1G8",
        "streetName": "LONSDALE",
        "streetDirectionId": null,
        "streetTypeId": "AVE",
        "placeName": "ST CATHARINES",
        "streetNameDisplayText": "LONSDALE AVE, ST CATHARINES"
      }
    ]
  },
  {
    "postal": "L2P2T6",
    "result": [
      {
        "electoralDistricts": [
          {
            "election": null,
            "id": 90,
            "name": "St. Catharines"
          }
        ],
        "pollDivisionIds": [
          10141359
        ],
        "postalCode": "L2P2T6",
        "streetName": "TERRACE HILL",
        "streetDirectionId": null,
        "streetTypeId": "RD",
        "placeName": "ST CATHARINES",
        "streetNameDisplayText": "TERRACE HILL RD, ST CATHARINES"
      }
    ]
  },
  {
    "postal": "L2P1N7",
    "result": [
      {
        "electoralDistricts": [
          {
            "election": null,
            "id": 90,
            "name": "St. Catharines"
          }
        ],
        "pollDivisionIds": [
          10141363
        ],
        "postalCode": "L2P1N7",
        "streetName": "HARTZEL",
        "streetDirectionId": null,
        "streetTypeId": "RD",
        "placeName": "ST CATHARINES",
        "streetNameDisplayText": "HARTZEL RD, ST CATHARINES"
      }
    ]
  },
  {
    "postal": "L2P0L6",
    "result": []
  },
  {
    "postal": "L2P9V4",
    "result": []
  },
  {
    "postal": "L2P2V1",
    "result": [
      {
        "electoralDistricts": [
          {
            "election": null,
            "id": 90,
            "name": "St. Catharines"
          }
        ],
        "pollDivisionIds": [
          10141353
        ],
        "postalCode": "L2P2V1",
        "streetName": "BUCKLAND",
        "streetDirectionId": null,
        "streetTypeId": "ST",
        "placeName": "ST CATHARINES",
        "streetNameDisplayText": "BUCKLAND ST, ST CATHARINES"
      }
    ]
  },
  {
    "postal": "L2P3L8",
    "result": []
  },
  {
    "postal": "L2P2R8",
    "result": [
      {
        "electoralDistricts": [
          {
            "election": null,
            "id": 90,
            "name": "St. Catharines"
          }
        ],
        "pollDivisionIds": [
          10141353
        ],
        "postalCode": "L2P2R8",
        "streetName": "COLLIER",
        "streetDirectionId": null,
        "streetTypeId": "ST",
        "placeName": "ST CATHARINES",
        "streetNameDisplayText": "COLLIER ST, ST CATHARINES"
      }
    ]
  },
  {
    "postal": "L2P5C1",
    "result": []
  },
  {
    "postal": "L2P4W3",
    "result": []
  },
  {
    "postal": "L2P5X5",
    "result": []
  },
  {
    "postal": "L2P9W5",
    "result": []
  },
  {
    "postal": "L2P3C4",
    "result": [
      {
        "electoralDistricts": [
          {
            "election": null,
            "id": 90,
            "name": "St. Catharines"
          }
        ],
        "pollDivisionIds": [
          10141354
        ],
        "postalCode": "L2P3C4",
        "streetName": "LORNE",
        "streetDirectionId": null,
        "streetTypeId": "ST",
        "placeName": "ST CATHARINES",
        "streetNameDisplayText": "LORNE ST, ST CATHARINES"
      }
    ]
  },
  {
    "postal": "L2P1N6",
    "result": [
      {
        "electoralDistricts": [
          {
            "election": null,
            "id": 90,
            "name": "St. Catharines"
          }
        ],
        "pollDivisionIds": [
          10141363
        ],
        "postalCode": "L2P1N6",
        "streetName": "HARTZEL",
        "streetDirectionId": null,
        "streetTypeId": "RD",
        "placeName": "ST CATHARINES",
        "streetNameDisplayText": "HARTZEL RD, ST CATHARINES"
      }
    ]
  },
  {
    "postal": "L2P9S9",
    "result": []
  },
  {
    "postal": "L2P9M2",
    "result": []
  },
  {
    "postal": "L2P8Y4",
    "result": []
  },
  {
    "postal": "L2P7S4",
    "result": []
  },
  {
    "postal": "L2P0K6",
    "result": []
  },
  {
    "postal": "L2P1W3",
    "result": [
      {
        "electoralDistricts": [
          {
            "election": null,
            "id": 90,
            "name": "St. Catharines"
          }
        ],
        "pollDivisionIds": [
          10141360
        ],
        "postalCode": "L2P1W3",
        "streetName": "OXFORD",
        "streetDirectionId": null,
        "streetTypeId": "ST",
        "placeName": "ST CATHARINES",
        "streetNameDisplayText": "OXFORD ST, ST CATHARINES"
      }
    ]
  },
  {
    "postal": "L2P7R2",
    "result": []
  },
  {
    "postal": "L2P2Y9",
    "result": [
      {
        "electoralDistricts": [
          {
            "election": null,
            "id": 90,
            "name": "St. Catharines"
          }
        ],
        "pollDivisionIds": [
          10141354
        ],
        "postalCode": "L2P2Y9",
        "streetName": "EASTCHESTER",
        "streetDirectionId": null,
        "streetTypeId": "AVE",
        "placeName": "ST CATHARINES",
        "streetNameDisplayText": "EASTCHESTER AVE, ST CATHARINES"
      }
    ]
  },
  {
    "postal": "L2P7G4",
    "result": []
  },
  {
    "postal": "L2P7E5",
    "result": []
  },
  {
    "postal": "L2P9G2",
    "result": []
  },
  {
    "postal": "L2P7Y8",
    "result": []
  },
  {
    "postal": "L2P9V2",
    "result": []
  },
  {
    "postal": "L2P3T7",
    "result": [
      {
        "electoralDistricts": [
          {
            "election": null,
            "id": 90,
            "name": "St. Catharines"
          }
        ],
        "pollDivisionIds": [
          10141361
        ],
        "postalCode": "L2P3T7",
        "streetName": "WOODROW",
        "streetDirectionId": null,
        "streetTypeId": "ST",
        "placeName": "ST CATHARINES",
        "streetNameDisplayText": "WOODROW ST, ST CATHARINES"
      }
    ]
  },
  {
    "postal": "L2P1H0",
    "result": []
  },
  {
    "postal": "L2P1M7",
    "result": [
      {
        "electoralDistricts": [
          {
            "election": null,
            "id": 90,
            "name": "St. Catharines"
          }
        ],
        "pollDivisionIds": [
          10141359
        ],
        "postalCode": "L2P1M7",
        "streetName": "HARTZEL",
        "streetDirectionId": null,
        "streetTypeId": "RD",
        "placeName": "ST CATHARINES",
        "streetNameDisplayText": "HARTZEL RD, ST CATHARINES"
      }
    ]
  },
  {
    "postal": "L2P8V4",
    "result": []
  },
  {
    "postal": "L2P4M2",
    "result": []
  },
  {
    "postal": "L2P0X2",
    "result": []
  },
  {
    "postal": "L2P5Z4",
    "result": []
  },
  {
    "postal": "L2P6V4",
    "result": []
  },
  {
    "postal": "L2P8J3",
    "result": []
  },
  {
    "postal": "L2P8E5",
    "result": []
  },
  {
    "postal": "L2P2V5",
    "result": [
      {
        "electoralDistricts": [
          {
            "election": null,
            "id": 90,
            "name": "St. Catharines"
          }
        ],
        "pollDivisionIds": [
          10141353
        ],
        "postalCode": "L2P2V5",
        "streetName": "EASTCHESTER",
        "streetDirectionId": null,
        "streetTypeId": "AVE",
        "placeName": "ST CATHARINES",
        "streetNameDisplayText": "EASTCHESTER AVE, ST CATHARINES"
      }
    ]
  },
  {
    "postal": "L2P7S1",
    "result": []
  },
  {
    "postal": "L2P6V3",
    "result": []
  },
  {
    "postal": "L2P2L8",
    "result": [
      {
        "electoralDistricts": [
          {
            "election": null,
            "id": 90,
            "name": "St. Catharines"
          }
        ],
        "pollDivisionIds": [
          10141363
        ],
        "postalCode": "L2P2L8",
        "streetName": "MOFFATT",
        "streetDirectionId": null,
        "streetTypeId": "ST",
        "placeName": "ST CATHARINES",
        "streetNameDisplayText": "MOFFATT ST, ST CATHARINES"
      }
    ]
  },
  {
    "postal": "L2P9V0",
    "result": []
  },
  {
    "postal": "L2P3M4",
    "result": [
      {
        "electoralDistricts": [
          {
            "election": null,
            "id": 90,
            "name": "St. Catharines"
          }
        ],
        "pollDivisionIds": [
          10141361
        ],
        "postalCode": "L2P3M4",
        "streetName": "ST ANN'S",
        "streetDirectionId": null,
        "streetTypeId": "CRES",
        "placeName": "ST CATHARINES",
        "streetNameDisplayText": "ST ANN'S CRES, ST CATHARINES"
      }
    ]
  },
  {
    "postal": "L2P5B2",
    "result": []
  },
  {
    "postal": "L2P3X5",
    "result": []
  },
  {
    "postal": "L2P9R7",
    "result": []
  },
  {
    "postal": "L2P2X2",
    "result": [
      {
        "electoralDistricts": [
          {
            "election": null,
            "id": 90,
            "name": "St. Catharines"
          }
        ],
        "pollDivisionIds": [
          10141359
        ],
        "postalCode": "L2P2X2",
        "streetName": "QUEENSTON",
        "streetDirectionId": null,
        "streetTypeId": "ST",
        "placeName": "ST CATHARINES",
        "streetNameDisplayText": "QUEENSTON ST, ST CATHARINES"
      }
    ]
  },
  {
    "postal": "L2P8Z6",
    "result": []
  },
  {
    "postal": "L2P4R4",
    "result": []
  },
  {
    "postal": "L2P2R1",
    "result": [
      {
        "electoralDistricts": [
          {
            "election": null,
            "id": 90,
            "name": "St. Catharines"
          }
        ],
        "pollDivisionIds": [
          10141359,
          10141357
        ],
        "postalCode": "L2P2R1",
        "streetName": "PRINCESS",
        "streetDirectionId": null,
        "streetTypeId": "ST",
        "placeName": "ST CATHARINES",
        "streetNameDisplayText": "PRINCESS ST, ST CATHARINES"
      }
    ]
  },
  {
    "postal": "L2P3R8",
    "result": [
      {
        "electoralDistricts": [
          {
            "election": null,
            "id": 90,
            "name": "St. Catharines"
          }
        ],
        "pollDivisionIds": [
          10141361
        ],
        "postalCode": "L2P3R8",
        "streetName": "ROCKWOOD",
        "streetDirectionId": null,
        "streetTypeId": "AVE",
        "placeName": "ST CATHARINES",
        "streetNameDisplayText": "ROCKWOOD AVE, ST CATHARINES"
      }
    ]
  },
  {
    "postal": "L2P9A1",
    "result": []
  },
  {
    "postal": "L2P8L3",
    "result": []
  },
  {
    "postal": "L2P9K4",
    "result": []
  },
  {
    "postal": "L2P9S3",
    "result": []
  },
  {
    "postal": "L2P8N7",
    "result": []
  },
  {
    "postal": "L2P1C6",
    "result": [
      {
        "electoralDistricts": [
          {
            "election": null,
            "id": 90,
            "name": "St. Catharines"
          }
        ],
        "pollDivisionIds": [
          10141363
        ],
        "postalCode": "L2P1C6",
        "streetName": "GROVE",
        "streetDirectionId": null,
        "streetTypeId": "AVE",
        "placeName": "ST CATHARINES",
        "streetNameDisplayText": "GROVE AVE, ST CATHARINES"
      }
    ]
  },
  {
    "postal": "L2P3Z8",
    "result": []
  },
  {
    "postal": "L2P8G5",
    "result": []
  },
  {
    "postal": "L2P5R6",
    "result": []
  },
  {
    "postal": "L2P2W3",
    "result": [
      {
        "electoralDistricts": [
          {
            "election": null,
            "id": 90,
            "name": "St. Catharines"
          }
        ],
        "pollDivisionIds": [
          10141359
        ],
        "postalCode": "L2P2W3",
        "streetName": "WESTCHESTER",
        "streetDirectionId": null,
        "streetTypeId": "CRES",
        "placeName": "ST CATHARINES",
        "streetNameDisplayText": "WESTCHESTER CRES, ST CATHARINES"
      }
    ]
  },
  {
    "postal": "L2P0A0",
    "result": []
  },
  {
    "postal": "L2P6P8",
    "result": []
  },
  {
    "postal": "L2P8N9",
    "result": []
  },
  {
    "postal": "L2P0S9",
    "result": []
  },
  {
    "postal": "L2P8G0",
    "result": []
  },
  {
    "postal": "L2P8C7",
    "result": []
  },
  {
    "postal": "L2P5X8",
    "result": []
  },
  {
    "postal": "L2P7E8",
    "result": []
  },
  {
    "postal": "L2P6X2",
    "result": []
  },
  {
    "postal": "L2P4C6",
    "result": []
  },
  {
    "postal": "L2P7H2",
    "result": []
  },
  {
    "postal": "L2P4R0",
    "result": []
  },
  {
    "postal": "L2P6J3",
    "result": []
  },
  {
    "postal": "L2P4B8",
    "result": []
  },
  {
    "postal": "L2P6H6",
    "result": []
  },
  {
    "postal": "L2P0S1",
    "result": []
  },
  {
    "postal": "L2P4E3",
    "result": []
  },
  {
    "postal": "L2P7K2",
    "result": []
  },
  {
    "postal": "L2P7T8",
    "result": []
  },
  {
    "postal": "L2P0J9",
    "result": []
  },
  {
    "postal": "L2P5J9",
    "result": []
  },
  {
    "postal": "L2P5S7",
    "result": []
  },
  {
    "postal": "L2P0G9",
    "result": []
  },
  {
    "postal": "L2P3J9",
    "result": []
  },
  {
    "postal": "L2P2Y0",
    "result": []
  },
  {
    "postal": "L2P8X5",
    "result": []
  },
  {
    "postal": "L2P2M7",
    "result": [
      {
        "electoralDistricts": [
          {
            "election": null,
            "id": 90,
            "name": "St. Catharines"
          }
        ],
        "pollDivisionIds": [
          10141359
        ],
        "postalCode": "L2P2M7",
        "streetName": "PHILIP",
        "streetDirectionId": null,
        "streetTypeId": "ST",
        "placeName": "ST CATHARINES",
        "streetNameDisplayText": "PHILIP ST, ST CATHARINES"
      }
    ]
  },
  {
    "postal": "L2P9Z3",
    "result": []
  },
  {
    "postal": "L2P7W2",
    "result": []
  },
  {
    "postal": "L2P3W0",
    "result": []
  },
  {
    "postal": "L2P3M1",
    "result": [
      {
        "electoralDistricts": [
          {
            "election": null,
            "id": 90,
            "name": "St. Catharines"
          }
        ],
        "pollDivisionIds": [
          10141361
        ],
        "postalCode": "L2P3M1",
        "streetName": "APPLEFORD",
        "streetDirectionId": null,
        "streetTypeId": "RD",
        "placeName": "ST CATHARINES",
        "streetNameDisplayText": "APPLEFORD RD, ST CATHARINES"
      }
    ]
  },
  {
    "postal": "L2P6A5",
    "result": []
  },
  {
    "postal": "L2P2M9",
    "result": []
  },
  {
    "postal": "L2P5C3",
    "result": []
  },
  {
    "postal": "L2P0Y6",
    "result": []
  },
  {
    "postal": "L2P9H7",
    "result": []
  },
  {
    "postal": "L2P3L0",
    "result": []
  },
  {
    "postal": "L2P5N9",
    "result": []
  },
  {
    "postal": "L2P5E3",
    "result": []
  },
  {
    "postal": "L2P7M9",
    "result": []
  },
  {
    "postal": "L2P8N2",
    "result": []
  },
  {
    "postal": "L2P9H3",
    "result": []
  },
  {
    "postal": "L2P2K8",
    "result": [
      {
        "electoralDistricts": [
          {
            "election": null,
            "id": 90,
            "name": "St. Catharines"
          }
        ],
        "pollDivisionIds": [
          10141363
        ],
        "postalCode": "L2P2K8",
        "streetName": "OAKDALE",
        "streetDirectionId": null,
        "streetTypeId": "AVE",
        "placeName": "ST CATHARINES",
        "streetNameDisplayText": "OAKDALE AVE, ST CATHARINES"
      }
    ]
  },
  {
    "postal": "L2P9L0",
    "result": []
  },
  {
    "postal": "L2P6L9",
    "result": []
  },
  {
    "postal": "L2P6A8",
    "result": []
  },
  {
    "postal": "L2P2K6",
    "result": [
      {
        "electoralDistricts": [
          {
            "election": null,
            "id": 90,
            "name": "St. Catharines"
          }
        ],
        "pollDivisionIds": [
          10141359
        ],
        "postalCode": "L2P2K6",
        "streetName": "OAKDALE",
        "streetDirectionId": null,
        "streetTypeId": "AVE",
        "placeName": "ST CATHARINES",
        "streetNameDisplayText": "OAKDALE AVE, ST CATHARINES"
      }
    ]
  },
  {
    "postal": "L2P2M0",
    "result": []
  },
  {
    "postal": "L2P5X7",
    "result": []
  },
  {
    "postal": "L2P0M7",
    "result": []
  },
  {
    "postal": "L2P7A6",
    "result": []
  },
  {
    "postal": "L2P3C5",
    "result": [
      {
        "electoralDistricts": [
          {
            "election": null,
            "id": 90,
            "name": "St. Catharines"
          }
        ],
        "pollDivisionIds": [
          10141354
        ],
        "postalCode": "L2P3C5",
        "streetName": "LORNE",
        "streetDirectionId": null,
        "streetTypeId": "ST",
        "placeName": "ST CATHARINES",
        "streetNameDisplayText": "LORNE ST, ST CATHARINES"
      }
    ]
  },
  {
    "postal": "L2P2P2",
    "result": [
      {
        "electoralDistricts": [
          {
            "election": null,
            "id": 90,
            "name": "St. Catharines"
          }
        ],
        "pollDivisionIds": [
          10141353
        ],
        "postalCode": "L2P2P2",
        "streetName": "BEARD",
        "streetDirectionId": null,
        "streetTypeId": "PL",
        "placeName": "ST CATHARINES",
        "streetNameDisplayText": "BEARD PL, ST CATHARINES"
      }
    ]
  },
  {
    "postal": "L2P9N4",
    "result": []
  },
  {
    "postal": "L2P3M9",
    "result": [
      {
        "electoralDistricts": [
          {
            "election": null,
            "id": 90,
            "name": "St. Catharines"
          }
        ],
        "pollDivisionIds": [
          10141363
        ],
        "postalCode": "L2P3M9",
        "streetName": "EXETER",
        "streetDirectionId": null,
        "streetTypeId": "DR",
        "placeName": "ST CATHARINES",
        "streetNameDisplayText": "EXETER DR, ST CATHARINES"
      }
    ]
  },
  {
    "postal": "L2P8K6",
    "result": []
  },
  {
    "postal": "L2P1L2",
    "result": [
      {
        "electoralDistricts": [
          {
            "election": null,
            "id": 90,
            "name": "St. Catharines"
          }
        ],
        "pollDivisionIds": [
          10141360
        ],
        "postalCode": "L2P1L2",
        "streetName": "OAKWOOD",
        "streetDirectionId": null,
        "streetTypeId": "AVE",
        "placeName": "ST CATHARINES",
        "streetNameDisplayText": "OAKWOOD AVE, ST CATHARINES"
      }
    ]
  },
  {
    "postal": "L2P2Z9",
    "result": [
      {
        "electoralDistricts": [
          {
            "election": null,
            "id": 90,
            "name": "St. Catharines"
          }
        ],
        "pollDivisionIds": [
          10141354
        ],
        "postalCode": "L2P2Z9",
        "streetName": "BARNES",
        "streetDirectionId": null,
        "streetTypeId": "RD",
        "placeName": "ST CATHARINES",
        "streetNameDisplayText": "BARNES RD, ST CATHARINES"
      }
    ]
  },
  {
    "postal": "L2P2S2",
    "result": [
      {
        "electoralDistricts": [
          {
            "election": null,
            "id": 90,
            "name": "St. Catharines"
          }
        ],
        "pollDivisionIds": [
          10141359
        ],
        "postalCode": "L2P2S2",
        "streetName": "CLAYBURN",
        "streetDirectionId": null,
        "streetTypeId": "AVE",
        "placeName": "ST CATHARINES",
        "streetNameDisplayText": "CLAYBURN AVE, ST CATHARINES"
      }
    ]
  },
  {
    "postal": "L2P2W2",
    "result": [
      {
        "electoralDistricts": [
          {
            "election": null,
            "id": 90,
            "name": "St. Catharines"
          }
        ],
        "pollDivisionIds": [
          10141359
        ],
        "postalCode": "L2P2W2",
        "streetName": "WESTCHESTER",
        "streetDirectionId": null,
        "streetTypeId": "CRES",
        "placeName": "ST CATHARINES",
        "streetNameDisplayText": "WESTCHESTER CRES, ST CATHARINES"
      }
    ]
  },
  {
    "postal": "L2P2C3",
    "result": [
      {
        "electoralDistricts": [
          {
            "election": null,
            "id": 90,
            "name": "St. Catharines"
          }
        ],
        "pollDivisionIds": [
          10141359
        ],
        "postalCode": "L2P2C3",
        "streetName": "INGLEWOOD",
        "streetDirectionId": null,
        "streetTypeId": "RD",
        "placeName": "ST CATHARINES",
        "streetNameDisplayText": "INGLEWOOD RD, ST CATHARINES"
      }
    ]
  },
  {
    "postal": "L2P6L7",
    "result": []
  },
  {
    "postal": "L2P3K0",
    "result": []
  },
  {
    "postal": "L2P3C1",
    "result": [
      {
        "electoralDistricts": [
          {
            "election": null,
            "id": 90,
            "name": "St. Catharines"
          }
        ],
        "pollDivisionIds": [
          10141354
        ],
        "postalCode": "L2P3C1",
        "streetName": "MARMORA",
        "streetDirectionId": null,
        "streetTypeId": "ST",
        "placeName": "ST CATHARINES",
        "streetNameDisplayText": "MARMORA ST, ST CATHARINES"
      }
    ]
  },
  {
    "postal": "L2P6M9",
    "result": []
  },
  {
    "postal": "L2P4N9",
    "result": []
  },
  {
    "postal": "L2P3Y7",
    "result": [
      {
        "electoralDistricts": [
          {
            "election": null,
            "id": 90,
            "name": "St. Catharines"
          }
        ],
        "pollDivisionIds": [
          10141363
        ],
        "postalCode": "L2P3Y7",
        "streetName": "WAITE",
        "streetDirectionId": null,
        "streetTypeId": "LANE",
        "placeName": "ST CATHARINES",
        "streetNameDisplayText": "WAITE LANE, ST CATHARINES"
      }
    ]
  },
  {
    "postal": "L2P2A9",
    "result": [
      {
        "electoralDistricts": [
          {
            "election": null,
            "id": 90,
            "name": "St. Catharines"
          }
        ],
        "pollDivisionIds": [
          10141360
        ],
        "postalCode": "L2P2A9",
        "streetName": "DUNDONALD",
        "streetDirectionId": null,
        "streetTypeId": "ST",
        "placeName": "ST CATHARINES",
        "streetNameDisplayText": "DUNDONALD ST, ST CATHARINES"
      }
    ]
  },
  {
    "postal": "L2P6H5",
    "result": []
  },
  {
    "postal": "L2P8B4",
    "result": []
  },
  {
    "postal": "L2P4Z2",
    "result": []
  },
  {
    "postal": "L2P9J0",
    "result": []
  },
  {
    "postal": "L2P7V7",
    "result": []
  },
  {
    "postal": "L2P5T5",
    "result": []
  },
  {
    "postal": "L2P4W5",
    "result": []
  },
  {
    "postal": "L2P1T8",
    "result": [
      {
        "electoralDistricts": [
          {
            "election": null,
            "id": 90,
            "name": "St. Catharines"
          }
        ],
        "pollDivisionIds": [
          10141363
        ],
        "postalCode": "L2P1T8",
        "streetName": "NESTOR",
        "streetDirectionId": null,
        "streetTypeId": "ST",
        "placeName": "ST CATHARINES",
        "streetNameDisplayText": "NESTOR ST, ST CATHARINES"
      }
    ]
  },
  {
    "postal": "L2P9G6",
    "result": []
  },
  {
    "postal": "L2P1H3",
    "result": [
      {
        "electoralDistricts": [
          {
            "election": null,
            "id": 90,
            "name": "St. Catharines"
          }
        ],
        "pollDivisionIds": [
          10141363
        ],
        "postalCode": "L2P1H3",
        "streetName": "DUNVEGAN",
        "streetDirectionId": null,
        "streetTypeId": "RD",
        "placeName": "ST CATHARINES",
        "streetNameDisplayText": "DUNVEGAN RD, ST CATHARINES"
      }
    ]
  },
  {
    "postal": "L2P5R5",
    "result": []
  },
  {
    "postal": "L2P8A4",
    "result": []
  },
  {
    "postal": "L2P3T6",
    "result": [
      {
        "electoralDistricts": [
          {
            "election": null,
            "id": 90,
            "name": "St. Catharines"
          }
        ],
        "pollDivisionIds": [
          10141360
        ],
        "postalCode": "L2P3T6",
        "streetName": "OXFORD",
        "streetDirectionId": null,
        "streetTypeId": "ST",
        "placeName": "ST CATHARINES",
        "streetNameDisplayText": "OXFORD ST, ST CATHARINES"
      }
    ]
  },
  {
    "postal": "L2P9W8",
    "result": []
  },
  {
    "postal": "L2P0N3",
    "result": []
  },
  {
    "postal": "L2P7V0",
    "result": []
  },
  {
    "postal": "L2P8T5",
    "result": []
  },
  {
    "postal": "L2P5N3",
    "result": []
  },
  {
    "postal": "L2P5G9",
    "result": []
  },
  {
    "postal": "L2P3X8",
    "result": [
      {
        "electoralDistricts": [
          {
            "election": null,
            "id": 90,
            "name": "St. Catharines"
          }
        ],
        "pollDivisionIds": [
          10141359
        ],
        "postalCode": "L2P3X8",
        "streetName": "FERNDALE",
        "streetDirectionId": null,
        "streetTypeId": "AVE",
        "placeName": "ST CATHARINES",
        "streetNameDisplayText": "FERNDALE AVE, ST CATHARINES"
      }
    ]
  },
  {
    "postal": "L2P9R3",
    "result": []
  },
  {
    "postal": "L2P2S1",
    "result": [
      {
        "electoralDistricts": [
          {
            "election": null,
            "id": 90,
            "name": "St. Catharines"
          }
        ],
        "pollDivisionIds": [
          10141359
        ],
        "postalCode": "L2P2S1",
        "streetName": "CLAYBURN",
        "streetDirectionId": null,
        "streetTypeId": "AVE",
        "placeName": "ST CATHARINES",
        "streetNameDisplayText": "CLAYBURN AVE, ST CATHARINES"
      }
    ]
  },
  {
    "postal": "L2P9J7",
    "result": []
  },
  {
    "postal": "L2P2J3",
    "result": [
      {
        "electoralDistricts": [
          {
            "election": null,
            "id": 90,
            "name": "St. Catharines"
          }
        ],
        "pollDivisionIds": [
          10141359
        ],
        "postalCode": "L2P2J3",
        "streetName": "INGRAM",
        "streetDirectionId": null,
        "streetTypeId": "PL",
        "placeName": "ST CATHARINES",
        "streetNameDisplayText": "INGRAM PL, ST CATHARINES"
      }
    ]
  },
  {
    "postal": "L2P3B6",
    "result": [
      {
        "electoralDistricts": [
          {
            "election": null,
            "id": 90,
            "name": "St. Catharines"
          }
        ],
        "pollDivisionIds": [
          10141354
        ],
        "postalCode": "L2P3B6",
        "streetName": "CHELSEA",
        "streetDirectionId": null,
        "streetTypeId": "ST",
        "placeName": "ST CATHARINES",
        "streetNameDisplayText": "CHELSEA ST, ST CATHARINES"
      }
    ]
  },
  {
    "postal": "L2P8J0",
    "result": []
  },
  {
    "postal": "L2P7R4",
    "result": []
  },
  {
    "postal": "L2P8K8",
    "result": []
  },
  {
    "postal": "L2P4P3",
    "result": []
  },
  {
    "postal": "L2P0A2",
    "result": [
      {
        "electoralDistricts": [
          {
            "election": null,
            "id": 90,
            "name": "St. Catharines"
          }
        ],
        "pollDivisionIds": [
          10141354
        ],
        "postalCode": "L2P0A2",
        "streetName": "ALEX GRANT",
        "streetDirectionId": null,
        "streetTypeId": "PL",
        "placeName": "ST CATHARINES",
        "streetNameDisplayText": "ALEX GRANT PL, ST CATHARINES"
      },
      {
        "electoralDistricts": [
          {
            "election": null,
            "id": 90,
            "name": "St. Catharines"
          }
        ],
        "pollDivisionIds": [
          10141354
        ],
        "postalCode": "L2P0A2",
        "streetName": "ALEX GRANT",
        "streetDirectionId": null,
        "streetTypeId": "PLACE",
        "placeName": "ST CATHARINES",
        "streetNameDisplayText": "ALEX GRANT PLACE, ST CATHARINES"
      },
      {
        "electoralDistricts": [
          {
            "election": null,
            "id": 90,
            "name": "St. Catharines"
          }
        ],
        "pollDivisionIds": [
          10141354
        ],
        "postalCode": "L2P0A2",
        "streetName": "WILFRID LAURIER",
        "streetDirectionId": null,
        "streetTypeId": "CRES",
        "placeName": "ST CATHARINES",
        "streetNameDisplayText": "WILFRID LAURIER CRES, ST CATHARINES"
      }
    ]
  },
  {
    "postal": "L2P2G2",
    "result": [
      {
        "electoralDistricts": [
          {
            "election": null,
            "id": 90,
            "name": "St. Catharines"
          }
        ],
        "pollDivisionIds": [
          10141363
        ],
        "postalCode": "L2P2G2",
        "streetName": "ABBOT",
        "streetDirectionId": null,
        "streetTypeId": "ST",
        "placeName": "ST CATHARINES",
        "streetNameDisplayText": "ABBOT ST, ST CATHARINES"
      }
    ]
  },
  {
    "postal": "L2P5Y9",
    "result": []
  },
  {
    "postal": "L2P7X0",
    "result": []
  },
  {
    "postal": "L2P7W3",
    "result": []
  },
  {
    "postal": "L2P7X5",
    "result": []
  },
  {
    "postal": "L2P5K6",
    "result": []
  },
  {
    "postal": "L2P5B6",
    "result": []
  },
  {
    "postal": "L2P7Z0",
    "result": []
  },
  {
    "postal": "L2P9H6",
    "result": []
  },
  {
    "postal": "L2P1B4",
    "result": [
      {
        "electoralDistricts": [
          {
            "election": null,
            "id": 90,
            "name": "St. Catharines"
          }
        ],
        "pollDivisionIds": [
          10141363
        ],
        "postalCode": "L2P1B4",
        "streetName": "CEDARDALE",
        "streetDirectionId": null,
        "streetTypeId": "AVE",
        "placeName": "ST CATHARINES",
        "streetNameDisplayText": "CEDARDALE AVE, ST CATHARINES"
      }
    ]
  },
  {
    "postal": "L2P1A0",
    "result": []
  },
  {
    "postal": "L2P9A0",
    "result": []
  },
  {
    "postal": "L2P1M6",
    "result": [
      {
        "electoralDistricts": [
          {
            "election": null,
            "id": 90,
            "name": "St. Catharines"
          }
        ],
        "pollDivisionIds": [
          10141359
        ],
        "postalCode": "L2P1M6",
        "streetName": "HARTZEL",
        "streetDirectionId": null,
        "streetTypeId": "RD",
        "placeName": "ST CATHARINES",
        "streetNameDisplayText": "HARTZEL RD, ST CATHARINES"
      }
    ]
  },
  {
    "postal": "L2P5H0",
    "result": []
  },
  {
    "postal": "L2P1K6",
    "result": [
      {
        "electoralDistricts": [
          {
            "election": null,
            "id": 90,
            "name": "St. Catharines"
          }
        ],
        "pollDivisionIds": [
          10141359
        ],
        "postalCode": "L2P1K6",
        "streetName": "WARREN",
        "streetDirectionId": null,
        "streetTypeId": "RD",
        "placeName": "ST CATHARINES",
        "streetNameDisplayText": "WARREN RD, ST CATHARINES"
      }
    ]
  },
  {
    "postal": "L2P5E1",
    "result": []
  },
  {
    "postal": "L2P3T9",
    "result": [
      {
        "electoralDistricts": [
          {
            "election": null,
            "id": 90,
            "name": "St. Catharines"
          }
        ],
        "pollDivisionIds": [
          10141360
        ],
        "postalCode": "L2P3T9",
        "streetName": "OXFORD",
        "streetDirectionId": null,
        "streetTypeId": "ST",
        "placeName": "ST CATHARINES",
        "streetNameDisplayText": "OXFORD ST, ST CATHARINES"
      }
    ]
  },
  {
    "postal": "L2P2M6",
    "result": [
      {
        "electoralDistricts": [
          {
            "election": null,
            "id": 90,
            "name": "St. Catharines"
          }
        ],
        "pollDivisionIds": [
          10141359
        ],
        "postalCode": "L2P2M6",
        "streetName": "BARLEY",
        "streetDirectionId": null,
        "streetTypeId": "DR",
        "placeName": "ST CATHARINES",
        "streetNameDisplayText": "BARLEY DR, ST CATHARINES"
      }
    ]
  },
  {
    "postal": "L2P0G5",
    "result": []
  },
  {
    "postal": "L2P0Y2",
    "result": []
  },
  {
    "postal": "L2P2Y7",
    "result": [
      {
        "electoralDistricts": [
          {
            "election": null,
            "id": 90,
            "name": "St. Catharines"
          }
        ],
        "pollDivisionIds": [
          10141359
        ],
        "postalCode": "L2P2Y7",
        "streetName": "EASTCHESTER",
        "streetDirectionId": "E",
        "streetTypeId": "AV",
        "placeName": "ST CATHARINES",
        "streetNameDisplayText": "EASTCHESTER AV E, ST CATHARINES"
      },
      {
        "electoralDistricts": [
          {
            "election": null,
            "id": 90,
            "name": "St. Catharines"
          }
        ],
        "pollDivisionIds": [
          10141354
        ],
        "postalCode": "L2P2Y7",
        "streetName": "EASTCHESTER",
        "streetDirectionId": null,
        "streetTypeId": "AVE",
        "placeName": "ST CATHARINES",
        "streetNameDisplayText": "EASTCHESTER AVE, ST CATHARINES"
      }
    ]
  },
  {
    "postal": "L2P2J7",
    "result": [
      {
        "electoralDistricts": [
          {
            "election": null,
            "id": 90,
            "name": "St. Catharines"
          }
        ],
        "pollDivisionIds": [
          10141359
        ],
        "postalCode": "L2P2J7",
        "streetName": "MARREN",
        "streetDirectionId": null,
        "streetTypeId": "ST",
        "placeName": "ST CATHARINES",
        "streetNameDisplayText": "MARREN ST, ST CATHARINES"
      }
    ]
  },
  {
    "postal": "L2P4K7",
    "result": []
  },
  {
    "postal": "L2P7P9",
    "result": []
  },
  {
    "postal": "L2P8X0",
    "result": []
  },
  {
    "postal": "L2P3X1",
    "result": [
      {
        "electoralDistricts": [
          {
            "election": null,
            "id": 90,
            "name": "St. Catharines"
          }
        ],
        "pollDivisionIds": [
          10141361
        ],
        "postalCode": "L2P3X1",
        "streetName": "WEMBLY",
        "streetDirectionId": null,
        "streetTypeId": "DR",
        "placeName": "ST CATHARINES",
        "streetNameDisplayText": "WEMBLY DR, ST CATHARINES"
      }
    ]
  },
  {
    "postal": "L2P1R5",
    "result": [
      {
        "electoralDistricts": [
          {
            "election": null,
            "id": 90,
            "name": "St. Catharines"
          }
        ],
        "pollDivisionIds": [
          10141363
        ],
        "postalCode": "L2P1R5",
        "streetName": "PARK",
        "streetDirectionId": null,
        "streetTypeId": "AVE",
        "placeName": "ST CATHARINES",
        "streetNameDisplayText": "PARK AVE, ST CATHARINES"
      }
    ]
  },
  {
    "postal": "L2P6X6",
    "result": []
  },
  {
    "postal": "L2P0Y1",
    "result": []
  },
  {
    "postal": "L2P8G1",
    "result": []
  },
  {
    "postal": "L2P3J3",
    "result": [
      {
        "electoralDistricts": [
          {
            "election": null,
            "id": 90,
            "name": "St. Catharines"
          }
        ],
        "pollDivisionIds": [
          10141354
        ],
        "postalCode": "L2P3J3",
        "streetName": "WRIGHT",
        "streetDirectionId": null,
        "streetTypeId": "ST",
        "placeName": "ST CATHARINES",
        "streetNameDisplayText": "WRIGHT ST, ST CATHARINES"
      }
    ]
  },
  {
    "postal": "L2P8C2",
    "result": []
  },
  {
    "postal": "L2P4X9",
    "result": []
  },
  {
    "postal": "L2P6G9",
    "result": []
  },
  {
    "postal": "L2P4M3",
    "result": []
  },
  {
    "postal": "L2P9P7",
    "result": []
  },
  {
    "postal": "L2P4E5",
    "result": []
  },
  {
    "postal": "L2P5K9",
    "result": []
  },
  {
    "postal": "L2P2V2",
    "result": [
      {
        "electoralDistricts": [
          {
            "election": null,
            "id": 90,
            "name": "St. Catharines"
          }
        ],
        "pollDivisionIds": [
          10141353
        ],
        "postalCode": "L2P2V2",
        "streetName": "BUCKLAND",
        "streetDirectionId": null,
        "streetTypeId": "ST",
        "placeName": "ST CATHARINES",
        "streetNameDisplayText": "BUCKLAND ST, ST CATHARINES"
      }
    ]
  },
  {
    "postal": "L2P2N9",
    "result": [
      {
        "electoralDistricts": [
          {
            "election": null,
            "id": 90,
            "name": "St. Catharines"
          }
        ],
        "pollDivisionIds": [
          10141353
        ],
        "postalCode": "L2P2N9",
        "streetName": "WESTCHESTER",
        "streetDirectionId": null,
        "streetTypeId": "AVE",
        "placeName": "ST CATHARINES",
        "streetNameDisplayText": "WESTCHESTER AVE, ST CATHARINES"
      },
      {
        "electoralDistricts": [
          {
            "election": null,
            "id": 90,
            "name": "St. Catharines"
          }
        ],
        "pollDivisionIds": [
          10141359
        ],
        "postalCode": "L2P2N9",
        "streetName": "WESTCHESTER",
        "streetDirectionId": null,
        "streetTypeId": "CRES",
        "placeName": "ST CATHARINES",
        "streetNameDisplayText": "WESTCHESTER CRES, ST CATHARINES"
      }
    ]
  },
  {
    "postal": "L2P6L4",
    "result": []
  },
  {
    "postal": "L2P8E0",
    "result": []
  },
  {
    "postal": "L2P0N0",
    "result": []
  },
  {
    "postal": "L2P6R0",
    "result": []
  },
  {
    "postal": "L2P9C1",
    "result": []
  },
  {
    "postal": "L2P4H4",
    "result": []
  },
  {
    "postal": "L2P5W3",
    "result": []
  },
  {
    "postal": "L2P9N9",
    "result": []
  },
  {
    "postal": "L2P1V7",
    "result": [
      {
        "electoralDistricts": [
          {
            "election": null,
            "id": 90,
            "name": "St. Catharines"
          }
        ],
        "pollDivisionIds": [
          10141363
        ],
        "postalCode": "L2P1V7",
        "streetName": "FERNDALE",
        "streetDirectionId": null,
        "streetTypeId": "AVE",
        "placeName": "ST CATHARINES",
        "streetNameDisplayText": "FERNDALE AVE, ST CATHARINES"
      }
    ]
  },
  {
    "postal": "L2P8J1",
    "result": []
  },
  {
    "postal": "L2P5V9",
    "result": []
  },
  {
    "postal": "L2P2S8",
    "result": [
      {
        "electoralDistricts": [
          {
            "election": null,
            "id": 90,
            "name": "St. Catharines"
          }
        ],
        "pollDivisionIds": [
          10141353
        ],
        "postalCode": "L2P2S8",
        "streetName": "HERRICK",
        "streetDirectionId": null,
        "streetTypeId": "AVE",
        "placeName": "ST CATHARINES",
        "streetNameDisplayText": "HERRICK AVE, ST CATHARINES"
      }
    ]
  },
  {
    "postal": "L2P6P0",
    "result": []
  },
  {
    "postal": "L2P4J8",
    "result": []
  },
  {
    "postal": "L2P0N1",
    "result": []
  },
  {
    "postal": "L2P1Y7",
    "result": [
      {
        "electoralDistricts": [
          {
            "election": null,
            "id": 90,
            "name": "St. Catharines"
          }
        ],
        "pollDivisionIds": [
          10141354
        ],
        "postalCode": "L2P1Y7",
        "streetName": "ROSEDALE",
        "streetDirectionId": null,
        "streetTypeId": "AVE",
        "placeName": "ST CATHARINES",
        "streetNameDisplayText": "ROSEDALE AVE, ST CATHARINES"
      }
    ]
  },
  {
    "postal": "L2P7W5",
    "result": []
  },
  {
    "postal": "L2P3Z1",
    "result": []
  },
  {
    "postal": "L2P7M6",
    "result": []
  },
  {
    "postal": "L2P1W7",
    "result": [
      {
        "electoralDistricts": [
          {
            "election": null,
            "id": 90,
            "name": "St. Catharines"
          }
        ],
        "pollDivisionIds": [
          10141360
        ],
        "postalCode": "L2P1W7",
        "streetName": "CAMBRIDGE",
        "streetDirectionId": null,
        "streetTypeId": "AVE",
        "placeName": "ST CATHARINES",
        "streetNameDisplayText": "CAMBRIDGE AVE, ST CATHARINES"
      }
    ]
  },
  {
    "postal": "L2P1X1",
    "result": [
      {
        "electoralDistricts": [
          {
            "election": null,
            "id": 90,
            "name": "St. Catharines"
          }
        ],
        "pollDivisionIds": [
          10141360
        ],
        "postalCode": "L2P1X1",
        "streetName": "BLOOMFIELD",
        "streetDirectionId": null,
        "streetTypeId": "AVE",
        "placeName": "ST CATHARINES",
        "streetNameDisplayText": "BLOOMFIELD AVE, ST CATHARINES"
      }
    ]
  },
  {
    "postal": "L2P0C1",
    "result": [
      {
        "electoralDistricts": [
          {
            "election": null,
            "id": 90,
            "name": "St. Catharines"
          }
        ],
        "pollDivisionIds": [
          10141359
        ],
        "postalCode": "L2P0C1",
        "streetName": "GUEST",
        "streetDirectionId": null,
        "streetTypeId": "PL",
        "placeName": "ST CATHARINES",
        "streetNameDisplayText": "GUEST PL, ST CATHARINES"
      }
    ]
  },
  {
    "postal": "L2P4N3",
    "result": []
  },
  {
    "postal": "L2P4S8",
    "result": []
  },
  {
    "postal": "L2P1H6",
    "result": [
      {
        "electoralDistricts": [
          {
            "election": null,
            "id": 90,
            "name": "St. Catharines"
          }
        ],
        "pollDivisionIds": [
          10141360
        ],
        "postalCode": "L2P1H6",
        "streetName": "DUNVEGAN",
        "streetDirectionId": null,
        "streetTypeId": "RD",
        "placeName": "ST CATHARINES",
        "streetNameDisplayText": "DUNVEGAN RD, ST CATHARINES"
      }
    ]
  },
  {
    "postal": "L2P2Z4",
    "result": [
      {
        "electoralDistricts": [
          {
            "election": null,
            "id": 90,
            "name": "St. Catharines"
          }
        ],
        "pollDivisionIds": [
          10141354
        ],
        "postalCode": "L2P2Z4",
        "streetName": "EASTCHESTER",
        "streetDirectionId": null,
        "streetTypeId": "AVE",
        "placeName": "ST CATHARINES",
        "streetNameDisplayText": "EASTCHESTER AVE, ST CATHARINES"
      }
    ]
  },
  {
    "postal": "L2P7K3",
    "result": []
  },
  {
    "postal": "L2P8A2",
    "result": []
  },
  {
    "postal": "L2P6J1",
    "result": []
  },
  {
    "postal": "L2P5Z6",
    "result": []
  },
  {
    "postal": "L2P3Z0",
    "result": []
  },
  {
    "postal": "L2P8M0",
    "result": []
  },
  {
    "postal": "L2P1Z6",
    "result": [
      {
        "electoralDistricts": [
          {
            "election": null,
            "id": 90,
            "name": "St. Catharines"
          }
        ],
        "pollDivisionIds": [
          10141354
        ],
        "postalCode": "L2P1Z6",
        "streetName": "SPRING",
        "streetDirectionId": null,
        "streetTypeId": "ST",
        "placeName": "ST CATHARINES",
        "streetNameDisplayText": "SPRING ST, ST CATHARINES"
      }
    ]
  },
  {
    "postal": "L2P8K7",
    "result": []
  },
  {
    "postal": "L2P1N3",
    "result": [
      {
        "electoralDistricts": [
          {
            "election": null,
            "id": 90,
            "name": "St. Catharines"
          }
        ],
        "pollDivisionIds": [
          10141363
        ],
        "postalCode": "L2P1N3",
        "streetName": "HARTZEL",
        "streetDirectionId": null,
        "streetTypeId": "RD",
        "placeName": "ST CATHARINES",
        "streetNameDisplayText": "HARTZEL RD, ST CATHARINES"
      }
    ]
  },
  {
    "postal": "L2P9S2",
    "result": []
  },
  {
    "postal": "L2P2K1",
    "result": [
      {
        "electoralDistricts": [
          {
            "election": null,
            "id": 90,
            "name": "St. Catharines"
          }
        ],
        "pollDivisionIds": [
          10141359
        ],
        "postalCode": "L2P2K1",
        "streetName": "BEVERLEY",
        "streetDirectionId": null,
        "streetTypeId": "ST",
        "placeName": "ST CATHARINES",
        "streetNameDisplayText": "BEVERLEY ST, ST CATHARINES"
      }
    ]
  },
  {
    "postal": "L2P1E8",
    "result": [
      {
        "electoralDistricts": [
          {
            "election": null,
            "id": 90,
            "name": "St. Catharines"
          }
        ],
        "pollDivisionIds": [
          10141360
        ],
        "postalCode": "L2P1E8",
        "streetName": "ROCKWOOD",
        "streetDirectionId": null,
        "streetTypeId": "AVE",
        "placeName": "ST CATHARINES",
        "streetNameDisplayText": "ROCKWOOD AVE, ST CATHARINES"
      }
    ]
  },
  {
    "postal": "L2P9B8",
    "result": []
  },
  {
    "postal": "L2P7X4",
    "result": []
  },
  {
    "postal": "L2P1Z4",
    "result": [
      {
        "electoralDistricts": [
          {
            "election": null,
            "id": 90,
            "name": "St. Catharines"
          }
        ],
        "pollDivisionIds": [
          10141354
        ],
        "postalCode": "L2P1Z4",
        "streetName": "BUNTING",
        "streetDirectionId": null,
        "streetTypeId": "RD",
        "placeName": "ST CATHARINES",
        "streetNameDisplayText": "BUNTING RD, ST CATHARINES"
      }
    ]
  },
  {
    "postal": "L2P2C7",
    "result": [
      {
        "electoralDistricts": [
          {
            "election": null,
            "id": 90,
            "name": "St. Catharines"
          }
        ],
        "pollDivisionIds": [
          10141359
        ],
        "postalCode": "L2P2C7",
        "streetName": "LINCOLN",
        "streetDirectionId": null,
        "streetTypeId": "AVE",
        "placeName": "ST CATHARINES",
        "streetNameDisplayText": "LINCOLN AVE, ST CATHARINES"
      }
    ]
  },
  {
    "postal": "L2P2E7",
    "result": [
      {
        "electoralDistricts": [
          {
            "election": null,
            "id": 90,
            "name": "St. Catharines"
          }
        ],
        "pollDivisionIds": [
          10141359
        ],
        "postalCode": "L2P2E7",
        "streetName": "LUCERNE",
        "streetDirectionId": null,
        "streetTypeId": "PL",
        "placeName": "ST CATHARINES",
        "streetNameDisplayText": "LUCERNE PL, ST CATHARINES"
      }
    ]
  },
  {
    "postal": "L2P3R1",
    "result": [
      {
        "electoralDistricts": [
          {
            "election": null,
            "id": 90,
            "name": "St. Catharines"
          }
        ],
        "pollDivisionIds": [
          10141354
        ],
        "postalCode": "L2P3R1",
        "streetName": "DERBY",
        "streetDirectionId": null,
        "streetTypeId": "LANE",
        "placeName": "ST CATHARINES",
        "streetNameDisplayText": "DERBY LANE, ST CATHARINES"
      }
    ]
  },
  {
    "postal": "L2P4K4",
    "result": []
  },
  {
    "postal": "L2P9G3",
    "result": []
  },
  {
    "postal": "L2P6C9",
    "result": []
  },
  {
    "postal": "L2P9H5",
    "result": []
  },
  {
    "postal": "L2P1P5",
    "result": [
      {
        "electoralDistricts": [
          {
            "election": null,
            "id": 90,
            "name": "St. Catharines"
          }
        ],
        "pollDivisionIds": [
          10141363
        ],
        "postalCode": "L2P1P5",
        "streetName": "MERRITT",
        "streetDirectionId": null,
        "streetTypeId": "ST",
        "placeName": "ST CATHARINES",
        "streetNameDisplayText": "MERRITT ST, ST CATHARINES"
      }
    ]
  },
  {
    "postal": "L2P2J5",
    "result": [
      {
        "electoralDistricts": [
          {
            "election": null,
            "id": 90,
            "name": "St. Catharines"
          }
        ],
        "pollDivisionIds": [
          10141359
        ],
        "postalCode": "L2P2J5",
        "streetName": "MARREN",
        "streetDirectionId": null,
        "streetTypeId": "ST",
        "placeName": "ST CATHARINES",
        "streetNameDisplayText": "MARREN ST, ST CATHARINES"
      }
    ]
  },
  {
    "postal": "L2P4W6",
    "result": []
  },
  {
    "postal": "L2P8M8",
    "result": []
  },
  {
    "postal": "L2P6C5",
    "result": []
  },
  {
    "postal": "L2P9H0",
    "result": []
  },
  {
    "postal": "L2P1X8",
    "result": [
      {
        "electoralDistricts": [
          {
            "election": null,
            "id": 90,
            "name": "St. Catharines"
          }
        ],
        "pollDivisionIds": [
          10141360
        ],
        "postalCode": "L2P1X8",
        "streetName": "GREENWOOD",
        "streetDirectionId": null,
        "streetTypeId": "AVE",
        "placeName": "ST CATHARINES",
        "streetNameDisplayText": "GREENWOOD AVE, ST CATHARINES"
      }
    ]
  },
  {
    "postal": "L2P3H4",
    "result": [
      {
        "electoralDistricts": [
          {
            "election": null,
            "id": 90,
            "name": "St. Catharines"
          }
        ],
        "pollDivisionIds": [
          10141354
        ],
        "postalCode": "L2P3H4",
        "streetName": "DUNKIRK",
        "streetDirectionId": null,
        "streetTypeId": "RD",
        "placeName": "ST CATHARINES",
        "streetNameDisplayText": "DUNKIRK RD, ST CATHARINES"
      }
    ]
  },
  {
    "postal": "L2P4E7",
    "result": []
  },
  {
    "postal": "L2P8A0",
    "result": []
  },
  {
    "postal": "L2P1Z7",
    "result": [
      {
        "electoralDistricts": [
          {
            "election": null,
            "id": 90,
            "name": "St. Catharines"
          }
        ],
        "pollDivisionIds": [
          10141360
        ],
        "postalCode": "L2P1Z7",
        "streetName": "LAWSON",
        "streetDirectionId": null,
        "streetTypeId": "ST",
        "placeName": "ST CATHARINES",
        "streetNameDisplayText": "LAWSON ST, ST CATHARINES"
      }
    ]
  },
  {
    "postal": "L2P7Z3",
    "result": []
  },
  {
    "postal": "L2P0L7",
    "result": []
  },
  {
    "postal": "L2P2C6",
    "result": [
      {
        "electoralDistricts": [
          {
            "election": null,
            "id": 90,
            "name": "St. Catharines"
          }
        ],
        "pollDivisionIds": [
          10141359,
          10141363
        ],
        "postalCode": "L2P2C6",
        "streetName": "LINCOLN",
        "streetDirectionId": null,
        "streetTypeId": "AVE",
        "placeName": "ST CATHARINES",
        "streetNameDisplayText": "LINCOLN AVE, ST CATHARINES"
      }
    ]
  },
  {
    "postal": "L2P6M3",
    "result": []
  },
  {
    "postal": "L2P2J1",
    "result": [
      {
        "electoralDistricts": [
          {
            "election": null,
            "id": 90,
            "name": "St. Catharines"
          }
        ],
        "pollDivisionIds": [
          10141359
        ],
        "postalCode": "L2P2J1",
        "streetName": "LINCOLN",
        "streetDirectionId": null,
        "streetTypeId": "AVE",
        "placeName": "ST CATHARINES",
        "streetNameDisplayText": "LINCOLN AVE, ST CATHARINES"
      }
    ]
  },
  {
    "postal": "L2P3E3",
    "result": [
      {
        "electoralDistricts": [
          {
            "election": null,
            "id": 90,
            "name": "St. Catharines"
          }
        ],
        "pollDivisionIds": [
          10141354
        ],
        "postalCode": "L2P3E3",
        "streetName": "LAIRD",
        "streetDirectionId": null,
        "streetTypeId": "DR",
        "placeName": "ST CATHARINES",
        "streetNameDisplayText": "LAIRD DR, ST CATHARINES"
      }
    ]
  },
  {
    "postal": "L2P6Z9",
    "result": []
  },
  {
    "postal": "L2P3M3",
    "result": [
      {
        "electoralDistricts": [
          {
            "election": null,
            "id": 90,
            "name": "St. Catharines"
          }
        ],
        "pollDivisionIds": [
          10141363,
          10141354
        ],
        "postalCode": "L2P3M3",
        "streetName": "APPLEFORD",
        "streetDirectionId": null,
        "streetTypeId": "RD",
        "placeName": "ST CATHARINES",
        "streetNameDisplayText": "APPLEFORD RD, ST CATHARINES"
      }
    ]
  },
  {
    "postal": "L2P9B1",
    "result": []
  },
  {
    "postal": "L2P9J5",
    "result": []
  },
  {
    "postal": "L2P4V8",
    "result": []
  },
  {
    "postal": "L2P6W2",
    "result": []
  },
  {
    "postal": "L2P0V5",
    "result": []
  },
  {
    "postal": "L2P0Z8",
    "result": []
  },
  {
    "postal": "L2P5G2",
    "result": []
  },
  {
    "postal": "L2P4N4",
    "result": []
  },
  {
    "postal": "L2P8G7",
    "result": []
  },
  {
    "postal": "L2P8W1",
    "result": []
  },
  {
    "postal": "L2P1S6",
    "result": [
      {
        "electoralDistricts": [
          {
            "election": null,
            "id": 90,
            "name": "St. Catharines"
          }
        ],
        "pollDivisionIds": [
          10141361
        ],
        "postalCode": "L2P1S6",
        "streetName": "CARRIAGE",
        "streetDirectionId": null,
        "streetTypeId": "RD",
        "placeName": "ST CATHARINES",
        "streetNameDisplayText": "CARRIAGE RD, ST CATHARINES"
      }
    ]
  },
  {
    "postal": "L2P4E0",
    "result": []
  },
  {
    "postal": "L2P4L9",
    "result": []
  },
  {
    "postal": "L2P5Z9",
    "result": []
  },
  {
    "postal": "L2P5V3",
    "result": []
  },
  {
    "postal": "L2P4V2",
    "result": []
  },
  {
    "postal": "L2P7C0",
    "result": []
  },
  {
    "postal": "L2P6L0",
    "result": []
  },
  {
    "postal": "L2P1S9",
    "result": [
      {
        "electoralDistricts": [
          {
            "election": null,
            "id": 90,
            "name": "St. Catharines"
          }
        ],
        "pollDivisionIds": [
          10141361
        ],
        "postalCode": "L2P1S9",
        "streetName": "CARRIAGE",
        "streetDirectionId": null,
        "streetTypeId": "RD",
        "placeName": "ST CATHARINES",
        "streetNameDisplayText": "CARRIAGE RD, ST CATHARINES"
      }
    ]
  },
  {
    "postal": "L2P7R6",
    "result": []
  },
  {
    "postal": "L2P7J0",
    "result": []
  },
  {
    "postal": "L2P5M0",
    "result": []
  },
  {
    "postal": "L2P2E5",
    "result": [
      {
        "electoralDistricts": [
          {
            "election": null,
            "id": 90,
            "name": "St. Catharines"
          }
        ],
        "pollDivisionIds": [
          10141359
        ],
        "postalCode": "L2P2E5",
        "streetName": "PRESTWICK",
        "streetDirectionId": null,
        "streetTypeId": "AVE",
        "placeName": "ST CATHARINES",
        "streetNameDisplayText": "PRESTWICK AVE, ST CATHARINES"
      }
    ]
  },
  {
    "postal": "L2P7C7",
    "result": []
  },
  {
    "postal": "L2P5C0",
    "result": []
  },
  {
    "postal": "L2P8V9",
    "result": []
  },
  {
    "postal": "L2P7E0",
    "result": []
  },
  {
    "postal": "L2P6R4",
    "result": []
  },
  {
    "postal": "L2P3Z7",
    "result": []
  },
  {
    "postal": "L2P1J9",
    "result": [
      {
        "electoralDistricts": [
          {
            "election": null,
            "id": 90,
            "name": "St. Catharines"
          }
        ],
        "pollDivisionIds": [
          10141360
        ],
        "postalCode": "L2P1J9",
        "streetName": "ALEXANDRA",
        "streetDirectionId": null,
        "streetTypeId": "BLVD",
        "placeName": "ST CATHARINES",
        "streetNameDisplayText": "ALEXANDRA BLVD, ST CATHARINES"
      }
    ]
  },
  {
    "postal": "L2P7K6",
    "result": []
  },
  {
    "postal": "L2P7Y5",
    "result": []
  },
  {
    "postal": "L2P1B7",
    "result": [
      {
        "electoralDistricts": [
          {
            "election": null,
            "id": 90,
            "name": "St. Catharines"
          }
        ],
        "pollDivisionIds": [
          10141363
        ],
        "postalCode": "L2P1B7",
        "streetName": "FIR",
        "streetDirectionId": null,
        "streetTypeId": "AVE",
        "placeName": "ST CATHARINES",
        "streetNameDisplayText": "FIR AVE, ST CATHARINES"
      }
    ]
  },
  {
    "postal": "L2P4S9",
    "result": []
  },
  {
    "postal": "L2P9R9",
    "result": []
  },
  {
    "postal": "L2P5K7",
    "result": []
  },
  {
    "postal": "L2P6P2",
    "result": []
  },
  {
    "postal": "L2P2C5",
    "result": [
      {
        "electoralDistricts": [
          {
            "election": null,
            "id": 90,
            "name": "St. Catharines"
          }
        ],
        "pollDivisionIds": [
          10141359
        ],
        "postalCode": "L2P2C5",
        "streetName": "INGLEWOOD",
        "streetDirectionId": null,
        "streetTypeId": "RD",
        "placeName": "ST CATHARINES",
        "streetNameDisplayText": "INGLEWOOD RD, ST CATHARINES"
      }
    ]
  },
  {
    "postal": "L2P2N0",
    "result": []
  },
  {
    "postal": "L2P1G0",
    "result": []
  },
  {
    "postal": "L2P4K5",
    "result": []
  },
  {
    "postal": "L2P9B5",
    "result": []
  },
  {
    "postal": "L2P6T5",
    "result": []
  },
  {
    "postal": "L2P1N8",
    "result": [
      {
        "electoralDistricts": [
          {
            "election": null,
            "id": 90,
            "name": "St. Catharines"
          }
        ],
        "pollDivisionIds": [
          10141363
        ],
        "postalCode": "L2P1N8",
        "streetName": "HARTZEL",
        "streetDirectionId": null,
        "streetTypeId": "RD",
        "placeName": "ST CATHARINES",
        "streetNameDisplayText": "HARTZEL RD, ST CATHARINES"
      }
    ]
  },
  {
    "postal": "L2P0C0",
    "result": []
  },
  {
    "postal": "L2P0R9",
    "result": []
  },
  {
    "postal": "L2P7L1",
    "result": []
  },
  {
    "postal": "L2P3Y8",
    "result": [
      {
        "electoralDistricts": [
          {
            "election": null,
            "id": 90,
            "name": "St. Catharines"
          }
        ],
        "pollDivisionIds": [
          10141359
        ],
        "postalCode": "L2P3Y8",
        "streetName": "CARSON",
        "streetDirectionId": null,
        "streetTypeId": "CRT",
        "placeName": "ST CATHARINES",
        "streetNameDisplayText": "CARSON CRT, ST CATHARINES"
      }
    ]
  },
  {
    "postal": "L2P7X9",
    "result": []
  },
  {
    "postal": "L2P1A7",
    "result": [
      {
        "electoralDistricts": [
          {
            "election": null,
            "id": 90,
            "name": "St. Catharines"
          }
        ],
        "pollDivisionIds": [
          10141363
        ],
        "postalCode": "L2P1A7",
        "streetName": "SEYMOUR",
        "streetDirectionId": null,
        "streetTypeId": "AVE",
        "placeName": "ST CATHARINES",
        "streetNameDisplayText": "SEYMOUR AVE, ST CATHARINES"
      }
    ]
  },
  {
    "postal": "L2P2T9",
    "result": [
      {
        "electoralDistricts": [
          {
            "election": null,
            "id": 90,
            "name": "St. Catharines"
          }
        ],
        "pollDivisionIds": [
          10141359
        ],
        "postalCode": "L2P2T9",
        "streetName": "CLAYBURN",
        "streetDirectionId": null,
        "streetTypeId": "AVE",
        "placeName": "ST CATHARINES",
        "streetNameDisplayText": "CLAYBURN AVE, ST CATHARINES"
      }
    ]
  },
  {
    "postal": "L2P2E6",
    "result": [
      {
        "electoralDistricts": [
          {
            "election": null,
            "id": 90,
            "name": "St. Catharines"
          }
        ],
        "pollDivisionIds": [
          10141359
        ],
        "postalCode": "L2P2E6",
        "streetName": "PRESTWICK",
        "streetDirectionId": null,
        "streetTypeId": "AVE",
        "placeName": "ST CATHARINES",
        "streetNameDisplayText": "PRESTWICK AVE, ST CATHARINES"
      }
    ]
  },
  {
    "postal": "L2P8Y1",
    "result": []
  },
  {
    "postal": "L2P0J5",
    "result": []
  },
  {
    "postal": "L2P4J1",
    "result": []
  },
  {
    "postal": "L2P1A5",
    "result": [
      {
        "electoralDistricts": [
          {
            "election": null,
            "id": 90,
            "name": "St. Catharines"
          }
        ],
        "pollDivisionIds": [
          10141363
        ],
        "postalCode": "L2P1A5",
        "streetName": "SEYMOUR",
        "streetDirectionId": null,
        "streetTypeId": "AVE",
        "placeName": "ST CATHARINES",
        "streetNameDisplayText": "SEYMOUR AVE, ST CATHARINES"
      }
    ]
  },
  {
    "postal": "L2P6Z6",
    "result": []
  },
  {
    "postal": "L2P5K4",
    "result": []
  },
  {
    "postal": "L2P7R9",
    "result": []
  },
  {
    "postal": "L2P6G4",
    "result": []
  }
]
