[
  {
    "postal": "P3A9J6",
    "result": []
  },
  {
    "postal": "P3A9Z5",
    "result": []
  },
  {
    "postal": "P3A7H8",
    "result": []
  },
  {
    "postal": "P3A0P6",
    "result": []
  },
  {
    "postal": "P3A0S7",
    "result": []
  },
  {
    "postal": "P3A8B9",
    "result": []
  },
  {
    "postal": "P3A2A6",
    "result": [
      {
        "electoralDistricts": [
          {
            "election": null,
            "id": 103,
            "name": "Sudbury"
          }
        ],
        "pollDivisionIds": [
          10142160
        ],
        "postalCode": "P3A2A6",
        "streetName": "LASALLE",
        "streetDirectionId": null,
        "streetTypeId": "BLVD",
        "placeName": "SUDBURY",
        "streetNameDisplayText": "LASALLE BLVD, SUDBURY"
      }
    ]
  },
  {
    "postal": "P3A7V2",
    "result": []
  },
  {
    "postal": "P3A9P4",
    "result": []
  },
  {
    "postal": "P3A6G0",
    "result": []
  },
  {
    "postal": "P3A2K0",
    "result": []
  },
  {
    "postal": "P3A7N6",
    "result": []
  },
  {
    "postal": "P3A5R3",
    "result": [
      {
        "electoralDistricts": [
          {
            "election": null,
            "id": 103,
            "name": "Sudbury"
          }
        ],
        "pollDivisionIds": [
          10142145
        ],
        "postalCode": "P3A5R3",
        "streetName": "PAQUETTE",
        "streetDirectionId": null,
        "streetTypeId": "ST",
        "placeName": "SUDBURY",
        "streetNameDisplayText": "PAQUETTE ST, SUDBURY"
      }
    ]
  },
  {
    "postal": "P3A7K0",
    "result": []
  },
  {
    "postal": "P3A3R2",
    "result": [
      {
        "electoralDistricts": [
          {
            "election": null,
            "id": 103,
            "name": "Sudbury"
          }
        ],
        "pollDivisionIds": [
          10142145
        ],
        "postalCode": "P3A3R2",
        "streetName": "HOLLAND",
        "streetDirectionId": null,
        "streetTypeId": "RD",
        "placeName": "SUDBURY",
        "streetNameDisplayText": "HOLLAND RD, SUDBURY"
      }
    ]
  },
  {
    "postal": "P3A0J1",
    "result": []
  },
  {
    "postal": "P3A0B0",
    "result": []
  },
  {
    "postal": "P3A5Z2",
    "result": []
  },
  {
    "postal": "P3A7P3",
    "result": []
  },
  {
    "postal": "P3A2K3",
    "result": [
      {
        "electoralDistricts": [
          {
            "election": null,
            "id": 103,
            "name": "Sudbury"
          }
        ],
        "pollDivisionIds": [
          10142146
        ],
        "postalCode": "P3A2K3",
        "streetName": "RUTHERGLEN",
        "streetDirectionId": null,
        "streetTypeId": "CRES",
        "placeName": "SUDBURY",
        "streetNameDisplayText": "RUTHERGLEN CRES, SUDBURY"
      }
    ]
  },
  {
    "postal": "P3A7Y6",
    "result": []
  },
  {
    "postal": "P3A1L9",
    "result": [
      {
        "electoralDistricts": [
          {
            "election": null,
            "id": 103,
            "name": "Sudbury"
          }
        ],
        "pollDivisionIds": [
          10142156
        ],
        "postalCode": "P3A1L9",
        "streetName": "HAWTHORNE",
        "streetDirectionId": null,
        "streetTypeId": "DR",
        "placeName": "SUDBURY",
        "streetNameDisplayText": "HAWTHORNE DR, SUDBURY"
      }
    ]
  },
  {
    "postal": "P3A8T0",
    "result": []
  },
  {
    "postal": "P3A3K8",
    "result": [
      {
        "electoralDistricts": [
          {
            "election": null,
            "id": 103,
            "name": "Sudbury"
          }
        ],
        "pollDivisionIds": [
          10142148
        ],
        "postalCode": "P3A3K8",
        "streetName": "BLENHEIM",
        "streetDirectionId": null,
        "streetTypeId": "AVE",
        "placeName": "SUDBURY",
        "streetNameDisplayText": "BLENHEIM AVE, SUDBURY"
      }
    ]
  },
  {
    "postal": "P3A5W9",
    "result": [
      {
        "electoralDistricts": [
          {
            "election": null,
            "id": 103,
            "name": "Sudbury"
          }
        ],
        "pollDivisionIds": [
          10142167
        ],
        "postalCode": "P3A5W9",
        "streetName": "ATTLEE",
        "streetDirectionId": null,
        "streetTypeId": "AVE",
        "placeName": "SUDBURY",
        "streetNameDisplayText": "ATTLEE AVE, SUDBURY"
      },
      {
        "electoralDistricts": [
          {
            "election": null,
            "id": 103,
            "name": "Sudbury"
          }
        ],
        "pollDivisionIds": [
          10142167
        ],
        "postalCode": "P3A5W9",
        "streetName": "SANTA MONICA",
        "streetDirectionId": null,
        "streetTypeId": "ST",
        "placeName": "SUDBURY",
        "streetNameDisplayText": "SANTA MONICA ST, SUDBURY"
      }
    ]
  },
  {
    "postal": "P3A6T9",
    "result": []
  },
  {
    "postal": "P3A4H1",
    "result": [
      {
        "electoralDistricts": [
          {
            "election": null,
            "id": 103,
            "name": "Sudbury"
          }
        ],
        "pollDivisionIds": [
          10142159
        ],
        "postalCode": "P3A4H1",
        "streetName": "DOLLARD",
        "streetDirectionId": null,
        "streetTypeId": "AVE",
        "placeName": "SUDBURY",
        "streetNameDisplayText": "DOLLARD AVE, SUDBURY"
      }
    ]
  },
  {
    "postal": "P3A7A2",
    "result": []
  },
  {
    "postal": "P3A5G0",
    "result": []
  },
  {
    "postal": "P3A8V5",
    "result": []
  },
  {
    "postal": "P3A2Y8",
    "result": [
      {
        "electoralDistricts": [
          {
            "election": null,
            "id": 103,
            "name": "Sudbury"
          }
        ],
        "pollDivisionIds": [
          10142147
        ],
        "postalCode": "P3A2Y8",
        "streetName": "MCALLISTER",
        "streetDirectionId": null,
        "streetTypeId": "AVE",
        "placeName": "SUDBURY",
        "streetNameDisplayText": "MCALLISTER AVE, SUDBURY"
      }
    ]
  },
  {
    "postal": "P3A2B6",
    "result": [
      {
        "electoralDistricts": [
          {
            "election": null,
            "id": 103,
            "name": "Sudbury"
          }
        ],
        "pollDivisionIds": [
          10142142
        ],
        "postalCode": "P3A2B6",
        "streetName": "LAVOIE",
        "streetDirectionId": null,
        "streetTypeId": "ST",
        "placeName": "SUDBURY",
        "streetNameDisplayText": "LAVOIE ST, SUDBURY"
      }
    ]
  },
  {
    "postal": "P3A4W8",
    "result": [
      {
        "electoralDistricts": [
          {
            "election": null,
            "id": 103,
            "name": "Sudbury"
          }
        ],
        "pollDivisionIds": [
          10142156
        ],
        "postalCode": "P3A4W8",
        "streetName": "HUNTINGTON",
        "streetDirectionId": null,
        "streetTypeId": "DR",
        "placeName": "SUDBURY",
        "streetNameDisplayText": "HUNTINGTON DR, SUDBURY"
      }
    ]
  },
  {
    "postal": "P3A8H7",
    "result": []
  },
  {
    "postal": "P3A5P1",
    "result": [
      {
        "electoralDistricts": [
          {
            "election": null,
            "id": 103,
            "name": "Sudbury"
          }
        ],
        "pollDivisionIds": [
          10142158
        ],
        "postalCode": "P3A5P1",
        "streetName": "HAVENBROOK",
        "streetDirectionId": null,
        "streetTypeId": "DR",
        "placeName": "SUDBURY",
        "streetNameDisplayText": "HAVENBROOK DR, SUDBURY"
      }
    ]
  },
  {
    "postal": "P3A2B8",
    "result": [
      {
        "electoralDistricts": [
          {
            "election": null,
            "id": 103,
            "name": "Sudbury"
          }
        ],
        "pollDivisionIds": [
          10142142
        ],
        "postalCode": "P3A2B8",
        "streetName": "LAVOIE",
        "streetDirectionId": null,
        "streetTypeId": "ST",
        "placeName": "SUDBURY",
        "streetNameDisplayText": "LAVOIE ST, SUDBURY"
      }
    ]
  },
  {
    "postal": "P3A0P2",
    "result": []
  },
  {
    "postal": "P3A9M1",
    "result": []
  },
  {
    "postal": "P3A3G0",
    "result": []
  },
  {
    "postal": "P3A9Z2",
    "result": []
  },
  {
    "postal": "P3A2A0",
    "result": []
  },
  {
    "postal": "P3A6Y0",
    "result": []
  },
  {
    "postal": "P3A2Z8",
    "result": [
      {
        "electoralDistricts": [
          {
            "election": null,
            "id": 103,
            "name": "Sudbury"
          }
        ],
        "pollDivisionIds": [
          10142147
        ],
        "postalCode": "P3A2Z8",
        "streetName": "MADELEINE",
        "streetDirectionId": null,
        "streetTypeId": "AVE",
        "placeName": "SUDBURY",
        "streetNameDisplayText": "MADELEINE AVE, SUDBURY"
      }
    ]
  },
  {
    "postal": "P3A7Y3",
    "result": []
  },
  {
    "postal": "P3A6Z5",
    "result": []
  },
  {
    "postal": "P3A6E0",
    "result": []
  },
  {
    "postal": "P3A9B7",
    "result": []
  },
  {
    "postal": "P3A9S5",
    "result": []
  },
  {
    "postal": "P3A3X3",
    "result": [
      {
        "electoralDistricts": [
          {
            "election": null,
            "id": 103,
            "name": "Sudbury"
          }
        ],
        "pollDivisionIds": [
          10142152
        ],
        "postalCode": "P3A3X3",
        "streetName": "HILDEGARDE",
        "streetDirectionId": null,
        "streetTypeId": "AVE",
        "placeName": "SUDBURY",
        "streetNameDisplayText": "HILDEGARDE AVE, SUDBURY"
      }
    ]
  },
  {
    "postal": "P3A7R5",
    "result": []
  },
  {
    "postal": "P3A2X3",
    "result": [
      {
        "electoralDistricts": [
          {
            "election": null,
            "id": 103,
            "name": "Sudbury"
          }
        ],
        "pollDivisionIds": [
          10142147
        ],
        "postalCode": "P3A2X3",
        "streetName": "MILLER",
        "streetDirectionId": null,
        "streetTypeId": "ST",
        "placeName": "SUDBURY",
        "streetNameDisplayText": "MILLER ST, SUDBURY"
      }
    ]
  },
  {
    "postal": "P3A8Z9",
    "result": []
  },
  {
    "postal": "P3A0N4",
    "result": []
  },
  {
    "postal": "P3A1K1",
    "result": [
      {
        "electoralDistricts": [
          {
            "election": null,
            "id": 103,
            "name": "Sudbury"
          }
        ],
        "pollDivisionIds": [
          10142148
        ],
        "postalCode": "P3A1K1",
        "streetName": "HAWTHORNE",
        "streetDirectionId": null,
        "streetTypeId": "DR",
        "placeName": "SUDBURY",
        "streetNameDisplayText": "HAWTHORNE DR, SUDBURY"
      }
    ]
  },
  {
    "postal": "P3A1S3",
    "result": [
      {
        "electoralDistricts": [
          {
            "election": null,
            "id": 103,
            "name": "Sudbury"
          }
        ],
        "pollDivisionIds": [
          10142160
        ],
        "postalCode": "P3A1S3",
        "streetName": "LAURIER",
        "streetDirectionId": null,
        "streetTypeId": "ST",
        "placeName": "SUDBURY",
        "streetNameDisplayText": "LAURIER ST, SUDBURY"
      }
    ]
  },
  {
    "postal": "P3A6M4",
    "result": []
  },
  {
    "postal": "P3A9A9",
    "result": []
  },
  {
    "postal": "P3A9Z9",
    "result": []
  },
  {
    "postal": "P3A6T4",
    "result": []
  },
  {
    "postal": "P3A0B2",
    "result": []
  },
  {
    "postal": "P3A2L9",
    "result": [
      {
        "electoralDistricts": [
          {
            "election": null,
            "id": 103,
            "name": "Sudbury"
          }
        ],
        "pollDivisionIds": [
          10142144
        ],
        "postalCode": "P3A2L9",
        "streetName": "WOODBINE",
        "streetDirectionId": null,
        "streetTypeId": "AVE",
        "placeName": "SUDBURY",
        "streetNameDisplayText": "WOODBINE AVE, SUDBURY"
      }
    ]
  },
  {
    "postal": "P3A8K9",
    "result": []
  },
  {
    "postal": "P3A2H9",
    "result": [
      {
        "electoralDistricts": [
          {
            "election": null,
            "id": 103,
            "name": "Sudbury"
          }
        ],
        "pollDivisionIds": [
          10142145
        ],
        "postalCode": "P3A2H9",
        "streetName": "LAMOTHE",
        "streetDirectionId": null,
        "streetTypeId": "ST",
        "placeName": "SUDBURY",
        "streetNameDisplayText": "LAMOTHE ST, SUDBURY"
      }
    ]
  },
  {
    "postal": "P3A3Z6",
    "result": [
      {
        "electoralDistricts": [
          {
            "election": null,
            "id": 103,
            "name": "Sudbury"
          }
        ],
        "pollDivisionIds": [
          10142154
        ],
        "postalCode": "P3A3Z6",
        "streetName": "CHURCHILL",
        "streetDirectionId": null,
        "streetTypeId": "AVE",
        "placeName": "SUDBURY",
        "streetNameDisplayText": "CHURCHILL AVE, SUDBURY"
      }
    ]
  },
  {
    "postal": "P3A3B0",
    "result": []
  },
  {
    "postal": "P3A2H8",
    "result": [
      {
        "electoralDistricts": [
          {
            "election": null,
            "id": 103,
            "name": "Sudbury"
          }
        ],
        "pollDivisionIds": [
          10142143
        ],
        "postalCode": "P3A2H8",
        "streetName": "MOSS",
        "streetDirectionId": null,
        "streetTypeId": "ST",
        "placeName": "SUDBURY",
        "streetNameDisplayText": "MOSS ST, SUDBURY"
      }
    ]
  },
  {
    "postal": "P3A3X2",
    "result": [
      {
        "electoralDistricts": [
          {
            "election": null,
            "id": 103,
            "name": "Sudbury"
          }
        ],
        "pollDivisionIds": [
          10142152
        ],
        "postalCode": "P3A3X2",
        "streetName": "SHARON",
        "streetDirectionId": null,
        "streetTypeId": "AVE",
        "placeName": "SUDBURY",
        "streetNameDisplayText": "SHARON AVE, SUDBURY"
      }
    ]
  },
  {
    "postal": "P3A2E9",
    "result": [
      {
        "electoralDistricts": [
          {
            "election": null,
            "id": 103,
            "name": "Sudbury"
          }
        ],
        "pollDivisionIds": [
          10142143
        ],
        "postalCode": "P3A2E9",
        "streetName": "NORMANDY",
        "streetDirectionId": null,
        "streetTypeId": "CRT",
        "placeName": "SUDBURY",
        "streetNameDisplayText": "NORMANDY CRT, SUDBURY"
      }
    ]
  },
  {
    "postal": "P3A9P6",
    "result": []
  },
  {
    "postal": "P3A9E2",
    "result": []
  },
  {
    "postal": "P3A9H2",
    "result": []
  },
  {
    "postal": "P3A1S8",
    "result": [
      {
        "electoralDistricts": [
          {
            "election": null,
            "id": 103,
            "name": "Sudbury"
          }
        ],
        "pollDivisionIds": [
          10142160
        ],
        "postalCode": "P3A1S8",
        "streetName": "HUDSON",
        "streetDirectionId": null,
        "streetTypeId": "ST",
        "placeName": "SUDBURY",
        "streetNameDisplayText": "HUDSON ST, SUDBURY"
      }
    ]
  },
  {
    "postal": "P3A3M6",
    "result": [
      {
        "electoralDistricts": [
          {
            "election": null,
            "id": 103,
            "name": "Sudbury"
          }
        ],
        "pollDivisionIds": [
          10142145
        ],
        "postalCode": "P3A3M6",
        "streetName": "ROY",
        "streetDirectionId": null,
        "streetTypeId": "AVE",
        "placeName": "SUDBURY",
        "streetNameDisplayText": "ROY AVE, SUDBURY"
      }
    ]
  },
  {
    "postal": "P3A6Z8",
    "result": []
  },
  {
    "postal": "P3A4J2",
    "result": [
      {
        "electoralDistricts": [
          {
            "election": null,
            "id": 103,
            "name": "Sudbury"
          }
        ],
        "pollDivisionIds": [
          10142159
        ],
        "postalCode": "P3A4J2",
        "streetName": "BRIAR",
        "streetDirectionId": null,
        "streetTypeId": "AVE",
        "placeName": "SUDBURY",
        "streetNameDisplayText": "BRIAR AVE, SUDBURY"
      }
    ]
  },
  {
    "postal": "P3A9Y1",
    "result": []
  },
  {
    "postal": "P3A8V6",
    "result": []
  },
  {
    "postal": "P3A6B2",
    "result": [
      {
        "electoralDistricts": [
          {
            "election": null,
            "id": 103,
            "name": "Sudbury"
          }
        ],
        "pollDivisionIds": [
          10142147
        ],
        "postalCode": "P3A6B2",
        "streetName": "NOTRE DAME",
        "streetDirectionId": null,
        "streetTypeId": "AVE",
        "placeName": "SUDBURY",
        "streetNameDisplayText": "NOTRE DAME AVE, SUDBURY"
      }
    ]
  },
  {
    "postal": "P3A1P8",
    "result": [
      {
        "electoralDistricts": [
          {
            "election": null,
            "id": 103,
            "name": "Sudbury"
          }
        ],
        "pollDivisionIds": [
          10142147
        ],
        "postalCode": "P3A1P8",
        "streetName": "ALEXANDER",
        "streetDirectionId": null,
        "streetTypeId": "ST",
        "placeName": "SUDBURY",
        "streetNameDisplayText": "ALEXANDER ST, SUDBURY"
      }
    ]
  },
  {
    "postal": "P3A0V8",
    "result": []
  },
  {
    "postal": "P3A4Y0",
    "result": []
  },
  {
    "postal": "P3A2T4",
    "result": [
      {
        "electoralDistricts": [
          {
            "election": null,
            "id": 103,
            "name": "Sudbury"
          }
        ],
        "pollDivisionIds": [
          10142203,
          10142147,
          10142135
        ],
        "postalCode": "P3A2T4",
        "streetName": "NOTRE DAME",
        "streetDirectionId": null,
        "streetTypeId": "AVE",
        "placeName": "SUDBURY",
        "streetNameDisplayText": "NOTRE DAME AVE, SUDBURY"
      }
    ]
  },
  {
    "postal": "P3A2S3",
    "result": [
      {
        "electoralDistricts": [
          {
            "election": null,
            "id": 103,
            "name": "Sudbury"
          }
        ],
        "pollDivisionIds": [
          10142144
        ],
        "postalCode": "P3A2S3",
        "streetName": "BALMORAL",
        "streetDirectionId": null,
        "streetTypeId": "DR",
        "placeName": "SUDBURY",
        "streetNameDisplayText": "BALMORAL DR, SUDBURY"
      },
      {
        "electoralDistricts": [
          {
            "election": null,
            "id": 103,
            "name": "Sudbury"
          }
        ],
        "pollDivisionIds": [
          10142131
        ],
        "postalCode": "P3A2S3",
        "streetName": "CLINTON",
        "streetDirectionId": null,
        "streetTypeId": "AVE",
        "placeName": "SUDBURY ONTARIO",
        "streetNameDisplayText": "CLINTON AVE, SUDBURY ONTARIO"
      }
    ]
  },
  {
    "postal": "P3A0K0",
    "result": []
  },
  {
    "postal": "P3A5N1",
    "result": [
      {
        "electoralDistricts": [
          {
            "election": null,
            "id": 103,
            "name": "Sudbury"
          }
        ],
        "pollDivisionIds": [
          10142200
        ],
        "postalCode": "P3A5N1",
        "streetName": "ARTHUR",
        "streetDirectionId": null,
        "streetTypeId": "ST",
        "placeName": "SUDBURY",
        "streetNameDisplayText": "ARTHUR ST, SUDBURY"
      }
    ]
  },
  {
    "postal": "P3A7T0",
    "result": []
  },
  {
    "postal": "P3A9N2",
    "result": []
  },
  {
    "postal": "P3A5L1",
    "result": []
  },
  {
    "postal": "P3A7G5",
    "result": []
  },
  {
    "postal": "P3A6K2",
    "result": []
  },
  {
    "postal": "P3A6P9",
    "result": []
  },
  {
    "postal": "P3A0E6",
    "result": []
  },
  {
    "postal": "P3A8R9",
    "result": []
  },
  {
    "postal": "P3A3G9",
    "result": [
      {
        "electoralDistricts": [
          {
            "election": null,
            "id": 103,
            "name": "Sudbury"
          }
        ],
        "pollDivisionIds": [
          10142147
        ],
        "postalCode": "P3A3G9",
        "streetName": "CARMEN",
        "streetDirectionId": null,
        "streetTypeId": "ST",
        "placeName": "SUDBURY",
        "streetNameDisplayText": "CARMEN ST, SUDBURY"
      }
    ]
  },
  {
    "postal": "P3A0V7",
    "result": []
  },
  {
    "postal": "P3A2Z1",
    "result": [
      {
        "electoralDistricts": [
          {
            "election": null,
            "id": 103,
            "name": "Sudbury"
          }
        ],
        "pollDivisionIds": [
          10142147
        ],
        "postalCode": "P3A2Z1",
        "streetName": "MARTIN",
        "streetDirectionId": null,
        "streetTypeId": "AVE",
        "placeName": "SUDBURY",
        "streetNameDisplayText": "MARTIN AVE, SUDBURY"
      }
    ]
  },
  {
    "postal": "P3A7N1",
    "result": []
  },
  {
    "postal": "P3A3C6",
    "result": [
      {
        "electoralDistricts": [
          {
            "election": null,
            "id": 103,
            "name": "Sudbury"
          }
        ],
        "pollDivisionIds": [
          10142147
        ],
        "postalCode": "P3A3C6",
        "streetName": "ARTHUR",
        "streetDirectionId": null,
        "streetTypeId": "ST",
        "placeName": "SUDBURY",
        "streetNameDisplayText": "ARTHUR ST, SUDBURY"
      }
    ]
  },
  {
    "postal": "P3A4M1",
    "result": [
      {
        "electoralDistricts": [
          {
            "election": null,
            "id": 103,
            "name": "Sudbury"
          }
        ],
        "pollDivisionIds": [
          10142160
        ],
        "postalCode": "P3A4M1",
        "streetName": "TALON",
        "streetDirectionId": null,
        "streetTypeId": "ST",
        "placeName": "SUDBURY",
        "streetNameDisplayText": "TALON ST, SUDBURY"
      }
    ]
  },
  {
    "postal": "P3A9K2",
    "result": []
  },
  {
    "postal": "P3A9S6",
    "result": []
  },
  {
    "postal": "P3A4X1",
    "result": [
      {
        "electoralDistricts": [
          {
            "election": null,
            "id": 103,
            "name": "Sudbury"
          }
        ],
        "pollDivisionIds": [
          10142145
        ],
        "postalCode": "P3A4X1",
        "streetName": "PRESTIGE",
        "streetDirectionId": null,
        "streetTypeId": "PL",
        "placeName": "SUDBURY",
        "streetNameDisplayText": "PRESTIGE PL, SUDBURY"
      }
    ]
  },
  {
    "postal": "P3A8W2",
    "result": []
  },
  {
    "postal": "P3A7N2",
    "result": []
  },
  {
    "postal": "P3A8S3",
    "result": []
  },
  {
    "postal": "P3A4V0",
    "result": []
  },
  {
    "postal": "P3A6W4",
    "result": []
  },
  {
    "postal": "P3A5M1",
    "result": [
      {
        "electoralDistricts": [
          {
            "election": null,
            "id": 103,
            "name": "Sudbury"
          }
        ],
        "pollDivisionIds": [
          10142148
        ],
        "postalCode": "P3A5M1",
        "streetName": "ATTLEE",
        "streetDirectionId": null,
        "streetTypeId": "AVE",
        "placeName": "SUDBURY",
        "streetNameDisplayText": "ATTLEE AVE, SUDBURY"
      }
    ]
  },
  {
    "postal": "P3A0S4",
    "result": []
  },
  {
    "postal": "P3A5X6",
    "result": [
      {
        "electoralDistricts": [
          {
            "election": null,
            "id": 103,
            "name": "Sudbury"
          }
        ],
        "pollDivisionIds": [
          10142140
        ],
        "postalCode": "P3A5X6",
        "streetName": "TURNER",
        "streetDirectionId": null,
        "streetTypeId": "AVE",
        "placeName": "SUDBURY",
        "streetNameDisplayText": "TURNER AVE, SUDBURY"
      }
    ]
  },
  {
    "postal": "P3A8L5",
    "result": []
  },
  {
    "postal": "P3A5M8",
    "result": [
      {
        "electoralDistricts": [
          {
            "election": null,
            "id": 103,
            "name": "Sudbury"
          }
        ],
        "pollDivisionIds": [
          10142159
        ],
        "postalCode": "P3A5M8",
        "streetName": "ROBIN",
        "streetDirectionId": null,
        "streetTypeId": "ST",
        "placeName": "SUDBURY",
        "streetNameDisplayText": "ROBIN ST, SUDBURY"
      }
    ]
  },
  {
    "postal": "P3A2G3",
    "result": [
      {
        "electoralDistricts": [
          {
            "election": null,
            "id": 103,
            "name": "Sudbury"
          }
        ],
        "pollDivisionIds": [
          10142146
        ],
        "postalCode": "P3A2G3",
        "streetName": "KELVIN",
        "streetDirectionId": null,
        "streetTypeId": "ST",
        "placeName": "SUDBURY",
        "streetNameDisplayText": "KELVIN ST, SUDBURY"
      }
    ]
  },
  {
    "postal": "P3A8E4",
    "result": []
  },
  {
    "postal": "P3A7S9",
    "result": []
  },
  {
    "postal": "P3A1K3",
    "result": [
      {
        "electoralDistricts": [
          {
            "election": null,
            "id": 103,
            "name": "Sudbury"
          }
        ],
        "pollDivisionIds": [
          10142148
        ],
        "postalCode": "P3A1K3",
        "streetName": "HAWTHORNE",
        "streetDirectionId": null,
        "streetTypeId": "DR",
        "placeName": "SUDBURY",
        "streetNameDisplayText": "HAWTHORNE DR, SUDBURY"
      }
    ]
  },
  {
    "postal": "P3A4E1",
    "result": [
      {
        "electoralDistricts": [
          {
            "election": null,
            "id": 103,
            "name": "Sudbury"
          }
        ],
        "pollDivisionIds": [
          10142159
        ],
        "postalCode": "P3A4E1",
        "streetName": "LANSING",
        "streetDirectionId": null,
        "streetTypeId": "AVE",
        "placeName": "SUDBURY",
        "streetNameDisplayText": "LANSING AVE, SUDBURY"
      }
    ]
  },
  {
    "postal": "P3A4R2",
    "result": [
      {
        "electoralDistricts": [
          {
            "election": null,
            "id": 103,
            "name": "Sudbury"
          }
        ],
        "pollDivisionIds": [
          10142160
        ],
        "postalCode": "P3A4R2",
        "streetName": "PAPINEAU",
        "streetDirectionId": null,
        "streetTypeId": "CRES",
        "placeName": "SUDBURY",
        "streetNameDisplayText": "PAPINEAU CRES, SUDBURY"
      }
    ]
  },
  {
    "postal": "P3A6T0",
    "result": []
  },
  {
    "postal": "P3A3K5",
    "result": [
      {
        "electoralDistricts": [
          {
            "election": null,
            "id": 103,
            "name": "Sudbury"
          }
        ],
        "pollDivisionIds": [
          10142148
        ],
        "postalCode": "P3A3K5",
        "streetName": "MAUREEN",
        "streetDirectionId": null,
        "streetTypeId": "CRES",
        "placeName": "SUDBURY",
        "streetNameDisplayText": "MAUREEN CRES, SUDBURY"
      }
    ]
  },
  {
    "postal": "P3A3S3",
    "result": [
      {
        "electoralDistricts": [
          {
            "election": null,
            "id": 103,
            "name": "Sudbury"
          }
        ],
        "pollDivisionIds": [
          10142145
        ],
        "postalCode": "P3A3S3",
        "streetName": "LINCOLN",
        "streetDirectionId": null,
        "streetTypeId": "RD",
        "placeName": "SUDBURY",
        "streetNameDisplayText": "LINCOLN RD, SUDBURY"
      }
    ]
  },
  {
    "postal": "P3A3L4",
    "result": [
      {
        "electoralDistricts": [
          {
            "election": null,
            "id": 103,
            "name": "Sudbury"
          }
        ],
        "pollDivisionIds": [
          10142145
        ],
        "postalCode": "P3A3L4",
        "streetName": "LEON",
        "streetDirectionId": null,
        "streetTypeId": "AVE",
        "placeName": "SUDBURY",
        "streetNameDisplayText": "LEON AVE, SUDBURY"
      }
    ]
  },
  {
    "postal": "P3A9Y2",
    "result": []
  },
  {
    "postal": "P3A1E0",
    "result": []
  },
  {
    "postal": "P3A9A4",
    "result": []
  },
  {
    "postal": "P3A1L3",
    "result": [
      {
        "electoralDistricts": [
          {
            "election": null,
            "id": 103,
            "name": "Sudbury"
          }
        ],
        "pollDivisionIds": [
          10142148
        ],
        "postalCode": "P3A1L3",
        "streetName": "HAWTHORNE",
        "streetDirectionId": null,
        "streetTypeId": "DR",
        "placeName": "SUDBURY",
        "streetNameDisplayText": "HAWTHORNE DR, SUDBURY"
      }
    ]
  },
  {
    "postal": "P3A6N1",
    "result": []
  },
  {
    "postal": "P3A6G7",
    "result": []
  },
  {
    "postal": "P3A7W1",
    "result": []
  },
  {
    "postal": "P3A4M6",
    "result": [
      {
        "electoralDistricts": [
          {
            "election": null,
            "id": 103,
            "name": "Sudbury"
          }
        ],
        "pollDivisionIds": [
          10142159
        ],
        "postalCode": "P3A4M6",
        "streetName": "EASTERN",
        "streetDirectionId": null,
        "streetTypeId": "AVE",
        "placeName": "SUDBURY",
        "streetNameDisplayText": "EASTERN AVE, SUDBURY"
      }
    ]
  },
  {
    "postal": "P3A1K0",
    "result": []
  },
  {
    "postal": "P3A3E2",
    "result": [
      {
        "electoralDistricts": [
          {
            "election": null,
            "id": 103,
            "name": "Sudbury"
          }
        ],
        "pollDivisionIds": [
          10142143
        ],
        "postalCode": "P3A3E2",
        "streetName": "WEDGEWOOD",
        "streetDirectionId": null,
        "streetTypeId": "DR",
        "placeName": "SUDBURY",
        "streetNameDisplayText": "WEDGEWOOD DR, SUDBURY"
      }
    ]
  },
  {
    "postal": "P3A5H4",
    "result": [
      {
        "electoralDistricts": [
          {
            "election": null,
            "id": 103,
            "name": "Sudbury"
          }
        ],
        "pollDivisionIds": [
          10142167
        ],
        "postalCode": "P3A5H4",
        "streetName": "MANCHESTER",
        "streetDirectionId": null,
        "streetTypeId": "CRES",
        "placeName": "SUDBURY",
        "streetNameDisplayText": "MANCHESTER CRES, SUDBURY"
      }
    ]
  },
  {
    "postal": "P3A1K7",
    "result": [
      {
        "electoralDistricts": [
          {
            "election": null,
            "id": 103,
            "name": "Sudbury"
          }
        ],
        "pollDivisionIds": [
          10142148
        ],
        "postalCode": "P3A1K7",
        "streetName": "HAWTHORNE",
        "streetDirectionId": null,
        "streetTypeId": "DR",
        "placeName": "SUDBURY",
        "streetNameDisplayText": "HAWTHORNE DR, SUDBURY"
      }
    ]
  },
  {
    "postal": "P3A0H0",
    "result": []
  },
  {
    "postal": "P3A0J3",
    "result": []
  },
  {
    "postal": "P3A1X6",
    "result": []
  },
  {
    "postal": "P3A2Z6",
    "result": [
      {
        "electoralDistricts": [
          {
            "election": null,
            "id": 103,
            "name": "Sudbury"
          }
        ],
        "pollDivisionIds": [
          10142147
        ],
        "postalCode": "P3A2Z6",
        "streetName": "MARTIN",
        "streetDirectionId": null,
        "streetTypeId": "AVE",
        "placeName": "SUDBURY",
        "streetNameDisplayText": "MARTIN AVE, SUDBURY"
      }
    ]
  },
  {
    "postal": "P3A4R9",
    "result": []
  },
  {
    "postal": "P3A0W8",
    "result": []
  },
  {
    "postal": "P3A1L4",
    "result": [
      {
        "electoralDistricts": [
          {
            "election": null,
            "id": 103,
            "name": "Sudbury"
          }
        ],
        "pollDivisionIds": [
          10142152
        ],
        "postalCode": "P3A1L4",
        "streetName": "HAWTHORNE",
        "streetDirectionId": null,
        "streetTypeId": "DR",
        "placeName": "SUDBURY",
        "streetNameDisplayText": "HAWTHORNE DR, SUDBURY"
      }
    ]
  },
  {
    "postal": "P3A0C8",
    "result": []
  },
  {
    "postal": "P3A9X7",
    "result": []
  },
  {
    "postal": "P3A4T1",
    "result": [
      {
        "electoralDistricts": [
          {
            "election": null,
            "id": 103,
            "name": "Sudbury"
          }
        ],
        "pollDivisionIds": [
          10142154
        ],
        "postalCode": "P3A4T1",
        "streetName": "AUGER",
        "streetDirectionId": null,
        "streetTypeId": "AVE",
        "placeName": "SUDBURY",
        "streetNameDisplayText": "AUGER AVE, SUDBURY"
      }
    ]
  },
  {
    "postal": "P3A0M0",
    "result": []
  },
  {
    "postal": "P3A6A2",
    "result": [
      {
        "electoralDistricts": [
          {
            "election": null,
            "id": 103,
            "name": "Sudbury"
          }
        ],
        "pollDivisionIds": [
          10142156
        ],
        "postalCode": "P3A6A2",
        "streetName": "FIELDING",
        "streetDirectionId": null,
        "streetTypeId": "ST",
        "placeName": "SUDBURY",
        "streetNameDisplayText": "FIELDING ST, SUDBURY"
      }
    ]
  },
  {
    "postal": "P3A9S8",
    "result": []
  },
  {
    "postal": "P3A9T4",
    "result": []
  },
  {
    "postal": "P3A9Y4",
    "result": []
  },
  {
    "postal": "P3A6G5",
    "result": []
  },
  {
    "postal": "P3A6H9",
    "result": []
  },
  {
    "postal": "P3A2P3",
    "result": [
      {
        "electoralDistricts": [
          {
            "election": null,
            "id": 103,
            "name": "Sudbury"
          }
        ],
        "pollDivisionIds": [
          10142159
        ],
        "postalCode": "P3A2P3",
        "streetName": "MADISON",
        "streetDirectionId": null,
        "streetTypeId": "AVE",
        "placeName": "SUDBURY",
        "streetNameDisplayText": "MADISON AVE, SUDBURY"
      }
    ]
  },
  {
    "postal": "P3A1T6",
    "result": [
      {
        "electoralDistricts": [
          {
            "election": null,
            "id": 103,
            "name": "Sudbury"
          }
        ],
        "pollDivisionIds": [
          10142147
        ],
        "postalCode": "P3A1T6",
        "streetName": "MAIN",
        "streetDirectionId": null,
        "streetTypeId": "ST",
        "placeName": "SUDBURY",
        "streetNameDisplayText": "MAIN ST, SUDBURY"
      }
    ]
  },
  {
    "postal": "P3A4P6",
    "result": [
      {
        "electoralDistricts": [
          {
            "election": null,
            "id": 103,
            "name": "Sudbury"
          }
        ],
        "pollDivisionIds": [
          10142160
        ],
        "postalCode": "P3A4P6",
        "streetName": "CARMELO",
        "streetDirectionId": null,
        "streetTypeId": "AVE",
        "placeName": "SUDBURY",
        "streetNameDisplayText": "CARMELO AVE, SUDBURY"
      }
    ]
  },
  {
    "postal": "P3A3K1",
    "result": [
      {
        "electoralDistricts": [
          {
            "election": null,
            "id": 103,
            "name": "Sudbury"
          }
        ],
        "pollDivisionIds": [
          10142144
        ],
        "postalCode": "P3A3K1",
        "streetName": "AGINCOURT",
        "streetDirectionId": null,
        "streetTypeId": "AVE",
        "placeName": "SUDBURY",
        "streetNameDisplayText": "AGINCOURT AVE, SUDBURY"
      }
    ]
  },
  {
    "postal": "P3A6X4",
    "result": []
  },
  {
    "postal": "P3A4M8",
    "result": [
      {
        "electoralDistricts": [
          {
            "election": null,
            "id": 103,
            "name": "Sudbury"
          }
        ],
        "pollDivisionIds": [
          10142160
        ],
        "postalCode": "P3A4M8",
        "streetName": "FALCONBRIDGE",
        "streetDirectionId": null,
        "streetTypeId": "RD",
        "placeName": "SUDBURY",
        "streetNameDisplayText": "FALCONBRIDGE RD, SUDBURY"
      }
    ]
  },
  {
    "postal": "P3A2Y1",
    "result": [
      {
        "electoralDistricts": [
          {
            "election": null,
            "id": 103,
            "name": "Sudbury"
          }
        ],
        "pollDivisionIds": [
          10142142
        ],
        "postalCode": "P3A2Y1",
        "streetName": "DRUMMOND",
        "streetDirectionId": null,
        "streetTypeId": "AVE",
        "placeName": "SUDBURY",
        "streetNameDisplayText": "DRUMMOND AVE, SUDBURY"
      }
    ]
  },
  {
    "postal": "P3A6M1",
    "result": []
  },
  {
    "postal": "P3A5L8",
    "result": [
      {
        "electoralDistricts": [
          {
            "election": null,
            "id": 103,
            "name": "Sudbury"
          }
        ],
        "pollDivisionIds": [
          10142147
        ],
        "postalCode": "P3A5L8",
        "streetName": "ARTHUR",
        "streetDirectionId": null,
        "streetTypeId": "ST",
        "placeName": "SUDBURY",
        "streetNameDisplayText": "ARTHUR ST, SUDBURY"
      }
    ]
  },
  {
    "postal": "P3A3P6",
    "result": [
      {
        "electoralDistricts": [
          {
            "election": null,
            "id": 103,
            "name": "Sudbury"
          }
        ],
        "pollDivisionIds": [
          10142144,
          10142145
        ],
        "postalCode": "P3A3P6",
        "streetName": "KINGSLEA",
        "streetDirectionId": null,
        "streetTypeId": "CRT",
        "placeName": "SUDBURY",
        "streetNameDisplayText": "KINGSLEA CRT, SUDBURY"
      }
    ]
  },
  {
    "postal": "P3A9A5",
    "result": []
  },
  {
    "postal": "P3A7K1",
    "result": []
  },
  {
    "postal": "P3A3J4",
    "result": [
      {
        "electoralDistricts": [
          {
            "election": null,
            "id": 103,
            "name": "Sudbury"
          }
        ],
        "pollDivisionIds": [
          10142147
        ],
        "postalCode": "P3A3J4",
        "streetName": "ATTLEE",
        "streetDirectionId": null,
        "streetTypeId": "AVE",
        "placeName": "SUDBURY",
        "streetNameDisplayText": "ATTLEE AVE, SUDBURY"
      }
    ]
  },
  {
    "postal": "P3A5E7",
    "result": [
      {
        "electoralDistricts": [
          {
            "election": null,
            "id": 103,
            "name": "Sudbury"
          }
        ],
        "pollDivisionIds": [
          10142156
        ],
        "postalCode": "P3A5E7",
        "streetName": "GARDEN",
        "streetDirectionId": null,
        "streetTypeId": "ST",
        "placeName": "SUDBURY",
        "streetNameDisplayText": "GARDEN ST, SUDBURY"
      }
    ]
  },
  {
    "postal": "P3A3A7",
    "result": [
      {
        "electoralDistricts": [
          {
            "election": null,
            "id": 103,
            "name": "Sudbury"
          }
        ],
        "pollDivisionIds": [
          10142142
        ],
        "postalCode": "P3A3A7",
        "streetName": "RIDEAU",
        "streetDirectionId": null,
        "streetTypeId": "ST",
        "placeName": "SUDBURY",
        "streetNameDisplayText": "RIDEAU ST, SUDBURY"
      }
    ]
  },
  {
    "postal": "P3A1B9",
    "result": [
      {
        "electoralDistricts": [
          {
            "election": null,
            "id": 103,
            "name": "Sudbury"
          }
        ],
        "pollDivisionIds": [
          10142153
        ],
        "postalCode": "P3A1B9",
        "streetName": "WESTMOUNT",
        "streetDirectionId": null,
        "streetTypeId": "AVE",
        "placeName": "SUDBURY",
        "streetNameDisplayText": "WESTMOUNT AVE, SUDBURY"
      }
    ]
  },
  {
    "postal": "P3A9E8",
    "result": []
  },
  {
    "postal": "P3A1C9",
    "result": [
      {
        "electoralDistricts": [
          {
            "election": null,
            "id": 103,
            "name": "Sudbury"
          }
        ],
        "pollDivisionIds": [
          10142153
        ],
        "postalCode": "P3A1C9",
        "streetName": "KINGSTON",
        "streetDirectionId": null,
        "streetTypeId": "CRT",
        "placeName": "SUDBURY",
        "streetNameDisplayText": "KINGSTON CRT, SUDBURY"
      }
    ]
  },
  {
    "postal": "P3A3B5",
    "result": [
      {
        "electoralDistricts": [
          {
            "election": null,
            "id": 103,
            "name": "Sudbury"
          }
        ],
        "pollDivisionIds": [
          10142142
        ],
        "postalCode": "P3A3B5",
        "streetName": "PARISIEN",
        "streetDirectionId": null,
        "streetTypeId": "AVE",
        "placeName": "SUDBURY",
        "streetNameDisplayText": "PARISIEN AVE, SUDBURY"
      }
    ]
  },
  {
    "postal": "P3A8R0",
    "result": []
  },
  {
    "postal": "P3A3P2",
    "result": [
      {
        "electoralDistricts": [
          {
            "election": null,
            "id": 103,
            "name": "Sudbury"
          }
        ],
        "pollDivisionIds": [
          10142145
        ],
        "postalCode": "P3A3P2",
        "streetName": "ARVO",
        "streetDirectionId": null,
        "streetTypeId": "AVE",
        "placeName": "SUDBURY",
        "streetNameDisplayText": "ARVO AVE, SUDBURY"
      }
    ]
  },
  {
    "postal": "P3A5V4",
    "result": [
      {
        "electoralDistricts": [
          {
            "election": null,
            "id": 103,
            "name": "Sudbury"
          }
        ],
        "pollDivisionIds": [
          10142167
        ],
        "postalCode": "P3A5V4",
        "streetName": "WESTMOUNT",
        "streetDirectionId": null,
        "streetTypeId": "AVE",
        "placeName": "SUDBURY",
        "streetNameDisplayText": "WESTMOUNT AVE, SUDBURY"
      }
    ]
  },
  {
    "postal": "P3A4H0",
    "result": []
  },
  {
    "postal": "P3A4S7",
    "result": [
      {
        "electoralDistricts": [
          {
            "election": null,
            "id": 103,
            "name": "Sudbury"
          }
        ],
        "pollDivisionIds": [
          10142144
        ],
        "postalCode": "P3A4S7",
        "streetName": "SHELLEY",
        "streetDirectionId": null,
        "streetTypeId": "DR",
        "placeName": "SUDBURY",
        "streetNameDisplayText": "SHELLEY DR, SUDBURY"
      }
    ]
  },
  {
    "postal": "P3A6C2",
    "result": [
      {
        "electoralDistricts": [
          {
            "election": null,
            "id": 103,
            "name": "Sudbury"
          }
        ],
        "pollDivisionIds": [
          10142147
        ],
        "postalCode": "P3A6C2",
        "streetName": "NOTRE DAME",
        "streetDirectionId": null,
        "streetTypeId": "AVE",
        "placeName": "SUDBURY",
        "streetNameDisplayText": "NOTRE DAME AVE, SUDBURY"
      }
    ]
  },
  {
    "postal": "P3A8W3",
    "result": []
  },
  {
    "postal": "P3A4M5",
    "result": [
      {
        "electoralDistricts": [
          {
            "election": null,
            "id": 103,
            "name": "Sudbury"
          }
        ],
        "pollDivisionIds": [
          10142159
        ],
        "postalCode": "P3A4M5",
        "streetName": "GRENOBLE",
        "streetDirectionId": null,
        "streetTypeId": "ST",
        "placeName": "SUDBURY",
        "streetNameDisplayText": "GRENOBLE ST, SUDBURY"
      }
    ]
  },
  {
    "postal": "P3A5T1",
    "result": [
      {
        "electoralDistricts": [
          {
            "election": null,
            "id": 103,
            "name": "Sudbury"
          }
        ],
        "pollDivisionIds": [
          10142158
        ],
        "postalCode": "P3A5T1",
        "streetName": "COVEWOOD",
        "streetDirectionId": null,
        "streetTypeId": "CRES",
        "placeName": "SUDBURY",
        "streetNameDisplayText": "COVEWOOD CRES, SUDBURY"
      }
    ]
  },
  {
    "postal": "P3A3B3",
    "result": [
      {
        "electoralDistricts": [
          {
            "election": null,
            "id": 103,
            "name": "Sudbury"
          }
        ],
        "pollDivisionIds": [
          10142147
        ],
        "postalCode": "P3A3B3",
        "streetName": "LASALLE",
        "streetDirectionId": null,
        "streetTypeId": "BLVD",
        "placeName": "SUDBURY",
        "streetNameDisplayText": "LASALLE BLVD, SUDBURY"
      }
    ]
  },
  {
    "postal": "P3A6C6",
    "result": [
      {
        "electoralDistricts": [
          {
            "election": null,
            "id": 103,
            "name": "Sudbury"
          }
        ],
        "pollDivisionIds": [
          10142158
        ],
        "postalCode": "P3A6C6",
        "streetName": "MANHATTAN",
        "streetDirectionId": null,
        "streetTypeId": "CRES",
        "placeName": "SUDBURY",
        "streetNameDisplayText": "MANHATTAN CRES, SUDBURY"
      },
      {
        "electoralDistricts": [
          {
            "election": null,
            "id": 103,
            "name": "Sudbury"
          }
        ],
        "pollDivisionIds": [
          10142158
        ],
        "postalCode": "P3A6C6",
        "streetName": "MANHATTAN",
        "streetDirectionId": null,
        "streetTypeId": "CRT",
        "placeName": "SUDBURY",
        "streetNameDisplayText": "MANHATTAN CRT, SUDBURY"
      }
    ]
  },
  {
    "postal": "P3A7N8",
    "result": []
  },
  {
    "postal": "P3A2Y3",
    "result": [
      {
        "electoralDistricts": [
          {
            "election": null,
            "id": 103,
            "name": "Sudbury"
          }
        ],
        "pollDivisionIds": [
          10142142
        ],
        "postalCode": "P3A2Y3",
        "streetName": "DRUMMOND",
        "streetDirectionId": null,
        "streetTypeId": "AVE",
        "placeName": "SUDBURY",
        "streetNameDisplayText": "DRUMMOND AVE, SUDBURY"
      }
    ]
  },
  {
    "postal": "P3A2R6",
    "result": [
      {
        "electoralDistricts": [
          {
            "election": null,
            "id": 103,
            "name": "Sudbury"
          }
        ],
        "pollDivisionIds": [
          10142144
        ],
        "postalCode": "P3A2R6",
        "streetName": "HASTINGS",
        "streetDirectionId": null,
        "streetTypeId": "CRES",
        "placeName": "SUDBURY",
        "streetNameDisplayText": "HASTINGS CRES, SUDBURY"
      }
    ]
  },
  {
    "postal": "P3A7N3",
    "result": []
  },
  {
    "postal": "P3A8J2",
    "result": []
  },
  {
    "postal": "P3A6A9",
    "result": [
      {
        "electoralDistricts": [
          {
            "election": null,
            "id": 103,
            "name": "Sudbury"
          }
        ],
        "pollDivisionIds": [
          10142158
        ],
        "postalCode": "P3A6A9",
        "streetName": "VALLEYSTREAM",
        "streetDirectionId": null,
        "streetTypeId": "DR",
        "placeName": "SUDBURY",
        "streetNameDisplayText": "VALLEYSTREAM DR, SUDBURY"
      }
    ]
  },
  {
    "postal": "P3A3V2",
    "result": [
      {
        "electoralDistricts": [
          {
            "election": null,
            "id": 103,
            "name": "Sudbury"
          }
        ],
        "pollDivisionIds": [
          10142152
        ],
        "postalCode": "P3A3V2",
        "streetName": "BARRYDOWNE",
        "streetDirectionId": null,
        "streetTypeId": "RD",
        "placeName": "SUDBURY",
        "streetNameDisplayText": "BARRYDOWNE RD, SUDBURY"
      }
    ]
  },
  {
    "postal": "P3A2N3",
    "result": [
      {
        "electoralDistricts": [
          {
            "election": null,
            "id": 103,
            "name": "Sudbury"
          }
        ],
        "pollDivisionIds": [
          10142160
        ],
        "postalCode": "P3A2N3",
        "streetName": "JOSEPHINE",
        "streetDirectionId": null,
        "streetTypeId": "ST",
        "placeName": "SUDBURY",
        "streetNameDisplayText": "JOSEPHINE ST, SUDBURY"
      }
    ]
  },
  {
    "postal": "P3A1S5",
    "result": [
      {
        "electoralDistricts": [
          {
            "election": null,
            "id": 103,
            "name": "Sudbury"
          }
        ],
        "pollDivisionIds": [
          10142160
        ],
        "postalCode": "P3A1S5",
        "streetName": "HUDSON",
        "streetDirectionId": null,
        "streetTypeId": "ST",
        "placeName": "SUDBURY",
        "streetNameDisplayText": "HUDSON ST, SUDBURY"
      }
    ]
  },
  {
    "postal": "P3A4T7",
    "result": [
      {
        "electoralDistricts": [
          {
            "election": null,
            "id": 103,
            "name": "Sudbury"
          }
        ],
        "pollDivisionIds": [
          10142142
        ],
        "postalCode": "P3A4T7",
        "streetName": "GRANDVIEW",
        "streetDirectionId": null,
        "streetTypeId": "BLVD",
        "placeName": "SUDBURY",
        "streetNameDisplayText": "GRANDVIEW BLVD, SUDBURY"
      }
    ]
  },
  {
    "postal": "P3A6Y7",
    "result": []
  },
  {
    "postal": "P3A0W7",
    "result": []
  },
  {
    "postal": "P3A2W9",
    "result": [
      {
        "electoralDistricts": [
          {
            "election": null,
            "id": 103,
            "name": "Sudbury"
          }
        ],
        "pollDivisionIds": [
          10142147
        ],
        "postalCode": "P3A2W9",
        "streetName": "MILLER",
        "streetDirectionId": null,
        "streetTypeId": "ST",
        "placeName": "SUDBURY",
        "streetNameDisplayText": "MILLER ST, SUDBURY"
      }
    ]
  },
  {
    "postal": "P3A8V0",
    "result": []
  },
  {
    "postal": "P3A0H4",
    "result": []
  },
  {
    "postal": "P3A2T1",
    "result": [
      {
        "electoralDistricts": [
          {
            "election": null,
            "id": 103,
            "name": "Sudbury"
          }
        ],
        "pollDivisionIds": [
          10142159
        ],
        "postalCode": "P3A2T1",
        "streetName": "ROBIN",
        "streetDirectionId": null,
        "streetTypeId": "ST",
        "placeName": "SUDBURY",
        "streetNameDisplayText": "ROBIN ST, SUDBURY"
      }
    ]
  },
  {
    "postal": "P3A1B1",
    "result": [
      {
        "electoralDistricts": [
          {
            "election": null,
            "id": 103,
            "name": "Sudbury"
          }
        ],
        "pollDivisionIds": [
          10142155
        ],
        "postalCode": "P3A1B1",
        "streetName": "WESTMOUNT",
        "streetDirectionId": null,
        "streetTypeId": "AVE",
        "placeName": "SUDBURY",
        "streetNameDisplayText": "WESTMOUNT AVE, SUDBURY"
      }
    ]
  },
  {
    "postal": "P3A8B6",
    "result": []
  },
  {
    "postal": "P3A6H1",
    "result": []
  },
  {
    "postal": "P3A8T8",
    "result": []
  },
  {
    "postal": "P3A0T4",
    "result": []
  },
  {
    "postal": "P3A2C4",
    "result": [
      {
        "electoralDistricts": [
          {
            "election": null,
            "id": 103,
            "name": "Sudbury"
          }
        ],
        "pollDivisionIds": [
          10142143
        ],
        "postalCode": "P3A2C4",
        "streetName": "ROLAND",
        "streetDirectionId": null,
        "streetTypeId": "ST",
        "placeName": "SUDBURY",
        "streetNameDisplayText": "ROLAND ST, SUDBURY"
      }
    ]
  },
  {
    "postal": "P3A8N3",
    "result": []
  },
  {
    "postal": "P3A4L8",
    "result": [
      {
        "electoralDistricts": [
          {
            "election": null,
            "id": 103,
            "name": "Sudbury"
          }
        ],
        "pollDivisionIds": [
          10142159
        ],
        "postalCode": "P3A4L8",
        "streetName": "CARLING",
        "streetDirectionId": null,
        "streetTypeId": "CRES",
        "placeName": "SUDBURY",
        "streetNameDisplayText": "CARLING CRES, SUDBURY"
      }
    ]
  },
  {
    "postal": "P3A2B5",
    "result": [
      {
        "electoralDistricts": [
          {
            "election": null,
            "id": 103,
            "name": "Sudbury"
          }
        ],
        "pollDivisionIds": [
          10142142
        ],
        "postalCode": "P3A2B5",
        "streetName": "LAVOIE",
        "streetDirectionId": null,
        "streetTypeId": "ST",
        "placeName": "SUDBURY",
        "streetNameDisplayText": "LAVOIE ST, SUDBURY"
      }
    ]
  },
  {
    "postal": "P3A3H1",
    "result": [
      {
        "electoralDistricts": [
          {
            "election": null,
            "id": 103,
            "name": "Sudbury"
          }
        ],
        "pollDivisionIds": [
          10142147
        ],
        "postalCode": "P3A3H1",
        "streetName": "CARMEN",
        "streetDirectionId": null,
        "streetTypeId": "ST",
        "placeName": "SUDBURY",
        "streetNameDisplayText": "CARMEN ST, SUDBURY"
      }
    ]
  },
  {
    "postal": "P3A4Y1",
    "result": [
      {
        "electoralDistricts": [
          {
            "election": null,
            "id": 103,
            "name": "Sudbury"
          }
        ],
        "pollDivisionIds": [
          10142148
        ],
        "postalCode": "P3A4Y1",
        "streetName": "WILLIAM",
        "streetDirectionId": null,
        "streetTypeId": "AVE",
        "placeName": "SUDBURY",
        "streetNameDisplayText": "WILLIAM AVE, SUDBURY"
      }
    ]
  },
  {
    "postal": "P3A7E2",
    "result": []
  },
  {
    "postal": "P3A2P5",
    "result": [
      {
        "electoralDistricts": [
          {
            "election": null,
            "id": 103,
            "name": "Sudbury"
          }
        ],
        "pollDivisionIds": [
          10142159
        ],
        "postalCode": "P3A2P5",
        "streetName": "MADISON",
        "streetDirectionId": null,
        "streetTypeId": "AVE",
        "placeName": "SUDBURY",
        "streetNameDisplayText": "MADISON AVE, SUDBURY"
      }
    ]
  },
  {
    "postal": "P3A8R7",
    "result": []
  },
  {
    "postal": "P3A9P1",
    "result": []
  },
  {
    "postal": "P3A3B8",
    "result": [
      {
        "electoralDistricts": [
          {
            "election": null,
            "id": 103,
            "name": "Sudbury"
          }
        ],
        "pollDivisionIds": [
          10142143
        ],
        "postalCode": "P3A3B8",
        "streetName": "MONTROSE",
        "streetDirectionId": null,
        "streetTypeId": "AVE",
        "placeName": "SUDBURY",
        "streetNameDisplayText": "MONTROSE AVE, SUDBURY"
      }
    ]
  },
  {
    "postal": "P3A3P7",
    "result": [
      {
        "electoralDistricts": [
          {
            "election": null,
            "id": 103,
            "name": "Sudbury"
          }
        ],
        "pollDivisionIds": [
          10142148
        ],
        "postalCode": "P3A3P7",
        "streetName": "VINE",
        "streetDirectionId": null,
        "streetTypeId": "AVE",
        "placeName": "SUDBURY",
        "streetNameDisplayText": "VINE AVE, SUDBURY"
      }
    ]
  },
  {
    "postal": "P3A9B2",
    "result": []
  },
  {
    "postal": "P3A6Z3",
    "result": []
  },
  {
    "postal": "P3A4N5",
    "result": [
      {
        "electoralDistricts": [
          {
            "election": null,
            "id": 103,
            "name": "Sudbury"
          }
        ],
        "pollDivisionIds": [
          10142160
        ],
        "postalCode": "P3A4N5",
        "streetName": "FALCONBRIDGE",
        "streetDirectionId": null,
        "streetTypeId": "RD",
        "placeName": "SUDBURY",
        "streetNameDisplayText": "FALCONBRIDGE RD, SUDBURY"
      }
    ]
  },
  {
    "postal": "P3A8T3",
    "result": []
  },
  {
    "postal": "P3A1V2",
    "result": [
      {
        "electoralDistricts": [
          {
            "election": null,
            "id": 103,
            "name": "Sudbury"
          }
        ],
        "pollDivisionIds": [
          10142147
        ],
        "postalCode": "P3A1V2",
        "streetName": "MCLEAN",
        "streetDirectionId": null,
        "streetTypeId": "ST",
        "placeName": "SUDBURY",
        "streetNameDisplayText": "MCLEAN ST, SUDBURY"
      }
    ]
  },
  {
    "postal": "P3A1Y0",
    "result": []
  },
  {
    "postal": "P3A3G6",
    "result": [
      {
        "electoralDistricts": [
          {
            "election": null,
            "id": 103,
            "name": "Sudbury"
          }
        ],
        "pollDivisionIds": [
          10142143
        ],
        "postalCode": "P3A3G6",
        "streetName": "BEAUMONT",
        "streetDirectionId": null,
        "streetTypeId": "AVE",
        "placeName": "SUDBURY",
        "streetNameDisplayText": "BEAUMONT AVE, SUDBURY"
      }
    ]
  },
  {
    "postal": "P3A3H7",
    "result": [
      {
        "electoralDistricts": [
          {
            "election": null,
            "id": 103,
            "name": "Sudbury"
          }
        ],
        "pollDivisionIds": [
          10142148,
          10142147
        ],
        "postalCode": "P3A3H7",
        "streetName": "ATTLEE",
        "streetDirectionId": null,
        "streetTypeId": "AVE",
        "placeName": "SUDBURY",
        "streetNameDisplayText": "ATTLEE AVE, SUDBURY"
      }
    ]
  },
  {
    "postal": "P3A7X8",
    "result": []
  },
  {
    "postal": "P3A0C7",
    "result": []
  },
  {
    "postal": "P3A0W9",
    "result": []
  },
  {
    "postal": "P3A8E6",
    "result": []
  },
  {
    "postal": "P3A9Z8",
    "result": []
  },
  {
    "postal": "P3A3P4",
    "result": [
      {
        "electoralDistricts": [
          {
            "election": null,
            "id": 103,
            "name": "Sudbury"
          }
        ],
        "pollDivisionIds": [
          10142145
        ],
        "postalCode": "P3A3P4",
        "streetName": "KINGSLEA",
        "streetDirectionId": null,
        "streetTypeId": "CRT",
        "placeName": "SUDBURY",
        "streetNameDisplayText": "KINGSLEA CRT, SUDBURY"
      }
    ]
  },
  {
    "postal": "P3A6L8",
    "result": []
  },
  {
    "postal": "P3A2R4",
    "result": [
      {
        "electoralDistricts": [
          {
            "election": null,
            "id": 103,
            "name": "Sudbury"
          }
        ],
        "pollDivisionIds": [
          10142159,
          10142127
        ],
        "postalCode": "P3A2R4",
        "streetName": "MADISON",
        "streetDirectionId": null,
        "streetTypeId": "AVE",
        "placeName": "SUDBURY",
        "streetNameDisplayText": "MADISON AVE, SUDBURY"
      }
    ]
  },
  {
    "postal": "P3A2W1",
    "result": []
  },
  {
    "postal": "P3A9H8",
    "result": []
  },
  {
    "postal": "P3A8X9",
    "result": []
  },
  {
    "postal": "P3A7H4",
    "result": []
  },
  {
    "postal": "P3A3J1",
    "result": [
      {
        "electoralDistricts": [
          {
            "election": null,
            "id": 103,
            "name": "Sudbury"
          }
        ],
        "pollDivisionIds": [
          10142147
        ],
        "postalCode": "P3A3J1",
        "streetName": "ATTLEE",
        "streetDirectionId": null,
        "streetTypeId": "AVE",
        "placeName": "SUDBURY",
        "streetNameDisplayText": "ATTLEE AVE, SUDBURY"
      }
    ]
  },
  {
    "postal": "P3A1P4",
    "result": [
      {
        "electoralDistricts": [
          {
            "election": null,
            "id": 103,
            "name": "Sudbury"
          }
        ],
        "pollDivisionIds": [
          10142147
        ],
        "postalCode": "P3A1P4",
        "streetName": "ALEXANDER",
        "streetDirectionId": null,
        "streetTypeId": "ST",
        "placeName": "SUDBURY",
        "streetNameDisplayText": "ALEXANDER ST, SUDBURY"
      }
    ]
  },
  {
    "postal": "P3A2A3",
    "result": [
      {
        "electoralDistricts": [
          {
            "election": null,
            "id": 103,
            "name": "Sudbury"
          }
        ],
        "pollDivisionIds": [
          10142156
        ],
        "postalCode": "P3A2A3",
        "streetName": "LASALLE",
        "streetDirectionId": null,
        "streetTypeId": "BLVD",
        "placeName": "SUDBURY",
        "streetNameDisplayText": "LASALLE BLVD, SUDBURY"
      }
    ]
  },
  {
    "postal": "P3A0Z1",
    "result": []
  },
  {
    "postal": "P3A1C1",
    "result": [
      {
        "electoralDistricts": [
          {
            "election": null,
            "id": 103,
            "name": "Sudbury"
          }
        ],
        "pollDivisionIds": [
          10142153
        ],
        "postalCode": "P3A1C1",
        "streetName": "WESTMOUNT",
        "streetDirectionId": null,
        "streetTypeId": "AVE",
        "placeName": "SUDBURY",
        "streetNameDisplayText": "WESTMOUNT AVE, SUDBURY"
      }
    ]
  },
  {
    "postal": "P3A0H3",
    "result": []
  },
  {
    "postal": "P3A7B0",
    "result": []
  },
  {
    "postal": "P3A5K2",
    "result": [
      {
        "electoralDistricts": [
          {
            "election": null,
            "id": 103,
            "name": "Sudbury"
          }
        ],
        "pollDivisionIds": [
          10142160
        ],
        "postalCode": "P3A5K2",
        "streetName": "ELISABELLA",
        "streetDirectionId": null,
        "streetTypeId": "ST",
        "placeName": "SUDBURY",
        "streetNameDisplayText": "ELISABELLA ST, SUDBURY"
      }
    ]
  },
  {
    "postal": "P3A1E9",
    "result": [
      {
        "electoralDistricts": [
          {
            "election": null,
            "id": 103,
            "name": "Sudbury"
          }
        ],
        "pollDivisionIds": [
          10142148
        ],
        "postalCode": "P3A1E9",
        "streetName": "BUCKINGHAM",
        "streetDirectionId": null,
        "streetTypeId": "DR",
        "placeName": "SUDBURY",
        "streetNameDisplayText": "BUCKINGHAM DR, SUDBURY"
      }
    ]
  },
  {
    "postal": "P3A9W7",
    "result": []
  },
  {
    "postal": "P3A5W6",
    "result": []
  },
  {
    "postal": "P3A6S6",
    "result": []
  },
  {
    "postal": "P3A2P8",
    "result": [
      {
        "electoralDistricts": [
          {
            "election": null,
            "id": 103,
            "name": "Sudbury"
          }
        ],
        "pollDivisionIds": [
          10142159
        ],
        "postalCode": "P3A2P8",
        "streetName": "MADISON",
        "streetDirectionId": null,
        "streetTypeId": "AVE",
        "placeName": "SUDBURY",
        "streetNameDisplayText": "MADISON AVE, SUDBURY"
      }
    ]
  },
  {
    "postal": "P3A4P8",
    "result": [
      {
        "electoralDistricts": [
          {
            "election": null,
            "id": 103,
            "name": "Sudbury"
          }
        ],
        "pollDivisionIds": [
          10142160
        ],
        "postalCode": "P3A4P8",
        "streetName": "CARMELO",
        "streetDirectionId": null,
        "streetTypeId": "AVE",
        "placeName": "SUDBURY",
        "streetNameDisplayText": "CARMELO AVE, SUDBURY"
      }
    ]
  },
  {
    "postal": "P3A0V9",
    "result": []
  },
  {
    "postal": "P3A5Y2",
    "result": [
      {
        "electoralDistricts": [
          {
            "election": null,
            "id": 103,
            "name": "Sudbury"
          }
        ],
        "pollDivisionIds": [
          10142144
        ],
        "postalCode": "P3A5Y2",
        "streetName": "AGINCOURT",
        "streetDirectionId": null,
        "streetTypeId": "AVE",
        "placeName": "SUDBURY",
        "streetNameDisplayText": "AGINCOURT AVE, SUDBURY"
      }
    ]
  },
  {
    "postal": "P3A7Z7",
    "result": []
  },
  {
    "postal": "P3A6Y8",
    "result": []
  },
  {
    "postal": "P3A2G7",
    "result": [
      {
        "electoralDistricts": [
          {
            "election": null,
            "id": 103,
            "name": "Sudbury"
          }
        ],
        "pollDivisionIds": [
          10142160
        ],
        "postalCode": "P3A2G7",
        "streetName": "SAN FRANCISCO",
        "streetDirectionId": null,
        "streetTypeId": "ST",
        "placeName": "SUDBURY",
        "streetNameDisplayText": "SAN FRANCISCO ST, SUDBURY"
      }
    ]
  },
  {
    "postal": "P3A8C1",
    "result": []
  },
  {
    "postal": "P3A5C5",
    "result": [
      {
        "electoralDistricts": [
          {
            "election": null,
            "id": 103,
            "name": "Sudbury"
          }
        ],
        "pollDivisionIds": [
          10142147,
          10142158
        ],
        "postalCode": "P3A5C5",
        "streetName": "LANSING",
        "streetDirectionId": null,
        "streetTypeId": "AVE",
        "placeName": "SUDBURY",
        "streetNameDisplayText": "LANSING AVE, SUDBURY"
      }
    ]
  },
  {
    "postal": "P3A2X8",
    "result": [
      {
        "electoralDistricts": [
          {
            "election": null,
            "id": 103,
            "name": "Sudbury"
          }
        ],
        "pollDivisionIds": [
          10142147
        ],
        "postalCode": "P3A2X8",
        "streetName": "SUNNYBRAE",
        "streetDirectionId": null,
        "streetTypeId": "AVE",
        "placeName": "SUDBURY",
        "streetNameDisplayText": "SUNNYBRAE AVE, SUDBURY"
      }
    ]
  },
  {
    "postal": "P3A1W5",
    "result": [
      {
        "electoralDistricts": [
          {
            "election": null,
            "id": 103,
            "name": "Sudbury"
          }
        ],
        "pollDivisionIds": [
          10142142
        ],
        "postalCode": "P3A1W5",
        "streetName": "LASALLE",
        "streetDirectionId": null,
        "streetTypeId": "BLVD",
        "placeName": "SUDBURY",
        "streetNameDisplayText": "LASALLE BLVD, SUDBURY"
      }
    ]
  },
  {
    "postal": "P3A7G0",
    "result": []
  },
  {
    "postal": "P3A8J8",
    "result": []
  },
  {
    "postal": "P3A3Y0",
    "result": []
  },
  {
    "postal": "P3A9T7",
    "result": []
  },
  {
    "postal": "P3A5P4",
    "result": []
  },
  {
    "postal": "P3A4B0",
    "result": []
  },
  {
    "postal": "P3A9N8",
    "result": []
  },
  {
    "postal": "P3A4A7",
    "result": [
      {
        "electoralDistricts": [
          {
            "election": null,
            "id": 103,
            "name": "Sudbury"
          }
        ],
        "pollDivisionIds": [
          10142156
        ],
        "postalCode": "P3A4A7",
        "streetName": "AUGER",
        "streetDirectionId": null,
        "streetTypeId": "AVE",
        "placeName": "SUDBURY",
        "streetNameDisplayText": "AUGER AVE, SUDBURY"
      }
    ]
  },
  {
    "postal": "P3A4H9",
    "result": [
      {
        "electoralDistricts": [
          {
            "election": null,
            "id": 103,
            "name": "Sudbury"
          }
        ],
        "pollDivisionIds": [
          10142159
        ],
        "postalCode": "P3A4H9",
        "streetName": "BRIAR",
        "streetDirectionId": null,
        "streetTypeId": "AVE",
        "placeName": "SUDBURY",
        "streetNameDisplayText": "BRIAR AVE, SUDBURY"
      }
    ]
  },
  {
    "postal": "P3A6X1",
    "result": []
  },
  {
    "postal": "P3A9Y7",
    "result": []
  },
  {
    "postal": "P3A2Y5",
    "result": [
      {
        "electoralDistricts": [
          {
            "election": null,
            "id": 103,
            "name": "Sudbury"
          }
        ],
        "pollDivisionIds": [
          10142147
        ],
        "postalCode": "P3A2Y5",
        "streetName": "MCALLISTER",
        "streetDirectionId": null,
        "streetTypeId": "AVE",
        "placeName": "SUDBURY",
        "streetNameDisplayText": "MCALLISTER AVE, SUDBURY"
      }
    ]
  },
  {
    "postal": "P3A8L7",
    "result": []
  },
  {
    "postal": "P3A2A8",
    "result": [
      {
        "electoralDistricts": [
          {
            "election": null,
            "id": 103,
            "name": "Sudbury"
          }
        ],
        "pollDivisionIds": [
          10142160
        ],
        "postalCode": "P3A2A8",
        "streetName": "LASALLE",
        "streetDirectionId": null,
        "streetTypeId": "BLVD",
        "placeName": "SUDBURY",
        "streetNameDisplayText": "LASALLE BLVD, SUDBURY"
      }
    ]
  },
  {
    "postal": "P3A2K9",
    "result": [
      {
        "electoralDistricts": [
          {
            "election": null,
            "id": 103,
            "name": "Sudbury"
          }
        ],
        "pollDivisionIds": [
          10142160
        ],
        "postalCode": "P3A2K9",
        "streetName": "EMILY",
        "streetDirectionId": null,
        "streetTypeId": "ST",
        "placeName": "SUDBURY",
        "streetNameDisplayText": "EMILY ST, SUDBURY"
      }
    ]
  },
  {
    "postal": "P3A3E5",
    "result": [
      {
        "electoralDistricts": [
          {
            "election": null,
            "id": 103,
            "name": "Sudbury"
          }
        ],
        "pollDivisionIds": [
          10142148
        ],
        "postalCode": "P3A3E5",
        "streetName": "BEATRICE",
        "streetDirectionId": null,
        "streetTypeId": "CRES",
        "placeName": "SUDBURY",
        "streetNameDisplayText": "BEATRICE CRES, SUDBURY"
      }
    ]
  },
  {
    "postal": "P3A8N6",
    "result": []
  },
  {
    "postal": "P3A8J4",
    "result": []
  },
  {
    "postal": "P3A4R7",
    "result": [
      {
        "electoralDistricts": [
          {
            "election": null,
            "id": 103,
            "name": "Sudbury"
          }
        ],
        "pollDivisionIds": [
          10142160
        ],
        "postalCode": "P3A4R7",
        "streetName": "FOUNDRY",
        "streetDirectionId": null,
        "streetTypeId": "ST",
        "placeName": "SUDBURY",
        "streetNameDisplayText": "FOUNDRY ST, SUDBURY"
      },
      {
        "electoralDistricts": [
          {
            "election": null,
            "id": 103,
            "name": "Sudbury"
          }
        ],
        "pollDivisionIds": [
          10142160
        ],
        "postalCode": "P3A4R7",
        "streetName": "LASALLE",
        "streetDirectionId": null,
        "streetTypeId": "BLVD",
        "placeName": "SUDBURY",
        "streetNameDisplayText": "LASALLE BLVD, SUDBURY"
      },
      {
        "electoralDistricts": [
          {
            "election": null,
            "id": 103,
            "name": "Sudbury"
          }
        ],
        "pollDivisionIds": [
          10142157,
          10142160,
          10142158
        ],
        "postalCode": "P3A4R7",
        "streetName": "MALEY",
        "streetDirectionId": null,
        "streetTypeId": "DR",
        "placeName": "SUDBURY",
        "streetNameDisplayText": "MALEY DR, SUDBURY"
      },
      {
        "electoralDistricts": [
          {
            "election": null,
            "id": 103,
            "name": "Sudbury"
          }
        ],
        "pollDivisionIds": [
          10142158
        ],
        "postalCode": "P3A4R7",
        "streetName": "OLD FALCONBRIDGE",
        "streetDirectionId": null,
        "streetTypeId": "RD",
        "placeName": "SUDBURY",
        "streetNameDisplayText": "OLD FALCONBRIDGE RD, SUDBURY"
      }
    ]
  },
  {
    "postal": "P3A9K1",
    "result": []
  },
  {
    "postal": "P3A8E1",
    "result": []
  },
  {
    "postal": "P3A0R1",
    "result": []
  },
  {
    "postal": "P3A4J3",
    "result": [
      {
        "electoralDistricts": [
          {
            "election": null,
            "id": 103,
            "name": "Sudbury"
          }
        ],
        "pollDivisionIds": [
          10142160
        ],
        "postalCode": "P3A4J3",
        "streetName": "MEADOWSIDE",
        "streetDirectionId": null,
        "streetTypeId": "AVE",
        "placeName": "SUDBURY",
        "streetNameDisplayText": "MEADOWSIDE AVE, SUDBURY"
      }
    ]
  },
  {
    "postal": "P3A7E7",
    "result": []
  },
  {
    "postal": "P3A0J0",
    "result": []
  },
  {
    "postal": "P3A7R8",
    "result": []
  },
  {
    "postal": "P3A9X0",
    "result": []
  },
  {
    "postal": "P3A7P6",
    "result": []
  },
  {
    "postal": "P3A0R7",
    "result": []
  },
  {
    "postal": "P3A5W1",
    "result": []
  },
  {
    "postal": "P3A0K4",
    "result": []
  },
  {
    "postal": "P3A7N9",
    "result": []
  },
  {
    "postal": "P3A1N0",
    "result": []
  },
  {
    "postal": "P3A6P3",
    "result": []
  },
  {
    "postal": "P3A5A1",
    "result": [
      {
        "electoralDistricts": [
          {
            "election": null,
            "id": 103,
            "name": "Sudbury"
          }
        ],
        "pollDivisionIds": [
          10142142
        ],
        "postalCode": "P3A5A1",
        "streetName": "VILLAGE",
        "streetDirectionId": null,
        "streetTypeId": "CRES",
        "placeName": "SUDBURY",
        "streetNameDisplayText": "VILLAGE CRES, SUDBURY"
      }
    ]
  },
  {
    "postal": "P3A9M9",
    "result": []
  },
  {
    "postal": "P3A7T6",
    "result": []
  },
  {
    "postal": "P3A3X0",
    "result": []
  },
  {
    "postal": "P3A2T0",
    "result": []
  },
  {
    "postal": "P3A5X9",
    "result": [
      {
        "electoralDistricts": [
          {
            "election": null,
            "id": 103,
            "name": "Sudbury"
          }
        ],
        "pollDivisionIds": [
          10142147
        ],
        "postalCode": "P3A5X9",
        "streetName": "ALEXANDER",
        "streetDirectionId": null,
        "streetTypeId": "ST",
        "placeName": "SUDBURY",
        "streetNameDisplayText": "ALEXANDER ST, SUDBURY"
      }
    ]
  },
  {
    "postal": "P3A2R3",
    "result": [
      {
        "electoralDistricts": [
          {
            "election": null,
            "id": 103,
            "name": "Sudbury"
          }
        ],
        "pollDivisionIds": [
          10142159
        ],
        "postalCode": "P3A2R3",
        "streetName": "MADISON",
        "streetDirectionId": null,
        "streetTypeId": "AVE",
        "placeName": "SUDBURY",
        "streetNameDisplayText": "MADISON AVE, SUDBURY"
      }
    ]
  },
  {
    "postal": "P3A5N2",
    "result": []
  },
  {
    "postal": "P3A4Y7",
    "result": [
      {
        "electoralDistricts": [
          {
            "election": null,
            "id": 103,
            "name": "Sudbury"
          }
        ],
        "pollDivisionIds": [
          10142160
        ],
        "postalCode": "P3A4Y7",
        "streetName": "COLONIAL",
        "streetDirectionId": null,
        "streetTypeId": "CRT",
        "placeName": "SUDBURY",
        "streetNameDisplayText": "COLONIAL CRT, SUDBURY"
      }
    ]
  },
  {
    "postal": "P3A7M0",
    "result": []
  },
  {
    "postal": "P3A8P3",
    "result": []
  },
  {
    "postal": "P3A3N3",
    "result": [
      {
        "electoralDistricts": [
          {
            "election": null,
            "id": 103,
            "name": "Sudbury"
          }
        ],
        "pollDivisionIds": [
          10142144
        ],
        "postalCode": "P3A3N3",
        "streetName": "ROY",
        "streetDirectionId": null,
        "streetTypeId": "AVE",
        "placeName": "SUDBURY",
        "streetNameDisplayText": "ROY AVE, SUDBURY"
      }
    ]
  },
  {
    "postal": "P3A7S3",
    "result": []
  },
  {
    "postal": "P3A3V9",
    "result": [
      {
        "electoralDistricts": [
          {
            "election": null,
            "id": 103,
            "name": "Sudbury"
          }
        ],
        "pollDivisionIds": [
          10142145
        ],
        "postalCode": "P3A3V9",
        "streetName": "BARRYDOWNE",
        "streetDirectionId": null,
        "streetTypeId": "RD",
        "placeName": "SUDBURY",
        "streetNameDisplayText": "BARRYDOWNE RD, SUDBURY"
      }
    ]
  },
  {
    "postal": "P3A9N7",
    "result": []
  },
  {
    "postal": "P3A0G4",
    "result": []
  },
  {
    "postal": "P3A2E2",
    "result": [
      {
        "electoralDistricts": [
          {
            "election": null,
            "id": 103,
            "name": "Sudbury"
          }
        ],
        "pollDivisionIds": [
          10142160
        ],
        "postalCode": "P3A2E2",
        "streetName": "LEBEL",
        "streetDirectionId": null,
        "streetTypeId": "ST",
        "placeName": "SUDBURY",
        "streetNameDisplayText": "LEBEL ST, SUDBURY"
      }
    ]
  },
  {
    "postal": "P3A7W8",
    "result": []
  },
  {
    "postal": "P3A7M5",
    "result": []
  },
  {
    "postal": "P3A5W8",
    "result": [
      {
        "electoralDistricts": [
          {
            "election": null,
            "id": 103,
            "name": "Sudbury"
          }
        ],
        "pollDivisionIds": [
          10142143
        ],
        "postalCode": "P3A5W8",
        "streetName": "LASALLE",
        "streetDirectionId": null,
        "streetTypeId": "BLVD",
        "placeName": "SUDBURY",
        "streetNameDisplayText": "LASALLE BLVD, SUDBURY"
      }
    ]
  },
  {
    "postal": "P3A5E5",
    "result": [
      {
        "electoralDistricts": [
          {
            "election": null,
            "id": 103,
            "name": "Sudbury"
          }
        ],
        "pollDivisionIds": [
          10142148
        ],
        "postalCode": "P3A5E5",
        "streetName": "BEATRICE",
        "streetDirectionId": null,
        "streetTypeId": "CRES",
        "placeName": "SUDBURY",
        "streetNameDisplayText": "BEATRICE CRES, SUDBURY"
      }
    ]
  },
  {
    "postal": "P3A1P9",
    "result": [
      {
        "electoralDistricts": [
          {
            "election": null,
            "id": 103,
            "name": "Sudbury"
          }
        ],
        "pollDivisionIds": [
          10142147
        ],
        "postalCode": "P3A1P9",
        "streetName": "ALEXANDER",
        "streetDirectionId": null,
        "streetTypeId": "ST",
        "placeName": "SUDBURY",
        "streetNameDisplayText": "ALEXANDER ST, SUDBURY"
      }
    ]
  },
  {
    "postal": "P3A8V8",
    "result": []
  },
  {
    "postal": "P3A9G8",
    "result": []
  },
  {
    "postal": "P3A8H9",
    "result": []
  },
  {
    "postal": "P3A1Z1",
    "result": []
  },
  {
    "postal": "P3A8M3",
    "result": []
  },
  {
    "postal": "P3A5H6",
    "result": [
      {
        "electoralDistricts": [
          {
            "election": null,
            "id": 103,
            "name": "Sudbury"
          }
        ],
        "pollDivisionIds": [
          10142159
        ],
        "postalCode": "P3A5H6",
        "streetName": "OVERBROOK",
        "streetDirectionId": null,
        "streetTypeId": "CRES",
        "placeName": "SUDBURY",
        "streetNameDisplayText": "OVERBROOK CRES, SUDBURY"
      }
    ]
  },
  {
    "postal": "P3A7W7",
    "result": []
  },
  {
    "postal": "P3A4L0",
    "result": []
  },
  {
    "postal": "P3A2N1",
    "result": [
      {
        "electoralDistricts": [
          {
            "election": null,
            "id": 103,
            "name": "Sudbury"
          }
        ],
        "pollDivisionIds": [
          10142160
        ],
        "postalCode": "P3A2N1",
        "streetName": "JOSEPHINE",
        "streetDirectionId": null,
        "streetTypeId": "ST",
        "placeName": "SUDBURY",
        "streetNameDisplayText": "JOSEPHINE ST, SUDBURY"
      }
    ]
  },
  {
    "postal": "P3A2H4",
    "result": [
      {
        "electoralDistricts": [
          {
            "election": null,
            "id": 103,
            "name": "Sudbury"
          }
        ],
        "pollDivisionIds": [
          10142143
        ],
        "postalCode": "P3A2H4",
        "streetName": "GRANDVIEW",
        "streetDirectionId": null,
        "streetTypeId": "BLVD",
        "placeName": "SUDBURY",
        "streetNameDisplayText": "GRANDVIEW BLVD, SUDBURY"
      }
    ]
  },
  {
    "postal": "P3A5C8",
    "result": [
      {
        "electoralDistricts": [
          {
            "election": null,
            "id": 103,
            "name": "Sudbury"
          }
        ],
        "pollDivisionIds": [
          10142158
        ],
        "postalCode": "P3A5C8",
        "streetName": "HAVENBROOK",
        "streetDirectionId": null,
        "streetTypeId": "DR",
        "placeName": "SUDBURY",
        "streetNameDisplayText": "HAVENBROOK DR, SUDBURY"
      }
    ]
  },
  {
    "postal": "P3A8B0",
    "result": []
  },
  {
    "postal": "P3A1T4",
    "result": [
      {
        "electoralDistricts": [
          {
            "election": null,
            "id": 103,
            "name": "Sudbury"
          }
        ],
        "pollDivisionIds": [
          10142147
        ],
        "postalCode": "P3A1T4",
        "streetName": "MAIN",
        "streetDirectionId": null,
        "streetTypeId": "ST",
        "placeName": "SUDBURY",
        "streetNameDisplayText": "MAIN ST, SUDBURY"
      }
    ]
  },
  {
    "postal": "P3A7N7",
    "result": []
  },
  {
    "postal": "P3A4L3",
    "result": [
      {
        "electoralDistricts": [
          {
            "election": null,
            "id": 103,
            "name": "Sudbury"
          }
        ],
        "pollDivisionIds": [
          10142159
        ],
        "postalCode": "P3A4L3",
        "streetName": "SHERWOOD",
        "streetDirectionId": null,
        "streetTypeId": "AVE",
        "placeName": "SUDBURY",
        "streetNameDisplayText": "SHERWOOD AVE, SUDBURY"
      }
    ]
  },
  {
    "postal": "P3A2N2",
    "result": [
      {
        "electoralDistricts": [
          {
            "election": null,
            "id": 103,
            "name": "Sudbury"
          }
        ],
        "pollDivisionIds": [
          10142159
        ],
        "postalCode": "P3A2N2",
        "streetName": "JOSEPHINE",
        "streetDirectionId": null,
        "streetTypeId": "ST",
        "placeName": "SUDBURY",
        "streetNameDisplayText": "JOSEPHINE ST, SUDBURY"
      }
    ]
  },
  {
    "postal": "P3A4N8",
    "result": [
      {
        "electoralDistricts": [
          {
            "election": null,
            "id": 103,
            "name": "Sudbury"
          }
        ],
        "pollDivisionIds": [
          10142159
        ],
        "postalCode": "P3A4N8",
        "streetName": "OLD FALCONBRIDGE",
        "streetDirectionId": null,
        "streetTypeId": "RD",
        "placeName": "SUDBURY",
        "streetNameDisplayText": "OLD FALCONBRIDGE RD, SUDBURY"
      }
    ]
  },
  {
    "postal": "P3A3M5",
    "result": [
      {
        "electoralDistricts": [
          {
            "election": null,
            "id": 103,
            "name": "Sudbury"
          }
        ],
        "pollDivisionIds": [
          10142145
        ],
        "postalCode": "P3A3M5",
        "streetName": "ROY",
        "streetDirectionId": null,
        "streetTypeId": "AVE",
        "placeName": "SUDBURY",
        "streetNameDisplayText": "ROY AVE, SUDBURY"
      }
    ]
  },
  {
    "postal": "P3A6H7",
    "result": []
  },
  {
    "postal": "P3A8Y8",
    "result": []
  },
  {
    "postal": "P3A5R9",
    "result": [
      {
        "electoralDistricts": [
          {
            "election": null,
            "id": 103,
            "name": "Sudbury"
          }
        ],
        "pollDivisionIds": [
          10142167
        ],
        "postalCode": "P3A5R9",
        "streetName": "ATTLEE",
        "streetDirectionId": null,
        "streetTypeId": "AVE",
        "placeName": "SUDBURY",
        "streetNameDisplayText": "ATTLEE AVE, SUDBURY"
      },
      {
        "electoralDistricts": [
          {
            "election": null,
            "id": 103,
            "name": "Sudbury"
          }
        ],
        "pollDivisionIds": [
          10142167
        ],
        "postalCode": "P3A5R9",
        "streetName": "STONEGATE",
        "streetDirectionId": null,
        "streetTypeId": "DR",
        "placeName": "SUDBURY",
        "streetNameDisplayText": "STONEGATE DR, SUDBURY"
      }
    ]
  },
  {
    "postal": "P3A8G3",
    "result": []
  },
  {
    "postal": "P3A4N7",
    "result": [
      {
        "electoralDistricts": [
          {
            "election": null,
            "id": 103,
            "name": "Sudbury"
          }
        ],
        "pollDivisionIds": [
          10142159
        ],
        "postalCode": "P3A4N7",
        "streetName": "FALCONBRIDGE",
        "streetDirectionId": null,
        "streetTypeId": "RD",
        "placeName": "SUDBURY",
        "streetNameDisplayText": "FALCONBRIDGE RD, SUDBURY"
      }
    ]
  },
  {
    "postal": "P3A0B9",
    "result": []
  },
  {
    "postal": "P3A9K7",
    "result": []
  },
  {
    "postal": "P3A9K9",
    "result": []
  },
  {
    "postal": "P3A3Z2",
    "result": [
      {
        "electoralDistricts": [
          {
            "election": null,
            "id": 103,
            "name": "Sudbury"
          }
        ],
        "pollDivisionIds": [
          10142156
        ],
        "postalCode": "P3A3Z2",
        "streetName": "DANFORTH",
        "streetDirectionId": null,
        "streetTypeId": "AVE",
        "placeName": "SUDBURY",
        "streetNameDisplayText": "DANFORTH AVE, SUDBURY"
      }
    ]
  },
  {
    "postal": "P3A6W7",
    "result": []
  },
  {
    "postal": "P3A0P1",
    "result": []
  },
  {
    "postal": "P3A3A0",
    "result": []
  },
  {
    "postal": "P3A8L9",
    "result": []
  },
  {
    "postal": "P3A6X0",
    "result": []
  },
  {
    "postal": "P3A3E9",
    "result": [
      {
        "electoralDistricts": [
          {
            "election": null,
            "id": 103,
            "name": "Sudbury"
          }
        ],
        "pollDivisionIds": [
          10142148
        ],
        "postalCode": "P3A3E9",
        "streetName": "MARLBOROUGH",
        "streetDirectionId": null,
        "streetTypeId": "DR",
        "placeName": "SUDBURY",
        "streetNameDisplayText": "MARLBOROUGH DR, SUDBURY"
      }
    ]
  },
  {
    "postal": "P3A0S5",
    "result": []
  },
  {
    "postal": "P3A1A2",
    "result": [
      {
        "electoralDistricts": [
          {
            "election": null,
            "id": 103,
            "name": "Sudbury"
          }
        ],
        "pollDivisionIds": [
          10142137
        ],
        "postalCode": "P3A1A2",
        "streetName": "WILMA",
        "streetDirectionId": null,
        "streetTypeId": "ST",
        "placeName": "SUDBURY",
        "streetNameDisplayText": "WILMA ST, SUDBURY"
      }
    ]
  },
  {
    "postal": "P3A5V8",
    "result": [
      {
        "electoralDistricts": [
          {
            "election": null,
            "id": 103,
            "name": "Sudbury"
          }
        ],
        "pollDivisionIds": [
          10142167
        ],
        "postalCode": "P3A5V8",
        "streetName": "WESTMOUNT",
        "streetDirectionId": null,
        "streetTypeId": "AVE",
        "placeName": "SUDBURY",
        "streetNameDisplayText": "WESTMOUNT AVE, SUDBURY"
      }
    ]
  },
  {
    "postal": "P3A8C5",
    "result": []
  },
  {
    "postal": "P3A6N0",
    "result": []
  },
  {
    "postal": "P3A9E6",
    "result": []
  },
  {
    "postal": "P3A5J7",
    "result": [
      {
        "electoralDistricts": [
          {
            "election": null,
            "id": 103,
            "name": "Sudbury"
          }
        ],
        "pollDivisionIds": [
          10142159
        ],
        "postalCode": "P3A5J7",
        "streetName": "STILLBROOK",
        "streetDirectionId": null,
        "streetTypeId": "PL",
        "placeName": "SUDBURY",
        "streetNameDisplayText": "STILLBROOK PL, SUDBURY"
      }
    ]
  },
  {
    "postal": "P3A2R2",
    "result": [
      {
        "electoralDistricts": [
          {
            "election": null,
            "id": 103,
            "name": "Sudbury"
          }
        ],
        "pollDivisionIds": [
          10142159
        ],
        "postalCode": "P3A2R2",
        "streetName": "MADISON",
        "streetDirectionId": null,
        "streetTypeId": "AVE",
        "placeName": "SUDBURY",
        "streetNameDisplayText": "MADISON AVE, SUDBURY"
      }
    ]
  },
  {
    "postal": "P3A0P5",
    "result": []
  },
  {
    "postal": "P3A5A7",
    "result": [
      {
        "electoralDistricts": [
          {
            "election": null,
            "id": 103,
            "name": "Sudbury"
          }
        ],
        "pollDivisionIds": [
          10142144
        ],
        "postalCode": "P3A5A7",
        "streetName": "YARMOUTH",
        "streetDirectionId": null,
        "streetTypeId": "ST",
        "placeName": "SUDBURY",
        "streetNameDisplayText": "YARMOUTH ST, SUDBURY"
      }
    ]
  },
  {
    "postal": "P3A1G1",
    "result": [
      {
        "electoralDistricts": [
          {
            "election": null,
            "id": 103,
            "name": "Sudbury"
          }
        ],
        "pollDivisionIds": [
          10142148
        ],
        "postalCode": "P3A1G1",
        "streetName": "BUCKINGHAM",
        "streetDirectionId": null,
        "streetTypeId": "DR",
        "placeName": "SUDBURY",
        "streetNameDisplayText": "BUCKINGHAM DR, SUDBURY"
      }
    ]
  },
  {
    "postal": "P3A9R6",
    "result": []
  },
  {
    "postal": "P3A4Z9",
    "result": [
      {
        "electoralDistricts": [
          {
            "election": null,
            "id": 103,
            "name": "Sudbury"
          }
        ],
        "pollDivisionIds": [
          10142142
        ],
        "postalCode": "P3A4Z9",
        "streetName": "GRANDVIEW",
        "streetDirectionId": null,
        "streetTypeId": "BLVD",
        "placeName": "SUDBURY",
        "streetNameDisplayText": "GRANDVIEW BLVD, SUDBURY"
      }
    ]
  },
  {
    "postal": "P3A1V5",
    "result": [
      {
        "electoralDistricts": [
          {
            "election": null,
            "id": 103,
            "name": "Sudbury"
          }
        ],
        "pollDivisionIds": [
          10142147
        ],
        "postalCode": "P3A1V5",
        "streetName": "MCLEAN",
        "streetDirectionId": null,
        "streetTypeId": "ST",
        "placeName": "SUDBURY",
        "streetNameDisplayText": "MCLEAN ST, SUDBURY"
      }
    ]
  },
  {
    "postal": "P3A9Y5",
    "result": []
  },
  {
    "postal": "P3A1P2",
    "result": [
      {
        "electoralDistricts": [
          {
            "election": null,
            "id": 103,
            "name": "Sudbury"
          }
        ],
        "pollDivisionIds": [
          10142156
        ],
        "postalCode": "P3A1P2",
        "streetName": "FIELDING",
        "streetDirectionId": null,
        "streetTypeId": "ST",
        "placeName": "SUDBURY",
        "streetNameDisplayText": "FIELDING ST, SUDBURY"
      }
    ]
  },
  {
    "postal": "P3A5X0",
    "result": []
  },
  {
    "postal": "P3A7B8",
    "result": []
  },
  {
    "postal": "P3A0C6",
    "result": []
  },
  {
    "postal": "P3A6G1",
    "result": []
  },
  {
    "postal": "P3A3K3",
    "result": [
      {
        "electoralDistricts": [
          {
            "election": null,
            "id": 103,
            "name": "Sudbury"
          }
        ],
        "pollDivisionIds": [
          10142144
        ],
        "postalCode": "P3A3K3",
        "streetName": "AGINCOURT",
        "streetDirectionId": null,
        "streetTypeId": "AVE",
        "placeName": "SUDBURY",
        "streetNameDisplayText": "AGINCOURT AVE, SUDBURY"
      }
    ]
  },
  {
    "postal": "P3A9R0",
    "result": []
  },
  {
    "postal": "P3A4R8",
    "result": []
  },
  {
    "postal": "P3A5P9",
    "result": [
      {
        "electoralDistricts": [
          {
            "election": null,
            "id": 103,
            "name": "Sudbury"
          }
        ],
        "pollDivisionIds": [
          10142159
        ],
        "postalCode": "P3A5P9",
        "streetName": "CHRISTINA",
        "streetDirectionId": null,
        "streetTypeId": "DR",
        "placeName": "SUDBURY",
        "streetNameDisplayText": "CHRISTINA DR, SUDBURY"
      }
    ]
  },
  {
    "postal": "P3A8N4",
    "result": []
  },
  {
    "postal": "P3A8H4",
    "result": []
  },
  {
    "postal": "P3A4V1",
    "result": [
      {
        "electoralDistricts": [
          {
            "election": null,
            "id": 103,
            "name": "Sudbury"
          }
        ],
        "pollDivisionIds": [
          10142142
        ],
        "postalCode": "P3A4V1",
        "streetName": "MAGNOLIA",
        "streetDirectionId": null,
        "streetTypeId": "BLVD",
        "placeName": "SUDBURY",
        "streetNameDisplayText": "MAGNOLIA BLVD, SUDBURY"
      }
    ]
  },
  {
    "postal": "P3A1K5",
    "result": [
      {
        "electoralDistricts": [
          {
            "election": null,
            "id": 103,
            "name": "Sudbury"
          }
        ],
        "pollDivisionIds": [
          10142148
        ],
        "postalCode": "P3A1K5",
        "streetName": "HAWTHORNE",
        "streetDirectionId": null,
        "streetTypeId": "DR",
        "placeName": "SUDBURY",
        "streetNameDisplayText": "HAWTHORNE DR, SUDBURY"
      }
    ]
  },
  {
    "postal": "P3A1Z5",
    "result": []
  },
  {
    "postal": "P3A9L9",
    "result": []
  },
  {
    "postal": "P3A5L2",
    "result": []
  },
  {
    "postal": "P3A0M2",
    "result": []
  },
  {
    "postal": "P3A1K8",
    "result": [
      {
        "electoralDistricts": [
          {
            "election": null,
            "id": 103,
            "name": "Sudbury"
          }
        ],
        "pollDivisionIds": [
          10142148
        ],
        "postalCode": "P3A1K8",
        "streetName": "HAWTHORNE",
        "streetDirectionId": null,
        "streetTypeId": "DR",
        "placeName": "SUDBURY",
        "streetNameDisplayText": "HAWTHORNE DR, SUDBURY"
      }
    ]
  },
  {
    "postal": "P3A3M7",
    "result": [
      {
        "electoralDistricts": [
          {
            "election": null,
            "id": 103,
            "name": "Sudbury"
          }
        ],
        "pollDivisionIds": [
          10142145
        ],
        "postalCode": "P3A3M7",
        "streetName": "ROY",
        "streetDirectionId": null,
        "streetTypeId": "AVE",
        "placeName": "SUDBURY",
        "streetNameDisplayText": "ROY AVE, SUDBURY"
      }
    ]
  },
  {
    "postal": "P3A1B2",
    "result": [
      {
        "electoralDistricts": [
          {
            "election": null,
            "id": 103,
            "name": "Sudbury"
          }
        ],
        "pollDivisionIds": [
          10142155
        ],
        "postalCode": "P3A1B2",
        "streetName": "WESTMOUNT",
        "streetDirectionId": null,
        "streetTypeId": "AVE",
        "placeName": "SUDBURY",
        "streetNameDisplayText": "WESTMOUNT AVE, SUDBURY"
      }
    ]
  },
  {
    "postal": "P3A0H9",
    "result": []
  },
  {
    "postal": "P3A8M4",
    "result": []
  },
  {
    "postal": "P3A2M5",
    "result": [
      {
        "electoralDistricts": [
          {
            "election": null,
            "id": 103,
            "name": "Sudbury"
          }
        ],
        "pollDivisionIds": [
          10142145
        ],
        "postalCode": "P3A2M5",
        "streetName": "WOODBINE",
        "streetDirectionId": null,
        "streetTypeId": "AVE",
        "placeName": "SUDBURY",
        "streetNameDisplayText": "WOODBINE AVE, SUDBURY"
      }
    ]
  },
  {
    "postal": "P3A0T9",
    "result": []
  },
  {
    "postal": "P3A3P1",
    "result": [
      {
        "electoralDistricts": [
          {
            "election": null,
            "id": 103,
            "name": "Sudbury"
          }
        ],
        "pollDivisionIds": [
          10142145
        ],
        "postalCode": "P3A3P1",
        "streetName": "ARVO",
        "streetDirectionId": null,
        "streetTypeId": "AVE",
        "placeName": "SUDBURY",
        "streetNameDisplayText": "ARVO AVE, SUDBURY"
      }
    ]
  },
  {
    "postal": "P3A1R6",
    "result": [
      {
        "electoralDistricts": [
          {
            "election": null,
            "id": 103,
            "name": "Sudbury"
          }
        ],
        "pollDivisionIds": [
          10142147
        ],
        "postalCode": "P3A1R6",
        "streetName": "DUBLIN",
        "streetDirectionId": null,
        "streetTypeId": "ST",
        "placeName": "SUDBURY",
        "streetNameDisplayText": "DUBLIN ST, SUDBURY"
      }
    ]
  },
  {
    "postal": "P3A9V5",
    "result": []
  },
  {
    "postal": "P3A9T0",
    "result": []
  },
  {
    "postal": "P3A0A9",
    "result": [
      {
        "electoralDistricts": [
          {
            "election": null,
            "id": 103,
            "name": "Sudbury"
          }
        ],
        "pollDivisionIds": [
          10142159
        ],
        "postalCode": "P3A0A9",
        "streetName": "GRENOBLE",
        "streetDirectionId": null,
        "streetTypeId": "CRT",
        "placeName": "SUDBURY",
        "streetNameDisplayText": "GRENOBLE CRT, SUDBURY"
      }
    ]
  },
  {
    "postal": "P3A1M3",
    "result": [
      {
        "electoralDistricts": [
          {
            "election": null,
            "id": 103,
            "name": "Sudbury"
          }
        ],
        "pollDivisionIds": [
          10142156
        ],
        "postalCode": "P3A1M3",
        "streetName": "HAWTHORNE",
        "streetDirectionId": null,
        "streetTypeId": "DR",
        "placeName": "SUDBURY",
        "streetNameDisplayText": "HAWTHORNE DR, SUDBURY"
      }
    ]
  },
  {
    "postal": "P3A1W8",
    "result": [
      {
        "electoralDistricts": [
          {
            "election": null,
            "id": 103,
            "name": "Sudbury"
          }
        ],
        "pollDivisionIds": [
          10142147
        ],
        "postalCode": "P3A1W8",
        "streetName": "LASALLE",
        "streetDirectionId": null,
        "streetTypeId": "BLVD",
        "placeName": "SUDBURY",
        "streetNameDisplayText": "LASALLE BLVD, SUDBURY"
      }
    ]
  },
  {
    "postal": "P3A9J1",
    "result": []
  },
  {
    "postal": "P3A8N5",
    "result": []
  },
  {
    "postal": "P3A5X1",
    "result": [
      {
        "electoralDistricts": [
          {
            "election": null,
            "id": 103,
            "name": "Sudbury"
          }
        ],
        "pollDivisionIds": [
          10142142
        ],
        "postalCode": "P3A5X1",
        "streetName": "FORESTDALE",
        "streetDirectionId": null,
        "streetTypeId": "DR",
        "placeName": "SUDBURY",
        "streetNameDisplayText": "FORESTDALE DR, SUDBURY"
      },
      {
        "electoralDistricts": [
          {
            "election": null,
            "id": 103,
            "name": "Sudbury"
          }
        ],
        "pollDivisionIds": [
          10142142
        ],
        "postalCode": "P3A5X1",
        "streetName": "GARDENVALE",
        "streetDirectionId": null,
        "streetTypeId": "CRT",
        "placeName": "SUDBURY",
        "streetNameDisplayText": "GARDENVALE CRT, SUDBURY"
      }
    ]
  },
  {
    "postal": "P3A6S2",
    "result": []
  },
  {
    "postal": "P3A2A2",
    "result": [
      {
        "electoralDistricts": [
          {
            "election": null,
            "id": 103,
            "name": "Sudbury"
          }
        ],
        "pollDivisionIds": [
          10142146
        ],
        "postalCode": "P3A2A2",
        "streetName": "LASALLE",
        "streetDirectionId": null,
        "streetTypeId": "BLVD",
        "placeName": "SUDBURY",
        "streetNameDisplayText": "LASALLE BLVD, SUDBURY"
      }
    ]
  },
  {
    "postal": "P3A6A6",
    "result": [
      {
        "electoralDistricts": [
          {
            "election": null,
            "id": 103,
            "name": "Sudbury"
          }
        ],
        "pollDivisionIds": [
          10142160
        ],
        "postalCode": "P3A6A6",
        "streetName": "CHALMERS",
        "streetDirectionId": null,
        "streetTypeId": "ST",
        "placeName": "SUDBURY",
        "streetNameDisplayText": "CHALMERS ST, SUDBURY"
      }
    ]
  },
  {
    "postal": "P3A0S3",
    "result": []
  },
  {
    "postal": "P3A3E7",
    "result": [
      {
        "electoralDistricts": [
          {
            "election": null,
            "id": 103,
            "name": "Sudbury"
          }
        ],
        "pollDivisionIds": [
          10142148
        ],
        "postalCode": "P3A3E7",
        "streetName": "BEATRICE",
        "streetDirectionId": null,
        "streetTypeId": "CRES",
        "placeName": "SUDBURY",
        "streetNameDisplayText": "BEATRICE CRES, SUDBURY"
      }
    ]
  },
  {
    "postal": "P3A5R7",
    "result": [
      {
        "electoralDistricts": [
          {
            "election": null,
            "id": 103,
            "name": "Sudbury"
          }
        ],
        "pollDivisionIds": [
          10142145
        ],
        "postalCode": "P3A5R7",
        "streetName": "PAQUETTE",
        "streetDirectionId": null,
        "streetTypeId": "ST",
        "placeName": "SUDBURY",
        "streetNameDisplayText": "PAQUETTE ST, SUDBURY"
      }
    ]
  },
  {
    "postal": "P3A3R6",
    "result": [
      {
        "electoralDistricts": [
          {
            "election": null,
            "id": 103,
            "name": "Sudbury"
          }
        ],
        "pollDivisionIds": [
          10142145
        ],
        "postalCode": "P3A3R6",
        "streetName": "HOLLAND",
        "streetDirectionId": null,
        "streetTypeId": "RD",
        "placeName": "SUDBURY",
        "streetNameDisplayText": "HOLLAND RD, SUDBURY"
      }
    ]
  },
  {
    "postal": "P3A6K4",
    "result": []
  },
  {
    "postal": "P3A2W5",
    "result": [
      {
        "electoralDistricts": [
          {
            "election": null,
            "id": 103,
            "name": "Sudbury"
          }
        ],
        "pollDivisionIds": [
          10142147
        ],
        "postalCode": "P3A2W5",
        "streetName": "SOMERS",
        "streetDirectionId": null,
        "streetTypeId": "ST",
        "placeName": "SUDBURY",
        "streetNameDisplayText": "SOMERS ST, SUDBURY"
      }
    ]
  },
  {
    "postal": "P3A8W4",
    "result": []
  },
  {
    "postal": "P3A9C2",
    "result": []
  },
  {
    "postal": "P3A2C0",
    "result": []
  },
  {
    "postal": "P3A0E1",
    "result": []
  },
  {
    "postal": "P3A1K9",
    "result": [
      {
        "electoralDistricts": [
          {
            "election": null,
            "id": 103,
            "name": "Sudbury"
          }
        ],
        "pollDivisionIds": [
          10142148
        ],
        "postalCode": "P3A1K9",
        "streetName": "HAWTHORNE",
        "streetDirectionId": null,
        "streetTypeId": "DR",
        "placeName": "SUDBURY",
        "streetNameDisplayText": "HAWTHORNE DR, SUDBURY"
      }
    ]
  },
  {
    "postal": "P3A1G7",
    "result": [
      {
        "electoralDistricts": [
          {
            "election": null,
            "id": 103,
            "name": "Sudbury"
          }
        ],
        "pollDivisionIds": [
          10142148
        ],
        "postalCode": "P3A1G7",
        "streetName": "GEMMELL",
        "streetDirectionId": null,
        "streetTypeId": "ST",
        "placeName": "SUDBURY",
        "streetNameDisplayText": "GEMMELL ST, SUDBURY"
      }
    ]
  },
  {
    "postal": "P3A4E9",
    "result": [
      {
        "electoralDistricts": [
          {
            "election": null,
            "id": 103,
            "name": "Sudbury"
          }
        ],
        "pollDivisionIds": [
          10142160
        ],
        "postalCode": "P3A4E9",
        "streetName": "GARY",
        "streetDirectionId": null,
        "streetTypeId": "AVE",
        "placeName": "SUDBURY",
        "streetNameDisplayText": "GARY AVE, SUDBURY"
      }
    ]
  },
  {
    "postal": "P3A9P0",
    "result": []
  },
  {
    "postal": "P3A5H3",
    "result": [
      {
        "electoralDistricts": [
          {
            "election": null,
            "id": 103,
            "name": "Sudbury"
          }
        ],
        "pollDivisionIds": [
          10142159
        ],
        "postalCode": "P3A5H3",
        "streetName": "SHADYBROOK",
        "streetDirectionId": null,
        "streetTypeId": "PL",
        "placeName": "SUDBURY",
        "streetNameDisplayText": "SHADYBROOK PL, SUDBURY"
      }
    ]
  },
  {
    "postal": "P3A9X6",
    "result": []
  },
  {
    "postal": "P3A5N7",
    "result": [
      {
        "electoralDistricts": [
          {
            "election": null,
            "id": 103,
            "name": "Sudbury"
          }
        ],
        "pollDivisionIds": [
          10142147
        ],
        "postalCode": "P3A5N7",
        "streetName": "ARTHUR",
        "streetDirectionId": null,
        "streetTypeId": "ST",
        "placeName": "SUDBURY",
        "streetNameDisplayText": "ARTHUR ST, SUDBURY"
      }
    ]
  },
  {
    "postal": "P3A5A6",
    "result": [
      {
        "electoralDistricts": [
          {
            "election": null,
            "id": 103,
            "name": "Sudbury"
          }
        ],
        "pollDivisionIds": [
          10142144
        ],
        "postalCode": "P3A5A6",
        "streetName": "YARMOUTH",
        "streetDirectionId": null,
        "streetTypeId": "ST",
        "placeName": "SUDBURY",
        "streetNameDisplayText": "YARMOUTH ST, SUDBURY"
      }
    ]
  },
  {
    "postal": "P3A4M0",
    "result": []
  },
  {
    "postal": "P3A3V6",
    "result": [
      {
        "electoralDistricts": [
          {
            "election": null,
            "id": 103,
            "name": "Sudbury"
          }
        ],
        "pollDivisionIds": [
          10142145
        ],
        "postalCode": "P3A3V6",
        "streetName": "BARRYDOWNE",
        "streetDirectionId": null,
        "streetTypeId": "RD",
        "placeName": "SUDBURY",
        "streetNameDisplayText": "BARRYDOWNE RD, SUDBURY"
      },
      {
        "electoralDistricts": [
          {
            "election": null,
            "id": 103,
            "name": "Sudbury"
          }
        ],
        "pollDivisionIds": [
          10142145
        ],
        "postalCode": "P3A3V6",
        "streetName": "BARRYDOWNE",
        "streetDirectionId": null,
        "streetTypeId": "RD",
        "placeName": "SUDBURY ONTARIO",
        "streetNameDisplayText": "BARRYDOWNE RD, SUDBURY ONTARIO"
      }
    ]
  },
  {
    "postal": "P3A1L7",
    "result": [
      {
        "electoralDistricts": [
          {
            "election": null,
            "id": 103,
            "name": "Sudbury"
          }
        ],
        "pollDivisionIds": [
          10142152
        ],
        "postalCode": "P3A1L7",
        "streetName": "HAWTHORNE",
        "streetDirectionId": null,
        "streetTypeId": "DR",
        "placeName": "SUDBURY",
        "streetNameDisplayText": "HAWTHORNE DR, SUDBURY"
      }
    ]
  },
  {
    "postal": "P3A2P9",
    "result": [
      {
        "electoralDistricts": [
          {
            "election": null,
            "id": 103,
            "name": "Sudbury"
          }
        ],
        "pollDivisionIds": [
          10142159
        ],
        "postalCode": "P3A2P9",
        "streetName": "MADISON",
        "streetDirectionId": null,
        "streetTypeId": "AVE",
        "placeName": "SUDBURY",
        "streetNameDisplayText": "MADISON AVE, SUDBURY"
      }
    ]
  },
  {
    "postal": "P3A5T4",
    "result": [
      {
        "electoralDistricts": [
          {
            "election": null,
            "id": 103,
            "name": "Sudbury"
          }
        ],
        "pollDivisionIds": [
          10142148
        ],
        "postalCode": "P3A5T4",
        "streetName": "DOWNLAND",
        "streetDirectionId": null,
        "streetTypeId": "AVE",
        "placeName": "SUDBURY",
        "streetNameDisplayText": "DOWNLAND AVE, SUDBURY"
      },
      {
        "electoralDistricts": [
          {
            "election": null,
            "id": 103,
            "name": "Sudbury"
          }
        ],
        "pollDivisionIds": [
          10142148
        ],
        "postalCode": "P3A5T4",
        "streetName": "VISCOUNT",
        "streetDirectionId": null,
        "streetTypeId": "PL",
        "placeName": "SUDBURY",
        "streetNameDisplayText": "VISCOUNT PL, SUDBURY"
      }
    ]
  },
  {
    "postal": "P3A5Z1",
    "result": [
      {
        "electoralDistricts": [
          {
            "election": null,
            "id": 103,
            "name": "Sudbury"
          }
        ],
        "pollDivisionIds": [
          10142167
        ],
        "postalCode": "P3A5Z1",
        "streetName": "WESTMOUNT",
        "streetDirectionId": null,
        "streetTypeId": "AVE",
        "placeName": "SUDBURY",
        "streetNameDisplayText": "WESTMOUNT AVE, SUDBURY"
      }
    ]
  },
  {
    "postal": "P3A2X0",
    "result": []
  },
  {
    "postal": "P3A6Z2",
    "result": []
  },
  {
    "postal": "P3A0E0",
    "result": []
  },
  {
    "postal": "P3A3Z5",
    "result": [
      {
        "electoralDistricts": [
          {
            "election": null,
            "id": 103,
            "name": "Sudbury"
          }
        ],
        "pollDivisionIds": [
          10142145
        ],
        "postalCode": "P3A3Z5",
        "streetName": "VOYAGEUR",
        "streetDirectionId": null,
        "streetTypeId": "ST",
        "placeName": "SUDBURY",
        "streetNameDisplayText": "VOYAGEUR ST, SUDBURY"
      }
    ]
  },
  {
    "postal": "P3A8H3",
    "result": []
  },
  {
    "postal": "P3A7S6",
    "result": []
  },
  {
    "postal": "P3A4C1",
    "result": [
      {
        "electoralDistricts": [
          {
            "election": null,
            "id": 103,
            "name": "Sudbury"
          }
        ],
        "pollDivisionIds": [
          10142156
        ],
        "postalCode": "P3A4C1",
        "streetName": "CLAUDIA",
        "streetDirectionId": null,
        "streetTypeId": "CRT",
        "placeName": "SUDBURY",
        "streetNameDisplayText": "CLAUDIA CRT, SUDBURY"
      }
    ]
  },
  {
    "postal": "P3A3K2",
    "result": [
      {
        "electoralDistricts": [
          {
            "election": null,
            "id": 103,
            "name": "Sudbury"
          }
        ],
        "pollDivisionIds": [
          10142144
        ],
        "postalCode": "P3A3K2",
        "streetName": "AGINCOURT",
        "streetDirectionId": null,
        "streetTypeId": "AVE",
        "placeName": "SUDBURY",
        "streetNameDisplayText": "AGINCOURT AVE, SUDBURY"
      }
    ]
  },
  {
    "postal": "P3A1Y5",
    "result": [
      {
        "electoralDistricts": [
          {
            "election": null,
            "id": 103,
            "name": "Sudbury"
          }
        ],
        "pollDivisionIds": [
          10142143
        ],
        "postalCode": "P3A1Y5",
        "streetName": "LASALLE",
        "streetDirectionId": null,
        "streetTypeId": "BLVD",
        "placeName": "SUDBURY",
        "streetNameDisplayText": "LASALLE BLVD, SUDBURY"
      }
    ]
  },
  {
    "postal": "P3A6P6",
    "result": []
  },
  {
    "postal": "P3A3N9",
    "result": [
      {
        "electoralDistricts": [
          {
            "election": null,
            "id": 103,
            "name": "Sudbury"
          }
        ],
        "pollDivisionIds": [
          10142148
        ],
        "postalCode": "P3A3N9",
        "streetName": "LYNWOOD",
        "streetDirectionId": null,
        "streetTypeId": "DR",
        "placeName": "SUDBURY",
        "streetNameDisplayText": "LYNWOOD DR, SUDBURY"
      }
    ]
  },
  {
    "postal": "P3A3W2",
    "result": [
      {
        "electoralDistricts": [
          {
            "election": null,
            "id": 103,
            "name": "Sudbury"
          }
        ],
        "pollDivisionIds": [
          10142155
        ],
        "postalCode": "P3A3W2",
        "streetName": "GALWAY",
        "streetDirectionId": null,
        "streetTypeId": "CRT",
        "placeName": "SUDBURY",
        "streetNameDisplayText": "GALWAY CRT, SUDBURY"
      }
    ]
  },
  {
    "postal": "P3A6H8",
    "result": []
  },
  {
    "postal": "P3A9T3",
    "result": []
  },
  {
    "postal": "P3A5L9",
    "result": []
  },
  {
    "postal": "P3A7X7",
    "result": []
  },
  {
    "postal": "P3A3J5",
    "result": [
      {
        "electoralDistricts": [
          {
            "election": null,
            "id": 103,
            "name": "Sudbury"
          }
        ],
        "pollDivisionIds": [
          10142143
        ],
        "postalCode": "P3A3J5",
        "streetName": "ATTLEE",
        "streetDirectionId": null,
        "streetTypeId": "AVE",
        "placeName": "SUDBURY",
        "streetNameDisplayText": "ATTLEE AVE, SUDBURY"
      }
    ]
  },
  {
    "postal": "P3A4J5",
    "result": [
      {
        "electoralDistricts": [
          {
            "election": null,
            "id": 103,
            "name": "Sudbury"
          }
        ],
        "pollDivisionIds": [
          10142160
        ],
        "postalCode": "P3A4J5",
        "streetName": "MEADOWSIDE",
        "streetDirectionId": null,
        "streetTypeId": "AVE",
        "placeName": "SUDBURY",
        "streetNameDisplayText": "MEADOWSIDE AVE, SUDBURY"
      }
    ]
  },
  {
    "postal": "P3A6J2",
    "result": []
  },
  {
    "postal": "P3A5V6",
    "result": [
      {
        "electoralDistricts": [
          {
            "election": null,
            "id": 103,
            "name": "Sudbury"
          }
        ],
        "pollDivisionIds": [
          10142158,
          10142167
        ],
        "postalCode": "P3A5V6",
        "streetName": "WESTMOUNT",
        "streetDirectionId": null,
        "streetTypeId": "AVE",
        "placeName": "SUDBURY",
        "streetNameDisplayText": "WESTMOUNT AVE, SUDBURY"
      }
    ]
  },
  {
    "postal": "P3A3N2",
    "result": [
      {
        "electoralDistricts": [
          {
            "election": null,
            "id": 103,
            "name": "Sudbury"
          }
        ],
        "pollDivisionIds": [
          10142145
        ],
        "postalCode": "P3A3N2",
        "streetName": "ROY",
        "streetDirectionId": null,
        "streetTypeId": "AVE",
        "placeName": "SUDBURY",
        "streetNameDisplayText": "ROY AVE, SUDBURY"
      }
    ]
  },
  {
    "postal": "P3A3B1",
    "result": [
      {
        "electoralDistricts": [
          {
            "election": null,
            "id": 103,
            "name": "Sudbury"
          }
        ],
        "pollDivisionIds": [
          10142142
        ],
        "postalCode": "P3A3B1",
        "streetName": "PARISIEN",
        "streetDirectionId": null,
        "streetTypeId": "AVE",
        "placeName": "SUDBURY",
        "streetNameDisplayText": "PARISIEN AVE, SUDBURY"
      }
    ]
  },
  {
    "postal": "P3A8B5",
    "result": []
  },
  {
    "postal": "P3A0K1",
    "result": []
  },
  {
    "postal": "P3A7M7",
    "result": []
  },
  {
    "postal": "P3A2M2",
    "result": [
      {
        "electoralDistricts": [
          {
            "election": null,
            "id": 103,
            "name": "Sudbury"
          }
        ],
        "pollDivisionIds": [
          10142145
        ],
        "postalCode": "P3A2M2",
        "streetName": "WOODBINE",
        "streetDirectionId": null,
        "streetTypeId": "AVE",
        "placeName": "SUDBURY",
        "streetNameDisplayText": "WOODBINE AVE, SUDBURY"
      }
    ]
  },
  {
    "postal": "P3A9N3",
    "result": []
  },
  {
    "postal": "P3A4Y8",
    "result": [
      {
        "electoralDistricts": [
          {
            "election": null,
            "id": 103,
            "name": "Sudbury"
          }
        ],
        "pollDivisionIds": [
          10142156
        ],
        "postalCode": "P3A4Y8",
        "streetName": "HUNTINGTON",
        "streetDirectionId": null,
        "streetTypeId": "DR",
        "placeName": "SUDBURY",
        "streetNameDisplayText": "HUNTINGTON DR, SUDBURY"
      }
    ]
  },
  {
    "postal": "P3A3V7",
    "result": [
      {
        "electoralDistricts": [
          {
            "election": null,
            "id": 103,
            "name": "Sudbury"
          }
        ],
        "pollDivisionIds": [
          10142145
        ],
        "postalCode": "P3A3V7",
        "streetName": "BARRYDOWNE",
        "streetDirectionId": null,
        "streetTypeId": "RD",
        "placeName": "SUDBURY",
        "streetNameDisplayText": "BARRYDOWNE RD, SUDBURY"
      }
    ]
  },
  {
    "postal": "P3A8Z1",
    "result": []
  },
  {
    "postal": "P3A7B3",
    "result": []
  },
  {
    "postal": "P3A3A8",
    "result": [
      {
        "electoralDistricts": [
          {
            "election": null,
            "id": 103,
            "name": "Sudbury"
          }
        ],
        "pollDivisionIds": [
          10142142
        ],
        "postalCode": "P3A3A8",
        "streetName": "NORTHWAY",
        "streetDirectionId": null,
        "streetTypeId": "AVE",
        "placeName": "SUDBURY",
        "streetNameDisplayText": "NORTHWAY AVE, SUDBURY"
      }
    ]
  },
  {
    "postal": "P3A7V5",
    "result": []
  },
  {
    "postal": "P3A2T2",
    "result": [
      {
        "electoralDistricts": [
          {
            "election": null,
            "id": 103,
            "name": "Sudbury"
          }
        ],
        "pollDivisionIds": [
          10142139,
          10142137,
          10142203
        ],
        "postalCode": "P3A2T2",
        "streetName": "NOTRE DAME",
        "streetDirectionId": null,
        "streetTypeId": "AVE",
        "placeName": "SUDBURY",
        "streetNameDisplayText": "NOTRE DAME AVE, SUDBURY"
      }
    ]
  },
  {
    "postal": "P3A6L3",
    "result": []
  },
  {
    "postal": "P3A0L2",
    "result": []
  },
  {
    "postal": "P3A5Y8",
    "result": [
      {
        "electoralDistricts": [
          {
            "election": null,
            "id": 103,
            "name": "Sudbury"
          }
        ],
        "pollDivisionIds": [
          10142142
        ],
        "postalCode": "P3A5Y8",
        "streetName": "PALISADE",
        "streetDirectionId": null,
        "streetTypeId": "PL",
        "placeName": "SUDBURY",
        "streetNameDisplayText": "PALISADE PL, SUDBURY"
      }
    ]
  },
  {
    "postal": "P3A0B8",
    "result": []
  },
  {
    "postal": "P3A6R5",
    "result": []
  },
  {
    "postal": "P3A8W6",
    "result": []
  },
  {
    "postal": "P3A8G6",
    "result": []
  },
  {
    "postal": "P3A6X3",
    "result": []
  },
  {
    "postal": "P3A7R7",
    "result": []
  },
  {
    "postal": "P3A4B6",
    "result": [
      {
        "electoralDistricts": [
          {
            "election": null,
            "id": 103,
            "name": "Sudbury"
          }
        ],
        "pollDivisionIds": [
          10142156
        ],
        "postalCode": "P3A4B6",
        "streetName": "VELRAY",
        "streetDirectionId": null,
        "streetTypeId": "CRT",
        "placeName": "SUDBURY",
        "streetNameDisplayText": "VELRAY CRT, SUDBURY"
      }
    ]
  },
  {
    "postal": "P3A3P9",
    "result": [
      {
        "electoralDistricts": [
          {
            "election": null,
            "id": 103,
            "name": "Sudbury"
          }
        ],
        "pollDivisionIds": [
          10142145
        ],
        "postalCode": "P3A3P9",
        "streetName": "HOLLAND",
        "streetDirectionId": null,
        "streetTypeId": "RD",
        "placeName": "SUDBURY",
        "streetNameDisplayText": "HOLLAND RD, SUDBURY"
      }
    ]
  },
  {
    "postal": "P3A2T3",
    "result": [
      {
        "electoralDistricts": [
          {
            "election": null,
            "id": 103,
            "name": "Sudbury"
          }
        ],
        "pollDivisionIds": [
          10142135
        ],
        "postalCode": "P3A2T3",
        "streetName": "NOTRE DAME",
        "streetDirectionId": null,
        "streetTypeId": "AVE",
        "placeName": "SUDBURY",
        "streetNameDisplayText": "NOTRE DAME AVE, SUDBURY"
      }
    ]
  },
  {
    "postal": "P3A1M4",
    "result": [
      {
        "electoralDistricts": [
          {
            "election": null,
            "id": 103,
            "name": "Sudbury"
          }
        ],
        "pollDivisionIds": [
          10142156
        ],
        "postalCode": "P3A1M4",
        "streetName": "HAWTHORNE",
        "streetDirectionId": null,
        "streetTypeId": "DR",
        "placeName": "SUDBURY",
        "streetNameDisplayText": "HAWTHORNE DR, SUDBURY"
      }
    ]
  },
  {
    "postal": "P3A0H1",
    "result": []
  },
  {
    "postal": "P3A9W3",
    "result": []
  },
  {
    "postal": "P3A6P1",
    "result": []
  },
  {
    "postal": "P3A7G2",
    "result": []
  },
  {
    "postal": "P3A4J9",
    "result": [
      {
        "electoralDistricts": [
          {
            "election": null,
            "id": 103,
            "name": "Sudbury"
          }
        ],
        "pollDivisionIds": [
          10142160
        ],
        "postalCode": "P3A4J9",
        "streetName": "TULANE",
        "streetDirectionId": null,
        "streetTypeId": "AVE",
        "placeName": "SUDBURY",
        "streetNameDisplayText": "TULANE AVE, SUDBURY"
      }
    ]
  },
  {
    "postal": "P3A9E4",
    "result": []
  },
  {
    "postal": "P3A8H0",
    "result": []
  },
  {
    "postal": "P3A4M7",
    "result": [
      {
        "electoralDistricts": [
          {
            "election": null,
            "id": 103,
            "name": "Sudbury"
          }
        ],
        "pollDivisionIds": [
          10142159
        ],
        "postalCode": "P3A4M7",
        "streetName": "EASTERN",
        "streetDirectionId": null,
        "streetTypeId": "AVE",
        "placeName": "SUDBURY",
        "streetNameDisplayText": "EASTERN AVE, SUDBURY"
      }
    ]
  },
  {
    "postal": "P3A2G9",
    "result": [
      {
        "electoralDistricts": [
          {
            "election": null,
            "id": 103,
            "name": "Sudbury"
          }
        ],
        "pollDivisionIds": [
          10142160
        ],
        "postalCode": "P3A2G9",
        "streetName": "SAN FRANCISCO",
        "streetDirectionId": null,
        "streetTypeId": "ST",
        "placeName": "SUDBURY",
        "streetNameDisplayText": "SAN FRANCISCO ST, SUDBURY"
      }
    ]
  },
  {
    "postal": "P3A8T2",
    "result": []
  },
  {
    "postal": "P3A7G7",
    "result": []
  },
  {
    "postal": "P3A4Z3",
    "result": []
  },
  {
    "postal": "P3A5B3",
    "result": [
      {
        "electoralDistricts": [
          {
            "election": null,
            "id": 103,
            "name": "Sudbury"
          }
        ],
        "pollDivisionIds": [
          10142143
        ],
        "postalCode": "P3A5B3",
        "streetName": "CHESTNUT",
        "streetDirectionId": null,
        "streetTypeId": "CRES",
        "placeName": "SUDBURY",
        "streetNameDisplayText": "CHESTNUT CRES, SUDBURY"
      }
    ]
  },
  {
    "postal": "P3A1S7",
    "result": [
      {
        "electoralDistricts": [
          {
            "election": null,
            "id": 103,
            "name": "Sudbury"
          }
        ],
        "pollDivisionIds": [
          10142160
        ],
        "postalCode": "P3A1S7",
        "streetName": "HUDSON",
        "streetDirectionId": null,
        "streetTypeId": "ST",
        "placeName": "SUDBURY",
        "streetNameDisplayText": "HUDSON ST, SUDBURY"
      }
    ]
  },
  {
    "postal": "P3A2N7",
    "result": [
      {
        "electoralDistricts": [
          {
            "election": null,
            "id": 103,
            "name": "Sudbury"
          }
        ],
        "pollDivisionIds": [
          10142160
        ],
        "postalCode": "P3A2N7",
        "streetName": "JOSEPHINE",
        "streetDirectionId": null,
        "streetTypeId": "ST",
        "placeName": "SUDBURY",
        "streetNameDisplayText": "JOSEPHINE ST, SUDBURY"
      }
    ]
  },
  {
    "postal": "P3A0H8",
    "result": []
  },
  {
    "postal": "P3A7Z4",
    "result": []
  },
  {
    "postal": "P3A7B1",
    "result": []
  },
  {
    "postal": "P3A7P8",
    "result": []
  },
  {
    "postal": "P3A7N0",
    "result": []
  },
  {
    "postal": "P3A3Y5",
    "result": [
      {
        "electoralDistricts": [
          {
            "election": null,
            "id": 103,
            "name": "Sudbury"
          }
        ],
        "pollDivisionIds": [
          10142154
        ],
        "postalCode": "P3A3Y5",
        "streetName": "DANFORTH",
        "streetDirectionId": null,
        "streetTypeId": "AVE",
        "placeName": "SUDBURY",
        "streetNameDisplayText": "DANFORTH AVE, SUDBURY"
      }
    ]
  },
  {
    "postal": "P3A6K1",
    "result": []
  },
  {
    "postal": "P3A9X5",
    "result": []
  },
  {
    "postal": "P3A7S5",
    "result": []
  },
  {
    "postal": "P3A0A4",
    "result": []
  },
  {
    "postal": "P3A4T5",
    "result": [
      {
        "electoralDistricts": [
          {
            "election": null,
            "id": 103,
            "name": "Sudbury"
          }
        ],
        "pollDivisionIds": [
          10142142
        ],
        "postalCode": "P3A4T5",
        "streetName": "GRANDVIEW",
        "streetDirectionId": null,
        "streetTypeId": "BLVD",
        "placeName": "SUDBURY",
        "streetNameDisplayText": "GRANDVIEW BLVD, SUDBURY"
      }
    ]
  },
  {
    "postal": "P3A5K1",
    "result": [
      {
        "electoralDistricts": [
          {
            "election": null,
            "id": 103,
            "name": "Sudbury"
          }
        ],
        "pollDivisionIds": [
          10142160
        ],
        "postalCode": "P3A5K1",
        "streetName": "ELISABELLA",
        "streetDirectionId": null,
        "streetTypeId": "ST",
        "placeName": "SUDBURY",
        "streetNameDisplayText": "ELISABELLA ST, SUDBURY"
      }
    ]
  },
  {
    "postal": "P3A0Z9",
    "result": []
  },
  {
    "postal": "P3A7T2",
    "result": []
  },
  {
    "postal": "P3A1L5",
    "result": [
      {
        "electoralDistricts": [
          {
            "election": null,
            "id": 103,
            "name": "Sudbury"
          }
        ],
        "pollDivisionIds": [
          10142152
        ],
        "postalCode": "P3A1L5",
        "streetName": "HAWTHORNE",
        "streetDirectionId": null,
        "streetTypeId": "DR",
        "placeName": "SUDBURY",
        "streetNameDisplayText": "HAWTHORNE DR, SUDBURY"
      }
    ]
  },
  {
    "postal": "P3A3N5",
    "result": [
      {
        "electoralDistricts": [
          {
            "election": null,
            "id": 103,
            "name": "Sudbury"
          }
        ],
        "pollDivisionIds": [
          10142148
        ],
        "postalCode": "P3A3N5",
        "streetName": "LYNWOOD",
        "streetDirectionId": null,
        "streetTypeId": "DR",
        "placeName": "SUDBURY",
        "streetNameDisplayText": "LYNWOOD DR, SUDBURY"
      }
    ]
  },
  {
    "postal": "P3A6H4",
    "result": []
  },
  {
    "postal": "P3A5A5",
    "result": [
      {
        "electoralDistricts": [
          {
            "election": null,
            "id": 103,
            "name": "Sudbury"
          }
        ],
        "pollDivisionIds": [
          10142144
        ],
        "postalCode": "P3A5A5",
        "streetName": "WINDERMERE",
        "streetDirectionId": null,
        "streetTypeId": "CRES",
        "placeName": "SUDBURY",
        "streetNameDisplayText": "WINDERMERE CRES, SUDBURY"
      }
    ]
  },
  {
    "postal": "P3A3R9",
    "result": [
      {
        "electoralDistricts": [
          {
            "election": null,
            "id": 103,
            "name": "Sudbury"
          }
        ],
        "pollDivisionIds": [
          10142148
        ],
        "postalCode": "P3A3R9",
        "streetName": "AFTON",
        "streetDirectionId": null,
        "streetTypeId": "AVE",
        "placeName": "SUDBURY",
        "streetNameDisplayText": "AFTON AVE, SUDBURY"
      }
    ]
  },
  {
    "postal": "P3A7L8",
    "result": []
  },
  {
    "postal": "P3A6T6",
    "result": []
  },
  {
    "postal": "P3A7Y7",
    "result": []
  },
  {
    "postal": "P3A3M8",
    "result": [
      {
        "electoralDistricts": [
          {
            "election": null,
            "id": 103,
            "name": "Sudbury"
          }
        ],
        "pollDivisionIds": [
          10142145
        ],
        "postalCode": "P3A3M8",
        "streetName": "ROY",
        "streetDirectionId": null,
        "streetTypeId": "AVE",
        "placeName": "SUDBURY",
        "streetNameDisplayText": "ROY AVE, SUDBURY"
      }
    ]
  },
  {
    "postal": "P3A2E0",
    "result": []
  },
  {
    "postal": "P3A4B5",
    "result": [
      {
        "electoralDistricts": [
          {
            "election": null,
            "id": 103,
            "name": "Sudbury"
          }
        ],
        "pollDivisionIds": [
          10142159
        ],
        "postalCode": "P3A4B5",
        "streetName": "BERKLEY",
        "streetDirectionId": null,
        "streetTypeId": "CRT",
        "placeName": "SUDBURY",
        "streetNameDisplayText": "BERKLEY CRT, SUDBURY"
      }
    ]
  },
  {
    "postal": "P3A1J3",
    "result": [
      {
        "electoralDistricts": [
          {
            "election": null,
            "id": 103,
            "name": "Sudbury"
          }
        ],
        "pollDivisionIds": [
          10142156
        ],
        "postalCode": "P3A1J3",
        "streetName": "WELSH",
        "streetDirectionId": null,
        "streetTypeId": "ST",
        "placeName": "SUDBURY",
        "streetNameDisplayText": "WELSH ST, SUDBURY"
      }
    ]
  },
  {
    "postal": "P3A5S6",
    "result": [
      {
        "electoralDistricts": [
          {
            "election": null,
            "id": 103,
            "name": "Sudbury"
          }
        ],
        "pollDivisionIds": [
          10142158
        ],
        "postalCode": "P3A5S6",
        "streetName": "COLDSTREAM",
        "streetDirectionId": null,
        "streetTypeId": "PL",
        "placeName": "SUDBURY",
        "streetNameDisplayText": "COLDSTREAM PL, SUDBURY"
      }
    ]
  },
  {
    "postal": "P3A8P7",
    "result": []
  },
  {
    "postal": "P3A7S7",
    "result": []
  },
  {
    "postal": "P3A4C2",
    "result": [
      {
        "electoralDistricts": [
          {
            "election": null,
            "id": 103,
            "name": "Sudbury"
          }
        ],
        "pollDivisionIds": [
          10142156
        ],
        "postalCode": "P3A4C2",
        "streetName": "CLAUDIA",
        "streetDirectionId": null,
        "streetTypeId": "CRT",
        "placeName": "SUDBURY",
        "streetNameDisplayText": "CLAUDIA CRT, SUDBURY"
      }
    ]
  },
  {
    "postal": "P3A5Y0",
    "result": []
  },
  {
    "postal": "P3A2V7",
    "result": [
      {
        "electoralDistricts": [
          {
            "election": null,
            "id": 103,
            "name": "Sudbury"
          }
        ],
        "pollDivisionIds": [
          10142139
        ],
        "postalCode": "P3A2V7",
        "streetName": "O'GRADY",
        "streetDirectionId": null,
        "streetTypeId": "ST",
        "placeName": "SUDBURY",
        "streetNameDisplayText": "O'GRADY ST, SUDBURY"
      }
    ]
  },
  {
    "postal": "P3A8P5",
    "result": []
  },
  {
    "postal": "P3A5P5",
    "result": [
      {
        "electoralDistricts": [
          {
            "election": null,
            "id": 103,
            "name": "Sudbury"
          }
        ],
        "pollDivisionIds": [
          10142160
        ],
        "postalCode": "P3A5P5",
        "streetName": "LASALLE",
        "streetDirectionId": null,
        "streetTypeId": "BLVD",
        "placeName": "SUDBURY",
        "streetNameDisplayText": "LASALLE BLVD, SUDBURY"
      }
    ]
  },
  {
    "postal": "P3A5Z0",
    "result": []
  },
  {
    "postal": "P3A9B0",
    "result": []
  },
  {
    "postal": "P3A1L0",
    "result": []
  },
  {
    "postal": "P3A0B5",
    "result": []
  },
  {
    "postal": "P3A3L2",
    "result": [
      {
        "electoralDistricts": [
          {
            "election": null,
            "id": 103,
            "name": "Sudbury"
          }
        ],
        "pollDivisionIds": [
          10142147
        ],
        "postalCode": "P3A3L2",
        "streetName": "MOUNTVIEW",
        "streetDirectionId": null,
        "streetTypeId": "CRES",
        "placeName": "SUDBURY",
        "streetNameDisplayText": "MOUNTVIEW CRES, SUDBURY"
      }
    ]
  },
  {
    "postal": "P3A3B7",
    "result": [
      {
        "electoralDistricts": [
          {
            "election": null,
            "id": 103,
            "name": "Sudbury"
          }
        ],
        "pollDivisionIds": [
          10142142
        ],
        "postalCode": "P3A3B7",
        "streetName": "MAYFAIR",
        "streetDirectionId": null,
        "streetTypeId": "CRT",
        "placeName": "SUDBURY",
        "streetNameDisplayText": "MAYFAIR CRT, SUDBURY"
      }
    ]
  },
  {
    "postal": "P3A8L1",
    "result": []
  },
  {
    "postal": "P3A5M4",
    "result": [
      {
        "electoralDistricts": [
          {
            "election": null,
            "id": 103,
            "name": "Sudbury"
          }
        ],
        "pollDivisionIds": [
          10142158
        ],
        "postalCode": "P3A5M4",
        "streetName": "BRIDGEWATER",
        "streetDirectionId": null,
        "streetTypeId": "CRT",
        "placeName": "SUDBURY",
        "streetNameDisplayText": "BRIDGEWATER CRT, SUDBURY"
      },
      {
        "electoralDistricts": [
          {
            "election": null,
            "id": 103,
            "name": "Sudbury"
          }
        ],
        "pollDivisionIds": [
          10142159,
          10142158
        ],
        "postalCode": "P3A5M4",
        "streetName": "VALLEYSTREAM",
        "streetDirectionId": null,
        "streetTypeId": "DR",
        "placeName": "SUDBURY",
        "streetNameDisplayText": "VALLEYSTREAM DR, SUDBURY"
      }
    ]
  },
  {
    "postal": "P3A4G9",
    "result": [
      {
        "electoralDistricts": [
          {
            "election": null,
            "id": 103,
            "name": "Sudbury"
          }
        ],
        "pollDivisionIds": [
          10142159
        ],
        "postalCode": "P3A4G9",
        "streetName": "DOLLARD",
        "streetDirectionId": null,
        "streetTypeId": "AVE",
        "placeName": "SUDBURY",
        "streetNameDisplayText": "DOLLARD AVE, SUDBURY"
      }
    ]
  },
  {
    "postal": "P3A0P0",
    "result": []
  },
  {
    "postal": "P3A8G2",
    "result": []
  },
  {
    "postal": "P3A1V9",
    "result": [
      {
        "electoralDistricts": [
          {
            "election": null,
            "id": 103,
            "name": "Sudbury"
          }
        ],
        "pollDivisionIds": [
          10142147
        ],
        "postalCode": "P3A1V9",
        "streetName": "CHAPMAN",
        "streetDirectionId": null,
        "streetTypeId": "ST",
        "placeName": "SUDBURY",
        "streetNameDisplayText": "CHAPMAN ST, SUDBURY"
      }
    ]
  },
  {
    "postal": "P3A8N8",
    "result": []
  },
  {
    "postal": "P3A6S8",
    "result": []
  },
  {
    "postal": "P3A8H2",
    "result": []
  },
  {
    "postal": "P3A5R8",
    "result": [
      {
        "electoralDistricts": [
          {
            "election": null,
            "id": 103,
            "name": "Sudbury"
          }
        ],
        "pollDivisionIds": [
          10142167
        ],
        "postalCode": "P3A5R8",
        "streetName": "STONEGATE",
        "streetDirectionId": null,
        "streetTypeId": "DR",
        "placeName": "SUDBURY",
        "streetNameDisplayText": "STONEGATE DR, SUDBURY"
      }
    ]
  },
  {
    "postal": "P3A5L4",
    "result": []
  },
  {
    "postal": "P3A9E1",
    "result": []
  },
  {
    "postal": "P3A1C4",
    "result": [
      {
        "electoralDistricts": [
          {
            "election": null,
            "id": 103,
            "name": "Sudbury"
          }
        ],
        "pollDivisionIds": [
          10142156
        ],
        "postalCode": "P3A1C4",
        "streetName": "WESTMOUNT",
        "streetDirectionId": null,
        "streetTypeId": "AVE",
        "placeName": "SUDBURY",
        "streetNameDisplayText": "WESTMOUNT AVE, SUDBURY"
      }
    ]
  },
  {
    "postal": "P3A8W5",
    "result": []
  },
  {
    "postal": "P3A1Y4",
    "result": [
      {
        "electoralDistricts": [
          {
            "election": null,
            "id": 103,
            "name": "Sudbury"
          }
        ],
        "pollDivisionIds": [
          10142143
        ],
        "postalCode": "P3A1Y4",
        "streetName": "LASALLE",
        "streetDirectionId": null,
        "streetTypeId": "BLVD",
        "placeName": "SUDBURY",
        "streetNameDisplayText": "LASALLE BLVD, SUDBURY"
      }
    ]
  },
  {
    "postal": "P3A1C0",
    "result": []
  },
  {
    "postal": "P3A2J2",
    "result": [
      {
        "electoralDistricts": [
          {
            "election": null,
            "id": 103,
            "name": "Sudbury"
          }
        ],
        "pollDivisionIds": [
          10142145
        ],
        "postalCode": "P3A2J2",
        "streetName": "LAMOTHE",
        "streetDirectionId": null,
        "streetTypeId": "ST",
        "placeName": "SUDBURY",
        "streetNameDisplayText": "LAMOTHE ST, SUDBURY"
      }
    ]
  },
  {
    "postal": "P3A2J0",
    "result": []
  },
  {
    "postal": "P3A7A3",
    "result": []
  },
  {
    "postal": "P3A8M1",
    "result": []
  },
  {
    "postal": "P3A7T9",
    "result": []
  },
  {
    "postal": "P3A6C0",
    "result": []
  },
  {
    "postal": "P3A7X1",
    "result": []
  },
  {
    "postal": "P3A0G1",
    "result": []
  },
  {
    "postal": "P3A4X2",
    "result": []
  },
  {
    "postal": "P3A0N6",
    "result": []
  },
  {
    "postal": "P3A8E3",
    "result": []
  },
  {
    "postal": "P3A5S8",
    "result": [
      {
        "electoralDistricts": [
          {
            "election": null,
            "id": 103,
            "name": "Sudbury"
          }
        ],
        "pollDivisionIds": [
          10142158
        ],
        "postalCode": "P3A5S8",
        "streetName": "COLDSTREAM",
        "streetDirectionId": null,
        "streetTypeId": "PL",
        "placeName": "SUDBURY",
        "streetNameDisplayText": "COLDSTREAM PL, SUDBURY"
      },
      {
        "electoralDistricts": [
          {
            "election": null,
            "id": 103,
            "name": "Sudbury"
          }
        ],
        "pollDivisionIds": [
          10142158
        ],
        "postalCode": "P3A5S8",
        "streetName": "ORCHID",
        "streetDirectionId": null,
        "streetTypeId": "DR",
        "placeName": "SUDBURY",
        "streetNameDisplayText": "ORCHID DR, SUDBURY"
      }
    ]
  },
  {
    "postal": "P3A0R0",
    "result": []
  },
  {
    "postal": "P3A6J6",
    "result": []
  },
  {
    "postal": "P3A4B4",
    "result": [
      {
        "electoralDistricts": [
          {
            "election": null,
            "id": 103,
            "name": "Sudbury"
          }
        ],
        "pollDivisionIds": [
          10142159
        ],
        "postalCode": "P3A4B4",
        "streetName": "BERKELY",
        "streetDirectionId": null,
        "streetTypeId": "CRT",
        "placeName": "SUDBURY",
        "streetNameDisplayText": "BERKELY CRT, SUDBURY"
      },
      {
        "electoralDistricts": [
          {
            "election": null,
            "id": 103,
            "name": "Sudbury"
          }
        ],
        "pollDivisionIds": [
          10142159
        ],
        "postalCode": "P3A4B4",
        "streetName": "BERKLEY",
        "streetDirectionId": null,
        "streetTypeId": "CRT",
        "placeName": "SUDBURY",
        "streetNameDisplayText": "BERKLEY CRT, SUDBURY"
      }
    ]
  },
  {
    "postal": "P3A7E3",
    "result": []
  },
  {
    "postal": "P3A3N6",
    "result": [
      {
        "electoralDistricts": [
          {
            "election": null,
            "id": 103,
            "name": "Sudbury"
          }
        ],
        "pollDivisionIds": [
          10142148
        ],
        "postalCode": "P3A3N6",
        "streetName": "LYNWOOD",
        "streetDirectionId": null,
        "streetTypeId": "DR",
        "placeName": "SUDBURY",
        "streetNameDisplayText": "LYNWOOD DR, SUDBURY"
      }
    ]
  },
  {
    "postal": "P3A3X6",
    "result": [
      {
        "electoralDistricts": [
          {
            "election": null,
            "id": 103,
            "name": "Sudbury"
          }
        ],
        "pollDivisionIds": [
          10142152
        ],
        "postalCode": "P3A3X6",
        "streetName": "DELAWARE",
        "streetDirectionId": null,
        "streetTypeId": "AVE",
        "placeName": "SUDBURY",
        "streetNameDisplayText": "DELAWARE AVE, SUDBURY"
      }
    ]
  },
  {
    "postal": "P3A8L0",
    "result": []
  },
  {
    "postal": "P3A8N1",
    "result": []
  },
  {
    "postal": "P3A4J0",
    "result": []
  },
  {
    "postal": "P3A0X7",
    "result": []
  },
  {
    "postal": "P3A6S4",
    "result": []
  },
  {
    "postal": "P3A0Z0",
    "result": []
  },
  {
    "postal": "P3A9X8",
    "result": []
  },
  {
    "postal": "P3A3H3",
    "result": [
      {
        "electoralDistricts": [
          {
            "election": null,
            "id": 103,
            "name": "Sudbury"
          }
        ],
        "pollDivisionIds": [
          10142143
        ],
        "postalCode": "P3A3H3",
        "streetName": "CARMEN",
        "streetDirectionId": null,
        "streetTypeId": "ST",
        "placeName": "SUDBURY",
        "streetNameDisplayText": "CARMEN ST, SUDBURY"
      }
    ]
  },
  {
    "postal": "P3A7S2",
    "result": []
  },
  {
    "postal": "P3A3T3",
    "result": [
      {
        "electoralDistricts": [
          {
            "election": null,
            "id": 103,
            "name": "Sudbury"
          }
        ],
        "pollDivisionIds": [
          10142155
        ],
        "postalCode": "P3A3T3",
        "streetName": "BARRYDOWNE",
        "streetDirectionId": null,
        "streetTypeId": "RD",
        "placeName": "SUDBURY",
        "streetNameDisplayText": "BARRYDOWNE RD, SUDBURY"
      }
    ]
  },
  {
    "postal": "P3A9P3",
    "result": []
  },
  {
    "postal": "P3A4H8",
    "result": [
      {
        "electoralDistricts": [
          {
            "election": null,
            "id": 103,
            "name": "Sudbury"
          }
        ],
        "pollDivisionIds": [
          10142159
        ],
        "postalCode": "P3A4H8",
        "streetName": "DONWOOD",
        "streetDirectionId": null,
        "streetTypeId": "DR",
        "placeName": "SUDBURY",
        "streetNameDisplayText": "DONWOOD DR, SUDBURY"
      }
    ]
  },
  {
    "postal": "P3A6R1",
    "result": []
  },
  {
    "postal": "P3A1S0",
    "result": []
  },
  {
    "postal": "P3A3W8",
    "result": [
      {
        "electoralDistricts": [
          {
            "election": null,
            "id": 103,
            "name": "Sudbury"
          }
        ],
        "pollDivisionIds": [
          10142152
        ],
        "postalCode": "P3A3W8",
        "streetName": "PATRICK",
        "streetDirectionId": null,
        "streetTypeId": "AVE",
        "placeName": "SUDBURY",
        "streetNameDisplayText": "PATRICK AVE, SUDBURY"
      }
    ]
  },
  {
    "postal": "P3A4S3",
    "result": []
  },
  {
    "postal": "P3A1B6",
    "result": [
      {
        "electoralDistricts": [
          {
            "election": null,
            "id": 103,
            "name": "Sudbury"
          }
        ],
        "pollDivisionIds": [
          10142153
        ],
        "postalCode": "P3A1B6",
        "streetName": "WESTMOUNT",
        "streetDirectionId": null,
        "streetTypeId": "AVE",
        "placeName": "SUDBURY",
        "streetNameDisplayText": "WESTMOUNT AVE, SUDBURY"
      }
    ]
  },
  {
    "postal": "P3A8R3",
    "result": []
  },
  {
    "postal": "P3A4V9",
    "result": [
      {
        "electoralDistricts": [
          {
            "election": null,
            "id": 103,
            "name": "Sudbury"
          }
        ],
        "pollDivisionIds": [
          10142159
        ],
        "postalCode": "P3A4V9",
        "streetName": "GRENOBLE",
        "streetDirectionId": null,
        "streetTypeId": "ST",
        "placeName": "SUDBURY",
        "streetNameDisplayText": "GRENOBLE ST, SUDBURY"
      }
    ]
  },
  {
    "postal": "P3A9W4",
    "result": []
  },
  {
    "postal": "P3A3T4",
    "result": [
      {
        "electoralDistricts": [
          {
            "election": null,
            "id": 103,
            "name": "Sudbury"
          }
        ],
        "pollDivisionIds": [
          10142167,
          10142169
        ],
        "postalCode": "P3A3T4",
        "streetName": "BARRYDOWNE",
        "streetDirectionId": null,
        "streetTypeId": "RD",
        "placeName": "SUDBURY",
        "streetNameDisplayText": "BARRYDOWNE RD, SUDBURY"
      }
    ]
  },
  {
    "postal": "P3A5C7",
    "result": [
      {
        "electoralDistricts": [
          {
            "election": null,
            "id": 103,
            "name": "Sudbury"
          }
        ],
        "pollDivisionIds": [
          10142158
        ],
        "postalCode": "P3A5C7",
        "streetName": "HAVENBROOK",
        "streetDirectionId": null,
        "streetTypeId": "DR",
        "placeName": "SUDBURY",
        "streetNameDisplayText": "HAVENBROOK DR, SUDBURY"
      }
    ]
  },
  {
    "postal": "P3A3Y1",
    "result": [
      {
        "electoralDistricts": [
          {
            "election": null,
            "id": 103,
            "name": "Sudbury"
          }
        ],
        "pollDivisionIds": [
          10142145
        ],
        "postalCode": "P3A3Y1",
        "streetName": "PAQUETTE",
        "streetDirectionId": null,
        "streetTypeId": "ST",
        "placeName": "SUDBURY",
        "streetNameDisplayText": "PAQUETTE ST, SUDBURY"
      }
    ]
  },
  {
    "postal": "P3A5V0",
    "result": []
  },
  {
    "postal": "P3A8G8",
    "result": []
  },
  {
    "postal": "P3A8B1",
    "result": []
  },
  {
    "postal": "P3A4P5",
    "result": [
      {
        "electoralDistricts": [
          {
            "election": null,
            "id": 103,
            "name": "Sudbury"
          }
        ],
        "pollDivisionIds": [
          10142160
        ],
        "postalCode": "P3A4P5",
        "streetName": "CARMELO",
        "streetDirectionId": null,
        "streetTypeId": "AVE",
        "placeName": "SUDBURY",
        "streetNameDisplayText": "CARMELO AVE, SUDBURY"
      }
    ]
  },
  {
    "postal": "P3A7B2",
    "result": []
  },
  {
    "postal": "P3A0R2",
    "result": []
  },
  {
    "postal": "P3A4M4",
    "result": [
      {
        "electoralDistricts": [
          {
            "election": null,
            "id": 103,
            "name": "Sudbury"
          }
        ],
        "pollDivisionIds": [
          10142159
        ],
        "postalCode": "P3A4M4",
        "streetName": "CRESTMOOR",
        "streetDirectionId": null,
        "streetTypeId": "RD",
        "placeName": "SUDBURY",
        "streetNameDisplayText": "CRESTMOOR RD, SUDBURY"
      }
    ]
  },
  {
    "postal": "P3A7M4",
    "result": []
  },
  {
    "postal": "P3A9S7",
    "result": []
  },
  {
    "postal": "P3A5Z7",
    "result": [
      {
        "electoralDistricts": [
          {
            "election": null,
            "id": 103,
            "name": "Sudbury"
          }
        ],
        "pollDivisionIds": [
          10142145
        ],
        "postalCode": "P3A5Z7",
        "streetName": "SPARKS",
        "streetDirectionId": null,
        "streetTypeId": "ST",
        "placeName": "SUDBURY",
        "streetNameDisplayText": "SPARKS ST, SUDBURY"
      }
    ]
  },
  {
    "postal": "P3A7J7",
    "result": []
  },
  {
    "postal": "P3A8R8",
    "result": []
  },
  {
    "postal": "P3A9X1",
    "result": []
  },
  {
    "postal": "P3A5M9",
    "result": [
      {
        "electoralDistricts": [
          {
            "election": null,
            "id": 103,
            "name": "Sudbury"
          }
        ],
        "pollDivisionIds": [
          10142167
        ],
        "postalCode": "P3A5M9",
        "streetName": "WILLIAM",
        "streetDirectionId": null,
        "streetTypeId": "AVE",
        "placeName": "SUDBURY",
        "streetNameDisplayText": "WILLIAM AVE, SUDBURY"
      }
    ]
  },
  {
    "postal": "P3A9B4",
    "result": []
  },
  {
    "postal": "P3A0L9",
    "result": []
  },
  {
    "postal": "P3A9G4",
    "result": []
  },
  {
    "postal": "P3A1J4",
    "result": [
      {
        "electoralDistricts": [
          {
            "election": null,
            "id": 103,
            "name": "Sudbury"
          }
        ],
        "pollDivisionIds": [
          10142156
        ],
        "postalCode": "P3A1J4",
        "streetName": "WELSH",
        "streetDirectionId": null,
        "streetTypeId": "ST",
        "placeName": "SUDBURY",
        "streetNameDisplayText": "WELSH ST, SUDBURY"
      }
    ]
  },
  {
    "postal": "P3A0W6",
    "result": []
  }
]
