[
  {
    "postal": "N9A9J6",
    "result": []
  },
  {
    "postal": "N9A9Z5",
    "result": []
  },
  {
    "postal": "N9A7H8",
    "result": []
  },
  {
    "postal": "N9A0P6",
    "result": []
  },
  {
    "postal": "N9A0S7",
    "result": []
  },
  {
    "postal": "N9A8B9",
    "result": []
  },
  {
    "postal": "N9A2A6",
    "result": [
      {
        "electoralDistricts": [
          {
            "election": null,
            "id": 119,
            "name": "Windsor West"
          }
        ],
        "pollDivisionIds": [
          10142795
        ],
        "postalCode": "N9A2A6",
        "streetName": "ELSMERE",
        "streetDirectionId": null,
        "streetTypeId": "AVE",
        "placeName": "WINDSOR",
        "streetNameDisplayText": "ELSMERE AVE, WINDSOR"
      }
    ]
  },
  {
    "postal": "N9A7V2",
    "result": []
  },
  {
    "postal": "N9A9P4",
    "result": []
  },
  {
    "postal": "N9A6G0",
    "result": []
  },
  {
    "postal": "N9A2K0",
    "result": []
  },
  {
    "postal": "N9A7N6",
    "result": []
  },
  {
    "postal": "N9A5R3",
    "result": []
  },
  {
    "postal": "N9A7K0",
    "result": []
  },
  {
    "postal": "N9A3R2",
    "result": [
      {
        "electoralDistricts": [
          {
            "election": null,
            "id": 118,
            "name": "Windsor—Tecumseh"
          }
        ],
        "pollDivisionIds": [
          10142710
        ],
        "postalCode": "N9A3R2",
        "streetName": "CATARAQUI",
        "streetDirectionId": null,
        "streetTypeId": "ST",
        "placeName": "WINDSOR",
        "streetNameDisplayText": "CATARAQUI ST, WINDSOR"
      }
    ]
  },
  {
    "postal": "N9A0J1",
    "result": []
  },
  {
    "postal": "N9A0B0",
    "result": []
  },
  {
    "postal": "N9A5Z2",
    "result": [
      {
        "electoralDistricts": [
          {
            "election": null,
            "id": 119,
            "name": "Windsor West"
          }
        ],
        "pollDivisionIds": [
          10142787
        ],
        "postalCode": "N9A5Z2",
        "streetName": "ELLIOTT",
        "streetDirectionId": "W",
        "streetTypeId": "ST",
        "placeName": "WINDSOR",
        "streetNameDisplayText": "ELLIOTT ST W, WINDSOR"
      }
    ]
  },
  {
    "postal": "N9A7P3",
    "result": []
  },
  {
    "postal": "N9A2K3",
    "result": [
      {
        "electoralDistricts": [
          {
            "election": null,
            "id": 118,
            "name": "Windsor—Tecumseh"
          }
        ],
        "pollDivisionIds": [
          10142710
        ],
        "postalCode": "N9A2K3",
        "streetName": "PIERRE",
        "streetDirectionId": null,
        "streetTypeId": "AVE",
        "placeName": "WINDSOR",
        "streetNameDisplayText": "PIERRE AVE, WINDSOR"
      }
    ]
  },
  {
    "postal": "N9A7Y6",
    "result": []
  },
  {
    "postal": "N9A1L9",
    "result": [
      {
        "electoralDistricts": [
          {
            "election": null,
            "id": 119,
            "name": "Windsor West"
          }
        ],
        "pollDivisionIds": [
          10142795
        ],
        "postalCode": "N9A1L9",
        "streetName": "MCDOUGALL",
        "streetDirectionId": null,
        "streetTypeId": "ST",
        "placeName": "WINDSOR",
        "streetNameDisplayText": "MCDOUGALL ST, WINDSOR"
      }
    ]
  },
  {
    "postal": "N9A8T0",
    "result": []
  },
  {
    "postal": "N9A3K8",
    "result": [
      {
        "electoralDistricts": [
          {
            "election": null,
            "id": 118,
            "name": "Windsor—Tecumseh"
          }
        ],
        "pollDivisionIds": [
          10142710
        ],
        "postalCode": "N9A3K8",
        "streetName": "WYANDOTTE",
        "streetDirectionId": "E",
        "streetTypeId": "ST",
        "placeName": "WINDSOR",
        "streetNameDisplayText": "WYANDOTTE ST E, WINDSOR"
      }
    ]
  },
  {
    "postal": "N9A5W9",
    "result": [
      {
        "electoralDistricts": [
          {
            "election": null,
            "id": 119,
            "name": "Windsor West"
          }
        ],
        "pollDivisionIds": [
          10142785
        ],
        "postalCode": "N9A5W9",
        "streetName": "WYANDOTTE",
        "streetDirectionId": "W",
        "streetTypeId": "ST",
        "placeName": "WINDSOR",
        "streetNameDisplayText": "WYANDOTTE ST W, WINDSOR"
      }
    ]
  },
  {
    "postal": "N9A6T9",
    "result": []
  },
  {
    "postal": "N9A4H1",
    "result": [
      {
        "electoralDistricts": [
          {
            "election": null,
            "id": 118,
            "name": "Windsor—Tecumseh"
          }
        ],
        "pollDivisionIds": [
          10142712
        ],
        "postalCode": "N9A4H1",
        "streetName": "GILES",
        "streetDirectionId": "E",
        "streetTypeId": "BLVD",
        "placeName": "WINDSOR",
        "streetNameDisplayText": "GILES BLVD E, WINDSOR"
      }
    ]
  },
  {
    "postal": "N9A7A2",
    "result": [
      {
        "electoralDistricts": [
          {
            "election": null,
            "id": 119,
            "name": "Windsor West"
          }
        ],
        "pollDivisionIds": [
          10142820
        ],
        "postalCode": "N9A7A2",
        "streetName": "PARK",
        "streetDirectionId": "W",
        "streetTypeId": "ST",
        "placeName": "WINDSOR",
        "streetNameDisplayText": "PARK ST W, WINDSOR"
      }
    ]
  },
  {
    "postal": "N9A5G0",
    "result": []
  },
  {
    "postal": "N9A8V5",
    "result": []
  },
  {
    "postal": "N9A2Y8",
    "result": []
  },
  {
    "postal": "N9A2B6",
    "result": [
      {
        "electoralDistricts": [
          {
            "election": null,
            "id": 119,
            "name": "Windsor West"
          }
        ],
        "pollDivisionIds": [
          10142791
        ],
        "postalCode": "N9A2B6",
        "streetName": "PARENT",
        "streetDirectionId": null,
        "streetTypeId": "AVE",
        "placeName": "WINDSOR",
        "streetNameDisplayText": "PARENT AVE, WINDSOR"
      }
    ]
  },
  {
    "postal": "N9A4W8",
    "result": [
      {
        "electoralDistricts": [
          {
            "election": null,
            "id": 119,
            "name": "Windsor West"
          }
        ],
        "pollDivisionIds": [
          10142785
        ],
        "postalCode": "N9A4W8",
        "streetName": "BRUCE",
        "streetDirectionId": null,
        "streetTypeId": "AVE",
        "placeName": "WINDSOR",
        "streetNameDisplayText": "BRUCE AVE, WINDSOR"
      }
    ]
  },
  {
    "postal": "N9A8H7",
    "result": []
  },
  {
    "postal": "N9A5P1",
    "result": [
      {
        "electoralDistricts": [
          {
            "election": null,
            "id": 119,
            "name": "Windsor West"
          }
        ],
        "pollDivisionIds": [
          10142791,
          10142785
        ],
        "postalCode": "N9A5P1",
        "streetName": "UNIVERSITY",
        "streetDirectionId": "W",
        "streetTypeId": "AVE",
        "placeName": "WINDSOR",
        "streetNameDisplayText": "UNIVERSITY AVE W, WINDSOR"
      }
    ]
  },
  {
    "postal": "N9A2B8",
    "result": [
      {
        "electoralDistricts": [
          {
            "election": null,
            "id": 119,
            "name": "Windsor West"
          }
        ],
        "pollDivisionIds": [
          10142791
        ],
        "postalCode": "N9A2B8",
        "streetName": "PARENT",
        "streetDirectionId": null,
        "streetTypeId": "AVE",
        "placeName": "WINDSOR",
        "streetNameDisplayText": "PARENT AVE, WINDSOR"
      }
    ]
  },
  {
    "postal": "N9A0P2",
    "result": []
  },
  {
    "postal": "N9A9M1",
    "result": []
  },
  {
    "postal": "N9A3G0",
    "result": []
  },
  {
    "postal": "N9A9Z2",
    "result": []
  },
  {
    "postal": "N9A2A0",
    "result": []
  },
  {
    "postal": "N9A6Y0",
    "result": []
  },
  {
    "postal": "N9A2Z8",
    "result": [
      {
        "electoralDistricts": [
          {
            "election": null,
            "id": 119,
            "name": "Windsor West"
          }
        ],
        "pollDivisionIds": [
          10142791
        ],
        "postalCode": "N9A2Z8",
        "streetName": "UNIVERSITY",
        "streetDirectionId": "E",
        "streetTypeId": "AVE",
        "placeName": "WINDSOR",
        "streetNameDisplayText": "UNIVERSITY AVE E, WINDSOR"
      }
    ]
  },
  {
    "postal": "N9A7Y3",
    "result": []
  },
  {
    "postal": "N9A6Z5",
    "result": []
  },
  {
    "postal": "N9A6E0",
    "result": []
  },
  {
    "postal": "N9A9B7",
    "result": []
  },
  {
    "postal": "N9A9S5",
    "result": []
  },
  {
    "postal": "N9A3X3",
    "result": [
      {
        "electoralDistricts": [
          {
            "election": null,
            "id": 119,
            "name": "Windsor West"
          }
        ],
        "pollDivisionIds": [
          10142795
        ],
        "postalCode": "N9A3X3",
        "streetName": "ERIE",
        "streetDirectionId": "E",
        "streetTypeId": "ST",
        "placeName": "WINDSOR",
        "streetNameDisplayText": "ERIE ST E, WINDSOR"
      }
    ]
  },
  {
    "postal": "N9A7R5",
    "result": []
  },
  {
    "postal": "N9A2X3",
    "result": [
      {
        "electoralDistricts": [
          {
            "election": null,
            "id": 119,
            "name": "Windsor West"
          }
        ],
        "pollDivisionIds": [
          10142791
        ],
        "postalCode": "N9A2X3",
        "streetName": "CHATHAM",
        "streetDirectionId": "E",
        "streetTypeId": "ST",
        "placeName": "WINDSOR",
        "streetNameDisplayText": "CHATHAM ST E, WINDSOR"
      }
    ]
  },
  {
    "postal": "N9A8Z9",
    "result": []
  },
  {
    "postal": "N9A0N4",
    "result": []
  },
  {
    "postal": "N9A1K1",
    "result": [
      {
        "electoralDistricts": [
          {
            "election": null,
            "id": 119,
            "name": "Windsor West"
          }
        ],
        "pollDivisionIds": [
          10142795
        ],
        "postalCode": "N9A1K1",
        "streetName": "WINDSOR",
        "streetDirectionId": null,
        "streetTypeId": "AVE",
        "placeName": "WINDSOR",
        "streetNameDisplayText": "WINDSOR AVE, WINDSOR"
      }
    ]
  },
  {
    "postal": "N9A1S3",
    "result": [
      {
        "electoralDistricts": [
          {
            "election": null,
            "id": 119,
            "name": "Windsor West"
          }
        ],
        "pollDivisionIds": [
          10142795
        ],
        "postalCode": "N9A1S3",
        "streetName": "HOWARD",
        "streetDirectionId": null,
        "streetTypeId": "AVE",
        "placeName": "WINDSOR",
        "streetNameDisplayText": "HOWARD AVE, WINDSOR"
      }
    ]
  },
  {
    "postal": "N9A6M4",
    "result": []
  },
  {
    "postal": "N9A9A9",
    "result": []
  },
  {
    "postal": "N9A9Z9",
    "result": []
  },
  {
    "postal": "N9A6T4",
    "result": []
  },
  {
    "postal": "N9A0B2",
    "result": []
  },
  {
    "postal": "N9A2L9",
    "result": [
      {
        "electoralDistricts": [
          {
            "election": null,
            "id": 118,
            "name": "Windsor—Tecumseh"
          }
        ],
        "pollDivisionIds": [
          10142710
        ],
        "postalCode": "N9A2L9",
        "streetName": "HALL",
        "streetDirectionId": null,
        "streetTypeId": "AVE",
        "placeName": "WINDSOR",
        "streetNameDisplayText": "HALL AVE, WINDSOR"
      }
    ]
  },
  {
    "postal": "N9A8K9",
    "result": []
  },
  {
    "postal": "N9A2H9",
    "result": [
      {
        "electoralDistricts": [
          {
            "election": null,
            "id": 118,
            "name": "Windsor—Tecumseh"
          }
        ],
        "pollDivisionIds": [
          10142710
        ],
        "postalCode": "N9A2H9",
        "streetName": "MARION",
        "streetDirectionId": null,
        "streetTypeId": "AVE",
        "placeName": "WINDSOR",
        "streetNameDisplayText": "MARION AVE, WINDSOR"
      }
    ]
  },
  {
    "postal": "N9A3Z6",
    "result": [
      {
        "electoralDistricts": [
          {
            "election": null,
            "id": 118,
            "name": "Windsor—Tecumseh"
          }
        ],
        "pollDivisionIds": [
          10142711
        ],
        "postalCode": "N9A3Z6",
        "streetName": "ERIE",
        "streetDirectionId": "E",
        "streetTypeId": "ST",
        "placeName": "WINDSOR",
        "streetNameDisplayText": "ERIE ST E, WINDSOR"
      }
    ]
  },
  {
    "postal": "N9A3B0",
    "result": []
  },
  {
    "postal": "N9A2H8",
    "result": [
      {
        "electoralDistricts": [
          {
            "election": null,
            "id": 118,
            "name": "Windsor—Tecumseh"
          }
        ],
        "pollDivisionIds": [
          10142710
        ],
        "postalCode": "N9A2H8",
        "streetName": "MARION",
        "streetDirectionId": null,
        "streetTypeId": "AVE",
        "placeName": "WINDSOR",
        "streetNameDisplayText": "MARION AVE, WINDSOR"
      }
    ]
  },
  {
    "postal": "N9A3X2",
    "result": [
      {
        "electoralDistricts": [
          {
            "election": null,
            "id": 119,
            "name": "Windsor West"
          }
        ],
        "pollDivisionIds": [
          10142795
        ],
        "postalCode": "N9A3X2",
        "streetName": "ERIE",
        "streetDirectionId": "E",
        "streetTypeId": "ST",
        "placeName": "WINDSOR",
        "streetNameDisplayText": "ERIE ST E, WINDSOR"
      }
    ]
  },
  {
    "postal": "N9A2E9",
    "result": [
      {
        "electoralDistricts": [
          {
            "election": null,
            "id": 119,
            "name": "Windsor West"
          }
        ],
        "pollDivisionIds": [
          10142791
        ],
        "postalCode": "N9A2E9",
        "streetName": "LANGLOIS",
        "streetDirectionId": null,
        "streetTypeId": "AVE",
        "placeName": "WINDSOR",
        "streetNameDisplayText": "LANGLOIS AVE, WINDSOR"
      }
    ]
  },
  {
    "postal": "N9A9P6",
    "result": []
  },
  {
    "postal": "N9A9E2",
    "result": []
  },
  {
    "postal": "N9A9H2",
    "result": []
  },
  {
    "postal": "N9A1S8",
    "result": [
      {
        "electoralDistricts": [
          {
            "election": null,
            "id": 119,
            "name": "Windsor West"
          }
        ],
        "pollDivisionIds": [
          10142791
        ],
        "postalCode": "N9A1S8",
        "streetName": "AYLMER",
        "streetDirectionId": null,
        "streetTypeId": "AV",
        "placeName": "WINDSOR",
        "streetNameDisplayText": "AYLMER AV, WINDSOR"
      },
      {
        "electoralDistricts": [
          {
            "election": null,
            "id": 119,
            "name": "Windsor West"
          }
        ],
        "pollDivisionIds": [
          10142791
        ],
        "postalCode": "N9A1S8",
        "streetName": "AYLMER",
        "streetDirectionId": null,
        "streetTypeId": "AVE",
        "placeName": "WINDSOR",
        "streetNameDisplayText": "AYLMER AVE, WINDSOR"
      }
    ]
  },
  {
    "postal": "N9A3M6",
    "result": [
      {
        "electoralDistricts": [
          {
            "election": null,
            "id": 119,
            "name": "Windsor West"
          }
        ],
        "pollDivisionIds": [
          10142791
        ],
        "postalCode": "N9A3M6",
        "streetName": "TUSCARORA",
        "streetDirectionId": null,
        "streetTypeId": "ST",
        "placeName": "WINDSOR",
        "streetNameDisplayText": "TUSCARORA ST, WINDSOR"
      }
    ]
  },
  {
    "postal": "N9A6Z8",
    "result": [
      {
        "electoralDistricts": [
          {
            "election": null,
            "id": 119,
            "name": "Windsor West"
          }
        ],
        "pollDivisionIds": [
          10142785
        ],
        "postalCode": "N9A6Z8",
        "streetName": "VICTORIA",
        "streetDirectionId": null,
        "streetTypeId": "AVE",
        "placeName": "WINDSOR",
        "streetNameDisplayText": "VICTORIA AVE, WINDSOR"
      }
    ]
  },
  {
    "postal": "N9A4J2",
    "result": [
      {
        "electoralDistricts": [
          {
            "election": null,
            "id": 119,
            "name": "Windsor West"
          }
        ],
        "pollDivisionIds": [
          10142785
        ],
        "postalCode": "N9A4J2",
        "streetName": "OUELLETTE",
        "streetDirectionId": null,
        "streetTypeId": "AVE",
        "placeName": "WINDSOR",
        "streetNameDisplayText": "OUELLETTE AVE, WINDSOR"
      }
    ]
  },
  {
    "postal": "N9A9Y1",
    "result": []
  },
  {
    "postal": "N9A8V6",
    "result": []
  },
  {
    "postal": "N9A6B2",
    "result": [
      {
        "electoralDistricts": [
          {
            "election": null,
            "id": 119,
            "name": "Windsor West"
          }
        ],
        "pollDivisionIds": [
          10142787
        ],
        "postalCode": "N9A6B2",
        "streetName": "ERIE",
        "streetDirectionId": "W",
        "streetTypeId": "ST",
        "placeName": "WINDSOR",
        "streetNameDisplayText": "ERIE ST W, WINDSOR"
      }
    ]
  },
  {
    "postal": "N9A1P8",
    "result": []
  },
  {
    "postal": "N9A0V8",
    "result": []
  },
  {
    "postal": "N9A4Y0",
    "result": []
  },
  {
    "postal": "N9A2T4",
    "result": [
      {
        "electoralDistricts": [
          {
            "election": null,
            "id": 119,
            "name": "Windsor West"
          }
        ],
        "pollDivisionIds": [
          10142791
        ],
        "postalCode": "N9A2T4",
        "streetName": "RIVERSIDE",
        "streetDirectionId": "E",
        "streetTypeId": "DR",
        "placeName": "WINDSOR",
        "streetNameDisplayText": "RIVERSIDE DR E, WINDSOR"
      }
    ]
  },
  {
    "postal": "N9A2S3",
    "result": []
  },
  {
    "postal": "N9A0K0",
    "result": []
  },
  {
    "postal": "N9A5N1",
    "result": []
  },
  {
    "postal": "N9A7T0",
    "result": []
  },
  {
    "postal": "N9A9N2",
    "result": []
  },
  {
    "postal": "N9A5L1",
    "result": [
      {
        "electoralDistricts": [
          {
            "election": null,
            "id": 119,
            "name": "Windsor West"
          }
        ],
        "pollDivisionIds": [
          10142779
        ],
        "postalCode": "N9A5L1",
        "streetName": "RIVERSIDE",
        "streetDirectionId": "W",
        "streetTypeId": "DR",
        "placeName": "WINDSOR",
        "streetNameDisplayText": "RIVERSIDE DR W, WINDSOR"
      }
    ]
  },
  {
    "postal": "N9A7G5",
    "result": []
  },
  {
    "postal": "N9A6K2",
    "result": []
  },
  {
    "postal": "N9A6P9",
    "result": []
  },
  {
    "postal": "N9A0E6",
    "result": []
  },
  {
    "postal": "N9A8R9",
    "result": []
  },
  {
    "postal": "N9A3G9",
    "result": []
  },
  {
    "postal": "N9A0V7",
    "result": []
  },
  {
    "postal": "N9A2Z1",
    "result": [
      {
        "electoralDistricts": [
          {
            "election": null,
            "id": 119,
            "name": "Windsor West"
          }
        ],
        "pollDivisionIds": [
          10142791
        ],
        "postalCode": "N9A2Z1",
        "streetName": "UNIVERSITY",
        "streetDirectionId": "E",
        "streetTypeId": "AVE",
        "placeName": "WINDSOR",
        "streetNameDisplayText": "UNIVERSITY AVE E, WINDSOR"
      }
    ]
  },
  {
    "postal": "N9A7N1",
    "result": []
  },
  {
    "postal": "N9A3C6",
    "result": [
      {
        "electoralDistricts": [
          {
            "election": null,
            "id": 118,
            "name": "Windsor—Tecumseh"
          }
        ],
        "pollDivisionIds": [
          10142710
        ],
        "postalCode": "N9A3C6",
        "streetName": "ASSUMPTION",
        "streetDirectionId": null,
        "streetTypeId": "ST",
        "placeName": "WINDSOR",
        "streetNameDisplayText": "ASSUMPTION ST, WINDSOR"
      }
    ]
  },
  {
    "postal": "N9A4M1",
    "result": [
      {
        "electoralDistricts": [
          {
            "election": null,
            "id": 119,
            "name": "Windsor West"
          }
        ],
        "pollDivisionIds": [
          10143673
        ],
        "postalCode": "N9A4M1",
        "streetName": "PELISSIER",
        "streetDirectionId": null,
        "streetTypeId": "ST",
        "placeName": "WINDSOR",
        "streetNameDisplayText": "PELISSIER ST, WINDSOR"
      }
    ]
  },
  {
    "postal": "N9A9K2",
    "result": []
  },
  {
    "postal": "N9A9S6",
    "result": []
  },
  {
    "postal": "N9A4X1",
    "result": [
      {
        "electoralDistricts": [
          {
            "election": null,
            "id": 119,
            "name": "Windsor West"
          }
        ],
        "pollDivisionIds": [
          10142785,
          10142832
        ],
        "postalCode": "N9A4X1",
        "streetName": "BRUCE",
        "streetDirectionId": null,
        "streetTypeId": "AVE",
        "placeName": "WINDSOR",
        "streetNameDisplayText": "BRUCE AVE, WINDSOR"
      }
    ]
  },
  {
    "postal": "N9A8W2",
    "result": []
  },
  {
    "postal": "N9A7N2",
    "result": []
  },
  {
    "postal": "N9A8S3",
    "result": []
  },
  {
    "postal": "N9A4V0",
    "result": []
  },
  {
    "postal": "N9A6W4",
    "result": []
  },
  {
    "postal": "N9A5M1",
    "result": []
  },
  {
    "postal": "N9A0S4",
    "result": []
  },
  {
    "postal": "N9A5X6",
    "result": [
      {
        "electoralDistricts": [
          {
            "election": null,
            "id": 119,
            "name": "Windsor West"
          }
        ],
        "pollDivisionIds": [
          10142785
        ],
        "postalCode": "N9A5X6",
        "streetName": "WYANDOTTE",
        "streetDirectionId": "W",
        "streetTypeId": "ST",
        "placeName": "WINDSOR",
        "streetNameDisplayText": "WYANDOTTE ST W, WINDSOR"
      }
    ]
  },
  {
    "postal": "N9A8L5",
    "result": []
  },
  {
    "postal": "N9A5M8",
    "result": [
      {
        "electoralDistricts": [
          {
            "election": null,
            "id": 119,
            "name": "Windsor West"
          }
        ],
        "pollDivisionIds": [
          10142785
        ],
        "postalCode": "N9A5M8",
        "streetName": "CHATHAM",
        "streetDirectionId": "W",
        "streetTypeId": "ST",
        "placeName": "WINDSOR",
        "streetNameDisplayText": "CHATHAM ST W, WINDSOR"
      }
    ]
  },
  {
    "postal": "N9A2G3",
    "result": [
      {
        "electoralDistricts": [
          {
            "election": null,
            "id": 119,
            "name": "Windsor West"
          }
        ],
        "pollDivisionIds": [
          10142791
        ],
        "postalCode": "N9A2G3",
        "streetName": "LANGLOIS",
        "streetDirectionId": null,
        "streetTypeId": "AVE",
        "placeName": "WINDSOR",
        "streetNameDisplayText": "LANGLOIS AVE, WINDSOR"
      }
    ]
  },
  {
    "postal": "N9A8E4",
    "result": []
  },
  {
    "postal": "N9A7S9",
    "result": []
  },
  {
    "postal": "N9A1K3",
    "result": [
      {
        "electoralDistricts": [
          {
            "election": null,
            "id": 119,
            "name": "Windsor West"
          }
        ],
        "pollDivisionIds": [
          10142795
        ],
        "postalCode": "N9A1K3",
        "streetName": "WINDSOR",
        "streetDirectionId": null,
        "streetTypeId": "AVE",
        "placeName": "WINDSOR",
        "streetNameDisplayText": "WINDSOR AVE, WINDSOR"
      }
    ]
  },
  {
    "postal": "N9A4E1",
    "result": [
      {
        "electoralDistricts": [
          {
            "election": null,
            "id": 119,
            "name": "Windsor West"
          }
        ],
        "pollDivisionIds": [
          10142799
        ],
        "postalCode": "N9A4E1",
        "streetName": "GILES",
        "streetDirectionId": "E",
        "streetTypeId": "BLVD",
        "placeName": "WINDSOR",
        "streetNameDisplayText": "GILES BLVD E, WINDSOR"
      }
    ]
  },
  {
    "postal": "N9A4R2",
    "result": [
      {
        "electoralDistricts": [
          {
            "election": null,
            "id": 119,
            "name": "Windsor West"
          }
        ],
        "pollDivisionIds": [
          10142787
        ],
        "postalCode": "N9A4R2",
        "streetName": "DOUGALL",
        "streetDirectionId": null,
        "streetTypeId": "AVE",
        "placeName": "WINDSOR",
        "streetNameDisplayText": "DOUGALL AVE, WINDSOR"
      }
    ]
  },
  {
    "postal": "N9A6T0",
    "result": []
  },
  {
    "postal": "N9A3K5",
    "result": [
      {
        "electoralDistricts": [
          {
            "election": null,
            "id": 118,
            "name": "Windsor—Tecumseh"
          }
        ],
        "pollDivisionIds": [
          10142710
        ],
        "postalCode": "N9A3K5",
        "streetName": "WYANDOTTE",
        "streetDirectionId": "E",
        "streetTypeId": "ST",
        "placeName": "WINDSOR",
        "streetNameDisplayText": "WYANDOTTE ST E, WINDSOR"
      }
    ]
  },
  {
    "postal": "N9A3S3",
    "result": [
      {
        "electoralDistricts": [
          {
            "election": null,
            "id": 119,
            "name": "Windsor West"
          }
        ],
        "pollDivisionIds": [
          10142795
        ],
        "postalCode": "N9A3S3",
        "streetName": "ELLIOTT",
        "streetDirectionId": "E",
        "streetTypeId": "ST",
        "placeName": "WINDSOR",
        "streetNameDisplayText": "ELLIOTT ST E, WINDSOR"
      }
    ]
  },
  {
    "postal": "N9A3L4",
    "result": [
      {
        "electoralDistricts": [
          {
            "election": null,
            "id": 119,
            "name": "Windsor West"
          }
        ],
        "pollDivisionIds": [
          10142791
        ],
        "postalCode": "N9A3L4",
        "streetName": "TUSCARORA",
        "streetDirectionId": null,
        "streetTypeId": "ST",
        "placeName": "WINDSOR",
        "streetNameDisplayText": "TUSCARORA ST, WINDSOR"
      }
    ]
  },
  {
    "postal": "N9A9Y2",
    "result": []
  },
  {
    "postal": "N9A1E0",
    "result": []
  },
  {
    "postal": "N9A9A4",
    "result": []
  },
  {
    "postal": "N9A1L3",
    "result": []
  },
  {
    "postal": "N9A6N1",
    "result": []
  },
  {
    "postal": "N9A6G7",
    "result": [
      {
        "electoralDistricts": [
          {
            "election": null,
            "id": 119,
            "name": "Windsor West"
          }
        ],
        "pollDivisionIds": [
          10143673
        ],
        "postalCode": "N9A6G7",
        "streetName": "GROVE",
        "streetDirectionId": null,
        "streetTypeId": "AVE",
        "placeName": "WINDSOR",
        "streetNameDisplayText": "GROVE AVE, WINDSOR"
      }
    ]
  },
  {
    "postal": "N9A7W1",
    "result": []
  },
  {
    "postal": "N9A4M6",
    "result": [
      {
        "electoralDistricts": [
          {
            "election": null,
            "id": 119,
            "name": "Windsor West"
          }
        ],
        "pollDivisionIds": [
          10142820,
          10142785
        ],
        "postalCode": "N9A4M6",
        "streetName": "VICTORIA",
        "streetDirectionId": null,
        "streetTypeId": "AVE",
        "placeName": "WINDSOR",
        "streetNameDisplayText": "VICTORIA AVE, WINDSOR"
      }
    ]
  },
  {
    "postal": "N9A1K0",
    "result": []
  },
  {
    "postal": "N9A3E2",
    "result": [
      {
        "electoralDistricts": [
          {
            "election": null,
            "id": 118,
            "name": "Windsor—Tecumseh"
          }
        ],
        "pollDivisionIds": [
          10142710
        ],
        "postalCode": "N9A3E2",
        "streetName": "ASSUMPTION",
        "streetDirectionId": null,
        "streetTypeId": "ST",
        "placeName": "WINDSOR",
        "streetNameDisplayText": "ASSUMPTION ST, WINDSOR"
      }
    ]
  },
  {
    "postal": "N9A5H4",
    "result": [
      {
        "electoralDistricts": [
          {
            "election": null,
            "id": 119,
            "name": "Windsor West"
          }
        ],
        "pollDivisionIds": [
          10142783
        ],
        "postalCode": "N9A5H4",
        "streetName": "ELM",
        "streetDirectionId": null,
        "streetTypeId": "AVE",
        "placeName": "WINDSOR",
        "streetNameDisplayText": "ELM AVE, WINDSOR"
      }
    ]
  },
  {
    "postal": "N9A1K7",
    "result": []
  },
  {
    "postal": "N9A0H0",
    "result": []
  },
  {
    "postal": "N9A0J3",
    "result": []
  },
  {
    "postal": "N9A1X6",
    "result": [
      {
        "electoralDistricts": [
          {
            "election": null,
            "id": 119,
            "name": "Windsor West"
          }
        ],
        "pollDivisionIds": [
          10142795
        ],
        "postalCode": "N9A1X6",
        "streetName": "LOUIS",
        "streetDirectionId": null,
        "streetTypeId": "AVE",
        "placeName": "WINDSOR",
        "streetNameDisplayText": "LOUIS AVE, WINDSOR"
      }
    ]
  },
  {
    "postal": "N9A2Z6",
    "result": [
      {
        "electoralDistricts": [
          {
            "election": null,
            "id": 119,
            "name": "Windsor West"
          }
        ],
        "pollDivisionIds": [
          10142791
        ],
        "postalCode": "N9A2Z6",
        "streetName": "UNIVERSITY",
        "streetDirectionId": "E",
        "streetTypeId": "AVE",
        "placeName": "WINDSOR",
        "streetNameDisplayText": "UNIVERSITY AVE E, WINDSOR"
      },
      {
        "electoralDistricts": [
          {
            "election": null,
            "id": 119,
            "name": "Windsor West"
          }
        ],
        "pollDivisionIds": [
          10142785
        ],
        "postalCode": "N9A2Z6",
        "streetName": "UNIVERSITY",
        "streetDirectionId": "W",
        "streetTypeId": "AVE",
        "placeName": "WINDSOR",
        "streetNameDisplayText": "UNIVERSITY AVE W, WINDSOR"
      }
    ]
  },
  {
    "postal": "N9A4R9",
    "result": [
      {
        "electoralDistricts": [
          {
            "election": null,
            "id": 119,
            "name": "Windsor West"
          }
        ],
        "pollDivisionIds": [
          10143673
        ],
        "postalCode": "N9A4R9",
        "streetName": "DOUGALL",
        "streetDirectionId": null,
        "streetTypeId": "AVE",
        "placeName": "WINDSOR",
        "streetNameDisplayText": "DOUGALL AVE, WINDSOR"
      }
    ]
  },
  {
    "postal": "N9A0W8",
    "result": []
  },
  {
    "postal": "N9A1L4",
    "result": [
      {
        "electoralDistricts": [
          {
            "election": null,
            "id": 119,
            "name": "Windsor West"
          }
        ],
        "pollDivisionIds": [
          10142791
        ],
        "postalCode": "N9A1L4",
        "streetName": "MCDOUGALL",
        "streetDirectionId": null,
        "streetTypeId": "ST",
        "placeName": "WINDSOR",
        "streetNameDisplayText": "MCDOUGALL ST, WINDSOR"
      }
    ]
  },
  {
    "postal": "N9A0C8",
    "result": []
  },
  {
    "postal": "N9A9X7",
    "result": []
  },
  {
    "postal": "N9A4T1",
    "result": [
      {
        "electoralDistricts": [
          {
            "election": null,
            "id": 119,
            "name": "Windsor West"
          }
        ],
        "pollDivisionIds": [
          10142785
        ],
        "postalCode": "N9A4T1",
        "streetName": "CHURCH",
        "streetDirectionId": null,
        "streetTypeId": "ST",
        "placeName": "WINDSOR",
        "streetNameDisplayText": "CHURCH ST, WINDSOR"
      }
    ]
  },
  {
    "postal": "N9A0M0",
    "result": []
  },
  {
    "postal": "N9A6A2",
    "result": [
      {
        "electoralDistricts": [
          {
            "election": null,
            "id": 119,
            "name": "Windsor West"
          }
        ],
        "pollDivisionIds": [
          10142787
        ],
        "postalCode": "N9A6A2",
        "streetName": "NEWBURY",
        "streetDirectionId": null,
        "streetTypeId": "ST",
        "placeName": "WINDSOR",
        "streetNameDisplayText": "NEWBURY ST, WINDSOR"
      }
    ]
  },
  {
    "postal": "N9A9S8",
    "result": []
  },
  {
    "postal": "N9A9T4",
    "result": []
  },
  {
    "postal": "N9A9Y4",
    "result": []
  },
  {
    "postal": "N9A6G5",
    "result": [
      {
        "electoralDistricts": [
          {
            "election": null,
            "id": 119,
            "name": "Windsor West"
          }
        ],
        "pollDivisionIds": [
          10143673
        ],
        "postalCode": "N9A6G5",
        "streetName": "GROVE",
        "streetDirectionId": null,
        "streetTypeId": "AVE",
        "placeName": "WINDSOR",
        "streetNameDisplayText": "GROVE AVE, WINDSOR"
      }
    ]
  },
  {
    "postal": "N9A6H9",
    "result": [
      {
        "electoralDistricts": [
          {
            "election": null,
            "id": 119,
            "name": "Windsor West"
          }
        ],
        "pollDivisionIds": [
          10143673
        ],
        "postalCode": "N9A6H9",
        "streetName": "GILES",
        "streetDirectionId": "W",
        "streetTypeId": "BLVD",
        "placeName": "WINDSOR",
        "streetNameDisplayText": "GILES BLVD W, WINDSOR"
      }
    ]
  },
  {
    "postal": "N9A2P3",
    "result": [
      {
        "electoralDistricts": [
          {
            "election": null,
            "id": 118,
            "name": "Windsor—Tecumseh"
          }
        ],
        "pollDivisionIds": [
          10142711
        ],
        "postalCode": "N9A2P3",
        "streetName": "MOY",
        "streetDirectionId": null,
        "streetTypeId": "AVE",
        "placeName": "WINDSOR",
        "streetNameDisplayText": "MOY AVE, WINDSOR"
      }
    ]
  },
  {
    "postal": "N9A1T6",
    "result": [
      {
        "electoralDistricts": [
          {
            "election": null,
            "id": 119,
            "name": "Windsor West"
          }
        ],
        "pollDivisionIds": [
          10142791
        ],
        "postalCode": "N9A1T6",
        "streetName": "AYLMER",
        "streetDirectionId": null,
        "streetTypeId": "AVE",
        "placeName": "WINDSOR",
        "streetNameDisplayText": "AYLMER AVE, WINDSOR"
      }
    ]
  },
  {
    "postal": "N9A4P6",
    "result": [
      {
        "electoralDistricts": [
          {
            "election": null,
            "id": 119,
            "name": "Windsor West"
          }
        ],
        "pollDivisionIds": [
          10142785
        ],
        "postalCode": "N9A4P6",
        "streetName": "DOUGALL",
        "streetDirectionId": null,
        "streetTypeId": "AVE",
        "placeName": "WINDSOR",
        "streetNameDisplayText": "DOUGALL AVE, WINDSOR"
      }
    ]
  },
  {
    "postal": "N9A3K1",
    "result": [
      {
        "electoralDistricts": [
          {
            "election": null,
            "id": 119,
            "name": "Windsor West"
          }
        ],
        "pollDivisionIds": [
          10142791
        ],
        "postalCode": "N9A3K1",
        "streetName": "WYANDOTTE",
        "streetDirectionId": "E",
        "streetTypeId": "ST",
        "placeName": "WINDSOR",
        "streetNameDisplayText": "WYANDOTTE ST E, WINDSOR"
      }
    ]
  },
  {
    "postal": "N9A6X4",
    "result": [
      {
        "electoralDistricts": [
          {
            "election": null,
            "id": 119,
            "name": "Windsor West"
          }
        ],
        "pollDivisionIds": [
          10142781
        ],
        "postalCode": "N9A6X4",
        "streetName": "WYANDOTTE",
        "streetDirectionId": "W",
        "streetTypeId": "ST",
        "placeName": "WINDSOR",
        "streetNameDisplayText": "WYANDOTTE ST W, WINDSOR"
      }
    ]
  },
  {
    "postal": "N9A4M8",
    "result": [
      {
        "electoralDistricts": [
          {
            "election": null,
            "id": 119,
            "name": "Windsor West"
          }
        ],
        "pollDivisionIds": [
          10142787,
          10142785
        ],
        "postalCode": "N9A4M8",
        "streetName": "VICTORIA",
        "streetDirectionId": null,
        "streetTypeId": "AVE",
        "placeName": "WINDSOR",
        "streetNameDisplayText": "VICTORIA AVE, WINDSOR"
      }
    ]
  },
  {
    "postal": "N9A2Y1",
    "result": [
      {
        "electoralDistricts": [
          {
            "election": null,
            "id": 119,
            "name": "Windsor West"
          }
        ],
        "pollDivisionIds": [
          10142791
        ],
        "postalCode": "N9A2Y1",
        "streetName": "CHATHAM",
        "streetDirectionId": "E",
        "streetTypeId": "ST",
        "placeName": "WINDSOR",
        "streetNameDisplayText": "CHATHAM ST E, WINDSOR"
      }
    ]
  },
  {
    "postal": "N9A6M1",
    "result": []
  },
  {
    "postal": "N9A5L8",
    "result": []
  },
  {
    "postal": "N9A3P6",
    "result": [
      {
        "electoralDistricts": [
          {
            "election": null,
            "id": 119,
            "name": "Windsor West"
          }
        ],
        "pollDivisionIds": [
          10142791
        ],
        "postalCode": "N9A3P6",
        "streetName": "CATARAQUI",
        "streetDirectionId": null,
        "streetTypeId": "ST",
        "placeName": "WINDSOR",
        "streetNameDisplayText": "CATARAQUI ST, WINDSOR"
      }
    ]
  },
  {
    "postal": "N9A9A5",
    "result": []
  },
  {
    "postal": "N9A7K1",
    "result": []
  },
  {
    "postal": "N9A3J4",
    "result": [
      {
        "electoralDistricts": [
          {
            "election": null,
            "id": 119,
            "name": "Windsor West"
          }
        ],
        "pollDivisionIds": [
          10142791
        ],
        "postalCode": "N9A3J4",
        "streetName": "WYANDOTTE",
        "streetDirectionId": "E",
        "streetTypeId": "ST",
        "placeName": "WINDSOR",
        "streetNameDisplayText": "WYANDOTTE ST E, WINDSOR"
      }
    ]
  },
  {
    "postal": "N9A5E7",
    "result": [
      {
        "electoralDistricts": [
          {
            "election": null,
            "id": 119,
            "name": "Windsor West"
          }
        ],
        "pollDivisionIds": [
          10142781
        ],
        "postalCode": "N9A5E7",
        "streetName": "OAK",
        "streetDirectionId": null,
        "streetTypeId": "AVE",
        "placeName": "WINDSOR",
        "streetNameDisplayText": "OAK AVE, WINDSOR"
      },
      {
        "electoralDistricts": [
          {
            "election": null,
            "id": 119,
            "name": "Windsor West"
          }
        ],
        "pollDivisionIds": [
          10142781
        ],
        "postalCode": "N9A5E7",
        "streetName": "OAK",
        "streetDirectionId": null,
        "streetTypeId": "ST",
        "placeName": "WINDSOR",
        "streetNameDisplayText": "OAK ST, WINDSOR"
      }
    ]
  },
  {
    "postal": "N9A3A7",
    "result": [
      {
        "electoralDistricts": [
          {
            "election": null,
            "id": 119,
            "name": "Windsor West"
          }
        ],
        "pollDivisionIds": [
          10142791
        ],
        "postalCode": "N9A3A7",
        "streetName": "PARK",
        "streetDirectionId": "E",
        "streetTypeId": "ST",
        "placeName": "WINDSOR",
        "streetNameDisplayText": "PARK ST E, WINDSOR"
      }
    ]
  },
  {
    "postal": "N9A1B9",
    "result": [
      {
        "electoralDistricts": [
          {
            "election": null,
            "id": 119,
            "name": "Windsor West"
          }
        ],
        "pollDivisionIds": [
          10142826
        ],
        "postalCode": "N9A1B9",
        "streetName": "OUELLETTE",
        "streetDirectionId": null,
        "streetTypeId": "AVE",
        "placeName": "WINDSOR",
        "streetNameDisplayText": "OUELLETTE AVE, WINDSOR"
      }
    ]
  },
  {
    "postal": "N9A9E8",
    "result": []
  },
  {
    "postal": "N9A1C9",
    "result": [
      {
        "electoralDistricts": [
          {
            "election": null,
            "id": 119,
            "name": "Windsor West"
          }
        ],
        "pollDivisionIds": [
          10142785,
          10142795,
          10143673
        ],
        "postalCode": "N9A1C9",
        "streetName": "OUELLETTE",
        "streetDirectionId": null,
        "streetTypeId": "AVE",
        "placeName": "WINDSOR",
        "streetNameDisplayText": "OUELLETTE AVE, WINDSOR"
      }
    ]
  },
  {
    "postal": "N9A3B5",
    "result": [
      {
        "electoralDistricts": [
          {
            "election": null,
            "id": 119,
            "name": "Windsor West"
          }
        ],
        "pollDivisionIds": [
          10142791
        ],
        "postalCode": "N9A3B5",
        "streetName": "ASSUMPTION",
        "streetDirectionId": null,
        "streetTypeId": "ST",
        "placeName": "WINDSOR",
        "streetNameDisplayText": "ASSUMPTION ST, WINDSOR"
      }
    ]
  },
  {
    "postal": "N9A8R0",
    "result": []
  },
  {
    "postal": "N9A3P2",
    "result": [
      {
        "electoralDistricts": [
          {
            "election": null,
            "id": 119,
            "name": "Windsor West"
          }
        ],
        "pollDivisionIds": [
          10142795
        ],
        "postalCode": "N9A3P2",
        "streetName": "CATARAQUI",
        "streetDirectionId": null,
        "streetTypeId": "ST",
        "placeName": "WINDSOR",
        "streetNameDisplayText": "CATARAQUI ST, WINDSOR"
      }
    ]
  },
  {
    "postal": "N9A5V4",
    "result": [
      {
        "electoralDistricts": [
          {
            "election": null,
            "id": 119,
            "name": "Windsor West"
          }
        ],
        "pollDivisionIds": [
          10142785
        ],
        "postalCode": "N9A5V4",
        "streetName": "PARK",
        "streetDirectionId": "W",
        "streetTypeId": "ST",
        "placeName": "WINDSOR",
        "streetNameDisplayText": "PARK ST W, WINDSOR"
      }
    ]
  },
  {
    "postal": "N9A4H0",
    "result": []
  },
  {
    "postal": "N9A4S7",
    "result": []
  },
  {
    "postal": "N9A6C2",
    "result": [
      {
        "electoralDistricts": [
          {
            "election": null,
            "id": 119,
            "name": "Windsor West"
          }
        ],
        "pollDivisionIds": [
          10142787
        ],
        "postalCode": "N9A6C2",
        "streetName": "ERIE",
        "streetDirectionId": "W",
        "streetTypeId": "ST",
        "placeName": "WINDSOR",
        "streetNameDisplayText": "ERIE ST W, WINDSOR"
      }
    ]
  },
  {
    "postal": "N9A8W3",
    "result": []
  },
  {
    "postal": "N9A4M5",
    "result": []
  },
  {
    "postal": "N9A5T1",
    "result": [
      {
        "electoralDistricts": [
          {
            "election": null,
            "id": 119,
            "name": "Windsor West"
          }
        ],
        "pollDivisionIds": [
          10142781
        ],
        "postalCode": "N9A5T1",
        "streetName": "UNIVERSITY",
        "streetDirectionId": "W",
        "streetTypeId": "AVE",
        "placeName": "WINDSOR",
        "streetNameDisplayText": "UNIVERSITY AVE W, WINDSOR"
      }
    ]
  },
  {
    "postal": "N9A3B3",
    "result": [
      {
        "electoralDistricts": [
          {
            "election": null,
            "id": 119,
            "name": "Windsor West"
          }
        ],
        "pollDivisionIds": [
          10142791
        ],
        "postalCode": "N9A3B3",
        "streetName": "ASSUMPTION",
        "streetDirectionId": null,
        "streetTypeId": "ST",
        "placeName": "WINDSOR",
        "streetNameDisplayText": "ASSUMPTION ST, WINDSOR"
      }
    ]
  },
  {
    "postal": "N9A6C6",
    "result": [
      {
        "electoralDistricts": [
          {
            "election": null,
            "id": 119,
            "name": "Windsor West"
          }
        ],
        "pollDivisionIds": [
          10142783
        ],
        "postalCode": "N9A6C6",
        "streetName": "ERIE",
        "streetDirectionId": "W",
        "streetTypeId": "ST",
        "placeName": "WINDSOR",
        "streetNameDisplayText": "ERIE ST W, WINDSOR"
      }
    ]
  },
  {
    "postal": "N9A7N8",
    "result": []
  },
  {
    "postal": "N9A2Y3",
    "result": [
      {
        "electoralDistricts": [
          {
            "election": null,
            "id": 118,
            "name": "Windsor—Tecumseh"
          }
        ],
        "pollDivisionIds": [
          10142710
        ],
        "postalCode": "N9A2Y3",
        "streetName": "CHATHAM",
        "streetDirectionId": "E",
        "streetTypeId": "ST",
        "placeName": "WINDSOR",
        "streetNameDisplayText": "CHATHAM ST E, WINDSOR"
      }
    ]
  },
  {
    "postal": "N9A2R6",
    "result": [
      {
        "electoralDistricts": [
          {
            "election": null,
            "id": 118,
            "name": "Windsor—Tecumseh"
          }
        ],
        "pollDivisionIds": [
          10142711
        ],
        "postalCode": "N9A2R6",
        "streetName": "GLADSTONE",
        "streetDirectionId": null,
        "streetTypeId": "AVE",
        "placeName": "WINDSOR",
        "streetNameDisplayText": "GLADSTONE AVE, WINDSOR"
      }
    ]
  },
  {
    "postal": "N9A7N3",
    "result": []
  },
  {
    "postal": "N9A8J2",
    "result": []
  },
  {
    "postal": "N9A6A9",
    "result": [
      {
        "electoralDistricts": [
          {
            "election": null,
            "id": 119,
            "name": "Windsor West"
          }
        ],
        "pollDivisionIds": [
          10142787
        ],
        "postalCode": "N9A6A9",
        "streetName": "CAROLINE",
        "streetDirectionId": null,
        "streetTypeId": "ST",
        "placeName": "WINDSOR",
        "streetNameDisplayText": "CAROLINE ST, WINDSOR"
      }
    ]
  },
  {
    "postal": "N9A3V2",
    "result": [
      {
        "electoralDistricts": [
          {
            "election": null,
            "id": 118,
            "name": "Windsor—Tecumseh"
          }
        ],
        "pollDivisionIds": [
          10142710
        ],
        "postalCode": "N9A3V2",
        "streetName": "NIAGARA",
        "streetDirectionId": null,
        "streetTypeId": "ST",
        "placeName": "WINDSOR",
        "streetNameDisplayText": "NIAGARA ST, WINDSOR"
      }
    ]
  },
  {
    "postal": "N9A2N3",
    "result": [
      {
        "electoralDistricts": [
          {
            "election": null,
            "id": 118,
            "name": "Windsor—Tecumseh"
          }
        ],
        "pollDivisionIds": [
          10142710
        ],
        "postalCode": "N9A2N3",
        "streetName": "MOY",
        "streetDirectionId": null,
        "streetTypeId": "AVE",
        "placeName": "WINDSOR",
        "streetNameDisplayText": "MOY AVE, WINDSOR"
      }
    ]
  },
  {
    "postal": "N9A1S5",
    "result": [
      {
        "electoralDistricts": [
          {
            "election": null,
            "id": 119,
            "name": "Windsor West"
          }
        ],
        "pollDivisionIds": [
          10142795
        ],
        "postalCode": "N9A1S5",
        "streetName": "HOWARD",
        "streetDirectionId": null,
        "streetTypeId": "AVE",
        "placeName": "WINDSOR",
        "streetNameDisplayText": "HOWARD AVE, WINDSOR"
      }
    ]
  },
  {
    "postal": "N9A4T7",
    "result": [
      {
        "electoralDistricts": [
          {
            "election": null,
            "id": 119,
            "name": "Windsor West"
          }
        ],
        "pollDivisionIds": [
          10142787
        ],
        "postalCode": "N9A4T7",
        "streetName": "CHURCH",
        "streetDirectionId": null,
        "streetTypeId": "ST",
        "placeName": "WINDSOR",
        "streetNameDisplayText": "CHURCH ST, WINDSOR"
      }
    ]
  },
  {
    "postal": "N9A6Y7",
    "result": [
      {
        "electoralDistricts": [
          {
            "election": null,
            "id": 119,
            "name": "Windsor West"
          }
        ],
        "pollDivisionIds": [
          10142795
        ],
        "postalCode": "N9A6Y7",
        "streetName": "ELLIOTT",
        "streetDirectionId": "E",
        "streetTypeId": "ST",
        "placeName": "WINDSOR",
        "streetNameDisplayText": "ELLIOTT ST E, WINDSOR"
      }
    ]
  },
  {
    "postal": "N9A0W7",
    "result": []
  },
  {
    "postal": "N9A2W9",
    "result": []
  },
  {
    "postal": "N9A8V0",
    "result": []
  },
  {
    "postal": "N9A0H4",
    "result": []
  },
  {
    "postal": "N9A2T1",
    "result": [
      {
        "electoralDistricts": [
          {
            "election": null,
            "id": 119,
            "name": "Windsor West"
          }
        ],
        "pollDivisionIds": [
          10142791
        ],
        "postalCode": "N9A2T1",
        "streetName": "RIVERSIDE",
        "streetDirectionId": "E",
        "streetTypeId": "DR",
        "placeName": "WINDSOR",
        "streetNameDisplayText": "RIVERSIDE DR E, WINDSOR"
      }
    ]
  },
  {
    "postal": "N9A1B1",
    "result": []
  },
  {
    "postal": "N9A8B6",
    "result": []
  },
  {
    "postal": "N9A6H1",
    "result": [
      {
        "electoralDistricts": [
          {
            "election": null,
            "id": 119,
            "name": "Windsor West"
          }
        ],
        "pollDivisionIds": [
          10143673
        ],
        "postalCode": "N9A6H1",
        "streetName": "GILES",
        "streetDirectionId": "W",
        "streetTypeId": "BLVD",
        "placeName": "WINDSOR",
        "streetNameDisplayText": "GILES BLVD W, WINDSOR"
      }
    ]
  },
  {
    "postal": "N9A8T8",
    "result": []
  },
  {
    "postal": "N9A0T4",
    "result": []
  },
  {
    "postal": "N9A2C4",
    "result": [
      {
        "electoralDistricts": [
          {
            "election": null,
            "id": 119,
            "name": "Windsor West"
          }
        ],
        "pollDivisionIds": [
          10142791
        ],
        "postalCode": "N9A2C4",
        "streetName": "PARENT",
        "streetDirectionId": null,
        "streetTypeId": "AVE",
        "placeName": "WINDSOR",
        "streetNameDisplayText": "PARENT AVE, WINDSOR"
      }
    ]
  },
  {
    "postal": "N9A8N3",
    "result": []
  },
  {
    "postal": "N9A4L8",
    "result": [
      {
        "electoralDistricts": [
          {
            "election": null,
            "id": 119,
            "name": "Windsor West"
          }
        ],
        "pollDivisionIds": [
          10143673
        ],
        "postalCode": "N9A4L8",
        "streetName": "PELISSIER",
        "streetDirectionId": null,
        "streetTypeId": "ST",
        "placeName": "WINDSOR",
        "streetNameDisplayText": "PELISSIER ST, WINDSOR"
      }
    ]
  },
  {
    "postal": "N9A2B5",
    "result": [
      {
        "electoralDistricts": [
          {
            "election": null,
            "id": 119,
            "name": "Windsor West"
          }
        ],
        "pollDivisionIds": [
          10142791
        ],
        "postalCode": "N9A2B5",
        "streetName": "PARENT",
        "streetDirectionId": null,
        "streetTypeId": "AVE",
        "placeName": "WINDSOR",
        "streetNameDisplayText": "PARENT AVE, WINDSOR"
      }
    ]
  },
  {
    "postal": "N9A3H1",
    "result": []
  },
  {
    "postal": "N9A4Y1",
    "result": [
      {
        "electoralDistricts": [
          {
            "election": null,
            "id": 119,
            "name": "Windsor West"
          }
        ],
        "pollDivisionIds": [
          10143673
        ],
        "postalCode": "N9A4Y1",
        "streetName": "BRUCE",
        "streetDirectionId": null,
        "streetTypeId": "AVE",
        "placeName": "WINDSOR",
        "streetNameDisplayText": "BRUCE AVE, WINDSOR"
      }
    ]
  },
  {
    "postal": "N9A7E2",
    "result": []
  },
  {
    "postal": "N9A2P5",
    "result": [
      {
        "electoralDistricts": [
          {
            "election": null,
            "id": 118,
            "name": "Windsor—Tecumseh"
          }
        ],
        "pollDivisionIds": [
          10142712
        ],
        "postalCode": "N9A2P5",
        "streetName": "MOY",
        "streetDirectionId": null,
        "streetTypeId": "AVE",
        "placeName": "WINDSOR",
        "streetNameDisplayText": "MOY AVE, WINDSOR"
      }
    ]
  },
  {
    "postal": "N9A8R7",
    "result": []
  },
  {
    "postal": "N9A9P1",
    "result": []
  },
  {
    "postal": "N9A3B8",
    "result": [
      {
        "electoralDistricts": [
          {
            "election": null,
            "id": 119,
            "name": "Windsor West"
          }
        ],
        "pollDivisionIds": [
          10142791
        ],
        "postalCode": "N9A3B8",
        "streetName": "ASSUMPTION",
        "streetDirectionId": null,
        "streetTypeId": "ST",
        "placeName": "WINDSOR",
        "streetNameDisplayText": "ASSUMPTION ST, WINDSOR"
      }
    ]
  },
  {
    "postal": "N9A3P7",
    "result": [
      {
        "electoralDistricts": [
          {
            "election": null,
            "id": 119,
            "name": "Windsor West"
          }
        ],
        "pollDivisionIds": [
          10142795
        ],
        "postalCode": "N9A3P7",
        "streetName": "CATARAQUI",
        "streetDirectionId": null,
        "streetTypeId": "ST",
        "placeName": "WINDSOR",
        "streetNameDisplayText": "CATARAQUI ST, WINDSOR"
      }
    ]
  },
  {
    "postal": "N9A9B2",
    "result": []
  },
  {
    "postal": "N9A6Z3",
    "result": [
      {
        "electoralDistricts": [
          {
            "election": null,
            "id": 119,
            "name": "Windsor West"
          }
        ],
        "pollDivisionIds": [
          10142791
        ],
        "postalCode": "N9A6Z3",
        "streetName": "OUELLETTE",
        "streetDirectionId": null,
        "streetTypeId": "AVE",
        "placeName": "WINDSOR",
        "streetNameDisplayText": "OUELLETTE AVE, WINDSOR"
      }
    ]
  },
  {
    "postal": "N9A4N5",
    "result": [
      {
        "electoralDistricts": [
          {
            "election": null,
            "id": 119,
            "name": "Windsor West"
          }
        ],
        "pollDivisionIds": [
          10142787
        ],
        "postalCode": "N9A4N5",
        "streetName": "VICTORIA",
        "streetDirectionId": null,
        "streetTypeId": "AVE",
        "placeName": "WINDSOR",
        "streetNameDisplayText": "VICTORIA AVE, WINDSOR"
      }
    ]
  },
  {
    "postal": "N9A8T3",
    "result": []
  },
  {
    "postal": "N9A1V2",
    "result": [
      {
        "electoralDistricts": [
          {
            "election": null,
            "id": 119,
            "name": "Windsor West"
          }
        ],
        "pollDivisionIds": [
          10142791
        ],
        "postalCode": "N9A1V2",
        "streetName": "AYLMER",
        "streetDirectionId": null,
        "streetTypeId": "AVE",
        "placeName": "WINDSOR",
        "streetNameDisplayText": "AYLMER AVE, WINDSOR"
      }
    ]
  },
  {
    "postal": "N9A1Y0",
    "result": []
  },
  {
    "postal": "N9A3G6",
    "result": [
      {
        "electoralDistricts": [
          {
            "election": null,
            "id": 119,
            "name": "Windsor West"
          }
        ],
        "pollDivisionIds": [
          10142791
        ],
        "postalCode": "N9A3G6",
        "streetName": "WYANDOTTE",
        "streetDirectionId": "E",
        "streetTypeId": "ST",
        "placeName": "WINDSOR",
        "streetNameDisplayText": "WYANDOTTE ST E, WINDSOR"
      }
    ]
  },
  {
    "postal": "N9A3H7",
    "result": [
      {
        "electoralDistricts": [
          {
            "election": null,
            "id": 119,
            "name": "Windsor West"
          }
        ],
        "pollDivisionIds": [
          10142791
        ],
        "postalCode": "N9A3H7",
        "streetName": "WYANDOTTE",
        "streetDirectionId": "E",
        "streetTypeId": "ST",
        "placeName": "WINDSOR",
        "streetNameDisplayText": "WYANDOTTE ST E, WINDSOR"
      }
    ]
  },
  {
    "postal": "N9A7X8",
    "result": []
  },
  {
    "postal": "N9A0C7",
    "result": []
  },
  {
    "postal": "N9A0W9",
    "result": []
  },
  {
    "postal": "N9A8E6",
    "result": []
  },
  {
    "postal": "N9A9Z8",
    "result": []
  },
  {
    "postal": "N9A3P4",
    "result": [
      {
        "electoralDistricts": [
          {
            "election": null,
            "id": 119,
            "name": "Windsor West"
          }
        ],
        "pollDivisionIds": [
          10142791
        ],
        "postalCode": "N9A3P4",
        "streetName": "CATARAQUI",
        "streetDirectionId": null,
        "streetTypeId": "ST",
        "placeName": "WINDSOR",
        "streetNameDisplayText": "CATARAQUI ST, WINDSOR"
      }
    ]
  },
  {
    "postal": "N9A6L8",
    "result": []
  },
  {
    "postal": "N9A2R4",
    "result": [
      {
        "electoralDistricts": [
          {
            "election": null,
            "id": 118,
            "name": "Windsor—Tecumseh"
          }
        ],
        "pollDivisionIds": [
          10142711
        ],
        "postalCode": "N9A2R4",
        "streetName": "GLADSTONE",
        "streetDirectionId": null,
        "streetTypeId": "AVE",
        "placeName": "WINDSOR",
        "streetNameDisplayText": "GLADSTONE AVE, WINDSOR"
      }
    ]
  },
  {
    "postal": "N9A2W1",
    "result": [
      {
        "electoralDistricts": [
          {
            "election": null,
            "id": 119,
            "name": "Windsor West"
          }
        ],
        "pollDivisionIds": [
          10142791
        ],
        "postalCode": "N9A2W1",
        "streetName": "CHATHAM",
        "streetDirectionId": "E",
        "streetTypeId": "ST",
        "placeName": "WINDSOR",
        "streetNameDisplayText": "CHATHAM ST E, WINDSOR"
      }
    ]
  },
  {
    "postal": "N9A9H8",
    "result": []
  },
  {
    "postal": "N9A8X9",
    "result": []
  },
  {
    "postal": "N9A7H4",
    "result": []
  },
  {
    "postal": "N9A3J1",
    "result": [
      {
        "electoralDistricts": [
          {
            "election": null,
            "id": 119,
            "name": "Windsor West"
          }
        ],
        "pollDivisionIds": [
          10142791
        ],
        "postalCode": "N9A3J1",
        "streetName": "WYANDOTTE",
        "streetDirectionId": "E",
        "streetTypeId": "ST",
        "placeName": "WINDSOR",
        "streetNameDisplayText": "WYANDOTTE ST E, WINDSOR"
      }
    ]
  },
  {
    "postal": "N9A1P4",
    "result": [
      {
        "electoralDistricts": [
          {
            "election": null,
            "id": 119,
            "name": "Windsor West"
          }
        ],
        "pollDivisionIds": [
          10142791
        ],
        "postalCode": "N9A1P4",
        "streetName": "GLENGARRY",
        "streetDirectionId": null,
        "streetTypeId": "AVE",
        "placeName": "WINDSOR",
        "streetNameDisplayText": "GLENGARRY AVE, WINDSOR"
      }
    ]
  },
  {
    "postal": "N9A2A3",
    "result": [
      {
        "electoralDistricts": [
          {
            "election": null,
            "id": 119,
            "name": "Windsor West"
          }
        ],
        "pollDivisionIds": [
          10142795
        ],
        "postalCode": "N9A2A3",
        "streetName": "MARENTETTE",
        "streetDirectionId": null,
        "streetTypeId": "AVE",
        "placeName": "WINDSOR",
        "streetNameDisplayText": "MARENTETTE AVE, WINDSOR"
      }
    ]
  },
  {
    "postal": "N9A0Z1",
    "result": []
  },
  {
    "postal": "N9A1C1",
    "result": [
      {
        "electoralDistricts": [
          {
            "election": null,
            "id": 119,
            "name": "Windsor West"
          }
        ],
        "pollDivisionIds": [
          10142826
        ],
        "postalCode": "N9A1C1",
        "streetName": "OUELLETTE",
        "streetDirectionId": null,
        "streetTypeId": "AVE",
        "placeName": "WINDSOR",
        "streetNameDisplayText": "OUELLETTE AVE, WINDSOR"
      }
    ]
  },
  {
    "postal": "N9A0H3",
    "result": []
  },
  {
    "postal": "N9A7B0",
    "result": []
  },
  {
    "postal": "N9A5K2",
    "result": [
      {
        "electoralDistricts": [
          {
            "election": null,
            "id": 119,
            "name": "Windsor West"
          }
        ],
        "pollDivisionIds": [
          10142783
        ],
        "postalCode": "N9A5K2",
        "streetName": "WELLINGTON",
        "streetDirectionId": null,
        "streetTypeId": "AVE",
        "placeName": "WINDSOR",
        "streetNameDisplayText": "WELLINGTON AVE, WINDSOR"
      }
    ]
  },
  {
    "postal": "N9A1E9",
    "result": []
  },
  {
    "postal": "N9A9W7",
    "result": []
  },
  {
    "postal": "N9A5W6",
    "result": [
      {
        "electoralDistricts": [
          {
            "election": null,
            "id": 119,
            "name": "Windsor West"
          }
        ],
        "pollDivisionIds": [
          10142787
        ],
        "postalCode": "N9A5W6",
        "streetName": "WYANDOTTE",
        "streetDirectionId": "W",
        "streetTypeId": "ST",
        "placeName": "WINDSOR",
        "streetNameDisplayText": "WYANDOTTE ST W, WINDSOR"
      }
    ]
  },
  {
    "postal": "N9A6S6",
    "result": []
  },
  {
    "postal": "N9A2P8",
    "result": [
      {
        "electoralDistricts": [
          {
            "election": null,
            "id": 118,
            "name": "Windsor—Tecumseh"
          }
        ],
        "pollDivisionIds": [
          10142710
        ],
        "postalCode": "N9A2P8",
        "streetName": "GLADSTONE",
        "streetDirectionId": null,
        "streetTypeId": "AVE",
        "placeName": "WINDSOR",
        "streetNameDisplayText": "GLADSTONE AVE, WINDSOR"
      }
    ]
  },
  {
    "postal": "N9A4P8",
    "result": [
      {
        "electoralDistricts": [
          {
            "election": null,
            "id": 119,
            "name": "Windsor West"
          }
        ],
        "pollDivisionIds": [
          10142787
        ],
        "postalCode": "N9A4P8",
        "streetName": "DOUGALL",
        "streetDirectionId": null,
        "streetTypeId": "AVE",
        "placeName": "WINDSOR",
        "streetNameDisplayText": "DOUGALL AVE, WINDSOR"
      }
    ]
  },
  {
    "postal": "N9A0V9",
    "result": []
  },
  {
    "postal": "N9A5Y2",
    "result": [
      {
        "electoralDistricts": [
          {
            "election": null,
            "id": 119,
            "name": "Windsor West"
          }
        ],
        "pollDivisionIds": [
          10142781
        ],
        "postalCode": "N9A5Y2",
        "streetName": "WYANDOTTE",
        "streetDirectionId": "W",
        "streetTypeId": "ST",
        "placeName": "WINDSOR",
        "streetNameDisplayText": "WYANDOTTE ST W, WINDSOR"
      }
    ]
  },
  {
    "postal": "N9A7Z7",
    "result": []
  },
  {
    "postal": "N9A6Y8",
    "result": []
  },
  {
    "postal": "N9A2G7",
    "result": [
      {
        "electoralDistricts": [
          {
            "election": null,
            "id": 119,
            "name": "Windsor West"
          }
        ],
        "pollDivisionIds": [
          10142791
        ],
        "postalCode": "N9A2G7",
        "streetName": "LANGLOIS",
        "streetDirectionId": null,
        "streetTypeId": "AVE",
        "placeName": "WINDSOR",
        "streetNameDisplayText": "LANGLOIS AVE, WINDSOR"
      }
    ]
  },
  {
    "postal": "N9A8C1",
    "result": []
  },
  {
    "postal": "N9A5C5",
    "result": [
      {
        "electoralDistricts": [
          {
            "election": null,
            "id": 119,
            "name": "Windsor West"
          }
        ],
        "pollDivisionIds": [
          10142781
        ],
        "postalCode": "N9A5C5",
        "streetName": "CRAWFORD",
        "streetDirectionId": null,
        "streetTypeId": "AVE",
        "placeName": "WINDSOR",
        "streetNameDisplayText": "CRAWFORD AVE, WINDSOR"
      }
    ]
  },
  {
    "postal": "N9A2X8",
    "result": [
      {
        "electoralDistricts": [
          {
            "election": null,
            "id": 119,
            "name": "Windsor West"
          }
        ],
        "pollDivisionIds": [
          10142791
        ],
        "postalCode": "N9A2X8",
        "streetName": "CHATHAM",
        "streetDirectionId": "E",
        "streetTypeId": "ST",
        "placeName": "WINDSOR",
        "streetNameDisplayText": "CHATHAM ST E, WINDSOR"
      }
    ]
  },
  {
    "postal": "N9A1W5",
    "result": [
      {
        "electoralDistricts": [
          {
            "election": null,
            "id": 119,
            "name": "Windsor West"
          }
        ],
        "pollDivisionIds": [
          10142791
        ],
        "postalCode": "N9A1W5",
        "streetName": "LOUIS",
        "streetDirectionId": null,
        "streetTypeId": "AVE",
        "placeName": "WINDSOR",
        "streetNameDisplayText": "LOUIS AVE, WINDSOR"
      }
    ]
  },
  {
    "postal": "N9A7G0",
    "result": []
  },
  {
    "postal": "N9A8J8",
    "result": []
  },
  {
    "postal": "N9A3Y0",
    "result": []
  },
  {
    "postal": "N9A9T7",
    "result": []
  },
  {
    "postal": "N9A5P4",
    "result": [
      {
        "electoralDistricts": [
          {
            "election": null,
            "id": 119,
            "name": "Windsor West"
          }
        ],
        "pollDivisionIds": [
          10142785
        ],
        "postalCode": "N9A5P4",
        "streetName": "UNIVERSITY",
        "streetDirectionId": "W",
        "streetTypeId": "AVE",
        "placeName": "WINDSOR",
        "streetNameDisplayText": "UNIVERSITY AVE W, WINDSOR"
      }
    ]
  },
  {
    "postal": "N9A4B0",
    "result": []
  },
  {
    "postal": "N9A9N8",
    "result": []
  },
  {
    "postal": "N9A4A7",
    "result": [
      {
        "electoralDistricts": [
          {
            "election": null,
            "id": 118,
            "name": "Windsor—Tecumseh"
          }
        ],
        "pollDivisionIds": [
          10142711
        ],
        "postalCode": "N9A4A7",
        "streetName": "RICHMOND",
        "streetDirectionId": null,
        "streetTypeId": "ST",
        "placeName": "WINDSOR",
        "streetNameDisplayText": "RICHMOND ST, WINDSOR"
      }
    ]
  },
  {
    "postal": "N9A4H9",
    "result": [
      {
        "electoralDistricts": [
          {
            "election": null,
            "id": 119,
            "name": "Windsor West"
          }
        ],
        "pollDivisionIds": [
          10142785
        ],
        "postalCode": "N9A4H9",
        "streetName": "OUELLETTE",
        "streetDirectionId": null,
        "streetTypeId": "AVE",
        "placeName": "WINDSOR",
        "streetNameDisplayText": "OUELLETTE AVE, WINDSOR"
      }
    ]
  },
  {
    "postal": "N9A6X1",
    "result": []
  },
  {
    "postal": "N9A9Y7",
    "result": []
  },
  {
    "postal": "N9A2Y5",
    "result": []
  },
  {
    "postal": "N9A8L7",
    "result": []
  },
  {
    "postal": "N9A2A8",
    "result": [
      {
        "electoralDistricts": [
          {
            "election": null,
            "id": 119,
            "name": "Windsor West"
          }
        ],
        "pollDivisionIds": [
          10142795
        ],
        "postalCode": "N9A2A8",
        "streetName": "ELSMERE",
        "streetDirectionId": null,
        "streetTypeId": "AVE",
        "placeName": "WINDSOR",
        "streetNameDisplayText": "ELSMERE AVE, WINDSOR"
      }
    ]
  },
  {
    "postal": "N9A2K9",
    "result": [
      {
        "electoralDistricts": [
          {
            "election": null,
            "id": 118,
            "name": "Windsor—Tecumseh"
          }
        ],
        "pollDivisionIds": [
          10142710
        ],
        "postalCode": "N9A2K9",
        "streetName": "PIERRE",
        "streetDirectionId": null,
        "streetTypeId": "AVE",
        "placeName": "WINDSOR",
        "streetNameDisplayText": "PIERRE AVE, WINDSOR"
      }
    ]
  },
  {
    "postal": "N9A3E5",
    "result": [
      {
        "electoralDistricts": [
          {
            "election": null,
            "id": 119,
            "name": "Windsor West"
          }
        ],
        "pollDivisionIds": [
          10142791
        ],
        "postalCode": "N9A3E5",
        "streetName": "BRANT",
        "streetDirectionId": null,
        "streetTypeId": "ST",
        "placeName": "WINDSOR",
        "streetNameDisplayText": "BRANT ST, WINDSOR"
      }
    ]
  },
  {
    "postal": "N9A8N6",
    "result": []
  },
  {
    "postal": "N9A8J4",
    "result": []
  },
  {
    "postal": "N9A4R7",
    "result": [
      {
        "electoralDistricts": [
          {
            "election": null,
            "id": 119,
            "name": "Windsor West"
          }
        ],
        "pollDivisionIds": [
          10143673
        ],
        "postalCode": "N9A4R7",
        "streetName": "DOUGALL",
        "streetDirectionId": null,
        "streetTypeId": "AVE",
        "placeName": "WINDSOR",
        "streetNameDisplayText": "DOUGALL AVE, WINDSOR"
      }
    ]
  },
  {
    "postal": "N9A9K1",
    "result": []
  },
  {
    "postal": "N9A8E1",
    "result": []
  },
  {
    "postal": "N9A0R1",
    "result": []
  },
  {
    "postal": "N9A4J3",
    "result": [
      {
        "electoralDistricts": [
          {
            "election": null,
            "id": 119,
            "name": "Windsor West"
          }
        ],
        "pollDivisionIds": [
          10142785
        ],
        "postalCode": "N9A4J3",
        "streetName": "OUELLETTE",
        "streetDirectionId": null,
        "streetTypeId": "AVE",
        "placeName": "WINDSOR",
        "streetNameDisplayText": "OUELLETTE AVE, WINDSOR"
      }
    ]
  },
  {
    "postal": "N9A7E7",
    "result": []
  },
  {
    "postal": "N9A0J0",
    "result": []
  },
  {
    "postal": "N9A7R8",
    "result": []
  },
  {
    "postal": "N9A9X0",
    "result": []
  },
  {
    "postal": "N9A7P6",
    "result": []
  },
  {
    "postal": "N9A0R7",
    "result": []
  },
  {
    "postal": "N9A5W1",
    "result": [
      {
        "electoralDistricts": [
          {
            "election": null,
            "id": 119,
            "name": "Windsor West"
          }
        ],
        "pollDivisionIds": [
          10142785
        ],
        "postalCode": "N9A5W1",
        "streetName": "KARL",
        "streetDirectionId": null,
        "streetTypeId": "PL",
        "placeName": "WINDSOR",
        "streetNameDisplayText": "KARL PL, WINDSOR"
      }
    ]
  },
  {
    "postal": "N9A0K4",
    "result": []
  },
  {
    "postal": "N9A7N9",
    "result": []
  },
  {
    "postal": "N9A1N0",
    "result": []
  },
  {
    "postal": "N9A6P3",
    "result": []
  },
  {
    "postal": "N9A5A1",
    "result": [
      {
        "electoralDistricts": [
          {
            "election": null,
            "id": 119,
            "name": "Windsor West"
          }
        ],
        "pollDivisionIds": [
          10142787
        ],
        "postalCode": "N9A5A1",
        "streetName": "JANETTE",
        "streetDirectionId": null,
        "streetTypeId": "AVE",
        "placeName": "WINDSOR",
        "streetNameDisplayText": "JANETTE AVE, WINDSOR"
      }
    ]
  },
  {
    "postal": "N9A9M9",
    "result": []
  },
  {
    "postal": "N9A7T6",
    "result": []
  },
  {
    "postal": "N9A3X0",
    "result": []
  },
  {
    "postal": "N9A2T0",
    "result": []
  },
  {
    "postal": "N9A5X9",
    "result": []
  },
  {
    "postal": "N9A2R3",
    "result": [
      {
        "electoralDistricts": [
          {
            "election": null,
            "id": 119,
            "name": "Windsor West"
          },
          {
            "election": null,
            "id": 118,
            "name": "Windsor—Tecumseh"
          }
        ],
        "pollDivisionIds": [
          10142800,
          10142711
        ],
        "postalCode": "N9A2R3",
        "streetName": "GLADSTONE",
        "streetDirectionId": null,
        "streetTypeId": "AVE",
        "placeName": "WINDSOR",
        "streetNameDisplayText": "GLADSTONE AVE, WINDSOR"
      },
      {
        "electoralDistricts": [
          {
            "election": null,
            "id": 27,
            "name": "Essex"
          }
        ],
        "pollDivisionIds": [
          10138049
        ],
        "postalCode": "N9A2R3",
        "streetName": "ST CHARLES",
        "streetDirectionId": null,
        "streetTypeId": "ST",
        "placeName": "BELLE RIVER",
        "streetNameDisplayText": "ST CHARLES ST, BELLE RIVER"
      }
    ]
  },
  {
    "postal": "N9A5N2",
    "result": [
      {
        "electoralDistricts": [
          {
            "election": null,
            "id": 119,
            "name": "Windsor West"
          }
        ],
        "pollDivisionIds": [
          10142785
        ],
        "postalCode": "N9A5N2",
        "streetName": "CHATHAM",
        "streetDirectionId": "W",
        "streetTypeId": "ST",
        "placeName": "WINDSOR",
        "streetNameDisplayText": "CHATHAM ST W, WINDSOR"
      }
    ]
  },
  {
    "postal": "N9A4Y7",
    "result": [
      {
        "electoralDistricts": [
          {
            "election": null,
            "id": 119,
            "name": "Windsor West"
          }
        ],
        "pollDivisionIds": [
          10142785
        ],
        "postalCode": "N9A4Y7",
        "streetName": "JANETTE",
        "streetDirectionId": null,
        "streetTypeId": "AVE",
        "placeName": "WINDSOR",
        "streetNameDisplayText": "JANETTE AVE, WINDSOR"
      }
    ]
  },
  {
    "postal": "N9A7M0",
    "result": []
  },
  {
    "postal": "N9A8P3",
    "result": []
  },
  {
    "postal": "N9A3N3",
    "result": [
      {
        "electoralDistricts": [
          {
            "election": null,
            "id": 118,
            "name": "Windsor—Tecumseh"
          }
        ],
        "pollDivisionIds": [
          10142710
        ],
        "postalCode": "N9A3N3",
        "streetName": "TUSCARORA",
        "streetDirectionId": null,
        "streetTypeId": "ST",
        "placeName": "WINDSOR",
        "streetNameDisplayText": "TUSCARORA ST, WINDSOR"
      }
    ]
  },
  {
    "postal": "N9A7S3",
    "result": []
  },
  {
    "postal": "N9A3V9",
    "result": [
      {
        "electoralDistricts": [
          {
            "election": null,
            "id": 118,
            "name": "Windsor—Tecumseh"
          }
        ],
        "pollDivisionIds": [
          10142711
        ],
        "postalCode": "N9A3V9",
        "streetName": "NIAGARA",
        "streetDirectionId": null,
        "streetTypeId": "ST",
        "placeName": "WINDSOR",
        "streetNameDisplayText": "NIAGARA ST, WINDSOR"
      }
    ]
  },
  {
    "postal": "N9A9N7",
    "result": []
  },
  {
    "postal": "N9A0G4",
    "result": []
  },
  {
    "postal": "N9A2E2",
    "result": [
      {
        "electoralDistricts": [
          {
            "election": null,
            "id": 119,
            "name": "Windsor West"
          }
        ],
        "pollDivisionIds": [
          10142795
        ],
        "postalCode": "N9A2E2",
        "streetName": "PARENT",
        "streetDirectionId": null,
        "streetTypeId": "AVE",
        "placeName": "WINDSOR",
        "streetNameDisplayText": "PARENT AVE, WINDSOR"
      }
    ]
  },
  {
    "postal": "N9A7W8",
    "result": []
  },
  {
    "postal": "N9A7M5",
    "result": []
  },
  {
    "postal": "N9A5W8",
    "result": [
      {
        "electoralDistricts": [
          {
            "election": null,
            "id": 119,
            "name": "Windsor West"
          }
        ],
        "pollDivisionIds": [
          10142787
        ],
        "postalCode": "N9A5W8",
        "streetName": "WYANDOTTE",
        "streetDirectionId": "W",
        "streetTypeId": "ST",
        "placeName": "WINDSOR",
        "streetNameDisplayText": "WYANDOTTE ST W, WINDSOR"
      }
    ]
  },
  {
    "postal": "N9A5E5",
    "result": [
      {
        "electoralDistricts": [
          {
            "election": null,
            "id": 119,
            "name": "Windsor West"
          }
        ],
        "pollDivisionIds": [
          10142779
        ],
        "postalCode": "N9A5E5",
        "streetName": "OAK",
        "streetDirectionId": null,
        "streetTypeId": "AVE",
        "placeName": "WINDSOR",
        "streetNameDisplayText": "OAK AVE, WINDSOR"
      }
    ]
  },
  {
    "postal": "N9A1P9",
    "result": [
      {
        "electoralDistricts": [
          {
            "election": null,
            "id": 119,
            "name": "Windsor West"
          }
        ],
        "pollDivisionIds": [
          10142791
        ],
        "postalCode": "N9A1P9",
        "streetName": "GLENGARRY",
        "streetDirectionId": null,
        "streetTypeId": "AVE",
        "placeName": "WINDSOR",
        "streetNameDisplayText": "GLENGARRY AVE, WINDSOR"
      }
    ]
  },
  {
    "postal": "N9A8V8",
    "result": []
  },
  {
    "postal": "N9A9G8",
    "result": []
  },
  {
    "postal": "N9A8H9",
    "result": []
  },
  {
    "postal": "N9A1Z1",
    "result": [
      {
        "electoralDistricts": [
          {
            "election": null,
            "id": 119,
            "name": "Windsor West"
          }
        ],
        "pollDivisionIds": [
          10142791
        ],
        "postalCode": "N9A1Z1",
        "streetName": "MARENTETTE",
        "streetDirectionId": null,
        "streetTypeId": "AVE",
        "placeName": "WINDSOR",
        "streetNameDisplayText": "MARENTETTE AVE, WINDSOR"
      }
    ]
  },
  {
    "postal": "N9A8M3",
    "result": []
  },
  {
    "postal": "N9A5H6",
    "result": [
      {
        "electoralDistricts": [
          {
            "election": null,
            "id": 119,
            "name": "Windsor West"
          }
        ],
        "pollDivisionIds": [
          10142783
        ],
        "postalCode": "N9A5H6",
        "streetName": "ELM",
        "streetDirectionId": null,
        "streetTypeId": "AVE",
        "placeName": "WINDSOR",
        "streetNameDisplayText": "ELM AVE, WINDSOR"
      }
    ]
  },
  {
    "postal": "N9A7W7",
    "result": []
  },
  {
    "postal": "N9A4L0",
    "result": []
  },
  {
    "postal": "N9A2N1",
    "result": [
      {
        "electoralDistricts": [
          {
            "election": null,
            "id": 118,
            "name": "Windsor—Tecumseh"
          }
        ],
        "pollDivisionIds": [
          10142710
        ],
        "postalCode": "N9A2N1",
        "streetName": "MOY",
        "streetDirectionId": null,
        "streetTypeId": "AVE",
        "placeName": "WINDSOR",
        "streetNameDisplayText": "MOY AVE, WINDSOR"
      }
    ]
  },
  {
    "postal": "N9A2H4",
    "result": [
      {
        "electoralDistricts": [
          {
            "election": null,
            "id": 119,
            "name": "Windsor West"
          }
        ],
        "pollDivisionIds": [
          10142795
        ],
        "postalCode": "N9A2H4",
        "streetName": "LANGLOIS",
        "streetDirectionId": null,
        "streetTypeId": "AVE",
        "placeName": "WINDSOR",
        "streetNameDisplayText": "LANGLOIS AVE, WINDSOR"
      }
    ]
  },
  {
    "postal": "N9A5C8",
    "result": [
      {
        "electoralDistricts": [
          {
            "election": null,
            "id": 119,
            "name": "Windsor West"
          }
        ],
        "pollDivisionIds": [
          10142783
        ],
        "postalCode": "N9A5C8",
        "streetName": "CRAWFORD",
        "streetDirectionId": null,
        "streetTypeId": "AVE",
        "placeName": "WINDSOR",
        "streetNameDisplayText": "CRAWFORD AVE, WINDSOR"
      }
    ]
  },
  {
    "postal": "N9A8B0",
    "result": []
  },
  {
    "postal": "N9A1T4",
    "result": [
      {
        "electoralDistricts": [
          {
            "election": null,
            "id": 119,
            "name": "Windsor West"
          }
        ],
        "pollDivisionIds": [
          10142791
        ],
        "postalCode": "N9A1T4",
        "streetName": "AYLMER",
        "streetDirectionId": null,
        "streetTypeId": "AVE",
        "placeName": "WINDSOR",
        "streetNameDisplayText": "AYLMER AVE, WINDSOR"
      }
    ]
  },
  {
    "postal": "N9A7N7",
    "result": []
  },
  {
    "postal": "N9A4L3",
    "result": []
  },
  {
    "postal": "N9A2N2",
    "result": [
      {
        "electoralDistricts": [
          {
            "election": null,
            "id": 118,
            "name": "Windsor—Tecumseh"
          }
        ],
        "pollDivisionIds": [
          10142710
        ],
        "postalCode": "N9A2N2",
        "streetName": "MOY",
        "streetDirectionId": null,
        "streetTypeId": "AVE",
        "placeName": "WINDSOR",
        "streetNameDisplayText": "MOY AVE, WINDSOR"
      }
    ]
  },
  {
    "postal": "N9A4N8",
    "result": [
      {
        "electoralDistricts": [
          {
            "election": null,
            "id": 119,
            "name": "Windsor West"
          }
        ],
        "pollDivisionIds": [
          10143673
        ],
        "postalCode": "N9A4N8",
        "streetName": "VICTORIA",
        "streetDirectionId": null,
        "streetTypeId": "AVE",
        "placeName": "WINDSOR",
        "streetNameDisplayText": "VICTORIA AVE, WINDSOR"
      }
    ]
  },
  {
    "postal": "N9A3M5",
    "result": [
      {
        "electoralDistricts": [
          {
            "election": null,
            "id": 119,
            "name": "Windsor West"
          }
        ],
        "pollDivisionIds": [
          10142791
        ],
        "postalCode": "N9A3M5",
        "streetName": "TUSCARORA",
        "streetDirectionId": null,
        "streetTypeId": "ST",
        "placeName": "WINDSOR",
        "streetNameDisplayText": "TUSCARORA ST, WINDSOR"
      }
    ]
  },
  {
    "postal": "N9A6H7",
    "result": [
      {
        "electoralDistricts": [
          {
            "election": null,
            "id": 119,
            "name": "Windsor West"
          }
        ],
        "pollDivisionIds": [
          10143673
        ],
        "postalCode": "N9A6H7",
        "streetName": "GILES",
        "streetDirectionId": "W",
        "streetTypeId": "BLVD",
        "placeName": "WINDSOR",
        "streetNameDisplayText": "GILES BLVD W, WINDSOR"
      }
    ]
  },
  {
    "postal": "N9A8Y8",
    "result": []
  },
  {
    "postal": "N9A5R9",
    "result": [
      {
        "electoralDistricts": [
          {
            "election": null,
            "id": 119,
            "name": "Windsor West"
          }
        ],
        "pollDivisionIds": [
          10142779
        ],
        "postalCode": "N9A5R9",
        "streetName": "UNIVERSITY",
        "streetDirectionId": "W",
        "streetTypeId": "AVE",
        "placeName": "WINDSOR",
        "streetNameDisplayText": "UNIVERSITY AVE W, WINDSOR"
      }
    ]
  },
  {
    "postal": "N9A8G3",
    "result": []
  },
  {
    "postal": "N9A4N7",
    "result": [
      {
        "electoralDistricts": [
          {
            "election": null,
            "id": 119,
            "name": "Windsor West"
          }
        ],
        "pollDivisionIds": [
          10143673
        ],
        "postalCode": "N9A4N7",
        "streetName": "VICTORIA",
        "streetDirectionId": null,
        "streetTypeId": "AVE",
        "placeName": "WINDSOR",
        "streetNameDisplayText": "VICTORIA AVE, WINDSOR"
      }
    ]
  },
  {
    "postal": "N9A0B9",
    "result": []
  },
  {
    "postal": "N9A9K7",
    "result": []
  },
  {
    "postal": "N9A9K9",
    "result": []
  },
  {
    "postal": "N9A3Z2",
    "result": [
      {
        "electoralDistricts": [
          {
            "election": null,
            "id": 118,
            "name": "Windsor—Tecumseh"
          }
        ],
        "pollDivisionIds": [
          10142710
        ],
        "postalCode": "N9A3Z2",
        "streetName": "ERIE",
        "streetDirectionId": "E",
        "streetTypeId": "ST",
        "placeName": "WINDSOR",
        "streetNameDisplayText": "ERIE ST E, WINDSOR"
      }
    ]
  },
  {
    "postal": "N9A6W7",
    "result": [
      {
        "electoralDistricts": [
          {
            "election": null,
            "id": 119,
            "name": "Windsor West"
          },
          {
            "election": null,
            "id": 118,
            "name": "Windsor—Tecumseh"
          }
        ],
        "pollDivisionIds": [
          10142818,
          10142715
        ],
        "postalCode": "N9A6W7",
        "streetName": "CARON",
        "streetDirectionId": null,
        "streetTypeId": "AVE",
        "placeName": "WINDSOR",
        "streetNameDisplayText": "CARON AVE, WINDSOR"
      }
    ]
  },
  {
    "postal": "N9A0P1",
    "result": []
  },
  {
    "postal": "N9A3A0",
    "result": []
  },
  {
    "postal": "N9A8L9",
    "result": []
  },
  {
    "postal": "N9A6X0",
    "result": []
  },
  {
    "postal": "N9A3E9",
    "result": [
      {
        "electoralDistricts": [
          {
            "election": null,
            "id": 119,
            "name": "Windsor West"
          }
        ],
        "pollDivisionIds": [
          10142791
        ],
        "postalCode": "N9A3E9",
        "streetName": "BRANT",
        "streetDirectionId": null,
        "streetTypeId": "ST",
        "placeName": "WINDSOR",
        "streetNameDisplayText": "BRANT ST, WINDSOR"
      }
    ]
  },
  {
    "postal": "N9A0S5",
    "result": []
  },
  {
    "postal": "N9A1A2",
    "result": [
      {
        "electoralDistricts": [
          {
            "election": null,
            "id": 119,
            "name": "Windsor West"
          }
        ],
        "pollDivisionIds": [
          10142791
        ],
        "postalCode": "N9A1A2",
        "streetName": "OUELLETTE",
        "streetDirectionId": null,
        "streetTypeId": "AVE",
        "placeName": "WINDSOR",
        "streetNameDisplayText": "OUELLETTE AVE, WINDSOR"
      }
    ]
  },
  {
    "postal": "N9A5V8",
    "result": [
      {
        "electoralDistricts": [
          {
            "election": null,
            "id": 119,
            "name": "Windsor West"
          }
        ],
        "pollDivisionIds": [
          10142785
        ],
        "postalCode": "N9A5V8",
        "streetName": "PARK",
        "streetDirectionId": "W",
        "streetTypeId": "ST",
        "placeName": "WINDSOR",
        "streetNameDisplayText": "PARK ST W, WINDSOR"
      }
    ]
  },
  {
    "postal": "N9A8C5",
    "result": []
  },
  {
    "postal": "N9A6N0",
    "result": []
  },
  {
    "postal": "N9A9E6",
    "result": []
  },
  {
    "postal": "N9A5J7",
    "result": [
      {
        "electoralDistricts": [
          {
            "election": null,
            "id": 119,
            "name": "Windsor West"
          }
        ],
        "pollDivisionIds": [
          10142783,
          10142781
        ],
        "postalCode": "N9A5J7",
        "streetName": "WELLINGTON",
        "streetDirectionId": null,
        "streetTypeId": "AVE",
        "placeName": "WINDSOR",
        "streetNameDisplayText": "WELLINGTON AVE, WINDSOR"
      }
    ]
  },
  {
    "postal": "N9A2R2",
    "result": [
      {
        "electoralDistricts": [
          {
            "election": null,
            "id": 118,
            "name": "Windsor—Tecumseh"
          }
        ],
        "pollDivisionIds": [
          10142710
        ],
        "postalCode": "N9A2R2",
        "streetName": "GLADSTONE",
        "streetDirectionId": null,
        "streetTypeId": "AVE",
        "placeName": "WINDSOR",
        "streetNameDisplayText": "GLADSTONE AVE, WINDSOR"
      }
    ]
  },
  {
    "postal": "N9A0P5",
    "result": []
  },
  {
    "postal": "N9A5A7",
    "result": [
      {
        "electoralDistricts": [
          {
            "election": null,
            "id": 119,
            "name": "Windsor West"
          }
        ],
        "pollDivisionIds": [
          10143673
        ],
        "postalCode": "N9A5A7",
        "streetName": "JANETTE",
        "streetDirectionId": null,
        "streetTypeId": "AVE",
        "placeName": "WINDSOR",
        "streetNameDisplayText": "JANETTE AVE, WINDSOR"
      }
    ]
  },
  {
    "postal": "N9A1G1",
    "result": []
  },
  {
    "postal": "N9A9R6",
    "result": []
  },
  {
    "postal": "N9A4Z9",
    "result": [
      {
        "electoralDistricts": [
          {
            "election": null,
            "id": 119,
            "name": "Windsor West"
          }
        ],
        "pollDivisionIds": [
          10142787
        ],
        "postalCode": "N9A4Z9",
        "streetName": "JANETTE",
        "streetDirectionId": null,
        "streetTypeId": "AVE",
        "placeName": "WINDSOR",
        "streetNameDisplayText": "JANETTE AVE, WINDSOR"
      }
    ]
  },
  {
    "postal": "N9A1V5",
    "result": [
      {
        "electoralDistricts": [
          {
            "election": null,
            "id": 119,
            "name": "Windsor West"
          }
        ],
        "pollDivisionIds": [
          10142795
        ],
        "postalCode": "N9A1V5",
        "streetName": "LILLIAN",
        "streetDirectionId": null,
        "streetTypeId": "AVE",
        "placeName": "WINDSOR",
        "streetNameDisplayText": "LILLIAN AVE, WINDSOR"
      }
    ]
  },
  {
    "postal": "N9A9Y5",
    "result": []
  },
  {
    "postal": "N9A1P2",
    "result": [
      {
        "electoralDistricts": [
          {
            "election": null,
            "id": 119,
            "name": "Windsor West"
          }
        ],
        "pollDivisionIds": [
          10142791
        ],
        "postalCode": "N9A1P2",
        "streetName": "GLENGARRY",
        "streetDirectionId": null,
        "streetTypeId": "AVE",
        "placeName": "WINDSOR",
        "streetNameDisplayText": "GLENGARRY AVE, WINDSOR"
      }
    ]
  },
  {
    "postal": "N9A5X0",
    "result": []
  },
  {
    "postal": "N9A7B8",
    "result": []
  },
  {
    "postal": "N9A0C6",
    "result": []
  },
  {
    "postal": "N9A6G1",
    "result": [
      {
        "electoralDistricts": [
          {
            "election": null,
            "id": 119,
            "name": "Windsor West"
          }
        ],
        "pollDivisionIds": [
          10143673
        ],
        "postalCode": "N9A6G1",
        "streetName": "GROVE",
        "streetDirectionId": null,
        "streetTypeId": "AVE",
        "placeName": "WINDSOR",
        "streetNameDisplayText": "GROVE AVE, WINDSOR"
      }
    ]
  },
  {
    "postal": "N9A3K3",
    "result": [
      {
        "electoralDistricts": [
          {
            "election": null,
            "id": 118,
            "name": "Windsor—Tecumseh"
          }
        ],
        "pollDivisionIds": [
          10142710
        ],
        "postalCode": "N9A3K3",
        "streetName": "WYANDOTTE",
        "streetDirectionId": "E",
        "streetTypeId": "ST",
        "placeName": "WINDSOR",
        "streetNameDisplayText": "WYANDOTTE ST E, WINDSOR"
      }
    ]
  },
  {
    "postal": "N9A9R0",
    "result": []
  },
  {
    "postal": "N9A4R8",
    "result": [
      {
        "electoralDistricts": [
          {
            "election": null,
            "id": 119,
            "name": "Windsor West"
          }
        ],
        "pollDivisionIds": [
          10143673
        ],
        "postalCode": "N9A4R8",
        "streetName": "DOUGALL",
        "streetDirectionId": null,
        "streetTypeId": "AVE",
        "placeName": "WINDSOR",
        "streetNameDisplayText": "DOUGALL AVE, WINDSOR"
      }
    ]
  },
  {
    "postal": "N9A5P9",
    "result": [
      {
        "electoralDistricts": [
          {
            "election": null,
            "id": 119,
            "name": "Windsor West"
          }
        ],
        "pollDivisionIds": [
          10142785
        ],
        "postalCode": "N9A5P9",
        "streetName": "UNIVERSITY",
        "streetDirectionId": "W",
        "streetTypeId": "AVE",
        "placeName": "WINDSOR",
        "streetNameDisplayText": "UNIVERSITY AVE W, WINDSOR"
      }
    ]
  },
  {
    "postal": "N9A8N4",
    "result": []
  },
  {
    "postal": "N9A8H4",
    "result": []
  },
  {
    "postal": "N9A4V1",
    "result": [
      {
        "electoralDistricts": [
          {
            "election": null,
            "id": 119,
            "name": "Windsor West"
          }
        ],
        "pollDivisionIds": [
          10142787
        ],
        "postalCode": "N9A4V1",
        "streetName": "CHURCH",
        "streetDirectionId": null,
        "streetTypeId": "ST",
        "placeName": "WINDSOR",
        "streetNameDisplayText": "CHURCH ST, WINDSOR"
      }
    ]
  },
  {
    "postal": "N9A1K5",
    "result": []
  },
  {
    "postal": "N9A1Z5",
    "result": [
      {
        "electoralDistricts": [
          {
            "election": null,
            "id": 119,
            "name": "Windsor West"
          }
        ],
        "pollDivisionIds": [
          10142791
        ],
        "postalCode": "N9A1Z5",
        "streetName": "MARENTETTE",
        "streetDirectionId": null,
        "streetTypeId": "AVE",
        "placeName": "WINDSOR",
        "streetNameDisplayText": "MARENTETTE AVE, WINDSOR"
      }
    ]
  },
  {
    "postal": "N9A9L9",
    "result": []
  },
  {
    "postal": "N9A5L2",
    "result": [
      {
        "electoralDistricts": [
          {
            "election": null,
            "id": 119,
            "name": "Windsor West"
          }
        ],
        "pollDivisionIds": [
          10142779
        ],
        "postalCode": "N9A5L2",
        "streetName": "RIVERSIDE",
        "streetDirectionId": "W",
        "streetTypeId": "DR",
        "placeName": "WINDSOR",
        "streetNameDisplayText": "RIVERSIDE DR W, WINDSOR"
      }
    ]
  },
  {
    "postal": "N9A0M2",
    "result": []
  },
  {
    "postal": "N9A1K8",
    "result": []
  },
  {
    "postal": "N9A3M7",
    "result": [
      {
        "electoralDistricts": [
          {
            "election": null,
            "id": 119,
            "name": "Windsor West"
          }
        ],
        "pollDivisionIds": [
          10142791
        ],
        "postalCode": "N9A3M7",
        "streetName": "TUSCARORA",
        "streetDirectionId": null,
        "streetTypeId": "ST",
        "placeName": "WINDSOR",
        "streetNameDisplayText": "TUSCARORA ST, WINDSOR"
      }
    ]
  },
  {
    "postal": "N9A1B2",
    "result": [
      {
        "electoralDistricts": [
          {
            "election": null,
            "id": 119,
            "name": "Windsor West"
          }
        ],
        "pollDivisionIds": [
          10142791
        ],
        "postalCode": "N9A1B2",
        "streetName": "OUELLETTE",
        "streetDirectionId": null,
        "streetTypeId": "AVE",
        "placeName": "WINDSOR",
        "streetNameDisplayText": "OUELLETTE AVE, WINDSOR"
      }
    ]
  },
  {
    "postal": "N9A0H9",
    "result": []
  },
  {
    "postal": "N9A8M4",
    "result": []
  },
  {
    "postal": "N9A2M5",
    "result": [
      {
        "electoralDistricts": [
          {
            "election": null,
            "id": 118,
            "name": "Windsor—Tecumseh"
          }
        ],
        "pollDivisionIds": [
          10142710
        ],
        "postalCode": "N9A2M5",
        "streetName": "HALL",
        "streetDirectionId": null,
        "streetTypeId": "AVE",
        "placeName": "WINDSOR",
        "streetNameDisplayText": "HALL AVE, WINDSOR"
      }
    ]
  },
  {
    "postal": "N9A0T9",
    "result": []
  },
  {
    "postal": "N9A3P1",
    "result": [
      {
        "electoralDistricts": [
          {
            "election": null,
            "id": 119,
            "name": "Windsor West"
          }
        ],
        "pollDivisionIds": [
          10142791
        ],
        "postalCode": "N9A3P1",
        "streetName": "CATARAQUI",
        "streetDirectionId": null,
        "streetTypeId": "ST",
        "placeName": "WINDSOR",
        "streetNameDisplayText": "CATARAQUI ST, WINDSOR"
      }
    ]
  },
  {
    "postal": "N9A1R6",
    "result": [
      {
        "electoralDistricts": [
          {
            "election": null,
            "id": 119,
            "name": "Windsor West"
          }
        ],
        "pollDivisionIds": [
          10142795
        ],
        "postalCode": "N9A1R6",
        "streetName": "HIGHLAND",
        "streetDirectionId": null,
        "streetTypeId": "AVE",
        "placeName": "WINDSOR",
        "streetNameDisplayText": "HIGHLAND AVE, WINDSOR"
      }
    ]
  },
  {
    "postal": "N9A9V5",
    "result": []
  },
  {
    "postal": "N9A9T0",
    "result": []
  },
  {
    "postal": "N9A0A9",
    "result": []
  },
  {
    "postal": "N9A1M3",
    "result": []
  },
  {
    "postal": "N9A1W8",
    "result": [
      {
        "electoralDistricts": [
          {
            "election": null,
            "id": 119,
            "name": "Windsor West"
          }
        ],
        "pollDivisionIds": [
          10142791
        ],
        "postalCode": "N9A1W8",
        "streetName": "LOUIS",
        "streetDirectionId": null,
        "streetTypeId": "AVE",
        "placeName": "WINDSOR",
        "streetNameDisplayText": "LOUIS AVE, WINDSOR"
      }
    ]
  },
  {
    "postal": "N9A9J1",
    "result": []
  },
  {
    "postal": "N9A8N5",
    "result": []
  },
  {
    "postal": "N9A5X1",
    "result": [
      {
        "electoralDistricts": [
          {
            "election": null,
            "id": 119,
            "name": "Windsor West"
          }
        ],
        "pollDivisionIds": [
          10142787
        ],
        "postalCode": "N9A5X1",
        "streetName": "WYANDOTTE",
        "streetDirectionId": "W",
        "streetTypeId": "ST",
        "placeName": "WINDSOR",
        "streetNameDisplayText": "WYANDOTTE ST W, WINDSOR"
      }
    ]
  },
  {
    "postal": "N9A6S2",
    "result": []
  },
  {
    "postal": "N9A2A2",
    "result": [
      {
        "electoralDistricts": [
          {
            "election": null,
            "id": 119,
            "name": "Windsor West"
          }
        ],
        "pollDivisionIds": [
          10142795
        ],
        "postalCode": "N9A2A2",
        "streetName": "MARENTETTE",
        "streetDirectionId": null,
        "streetTypeId": "AVE",
        "placeName": "WINDSOR",
        "streetNameDisplayText": "MARENTETTE AVE, WINDSOR"
      }
    ]
  },
  {
    "postal": "N9A6A6",
    "result": [
      {
        "electoralDistricts": [
          {
            "election": null,
            "id": 119,
            "name": "Windsor West"
          }
        ],
        "pollDivisionIds": [
          10142787
        ],
        "postalCode": "N9A6A6",
        "streetName": "CAROLINE",
        "streetDirectionId": null,
        "streetTypeId": "ST",
        "placeName": "WINDSOR",
        "streetNameDisplayText": "CAROLINE ST, WINDSOR"
      }
    ]
  },
  {
    "postal": "N9A0S3",
    "result": []
  },
  {
    "postal": "N9A3E7",
    "result": [
      {
        "electoralDistricts": [
          {
            "election": null,
            "id": 119,
            "name": "Windsor West"
          }
        ],
        "pollDivisionIds": [
          10142791
        ],
        "postalCode": "N9A3E7",
        "streetName": "BRANT",
        "streetDirectionId": null,
        "streetTypeId": "ST",
        "placeName": "WINDSOR",
        "streetNameDisplayText": "BRANT ST, WINDSOR"
      }
    ]
  },
  {
    "postal": "N9A5R7",
    "result": []
  },
  {
    "postal": "N9A3R6",
    "result": []
  },
  {
    "postal": "N9A6K4",
    "result": []
  },
  {
    "postal": "N9A2W5",
    "result": []
  },
  {
    "postal": "N9A8W4",
    "result": []
  },
  {
    "postal": "N9A9C2",
    "result": []
  },
  {
    "postal": "N9A2C0",
    "result": []
  },
  {
    "postal": "N9A0E1",
    "result": []
  },
  {
    "postal": "N9A1K9",
    "result": []
  },
  {
    "postal": "N9A1G7",
    "result": []
  },
  {
    "postal": "N9A4E9",
    "result": [
      {
        "electoralDistricts": [
          {
            "election": null,
            "id": 119,
            "name": "Windsor West"
          }
        ],
        "pollDivisionIds": [
          10142799
        ],
        "postalCode": "N9A4E9",
        "streetName": "GILES",
        "streetDirectionId": "E",
        "streetTypeId": "BLVD",
        "placeName": "WINDSOR",
        "streetNameDisplayText": "GILES BLVD E, WINDSOR"
      }
    ]
  },
  {
    "postal": "N9A9P0",
    "result": []
  },
  {
    "postal": "N9A5H3",
    "result": [
      {
        "electoralDistricts": [
          {
            "election": null,
            "id": 119,
            "name": "Windsor West"
          }
        ],
        "pollDivisionIds": [
          10142783
        ],
        "postalCode": "N9A5H3",
        "streetName": "ELM",
        "streetDirectionId": null,
        "streetTypeId": "AVE",
        "placeName": "WINDSOR",
        "streetNameDisplayText": "ELM AVE, WINDSOR"
      }
    ]
  },
  {
    "postal": "N9A9X6",
    "result": []
  },
  {
    "postal": "N9A5N7",
    "result": [
      {
        "electoralDistricts": [
          {
            "election": null,
            "id": 119,
            "name": "Windsor West"
          }
        ],
        "pollDivisionIds": [
          10142785
        ],
        "postalCode": "N9A5N7",
        "streetName": "UNIVERSITY",
        "streetDirectionId": "W",
        "streetTypeId": "AVE",
        "placeName": "WINDSOR",
        "streetNameDisplayText": "UNIVERSITY AVE W, WINDSOR"
      }
    ]
  },
  {
    "postal": "N9A5A6",
    "result": [
      {
        "electoralDistricts": [
          {
            "election": null,
            "id": 119,
            "name": "Windsor West"
          }
        ],
        "pollDivisionIds": [
          10143673
        ],
        "postalCode": "N9A5A6",
        "streetName": "JANETTE",
        "streetDirectionId": null,
        "streetTypeId": "AVE",
        "placeName": "WINDSOR",
        "streetNameDisplayText": "JANETTE AVE, WINDSOR"
      }
    ]
  },
  {
    "postal": "N9A4M0",
    "result": []
  },
  {
    "postal": "N9A3V6",
    "result": [
      {
        "electoralDistricts": [
          {
            "election": null,
            "id": 118,
            "name": "Windsor—Tecumseh"
          }
        ],
        "pollDivisionIds": [
          10142710
        ],
        "postalCode": "N9A3V6",
        "streetName": "NIAGARA",
        "streetDirectionId": null,
        "streetTypeId": "ST",
        "placeName": "WINDSOR",
        "streetNameDisplayText": "NIAGARA ST, WINDSOR"
      }
    ]
  },
  {
    "postal": "N9A1L7",
    "result": [
      {
        "electoralDistricts": [
          {
            "election": null,
            "id": 119,
            "name": "Windsor West"
          }
        ],
        "pollDivisionIds": [
          10142791
        ],
        "postalCode": "N9A1L7",
        "streetName": "MCDOUGALL",
        "streetDirectionId": null,
        "streetTypeId": "ST",
        "placeName": "WINDSOR",
        "streetNameDisplayText": "MCDOUGALL ST, WINDSOR"
      }
    ]
  },
  {
    "postal": "N9A2P9",
    "result": [
      {
        "electoralDistricts": [
          {
            "election": null,
            "id": 118,
            "name": "Windsor—Tecumseh"
          }
        ],
        "pollDivisionIds": [
          10142710
        ],
        "postalCode": "N9A2P9",
        "streetName": "GLADSTONE",
        "streetDirectionId": null,
        "streetTypeId": "AVE",
        "placeName": "WINDSOR",
        "streetNameDisplayText": "GLADSTONE AVE, WINDSOR"
      }
    ]
  },
  {
    "postal": "N9A5T4",
    "result": [
      {
        "electoralDistricts": [
          {
            "election": null,
            "id": 119,
            "name": "Windsor West"
          }
        ],
        "pollDivisionIds": [
          10142785
        ],
        "postalCode": "N9A5T4",
        "streetName": "PARK",
        "streetDirectionId": "W",
        "streetTypeId": "ST",
        "placeName": "WINDSOR",
        "streetNameDisplayText": "PARK ST W, WINDSOR"
      }
    ]
  },
  {
    "postal": "N9A5Z1",
    "result": [
      {
        "electoralDistricts": [
          {
            "election": null,
            "id": 119,
            "name": "Windsor West"
          }
        ],
        "pollDivisionIds": [
          10142787
        ],
        "postalCode": "N9A5Z1",
        "streetName": "ELLIOTT",
        "streetDirectionId": "W",
        "streetTypeId": "ST",
        "placeName": "WINDSOR",
        "streetNameDisplayText": "ELLIOTT ST W, WINDSOR"
      }
    ]
  },
  {
    "postal": "N9A2X0",
    "result": []
  },
  {
    "postal": "N9A6Z2",
    "result": []
  },
  {
    "postal": "N9A0E0",
    "result": []
  },
  {
    "postal": "N9A3Z5",
    "result": [
      {
        "electoralDistricts": [
          {
            "election": null,
            "id": 118,
            "name": "Windsor—Tecumseh"
          }
        ],
        "pollDivisionIds": [
          10142710
        ],
        "postalCode": "N9A3Z5",
        "streetName": "ERIE",
        "streetDirectionId": "E",
        "streetTypeId": "ST",
        "placeName": "WINDSOR",
        "streetNameDisplayText": "ERIE ST E, WINDSOR"
      }
    ]
  },
  {
    "postal": "N9A8H3",
    "result": []
  },
  {
    "postal": "N9A7S6",
    "result": []
  },
  {
    "postal": "N9A4C1",
    "result": [
      {
        "electoralDistricts": [
          {
            "election": null,
            "id": 119,
            "name": "Windsor West"
          }
        ],
        "pollDivisionIds": [
          10143929
        ],
        "postalCode": "N9A4C1",
        "streetName": "GILES",
        "streetDirectionId": "E",
        "streetTypeId": "BLVD",
        "placeName": "WINDSOR",
        "streetNameDisplayText": "GILES BLVD E, WINDSOR"
      }
    ]
  },
  {
    "postal": "N9A3K2",
    "result": [
      {
        "electoralDistricts": [
          {
            "election": null,
            "id": 119,
            "name": "Windsor West"
          },
          {
            "election": null,
            "id": 118,
            "name": "Windsor—Tecumseh"
          }
        ],
        "pollDivisionIds": [
          10142791,
          10142710
        ],
        "postalCode": "N9A3K2",
        "streetName": "WYANDOTTE",
        "streetDirectionId": "E",
        "streetTypeId": "ST",
        "placeName": "WINDSOR",
        "streetNameDisplayText": "WYANDOTTE ST E, WINDSOR"
      }
    ]
  },
  {
    "postal": "N9A1Y5",
    "result": [
      {
        "electoralDistricts": [
          {
            "election": null,
            "id": 119,
            "name": "Windsor West"
          }
        ],
        "pollDivisionIds": [
          10142791
        ],
        "postalCode": "N9A1Y5",
        "streetName": "MARENTETTE",
        "streetDirectionId": null,
        "streetTypeId": "AVE",
        "placeName": "WINDSOR",
        "streetNameDisplayText": "MARENTETTE AVE, WINDSOR"
      }
    ]
  },
  {
    "postal": "N9A6P6",
    "result": []
  },
  {
    "postal": "N9A3N9",
    "result": []
  },
  {
    "postal": "N9A3W2",
    "result": [
      {
        "electoralDistricts": [
          {
            "election": null,
            "id": 119,
            "name": "Windsor West"
          }
        ],
        "pollDivisionIds": [
          10142795
        ],
        "postalCode": "N9A3W2",
        "streetName": "BROADHEAD",
        "streetDirectionId": null,
        "streetTypeId": "ST",
        "placeName": "WINDSOR",
        "streetNameDisplayText": "BROADHEAD ST, WINDSOR"
      }
    ]
  },
  {
    "postal": "N9A6H8",
    "result": [
      {
        "electoralDistricts": [
          {
            "election": null,
            "id": 119,
            "name": "Windsor West"
          }
        ],
        "pollDivisionIds": [
          10143673
        ],
        "postalCode": "N9A6H8",
        "streetName": "GILES",
        "streetDirectionId": "W",
        "streetTypeId": "BLVD",
        "placeName": "WINDSOR",
        "streetNameDisplayText": "GILES BLVD W, WINDSOR"
      }
    ]
  },
  {
    "postal": "N9A9T3",
    "result": []
  },
  {
    "postal": "N9A5L9",
    "result": []
  },
  {
    "postal": "N9A7X7",
    "result": []
  },
  {
    "postal": "N9A3J5",
    "result": [
      {
        "electoralDistricts": [
          {
            "election": null,
            "id": 119,
            "name": "Windsor West"
          }
        ],
        "pollDivisionIds": [
          10142791
        ],
        "postalCode": "N9A3J5",
        "streetName": "WYANDOTTE",
        "streetDirectionId": "E",
        "streetTypeId": "ST",
        "placeName": "WINDSOR",
        "streetNameDisplayText": "WYANDOTTE ST E, WINDSOR"
      }
    ]
  },
  {
    "postal": "N9A4J5",
    "result": [
      {
        "electoralDistricts": [
          {
            "election": null,
            "id": 119,
            "name": "Windsor West"
          }
        ],
        "pollDivisionIds": [
          10142787
        ],
        "postalCode": "N9A4J5",
        "streetName": "OUELLETTE",
        "streetDirectionId": null,
        "streetTypeId": "AVE",
        "placeName": "WINDSOR",
        "streetNameDisplayText": "OUELLETTE AVE, WINDSOR"
      }
    ]
  },
  {
    "postal": "N9A6J2",
    "result": [
      {
        "electoralDistricts": [
          {
            "election": null,
            "id": 119,
            "name": "Windsor West"
          }
        ],
        "pollDivisionIds": [
          10142783
        ],
        "postalCode": "N9A6J2",
        "streetName": "GILES",
        "streetDirectionId": "W",
        "streetTypeId": "BLVD",
        "placeName": "WINDSOR",
        "streetNameDisplayText": "GILES BLVD W, WINDSOR"
      }
    ]
  },
  {
    "postal": "N9A5V6",
    "result": [
      {
        "electoralDistricts": [
          {
            "election": null,
            "id": 119,
            "name": "Windsor West"
          }
        ],
        "pollDivisionIds": [
          10142785
        ],
        "postalCode": "N9A5V6",
        "streetName": "PARK",
        "streetDirectionId": "W",
        "streetTypeId": "ST",
        "placeName": "WINDSOR",
        "streetNameDisplayText": "PARK ST W, WINDSOR"
      }
    ]
  },
  {
    "postal": "N9A3N2",
    "result": [
      {
        "electoralDistricts": [
          {
            "election": null,
            "id": 119,
            "name": "Windsor West"
          }
        ],
        "pollDivisionIds": [
          10142791
        ],
        "postalCode": "N9A3N2",
        "streetName": "TUSCARORA",
        "streetDirectionId": null,
        "streetTypeId": "ST",
        "placeName": "WINDSOR",
        "streetNameDisplayText": "TUSCARORA ST, WINDSOR"
      }
    ]
  },
  {
    "postal": "N9A3B1",
    "result": []
  },
  {
    "postal": "N9A8B5",
    "result": []
  },
  {
    "postal": "N9A0K1",
    "result": []
  },
  {
    "postal": "N9A7M7",
    "result": []
  },
  {
    "postal": "N9A2M2",
    "result": [
      {
        "electoralDistricts": [
          {
            "election": null,
            "id": 118,
            "name": "Windsor—Tecumseh"
          }
        ],
        "pollDivisionIds": [
          10142710
        ],
        "postalCode": "N9A2M2",
        "streetName": "HALL",
        "streetDirectionId": null,
        "streetTypeId": "AVE",
        "placeName": "WINDSOR",
        "streetNameDisplayText": "HALL AVE, WINDSOR"
      }
    ]
  },
  {
    "postal": "N9A9N3",
    "result": []
  },
  {
    "postal": "N9A4Y8",
    "result": [
      {
        "electoralDistricts": [
          {
            "election": null,
            "id": 119,
            "name": "Windsor West"
          }
        ],
        "pollDivisionIds": [
          10142785
        ],
        "postalCode": "N9A4Y8",
        "streetName": "JANETTE",
        "streetDirectionId": null,
        "streetTypeId": "AVE",
        "placeName": "WINDSOR",
        "streetNameDisplayText": "JANETTE AVE, WINDSOR"
      }
    ]
  },
  {
    "postal": "N9A3V7",
    "result": [
      {
        "electoralDistricts": [
          {
            "election": null,
            "id": 118,
            "name": "Windsor—Tecumseh"
          }
        ],
        "pollDivisionIds": [
          10142710
        ],
        "postalCode": "N9A3V7",
        "streetName": "NIAGARA",
        "streetDirectionId": null,
        "streetTypeId": "ST",
        "placeName": "WINDSOR",
        "streetNameDisplayText": "NIAGARA ST, WINDSOR"
      }
    ]
  },
  {
    "postal": "N9A8Z1",
    "result": []
  },
  {
    "postal": "N9A7B3",
    "result": []
  },
  {
    "postal": "N9A3A8",
    "result": [
      {
        "electoralDistricts": [
          {
            "election": null,
            "id": 119,
            "name": "Windsor West"
          }
        ],
        "pollDivisionIds": [
          10142791
        ],
        "postalCode": "N9A3A8",
        "streetName": "PARK",
        "streetDirectionId": "E",
        "streetTypeId": "ST",
        "placeName": "WINDSOR",
        "streetNameDisplayText": "PARK ST E, WINDSOR"
      }
    ]
  },
  {
    "postal": "N9A7V5",
    "result": []
  },
  {
    "postal": "N9A2T2",
    "result": [
      {
        "electoralDistricts": [
          {
            "election": null,
            "id": 119,
            "name": "Windsor West"
          }
        ],
        "pollDivisionIds": [
          10142791
        ],
        "postalCode": "N9A2T2",
        "streetName": "RIVERSIDE",
        "streetDirectionId": "E",
        "streetTypeId": "DR",
        "placeName": "WINDSOR",
        "streetNameDisplayText": "RIVERSIDE DR E, WINDSOR"
      }
    ]
  },
  {
    "postal": "N9A6L3",
    "result": []
  },
  {
    "postal": "N9A0L2",
    "result": []
  },
  {
    "postal": "N9A5Y8",
    "result": [
      {
        "electoralDistricts": [
          {
            "election": null,
            "id": 119,
            "name": "Windsor West"
          }
        ],
        "pollDivisionIds": [
          10142787
        ],
        "postalCode": "N9A5Y8",
        "streetName": "ELLIOTT",
        "streetDirectionId": "W",
        "streetTypeId": "ST",
        "placeName": "WINDSOR",
        "streetNameDisplayText": "ELLIOTT ST W, WINDSOR"
      }
    ]
  },
  {
    "postal": "N9A0B8",
    "result": []
  },
  {
    "postal": "N9A6R5",
    "result": []
  },
  {
    "postal": "N9A8W6",
    "result": []
  },
  {
    "postal": "N9A8G6",
    "result": []
  },
  {
    "postal": "N9A6X3",
    "result": []
  },
  {
    "postal": "N9A7R7",
    "result": []
  },
  {
    "postal": "N9A4B6",
    "result": [
      {
        "electoralDistricts": [
          {
            "election": null,
            "id": 119,
            "name": "Windsor West"
          }
        ],
        "pollDivisionIds": [
          10143929
        ],
        "postalCode": "N9A4B6",
        "streetName": "GILES",
        "streetDirectionId": "E",
        "streetTypeId": "BLVD",
        "placeName": "WINDSOR",
        "streetNameDisplayText": "GILES BLVD E, WINDSOR"
      }
    ]
  },
  {
    "postal": "N9A3P9",
    "result": [
      {
        "electoralDistricts": [
          {
            "election": null,
            "id": 118,
            "name": "Windsor—Tecumseh"
          }
        ],
        "pollDivisionIds": [
          10142710
        ],
        "postalCode": "N9A3P9",
        "streetName": "CATARAQUI",
        "streetDirectionId": null,
        "streetTypeId": "ST",
        "placeName": "WINDSOR",
        "streetNameDisplayText": "CATARAQUI ST, WINDSOR"
      }
    ]
  },
  {
    "postal": "N9A2T3",
    "result": [
      {
        "electoralDistricts": [
          {
            "election": null,
            "id": 119,
            "name": "Windsor West"
          }
        ],
        "pollDivisionIds": [
          10142791
        ],
        "postalCode": "N9A2T3",
        "streetName": "RIVERSIDE",
        "streetDirectionId": "E",
        "streetTypeId": "DR",
        "placeName": "WINDSOR",
        "streetNameDisplayText": "RIVERSIDE DR E, WINDSOR"
      }
    ]
  },
  {
    "postal": "N9A1M4",
    "result": []
  },
  {
    "postal": "N9A0H1",
    "result": []
  },
  {
    "postal": "N9A9W3",
    "result": []
  },
  {
    "postal": "N9A6P1",
    "result": []
  },
  {
    "postal": "N9A7G2",
    "result": []
  },
  {
    "postal": "N9A4J9",
    "result": [
      {
        "electoralDistricts": [
          {
            "election": null,
            "id": 119,
            "name": "Windsor West"
          }
        ],
        "pollDivisionIds": [
          10143673
        ],
        "postalCode": "N9A4J9",
        "streetName": "OUELLETTE",
        "streetDirectionId": null,
        "streetTypeId": "AVE",
        "placeName": "WINDSOR",
        "streetNameDisplayText": "OUELLETTE AVE, WINDSOR"
      }
    ]
  },
  {
    "postal": "N9A9E4",
    "result": []
  },
  {
    "postal": "N9A8H0",
    "result": []
  },
  {
    "postal": "N9A4M7",
    "result": [
      {
        "electoralDistricts": [
          {
            "election": null,
            "id": 119,
            "name": "Windsor West"
          }
        ],
        "pollDivisionIds": [
          10142785
        ],
        "postalCode": "N9A4M7",
        "streetName": "VICTORIA",
        "streetDirectionId": null,
        "streetTypeId": "AVE",
        "placeName": "WINDSOR",
        "streetNameDisplayText": "VICTORIA AVE, WINDSOR"
      }
    ]
  },
  {
    "postal": "N9A2G9",
    "result": [
      {
        "electoralDistricts": [
          {
            "election": null,
            "id": 119,
            "name": "Windsor West"
          }
        ],
        "pollDivisionIds": [
          10142795
        ],
        "postalCode": "N9A2G9",
        "streetName": "LANGLOIS",
        "streetDirectionId": null,
        "streetTypeId": "AVE",
        "placeName": "WINDSOR",
        "streetNameDisplayText": "LANGLOIS AVE, WINDSOR"
      }
    ]
  },
  {
    "postal": "N9A8T2",
    "result": []
  },
  {
    "postal": "N9A7G7",
    "result": []
  },
  {
    "postal": "N9A4Z3",
    "result": [
      {
        "electoralDistricts": [
          {
            "election": null,
            "id": 119,
            "name": "Windsor West"
          }
        ],
        "pollDivisionIds": [
          10142785
        ],
        "postalCode": "N9A4Z3",
        "streetName": "JANETTE",
        "streetDirectionId": null,
        "streetTypeId": "AVE",
        "placeName": "WINDSOR",
        "streetNameDisplayText": "JANETTE AVE, WINDSOR"
      }
    ]
  },
  {
    "postal": "N9A5B3",
    "result": [
      {
        "electoralDistricts": [
          {
            "election": null,
            "id": 119,
            "name": "Windsor West"
          }
        ],
        "pollDivisionIds": [
          10142785
        ],
        "postalCode": "N9A5B3",
        "streetName": "CARON",
        "streetDirectionId": null,
        "streetTypeId": "AVE",
        "placeName": "WINDSOR",
        "streetNameDisplayText": "CARON AVE, WINDSOR"
      }
    ]
  },
  {
    "postal": "N9A1S7",
    "result": [
      {
        "electoralDistricts": [
          {
            "election": null,
            "id": 119,
            "name": "Windsor West"
          }
        ],
        "pollDivisionIds": [
          10142795
        ],
        "postalCode": "N9A1S7",
        "streetName": "HOWARD",
        "streetDirectionId": null,
        "streetTypeId": "AV",
        "placeName": "WINDSOR",
        "streetNameDisplayText": "HOWARD AV, WINDSOR"
      },
      {
        "electoralDistricts": [
          {
            "election": null,
            "id": 119,
            "name": "Windsor West"
          }
        ],
        "pollDivisionIds": [
          10142795
        ],
        "postalCode": "N9A1S7",
        "streetName": "HOWARD",
        "streetDirectionId": null,
        "streetTypeId": "AVE",
        "placeName": "WINDSOR",
        "streetNameDisplayText": "HOWARD AVE, WINDSOR"
      }
    ]
  },
  {
    "postal": "N9A2N7",
    "result": [
      {
        "electoralDistricts": [
          {
            "election": null,
            "id": 118,
            "name": "Windsor—Tecumseh"
          }
        ],
        "pollDivisionIds": [
          10142710
        ],
        "postalCode": "N9A2N7",
        "streetName": "MOY",
        "streetDirectionId": null,
        "streetTypeId": "AVE",
        "placeName": "WINDSOR",
        "streetNameDisplayText": "MOY AVE, WINDSOR"
      }
    ]
  },
  {
    "postal": "N9A0H8",
    "result": []
  },
  {
    "postal": "N9A7Z4",
    "result": []
  },
  {
    "postal": "N9A7B1",
    "result": []
  },
  {
    "postal": "N9A7P8",
    "result": []
  },
  {
    "postal": "N9A7N0",
    "result": []
  },
  {
    "postal": "N9A3Y5",
    "result": [
      {
        "electoralDistricts": [
          {
            "election": null,
            "id": 119,
            "name": "Windsor West"
          }
        ],
        "pollDivisionIds": [
          10142795
        ],
        "postalCode": "N9A3Y5",
        "streetName": "ERIE",
        "streetDirectionId": "E",
        "streetTypeId": "ST",
        "placeName": "WINDSOR",
        "streetNameDisplayText": "ERIE ST E, WINDSOR"
      }
    ]
  },
  {
    "postal": "N9A6K1",
    "result": []
  },
  {
    "postal": "N9A9X5",
    "result": []
  },
  {
    "postal": "N9A7S5",
    "result": []
  },
  {
    "postal": "N9A0A4",
    "result": []
  },
  {
    "postal": "N9A4T5",
    "result": [
      {
        "electoralDistricts": [
          {
            "election": null,
            "id": 119,
            "name": "Windsor West"
          }
        ],
        "pollDivisionIds": [
          10142787
        ],
        "postalCode": "N9A4T5",
        "streetName": "CHURCH",
        "streetDirectionId": null,
        "streetTypeId": "ST",
        "placeName": "WINDSOR",
        "streetNameDisplayText": "CHURCH ST, WINDSOR"
      }
    ]
  },
  {
    "postal": "N9A5K1",
    "result": [
      {
        "electoralDistricts": [
          {
            "election": null,
            "id": 119,
            "name": "Windsor West"
          }
        ],
        "pollDivisionIds": [
          10142783
        ],
        "postalCode": "N9A5K1",
        "streetName": "WELLINGTON",
        "streetDirectionId": null,
        "streetTypeId": "AVE",
        "placeName": "WINDSOR",
        "streetNameDisplayText": "WELLINGTON AVE, WINDSOR"
      }
    ]
  },
  {
    "postal": "N9A0Z9",
    "result": []
  },
  {
    "postal": "N9A7T2",
    "result": []
  },
  {
    "postal": "N9A1L5",
    "result": []
  },
  {
    "postal": "N9A3N5",
    "result": [
      {
        "electoralDistricts": [
          {
            "election": null,
            "id": 118,
            "name": "Windsor—Tecumseh"
          }
        ],
        "pollDivisionIds": [
          10142710
        ],
        "postalCode": "N9A3N5",
        "streetName": "TUSCARORA",
        "streetDirectionId": null,
        "streetTypeId": "ST",
        "placeName": "WINDSOR",
        "streetNameDisplayText": "TUSCARORA ST, WINDSOR"
      }
    ]
  },
  {
    "postal": "N9A6H4",
    "result": [
      {
        "electoralDistricts": [
          {
            "election": null,
            "id": 119,
            "name": "Windsor West"
          }
        ],
        "pollDivisionIds": [
          10143673
        ],
        "postalCode": "N9A6H4",
        "streetName": "GILES",
        "streetDirectionId": "W",
        "streetTypeId": "BLVD",
        "placeName": "WINDSOR",
        "streetNameDisplayText": "GILES BLVD W, WINDSOR"
      }
    ]
  },
  {
    "postal": "N9A5A5",
    "result": [
      {
        "electoralDistricts": [
          {
            "election": null,
            "id": 119,
            "name": "Windsor West"
          }
        ],
        "pollDivisionIds": [
          10143673
        ],
        "postalCode": "N9A5A5",
        "streetName": "JANETTE",
        "streetDirectionId": null,
        "streetTypeId": "AVE",
        "placeName": "WINDSOR",
        "streetNameDisplayText": "JANETTE AVE, WINDSOR"
      }
    ]
  },
  {
    "postal": "N9A3R9",
    "result": [
      {
        "electoralDistricts": [
          {
            "election": null,
            "id": 119,
            "name": "Windsor West"
          }
        ],
        "pollDivisionIds": [
          10142795
        ],
        "postalCode": "N9A3R9",
        "streetName": "ELLIOTT",
        "streetDirectionId": "E",
        "streetTypeId": "ST",
        "placeName": "WINDSOR",
        "streetNameDisplayText": "ELLIOTT ST E, WINDSOR"
      }
    ]
  },
  {
    "postal": "N9A7L8",
    "result": []
  },
  {
    "postal": "N9A6T6",
    "result": [
      {
        "electoralDistricts": [
          {
            "election": null,
            "id": 119,
            "name": "Windsor West"
          }
        ],
        "pollDivisionIds": [
          10142824
        ],
        "postalCode": "N9A6T6",
        "streetName": "RIVERSIDE",
        "streetDirectionId": "E",
        "streetTypeId": "DR",
        "placeName": "WINDSOR",
        "streetNameDisplayText": "RIVERSIDE DR E, WINDSOR"
      }
    ]
  },
  {
    "postal": "N9A7Y7",
    "result": []
  },
  {
    "postal": "N9A3M8",
    "result": [
      {
        "electoralDistricts": [
          {
            "election": null,
            "id": 119,
            "name": "Windsor West"
          }
        ],
        "pollDivisionIds": [
          10142791
        ],
        "postalCode": "N9A3M8",
        "streetName": "TUSCARORA",
        "streetDirectionId": null,
        "streetTypeId": "ST",
        "placeName": "WINDSOR",
        "streetNameDisplayText": "TUSCARORA ST, WINDSOR"
      }
    ]
  },
  {
    "postal": "N9A2E0",
    "result": []
  },
  {
    "postal": "N9A4B5",
    "result": []
  },
  {
    "postal": "N9A1J3",
    "result": [
      {
        "electoralDistricts": [
          {
            "election": null,
            "id": 119,
            "name": "Windsor West"
          }
        ],
        "pollDivisionIds": [
          10142791
        ],
        "postalCode": "N9A1J3",
        "streetName": "CITY HALL",
        "streetDirectionId": "E",
        "streetTypeId": "SQ",
        "placeName": "WINDSOR",
        "streetNameDisplayText": "CITY HALL SQ E, WINDSOR"
      }
    ]
  },
  {
    "postal": "N9A5S6",
    "result": [
      {
        "electoralDistricts": [
          {
            "election": null,
            "id": 119,
            "name": "Windsor West"
          }
        ],
        "pollDivisionIds": [
          10142781
        ],
        "postalCode": "N9A5S6",
        "streetName": "UNIVERSITY",
        "streetDirectionId": "W",
        "streetTypeId": "AVE",
        "placeName": "WINDSOR",
        "streetNameDisplayText": "UNIVERSITY AVE W, WINDSOR"
      }
    ]
  },
  {
    "postal": "N9A8P7",
    "result": []
  },
  {
    "postal": "N9A7S7",
    "result": []
  },
  {
    "postal": "N9A4C2",
    "result": [
      {
        "electoralDistricts": [
          {
            "election": null,
            "id": 119,
            "name": "Windsor West"
          }
        ],
        "pollDivisionIds": [
          10142795
        ],
        "postalCode": "N9A4C2",
        "streetName": "GILES",
        "streetDirectionId": "E",
        "streetTypeId": "BLVD",
        "placeName": "WINDSOR",
        "streetNameDisplayText": "GILES BLVD E, WINDSOR"
      }
    ]
  },
  {
    "postal": "N9A5Y0",
    "result": []
  },
  {
    "postal": "N9A2V7",
    "result": []
  },
  {
    "postal": "N9A8P5",
    "result": []
  },
  {
    "postal": "N9A5P5",
    "result": []
  },
  {
    "postal": "N9A5Z0",
    "result": []
  },
  {
    "postal": "N9A9B0",
    "result": []
  },
  {
    "postal": "N9A1L0",
    "result": []
  },
  {
    "postal": "N9A0B5",
    "result": []
  },
  {
    "postal": "N9A3L2",
    "result": [
      {
        "electoralDistricts": [
          {
            "election": null,
            "id": 118,
            "name": "Windsor—Tecumseh"
          }
        ],
        "pollDivisionIds": [
          10142710
        ],
        "postalCode": "N9A3L2",
        "streetName": "WYANDOTTE",
        "streetDirectionId": "E",
        "streetTypeId": "ST",
        "placeName": "WINDSOR",
        "streetNameDisplayText": "WYANDOTTE ST E, WINDSOR"
      },
      {
        "electoralDistricts": [
          {
            "election": null,
            "id": 119,
            "name": "Windsor West"
          }
        ],
        "pollDivisionIds": [
          10142781
        ],
        "postalCode": "N9A3L2",
        "streetName": "WYANDOTTE",
        "streetDirectionId": "W",
        "streetTypeId": "ST",
        "placeName": "WINDSOR",
        "streetNameDisplayText": "WYANDOTTE ST W, WINDSOR"
      }
    ]
  },
  {
    "postal": "N9A3B7",
    "result": [
      {
        "electoralDistricts": [
          {
            "election": null,
            "id": 119,
            "name": "Windsor West"
          }
        ],
        "pollDivisionIds": [
          10142791
        ],
        "postalCode": "N9A3B7",
        "streetName": "ASSUMPTION",
        "streetDirectionId": null,
        "streetTypeId": "ST",
        "placeName": "WINDSOR",
        "streetNameDisplayText": "ASSUMPTION ST, WINDSOR"
      }
    ]
  },
  {
    "postal": "N9A8L1",
    "result": []
  },
  {
    "postal": "N9A5M4",
    "result": [
      {
        "electoralDistricts": [
          {
            "election": null,
            "id": 119,
            "name": "Windsor West"
          }
        ],
        "pollDivisionIds": [
          10142785
        ],
        "postalCode": "N9A5M4",
        "streetName": "PITT",
        "streetDirectionId": "W",
        "streetTypeId": "ST",
        "placeName": "WINDSOR",
        "streetNameDisplayText": "PITT ST W, WINDSOR"
      }
    ]
  },
  {
    "postal": "N9A4G9",
    "result": [
      {
        "electoralDistricts": [
          {
            "election": null,
            "id": 118,
            "name": "Windsor—Tecumseh"
          }
        ],
        "pollDivisionIds": [
          10142712
        ],
        "postalCode": "N9A4G9",
        "streetName": "GILES",
        "streetDirectionId": "E",
        "streetTypeId": "BLVD",
        "placeName": "WINDSOR",
        "streetNameDisplayText": "GILES BLVD E, WINDSOR"
      }
    ]
  },
  {
    "postal": "N9A0P0",
    "result": []
  },
  {
    "postal": "N9A8G2",
    "result": []
  },
  {
    "postal": "N9A1V9",
    "result": [
      {
        "electoralDistricts": [
          {
            "election": null,
            "id": 119,
            "name": "Windsor West"
          }
        ],
        "pollDivisionIds": [
          10142791
        ],
        "postalCode": "N9A1V9",
        "streetName": "LOUIS",
        "streetDirectionId": null,
        "streetTypeId": "AVE",
        "placeName": "WINDSOR",
        "streetNameDisplayText": "LOUIS AVE, WINDSOR"
      }
    ]
  },
  {
    "postal": "N9A8N8",
    "result": []
  },
  {
    "postal": "N9A6S8",
    "result": [
      {
        "electoralDistricts": [
          {
            "election": null,
            "id": 119,
            "name": "Windsor West"
          }
        ],
        "pollDivisionIds": [
          10142785
        ],
        "postalCode": "N9A6S8",
        "streetName": "WYANDOTTE",
        "streetDirectionId": "W",
        "streetTypeId": "ST",
        "placeName": "WINDSOR",
        "streetNameDisplayText": "WYANDOTTE ST W, WINDSOR"
      }
    ]
  },
  {
    "postal": "N9A8H2",
    "result": []
  },
  {
    "postal": "N9A5R8",
    "result": [
      {
        "electoralDistricts": [
          {
            "election": null,
            "id": 119,
            "name": "Windsor West"
          }
        ],
        "pollDivisionIds": [
          10142781,
          10142785
        ],
        "postalCode": "N9A5R8",
        "streetName": "UNIVERSITY",
        "streetDirectionId": "W",
        "streetTypeId": "AVE",
        "placeName": "WINDSOR",
        "streetNameDisplayText": "UNIVERSITY AVE W, WINDSOR"
      }
    ]
  },
  {
    "postal": "N9A5L4",
    "result": []
  },
  {
    "postal": "N9A9E1",
    "result": []
  },
  {
    "postal": "N9A1C4",
    "result": []
  },
  {
    "postal": "N9A8W5",
    "result": []
  },
  {
    "postal": "N9A1Y4",
    "result": [
      {
        "electoralDistricts": [
          {
            "election": null,
            "id": 119,
            "name": "Windsor West"
          }
        ],
        "pollDivisionIds": [
          10142791
        ],
        "postalCode": "N9A1Y4",
        "streetName": "MARENTETTE",
        "streetDirectionId": null,
        "streetTypeId": "AVE",
        "placeName": "WINDSOR",
        "streetNameDisplayText": "MARENTETTE AVE, WINDSOR"
      }
    ]
  },
  {
    "postal": "N9A1C0",
    "result": []
  },
  {
    "postal": "N9A2J2",
    "result": [
      {
        "electoralDistricts": [
          {
            "election": null,
            "id": 118,
            "name": "Windsor—Tecumseh"
          }
        ],
        "pollDivisionIds": [
          10142710
        ],
        "postalCode": "N9A2J2",
        "streetName": "MARION",
        "streetDirectionId": null,
        "streetTypeId": "AV",
        "placeName": "WINDSOR",
        "streetNameDisplayText": "MARION AV, WINDSOR"
      },
      {
        "electoralDistricts": [
          {
            "election": null,
            "id": 118,
            "name": "Windsor—Tecumseh"
          }
        ],
        "pollDivisionIds": [
          10142710
        ],
        "postalCode": "N9A2J2",
        "streetName": "MARION",
        "streetDirectionId": null,
        "streetTypeId": "AVE",
        "placeName": "WINDSOR",
        "streetNameDisplayText": "MARION AVE, WINDSOR"
      }
    ]
  },
  {
    "postal": "N9A2J0",
    "result": []
  },
  {
    "postal": "N9A7A3",
    "result": []
  },
  {
    "postal": "N9A8M1",
    "result": []
  },
  {
    "postal": "N9A7T9",
    "result": []
  },
  {
    "postal": "N9A6C0",
    "result": []
  },
  {
    "postal": "N9A7X1",
    "result": []
  },
  {
    "postal": "N9A0G1",
    "result": []
  },
  {
    "postal": "N9A4X2",
    "result": [
      {
        "electoralDistricts": [
          {
            "election": null,
            "id": 119,
            "name": "Windsor West"
          },
          {
            "election": null,
            "id": 118,
            "name": "Windsor—Tecumseh"
          }
        ],
        "pollDivisionIds": [
          10142787,
          10142710
        ],
        "postalCode": "N9A4X2",
        "streetName": "BRUCE",
        "streetDirectionId": null,
        "streetTypeId": "AVE",
        "placeName": "WINDSOR",
        "streetNameDisplayText": "BRUCE AVE, WINDSOR"
      }
    ]
  },
  {
    "postal": "N9A0N6",
    "result": []
  },
  {
    "postal": "N9A8E3",
    "result": []
  },
  {
    "postal": "N9A5S8",
    "result": []
  },
  {
    "postal": "N9A0R0",
    "result": []
  },
  {
    "postal": "N9A6J6",
    "result": []
  },
  {
    "postal": "N9A4B4",
    "result": [
      {
        "electoralDistricts": [
          {
            "election": null,
            "id": 119,
            "name": "Windsor West"
          }
        ],
        "pollDivisionIds": [
          10142795
        ],
        "postalCode": "N9A4B4",
        "streetName": "GILES",
        "streetDirectionId": "E",
        "streetTypeId": "BLVD",
        "placeName": "WINDSOR",
        "streetNameDisplayText": "GILES BLVD E, WINDSOR"
      }
    ]
  },
  {
    "postal": "N9A7E3",
    "result": []
  },
  {
    "postal": "N9A3N6",
    "result": [
      {
        "electoralDistricts": [
          {
            "election": null,
            "id": 118,
            "name": "Windsor—Tecumseh"
          }
        ],
        "pollDivisionIds": [
          10142710
        ],
        "postalCode": "N9A3N6",
        "streetName": "TUSCARORA",
        "streetDirectionId": null,
        "streetTypeId": "ST",
        "placeName": "WINDSOR",
        "streetNameDisplayText": "TUSCARORA ST, WINDSOR"
      }
    ]
  },
  {
    "postal": "N9A3X6",
    "result": [
      {
        "electoralDistricts": [
          {
            "election": null,
            "id": 119,
            "name": "Windsor West"
          }
        ],
        "pollDivisionIds": [
          10142795
        ],
        "postalCode": "N9A3X6",
        "streetName": "ERIE",
        "streetDirectionId": "E",
        "streetTypeId": "ST",
        "placeName": "WINDSOR",
        "streetNameDisplayText": "ERIE ST E, WINDSOR"
      }
    ]
  },
  {
    "postal": "N9A8L0",
    "result": []
  },
  {
    "postal": "N9A8N1",
    "result": []
  },
  {
    "postal": "N9A4J0",
    "result": []
  },
  {
    "postal": "N9A0X7",
    "result": []
  },
  {
    "postal": "N9A6S4",
    "result": [
      {
        "electoralDistricts": [
          {
            "election": null,
            "id": 119,
            "name": "Windsor West"
          }
        ],
        "pollDivisionIds": [
          10142801
        ],
        "postalCode": "N9A6S4",
        "streetName": "TALBOT",
        "streetDirectionId": "W",
        "streetTypeId": "RD",
        "placeName": "WINDSOR",
        "streetNameDisplayText": "TALBOT RD W, WINDSOR"
      }
    ]
  },
  {
    "postal": "N9A0Z0",
    "result": []
  },
  {
    "postal": "N9A9X8",
    "result": []
  },
  {
    "postal": "N9A3H3",
    "result": [
      {
        "electoralDistricts": [
          {
            "election": null,
            "id": 119,
            "name": "Windsor West"
          }
        ],
        "pollDivisionIds": [
          10142791,
          10142787
        ],
        "postalCode": "N9A3H3",
        "streetName": "WYANDOTTE",
        "streetDirectionId": "E",
        "streetTypeId": "ST",
        "placeName": "WINDSOR",
        "streetNameDisplayText": "WYANDOTTE ST E, WINDSOR"
      },
      {
        "electoralDistricts": [
          {
            "election": null,
            "id": 119,
            "name": "Windsor West"
          }
        ],
        "pollDivisionIds": [
          10142787
        ],
        "postalCode": "N9A3H3",
        "streetName": "WYANDOTTE",
        "streetDirectionId": "W",
        "streetTypeId": "ST",
        "placeName": "WINDSOR",
        "streetNameDisplayText": "WYANDOTTE ST W, WINDSOR"
      }
    ]
  },
  {
    "postal": "N9A7S2",
    "result": []
  },
  {
    "postal": "N9A3T3",
    "result": [
      {
        "electoralDistricts": [
          {
            "election": null,
            "id": 119,
            "name": "Windsor West"
          }
        ],
        "pollDivisionIds": [
          10142795
        ],
        "postalCode": "N9A3T3",
        "streetName": "NIAGARA",
        "streetDirectionId": null,
        "streetTypeId": "ST",
        "placeName": "WINDSOR",
        "streetNameDisplayText": "NIAGARA ST, WINDSOR"
      }
    ]
  },
  {
    "postal": "N9A9P3",
    "result": []
  },
  {
    "postal": "N9A4H8",
    "result": []
  },
  {
    "postal": "N9A6R1",
    "result": []
  },
  {
    "postal": "N9A1S0",
    "result": []
  },
  {
    "postal": "N9A3W8",
    "result": [
      {
        "electoralDistricts": [
          {
            "election": null,
            "id": 119,
            "name": "Windsor West"
          }
        ],
        "pollDivisionIds": [
          10142795
        ],
        "postalCode": "N9A3W8",
        "streetName": "ERIE",
        "streetDirectionId": "E",
        "streetTypeId": "ST",
        "placeName": "WINDSOR",
        "streetNameDisplayText": "ERIE ST E, WINDSOR"
      }
    ]
  },
  {
    "postal": "N9A4S3",
    "result": []
  },
  {
    "postal": "N9A1B6",
    "result": []
  },
  {
    "postal": "N9A8R3",
    "result": []
  },
  {
    "postal": "N9A4V9",
    "result": [
      {
        "electoralDistricts": [
          {
            "election": null,
            "id": 119,
            "name": "Windsor West"
          }
        ],
        "pollDivisionIds": [
          10142785
        ],
        "postalCode": "N9A4V9",
        "streetName": "BRUCE",
        "streetDirectionId": null,
        "streetTypeId": "AVE",
        "placeName": "WINDSOR",
        "streetNameDisplayText": "BRUCE AVE, WINDSOR"
      }
    ]
  },
  {
    "postal": "N9A9W4",
    "result": []
  },
  {
    "postal": "N9A3T4",
    "result": [
      {
        "electoralDistricts": [
          {
            "election": null,
            "id": 119,
            "name": "Windsor West"
          }
        ],
        "pollDivisionIds": [
          10142795
        ],
        "postalCode": "N9A3T4",
        "streetName": "NIAGARA",
        "streetDirectionId": null,
        "streetTypeId": "ST",
        "placeName": "WINDSOR",
        "streetNameDisplayText": "NIAGARA ST, WINDSOR"
      }
    ]
  },
  {
    "postal": "N9A5C7",
    "result": [
      {
        "electoralDistricts": [
          {
            "election": null,
            "id": 119,
            "name": "Windsor West"
          }
        ],
        "pollDivisionIds": [
          10142781
        ],
        "postalCode": "N9A5C7",
        "streetName": "CRAWFORD",
        "streetDirectionId": null,
        "streetTypeId": "AVE",
        "placeName": "WINDSOR",
        "streetNameDisplayText": "CRAWFORD AVE, WINDSOR"
      }
    ]
  },
  {
    "postal": "N9A3Y1",
    "result": [
      {
        "electoralDistricts": [
          {
            "election": null,
            "id": 119,
            "name": "Windsor West"
          }
        ],
        "pollDivisionIds": [
          10142795
        ],
        "postalCode": "N9A3Y1",
        "streetName": "ERIE",
        "streetDirectionId": "E",
        "streetTypeId": "ST",
        "placeName": "WINDSOR",
        "streetNameDisplayText": "ERIE ST E, WINDSOR"
      }
    ]
  },
  {
    "postal": "N9A5V0",
    "result": []
  },
  {
    "postal": "N9A8G8",
    "result": []
  },
  {
    "postal": "N9A8B1",
    "result": []
  },
  {
    "postal": "N9A4P5",
    "result": [
      {
        "electoralDistricts": [
          {
            "election": null,
            "id": 119,
            "name": "Windsor West"
          }
        ],
        "pollDivisionIds": [
          10142785
        ],
        "postalCode": "N9A4P5",
        "streetName": "DOUGALL",
        "streetDirectionId": null,
        "streetTypeId": "AVE",
        "placeName": "WINDSOR",
        "streetNameDisplayText": "DOUGALL AVE, WINDSOR"
      }
    ]
  },
  {
    "postal": "N9A7B2",
    "result": []
  },
  {
    "postal": "N9A0R2",
    "result": []
  },
  {
    "postal": "N9A4M4",
    "result": []
  },
  {
    "postal": "N9A7M4",
    "result": []
  },
  {
    "postal": "N9A9S7",
    "result": []
  },
  {
    "postal": "N9A5Z7",
    "result": [
      {
        "electoralDistricts": [
          {
            "election": null,
            "id": 119,
            "name": "Windsor West"
          }
        ],
        "pollDivisionIds": [
          10142787
        ],
        "postalCode": "N9A5Z7",
        "streetName": "ELLIOTT",
        "streetDirectionId": "W",
        "streetTypeId": "ST",
        "placeName": "WINDSOR",
        "streetNameDisplayText": "ELLIOTT ST W, WINDSOR"
      }
    ]
  },
  {
    "postal": "N9A7J7",
    "result": [
      {
        "electoralDistricts": [
          {
            "election": null,
            "id": 119,
            "name": "Windsor West"
          }
        ],
        "pollDivisionIds": [
          10142795
        ],
        "postalCode": "N9A7J7",
        "streetName": "DUFFERIN",
        "streetDirectionId": null,
        "streetTypeId": "PL",
        "placeName": "WINDSOR",
        "streetNameDisplayText": "DUFFERIN PL, WINDSOR"
      }
    ]
  },
  {
    "postal": "N9A8R8",
    "result": []
  },
  {
    "postal": "N9A9X1",
    "result": []
  },
  {
    "postal": "N9A5M9",
    "result": []
  },
  {
    "postal": "N9A9B4",
    "result": []
  },
  {
    "postal": "N9A0L9",
    "result": []
  },
  {
    "postal": "N9A9G4",
    "result": []
  },
  {
    "postal": "N9A1J4",
    "result": [
      {
        "electoralDistricts": [
          {
            "election": null,
            "id": 119,
            "name": "Windsor West"
          }
        ],
        "pollDivisionIds": [
          10142791
        ],
        "postalCode": "N9A1J4",
        "streetName": "WINDSOR",
        "streetDirectionId": null,
        "streetTypeId": "AVE",
        "placeName": "WINDSOR",
        "streetNameDisplayText": "WINDSOR AVE, WINDSOR"
      }
    ]
  },
  {
    "postal": "N9A0W6",
    "result": []
  }
]
