[
  {
    "postal": "L6V9J6",
    "result": []
  },
  {
    "postal": "L6V9Z5",
    "result": []
  },
  {
    "postal": "L6V7H8",
    "result": []
  },
  {
    "postal": "L6V0P6",
    "result": []
  },
  {
    "postal": "L6V0S7",
    "result": []
  },
  {
    "postal": "L6V8B9",
    "result": []
  },
  {
    "postal": "L6V2A6",
    "result": [
      {
        "electoralDistricts": [
          {
            "election": null,
            "id": 8,
            "name": "Brampton Centre"
          }
        ],
        "pollDivisionIds": [
          10111332
        ],
        "postalCode": "L6V2A6",
        "streetName": "MADOC",
        "streetDirectionId": null,
        "streetTypeId": "DR",
        "placeName": "BRAMPTON",
        "streetNameDisplayText": "MADOC DR, BRAMPTON"
      }
    ]
  },
  {
    "postal": "L6V7V2",
    "result": []
  },
  {
    "postal": "L6V9P4",
    "result": []
  },
  {
    "postal": "L6V6G0",
    "result": []
  },
  {
    "postal": "L6V2K0",
    "result": []
  },
  {
    "postal": "L6V7N6",
    "result": []
  },
  {
    "postal": "L6V5R3",
    "result": []
  },
  {
    "postal": "L6V7K0",
    "result": []
  },
  {
    "postal": "L6V3R2",
    "result": [
      {
        "electoralDistricts": [
          {
            "election": null,
            "id": 8,
            "name": "Brampton Centre"
          }
        ],
        "pollDivisionIds": [
          10137070
        ],
        "postalCode": "L6V3R2",
        "streetName": "HOCKLEY",
        "streetDirectionId": null,
        "streetTypeId": "PATH",
        "placeName": "BRAMPTON",
        "streetNameDisplayText": "HOCKLEY PATH, BRAMPTON"
      }
    ]
  },
  {
    "postal": "L6V0J1",
    "result": []
  },
  {
    "postal": "L6V0B0",
    "result": []
  },
  {
    "postal": "L6V5Z2",
    "result": []
  },
  {
    "postal": "L6V7P3",
    "result": []
  },
  {
    "postal": "L6V2K3",
    "result": [
      {
        "electoralDistricts": [
          {
            "election": null,
            "id": 8,
            "name": "Brampton Centre"
          }
        ],
        "pollDivisionIds": [
          10111332
        ],
        "postalCode": "L6V2K3",
        "streetName": "HEGGIE",
        "streetDirectionId": null,
        "streetTypeId": "RD",
        "placeName": "BRAMPTON",
        "streetNameDisplayText": "HEGGIE RD, BRAMPTON"
      }
    ]
  },
  {
    "postal": "L6V7Y6",
    "result": []
  },
  {
    "postal": "L6V1L9",
    "result": [
      {
        "electoralDistricts": [
          {
            "election": null,
            "id": 11,
            "name": "Brampton South"
          }
        ],
        "pollDivisionIds": [
          10137119
        ],
        "postalCode": "L6V1L9",
        "streetName": "VICTORIA",
        "streetDirectionId": null,
        "streetTypeId": "TERR",
        "placeName": "BRAMPTON",
        "streetNameDisplayText": "VICTORIA TERR, BRAMPTON"
      }
    ]
  },
  {
    "postal": "L6V8T0",
    "result": []
  },
  {
    "postal": "L6V3K8",
    "result": [
      {
        "electoralDistricts": [
          {
            "election": null,
            "id": 8,
            "name": "Brampton Centre"
          }
        ],
        "pollDivisionIds": [
          10111325
        ],
        "postalCode": "L6V3K8",
        "streetName": "BLACKTHORN",
        "streetDirectionId": null,
        "streetTypeId": "LANE",
        "placeName": "BRAMPTON",
        "streetNameDisplayText": "BLACKTHORN LANE, BRAMPTON"
      }
    ]
  },
  {
    "postal": "L6V5W9",
    "result": []
  },
  {
    "postal": "L6V6T9",
    "result": []
  },
  {
    "postal": "L6V4H1",
    "result": [
      {
        "electoralDistricts": [
          {
            "election": null,
            "id": 8,
            "name": "Brampton Centre"
          }
        ],
        "pollDivisionIds": [
          10111325
        ],
        "postalCode": "L6V4H1",
        "streetName": "WILLERTON",
        "streetDirectionId": null,
        "streetTypeId": "CLOSE",
        "placeName": "BRAMPTON",
        "streetNameDisplayText": "WILLERTON CLOSE, BRAMPTON"
      }
    ]
  },
  {
    "postal": "L6V7A2",
    "result": []
  },
  {
    "postal": "L6V5G0",
    "result": []
  },
  {
    "postal": "L6V8V5",
    "result": []
  },
  {
    "postal": "L6V2Y8",
    "result": [
      {
        "electoralDistricts": [
          {
            "election": null,
            "id": 8,
            "name": "Brampton Centre"
          }
        ],
        "pollDivisionIds": [
          10111329
        ],
        "postalCode": "L6V2Y8",
        "streetName": "RADFORD",
        "streetDirectionId": null,
        "streetTypeId": "DR",
        "placeName": "BRAMPTON",
        "streetNameDisplayText": "RADFORD DR, BRAMPTON"
      }
    ]
  },
  {
    "postal": "L6V2B6",
    "result": [
      {
        "electoralDistricts": [
          {
            "election": null,
            "id": 8,
            "name": "Brampton Centre"
          }
        ],
        "pollDivisionIds": [
          10137072
        ],
        "postalCode": "L6V2B6",
        "streetName": "LAUDERDALE",
        "streetDirectionId": null,
        "streetTypeId": "RD",
        "placeName": "BRAMPTON",
        "streetNameDisplayText": "LAUDERDALE RD, BRAMPTON"
      }
    ]
  },
  {
    "postal": "L6V4W8",
    "result": []
  },
  {
    "postal": "L6V8H7",
    "result": []
  },
  {
    "postal": "L6V5P1",
    "result": []
  },
  {
    "postal": "L6V2B8",
    "result": [
      {
        "electoralDistricts": [
          {
            "election": null,
            "id": 8,
            "name": "Brampton Centre"
          }
        ],
        "pollDivisionIds": [
          10111332
        ],
        "postalCode": "L6V2B8",
        "streetName": "SEABORN",
        "streetDirectionId": null,
        "streetTypeId": "RD",
        "placeName": "BRAMPTON",
        "streetNameDisplayText": "SEABORN RD, BRAMPTON"
      }
    ]
  },
  {
    "postal": "L6V0P2",
    "result": []
  },
  {
    "postal": "L6V9M1",
    "result": []
  },
  {
    "postal": "L6V3G0",
    "result": []
  },
  {
    "postal": "L6V9Z2",
    "result": []
  },
  {
    "postal": "L6V2A0",
    "result": []
  },
  {
    "postal": "L6V6Y0",
    "result": []
  },
  {
    "postal": "L6V2Z8",
    "result": [
      {
        "electoralDistricts": [
          {
            "election": null,
            "id": 8,
            "name": "Brampton Centre"
          }
        ],
        "pollDivisionIds": [
          10111330
        ],
        "postalCode": "L6V2Z8",
        "streetName": "ABELL",
        "streetDirectionId": null,
        "streetTypeId": "DR",
        "placeName": "BRAMPTON",
        "streetNameDisplayText": "ABELL DR, BRAMPTON"
      }
    ]
  },
  {
    "postal": "L6V7Y3",
    "result": []
  },
  {
    "postal": "L6V6Z5",
    "result": []
  },
  {
    "postal": "L6V6E0",
    "result": []
  },
  {
    "postal": "L6V9B7",
    "result": []
  },
  {
    "postal": "L6V9S5",
    "result": []
  },
  {
    "postal": "L6V3X3",
    "result": [
      {
        "electoralDistricts": [
          {
            "election": null,
            "id": 8,
            "name": "Brampton Centre"
          }
        ],
        "pollDivisionIds": [
          10137070
        ],
        "postalCode": "L6V3X3",
        "streetName": "WIKANDER",
        "streetDirectionId": null,
        "streetTypeId": "WAY",
        "placeName": "BRAMPTON",
        "streetNameDisplayText": "WIKANDER WAY, BRAMPTON"
      }
    ]
  },
  {
    "postal": "L6V7R5",
    "result": []
  },
  {
    "postal": "L6V2X3",
    "result": [
      {
        "electoralDistricts": [
          {
            "election": null,
            "id": 8,
            "name": "Brampton Centre"
          }
        ],
        "pollDivisionIds": [
          10111330
        ],
        "postalCode": "L6V2X3",
        "streetName": "IVYBRIDGE",
        "streetDirectionId": null,
        "streetTypeId": "DR",
        "placeName": "BRAMPTON",
        "streetNameDisplayText": "IVYBRIDGE DR, BRAMPTON"
      }
    ]
  },
  {
    "postal": "L6V8Z9",
    "result": []
  },
  {
    "postal": "L6V0N4",
    "result": []
  },
  {
    "postal": "L6V1K1",
    "result": [
      {
        "electoralDistricts": [
          {
            "election": null,
            "id": 11,
            "name": "Brampton South"
          }
        ],
        "pollDivisionIds": [
          10137120
        ],
        "postalCode": "L6V1K1",
        "streetName": "WOODWARD",
        "streetDirectionId": null,
        "streetTypeId": "AVE",
        "placeName": "BRAMPTON",
        "streetNameDisplayText": "WOODWARD AVE, BRAMPTON"
      }
    ]
  },
  {
    "postal": "L6V1S3",
    "result": [
      {
        "electoralDistricts": [
          {
            "election": null,
            "id": 11,
            "name": "Brampton South"
          }
        ],
        "pollDivisionIds": [
          10137120
        ],
        "postalCode": "L6V1S3",
        "streetName": "SCOTT",
        "streetDirectionId": null,
        "streetTypeId": "ST",
        "placeName": "BRAMPTON",
        "streetNameDisplayText": "SCOTT ST, BRAMPTON"
      }
    ]
  },
  {
    "postal": "L6V6M4",
    "result": []
  },
  {
    "postal": "L6V9A9",
    "result": []
  },
  {
    "postal": "L6V9Z9",
    "result": []
  },
  {
    "postal": "L6V6T4",
    "result": []
  },
  {
    "postal": "L6V0B2",
    "result": []
  },
  {
    "postal": "L6V2L9",
    "result": []
  },
  {
    "postal": "L6V8K9",
    "result": []
  },
  {
    "postal": "L6V2H9",
    "result": [
      {
        "electoralDistricts": [
          {
            "election": null,
            "id": 8,
            "name": "Brampton Centre"
          }
        ],
        "pollDivisionIds": [
          10111332
        ],
        "postalCode": "L6V2H9",
        "streetName": "RUTHERFORD",
        "streetDirectionId": "N",
        "streetTypeId": "RD",
        "placeName": "BRAMPTON",
        "streetNameDisplayText": "RUTHERFORD RD N, BRAMPTON"
      }
    ]
  },
  {
    "postal": "L6V3Z6",
    "result": []
  },
  {
    "postal": "L6V3B0",
    "result": []
  },
  {
    "postal": "L6V2H8",
    "result": [
      {
        "electoralDistricts": [
          {
            "election": null,
            "id": 8,
            "name": "Brampton Centre"
          }
        ],
        "pollDivisionIds": [
          10137072
        ],
        "postalCode": "L6V2H8",
        "streetName": "SUTHERLAND",
        "streetDirectionId": null,
        "streetTypeId": "AVE",
        "placeName": "BRAMPTON",
        "streetNameDisplayText": "SUTHERLAND AVE, BRAMPTON"
      }
    ]
  },
  {
    "postal": "L6V3X2",
    "result": [
      {
        "electoralDistricts": [
          {
            "election": null,
            "id": 8,
            "name": "Brampton Centre"
          }
        ],
        "pollDivisionIds": [
          10137070
        ],
        "postalCode": "L6V3X2",
        "streetName": "WIKANDER",
        "streetDirectionId": null,
        "streetTypeId": "WAY",
        "placeName": "BRAMPTON",
        "streetNameDisplayText": "WIKANDER WAY, BRAMPTON"
      }
    ]
  },
  {
    "postal": "L6V2E9",
    "result": [
      {
        "electoralDistricts": [
          {
            "election": null,
            "id": 8,
            "name": "Brampton Centre"
          }
        ],
        "pollDivisionIds": [
          10111332
        ],
        "postalCode": "L6V2E9",
        "streetName": "CARBERRY",
        "streetDirectionId": null,
        "streetTypeId": "CRES",
        "placeName": "BRAMPTON",
        "streetNameDisplayText": "CARBERRY CRES, BRAMPTON"
      }
    ]
  },
  {
    "postal": "L6V9P6",
    "result": []
  },
  {
    "postal": "L6V9E2",
    "result": []
  },
  {
    "postal": "L6V9H2",
    "result": []
  },
  {
    "postal": "L6V1S8",
    "result": [
      {
        "electoralDistricts": [
          {
            "election": null,
            "id": 11,
            "name": "Brampton South"
          }
        ],
        "pollDivisionIds": [
          10137120
        ],
        "postalCode": "L6V1S8",
        "streetName": "CENTRE",
        "streetDirectionId": "N",
        "streetTypeId": "ST",
        "placeName": "BRAMPTON",
        "streetNameDisplayText": "CENTRE ST N, BRAMPTON"
      }
    ]
  },
  {
    "postal": "L6V3M6",
    "result": [
      {
        "electoralDistricts": [
          {
            "election": null,
            "id": 8,
            "name": "Brampton Centre"
          }
        ],
        "pollDivisionIds": [
          10111325
        ],
        "postalCode": "L6V3M6",
        "streetName": "DAWSON",
        "streetDirectionId": null,
        "streetTypeId": "CRES",
        "placeName": "BRAMPTON",
        "streetNameDisplayText": "DAWSON CRES, BRAMPTON"
      }
    ]
  },
  {
    "postal": "L6V6Z8",
    "result": []
  },
  {
    "postal": "L6V4J2",
    "result": [
      {
        "electoralDistricts": [
          {
            "election": null,
            "id": 8,
            "name": "Brampton Centre"
          }
        ],
        "pollDivisionIds": [
          10111325
        ],
        "postalCode": "L6V4J2",
        "streetName": "HINCHLEY WOOD",
        "streetDirectionId": null,
        "streetTypeId": "GROVE",
        "placeName": "BRAMPTON",
        "streetNameDisplayText": "HINCHLEY WOOD GROVE, BRAMPTON"
      },
      {
        "electoralDistricts": [
          {
            "election": null,
            "id": 8,
            "name": "Brampton Centre"
          }
        ],
        "pollDivisionIds": [
          10111325
        ],
        "postalCode": "L6V4J2",
        "streetName": "VALONIA",
        "streetDirectionId": null,
        "streetTypeId": "DR",
        "placeName": "BRAMPTON",
        "streetNameDisplayText": "VALONIA DR, BRAMPTON"
      },
      {
        "electoralDistricts": [
          {
            "election": null,
            "id": 8,
            "name": "Brampton Centre"
          }
        ],
        "pollDivisionIds": [
          10111325
        ],
        "postalCode": "L6V4J2",
        "streetName": "WILLERTON",
        "streetDirectionId": null,
        "streetTypeId": "CLOSE",
        "placeName": "BRAMPTON",
        "streetNameDisplayText": "WILLERTON CLOSE, BRAMPTON"
      }
    ]
  },
  {
    "postal": "L6V9Y1",
    "result": []
  },
  {
    "postal": "L6V8V6",
    "result": []
  },
  {
    "postal": "L6V6B2",
    "result": []
  },
  {
    "postal": "L6V1P8",
    "result": [
      {
        "electoralDistricts": [
          {
            "election": null,
            "id": 8,
            "name": "Brampton Centre"
          }
        ],
        "pollDivisionIds": [
          10137071
        ],
        "postalCode": "L6V1P8",
        "streetName": "MAIN",
        "streetDirectionId": "N",
        "streetTypeId": "ST",
        "placeName": "BRAMPTON",
        "streetNameDisplayText": "MAIN ST N, BRAMPTON"
      }
    ]
  },
  {
    "postal": "L6V0V8",
    "result": []
  },
  {
    "postal": "L6V4Y0",
    "result": []
  },
  {
    "postal": "L6V2T4",
    "result": [
      {
        "electoralDistricts": [
          {
            "election": null,
            "id": 8,
            "name": "Brampton Centre"
          }
        ],
        "pollDivisionIds": [
          10111330
        ],
        "postalCode": "L6V2T4",
        "streetName": "RUTHERFORD",
        "streetDirectionId": "N",
        "streetTypeId": "RD",
        "placeName": "BRAMPTON",
        "streetNameDisplayText": "RUTHERFORD RD N, BRAMPTON"
      }
    ]
  },
  {
    "postal": "L6V2S3",
    "result": [
      {
        "electoralDistricts": [
          {
            "election": null,
            "id": 8,
            "name": "Brampton Centre"
          }
        ],
        "pollDivisionIds": [
          10137071
        ],
        "postalCode": "L6V2S3",
        "streetName": "TOLTON",
        "streetDirectionId": null,
        "streetTypeId": "DR",
        "placeName": "BRAMPTON",
        "streetNameDisplayText": "TOLTON DR, BRAMPTON"
      }
    ]
  },
  {
    "postal": "L6V0K0",
    "result": []
  },
  {
    "postal": "L6V5N1",
    "result": []
  },
  {
    "postal": "L6V7T0",
    "result": []
  },
  {
    "postal": "L6V9N2",
    "result": []
  },
  {
    "postal": "L6V5L1",
    "result": []
  },
  {
    "postal": "L6V7G5",
    "result": []
  },
  {
    "postal": "L6V6K2",
    "result": []
  },
  {
    "postal": "L6V6P9",
    "result": []
  },
  {
    "postal": "L6V0E6",
    "result": []
  },
  {
    "postal": "L6V8R9",
    "result": []
  },
  {
    "postal": "L6V3G9",
    "result": [
      {
        "electoralDistricts": [
          {
            "election": null,
            "id": 8,
            "name": "Brampton Centre"
          }
        ],
        "pollDivisionIds": [
          10111330
        ],
        "postalCode": "L6V3G9",
        "streetName": "OLIVE",
        "streetDirectionId": null,
        "streetTypeId": "CRT",
        "placeName": "BRAMPTON",
        "streetNameDisplayText": "OLIVE CRT, BRAMPTON"
      }
    ]
  },
  {
    "postal": "L6V0V7",
    "result": []
  },
  {
    "postal": "L6V2Z1",
    "result": [
      {
        "electoralDistricts": [
          {
            "election": null,
            "id": 8,
            "name": "Brampton Centre"
          }
        ],
        "pollDivisionIds": [
          10111329
        ],
        "postalCode": "L6V2Z1",
        "streetName": "ASHFORD",
        "streetDirectionId": null,
        "streetTypeId": "CRT",
        "placeName": "BRAMPTON",
        "streetNameDisplayText": "ASHFORD CRT, BRAMPTON"
      }
    ]
  },
  {
    "postal": "L6V7N1",
    "result": []
  },
  {
    "postal": "L6V3C6",
    "result": [
      {
        "electoralDistricts": [
          {
            "election": null,
            "id": 8,
            "name": "Brampton Centre"
          }
        ],
        "pollDivisionIds": [
          10137072
        ],
        "postalCode": "L6V3C6",
        "streetName": "HANSEN",
        "streetDirectionId": "N",
        "streetTypeId": "RD",
        "placeName": "BRAMPTON",
        "streetNameDisplayText": "HANSEN RD N, BRAMPTON"
      }
    ]
  },
  {
    "postal": "L6V4M1",
    "result": []
  },
  {
    "postal": "L6V9K2",
    "result": []
  },
  {
    "postal": "L6V9S6",
    "result": []
  },
  {
    "postal": "L6V4X1",
    "result": []
  },
  {
    "postal": "L6V8W2",
    "result": []
  },
  {
    "postal": "L6V7N2",
    "result": []
  },
  {
    "postal": "L6V8S3",
    "result": []
  },
  {
    "postal": "L6V4V0",
    "result": []
  },
  {
    "postal": "L6V6W4",
    "result": []
  },
  {
    "postal": "L6V5M1",
    "result": []
  },
  {
    "postal": "L6V0S4",
    "result": []
  },
  {
    "postal": "L6V5X6",
    "result": []
  },
  {
    "postal": "L6V8L5",
    "result": []
  },
  {
    "postal": "L6V5M8",
    "result": []
  },
  {
    "postal": "L6V2G3",
    "result": [
      {
        "electoralDistricts": [
          {
            "election": null,
            "id": 8,
            "name": "Brampton Centre"
          }
        ],
        "pollDivisionIds": [
          10111330
        ],
        "postalCode": "L6V2G3",
        "streetName": "BRAMHALL",
        "streetDirectionId": null,
        "streetTypeId": "CIR",
        "placeName": "BRAMPTON",
        "streetNameDisplayText": "BRAMHALL CIR, BRAMPTON"
      }
    ]
  },
  {
    "postal": "L6V8E4",
    "result": []
  },
  {
    "postal": "L6V7S9",
    "result": []
  },
  {
    "postal": "L6V1K3",
    "result": [
      {
        "electoralDistricts": [
          {
            "election": null,
            "id": 11,
            "name": "Brampton South"
          }
        ],
        "pollDivisionIds": [
          10137120
        ],
        "postalCode": "L6V1K3",
        "streetName": "WOODWARD",
        "streetDirectionId": null,
        "streetTypeId": "AVE",
        "placeName": "BRAMPTON",
        "streetNameDisplayText": "WOODWARD AVE, BRAMPTON"
      }
    ]
  },
  {
    "postal": "L6V4E1",
    "result": [
      {
        "electoralDistricts": [
          {
            "election": null,
            "id": 8,
            "name": "Brampton Centre"
          }
        ],
        "pollDivisionIds": [
          10111325
        ],
        "postalCode": "L6V4E1",
        "streetName": "SWENNEN",
        "streetDirectionId": null,
        "streetTypeId": "DR",
        "placeName": "BRAMPTON",
        "streetNameDisplayText": "SWENNEN DR, BRAMPTON"
      }
    ]
  },
  {
    "postal": "L6V4R2",
    "result": [
      {
        "electoralDistricts": [
          {
            "election": null,
            "id": 8,
            "name": "Brampton Centre"
          }
        ],
        "pollDivisionIds": [
          10111327
        ],
        "postalCode": "L6V4R2",
        "streetName": "MARTREE",
        "streetDirectionId": null,
        "streetTypeId": "CRES",
        "placeName": "BRAMPTON",
        "streetNameDisplayText": "MARTREE CRES, BRAMPTON"
      },
      {
        "electoralDistricts": [
          {
            "election": null,
            "id": 8,
            "name": "Brampton Centre"
          }
        ],
        "pollDivisionIds": [
          10111327
        ],
        "postalCode": "L6V4R2",
        "streetName": "STONEYLAKE",
        "streetDirectionId": null,
        "streetTypeId": "AVE",
        "placeName": "BRAMPTON",
        "streetNameDisplayText": "STONEYLAKE AVE, BRAMPTON"
      }
    ]
  },
  {
    "postal": "L6V6T0",
    "result": []
  },
  {
    "postal": "L6V3K5",
    "result": [
      {
        "electoralDistricts": [
          {
            "election": null,
            "id": 8,
            "name": "Brampton Centre"
          }
        ],
        "pollDivisionIds": [
          10137072,
          10111330
        ],
        "postalCode": "L6V3K5",
        "streetName": "CAVALIER",
        "streetDirectionId": null,
        "streetTypeId": "CRT",
        "placeName": "BRAMPTON",
        "streetNameDisplayText": "CAVALIER CRT, BRAMPTON"
      }
    ]
  },
  {
    "postal": "L6V3S3",
    "result": [
      {
        "electoralDistricts": [
          {
            "election": null,
            "id": 8,
            "name": "Brampton Centre"
          }
        ],
        "pollDivisionIds": [
          10137070
        ],
        "postalCode": "L6V3S3",
        "streetName": "WEYBRIDGE",
        "streetDirectionId": null,
        "streetTypeId": "TRAIL",
        "placeName": "BRAMPTON",
        "streetNameDisplayText": "WEYBRIDGE TRAIL, BRAMPTON"
      }
    ]
  },
  {
    "postal": "L6V3L4",
    "result": [
      {
        "electoralDistricts": [
          {
            "election": null,
            "id": 8,
            "name": "Brampton Centre"
          }
        ],
        "pollDivisionIds": [
          10111325
        ],
        "postalCode": "L6V3L4",
        "streetName": "CAMBERLEY",
        "streetDirectionId": null,
        "streetTypeId": "CRES",
        "placeName": "BRAMPTON",
        "streetNameDisplayText": "CAMBERLEY CRES, BRAMPTON"
      }
    ]
  },
  {
    "postal": "L6V9Y2",
    "result": []
  },
  {
    "postal": "L6V1E0",
    "result": []
  },
  {
    "postal": "L6V9A4",
    "result": []
  },
  {
    "postal": "L6V1L3",
    "result": [
      {
        "electoralDistricts": [
          {
            "election": null,
            "id": 11,
            "name": "Brampton South"
          }
        ],
        "pollDivisionIds": [
          10137119
        ],
        "postalCode": "L6V1L3",
        "streetName": "WILLIAM",
        "streetDirectionId": null,
        "streetTypeId": "ST",
        "placeName": "BRAMPTON",
        "streetNameDisplayText": "WILLIAM ST, BRAMPTON"
      }
    ]
  },
  {
    "postal": "L6V6N1",
    "result": []
  },
  {
    "postal": "L6V6G7",
    "result": []
  },
  {
    "postal": "L6V7W1",
    "result": []
  },
  {
    "postal": "L6V4M6",
    "result": [
      {
        "electoralDistricts": [
          {
            "election": null,
            "id": 11,
            "name": "Brampton South"
          }
        ],
        "pollDivisionIds": [
          10137122
        ],
        "postalCode": "L6V4M6",
        "streetName": "BELVEDERE",
        "streetDirectionId": null,
        "streetTypeId": "CRT",
        "placeName": "BRAMPTON",
        "streetNameDisplayText": "BELVEDERE CRT, BRAMPTON"
      }
    ]
  },
  {
    "postal": "L6V1K0",
    "result": []
  },
  {
    "postal": "L6V3E2",
    "result": [
      {
        "electoralDistricts": [
          {
            "election": null,
            "id": 8,
            "name": "Brampton Centre"
          }
        ],
        "pollDivisionIds": [
          10111329
        ],
        "postalCode": "L6V3E2",
        "streetName": "ASHFORD",
        "streetDirectionId": null,
        "streetTypeId": "CRT",
        "placeName": "BRAMPTON",
        "streetNameDisplayText": "ASHFORD CRT, BRAMPTON"
      }
    ]
  },
  {
    "postal": "L6V5H4",
    "result": []
  },
  {
    "postal": "L6V1K7",
    "result": [
      {
        "electoralDistricts": [
          {
            "election": null,
            "id": 11,
            "name": "Brampton South"
          }
        ],
        "pollDivisionIds": [
          10137119
        ],
        "postalCode": "L6V1K7",
        "streetName": "BIRD",
        "streetDirectionId": null,
        "streetTypeId": "AVE",
        "placeName": "BRAMPTON",
        "streetNameDisplayText": "BIRD AVE, BRAMPTON"
      }
    ]
  },
  {
    "postal": "L6V0H0",
    "result": []
  },
  {
    "postal": "L6V0J3",
    "result": []
  },
  {
    "postal": "L6V1X6",
    "result": [
      {
        "electoralDistricts": [
          {
            "election": null,
            "id": 11,
            "name": "Brampton South"
          }
        ],
        "pollDivisionIds": [
          10143920
        ],
        "postalCode": "L6V1X6",
        "streetName": "KENNEDY",
        "streetDirectionId": "N",
        "streetTypeId": "RD",
        "placeName": "BRAMPTON",
        "streetNameDisplayText": "KENNEDY RD N, BRAMPTON"
      }
    ]
  },
  {
    "postal": "L6V2Z6",
    "result": [
      {
        "electoralDistricts": [
          {
            "election": null,
            "id": 11,
            "name": "Brampton South"
          }
        ],
        "pollDivisionIds": [
          10137120
        ],
        "postalCode": "L6V2Z6",
        "streetName": "SALISBURY",
        "streetDirectionId": null,
        "streetTypeId": "CIR",
        "placeName": "BRAMPTON",
        "streetNameDisplayText": "SALISBURY CIR, BRAMPTON"
      }
    ]
  },
  {
    "postal": "L6V4R9",
    "result": [
      {
        "electoralDistricts": [
          {
            "election": null,
            "id": 8,
            "name": "Brampton Centre"
          }
        ],
        "pollDivisionIds": [
          10111327
        ],
        "postalCode": "L6V4R9",
        "streetName": "CALM WATERS",
        "streetDirectionId": null,
        "streetTypeId": "CRES",
        "placeName": "BRAMPTON",
        "streetNameDisplayText": "CALM WATERS CRES, BRAMPTON"
      }
    ]
  },
  {
    "postal": "L6V0W8",
    "result": []
  },
  {
    "postal": "L6V1L4",
    "result": []
  },
  {
    "postal": "L6V0C8",
    "result": []
  },
  {
    "postal": "L6V9X7",
    "result": []
  },
  {
    "postal": "L6V4T1",
    "result": [
      {
        "electoralDistricts": [
          {
            "election": null,
            "id": 8,
            "name": "Brampton Centre"
          }
        ],
        "pollDivisionIds": [
          10111327
        ],
        "postalCode": "L6V4T1",
        "streetName": "DEEP SEA",
        "streetDirectionId": null,
        "streetTypeId": "DR",
        "placeName": "BRAMPTON",
        "streetNameDisplayText": "DEEP SEA DR, BRAMPTON"
      },
      {
        "electoralDistricts": [
          {
            "election": null,
            "id": 8,
            "name": "Brampton Centre"
          }
        ],
        "pollDivisionIds": [
          10111327
        ],
        "postalCode": "L6V4T1",
        "streetName": "LAGROTTO",
        "streetDirectionId": null,
        "streetTypeId": "RD",
        "placeName": "BRAMPTON",
        "streetNameDisplayText": "LAGROTTO RD, BRAMPTON"
      },
      {
        "electoralDistricts": [
          {
            "election": null,
            "id": 8,
            "name": "Brampton Centre"
          }
        ],
        "pollDivisionIds": [
          10111327
        ],
        "postalCode": "L6V4T1",
        "streetName": "STREAMLINE",
        "streetDirectionId": null,
        "streetTypeId": "DR",
        "placeName": "BRAMPTON",
        "streetNameDisplayText": "STREAMLINE DR, BRAMPTON"
      },
      {
        "electoralDistricts": [
          {
            "election": null,
            "id": 8,
            "name": "Brampton Centre"
          }
        ],
        "pollDivisionIds": [
          10111327
        ],
        "postalCode": "L6V4T1",
        "streetName": "TAILFIN",
        "streetDirectionId": null,
        "streetTypeId": "RD",
        "placeName": "BRAMPTON",
        "streetNameDisplayText": "TAILFIN RD, BRAMPTON"
      },
      {
        "electoralDistricts": [
          {
            "election": null,
            "id": 8,
            "name": "Brampton Centre"
          }
        ],
        "pollDivisionIds": [
          10111327
        ],
        "postalCode": "L6V4T1",
        "streetName": "WELLSPRINGS",
        "streetDirectionId": null,
        "streetTypeId": "DR",
        "placeName": "BRAMPTON",
        "streetNameDisplayText": "WELLSPRINGS DR, BRAMPTON"
      }
    ]
  },
  {
    "postal": "L6V0M0",
    "result": []
  },
  {
    "postal": "L6V6A2",
    "result": []
  },
  {
    "postal": "L6V9S8",
    "result": []
  },
  {
    "postal": "L6V9T4",
    "result": []
  },
  {
    "postal": "L6V9Y4",
    "result": []
  },
  {
    "postal": "L6V6G5",
    "result": []
  },
  {
    "postal": "L6V6H9",
    "result": []
  },
  {
    "postal": "L6V2P3",
    "result": [
      {
        "electoralDistricts": [
          {
            "election": null,
            "id": 8,
            "name": "Brampton Centre"
          }
        ],
        "pollDivisionIds": [
          10137071
        ],
        "postalCode": "L6V2P3",
        "streetName": "NEWTON",
        "streetDirectionId": null,
        "streetTypeId": "CRT",
        "placeName": "BRAMPTON",
        "streetNameDisplayText": "NEWTON CRT, BRAMPTON"
      }
    ]
  },
  {
    "postal": "L6V1T6",
    "result": [
      {
        "electoralDistricts": [
          {
            "election": null,
            "id": 11,
            "name": "Brampton South"
          }
        ],
        "pollDivisionIds": [
          10137120
        ],
        "postalCode": "L6V1T6",
        "streetName": "WILSON",
        "streetDirectionId": null,
        "streetTypeId": "AVE",
        "placeName": "BRAMPTON",
        "streetNameDisplayText": "WILSON AVE, BRAMPTON"
      }
    ]
  },
  {
    "postal": "L6V4P6",
    "result": [
      {
        "electoralDistricts": [
          {
            "election": null,
            "id": 8,
            "name": "Brampton Centre"
          }
        ],
        "pollDivisionIds": [
          10111327
        ],
        "postalCode": "L6V4P6",
        "streetName": "HARBOURTOWN",
        "streetDirectionId": null,
        "streetTypeId": "CRES",
        "placeName": "BRAMPTON",
        "streetNameDisplayText": "HARBOURTOWN CRES, BRAMPTON"
      }
    ]
  },
  {
    "postal": "L6V3K1",
    "result": [
      {
        "electoralDistricts": [
          {
            "election": null,
            "id": 8,
            "name": "Brampton Centre"
          }
        ],
        "pollDivisionIds": [
          10111330
        ],
        "postalCode": "L6V3K1",
        "streetName": "MAJOR OAKS",
        "streetDirectionId": null,
        "streetTypeId": "DR",
        "placeName": "BRAMPTON",
        "streetNameDisplayText": "MAJOR OAKS DR, BRAMPTON"
      }
    ]
  },
  {
    "postal": "L6V6X4",
    "result": []
  },
  {
    "postal": "L6V4M8",
    "result": [
      {
        "electoralDistricts": [
          {
            "election": null,
            "id": 11,
            "name": "Brampton South"
          }
        ],
        "pollDivisionIds": [
          10137122
        ],
        "postalCode": "L6V4M8",
        "streetName": "QUEEN",
        "streetDirectionId": "E",
        "streetTypeId": "ST",
        "placeName": "BRAMPTON",
        "streetNameDisplayText": "QUEEN ST E, BRAMPTON"
      }
    ]
  },
  {
    "postal": "L6V2Y1",
    "result": [
      {
        "electoralDistricts": [
          {
            "election": null,
            "id": 8,
            "name": "Brampton Centre"
          }
        ],
        "pollDivisionIds": [
          10111330
        ],
        "postalCode": "L6V2Y1",
        "streetName": "HANSEN",
        "streetDirectionId": "N",
        "streetTypeId": "RD",
        "placeName": "BRAMPTON",
        "streetNameDisplayText": "HANSEN RD N, BRAMPTON"
      }
    ]
  },
  {
    "postal": "L6V6M1",
    "result": []
  },
  {
    "postal": "L6V5L8",
    "result": []
  },
  {
    "postal": "L6V3P6",
    "result": [
      {
        "electoralDistricts": [
          {
            "election": null,
            "id": 8,
            "name": "Brampton Centre"
          }
        ],
        "pollDivisionIds": [
          10111330
        ],
        "postalCode": "L6V3P6",
        "streetName": "HANSEN",
        "streetDirectionId": "N",
        "streetTypeId": "RD",
        "placeName": "BRAMPTON",
        "streetNameDisplayText": "HANSEN RD N, BRAMPTON"
      }
    ]
  },
  {
    "postal": "L6V9A5",
    "result": []
  },
  {
    "postal": "L6V7K1",
    "result": []
  },
  {
    "postal": "L6V3J4",
    "result": [
      {
        "electoralDistricts": [
          {
            "election": null,
            "id": 8,
            "name": "Brampton Centre"
          }
        ],
        "pollDivisionIds": [
          10111330
        ],
        "postalCode": "L6V3J4",
        "streetName": "ROYAL SALISBURY",
        "streetDirectionId": null,
        "streetTypeId": "WAY",
        "placeName": "BRAMPTON",
        "streetNameDisplayText": "ROYAL SALISBURY WAY, BRAMPTON"
      }
    ]
  },
  {
    "postal": "L6V5E7",
    "result": []
  },
  {
    "postal": "L6V3A7",
    "result": [
      {
        "electoralDistricts": [
          {
            "election": null,
            "id": 8,
            "name": "Brampton Centre"
          }
        ],
        "pollDivisionIds": [
          10137071
        ],
        "postalCode": "L6V3A7",
        "streetName": "NEWLYN",
        "streetDirectionId": null,
        "streetTypeId": "CRES",
        "placeName": "BRAMPTON",
        "streetNameDisplayText": "NEWLYN CRES, BRAMPTON"
      }
    ]
  },
  {
    "postal": "L6V1B9",
    "result": [
      {
        "electoralDistricts": [
          {
            "election": null,
            "id": 8,
            "name": "Brampton Centre"
          }
        ],
        "pollDivisionIds": [
          10137072
        ],
        "postalCode": "L6V1B9",
        "streetName": "QUEEN",
        "streetDirectionId": "E",
        "streetTypeId": "ST",
        "placeName": "BRAMPTON",
        "streetNameDisplayText": "QUEEN ST E, BRAMPTON"
      }
    ]
  },
  {
    "postal": "L6V9E8",
    "result": []
  },
  {
    "postal": "L6V1C9",
    "result": [
      {
        "electoralDistricts": [
          {
            "election": null,
            "id": 11,
            "name": "Brampton South"
          }
        ],
        "pollDivisionIds": [
          10137120
        ],
        "postalCode": "L6V1C9",
        "streetName": "NELSON",
        "streetDirectionId": "E",
        "streetTypeId": "ST",
        "placeName": "BRAMPTON",
        "streetNameDisplayText": "NELSON ST E, BRAMPTON"
      }
    ]
  },
  {
    "postal": "L6V3B5",
    "result": [
      {
        "electoralDistricts": [
          {
            "election": null,
            "id": 8,
            "name": "Brampton Centre"
          }
        ],
        "pollDivisionIds": [
          10111329
        ],
        "postalCode": "L6V3B5",
        "streetName": "CENTRE",
        "streetDirectionId": "N",
        "streetTypeId": "ST",
        "placeName": "BRAMPTON",
        "streetNameDisplayText": "CENTRE ST N, BRAMPTON"
      }
    ]
  },
  {
    "postal": "L6V8R0",
    "result": []
  },
  {
    "postal": "L6V3P2",
    "result": [
      {
        "electoralDistricts": [
          {
            "election": null,
            "id": 8,
            "name": "Brampton Centre"
          }
        ],
        "pollDivisionIds": [
          10137070
        ],
        "postalCode": "L6V3P2",
        "streetName": "ASTER",
        "streetDirectionId": null,
        "streetTypeId": "CRT",
        "placeName": "BRAMPTON",
        "streetNameDisplayText": "ASTER CRT, BRAMPTON"
      }
    ]
  },
  {
    "postal": "L6V5V4",
    "result": []
  },
  {
    "postal": "L6V4H0",
    "result": []
  },
  {
    "postal": "L6V4S7",
    "result": [
      {
        "electoralDistricts": [
          {
            "election": null,
            "id": 8,
            "name": "Brampton Centre"
          }
        ],
        "pollDivisionIds": [
          10111327
        ],
        "postalCode": "L6V4S7",
        "streetName": "LAGROTTO",
        "streetDirectionId": null,
        "streetTypeId": "RD",
        "placeName": "BRAMPTON",
        "streetNameDisplayText": "LAGROTTO RD, BRAMPTON"
      },
      {
        "electoralDistricts": [
          {
            "election": null,
            "id": 8,
            "name": "Brampton Centre"
          }
        ],
        "pollDivisionIds": [
          10111327
        ],
        "postalCode": "L6V4S7",
        "streetName": "RAINY DALE",
        "streetDirectionId": null,
        "streetTypeId": "RD",
        "placeName": "BRAMPTON",
        "streetNameDisplayText": "RAINY DALE RD, BRAMPTON"
      },
      {
        "electoralDistricts": [
          {
            "election": null,
            "id": 8,
            "name": "Brampton Centre"
          }
        ],
        "pollDivisionIds": [
          10111327
        ],
        "postalCode": "L6V4S7",
        "streetName": "SOUTHLAKE",
        "streetDirectionId": null,
        "streetTypeId": "BLVD",
        "placeName": "BRAMPTON",
        "streetNameDisplayText": "SOUTHLAKE BLVD, BRAMPTON"
      }
    ]
  },
  {
    "postal": "L6V6C2",
    "result": []
  },
  {
    "postal": "L6V8W3",
    "result": []
  },
  {
    "postal": "L6V4M5",
    "result": []
  },
  {
    "postal": "L6V5T1",
    "result": []
  },
  {
    "postal": "L6V3B3",
    "result": [
      {
        "electoralDistricts": [
          {
            "election": null,
            "id": 8,
            "name": "Brampton Centre"
          }
        ],
        "pollDivisionIds": [
          10111329
        ],
        "postalCode": "L6V3B3",
        "streetName": "KINGSWOOD",
        "streetDirectionId": null,
        "streetTypeId": "DR",
        "placeName": "BRAMPTON",
        "streetNameDisplayText": "KINGSWOOD DR, BRAMPTON"
      }
    ]
  },
  {
    "postal": "L6V6C6",
    "result": []
  },
  {
    "postal": "L6V7N8",
    "result": []
  },
  {
    "postal": "L6V2Y3",
    "result": []
  },
  {
    "postal": "L6V2R6",
    "result": [
      {
        "electoralDistricts": [
          {
            "election": null,
            "id": 8,
            "name": "Brampton Centre"
          }
        ],
        "pollDivisionIds": [
          10111330
        ],
        "postalCode": "L6V2R6",
        "streetName": "GREENE",
        "streetDirectionId": null,
        "streetTypeId": "DR",
        "placeName": "BRAMPTON",
        "streetNameDisplayText": "GREENE DR, BRAMPTON"
      }
    ]
  },
  {
    "postal": "L6V7N3",
    "result": []
  },
  {
    "postal": "L6V8J2",
    "result": []
  },
  {
    "postal": "L6V6A9",
    "result": []
  },
  {
    "postal": "L6V3V2",
    "result": [
      {
        "electoralDistricts": [
          {
            "election": null,
            "id": 8,
            "name": "Brampton Centre"
          }
        ],
        "pollDivisionIds": [
          10137070
        ],
        "postalCode": "L6V3V2",
        "streetName": "PLUTO",
        "streetDirectionId": null,
        "streetTypeId": "DR",
        "placeName": "BRAMPTON",
        "streetNameDisplayText": "PLUTO DR, BRAMPTON"
      }
    ]
  },
  {
    "postal": "L6V2N3",
    "result": [
      {
        "electoralDistricts": [
          {
            "election": null,
            "id": 8,
            "name": "Brampton Centre"
          }
        ],
        "pollDivisionIds": [
          10111330
        ],
        "postalCode": "L6V2N3",
        "streetName": "VODDEN",
        "streetDirectionId": "E",
        "streetTypeId": "ST",
        "placeName": "BRAMPTON",
        "streetNameDisplayText": "VODDEN ST E, BRAMPTON"
      }
    ]
  },
  {
    "postal": "L6V1S5",
    "result": [
      {
        "electoralDistricts": [
          {
            "election": null,
            "id": 11,
            "name": "Brampton South"
          }
        ],
        "pollDivisionIds": [
          10137120
        ],
        "postalCode": "L6V1S5",
        "streetName": "SCOTT",
        "streetDirectionId": null,
        "streetTypeId": "ST",
        "placeName": "BRAMPTON",
        "streetNameDisplayText": "SCOTT ST, BRAMPTON"
      }
    ]
  },
  {
    "postal": "L6V4T7",
    "result": [
      {
        "electoralDistricts": [
          {
            "election": null,
            "id": 8,
            "name": "Brampton Centre"
          }
        ],
        "pollDivisionIds": [
          10111327
        ],
        "postalCode": "L6V4T7",
        "streetName": "DEEP SEA",
        "streetDirectionId": null,
        "streetTypeId": "DR",
        "placeName": "BRAMPTON",
        "streetNameDisplayText": "DEEP SEA DR, BRAMPTON"
      },
      {
        "electoralDistricts": [
          {
            "election": null,
            "id": 8,
            "name": "Brampton Centre"
          }
        ],
        "pollDivisionIds": [
          10111327
        ],
        "postalCode": "L6V4T7",
        "streetName": "STONEYLAKE",
        "streetDirectionId": null,
        "streetTypeId": "AVE",
        "placeName": "BRAMPTON",
        "streetNameDisplayText": "STONEYLAKE AVE, BRAMPTON"
      },
      {
        "electoralDistricts": [
          {
            "election": null,
            "id": 8,
            "name": "Brampton Centre"
          }
        ],
        "pollDivisionIds": [
          10111327
        ],
        "postalCode": "L6V4T7",
        "streetName": "WELLSPRINGS",
        "streetDirectionId": null,
        "streetTypeId": "DR",
        "placeName": "BRAMPTON",
        "streetNameDisplayText": "WELLSPRINGS DR, BRAMPTON"
      }
    ]
  },
  {
    "postal": "L6V6Y7",
    "result": []
  },
  {
    "postal": "L6V0W7",
    "result": []
  },
  {
    "postal": "L6V2W9",
    "result": [
      {
        "electoralDistricts": [
          {
            "election": null,
            "id": 8,
            "name": "Brampton Centre"
          }
        ],
        "pollDivisionIds": [
          10111330
        ],
        "postalCode": "L6V2W9",
        "streetName": "BRUCE BEER",
        "streetDirectionId": null,
        "streetTypeId": "DR",
        "placeName": "BRAMPTON",
        "streetNameDisplayText": "BRUCE BEER DR, BRAMPTON"
      }
    ]
  },
  {
    "postal": "L6V8V0",
    "result": []
  },
  {
    "postal": "L6V0H4",
    "result": []
  },
  {
    "postal": "L6V2T1",
    "result": [
      {
        "electoralDistricts": [
          {
            "election": null,
            "id": 8,
            "name": "Brampton Centre"
          }
        ],
        "pollDivisionIds": [
          10111330
        ],
        "postalCode": "L6V2T1",
        "streetName": "HANSEN",
        "streetDirectionId": "N",
        "streetTypeId": "RD",
        "placeName": "BRAMPTON",
        "streetNameDisplayText": "HANSEN RD N, BRAMPTON"
      }
    ]
  },
  {
    "postal": "L6V1B1",
    "result": [
      {
        "electoralDistricts": [
          {
            "election": null,
            "id": 11,
            "name": "Brampton South"
          }
        ],
        "pollDivisionIds": [
          10137120
        ],
        "postalCode": "L6V1B1",
        "streetName": "QUEEN",
        "streetDirectionId": "E",
        "streetTypeId": "ST",
        "placeName": "BRAMPTON",
        "streetNameDisplayText": "QUEEN ST E, BRAMPTON"
      }
    ]
  },
  {
    "postal": "L6V8B6",
    "result": []
  },
  {
    "postal": "L6V6H1",
    "result": []
  },
  {
    "postal": "L6V8T8",
    "result": []
  },
  {
    "postal": "L6V0T4",
    "result": []
  },
  {
    "postal": "L6V2C4",
    "result": [
      {
        "electoralDistricts": [
          {
            "election": null,
            "id": 8,
            "name": "Brampton Centre"
          }
        ],
        "pollDivisionIds": [
          10111332
        ],
        "postalCode": "L6V2C4",
        "streetName": "BARKWOOD",
        "streetDirectionId": null,
        "streetTypeId": "CRT",
        "placeName": "BRAMPTON",
        "streetNameDisplayText": "BARKWOOD CRT, BRAMPTON"
      }
    ]
  },
  {
    "postal": "L6V8N3",
    "result": []
  },
  {
    "postal": "L6V4L8",
    "result": []
  },
  {
    "postal": "L6V2B5",
    "result": [
      {
        "electoralDistricts": [
          {
            "election": null,
            "id": 8,
            "name": "Brampton Centre"
          }
        ],
        "pollDivisionIds": [
          10137072
        ],
        "postalCode": "L6V2B5",
        "streetName": "MORDON",
        "streetDirectionId": null,
        "streetTypeId": "CRT",
        "placeName": "BRAMPTON",
        "streetNameDisplayText": "MORDON CRT, BRAMPTON"
      }
    ]
  },
  {
    "postal": "L6V3H1",
    "result": [
      {
        "electoralDistricts": [
          {
            "election": null,
            "id": 8,
            "name": "Brampton Centre"
          }
        ],
        "pollDivisionIds": [
          10137070,
          10111330
        ],
        "postalCode": "L6V3H1",
        "streetName": "FALLWAY",
        "streetDirectionId": null,
        "streetTypeId": "RD",
        "placeName": "BRAMPTON",
        "streetNameDisplayText": "FALLWAY RD, BRAMPTON"
      }
    ]
  },
  {
    "postal": "L6V4Y1",
    "result": []
  },
  {
    "postal": "L6V7E2",
    "result": []
  },
  {
    "postal": "L6V2P5",
    "result": [
      {
        "electoralDistricts": [
          {
            "election": null,
            "id": 8,
            "name": "Brampton Centre"
          }
        ],
        "pollDivisionIds": [
          10137071
        ],
        "postalCode": "L6V2P5",
        "streetName": "NEWTON",
        "streetDirectionId": null,
        "streetTypeId": "RD",
        "placeName": "BRAMPTON",
        "streetNameDisplayText": "NEWTON RD, BRAMPTON"
      }
    ]
  },
  {
    "postal": "L6V8R7",
    "result": []
  },
  {
    "postal": "L6V9P1",
    "result": []
  },
  {
    "postal": "L6V3B8",
    "result": [
      {
        "electoralDistricts": [
          {
            "election": null,
            "id": 8,
            "name": "Brampton Centre"
          }
        ],
        "pollDivisionIds": [
          10111330
        ],
        "postalCode": "L6V3B8",
        "streetName": "HANSEN",
        "streetDirectionId": "N",
        "streetTypeId": "RD",
        "placeName": "BRAMPTON",
        "streetNameDisplayText": "HANSEN RD N, BRAMPTON"
      }
    ]
  },
  {
    "postal": "L6V3P7",
    "result": [
      {
        "electoralDistricts": [
          {
            "election": null,
            "id": 8,
            "name": "Brampton Centre"
          }
        ],
        "pollDivisionIds": [
          10111330
        ],
        "postalCode": "L6V3P7",
        "streetName": "HANSEN",
        "streetDirectionId": "N",
        "streetTypeId": "RD",
        "placeName": "BRAMPTON",
        "streetNameDisplayText": "HANSEN RD N, BRAMPTON"
      }
    ]
  },
  {
    "postal": "L6V9B2",
    "result": []
  },
  {
    "postal": "L6V6Z3",
    "result": []
  },
  {
    "postal": "L6V4N5",
    "result": [
      {
        "electoralDistricts": [
          {
            "election": null,
            "id": 8,
            "name": "Brampton Centre"
          }
        ],
        "pollDivisionIds": [
          10111327
        ],
        "postalCode": "L6V4N5",
        "streetName": "PALM TREE",
        "streetDirectionId": null,
        "streetTypeId": "RD",
        "placeName": "BRAMPTON",
        "streetNameDisplayText": "PALM TREE RD, BRAMPTON"
      },
      {
        "electoralDistricts": [
          {
            "election": null,
            "id": 8,
            "name": "Brampton Centre"
          }
        ],
        "pollDivisionIds": [
          10111327
        ],
        "postalCode": "L6V4N5",
        "streetName": "SEAHORSE",
        "streetDirectionId": null,
        "streetTypeId": "AVE",
        "placeName": "BRAMPTON",
        "streetNameDisplayText": "SEAHORSE AVE, BRAMPTON"
      }
    ]
  },
  {
    "postal": "L6V8T3",
    "result": []
  },
  {
    "postal": "L6V1V2",
    "result": [
      {
        "electoralDistricts": [
          {
            "election": null,
            "id": 11,
            "name": "Brampton South"
          }
        ],
        "pollDivisionIds": [
          10137120
        ],
        "postalCode": "L6V1V2",
        "streetName": "BEECH",
        "streetDirectionId": null,
        "streetTypeId": "ST",
        "placeName": "BRAMPTON",
        "streetNameDisplayText": "BEECH ST, BRAMPTON"
      }
    ]
  },
  {
    "postal": "L6V1Y0",
    "result": []
  },
  {
    "postal": "L6V3G6",
    "result": [
      {
        "electoralDistricts": [
          {
            "election": null,
            "id": 8,
            "name": "Brampton Centre"
          }
        ],
        "pollDivisionIds": [
          10111330
        ],
        "postalCode": "L6V3G6",
        "streetName": "PETUNIAS",
        "streetDirectionId": null,
        "streetTypeId": "RD",
        "placeName": "BRAMPTON",
        "streetNameDisplayText": "PETUNIAS RD, BRAMPTON"
      }
    ]
  },
  {
    "postal": "L6V3H7",
    "result": [
      {
        "electoralDistricts": [
          {
            "election": null,
            "id": 8,
            "name": "Brampton Centre"
          }
        ],
        "pollDivisionIds": [
          10111325
        ],
        "postalCode": "L6V3H7",
        "streetName": "BARONWOOD",
        "streetDirectionId": null,
        "streetTypeId": "CRT",
        "placeName": "BRAMPTON",
        "streetNameDisplayText": "BARONWOOD CRT, BRAMPTON"
      }
    ]
  },
  {
    "postal": "L6V7X8",
    "result": []
  },
  {
    "postal": "L6V0C7",
    "result": []
  },
  {
    "postal": "L6V0W9",
    "result": []
  },
  {
    "postal": "L6V8E6",
    "result": []
  },
  {
    "postal": "L6V9Z8",
    "result": []
  },
  {
    "postal": "L6V3P4",
    "result": [
      {
        "electoralDistricts": [
          {
            "election": null,
            "id": 8,
            "name": "Brampton Centre"
          }
        ],
        "pollDivisionIds": [
          10137070
        ],
        "postalCode": "L6V3P4",
        "streetName": "BUCKLAND",
        "streetDirectionId": null,
        "streetTypeId": "WAY",
        "placeName": "BRAMPTON",
        "streetNameDisplayText": "BUCKLAND WAY, BRAMPTON"
      }
    ]
  },
  {
    "postal": "L6V6L8",
    "result": []
  },
  {
    "postal": "L6V2R4",
    "result": [
      {
        "electoralDistricts": [
          {
            "election": null,
            "id": 8,
            "name": "Brampton Centre"
          }
        ],
        "pollDivisionIds": [
          10111325,
          10137071
        ],
        "postalCode": "L6V2R4",
        "streetName": "CENTRE",
        "streetDirectionId": "N",
        "streetTypeId": "ST",
        "placeName": "BRAMPTON",
        "streetNameDisplayText": "CENTRE ST N, BRAMPTON"
      }
    ]
  },
  {
    "postal": "L6V2W1",
    "result": [
      {
        "electoralDistricts": [
          {
            "election": null,
            "id": 8,
            "name": "Brampton Centre"
          }
        ],
        "pollDivisionIds": [
          10111330
        ],
        "postalCode": "L6V2W1",
        "streetName": "ABELL",
        "streetDirectionId": null,
        "streetTypeId": "DR",
        "placeName": "BRAMPTON",
        "streetNameDisplayText": "ABELL DR, BRAMPTON"
      }
    ]
  },
  {
    "postal": "L6V9H8",
    "result": []
  },
  {
    "postal": "L6V8X9",
    "result": []
  },
  {
    "postal": "L6V7H4",
    "result": []
  },
  {
    "postal": "L6V3J1",
    "result": [
      {
        "electoralDistricts": [
          {
            "election": null,
            "id": 8,
            "name": "Brampton Centre"
          }
        ],
        "pollDivisionIds": [
          10137071
        ],
        "postalCode": "L6V3J1",
        "streetName": "WRIGHT",
        "streetDirectionId": null,
        "streetTypeId": "ST",
        "placeName": "BRAMPTON",
        "streetNameDisplayText": "WRIGHT ST, BRAMPTON"
      }
    ]
  },
  {
    "postal": "L6V1P4",
    "result": [
      {
        "electoralDistricts": [
          {
            "election": null,
            "id": 11,
            "name": "Brampton South"
          }
        ],
        "pollDivisionIds": [
          10137119
        ],
        "postalCode": "L6V1P4",
        "streetName": "MAIN",
        "streetDirectionId": "N",
        "streetTypeId": "ST",
        "placeName": "BRAMPTON",
        "streetNameDisplayText": "MAIN ST N, BRAMPTON"
      }
    ]
  },
  {
    "postal": "L6V2A3",
    "result": [
      {
        "electoralDistricts": [
          {
            "election": null,
            "id": 8,
            "name": "Brampton Centre"
          }
        ],
        "pollDivisionIds": [
          10137072
        ],
        "postalCode": "L6V2A3",
        "streetName": "MADOC",
        "streetDirectionId": null,
        "streetTypeId": "DR",
        "placeName": "BRAMPTON",
        "streetNameDisplayText": "MADOC DR, BRAMPTON"
      }
    ]
  },
  {
    "postal": "L6V0Z1",
    "result": []
  },
  {
    "postal": "L6V1C1",
    "result": [
      {
        "electoralDistricts": [
          {
            "election": null,
            "id": 8,
            "name": "Brampton Centre"
          }
        ],
        "pollDivisionIds": [
          10137072
        ],
        "postalCode": "L6V1C1",
        "streetName": "QUEEN",
        "streetDirectionId": "E",
        "streetTypeId": "ST",
        "placeName": "BRAMPTON",
        "streetNameDisplayText": "QUEEN ST E, BRAMPTON"
      }
    ]
  },
  {
    "postal": "L6V0H3",
    "result": []
  },
  {
    "postal": "L6V7B0",
    "result": []
  },
  {
    "postal": "L6V5K2",
    "result": []
  },
  {
    "postal": "L6V1E9",
    "result": [
      {
        "electoralDistricts": [
          {
            "election": null,
            "id": 11,
            "name": "Brampton South"
          }
        ],
        "pollDivisionIds": [
          10137120
        ],
        "postalCode": "L6V1E9",
        "streetName": "CHURCH",
        "streetDirectionId": "E",
        "streetTypeId": "ST",
        "placeName": "BRAMPTON",
        "streetNameDisplayText": "CHURCH ST E, BRAMPTON"
      }
    ]
  },
  {
    "postal": "L6V9W7",
    "result": []
  },
  {
    "postal": "L6V5W6",
    "result": []
  },
  {
    "postal": "L6V6S6",
    "result": []
  },
  {
    "postal": "L6V2P8",
    "result": [
      {
        "electoralDistricts": [
          {
            "election": null,
            "id": 8,
            "name": "Brampton Centre"
          }
        ],
        "pollDivisionIds": [
          10111330
        ],
        "postalCode": "L6V2P8",
        "streetName": "VODDEN",
        "streetDirectionId": "E",
        "streetTypeId": "ST",
        "placeName": "BRAMPTON",
        "streetNameDisplayText": "VODDEN ST E, BRAMPTON"
      }
    ]
  },
  {
    "postal": "L6V4P8",
    "result": [
      {
        "electoralDistricts": [
          {
            "election": null,
            "id": 8,
            "name": "Brampton Centre"
          }
        ],
        "pollDivisionIds": [
          10111327
        ],
        "postalCode": "L6V4P8",
        "streetName": "SEA LION",
        "streetDirectionId": null,
        "streetTypeId": "RD",
        "placeName": "BRAMPTON",
        "streetNameDisplayText": "SEA LION RD, BRAMPTON"
      },
      {
        "electoralDistricts": [
          {
            "election": null,
            "id": 8,
            "name": "Brampton Centre"
          }
        ],
        "pollDivisionIds": [
          10111327
        ],
        "postalCode": "L6V4P8",
        "streetName": "SOUTHLAKE",
        "streetDirectionId": null,
        "streetTypeId": "BLVD",
        "placeName": "BRAMPTON",
        "streetNameDisplayText": "SOUTHLAKE BLVD, BRAMPTON"
      }
    ]
  },
  {
    "postal": "L6V0V9",
    "result": []
  },
  {
    "postal": "L6V5Y2",
    "result": []
  },
  {
    "postal": "L6V7Z7",
    "result": []
  },
  {
    "postal": "L6V6Y8",
    "result": []
  },
  {
    "postal": "L6V2G7",
    "result": [
      {
        "electoralDistricts": [
          {
            "election": null,
            "id": 8,
            "name": "Brampton Centre"
          }
        ],
        "pollDivisionIds": [
          10137072
        ],
        "postalCode": "L6V2G7",
        "streetName": "HANSEN",
        "streetDirectionId": "N",
        "streetTypeId": "RD",
        "placeName": "BRAMPTON",
        "streetNameDisplayText": "HANSEN RD N, BRAMPTON"
      }
    ]
  },
  {
    "postal": "L6V8C1",
    "result": []
  },
  {
    "postal": "L6V5C5",
    "result": []
  },
  {
    "postal": "L6V2X8",
    "result": [
      {
        "electoralDistricts": [
          {
            "election": null,
            "id": 8,
            "name": "Brampton Centre"
          }
        ],
        "pollDivisionIds": [
          10111330
        ],
        "postalCode": "L6V2X8",
        "streetName": "RUTHERFORD",
        "streetDirectionId": "N",
        "streetTypeId": "RD",
        "placeName": "BRAMPTON",
        "streetNameDisplayText": "RUTHERFORD RD N, BRAMPTON"
      }
    ]
  },
  {
    "postal": "L6V1W5",
    "result": [
      {
        "electoralDistricts": [
          {
            "election": null,
            "id": 11,
            "name": "Brampton South"
          }
        ],
        "pollDivisionIds": [
          10137120
        ],
        "postalCode": "L6V1W5",
        "streetName": "CUMBERLAND",
        "streetDirectionId": null,
        "streetTypeId": "DR",
        "placeName": "BRAMPTON",
        "streetNameDisplayText": "CUMBERLAND DR, BRAMPTON"
      }
    ]
  },
  {
    "postal": "L6V7G0",
    "result": []
  },
  {
    "postal": "L6V8J8",
    "result": []
  },
  {
    "postal": "L6V3Y0",
    "result": []
  },
  {
    "postal": "L6V9T7",
    "result": []
  },
  {
    "postal": "L6V5P4",
    "result": []
  },
  {
    "postal": "L6V4B0",
    "result": []
  },
  {
    "postal": "L6V9N8",
    "result": []
  },
  {
    "postal": "L6V4A7",
    "result": []
  },
  {
    "postal": "L6V4H9",
    "result": []
  },
  {
    "postal": "L6V6X1",
    "result": []
  },
  {
    "postal": "L6V9Y7",
    "result": []
  },
  {
    "postal": "L6V2Y5",
    "result": [
      {
        "electoralDistricts": [
          {
            "election": null,
            "id": 8,
            "name": "Brampton Centre"
          }
        ],
        "pollDivisionIds": [
          10111329
        ],
        "postalCode": "L6V2Y5",
        "streetName": "LINKDALE",
        "streetDirectionId": null,
        "streetTypeId": "RD",
        "placeName": "BRAMPTON",
        "streetNameDisplayText": "LINKDALE RD, BRAMPTON"
      }
    ]
  },
  {
    "postal": "L6V8L7",
    "result": []
  },
  {
    "postal": "L6V2A8",
    "result": [
      {
        "electoralDistricts": [
          {
            "election": null,
            "id": 8,
            "name": "Brampton Centre"
          }
        ],
        "pollDivisionIds": [
          10111332
        ],
        "postalCode": "L6V2A8",
        "streetName": "NEWSTEAD",
        "streetDirectionId": null,
        "streetTypeId": "CRES",
        "placeName": "BRAMPTON",
        "streetNameDisplayText": "NEWSTEAD CRES, BRAMPTON"
      }
    ]
  },
  {
    "postal": "L6V2K9",
    "result": []
  },
  {
    "postal": "L6V3E5",
    "result": [
      {
        "electoralDistricts": [
          {
            "election": null,
            "id": 8,
            "name": "Brampton Centre"
          }
        ],
        "pollDivisionIds": [
          10137071
        ],
        "postalCode": "L6V3E5",
        "streetName": "VODDEN",
        "streetDirectionId": "E",
        "streetTypeId": "ST",
        "placeName": "BRAMPTON",
        "streetNameDisplayText": "VODDEN ST E, BRAMPTON"
      }
    ]
  },
  {
    "postal": "L6V8N6",
    "result": []
  },
  {
    "postal": "L6V8J4",
    "result": []
  },
  {
    "postal": "L6V4R7",
    "result": [
      {
        "electoralDistricts": [
          {
            "election": null,
            "id": 8,
            "name": "Brampton Centre"
          }
        ],
        "pollDivisionIds": [
          10111327
        ],
        "postalCode": "L6V4R7",
        "streetName": "RAINY DALE",
        "streetDirectionId": null,
        "streetTypeId": "RD",
        "placeName": "BRAMPTON",
        "streetNameDisplayText": "RAINY DALE RD, BRAMPTON"
      },
      {
        "electoralDistricts": [
          {
            "election": null,
            "id": 8,
            "name": "Brampton Centre"
          }
        ],
        "pollDivisionIds": [
          10111327
        ],
        "postalCode": "L6V4R7",
        "streetName": "ROCKY POINT",
        "streetDirectionId": null,
        "streetTypeId": "CRES",
        "placeName": "BRAMPTON",
        "streetNameDisplayText": "ROCKY POINT CRES, BRAMPTON"
      }
    ]
  },
  {
    "postal": "L6V9K1",
    "result": []
  },
  {
    "postal": "L6V8E1",
    "result": []
  },
  {
    "postal": "L6V0R1",
    "result": []
  },
  {
    "postal": "L6V4J3",
    "result": []
  },
  {
    "postal": "L6V7E7",
    "result": []
  },
  {
    "postal": "L6V0J0",
    "result": []
  },
  {
    "postal": "L6V7R8",
    "result": []
  },
  {
    "postal": "L6V9X0",
    "result": []
  },
  {
    "postal": "L6V7P6",
    "result": []
  },
  {
    "postal": "L6V0R7",
    "result": []
  },
  {
    "postal": "L6V5W1",
    "result": []
  },
  {
    "postal": "L6V0K4",
    "result": []
  },
  {
    "postal": "L6V7N9",
    "result": []
  },
  {
    "postal": "L6V1N0",
    "result": []
  },
  {
    "postal": "L6V6P3",
    "result": []
  },
  {
    "postal": "L6V5A1",
    "result": []
  },
  {
    "postal": "L6V9M9",
    "result": []
  },
  {
    "postal": "L6V7T6",
    "result": []
  },
  {
    "postal": "L6V3X0",
    "result": []
  },
  {
    "postal": "L6V2T0",
    "result": []
  },
  {
    "postal": "L6V5X9",
    "result": []
  },
  {
    "postal": "L6V2R3",
    "result": [
      {
        "electoralDistricts": [
          {
            "election": null,
            "id": 8,
            "name": "Brampton Centre"
          }
        ],
        "pollDivisionIds": [
          10137071
        ],
        "postalCode": "L6V2R3",
        "streetName": "CENTRE",
        "streetDirectionId": "N",
        "streetTypeId": "ST",
        "placeName": "BRAMPTON",
        "streetNameDisplayText": "CENTRE ST N, BRAMPTON"
      }
    ]
  },
  {
    "postal": "L6V5N2",
    "result": []
  },
  {
    "postal": "L6V4Y7",
    "result": []
  },
  {
    "postal": "L6V7M0",
    "result": []
  },
  {
    "postal": "L6V8P3",
    "result": []
  },
  {
    "postal": "L6V3N3",
    "result": [
      {
        "electoralDistricts": [
          {
            "election": null,
            "id": 8,
            "name": "Brampton Centre"
          }
        ],
        "pollDivisionIds": [
          10137071
        ],
        "postalCode": "L6V3N3",
        "streetName": "ELDERWOOD",
        "streetDirectionId": null,
        "streetTypeId": "PL",
        "placeName": "BRAMPTON",
        "streetNameDisplayText": "ELDERWOOD PL, BRAMPTON"
      }
    ]
  },
  {
    "postal": "L6V7S3",
    "result": []
  },
  {
    "postal": "L6V3V9",
    "result": [
      {
        "electoralDistricts": [
          {
            "election": null,
            "id": 8,
            "name": "Brampton Centre"
          }
        ],
        "pollDivisionIds": [
          10137070
        ],
        "postalCode": "L6V3V9",
        "streetName": "RUTHERFORD",
        "streetDirectionId": "N",
        "streetTypeId": "RD",
        "placeName": "BRAMPTON",
        "streetNameDisplayText": "RUTHERFORD RD N, BRAMPTON"
      }
    ]
  },
  {
    "postal": "L6V9N7",
    "result": []
  },
  {
    "postal": "L6V0G4",
    "result": []
  },
  {
    "postal": "L6V2E2",
    "result": [
      {
        "electoralDistricts": [
          {
            "election": null,
            "id": 8,
            "name": "Brampton Centre"
          }
        ],
        "pollDivisionIds": [
          10137072
        ],
        "postalCode": "L6V2E2",
        "streetName": "REIGATE",
        "streetDirectionId": null,
        "streetTypeId": "AVE",
        "placeName": "BRAMPTON",
        "streetNameDisplayText": "REIGATE AVE, BRAMPTON"
      }
    ]
  },
  {
    "postal": "L6V7W8",
    "result": []
  },
  {
    "postal": "L6V7M5",
    "result": []
  },
  {
    "postal": "L6V5W8",
    "result": []
  },
  {
    "postal": "L6V5E5",
    "result": []
  },
  {
    "postal": "L6V1P9",
    "result": [
      {
        "electoralDistricts": [
          {
            "election": null,
            "id": 8,
            "name": "Brampton Centre"
          }
        ],
        "pollDivisionIds": [
          10137071,
          10111324
        ],
        "postalCode": "L6V1P9",
        "streetName": "MAIN",
        "streetDirectionId": "N",
        "streetTypeId": "ST",
        "placeName": "BRAMPTON",
        "streetNameDisplayText": "MAIN ST N, BRAMPTON"
      }
    ]
  },
  {
    "postal": "L6V8V8",
    "result": []
  },
  {
    "postal": "L6V9G8",
    "result": []
  },
  {
    "postal": "L6V8H9",
    "result": []
  },
  {
    "postal": "L6V1Z1",
    "result": [
      {
        "electoralDistricts": [
          {
            "election": null,
            "id": 8,
            "name": "Brampton Centre"
          }
        ],
        "pollDivisionIds": [
          10111332
        ],
        "postalCode": "L6V1Z1",
        "streetName": "ARCHDEKIN",
        "streetDirectionId": null,
        "streetTypeId": "DR",
        "placeName": "BRAMPTON",
        "streetNameDisplayText": "ARCHDEKIN DR, BRAMPTON"
      }
    ]
  },
  {
    "postal": "L6V8M3",
    "result": []
  },
  {
    "postal": "L6V5H6",
    "result": []
  },
  {
    "postal": "L6V7W7",
    "result": []
  },
  {
    "postal": "L6V4L0",
    "result": []
  },
  {
    "postal": "L6V2N1",
    "result": []
  },
  {
    "postal": "L6V2H4",
    "result": [
      {
        "electoralDistricts": [
          {
            "election": null,
            "id": 8,
            "name": "Brampton Centre"
          }
        ],
        "pollDivisionIds": [
          10137072
        ],
        "postalCode": "L6V2H4",
        "streetName": "SUTHERLAND",
        "streetDirectionId": null,
        "streetTypeId": "AVE",
        "placeName": "BRAMPTON",
        "streetNameDisplayText": "SUTHERLAND AVE, BRAMPTON"
      }
    ]
  },
  {
    "postal": "L6V5C8",
    "result": []
  },
  {
    "postal": "L6V8B0",
    "result": []
  },
  {
    "postal": "L6V1T4",
    "result": [
      {
        "electoralDistricts": [
          {
            "election": null,
            "id": 11,
            "name": "Brampton South"
          }
        ],
        "pollDivisionIds": [
          10137120
        ],
        "postalCode": "L6V1T4",
        "streetName": "CENTRE",
        "streetDirectionId": "N",
        "streetTypeId": "ST",
        "placeName": "BRAMPTON",
        "streetNameDisplayText": "CENTRE ST N, BRAMPTON"
      }
    ]
  },
  {
    "postal": "L6V7N7",
    "result": []
  },
  {
    "postal": "L6V4L3",
    "result": [
      {
        "electoralDistricts": [
          {
            "election": null,
            "id": 8,
            "name": "Brampton Centre"
          }
        ],
        "pollDivisionIds": [
          10111324
        ],
        "postalCode": "L6V4L3",
        "streetName": "PRESSED BRICK",
        "streetDirectionId": null,
        "streetTypeId": "DR",
        "placeName": "BRAMPTON",
        "streetNameDisplayText": "PRESSED BRICK DR, BRAMPTON"
      }
    ]
  },
  {
    "postal": "L6V2N2",
    "result": [
      {
        "electoralDistricts": [
          {
            "election": null,
            "id": 8,
            "name": "Brampton Centre"
          }
        ],
        "pollDivisionIds": [
          10111330
        ],
        "postalCode": "L6V2N2",
        "streetName": "VODDEN",
        "streetDirectionId": "E",
        "streetTypeId": "ST",
        "placeName": "BRAMPTON",
        "streetNameDisplayText": "VODDEN ST E, BRAMPTON"
      }
    ]
  },
  {
    "postal": "L6V4N8",
    "result": [
      {
        "electoralDistricts": [
          {
            "election": null,
            "id": 8,
            "name": "Brampton Centre"
          }
        ],
        "pollDivisionIds": [
          10111327
        ],
        "postalCode": "L6V4N8",
        "streetName": "PALM TREE",
        "streetDirectionId": null,
        "streetTypeId": "RD",
        "placeName": "BRAMPTON",
        "streetNameDisplayText": "PALM TREE RD, BRAMPTON"
      },
      {
        "electoralDistricts": [
          {
            "election": null,
            "id": 8,
            "name": "Brampton Centre"
          }
        ],
        "pollDivisionIds": [
          10111327
        ],
        "postalCode": "L6V4N8",
        "streetName": "SEAHORSE",
        "streetDirectionId": null,
        "streetTypeId": "AVE",
        "placeName": "BRAMPTON",
        "streetNameDisplayText": "SEAHORSE AVE, BRAMPTON"
      },
      {
        "electoralDistricts": [
          {
            "election": null,
            "id": 8,
            "name": "Brampton Centre"
          }
        ],
        "pollDivisionIds": [
          10111327
        ],
        "postalCode": "L6V4N8",
        "streetName": "SOUTHLAKE",
        "streetDirectionId": null,
        "streetTypeId": "BLVD",
        "placeName": "BRAMPTON",
        "streetNameDisplayText": "SOUTHLAKE BLVD, BRAMPTON"
      }
    ]
  },
  {
    "postal": "L6V3M5",
    "result": [
      {
        "electoralDistricts": [
          {
            "election": null,
            "id": 8,
            "name": "Brampton Centre"
          }
        ],
        "pollDivisionIds": [
          10111325
        ],
        "postalCode": "L6V3M5",
        "streetName": "DAWSON",
        "streetDirectionId": null,
        "streetTypeId": "CRES",
        "placeName": "BRAMPTON",
        "streetNameDisplayText": "DAWSON CRES, BRAMPTON"
      }
    ]
  },
  {
    "postal": "L6V6H7",
    "result": []
  },
  {
    "postal": "L6V8Y8",
    "result": []
  },
  {
    "postal": "L6V5R9",
    "result": []
  },
  {
    "postal": "L6V8G3",
    "result": []
  },
  {
    "postal": "L6V4N7",
    "result": [
      {
        "electoralDistricts": [
          {
            "election": null,
            "id": 8,
            "name": "Brampton Centre"
          }
        ],
        "pollDivisionIds": [
          10111327
        ],
        "postalCode": "L6V4N7",
        "streetName": "CLEARJOY",
        "streetDirectionId": null,
        "streetTypeId": "ST",
        "placeName": "BRAMPTON",
        "streetNameDisplayText": "CLEARJOY ST, BRAMPTON"
      },
      {
        "electoralDistricts": [
          {
            "election": null,
            "id": 8,
            "name": "Brampton Centre"
          }
        ],
        "pollDivisionIds": [
          10111327
        ],
        "postalCode": "L6V4N7",
        "streetName": "SEAHORSE",
        "streetDirectionId": null,
        "streetTypeId": "AVE",
        "placeName": "BRAMPTON",
        "streetNameDisplayText": "SEAHORSE AVE, BRAMPTON"
      }
    ]
  },
  {
    "postal": "L6V0B9",
    "result": []
  },
  {
    "postal": "L6V9K7",
    "result": []
  },
  {
    "postal": "L6V9K9",
    "result": []
  },
  {
    "postal": "L6V3Z2",
    "result": [
      {
        "electoralDistricts": [
          {
            "election": null,
            "id": 11,
            "name": "Brampton South"
          }
        ],
        "pollDivisionIds": [
          10137120
        ],
        "postalCode": "L6V3Z2",
        "streetName": "CHURCH",
        "streetDirectionId": "E",
        "streetTypeId": "ST",
        "placeName": "BRAMPTON",
        "streetNameDisplayText": "CHURCH ST E, BRAMPTON"
      }
    ]
  },
  {
    "postal": "L6V6W7",
    "result": []
  },
  {
    "postal": "L6V0P1",
    "result": []
  },
  {
    "postal": "L6V3A0",
    "result": []
  },
  {
    "postal": "L6V8L9",
    "result": []
  },
  {
    "postal": "L6V6X0",
    "result": []
  },
  {
    "postal": "L6V3E9",
    "result": [
      {
        "electoralDistricts": [
          {
            "election": null,
            "id": 8,
            "name": "Brampton Centre"
          }
        ],
        "pollDivisionIds": [
          10111330
        ],
        "postalCode": "L6V3E9",
        "streetName": "ARCHDEKIN",
        "streetDirectionId": null,
        "streetTypeId": "DR",
        "placeName": "BRAMPTON",
        "streetNameDisplayText": "ARCHDEKIN DR, BRAMPTON"
      }
    ]
  },
  {
    "postal": "L6V0S5",
    "result": []
  },
  {
    "postal": "L6V1A2",
    "result": [
      {
        "electoralDistricts": [
          {
            "election": null,
            "id": 11,
            "name": "Brampton South"
          }
        ],
        "pollDivisionIds": [
          10137122
        ],
        "postalCode": "L6V1A2",
        "streetName": "QUEEN",
        "streetDirectionId": "E",
        "streetTypeId": "ST",
        "placeName": "BRAMPTON",
        "streetNameDisplayText": "QUEEN ST E, BRAMPTON"
      }
    ]
  },
  {
    "postal": "L6V5V8",
    "result": []
  },
  {
    "postal": "L6V8C5",
    "result": []
  },
  {
    "postal": "L6V6N0",
    "result": []
  },
  {
    "postal": "L6V9E6",
    "result": []
  },
  {
    "postal": "L6V5J7",
    "result": []
  },
  {
    "postal": "L6V2R2",
    "result": [
      {
        "electoralDistricts": [
          {
            "election": null,
            "id": 8,
            "name": "Brampton Centre"
          }
        ],
        "pollDivisionIds": [
          10137071
        ],
        "postalCode": "L6V2R2",
        "streetName": "CENTRE",
        "streetDirectionId": "N",
        "streetTypeId": "ST",
        "placeName": "BRAMPTON",
        "streetNameDisplayText": "CENTRE ST N, BRAMPTON"
      }
    ]
  },
  {
    "postal": "L6V0P5",
    "result": []
  },
  {
    "postal": "L6V5A7",
    "result": []
  },
  {
    "postal": "L6V1G1",
    "result": [
      {
        "electoralDistricts": [
          {
            "election": null,
            "id": 11,
            "name": "Brampton South"
          }
        ],
        "pollDivisionIds": [
          10137120
        ],
        "postalCode": "L6V1G1",
        "streetName": "CHURCH",
        "streetDirectionId": "E",
        "streetTypeId": "ST",
        "placeName": "BRAMPTON",
        "streetNameDisplayText": "CHURCH ST E, BRAMPTON"
      }
    ]
  },
  {
    "postal": "L6V9R6",
    "result": []
  },
  {
    "postal": "L6V4Z9",
    "result": []
  },
  {
    "postal": "L6V1V5",
    "result": [
      {
        "electoralDistricts": [
          {
            "election": null,
            "id": 11,
            "name": "Brampton South"
          }
        ],
        "pollDivisionIds": [
          10137120
        ],
        "postalCode": "L6V1V5",
        "streetName": "BEECH",
        "streetDirectionId": null,
        "streetTypeId": "ST",
        "placeName": "BRAMPTON",
        "streetNameDisplayText": "BEECH ST, BRAMPTON"
      }
    ]
  },
  {
    "postal": "L6V9Y5",
    "result": []
  },
  {
    "postal": "L6V1P2",
    "result": [
      {
        "electoralDistricts": [
          {
            "election": null,
            "id": 11,
            "name": "Brampton South"
          }
        ],
        "pollDivisionIds": [
          10137119
        ],
        "postalCode": "L6V1P2",
        "streetName": "MAIN",
        "streetDirectionId": "N",
        "streetTypeId": "ST",
        "placeName": "BRAMPTON",
        "streetNameDisplayText": "MAIN ST N, BRAMPTON"
      }
    ]
  },
  {
    "postal": "L6V5X0",
    "result": []
  },
  {
    "postal": "L6V7B8",
    "result": []
  },
  {
    "postal": "L6V0C6",
    "result": []
  },
  {
    "postal": "L6V6G1",
    "result": []
  },
  {
    "postal": "L6V3K3",
    "result": [
      {
        "electoralDistricts": [
          {
            "election": null,
            "id": 8,
            "name": "Brampton Centre"
          }
        ],
        "pollDivisionIds": [
          10111330
        ],
        "postalCode": "L6V3K3",
        "streetName": "GILMORE",
        "streetDirectionId": null,
        "streetTypeId": "DR",
        "placeName": "BRAMPTON",
        "streetNameDisplayText": "GILMORE DR, BRAMPTON"
      }
    ]
  },
  {
    "postal": "L6V9R0",
    "result": []
  },
  {
    "postal": "L6V4R8",
    "result": [
      {
        "electoralDistricts": [
          {
            "election": null,
            "id": 8,
            "name": "Brampton Centre"
          }
        ],
        "pollDivisionIds": [
          10111327
        ],
        "postalCode": "L6V4R8",
        "streetName": "RAINY DALE",
        "streetDirectionId": null,
        "streetTypeId": "RD",
        "placeName": "BRAMPTON",
        "streetNameDisplayText": "RAINY DALE RD, BRAMPTON"
      },
      {
        "electoralDistricts": [
          {
            "election": null,
            "id": 8,
            "name": "Brampton Centre"
          }
        ],
        "pollDivisionIds": [
          10111327
        ],
        "postalCode": "L6V4R8",
        "streetName": "ROCKY POINT",
        "streetDirectionId": null,
        "streetTypeId": "CRES",
        "placeName": "BRAMPTON",
        "streetNameDisplayText": "ROCKY POINT CRES, BRAMPTON"
      }
    ]
  },
  {
    "postal": "L6V5P9",
    "result": []
  },
  {
    "postal": "L6V8N4",
    "result": []
  },
  {
    "postal": "L6V8H4",
    "result": []
  },
  {
    "postal": "L6V4V1",
    "result": []
  },
  {
    "postal": "L6V1K5",
    "result": [
      {
        "electoralDistricts": [
          {
            "election": null,
            "id": 11,
            "name": "Brampton South"
          }
        ],
        "pollDivisionIds": [
          10137120
        ],
        "postalCode": "L6V1K5",
        "streetName": "WOODWARD",
        "streetDirectionId": null,
        "streetTypeId": "AVE",
        "placeName": "BRAMPTON",
        "streetNameDisplayText": "WOODWARD AVE, BRAMPTON"
      }
    ]
  },
  {
    "postal": "L6V1Z5",
    "result": [
      {
        "electoralDistricts": [
          {
            "election": null,
            "id": 8,
            "name": "Brampton Centre"
          }
        ],
        "pollDivisionIds": [
          10111330
        ],
        "postalCode": "L6V1Z5",
        "streetName": "ARCHDEKIN",
        "streetDirectionId": null,
        "streetTypeId": "DR",
        "placeName": "BRAMPTON",
        "streetNameDisplayText": "ARCHDEKIN DR, BRAMPTON"
      }
    ]
  },
  {
    "postal": "L6V9L9",
    "result": []
  },
  {
    "postal": "L6V5L2",
    "result": []
  },
  {
    "postal": "L6V0M2",
    "result": []
  },
  {
    "postal": "L6V1K8",
    "result": [
      {
        "electoralDistricts": [
          {
            "election": null,
            "id": 11,
            "name": "Brampton South"
          }
        ],
        "pollDivisionIds": [
          10137119
        ],
        "postalCode": "L6V1K8",
        "streetName": "BIRD",
        "streetDirectionId": null,
        "streetTypeId": "AVE",
        "placeName": "BRAMPTON",
        "streetNameDisplayText": "BIRD AVE, BRAMPTON"
      }
    ]
  },
  {
    "postal": "L6V3M7",
    "result": [
      {
        "electoralDistricts": [
          {
            "election": null,
            "id": 8,
            "name": "Brampton Centre"
          }
        ],
        "pollDivisionIds": [
          10111325
        ],
        "postalCode": "L6V3M7",
        "streetName": "FOSTER",
        "streetDirectionId": null,
        "streetTypeId": "CRES",
        "placeName": "BRAMPTON",
        "streetNameDisplayText": "FOSTER CRES, BRAMPTON"
      }
    ]
  },
  {
    "postal": "L6V1B2",
    "result": [
      {
        "electoralDistricts": [
          {
            "election": null,
            "id": 11,
            "name": "Brampton South"
          }
        ],
        "pollDivisionIds": [
          10137120
        ],
        "postalCode": "L6V1B2",
        "streetName": "QUEEN",
        "streetDirectionId": "E",
        "streetTypeId": "ST",
        "placeName": "BRAMPTON",
        "streetNameDisplayText": "QUEEN ST E, BRAMPTON"
      }
    ]
  },
  {
    "postal": "L6V0H9",
    "result": []
  },
  {
    "postal": "L6V8M4",
    "result": []
  },
  {
    "postal": "L6V2M5",
    "result": []
  },
  {
    "postal": "L6V0T9",
    "result": []
  },
  {
    "postal": "L6V3P1",
    "result": [
      {
        "electoralDistricts": [
          {
            "election": null,
            "id": 8,
            "name": "Brampton Centre"
          }
        ],
        "pollDivisionIds": [
          10137070
        ],
        "postalCode": "L6V3P1",
        "streetName": "ASTER",
        "streetDirectionId": null,
        "streetTypeId": "CRT",
        "placeName": "BRAMPTON",
        "streetNameDisplayText": "ASTER CRT, BRAMPTON"
      }
    ]
  },
  {
    "postal": "L6V1R6",
    "result": [
      {
        "electoralDistricts": [
          {
            "election": null,
            "id": 11,
            "name": "Brampton South"
          }
        ],
        "pollDivisionIds": [
          10137120
        ],
        "postalCode": "L6V1R6",
        "streetName": "UNION",
        "streetDirectionId": null,
        "streetTypeId": "ST",
        "placeName": "BRAMPTON",
        "streetNameDisplayText": "UNION ST, BRAMPTON"
      }
    ]
  },
  {
    "postal": "L6V9V5",
    "result": []
  },
  {
    "postal": "L6V9T0",
    "result": []
  },
  {
    "postal": "L6V0A9",
    "result": []
  },
  {
    "postal": "L6V1M3",
    "result": []
  },
  {
    "postal": "L6V1W8",
    "result": [
      {
        "electoralDistricts": [
          {
            "election": null,
            "id": 11,
            "name": "Brampton South"
          }
        ],
        "pollDivisionIds": [
          10137120
        ],
        "postalCode": "L6V1W8",
        "streetName": "BRISCO",
        "streetDirectionId": null,
        "streetTypeId": "ST",
        "placeName": "BRAMPTON",
        "streetNameDisplayText": "BRISCO ST, BRAMPTON"
      }
    ]
  },
  {
    "postal": "L6V9J1",
    "result": []
  },
  {
    "postal": "L6V8N5",
    "result": []
  },
  {
    "postal": "L6V5X1",
    "result": []
  },
  {
    "postal": "L6V6S2",
    "result": []
  },
  {
    "postal": "L6V2A2",
    "result": [
      {
        "electoralDistricts": [
          {
            "election": null,
            "id": 8,
            "name": "Brampton Centre"
          }
        ],
        "pollDivisionIds": [
          10137072
        ],
        "postalCode": "L6V2A2",
        "streetName": "MADOC",
        "streetDirectionId": null,
        "streetTypeId": "DR",
        "placeName": "BRAMPTON",
        "streetNameDisplayText": "MADOC DR, BRAMPTON"
      }
    ]
  },
  {
    "postal": "L6V6A6",
    "result": []
  },
  {
    "postal": "L6V0S3",
    "result": []
  },
  {
    "postal": "L6V3E7",
    "result": [
      {
        "electoralDistricts": [
          {
            "election": null,
            "id": 8,
            "name": "Brampton Centre"
          }
        ],
        "pollDivisionIds": [
          10137072
        ],
        "postalCode": "L6V3E7",
        "streetName": "KENNEDY",
        "streetDirectionId": "N",
        "streetTypeId": "RD",
        "placeName": "BRAMPTON",
        "streetNameDisplayText": "KENNEDY RD N, BRAMPTON"
      }
    ]
  },
  {
    "postal": "L6V5R7",
    "result": []
  },
  {
    "postal": "L6V3R6",
    "result": [
      {
        "electoralDistricts": [
          {
            "election": null,
            "id": 8,
            "name": "Brampton Centre"
          }
        ],
        "pollDivisionIds": [
          10137070
        ],
        "postalCode": "L6V3R6",
        "streetName": "RUSTHALL",
        "streetDirectionId": null,
        "streetTypeId": "WAY",
        "placeName": "BRAMPTON",
        "streetNameDisplayText": "RUSTHALL WAY, BRAMPTON"
      }
    ]
  },
  {
    "postal": "L6V6K4",
    "result": []
  },
  {
    "postal": "L6V2W5",
    "result": [
      {
        "electoralDistricts": [
          {
            "election": null,
            "id": 8,
            "name": "Brampton Centre"
          }
        ],
        "pollDivisionIds": [
          10111330
        ],
        "postalCode": "L6V2W5",
        "streetName": "KIRKLAND",
        "streetDirectionId": null,
        "streetTypeId": "RD",
        "placeName": "BRAMPTON",
        "streetNameDisplayText": "KIRKLAND RD, BRAMPTON"
      }
    ]
  },
  {
    "postal": "L6V8W4",
    "result": []
  },
  {
    "postal": "L6V9C2",
    "result": []
  },
  {
    "postal": "L6V2C0",
    "result": []
  },
  {
    "postal": "L6V0E1",
    "result": []
  },
  {
    "postal": "L6V1K9",
    "result": [
      {
        "electoralDistricts": [
          {
            "election": null,
            "id": 11,
            "name": "Brampton South"
          }
        ],
        "pollDivisionIds": [
          10137120
        ],
        "postalCode": "L6V1K9",
        "streetName": "EDGEMONT",
        "streetDirectionId": null,
        "streetTypeId": "DR",
        "placeName": "BRAMPTON",
        "streetNameDisplayText": "EDGEMONT DR, BRAMPTON"
      }
    ]
  },
  {
    "postal": "L6V1G7",
    "result": [
      {
        "electoralDistricts": [
          {
            "election": null,
            "id": 11,
            "name": "Brampton South"
          }
        ],
        "pollDivisionIds": [
          10137120
        ],
        "postalCode": "L6V1G7",
        "streetName": "CHURCH",
        "streetDirectionId": "E",
        "streetTypeId": "ST",
        "placeName": "BRAMPTON",
        "streetNameDisplayText": "CHURCH ST E, BRAMPTON"
      }
    ]
  },
  {
    "postal": "L6V4E9",
    "result": [
      {
        "electoralDistricts": [
          {
            "election": null,
            "id": 8,
            "name": "Brampton Centre"
          }
        ],
        "pollDivisionIds": [
          10111325
        ],
        "postalCode": "L6V4E9",
        "streetName": "WILDERCROFT",
        "streetDirectionId": null,
        "streetTypeId": "AVE",
        "placeName": "BRAMPTON",
        "streetNameDisplayText": "WILDERCROFT AVE, BRAMPTON"
      }
    ]
  },
  {
    "postal": "L6V9P0",
    "result": []
  },
  {
    "postal": "L6V5H3",
    "result": []
  },
  {
    "postal": "L6V9X6",
    "result": []
  },
  {
    "postal": "L6V5N7",
    "result": []
  },
  {
    "postal": "L6V5A6",
    "result": []
  },
  {
    "postal": "L6V4M0",
    "result": []
  },
  {
    "postal": "L6V3V6",
    "result": [
      {
        "electoralDistricts": [
          {
            "election": null,
            "id": 8,
            "name": "Brampton Centre"
          }
        ],
        "pollDivisionIds": [
          10137070
        ],
        "postalCode": "L6V3V6",
        "streetName": "SIMMONS",
        "streetDirectionId": null,
        "streetTypeId": "BLVD",
        "placeName": "BRAMPTON",
        "streetNameDisplayText": "SIMMONS BLVD, BRAMPTON"
      }
    ]
  },
  {
    "postal": "L6V1L7",
    "result": [
      {
        "electoralDistricts": [
          {
            "election": null,
            "id": 11,
            "name": "Brampton South"
          }
        ],
        "pollDivisionIds": [
          10137120
        ],
        "postalCode": "L6V1L7",
        "streetName": "MCCULLA",
        "streetDirectionId": null,
        "streetTypeId": "AVE",
        "placeName": "BRAMPTON",
        "streetNameDisplayText": "MCCULLA AVE, BRAMPTON"
      }
    ]
  },
  {
    "postal": "L6V2P9",
    "result": [
      {
        "electoralDistricts": [
          {
            "election": null,
            "id": 8,
            "name": "Brampton Centre"
          }
        ],
        "pollDivisionIds": [
          10137071
        ],
        "postalCode": "L6V2P9",
        "streetName": "TOLTON",
        "streetDirectionId": null,
        "streetTypeId": "DR",
        "placeName": "BRAMPTON",
        "streetNameDisplayText": "TOLTON DR, BRAMPTON"
      }
    ]
  },
  {
    "postal": "L6V5T4",
    "result": []
  },
  {
    "postal": "L6V5Z1",
    "result": []
  },
  {
    "postal": "L6V2X0",
    "result": []
  },
  {
    "postal": "L6V6Z2",
    "result": []
  },
  {
    "postal": "L6V0E0",
    "result": []
  },
  {
    "postal": "L6V3Z5",
    "result": []
  },
  {
    "postal": "L6V8H3",
    "result": []
  },
  {
    "postal": "L6V7S6",
    "result": []
  },
  {
    "postal": "L6V4C1",
    "result": [
      {
        "electoralDistricts": [
          {
            "election": null,
            "id": 11,
            "name": "Brampton South"
          }
        ],
        "pollDivisionIds": [
          10137119
        ],
        "postalCode": "L6V4C1",
        "streetName": "MARA",
        "streetDirectionId": null,
        "streetTypeId": "CRES",
        "placeName": "BRAMPTON",
        "streetNameDisplayText": "MARA CRES, BRAMPTON"
      }
    ]
  },
  {
    "postal": "L6V3K2",
    "result": [
      {
        "electoralDistricts": [
          {
            "election": null,
            "id": 8,
            "name": "Brampton Centre"
          }
        ],
        "pollDivisionIds": [
          10111330
        ],
        "postalCode": "L6V3K2",
        "streetName": "MAJOR OAKS",
        "streetDirectionId": null,
        "streetTypeId": "DR",
        "placeName": "BRAMPTON",
        "streetNameDisplayText": "MAJOR OAKS DR, BRAMPTON"
      }
    ]
  },
  {
    "postal": "L6V1Y5",
    "result": [
      {
        "electoralDistricts": [
          {
            "election": null,
            "id": 8,
            "name": "Brampton Centre"
          }
        ],
        "pollDivisionIds": [
          10111332
        ],
        "postalCode": "L6V1Y5",
        "streetName": "ARCHDEKIN",
        "streetDirectionId": null,
        "streetTypeId": "DR",
        "placeName": "BRAMPTON",
        "streetNameDisplayText": "ARCHDEKIN DR, BRAMPTON"
      }
    ]
  },
  {
    "postal": "L6V6P6",
    "result": []
  },
  {
    "postal": "L6V3N9",
    "result": [
      {
        "electoralDistricts": [
          {
            "election": null,
            "id": 8,
            "name": "Brampton Centre"
          }
        ],
        "pollDivisionIds": [
          10137070
        ],
        "postalCode": "L6V3N9",
        "streetName": "ASHURST",
        "streetDirectionId": null,
        "streetTypeId": "CRES",
        "placeName": "BRAMPTON",
        "streetNameDisplayText": "ASHURST CRES, BRAMPTON"
      }
    ]
  },
  {
    "postal": "L6V3W2",
    "result": [
      {
        "electoralDistricts": [
          {
            "election": null,
            "id": 8,
            "name": "Brampton Centre"
          }
        ],
        "pollDivisionIds": [
          10137070
        ],
        "postalCode": "L6V3W2",
        "streetName": "WEYBRIDGE",
        "streetDirectionId": null,
        "streetTypeId": "TRAIL",
        "placeName": "BRAMPTON",
        "streetNameDisplayText": "WEYBRIDGE TRAIL, BRAMPTON"
      }
    ]
  },
  {
    "postal": "L6V6H8",
    "result": []
  },
  {
    "postal": "L6V9T3",
    "result": []
  },
  {
    "postal": "L6V5L9",
    "result": []
  },
  {
    "postal": "L6V7X7",
    "result": []
  },
  {
    "postal": "L6V3J5",
    "result": [
      {
        "electoralDistricts": [
          {
            "election": null,
            "id": 8,
            "name": "Brampton Centre"
          }
        ],
        "pollDivisionIds": [
          10111330
        ],
        "postalCode": "L6V3J5",
        "streetName": "ROYAL SALISBURY",
        "streetDirectionId": null,
        "streetTypeId": "WAY",
        "placeName": "BRAMPTON",
        "streetNameDisplayText": "ROYAL SALISBURY WAY, BRAMPTON"
      }
    ]
  },
  {
    "postal": "L6V4J5",
    "result": []
  },
  {
    "postal": "L6V6J2",
    "result": []
  },
  {
    "postal": "L6V5V6",
    "result": []
  },
  {
    "postal": "L6V3N2",
    "result": []
  },
  {
    "postal": "L6V3B1",
    "result": []
  },
  {
    "postal": "L6V8B5",
    "result": []
  },
  {
    "postal": "L6V0K1",
    "result": []
  },
  {
    "postal": "L6V7M7",
    "result": []
  },
  {
    "postal": "L6V2M2",
    "result": []
  },
  {
    "postal": "L6V9N3",
    "result": []
  },
  {
    "postal": "L6V4Y8",
    "result": []
  },
  {
    "postal": "L6V3V7",
    "result": [
      {
        "electoralDistricts": [
          {
            "election": null,
            "id": 8,
            "name": "Brampton Centre"
          }
        ],
        "pollDivisionIds": [
          10137070
        ],
        "postalCode": "L6V3V7",
        "streetName": "FOXACRE",
        "streetDirectionId": null,
        "streetTypeId": "ROW",
        "placeName": "BRAMPTON",
        "streetNameDisplayText": "FOXACRE ROW, BRAMPTON"
      }
    ]
  },
  {
    "postal": "L6V8Z1",
    "result": []
  },
  {
    "postal": "L6V7B3",
    "result": []
  },
  {
    "postal": "L6V3A8",
    "result": [
      {
        "electoralDistricts": [
          {
            "election": null,
            "id": 8,
            "name": "Brampton Centre"
          }
        ],
        "pollDivisionIds": [
          10137071
        ],
        "postalCode": "L6V3A8",
        "streetName": "PROUSE",
        "streetDirectionId": null,
        "streetTypeId": "DR",
        "placeName": "BRAMPTON",
        "streetNameDisplayText": "PROUSE DR, BRAMPTON"
      }
    ]
  },
  {
    "postal": "L6V7V5",
    "result": []
  },
  {
    "postal": "L6V2T2",
    "result": [
      {
        "electoralDistricts": [
          {
            "election": null,
            "id": 8,
            "name": "Brampton Centre"
          }
        ],
        "pollDivisionIds": [
          10111330
        ],
        "postalCode": "L6V2T2",
        "streetName": "LARKFIELD",
        "streetDirectionId": null,
        "streetTypeId": "RD",
        "placeName": "BRAMPTON",
        "streetNameDisplayText": "LARKFIELD RD, BRAMPTON"
      }
    ]
  },
  {
    "postal": "L6V6L3",
    "result": []
  },
  {
    "postal": "L6V0L2",
    "result": []
  },
  {
    "postal": "L6V5Y8",
    "result": []
  },
  {
    "postal": "L6V0B8",
    "result": []
  },
  {
    "postal": "L6V6R5",
    "result": []
  },
  {
    "postal": "L6V8W6",
    "result": []
  },
  {
    "postal": "L6V8G6",
    "result": []
  },
  {
    "postal": "L6V6X3",
    "result": []
  },
  {
    "postal": "L6V7R7",
    "result": []
  },
  {
    "postal": "L6V4B6",
    "result": [
      {
        "electoralDistricts": [
          {
            "election": null,
            "id": 11,
            "name": "Brampton South"
          }
        ],
        "pollDivisionIds": [
          10137119
        ],
        "postalCode": "L6V4B6",
        "streetName": "SPROULE",
        "streetDirectionId": null,
        "streetTypeId": "DR",
        "placeName": "BRAMPTON",
        "streetNameDisplayText": "SPROULE DR, BRAMPTON"
      }
    ]
  },
  {
    "postal": "L6V3P9",
    "result": [
      {
        "electoralDistricts": [
          {
            "election": null,
            "id": 8,
            "name": "Brampton Centre"
          }
        ],
        "pollDivisionIds": [
          10137070
        ],
        "postalCode": "L6V3P9",
        "streetName": "HISTON",
        "streetDirectionId": null,
        "streetTypeId": "CRES",
        "placeName": "BRAMPTON",
        "streetNameDisplayText": "HISTON CRES, BRAMPTON"
      }
    ]
  },
  {
    "postal": "L6V2T3",
    "result": [
      {
        "electoralDistricts": [
          {
            "election": null,
            "id": 8,
            "name": "Brampton Centre"
          }
        ],
        "pollDivisionIds": [
          10111330
        ],
        "postalCode": "L6V2T3",
        "streetName": "LARKFIELD",
        "streetDirectionId": null,
        "streetTypeId": "RD",
        "placeName": "BRAMPTON",
        "streetNameDisplayText": "LARKFIELD RD, BRAMPTON"
      }
    ]
  },
  {
    "postal": "L6V1M4",
    "result": [
      {
        "electoralDistricts": [
          {
            "election": null,
            "id": 11,
            "name": "Brampton South"
          }
        ],
        "pollDivisionIds": [
          10137120
        ],
        "postalCode": "L6V1M4",
        "streetName": "VODDEN",
        "streetDirectionId": "E",
        "streetTypeId": "ST",
        "placeName": "BRAMPTON",
        "streetNameDisplayText": "VODDEN ST E, BRAMPTON"
      }
    ]
  },
  {
    "postal": "L6V0H1",
    "result": []
  },
  {
    "postal": "L6V9W3",
    "result": []
  },
  {
    "postal": "L6V6P1",
    "result": []
  },
  {
    "postal": "L6V7G2",
    "result": []
  },
  {
    "postal": "L6V4J9",
    "result": [
      {
        "electoralDistricts": [
          {
            "election": null,
            "id": 8,
            "name": "Brampton Centre"
          }
        ],
        "pollDivisionIds": [
          10111325
        ],
        "postalCode": "L6V4J9",
        "streetName": "VALONIA",
        "streetDirectionId": null,
        "streetTypeId": "DR",
        "placeName": "BRAMPTON",
        "streetNameDisplayText": "VALONIA DR, BRAMPTON"
      }
    ]
  },
  {
    "postal": "L6V9E4",
    "result": []
  },
  {
    "postal": "L6V8H0",
    "result": []
  },
  {
    "postal": "L6V4M7",
    "result": [
      {
        "electoralDistricts": [
          {
            "election": null,
            "id": 8,
            "name": "Brampton Centre"
          }
        ],
        "pollDivisionIds": [
          10111324
        ],
        "postalCode": "L6V4M7",
        "streetName": "CLAY BRICK",
        "streetDirectionId": null,
        "streetTypeId": "CRT",
        "placeName": "BRAMPTON",
        "streetNameDisplayText": "CLAY BRICK CRT, BRAMPTON"
      }
    ]
  },
  {
    "postal": "L6V2G9",
    "result": [
      {
        "electoralDistricts": [
          {
            "election": null,
            "id": 8,
            "name": "Brampton Centre"
          }
        ],
        "pollDivisionIds": [
          10137072
        ],
        "postalCode": "L6V2G9",
        "streetName": "TINDALE",
        "streetDirectionId": null,
        "streetTypeId": "RD",
        "placeName": "BRAMPTON",
        "streetNameDisplayText": "TINDALE RD, BRAMPTON"
      }
    ]
  },
  {
    "postal": "L6V8T2",
    "result": []
  },
  {
    "postal": "L6V7G7",
    "result": []
  },
  {
    "postal": "L6V4Z3",
    "result": []
  },
  {
    "postal": "L6V5B3",
    "result": []
  },
  {
    "postal": "L6V1S7",
    "result": [
      {
        "electoralDistricts": [
          {
            "election": null,
            "id": 11,
            "name": "Brampton South"
          }
        ],
        "pollDivisionIds": [
          10137120
        ],
        "postalCode": "L6V1S7",
        "streetName": "CENTRE",
        "streetDirectionId": "N",
        "streetTypeId": "ST",
        "placeName": "BRAMPTON",
        "streetNameDisplayText": "CENTRE ST N, BRAMPTON"
      }
    ]
  },
  {
    "postal": "L6V2N7",
    "result": []
  },
  {
    "postal": "L6V0H8",
    "result": []
  },
  {
    "postal": "L6V7Z4",
    "result": []
  },
  {
    "postal": "L6V7B1",
    "result": []
  },
  {
    "postal": "L6V7P8",
    "result": []
  },
  {
    "postal": "L6V7N0",
    "result": []
  },
  {
    "postal": "L6V3Y5",
    "result": [
      {
        "electoralDistricts": [
          {
            "election": null,
            "id": 8,
            "name": "Brampton Centre"
          }
        ],
        "pollDivisionIds": [
          10137070
        ],
        "postalCode": "L6V3Y5",
        "streetName": "LANGSTON",
        "streetDirectionId": null,
        "streetTypeId": "DR",
        "placeName": "BRAMPTON",
        "streetNameDisplayText": "LANGSTON DR, BRAMPTON"
      }
    ]
  },
  {
    "postal": "L6V6K1",
    "result": []
  },
  {
    "postal": "L6V9X5",
    "result": []
  },
  {
    "postal": "L6V7S5",
    "result": []
  },
  {
    "postal": "L6V0A4",
    "result": [
      {
        "electoralDistricts": [
          {
            "election": null,
            "id": 11,
            "name": "Brampton South"
          }
        ],
        "pollDivisionIds": [
          10137143
        ],
        "postalCode": "L6V0A4",
        "streetName": "KEN WHILLANS",
        "streetDirectionId": null,
        "streetTypeId": "DR",
        "placeName": "BRAMPTON",
        "streetNameDisplayText": "KEN WHILLANS DR, BRAMPTON"
      }
    ]
  },
  {
    "postal": "L6V4T5",
    "result": [
      {
        "electoralDistricts": [
          {
            "election": null,
            "id": 8,
            "name": "Brampton Centre"
          }
        ],
        "pollDivisionIds": [
          10137070,
          10111327
        ],
        "postalCode": "L6V4T5",
        "streetName": "TOBERMORY",
        "streetDirectionId": null,
        "streetTypeId": "CRES",
        "placeName": "BRAMPTON",
        "streetNameDisplayText": "TOBERMORY CRES, BRAMPTON"
      }
    ]
  },
  {
    "postal": "L6V5K1",
    "result": []
  },
  {
    "postal": "L6V0Z9",
    "result": []
  },
  {
    "postal": "L6V7T2",
    "result": []
  },
  {
    "postal": "L6V1L5",
    "result": []
  },
  {
    "postal": "L6V3N5",
    "result": [
      {
        "electoralDistricts": [
          {
            "election": null,
            "id": 8,
            "name": "Brampton Centre"
          }
        ],
        "pollDivisionIds": [
          10111329
        ],
        "postalCode": "L6V3N5",
        "streetName": "CARTER",
        "streetDirectionId": null,
        "streetTypeId": "DR",
        "placeName": "BRAMPTON",
        "streetNameDisplayText": "CARTER DR, BRAMPTON"
      }
    ]
  },
  {
    "postal": "L6V6H4",
    "result": []
  },
  {
    "postal": "L6V5A5",
    "result": []
  },
  {
    "postal": "L6V3R9",
    "result": [
      {
        "electoralDistricts": [
          {
            "election": null,
            "id": 8,
            "name": "Brampton Centre"
          }
        ],
        "pollDivisionIds": [
          10137070
        ],
        "postalCode": "L6V3R9",
        "streetName": "RUTHERFORD",
        "streetDirectionId": "N",
        "streetTypeId": "RD",
        "placeName": "BRAMPTON",
        "streetNameDisplayText": "RUTHERFORD RD N, BRAMPTON"
      }
    ]
  },
  {
    "postal": "L6V7L8",
    "result": []
  },
  {
    "postal": "L6V6T6",
    "result": []
  },
  {
    "postal": "L6V7Y7",
    "result": []
  },
  {
    "postal": "L6V3M8",
    "result": [
      {
        "electoralDistricts": [
          {
            "election": null,
            "id": 8,
            "name": "Brampton Centre"
          }
        ],
        "pollDivisionIds": [
          10111325
        ],
        "postalCode": "L6V3M8",
        "streetName": "FOSTER",
        "streetDirectionId": null,
        "streetTypeId": "CRES",
        "placeName": "BRAMPTON",
        "streetNameDisplayText": "FOSTER CRES, BRAMPTON"
      }
    ]
  },
  {
    "postal": "L6V2E0",
    "result": []
  },
  {
    "postal": "L6V4B5",
    "result": [
      {
        "electoralDistricts": [
          {
            "election": null,
            "id": 11,
            "name": "Brampton South"
          }
        ],
        "pollDivisionIds": [
          10137119
        ],
        "postalCode": "L6V4B5",
        "streetName": "SPROULE",
        "streetDirectionId": null,
        "streetTypeId": "DR",
        "placeName": "BRAMPTON",
        "streetNameDisplayText": "SPROULE DR, BRAMPTON"
      }
    ]
  },
  {
    "postal": "L6V1J3",
    "result": [
      {
        "electoralDistricts": [
          {
            "election": null,
            "id": 11,
            "name": "Brampton South"
          }
        ],
        "pollDivisionIds": [
          10137120
        ],
        "postalCode": "L6V1J3",
        "streetName": "MCCAUL",
        "streetDirectionId": null,
        "streetTypeId": "ST",
        "placeName": "BRAMPTON",
        "streetNameDisplayText": "MCCAUL ST, BRAMPTON"
      }
    ]
  },
  {
    "postal": "L6V5S6",
    "result": []
  },
  {
    "postal": "L6V8P7",
    "result": []
  },
  {
    "postal": "L6V7S7",
    "result": []
  },
  {
    "postal": "L6V4C2",
    "result": [
      {
        "electoralDistricts": [
          {
            "election": null,
            "id": 11,
            "name": "Brampton South"
          }
        ],
        "pollDivisionIds": [
          10137119
        ],
        "postalCode": "L6V4C2",
        "streetName": "MARA",
        "streetDirectionId": null,
        "streetTypeId": "CRES",
        "placeName": "BRAMPTON",
        "streetNameDisplayText": "MARA CRES, BRAMPTON"
      }
    ]
  },
  {
    "postal": "L6V5Y0",
    "result": []
  },
  {
    "postal": "L6V2V7",
    "result": [
      {
        "electoralDistricts": [
          {
            "election": null,
            "id": 8,
            "name": "Brampton Centre"
          }
        ],
        "pollDivisionIds": [
          10111329
        ],
        "postalCode": "L6V2V7",
        "streetName": "VODDEN",
        "streetDirectionId": null,
        "streetTypeId": "CRT",
        "placeName": "BRAMPTON",
        "streetNameDisplayText": "VODDEN CRT, BRAMPTON"
      }
    ]
  },
  {
    "postal": "L6V8P5",
    "result": []
  },
  {
    "postal": "L6V5P5",
    "result": []
  },
  {
    "postal": "L6V5Z0",
    "result": []
  },
  {
    "postal": "L6V9B0",
    "result": []
  },
  {
    "postal": "L6V1L0",
    "result": []
  },
  {
    "postal": "L6V0B5",
    "result": []
  },
  {
    "postal": "L6V3L2",
    "result": [
      {
        "electoralDistricts": [
          {
            "election": null,
            "id": 8,
            "name": "Brampton Centre"
          }
        ],
        "pollDivisionIds": [
          10111330
        ],
        "postalCode": "L6V3L2",
        "streetName": "BRAMHALL",
        "streetDirectionId": null,
        "streetTypeId": "CRT",
        "placeName": "BRAMPTON",
        "streetNameDisplayText": "BRAMHALL CRT, BRAMPTON"
      }
    ]
  },
  {
    "postal": "L6V3B7",
    "result": []
  },
  {
    "postal": "L6V8L1",
    "result": []
  },
  {
    "postal": "L6V5M4",
    "result": []
  },
  {
    "postal": "L6V4G9",
    "result": [
      {
        "electoralDistricts": [
          {
            "election": null,
            "id": 8,
            "name": "Brampton Centre"
          }
        ],
        "pollDivisionIds": [
          10111325
        ],
        "postalCode": "L6V4G9",
        "streetName": "ALABASTER",
        "streetDirectionId": null,
        "streetTypeId": "DR",
        "placeName": "BRAMPTON",
        "streetNameDisplayText": "ALABASTER DR, BRAMPTON"
      },
      {
        "electoralDistricts": [
          {
            "election": null,
            "id": 8,
            "name": "Brampton Centre"
          }
        ],
        "pollDivisionIds": [
          10111325
        ],
        "postalCode": "L6V4G9",
        "streetName": "BROOKMEAD",
        "streetDirectionId": null,
        "streetTypeId": "GATE",
        "placeName": "BRAMPTON",
        "streetNameDisplayText": "BROOKMEAD GATE, BRAMPTON"
      }
    ]
  },
  {
    "postal": "L6V0P0",
    "result": []
  },
  {
    "postal": "L6V8G2",
    "result": []
  },
  {
    "postal": "L6V1V9",
    "result": [
      {
        "electoralDistricts": [
          {
            "election": null,
            "id": 11,
            "name": "Brampton South"
          }
        ],
        "pollDivisionIds": [
          10143920
        ],
        "postalCode": "L6V1V9",
        "streetName": "BINSELL",
        "streetDirectionId": null,
        "streetTypeId": "AVE",
        "placeName": "BRAMPTON",
        "streetNameDisplayText": "BINSELL AVE, BRAMPTON"
      }
    ]
  },
  {
    "postal": "L6V8N8",
    "result": []
  },
  {
    "postal": "L6V6S8",
    "result": []
  },
  {
    "postal": "L6V8H2",
    "result": []
  },
  {
    "postal": "L6V5R8",
    "result": []
  },
  {
    "postal": "L6V5L4",
    "result": []
  },
  {
    "postal": "L6V9E1",
    "result": []
  },
  {
    "postal": "L6V1C4",
    "result": [
      {
        "electoralDistricts": [
          {
            "election": null,
            "id": 8,
            "name": "Brampton Centre"
          }
        ],
        "pollDivisionIds": [
          10111332
        ],
        "postalCode": "L6V1C4",
        "streetName": "QUEEN",
        "streetDirectionId": "E",
        "streetTypeId": "ST",
        "placeName": "BRAMPTON",
        "streetNameDisplayText": "QUEEN ST E, BRAMPTON"
      }
    ]
  },
  {
    "postal": "L6V8W5",
    "result": []
  },
  {
    "postal": "L6V1Y4",
    "result": [
      {
        "electoralDistricts": [
          {
            "election": null,
            "id": 8,
            "name": "Brampton Centre"
          }
        ],
        "pollDivisionIds": [
          10111332
        ],
        "postalCode": "L6V1Y4",
        "streetName": "ARCHDEKIN",
        "streetDirectionId": null,
        "streetTypeId": "DR",
        "placeName": "BRAMPTON",
        "streetNameDisplayText": "ARCHDEKIN DR, BRAMPTON"
      }
    ]
  },
  {
    "postal": "L6V1C0",
    "result": []
  },
  {
    "postal": "L6V2J2",
    "result": [
      {
        "electoralDistricts": [
          {
            "election": null,
            "id": 8,
            "name": "Brampton Centre"
          }
        ],
        "pollDivisionIds": [
          10137072
        ],
        "postalCode": "L6V2J2",
        "streetName": "RUTHERFORD",
        "streetDirectionId": "N",
        "streetTypeId": "RD",
        "placeName": "BRAMPTON",
        "streetNameDisplayText": "RUTHERFORD RD N, BRAMPTON"
      }
    ]
  },
  {
    "postal": "L6V2J0",
    "result": []
  },
  {
    "postal": "L6V7A3",
    "result": []
  },
  {
    "postal": "L6V8M1",
    "result": []
  },
  {
    "postal": "L6V7T9",
    "result": []
  },
  {
    "postal": "L6V6C0",
    "result": []
  },
  {
    "postal": "L6V7X1",
    "result": []
  },
  {
    "postal": "L6V0G1",
    "result": []
  },
  {
    "postal": "L6V4X2",
    "result": []
  },
  {
    "postal": "L6V0N6",
    "result": []
  },
  {
    "postal": "L6V8E3",
    "result": []
  },
  {
    "postal": "L6V5S8",
    "result": []
  },
  {
    "postal": "L6V0R0",
    "result": []
  },
  {
    "postal": "L6V6J6",
    "result": []
  },
  {
    "postal": "L6V4B4",
    "result": [
      {
        "electoralDistricts": [
          {
            "election": null,
            "id": 11,
            "name": "Brampton South"
          }
        ],
        "pollDivisionIds": [
          10137119
        ],
        "postalCode": "L6V4B4",
        "streetName": "SPROULE",
        "streetDirectionId": null,
        "streetTypeId": "DR",
        "placeName": "BRAMPTON",
        "streetNameDisplayText": "SPROULE DR, BRAMPTON"
      }
    ]
  },
  {
    "postal": "L6V7E3",
    "result": []
  },
  {
    "postal": "L6V3N6",
    "result": [
      {
        "electoralDistricts": [
          {
            "election": null,
            "id": 8,
            "name": "Brampton Centre"
          }
        ],
        "pollDivisionIds": [
          10137070
        ],
        "postalCode": "L6V3N6",
        "streetName": "ASHURST",
        "streetDirectionId": null,
        "streetTypeId": "CRES",
        "placeName": "BRAMPTON",
        "streetNameDisplayText": "ASHURST CRES, BRAMPTON"
      }
    ]
  },
  {
    "postal": "L6V3X6",
    "result": [
      {
        "electoralDistricts": [
          {
            "election": null,
            "id": 8,
            "name": "Brampton Centre"
          }
        ],
        "pollDivisionIds": [
          10137070
        ],
        "postalCode": "L6V3X6",
        "streetName": "SATURN",
        "streetDirectionId": null,
        "streetTypeId": "DR",
        "placeName": "BRAMPTON",
        "streetNameDisplayText": "SATURN DR, BRAMPTON"
      }
    ]
  },
  {
    "postal": "L6V8L0",
    "result": []
  },
  {
    "postal": "L6V8N1",
    "result": []
  },
  {
    "postal": "L6V4J0",
    "result": []
  },
  {
    "postal": "L6V0X7",
    "result": []
  },
  {
    "postal": "L6V6S4",
    "result": []
  },
  {
    "postal": "L6V0Z0",
    "result": []
  },
  {
    "postal": "L6V9X8",
    "result": []
  },
  {
    "postal": "L6V3H3",
    "result": [
      {
        "electoralDistricts": [
          {
            "election": null,
            "id": 8,
            "name": "Brampton Centre"
          }
        ],
        "pollDivisionIds": [
          10111332
        ],
        "postalCode": "L6V3H3",
        "streetName": "ROBWILL",
        "streetDirectionId": null,
        "streetTypeId": "CRT",
        "placeName": "BRAMPTON",
        "streetNameDisplayText": "ROBWILL CRT, BRAMPTON"
      }
    ]
  },
  {
    "postal": "L6V7S2",
    "result": []
  },
  {
    "postal": "L6V3T3",
    "result": [
      {
        "electoralDistricts": [
          {
            "election": null,
            "id": 8,
            "name": "Brampton Centre"
          }
        ],
        "pollDivisionIds": [
          10137070
        ],
        "postalCode": "L6V3T3",
        "streetName": "WINTERFOLD",
        "streetDirectionId": null,
        "streetTypeId": "DR",
        "placeName": "BRAMPTON",
        "streetNameDisplayText": "WINTERFOLD DR, BRAMPTON"
      }
    ]
  },
  {
    "postal": "L6V9P3",
    "result": []
  },
  {
    "postal": "L6V4H8",
    "result": []
  },
  {
    "postal": "L6V6R1",
    "result": []
  },
  {
    "postal": "L6V1S0",
    "result": []
  },
  {
    "postal": "L6V3W8",
    "result": [
      {
        "electoralDistricts": [
          {
            "election": null,
            "id": 8,
            "name": "Brampton Centre"
          }
        ],
        "pollDivisionIds": [
          10137070
        ],
        "postalCode": "L6V3W8",
        "streetName": "THORSON",
        "streetDirectionId": null,
        "streetTypeId": "GATE",
        "placeName": "BRAMPTON",
        "streetNameDisplayText": "THORSON GATE, BRAMPTON"
      }
    ]
  },
  {
    "postal": "L6V4S3",
    "result": [
      {
        "electoralDistricts": [
          {
            "election": null,
            "id": 8,
            "name": "Brampton Centre"
          }
        ],
        "pollDivisionIds": [
          10111327
        ],
        "postalCode": "L6V4S3",
        "streetName": "CALM WATERS",
        "streetDirectionId": null,
        "streetTypeId": "CRES",
        "placeName": "BRAMPTON",
        "streetNameDisplayText": "CALM WATERS CRES, BRAMPTON"
      },
      {
        "electoralDistricts": [
          {
            "election": null,
            "id": 8,
            "name": "Brampton Centre"
          }
        ],
        "pollDivisionIds": [
          10111327
        ],
        "postalCode": "L6V4S3",
        "streetName": "SOUTHLAKE",
        "streetDirectionId": null,
        "streetTypeId": "BLVD",
        "placeName": "BRAMPTON",
        "streetNameDisplayText": "SOUTHLAKE BLVD, BRAMPTON"
      },
      {
        "electoralDistricts": [
          {
            "election": null,
            "id": 8,
            "name": "Brampton Centre"
          }
        ],
        "pollDivisionIds": [
          10111327
        ],
        "postalCode": "L6V4S3",
        "streetName": "STONEYLAKE",
        "streetDirectionId": null,
        "streetTypeId": "AVE",
        "placeName": "BRAMPTON",
        "streetNameDisplayText": "STONEYLAKE AVE, BRAMPTON"
      }
    ]
  },
  {
    "postal": "L6V1B6",
    "result": []
  },
  {
    "postal": "L6V8R3",
    "result": []
  },
  {
    "postal": "L6V4V9",
    "result": []
  },
  {
    "postal": "L6V9W4",
    "result": []
  },
  {
    "postal": "L6V3T4",
    "result": [
      {
        "electoralDistricts": [
          {
            "election": null,
            "id": 8,
            "name": "Brampton Centre"
          }
        ],
        "pollDivisionIds": [
          10137071
        ],
        "postalCode": "L6V3T4",
        "streetName": "DANTEK",
        "streetDirectionId": null,
        "streetTypeId": "CRT",
        "placeName": "BRAMPTON",
        "streetNameDisplayText": "DANTEK CRT, BRAMPTON"
      }
    ]
  },
  {
    "postal": "L6V5C7",
    "result": []
  },
  {
    "postal": "L6V3Y1",
    "result": [
      {
        "electoralDistricts": [
          {
            "election": null,
            "id": 8,
            "name": "Brampton Centre"
          }
        ],
        "pollDivisionIds": [
          10137070
        ],
        "postalCode": "L6V3Y1",
        "streetName": "SIMMONS",
        "streetDirectionId": null,
        "streetTypeId": "BLVD",
        "placeName": "BRAMPTON",
        "streetNameDisplayText": "SIMMONS BLVD, BRAMPTON"
      }
    ]
  },
  {
    "postal": "L6V5V0",
    "result": []
  },
  {
    "postal": "L6V8G8",
    "result": []
  },
  {
    "postal": "L6V8B1",
    "result": []
  },
  {
    "postal": "L6V4P5",
    "result": [
      {
        "electoralDistricts": [
          {
            "election": null,
            "id": 8,
            "name": "Brampton Centre"
          }
        ],
        "pollDivisionIds": [
          10111327
        ],
        "postalCode": "L6V4P5",
        "streetName": "HARBOURTOWN",
        "streetDirectionId": null,
        "streetTypeId": "CRES",
        "placeName": "BRAMPTON",
        "streetNameDisplayText": "HARBOURTOWN CRES, BRAMPTON"
      }
    ]
  },
  {
    "postal": "L6V7B2",
    "result": []
  },
  {
    "postal": "L6V0R2",
    "result": []
  },
  {
    "postal": "L6V4M4",
    "result": []
  },
  {
    "postal": "L6V7M4",
    "result": []
  },
  {
    "postal": "L6V9S7",
    "result": []
  },
  {
    "postal": "L6V5Z7",
    "result": []
  },
  {
    "postal": "L6V7J7",
    "result": []
  },
  {
    "postal": "L6V8R8",
    "result": []
  },
  {
    "postal": "L6V9X1",
    "result": []
  },
  {
    "postal": "L6V5M9",
    "result": []
  },
  {
    "postal": "L6V9B4",
    "result": []
  },
  {
    "postal": "L6V0L9",
    "result": []
  },
  {
    "postal": "L6V9G4",
    "result": []
  },
  {
    "postal": "L6V1J4",
    "result": [
      {
        "electoralDistricts": [
          {
            "election": null,
            "id": 11,
            "name": "Brampton South"
          }
        ],
        "pollDivisionIds": [
          10143920
        ],
        "postalCode": "L6V1J4",
        "streetName": "MCCAUL",
        "streetDirectionId": null,
        "streetTypeId": "ST",
        "placeName": "BRAMPTON",
        "streetNameDisplayText": "MCCAUL ST, BRAMPTON"
      }
    ]
  },
  {
    "postal": "L6V0W6",
    "result": []
  }
]
