[
  {
    "postal": "M4M9J6",
    "result": []
  },
  {
    "postal": "M4M9Z5",
    "result": []
  },
  {
    "postal": "M4M7H8",
    "result": []
  },
  {
    "postal": "M4M0P6",
    "result": []
  },
  {
    "postal": "M4M0S7",
    "result": []
  },
  {
    "postal": "M4M8B9",
    "result": []
  },
  {
    "postal": "M4M2A6",
    "result": [
      {
        "electoralDistricts": [
          {
            "election": null,
            "id": 110,
            "name": "Toronto—Danforth"
          }
        ],
        "pollDivisionIds": [
          10142528
        ],
        "postalCode": "M4M2A6",
        "streetName": "DAVIES",
        "streetDirectionId": null,
        "streetTypeId": "AVE",
        "placeName": "TORONTO",
        "streetNameDisplayText": "DAVIES AVE, TORONTO"
      }
    ]
  },
  {
    "postal": "M4M7V2",
    "result": []
  },
  {
    "postal": "M4M9P4",
    "result": []
  },
  {
    "postal": "M4M6G0",
    "result": []
  },
  {
    "postal": "M4M2K0",
    "result": []
  },
  {
    "postal": "M4M7N6",
    "result": []
  },
  {
    "postal": "M4M5R3",
    "result": []
  },
  {
    "postal": "M4M7K0",
    "result": []
  },
  {
    "postal": "M4M3R2",
    "result": [
      {
        "electoralDistricts": [
          {
            "election": null,
            "id": 110,
            "name": "Toronto—Danforth"
          }
        ],
        "pollDivisionIds": [
          10142517
        ],
        "postalCode": "M4M3R2",
        "streetName": "LESLIE",
        "streetDirectionId": null,
        "streetTypeId": "ST",
        "placeName": "TORONTO",
        "streetNameDisplayText": "LESLIE ST, TORONTO"
      }
    ]
  },
  {
    "postal": "M4M0J1",
    "result": []
  },
  {
    "postal": "M4M0B0",
    "result": []
  },
  {
    "postal": "M4M5Z2",
    "result": []
  },
  {
    "postal": "M4M7P3",
    "result": []
  },
  {
    "postal": "M4M2K3",
    "result": [
      {
        "electoralDistricts": [
          {
            "election": null,
            "id": 110,
            "name": "Toronto—Danforth"
          }
        ],
        "pollDivisionIds": [
          10142529
        ],
        "postalCode": "M4M2K3",
        "streetName": "DEGRASSI",
        "streetDirectionId": null,
        "streetTypeId": "ST",
        "placeName": "TORONTO",
        "streetNameDisplayText": "DEGRASSI ST, TORONTO"
      }
    ]
  },
  {
    "postal": "M4M7Y6",
    "result": []
  },
  {
    "postal": "M4M1L9",
    "result": [
      {
        "electoralDistricts": [
          {
            "election": null,
            "id": 110,
            "name": "Toronto—Danforth"
          }
        ],
        "pollDivisionIds": [
          10142528
        ],
        "postalCode": "M4M1L9",
        "streetName": "MATILDA",
        "streetDirectionId": null,
        "streetTypeId": "ST",
        "placeName": "TORONTO",
        "streetNameDisplayText": "MATILDA ST, TORONTO"
      }
    ]
  },
  {
    "postal": "M4M8T0",
    "result": []
  },
  {
    "postal": "M4M3K8",
    "result": [
      {
        "electoralDistricts": [
          {
            "election": null,
            "id": 110,
            "name": "Toronto—Danforth"
          }
        ],
        "pollDivisionIds": [
          10142529
        ],
        "postalCode": "M4M3K8",
        "streetName": "-71 SAULTER",
        "streetDirectionId": "S",
        "streetTypeId": "ST",
        "placeName": "TORONTO",
        "streetNameDisplayText": "-71 SAULTER ST S, TORONTO"
      },
      {
        "electoralDistricts": [
          {
            "election": null,
            "id": 110,
            "name": "Toronto—Danforth"
          }
        ],
        "pollDivisionIds": [
          10142530
        ],
        "postalCode": "M4M3K8",
        "streetName": "SAULTER",
        "streetDirectionId": "S",
        "streetTypeId": "ST",
        "placeName": "TORONTO",
        "streetNameDisplayText": "SAULTER ST S, TORONTO"
      },
      {
        "electoralDistricts": [
          {
            "election": null,
            "id": 110,
            "name": "Toronto—Danforth"
          }
        ],
        "pollDivisionIds": [
          10142529
        ],
        "postalCode": "M4M3K8",
        "streetName": "SAULTER",
        "streetDirectionId": null,
        "streetTypeId": "ST",
        "placeName": "TORONTO",
        "streetNameDisplayText": "SAULTER ST, TORONTO"
      }
    ]
  },
  {
    "postal": "M4M5W9",
    "result": []
  },
  {
    "postal": "M4M6T9",
    "result": []
  },
  {
    "postal": "M4M4H1",
    "result": []
  },
  {
    "postal": "M4M7A2",
    "result": []
  },
  {
    "postal": "M4M5G0",
    "result": []
  },
  {
    "postal": "M4M8V5",
    "result": []
  },
  {
    "postal": "M4M2Y8",
    "result": [
      {
        "electoralDistricts": [
          {
            "election": null,
            "id": 110,
            "name": "Toronto—Danforth"
          }
        ],
        "pollDivisionIds": [
          10143805
        ],
        "postalCode": "M4M2Y8",
        "streetName": "COADY",
        "streetDirectionId": null,
        "streetTypeId": "AVE",
        "placeName": "TORONTO",
        "streetNameDisplayText": "COADY AVE, TORONTO"
      }
    ]
  },
  {
    "postal": "M4M2B6",
    "result": []
  },
  {
    "postal": "M4M4W8",
    "result": []
  },
  {
    "postal": "M4M8H7",
    "result": []
  },
  {
    "postal": "M4M5P1",
    "result": []
  },
  {
    "postal": "M4M2B8",
    "result": [
      {
        "electoralDistricts": [
          {
            "election": null,
            "id": 110,
            "name": "Toronto—Danforth"
          }
        ],
        "pollDivisionIds": [
          10142528
        ],
        "postalCode": "M4M2B8",
        "streetName": "MUNRO",
        "streetDirectionId": null,
        "streetTypeId": "ST",
        "placeName": "TORONTO",
        "streetNameDisplayText": "MUNRO ST, TORONTO"
      }
    ]
  },
  {
    "postal": "M4M0P2",
    "result": []
  },
  {
    "postal": "M4M9M1",
    "result": []
  },
  {
    "postal": "M4M3G0",
    "result": []
  },
  {
    "postal": "M4M9Z2",
    "result": []
  },
  {
    "postal": "M4M2A0",
    "result": []
  },
  {
    "postal": "M4M6Y0",
    "result": []
  },
  {
    "postal": "M4M2Z8",
    "result": [
      {
        "electoralDistricts": [
          {
            "election": null,
            "id": 110,
            "name": "Toronto—Danforth"
          }
        ],
        "pollDivisionIds": [
          10143805
        ],
        "postalCode": "M4M2Z8",
        "streetName": "JONES",
        "streetDirectionId": null,
        "streetTypeId": "AVE",
        "placeName": "TORONTO",
        "streetNameDisplayText": "JONES AVE, TORONTO"
      }
    ]
  },
  {
    "postal": "M4M7Y3",
    "result": []
  },
  {
    "postal": "M4M6Z5",
    "result": []
  },
  {
    "postal": "M4M6E0",
    "result": []
  },
  {
    "postal": "M4M9B7",
    "result": []
  },
  {
    "postal": "M4M9S5",
    "result": []
  },
  {
    "postal": "M4M3X3",
    "result": []
  },
  {
    "postal": "M4M7R5",
    "result": []
  },
  {
    "postal": "M4M2X3",
    "result": [
      {
        "electoralDistricts": [
          {
            "election": null,
            "id": 110,
            "name": "Toronto—Danforth"
          }
        ],
        "pollDivisionIds": [
          10142527
        ],
        "postalCode": "M4M2X3",
        "streetName": "WINNIFRED",
        "streetDirectionId": null,
        "streetTypeId": "AVE",
        "placeName": "TORONTO",
        "streetNameDisplayText": "WINNIFRED AVE, TORONTO"
      }
    ]
  },
  {
    "postal": "M4M8Z9",
    "result": []
  },
  {
    "postal": "M4M0N4",
    "result": []
  },
  {
    "postal": "M4M1K1",
    "result": [
      {
        "electoralDistricts": [
          {
            "election": null,
            "id": 110,
            "name": "Toronto—Danforth"
          }
        ],
        "pollDivisionIds": [
          10142529
        ],
        "postalCode": "M4M1K1",
        "streetName": "QUEEN",
        "streetDirectionId": "E",
        "streetTypeId": "ST",
        "placeName": "TORONTO",
        "streetNameDisplayText": "QUEEN ST E, TORONTO"
      }
    ]
  },
  {
    "postal": "M4M1S3",
    "result": [
      {
        "electoralDistricts": [
          {
            "election": null,
            "id": 110,
            "name": "Toronto—Danforth"
          }
        ],
        "pollDivisionIds": [
          10142525
        ],
        "postalCode": "M4M1S3",
        "streetName": "DUNDAS",
        "streetDirectionId": "E",
        "streetTypeId": "ST",
        "placeName": "TORONTO",
        "streetNameDisplayText": "DUNDAS ST E, TORONTO"
      }
    ]
  },
  {
    "postal": "M4M6M4",
    "result": []
  },
  {
    "postal": "M4M9A9",
    "result": []
  },
  {
    "postal": "M4M9Z9",
    "result": []
  },
  {
    "postal": "M4M6T4",
    "result": []
  },
  {
    "postal": "M4M0B2",
    "result": []
  },
  {
    "postal": "M4M2L9",
    "result": [
      {
        "electoralDistricts": [
          {
            "election": null,
            "id": 110,
            "name": "Toronto—Danforth"
          }
        ],
        "pollDivisionIds": [
          10142523
        ],
        "postalCode": "M4M2L9",
        "streetName": "TIVERTON",
        "streetDirectionId": null,
        "streetTypeId": "AVE",
        "placeName": "TORONTO",
        "streetNameDisplayText": "TIVERTON AVE, TORONTO"
      }
    ]
  },
  {
    "postal": "M4M8K9",
    "result": []
  },
  {
    "postal": "M4M2H9",
    "result": [
      {
        "electoralDistricts": [
          {
            "election": null,
            "id": 110,
            "name": "Toronto—Danforth"
          }
        ],
        "pollDivisionIds": [
          10142528
        ],
        "postalCode": "M4M2H9",
        "streetName": "HOWIE",
        "streetDirectionId": null,
        "streetTypeId": "AVE",
        "placeName": "TORONTO",
        "streetNameDisplayText": "HOWIE AVE, TORONTO"
      }
    ]
  },
  {
    "postal": "M4M3Z6",
    "result": []
  },
  {
    "postal": "M4M3B0",
    "result": []
  },
  {
    "postal": "M4M2H8",
    "result": [
      {
        "electoralDistricts": [
          {
            "election": null,
            "id": 110,
            "name": "Toronto—Danforth"
          }
        ],
        "pollDivisionIds": [
          10142529
        ],
        "postalCode": "M4M2H8",
        "streetName": "SAULTER",
        "streetDirectionId": null,
        "streetTypeId": "ST",
        "placeName": "TORONTO",
        "streetNameDisplayText": "SAULTER ST, TORONTO"
      }
    ]
  },
  {
    "postal": "M4M3X2",
    "result": []
  },
  {
    "postal": "M4M2E9",
    "result": [
      {
        "electoralDistricts": [
          {
            "election": null,
            "id": 110,
            "name": "Toronto—Danforth"
          }
        ],
        "pollDivisionIds": [
          10142528
        ],
        "postalCode": "M4M2E9",
        "streetName": "BROADVIEW",
        "streetDirectionId": null,
        "streetTypeId": "AVE",
        "placeName": "TORONTO",
        "streetNameDisplayText": "BROADVIEW AVE, TORONTO"
      }
    ]
  },
  {
    "postal": "M4M9P6",
    "result": []
  },
  {
    "postal": "M4M9E2",
    "result": []
  },
  {
    "postal": "M4M9H2",
    "result": []
  },
  {
    "postal": "M4M1S8",
    "result": [
      {
        "electoralDistricts": [
          {
            "election": null,
            "id": 110,
            "name": "Toronto—Danforth"
          }
        ],
        "pollDivisionIds": [
          10142521
        ],
        "postalCode": "M4M1S8",
        "streetName": "DUNDAS",
        "streetDirectionId": "E",
        "streetTypeId": "ST",
        "placeName": "TORONTO",
        "streetNameDisplayText": "DUNDAS ST E, TORONTO"
      }
    ]
  },
  {
    "postal": "M4M3M6",
    "result": [
      {
        "electoralDistricts": [
          {
            "election": null,
            "id": 110,
            "name": "Toronto—Danforth"
          }
        ],
        "pollDivisionIds": [
          10143805
        ],
        "postalCode": "M4M3M6",
        "streetName": "LESLIE GARDENS",
        "streetDirectionId": null,
        "streetTypeId": "LANE",
        "placeName": "TORONTO",
        "streetNameDisplayText": "LESLIE GARDENS LANE, TORONTO"
      }
    ]
  },
  {
    "postal": "M4M6Z8",
    "result": []
  },
  {
    "postal": "M4M4J2",
    "result": []
  },
  {
    "postal": "M4M9Y1",
    "result": []
  },
  {
    "postal": "M4M8V6",
    "result": []
  },
  {
    "postal": "M4M6B2",
    "result": []
  },
  {
    "postal": "M4M1P8",
    "result": [
      {
        "electoralDistricts": [
          {
            "election": null,
            "id": 110,
            "name": "Toronto—Danforth"
          }
        ],
        "pollDivisionIds": [
          10143805
        ],
        "postalCode": "M4M1P8",
        "streetName": "MALLON",
        "streetDirectionId": null,
        "streetTypeId": "AVE",
        "placeName": "TORONTO",
        "streetNameDisplayText": "MALLON AVE, TORONTO"
      }
    ]
  },
  {
    "postal": "M4M0V8",
    "result": []
  },
  {
    "postal": "M4M4Y0",
    "result": []
  },
  {
    "postal": "M4M2T4",
    "result": [
      {
        "electoralDistricts": [
          {
            "election": null,
            "id": 110,
            "name": "Toronto—Danforth"
          }
        ],
        "pollDivisionIds": [
          10142529
        ],
        "postalCode": "M4M2T4",
        "streetName": "CARLAW",
        "streetDirectionId": null,
        "streetTypeId": "AVE",
        "placeName": "TORONTO",
        "streetNameDisplayText": "CARLAW AVE, TORONTO"
      }
    ]
  },
  {
    "postal": "M4M2S3",
    "result": [
      {
        "electoralDistricts": [
          {
            "election": null,
            "id": 110,
            "name": "Toronto—Danforth"
          }
        ],
        "pollDivisionIds": [
          10142525
        ],
        "postalCode": "M4M2S3",
        "streetName": "CARLAW",
        "streetDirectionId": null,
        "streetTypeId": "AVE",
        "placeName": "TORONTO",
        "streetNameDisplayText": "CARLAW AVE, TORONTO"
      },
      {
        "electoralDistricts": [
          {
            "election": null,
            "id": 110,
            "name": "Toronto—Danforth"
          }
        ],
        "pollDivisionIds": [
          10142525
        ],
        "postalCode": "M4M2S3",
        "streetName": "CARLAW",
        "streetDirectionId": null,
        "streetTypeId": "ST",
        "placeName": "TORONTO",
        "streetNameDisplayText": "CARLAW ST, TORONTO"
      }
    ]
  },
  {
    "postal": "M4M0K0",
    "result": []
  },
  {
    "postal": "M4M5N1",
    "result": []
  },
  {
    "postal": "M4M7T0",
    "result": []
  },
  {
    "postal": "M4M9N2",
    "result": []
  },
  {
    "postal": "M4M5L1",
    "result": []
  },
  {
    "postal": "M4M7G5",
    "result": []
  },
  {
    "postal": "M4M6K2",
    "result": []
  },
  {
    "postal": "M4M6P9",
    "result": []
  },
  {
    "postal": "M4M0E6",
    "result": []
  },
  {
    "postal": "M4M8R9",
    "result": []
  },
  {
    "postal": "M4M3G9",
    "result": [
      {
        "electoralDistricts": [
          {
            "election": null,
            "id": 110,
            "name": "Toronto—Danforth"
          }
        ],
        "pollDivisionIds": [
          10142529
        ],
        "postalCode": "M4M3G9",
        "streetName": "QUEEN",
        "streetDirectionId": "E",
        "streetTypeId": "ST",
        "placeName": "TORONTO",
        "streetNameDisplayText": "QUEEN ST E, TORONTO"
      }
    ]
  },
  {
    "postal": "M4M0V7",
    "result": []
  },
  {
    "postal": "M4M2Z1",
    "result": [
      {
        "electoralDistricts": [
          {
            "election": null,
            "id": 110,
            "name": "Toronto—Danforth"
          }
        ],
        "pollDivisionIds": [
          10142521
        ],
        "postalCode": "M4M2Z1",
        "streetName": "GALT",
        "streetDirectionId": null,
        "streetTypeId": "AVE",
        "placeName": "TORONTO",
        "streetNameDisplayText": "GALT AVE, TORONTO"
      }
    ]
  },
  {
    "postal": "M4M7N1",
    "result": []
  },
  {
    "postal": "M4M3C6",
    "result": [
      {
        "electoralDistricts": [
          {
            "election": null,
            "id": 110,
            "name": "Toronto—Danforth"
          }
        ],
        "pollDivisionIds": [
          10143804
        ],
        "postalCode": "M4M3C6",
        "streetName": "LESLIE",
        "streetDirectionId": null,
        "streetTypeId": "ST",
        "placeName": "TORONTO",
        "streetNameDisplayText": "LESLIE ST, TORONTO"
      }
    ]
  },
  {
    "postal": "M4M4M1",
    "result": []
  },
  {
    "postal": "M4M9K2",
    "result": []
  },
  {
    "postal": "M4M9S6",
    "result": []
  },
  {
    "postal": "M4M4X1",
    "result": []
  },
  {
    "postal": "M4M8W2",
    "result": []
  },
  {
    "postal": "M4M7N2",
    "result": []
  },
  {
    "postal": "M4M8S3",
    "result": []
  },
  {
    "postal": "M4M4V0",
    "result": []
  },
  {
    "postal": "M4M6W4",
    "result": []
  },
  {
    "postal": "M4M5M1",
    "result": []
  },
  {
    "postal": "M4M0S4",
    "result": []
  },
  {
    "postal": "M4M5X6",
    "result": []
  },
  {
    "postal": "M4M8L5",
    "result": []
  },
  {
    "postal": "M4M5M8",
    "result": []
  },
  {
    "postal": "M4M2G3",
    "result": [
      {
        "electoralDistricts": [
          {
            "election": null,
            "id": 110,
            "name": "Toronto—Danforth"
          }
        ],
        "pollDivisionIds": [
          10142528
        ],
        "postalCode": "M4M2G3",
        "streetName": "BROADVIEW",
        "streetDirectionId": null,
        "streetTypeId": "AV",
        "placeName": "TORONTO",
        "streetNameDisplayText": "BROADVIEW AV, TORONTO"
      },
      {
        "electoralDistricts": [
          {
            "election": null,
            "id": 110,
            "name": "Toronto—Danforth"
          }
        ],
        "pollDivisionIds": [
          10142528
        ],
        "postalCode": "M4M2G3",
        "streetName": "BROADVIEW",
        "streetDirectionId": null,
        "streetTypeId": "AVE",
        "placeName": "TORONTO",
        "streetNameDisplayText": "BROADVIEW AVE, TORONTO"
      }
    ]
  },
  {
    "postal": "M4M8E4",
    "result": []
  },
  {
    "postal": "M4M7S9",
    "result": []
  },
  {
    "postal": "M4M1K3",
    "result": [
      {
        "electoralDistricts": [
          {
            "election": null,
            "id": 110,
            "name": "Toronto—Danforth"
          }
        ],
        "pollDivisionIds": [
          10142530
        ],
        "postalCode": "M4M1K3",
        "streetName": "QUEEN",
        "streetDirectionId": "E",
        "streetTypeId": "ST",
        "placeName": "TORONTO",
        "streetNameDisplayText": "QUEEN ST E, TORONTO"
      }
    ]
  },
  {
    "postal": "M4M4E1",
    "result": []
  },
  {
    "postal": "M4M4R2",
    "result": []
  },
  {
    "postal": "M4M6T0",
    "result": []
  },
  {
    "postal": "M4M3K5",
    "result": []
  },
  {
    "postal": "M4M3S3",
    "result": []
  },
  {
    "postal": "M4M3L4",
    "result": [
      {
        "electoralDistricts": [
          {
            "election": null,
            "id": 110,
            "name": "Toronto—Danforth"
          }
        ],
        "pollDivisionIds": [
          10142530
        ],
        "postalCode": "M4M3L4",
        "streetName": "LESLIE",
        "streetDirectionId": null,
        "streetTypeId": "ST",
        "placeName": "TORONTO",
        "streetNameDisplayText": "LESLIE ST, TORONTO"
      }
    ]
  },
  {
    "postal": "M4M9Y2",
    "result": []
  },
  {
    "postal": "M4M1E0",
    "result": []
  },
  {
    "postal": "M4M9A4",
    "result": []
  },
  {
    "postal": "M4M1L3",
    "result": [
      {
        "electoralDistricts": [
          {
            "election": null,
            "id": 110,
            "name": "Toronto—Danforth"
          }
        ],
        "pollDivisionIds": [
          10142527
        ],
        "postalCode": "M4M1L3",
        "streetName": "QUEEN",
        "streetDirectionId": "E",
        "streetTypeId": "ST",
        "placeName": "TORONTO",
        "streetNameDisplayText": "QUEEN ST E, TORONTO"
      }
    ]
  },
  {
    "postal": "M4M6N1",
    "result": []
  },
  {
    "postal": "M4M6G7",
    "result": []
  },
  {
    "postal": "M4M7W1",
    "result": []
  },
  {
    "postal": "M4M4M6",
    "result": []
  },
  {
    "postal": "M4M1K0",
    "result": []
  },
  {
    "postal": "M4M3E2",
    "result": [
      {
        "electoralDistricts": [
          {
            "election": null,
            "id": 110,
            "name": "Toronto—Danforth"
          }
        ],
        "pollDivisionIds": [
          10142521
        ],
        "postalCode": "M4M3E2",
        "streetName": "LESLIE",
        "streetDirectionId": null,
        "streetTypeId": "ST",
        "placeName": "TORONTO",
        "streetNameDisplayText": "LESLIE ST, TORONTO"
      }
    ]
  },
  {
    "postal": "M4M5H4",
    "result": []
  },
  {
    "postal": "M4M1K7",
    "result": [
      {
        "electoralDistricts": [
          {
            "election": null,
            "id": 110,
            "name": "Toronto—Danforth"
          }
        ],
        "pollDivisionIds": [
          10142527,
          10143805
        ],
        "postalCode": "M4M1K7",
        "streetName": "QUEEN",
        "streetDirectionId": "E",
        "streetTypeId": "ST",
        "placeName": "TORONTO",
        "streetNameDisplayText": "QUEEN ST E, TORONTO"
      }
    ]
  },
  {
    "postal": "M4M0H0",
    "result": []
  },
  {
    "postal": "M4M0J3",
    "result": []
  },
  {
    "postal": "M4M1X6",
    "result": [
      {
        "electoralDistricts": [
          {
            "election": null,
            "id": 110,
            "name": "Toronto—Danforth"
          }
        ],
        "pollDivisionIds": [
          10142523
        ],
        "postalCode": "M4M1X6",
        "streetName": "GERRARD",
        "streetDirectionId": "E",
        "streetTypeId": "ST",
        "placeName": "TORONTO",
        "streetNameDisplayText": "GERRARD ST E, TORONTO"
      }
    ]
  },
  {
    "postal": "M4M2Z6",
    "result": [
      {
        "electoralDistricts": [
          {
            "election": null,
            "id": 110,
            "name": "Toronto—Danforth"
          }
        ],
        "pollDivisionIds": [
          10142527
        ],
        "postalCode": "M4M2Z6",
        "streetName": "BERKSHIRE",
        "streetDirectionId": null,
        "streetTypeId": "AVE",
        "placeName": "TORONTO",
        "streetNameDisplayText": "BERKSHIRE AVE, TORONTO"
      }
    ]
  },
  {
    "postal": "M4M4R9",
    "result": []
  },
  {
    "postal": "M4M0W8",
    "result": []
  },
  {
    "postal": "M4M1L4",
    "result": [
      {
        "electoralDistricts": [
          {
            "election": null,
            "id": 110,
            "name": "Toronto—Danforth"
          }
        ],
        "pollDivisionIds": [
          10143805
        ],
        "postalCode": "M4M1L4",
        "streetName": "QUEEN",
        "streetDirectionId": "E",
        "streetTypeId": "ST",
        "placeName": "TORONTO",
        "streetNameDisplayText": "QUEEN ST E, TORONTO"
      }
    ]
  },
  {
    "postal": "M4M0C8",
    "result": [
      {
        "electoralDistricts": [
          {
            "election": null,
            "id": 110,
            "name": "Toronto—Danforth"
          }
        ],
        "pollDivisionIds": [
          10142530
        ],
        "postalCode": "M4M0C8",
        "streetName": "QUEEN",
        "streetDirectionId": "E",
        "streetTypeId": "ST",
        "placeName": "TORONTO",
        "streetNameDisplayText": "QUEEN ST E, TORONTO"
      }
    ]
  },
  {
    "postal": "M4M9X7",
    "result": []
  },
  {
    "postal": "M4M4T1",
    "result": []
  },
  {
    "postal": "M4M0M0",
    "result": []
  },
  {
    "postal": "M4M6A2",
    "result": []
  },
  {
    "postal": "M4M9S8",
    "result": []
  },
  {
    "postal": "M4M9T4",
    "result": []
  },
  {
    "postal": "M4M9Y4",
    "result": []
  },
  {
    "postal": "M4M6G5",
    "result": []
  },
  {
    "postal": "M4M6H9",
    "result": []
  },
  {
    "postal": "M4M2P3",
    "result": [
      {
        "electoralDistricts": [
          {
            "election": null,
            "id": 110,
            "name": "Toronto—Danforth"
          }
        ],
        "pollDivisionIds": [
          10142523
        ],
        "postalCode": "M4M2P3",
        "streetName": "LOGAN",
        "streetDirectionId": null,
        "streetTypeId": "AVE",
        "placeName": "TORONTO",
        "streetNameDisplayText": "LOGAN AVE, TORONTO"
      }
    ]
  },
  {
    "postal": "M4M1T6",
    "result": [
      {
        "electoralDistricts": [
          {
            "election": null,
            "id": 110,
            "name": "Toronto—Danforth"
          }
        ],
        "pollDivisionIds": [
          10142528
        ],
        "postalCode": "M4M1T6",
        "streetName": "GREIG",
        "streetDirectionId": null,
        "streetTypeId": "AVE",
        "placeName": "TORONTO",
        "streetNameDisplayText": "GREIG AVE, TORONTO"
      }
    ]
  },
  {
    "postal": "M4M4P6",
    "result": []
  },
  {
    "postal": "M4M3K1",
    "result": [
      {
        "electoralDistricts": [
          {
            "election": null,
            "id": 110,
            "name": "Toronto—Danforth"
          }
        ],
        "pollDivisionIds": [
          10142517
        ],
        "postalCode": "M4M3K1",
        "streetName": "LESLIE",
        "streetDirectionId": null,
        "streetTypeId": "ST",
        "placeName": "TORONTO",
        "streetNameDisplayText": "LESLIE ST, TORONTO"
      }
    ]
  },
  {
    "postal": "M4M6X4",
    "result": []
  },
  {
    "postal": "M4M4M8",
    "result": []
  },
  {
    "postal": "M4M2Y1",
    "result": [
      {
        "electoralDistricts": [
          {
            "election": null,
            "id": 110,
            "name": "Toronto—Danforth"
          }
        ],
        "pollDivisionIds": [
          10143805
        ],
        "postalCode": "M4M2Y1",
        "streetName": "BERTMOUNT",
        "streetDirectionId": null,
        "streetTypeId": "AVE",
        "placeName": "TORONTO",
        "streetNameDisplayText": "BERTMOUNT AVE, TORONTO"
      }
    ]
  },
  {
    "postal": "M4M6M1",
    "result": []
  },
  {
    "postal": "M4M5L8",
    "result": []
  },
  {
    "postal": "M4M3P6",
    "result": [
      {
        "electoralDistricts": [
          {
            "election": null,
            "id": 110,
            "name": "Toronto—Danforth"
          }
        ],
        "pollDivisionIds": [
          10142529
        ],
        "postalCode": "M4M3P6",
        "streetName": "NATALIE",
        "streetDirectionId": null,
        "streetTypeId": "PL",
        "placeName": "TORONTO",
        "streetNameDisplayText": "NATALIE PL, TORONTO"
      }
    ]
  },
  {
    "postal": "M4M9A5",
    "result": []
  },
  {
    "postal": "M4M7K1",
    "result": []
  },
  {
    "postal": "M4M3J4",
    "result": []
  },
  {
    "postal": "M4M5E7",
    "result": []
  },
  {
    "postal": "M4M3A7",
    "result": [
      {
        "electoralDistricts": [
          {
            "election": null,
            "id": 110,
            "name": "Toronto—Danforth"
          }
        ],
        "pollDivisionIds": [
          10142517
        ],
        "postalCode": "M4M3A7",
        "streetName": "JONES",
        "streetDirectionId": null,
        "streetTypeId": "AVE",
        "placeName": "TORONTO",
        "streetNameDisplayText": "JONES AVE, TORONTO"
      }
    ]
  },
  {
    "postal": "M4M1B9",
    "result": [
      {
        "electoralDistricts": [
          {
            "election": null,
            "id": 110,
            "name": "Toronto—Danforth"
          }
        ],
        "pollDivisionIds": [
          10142530
        ],
        "postalCode": "M4M1B9",
        "streetName": "EASTERN",
        "streetDirectionId": null,
        "streetTypeId": "AVE",
        "placeName": "TORONTO",
        "streetNameDisplayText": "EASTERN AVE, TORONTO"
      }
    ]
  },
  {
    "postal": "M4M9E8",
    "result": []
  },
  {
    "postal": "M4M1C9",
    "result": [
      {
        "electoralDistricts": [
          {
            "election": null,
            "id": 110,
            "name": "Toronto—Danforth"
          }
        ],
        "pollDivisionIds": [
          10142530
        ],
        "postalCode": "M4M1C9",
        "streetName": "EASTERN",
        "streetDirectionId": null,
        "streetTypeId": "AVE",
        "placeName": "TORONTO",
        "streetNameDisplayText": "EASTERN AVE, TORONTO"
      }
    ]
  },
  {
    "postal": "M4M3B5",
    "result": [
      {
        "electoralDistricts": [
          {
            "election": null,
            "id": 110,
            "name": "Toronto—Danforth"
          }
        ],
        "pollDivisionIds": [
          10142521
        ],
        "postalCode": "M4M3B5",
        "streetName": "CURZON",
        "streetDirectionId": null,
        "streetTypeId": "ST",
        "placeName": "TORONTO",
        "streetNameDisplayText": "CURZON ST, TORONTO"
      }
    ]
  },
  {
    "postal": "M4M8R0",
    "result": []
  },
  {
    "postal": "M4M3P2",
    "result": [
      {
        "electoralDistricts": [
          {
            "election": null,
            "id": 110,
            "name": "Toronto—Danforth"
          }
        ],
        "pollDivisionIds": [
          10142530
        ],
        "postalCode": "M4M3P2",
        "streetName": "DON VALLEY",
        "streetDirectionId": "N",
        "streetTypeId": "PKY",
        "placeName": "TORONTO",
        "streetNameDisplayText": "DON VALLEY PKY N, TORONTO"
      }
    ]
  },
  {
    "postal": "M4M5V4",
    "result": []
  },
  {
    "postal": "M4M4H0",
    "result": []
  },
  {
    "postal": "M4M4S7",
    "result": []
  },
  {
    "postal": "M4M6C2",
    "result": []
  },
  {
    "postal": "M4M8W3",
    "result": []
  },
  {
    "postal": "M4M4M5",
    "result": []
  },
  {
    "postal": "M4M5T1",
    "result": []
  },
  {
    "postal": "M4M3B3",
    "result": [
      {
        "electoralDistricts": [
          {
            "election": null,
            "id": 110,
            "name": "Toronto—Danforth"
          }
        ],
        "pollDivisionIds": [
          10143805,
          10143804
        ],
        "postalCode": "M4M3B3",
        "streetName": "CURZON",
        "streetDirectionId": null,
        "streetTypeId": "ST",
        "placeName": "TORONTO",
        "streetNameDisplayText": "CURZON ST, TORONTO"
      }
    ]
  },
  {
    "postal": "M4M6C6",
    "result": []
  },
  {
    "postal": "M4M7N8",
    "result": []
  },
  {
    "postal": "M4M2Y3",
    "result": [
      {
        "electoralDistricts": [
          {
            "election": null,
            "id": 110,
            "name": "Toronto—Danforth"
          }
        ],
        "pollDivisionIds": [
          10142525
        ],
        "postalCode": "M4M2Y3",
        "streetName": "MARJORY",
        "streetDirectionId": null,
        "streetTypeId": "AVE",
        "placeName": "TORONTO",
        "streetNameDisplayText": "MARJORY AVE, TORONTO"
      }
    ]
  },
  {
    "postal": "M4M2R6",
    "result": [
      {
        "electoralDistricts": [
          {
            "election": null,
            "id": 110,
            "name": "Toronto—Danforth"
          }
        ],
        "pollDivisionIds": [
          10142530
        ],
        "postalCode": "M4M2R6",
        "streetName": "CARLAW",
        "streetDirectionId": null,
        "streetTypeId": "AVE",
        "placeName": "TORONTO",
        "streetNameDisplayText": "CARLAW AVE, TORONTO"
      }
    ]
  },
  {
    "postal": "M4M7N3",
    "result": []
  },
  {
    "postal": "M4M8J2",
    "result": []
  },
  {
    "postal": "M4M6A9",
    "result": []
  },
  {
    "postal": "M4M3V2",
    "result": []
  },
  {
    "postal": "M4M2N3",
    "result": [
      {
        "electoralDistricts": [
          {
            "election": null,
            "id": 110,
            "name": "Toronto—Danforth"
          }
        ],
        "pollDivisionIds": [
          10142530
        ],
        "postalCode": "M4M2N3",
        "streetName": "LOGAN",
        "streetDirectionId": null,
        "streetTypeId": "AVE",
        "placeName": "TORONTO",
        "streetNameDisplayText": "LOGAN AVE, TORONTO"
      }
    ]
  },
  {
    "postal": "M4M1S5",
    "result": [
      {
        "electoralDistricts": [
          {
            "election": null,
            "id": 110,
            "name": "Toronto—Danforth"
          }
        ],
        "pollDivisionIds": [
          10142525,
          10143805
        ],
        "postalCode": "M4M1S5",
        "streetName": "DUNDAS",
        "streetDirectionId": "E",
        "streetTypeId": "ST",
        "placeName": "TORONTO",
        "streetNameDisplayText": "DUNDAS ST E, TORONTO"
      }
    ]
  },
  {
    "postal": "M4M4T7",
    "result": []
  },
  {
    "postal": "M4M6Y7",
    "result": []
  },
  {
    "postal": "M4M0W7",
    "result": []
  },
  {
    "postal": "M4M2W9",
    "result": []
  },
  {
    "postal": "M4M8V0",
    "result": []
  },
  {
    "postal": "M4M0H4",
    "result": []
  },
  {
    "postal": "M4M2T1",
    "result": [
      {
        "electoralDistricts": [
          {
            "election": null,
            "id": 110,
            "name": "Toronto—Danforth"
          }
        ],
        "pollDivisionIds": [
          10142525
        ],
        "postalCode": "M4M2T1",
        "streetName": "CARLAW",
        "streetDirectionId": null,
        "streetTypeId": "AVE",
        "placeName": "TORONTO",
        "streetNameDisplayText": "CARLAW AVE, TORONTO"
      }
    ]
  },
  {
    "postal": "M4M1B1",
    "result": []
  },
  {
    "postal": "M4M8B6",
    "result": []
  },
  {
    "postal": "M4M6H1",
    "result": []
  },
  {
    "postal": "M4M8T8",
    "result": []
  },
  {
    "postal": "M4M0T4",
    "result": []
  },
  {
    "postal": "M4M2C4",
    "result": [
      {
        "electoralDistricts": [
          {
            "election": null,
            "id": 110,
            "name": "Toronto—Danforth"
          }
        ],
        "pollDivisionIds": [
          10142528
        ],
        "postalCode": "M4M2C4",
        "streetName": "HAMILTON",
        "streetDirectionId": null,
        "streetTypeId": "ST",
        "placeName": "TORONTO",
        "streetNameDisplayText": "HAMILTON ST, TORONTO"
      }
    ]
  },
  {
    "postal": "M4M8N3",
    "result": []
  },
  {
    "postal": "M4M4L8",
    "result": []
  },
  {
    "postal": "M4M2B5",
    "result": [
      {
        "electoralDistricts": [
          {
            "election": null,
            "id": 110,
            "name": "Toronto—Danforth"
          }
        ],
        "pollDivisionIds": [
          10142523
        ],
        "postalCode": "M4M2B5",
        "streetName": "BRIDGEPOINT",
        "streetDirectionId": null,
        "streetTypeId": "DR",
        "placeName": "TORONTO",
        "streetNameDisplayText": "BRIDGEPOINT DR, TORONTO"
      },
      {
        "electoralDistricts": [
          {
            "election": null,
            "id": 110,
            "name": "Toronto—Danforth"
          }
        ],
        "pollDivisionIds": [
          10142523
        ],
        "postalCode": "M4M2B5",
        "streetName": "ST MATTHEWS",
        "streetDirectionId": "W",
        "streetTypeId": "RD",
        "placeName": "TORONTO",
        "streetNameDisplayText": "ST MATTHEWS RD W, TORONTO"
      },
      {
        "electoralDistricts": [
          {
            "election": null,
            "id": 110,
            "name": "Toronto—Danforth"
          }
        ],
        "pollDivisionIds": [
          10142523
        ],
        "postalCode": "M4M2B5",
        "streetName": "ST MATTHEWS",
        "streetDirectionId": null,
        "streetTypeId": "RD",
        "placeName": "TORONTO",
        "streetNameDisplayText": "ST MATTHEWS RD, TORONTO"
      }
    ]
  },
  {
    "postal": "M4M3H1",
    "result": []
  },
  {
    "postal": "M4M4Y1",
    "result": []
  },
  {
    "postal": "M4M7E2",
    "result": []
  },
  {
    "postal": "M4M2P5",
    "result": [
      {
        "electoralDistricts": [
          {
            "election": null,
            "id": 110,
            "name": "Toronto—Danforth"
          }
        ],
        "pollDivisionIds": [
          10142523
        ],
        "postalCode": "M4M2P5",
        "streetName": "LOGAN",
        "streetDirectionId": null,
        "streetTypeId": "AVE",
        "placeName": "TORONTO",
        "streetNameDisplayText": "LOGAN AVE, TORONTO"
      }
    ]
  },
  {
    "postal": "M4M8R7",
    "result": []
  },
  {
    "postal": "M4M9P1",
    "result": []
  },
  {
    "postal": "M4M3B8",
    "result": [
      {
        "electoralDistricts": [
          {
            "election": null,
            "id": 110,
            "name": "Toronto—Danforth"
          }
        ],
        "pollDivisionIds": [
          10142517
        ],
        "postalCode": "M4M3B8",
        "streetName": "BUSHELL",
        "streetDirectionId": null,
        "streetTypeId": "AVE",
        "placeName": "TORONTO",
        "streetNameDisplayText": "BUSHELL AVE, TORONTO"
      }
    ]
  },
  {
    "postal": "M4M3P7",
    "result": [
      {
        "electoralDistricts": [
          {
            "election": null,
            "id": 110,
            "name": "Toronto—Danforth"
          }
        ],
        "pollDivisionIds": [
          10142529
        ],
        "postalCode": "M4M3P7",
        "streetName": "NATALIE",
        "streetDirectionId": null,
        "streetTypeId": "PL",
        "placeName": "TORONTO",
        "streetNameDisplayText": "NATALIE PL, TORONTO"
      }
    ]
  },
  {
    "postal": "M4M9B2",
    "result": []
  },
  {
    "postal": "M4M6Z3",
    "result": []
  },
  {
    "postal": "M4M4N5",
    "result": []
  },
  {
    "postal": "M4M8T3",
    "result": []
  },
  {
    "postal": "M4M1V2",
    "result": [
      {
        "electoralDistricts": [
          {
            "election": null,
            "id": 110,
            "name": "Toronto—Danforth"
          }
        ],
        "pollDivisionIds": [
          10142525
        ],
        "postalCode": "M4M1V2",
        "streetName": "BADGEROW",
        "streetDirectionId": null,
        "streetTypeId": "AVE",
        "placeName": "TORONTO",
        "streetNameDisplayText": "BADGEROW AVE, TORONTO"
      }
    ]
  },
  {
    "postal": "M4M1Y0",
    "result": []
  },
  {
    "postal": "M4M3G6",
    "result": [
      {
        "electoralDistricts": [
          {
            "election": null,
            "id": 110,
            "name": "Toronto—Danforth"
          }
        ],
        "pollDivisionIds": [
          10142517
        ],
        "postalCode": "M4M3G6",
        "streetName": "GERRARD",
        "streetDirectionId": "E",
        "streetTypeId": "ST",
        "placeName": "TORONTO",
        "streetNameDisplayText": "GERRARD ST E, TORONTO"
      }
    ]
  },
  {
    "postal": "M4M3H7",
    "result": [
      {
        "electoralDistricts": [
          {
            "election": null,
            "id": 110,
            "name": "Toronto—Danforth"
          }
        ],
        "pollDivisionIds": [
          10142530
        ],
        "postalCode": "M4M3H7",
        "streetName": "LESLIE",
        "streetDirectionId": null,
        "streetTypeId": "ST",
        "placeName": "TORONTO",
        "streetNameDisplayText": "LESLIE ST, TORONTO"
      }
    ]
  },
  {
    "postal": "M4M7X8",
    "result": []
  },
  {
    "postal": "M4M0C7",
    "result": []
  },
  {
    "postal": "M4M0W9",
    "result": []
  },
  {
    "postal": "M4M8E6",
    "result": []
  },
  {
    "postal": "M4M9Z8",
    "result": []
  },
  {
    "postal": "M4M3P4",
    "result": [
      {
        "electoralDistricts": [
          {
            "election": null,
            "id": 110,
            "name": "Toronto—Danforth"
          }
        ],
        "pollDivisionIds": [
          10142529
        ],
        "postalCode": "M4M3P4",
        "streetName": "LOGAN",
        "streetDirectionId": null,
        "streetTypeId": "AVE",
        "placeName": "TORONTO",
        "streetNameDisplayText": "LOGAN AVE, TORONTO"
      }
    ]
  },
  {
    "postal": "M4M6L8",
    "result": []
  },
  {
    "postal": "M4M2R4",
    "result": [
      {
        "electoralDistricts": [
          {
            "election": null,
            "id": 110,
            "name": "Toronto—Danforth"
          }
        ],
        "pollDivisionIds": [
          10142529
        ],
        "postalCode": "M4M2R4",
        "streetName": "VERRAL",
        "streetDirectionId": null,
        "streetTypeId": "AVE",
        "placeName": "TORONTO",
        "streetNameDisplayText": "VERRAL AVE, TORONTO"
      }
    ]
  },
  {
    "postal": "M4M2W1",
    "result": [
      {
        "electoralDistricts": [
          {
            "election": null,
            "id": 110,
            "name": "Toronto—Danforth"
          }
        ],
        "pollDivisionIds": [
          10142525
        ],
        "postalCode": "M4M2W1",
        "streetName": "PAPE",
        "streetDirectionId": null,
        "streetTypeId": "AVE",
        "placeName": "TORONTO",
        "streetNameDisplayText": "PAPE AVE, TORONTO"
      }
    ]
  },
  {
    "postal": "M4M9H8",
    "result": []
  },
  {
    "postal": "M4M8X9",
    "result": []
  },
  {
    "postal": "M4M7H4",
    "result": []
  },
  {
    "postal": "M4M3J1",
    "result": []
  },
  {
    "postal": "M4M1P4",
    "result": [
      {
        "electoralDistricts": [
          {
            "election": null,
            "id": 110,
            "name": "Toronto—Danforth"
          }
        ],
        "pollDivisionIds": [
          10142525
        ],
        "postalCode": "M4M1P4",
        "streetName": "BRIGHTON",
        "streetDirectionId": null,
        "streetTypeId": "AVE",
        "placeName": "TORONTO",
        "streetNameDisplayText": "BRIGHTON AVE, TORONTO"
      }
    ]
  },
  {
    "postal": "M4M2A3",
    "result": [
      {
        "electoralDistricts": [
          {
            "election": null,
            "id": 110,
            "name": "Toronto—Danforth"
          }
        ],
        "pollDivisionIds": [
          10142517
        ],
        "postalCode": "M4M2A3",
        "streetName": "MYRTLE",
        "streetDirectionId": null,
        "streetTypeId": "AVE",
        "placeName": "TORONTO",
        "streetNameDisplayText": "MYRTLE AVE, TORONTO"
      }
    ]
  },
  {
    "postal": "M4M0Z1",
    "result": []
  },
  {
    "postal": "M4M1C1",
    "result": [
      {
        "electoralDistricts": [
          {
            "election": null,
            "id": 110,
            "name": "Toronto—Danforth"
          }
        ],
        "pollDivisionIds": [
          10142530
        ],
        "postalCode": "M4M1C1",
        "streetName": "EASTERN",
        "streetDirectionId": null,
        "streetTypeId": "AVE",
        "placeName": "TORONTO",
        "streetNameDisplayText": "EASTERN AVE, TORONTO"
      }
    ]
  },
  {
    "postal": "M4M0H3",
    "result": []
  },
  {
    "postal": "M4M7B0",
    "result": []
  },
  {
    "postal": "M4M5K2",
    "result": []
  },
  {
    "postal": "M4M1E9",
    "result": [
      {
        "electoralDistricts": [
          {
            "election": null,
            "id": 109,
            "name": "Toronto Centre"
          },
          {
            "election": null,
            "id": 110,
            "name": "Toronto—Danforth"
          }
        ],
        "pollDivisionIds": [
          10135202,
          10142527
        ],
        "postalCode": "M4M1E9",
        "streetName": "EASTERN",
        "streetDirectionId": null,
        "streetTypeId": "AVE",
        "placeName": "TORONTO",
        "streetNameDisplayText": "EASTERN AVE, TORONTO"
      }
    ]
  },
  {
    "postal": "M4M9W7",
    "result": []
  },
  {
    "postal": "M4M5W6",
    "result": []
  },
  {
    "postal": "M4M6S6",
    "result": []
  },
  {
    "postal": "M4M2P8",
    "result": [
      {
        "electoralDistricts": [
          {
            "election": null,
            "id": 110,
            "name": "Toronto—Danforth"
          }
        ],
        "pollDivisionIds": [
          10142530
        ],
        "postalCode": "M4M2P8",
        "streetName": "MORSE",
        "streetDirectionId": null,
        "streetTypeId": "ST",
        "placeName": "TORONTO",
        "streetNameDisplayText": "MORSE ST, TORONTO"
      }
    ]
  },
  {
    "postal": "M4M4P8",
    "result": []
  },
  {
    "postal": "M4M0V9",
    "result": []
  },
  {
    "postal": "M4M5Y2",
    "result": []
  },
  {
    "postal": "M4M7Z7",
    "result": []
  },
  {
    "postal": "M4M6Y8",
    "result": []
  },
  {
    "postal": "M4M2G7",
    "result": [
      {
        "electoralDistricts": [
          {
            "election": null,
            "id": 110,
            "name": "Toronto—Danforth"
          }
        ],
        "pollDivisionIds": [
          10142528
        ],
        "postalCode": "M4M2G7",
        "streetName": "BROADVIEW",
        "streetDirectionId": null,
        "streetTypeId": "AV",
        "placeName": "TORONTO",
        "streetNameDisplayText": "BROADVIEW AV, TORONTO"
      },
      {
        "electoralDistricts": [
          {
            "election": null,
            "id": 110,
            "name": "Toronto—Danforth"
          }
        ],
        "pollDivisionIds": [
          10142528
        ],
        "postalCode": "M4M2G7",
        "streetName": "BROADVIEW",
        "streetDirectionId": null,
        "streetTypeId": "AVE",
        "placeName": "TORONTO",
        "streetNameDisplayText": "BROADVIEW AVE, TORONTO"
      }
    ]
  },
  {
    "postal": "M4M8C1",
    "result": []
  },
  {
    "postal": "M4M5C5",
    "result": []
  },
  {
    "postal": "M4M2X8",
    "result": [
      {
        "electoralDistricts": [
          {
            "election": null,
            "id": 110,
            "name": "Toronto—Danforth"
          }
        ],
        "pollDivisionIds": [
          10143805
        ],
        "postalCode": "M4M2X8",
        "streetName": "BERTMOUNT",
        "streetDirectionId": null,
        "streetTypeId": "AVE",
        "placeName": "TORONTO",
        "streetNameDisplayText": "BERTMOUNT AVE, TORONTO"
      }
    ]
  },
  {
    "postal": "M4M1W5",
    "result": [
      {
        "electoralDistricts": [
          {
            "election": null,
            "id": 110,
            "name": "Toronto—Danforth"
          }
        ],
        "pollDivisionIds": [
          10142521
        ],
        "postalCode": "M4M1W5",
        "streetName": "ENDEAN",
        "streetDirectionId": null,
        "streetTypeId": "AVE",
        "placeName": "TORONTO",
        "streetNameDisplayText": "ENDEAN AVE, TORONTO"
      }
    ]
  },
  {
    "postal": "M4M7G0",
    "result": []
  },
  {
    "postal": "M4M8J8",
    "result": []
  },
  {
    "postal": "M4M3Y0",
    "result": []
  },
  {
    "postal": "M4M9T7",
    "result": []
  },
  {
    "postal": "M4M5P4",
    "result": []
  },
  {
    "postal": "M4M4B0",
    "result": []
  },
  {
    "postal": "M4M9N8",
    "result": []
  },
  {
    "postal": "M4M4A7",
    "result": []
  },
  {
    "postal": "M4M4H9",
    "result": []
  },
  {
    "postal": "M4M6X1",
    "result": []
  },
  {
    "postal": "M4M9Y7",
    "result": []
  },
  {
    "postal": "M4M2Y5",
    "result": [
      {
        "electoralDistricts": [
          {
            "election": null,
            "id": 110,
            "name": "Toronto—Danforth"
          }
        ],
        "pollDivisionIds": [
          10142517
        ],
        "postalCode": "M4M2Y5",
        "streetName": "MARJORY",
        "streetDirectionId": null,
        "streetTypeId": "AVE",
        "placeName": "TORONTO",
        "streetNameDisplayText": "MARJORY AVE, TORONTO"
      }
    ]
  },
  {
    "postal": "M4M8L7",
    "result": []
  },
  {
    "postal": "M4M2A8",
    "result": []
  },
  {
    "postal": "M4M2K9",
    "result": [
      {
        "electoralDistricts": [
          {
            "election": null,
            "id": 110,
            "name": "Toronto—Danforth"
          }
        ],
        "pollDivisionIds": [
          10142530
        ],
        "postalCode": "M4M2K9",
        "streetName": "MCGEE",
        "streetDirectionId": null,
        "streetTypeId": "ST",
        "placeName": "TORONTO",
        "streetNameDisplayText": "MCGEE ST, TORONTO"
      }
    ]
  },
  {
    "postal": "M4M3E5",
    "result": [
      {
        "electoralDistricts": [
          {
            "election": null,
            "id": 110,
            "name": "Toronto—Danforth"
          }
        ],
        "pollDivisionIds": [
          10142517
        ],
        "postalCode": "M4M3E5",
        "streetName": "LESLIE",
        "streetDirectionId": null,
        "streetTypeId": "ST",
        "placeName": "TORONTO",
        "streetNameDisplayText": "LESLIE ST, TORONTO"
      }
    ]
  },
  {
    "postal": "M4M8N6",
    "result": []
  },
  {
    "postal": "M4M8J4",
    "result": []
  },
  {
    "postal": "M4M4R7",
    "result": []
  },
  {
    "postal": "M4M9K1",
    "result": []
  },
  {
    "postal": "M4M8E1",
    "result": []
  },
  {
    "postal": "M4M0R1",
    "result": []
  },
  {
    "postal": "M4M4J3",
    "result": []
  },
  {
    "postal": "M4M7E7",
    "result": []
  },
  {
    "postal": "M4M0J0",
    "result": []
  },
  {
    "postal": "M4M7R8",
    "result": []
  },
  {
    "postal": "M4M9X0",
    "result": []
  },
  {
    "postal": "M4M7P6",
    "result": []
  },
  {
    "postal": "M4M0R7",
    "result": []
  },
  {
    "postal": "M4M5W1",
    "result": []
  },
  {
    "postal": "M4M0K4",
    "result": []
  },
  {
    "postal": "M4M7N9",
    "result": []
  },
  {
    "postal": "M4M1N0",
    "result": []
  },
  {
    "postal": "M4M6P3",
    "result": []
  },
  {
    "postal": "M4M5A1",
    "result": []
  },
  {
    "postal": "M4M9M9",
    "result": []
  },
  {
    "postal": "M4M7T6",
    "result": []
  },
  {
    "postal": "M4M3X0",
    "result": []
  },
  {
    "postal": "M4M2T0",
    "result": []
  },
  {
    "postal": "M4M5X9",
    "result": []
  },
  {
    "postal": "M4M2R3",
    "result": [
      {
        "electoralDistricts": [
          {
            "election": null,
            "id": 110,
            "name": "Toronto—Danforth"
          }
        ],
        "pollDivisionIds": [
          10142529
        ],
        "postalCode": "M4M2R3",
        "streetName": "VERRAL",
        "streetDirectionId": null,
        "streetTypeId": "AVE",
        "placeName": "TORONTO",
        "streetNameDisplayText": "VERRAL AVE, TORONTO"
      }
    ]
  },
  {
    "postal": "M4M5N2",
    "result": []
  },
  {
    "postal": "M4M4Y7",
    "result": []
  },
  {
    "postal": "M4M7M0",
    "result": []
  },
  {
    "postal": "M4M8P3",
    "result": []
  },
  {
    "postal": "M4M3N3",
    "result": [
      {
        "electoralDistricts": [
          {
            "election": null,
            "id": 110,
            "name": "Toronto—Danforth"
          }
        ],
        "pollDivisionIds": [
          10142530,
          10142527
        ],
        "postalCode": "M4M3N3",
        "streetName": "RENWICK",
        "streetDirectionId": null,
        "streetTypeId": "CRES",
        "placeName": "TORONTO",
        "streetNameDisplayText": "RENWICK CRES, TORONTO"
      }
    ]
  },
  {
    "postal": "M4M7S3",
    "result": []
  },
  {
    "postal": "M4M3V9",
    "result": []
  },
  {
    "postal": "M4M9N7",
    "result": []
  },
  {
    "postal": "M4M0G4",
    "result": []
  },
  {
    "postal": "M4M2E2",
    "result": [
      {
        "electoralDistricts": [
          {
            "election": null,
            "id": 110,
            "name": "Toronto—Danforth"
          }
        ],
        "pollDivisionIds": [
          10142523
        ],
        "postalCode": "M4M2E2",
        "streetName": "HAMILTON",
        "streetDirectionId": null,
        "streetTypeId": "ST",
        "placeName": "TORONTO",
        "streetNameDisplayText": "HAMILTON ST, TORONTO"
      }
    ]
  },
  {
    "postal": "M4M7W8",
    "result": []
  },
  {
    "postal": "M4M7M5",
    "result": []
  },
  {
    "postal": "M4M5W8",
    "result": []
  },
  {
    "postal": "M4M5E5",
    "result": []
  },
  {
    "postal": "M4M1P9",
    "result": [
      {
        "electoralDistricts": [
          {
            "election": null,
            "id": 110,
            "name": "Toronto—Danforth"
          }
        ],
        "pollDivisionIds": [
          10142528
        ],
        "postalCode": "M4M1P9",
        "streetName": "DUNDAS",
        "streetDirectionId": "E",
        "streetTypeId": "ST",
        "placeName": "TORONTO",
        "streetNameDisplayText": "DUNDAS ST E, TORONTO"
      }
    ]
  },
  {
    "postal": "M4M8V8",
    "result": []
  },
  {
    "postal": "M4M9G8",
    "result": []
  },
  {
    "postal": "M4M8H9",
    "result": []
  },
  {
    "postal": "M4M1Z1",
    "result": [
      {
        "electoralDistricts": [
          {
            "election": null,
            "id": 110,
            "name": "Toronto—Danforth"
          }
        ],
        "pollDivisionIds": [
          10142525
        ],
        "postalCode": "M4M1Z1",
        "streetName": "GERRARD",
        "streetDirectionId": "E",
        "streetTypeId": "ST",
        "placeName": "TORONTO",
        "streetNameDisplayText": "GERRARD ST E, TORONTO"
      }
    ]
  },
  {
    "postal": "M4M8M3",
    "result": []
  },
  {
    "postal": "M4M5H6",
    "result": []
  },
  {
    "postal": "M4M7W7",
    "result": []
  },
  {
    "postal": "M4M4L0",
    "result": []
  },
  {
    "postal": "M4M2N1",
    "result": []
  },
  {
    "postal": "M4M2H4",
    "result": [
      {
        "electoralDistricts": [
          {
            "election": null,
            "id": 110,
            "name": "Toronto—Danforth"
          }
        ],
        "pollDivisionIds": [
          10142528
        ],
        "postalCode": "M4M2H4",
        "streetName": "GRANT",
        "streetDirectionId": null,
        "streetTypeId": "ST",
        "placeName": "TORONTO",
        "streetNameDisplayText": "GRANT ST, TORONTO"
      }
    ]
  },
  {
    "postal": "M4M5C8",
    "result": []
  },
  {
    "postal": "M4M8B0",
    "result": []
  },
  {
    "postal": "M4M1T4",
    "result": [
      {
        "electoralDistricts": [
          {
            "election": null,
            "id": 110,
            "name": "Toronto—Danforth"
          }
        ],
        "pollDivisionIds": [
          10142528
        ],
        "postalCode": "M4M1T4",
        "streetName": "ALLEN",
        "streetDirectionId": null,
        "streetTypeId": "AVE",
        "placeName": "TORONTO",
        "streetNameDisplayText": "ALLEN AVE, TORONTO"
      }
    ]
  },
  {
    "postal": "M4M7N7",
    "result": []
  },
  {
    "postal": "M4M4L3",
    "result": []
  },
  {
    "postal": "M4M2N2",
    "result": [
      {
        "electoralDistricts": [
          {
            "election": null,
            "id": 110,
            "name": "Toronto—Danforth"
          }
        ],
        "pollDivisionIds": [
          10142530
        ],
        "postalCode": "M4M2N2",
        "streetName": "LOGAN",
        "streetDirectionId": null,
        "streetTypeId": "AVE",
        "placeName": "TORONTO",
        "streetNameDisplayText": "LOGAN AVE, TORONTO"
      }
    ]
  },
  {
    "postal": "M4M4N8",
    "result": []
  },
  {
    "postal": "M4M3M5",
    "result": []
  },
  {
    "postal": "M4M6H7",
    "result": []
  },
  {
    "postal": "M4M8Y8",
    "result": []
  },
  {
    "postal": "M4M5R9",
    "result": []
  },
  {
    "postal": "M4M8G3",
    "result": []
  },
  {
    "postal": "M4M4N7",
    "result": []
  },
  {
    "postal": "M4M0B9",
    "result": []
  },
  {
    "postal": "M4M9K7",
    "result": []
  },
  {
    "postal": "M4M9K9",
    "result": []
  },
  {
    "postal": "M4M3Z2",
    "result": []
  },
  {
    "postal": "M4M6W7",
    "result": []
  },
  {
    "postal": "M4M0P1",
    "result": []
  },
  {
    "postal": "M4M3A0",
    "result": []
  },
  {
    "postal": "M4M8L9",
    "result": []
  },
  {
    "postal": "M4M6X0",
    "result": []
  },
  {
    "postal": "M4M3E9",
    "result": [
      {
        "electoralDistricts": [
          {
            "election": null,
            "id": 110,
            "name": "Toronto—Danforth"
          }
        ],
        "pollDivisionIds": [
          10142528
        ],
        "postalCode": "M4M3E9",
        "streetName": "KAY MACPHERSON",
        "streetDirectionId": null,
        "streetTypeId": "LANE",
        "placeName": "TORONTO",
        "streetNameDisplayText": "KAY MACPHERSON LANE, TORONTO"
      }
    ]
  },
  {
    "postal": "M4M0S5",
    "result": []
  },
  {
    "postal": "M4M1A2",
    "result": []
  },
  {
    "postal": "M4M5V8",
    "result": []
  },
  {
    "postal": "M4M8C5",
    "result": []
  },
  {
    "postal": "M4M6N0",
    "result": []
  },
  {
    "postal": "M4M9E6",
    "result": []
  },
  {
    "postal": "M4M5J7",
    "result": []
  },
  {
    "postal": "M4M2R2",
    "result": [
      {
        "electoralDistricts": [
          {
            "election": null,
            "id": 110,
            "name": "Toronto—Danforth"
          }
        ],
        "pollDivisionIds": [
          10142529
        ],
        "postalCode": "M4M2R2",
        "streetName": "VERRAL",
        "streetDirectionId": null,
        "streetTypeId": "AVE",
        "placeName": "TORONTO",
        "streetNameDisplayText": "VERRAL AVE, TORONTO"
      }
    ]
  },
  {
    "postal": "M4M0P5",
    "result": []
  },
  {
    "postal": "M4M5A7",
    "result": []
  },
  {
    "postal": "M4M1G1",
    "result": [
      {
        "electoralDistricts": [
          {
            "election": null,
            "id": 110,
            "name": "Toronto—Danforth"
          }
        ],
        "pollDivisionIds": [
          10142527
        ],
        "postalCode": "M4M1G1",
        "streetName": "EASTERN",
        "streetDirectionId": null,
        "streetTypeId": "AVE",
        "placeName": "TORONTO",
        "streetNameDisplayText": "EASTERN AVE, TORONTO"
      }
    ]
  },
  {
    "postal": "M4M9R6",
    "result": []
  },
  {
    "postal": "M4M4Z9",
    "result": []
  },
  {
    "postal": "M4M1V5",
    "result": [
      {
        "electoralDistricts": [
          {
            "election": null,
            "id": 110,
            "name": "Toronto—Danforth"
          }
        ],
        "pollDivisionIds": [
          10142525
        ],
        "postalCode": "M4M1V5",
        "streetName": "BADGEROW",
        "streetDirectionId": null,
        "streetTypeId": "AVE",
        "placeName": "TORONTO",
        "streetNameDisplayText": "BADGEROW AVE, TORONTO"
      }
    ]
  },
  {
    "postal": "M4M9Y5",
    "result": []
  },
  {
    "postal": "M4M1P2",
    "result": [
      {
        "electoralDistricts": [
          {
            "election": null,
            "id": 110,
            "name": "Toronto—Danforth"
          }
        ],
        "pollDivisionIds": [
          10142525
        ],
        "postalCode": "M4M1P2",
        "streetName": "BLONG",
        "streetDirectionId": null,
        "streetTypeId": "AVE",
        "placeName": "TORONTO",
        "streetNameDisplayText": "BLONG AVE, TORONTO"
      }
    ]
  },
  {
    "postal": "M4M5X0",
    "result": []
  },
  {
    "postal": "M4M7B8",
    "result": []
  },
  {
    "postal": "M4M0C6",
    "result": [
      {
        "electoralDistricts": [
          {
            "election": null,
            "id": 110,
            "name": "Toronto—Danforth"
          }
        ],
        "pollDivisionIds": [
          10142525
        ],
        "postalCode": "M4M0C6",
        "streetName": "DUNDAS",
        "streetDirectionId": "E",
        "streetTypeId": "ST",
        "placeName": "TORONTO",
        "streetNameDisplayText": "DUNDAS ST E, TORONTO"
      }
    ]
  },
  {
    "postal": "M4M6G1",
    "result": []
  },
  {
    "postal": "M4M3K3",
    "result": []
  },
  {
    "postal": "M4M9R0",
    "result": []
  },
  {
    "postal": "M4M4R8",
    "result": []
  },
  {
    "postal": "M4M5P9",
    "result": []
  },
  {
    "postal": "M4M8N4",
    "result": []
  },
  {
    "postal": "M4M8H4",
    "result": []
  },
  {
    "postal": "M4M4V1",
    "result": []
  },
  {
    "postal": "M4M1K5",
    "result": [
      {
        "electoralDistricts": [
          {
            "election": null,
            "id": 110,
            "name": "Toronto—Danforth"
          }
        ],
        "pollDivisionIds": [
          10143805
        ],
        "postalCode": "M4M1K5",
        "streetName": "QUEEN",
        "streetDirectionId": "E",
        "streetTypeId": "ST",
        "placeName": "TORONTO",
        "streetNameDisplayText": "QUEEN ST E, TORONTO"
      }
    ]
  },
  {
    "postal": "M4M1Z5",
    "result": [
      {
        "electoralDistricts": [
          {
            "election": null,
            "id": 110,
            "name": "Toronto—Danforth"
          }
        ],
        "pollDivisionIds": [
          10142517
        ],
        "postalCode": "M4M1Z5",
        "streetName": "GERRARD",
        "streetDirectionId": "E",
        "streetTypeId": "ST",
        "placeName": "TORONTO",
        "streetNameDisplayText": "GERRARD ST E, TORONTO"
      }
    ]
  },
  {
    "postal": "M4M9L9",
    "result": []
  },
  {
    "postal": "M4M5L2",
    "result": []
  },
  {
    "postal": "M4M0M2",
    "result": []
  },
  {
    "postal": "M4M1K8",
    "result": [
      {
        "electoralDistricts": [
          {
            "election": null,
            "id": 110,
            "name": "Toronto—Danforth"
          }
        ],
        "pollDivisionIds": [
          10143805
        ],
        "postalCode": "M4M1K8",
        "streetName": "QUEEN",
        "streetDirectionId": "E",
        "streetTypeId": "ST",
        "placeName": "TORONTO",
        "streetNameDisplayText": "QUEEN ST E, TORONTO"
      }
    ]
  },
  {
    "postal": "M4M3M7",
    "result": [
      {
        "electoralDistricts": [
          {
            "election": null,
            "id": 110,
            "name": "Toronto—Danforth"
          }
        ],
        "pollDivisionIds": [
          10143805
        ],
        "postalCode": "M4M3M7",
        "streetName": "LOUVAIN",
        "streetDirectionId": null,
        "streetTypeId": "AVE",
        "placeName": "TORONTO",
        "streetNameDisplayText": "LOUVAIN AVE, TORONTO"
      }
    ]
  },
  {
    "postal": "M4M1B2",
    "result": [
      {
        "electoralDistricts": [
          {
            "election": null,
            "id": 110,
            "name": "Toronto—Danforth"
          }
        ],
        "pollDivisionIds": [
          10142530
        ],
        "postalCode": "M4M1B2",
        "streetName": "LAKE SHORE",
        "streetDirectionId": "E",
        "streetTypeId": "BLVD",
        "placeName": "TORONTO",
        "streetNameDisplayText": "LAKE SHORE BLVD E, TORONTO"
      }
    ]
  },
  {
    "postal": "M4M0H9",
    "result": []
  },
  {
    "postal": "M4M8M4",
    "result": []
  },
  {
    "postal": "M4M2M5",
    "result": [
      {
        "electoralDistricts": [
          {
            "election": null,
            "id": 110,
            "name": "Toronto—Danforth"
          }
        ],
        "pollDivisionIds": [
          10142530
        ],
        "postalCode": "M4M2M5",
        "streetName": "BOOTH",
        "streetDirectionId": null,
        "streetTypeId": "AVE",
        "placeName": "TORONTO",
        "streetNameDisplayText": "BOOTH AVE, TORONTO"
      }
    ]
  },
  {
    "postal": "M4M0T9",
    "result": []
  },
  {
    "postal": "M4M3P1",
    "result": [
      {
        "electoralDistricts": [
          {
            "election": null,
            "id": 110,
            "name": "Toronto—Danforth"
          }
        ],
        "pollDivisionIds": [
          10142529
        ],
        "postalCode": "M4M3P1",
        "streetName": "DUNDAS",
        "streetDirectionId": "E",
        "streetTypeId": "ST",
        "placeName": "TORONTO",
        "streetNameDisplayText": "DUNDAS ST E, TORONTO"
      }
    ]
  },
  {
    "postal": "M4M1R6",
    "result": [
      {
        "electoralDistricts": [
          {
            "election": null,
            "id": 110,
            "name": "Toronto—Danforth"
          }
        ],
        "pollDivisionIds": [
          10142529
        ],
        "postalCode": "M4M1R6",
        "streetName": "DEGRASSI",
        "streetDirectionId": null,
        "streetTypeId": "ST",
        "placeName": "TORONTO",
        "streetNameDisplayText": "DEGRASSI ST, TORONTO"
      },
      {
        "electoralDistricts": [
          {
            "election": null,
            "id": 110,
            "name": "Toronto—Danforth"
          }
        ],
        "pollDivisionIds": [
          10142529
        ],
        "postalCode": "M4M1R6",
        "streetName": "DUNDAS",
        "streetDirectionId": "E",
        "streetTypeId": "ST",
        "placeName": "TORONTO",
        "streetNameDisplayText": "DUNDAS ST E, TORONTO"
      }
    ]
  },
  {
    "postal": "M4M9V5",
    "result": []
  },
  {
    "postal": "M4M9T0",
    "result": []
  },
  {
    "postal": "M4M0A9",
    "result": [
      {
        "electoralDistricts": [
          {
            "election": null,
            "id": 110,
            "name": "Toronto—Danforth"
          }
        ],
        "pollDivisionIds": [
          10142528
        ],
        "postalCode": "M4M0A9",
        "streetName": "BROADVIEW",
        "streetDirectionId": null,
        "streetTypeId": "AVE",
        "placeName": "TORONTO",
        "streetNameDisplayText": "BROADVIEW AVE, TORONTO"
      }
    ]
  },
  {
    "postal": "M4M1M3",
    "result": [
      {
        "electoralDistricts": [
          {
            "election": null,
            "id": 110,
            "name": "Toronto—Danforth"
          }
        ],
        "pollDivisionIds": [
          10142528
        ],
        "postalCode": "M4M1M3",
        "streetName": "KINTYRE",
        "streetDirectionId": null,
        "streetTypeId": "AVE",
        "placeName": "TORONTO",
        "streetNameDisplayText": "KINTYRE AVE, TORONTO"
      }
    ]
  },
  {
    "postal": "M4M1W8",
    "result": [
      {
        "electoralDistricts": [
          {
            "election": null,
            "id": 110,
            "name": "Toronto—Danforth"
          }
        ],
        "pollDivisionIds": [
          10142523
        ],
        "postalCode": "M4M1W8",
        "streetName": "FIRST",
        "streetDirectionId": null,
        "streetTypeId": "AVE",
        "placeName": "TORONTO",
        "streetNameDisplayText": "FIRST AVE, TORONTO"
      }
    ]
  },
  {
    "postal": "M4M9J1",
    "result": []
  },
  {
    "postal": "M4M8N5",
    "result": []
  },
  {
    "postal": "M4M5X1",
    "result": []
  },
  {
    "postal": "M4M6S2",
    "result": []
  },
  {
    "postal": "M4M2A2",
    "result": [
      {
        "electoralDistricts": [
          {
            "election": null,
            "id": 110,
            "name": "Toronto—Danforth"
          }
        ],
        "pollDivisionIds": [
          10142517
        ],
        "postalCode": "M4M2A2",
        "streetName": "MYRTLE",
        "streetDirectionId": null,
        "streetTypeId": "AVE",
        "placeName": "TORONTO",
        "streetNameDisplayText": "MYRTLE AVE, TORONTO"
      }
    ]
  },
  {
    "postal": "M4M6A6",
    "result": []
  },
  {
    "postal": "M4M0S3",
    "result": []
  },
  {
    "postal": "M4M3E7",
    "result": [
      {
        "electoralDistricts": [
          {
            "election": null,
            "id": 110,
            "name": "Toronto—Danforth"
          }
        ],
        "pollDivisionIds": [
          10142528
        ],
        "postalCode": "M4M3E7",
        "streetName": "FLORENCE WYLE",
        "streetDirectionId": null,
        "streetTypeId": "LANE",
        "placeName": "TORONTO",
        "streetNameDisplayText": "FLORENCE WYLE LANE, TORONTO"
      }
    ]
  },
  {
    "postal": "M4M5R7",
    "result": []
  },
  {
    "postal": "M4M3R6",
    "result": []
  },
  {
    "postal": "M4M6K4",
    "result": []
  },
  {
    "postal": "M4M2W5",
    "result": [
      {
        "electoralDistricts": [
          {
            "election": null,
            "id": 110,
            "name": "Toronto—Danforth"
          }
        ],
        "pollDivisionIds": [
          10142525
        ],
        "postalCode": "M4M2W5",
        "streetName": "PAPE",
        "streetDirectionId": null,
        "streetTypeId": "AVE",
        "placeName": "TORONTO",
        "streetNameDisplayText": "PAPE AVE, TORONTO"
      }
    ]
  },
  {
    "postal": "M4M8W4",
    "result": []
  },
  {
    "postal": "M4M9C2",
    "result": []
  },
  {
    "postal": "M4M2C0",
    "result": []
  },
  {
    "postal": "M4M0E1",
    "result": [
      {
        "electoralDistricts": [
          {
            "election": null,
            "id": 110,
            "name": "Toronto—Danforth"
          }
        ],
        "pollDivisionIds": [
          10142530
        ],
        "postalCode": "M4M0E1",
        "streetName": "COMMISSIONERS",
        "streetDirectionId": null,
        "streetTypeId": "ST",
        "placeName": "TORONTO",
        "streetNameDisplayText": "COMMISSIONERS ST, TORONTO"
      }
    ]
  },
  {
    "postal": "M4M1K9",
    "result": [
      {
        "electoralDistricts": [
          {
            "election": null,
            "id": 110,
            "name": "Toronto—Danforth"
          }
        ],
        "pollDivisionIds": [
          10143805,
          10142527
        ],
        "postalCode": "M4M1K9",
        "streetName": "QUEEN",
        "streetDirectionId": "E",
        "streetTypeId": "ST",
        "placeName": "TORONTO",
        "streetNameDisplayText": "QUEEN ST E, TORONTO"
      }
    ]
  },
  {
    "postal": "M4M1G7",
    "result": [
      {
        "electoralDistricts": [
          {
            "election": null,
            "id": 110,
            "name": "Toronto—Danforth"
          }
        ],
        "pollDivisionIds": [
          10142529
        ],
        "postalCode": "M4M1G7",
        "streetName": "QUEEN",
        "streetDirectionId": "E",
        "streetTypeId": "ST",
        "placeName": "TORONTO",
        "streetNameDisplayText": "QUEEN ST E, TORONTO"
      }
    ]
  },
  {
    "postal": "M4M4E9",
    "result": []
  },
  {
    "postal": "M4M9P0",
    "result": []
  },
  {
    "postal": "M4M5H3",
    "result": []
  },
  {
    "postal": "M4M9X6",
    "result": []
  },
  {
    "postal": "M4M5N7",
    "result": []
  },
  {
    "postal": "M4M5A6",
    "result": []
  },
  {
    "postal": "M4M4M0",
    "result": []
  },
  {
    "postal": "M4M3V6",
    "result": []
  },
  {
    "postal": "M4M1L7",
    "result": [
      {
        "electoralDistricts": [
          {
            "election": null,
            "id": 110,
            "name": "Toronto—Danforth"
          },
          {
            "election": null,
            "id": 109,
            "name": "Toronto Centre"
          }
        ],
        "pollDivisionIds": [
          10143805,
          10135203
        ],
        "postalCode": "M4M1L7",
        "streetName": "QUEEN",
        "streetDirectionId": "E",
        "streetTypeId": "ST",
        "placeName": "TORONTO",
        "streetNameDisplayText": "QUEEN ST E, TORONTO"
      }
    ]
  },
  {
    "postal": "M4M2P9",
    "result": [
      {
        "electoralDistricts": [
          {
            "election": null,
            "id": 110,
            "name": "Toronto—Danforth"
          }
        ],
        "pollDivisionIds": [
          10142530
        ],
        "postalCode": "M4M2P9",
        "streetName": "MORSE",
        "streetDirectionId": null,
        "streetTypeId": "ST",
        "placeName": "TORONTO",
        "streetNameDisplayText": "MORSE ST, TORONTO"
      }
    ]
  },
  {
    "postal": "M4M5T4",
    "result": []
  },
  {
    "postal": "M4M5Z1",
    "result": []
  },
  {
    "postal": "M4M2X0",
    "result": []
  },
  {
    "postal": "M4M6Z2",
    "result": []
  },
  {
    "postal": "M4M0E0",
    "result": []
  },
  {
    "postal": "M4M3Z5",
    "result": []
  },
  {
    "postal": "M4M8H3",
    "result": []
  },
  {
    "postal": "M4M7S6",
    "result": []
  },
  {
    "postal": "M4M4C1",
    "result": []
  },
  {
    "postal": "M4M3K2",
    "result": [
      {
        "electoralDistricts": [
          {
            "election": null,
            "id": 110,
            "name": "Toronto—Danforth"
          }
        ],
        "pollDivisionIds": [
          10142530
        ],
        "postalCode": "M4M3K2",
        "streetName": "COMMISSIONERS",
        "streetDirectionId": null,
        "streetTypeId": "ST",
        "placeName": "TORONTO",
        "streetNameDisplayText": "COMMISSIONERS ST, TORONTO"
      }
    ]
  },
  {
    "postal": "M4M1Y5",
    "result": [
      {
        "electoralDistricts": [
          {
            "election": null,
            "id": 110,
            "name": "Toronto—Danforth"
          }
        ],
        "pollDivisionIds": [
          10142523
        ],
        "postalCode": "M4M1Y5",
        "streetName": "GERRARD",
        "streetDirectionId": "E",
        "streetTypeId": "ST",
        "placeName": "TORONTO",
        "streetNameDisplayText": "GERRARD ST E, TORONTO"
      }
    ]
  },
  {
    "postal": "M4M6P6",
    "result": []
  },
  {
    "postal": "M4M3N9",
    "result": [
      {
        "electoralDistricts": [
          {
            "election": null,
            "id": 110,
            "name": "Toronto—Danforth"
          }
        ],
        "pollDivisionIds": [
          10142529
        ],
        "postalCode": "M4M3N9",
        "streetName": "DUNDAS",
        "streetDirectionId": "E",
        "streetTypeId": "ST",
        "placeName": "TORONTO",
        "streetNameDisplayText": "DUNDAS ST E, TORONTO"
      }
    ]
  },
  {
    "postal": "M4M3W2",
    "result": []
  },
  {
    "postal": "M4M6H8",
    "result": []
  },
  {
    "postal": "M4M9T3",
    "result": []
  },
  {
    "postal": "M4M5L9",
    "result": []
  },
  {
    "postal": "M4M7X7",
    "result": []
  },
  {
    "postal": "M4M3J5",
    "result": []
  },
  {
    "postal": "M4M4J5",
    "result": []
  },
  {
    "postal": "M4M6J2",
    "result": []
  },
  {
    "postal": "M4M5V6",
    "result": []
  },
  {
    "postal": "M4M3N2",
    "result": [
      {
        "electoralDistricts": [
          {
            "election": null,
            "id": 110,
            "name": "Toronto—Danforth"
          }
        ],
        "pollDivisionIds": [
          10142521
        ],
        "postalCode": "M4M3N2",
        "streetName": "GERRARD",
        "streetDirectionId": "E",
        "streetTypeId": "ST",
        "placeName": "TORONTO",
        "streetNameDisplayText": "GERRARD ST E, TORONTO"
      }
    ]
  },
  {
    "postal": "M4M3B1",
    "result": [
      {
        "electoralDistricts": [
          {
            "election": null,
            "id": 110,
            "name": "Toronto—Danforth"
          }
        ],
        "pollDivisionIds": [
          10142527
        ],
        "postalCode": "M4M3B1",
        "streetName": "MARIGOLD",
        "streetDirectionId": null,
        "streetTypeId": "AVE",
        "placeName": "TORONTO",
        "streetNameDisplayText": "MARIGOLD AVE, TORONTO"
      }
    ]
  },
  {
    "postal": "M4M8B5",
    "result": []
  },
  {
    "postal": "M4M0K1",
    "result": []
  },
  {
    "postal": "M4M7M7",
    "result": []
  },
  {
    "postal": "M4M2M2",
    "result": [
      {
        "electoralDistricts": [
          {
            "election": null,
            "id": 110,
            "name": "Toronto—Danforth"
          }
        ],
        "pollDivisionIds": [
          10142530
        ],
        "postalCode": "M4M2M2",
        "streetName": "BOOTH",
        "streetDirectionId": null,
        "streetTypeId": "AVE",
        "placeName": "TORONTO",
        "streetNameDisplayText": "BOOTH AVE, TORONTO"
      }
    ]
  },
  {
    "postal": "M4M9N3",
    "result": []
  },
  {
    "postal": "M4M4Y8",
    "result": []
  },
  {
    "postal": "M4M3V7",
    "result": []
  },
  {
    "postal": "M4M8Z1",
    "result": []
  },
  {
    "postal": "M4M7B3",
    "result": []
  },
  {
    "postal": "M4M3A8",
    "result": [
      {
        "electoralDistricts": [
          {
            "election": null,
            "id": 110,
            "name": "Toronto—Danforth"
          }
        ],
        "pollDivisionIds": [
          10142527
        ],
        "postalCode": "M4M3A8",
        "streetName": "RUSHBROOKE",
        "streetDirectionId": null,
        "streetTypeId": "AVE",
        "placeName": "TORONTO",
        "streetNameDisplayText": "RUSHBROOKE AVE, TORONTO"
      }
    ]
  },
  {
    "postal": "M4M7V5",
    "result": []
  },
  {
    "postal": "M4M2T2",
    "result": []
  },
  {
    "postal": "M4M6L3",
    "result": []
  },
  {
    "postal": "M4M0L2",
    "result": []
  },
  {
    "postal": "M4M5Y8",
    "result": []
  },
  {
    "postal": "M4M0B8",
    "result": []
  },
  {
    "postal": "M4M6R5",
    "result": []
  },
  {
    "postal": "M4M8W6",
    "result": []
  },
  {
    "postal": "M4M8G6",
    "result": []
  },
  {
    "postal": "M4M6X3",
    "result": []
  },
  {
    "postal": "M4M7R7",
    "result": []
  },
  {
    "postal": "M4M4B6",
    "result": []
  },
  {
    "postal": "M4M3P9",
    "result": []
  },
  {
    "postal": "M4M2T3",
    "result": []
  },
  {
    "postal": "M4M1M4",
    "result": [
      {
        "electoralDistricts": [
          {
            "election": null,
            "id": 110,
            "name": "Toronto—Danforth"
          }
        ],
        "pollDivisionIds": [
          10142528
        ],
        "postalCode": "M4M1M4",
        "streetName": "MATILDA",
        "streetDirectionId": null,
        "streetTypeId": "ST",
        "placeName": "TORONTO",
        "streetNameDisplayText": "MATILDA ST, TORONTO"
      }
    ]
  },
  {
    "postal": "M4M0H1",
    "result": []
  },
  {
    "postal": "M4M9W3",
    "result": []
  },
  {
    "postal": "M4M6P1",
    "result": []
  },
  {
    "postal": "M4M7G2",
    "result": []
  },
  {
    "postal": "M4M4J9",
    "result": []
  },
  {
    "postal": "M4M9E4",
    "result": []
  },
  {
    "postal": "M4M8H0",
    "result": []
  },
  {
    "postal": "M4M4M7",
    "result": []
  },
  {
    "postal": "M4M2G9",
    "result": [
      {
        "electoralDistricts": [
          {
            "election": null,
            "id": 110,
            "name": "Toronto—Danforth"
          }
        ],
        "pollDivisionIds": [
          10142523
        ],
        "postalCode": "M4M2G9",
        "streetName": "BROADVIEW",
        "streetDirectionId": null,
        "streetTypeId": "AVE",
        "placeName": "TORONTO",
        "streetNameDisplayText": "BROADVIEW AVE, TORONTO"
      }
    ]
  },
  {
    "postal": "M4M8T2",
    "result": []
  },
  {
    "postal": "M4M7G7",
    "result": []
  },
  {
    "postal": "M4M4Z3",
    "result": []
  },
  {
    "postal": "M4M5B3",
    "result": []
  },
  {
    "postal": "M4M1S7",
    "result": [
      {
        "electoralDistricts": [
          {
            "election": null,
            "id": 110,
            "name": "Toronto—Danforth"
          }
        ],
        "pollDivisionIds": [
          10143805
        ],
        "postalCode": "M4M1S7",
        "streetName": "DUNDAS",
        "streetDirectionId": "E",
        "streetTypeId": "ST",
        "placeName": "TORONTO",
        "streetNameDisplayText": "DUNDAS ST E, TORONTO"
      }
    ]
  },
  {
    "postal": "M4M2N7",
    "result": [
      {
        "electoralDistricts": [
          {
            "election": null,
            "id": 110,
            "name": "Toronto—Danforth"
          }
        ],
        "pollDivisionIds": [
          10142529
        ],
        "postalCode": "M4M2N7",
        "streetName": "LOGAN",
        "streetDirectionId": null,
        "streetTypeId": "AVE",
        "placeName": "TORONTO",
        "streetNameDisplayText": "LOGAN AVE, TORONTO"
      }
    ]
  },
  {
    "postal": "M4M0H8",
    "result": []
  },
  {
    "postal": "M4M7Z4",
    "result": []
  },
  {
    "postal": "M4M7B1",
    "result": []
  },
  {
    "postal": "M4M7P8",
    "result": []
  },
  {
    "postal": "M4M7N0",
    "result": []
  },
  {
    "postal": "M4M3Y5",
    "result": []
  },
  {
    "postal": "M4M6K1",
    "result": []
  },
  {
    "postal": "M4M9X5",
    "result": []
  },
  {
    "postal": "M4M7S5",
    "result": []
  },
  {
    "postal": "M4M0A4",
    "result": [
      {
        "electoralDistricts": [
          {
            "election": null,
            "id": 110,
            "name": "Toronto—Danforth"
          }
        ],
        "pollDivisionIds": [
          10142525
        ],
        "postalCode": "M4M0A4",
        "streetName": "CARLAW",
        "streetDirectionId": null,
        "streetTypeId": "AVE",
        "placeName": "TORONTO",
        "streetNameDisplayText": "CARLAW AVE, TORONTO"
      }
    ]
  },
  {
    "postal": "M4M4T5",
    "result": []
  },
  {
    "postal": "M4M5K1",
    "result": []
  },
  {
    "postal": "M4M0Z9",
    "result": []
  },
  {
    "postal": "M4M7T2",
    "result": []
  },
  {
    "postal": "M4M1L5",
    "result": [
      {
        "electoralDistricts": [
          {
            "election": null,
            "id": 110,
            "name": "Toronto—Danforth"
          }
        ],
        "pollDivisionIds": [
          10142527
        ],
        "postalCode": "M4M1L5",
        "streetName": "QUEEN",
        "streetDirectionId": "E",
        "streetTypeId": "ST",
        "placeName": "TORONTO",
        "streetNameDisplayText": "QUEEN ST E, TORONTO"
      }
    ]
  },
  {
    "postal": "M4M3N5",
    "result": [
      {
        "electoralDistricts": [
          {
            "election": null,
            "id": 110,
            "name": "Toronto—Danforth"
          }
        ],
        "pollDivisionIds": [
          10142527
        ],
        "postalCode": "M4M3N5",
        "streetName": "QUEEN",
        "streetDirectionId": "E",
        "streetTypeId": "ST",
        "placeName": "TORONTO",
        "streetNameDisplayText": "QUEEN ST E, TORONTO"
      }
    ]
  },
  {
    "postal": "M4M6H4",
    "result": []
  },
  {
    "postal": "M4M5A5",
    "result": []
  },
  {
    "postal": "M4M3R9",
    "result": []
  },
  {
    "postal": "M4M7L8",
    "result": []
  },
  {
    "postal": "M4M6T6",
    "result": []
  },
  {
    "postal": "M4M7Y7",
    "result": []
  },
  {
    "postal": "M4M3M8",
    "result": []
  },
  {
    "postal": "M4M2E0",
    "result": []
  },
  {
    "postal": "M4M4B5",
    "result": []
  },
  {
    "postal": "M4M1J3",
    "result": [
      {
        "electoralDistricts": [
          {
            "election": null,
            "id": 110,
            "name": "Toronto—Danforth"
          }
        ],
        "pollDivisionIds": [
          10142529
        ],
        "postalCode": "M4M1J3",
        "streetName": "QUEEN",
        "streetDirectionId": "E",
        "streetTypeId": "ST",
        "placeName": "TORONTO",
        "streetNameDisplayText": "QUEEN ST E, TORONTO"
      }
    ]
  },
  {
    "postal": "M4M5S6",
    "result": []
  },
  {
    "postal": "M4M8P7",
    "result": []
  },
  {
    "postal": "M4M7S7",
    "result": []
  },
  {
    "postal": "M4M4C2",
    "result": []
  },
  {
    "postal": "M4M5Y0",
    "result": []
  },
  {
    "postal": "M4M2V7",
    "result": [
      {
        "electoralDistricts": [
          {
            "election": null,
            "id": 110,
            "name": "Toronto—Danforth"
          }
        ],
        "pollDivisionIds": [
          10142527
        ],
        "postalCode": "M4M2V7",
        "streetName": "PAPE",
        "streetDirectionId": null,
        "streetTypeId": "AV",
        "placeName": "TORONTO",
        "streetNameDisplayText": "PAPE AV, TORONTO"
      },
      {
        "electoralDistricts": [
          {
            "election": null,
            "id": 110,
            "name": "Toronto—Danforth"
          }
        ],
        "pollDivisionIds": [
          10143805
        ],
        "postalCode": "M4M2V7",
        "streetName": "PAPE",
        "streetDirectionId": null,
        "streetTypeId": "AVE",
        "placeName": "TORONTO",
        "streetNameDisplayText": "PAPE AVE, TORONTO"
      }
    ]
  },
  {
    "postal": "M4M8P5",
    "result": []
  },
  {
    "postal": "M4M5P5",
    "result": []
  },
  {
    "postal": "M4M5Z0",
    "result": []
  },
  {
    "postal": "M4M9B0",
    "result": []
  },
  {
    "postal": "M4M1L0",
    "result": []
  },
  {
    "postal": "M4M0B5",
    "result": [
      {
        "electoralDistricts": [
          {
            "election": null,
            "id": 110,
            "name": "Toronto—Danforth"
          }
        ],
        "pollDivisionIds": [
          10142528
        ],
        "postalCode": "M4M0B5",
        "streetName": "BOULTON",
        "streetDirectionId": null,
        "streetTypeId": "AVE",
        "placeName": "TORONTO",
        "streetNameDisplayText": "BOULTON AVE, TORONTO"
      },
      {
        "electoralDistricts": [
          {
            "election": null,
            "id": 110,
            "name": "Toronto—Danforth"
          }
        ],
        "pollDivisionIds": [
          10142528
        ],
        "postalCode": "M4M0B5",
        "streetName": "HOWIE",
        "streetDirectionId": null,
        "streetTypeId": "AVE",
        "placeName": "TORONTO",
        "streetNameDisplayText": "HOWIE AVE, TORONTO"
      }
    ]
  },
  {
    "postal": "M4M3L2",
    "result": []
  },
  {
    "postal": "M4M3B7",
    "result": [
      {
        "electoralDistricts": [
          {
            "election": null,
            "id": 110,
            "name": "Toronto—Danforth"
          }
        ],
        "pollDivisionIds": [
          10142517
        ],
        "postalCode": "M4M3B7",
        "streetName": "BUSHELL",
        "streetDirectionId": null,
        "streetTypeId": "AVE",
        "placeName": "TORONTO",
        "streetNameDisplayText": "BUSHELL AVE, TORONTO"
      }
    ]
  },
  {
    "postal": "M4M8L1",
    "result": []
  },
  {
    "postal": "M4M5M4",
    "result": []
  },
  {
    "postal": "M4M4G9",
    "result": []
  },
  {
    "postal": "M4M0P0",
    "result": []
  },
  {
    "postal": "M4M8G2",
    "result": []
  },
  {
    "postal": "M4M1V9",
    "result": [
      {
        "electoralDistricts": [
          {
            "election": null,
            "id": 110,
            "name": "Toronto—Danforth"
          }
        ],
        "pollDivisionIds": [
          10143805
        ],
        "postalCode": "M4M1V9",
        "streetName": "DAGMAR",
        "streetDirectionId": null,
        "streetTypeId": "AVE",
        "placeName": "TORONTO",
        "streetNameDisplayText": "DAGMAR AVE, TORONTO"
      }
    ]
  },
  {
    "postal": "M4M8N8",
    "result": []
  },
  {
    "postal": "M4M6S8",
    "result": []
  },
  {
    "postal": "M4M8H2",
    "result": []
  },
  {
    "postal": "M4M5R8",
    "result": []
  },
  {
    "postal": "M4M5L4",
    "result": []
  },
  {
    "postal": "M4M9E1",
    "result": []
  },
  {
    "postal": "M4M1C4",
    "result": [
      {
        "electoralDistricts": [
          {
            "election": null,
            "id": 110,
            "name": "Toronto—Danforth"
          }
        ],
        "pollDivisionIds": [
          10142530
        ],
        "postalCode": "M4M1C4",
        "streetName": "EASTERN",
        "streetDirectionId": null,
        "streetTypeId": "AVE",
        "placeName": "TORONTO",
        "streetNameDisplayText": "EASTERN AVE, TORONTO"
      }
    ]
  },
  {
    "postal": "M4M8W5",
    "result": []
  },
  {
    "postal": "M4M1Y4",
    "result": [
      {
        "electoralDistricts": [
          {
            "election": null,
            "id": 110,
            "name": "Toronto—Danforth"
          }
        ],
        "pollDivisionIds": [
          10142523
        ],
        "postalCode": "M4M1Y4",
        "streetName": "GERRARD",
        "streetDirectionId": "E",
        "streetTypeId": "ST",
        "placeName": "TORONTO",
        "streetNameDisplayText": "GERRARD ST E, TORONTO"
      }
    ]
  },
  {
    "postal": "M4M1C0",
    "result": []
  },
  {
    "postal": "M4M2J2",
    "result": [
      {
        "electoralDistricts": [
          {
            "election": null,
            "id": 110,
            "name": "Toronto—Danforth"
          }
        ],
        "pollDivisionIds": [
          10142529
        ],
        "postalCode": "M4M2J2",
        "streetName": "WOODGREEN",
        "streetDirectionId": null,
        "streetTypeId": "PL",
        "placeName": "TORONTO",
        "streetNameDisplayText": "WOODGREEN PL, TORONTO"
      }
    ]
  },
  {
    "postal": "M4M2J0",
    "result": []
  },
  {
    "postal": "M4M7A3",
    "result": []
  },
  {
    "postal": "M4M8M1",
    "result": []
  },
  {
    "postal": "M4M7T9",
    "result": []
  },
  {
    "postal": "M4M6C0",
    "result": []
  },
  {
    "postal": "M4M7X1",
    "result": []
  },
  {
    "postal": "M4M0G1",
    "result": []
  },
  {
    "postal": "M4M4X2",
    "result": []
  },
  {
    "postal": "M4M0N6",
    "result": []
  },
  {
    "postal": "M4M8E3",
    "result": []
  },
  {
    "postal": "M4M5S8",
    "result": []
  },
  {
    "postal": "M4M0R0",
    "result": []
  },
  {
    "postal": "M4M6J6",
    "result": []
  },
  {
    "postal": "M4M4B4",
    "result": []
  },
  {
    "postal": "M4M7E3",
    "result": []
  },
  {
    "postal": "M4M3N6",
    "result": [
      {
        "electoralDistricts": [
          {
            "election": null,
            "id": 110,
            "name": "Toronto—Danforth"
          }
        ],
        "pollDivisionIds": [
          10142525,
          10142529
        ],
        "postalCode": "M4M3N6",
        "streetName": "CARLAW",
        "streetDirectionId": null,
        "streetTypeId": "AVE",
        "placeName": "TORONTO",
        "streetNameDisplayText": "CARLAW AVE, TORONTO"
      }
    ]
  },
  {
    "postal": "M4M3X6",
    "result": []
  },
  {
    "postal": "M4M8L0",
    "result": []
  },
  {
    "postal": "M4M8N1",
    "result": []
  },
  {
    "postal": "M4M4J0",
    "result": []
  },
  {
    "postal": "M4M0X7",
    "result": []
  },
  {
    "postal": "M4M6S4",
    "result": []
  },
  {
    "postal": "M4M0Z0",
    "result": []
  },
  {
    "postal": "M4M9X8",
    "result": []
  },
  {
    "postal": "M4M3H3",
    "result": [
      {
        "electoralDistricts": [
          {
            "election": null,
            "id": 110,
            "name": "Toronto—Danforth"
          }
        ],
        "pollDivisionIds": [
          10142529
        ],
        "postalCode": "M4M3H3",
        "streetName": "BROADVIEW",
        "streetDirectionId": null,
        "streetTypeId": "AVE",
        "placeName": "TORONTO",
        "streetNameDisplayText": "BROADVIEW AVE, TORONTO"
      }
    ]
  },
  {
    "postal": "M4M7S2",
    "result": []
  },
  {
    "postal": "M4M3T3",
    "result": []
  },
  {
    "postal": "M4M9P3",
    "result": []
  },
  {
    "postal": "M4M4H8",
    "result": []
  },
  {
    "postal": "M4M6R1",
    "result": []
  },
  {
    "postal": "M4M1S0",
    "result": []
  },
  {
    "postal": "M4M3W8",
    "result": []
  },
  {
    "postal": "M4M4S3",
    "result": []
  },
  {
    "postal": "M4M1B6",
    "result": []
  },
  {
    "postal": "M4M8R3",
    "result": []
  },
  {
    "postal": "M4M4V9",
    "result": []
  },
  {
    "postal": "M4M9W4",
    "result": []
  },
  {
    "postal": "M4M3T4",
    "result": []
  },
  {
    "postal": "M4M5C7",
    "result": []
  },
  {
    "postal": "M4M3Y1",
    "result": []
  },
  {
    "postal": "M4M5V0",
    "result": []
  },
  {
    "postal": "M4M8G8",
    "result": []
  },
  {
    "postal": "M4M8B1",
    "result": []
  },
  {
    "postal": "M4M4P5",
    "result": []
  },
  {
    "postal": "M4M7B2",
    "result": []
  },
  {
    "postal": "M4M0R2",
    "result": []
  },
  {
    "postal": "M4M4M4",
    "result": []
  },
  {
    "postal": "M4M7M4",
    "result": []
  },
  {
    "postal": "M4M9S7",
    "result": []
  },
  {
    "postal": "M4M5Z7",
    "result": []
  },
  {
    "postal": "M4M7J7",
    "result": []
  },
  {
    "postal": "M4M8R8",
    "result": []
  },
  {
    "postal": "M4M9X1",
    "result": []
  },
  {
    "postal": "M4M5M9",
    "result": []
  },
  {
    "postal": "M4M9B4",
    "result": []
  },
  {
    "postal": "M4M0L9",
    "result": []
  },
  {
    "postal": "M4M9G4",
    "result": []
  },
  {
    "postal": "M4M1J4",
    "result": [
      {
        "electoralDistricts": [
          {
            "election": null,
            "id": 110,
            "name": "Toronto—Danforth"
          }
        ],
        "pollDivisionIds": [
          10142530
        ],
        "postalCode": "M4M1J4",
        "streetName": "QUEEN",
        "streetDirectionId": "E",
        "streetTypeId": "ST",
        "placeName": "TORONTO",
        "streetNameDisplayText": "QUEEN ST E, TORONTO"
      }
    ]
  },
  {
    "postal": "M4M0W6",
    "result": []
  },
  {
    "postal": "M4M4C5",
    "result": []
  },
  {
    "postal": "M4M7E4",
    "result": []
  },
  {
    "postal": "M4M1R9",
    "result": [
      {
        "electoralDistricts": [
          {
            "election": null,
            "id": 110,
            "name": "Toronto—Danforth"
          }
        ],
        "pollDivisionIds": [
          10142529
        ],
        "postalCode": "M4M1R9",
        "streetName": "DUNDAS",
        "streetDirectionId": "E",
        "streetTypeId": "ST",
        "placeName": "TORONTO",
        "streetNameDisplayText": "DUNDAS ST E, TORONTO"
      }
    ]
  },
  {
    "postal": "M4M2P0",
    "result": []
  },
  {
    "postal": "M4M5S4",
    "result": []
  },
  {
    "postal": "M4M5K8",
    "result": []
  },
  {
    "postal": "M4M8K4",
    "result": []
  },
  {
    "postal": "M4M7C1",
    "result": []
  },
  {
    "postal": "M4M7K9",
    "result": []
  },
  {
    "postal": "M4M5J1",
    "result": []
  },
  {
    "postal": "M4M4P9",
    "result": []
  },
  {
    "postal": "M4M0N2",
    "result": []
  },
  {
    "postal": "M4M2G6",
    "result": [
      {
        "electoralDistricts": [
          {
            "election": null,
            "id": 110,
            "name": "Toronto—Danforth"
          }
        ],
        "pollDivisionIds": [
          10142528
        ],
        "postalCode": "M4M2G6",
        "streetName": "BROADVIEW",
        "streetDirectionId": null,
        "streetTypeId": "AVE",
        "placeName": "TORONTO",
        "streetNameDisplayText": "BROADVIEW AVE, TORONTO"
      }
    ]
  },
  {
    "postal": "M4M6P4",
    "result": []
  },
  {
    "postal": "M4M3J0",
    "result": []
  },
  {
    "postal": "M4M8X4",
    "result": []
  },
  {
    "postal": "M4M1Y3",
    "result": [
      {
        "electoralDistricts": [
          {
            "election": null,
            "id": 110,
            "name": "Toronto—Danforth"
          }
        ],
        "pollDivisionIds": [
          10142523
        ],
        "postalCode": "M4M1Y3",
        "streetName": "GERRARD",
        "streetDirectionId": "E",
        "streetTypeId": "ST",
        "placeName": "TORONTO",
        "streetNameDisplayText": "GERRARD ST E, TORONTO"
      }
    ]
  },
  {
    "postal": "M4M1A8",
    "result": []
  },
  {
    "postal": "M4M6Y5",
    "result": []
  },
  {
    "postal": "M4M0J6",
    "result": []
  },
  {
    "postal": "M4M2C9",
    "result": [
      {
        "electoralDistricts": [
          {
            "election": null,
            "id": 110,
            "name": "Toronto—Danforth"
          }
        ],
        "pollDivisionIds": [
          10142528
        ],
        "postalCode": "M4M2C9",
        "streetName": "HAMILTON",
        "streetDirectionId": null,
        "streetTypeId": "ST",
        "placeName": "TORONTO",
        "streetNameDisplayText": "HAMILTON ST, TORONTO"
      }
    ]
  },
  {
    "postal": "M4M8J6",
    "result": []
  },
  {
    "postal": "M4M8T4",
    "result": []
  },
  {
    "postal": "M4M1P7",
    "result": [
      {
        "electoralDistricts": [
          {
            "election": null,
            "id": 110,
            "name": "Toronto—Danforth"
          }
        ],
        "pollDivisionIds": [
          10143805
        ],
        "postalCode": "M4M1P7",
        "streetName": "MALLON",
        "streetDirectionId": null,
        "streetTypeId": "AVE",
        "placeName": "TORONTO",
        "streetNameDisplayText": "MALLON AVE, TORONTO"
      }
    ]
  },
  {
    "postal": "M4M9V9",
    "result": []
  },
  {
    "postal": "M4M0M1",
    "result": []
  },
  {
    "postal": "M4M6K5",
    "result": []
  },
  {
    "postal": "M4M2T5",
    "result": [
      {
        "electoralDistricts": [
          {
            "election": null,
            "id": 110,
            "name": "Toronto—Danforth"
          }
        ],
        "pollDivisionIds": [
          10142530
        ],
        "postalCode": "M4M2T5",
        "streetName": "HEWARD",
        "streetDirectionId": null,
        "streetTypeId": "AVE",
        "placeName": "TORONTO",
        "streetNameDisplayText": "HEWARD AVE, TORONTO"
      }
    ]
  },
  {
    "postal": "M4M7E9",
    "result": []
  },
  {
    "postal": "M4M5K5",
    "result": []
  },
  {
    "postal": "M4M3R5",
    "result": []
  },
  {
    "postal": "M4M5B1",
    "result": []
  },
  {
    "postal": "M4M2P1",
    "result": [
      {
        "electoralDistricts": [
          {
            "election": null,
            "id": 110,
            "name": "Toronto—Danforth"
          }
        ],
        "pollDivisionIds": [
          10142537
        ],
        "postalCode": "M4M2P1",
        "streetName": "LOGAN",
        "streetDirectionId": null,
        "streetTypeId": "AVE",
        "placeName": "TORONTO",
        "streetNameDisplayText": "LOGAN AVE, TORONTO"
      }
    ]
  },
  {
    "postal": "M4M7L0",
    "result": []
  },
  {
    "postal": "M4M3L6",
    "result": []
  },
  {
    "postal": "M4M2A4",
    "result": [
      {
        "electoralDistricts": [
          {
            "election": null,
            "id": 110,
            "name": "Toronto—Danforth"
          }
        ],
        "pollDivisionIds": [
          10142517
        ],
        "postalCode": "M4M2A4",
        "streetName": "MYRTLE",
        "streetDirectionId": null,
        "streetTypeId": "AVE",
        "placeName": "TORONTO",
        "streetNameDisplayText": "MYRTLE AVE, TORONTO"
      }
    ]
  },
  {
    "postal": "M4M8S0",
    "result": []
  },
  {
    "postal": "M4M3L5",
    "result": []
  },
  {
    "postal": "M4M2R5",
    "result": [
      {
        "electoralDistricts": [
          {
            "election": null,
            "id": 110,
            "name": "Toronto—Danforth"
          }
        ],
        "pollDivisionIds": [
          10142530
        ],
        "postalCode": "M4M2R5",
        "streetName": "CARLAW",
        "streetDirectionId": null,
        "streetTypeId": "AVE",
        "placeName": "TORONTO",
        "streetNameDisplayText": "CARLAW AVE, TORONTO"
      }
    ]
  },
  {
    "postal": "M4M9T6",
    "result": []
  },
  {
    "postal": "M4M8Z2",
    "result": []
  },
  {
    "postal": "M4M0E9",
    "result": [
      {
        "electoralDistricts": [
          {
            "election": null,
            "id": 110,
            "name": "Toronto—Danforth"
          }
        ],
        "pollDivisionIds": [
          10142530
        ],
        "postalCode": "M4M0E9",
        "streetName": "LOGAN",
        "streetDirectionId": null,
        "streetTypeId": "AVE",
        "placeName": "TORONTO",
        "streetNameDisplayText": "LOGAN AVE, TORONTO"
      }
    ]
  },
  {
    "postal": "M4M8C0",
    "result": []
  },
  {
    "postal": "M4M3K7",
    "result": []
  },
  {
    "postal": "M4M2H3",
    "result": [
      {
        "electoralDistricts": [
          {
            "election": null,
            "id": 110,
            "name": "Toronto—Danforth"
          }
        ],
        "pollDivisionIds": [
          10142529
        ],
        "postalCode": "M4M2H3",
        "streetName": "LEWIS",
        "streetDirectionId": null,
        "streetTypeId": "ST",
        "placeName": "TORONTO",
        "streetNameDisplayText": "LEWIS ST, TORONTO"
      }
    ]
  },
  {
    "postal": "M4M2Y6",
    "result": [
      {
        "electoralDistricts": [
          {
            "election": null,
            "id": 110,
            "name": "Toronto—Danforth"
          }
        ],
        "pollDivisionIds": [
          10142527
        ],
        "postalCode": "M4M2Y6",
        "streetName": "LARCHMOUNT",
        "streetDirectionId": null,
        "streetTypeId": "AVE",
        "placeName": "TORONTO",
        "streetNameDisplayText": "LARCHMOUNT AVE, TORONTO"
      }
    ]
  },
  {
    "postal": "M4M7M2",
    "result": []
  },
  {
    "postal": "M4M6E2",
    "result": []
  },
  {
    "postal": "M4M3R0",
    "result": []
  },
  {
    "postal": "M4M4J7",
    "result": []
  },
  {
    "postal": "M4M6N8",
    "result": []
  },
  {
    "postal": "M4M0J7",
    "result": []
  },
  {
    "postal": "M4M7P2",
    "result": []
  },
  {
    "postal": "M4M3T8",
    "result": []
  },
  {
    "postal": "M4M3S7",
    "result": []
  },
  {
    "postal": "M4M2S7",
    "result": [
      {
        "electoralDistricts": [
          {
            "election": null,
            "id": 110,
            "name": "Toronto—Danforth"
          }
        ],
        "pollDivisionIds": [
          10142528
        ],
        "postalCode": "M4M2S7",
        "streetName": "MUNRO",
        "streetDirectionId": null,
        "streetTypeId": "ST",
        "placeName": "TORONTO",
        "streetNameDisplayText": "MUNRO ST, TORONTO"
      }
    ]
  },
  {
    "postal": "M4M1S4",
    "result": []
  },
  {
    "postal": "M4M1L8",
    "result": [
      {
        "electoralDistricts": [
          {
            "election": null,
            "id": 110,
            "name": "Toronto—Danforth"
          }
        ],
        "pollDivisionIds": [
          10142528
        ],
        "postalCode": "M4M1L8",
        "streetName": "THOMPSON",
        "streetDirectionId": null,
        "streetTypeId": "ST",
        "placeName": "TORONTO",
        "streetNameDisplayText": "THOMPSON ST, TORONTO"
      }
    ]
  },
  {
    "postal": "M4M8E9",
    "result": []
  },
  {
    "postal": "M4M0T0",
    "result": []
  },
  {
    "postal": "M4M3G4",
    "result": [
      {
        "electoralDistricts": [
          {
            "election": null,
            "id": 110,
            "name": "Toronto—Danforth"
          }
        ],
        "pollDivisionIds": [
          10142528
        ],
        "postalCode": "M4M3G4",
        "streetName": "DUNDAS",
        "streetDirectionId": "E",
        "streetTypeId": "ST",
        "placeName": "TORONTO",
        "streetNameDisplayText": "DUNDAS ST E, TORONTO"
      }
    ]
  },
  {
    "postal": "M4M0V6",
    "result": []
  },
  {
    "postal": "M4M4W1",
    "result": []
  },
  {
    "postal": "M4M9G9",
    "result": []
  },
  {
    "postal": "M4M5W4",
    "result": []
  },
  {
    "postal": "M4M7M8",
    "result": []
  },
  {
    "postal": "M4M2C2",
    "result": [
      {
        "electoralDistricts": [
          {
            "election": null,
            "id": 110,
            "name": "Toronto—Danforth"
          }
        ],
        "pollDivisionIds": [
          10142528
        ],
        "postalCode": "M4M2C2",
        "streetName": "MUNRO",
        "streetDirectionId": null,
        "streetTypeId": "ST",
        "placeName": "TORONTO",
        "streetNameDisplayText": "MUNRO ST, TORONTO"
      }
    ]
  },
  {
    "postal": "M4M4Y2",
    "result": []
  },
  {
    "postal": "M4M9X9",
    "result": []
  },
  {
    "postal": "M4M3T0",
    "result": []
  },
  {
    "postal": "M4M4T8",
    "result": []
  },
  {
    "postal": "M4M9C4",
    "result": []
  },
  {
    "postal": "M4M8P2",
    "result": []
  },
  {
    "postal": "M4M0Y8",
    "result": []
  },
  {
    "postal": "M4M1G8",
    "result": [
      {
        "electoralDistricts": [
          {
            "election": null,
            "id": 110,
            "name": "Toronto—Danforth"
          }
        ],
        "pollDivisionIds": [
          10142528
        ],
        "postalCode": "M4M1G8",
        "streetName": "QUEEN",
        "streetDirectionId": "E",
        "streetTypeId": "ST",
        "placeName": "TORONTO",
        "streetNameDisplayText": "QUEEN ST E, TORONTO"
      }
    ]
  },
  {
    "postal": "M4M2T6",
    "result": [
      {
        "electoralDistricts": [
          {
            "election": null,
            "id": 110,
            "name": "Toronto—Danforth"
          }
        ],
        "pollDivisionIds": [
          10142530
        ],
        "postalCode": "M4M2T6",
        "streetName": "HEWARD",
        "streetDirectionId": null,
        "streetTypeId": "AVE",
        "placeName": "TORONTO",
        "streetNameDisplayText": "HEWARD AVE, TORONTO"
      }
    ]
  },
  {
    "postal": "M4M1N7",
    "result": [
      {
        "electoralDistricts": [
          {
            "election": null,
            "id": 110,
            "name": "Toronto—Danforth"
          }
        ],
        "pollDivisionIds": [
          10142530
        ],
        "postalCode": "M4M1N7",
        "streetName": "COMMISSIONERS",
        "streetDirectionId": null,
        "streetTypeId": "ST",
        "placeName": "TORONTO",
        "streetNameDisplayText": "COMMISSIONERS ST, TORONTO"
      }
    ]
  },
  {
    "postal": "M4M0L6",
    "result": []
  },
  {
    "postal": "M4M9V4",
    "result": []
  },
  {
    "postal": "M4M2V1",
    "result": [
      {
        "electoralDistricts": [
          {
            "election": null,
            "id": 110,
            "name": "Toronto—Danforth"
          }
        ],
        "pollDivisionIds": [
          10142525
        ],
        "postalCode": "M4M2V1",
        "streetName": "BOSTON",
        "streetDirectionId": null,
        "streetTypeId": "AVE",
        "placeName": "TORONTO",
        "streetNameDisplayText": "BOSTON AVE, TORONTO"
      }
    ]
  },
  {
    "postal": "M4M3L8",
    "result": []
  },
  {
    "postal": "M4M2R8",
    "result": [
      {
        "electoralDistricts": [
          {
            "election": null,
            "id": 110,
            "name": "Toronto—Danforth"
          }
        ],
        "pollDivisionIds": [
          10142530
        ],
        "postalCode": "M4M2R8",
        "streetName": "CARLAW",
        "streetDirectionId": null,
        "streetTypeId": "AVE",
        "placeName": "TORONTO",
        "streetNameDisplayText": "CARLAW AVE, TORONTO"
      }
    ]
  },
  {
    "postal": "M4M5C1",
    "result": []
  },
  {
    "postal": "M4M4W3",
    "result": []
  },
  {
    "postal": "M4M5X5",
    "result": []
  },
  {
    "postal": "M4M9W5",
    "result": []
  },
  {
    "postal": "M4M3C4",
    "result": [
      {
        "electoralDistricts": [
          {
            "election": null,
            "id": 110,
            "name": "Toronto—Danforth"
          }
        ],
        "pollDivisionIds": [
          10142527
        ],
        "postalCode": "M4M3C4",
        "streetName": "LESLIE",
        "streetDirectionId": null,
        "streetTypeId": "ST",
        "placeName": "TORONTO",
        "streetNameDisplayText": "LESLIE ST, TORONTO"
      }
    ]
  },
  {
    "postal": "M4M1N6",
    "result": [
      {
        "electoralDistricts": [
          {
            "election": null,
            "id": 110,
            "name": "Toronto—Danforth"
          }
        ],
        "pollDivisionIds": [
          10142529
        ],
        "postalCode": "M4M1N6",
        "streetName": "COLGATE",
        "streetDirectionId": null,
        "streetTypeId": "AVE",
        "placeName": "TORONTO",
        "streetNameDisplayText": "COLGATE AVE, TORONTO"
      }
    ]
  },
  {
    "postal": "M4M9S9",
    "result": []
  },
  {
    "postal": "M4M9M2",
    "result": []
  },
  {
    "postal": "M4M8Y4",
    "result": []
  },
  {
    "postal": "M4M7S4",
    "result": []
  },
  {
    "postal": "M4M0K6",
    "result": []
  },
  {
    "postal": "M4M1W3",
    "result": [
      {
        "electoralDistricts": [
          {
            "election": null,
            "id": 110,
            "name": "Toronto—Danforth"
          }
        ],
        "pollDivisionIds": [
          10142521
        ],
        "postalCode": "M4M1W3",
        "streetName": "SPROAT",
        "streetDirectionId": null,
        "streetTypeId": "AVE",
        "placeName": "TORONTO",
        "streetNameDisplayText": "SPROAT AVE, TORONTO"
      }
    ]
  },
  {
    "postal": "M4M7R2",
    "result": []
  },
  {
    "postal": "M4M2Y9",
    "result": [
      {
        "electoralDistricts": [
          {
            "election": null,
            "id": 110,
            "name": "Toronto—Danforth"
          }
        ],
        "pollDivisionIds": [
          10143805
        ],
        "postalCode": "M4M2Y9",
        "streetName": "COADY",
        "streetDirectionId": null,
        "streetTypeId": "AVE",
        "placeName": "TORONTO",
        "streetNameDisplayText": "COADY AVE, TORONTO"
      }
    ]
  },
  {
    "postal": "M4M7G4",
    "result": []
  },
  {
    "postal": "M4M7E5",
    "result": []
  },
  {
    "postal": "M4M9G2",
    "result": []
  },
  {
    "postal": "M4M7Y8",
    "result": []
  },
  {
    "postal": "M4M9V2",
    "result": []
  },
  {
    "postal": "M4M3T7",
    "result": []
  },
  {
    "postal": "M4M1H0",
    "result": []
  },
  {
    "postal": "M4M1M7",
    "result": [
      {
        "electoralDistricts": [
          {
            "election": null,
            "id": 110,
            "name": "Toronto—Danforth"
          }
        ],
        "pollDivisionIds": [
          10142529
        ],
        "postalCode": "M4M1M7",
        "streetName": "CUMMINGS",
        "streetDirectionId": null,
        "streetTypeId": "ST",
        "placeName": "TORONTO",
        "streetNameDisplayText": "CUMMINGS ST, TORONTO"
      }
    ]
  },
  {
    "postal": "M4M8V4",
    "result": []
  },
  {
    "postal": "M4M4M2",
    "result": []
  },
  {
    "postal": "M4M0X2",
    "result": []
  },
  {
    "postal": "M4M5Z4",
    "result": []
  },
  {
    "postal": "M4M6V4",
    "result": []
  },
  {
    "postal": "M4M8J3",
    "result": []
  },
  {
    "postal": "M4M8E5",
    "result": []
  },
  {
    "postal": "M4M2V5",
    "result": [
      {
        "electoralDistricts": [
          {
            "election": null,
            "id": 110,
            "name": "Toronto—Danforth"
          }
        ],
        "pollDivisionIds": [
          10142530,
          10142527
        ],
        "postalCode": "M4M2V5",
        "streetName": "PAPE",
        "streetDirectionId": null,
        "streetTypeId": "AVE",
        "placeName": "TORONTO",
        "streetNameDisplayText": "PAPE AVE, TORONTO"
      }
    ]
  },
  {
    "postal": "M4M7S1",
    "result": []
  },
  {
    "postal": "M4M6V3",
    "result": []
  },
  {
    "postal": "M4M2L8",
    "result": [
      {
        "electoralDistricts": [
          {
            "election": null,
            "id": 110,
            "name": "Toronto—Danforth"
          }
        ],
        "pollDivisionIds": [
          10142523
        ],
        "postalCode": "M4M2L8",
        "streetName": "WEST",
        "streetDirectionId": null,
        "streetTypeId": "AVE",
        "placeName": "TORONTO",
        "streetNameDisplayText": "WEST AVE, TORONTO"
      }
    ]
  },
  {
    "postal": "M4M9V0",
    "result": []
  },
  {
    "postal": "M4M3M4",
    "result": [
      {
        "electoralDistricts": [
          {
            "election": null,
            "id": 110,
            "name": "Toronto—Danforth"
          }
        ],
        "pollDivisionIds": [
          10143805
        ],
        "postalCode": "M4M3M4",
        "streetName": "QUEEN",
        "streetDirectionId": "E",
        "streetTypeId": "ST",
        "placeName": "TORONTO",
        "streetNameDisplayText": "QUEEN ST E, TORONTO"
      }
    ]
  },
  {
    "postal": "M4M5B2",
    "result": []
  },
  {
    "postal": "M4M3X5",
    "result": []
  },
  {
    "postal": "M4M9R7",
    "result": []
  },
  {
    "postal": "M4M2X2",
    "result": [
      {
        "electoralDistricts": [
          {
            "election": null,
            "id": 110,
            "name": "Toronto—Danforth"
          }
        ],
        "pollDivisionIds": [
          10142527
        ],
        "postalCode": "M4M2X2",
        "streetName": "WINNIFRED",
        "streetDirectionId": null,
        "streetTypeId": "AVE",
        "placeName": "TORONTO",
        "streetNameDisplayText": "WINNIFRED AVE, TORONTO"
      }
    ]
  },
  {
    "postal": "M4M8Z6",
    "result": []
  },
  {
    "postal": "M4M4R4",
    "result": []
  },
  {
    "postal": "M4M2R1",
    "result": [
      {
        "electoralDistricts": [
          {
            "election": null,
            "id": 110,
            "name": "Toronto—Danforth"
          }
        ],
        "pollDivisionIds": [
          10142529
        ],
        "postalCode": "M4M2R1",
        "streetName": "BISLEY",
        "streetDirectionId": null,
        "streetTypeId": "ST",
        "placeName": "TORONTO",
        "streetNameDisplayText": "BISLEY ST, TORONTO"
      }
    ]
  },
  {
    "postal": "M4M3R8",
    "result": []
  },
  {
    "postal": "M4M9A1",
    "result": []
  },
  {
    "postal": "M4M8L3",
    "result": []
  },
  {
    "postal": "M4M9K4",
    "result": []
  },
  {
    "postal": "M4M9S3",
    "result": []
  },
  {
    "postal": "M4M8N7",
    "result": []
  },
  {
    "postal": "M4M1C6",
    "result": [
      {
        "electoralDistricts": [
          {
            "election": null,
            "id": 110,
            "name": "Toronto—Danforth"
          }
        ],
        "pollDivisionIds": [
          10142530
        ],
        "postalCode": "M4M1C6",
        "streetName": "EASTERN",
        "streetDirectionId": null,
        "streetTypeId": "AVE",
        "placeName": "TORONTO",
        "streetNameDisplayText": "EASTERN AVE, TORONTO"
      }
    ]
  },
  {
    "postal": "M4M3Z8",
    "result": []
  },
  {
    "postal": "M4M8G5",
    "result": []
  },
  {
    "postal": "M4M5R6",
    "result": []
  },
  {
    "postal": "M4M2W3",
    "result": [
      {
        "electoralDistricts": [
          {
            "election": null,
            "id": 110,
            "name": "Toronto—Danforth"
          }
        ],
        "pollDivisionIds": [
          10142525
        ],
        "postalCode": "M4M2W3",
        "streetName": "PAPE",
        "streetDirectionId": null,
        "streetTypeId": "AVE",
        "placeName": "TORONTO",
        "streetNameDisplayText": "PAPE AVE, TORONTO"
      }
    ]
  },
  {
    "postal": "M4M0A0",
    "result": []
  },
  {
    "postal": "M4M6P8",
    "result": []
  },
  {
    "postal": "M4M8N9",
    "result": []
  },
  {
    "postal": "M4M0S9",
    "result": []
  },
  {
    "postal": "M4M8G0",
    "result": []
  },
  {
    "postal": "M4M8C7",
    "result": []
  },
  {
    "postal": "M4M5X8",
    "result": []
  },
  {
    "postal": "M4M7E8",
    "result": []
  },
  {
    "postal": "M4M6X2",
    "result": []
  },
  {
    "postal": "M4M4C6",
    "result": []
  },
  {
    "postal": "M4M7H2",
    "result": []
  },
  {
    "postal": "M4M4R0",
    "result": []
  },
  {
    "postal": "M4M6J3",
    "result": []
  },
  {
    "postal": "M4M4B8",
    "result": []
  },
  {
    "postal": "M4M6H6",
    "result": []
  },
  {
    "postal": "M4M0S1",
    "result": []
  },
  {
    "postal": "M4M4E3",
    "result": []
  },
  {
    "postal": "M4M7K2",
    "result": []
  },
  {
    "postal": "M4M7T8",
    "result": []
  },
  {
    "postal": "M4M0J9",
    "result": []
  },
  {
    "postal": "M4M5J9",
    "result": []
  },
  {
    "postal": "M4M5S7",
    "result": []
  },
  {
    "postal": "M4M0G9",
    "result": []
  },
  {
    "postal": "M4M3J9",
    "result": [
      {
        "electoralDistricts": [
          {
            "election": null,
            "id": 110,
            "name": "Toronto—Danforth"
          }
        ],
        "pollDivisionIds": [
          10142530
        ],
        "postalCode": "M4M3J9",
        "streetName": "LAKE SHORE",
        "streetDirectionId": "E",
        "streetTypeId": "BLVD",
        "placeName": "TORONTO",
        "streetNameDisplayText": "LAKE SHORE BLVD E, TORONTO"
      }
    ]
  },
  {
    "postal": "M4M2Y0",
    "result": []
  },
  {
    "postal": "M4M8X5",
    "result": []
  },
  {
    "postal": "M4M2M7",
    "result": [
      {
        "electoralDistricts": [
          {
            "election": null,
            "id": 110,
            "name": "Toronto—Danforth"
          }
        ],
        "pollDivisionIds": [
          10142529
        ],
        "postalCode": "M4M2M7",
        "streetName": "BOOTH",
        "streetDirectionId": null,
        "streetTypeId": "AVE",
        "placeName": "TORONTO",
        "streetNameDisplayText": "BOOTH AVE, TORONTO"
      }
    ]
  },
  {
    "postal": "M4M9Z3",
    "result": []
  },
  {
    "postal": "M4M7W2",
    "result": []
  },
  {
    "postal": "M4M3W0",
    "result": []
  },
  {
    "postal": "M4M3M1",
    "result": []
  },
  {
    "postal": "M4M6A5",
    "result": []
  },
  {
    "postal": "M4M2M9",
    "result": [
      {
        "electoralDistricts": [
          {
            "election": null,
            "id": 110,
            "name": "Toronto—Danforth"
          }
        ],
        "pollDivisionIds": [
          10142530
        ],
        "postalCode": "M4M2M9",
        "streetName": "LOGAN",
        "streetDirectionId": null,
        "streetTypeId": "AVE",
        "placeName": "TORONTO",
        "streetNameDisplayText": "LOGAN AVE, TORONTO"
      }
    ]
  },
  {
    "postal": "M4M5C3",
    "result": []
  },
  {
    "postal": "M4M0Y6",
    "result": []
  },
  {
    "postal": "M4M9H7",
    "result": []
  },
  {
    "postal": "M4M3L0",
    "result": []
  },
  {
    "postal": "M4M5N9",
    "result": []
  },
  {
    "postal": "M4M5E3",
    "result": []
  },
  {
    "postal": "M4M7M9",
    "result": []
  },
  {
    "postal": "M4M8N2",
    "result": []
  },
  {
    "postal": "M4M9H3",
    "result": []
  },
  {
    "postal": "M4M2K8",
    "result": [
      {
        "electoralDistricts": [
          {
            "election": null,
            "id": 110,
            "name": "Toronto—Danforth"
          }
        ],
        "pollDivisionIds": [
          10142523
        ],
        "postalCode": "M4M2K8",
        "streetName": "DEGRASSI",
        "streetDirectionId": null,
        "streetTypeId": "ST",
        "placeName": "TORONTO",
        "streetNameDisplayText": "DEGRASSI ST, TORONTO"
      }
    ]
  },
  {
    "postal": "M4M9L0",
    "result": []
  },
  {
    "postal": "M4M6L9",
    "result": []
  },
  {
    "postal": "M4M6A8",
    "result": []
  },
  {
    "postal": "M4M2K6",
    "result": [
      {
        "electoralDistricts": [
          {
            "election": null,
            "id": 110,
            "name": "Toronto—Danforth"
          }
        ],
        "pollDivisionIds": [
          10142529
        ],
        "postalCode": "M4M2K6",
        "streetName": "DEGRASSI",
        "streetDirectionId": null,
        "streetTypeId": "ST",
        "placeName": "TORONTO",
        "streetNameDisplayText": "DEGRASSI ST, TORONTO"
      }
    ]
  },
  {
    "postal": "M4M2M0",
    "result": []
  },
  {
    "postal": "M4M5X7",
    "result": []
  },
  {
    "postal": "M4M0M7",
    "result": []
  },
  {
    "postal": "M4M7A6",
    "result": []
  },
  {
    "postal": "M4M3C5",
    "result": []
  },
  {
    "postal": "M4M2P2",
    "result": [
      {
        "electoralDistricts": [
          {
            "election": null,
            "id": 110,
            "name": "Toronto—Danforth"
          }
        ],
        "pollDivisionIds": [
          10142529
        ],
        "postalCode": "M4M2P2",
        "streetName": "LOGAN",
        "streetDirectionId": null,
        "streetTypeId": "AVE",
        "placeName": "TORONTO",
        "streetNameDisplayText": "LOGAN AVE, TORONTO"
      }
    ]
  },
  {
    "postal": "M4M9N4",
    "result": []
  },
  {
    "postal": "M4M3M9",
    "result": [
      {
        "electoralDistricts": [
          {
            "election": null,
            "id": 110,
            "name": "Toronto—Danforth"
          }
        ],
        "pollDivisionIds": [
          10142530
        ],
        "postalCode": "M4M3M9",
        "streetName": "LESLIE",
        "streetDirectionId": null,
        "streetTypeId": "ST",
        "placeName": "TORONTO",
        "streetNameDisplayText": "LESLIE ST, TORONTO"
      }
    ]
  },
  {
    "postal": "M4M8K6",
    "result": []
  },
  {
    "postal": "M4M1L2",
    "result": [
      {
        "electoralDistricts": [
          {
            "election": null,
            "id": 110,
            "name": "Toronto—Danforth"
          }
        ],
        "pollDivisionIds": [
          10143805
        ],
        "postalCode": "M4M1L2",
        "streetName": "QUEEN",
        "streetDirectionId": "E",
        "streetTypeId": "ST",
        "placeName": "TORONTO",
        "streetNameDisplayText": "QUEEN ST E, TORONTO"
      }
    ]
  },
  {
    "postal": "M4M2Z9",
    "result": [
      {
        "electoralDistricts": [
          {
            "election": null,
            "id": 110,
            "name": "Toronto—Danforth"
          }
        ],
        "pollDivisionIds": [
          10143805
        ],
        "postalCode": "M4M2Z9",
        "streetName": "JONES",
        "streetDirectionId": null,
        "streetTypeId": "AVE",
        "placeName": "TORONTO",
        "streetNameDisplayText": "JONES AVE, TORONTO"
      }
    ]
  },
  {
    "postal": "M4M2S2",
    "result": []
  },
  {
    "postal": "M4M2W2",
    "result": [
      {
        "electoralDistricts": [
          {
            "election": null,
            "id": 110,
            "name": "Toronto—Danforth"
          }
        ],
        "pollDivisionIds": [
          10142525
        ],
        "postalCode": "M4M2W2",
        "streetName": "PAPE",
        "streetDirectionId": null,
        "streetTypeId": "AVE",
        "placeName": "TORONTO",
        "streetNameDisplayText": "PAPE AVE, TORONTO"
      }
    ]
  },
  {
    "postal": "M4M2C3",
    "result": []
  },
  {
    "postal": "M4M6L7",
    "result": []
  },
  {
    "postal": "M4M3K0",
    "result": []
  },
  {
    "postal": "M4M3C1",
    "result": []
  },
  {
    "postal": "M4M6M9",
    "result": []
  },
  {
    "postal": "M4M4N9",
    "result": []
  },
  {
    "postal": "M4M3Y7",
    "result": []
  },
  {
    "postal": "M4M2A9",
    "result": [
      {
        "electoralDistricts": [
          {
            "election": null,
            "id": 110,
            "name": "Toronto—Danforth"
          }
        ],
        "pollDivisionIds": [
          10142528
        ],
        "postalCode": "M4M2A9",
        "streetName": "DAVIES",
        "streetDirectionId": null,
        "streetTypeId": "AVE",
        "placeName": "TORONTO",
        "streetNameDisplayText": "DAVIES AVE, TORONTO"
      }
    ]
  },
  {
    "postal": "M4M6H5",
    "result": []
  },
  {
    "postal": "M4M8B4",
    "result": []
  },
  {
    "postal": "M4M4Z2",
    "result": []
  },
  {
    "postal": "M4M9J0",
    "result": []
  },
  {
    "postal": "M4M7V7",
    "result": []
  },
  {
    "postal": "M4M5T5",
    "result": []
  },
  {
    "postal": "M4M4W5",
    "result": []
  },
  {
    "postal": "M4M1T8",
    "result": [
      {
        "electoralDistricts": [
          {
            "election": null,
            "id": 110,
            "name": "Toronto—Danforth"
          }
        ],
        "pollDivisionIds": [
          10142529
        ],
        "postalCode": "M4M1T8",
        "streetName": "DICKENS",
        "streetDirectionId": null,
        "streetTypeId": "ST",
        "placeName": "TORONTO",
        "streetNameDisplayText": "DICKENS ST, TORONTO"
      }
    ]
  },
  {
    "postal": "M4M9G6",
    "result": []
  },
  {
    "postal": "M4M1H3",
    "result": [
      {
        "electoralDistricts": [
          {
            "election": null,
            "id": 110,
            "name": "Toronto—Danforth"
          }
        ],
        "pollDivisionIds": [
          10142529
        ],
        "postalCode": "M4M1H3",
        "streetName": "QUEEN",
        "streetDirectionId": "E",
        "streetTypeId": "ST",
        "placeName": "TORONTO",
        "streetNameDisplayText": "QUEEN ST E, TORONTO"
      }
    ]
  },
  {
    "postal": "M4M5R5",
    "result": []
  },
  {
    "postal": "M4M8A4",
    "result": []
  },
  {
    "postal": "M4M3T6",
    "result": []
  },
  {
    "postal": "M4M9W8",
    "result": []
  },
  {
    "postal": "M4M0N3",
    "result": []
  },
  {
    "postal": "M4M7V0",
    "result": []
  },
  {
    "postal": "M4M8T5",
    "result": []
  },
  {
    "postal": "M4M5N3",
    "result": []
  },
  {
    "postal": "M4M5G9",
    "result": []
  },
  {
    "postal": "M4M3X8",
    "result": []
  },
  {
    "postal": "M4M9R3",
    "result": []
  },
  {
    "postal": "M4M2S1",
    "result": [
      {
        "electoralDistricts": [
          {
            "election": null,
            "id": 110,
            "name": "Toronto—Danforth"
          }
        ],
        "pollDivisionIds": [
          10142525
        ],
        "postalCode": "M4M2S1",
        "streetName": "CARLAW",
        "streetDirectionId": null,
        "streetTypeId": "AVE",
        "placeName": "TORONTO",
        "streetNameDisplayText": "CARLAW AVE, TORONTO"
      }
    ]
  },
  {
    "postal": "M4M9J7",
    "result": []
  },
  {
    "postal": "M4M2J3",
    "result": [
      {
        "electoralDistricts": [
          {
            "election": null,
            "id": 110,
            "name": "Toronto—Danforth"
          }
        ],
        "pollDivisionIds": [
          10142528
        ],
        "postalCode": "M4M2J3",
        "streetName": "BOULTON",
        "streetDirectionId": null,
        "streetTypeId": "AVE",
        "placeName": "TORONTO",
        "streetNameDisplayText": "BOULTON AVE, TORONTO"
      }
    ]
  },
  {
    "postal": "M4M3B6",
    "result": [
      {
        "electoralDistricts": [
          {
            "election": null,
            "id": 110,
            "name": "Toronto—Danforth"
          }
        ],
        "pollDivisionIds": [
          10142521
        ],
        "postalCode": "M4M3B6",
        "streetName": "CURZON",
        "streetDirectionId": null,
        "streetTypeId": "ST",
        "placeName": "TORONTO",
        "streetNameDisplayText": "CURZON ST, TORONTO"
      }
    ]
  },
  {
    "postal": "M4M8J0",
    "result": []
  },
  {
    "postal": "M4M7R4",
    "result": []
  },
  {
    "postal": "M4M8K8",
    "result": []
  },
  {
    "postal": "M4M4P3",
    "result": []
  },
  {
    "postal": "M4M0A2",
    "result": []
  },
  {
    "postal": "M4M2G2",
    "result": [
      {
        "electoralDistricts": [
          {
            "election": null,
            "id": 110,
            "name": "Toronto—Danforth"
          }
        ],
        "pollDivisionIds": [
          10142528
        ],
        "postalCode": "M4M2G2",
        "streetName": "BROADVIEW",
        "streetDirectionId": null,
        "streetTypeId": "AVE",
        "placeName": "TORONTO",
        "streetNameDisplayText": "BROADVIEW AVE, TORONTO"
      }
    ]
  },
  {
    "postal": "M4M5Y9",
    "result": []
  },
  {
    "postal": "M4M7X0",
    "result": []
  },
  {
    "postal": "M4M7W3",
    "result": []
  },
  {
    "postal": "M4M7X5",
    "result": []
  },
  {
    "postal": "M4M5K6",
    "result": []
  },
  {
    "postal": "M4M5B6",
    "result": []
  },
  {
    "postal": "M4M7Z0",
    "result": []
  },
  {
    "postal": "M4M9H6",
    "result": []
  },
  {
    "postal": "M4M1B4",
    "result": [
      {
        "electoralDistricts": [
          {
            "election": null,
            "id": 110,
            "name": "Toronto—Danforth"
          }
        ],
        "pollDivisionIds": [
          10142530
        ],
        "postalCode": "M4M1B4",
        "streetName": "LAKE SHORE",
        "streetDirectionId": "E",
        "streetTypeId": "BLVD",
        "placeName": "TORONTO",
        "streetNameDisplayText": "LAKE SHORE BLVD E, TORONTO"
      }
    ]
  },
  {
    "postal": "M4M1A0",
    "result": []
  },
  {
    "postal": "M4M9A0",
    "result": []
  },
  {
    "postal": "M4M1M6",
    "result": [
      {
        "electoralDistricts": [
          {
            "election": null,
            "id": 110,
            "name": "Toronto—Danforth"
          }
        ],
        "pollDivisionIds": [
          10142528
        ],
        "postalCode": "M4M1M6",
        "streetName": "CLARK",
        "streetDirectionId": null,
        "streetTypeId": "ST",
        "placeName": "TORONTO",
        "streetNameDisplayText": "CLARK ST, TORONTO"
      }
    ]
  },
  {
    "postal": "M4M5H0",
    "result": []
  },
  {
    "postal": "M4M1K6",
    "result": []
  },
  {
    "postal": "M4M5E1",
    "result": []
  },
  {
    "postal": "M4M3T9",
    "result": []
  },
  {
    "postal": "M4M2M6",
    "result": [
      {
        "electoralDistricts": [
          {
            "election": null,
            "id": 110,
            "name": "Toronto—Danforth"
          }
        ],
        "pollDivisionIds": [
          10142529
        ],
        "postalCode": "M4M2M6",
        "streetName": "BOOTH",
        "streetDirectionId": null,
        "streetTypeId": "AVE",
        "placeName": "TORONTO",
        "streetNameDisplayText": "BOOTH AVE, TORONTO"
      }
    ]
  },
  {
    "postal": "M4M0G5",
    "result": []
  },
  {
    "postal": "M4M0Y2",
    "result": []
  },
  {
    "postal": "M4M2Y7",
    "result": [
      {
        "electoralDistricts": [
          {
            "election": null,
            "id": 110,
            "name": "Toronto—Danforth"
          }
        ],
        "pollDivisionIds": [
          10142527
        ],
        "postalCode": "M4M2Y7",
        "streetName": "LARCHMOUNT",
        "streetDirectionId": null,
        "streetTypeId": "AVE",
        "placeName": "TORONTO",
        "streetNameDisplayText": "LARCHMOUNT AVE, TORONTO"
      }
    ]
  },
  {
    "postal": "M4M2J7",
    "result": [
      {
        "electoralDistricts": [
          {
            "election": null,
            "id": 110,
            "name": "Toronto—Danforth"
          }
        ],
        "pollDivisionIds": [
          10142528
        ],
        "postalCode": "M4M2J7",
        "streetName": "BOULTON",
        "streetDirectionId": null,
        "streetTypeId": "AVE",
        "placeName": "TORONTO",
        "streetNameDisplayText": "BOULTON AVE, TORONTO"
      },
      {
        "electoralDistricts": [
          {
            "election": null,
            "id": 111,
            "name": "Toronto—St. Paul's"
          }
        ],
        "pollDivisionIds": [
          10136124
        ],
        "postalCode": "M4M2J7",
        "streetName": "BOULTON",
        "streetDirectionId": null,
        "streetTypeId": "DR",
        "placeName": "TORONTO",
        "streetNameDisplayText": "BOULTON DR, TORONTO"
      }
    ]
  },
  {
    "postal": "M4M4K7",
    "result": []
  },
  {
    "postal": "M4M7P9",
    "result": []
  },
  {
    "postal": "M4M8X0",
    "result": []
  },
  {
    "postal": "M4M3X1",
    "result": []
  },
  {
    "postal": "M4M1R5",
    "result": [
      {
        "electoralDistricts": [
          {
            "election": null,
            "id": 110,
            "name": "Toronto—Danforth"
          }
        ],
        "pollDivisionIds": [
          10142523
        ],
        "postalCode": "M4M1R5",
        "streetName": "DUNDAS",
        "streetDirectionId": "E",
        "streetTypeId": "ST",
        "placeName": "TORONTO",
        "streetNameDisplayText": "DUNDAS ST E, TORONTO"
      }
    ]
  },
  {
    "postal": "M4M6X6",
    "result": []
  },
  {
    "postal": "M4M0Y1",
    "result": []
  },
  {
    "postal": "M4M8G1",
    "result": []
  },
  {
    "postal": "M4M3J3",
    "result": [
      {
        "electoralDistricts": [
          {
            "election": null,
            "id": 110,
            "name": "Toronto—Danforth"
          }
        ],
        "pollDivisionIds": [
          10143804
        ],
        "postalCode": "M4M3J3",
        "streetName": "CURZON",
        "streetDirectionId": null,
        "streetTypeId": "ST",
        "placeName": "TORONTO",
        "streetNameDisplayText": "CURZON ST, TORONTO"
      }
    ]
  },
  {
    "postal": "M4M8C2",
    "result": []
  },
  {
    "postal": "M4M4X9",
    "result": []
  },
  {
    "postal": "M4M6G9",
    "result": []
  },
  {
    "postal": "M4M4M3",
    "result": []
  },
  {
    "postal": "M4M9P7",
    "result": []
  },
  {
    "postal": "M4M4E5",
    "result": []
  },
  {
    "postal": "M4M5K9",
    "result": []
  },
  {
    "postal": "M4M2V2",
    "result": [
      {
        "electoralDistricts": [
          {
            "election": null,
            "id": 110,
            "name": "Toronto—Danforth"
          }
        ],
        "pollDivisionIds": [
          10142525
        ],
        "postalCode": "M4M2V2",
        "streetName": "BOSTON",
        "streetDirectionId": null,
        "streetTypeId": "AVE",
        "placeName": "TORONTO",
        "streetNameDisplayText": "BOSTON AVE, TORONTO"
      }
    ]
  },
  {
    "postal": "M4M2N9",
    "result": [
      {
        "electoralDistricts": [
          {
            "election": null,
            "id": 110,
            "name": "Toronto—Danforth"
          }
        ],
        "pollDivisionIds": [
          10142529
        ],
        "postalCode": "M4M2N9",
        "streetName": "LOGAN",
        "streetDirectionId": null,
        "streetTypeId": "AVE",
        "placeName": "TORONTO",
        "streetNameDisplayText": "LOGAN AVE, TORONTO"
      }
    ]
  },
  {
    "postal": "M4M6L4",
    "result": []
  },
  {
    "postal": "M4M8E0",
    "result": []
  },
  {
    "postal": "M4M0N0",
    "result": []
  },
  {
    "postal": "M4M6R0",
    "result": []
  },
  {
    "postal": "M4M9C1",
    "result": []
  },
  {
    "postal": "M4M4H4",
    "result": []
  },
  {
    "postal": "M4M5W3",
    "result": []
  },
  {
    "postal": "M4M9N9",
    "result": []
  },
  {
    "postal": "M4M1V7",
    "result": [
      {
        "electoralDistricts": [
          {
            "election": null,
            "id": 110,
            "name": "Toronto—Danforth"
          }
        ],
        "pollDivisionIds": [
          10142525
        ],
        "postalCode": "M4M1V7",
        "streetName": "AUSTIN",
        "streetDirectionId": null,
        "streetTypeId": "AVE",
        "placeName": "TORONTO",
        "streetNameDisplayText": "AUSTIN AVE, TORONTO"
      }
    ]
  },
  {
    "postal": "M4M8J1",
    "result": []
  },
  {
    "postal": "M4M5V9",
    "result": []
  },
  {
    "postal": "M4M2S8",
    "result": []
  },
  {
    "postal": "M4M6P0",
    "result": []
  },
  {
    "postal": "M4M4J8",
    "result": []
  },
  {
    "postal": "M4M0N1",
    "result": []
  },
  {
    "postal": "M4M1Y7",
    "result": [
      {
        "electoralDistricts": [
          {
            "election": null,
            "id": 110,
            "name": "Toronto—Danforth"
          }
        ],
        "pollDivisionIds": [
          10142523
        ],
        "postalCode": "M4M1Y7",
        "streetName": "GERRARD",
        "streetDirectionId": "E",
        "streetTypeId": "ST",
        "placeName": "TORONTO",
        "streetNameDisplayText": "GERRARD ST E, TORONTO"
      }
    ]
  },
  {
    "postal": "M4M7W5",
    "result": []
  },
  {
    "postal": "M4M3Z1",
    "result": []
  },
  {
    "postal": "M4M7M6",
    "result": []
  },
  {
    "postal": "M4M1W7",
    "result": [
      {
        "electoralDistricts": [
          {
            "election": null,
            "id": 110,
            "name": "Toronto—Danforth"
          }
        ],
        "pollDivisionIds": [
          10142528,
          10142523
        ],
        "postalCode": "M4M1W7",
        "streetName": "FIRST",
        "streetDirectionId": null,
        "streetTypeId": "AVE",
        "placeName": "TORONTO",
        "streetNameDisplayText": "FIRST AVE, TORONTO"
      }
    ]
  },
  {
    "postal": "M4M1X1",
    "result": [
      {
        "electoralDistricts": [
          {
            "election": null,
            "id": 110,
            "name": "Toronto—Danforth"
          }
        ],
        "pollDivisionIds": [
          10142523
        ],
        "postalCode": "M4M1X1",
        "streetName": "FIRST",
        "streetDirectionId": null,
        "streetTypeId": "AVE",
        "placeName": "TORONTO",
        "streetNameDisplayText": "FIRST AVE, TORONTO"
      }
    ]
  },
  {
    "postal": "M4M0C1",
    "result": [
      {
        "electoralDistricts": [
          {
            "election": null,
            "id": 110,
            "name": "Toronto—Danforth"
          }
        ],
        "pollDivisionIds": [
          10142527
        ],
        "postalCode": "M4M0C1",
        "streetName": "QUEEN",
        "streetDirectionId": "E",
        "streetTypeId": "ST",
        "placeName": "TORONTO",
        "streetNameDisplayText": "QUEEN ST E, TORONTO"
      }
    ]
  },
  {
    "postal": "M4M4N3",
    "result": []
  },
  {
    "postal": "M4M4S8",
    "result": []
  },
  {
    "postal": "M4M1H6",
    "result": [
      {
        "electoralDistricts": [
          {
            "election": null,
            "id": 110,
            "name": "Toronto—Danforth"
          }
        ],
        "pollDivisionIds": [
          10142529
        ],
        "postalCode": "M4M1H6",
        "streetName": "QUEEN",
        "streetDirectionId": "E",
        "streetTypeId": "ST",
        "placeName": "TORONTO",
        "streetNameDisplayText": "QUEEN ST E, TORONTO"
      }
    ]
  },
  {
    "postal": "M4M2Z4",
    "result": [
      {
        "electoralDistricts": [
          {
            "election": null,
            "id": 110,
            "name": "Toronto—Danforth"
          }
        ],
        "pollDivisionIds": [
          10142517
        ],
        "postalCode": "M4M2Z4",
        "streetName": "GALT",
        "streetDirectionId": null,
        "streetTypeId": "AVE",
        "placeName": "TORONTO",
        "streetNameDisplayText": "GALT AVE, TORONTO"
      }
    ]
  },
  {
    "postal": "M4M7K3",
    "result": []
  },
  {
    "postal": "M4M8A2",
    "result": []
  },
  {
    "postal": "M4M6J1",
    "result": []
  },
  {
    "postal": "M4M5Z6",
    "result": []
  },
  {
    "postal": "M4M3Z0",
    "result": []
  },
  {
    "postal": "M4M8M0",
    "result": []
  },
  {
    "postal": "M4M1Z6",
    "result": [
      {
        "electoralDistricts": [
          {
            "election": null,
            "id": 110,
            "name": "Toronto—Danforth"
          }
        ],
        "pollDivisionIds": [
          10142521
        ],
        "postalCode": "M4M1Z6",
        "streetName": "GERRARD",
        "streetDirectionId": "E",
        "streetTypeId": "ST",
        "placeName": "TORONTO",
        "streetNameDisplayText": "GERRARD ST E, TORONTO"
      }
    ]
  },
  {
    "postal": "M4M8K7",
    "result": []
  },
  {
    "postal": "M4M1N3",
    "result": [
      {
        "electoralDistricts": [
          {
            "election": null,
            "id": 110,
            "name": "Toronto—Danforth"
          }
        ],
        "pollDivisionIds": [
          10142529
        ],
        "postalCode": "M4M1N3",
        "streetName": "PAISLEY",
        "streetDirectionId": null,
        "streetTypeId": "AVE",
        "placeName": "TORONTO",
        "streetNameDisplayText": "PAISLEY AVE, TORONTO"
      }
    ]
  },
  {
    "postal": "M4M9S2",
    "result": []
  },
  {
    "postal": "M4M2K1",
    "result": [
      {
        "electoralDistricts": [
          {
            "election": null,
            "id": 110,
            "name": "Toronto—Danforth"
          }
        ],
        "pollDivisionIds": [
          10142523
        ],
        "postalCode": "M4M2K1",
        "streetName": "BOULTON",
        "streetDirectionId": null,
        "streetTypeId": "AVE",
        "placeName": "TORONTO",
        "streetNameDisplayText": "BOULTON AVE, TORONTO"
      }
    ]
  },
  {
    "postal": "M4M1E8",
    "result": [
      {
        "electoralDistricts": [
          {
            "election": null,
            "id": 110,
            "name": "Toronto—Danforth"
          }
        ],
        "pollDivisionIds": [
          10142527
        ],
        "postalCode": "M4M1E8",
        "streetName": "EASTERN",
        "streetDirectionId": null,
        "streetTypeId": "AVE",
        "placeName": "TORONTO",
        "streetNameDisplayText": "EASTERN AVE, TORONTO"
      }
    ]
  },
  {
    "postal": "M4M9B8",
    "result": []
  },
  {
    "postal": "M4M7X4",
    "result": []
  },
  {
    "postal": "M4M1Z4",
    "result": [
      {
        "electoralDistricts": [
          {
            "election": null,
            "id": 110,
            "name": "Toronto—Danforth"
          }
        ],
        "pollDivisionIds": [
          10142521
        ],
        "postalCode": "M4M1Z4",
        "streetName": "GERRARD",
        "streetDirectionId": "E",
        "streetTypeId": "ST",
        "placeName": "TORONTO",
        "streetNameDisplayText": "GERRARD ST E, TORONTO"
      }
    ]
  },
  {
    "postal": "M4M2C7",
    "result": [
      {
        "electoralDistricts": [
          {
            "election": null,
            "id": 110,
            "name": "Toronto—Danforth"
          }
        ],
        "pollDivisionIds": [
          10142528
        ],
        "postalCode": "M4M2C7",
        "streetName": "HAMILTON",
        "streetDirectionId": null,
        "streetTypeId": "ST",
        "placeName": "TORONTO",
        "streetNameDisplayText": "HAMILTON ST, TORONTO"
      }
    ]
  },
  {
    "postal": "M4M2E7",
    "result": [
      {
        "electoralDistricts": [
          {
            "election": null,
            "id": 110,
            "name": "Toronto—Danforth"
          }
        ],
        "pollDivisionIds": [
          10142530
        ],
        "postalCode": "M4M2E7",
        "streetName": "DIBBLE",
        "streetDirectionId": null,
        "streetTypeId": "ST",
        "placeName": "TORONTO",
        "streetNameDisplayText": "DIBBLE ST, TORONTO"
      }
    ]
  },
  {
    "postal": "M4M3R1",
    "result": [
      {
        "electoralDistricts": [
          {
            "election": null,
            "id": 110,
            "name": "Toronto—Danforth"
          }
        ],
        "pollDivisionIds": [
          10142525
        ],
        "postalCode": "M4M3R1",
        "streetName": "FILMIC",
        "streetDirectionId": null,
        "streetTypeId": "LANE",
        "placeName": "TORONTO",
        "streetNameDisplayText": "FILMIC LANE, TORONTO"
      }
    ]
  },
  {
    "postal": "M4M4K4",
    "result": []
  },
  {
    "postal": "M4M9G3",
    "result": []
  },
  {
    "postal": "M4M6C9",
    "result": []
  },
  {
    "postal": "M4M9H5",
    "result": []
  },
  {
    "postal": "M4M1P5",
    "result": [
      {
        "electoralDistricts": [
          {
            "election": null,
            "id": 110,
            "name": "Toronto—Danforth"
          }
        ],
        "pollDivisionIds": [
          10142525
        ],
        "postalCode": "M4M1P5",
        "streetName": "AUDLEY",
        "streetDirectionId": null,
        "streetTypeId": "AVE",
        "placeName": "TORONTO",
        "streetNameDisplayText": "AUDLEY AVE, TORONTO"
      }
    ]
  },
  {
    "postal": "M4M2J5",
    "result": [
      {
        "electoralDistricts": [
          {
            "election": null,
            "id": 110,
            "name": "Toronto—Danforth"
          }
        ],
        "pollDivisionIds": [
          10142528
        ],
        "postalCode": "M4M2J5",
        "streetName": "BOULTON",
        "streetDirectionId": null,
        "streetTypeId": "AVE",
        "placeName": "TORONTO",
        "streetNameDisplayText": "BOULTON AVE, TORONTO"
      }
    ]
  },
  {
    "postal": "M4M4W6",
    "result": []
  },
  {
    "postal": "M4M8M8",
    "result": []
  },
  {
    "postal": "M4M6C5",
    "result": []
  },
  {
    "postal": "M4M9H0",
    "result": []
  },
  {
    "postal": "M4M1X8",
    "result": [
      {
        "electoralDistricts": [
          {
            "election": null,
            "id": 110,
            "name": "Toronto—Danforth"
          }
        ],
        "pollDivisionIds": [
          10142523
        ],
        "postalCode": "M4M1X8",
        "streetName": "GERRARD",
        "streetDirectionId": "E",
        "streetTypeId": "ST",
        "placeName": "TORONTO",
        "streetNameDisplayText": "GERRARD ST E, TORONTO"
      }
    ]
  },
  {
    "postal": "M4M3H4",
    "result": [
      {
        "electoralDistricts": [
          {
            "election": null,
            "id": 109,
            "name": "Toronto Centre"
          },
          {
            "election": null,
            "id": 110,
            "name": "Toronto—Danforth"
          }
        ],
        "pollDivisionIds": [
          10135203,
          10142527
        ],
        "postalCode": "M4M3H4",
        "streetName": "QUEEN",
        "streetDirectionId": "E",
        "streetTypeId": "ST",
        "placeName": "TORONTO",
        "streetNameDisplayText": "QUEEN ST E, TORONTO"
      }
    ]
  },
  {
    "postal": "M4M4E7",
    "result": []
  },
  {
    "postal": "M4M8A0",
    "result": []
  },
  {
    "postal": "M4M1Z7",
    "result": [
      {
        "electoralDistricts": [
          {
            "election": null,
            "id": 110,
            "name": "Toronto—Danforth"
          }
        ],
        "pollDivisionIds": [
          10142521
        ],
        "postalCode": "M4M1Z7",
        "streetName": "GERRARD",
        "streetDirectionId": "E",
        "streetTypeId": "ST",
        "placeName": "TORONTO",
        "streetNameDisplayText": "GERRARD ST E, TORONTO"
      }
    ]
  },
  {
    "postal": "M4M7Z3",
    "result": []
  },
  {
    "postal": "M4M0L7",
    "result": []
  },
  {
    "postal": "M4M2C6",
    "result": [
      {
        "electoralDistricts": [
          {
            "election": null,
            "id": 110,
            "name": "Toronto—Danforth"
          }
        ],
        "pollDivisionIds": [
          10142528
        ],
        "postalCode": "M4M2C6",
        "streetName": "HAMILTON",
        "streetDirectionId": null,
        "streetTypeId": "ST",
        "placeName": "TORONTO",
        "streetNameDisplayText": "HAMILTON ST, TORONTO"
      }
    ]
  },
  {
    "postal": "M4M6M3",
    "result": []
  },
  {
    "postal": "M4M2J1",
    "result": [
      {
        "electoralDistricts": [
          {
            "election": null,
            "id": 110,
            "name": "Toronto—Danforth"
          }
        ],
        "pollDivisionIds": [
          10142528
        ],
        "postalCode": "M4M2J1",
        "streetName": "HOWIE",
        "streetDirectionId": null,
        "streetTypeId": "AVE",
        "placeName": "TORONTO",
        "streetNameDisplayText": "HOWIE AVE, TORONTO"
      }
    ]
  },
  {
    "postal": "M4M3E3",
    "result": [
      {
        "electoralDistricts": [
          {
            "election": null,
            "id": 110,
            "name": "Toronto—Danforth"
          }
        ],
        "pollDivisionIds": [
          10142517
        ],
        "postalCode": "M4M3E3",
        "streetName": "LESLIE",
        "streetDirectionId": null,
        "streetTypeId": "ST",
        "placeName": "TORONTO",
        "streetNameDisplayText": "LESLIE ST, TORONTO"
      }
    ]
  },
  {
    "postal": "M4M6Z9",
    "result": []
  },
  {
    "postal": "M4M3M3",
    "result": []
  },
  {
    "postal": "M4M9B1",
    "result": []
  },
  {
    "postal": "M4M9J5",
    "result": []
  },
  {
    "postal": "M4M4V8",
    "result": []
  },
  {
    "postal": "M4M6W2",
    "result": []
  },
  {
    "postal": "M4M0V5",
    "result": []
  },
  {
    "postal": "M4M0Z8",
    "result": []
  },
  {
    "postal": "M4M5G2",
    "result": []
  },
  {
    "postal": "M4M4N4",
    "result": []
  },
  {
    "postal": "M4M8G7",
    "result": []
  },
  {
    "postal": "M4M8W1",
    "result": []
  },
  {
    "postal": "M4M1S6",
    "result": [
      {
        "electoralDistricts": [
          {
            "election": null,
            "id": 110,
            "name": "Toronto—Danforth"
          }
        ],
        "pollDivisionIds": [
          10142525
        ],
        "postalCode": "M4M1S6",
        "streetName": "DUNDAS",
        "streetDirectionId": "E",
        "streetTypeId": "ST",
        "placeName": "TORONTO",
        "streetNameDisplayText": "DUNDAS ST E, TORONTO"
      }
    ]
  },
  {
    "postal": "M4M4E0",
    "result": []
  },
  {
    "postal": "M4M4L9",
    "result": []
  },
  {
    "postal": "M4M5Z9",
    "result": []
  },
  {
    "postal": "M4M5V3",
    "result": []
  },
  {
    "postal": "M4M4V2",
    "result": []
  },
  {
    "postal": "M4M7C0",
    "result": []
  },
  {
    "postal": "M4M6L0",
    "result": []
  },
  {
    "postal": "M4M1S9",
    "result": [
      {
        "electoralDistricts": [
          {
            "election": null,
            "id": 110,
            "name": "Toronto—Danforth"
          }
        ],
        "pollDivisionIds": [
          10142521
        ],
        "postalCode": "M4M1S9",
        "streetName": "DUNDAS",
        "streetDirectionId": "E",
        "streetTypeId": "ST",
        "placeName": "TORONTO",
        "streetNameDisplayText": "DUNDAS ST E, TORONTO"
      }
    ]
  },
  {
    "postal": "M4M7R6",
    "result": []
  },
  {
    "postal": "M4M7J0",
    "result": []
  },
  {
    "postal": "M4M5M0",
    "result": []
  },
  {
    "postal": "M4M2E5",
    "result": []
  },
  {
    "postal": "M4M7C7",
    "result": []
  },
  {
    "postal": "M4M5C0",
    "result": []
  },
  {
    "postal": "M4M8V9",
    "result": []
  },
  {
    "postal": "M4M7E0",
    "result": []
  },
  {
    "postal": "M4M6R4",
    "result": []
  },
  {
    "postal": "M4M3Z7",
    "result": []
  },
  {
    "postal": "M4M1J9",
    "result": [
      {
        "electoralDistricts": [
          {
            "election": null,
            "id": 110,
            "name": "Toronto—Danforth"
          }
        ],
        "pollDivisionIds": [
          10142530
        ],
        "postalCode": "M4M1J9",
        "streetName": "QUEEN",
        "streetDirectionId": "E",
        "streetTypeId": "ST",
        "placeName": "TORONTO",
        "streetNameDisplayText": "QUEEN ST E, TORONTO"
      }
    ]
  },
  {
    "postal": "M4M7K6",
    "result": []
  },
  {
    "postal": "M4M7Y5",
    "result": []
  },
  {
    "postal": "M4M1B7",
    "result": [
      {
        "electoralDistricts": [
          {
            "election": null,
            "id": 110,
            "name": "Toronto—Danforth"
          }
        ],
        "pollDivisionIds": [
          10142530
        ],
        "postalCode": "M4M1B7",
        "streetName": "EASTERN",
        "streetDirectionId": null,
        "streetTypeId": "AVE",
        "placeName": "TORONTO",
        "streetNameDisplayText": "EASTERN AVE, TORONTO"
      }
    ]
  },
  {
    "postal": "M4M4S9",
    "result": []
  },
  {
    "postal": "M4M9R9",
    "result": []
  },
  {
    "postal": "M4M5K7",
    "result": []
  },
  {
    "postal": "M4M6P2",
    "result": []
  },
  {
    "postal": "M4M2C5",
    "result": [
      {
        "electoralDistricts": [
          {
            "election": null,
            "id": 110,
            "name": "Toronto—Danforth"
          }
        ],
        "pollDivisionIds": [
          10142528
        ],
        "postalCode": "M4M2C5",
        "streetName": "HAMILTON",
        "streetDirectionId": null,
        "streetTypeId": "ST",
        "placeName": "TORONTO",
        "streetNameDisplayText": "HAMILTON ST, TORONTO"
      }
    ]
  },
  {
    "postal": "M4M2N0",
    "result": []
  },
  {
    "postal": "M4M1G0",
    "result": []
  },
  {
    "postal": "M4M4K5",
    "result": []
  },
  {
    "postal": "M4M9B5",
    "result": []
  },
  {
    "postal": "M4M6T5",
    "result": []
  },
  {
    "postal": "M4M1N8",
    "result": [
      {
        "electoralDistricts": [
          {
            "election": null,
            "id": 110,
            "name": "Toronto—Danforth"
          }
        ],
        "pollDivisionIds": [
          10142529
        ],
        "postalCode": "M4M1N8",
        "streetName": "BUSY",
        "streetDirectionId": null,
        "streetTypeId": "ST",
        "placeName": "TORONTO",
        "streetNameDisplayText": "BUSY ST, TORONTO"
      }
    ]
  },
  {
    "postal": "M4M0C0",
    "result": []
  },
  {
    "postal": "M4M0R9",
    "result": []
  },
  {
    "postal": "M4M7L1",
    "result": []
  },
  {
    "postal": "M4M3Y8",
    "result": []
  },
  {
    "postal": "M4M7X9",
    "result": []
  },
  {
    "postal": "M4M1A7",
    "result": [
      {
        "electoralDistricts": [
          {
            "election": null,
            "id": 110,
            "name": "Toronto—Danforth"
          }
        ],
        "pollDivisionIds": [
          10142530
        ],
        "postalCode": "M4M1A7",
        "streetName": "COMMISSIONERS",
        "streetDirectionId": null,
        "streetTypeId": "ST",
        "placeName": "TORONTO",
        "streetNameDisplayText": "COMMISSIONERS ST, TORONTO"
      }
    ]
  },
  {
    "postal": "M4M2T9",
    "result": [
      {
        "electoralDistricts": [
          {
            "election": null,
            "id": 110,
            "name": "Toronto—Danforth"
          }
        ],
        "pollDivisionIds": [
          10142525
        ],
        "postalCode": "M4M2T9",
        "streetName": "BOSTON",
        "streetDirectionId": null,
        "streetTypeId": "AVE",
        "placeName": "TORONTO",
        "streetNameDisplayText": "BOSTON AVE, TORONTO"
      }
    ]
  },
  {
    "postal": "M4M2E6",
    "result": [
      {
        "electoralDistricts": [
          {
            "election": null,
            "id": 110,
            "name": "Toronto—Danforth"
          }
        ],
        "pollDivisionIds": [
          10142529
        ],
        "postalCode": "M4M2E6",
        "streetName": "BROADVIEW",
        "streetDirectionId": null,
        "streetTypeId": "AVE",
        "placeName": "TORONTO",
        "streetNameDisplayText": "BROADVIEW AVE, TORONTO"
      }
    ]
  },
  {
    "postal": "M4M8Y1",
    "result": []
  },
  {
    "postal": "M4M0J5",
    "result": []
  },
  {
    "postal": "M4M4J1",
    "result": []
  },
  {
    "postal": "M4M1A5",
    "result": [
      {
        "electoralDistricts": [
          {
            "election": null,
            "id": 110,
            "name": "Toronto—Danforth"
          }
        ],
        "pollDivisionIds": [
          10142530
        ],
        "postalCode": "M4M1A5",
        "streetName": "COMMISSIONERS",
        "streetDirectionId": null,
        "streetTypeId": "ST",
        "placeName": "TORONTO",
        "streetNameDisplayText": "COMMISSIONERS ST, TORONTO"
      }
    ]
  },
  {
    "postal": "M4M6Z6",
    "result": []
  },
  {
    "postal": "M4M5K4",
    "result": []
  },
  {
    "postal": "M4M7R9",
    "result": []
  },
  {
    "postal": "M4M6G4",
    "result": []
  }
]
