[
  {
    "postal": "P6B9J6",
    "result": []
  },
  {
    "postal": "P6B9Z5",
    "result": []
  },
  {
    "postal": "P6B7H8",
    "result": []
  },
  {
    "postal": "P6B0P6",
    "result": []
  },
  {
    "postal": "P6B0S7",
    "result": []
  },
  {
    "postal": "P6B8B9",
    "result": []
  },
  {
    "postal": "P6B2A6",
    "result": [
      {
        "electoralDistricts": [
          {
            "election": null,
            "id": 92,
            "name": "Sault Ste. Marie"
          }
        ],
        "pollDivisionIds": [
          10141472
        ],
        "postalCode": "P6B2A6",
        "streetName": "NORTH",
        "streetDirectionId": null,
        "streetTypeId": "ST",
        "placeName": "SAULT STE. MARIE",
        "streetNameDisplayText": "NORTH ST, SAULT STE. MARIE"
      }
    ]
  },
  {
    "postal": "P6B7V2",
    "result": []
  },
  {
    "postal": "P6B9P4",
    "result": []
  },
  {
    "postal": "P6B6G0",
    "result": []
  },
  {
    "postal": "P6B2K0",
    "result": []
  },
  {
    "postal": "P6B7N6",
    "result": []
  },
  {
    "postal": "P6B5R3",
    "result": [
      {
        "electoralDistricts": [
          {
            "election": null,
            "id": 92,
            "name": "Sault Ste. Marie"
          }
        ],
        "pollDivisionIds": [
          10141467
        ],
        "postalCode": "P6B5R3",
        "streetName": "NORTH",
        "streetDirectionId": null,
        "streetTypeId": "ST",
        "placeName": "SAULT STE. MARIE",
        "streetNameDisplayText": "NORTH ST, SAULT STE. MARIE"
      }
    ]
  },
  {
    "postal": "P6B7K0",
    "result": []
  },
  {
    "postal": "P6B3R2",
    "result": [
      {
        "electoralDistricts": [
          {
            "election": null,
            "id": 92,
            "name": "Sault Ste. Marie"
          }
        ],
        "pollDivisionIds": [
          10141487
        ],
        "postalCode": "P6B3R2",
        "streetName": "FARQUHAR",
        "streetDirectionId": null,
        "streetTypeId": "ST",
        "placeName": "SAULT STE. MARIE",
        "streetNameDisplayText": "FARQUHAR ST, SAULT STE. MARIE"
      }
    ]
  },
  {
    "postal": "P6B0J1",
    "result": []
  },
  {
    "postal": "P6B0B0",
    "result": []
  },
  {
    "postal": "P6B5Z2",
    "result": [
      {
        "electoralDistricts": [
          {
            "election": null,
            "id": 92,
            "name": "Sault Ste. Marie"
          }
        ],
        "pollDivisionIds": [
          10141473
        ],
        "postalCode": "P6B5Z2",
        "streetName": "WAWANOSH",
        "streetDirectionId": null,
        "streetTypeId": "AVE",
        "placeName": "SAULT STE. MARIE",
        "streetNameDisplayText": "WAWANOSH AVE, SAULT STE. MARIE"
      }
    ]
  },
  {
    "postal": "P6B7P3",
    "result": []
  },
  {
    "postal": "P6B2K3",
    "result": [
      {
        "electoralDistricts": [
          {
            "election": null,
            "id": 92,
            "name": "Sault Ste. Marie"
          }
        ],
        "pollDivisionIds": [
          10141467
        ],
        "postalCode": "P6B2K3",
        "streetName": "BIRCH",
        "streetDirectionId": null,
        "streetTypeId": "ST",
        "placeName": "SAULT STE. MARIE",
        "streetNameDisplayText": "BIRCH ST, SAULT STE. MARIE"
      }
    ]
  },
  {
    "postal": "P6B7Y6",
    "result": []
  },
  {
    "postal": "P6B1L9",
    "result": [
      {
        "electoralDistricts": [
          {
            "election": null,
            "id": 92,
            "name": "Sault Ste. Marie"
          }
        ],
        "pollDivisionIds": [
          10141473
        ],
        "postalCode": "P6B1L9",
        "streetName": "SALISBURY",
        "streetDirectionId": null,
        "streetTypeId": "AVE",
        "placeName": "SAULT STE. MARIE",
        "streetNameDisplayText": "SALISBURY AVE, SAULT STE. MARIE"
      }
    ]
  },
  {
    "postal": "P6B8T0",
    "result": []
  },
  {
    "postal": "P6B3K8",
    "result": [
      {
        "electoralDistricts": [
          {
            "election": null,
            "id": 92,
            "name": "Sault Ste. Marie"
          }
        ],
        "pollDivisionIds": [
          10141485
        ],
        "postalCode": "P6B3K8",
        "streetName": "LAKE",
        "streetDirectionId": null,
        "streetTypeId": "ST",
        "placeName": "SAULT STE. MARIE",
        "streetNameDisplayText": "LAKE ST, SAULT STE. MARIE"
      }
    ]
  },
  {
    "postal": "P6B5W9",
    "result": [
      {
        "electoralDistricts": [
          {
            "election": null,
            "id": 92,
            "name": "Sault Ste. Marie"
          }
        ],
        "pollDivisionIds": [
          10141474
        ],
        "postalCode": "P6B5W9",
        "streetName": "STRAND",
        "streetDirectionId": null,
        "streetTypeId": "AVE",
        "placeName": "SAULT STE. MARIE",
        "streetNameDisplayText": "STRAND AVE, SAULT STE. MARIE"
      }
    ]
  },
  {
    "postal": "P6B6T9",
    "result": []
  },
  {
    "postal": "P6B4H1",
    "result": [
      {
        "electoralDistricts": [
          {
            "election": null,
            "id": 92,
            "name": "Sault Ste. Marie"
          }
        ],
        "pollDivisionIds": [
          10141467
        ],
        "postalCode": "P6B4H1",
        "streetName": "NORTHERN",
        "streetDirectionId": "E",
        "streetTypeId": "AVE",
        "placeName": "SAULT STE. MARIE",
        "streetNameDisplayText": "NORTHERN AVE E, SAULT STE. MARIE"
      }
    ]
  },
  {
    "postal": "P6B7A2",
    "result": []
  },
  {
    "postal": "P6B5G0",
    "result": []
  },
  {
    "postal": "P6B8V5",
    "result": []
  },
  {
    "postal": "P6B2Y8",
    "result": [
      {
        "electoralDistricts": [
          {
            "election": null,
            "id": 92,
            "name": "Sault Ste. Marie"
          }
        ],
        "pollDivisionIds": [
          10141481
        ],
        "postalCode": "P6B2Y8",
        "streetName": "BRIEN",
        "streetDirectionId": null,
        "streetTypeId": "AVE",
        "placeName": "SAULT STE. MARIE",
        "streetNameDisplayText": "BRIEN AVE, SAULT STE. MARIE"
      }
    ]
  },
  {
    "postal": "P6B2B6",
    "result": [
      {
        "electoralDistricts": [
          {
            "election": null,
            "id": 92,
            "name": "Sault Ste. Marie"
          }
        ],
        "pollDivisionIds": [
          10141474
        ],
        "postalCode": "P6B2B6",
        "streetName": "NORTH",
        "streetDirectionId": null,
        "streetTypeId": "ST",
        "placeName": "SAULT STE. MARIE",
        "streetNameDisplayText": "NORTH ST, SAULT STE. MARIE"
      }
    ]
  },
  {
    "postal": "P6B4W8",
    "result": [
      {
        "electoralDistricts": [
          {
            "election": null,
            "id": 92,
            "name": "Sault Ste. Marie"
          }
        ],
        "pollDivisionIds": [
          10141474
        ],
        "postalCode": "P6B4W8",
        "streetName": "CAMERON",
        "streetDirectionId": null,
        "streetTypeId": "AVE",
        "placeName": "SAULT STE. MARIE",
        "streetNameDisplayText": "CAMERON AVE, SAULT STE. MARIE"
      }
    ]
  },
  {
    "postal": "P6B8H7",
    "result": []
  },
  {
    "postal": "P6B5P1",
    "result": [
      {
        "electoralDistricts": [
          {
            "election": null,
            "id": 92,
            "name": "Sault Ste. Marie"
          }
        ],
        "pollDivisionIds": [
          10141482
        ],
        "postalCode": "P6B5P1",
        "streetName": "NORDEN",
        "streetDirectionId": null,
        "streetTypeId": "CRES",
        "placeName": "SAULT STE. MARIE",
        "streetNameDisplayText": "NORDEN CRES, SAULT STE. MARIE"
      }
    ]
  },
  {
    "postal": "P6B2B8",
    "result": [
      {
        "electoralDistricts": [
          {
            "election": null,
            "id": 92,
            "name": "Sault Ste. Marie"
          }
        ],
        "pollDivisionIds": [
          10141474
        ],
        "postalCode": "P6B2B8",
        "streetName": "NORTH",
        "streetDirectionId": null,
        "streetTypeId": "ST",
        "placeName": "SAULT STE. MARIE",
        "streetNameDisplayText": "NORTH ST, SAULT STE. MARIE"
      }
    ]
  },
  {
    "postal": "P6B0P2",
    "result": []
  },
  {
    "postal": "P6B9M1",
    "result": []
  },
  {
    "postal": "P6B3G0",
    "result": []
  },
  {
    "postal": "P6B9Z2",
    "result": []
  },
  {
    "postal": "P6B2A0",
    "result": []
  },
  {
    "postal": "P6B6Y0",
    "result": []
  },
  {
    "postal": "P6B2Z8",
    "result": [
      {
        "electoralDistricts": [
          {
            "election": null,
            "id": 92,
            "name": "Sault Ste. Marie"
          }
        ],
        "pollDivisionIds": [
          10141481
        ],
        "postalCode": "P6B2Z8",
        "streetName": "SIMPSON",
        "streetDirectionId": null,
        "streetTypeId": "ST",
        "placeName": "SAULT STE. MARIE",
        "streetNameDisplayText": "SIMPSON ST, SAULT STE. MARIE"
      }
    ]
  },
  {
    "postal": "P6B7Y3",
    "result": []
  },
  {
    "postal": "P6B6Z5",
    "result": []
  },
  {
    "postal": "P6B6E0",
    "result": []
  },
  {
    "postal": "P6B9B7",
    "result": []
  },
  {
    "postal": "P6B9S5",
    "result": []
  },
  {
    "postal": "P6B3X3",
    "result": [
      {
        "electoralDistricts": [
          {
            "election": null,
            "id": 92,
            "name": "Sault Ste. Marie"
          }
        ],
        "pollDivisionIds": [
          10141477
        ],
        "postalCode": "P6B3X3",
        "streetName": "BLUE JAY",
        "streetDirectionId": null,
        "streetTypeId": "CRT",
        "placeName": "SAULT STE. MARIE",
        "streetNameDisplayText": "BLUE JAY CRT, SAULT STE. MARIE"
      }
    ]
  },
  {
    "postal": "P6B7R5",
    "result": []
  },
  {
    "postal": "P6B2X3",
    "result": [
      {
        "electoralDistricts": [
          {
            "election": null,
            "id": 92,
            "name": "Sault Ste. Marie"
          }
        ],
        "pollDivisionIds": [
          10141481,
          10141473
        ],
        "postalCode": "P6B2X3",
        "streetName": "POPLAR",
        "streetDirectionId": null,
        "streetTypeId": "AVE",
        "placeName": "SAULT STE. MARIE",
        "streetNameDisplayText": "POPLAR AVE, SAULT STE. MARIE"
      },
      {
        "electoralDistricts": [
          {
            "election": null,
            "id": 92,
            "name": "Sault Ste. Marie"
          }
        ],
        "pollDivisionIds": [
          10141477
        ],
        "postalCode": "P6B2X3",
        "streetName": "POPLAR",
        "streetDirectionId": null,
        "streetTypeId": "ST",
        "placeName": "SAULT STE. MARIE",
        "streetNameDisplayText": "POPLAR ST, SAULT STE. MARIE"
      }
    ]
  },
  {
    "postal": "P6B8Z9",
    "result": []
  },
  {
    "postal": "P6B0N4",
    "result": []
  },
  {
    "postal": "P6B1K1",
    "result": [
      {
        "electoralDistricts": [
          {
            "election": null,
            "id": 92,
            "name": "Sault Ste. Marie"
          }
        ],
        "pollDivisionIds": [
          10141473
        ],
        "postalCode": "P6B1K1",
        "streetName": "OAKWOOD",
        "streetDirectionId": null,
        "streetTypeId": "DR",
        "placeName": "SAULT STE. MARIE",
        "streetNameDisplayText": "OAKWOOD DR, SAULT STE. MARIE"
      }
    ]
  },
  {
    "postal": "P6B1S3",
    "result": [
      {
        "electoralDistricts": [
          {
            "election": null,
            "id": 92,
            "name": "Sault Ste. Marie"
          }
        ],
        "pollDivisionIds": [
          10141481
        ],
        "postalCode": "P6B1S3",
        "streetName": "SMALE",
        "streetDirectionId": null,
        "streetTypeId": "AVE",
        "placeName": "SAULT STE. MARIE",
        "streetNameDisplayText": "SMALE AVE, SAULT STE. MARIE"
      }
    ]
  },
  {
    "postal": "P6B6M4",
    "result": []
  },
  {
    "postal": "P6B9A9",
    "result": []
  },
  {
    "postal": "P6B9Z9",
    "result": []
  },
  {
    "postal": "P6B6T4",
    "result": []
  },
  {
    "postal": "P6B0B2",
    "result": [
      {
        "electoralDistricts": [
          {
            "election": null,
            "id": 92,
            "name": "Sault Ste. Marie"
          }
        ],
        "pollDivisionIds": [
          10141468
        ],
        "postalCode": "P6B0B2",
        "streetName": "LANG",
        "streetDirectionId": null,
        "streetTypeId": "CRT",
        "placeName": "SAULT STE. MARIE",
        "streetNameDisplayText": "LANG CRT, SAULT STE. MARIE"
      }
    ]
  },
  {
    "postal": "P6B2L9",
    "result": [
      {
        "electoralDistricts": [
          {
            "election": null,
            "id": 92,
            "name": "Sault Ste. Marie"
          }
        ],
        "pollDivisionIds": [
          10141473
        ],
        "postalCode": "P6B2L9",
        "streetName": "GROSVENOR",
        "streetDirectionId": null,
        "streetTypeId": "AVE",
        "placeName": "SAULT STE. MARIE",
        "streetNameDisplayText": "GROSVENOR AVE, SAULT STE. MARIE"
      }
    ]
  },
  {
    "postal": "P6B8K9",
    "result": []
  },
  {
    "postal": "P6B2H9",
    "result": [
      {
        "electoralDistricts": [
          {
            "election": null,
            "id": 92,
            "name": "Sault Ste. Marie"
          }
        ],
        "pollDivisionIds": [
          10141460,
          10141472
        ],
        "postalCode": "P6B2H9",
        "streetName": "MAPLE",
        "streetDirectionId": null,
        "streetTypeId": "ST",
        "placeName": "SAULT STE. MARIE",
        "streetNameDisplayText": "MAPLE ST, SAULT STE. MARIE"
      }
    ]
  },
  {
    "postal": "P6B3Z6",
    "result": [
      {
        "electoralDistricts": [
          {
            "election": null,
            "id": 92,
            "name": "Sault Ste. Marie"
          }
        ],
        "pollDivisionIds": [
          10141476
        ],
        "postalCode": "P6B3Z6",
        "streetName": "PELICAN",
        "streetDirectionId": null,
        "streetTypeId": "DR",
        "placeName": "SAULT STE. MARIE",
        "streetNameDisplayText": "PELICAN DR, SAULT STE. MARIE"
      }
    ]
  },
  {
    "postal": "P6B3B0",
    "result": []
  },
  {
    "postal": "P6B2H8",
    "result": [
      {
        "electoralDistricts": [
          {
            "election": null,
            "id": 92,
            "name": "Sault Ste. Marie"
          }
        ],
        "pollDivisionIds": [
          10141472
        ],
        "postalCode": "P6B2H8",
        "streetName": "MAPLE",
        "streetDirectionId": null,
        "streetTypeId": "ST",
        "placeName": "SAULT STE. MARIE",
        "streetNameDisplayText": "MAPLE ST, SAULT STE. MARIE"
      }
    ]
  },
  {
    "postal": "P6B3X2",
    "result": [
      {
        "electoralDistricts": [
          {
            "election": null,
            "id": 92,
            "name": "Sault Ste. Marie"
          }
        ],
        "pollDivisionIds": [
          10141477
        ],
        "postalCode": "P6B3X2",
        "streetName": "WILLOUGHBY",
        "streetDirectionId": null,
        "streetTypeId": "ST",
        "placeName": "SAULT STE. MARIE",
        "streetNameDisplayText": "WILLOUGHBY ST, SAULT STE. MARIE"
      }
    ]
  },
  {
    "postal": "P6B2E9",
    "result": [
      {
        "electoralDistricts": [
          {
            "election": null,
            "id": 92,
            "name": "Sault Ste. Marie"
          }
        ],
        "pollDivisionIds": [
          10141472
        ],
        "postalCode": "P6B2E9",
        "streetName": "WALNUT",
        "streetDirectionId": null,
        "streetTypeId": "ST",
        "placeName": "SAULT STE. MARIE",
        "streetNameDisplayText": "WALNUT ST, SAULT STE. MARIE"
      }
    ]
  },
  {
    "postal": "P6B9P6",
    "result": []
  },
  {
    "postal": "P6B9E2",
    "result": []
  },
  {
    "postal": "P6B9H2",
    "result": []
  },
  {
    "postal": "P6B1S8",
    "result": [
      {
        "electoralDistricts": [
          {
            "election": null,
            "id": 92,
            "name": "Sault Ste. Marie"
          }
        ],
        "pollDivisionIds": [
          10141481
        ],
        "postalCode": "P6B1S8",
        "streetName": "CHLEBUS",
        "streetDirectionId": null,
        "streetTypeId": "ST",
        "placeName": "SAULT STE. MARIE",
        "streetNameDisplayText": "CHLEBUS ST, SAULT STE. MARIE"
      }
    ]
  },
  {
    "postal": "P6B3M6",
    "result": [
      {
        "electoralDistricts": [
          {
            "election": null,
            "id": 92,
            "name": "Sault Ste. Marie"
          }
        ],
        "pollDivisionIds": [
          10141478
        ],
        "postalCode": "P6B3M6",
        "streetName": "PLACID",
        "streetDirectionId": null,
        "streetTypeId": "AVE",
        "placeName": "SAULT STE. MARIE",
        "streetNameDisplayText": "PLACID AVE, SAULT STE. MARIE"
      }
    ]
  },
  {
    "postal": "P6B6Z8",
    "result": []
  },
  {
    "postal": "P6B4J2",
    "result": [
      {
        "electoralDistricts": [
          {
            "election": null,
            "id": 92,
            "name": "Sault Ste. Marie"
          }
        ],
        "pollDivisionIds": [
          10141475
        ],
        "postalCode": "P6B4J2",
        "streetName": "NORTHERN",
        "streetDirectionId": "E",
        "streetTypeId": "AVE",
        "placeName": "SAULT STE. MARIE",
        "streetNameDisplayText": "NORTHERN AVE E, SAULT STE. MARIE"
      }
    ]
  },
  {
    "postal": "P6B9Y1",
    "result": []
  },
  {
    "postal": "P6B8V6",
    "result": []
  },
  {
    "postal": "P6B6B2",
    "result": []
  },
  {
    "postal": "P6B1P8",
    "result": []
  },
  {
    "postal": "P6B0V8",
    "result": []
  },
  {
    "postal": "P6B4Y0",
    "result": []
  },
  {
    "postal": "P6B2T4",
    "result": [
      {
        "electoralDistricts": [
          {
            "election": null,
            "id": 92,
            "name": "Sault Ste. Marie"
          }
        ],
        "pollDivisionIds": [
          10141480
        ],
        "postalCode": "P6B2T4",
        "streetName": "PIM",
        "streetDirectionId": null,
        "streetTypeId": "ST",
        "placeName": "SAULT STE. MARIE",
        "streetNameDisplayText": "PIM ST, SAULT STE. MARIE"
      }
    ]
  },
  {
    "postal": "P6B2S3",
    "result": [
      {
        "electoralDistricts": [
          {
            "election": null,
            "id": 92,
            "name": "Sault Ste. Marie"
          }
        ],
        "pollDivisionIds": [
          10141480
        ],
        "postalCode": "P6B2S3",
        "streetName": "SUMMIT",
        "streetDirectionId": null,
        "streetTypeId": "AVE",
        "placeName": "SAULT STE. MARIE",
        "streetNameDisplayText": "SUMMIT AVE, SAULT STE. MARIE"
      }
    ]
  },
  {
    "postal": "P6B0K0",
    "result": []
  },
  {
    "postal": "P6B5N1",
    "result": [
      {
        "electoralDistricts": [
          {
            "election": null,
            "id": 92,
            "name": "Sault Ste. Marie"
          }
        ],
        "pollDivisionIds": [
          10141487
        ],
        "postalCode": "P6B5N1",
        "streetName": "RIVERIN",
        "streetDirectionId": null,
        "streetTypeId": "AVE",
        "placeName": "SAULT STE. MARIE",
        "streetNameDisplayText": "RIVERIN AVE, SAULT STE. MARIE"
      }
    ]
  },
  {
    "postal": "P6B7T0",
    "result": []
  },
  {
    "postal": "P6B9N2",
    "result": []
  },
  {
    "postal": "P6B5L1",
    "result": [
      {
        "electoralDistricts": [
          {
            "election": null,
            "id": 92,
            "name": "Sault Ste. Marie"
          }
        ],
        "pollDivisionIds": [
          10141487
        ],
        "postalCode": "P6B5L1",
        "streetName": "MANITOU",
        "streetDirectionId": null,
        "streetTypeId": "DR",
        "placeName": "SAULT STE. MARIE",
        "streetNameDisplayText": "MANITOU DR, SAULT STE. MARIE"
      }
    ]
  },
  {
    "postal": "P6B7G5",
    "result": []
  },
  {
    "postal": "P6B6K2",
    "result": [
      {
        "electoralDistricts": [
          {
            "election": null,
            "id": 92,
            "name": "Sault Ste. Marie"
          }
        ],
        "pollDivisionIds": [
          10141470
        ],
        "postalCode": "P6B6K2",
        "streetName": "LAKE",
        "streetDirectionId": null,
        "streetTypeId": "ST",
        "placeName": "SAULT STE.  MARIE",
        "streetNameDisplayText": "LAKE ST, SAULT STE.  MARIE"
      },
      {
        "electoralDistricts": [
          {
            "election": null,
            "id": 92,
            "name": "Sault Ste. Marie"
          }
        ],
        "pollDivisionIds": [
          10141470
        ],
        "postalCode": "P6B6K2",
        "streetName": "LAKE",
        "streetDirectionId": null,
        "streetTypeId": "ST",
        "placeName": "SAULT STE. MARIE",
        "streetNameDisplayText": "LAKE ST, SAULT STE. MARIE"
      }
    ]
  },
  {
    "postal": "P6B6P9",
    "result": []
  },
  {
    "postal": "P6B0E6",
    "result": []
  },
  {
    "postal": "P6B8R9",
    "result": []
  },
  {
    "postal": "P6B3G9",
    "result": [
      {
        "electoralDistricts": [
          {
            "election": null,
            "id": 92,
            "name": "Sault Ste. Marie"
          }
        ],
        "pollDivisionIds": [
          10141481
        ],
        "postalCode": "P6B3G9",
        "streetName": "MOLUCH",
        "streetDirectionId": null,
        "streetTypeId": "ST",
        "placeName": "SAULT STE. MARIE",
        "streetNameDisplayText": "MOLUCH ST, SAULT STE. MARIE"
      }
    ]
  },
  {
    "postal": "P6B0V7",
    "result": []
  },
  {
    "postal": "P6B2Z1",
    "result": [
      {
        "electoralDistricts": [
          {
            "election": null,
            "id": 92,
            "name": "Sault Ste. Marie"
          }
        ],
        "pollDivisionIds": [
          10141481
        ],
        "postalCode": "P6B2Z1",
        "streetName": "BRIEN",
        "streetDirectionId": null,
        "streetTypeId": "AVE",
        "placeName": "SAULT STE. MARIE",
        "streetNameDisplayText": "BRIEN AVE, SAULT STE. MARIE"
      }
    ]
  },
  {
    "postal": "P6B7N1",
    "result": []
  },
  {
    "postal": "P6B3C6",
    "result": [
      {
        "electoralDistricts": [
          {
            "election": null,
            "id": 92,
            "name": "Sault Ste. Marie"
          }
        ],
        "pollDivisionIds": [
          10141481
        ],
        "postalCode": "P6B3C6",
        "streetName": "WELDON",
        "streetDirectionId": null,
        "streetTypeId": "AVE",
        "placeName": "SAULT STE. MARIE",
        "streetNameDisplayText": "WELDON AVE, SAULT STE. MARIE"
      }
    ]
  },
  {
    "postal": "P6B4M1",
    "result": [
      {
        "electoralDistricts": [
          {
            "election": null,
            "id": 92,
            "name": "Sault Ste. Marie"
          }
        ],
        "pollDivisionIds": [
          10141469
        ],
        "postalCode": "P6B4M1",
        "streetName": "SOUTHWOOD",
        "streetDirectionId": null,
        "streetTypeId": "DR",
        "placeName": "SAULT STE. MARIE",
        "streetNameDisplayText": "SOUTHWOOD DR, SAULT STE. MARIE"
      }
    ]
  },
  {
    "postal": "P6B9K2",
    "result": []
  },
  {
    "postal": "P6B9S6",
    "result": []
  },
  {
    "postal": "P6B4X1",
    "result": [
      {
        "electoralDistricts": [
          {
            "election": null,
            "id": 92,
            "name": "Sault Ste. Marie"
          }
        ],
        "pollDivisionIds": [
          10141474
        ],
        "postalCode": "P6B4X1",
        "streetName": "CAMERON",
        "streetDirectionId": null,
        "streetTypeId": "AVE",
        "placeName": "SAULT STE. MARIE",
        "streetNameDisplayText": "CAMERON AVE, SAULT STE. MARIE"
      }
    ]
  },
  {
    "postal": "P6B8W2",
    "result": []
  },
  {
    "postal": "P6B7N2",
    "result": []
  },
  {
    "postal": "P6B8S3",
    "result": []
  },
  {
    "postal": "P6B4V0",
    "result": []
  },
  {
    "postal": "P6B6W4",
    "result": []
  },
  {
    "postal": "P6B5M1",
    "result": [
      {
        "electoralDistricts": [
          {
            "election": null,
            "id": 92,
            "name": "Sault Ste. Marie"
          }
        ],
        "pollDivisionIds": [
          10141487
        ],
        "postalCode": "P6B5M1",
        "streetName": "WIBER",
        "streetDirectionId": null,
        "streetTypeId": "ST",
        "placeName": "SAULT STE. MARIE",
        "streetNameDisplayText": "WIBER ST, SAULT STE. MARIE"
      }
    ]
  },
  {
    "postal": "P6B0S4",
    "result": []
  },
  {
    "postal": "P6B5X6",
    "result": [
      {
        "electoralDistricts": [
          {
            "election": null,
            "id": 92,
            "name": "Sault Ste. Marie"
          }
        ],
        "pollDivisionIds": [
          10141485
        ],
        "postalCode": "P6B5X6",
        "streetName": "DANBY",
        "streetDirectionId": null,
        "streetTypeId": "RD",
        "placeName": "SAULT STE. MARIE",
        "streetNameDisplayText": "DANBY RD, SAULT STE. MARIE"
      }
    ]
  },
  {
    "postal": "P6B8L5",
    "result": []
  },
  {
    "postal": "P6B5M8",
    "result": [
      {
        "electoralDistricts": [
          {
            "election": null,
            "id": 92,
            "name": "Sault Ste. Marie"
          }
        ],
        "pollDivisionIds": [
          10141487
        ],
        "postalCode": "P6B5M8",
        "streetName": "VERA",
        "streetDirectionId": null,
        "streetTypeId": "ST",
        "placeName": "SAULT STE. MARIE",
        "streetNameDisplayText": "VERA ST, SAULT STE. MARIE"
      }
    ]
  },
  {
    "postal": "P6B2G3",
    "result": [
      {
        "electoralDistricts": [
          {
            "election": null,
            "id": 92,
            "name": "Sault Ste. Marie"
          }
        ],
        "pollDivisionIds": [
          10141467
        ],
        "postalCode": "P6B2G3",
        "streetName": "WALNUT",
        "streetDirectionId": null,
        "streetTypeId": "ST",
        "placeName": "SAULT STE. MARIE",
        "streetNameDisplayText": "WALNUT ST, SAULT STE. MARIE"
      }
    ]
  },
  {
    "postal": "P6B8E4",
    "result": []
  },
  {
    "postal": "P6B7S9",
    "result": []
  },
  {
    "postal": "P6B1K3",
    "result": [
      {
        "electoralDistricts": [
          {
            "election": null,
            "id": 92,
            "name": "Sault Ste. Marie"
          }
        ],
        "pollDivisionIds": [
          10141473
        ],
        "postalCode": "P6B1K3",
        "streetName": "LANSDOWNE",
        "streetDirectionId": null,
        "streetTypeId": "AVE",
        "placeName": "SAULT STE. MARIE",
        "streetNameDisplayText": "LANSDOWNE AVE, SAULT STE. MARIE"
      }
    ]
  },
  {
    "postal": "P6B4E1",
    "result": [
      {
        "electoralDistricts": [
          {
            "election": null,
            "id": 92,
            "name": "Sault Ste. Marie"
          }
        ],
        "pollDivisionIds": [
          10141476
        ],
        "postalCode": "P6B4E1",
        "streetName": "PLEASANT",
        "streetDirectionId": null,
        "streetTypeId": "DR",
        "placeName": "SAULT STE. MARIE",
        "streetNameDisplayText": "PLEASANT DR, SAULT STE. MARIE"
      }
    ]
  },
  {
    "postal": "P6B4R2",
    "result": [
      {
        "electoralDistricts": [
          {
            "election": null,
            "id": 92,
            "name": "Sault Ste. Marie"
          }
        ],
        "pollDivisionIds": [
          10141467
        ],
        "postalCode": "P6B4R2",
        "streetName": "KITCHENER",
        "streetDirectionId": null,
        "streetTypeId": "RD",
        "placeName": "SAULT STE. MARIE",
        "streetNameDisplayText": "KITCHENER RD, SAULT STE. MARIE"
      }
    ]
  },
  {
    "postal": "P6B6T0",
    "result": []
  },
  {
    "postal": "P6B3K5",
    "result": [
      {
        "electoralDistricts": [
          {
            "election": null,
            "id": 92,
            "name": "Sault Ste. Marie"
          }
        ],
        "pollDivisionIds": [
          10141482
        ],
        "postalCode": "P6B3K5",
        "streetName": "ORION",
        "streetDirectionId": null,
        "streetTypeId": "ST",
        "placeName": "SAULT STE. MARIE",
        "streetNameDisplayText": "ORION ST, SAULT STE. MARIE"
      }
    ]
  },
  {
    "postal": "P6B3S3",
    "result": [
      {
        "electoralDistricts": [
          {
            "election": null,
            "id": 92,
            "name": "Sault Ste. Marie"
          }
        ],
        "pollDivisionIds": [
          10141473
        ],
        "postalCode": "P6B3S3",
        "streetName": "GRANDRIVER",
        "streetDirectionId": null,
        "streetTypeId": "CRES",
        "placeName": "SAULT STE. MARIE",
        "streetNameDisplayText": "GRANDRIVER CRES, SAULT STE. MARIE"
      }
    ]
  },
  {
    "postal": "P6B3L4",
    "result": [
      {
        "electoralDistricts": [
          {
            "election": null,
            "id": 92,
            "name": "Sault Ste. Marie"
          }
        ],
        "pollDivisionIds": [
          10141482
        ],
        "postalCode": "P6B3L4",
        "streetName": "LAKE",
        "streetDirectionId": null,
        "streetTypeId": "ST",
        "placeName": "SAULT STE. MARIE",
        "streetNameDisplayText": "LAKE ST, SAULT STE. MARIE"
      }
    ]
  },
  {
    "postal": "P6B9Y2",
    "result": []
  },
  {
    "postal": "P6B1E0",
    "result": []
  },
  {
    "postal": "P6B9A4",
    "result": []
  },
  {
    "postal": "P6B1L3",
    "result": [
      {
        "electoralDistricts": [
          {
            "election": null,
            "id": 92,
            "name": "Sault Ste. Marie"
          }
        ],
        "pollDivisionIds": [
          10141482
        ],
        "postalCode": "P6B1L3",
        "streetName": "WIRELESS",
        "streetDirectionId": null,
        "streetTypeId": "AVE",
        "placeName": "SAULT STE. MARIE",
        "streetNameDisplayText": "WIRELESS AVE, SAULT STE. MARIE"
      }
    ]
  },
  {
    "postal": "P6B6N1",
    "result": []
  },
  {
    "postal": "P6B6G7",
    "result": [
      {
        "electoralDistricts": [
          {
            "election": null,
            "id": 92,
            "name": "Sault Ste. Marie"
          }
        ],
        "pollDivisionIds": [
          10141481
        ],
        "postalCode": "P6B6G7",
        "streetName": "ONTARIO",
        "streetDirectionId": null,
        "streetTypeId": "AVE",
        "placeName": "SAULT STE. MARIE",
        "streetNameDisplayText": "ONTARIO AVE, SAULT STE. MARIE"
      }
    ]
  },
  {
    "postal": "P6B7W1",
    "result": []
  },
  {
    "postal": "P6B4M6",
    "result": [
      {
        "electoralDistricts": [
          {
            "election": null,
            "id": 92,
            "name": "Sault Ste. Marie"
          }
        ],
        "pollDivisionIds": [
          10141469
        ],
        "postalCode": "P6B4M6",
        "streetName": "NORTHWOOD",
        "streetDirectionId": null,
        "streetTypeId": "ST",
        "placeName": "SAULT STE. MARIE",
        "streetNameDisplayText": "NORTHWOOD ST, SAULT STE. MARIE"
      }
    ]
  },
  {
    "postal": "P6B1K0",
    "result": []
  },
  {
    "postal": "P6B3E2",
    "result": [
      {
        "electoralDistricts": [
          {
            "election": null,
            "id": 92,
            "name": "Sault Ste. Marie"
          }
        ],
        "pollDivisionIds": [
          10141481
        ],
        "postalCode": "P6B3E2",
        "streetName": "EDMONDS",
        "streetDirectionId": null,
        "streetTypeId": "AVE",
        "placeName": "SAULT STE. MARIE",
        "streetNameDisplayText": "EDMONDS AVE, SAULT STE. MARIE"
      }
    ]
  },
  {
    "postal": "P6B5H4",
    "result": [
      {
        "electoralDistricts": [
          {
            "election": null,
            "id": 92,
            "name": "Sault Ste. Marie"
          }
        ],
        "pollDivisionIds": [
          10141476
        ],
        "postalCode": "P6B5H4",
        "streetName": "PLAINTREE",
        "streetDirectionId": null,
        "streetTypeId": "DR",
        "placeName": "SAULT STE. MARIE",
        "streetNameDisplayText": "PLAINTREE DR, SAULT STE. MARIE"
      }
    ]
  },
  {
    "postal": "P6B1K7",
    "result": [
      {
        "electoralDistricts": [
          {
            "election": null,
            "id": 92,
            "name": "Sault Ste. Marie"
          }
        ],
        "pollDivisionIds": [
          10141473
        ],
        "postalCode": "P6B1K7",
        "streetName": "LANSDOWNE",
        "streetDirectionId": null,
        "streetTypeId": "AVE",
        "placeName": "SAULT STE. MARIE",
        "streetNameDisplayText": "LANSDOWNE AVE, SAULT STE. MARIE"
      }
    ]
  },
  {
    "postal": "P6B0H0",
    "result": []
  },
  {
    "postal": "P6B0J3",
    "result": []
  },
  {
    "postal": "P6B1X6",
    "result": [
      {
        "electoralDistricts": [
          {
            "election": null,
            "id": 92,
            "name": "Sault Ste. Marie"
          }
        ],
        "pollDivisionIds": [
          10141472,
          10141473
        ],
        "postalCode": "P6B1X6",
        "streetName": "ST. GEORGE'S",
        "streetDirectionId": "E",
        "streetTypeId": "AVE",
        "placeName": "SAULT STE. MARIE",
        "streetNameDisplayText": "ST. GEORGE'S AVE E, SAULT STE. MARIE"
      }
    ]
  },
  {
    "postal": "P6B2Z6",
    "result": [
      {
        "electoralDistricts": [
          {
            "election": null,
            "id": 92,
            "name": "Sault Ste. Marie"
          }
        ],
        "pollDivisionIds": [
          10141481
        ],
        "postalCode": "P6B2Z6",
        "streetName": "SIMPSON",
        "streetDirectionId": null,
        "streetTypeId": "ST",
        "placeName": "SAULT STE. MARIE",
        "streetNameDisplayText": "SIMPSON ST, SAULT STE. MARIE"
      }
    ]
  },
  {
    "postal": "P6B4R9",
    "result": [
      {
        "electoralDistricts": [
          {
            "election": null,
            "id": 92,
            "name": "Sault Ste. Marie"
          }
        ],
        "pollDivisionIds": [
          10141473
        ],
        "postalCode": "P6B4R9",
        "streetName": "GRAND",
        "streetDirectionId": null,
        "streetTypeId": "BLVD",
        "placeName": "SAULT STE. MARIE",
        "streetNameDisplayText": "GRAND BLVD, SAULT STE. MARIE"
      }
    ]
  },
  {
    "postal": "P6B0W8",
    "result": []
  },
  {
    "postal": "P6B1L4",
    "result": [
      {
        "electoralDistricts": [
          {
            "election": null,
            "id": 92,
            "name": "Sault Ste. Marie"
          }
        ],
        "pollDivisionIds": [
          10141482
        ],
        "postalCode": "P6B1L4",
        "streetName": "WIRELESS",
        "streetDirectionId": null,
        "streetTypeId": "AVE",
        "placeName": "SAULT STE. MARIE",
        "streetNameDisplayText": "WIRELESS AVE, SAULT STE. MARIE"
      }
    ]
  },
  {
    "postal": "P6B0C8",
    "result": [
      {
        "electoralDistricts": [
          {
            "election": null,
            "id": 92,
            "name": "Sault Ste. Marie"
          }
        ],
        "pollDivisionIds": [
          10141458
        ],
        "postalCode": "P6B0C8",
        "streetName": "OLD 17",
        "streetDirectionId": "N",
        "streetTypeId": "HWY",
        "placeName": "SAULT STE. MARIE",
        "streetNameDisplayText": "OLD 17 HWY N, SAULT STE. MARIE"
      }
    ]
  },
  {
    "postal": "P6B9X7",
    "result": []
  },
  {
    "postal": "P6B4T1",
    "result": [
      {
        "electoralDistricts": [
          {
            "election": null,
            "id": 92,
            "name": "Sault Ste. Marie"
          }
        ],
        "pollDivisionIds": [
          10141473
        ],
        "postalCode": "P6B4T1",
        "streetName": "GRANITE",
        "streetDirectionId": null,
        "streetTypeId": "ST",
        "placeName": "SAULT STE. MARIE",
        "streetNameDisplayText": "GRANITE ST, SAULT STE. MARIE"
      }
    ]
  },
  {
    "postal": "P6B0M0",
    "result": []
  },
  {
    "postal": "P6B6A2",
    "result": [
      {
        "electoralDistricts": [
          {
            "election": null,
            "id": 92,
            "name": "Sault Ste. Marie"
          }
        ],
        "pollDivisionIds": [
          10141474
        ],
        "postalCode": "P6B6A2",
        "streetName": "WAWANOSH",
        "streetDirectionId": null,
        "streetTypeId": "AVE",
        "placeName": "SAULT STE. MARIE",
        "streetNameDisplayText": "WAWANOSH AVE, SAULT STE. MARIE"
      }
    ]
  },
  {
    "postal": "P6B9S8",
    "result": []
  },
  {
    "postal": "P6B9T4",
    "result": []
  },
  {
    "postal": "P6B9Y4",
    "result": []
  },
  {
    "postal": "P6B6G5",
    "result": [
      {
        "electoralDistricts": [
          {
            "election": null,
            "id": 92,
            "name": "Sault Ste. Marie"
          }
        ],
        "pollDivisionIds": [
          10141487,
          10141470
        ],
        "postalCode": "P6B6G5",
        "streetName": "MANITOU",
        "streetDirectionId": null,
        "streetTypeId": "DR",
        "placeName": "SAULT STE MARIE",
        "streetNameDisplayText": "MANITOU DR, SAULT STE MARIE"
      },
      {
        "electoralDistricts": [
          {
            "election": null,
            "id": 92,
            "name": "Sault Ste. Marie"
          }
        ],
        "pollDivisionIds": [
          10141487
        ],
        "postalCode": "P6B6G5",
        "streetName": "MANITOU",
        "streetDirectionId": null,
        "streetTypeId": "DR",
        "placeName": "SAULT STE. MARIE",
        "streetNameDisplayText": "MANITOU DR, SAULT STE. MARIE"
      }
    ]
  },
  {
    "postal": "P6B6H9",
    "result": [
      {
        "electoralDistricts": [
          {
            "election": null,
            "id": 92,
            "name": "Sault Ste. Marie"
          }
        ],
        "pollDivisionIds": [
          10141458
        ],
        "postalCode": "P6B6H9",
        "streetName": "GLENGARY GATE",
        "streetDirectionId": null,
        "streetTypeId": "CRES",
        "placeName": "SAULT STE. MARIE",
        "streetNameDisplayText": "GLENGARY GATE CRES, SAULT STE. MARIE"
      }
    ]
  },
  {
    "postal": "P6B2P3",
    "result": [
      {
        "electoralDistricts": [
          {
            "election": null,
            "id": 92,
            "name": "Sault Ste. Marie"
          }
        ],
        "pollDivisionIds": [
          10141480
        ],
        "postalCode": "P6B2P3",
        "streetName": "FAUQUIER",
        "streetDirectionId": null,
        "streetTypeId": "AVE",
        "placeName": "SAULT STE. MARIE",
        "streetNameDisplayText": "FAUQUIER AVE, SAULT STE. MARIE"
      }
    ]
  },
  {
    "postal": "P6B1T6",
    "result": [
      {
        "electoralDistricts": [
          {
            "election": null,
            "id": 92,
            "name": "Sault Ste. Marie"
          }
        ],
        "pollDivisionIds": [
          10141472
        ],
        "postalCode": "P6B1T6",
        "streetName": "RAILROAD",
        "streetDirectionId": null,
        "streetTypeId": "AVE",
        "placeName": "SAULT STE. MARIE",
        "streetNameDisplayText": "RAILROAD AVE, SAULT STE. MARIE"
      }
    ]
  },
  {
    "postal": "P6B4P6",
    "result": [
      {
        "electoralDistricts": [
          {
            "election": null,
            "id": 92,
            "name": "Sault Ste. Marie"
          }
        ],
        "pollDivisionIds": [
          10141467
        ],
        "postalCode": "P6B4P6",
        "streetName": "ANITA",
        "streetDirectionId": null,
        "streetTypeId": "BLVD",
        "placeName": "SAULT STE. MARIE",
        "streetNameDisplayText": "ANITA BLVD, SAULT STE. MARIE"
      }
    ]
  },
  {
    "postal": "P6B3K1",
    "result": [
      {
        "electoralDistricts": [
          {
            "election": null,
            "id": 92,
            "name": "Sault Ste. Marie"
          }
        ],
        "pollDivisionIds": [
          10141482
        ],
        "postalCode": "P6B3K1",
        "streetName": "CARTIER",
        "streetDirectionId": null,
        "streetTypeId": "ST",
        "placeName": "SAULT STE. MARIE",
        "streetNameDisplayText": "CARTIER ST, SAULT STE. MARIE"
      }
    ]
  },
  {
    "postal": "P6B6X4",
    "result": []
  },
  {
    "postal": "P6B4M8",
    "result": [
      {
        "electoralDistricts": [
          {
            "election": null,
            "id": 92,
            "name": "Sault Ste. Marie"
          }
        ],
        "pollDivisionIds": [
          10141469
        ],
        "postalCode": "P6B4M8",
        "streetName": "TERRANCE",
        "streetDirectionId": null,
        "streetTypeId": "AVE",
        "placeName": "SAULT STE. MARIE",
        "streetNameDisplayText": "TERRANCE AVE, SAULT STE. MARIE"
      }
    ]
  },
  {
    "postal": "P6B2Y1",
    "result": [
      {
        "electoralDistricts": [
          {
            "election": null,
            "id": 92,
            "name": "Sault Ste. Marie"
          }
        ],
        "pollDivisionIds": [
          10141481
        ],
        "postalCode": "P6B2Y1",
        "streetName": "THE CRESCENT",
        "streetDirectionId": null,
        "streetTypeId": null,
        "placeName": "SAULT STE. MARIE",
        "streetNameDisplayText": "THE CRESCENT, SAULT STE. MARIE"
      }
    ]
  },
  {
    "postal": "P6B6M1",
    "result": []
  },
  {
    "postal": "P6B5L8",
    "result": [
      {
        "electoralDistricts": [
          {
            "election": null,
            "id": 92,
            "name": "Sault Ste. Marie"
          }
        ],
        "pollDivisionIds": [
          10141487
        ],
        "postalCode": "P6B5L8",
        "streetName": "WIBER",
        "streetDirectionId": null,
        "streetTypeId": "ST",
        "placeName": "SAULT STE. MARIE",
        "streetNameDisplayText": "WIBER ST, SAULT STE. MARIE"
      }
    ]
  },
  {
    "postal": "P6B3P6",
    "result": [
      {
        "electoralDistricts": [
          {
            "election": null,
            "id": 92,
            "name": "Sault Ste. Marie"
          }
        ],
        "pollDivisionIds": [
          10141478
        ],
        "postalCode": "P6B3P6",
        "streetName": "PALADIN",
        "streetDirectionId": null,
        "streetTypeId": "AVE",
        "placeName": "SAULT STE. MARIE",
        "streetNameDisplayText": "PALADIN AVE, SAULT STE. MARIE"
      }
    ]
  },
  {
    "postal": "P6B9A5",
    "result": []
  },
  {
    "postal": "P6B7K1",
    "result": []
  },
  {
    "postal": "P6B3J4",
    "result": [
      {
        "electoralDistricts": [
          {
            "election": null,
            "id": 92,
            "name": "Sault Ste. Marie"
          }
        ],
        "pollDivisionIds": [
          10141483
        ],
        "postalCode": "P6B3J4",
        "streetName": "FERGUSON",
        "streetDirectionId": null,
        "streetTypeId": "AVE",
        "placeName": "SAULT STE. MARIE",
        "streetNameDisplayText": "FERGUSON AVE, SAULT STE. MARIE"
      }
    ]
  },
  {
    "postal": "P6B5E7",
    "result": [
      {
        "electoralDistricts": [
          {
            "election": null,
            "id": 92,
            "name": "Sault Ste. Marie"
          }
        ],
        "pollDivisionIds": [
          10141477
        ],
        "postalCode": "P6B5E7",
        "streetName": "ALLARD",
        "streetDirectionId": null,
        "streetTypeId": "ST",
        "placeName": "SAULT STE. MARIE",
        "streetNameDisplayText": "ALLARD ST, SAULT STE. MARIE"
      }
    ]
  },
  {
    "postal": "P6B3A7",
    "result": [
      {
        "electoralDistricts": [
          {
            "election": null,
            "id": 92,
            "name": "Sault Ste. Marie"
          }
        ],
        "pollDivisionIds": [
          10141483
        ],
        "postalCode": "P6B3A7",
        "streetName": "FINDLAY",
        "streetDirectionId": null,
        "streetTypeId": "DR",
        "placeName": "SAULT STE. MARIE",
        "streetNameDisplayText": "FINDLAY DR, SAULT STE. MARIE"
      }
    ]
  },
  {
    "postal": "P6B1B9",
    "result": [
      {
        "electoralDistricts": [
          {
            "election": null,
            "id": 92,
            "name": "Sault Ste. Marie"
          }
        ],
        "pollDivisionIds": [
          10141483
        ],
        "postalCode": "P6B1B9",
        "streetName": "THE DRIVE",
        "streetDirectionId": null,
        "streetTypeId": null,
        "placeName": "SAULT STE. MARIE",
        "streetNameDisplayText": "THE DRIVE, SAULT STE. MARIE"
      }
    ]
  },
  {
    "postal": "P6B9E8",
    "result": []
  },
  {
    "postal": "P6B1C9",
    "result": [
      {
        "electoralDistricts": [
          {
            "election": null,
            "id": 92,
            "name": "Sault Ste. Marie"
          }
        ],
        "pollDivisionIds": [
          10141480
        ],
        "postalCode": "P6B1C9",
        "streetName": "HAMILTON",
        "streetDirectionId": null,
        "streetTypeId": "AVE",
        "placeName": "SAULT STE. MARIE",
        "streetNameDisplayText": "HAMILTON AVE, SAULT STE. MARIE"
      }
    ]
  },
  {
    "postal": "P6B3B5",
    "result": [
      {
        "electoralDistricts": [
          {
            "election": null,
            "id": 92,
            "name": "Sault Ste. Marie"
          }
        ],
        "pollDivisionIds": [
          10141481
        ],
        "postalCode": "P6B3B5",
        "streetName": "CAMPBELL",
        "streetDirectionId": null,
        "streetTypeId": "AVE",
        "placeName": "SAULT STE. MARIE",
        "streetNameDisplayText": "CAMPBELL AVE, SAULT STE. MARIE"
      }
    ]
  },
  {
    "postal": "P6B8R0",
    "result": []
  },
  {
    "postal": "P6B3P2",
    "result": [
      {
        "electoralDistricts": [
          {
            "election": null,
            "id": 92,
            "name": "Sault Ste. Marie"
          }
        ],
        "pollDivisionIds": [
          10141477
        ],
        "postalCode": "P6B3P2",
        "streetName": "CHAPPLE",
        "streetDirectionId": null,
        "streetTypeId": "AVE",
        "placeName": "SAULT STE. MARIE",
        "streetNameDisplayText": "CHAPPLE AVE, SAULT STE. MARIE"
      }
    ]
  },
  {
    "postal": "P6B5V4",
    "result": [
      {
        "electoralDistricts": [
          {
            "election": null,
            "id": 92,
            "name": "Sault Ste. Marie"
          }
        ],
        "pollDivisionIds": [
          10141482
        ],
        "postalCode": "P6B5V4",
        "streetName": "GROVE",
        "streetDirectionId": null,
        "streetTypeId": "CRES",
        "placeName": "SAULT STE. MARIE",
        "streetNameDisplayText": "GROVE CRES, SAULT STE. MARIE"
      }
    ]
  },
  {
    "postal": "P6B4H0",
    "result": []
  },
  {
    "postal": "P6B4S7",
    "result": [
      {
        "electoralDistricts": [
          {
            "election": null,
            "id": 92,
            "name": "Sault Ste. Marie"
          }
        ],
        "pollDivisionIds": [
          10141474
        ],
        "postalCode": "P6B4S7",
        "streetName": "GRAND",
        "streetDirectionId": null,
        "streetTypeId": "BLVD",
        "placeName": "SAULT STE. MARIE",
        "streetNameDisplayText": "GRAND BLVD, SAULT STE. MARIE"
      }
    ]
  },
  {
    "postal": "P6B6C2",
    "result": [
      {
        "electoralDistricts": [
          {
            "election": null,
            "id": 92,
            "name": "Sault Ste. Marie"
          }
        ],
        "pollDivisionIds": [
          10141470
        ],
        "postalCode": "P6B6C2",
        "streetName": "PRINCE CHARLES",
        "streetDirectionId": null,
        "streetTypeId": "CRES",
        "placeName": "SAULT STE. MARIE",
        "streetNameDisplayText": "PRINCE CHARLES CRES, SAULT STE. MARIE"
      }
    ]
  },
  {
    "postal": "P6B8W3",
    "result": []
  },
  {
    "postal": "P6B4M5",
    "result": [
      {
        "electoralDistricts": [
          {
            "election": null,
            "id": 92,
            "name": "Sault Ste. Marie"
          }
        ],
        "pollDivisionIds": [
          10141469
        ],
        "postalCode": "P6B4M5",
        "streetName": "NORTHWOOD",
        "streetDirectionId": null,
        "streetTypeId": "ST",
        "placeName": "SAULT STE. MARIE",
        "streetNameDisplayText": "NORTHWOOD ST, SAULT STE. MARIE"
      }
    ]
  },
  {
    "postal": "P6B5T1",
    "result": [
      {
        "electoralDistricts": [
          {
            "election": null,
            "id": 92,
            "name": "Sault Ste. Marie"
          }
        ],
        "pollDivisionIds": [
          10141481
        ],
        "postalCode": "P6B5T1",
        "streetName": "NORDEN",
        "streetDirectionId": null,
        "streetTypeId": "CRES",
        "placeName": "SAULT STE. MARIE",
        "streetNameDisplayText": "NORDEN CRES, SAULT STE. MARIE"
      }
    ]
  },
  {
    "postal": "P6B3B3",
    "result": [
      {
        "electoralDistricts": [
          {
            "election": null,
            "id": 92,
            "name": "Sault Ste. Marie"
          }
        ],
        "pollDivisionIds": [
          10141481
        ],
        "postalCode": "P6B3B3",
        "streetName": "CAMPBELL",
        "streetDirectionId": null,
        "streetTypeId": "AVE",
        "placeName": "SAULT STE. MARIE",
        "streetNameDisplayText": "CAMPBELL AVE, SAULT STE. MARIE"
      }
    ]
  },
  {
    "postal": "P6B6C6",
    "result": [
      {
        "electoralDistricts": [
          {
            "election": null,
            "id": 92,
            "name": "Sault Ste. Marie"
          }
        ],
        "pollDivisionIds": [
          10141476
        ],
        "postalCode": "P6B6C6",
        "streetName": "EAGLE",
        "streetDirectionId": null,
        "streetTypeId": "DR",
        "placeName": "SAULT STE. MARIE",
        "streetNameDisplayText": "EAGLE DR, SAULT STE. MARIE"
      }
    ]
  },
  {
    "postal": "P6B7N8",
    "result": []
  },
  {
    "postal": "P6B2Y3",
    "result": [
      {
        "electoralDistricts": [
          {
            "election": null,
            "id": 92,
            "name": "Sault Ste. Marie"
          }
        ],
        "pollDivisionIds": [
          10141481
        ],
        "postalCode": "P6B2Y3",
        "streetName": "THE CRESCENT",
        "streetDirectionId": null,
        "streetTypeId": null,
        "placeName": "SAULT STE. MARIE",
        "streetNameDisplayText": "THE CRESCENT, SAULT STE. MARIE"
      }
    ]
  },
  {
    "postal": "P6B2R6",
    "result": [
      {
        "electoralDistricts": [
          {
            "election": null,
            "id": 92,
            "name": "Sault Ste. Marie"
          }
        ],
        "pollDivisionIds": [
          10141480
        ],
        "postalCode": "P6B2R6",
        "streetName": "GLADSTONE",
        "streetDirectionId": "S",
        "streetTypeId": "AVE",
        "placeName": "SAULT STE. MARIE",
        "streetNameDisplayText": "GLADSTONE AVE S, SAULT STE. MARIE"
      }
    ]
  },
  {
    "postal": "P6B7N3",
    "result": []
  },
  {
    "postal": "P6B8J2",
    "result": []
  },
  {
    "postal": "P6B6A9",
    "result": [
      {
        "electoralDistricts": [
          {
            "election": null,
            "id": 92,
            "name": "Sault Ste. Marie"
          }
        ],
        "pollDivisionIds": [
          10141469
        ],
        "postalCode": "P6B6A9",
        "streetName": "DRIVE-IN",
        "streetDirectionId": null,
        "streetTypeId": "RD",
        "placeName": "SAULT STE. MARIE",
        "streetNameDisplayText": "DRIVE-IN RD, SAULT STE. MARIE"
      }
    ]
  },
  {
    "postal": "P6B3V2",
    "result": [
      {
        "electoralDistricts": [
          {
            "election": null,
            "id": 92,
            "name": "Sault Ste. Marie"
          }
        ],
        "pollDivisionIds": [
          10141476
        ],
        "postalCode": "P6B3V2",
        "streetName": "PASSMORE",
        "streetDirectionId": null,
        "streetTypeId": "RD",
        "placeName": "SAULT STE. MARIE",
        "streetNameDisplayText": "PASSMORE RD, SAULT STE. MARIE"
      }
    ]
  },
  {
    "postal": "P6B2N3",
    "result": [
      {
        "electoralDistricts": [
          {
            "election": null,
            "id": 92,
            "name": "Sault Ste. Marie"
          }
        ],
        "pollDivisionIds": [
          10141473
        ],
        "postalCode": "P6B2N3",
        "streetName": "TRELAWNE",
        "streetDirectionId": null,
        "streetTypeId": "AVE",
        "placeName": "SAULT STE. MARIE",
        "streetNameDisplayText": "TRELAWNE AVE, SAULT STE. MARIE"
      }
    ]
  },
  {
    "postal": "P6B1S5",
    "result": [
      {
        "electoralDistricts": [
          {
            "election": null,
            "id": 92,
            "name": "Sault Ste. Marie"
          }
        ],
        "pollDivisionIds": [
          10141481
        ],
        "postalCode": "P6B1S5",
        "streetName": "SMALE",
        "streetDirectionId": null,
        "streetTypeId": "AVE",
        "placeName": "SAULT STE. MARIE",
        "streetNameDisplayText": "SMALE AVE, SAULT STE. MARIE"
      }
    ]
  },
  {
    "postal": "P6B4T7",
    "result": [
      {
        "electoralDistricts": [
          {
            "election": null,
            "id": 92,
            "name": "Sault Ste. Marie"
          }
        ],
        "pollDivisionIds": [
          10141474,
          10141473
        ],
        "postalCode": "P6B4T7",
        "streetName": "REID",
        "streetDirectionId": null,
        "streetTypeId": "ST",
        "placeName": "SAULT STE. MARIE",
        "streetNameDisplayText": "REID ST, SAULT STE. MARIE"
      }
    ]
  },
  {
    "postal": "P6B6Y7",
    "result": []
  },
  {
    "postal": "P6B0W7",
    "result": []
  },
  {
    "postal": "P6B2W9",
    "result": [
      {
        "electoralDistricts": [
          {
            "election": null,
            "id": 92,
            "name": "Sault Ste. Marie"
          }
        ],
        "pollDivisionIds": [
          10141473
        ],
        "postalCode": "P6B2W9",
        "streetName": "POPLAR",
        "streetDirectionId": null,
        "streetTypeId": "AVE",
        "placeName": "SAULT STE. MARIE",
        "streetNameDisplayText": "POPLAR AVE, SAULT STE. MARIE"
      }
    ]
  },
  {
    "postal": "P6B8V0",
    "result": []
  },
  {
    "postal": "P6B0H4",
    "result": []
  },
  {
    "postal": "P6B2T1",
    "result": [
      {
        "electoralDistricts": [
          {
            "election": null,
            "id": 92,
            "name": "Sault Ste. Marie"
          }
        ],
        "pollDivisionIds": [
          10141480
        ],
        "postalCode": "P6B2T1",
        "streetName": "PIM",
        "streetDirectionId": null,
        "streetTypeId": "ST",
        "placeName": "SAULT STE. MARIE",
        "streetNameDisplayText": "PIM ST, SAULT STE. MARIE"
      }
    ]
  },
  {
    "postal": "P6B1B1",
    "result": [
      {
        "electoralDistricts": [
          {
            "election": null,
            "id": 92,
            "name": "Sault Ste. Marie"
          }
        ],
        "pollDivisionIds": [
          10141485
        ],
        "postalCode": "P6B1B1",
        "streetName": "BRETON",
        "streetDirectionId": null,
        "streetTypeId": "RD",
        "placeName": "SAULT STE. MARIE",
        "streetNameDisplayText": "BRETON RD, SAULT STE. MARIE"
      }
    ]
  },
  {
    "postal": "P6B8B6",
    "result": []
  },
  {
    "postal": "P6B6H1",
    "result": [
      {
        "electoralDistricts": [
          {
            "election": null,
            "id": 92,
            "name": "Sault Ste. Marie"
          }
        ],
        "pollDivisionIds": [
          10141482
        ],
        "postalCode": "P6B6H1",
        "streetName": "FIELDS",
        "streetDirectionId": null,
        "streetTypeId": "SQ",
        "placeName": "SAULT STE. MARIE",
        "streetNameDisplayText": "FIELDS SQ, SAULT STE. MARIE"
      },
      {
        "electoralDistricts": [
          {
            "election": null,
            "id": 92,
            "name": "Sault Ste. Marie"
          }
        ],
        "pollDivisionIds": [
          10141482
        ],
        "postalCode": "P6B6H1",
        "streetName": "MEADOW",
        "streetDirectionId": null,
        "streetTypeId": "LANE",
        "placeName": "SAULT STE. MARIE",
        "streetNameDisplayText": "MEADOW LANE, SAULT STE. MARIE"
      }
    ]
  },
  {
    "postal": "P6B8T8",
    "result": []
  },
  {
    "postal": "P6B0T4",
    "result": []
  },
  {
    "postal": "P6B2C4",
    "result": [
      {
        "electoralDistricts": [
          {
            "election": null,
            "id": 92,
            "name": "Sault Ste. Marie"
          }
        ],
        "pollDivisionIds": [
          10141468
        ],
        "postalCode": "P6B2C4",
        "streetName": "NORTH",
        "streetDirectionId": null,
        "streetTypeId": "ST",
        "placeName": "SAULT STE. MARIE",
        "streetNameDisplayText": "NORTH ST, SAULT STE. MARIE"
      }
    ]
  },
  {
    "postal": "P6B8N3",
    "result": []
  },
  {
    "postal": "P6B4L8",
    "result": [
      {
        "electoralDistricts": [
          {
            "election": null,
            "id": 92,
            "name": "Sault Ste. Marie"
          }
        ],
        "pollDivisionIds": [
          10141468
        ],
        "postalCode": "P6B4L8",
        "streetName": "NIAGARA",
        "streetDirectionId": null,
        "streetTypeId": "DR",
        "placeName": "SAULT STE. MARIE",
        "streetNameDisplayText": "NIAGARA DR, SAULT STE. MARIE"
      }
    ]
  },
  {
    "postal": "P6B2B5",
    "result": [
      {
        "electoralDistricts": [
          {
            "election": null,
            "id": 92,
            "name": "Sault Ste. Marie"
          }
        ],
        "pollDivisionIds": [
          10141467
        ],
        "postalCode": "P6B2B5",
        "streetName": "NORTH",
        "streetDirectionId": null,
        "streetTypeId": "ST",
        "placeName": "SAULT STE.  MARIE",
        "streetNameDisplayText": "NORTH ST, SAULT STE.  MARIE"
      },
      {
        "electoralDistricts": [
          {
            "election": null,
            "id": 92,
            "name": "Sault Ste. Marie"
          }
        ],
        "pollDivisionIds": [
          10141467
        ],
        "postalCode": "P6B2B5",
        "streetName": "NORTH",
        "streetDirectionId": null,
        "streetTypeId": "ST",
        "placeName": "SAULT STE. MARIE",
        "streetNameDisplayText": "NORTH ST, SAULT STE. MARIE"
      }
    ]
  },
  {
    "postal": "P6B3H1",
    "result": [
      {
        "electoralDistricts": [
          {
            "election": null,
            "id": 92,
            "name": "Sault Ste. Marie"
          }
        ],
        "pollDivisionIds": [
          10141482
        ],
        "postalCode": "P6B3H1",
        "streetName": "MOLUCH",
        "streetDirectionId": null,
        "streetTypeId": "ST",
        "placeName": "SAULT STE. MARIE",
        "streetNameDisplayText": "MOLUCH ST, SAULT STE. MARIE"
      }
    ]
  },
  {
    "postal": "P6B4Y1",
    "result": [
      {
        "electoralDistricts": [
          {
            "election": null,
            "id": 92,
            "name": "Sault Ste. Marie"
          }
        ],
        "pollDivisionIds": [
          10141474
        ],
        "postalCode": "P6B4Y1",
        "streetName": "BLAKE",
        "streetDirectionId": null,
        "streetTypeId": "AVE",
        "placeName": "SAULT STE. MARIE",
        "streetNameDisplayText": "BLAKE AVE, SAULT STE. MARIE"
      }
    ]
  },
  {
    "postal": "P6B7E2",
    "result": []
  },
  {
    "postal": "P6B2P5",
    "result": [
      {
        "electoralDistricts": [
          {
            "election": null,
            "id": 92,
            "name": "Sault Ste. Marie"
          }
        ],
        "pollDivisionIds": [
          10141473
        ],
        "postalCode": "P6B2P5",
        "streetName": "ALGOMA",
        "streetDirectionId": null,
        "streetTypeId": "AVE",
        "placeName": "SAULT STE. MARIE",
        "streetNameDisplayText": "ALGOMA AVE, SAULT STE. MARIE"
      }
    ]
  },
  {
    "postal": "P6B8R7",
    "result": []
  },
  {
    "postal": "P6B9P1",
    "result": []
  },
  {
    "postal": "P6B3B8",
    "result": [
      {
        "electoralDistricts": [
          {
            "election": null,
            "id": 92,
            "name": "Sault Ste. Marie"
          }
        ],
        "pollDivisionIds": [
          10141481
        ],
        "postalCode": "P6B3B8",
        "streetName": "CAMPBELL",
        "streetDirectionId": null,
        "streetTypeId": "AVE",
        "placeName": "SAULT STE. MARIE",
        "streetNameDisplayText": "CAMPBELL AVE, SAULT STE. MARIE"
      }
    ]
  },
  {
    "postal": "P6B3P7",
    "result": [
      {
        "electoralDistricts": [
          {
            "election": null,
            "id": 92,
            "name": "Sault Ste. Marie"
          }
        ],
        "pollDivisionIds": [
          10141470,
          10141478
        ],
        "postalCode": "P6B3P7",
        "streetName": "PALADIN",
        "streetDirectionId": null,
        "streetTypeId": "AVE",
        "placeName": "SAULT STE. MARIE",
        "streetNameDisplayText": "PALADIN AVE, SAULT STE. MARIE"
      }
    ]
  },
  {
    "postal": "P6B9B2",
    "result": []
  },
  {
    "postal": "P6B6Z3",
    "result": []
  },
  {
    "postal": "P6B4N5",
    "result": [
      {
        "electoralDistricts": [
          {
            "election": null,
            "id": 92,
            "name": "Sault Ste. Marie"
          }
        ],
        "pollDivisionIds": [
          10141469
        ],
        "postalCode": "P6B4N5",
        "streetName": "TERRANCE",
        "streetDirectionId": null,
        "streetTypeId": "AVE",
        "placeName": "SAULT STE. MARIE",
        "streetNameDisplayText": "TERRANCE AVE, SAULT STE. MARIE"
      }
    ]
  },
  {
    "postal": "P6B8T3",
    "result": []
  },
  {
    "postal": "P6B1V2",
    "result": [
      {
        "electoralDistricts": [
          {
            "election": null,
            "id": 92,
            "name": "Sault Ste. Marie"
          }
        ],
        "pollDivisionIds": [
          10141472
        ],
        "postalCode": "P6B1V2",
        "streetName": "WILCOX",
        "streetDirectionId": null,
        "streetTypeId": "AVE",
        "placeName": "SAULT STE. MARIE",
        "streetNameDisplayText": "WILCOX AVE, SAULT STE. MARIE"
      }
    ]
  },
  {
    "postal": "P6B1Y0",
    "result": []
  },
  {
    "postal": "P6B3G6",
    "result": [
      {
        "electoralDistricts": [
          {
            "election": null,
            "id": 92,
            "name": "Sault Ste. Marie"
          }
        ],
        "pollDivisionIds": [
          10141485
        ],
        "postalCode": "P6B3G6",
        "streetName": "HAVILAND",
        "streetDirectionId": null,
        "streetTypeId": "CRES",
        "placeName": "SAULT STE. MARIE",
        "streetNameDisplayText": "HAVILAND CRES, SAULT STE. MARIE"
      }
    ]
  },
  {
    "postal": "P6B3H7",
    "result": [
      {
        "electoralDistricts": [
          {
            "election": null,
            "id": 92,
            "name": "Sault Ste. Marie"
          }
        ],
        "pollDivisionIds": [
          10141482
        ],
        "postalCode": "P6B3H7",
        "streetName": "LINSTEDT",
        "streetDirectionId": null,
        "streetTypeId": "ST",
        "placeName": "SAULT STE. MARIE",
        "streetNameDisplayText": "LINSTEDT ST, SAULT STE. MARIE"
      }
    ]
  },
  {
    "postal": "P6B7X8",
    "result": []
  },
  {
    "postal": "P6B0C7",
    "result": [
      {
        "electoralDistricts": [
          {
            "election": null,
            "id": 92,
            "name": "Sault Ste. Marie"
          }
        ],
        "pollDivisionIds": [
          10141456
        ],
        "postalCode": "P6B0C7",
        "streetName": "OLD HIGHWAY 17",
        "streetDirectionId": "N",
        "streetTypeId": null,
        "placeName": "SAULT STE. MARIE",
        "streetNameDisplayText": "OLD HIGHWAY 17 N, SAULT STE. MARIE"
      }
    ]
  },
  {
    "postal": "P6B0W9",
    "result": []
  },
  {
    "postal": "P6B8E6",
    "result": []
  },
  {
    "postal": "P6B9Z8",
    "result": []
  },
  {
    "postal": "P6B3P4",
    "result": [
      {
        "electoralDistricts": [
          {
            "election": null,
            "id": 92,
            "name": "Sault Ste. Marie"
          }
        ],
        "pollDivisionIds": [
          10141478
        ],
        "postalCode": "P6B3P4",
        "streetName": "PRINCESS",
        "streetDirectionId": null,
        "streetTypeId": "CRES",
        "placeName": "SAULT STE. MARIE",
        "streetNameDisplayText": "PRINCESS CRES, SAULT STE. MARIE"
      }
    ]
  },
  {
    "postal": "P6B6L8",
    "result": [
      {
        "electoralDistricts": [
          {
            "election": null,
            "id": 92,
            "name": "Sault Ste. Marie"
          }
        ],
        "pollDivisionIds": [
          10141473
        ],
        "postalCode": "P6B6L8",
        "streetName": "CODY POINT",
        "streetDirectionId": null,
        "streetTypeId": "CRT",
        "placeName": "SAULT STE. MARIE",
        "streetNameDisplayText": "CODY POINT CRT, SAULT STE. MARIE"
      }
    ]
  },
  {
    "postal": "P6B2R4",
    "result": [
      {
        "electoralDistricts": [
          {
            "election": null,
            "id": 92,
            "name": "Sault Ste. Marie"
          }
        ],
        "pollDivisionIds": [
          10141480
        ],
        "postalCode": "P6B2R4",
        "streetName": "FERRIS",
        "streetDirectionId": null,
        "streetTypeId": "AVE",
        "placeName": "SAULT STE. MARIE",
        "streetNameDisplayText": "FERRIS AVE, SAULT STE. MARIE"
      }
    ]
  },
  {
    "postal": "P6B2W1",
    "result": [
      {
        "electoralDistricts": [
          {
            "election": null,
            "id": 92,
            "name": "Sault Ste. Marie"
          }
        ],
        "pollDivisionIds": [
          10141473
        ],
        "postalCode": "P6B2W1",
        "streetName": "BELLEVUE",
        "streetDirectionId": null,
        "streetTypeId": "AVE",
        "placeName": "SAULT STE. MARIE",
        "streetNameDisplayText": "BELLEVUE AVE, SAULT STE. MARIE"
      }
    ]
  },
  {
    "postal": "P6B9H8",
    "result": []
  },
  {
    "postal": "P6B8X9",
    "result": []
  },
  {
    "postal": "P6B7H4",
    "result": []
  },
  {
    "postal": "P6B3J1",
    "result": [
      {
        "electoralDistricts": [
          {
            "election": null,
            "id": 92,
            "name": "Sault Ste. Marie"
          }
        ],
        "pollDivisionIds": [
          10141482
        ],
        "postalCode": "P6B3J1",
        "streetName": "LINSTEDT",
        "streetDirectionId": null,
        "streetTypeId": "ST",
        "placeName": "SAULT STE. MARIE",
        "streetNameDisplayText": "LINSTEDT ST, SAULT STE. MARIE"
      }
    ]
  },
  {
    "postal": "P6B1P4",
    "result": []
  },
  {
    "postal": "P6B2A3",
    "result": [
      {
        "electoralDistricts": [
          {
            "election": null,
            "id": 2,
            "name": "AlgomaManitoulin"
          },
          {
            "election": null,
            "id": 92,
            "name": "Sault Ste. Marie"
          }
        ],
        "pollDivisionIds": [
          10136738,
          10141487
        ],
        "postalCode": "P6B2A3",
        "streetName": "FRONTENAC",
        "streetDirectionId": null,
        "streetTypeId": "ST",
        "placeName": "SAULT STE. MARIE",
        "streetNameDisplayText": "FRONTENAC ST, SAULT STE. MARIE"
      }
    ]
  },
  {
    "postal": "P6B0Z1",
    "result": []
  },
  {
    "postal": "P6B1C1",
    "result": [
      {
        "electoralDistricts": [
          {
            "election": null,
            "id": 92,
            "name": "Sault Ste. Marie"
          }
        ],
        "pollDivisionIds": [
          10141483
        ],
        "postalCode": "P6B1C1",
        "streetName": "THE DRIVE",
        "streetDirectionId": null,
        "streetTypeId": null,
        "placeName": "SAULT STE. MARIE",
        "streetNameDisplayText": "THE DRIVE, SAULT STE. MARIE"
      }
    ]
  },
  {
    "postal": "P6B0H3",
    "result": []
  },
  {
    "postal": "P6B7B0",
    "result": []
  },
  {
    "postal": "P6B5K2",
    "result": [
      {
        "electoralDistricts": [
          {
            "election": null,
            "id": 92,
            "name": "Sault Ste. Marie"
          }
        ],
        "pollDivisionIds": [
          10141470
        ],
        "postalCode": "P6B5K2",
        "streetName": "PARADISE",
        "streetDirectionId": null,
        "streetTypeId": "AVE",
        "placeName": "SAULT STE. MARIE",
        "streetNameDisplayText": "PARADISE AVE, SAULT STE. MARIE"
      }
    ]
  },
  {
    "postal": "P6B1E9",
    "result": [
      {
        "electoralDistricts": [
          {
            "election": null,
            "id": 92,
            "name": "Sault Ste. Marie"
          }
        ],
        "pollDivisionIds": [
          10141480
        ],
        "postalCode": "P6B1E9",
        "streetName": "BORRON",
        "streetDirectionId": null,
        "streetTypeId": "AVE",
        "placeName": "SAULT STE. MARIE",
        "streetNameDisplayText": "BORRON AVE, SAULT STE. MARIE"
      }
    ]
  },
  {
    "postal": "P6B9W7",
    "result": []
  },
  {
    "postal": "P6B5W6",
    "result": [
      {
        "electoralDistricts": [
          {
            "election": null,
            "id": 92,
            "name": "Sault Ste. Marie"
          }
        ],
        "pollDivisionIds": [
          10141469
        ],
        "postalCode": "P6B5W6",
        "streetName": "INDUSTRIAL A",
        "streetDirectionId": null,
        "streetTypeId": "CRT",
        "placeName": "SAULT STE. MARIE",
        "streetNameDisplayText": "INDUSTRIAL A CRT, SAULT STE. MARIE"
      }
    ]
  },
  {
    "postal": "P6B6S6",
    "result": []
  },
  {
    "postal": "P6B2P8",
    "result": [
      {
        "electoralDistricts": [
          {
            "election": null,
            "id": 92,
            "name": "Sault Ste. Marie"
          }
        ],
        "pollDivisionIds": [
          10141473
        ],
        "postalCode": "P6B2P8",
        "streetName": "GLADSTONE",
        "streetDirectionId": null,
        "streetTypeId": "AVE",
        "placeName": "SAULT STE. MARIE",
        "streetNameDisplayText": "GLADSTONE AVE, SAULT STE. MARIE"
      }
    ]
  },
  {
    "postal": "P6B4P8",
    "result": [
      {
        "electoralDistricts": [
          {
            "election": null,
            "id": 92,
            "name": "Sault Ste. Marie"
          }
        ],
        "pollDivisionIds": [
          10141467
        ],
        "postalCode": "P6B4P8",
        "streetName": "ANITA",
        "streetDirectionId": null,
        "streetTypeId": "BLVD",
        "placeName": "SAULT STE. MARIE",
        "streetNameDisplayText": "ANITA BLVD, SAULT STE. MARIE"
      }
    ]
  },
  {
    "postal": "P6B0V9",
    "result": []
  },
  {
    "postal": "P6B5Y2",
    "result": [
      {
        "electoralDistricts": [
          {
            "election": null,
            "id": 92,
            "name": "Sault Ste. Marie"
          }
        ],
        "pollDivisionIds": [
          10141482
        ],
        "postalCode": "P6B5Y2",
        "streetName": "GROVE",
        "streetDirectionId": null,
        "streetTypeId": "CRES",
        "placeName": "SAULT STE. MARIE",
        "streetNameDisplayText": "GROVE CRES, SAULT STE. MARIE"
      }
    ]
  },
  {
    "postal": "P6B7Z7",
    "result": []
  },
  {
    "postal": "P6B6Y8",
    "result": []
  },
  {
    "postal": "P6B2G7",
    "result": [
      {
        "electoralDistricts": [
          {
            "election": null,
            "id": 92,
            "name": "Sault Ste. Marie"
          }
        ],
        "pollDivisionIds": [
          10141472
        ],
        "postalCode": "P6B2G7",
        "streetName": "SPRUCE",
        "streetDirectionId": null,
        "streetTypeId": "ST",
        "placeName": "SAULT STE. MARIE",
        "streetNameDisplayText": "SPRUCE ST, SAULT STE. MARIE"
      }
    ]
  },
  {
    "postal": "P6B8C1",
    "result": []
  },
  {
    "postal": "P6B5C5",
    "result": [
      {
        "electoralDistricts": [
          {
            "election": null,
            "id": 92,
            "name": "Sault Ste. Marie"
          }
        ],
        "pollDivisionIds": [
          10141475
        ],
        "postalCode": "P6B5C5",
        "streetName": "GEHRIG",
        "streetDirectionId": null,
        "streetTypeId": "DR",
        "placeName": "SAULT STE. MARIE",
        "streetNameDisplayText": "GEHRIG DR, SAULT STE. MARIE"
      }
    ]
  },
  {
    "postal": "P6B2X8",
    "result": [
      {
        "electoralDistricts": [
          {
            "election": null,
            "id": 92,
            "name": "Sault Ste. Marie"
          }
        ],
        "pollDivisionIds": [
          10141481
        ],
        "postalCode": "P6B2X8",
        "streetName": "ROUTLEDGE",
        "streetDirectionId": null,
        "streetTypeId": "AVE",
        "placeName": "SAULT STE. MARIE",
        "streetNameDisplayText": "ROUTLEDGE AVE, SAULT STE. MARIE"
      }
    ]
  },
  {
    "postal": "P6B1W5",
    "result": [
      {
        "electoralDistricts": [
          {
            "election": null,
            "id": 92,
            "name": "Sault Ste. Marie"
          }
        ],
        "pollDivisionIds": [
          10141472
        ],
        "postalCode": "P6B1W5",
        "streetName": "PARDEE",
        "streetDirectionId": null,
        "streetTypeId": "AVE",
        "placeName": "SAULT STE. MARIE",
        "streetNameDisplayText": "PARDEE AVE, SAULT STE. MARIE"
      }
    ]
  },
  {
    "postal": "P6B7G0",
    "result": []
  },
  {
    "postal": "P6B8J8",
    "result": []
  },
  {
    "postal": "P6B3Y0",
    "result": []
  },
  {
    "postal": "P6B9T7",
    "result": []
  },
  {
    "postal": "P6B5P4",
    "result": [
      {
        "electoralDistricts": [
          {
            "election": null,
            "id": 92,
            "name": "Sault Ste. Marie"
          }
        ],
        "pollDivisionIds": [
          10141474
        ],
        "postalCode": "P6B5P4",
        "streetName": "CHAMPLAIN",
        "streetDirectionId": null,
        "streetTypeId": "ST",
        "placeName": "SAULT STE. MARIE",
        "streetNameDisplayText": "CHAMPLAIN ST, SAULT STE. MARIE"
      }
    ]
  },
  {
    "postal": "P6B4B0",
    "result": []
  },
  {
    "postal": "P6B9N8",
    "result": []
  },
  {
    "postal": "P6B4A7",
    "result": [
      {
        "electoralDistricts": [
          {
            "election": null,
            "id": 92,
            "name": "Sault Ste. Marie"
          }
        ],
        "pollDivisionIds": [
          10141475,
          10141476
        ],
        "postalCode": "P6B4A7",
        "streetName": "MALABAR",
        "streetDirectionId": null,
        "streetTypeId": "DR",
        "placeName": "SAULT STE. MARIE",
        "streetNameDisplayText": "MALABAR DR, SAULT STE. MARIE"
      }
    ]
  },
  {
    "postal": "P6B4H9",
    "result": [
      {
        "electoralDistricts": [
          {
            "election": null,
            "id": 92,
            "name": "Sault Ste. Marie"
          }
        ],
        "pollDivisionIds": [
          10141474
        ],
        "postalCode": "P6B4H9",
        "streetName": "NORTHERN",
        "streetDirectionId": "E",
        "streetTypeId": "AVE",
        "placeName": "SAULT STE. MARIE",
        "streetNameDisplayText": "NORTHERN AVE E, SAULT STE. MARIE"
      }
    ]
  },
  {
    "postal": "P6B6X1",
    "result": []
  },
  {
    "postal": "P6B9Y7",
    "result": []
  },
  {
    "postal": "P6B2Y5",
    "result": [
      {
        "electoralDistricts": [
          {
            "election": null,
            "id": 92,
            "name": "Sault Ste. Marie"
          }
        ],
        "pollDivisionIds": [
          10141481
        ],
        "postalCode": "P6B2Y5",
        "streetName": "PUTNEY",
        "streetDirectionId": null,
        "streetTypeId": "RD",
        "placeName": "SAULT STE. MARIE",
        "streetNameDisplayText": "PUTNEY RD, SAULT STE. MARIE"
      }
    ]
  },
  {
    "postal": "P6B8L7",
    "result": []
  },
  {
    "postal": "P6B2A8",
    "result": [
      {
        "electoralDistricts": [
          {
            "election": null,
            "id": 92,
            "name": "Sault Ste. Marie"
          }
        ],
        "pollDivisionIds": [
          10141472
        ],
        "postalCode": "P6B2A8",
        "streetName": "NORTH",
        "streetDirectionId": null,
        "streetTypeId": "ST",
        "placeName": "SAULT STE. MARIE",
        "streetNameDisplayText": "NORTH ST, SAULT STE. MARIE"
      }
    ]
  },
  {
    "postal": "P6B2K9",
    "result": [
      {
        "electoralDistricts": [
          {
            "election": null,
            "id": 92,
            "name": "Sault Ste. Marie"
          }
        ],
        "pollDivisionIds": [
          10141473
        ],
        "postalCode": "P6B2K9",
        "streetName": "WILSON",
        "streetDirectionId": null,
        "streetTypeId": "ST",
        "placeName": "SAULT STE. MARIE",
        "streetNameDisplayText": "WILSON ST, SAULT STE. MARIE"
      }
    ]
  },
  {
    "postal": "P6B3E5",
    "result": [
      {
        "electoralDistricts": [
          {
            "election": null,
            "id": 92,
            "name": "Sault Ste. Marie"
          }
        ],
        "pollDivisionIds": [
          10141485,
          10141483
        ],
        "postalCode": "P6B3E5",
        "streetName": "PINE",
        "streetDirectionId": null,
        "streetTypeId": "ST",
        "placeName": "SAULT STE. MARIE",
        "streetNameDisplayText": "PINE ST, SAULT STE. MARIE"
      }
    ]
  },
  {
    "postal": "P6B8N6",
    "result": []
  },
  {
    "postal": "P6B8J4",
    "result": []
  },
  {
    "postal": "P6B4R7",
    "result": [
      {
        "electoralDistricts": [
          {
            "election": null,
            "id": 92,
            "name": "Sault Ste. Marie"
          }
        ],
        "pollDivisionIds": [
          10141473
        ],
        "postalCode": "P6B4R7",
        "streetName": "GRAND",
        "streetDirectionId": null,
        "streetTypeId": "BLVD",
        "placeName": "SAULT STE. MARIE",
        "streetNameDisplayText": "GRAND BLVD, SAULT STE. MARIE"
      }
    ]
  },
  {
    "postal": "P6B9K1",
    "result": []
  },
  {
    "postal": "P6B8E1",
    "result": []
  },
  {
    "postal": "P6B0R1",
    "result": []
  },
  {
    "postal": "P6B4J3",
    "result": [
      {
        "electoralDistricts": [
          {
            "election": null,
            "id": 92,
            "name": "Sault Ste. Marie"
          }
        ],
        "pollDivisionIds": [
          10141475
        ],
        "postalCode": "P6B4J3",
        "streetName": "NORTHERN",
        "streetDirectionId": "E",
        "streetTypeId": "AVE",
        "placeName": "SAULT STE. MARIE",
        "streetNameDisplayText": "NORTHERN AVE E, SAULT STE. MARIE"
      },
      {
        "electoralDistricts": [
          {
            "election": null,
            "id": 92,
            "name": "Sault Ste. Marie"
          }
        ],
        "pollDivisionIds": [
          10141475
        ],
        "postalCode": "P6B4J3",
        "streetName": "NORTHERN",
        "streetDirectionId": "W",
        "streetTypeId": "AVE",
        "placeName": "SAULT STE. MARIE",
        "streetNameDisplayText": "NORTHERN AVE W, SAULT STE. MARIE"
      },
      {
        "electoralDistricts": [
          {
            "election": null,
            "id": 92,
            "name": "Sault Ste. Marie"
          }
        ],
        "pollDivisionIds": [
          10141478
        ],
        "postalCode": "P6B4J3",
        "streetName": "PINE",
        "streetDirectionId": null,
        "streetTypeId": "ST",
        "placeName": "SAULT STE MARIE",
        "streetNameDisplayText": "PINE ST, SAULT STE MARIE"
      }
    ]
  },
  {
    "postal": "P6B7E7",
    "result": []
  },
  {
    "postal": "P6B0J0",
    "result": []
  },
  {
    "postal": "P6B7R8",
    "result": []
  },
  {
    "postal": "P6B9X0",
    "result": []
  },
  {
    "postal": "P6B7P6",
    "result": []
  },
  {
    "postal": "P6B0R7",
    "result": []
  },
  {
    "postal": "P6B5W1",
    "result": [
      {
        "electoralDistricts": [
          {
            "election": null,
            "id": 92,
            "name": "Sault Ste. Marie"
          }
        ],
        "pollDivisionIds": [
          10141468
        ],
        "postalCode": "P6B5W1",
        "streetName": "MARY",
        "streetDirectionId": null,
        "streetTypeId": "AVE",
        "placeName": "SAULT STE. MARIE",
        "streetNameDisplayText": "MARY AVE, SAULT STE. MARIE"
      }
    ]
  },
  {
    "postal": "P6B0K4",
    "result": []
  },
  {
    "postal": "P6B7N9",
    "result": []
  },
  {
    "postal": "P6B1N0",
    "result": []
  },
  {
    "postal": "P6B6P3",
    "result": []
  },
  {
    "postal": "P6B5A1",
    "result": [
      {
        "electoralDistricts": [
          {
            "election": null,
            "id": 92,
            "name": "Sault Ste. Marie"
          }
        ],
        "pollDivisionIds": [
          10141469,
          10141468
        ],
        "postalCode": "P6B5A1",
        "streetName": "GREAT NORTHERN",
        "streetDirectionId": null,
        "streetTypeId": "RD",
        "placeName": "SAULT STE. MARIE",
        "streetNameDisplayText": "GREAT NORTHERN RD, SAULT STE. MARIE"
      }
    ]
  },
  {
    "postal": "P6B9M9",
    "result": []
  },
  {
    "postal": "P6B7T6",
    "result": []
  },
  {
    "postal": "P6B3X0",
    "result": []
  },
  {
    "postal": "P6B2T0",
    "result": []
  },
  {
    "postal": "P6B5X9",
    "result": [
      {
        "electoralDistricts": [
          {
            "election": null,
            "id": 92,
            "name": "Sault Ste. Marie"
          }
        ],
        "pollDivisionIds": [
          10141482
        ],
        "postalCode": "P6B5X9",
        "streetName": "BURTON",
        "streetDirectionId": null,
        "streetTypeId": "RD",
        "placeName": "SAULT STE. MARIE",
        "streetNameDisplayText": "BURTON RD, SAULT STE. MARIE"
      }
    ]
  },
  {
    "postal": "P6B2R3",
    "result": [
      {
        "electoralDistricts": [
          {
            "election": null,
            "id": 92,
            "name": "Sault Ste. Marie"
          }
        ],
        "pollDivisionIds": [
          10141473
        ],
        "postalCode": "P6B2R3",
        "streetName": "GLADSTONE",
        "streetDirectionId": null,
        "streetTypeId": "AVE",
        "placeName": "SAULT STE. MARIE",
        "streetNameDisplayText": "GLADSTONE AVE, SAULT STE. MARIE"
      }
    ]
  },
  {
    "postal": "P6B5N2",
    "result": [
      {
        "electoralDistricts": [
          {
            "election": null,
            "id": 92,
            "name": "Sault Ste. Marie"
          }
        ],
        "pollDivisionIds": [
          10141487
        ],
        "postalCode": "P6B5N2",
        "streetName": "RIVERIN",
        "streetDirectionId": null,
        "streetTypeId": "AVE",
        "placeName": "SAULT STE. MARIE",
        "streetNameDisplayText": "RIVERIN AVE, SAULT STE. MARIE"
      }
    ]
  },
  {
    "postal": "P6B4Y7",
    "result": [
      {
        "electoralDistricts": [
          {
            "election": null,
            "id": 92,
            "name": "Sault Ste. Marie"
          }
        ],
        "pollDivisionIds": [
          10141474
        ],
        "postalCode": "P6B4Y7",
        "streetName": "GREAT NORTHERN",
        "streetDirectionId": null,
        "streetTypeId": "RD",
        "placeName": "SAULT STE. MARIE",
        "streetNameDisplayText": "GREAT NORTHERN RD, SAULT STE. MARIE"
      }
    ]
  },
  {
    "postal": "P6B7M0",
    "result": []
  },
  {
    "postal": "P6B8P3",
    "result": []
  },
  {
    "postal": "P6B3N3",
    "result": [
      {
        "electoralDistricts": [
          {
            "election": null,
            "id": 92,
            "name": "Sault Ste. Marie"
          }
        ],
        "pollDivisionIds": [
          10141460,
          10141474
        ],
        "postalCode": "P6B3N3",
        "streetName": "STEVENS",
        "streetDirectionId": null,
        "streetTypeId": "ST",
        "placeName": "SAULT STE. MARIE",
        "streetNameDisplayText": "STEVENS ST, SAULT STE. MARIE"
      }
    ]
  },
  {
    "postal": "P6B7S3",
    "result": []
  },
  {
    "postal": "P6B3V9",
    "result": [
      {
        "electoralDistricts": [
          {
            "election": null,
            "id": 92,
            "name": "Sault Ste. Marie"
          }
        ],
        "pollDivisionIds": [
          10141474
        ],
        "postalCode": "P6B3V9",
        "streetName": "GRANDMONT",
        "streetDirectionId": null,
        "streetTypeId": "CRES",
        "placeName": "SAULT STE. MARIE",
        "streetNameDisplayText": "GRANDMONT CRES, SAULT STE. MARIE"
      }
    ]
  },
  {
    "postal": "P6B9N7",
    "result": []
  },
  {
    "postal": "P6B0G4",
    "result": []
  },
  {
    "postal": "P6B2E2",
    "result": [
      {
        "electoralDistricts": [
          {
            "election": null,
            "id": 92,
            "name": "Sault Ste. Marie"
          }
        ],
        "pollDivisionIds": [
          10141472
        ],
        "postalCode": "P6B2E2",
        "streetName": "WALNUT",
        "streetDirectionId": null,
        "streetTypeId": "ST",
        "placeName": "SAULT STE. MARIE",
        "streetNameDisplayText": "WALNUT ST, SAULT STE. MARIE"
      }
    ]
  },
  {
    "postal": "P6B7W8",
    "result": []
  },
  {
    "postal": "P6B7M5",
    "result": []
  },
  {
    "postal": "P6B5W8",
    "result": [
      {
        "electoralDistricts": [
          {
            "election": null,
            "id": 92,
            "name": "Sault Ste. Marie"
          }
        ],
        "pollDivisionIds": [
          10141468
        ],
        "postalCode": "P6B5W8",
        "streetName": "NORTH",
        "streetDirectionId": null,
        "streetTypeId": "ST",
        "placeName": "SAULT STE. MARIE",
        "streetNameDisplayText": "NORTH ST, SAULT STE. MARIE"
      }
    ]
  },
  {
    "postal": "P6B5E5",
    "result": [
      {
        "electoralDistricts": [
          {
            "election": null,
            "id": 92,
            "name": "Sault Ste. Marie"
          }
        ],
        "pollDivisionIds": [
          10141476
        ],
        "postalCode": "P6B5E5",
        "streetName": "DABLON",
        "streetDirectionId": null,
        "streetTypeId": "ST",
        "placeName": "SAULT STE. MARIE",
        "streetNameDisplayText": "DABLON ST, SAULT STE. MARIE"
      }
    ]
  },
  {
    "postal": "P6B1P9",
    "result": [
      {
        "electoralDistricts": [
          {
            "election": null,
            "id": 92,
            "name": "Sault Ste. Marie"
          }
        ],
        "pollDivisionIds": [
          10141473
        ],
        "postalCode": "P6B1P9",
        "streetName": "BRUCE",
        "streetDirectionId": null,
        "streetTypeId": "ST",
        "placeName": "SAULT STE. MARIE",
        "streetNameDisplayText": "BRUCE ST, SAULT STE. MARIE"
      }
    ]
  },
  {
    "postal": "P6B8V8",
    "result": []
  },
  {
    "postal": "P6B9G8",
    "result": []
  },
  {
    "postal": "P6B8H9",
    "result": []
  },
  {
    "postal": "P6B1Z1",
    "result": [
      {
        "electoralDistricts": [
          {
            "election": null,
            "id": 92,
            "name": "Sault Ste. Marie"
          }
        ],
        "pollDivisionIds": [
          10141477
        ],
        "postalCode": "P6B1Z1",
        "streetName": "MCNABB",
        "streetDirectionId": null,
        "streetTypeId": "ST",
        "placeName": "SAULT STE. MARIE",
        "streetNameDisplayText": "MCNABB ST, SAULT STE. MARIE"
      }
    ]
  },
  {
    "postal": "P6B8M3",
    "result": []
  },
  {
    "postal": "P6B5H6",
    "result": [
      {
        "electoralDistricts": [
          {
            "election": null,
            "id": 92,
            "name": "Sault Ste. Marie"
          }
        ],
        "pollDivisionIds": [
          10141478
        ],
        "postalCode": "P6B5H6",
        "streetName": "PALACE",
        "streetDirectionId": null,
        "streetTypeId": "DR",
        "placeName": "SAULT STE. MARIE",
        "streetNameDisplayText": "PALACE DR, SAULT STE. MARIE"
      }
    ]
  },
  {
    "postal": "P6B7W7",
    "result": []
  },
  {
    "postal": "P6B4L0",
    "result": []
  },
  {
    "postal": "P6B2N1",
    "result": [
      {
        "electoralDistricts": [
          {
            "election": null,
            "id": 92,
            "name": "Sault Ste. Marie"
          }
        ],
        "pollDivisionIds": [
          10141473
        ],
        "postalCode": "P6B2N1",
        "streetName": "TRELAWNE",
        "streetDirectionId": null,
        "streetTypeId": "AVE",
        "placeName": "SAULT STE. MARIE",
        "streetNameDisplayText": "TRELAWNE AVE, SAULT STE. MARIE"
      }
    ]
  },
  {
    "postal": "P6B2H4",
    "result": [
      {
        "electoralDistricts": [
          {
            "election": null,
            "id": 92,
            "name": "Sault Ste. Marie"
          }
        ],
        "pollDivisionIds": [
          10141472
        ],
        "postalCode": "P6B2H4",
        "streetName": "TANCRED",
        "streetDirectionId": null,
        "streetTypeId": "ST",
        "placeName": "SAULT STE. MARIE",
        "streetNameDisplayText": "TANCRED ST, SAULT STE. MARIE"
      }
    ]
  },
  {
    "postal": "P6B5C8",
    "result": [
      {
        "electoralDistricts": [
          {
            "election": null,
            "id": 92,
            "name": "Sault Ste. Marie"
          }
        ],
        "pollDivisionIds": [
          10141476
        ],
        "postalCode": "P6B5C8",
        "streetName": "LESLIE",
        "streetDirectionId": null,
        "streetTypeId": "ST",
        "placeName": "SAULT STE. MARIE",
        "streetNameDisplayText": "LESLIE ST, SAULT STE. MARIE"
      }
    ]
  },
  {
    "postal": "P6B8B0",
    "result": []
  },
  {
    "postal": "P6B1T4",
    "result": [
      {
        "electoralDistricts": [
          {
            "election": null,
            "id": 92,
            "name": "Sault Ste. Marie"
          }
        ],
        "pollDivisionIds": [
          10141472
        ],
        "postalCode": "P6B1T4",
        "streetName": "RAILROAD",
        "streetDirectionId": null,
        "streetTypeId": "AVE",
        "placeName": "SAULT STE. MARIE",
        "streetNameDisplayText": "RAILROAD AVE, SAULT STE. MARIE"
      }
    ]
  },
  {
    "postal": "P6B7N7",
    "result": []
  },
  {
    "postal": "P6B4L3",
    "result": [
      {
        "electoralDistricts": [
          {
            "election": null,
            "id": 92,
            "name": "Sault Ste. Marie"
          }
        ],
        "pollDivisionIds": [
          10141468
        ],
        "postalCode": "P6B4L3",
        "streetName": "MONTCALM",
        "streetDirectionId": null,
        "streetTypeId": "RD",
        "placeName": "SAULT STE. MARIE",
        "streetNameDisplayText": "MONTCALM RD, SAULT STE. MARIE"
      }
    ]
  },
  {
    "postal": "P6B2N2",
    "result": [
      {
        "electoralDistricts": [
          {
            "election": null,
            "id": 92,
            "name": "Sault Ste. Marie"
          }
        ],
        "pollDivisionIds": [
          10141473
        ],
        "postalCode": "P6B2N2",
        "streetName": "TRELAWNE",
        "streetDirectionId": null,
        "streetTypeId": "AVE",
        "placeName": "SAULT STE. MARIE",
        "streetNameDisplayText": "TRELAWNE AVE, SAULT STE. MARIE"
      }
    ]
  },
  {
    "postal": "P6B4N8",
    "result": [
      {
        "electoralDistricts": [
          {
            "election": null,
            "id": 92,
            "name": "Sault Ste. Marie"
          }
        ],
        "pollDivisionIds": [
          10141469
        ],
        "postalCode": "P6B4N8",
        "streetName": "KILLARNEY",
        "streetDirectionId": null,
        "streetTypeId": "RD",
        "placeName": "SAULT STE. MARIE",
        "streetNameDisplayText": "KILLARNEY RD, SAULT STE. MARIE"
      }
    ]
  },
  {
    "postal": "P6B3M5",
    "result": [
      {
        "electoralDistricts": [
          {
            "election": null,
            "id": 92,
            "name": "Sault Ste. Marie"
          }
        ],
        "pollDivisionIds": [
          10141478
        ],
        "postalCode": "P6B3M5",
        "streetName": "PLACID",
        "streetDirectionId": null,
        "streetTypeId": "AVE",
        "placeName": "SAULT STE. MARIE",
        "streetNameDisplayText": "PLACID AVE, SAULT STE. MARIE"
      }
    ]
  },
  {
    "postal": "P6B6H7",
    "result": [
      {
        "electoralDistricts": [
          {
            "election": null,
            "id": 92,
            "name": "Sault Ste. Marie"
          }
        ],
        "pollDivisionIds": [
          10141469
        ],
        "postalCode": "P6B6H7",
        "streetName": "CRESTVIEW",
        "streetDirectionId": null,
        "streetTypeId": "CRT",
        "placeName": "SAULT STE. MARIE",
        "streetNameDisplayText": "CRESTVIEW CRT, SAULT STE. MARIE"
      },
      {
        "electoralDistricts": [
          {
            "election": null,
            "id": 92,
            "name": "Sault Ste. Marie"
          }
        ],
        "pollDivisionIds": [
          10141469
        ],
        "postalCode": "P6B6H7",
        "streetName": "MILLCREEK",
        "streetDirectionId": null,
        "streetTypeId": "DR",
        "placeName": "SAULT STE. MARIE",
        "streetNameDisplayText": "MILLCREEK DR, SAULT STE. MARIE"
      }
    ]
  },
  {
    "postal": "P6B8Y8",
    "result": []
  },
  {
    "postal": "P6B5R9",
    "result": [
      {
        "electoralDistricts": [
          {
            "election": null,
            "id": 92,
            "name": "Sault Ste. Marie"
          }
        ],
        "pollDivisionIds": [
          10141481
        ],
        "postalCode": "P6B5R9",
        "streetName": "KOPRASH",
        "streetDirectionId": null,
        "streetTypeId": "CRT",
        "placeName": "SAULT STE. MARIE",
        "streetNameDisplayText": "KOPRASH CRT, SAULT STE. MARIE"
      }
    ]
  },
  {
    "postal": "P6B8G3",
    "result": []
  },
  {
    "postal": "P6B4N7",
    "result": [
      {
        "electoralDistricts": [
          {
            "election": null,
            "id": 92,
            "name": "Sault Ste. Marie"
          }
        ],
        "pollDivisionIds": [
          10141469
        ],
        "postalCode": "P6B4N7",
        "streetName": "KILLARNEY",
        "streetDirectionId": null,
        "streetTypeId": "RD",
        "placeName": "SAULT STE. MARIE",
        "streetNameDisplayText": "KILLARNEY RD, SAULT STE. MARIE"
      }
    ]
  },
  {
    "postal": "P6B0B9",
    "result": [
      {
        "electoralDistricts": [
          {
            "election": null,
            "id": 92,
            "name": "Sault Ste. Marie"
          }
        ],
        "pollDivisionIds": [
          10141468,
          10141458
        ],
        "postalCode": "P6B0B9",
        "streetName": "GREAT NORTHERN",
        "streetDirectionId": null,
        "streetTypeId": "RD",
        "placeName": "SAULT STE. MARIE",
        "streetNameDisplayText": "GREAT NORTHERN RD, SAULT STE. MARIE"
      }
    ]
  },
  {
    "postal": "P6B9K7",
    "result": []
  },
  {
    "postal": "P6B9K9",
    "result": []
  },
  {
    "postal": "P6B3Z2",
    "result": [
      {
        "electoralDistricts": [
          {
            "election": null,
            "id": 92,
            "name": "Sault Ste. Marie"
          }
        ],
        "pollDivisionIds": [
          10141476
        ],
        "postalCode": "P6B3Z2",
        "streetName": "TILLEY",
        "streetDirectionId": null,
        "streetTypeId": "RD",
        "placeName": "SAULT STE. MARIE",
        "streetNameDisplayText": "TILLEY RD, SAULT STE. MARIE"
      }
    ]
  },
  {
    "postal": "P6B6W7",
    "result": []
  },
  {
    "postal": "P6B0P1",
    "result": []
  },
  {
    "postal": "P6B3A0",
    "result": []
  },
  {
    "postal": "P6B8L9",
    "result": []
  },
  {
    "postal": "P6B6X0",
    "result": []
  },
  {
    "postal": "P6B3E9",
    "result": [
      {
        "electoralDistricts": [
          {
            "election": null,
            "id": 92,
            "name": "Sault Ste. Marie"
          }
        ],
        "pollDivisionIds": [
          10141481
        ],
        "postalCode": "P6B3E9",
        "streetName": "PINE",
        "streetDirectionId": null,
        "streetTypeId": "ST",
        "placeName": "SAULT STE. MARIE",
        "streetNameDisplayText": "PINE ST, SAULT STE. MARIE"
      }
    ]
  },
  {
    "postal": "P6B0S5",
    "result": []
  },
  {
    "postal": "P6B1A2",
    "result": [
      {
        "electoralDistricts": [
          {
            "election": null,
            "id": 92,
            "name": "Sault Ste. Marie"
          }
        ],
        "pollDivisionIds": [
          10141480
        ],
        "postalCode": "P6B1A2",
        "streetName": "EUCLID",
        "streetDirectionId": null,
        "streetTypeId": "RD",
        "placeName": "SAULT STE. MARIE",
        "streetNameDisplayText": "EUCLID RD, SAULT STE. MARIE"
      }
    ]
  },
  {
    "postal": "P6B5V8",
    "result": [
      {
        "electoralDistricts": [
          {
            "election": null,
            "id": 92,
            "name": "Sault Ste. Marie"
          }
        ],
        "pollDivisionIds": [
          10141468
        ],
        "postalCode": "P6B5V8",
        "streetName": "MARY",
        "streetDirectionId": null,
        "streetTypeId": "AVE",
        "placeName": "SAULT STE. MARIE",
        "streetNameDisplayText": "MARY AVE, SAULT STE. MARIE"
      }
    ]
  },
  {
    "postal": "P6B8C5",
    "result": []
  },
  {
    "postal": "P6B6N0",
    "result": []
  },
  {
    "postal": "P6B9E6",
    "result": []
  },
  {
    "postal": "P6B5J7",
    "result": [
      {
        "electoralDistricts": [
          {
            "election": null,
            "id": 92,
            "name": "Sault Ste. Marie"
          }
        ],
        "pollDivisionIds": [
          10141478
        ],
        "postalCode": "P6B5J7",
        "streetName": "PAGEANT",
        "streetDirectionId": null,
        "streetTypeId": "DR",
        "placeName": "SAULT STE. MARIE",
        "streetNameDisplayText": "PAGEANT DR, SAULT STE. MARIE"
      }
    ]
  },
  {
    "postal": "P6B2R2",
    "result": [
      {
        "electoralDistricts": [
          {
            "election": null,
            "id": 92,
            "name": "Sault Ste. Marie"
          }
        ],
        "pollDivisionIds": [
          10141473
        ],
        "postalCode": "P6B2R2",
        "streetName": "GLADSTONE",
        "streetDirectionId": null,
        "streetTypeId": "AVE",
        "placeName": "SAULT STE. MARIE",
        "streetNameDisplayText": "GLADSTONE AVE, SAULT STE. MARIE"
      }
    ]
  },
  {
    "postal": "P6B0P5",
    "result": []
  },
  {
    "postal": "P6B5A7",
    "result": [
      {
        "electoralDistricts": [
          {
            "election": null,
            "id": 92,
            "name": "Sault Ste. Marie"
          }
        ],
        "pollDivisionIds": [
          10141469
        ],
        "postalCode": "P6B5A7",
        "streetName": "OLD GARDEN RIVER",
        "streetDirectionId": null,
        "streetTypeId": "RD",
        "placeName": "SAULT STE. MARIE",
        "streetNameDisplayText": "OLD GARDEN RIVER RD, SAULT STE. MARIE"
      }
    ]
  },
  {
    "postal": "P6B1G1",
    "result": [
      {
        "electoralDistricts": [
          {
            "election": null,
            "id": 92,
            "name": "Sault Ste. Marie"
          }
        ],
        "pollDivisionIds": [
          10141480
        ],
        "postalCode": "P6B1G1",
        "streetName": "BORRON",
        "streetDirectionId": null,
        "streetTypeId": "AVE",
        "placeName": "SAULT STE. MARIE",
        "streetNameDisplayText": "BORRON AVE, SAULT STE. MARIE"
      }
    ]
  },
  {
    "postal": "P6B9R6",
    "result": []
  },
  {
    "postal": "P6B4Z9",
    "result": [
      {
        "electoralDistricts": [
          {
            "election": null,
            "id": 92,
            "name": "Sault Ste. Marie"
          }
        ],
        "pollDivisionIds": [
          10141469
        ],
        "postalCode": "P6B4Z9",
        "streetName": "GREAT NORTHERN",
        "streetDirectionId": null,
        "streetTypeId": "RD",
        "placeName": "SAULT STE. MARIE",
        "streetNameDisplayText": "GREAT NORTHERN RD, SAULT STE. MARIE"
      }
    ]
  },
  {
    "postal": "P6B1V5",
    "result": [
      {
        "electoralDistricts": [
          {
            "election": null,
            "id": 92,
            "name": "Sault Ste. Marie"
          }
        ],
        "pollDivisionIds": [
          10141472
        ],
        "postalCode": "P6B1V5",
        "streetName": "WILCOX",
        "streetDirectionId": null,
        "streetTypeId": "AVE",
        "placeName": "SAULT STE. MARIE",
        "streetNameDisplayText": "WILCOX AVE, SAULT STE. MARIE"
      }
    ]
  },
  {
    "postal": "P6B9Y5",
    "result": []
  },
  {
    "postal": "P6B1P2",
    "result": [
      {
        "electoralDistricts": [
          {
            "election": null,
            "id": 92,
            "name": "Sault Ste. Marie"
          }
        ],
        "pollDivisionIds": [
          10141472
        ],
        "postalCode": "P6B1P2",
        "streetName": "BRUCE",
        "streetDirectionId": null,
        "streetTypeId": "ST",
        "placeName": "SAULT STE. MARIE",
        "streetNameDisplayText": "BRUCE ST, SAULT STE. MARIE"
      }
    ]
  },
  {
    "postal": "P6B5X0",
    "result": []
  },
  {
    "postal": "P6B7B8",
    "result": []
  },
  {
    "postal": "P6B0C6",
    "result": []
  },
  {
    "postal": "P6B6G1",
    "result": [
      {
        "electoralDistricts": [
          {
            "election": null,
            "id": 92,
            "name": "Sault Ste. Marie"
          }
        ],
        "pollDivisionIds": [
          10141478
        ],
        "postalCode": "P6B6G1",
        "streetName": "PRINCETON",
        "streetDirectionId": null,
        "streetTypeId": "DR",
        "placeName": "SAULT STE. MARIE",
        "streetNameDisplayText": "PRINCETON DR, SAULT STE. MARIE"
      }
    ]
  },
  {
    "postal": "P6B3K3",
    "result": [
      {
        "electoralDistricts": [
          {
            "election": null,
            "id": 92,
            "name": "Sault Ste. Marie"
          }
        ],
        "pollDivisionIds": [
          10141482
        ],
        "postalCode": "P6B3K3",
        "streetName": "SISSON",
        "streetDirectionId": null,
        "streetTypeId": "ST",
        "placeName": "SAULT STE. MARIE",
        "streetNameDisplayText": "SISSON ST, SAULT STE. MARIE"
      }
    ]
  },
  {
    "postal": "P6B9R0",
    "result": []
  },
  {
    "postal": "P6B4R8",
    "result": [
      {
        "electoralDistricts": [
          {
            "election": null,
            "id": 92,
            "name": "Sault Ste. Marie"
          }
        ],
        "pollDivisionIds": [
          10141473
        ],
        "postalCode": "P6B4R8",
        "streetName": "GRAND",
        "streetDirectionId": null,
        "streetTypeId": "BLVD",
        "placeName": "SAULT STE. MARIE",
        "streetNameDisplayText": "GRAND BLVD, SAULT STE. MARIE"
      }
    ]
  },
  {
    "postal": "P6B5P9",
    "result": [
      {
        "electoralDistricts": [
          {
            "election": null,
            "id": 92,
            "name": "Sault Ste. Marie"
          }
        ],
        "pollDivisionIds": [
          10141474
        ],
        "postalCode": "P6B5P9",
        "streetName": "GRANDVILLE",
        "streetDirectionId": null,
        "streetTypeId": "CRES",
        "placeName": "SAULT STE. MARIE",
        "streetNameDisplayText": "GRANDVILLE CRES, SAULT STE. MARIE"
      }
    ]
  },
  {
    "postal": "P6B8N4",
    "result": []
  },
  {
    "postal": "P6B8H4",
    "result": []
  },
  {
    "postal": "P6B4V1",
    "result": [
      {
        "electoralDistricts": [
          {
            "election": null,
            "id": 92,
            "name": "Sault Ste. Marie"
          }
        ],
        "pollDivisionIds": [
          10141474
        ],
        "postalCode": "P6B4V1",
        "streetName": "REID",
        "streetDirectionId": null,
        "streetTypeId": "ST",
        "placeName": "SAULT STE. MARIE",
        "streetNameDisplayText": "REID ST, SAULT STE. MARIE"
      }
    ]
  },
  {
    "postal": "P6B1K5",
    "result": [
      {
        "electoralDistricts": [
          {
            "election": null,
            "id": 92,
            "name": "Sault Ste. Marie"
          }
        ],
        "pollDivisionIds": [
          10141473
        ],
        "postalCode": "P6B1K5",
        "streetName": "LANSDOWNE",
        "streetDirectionId": null,
        "streetTypeId": "AVE",
        "placeName": "SAULT STE. MARIE",
        "streetNameDisplayText": "LANSDOWNE AVE, SAULT STE. MARIE"
      }
    ]
  },
  {
    "postal": "P6B1Z5",
    "result": [
      {
        "electoralDistricts": [
          {
            "election": null,
            "id": 92,
            "name": "Sault Ste. Marie"
          }
        ],
        "pollDivisionIds": [
          10141482
        ],
        "postalCode": "P6B1Z5",
        "streetName": "MCNABB",
        "streetDirectionId": null,
        "streetTypeId": "ST",
        "placeName": "SAULT STE. MARIE",
        "streetNameDisplayText": "MCNABB ST, SAULT STE. MARIE"
      }
    ]
  },
  {
    "postal": "P6B9L9",
    "result": []
  },
  {
    "postal": "P6B5L2",
    "result": [
      {
        "electoralDistricts": [
          {
            "election": null,
            "id": 92,
            "name": "Sault Ste. Marie"
          }
        ],
        "pollDivisionIds": [
          10141487
        ],
        "postalCode": "P6B5L2",
        "streetName": "WIBER",
        "streetDirectionId": null,
        "streetTypeId": "ST",
        "placeName": "SAULT STE. MARIE",
        "streetNameDisplayText": "WIBER ST, SAULT STE. MARIE"
      }
    ]
  },
  {
    "postal": "P6B0M2",
    "result": []
  },
  {
    "postal": "P6B1K8",
    "result": [
      {
        "electoralDistricts": [
          {
            "election": null,
            "id": 92,
            "name": "Sault Ste. Marie"
          }
        ],
        "pollDivisionIds": [
          10141473
        ],
        "postalCode": "P6B1K8",
        "streetName": "CURRAN",
        "streetDirectionId": null,
        "streetTypeId": "DR",
        "placeName": "SAULT STE. MARIE",
        "streetNameDisplayText": "CURRAN DR, SAULT STE. MARIE"
      }
    ]
  },
  {
    "postal": "P6B3M7",
    "result": [
      {
        "electoralDistricts": [
          {
            "election": null,
            "id": 92,
            "name": "Sault Ste. Marie"
          }
        ],
        "pollDivisionIds": [
          10141478,
          10141470
        ],
        "postalCode": "P6B3M7",
        "streetName": "PLACID",
        "streetDirectionId": null,
        "streetTypeId": "AVE",
        "placeName": "SAULT STE. MARIE",
        "streetNameDisplayText": "PLACID AVE, SAULT STE. MARIE"
      }
    ]
  },
  {
    "postal": "P6B1B2",
    "result": [
      {
        "electoralDistricts": [
          {
            "election": null,
            "id": 92,
            "name": "Sault Ste. Marie"
          }
        ],
        "pollDivisionIds": [
          10141480
        ],
        "postalCode": "P6B1B2",
        "streetName": "WEMYSS",
        "streetDirectionId": null,
        "streetTypeId": "ST",
        "placeName": "SAULT STE. MARIE",
        "streetNameDisplayText": "WEMYSS ST, SAULT STE. MARIE"
      }
    ]
  },
  {
    "postal": "P6B0H9",
    "result": []
  },
  {
    "postal": "P6B8M4",
    "result": []
  },
  {
    "postal": "P6B2M5",
    "result": [
      {
        "electoralDistricts": [
          {
            "election": null,
            "id": 92,
            "name": "Sault Ste. Marie"
          }
        ],
        "pollDivisionIds": [
          10141473
        ],
        "postalCode": "P6B2M5",
        "streetName": "TRELAWNE",
        "streetDirectionId": null,
        "streetTypeId": "AVE",
        "placeName": "SAULT STE. MARIE",
        "streetNameDisplayText": "TRELAWNE AVE, SAULT STE. MARIE"
      }
    ]
  },
  {
    "postal": "P6B0T9",
    "result": []
  },
  {
    "postal": "P6B3P1",
    "result": [
      {
        "electoralDistricts": [
          {
            "election": null,
            "id": 92,
            "name": "Sault Ste. Marie"
          }
        ],
        "pollDivisionIds": [
          10141477
        ],
        "postalCode": "P6B3P1",
        "streetName": "CHAPPLE",
        "streetDirectionId": null,
        "streetTypeId": "AVE",
        "placeName": "SAULT STE. MARIE",
        "streetNameDisplayText": "CHAPPLE AVE, SAULT STE. MARIE"
      }
    ]
  },
  {
    "postal": "P6B1R6",
    "result": []
  },
  {
    "postal": "P6B9V5",
    "result": []
  },
  {
    "postal": "P6B9T0",
    "result": []
  },
  {
    "postal": "P6B0A9",
    "result": []
  },
  {
    "postal": "P6B1M3",
    "result": [
      {
        "electoralDistricts": [
          {
            "election": null,
            "id": 92,
            "name": "Sault Ste. Marie"
          }
        ],
        "pollDivisionIds": [
          10141473
        ],
        "postalCode": "P6B1M3",
        "streetName": "SALISBURY",
        "streetDirectionId": null,
        "streetTypeId": "AVE",
        "placeName": "SAULT STE. MARIE",
        "streetNameDisplayText": "SALISBURY AVE, SAULT STE. MARIE"
      }
    ]
  },
  {
    "postal": "P6B1W8",
    "result": [
      {
        "electoralDistricts": [
          {
            "election": null,
            "id": 92,
            "name": "Sault Ste. Marie"
          }
        ],
        "pollDivisionIds": [
          10141472
        ],
        "postalCode": "P6B1W8",
        "streetName": "ST. GEORGE'S",
        "streetDirectionId": "E",
        "streetTypeId": "AVE",
        "placeName": "SAULT STE. MARIE",
        "streetNameDisplayText": "ST. GEORGE'S AVE E, SAULT STE. MARIE"
      }
    ]
  },
  {
    "postal": "P6B9J1",
    "result": []
  },
  {
    "postal": "P6B8N5",
    "result": []
  },
  {
    "postal": "P6B5X1",
    "result": [
      {
        "electoralDistricts": [
          {
            "election": null,
            "id": 92,
            "name": "Sault Ste. Marie"
          }
        ],
        "pollDivisionIds": [
          10141482
        ],
        "postalCode": "P6B5X1",
        "streetName": "BURTON",
        "streetDirectionId": null,
        "streetTypeId": "RD",
        "placeName": "SAULT STE.  MARIE",
        "streetNameDisplayText": "BURTON RD, SAULT STE.  MARIE"
      },
      {
        "electoralDistricts": [
          {
            "election": null,
            "id": 92,
            "name": "Sault Ste. Marie"
          }
        ],
        "pollDivisionIds": [
          10141482
        ],
        "postalCode": "P6B5X1",
        "streetName": "BURTON",
        "streetDirectionId": null,
        "streetTypeId": "RD",
        "placeName": "SAULT STE. MARIE",
        "streetNameDisplayText": "BURTON RD, SAULT STE. MARIE"
      }
    ]
  },
  {
    "postal": "P6B6S2",
    "result": []
  },
  {
    "postal": "P6B2A2",
    "result": [
      {
        "electoralDistricts": [
          {
            "election": null,
            "id": 92,
            "name": "Sault Ste. Marie"
          }
        ],
        "pollDivisionIds": [
          10141487
        ],
        "postalCode": "P6B2A2",
        "streetName": "MCNABB",
        "streetDirectionId": null,
        "streetTypeId": "ST",
        "placeName": "SAULT STE. MARIE",
        "streetNameDisplayText": "MCNABB ST, SAULT STE. MARIE"
      }
    ]
  },
  {
    "postal": "P6B6A6",
    "result": [
      {
        "electoralDistricts": [
          {
            "election": null,
            "id": 92,
            "name": "Sault Ste. Marie"
          }
        ],
        "pollDivisionIds": [
          10141482
        ],
        "postalCode": "P6B6A6",
        "streetName": "MACDONALD",
        "streetDirectionId": null,
        "streetTypeId": "AVE",
        "placeName": "SAULT STE. MARIE",
        "streetNameDisplayText": "MACDONALD AVE, SAULT STE. MARIE"
      }
    ]
  },
  {
    "postal": "P6B0S3",
    "result": []
  },
  {
    "postal": "P6B3E7",
    "result": [
      {
        "electoralDistricts": [
          {
            "election": null,
            "id": 92,
            "name": "Sault Ste. Marie"
          }
        ],
        "pollDivisionIds": [
          10141485,
          10141481
        ],
        "postalCode": "P6B3E7",
        "streetName": "PINE",
        "streetDirectionId": null,
        "streetTypeId": "ST",
        "placeName": "SAULT STE. MARIE",
        "streetNameDisplayText": "PINE ST, SAULT STE. MARIE"
      }
    ]
  },
  {
    "postal": "P6B5R7",
    "result": [
      {
        "electoralDistricts": [
          {
            "election": null,
            "id": 92,
            "name": "Sault Ste. Marie"
          }
        ],
        "pollDivisionIds": [
          10141481
        ],
        "postalCode": "P6B5R7",
        "streetName": "LARONDE",
        "streetDirectionId": null,
        "streetTypeId": "AVE",
        "placeName": "SAULT STE. MARIE",
        "streetNameDisplayText": "LARONDE AVE, SAULT STE. MARIE"
      }
    ]
  },
  {
    "postal": "P6B3R6",
    "result": [
      {
        "electoralDistricts": [
          {
            "election": null,
            "id": 92,
            "name": "Sault Ste. Marie"
          }
        ],
        "pollDivisionIds": [
          10141467
        ],
        "postalCode": "P6B3R6",
        "streetName": "ST. MARY'S",
        "streetDirectionId": null,
        "streetTypeId": "AVE",
        "placeName": "SAULT STE. MARIE",
        "streetNameDisplayText": "ST. MARY'S AVE, SAULT STE. MARIE"
      }
    ]
  },
  {
    "postal": "P6B6K4",
    "result": [
      {
        "electoralDistricts": [
          {
            "election": null,
            "id": 92,
            "name": "Sault Ste. Marie"
          }
        ],
        "pollDivisionIds": [
          10141478,
          10141470
        ],
        "postalCode": "P6B6K4",
        "streetName": "LAKE",
        "streetDirectionId": null,
        "streetTypeId": "ST",
        "placeName": "SAULT STE. MARIE",
        "streetNameDisplayText": "LAKE ST, SAULT STE. MARIE"
      },
      {
        "electoralDistricts": [
          {
            "election": null,
            "id": 92,
            "name": "Sault Ste. Marie"
          }
        ],
        "pollDivisionIds": [
          10141470
        ],
        "postalCode": "P6B6K4",
        "streetName": "PARKVIEW",
        "streetDirectionId": null,
        "streetTypeId": "CRT",
        "placeName": "SAULT STE. MARIE",
        "streetNameDisplayText": "PARKVIEW CRT, SAULT STE. MARIE"
      }
    ]
  },
  {
    "postal": "P6B2W5",
    "result": [
      {
        "electoralDistricts": [
          {
            "election": null,
            "id": 92,
            "name": "Sault Ste. Marie"
          }
        ],
        "pollDivisionIds": [
          10141480
        ],
        "postalCode": "P6B2W5",
        "streetName": "POPLAR",
        "streetDirectionId": null,
        "streetTypeId": "AVE",
        "placeName": "SAULT STE. MARIE",
        "streetNameDisplayText": "POPLAR AVE, SAULT STE. MARIE"
      }
    ]
  },
  {
    "postal": "P6B8W4",
    "result": []
  },
  {
    "postal": "P6B9C2",
    "result": []
  },
  {
    "postal": "P6B2C0",
    "result": []
  },
  {
    "postal": "P6B0E1",
    "result": [
      {
        "electoralDistricts": [
          {
            "election": null,
            "id": 92,
            "name": "Sault Ste. Marie"
          }
        ],
        "pollDivisionIds": [
          10141458
        ],
        "postalCode": "P6B0E1",
        "streetName": "GREAT NORTHERN",
        "streetDirectionId": null,
        "streetTypeId": "RD",
        "placeName": "SAULT STE. MARIE",
        "streetNameDisplayText": "GREAT NORTHERN RD, SAULT STE. MARIE"
      }
    ]
  },
  {
    "postal": "P6B1K9",
    "result": [
      {
        "electoralDistricts": [
          {
            "election": null,
            "id": 92,
            "name": "Sault Ste. Marie"
          }
        ],
        "pollDivisionIds": [
          10141473
        ],
        "postalCode": "P6B1K9",
        "streetName": "CURRAN",
        "streetDirectionId": null,
        "streetTypeId": "DR",
        "placeName": "SAULT STE. MARIE",
        "streetNameDisplayText": "CURRAN DR, SAULT STE. MARIE"
      }
    ]
  },
  {
    "postal": "P6B1G7",
    "result": [
      {
        "electoralDistricts": [
          {
            "election": null,
            "id": 92,
            "name": "Sault Ste. Marie"
          }
        ],
        "pollDivisionIds": [
          10141485
        ],
        "postalCode": "P6B1G7",
        "streetName": "CREERY",
        "streetDirectionId": null,
        "streetTypeId": "AVE",
        "placeName": "SAULT STE. MARIE",
        "streetNameDisplayText": "CREERY AVE, SAULT STE. MARIE"
      }
    ]
  },
  {
    "postal": "P6B4E9",
    "result": [
      {
        "electoralDistricts": [
          {
            "election": null,
            "id": 92,
            "name": "Sault Ste. Marie"
          }
        ],
        "pollDivisionIds": [
          10141487
        ],
        "postalCode": "P6B4E9",
        "streetName": "LAWSON",
        "streetDirectionId": null,
        "streetTypeId": "AVE",
        "placeName": "SAULT STE. MARIE",
        "streetNameDisplayText": "LAWSON AVE, SAULT STE. MARIE"
      }
    ]
  },
  {
    "postal": "P6B9P0",
    "result": []
  },
  {
    "postal": "P6B5H3",
    "result": [
      {
        "electoralDistricts": [
          {
            "election": null,
            "id": 92,
            "name": "Sault Ste. Marie"
          }
        ],
        "pollDivisionIds": [
          10141476
        ],
        "postalCode": "P6B5H3",
        "streetName": "PLAINTREE",
        "streetDirectionId": null,
        "streetTypeId": "DR",
        "placeName": "SAULT STE. MARIE",
        "streetNameDisplayText": "PLAINTREE DR, SAULT STE. MARIE"
      }
    ]
  },
  {
    "postal": "P6B9X6",
    "result": []
  },
  {
    "postal": "P6B5N7",
    "result": [
      {
        "electoralDistricts": [
          {
            "election": null,
            "id": 92,
            "name": "Sault Ste. Marie"
          }
        ],
        "pollDivisionIds": [
          10141487
        ],
        "postalCode": "P6B5N7",
        "streetName": "MANITOU",
        "streetDirectionId": null,
        "streetTypeId": "DR",
        "placeName": "SAULT STE. MARIE",
        "streetNameDisplayText": "MANITOU DR, SAULT STE. MARIE"
      }
    ]
  },
  {
    "postal": "P6B5A6",
    "result": [
      {
        "electoralDistricts": [
          {
            "election": null,
            "id": 92,
            "name": "Sault Ste. Marie"
          }
        ],
        "pollDivisionIds": [
          10141469
        ],
        "postalCode": "P6B5A6",
        "streetName": "OLD GARDEN RIVER",
        "streetDirectionId": null,
        "streetTypeId": "RD",
        "placeName": "SAULT STE. MARIE",
        "streetNameDisplayText": "OLD GARDEN RIVER RD, SAULT STE. MARIE"
      }
    ]
  },
  {
    "postal": "P6B4M0",
    "result": []
  },
  {
    "postal": "P6B3V6",
    "result": [
      {
        "electoralDistricts": [
          {
            "election": null,
            "id": 92,
            "name": "Sault Ste. Marie"
          }
        ],
        "pollDivisionIds": [
          10141474
        ],
        "postalCode": "P6B3V6",
        "streetName": "NINO",
        "streetDirectionId": null,
        "streetTypeId": "DR",
        "placeName": "SAULT STE. MARIE",
        "streetNameDisplayText": "NINO DR, SAULT STE. MARIE"
      }
    ]
  },
  {
    "postal": "P6B1L7",
    "result": [
      {
        "electoralDistricts": [
          {
            "election": null,
            "id": 92,
            "name": "Sault Ste. Marie"
          }
        ],
        "pollDivisionIds": [
          10141473
        ],
        "postalCode": "P6B1L7",
        "streetName": "SALISBURY",
        "streetDirectionId": null,
        "streetTypeId": "AVE",
        "placeName": "SAULT STE. MARIE",
        "streetNameDisplayText": "SALISBURY AVE, SAULT STE. MARIE"
      }
    ]
  },
  {
    "postal": "P6B2P9",
    "result": [
      {
        "electoralDistricts": [
          {
            "election": null,
            "id": 92,
            "name": "Sault Ste. Marie"
          }
        ],
        "pollDivisionIds": [
          10141473
        ],
        "postalCode": "P6B2P9",
        "streetName": "GLADSTONE",
        "streetDirectionId": null,
        "streetTypeId": "AVE",
        "placeName": "SAULT STE. MARIE",
        "streetNameDisplayText": "GLADSTONE AVE, SAULT STE. MARIE"
      }
    ]
  },
  {
    "postal": "P6B5T4",
    "result": [
      {
        "electoralDistricts": [
          {
            "election": null,
            "id": 92,
            "name": "Sault Ste. Marie"
          }
        ],
        "pollDivisionIds": [
          10141475,
          10141476
        ],
        "postalCode": "P6B5T4",
        "streetName": "PRINCETON",
        "streetDirectionId": null,
        "streetTypeId": "DR",
        "placeName": "SAULT STE. MARIE",
        "streetNameDisplayText": "PRINCETON DR, SAULT STE. MARIE"
      }
    ]
  },
  {
    "postal": "P6B5Z1",
    "result": [
      {
        "electoralDistricts": [
          {
            "election": null,
            "id": 92,
            "name": "Sault Ste. Marie"
          }
        ],
        "pollDivisionIds": [
          10141485
        ],
        "postalCode": "P6B5Z1",
        "streetName": "BRETON",
        "streetDirectionId": null,
        "streetTypeId": "RD",
        "placeName": "SAULT STE. MARIE",
        "streetNameDisplayText": "BRETON RD, SAULT STE. MARIE"
      }
    ]
  },
  {
    "postal": "P6B2X0",
    "result": []
  },
  {
    "postal": "P6B6Z2",
    "result": []
  },
  {
    "postal": "P6B0E0",
    "result": []
  },
  {
    "postal": "P6B3Z5",
    "result": [
      {
        "electoralDistricts": [
          {
            "election": null,
            "id": 92,
            "name": "Sault Ste. Marie"
          }
        ],
        "pollDivisionIds": [
          10141476
        ],
        "postalCode": "P6B3Z5",
        "streetName": "PELICAN",
        "streetDirectionId": null,
        "streetTypeId": "DR",
        "placeName": "SAULT STE. MARIE",
        "streetNameDisplayText": "PELICAN DR, SAULT STE. MARIE"
      }
    ]
  },
  {
    "postal": "P6B8H3",
    "result": []
  },
  {
    "postal": "P6B7S6",
    "result": []
  },
  {
    "postal": "P6B4C1",
    "result": [
      {
        "electoralDistricts": [
          {
            "election": null,
            "id": 92,
            "name": "Sault Ste. Marie"
          }
        ],
        "pollDivisionIds": [
          10141467
        ],
        "postalCode": "P6B4C1",
        "streetName": "STRAND",
        "streetDirectionId": null,
        "streetTypeId": "AVE",
        "placeName": "SAULT STE. MARIE",
        "streetNameDisplayText": "STRAND AVE, SAULT STE. MARIE"
      }
    ]
  },
  {
    "postal": "P6B3K2",
    "result": [
      {
        "electoralDistricts": [
          {
            "election": null,
            "id": 92,
            "name": "Sault Ste. Marie"
          }
        ],
        "pollDivisionIds": [
          10141482
        ],
        "postalCode": "P6B3K2",
        "streetName": "CARTIER",
        "streetDirectionId": null,
        "streetTypeId": "ST",
        "placeName": "SAULT STE. MARIE",
        "streetNameDisplayText": "CARTIER ST, SAULT STE. MARIE"
      }
    ]
  },
  {
    "postal": "P6B1Y5",
    "result": [
      {
        "electoralDistricts": [
          {
            "election": null,
            "id": 92,
            "name": "Sault Ste. Marie"
          }
        ],
        "pollDivisionIds": [
          10141477
        ],
        "postalCode": "P6B1Y5",
        "streetName": "MCNABB",
        "streetDirectionId": null,
        "streetTypeId": "ST",
        "placeName": "SAULT STE. MARIE",
        "streetNameDisplayText": "MCNABB ST, SAULT STE. MARIE"
      }
    ]
  },
  {
    "postal": "P6B6P6",
    "result": []
  },
  {
    "postal": "P6B3N9",
    "result": [
      {
        "electoralDistricts": [
          {
            "election": null,
            "id": 92,
            "name": "Sault Ste. Marie"
          }
        ],
        "pollDivisionIds": [
          10141477
        ],
        "postalCode": "P6B3N9",
        "streetName": "CHAPPLE",
        "streetDirectionId": null,
        "streetTypeId": "AVE",
        "placeName": "SAULT STE. MARIE",
        "streetNameDisplayText": "CHAPPLE AVE, SAULT STE. MARIE"
      }
    ]
  },
  {
    "postal": "P6B3W2",
    "result": [
      {
        "electoralDistricts": [
          {
            "election": null,
            "id": 92,
            "name": "Sault Ste. Marie"
          }
        ],
        "pollDivisionIds": [
          10141474
        ],
        "postalCode": "P6B3W2",
        "streetName": "WAWANOSH",
        "streetDirectionId": null,
        "streetTypeId": "AVE",
        "placeName": "SAULT STE. MARIE",
        "streetNameDisplayText": "WAWANOSH AVE, SAULT STE. MARIE"
      }
    ]
  },
  {
    "postal": "P6B6H8",
    "result": [
      {
        "electoralDistricts": [
          {
            "election": null,
            "id": 92,
            "name": "Sault Ste. Marie"
          }
        ],
        "pollDivisionIds": [
          10141469
        ],
        "postalCode": "P6B6H8",
        "streetName": "MILLCREEK",
        "streetDirectionId": null,
        "streetTypeId": "DR",
        "placeName": "SAULT STE. MARIE",
        "streetNameDisplayText": "MILLCREEK DR, SAULT STE. MARIE"
      }
    ]
  },
  {
    "postal": "P6B9T3",
    "result": []
  },
  {
    "postal": "P6B5L9",
    "result": [
      {
        "electoralDistricts": [
          {
            "election": null,
            "id": 92,
            "name": "Sault Ste. Marie"
          }
        ],
        "pollDivisionIds": [
          10141487,
          10141485
        ],
        "postalCode": "P6B5L9",
        "streetName": "WIBER",
        "streetDirectionId": null,
        "streetTypeId": "ST",
        "placeName": "SAULT STE. MARIE",
        "streetNameDisplayText": "WIBER ST, SAULT STE. MARIE"
      }
    ]
  },
  {
    "postal": "P6B7X7",
    "result": []
  },
  {
    "postal": "P6B3J5",
    "result": [
      {
        "electoralDistricts": [
          {
            "election": null,
            "id": 92,
            "name": "Sault Ste. Marie"
          }
        ],
        "pollDivisionIds": [
          10141485
        ],
        "postalCode": "P6B3J5",
        "streetName": "BOSTON",
        "streetDirectionId": null,
        "streetTypeId": "AVE",
        "placeName": "SAULT STE. MARIE",
        "streetNameDisplayText": "BOSTON AVE, SAULT STE. MARIE"
      }
    ]
  },
  {
    "postal": "P6B4J5",
    "result": [
      {
        "electoralDistricts": [
          {
            "election": null,
            "id": 92,
            "name": "Sault Ste. Marie"
          }
        ],
        "pollDivisionIds": [
          10141475,
          10141456
        ],
        "postalCode": "P6B4J5",
        "streetName": "SHARON",
        "streetDirectionId": null,
        "streetTypeId": "CRES",
        "placeName": "SAULT STE. MARIE",
        "streetNameDisplayText": "SHARON CRES, SAULT STE. MARIE"
      }
    ]
  },
  {
    "postal": "P6B6J2",
    "result": [
      {
        "electoralDistricts": [
          {
            "election": null,
            "id": 92,
            "name": "Sault Ste. Marie"
          }
        ],
        "pollDivisionIds": [
          10141470
        ],
        "postalCode": "P6B6J2",
        "streetName": "PAWATING",
        "streetDirectionId": null,
        "streetTypeId": "PL",
        "placeName": "SAULT STE. MARIE",
        "streetNameDisplayText": "PAWATING PL, SAULT STE. MARIE"
      }
    ]
  },
  {
    "postal": "P6B5V6",
    "result": [
      {
        "electoralDistricts": [
          {
            "election": null,
            "id": 92,
            "name": "Sault Ste. Marie"
          }
        ],
        "pollDivisionIds": [
          10141475
        ],
        "postalCode": "P6B5V6",
        "streetName": "PANORAMIC",
        "streetDirectionId": null,
        "streetTypeId": "DR",
        "placeName": "SAULT STE. MARIE",
        "streetNameDisplayText": "PANORAMIC DR, SAULT STE. MARIE"
      }
    ]
  },
  {
    "postal": "P6B3N2",
    "result": [
      {
        "electoralDistricts": [
          {
            "election": null,
            "id": 92,
            "name": "Sault Ste. Marie"
          }
        ],
        "pollDivisionIds": [
          10141474
        ],
        "postalCode": "P6B3N2",
        "streetName": "STEVENS",
        "streetDirectionId": null,
        "streetTypeId": "ST",
        "placeName": "SAULT STE. MARIE",
        "streetNameDisplayText": "STEVENS ST, SAULT STE. MARIE"
      }
    ]
  },
  {
    "postal": "P6B3B1",
    "result": [
      {
        "electoralDistricts": [
          {
            "election": null,
            "id": 92,
            "name": "Sault Ste. Marie"
          }
        ],
        "pollDivisionIds": [
          10141481,
          10141459
        ],
        "postalCode": "P6B3B1",
        "streetName": "CAMPBELL",
        "streetDirectionId": null,
        "streetTypeId": "AVE",
        "placeName": "SAULT STE. MARIE",
        "streetNameDisplayText": "CAMPBELL AVE, SAULT STE. MARIE"
      }
    ]
  },
  {
    "postal": "P6B8B5",
    "result": []
  },
  {
    "postal": "P6B0K1",
    "result": []
  },
  {
    "postal": "P6B7M7",
    "result": []
  },
  {
    "postal": "P6B2M2",
    "result": [
      {
        "electoralDistricts": [
          {
            "election": null,
            "id": 92,
            "name": "Sault Ste. Marie"
          }
        ],
        "pollDivisionIds": [
          10141473
        ],
        "postalCode": "P6B2M2",
        "streetName": "GROSVENOR",
        "streetDirectionId": null,
        "streetTypeId": "AVE",
        "placeName": "SAULT STE. MARIE",
        "streetNameDisplayText": "GROSVENOR AVE, SAULT STE. MARIE"
      }
    ]
  },
  {
    "postal": "P6B9N3",
    "result": []
  },
  {
    "postal": "P6B4Y8",
    "result": [
      {
        "electoralDistricts": [
          {
            "election": null,
            "id": 92,
            "name": "Sault Ste. Marie"
          }
        ],
        "pollDivisionIds": [
          10141474
        ],
        "postalCode": "P6B4Y8",
        "streetName": "GREAT NORTHERN",
        "streetDirectionId": null,
        "streetTypeId": "RD",
        "placeName": "SAULT STE. MARIE",
        "streetNameDisplayText": "GREAT NORTHERN RD, SAULT STE. MARIE"
      }
    ]
  },
  {
    "postal": "P6B3V7",
    "result": [
      {
        "electoralDistricts": [
          {
            "election": null,
            "id": 92,
            "name": "Sault Ste. Marie"
          }
        ],
        "pollDivisionIds": [
          10141474
        ],
        "postalCode": "P6B3V7",
        "streetName": "GRANDVIEW",
        "streetDirectionId": null,
        "streetTypeId": "AVE",
        "placeName": "SAULT STE.  MARIE",
        "streetNameDisplayText": "GRANDVIEW AVE, SAULT STE.  MARIE"
      },
      {
        "electoralDistricts": [
          {
            "election": null,
            "id": 92,
            "name": "Sault Ste. Marie"
          }
        ],
        "pollDivisionIds": [
          10141474
        ],
        "postalCode": "P6B3V7",
        "streetName": "GRANDVIEW",
        "streetDirectionId": null,
        "streetTypeId": "AVE",
        "placeName": "SAULT STE. MARIE",
        "streetNameDisplayText": "GRANDVIEW AVE, SAULT STE. MARIE"
      }
    ]
  },
  {
    "postal": "P6B8Z1",
    "result": []
  },
  {
    "postal": "P6B7B3",
    "result": []
  },
  {
    "postal": "P6B3A8",
    "result": [
      {
        "electoralDistricts": [
          {
            "election": null,
            "id": 92,
            "name": "Sault Ste. Marie"
          }
        ],
        "pollDivisionIds": [
          10141483
        ],
        "postalCode": "P6B3A8",
        "streetName": "FINDLAY",
        "streetDirectionId": null,
        "streetTypeId": "DR",
        "placeName": "SAULT STE. MARIE",
        "streetNameDisplayText": "FINDLAY DR, SAULT STE. MARIE"
      }
    ]
  },
  {
    "postal": "P6B7V5",
    "result": []
  },
  {
    "postal": "P6B2T2",
    "result": [
      {
        "electoralDistricts": [
          {
            "election": null,
            "id": 92,
            "name": "Sault Ste. Marie"
          }
        ],
        "pollDivisionIds": [
          10141481
        ],
        "postalCode": "P6B2T2",
        "streetName": "PIM",
        "streetDirectionId": null,
        "streetTypeId": "ST",
        "placeName": "SAULT STE. MARIE",
        "streetNameDisplayText": "PIM ST, SAULT STE. MARIE"
      }
    ]
  },
  {
    "postal": "P6B6L3",
    "result": [
      {
        "electoralDistricts": [
          {
            "election": null,
            "id": 92,
            "name": "Sault Ste. Marie"
          }
        ],
        "pollDivisionIds": [
          10141470
        ],
        "postalCode": "P6B6L3",
        "streetName": "PARK PLACE",
        "streetDirectionId": null,
        "streetTypeId": "DR",
        "placeName": "SAULT STE. MARIE",
        "streetNameDisplayText": "PARK PLACE DR, SAULT STE. MARIE"
      }
    ]
  },
  {
    "postal": "P6B0L2",
    "result": []
  },
  {
    "postal": "P6B5Y8",
    "result": [
      {
        "electoralDistricts": [
          {
            "election": null,
            "id": 92,
            "name": "Sault Ste. Marie"
          }
        ],
        "pollDivisionIds": [
          10141468
        ],
        "postalCode": "P6B5Y8",
        "streetName": "INDUSTRIAL PARK",
        "streetDirectionId": null,
        "streetTypeId": "CRES",
        "placeName": "SAULT STE. MARIE",
        "streetNameDisplayText": "INDUSTRIAL PARK CRES, SAULT STE. MARIE"
      }
    ]
  },
  {
    "postal": "P6B0B8",
    "result": []
  },
  {
    "postal": "P6B6R5",
    "result": []
  },
  {
    "postal": "P6B8W6",
    "result": []
  },
  {
    "postal": "P6B8G6",
    "result": []
  },
  {
    "postal": "P6B6X3",
    "result": []
  },
  {
    "postal": "P6B7R7",
    "result": []
  },
  {
    "postal": "P6B4B6",
    "result": [
      {
        "electoralDistricts": [
          {
            "election": null,
            "id": 92,
            "name": "Sault Ste. Marie"
          }
        ],
        "pollDivisionIds": [
          10141467
        ],
        "postalCode": "P6B4B6",
        "streetName": "STRAND",
        "streetDirectionId": null,
        "streetTypeId": "AVE",
        "placeName": "SAULT STE. MARIE",
        "streetNameDisplayText": "STRAND AVE, SAULT STE. MARIE"
      }
    ]
  },
  {
    "postal": "P6B3P9",
    "result": [
      {
        "electoralDistricts": [
          {
            "election": null,
            "id": 92,
            "name": "Sault Ste. Marie"
          }
        ],
        "pollDivisionIds": [
          10141470
        ],
        "postalCode": "P6B3P9",
        "streetName": "PALADIN",
        "streetDirectionId": null,
        "streetTypeId": "AVE",
        "placeName": "SAULT STE. MARIE",
        "streetNameDisplayText": "PALADIN AVE, SAULT STE. MARIE"
      }
    ]
  },
  {
    "postal": "P6B2T3",
    "result": [
      {
        "electoralDistricts": [
          {
            "election": null,
            "id": 92,
            "name": "Sault Ste. Marie"
          }
        ],
        "pollDivisionIds": [
          10141480
        ],
        "postalCode": "P6B2T3",
        "streetName": "PIM",
        "streetDirectionId": null,
        "streetTypeId": "ST",
        "placeName": "SAULT STE. MARIE",
        "streetNameDisplayText": "PIM ST, SAULT STE. MARIE"
      }
    ]
  },
  {
    "postal": "P6B1M4",
    "result": [
      {
        "electoralDistricts": [
          {
            "election": null,
            "id": 92,
            "name": "Sault Ste. Marie"
          }
        ],
        "pollDivisionIds": [
          10141473
        ],
        "postalCode": "P6B1M4",
        "streetName": "MONTGOMERY",
        "streetDirectionId": null,
        "streetTypeId": "AVE",
        "placeName": "SAULT STE. MARIE",
        "streetNameDisplayText": "MONTGOMERY AVE, SAULT STE. MARIE"
      }
    ]
  },
  {
    "postal": "P6B0H1",
    "result": []
  },
  {
    "postal": "P6B9W3",
    "result": []
  },
  {
    "postal": "P6B6P1",
    "result": []
  },
  {
    "postal": "P6B7G2",
    "result": []
  },
  {
    "postal": "P6B4J9",
    "result": [
      {
        "electoralDistricts": [
          {
            "election": null,
            "id": 92,
            "name": "Sault Ste. Marie"
          }
        ],
        "pollDivisionIds": [
          10141468
        ],
        "postalCode": "P6B4J9",
        "streetName": "SECOND",
        "streetDirectionId": "E",
        "streetTypeId": "LINE",
        "placeName": "SAULT STE. MARIE",
        "streetNameDisplayText": "SECOND LINE E, SAULT STE. MARIE"
      }
    ]
  },
  {
    "postal": "P6B9E4",
    "result": []
  },
  {
    "postal": "P6B8H0",
    "result": []
  },
  {
    "postal": "P6B4M7",
    "result": [
      {
        "electoralDistricts": [
          {
            "election": null,
            "id": 92,
            "name": "Sault Ste. Marie"
          }
        ],
        "pollDivisionIds": [
          10141469
        ],
        "postalCode": "P6B4M7",
        "streetName": "TERRANCE",
        "streetDirectionId": null,
        "streetTypeId": "AVE",
        "placeName": "SAULT STE. MARIE",
        "streetNameDisplayText": "TERRANCE AVE, SAULT STE. MARIE"
      }
    ]
  },
  {
    "postal": "P6B2G9",
    "result": [
      {
        "electoralDistricts": [
          {
            "election": null,
            "id": 92,
            "name": "Sault Ste. Marie"
          }
        ],
        "pollDivisionIds": [
          10141472
        ],
        "postalCode": "P6B2G9",
        "streetName": "SPRUCE",
        "streetDirectionId": null,
        "streetTypeId": "ST",
        "placeName": "SAULT STE. MARIE",
        "streetNameDisplayText": "SPRUCE ST, SAULT STE. MARIE"
      }
    ]
  },
  {
    "postal": "P6B8T2",
    "result": []
  },
  {
    "postal": "P6B7G7",
    "result": []
  },
  {
    "postal": "P6B4Z3",
    "result": [
      {
        "electoralDistricts": [
          {
            "election": null,
            "id": 92,
            "name": "Sault Ste. Marie"
          }
        ],
        "pollDivisionIds": [
          10141475
        ],
        "postalCode": "P6B4Z3",
        "streetName": "GREAT NORTHERN",
        "streetDirectionId": null,
        "streetTypeId": "RD",
        "placeName": "SAULT STE. MARIE",
        "streetNameDisplayText": "GREAT NORTHERN RD, SAULT STE. MARIE"
      }
    ]
  },
  {
    "postal": "P6B5B3",
    "result": [
      {
        "electoralDistricts": [
          {
            "election": null,
            "id": 92,
            "name": "Sault Ste. Marie"
          }
        ],
        "pollDivisionIds": [
          10141476
        ],
        "postalCode": "P6B5B3",
        "streetName": "WILLOW",
        "streetDirectionId": null,
        "streetTypeId": "AVE",
        "placeName": "SAULT STE. MARIE",
        "streetNameDisplayText": "WILLOW AVE, SAULT STE. MARIE"
      }
    ]
  },
  {
    "postal": "P6B1S7",
    "result": [
      {
        "electoralDistricts": [
          {
            "election": null,
            "id": 92,
            "name": "Sault Ste. Marie"
          }
        ],
        "pollDivisionIds": [
          10141481
        ],
        "postalCode": "P6B1S7",
        "streetName": "CHLEBUS",
        "streetDirectionId": null,
        "streetTypeId": "ST",
        "placeName": "SAULT STE. MARIE",
        "streetNameDisplayText": "CHLEBUS ST, SAULT STE. MARIE"
      }
    ]
  },
  {
    "postal": "P6B2N7",
    "result": [
      {
        "electoralDistricts": [
          {
            "election": null,
            "id": 92,
            "name": "Sault Ste. Marie"
          }
        ],
        "pollDivisionIds": [
          10141473
        ],
        "postalCode": "P6B2N7",
        "streetName": "ALBERTA",
        "streetDirectionId": null,
        "streetTypeId": "AVE",
        "placeName": "SAULT STE. MARIE",
        "streetNameDisplayText": "ALBERTA AVE, SAULT STE. MARIE"
      }
    ]
  },
  {
    "postal": "P6B0H8",
    "result": []
  },
  {
    "postal": "P6B7Z4",
    "result": []
  },
  {
    "postal": "P6B7B1",
    "result": []
  },
  {
    "postal": "P6B7P8",
    "result": []
  },
  {
    "postal": "P6B7N0",
    "result": []
  },
  {
    "postal": "P6B3Y5",
    "result": [
      {
        "electoralDistricts": [
          {
            "election": null,
            "id": 92,
            "name": "Sault Ste. Marie"
          }
        ],
        "pollDivisionIds": [
          10141474
        ],
        "postalCode": "P6B3Y5",
        "streetName": "GRANDHAVEN",
        "streetDirectionId": null,
        "streetTypeId": "CRES",
        "placeName": "SAULT STE. MARIE",
        "streetNameDisplayText": "GRANDHAVEN CRES, SAULT STE. MARIE"
      }
    ]
  },
  {
    "postal": "P6B6K1",
    "result": [
      {
        "electoralDistricts": [
          {
            "election": null,
            "id": 92,
            "name": "Sault Ste. Marie"
          }
        ],
        "pollDivisionIds": [
          10141470
        ],
        "postalCode": "P6B6K1",
        "streetName": "VILLAGE",
        "streetDirectionId": null,
        "streetTypeId": "CRT",
        "placeName": "SAULT STE. MARIE",
        "streetNameDisplayText": "VILLAGE CRT, SAULT STE. MARIE"
      }
    ]
  },
  {
    "postal": "P6B9X5",
    "result": []
  },
  {
    "postal": "P6B7S5",
    "result": []
  },
  {
    "postal": "P6B0A4",
    "result": [
      {
        "electoralDistricts": [
          {
            "election": null,
            "id": 92,
            "name": "Sault Ste. Marie"
          }
        ],
        "pollDivisionIds": [
          10141482
        ],
        "postalCode": "P6B0A4",
        "streetName": "BLACK",
        "streetDirectionId": null,
        "streetTypeId": "RD",
        "placeName": "SAULT STE. MARIE",
        "streetNameDisplayText": "BLACK RD, SAULT STE. MARIE"
      }
    ]
  },
  {
    "postal": "P6B4T5",
    "result": [
      {
        "electoralDistricts": [
          {
            "election": null,
            "id": 92,
            "name": "Sault Ste. Marie"
          }
        ],
        "pollDivisionIds": [
          10141468
        ],
        "postalCode": "P6B4T5",
        "streetName": "SACKVILLE",
        "streetDirectionId": null,
        "streetTypeId": "RD",
        "placeName": "SAULT STE. MARIE",
        "streetNameDisplayText": "SACKVILLE RD, SAULT STE. MARIE"
      }
    ]
  },
  {
    "postal": "P6B5K1",
    "result": [
      {
        "electoralDistricts": [
          {
            "election": null,
            "id": 92,
            "name": "Sault Ste. Marie"
          }
        ],
        "pollDivisionIds": [
          10141478
        ],
        "postalCode": "P6B5K1",
        "streetName": "PARADISE",
        "streetDirectionId": null,
        "streetTypeId": "AVE",
        "placeName": "SAULT STE. MARIE",
        "streetNameDisplayText": "PARADISE AVE, SAULT STE. MARIE"
      }
    ]
  },
  {
    "postal": "P6B0Z9",
    "result": []
  },
  {
    "postal": "P6B7T2",
    "result": []
  },
  {
    "postal": "P6B1L5",
    "result": [
      {
        "electoralDistricts": [
          {
            "election": null,
            "id": 92,
            "name": "Sault Ste. Marie"
          }
        ],
        "pollDivisionIds": [
          10141482
        ],
        "postalCode": "P6B1L5",
        "streetName": "WIRELESS",
        "streetDirectionId": null,
        "streetTypeId": "AVE",
        "placeName": "SAULT STE. MARIE",
        "streetNameDisplayText": "WIRELESS AVE, SAULT STE. MARIE"
      }
    ]
  },
  {
    "postal": "P6B3N5",
    "result": [
      {
        "electoralDistricts": [
          {
            "election": null,
            "id": 92,
            "name": "Sault Ste. Marie"
          }
        ],
        "pollDivisionIds": [
          10141474
        ],
        "postalCode": "P6B3N5",
        "streetName": "STEVENS",
        "streetDirectionId": null,
        "streetTypeId": "ST",
        "placeName": "SAULT STE. MARIE",
        "streetNameDisplayText": "STEVENS ST, SAULT STE. MARIE"
      }
    ]
  },
  {
    "postal": "P6B6H4",
    "result": []
  },
  {
    "postal": "P6B5A5",
    "result": [
      {
        "electoralDistricts": [
          {
            "election": null,
            "id": 92,
            "name": "Sault Ste. Marie"
          }
        ],
        "pollDivisionIds": [
          10141475
        ],
        "postalCode": "P6B5A5",
        "streetName": "OLD GARDEN RIVER",
        "streetDirectionId": null,
        "streetTypeId": "RD",
        "placeName": "SAULT STE. MARIE",
        "streetNameDisplayText": "OLD GARDEN RIVER RD, SAULT STE. MARIE"
      }
    ]
  },
  {
    "postal": "P6B3R9",
    "result": [
      {
        "electoralDistricts": [
          {
            "election": null,
            "id": 92,
            "name": "Sault Ste. Marie"
          }
        ],
        "pollDivisionIds": [
          10141473
        ],
        "postalCode": "P6B3R9",
        "streetName": "GRANDRIVER",
        "streetDirectionId": null,
        "streetTypeId": "CRES",
        "placeName": "SAULT STE. MARIE",
        "streetNameDisplayText": "GRANDRIVER CRES, SAULT STE. MARIE"
      }
    ]
  },
  {
    "postal": "P6B7L8",
    "result": []
  },
  {
    "postal": "P6B6T6",
    "result": []
  },
  {
    "postal": "P6B7Y7",
    "result": []
  },
  {
    "postal": "P6B3M8",
    "result": [
      {
        "electoralDistricts": [
          {
            "election": null,
            "id": 92,
            "name": "Sault Ste. Marie"
          }
        ],
        "pollDivisionIds": [
          10141473
        ],
        "postalCode": "P6B3M8",
        "streetName": "GRANDY",
        "streetDirectionId": null,
        "streetTypeId": "RD",
        "placeName": "SAULT STE. MARIE",
        "streetNameDisplayText": "GRANDY RD, SAULT STE. MARIE"
      }
    ]
  },
  {
    "postal": "P6B2E0",
    "result": []
  },
  {
    "postal": "P6B4B5",
    "result": [
      {
        "electoralDistricts": [
          {
            "election": null,
            "id": 92,
            "name": "Sault Ste. Marie"
          }
        ],
        "pollDivisionIds": [
          10141487
        ],
        "postalCode": "P6B4B5",
        "streetName": "JEAN",
        "streetDirectionId": null,
        "streetTypeId": "AVE",
        "placeName": "SAULT STE. MARIE",
        "streetNameDisplayText": "JEAN AVE, SAULT STE. MARIE"
      }
    ]
  },
  {
    "postal": "P6B1J3",
    "result": [
      {
        "electoralDistricts": [
          {
            "election": null,
            "id": 92,
            "name": "Sault Ste. Marie"
          }
        ],
        "pollDivisionIds": [
          10141482
        ],
        "postalCode": "P6B1J3",
        "streetName": "MACDONALD",
        "streetDirectionId": null,
        "streetTypeId": "AVE",
        "placeName": "SAULT STE. MARIE",
        "streetNameDisplayText": "MACDONALD AVE, SAULT STE. MARIE"
      }
    ]
  },
  {
    "postal": "P6B5S6",
    "result": [
      {
        "electoralDistricts": [
          {
            "election": null,
            "id": 92,
            "name": "Sault Ste. Marie"
          }
        ],
        "pollDivisionIds": [
          10141481
        ],
        "postalCode": "P6B5S6",
        "streetName": "CHARLOTTE",
        "streetDirectionId": null,
        "streetTypeId": "DR",
        "placeName": "SAULT STE. MARIE",
        "streetNameDisplayText": "CHARLOTTE DR, SAULT STE. MARIE"
      }
    ]
  },
  {
    "postal": "P6B8P7",
    "result": []
  },
  {
    "postal": "P6B7S7",
    "result": []
  },
  {
    "postal": "P6B4C2",
    "result": [
      {
        "electoralDistricts": [
          {
            "election": null,
            "id": 92,
            "name": "Sault Ste. Marie"
          }
        ],
        "pollDivisionIds": [
          10141474
        ],
        "postalCode": "P6B4C2",
        "streetName": "ORYME",
        "streetDirectionId": null,
        "streetTypeId": "AVE",
        "placeName": "SAULT STE. MARIE",
        "streetNameDisplayText": "ORYME AVE, SAULT STE. MARIE"
      }
    ]
  },
  {
    "postal": "P6B5Y0",
    "result": []
  },
  {
    "postal": "P6B2V7",
    "result": [
      {
        "electoralDistricts": [
          {
            "election": null,
            "id": 92,
            "name": "Sault Ste. Marie"
          }
        ],
        "pollDivisionIds": [
          10141480
        ],
        "postalCode": "P6B2V7",
        "streetName": "BELLEVUE",
        "streetDirectionId": null,
        "streetTypeId": "AVE",
        "placeName": "SAULT STE. MARIE",
        "streetNameDisplayText": "BELLEVUE AVE, SAULT STE. MARIE"
      }
    ]
  },
  {
    "postal": "P6B8P5",
    "result": []
  },
  {
    "postal": "P6B5P5",
    "result": [
      {
        "electoralDistricts": [
          {
            "election": null,
            "id": 92,
            "name": "Sault Ste. Marie"
          }
        ],
        "pollDivisionIds": [
          10141468
        ],
        "postalCode": "P6B5P5",
        "streetName": "NORTH",
        "streetDirectionId": null,
        "streetTypeId": "ST",
        "placeName": "SAULT STE. MARIE",
        "streetNameDisplayText": "NORTH ST, SAULT STE. MARIE"
      }
    ]
  },
  {
    "postal": "P6B5Z0",
    "result": []
  },
  {
    "postal": "P6B9B0",
    "result": []
  },
  {
    "postal": "P6B1L0",
    "result": []
  },
  {
    "postal": "P6B0B5",
    "result": [
      {
        "electoralDistricts": [
          {
            "election": null,
            "id": 92,
            "name": "Sault Ste. Marie"
          }
        ],
        "pollDivisionIds": [
          10141504,
          10141469
        ],
        "postalCode": "P6B0B5",
        "streetName": "GREAT NORTHERN",
        "streetDirectionId": null,
        "streetTypeId": "RD",
        "placeName": "SAULT STE. MARIE",
        "streetNameDisplayText": "GREAT NORTHERN RD, SAULT STE. MARIE"
      }
    ]
  },
  {
    "postal": "P6B3L2",
    "result": [
      {
        "electoralDistricts": [
          {
            "election": null,
            "id": 92,
            "name": "Sault Ste. Marie"
          }
        ],
        "pollDivisionIds": [
          10141482
        ],
        "postalCode": "P6B3L2",
        "streetName": "LAKE",
        "streetDirectionId": null,
        "streetTypeId": "ST",
        "placeName": "SAULT STE. MARIE",
        "streetNameDisplayText": "LAKE ST, SAULT STE. MARIE"
      }
    ]
  },
  {
    "postal": "P6B3B7",
    "result": [
      {
        "electoralDistricts": [
          {
            "election": null,
            "id": 92,
            "name": "Sault Ste. Marie"
          }
        ],
        "pollDivisionIds": [
          10141481
        ],
        "postalCode": "P6B3B7",
        "streetName": "CAMPBELL",
        "streetDirectionId": null,
        "streetTypeId": "AVE",
        "placeName": "SAULT STE. MARIE",
        "streetNameDisplayText": "CAMPBELL AVE, SAULT STE. MARIE"
      }
    ]
  },
  {
    "postal": "P6B8L1",
    "result": []
  },
  {
    "postal": "P6B5M4",
    "result": [
      {
        "electoralDistricts": [
          {
            "election": null,
            "id": 92,
            "name": "Sault Ste. Marie"
          }
        ],
        "pollDivisionIds": [
          10141487
        ],
        "postalCode": "P6B5M4",
        "streetName": "ADELINE",
        "streetDirectionId": null,
        "streetTypeId": "AVE",
        "placeName": "SAULT STE. MARIE",
        "streetNameDisplayText": "ADELINE AVE, SAULT STE. MARIE"
      }
    ]
  },
  {
    "postal": "P6B4G9",
    "result": [
      {
        "electoralDistricts": [
          {
            "election": null,
            "id": 92,
            "name": "Sault Ste. Marie"
          }
        ],
        "pollDivisionIds": [
          10141475
        ],
        "postalCode": "P6B4G9",
        "streetName": "KENT",
        "streetDirectionId": null,
        "streetTypeId": "AVE",
        "placeName": "SAULT STE. MARIE",
        "streetNameDisplayText": "KENT AVE, SAULT STE. MARIE"
      }
    ]
  },
  {
    "postal": "P6B0P0",
    "result": []
  },
  {
    "postal": "P6B8G2",
    "result": []
  },
  {
    "postal": "P6B1V9",
    "result": [
      {
        "electoralDistricts": [
          {
            "election": null,
            "id": 92,
            "name": "Sault Ste. Marie"
          }
        ],
        "pollDivisionIds": [
          10141472
        ],
        "postalCode": "P6B1V9",
        "streetName": "PARDEE",
        "streetDirectionId": null,
        "streetTypeId": "AVE",
        "placeName": "SAULT STE. MARIE",
        "streetNameDisplayText": "PARDEE AVE, SAULT STE. MARIE"
      }
    ]
  },
  {
    "postal": "P6B8N8",
    "result": []
  },
  {
    "postal": "P6B6S8",
    "result": []
  },
  {
    "postal": "P6B8H2",
    "result": []
  },
  {
    "postal": "P6B5R8",
    "result": [
      {
        "electoralDistricts": [
          {
            "election": null,
            "id": 92,
            "name": "Sault Ste. Marie"
          }
        ],
        "pollDivisionIds": [
          10141481
        ],
        "postalCode": "P6B5R8",
        "streetName": "LARONDE",
        "streetDirectionId": null,
        "streetTypeId": "AVE",
        "placeName": "SAULT STE. MARIE",
        "streetNameDisplayText": "LARONDE AVE, SAULT STE. MARIE"
      }
    ]
  },
  {
    "postal": "P6B5L4",
    "result": [
      {
        "electoralDistricts": [
          {
            "election": null,
            "id": 92,
            "name": "Sault Ste. Marie"
          }
        ],
        "pollDivisionIds": [
          10141487
        ],
        "postalCode": "P6B5L4",
        "streetName": "WIBER",
        "streetDirectionId": null,
        "streetTypeId": "ST",
        "placeName": "SAULT STE. MARIE",
        "streetNameDisplayText": "WIBER ST, SAULT STE. MARIE"
      }
    ]
  },
  {
    "postal": "P6B9E1",
    "result": []
  },
  {
    "postal": "P6B1C4",
    "result": [
      {
        "electoralDistricts": [
          {
            "election": null,
            "id": 92,
            "name": "Sault Ste. Marie"
          }
        ],
        "pollDivisionIds": [
          10141483
        ],
        "postalCode": "P6B1C4",
        "streetName": "THE DRIVE",
        "streetDirectionId": null,
        "streetTypeId": null,
        "placeName": "SAULT STE. MARIE",
        "streetNameDisplayText": "THE DRIVE, SAULT STE. MARIE"
      }
    ]
  },
  {
    "postal": "P6B8W5",
    "result": []
  },
  {
    "postal": "P6B1Y4",
    "result": [
      {
        "electoralDistricts": [
          {
            "election": null,
            "id": 92,
            "name": "Sault Ste. Marie"
          }
        ],
        "pollDivisionIds": [
          10141476
        ],
        "postalCode": "P6B1Y4",
        "streetName": "MCNABB",
        "streetDirectionId": null,
        "streetTypeId": "ST",
        "placeName": "SAULT STE. MARIE",
        "streetNameDisplayText": "MCNABB ST, SAULT STE. MARIE"
      }
    ]
  },
  {
    "postal": "P6B1C0",
    "result": []
  },
  {
    "postal": "P6B2J2",
    "result": [
      {
        "electoralDistricts": [
          {
            "election": null,
            "id": 92,
            "name": "Sault Ste. Marie"
          }
        ],
        "pollDivisionIds": [
          10141472
        ],
        "postalCode": "P6B2J2",
        "streetName": "CEDAR",
        "streetDirectionId": null,
        "streetTypeId": "ST",
        "placeName": "SAULT STE. MARIE",
        "streetNameDisplayText": "CEDAR ST, SAULT STE. MARIE"
      }
    ]
  },
  {
    "postal": "P6B2J0",
    "result": []
  },
  {
    "postal": "P6B7A3",
    "result": []
  },
  {
    "postal": "P6B8M1",
    "result": []
  },
  {
    "postal": "P6B7T9",
    "result": []
  },
  {
    "postal": "P6B6C0",
    "result": []
  },
  {
    "postal": "P6B7X1",
    "result": []
  },
  {
    "postal": "P6B0G1",
    "result": []
  },
  {
    "postal": "P6B4X2",
    "result": [
      {
        "electoralDistricts": [
          {
            "election": null,
            "id": 92,
            "name": "Sault Ste. Marie"
          }
        ],
        "pollDivisionIds": [
          10141474
        ],
        "postalCode": "P6B4X2",
        "streetName": "CAMERON",
        "streetDirectionId": null,
        "streetTypeId": "AVE",
        "placeName": "SAULT STE. MARIE",
        "streetNameDisplayText": "CAMERON AVE, SAULT STE. MARIE"
      }
    ]
  },
  {
    "postal": "P6B0N6",
    "result": []
  },
  {
    "postal": "P6B8E3",
    "result": []
  },
  {
    "postal": "P6B5S8",
    "result": [
      {
        "electoralDistricts": [
          {
            "election": null,
            "id": 92,
            "name": "Sault Ste. Marie"
          }
        ],
        "pollDivisionIds": [
          10141474
        ],
        "postalCode": "P6B5S8",
        "streetName": "GRANDMONT",
        "streetDirectionId": null,
        "streetTypeId": "CRES",
        "placeName": "SAULT STE. MARIE",
        "streetNameDisplayText": "GRANDMONT CRES, SAULT STE. MARIE"
      }
    ]
  },
  {
    "postal": "P6B0R0",
    "result": []
  },
  {
    "postal": "P6B6J6",
    "result": []
  },
  {
    "postal": "P6B4B4",
    "result": [
      {
        "electoralDistricts": [
          {
            "election": null,
            "id": 92,
            "name": "Sault Ste. Marie"
          }
        ],
        "pollDivisionIds": [
          10141487
        ],
        "postalCode": "P6B4B4",
        "streetName": "JEAN",
        "streetDirectionId": null,
        "streetTypeId": "AVE",
        "placeName": "SAULT STE. MARIE",
        "streetNameDisplayText": "JEAN AVE, SAULT STE. MARIE"
      }
    ]
  },
  {
    "postal": "P6B7E3",
    "result": []
  },
  {
    "postal": "P6B3N6",
    "result": [
      {
        "electoralDistricts": [
          {
            "election": null,
            "id": 92,
            "name": "Sault Ste. Marie"
          }
        ],
        "pollDivisionIds": [
          10141474
        ],
        "postalCode": "P6B3N6",
        "streetName": "STEVENS",
        "streetDirectionId": null,
        "streetTypeId": "ST",
        "placeName": "SAULT STE. MARIE",
        "streetNameDisplayText": "STEVENS ST, SAULT STE. MARIE"
      }
    ]
  },
  {
    "postal": "P6B3X6",
    "result": [
      {
        "electoralDistricts": [
          {
            "election": null,
            "id": 92,
            "name": "Sault Ste. Marie"
          }
        ],
        "pollDivisionIds": [
          10141487
        ],
        "postalCode": "P6B3X6",
        "streetName": "AMY",
        "streetDirectionId": null,
        "streetTypeId": "AVE",
        "placeName": "SAULT STE. MARIE",
        "streetNameDisplayText": "AMY AVE, SAULT STE. MARIE"
      }
    ]
  },
  {
    "postal": "P6B8L0",
    "result": []
  },
  {
    "postal": "P6B8N1",
    "result": []
  },
  {
    "postal": "P6B4J0",
    "result": []
  },
  {
    "postal": "P6B0X7",
    "result": []
  },
  {
    "postal": "P6B6S4",
    "result": []
  },
  {
    "postal": "P6B0Z0",
    "result": []
  },
  {
    "postal": "P6B9X8",
    "result": []
  },
  {
    "postal": "P6B3H3",
    "result": [
      {
        "electoralDistricts": [
          {
            "election": null,
            "id": 92,
            "name": "Sault Ste. Marie"
          }
        ],
        "pollDivisionIds": [
          10141485,
          10141483
        ],
        "postalCode": "P6B3H3",
        "streetName": "ELIZABETH",
        "streetDirectionId": null,
        "streetTypeId": "ST",
        "placeName": "SAULT STE. MARIE",
        "streetNameDisplayText": "ELIZABETH ST, SAULT STE. MARIE"
      }
    ]
  },
  {
    "postal": "P6B7S2",
    "result": []
  },
  {
    "postal": "P6B3T3",
    "result": [
      {
        "electoralDistricts": [
          {
            "election": null,
            "id": 92,
            "name": "Sault Ste. Marie"
          }
        ],
        "pollDivisionIds": [
          10141487
        ],
        "postalCode": "P6B3T3",
        "streetName": "ANNA",
        "streetDirectionId": null,
        "streetTypeId": "ST",
        "placeName": "SAULT STE. MARIE",
        "streetNameDisplayText": "ANNA ST, SAULT STE. MARIE"
      }
    ]
  },
  {
    "postal": "P6B9P3",
    "result": []
  },
  {
    "postal": "P6B4H8",
    "result": [
      {
        "electoralDistricts": [
          {
            "election": null,
            "id": 92,
            "name": "Sault Ste. Marie"
          }
        ],
        "pollDivisionIds": [
          10141474
        ],
        "postalCode": "P6B4H8",
        "streetName": "NORTHERN",
        "streetDirectionId": "E",
        "streetTypeId": "AVE",
        "placeName": "SAULT STE. MARIE",
        "streetNameDisplayText": "NORTHERN AVE E, SAULT STE. MARIE"
      }
    ]
  },
  {
    "postal": "P6B6R1",
    "result": []
  },
  {
    "postal": "P6B1S0",
    "result": []
  },
  {
    "postal": "P6B3W8",
    "result": [
      {
        "electoralDistricts": [
          {
            "election": null,
            "id": 92,
            "name": "Sault Ste. Marie"
          }
        ],
        "pollDivisionIds": [
          10141476
        ],
        "postalCode": "P6B3W8",
        "streetName": "WILLOUGHBY",
        "streetDirectionId": null,
        "streetTypeId": "ST",
        "placeName": "SAULT STE. MARIE",
        "streetNameDisplayText": "WILLOUGHBY ST, SAULT STE. MARIE"
      }
    ]
  },
  {
    "postal": "P6B4S3",
    "result": [
      {
        "electoralDistricts": [
          {
            "election": null,
            "id": 92,
            "name": "Sault Ste. Marie"
          }
        ],
        "pollDivisionIds": [
          10141473
        ],
        "postalCode": "P6B4S3",
        "streetName": "GRAND",
        "streetDirectionId": null,
        "streetTypeId": "BLVD",
        "placeName": "SAULT STE. MARIE",
        "streetNameDisplayText": "GRAND BLVD, SAULT STE. MARIE"
      }
    ]
  },
  {
    "postal": "P6B1B6",
    "result": [
      {
        "electoralDistricts": [
          {
            "election": null,
            "id": 92,
            "name": "Sault Ste. Marie"
          }
        ],
        "pollDivisionIds": [
          10141480
        ],
        "postalCode": "P6B1B6",
        "streetName": "WEMYSS",
        "streetDirectionId": null,
        "streetTypeId": "ST",
        "placeName": "SAULT STE. MARIE",
        "streetNameDisplayText": "WEMYSS ST, SAULT STE. MARIE"
      }
    ]
  },
  {
    "postal": "P6B8R3",
    "result": []
  },
  {
    "postal": "P6B4V9",
    "result": [
      {
        "electoralDistricts": [
          {
            "election": null,
            "id": 92,
            "name": "Sault Ste. Marie"
          }
        ],
        "pollDivisionIds": [
          10141474
        ],
        "postalCode": "P6B4V9",
        "streetName": "ELMWOOD",
        "streetDirectionId": null,
        "streetTypeId": "AVE",
        "placeName": "SAULT STE. MARIE",
        "streetNameDisplayText": "ELMWOOD AVE, SAULT STE. MARIE"
      }
    ]
  },
  {
    "postal": "P6B9W4",
    "result": []
  },
  {
    "postal": "P6B3T4",
    "result": []
  },
  {
    "postal": "P6B5C7",
    "result": [
      {
        "electoralDistricts": [
          {
            "election": null,
            "id": 92,
            "name": "Sault Ste. Marie"
          }
        ],
        "pollDivisionIds": [
          10141476
        ],
        "postalCode": "P6B5C7",
        "streetName": "LESLIE",
        "streetDirectionId": null,
        "streetTypeId": "ST",
        "placeName": "SAULT STE. MARIE",
        "streetNameDisplayText": "LESLIE ST, SAULT STE. MARIE"
      }
    ]
  },
  {
    "postal": "P6B3Y1",
    "result": [
      {
        "electoralDistricts": [
          {
            "election": null,
            "id": 92,
            "name": "Sault Ste. Marie"
          }
        ],
        "pollDivisionIds": [
          10141474
        ],
        "postalCode": "P6B3Y1",
        "streetName": "KNOX",
        "streetDirectionId": null,
        "streetTypeId": "AVE",
        "placeName": "SAULT STE. MARIE",
        "streetNameDisplayText": "KNOX AVE, SAULT STE. MARIE"
      }
    ]
  },
  {
    "postal": "P6B5V0",
    "result": []
  },
  {
    "postal": "P6B8G8",
    "result": []
  },
  {
    "postal": "P6B8B1",
    "result": []
  },
  {
    "postal": "P6B4P5",
    "result": [
      {
        "electoralDistricts": [
          {
            "election": null,
            "id": 92,
            "name": "Sault Ste. Marie"
          }
        ],
        "pollDivisionIds": [
          10141467
        ],
        "postalCode": "P6B4P5",
        "streetName": "ANITA",
        "streetDirectionId": null,
        "streetTypeId": "BLVD",
        "placeName": "SAULT STE. MARIE",
        "streetNameDisplayText": "ANITA BLVD, SAULT STE. MARIE"
      }
    ]
  },
  {
    "postal": "P6B7B2",
    "result": []
  },
  {
    "postal": "P6B0R2",
    "result": []
  },
  {
    "postal": "P6B4M4",
    "result": [
      {
        "electoralDistricts": [
          {
            "election": null,
            "id": 92,
            "name": "Sault Ste. Marie"
          }
        ],
        "pollDivisionIds": [
          10141469
        ],
        "postalCode": "P6B4M4",
        "streetName": "NORTHWOOD",
        "streetDirectionId": null,
        "streetTypeId": "ST",
        "placeName": "SAULT STE. MARIE",
        "streetNameDisplayText": "NORTHWOOD ST, SAULT STE. MARIE"
      }
    ]
  },
  {
    "postal": "P6B7M4",
    "result": []
  },
  {
    "postal": "P6B9S7",
    "result": []
  },
  {
    "postal": "P6B5Z7",
    "result": [
      {
        "electoralDistricts": [
          {
            "election": null,
            "id": 92,
            "name": "Sault Ste. Marie"
          }
        ],
        "pollDivisionIds": [
          10141470
        ],
        "postalCode": "P6B5Z7",
        "streetName": "CRYSTAL",
        "streetDirectionId": null,
        "streetTypeId": "PL",
        "placeName": "SAULT STE.  MARIE",
        "streetNameDisplayText": "CRYSTAL PL, SAULT STE.  MARIE"
      },
      {
        "electoralDistricts": [
          {
            "election": null,
            "id": 92,
            "name": "Sault Ste. Marie"
          }
        ],
        "pollDivisionIds": [
          10141470
        ],
        "postalCode": "P6B5Z7",
        "streetName": "CRYSTAL",
        "streetDirectionId": null,
        "streetTypeId": "PL",
        "placeName": "SAULT STE. MARIE",
        "streetNameDisplayText": "CRYSTAL PL, SAULT STE. MARIE"
      }
    ]
  },
  {
    "postal": "P6B7J7",
    "result": []
  },
  {
    "postal": "P6B8R8",
    "result": []
  },
  {
    "postal": "P6B9X1",
    "result": []
  },
  {
    "postal": "P6B5M9",
    "result": [
      {
        "electoralDistricts": [
          {
            "election": null,
            "id": 92,
            "name": "Sault Ste. Marie"
          }
        ],
        "pollDivisionIds": [
          10141487
        ],
        "postalCode": "P6B5M9",
        "streetName": "VERA",
        "streetDirectionId": null,
        "streetTypeId": "ST",
        "placeName": "SAULT STE. MARIE",
        "streetNameDisplayText": "VERA ST, SAULT STE. MARIE"
      }
    ]
  },
  {
    "postal": "P6B9B4",
    "result": []
  },
  {
    "postal": "P6B0L9",
    "result": []
  },
  {
    "postal": "P6B9G4",
    "result": []
  },
  {
    "postal": "P6B1J4",
    "result": [
      {
        "electoralDistricts": [
          {
            "election": null,
            "id": 92,
            "name": "Sault Ste. Marie"
          }
        ],
        "pollDivisionIds": [
          10141482
        ],
        "postalCode": "P6B1J4",
        "streetName": "MACDONALD",
        "streetDirectionId": null,
        "streetTypeId": "AVE",
        "placeName": "SAULT STE. MARIE",
        "streetNameDisplayText": "MACDONALD AVE, SAULT STE. MARIE"
      }
    ]
  },
  {
    "postal": "P6B0W6",
    "result": []
  }
]
