[
  {
    "postal": "M6E9J6",
    "result": []
  },
  {
    "postal": "M6E9Z5",
    "result": []
  },
  {
    "postal": "M6E7H8",
    "result": []
  },
  {
    "postal": "M6E0P6",
    "result": []
  },
  {
    "postal": "M6E0S7",
    "result": []
  },
  {
    "postal": "M6E8B9",
    "result": []
  },
  {
    "postal": "M6E2A6",
    "result": [
      {
        "electoralDistricts": [
          {
            "election": null,
            "id": 111,
            "name": "Toronto—St. Paul's"
          }
        ],
        "pollDivisionIds": [
          10143668
        ],
        "postalCode": "M6E2A6",
        "streetName": "ALLENVALE",
        "streetDirectionId": null,
        "streetTypeId": "AVE",
        "placeName": "YORK",
        "streetNameDisplayText": "ALLENVALE AVE, YORK"
      }
    ]
  },
  {
    "postal": "M6E7V2",
    "result": []
  },
  {
    "postal": "M6E9P4",
    "result": []
  },
  {
    "postal": "M6E6G0",
    "result": []
  },
  {
    "postal": "M6E2K0",
    "result": []
  },
  {
    "postal": "M6E7N6",
    "result": []
  },
  {
    "postal": "M6E5R3",
    "result": []
  },
  {
    "postal": "M6E7K0",
    "result": []
  },
  {
    "postal": "M6E3R2",
    "result": [
      {
        "electoralDistricts": [
          {
            "election": null,
            "id": 19,
            "name": "Davenport"
          }
        ],
        "pollDivisionIds": [
          10136080
        ],
        "postalCode": "M6E3R2",
        "streetName": "DUFFERIN",
        "streetDirectionId": null,
        "streetTypeId": "ST",
        "placeName": "YORK",
        "streetNameDisplayText": "DUFFERIN ST, YORK"
      }
    ]
  },
  {
    "postal": "M6E0J1",
    "result": []
  },
  {
    "postal": "M6E0B0",
    "result": []
  },
  {
    "postal": "M6E5Z2",
    "result": []
  },
  {
    "postal": "M6E7P3",
    "result": []
  },
  {
    "postal": "M6E2K3",
    "result": [
      {
        "electoralDistricts": [
          {
            "election": null,
            "id": 25,
            "name": "Eglinton—Lawrence"
          }
        ],
        "pollDivisionIds": [
          10137913
        ],
        "postalCode": "M6E2K3",
        "streetName": "EGLINTON",
        "streetDirectionId": "W",
        "streetTypeId": "AVE",
        "placeName": "YORK",
        "streetNameDisplayText": "EGLINTON AVE W, YORK"
      }
    ]
  },
  {
    "postal": "M6E7Y6",
    "result": []
  },
  {
    "postal": "M6E1L9",
    "result": []
  },
  {
    "postal": "M6E8T0",
    "result": []
  },
  {
    "postal": "M6E3K8",
    "result": [
      {
        "electoralDistricts": [
          {
            "election": null,
            "id": 19,
            "name": "Davenport"
          }
        ],
        "pollDivisionIds": [
          10136079
        ],
        "postalCode": "M6E3K8",
        "streetName": "NORTHCLIFFE",
        "streetDirectionId": null,
        "streetTypeId": "BLVD",
        "placeName": "YORK",
        "streetNameDisplayText": "NORTHCLIFFE BLVD, YORK"
      }
    ]
  },
  {
    "postal": "M6E5W9",
    "result": []
  },
  {
    "postal": "M6E6T9",
    "result": []
  },
  {
    "postal": "M6E4H1",
    "result": [
      {
        "electoralDistricts": [
          {
            "election": null,
            "id": 19,
            "name": "Davenport"
          }
        ],
        "pollDivisionIds": [
          10136083
        ],
        "postalCode": "M6E4H1",
        "streetName": "NAIRN",
        "streetDirectionId": null,
        "streetTypeId": "AVE",
        "placeName": "TORONTO",
        "streetNameDisplayText": "NAIRN AVE, TORONTO"
      }
    ]
  },
  {
    "postal": "M6E7A2",
    "result": []
  },
  {
    "postal": "M6E5G0",
    "result": []
  },
  {
    "postal": "M6E8V5",
    "result": []
  },
  {
    "postal": "M6E2Y8",
    "result": [
      {
        "electoralDistricts": [
          {
            "election": null,
            "id": 111,
            "name": "Toronto—St. Paul's"
          }
        ],
        "pollDivisionIds": [
          10136028
        ],
        "postalCode": "M6E2Y8",
        "streetName": "VAUGHAN",
        "streetDirectionId": null,
        "streetTypeId": "RD",
        "placeName": "YORK",
        "streetNameDisplayText": "VAUGHAN RD, YORK"
      }
    ]
  },
  {
    "postal": "M6E2B6",
    "result": [
      {
        "electoralDistricts": [
          {
            "election": null,
            "id": 19,
            "name": "Davenport"
          }
        ],
        "pollDivisionIds": [
          10136077,
          10136076
        ],
        "postalCode": "M6E2B6",
        "streetName": "KITCHENER",
        "streetDirectionId": null,
        "streetTypeId": "AVE",
        "placeName": "YORK",
        "streetNameDisplayText": "KITCHENER AVE, YORK"
      }
    ]
  },
  {
    "postal": "M6E4W8",
    "result": [
      {
        "electoralDistricts": [
          {
            "election": null,
            "id": 19,
            "name": "Davenport"
          }
        ],
        "pollDivisionIds": [
          10136077
        ],
        "postalCode": "M6E4W8",
        "streetName": "GILBERT",
        "streetDirectionId": null,
        "streetTypeId": "AVE",
        "placeName": "YORK",
        "streetNameDisplayText": "GILBERT AVE, YORK"
      }
    ]
  },
  {
    "postal": "M6E8H7",
    "result": []
  },
  {
    "postal": "M6E5P1",
    "result": []
  },
  {
    "postal": "M6E2B8",
    "result": [
      {
        "electoralDistricts": [
          {
            "election": null,
            "id": 19,
            "name": "Davenport"
          }
        ],
        "pollDivisionIds": [
          10136077
        ],
        "postalCode": "M6E2B8",
        "streetName": "KITCHENER",
        "streetDirectionId": null,
        "streetTypeId": "AVE",
        "placeName": "YORK",
        "streetNameDisplayText": "KITCHENER AVE, YORK"
      }
    ]
  },
  {
    "postal": "M6E0P2",
    "result": []
  },
  {
    "postal": "M6E9M1",
    "result": []
  },
  {
    "postal": "M6E3G0",
    "result": []
  },
  {
    "postal": "M6E9Z2",
    "result": []
  },
  {
    "postal": "M6E2A0",
    "result": []
  },
  {
    "postal": "M6E6Y0",
    "result": []
  },
  {
    "postal": "M6E2Z8",
    "result": [
      {
        "electoralDistricts": [
          {
            "election": null,
            "id": 19,
            "name": "Davenport"
          }
        ],
        "pollDivisionIds": [
          10136079
        ],
        "postalCode": "M6E2Z8",
        "streetName": "CRANG",
        "streetDirectionId": null,
        "streetTypeId": "AVE",
        "placeName": "TORONTO",
        "streetNameDisplayText": "CRANG AVE, TORONTO"
      }
    ]
  },
  {
    "postal": "M6E7Y3",
    "result": []
  },
  {
    "postal": "M6E6Z5",
    "result": []
  },
  {
    "postal": "M6E6E0",
    "result": []
  },
  {
    "postal": "M6E9B7",
    "result": []
  },
  {
    "postal": "M6E9S5",
    "result": []
  },
  {
    "postal": "M6E3X3",
    "result": [
      {
        "electoralDistricts": [
          {
            "election": null,
            "id": 19,
            "name": "Davenport"
          }
        ],
        "pollDivisionIds": [
          10136075
        ],
        "postalCode": "M6E3X3",
        "streetName": "DYNEVOR",
        "streetDirectionId": null,
        "streetTypeId": "RD",
        "placeName": "YORK",
        "streetNameDisplayText": "DYNEVOR RD, YORK"
      }
    ]
  },
  {
    "postal": "M6E7R5",
    "result": []
  },
  {
    "postal": "M6E2X3",
    "result": [
      {
        "electoralDistricts": [
          {
            "election": null,
            "id": 111,
            "name": "Toronto—St. Paul's"
          }
        ],
        "pollDivisionIds": [
          10143668
        ],
        "postalCode": "M6E2X3",
        "streetName": "OAKWOOD",
        "streetDirectionId": null,
        "streetTypeId": "AVE",
        "placeName": "YORK",
        "streetNameDisplayText": "OAKWOOD AVE, YORK"
      }
    ]
  },
  {
    "postal": "M6E8Z9",
    "result": []
  },
  {
    "postal": "M6E0N4",
    "result": []
  },
  {
    "postal": "M6E1K1",
    "result": [
      {
        "electoralDistricts": [
          {
            "election": null,
            "id": 19,
            "name": "Davenport"
          }
        ],
        "pollDivisionIds": [
          10136080,
          10136083
        ],
        "postalCode": "M6E1K1",
        "streetName": "HOPE",
        "streetDirectionId": null,
        "streetTypeId": "ST",
        "placeName": "TORONTO",
        "streetNameDisplayText": "HOPE ST, TORONTO"
      }
    ]
  },
  {
    "postal": "M6E1S3",
    "result": [
      {
        "electoralDistricts": [
          {
            "election": null,
            "id": 19,
            "name": "Davenport"
          }
        ],
        "pollDivisionIds": [
          10136076
        ],
        "postalCode": "M6E1S3",
        "streetName": "BLOEM",
        "streetDirectionId": null,
        "streetTypeId": "AVE",
        "placeName": "YORK",
        "streetNameDisplayText": "BLOEM AVE, YORK"
      }
    ]
  },
  {
    "postal": "M6E6M4",
    "result": []
  },
  {
    "postal": "M6E9A9",
    "result": []
  },
  {
    "postal": "M6E9Z9",
    "result": []
  },
  {
    "postal": "M6E6T4",
    "result": []
  },
  {
    "postal": "M6E0B2",
    "result": []
  },
  {
    "postal": "M6E2L9",
    "result": [
      {
        "electoralDistricts": [
          {
            "election": null,
            "id": 25,
            "name": "Eglinton—Lawrence"
          }
        ],
        "pollDivisionIds": [
          10137915
        ],
        "postalCode": "M6E2L9",
        "streetName": "LIVINGSTONE",
        "streetDirectionId": null,
        "streetTypeId": "AVE",
        "placeName": "TORONTO",
        "streetNameDisplayText": "LIVINGSTONE AVE, TORONTO"
      },
      {
        "electoralDistricts": [
          {
            "election": null,
            "id": 25,
            "name": "Eglinton—Lawrence"
          }
        ],
        "pollDivisionIds": [
          10137915
        ],
        "postalCode": "M6E2L9",
        "streetName": "LIVINGSTONE",
        "streetDirectionId": null,
        "streetTypeId": "AVE",
        "placeName": "YORK",
        "streetNameDisplayText": "LIVINGSTONE AVE, YORK"
      }
    ]
  },
  {
    "postal": "M6E8K9",
    "result": []
  },
  {
    "postal": "M6E2H9",
    "result": []
  },
  {
    "postal": "M6E3Z6",
    "result": [
      {
        "electoralDistricts": [
          {
            "election": null,
            "id": 19,
            "name": "Davenport"
          }
        ],
        "pollDivisionIds": [
          10136080
        ],
        "postalCode": "M6E3Z6",
        "streetName": "BOON",
        "streetDirectionId": null,
        "streetTypeId": "AVE",
        "placeName": "TORONTO",
        "streetNameDisplayText": "BOON AVE, TORONTO"
      }
    ]
  },
  {
    "postal": "M6E3B0",
    "result": []
  },
  {
    "postal": "M6E2H8",
    "result": [
      {
        "electoralDistricts": [
          {
            "election": null,
            "id": 111,
            "name": "Toronto—St. Paul's"
          }
        ],
        "pollDivisionIds": [
          10136028
        ],
        "postalCode": "M6E2H8",
        "streetName": "EGLINGTON",
        "streetDirectionId": "W",
        "streetTypeId": "AVE",
        "placeName": "YORK",
        "streetNameDisplayText": "EGLINGTON AVE W, YORK"
      },
      {
        "electoralDistricts": [
          {
            "election": null,
            "id": 111,
            "name": "Toronto—St. Paul's"
          }
        ],
        "pollDivisionIds": [
          10136028
        ],
        "postalCode": "M6E2H8",
        "streetName": "EGLINTON",
        "streetDirectionId": "W",
        "streetTypeId": "AVE",
        "placeName": "YORK",
        "streetNameDisplayText": "EGLINTON AVE W, YORK"
      }
    ]
  },
  {
    "postal": "M6E3X2",
    "result": [
      {
        "electoralDistricts": [
          {
            "election": null,
            "id": 19,
            "name": "Davenport"
          }
        ],
        "pollDivisionIds": [
          10136075
        ],
        "postalCode": "M6E3X2",
        "streetName": "DYNEVOR",
        "streetDirectionId": null,
        "streetTypeId": "RD",
        "placeName": "YORK",
        "streetNameDisplayText": "DYNEVOR RD, YORK"
      }
    ]
  },
  {
    "postal": "M6E2E9",
    "result": [
      {
        "electoralDistricts": [
          {
            "election": null,
            "id": 111,
            "name": "Toronto—St. Paul's"
          }
        ],
        "pollDivisionIds": [
          10136028
        ],
        "postalCode": "M6E2E9",
        "streetName": "GLOUCESTER",
        "streetDirectionId": null,
        "streetTypeId": "GROVE",
        "placeName": "YORK",
        "streetNameDisplayText": "GLOUCESTER GROVE, YORK"
      }
    ]
  },
  {
    "postal": "M6E9P6",
    "result": []
  },
  {
    "postal": "M6E9E2",
    "result": []
  },
  {
    "postal": "M6E9H2",
    "result": []
  },
  {
    "postal": "M6E1S8",
    "result": [
      {
        "electoralDistricts": [
          {
            "election": null,
            "id": 19,
            "name": "Davenport"
          }
        ],
        "pollDivisionIds": [
          10136076
        ],
        "postalCode": "M6E1S8",
        "streetName": "TEIGNMOUTH",
        "streetDirectionId": null,
        "streetTypeId": "AVE",
        "placeName": "YORK",
        "streetNameDisplayText": "TEIGNMOUTH AVE, YORK"
      }
    ]
  },
  {
    "postal": "M6E3M6",
    "result": [
      {
        "electoralDistricts": [
          {
            "election": null,
            "id": 19,
            "name": "Davenport"
          }
        ],
        "pollDivisionIds": [
          10136081
        ],
        "postalCode": "M6E3M6",
        "streetName": "WESTMOUNT",
        "streetDirectionId": null,
        "streetTypeId": "AVE",
        "placeName": "YORK",
        "streetNameDisplayText": "WESTMOUNT AVE, YORK"
      }
    ]
  },
  {
    "postal": "M6E6Z8",
    "result": []
  },
  {
    "postal": "M6E4J2",
    "result": [
      {
        "electoralDistricts": [
          {
            "election": null,
            "id": 19,
            "name": "Davenport"
          }
        ],
        "pollDivisionIds": [
          10136075
        ],
        "postalCode": "M6E4J2",
        "streetName": "NAIRN",
        "streetDirectionId": null,
        "streetTypeId": "AVE",
        "placeName": "YORK",
        "streetNameDisplayText": "NAIRN AVE, YORK"
      }
    ]
  },
  {
    "postal": "M6E9Y1",
    "result": []
  },
  {
    "postal": "M6E8V6",
    "result": []
  },
  {
    "postal": "M6E6B2",
    "result": []
  },
  {
    "postal": "M6E1P8",
    "result": [
      {
        "electoralDistricts": [
          {
            "election": null,
            "id": 19,
            "name": "Davenport"
          }
        ],
        "pollDivisionIds": [
          10136080
        ],
        "postalCode": "M6E1P8",
        "streetName": "ROGERS",
        "streetDirectionId": null,
        "streetTypeId": "RD",
        "placeName": "YORK",
        "streetNameDisplayText": "ROGERS RD, YORK"
      }
    ]
  },
  {
    "postal": "M6E0V8",
    "result": []
  },
  {
    "postal": "M6E4Y0",
    "result": []
  },
  {
    "postal": "M6E2T4",
    "result": []
  },
  {
    "postal": "M6E2S3",
    "result": [
      {
        "electoralDistricts": [
          {
            "election": null,
            "id": 25,
            "name": "Eglinton—Lawrence"
          }
        ],
        "pollDivisionIds": [
          10137915
        ],
        "postalCode": "M6E2S3",
        "streetName": "HOPEWELL",
        "streetDirectionId": null,
        "streetTypeId": "AVE",
        "placeName": "TORONTO",
        "streetNameDisplayText": "HOPEWELL AVE, TORONTO"
      }
    ]
  },
  {
    "postal": "M6E0K0",
    "result": []
  },
  {
    "postal": "M6E5N1",
    "result": []
  },
  {
    "postal": "M6E7T0",
    "result": []
  },
  {
    "postal": "M6E9N2",
    "result": []
  },
  {
    "postal": "M6E5L1",
    "result": []
  },
  {
    "postal": "M6E7G5",
    "result": []
  },
  {
    "postal": "M6E6K2",
    "result": []
  },
  {
    "postal": "M6E6P9",
    "result": []
  },
  {
    "postal": "M6E0E6",
    "result": []
  },
  {
    "postal": "M6E8R9",
    "result": []
  },
  {
    "postal": "M6E3G9",
    "result": [
      {
        "electoralDistricts": [
          {
            "election": null,
            "id": 111,
            "name": "Toronto—St. Paul's"
          }
        ],
        "pollDivisionIds": [
          10136028
        ],
        "postalCode": "M6E3G9",
        "streetName": "GLENHOLME",
        "streetDirectionId": null,
        "streetTypeId": "AVE",
        "placeName": "YORK",
        "streetNameDisplayText": "GLENHOLME AVE, YORK"
      }
    ]
  },
  {
    "postal": "M6E0V7",
    "result": []
  },
  {
    "postal": "M6E2Z1",
    "result": [
      {
        "electoralDistricts": [
          {
            "election": null,
            "id": 111,
            "name": "Toronto—St. Paul's"
          }
        ],
        "pollDivisionIds": [
          10136028
        ],
        "postalCode": "M6E2Z1",
        "streetName": "VAUGHAN",
        "streetDirectionId": null,
        "streetTypeId": "RD",
        "placeName": "YORK",
        "streetNameDisplayText": "VAUGHAN RD, YORK"
      }
    ]
  },
  {
    "postal": "M6E7N1",
    "result": []
  },
  {
    "postal": "M6E3C6",
    "result": [
      {
        "electoralDistricts": [
          {
            "election": null,
            "id": 19,
            "name": "Davenport"
          }
        ],
        "pollDivisionIds": [
          10136079
        ],
        "postalCode": "M6E3C6",
        "streetName": "GLENHOLME",
        "streetDirectionId": null,
        "streetTypeId": "AVE",
        "placeName": "YORK",
        "streetNameDisplayText": "GLENHOLME AVE, YORK"
      }
    ]
  },
  {
    "postal": "M6E4M1",
    "result": [
      {
        "electoralDistricts": [
          {
            "election": null,
            "id": 19,
            "name": "Davenport"
          }
        ],
        "pollDivisionIds": [
          10136075
        ],
        "postalCode": "M6E4M1",
        "streetName": "HARVIE",
        "streetDirectionId": null,
        "streetTypeId": "AVE",
        "placeName": "YORK",
        "streetNameDisplayText": "HARVIE AVE, YORK"
      }
    ]
  },
  {
    "postal": "M6E9K2",
    "result": []
  },
  {
    "postal": "M6E9S6",
    "result": []
  },
  {
    "postal": "M6E4X1",
    "result": [
      {
        "electoralDistricts": [
          {
            "election": null,
            "id": 19,
            "name": "Davenport"
          }
        ],
        "pollDivisionIds": [
          10136077
        ],
        "postalCode": "M6E4X1",
        "streetName": "GILBERT",
        "streetDirectionId": null,
        "streetTypeId": "AVE",
        "placeName": "YORK",
        "streetNameDisplayText": "GILBERT AVE, YORK"
      }
    ]
  },
  {
    "postal": "M6E8W2",
    "result": []
  },
  {
    "postal": "M6E7N2",
    "result": []
  },
  {
    "postal": "M6E8S3",
    "result": []
  },
  {
    "postal": "M6E4V0",
    "result": []
  },
  {
    "postal": "M6E6W4",
    "result": []
  },
  {
    "postal": "M6E5M1",
    "result": []
  },
  {
    "postal": "M6E0S4",
    "result": []
  },
  {
    "postal": "M6E5X6",
    "result": []
  },
  {
    "postal": "M6E8L5",
    "result": []
  },
  {
    "postal": "M6E5M8",
    "result": []
  },
  {
    "postal": "M6E2G3",
    "result": [
      {
        "electoralDistricts": [
          {
            "election": null,
            "id": 111,
            "name": "Toronto—St. Paul's"
          }
        ],
        "pollDivisionIds": [
          10136028
        ],
        "postalCode": "M6E2G3",
        "streetName": "LANARK",
        "streetDirectionId": null,
        "streetTypeId": "AVE",
        "placeName": "YORK",
        "streetNameDisplayText": "LANARK AVE, YORK"
      }
    ]
  },
  {
    "postal": "M6E8E4",
    "result": []
  },
  {
    "postal": "M6E7S9",
    "result": []
  },
  {
    "postal": "M6E1K3",
    "result": [
      {
        "electoralDistricts": [
          {
            "election": null,
            "id": 19,
            "name": "Davenport"
          }
        ],
        "pollDivisionIds": [
          10136083
        ],
        "postalCode": "M6E1K3",
        "streetName": "HOPE",
        "streetDirectionId": null,
        "streetTypeId": "ST",
        "placeName": "TORONTO",
        "streetNameDisplayText": "HOPE ST, TORONTO"
      }
    ]
  },
  {
    "postal": "M6E4E1",
    "result": [
      {
        "electoralDistricts": [
          {
            "election": null,
            "id": 19,
            "name": "Davenport"
          }
        ],
        "pollDivisionIds": [
          10136075
        ],
        "postalCode": "M6E4E1",
        "streetName": "ENNERDALE",
        "streetDirectionId": null,
        "streetTypeId": "RD",
        "placeName": "YORK",
        "streetNameDisplayText": "ENNERDALE RD, YORK"
      }
    ]
  },
  {
    "postal": "M6E4R2",
    "result": [
      {
        "electoralDistricts": [
          {
            "election": null,
            "id": 19,
            "name": "Davenport"
          }
        ],
        "pollDivisionIds": [
          10136077
        ],
        "postalCode": "M6E4R2",
        "streetName": "MCROBERTS",
        "streetDirectionId": null,
        "streetTypeId": "AVE",
        "placeName": "YORK",
        "streetNameDisplayText": "MCROBERTS AVE, YORK"
      }
    ]
  },
  {
    "postal": "M6E6T0",
    "result": []
  },
  {
    "postal": "M6E3K5",
    "result": [
      {
        "electoralDistricts": [
          {
            "election": null,
            "id": 19,
            "name": "Davenport"
          }
        ],
        "pollDivisionIds": [
          10136081
        ],
        "postalCode": "M6E3K5",
        "streetName": "NORTHCLIFFE",
        "streetDirectionId": null,
        "streetTypeId": "BLVD",
        "placeName": "YORK",
        "streetNameDisplayText": "NORTHCLIFFE BLVD, YORK"
      }
    ]
  },
  {
    "postal": "M6E3S3",
    "result": [
      {
        "electoralDistricts": [
          {
            "election": null,
            "id": 19,
            "name": "Davenport"
          }
        ],
        "pollDivisionIds": [
          10136075
        ],
        "postalCode": "M6E3S3",
        "streetName": "DUFFERIN",
        "streetDirectionId": null,
        "streetTypeId": "ST",
        "placeName": "YORK",
        "streetNameDisplayText": "DUFFERIN ST, YORK"
      }
    ]
  },
  {
    "postal": "M6E3L4",
    "result": [
      {
        "electoralDistricts": [
          {
            "election": null,
            "id": 111,
            "name": "Toronto—St. Paul's"
          }
        ],
        "pollDivisionIds": [
          10143668
        ],
        "postalCode": "M6E3L4",
        "streetName": "NORTHCLIFFE",
        "streetDirectionId": null,
        "streetTypeId": "BLVD",
        "placeName": "YORK",
        "streetNameDisplayText": "NORTHCLIFFE BLVD, YORK"
      }
    ]
  },
  {
    "postal": "M6E9Y2",
    "result": []
  },
  {
    "postal": "M6E1E0",
    "result": []
  },
  {
    "postal": "M6E9A4",
    "result": []
  },
  {
    "postal": "M6E1L3",
    "result": [
      {
        "electoralDistricts": [
          {
            "election": null,
            "id": 19,
            "name": "Davenport"
          }
        ],
        "pollDivisionIds": [
          10136079
        ],
        "postalCode": "M6E1L3",
        "streetName": "EARLSDALE",
        "streetDirectionId": null,
        "streetTypeId": "AVE",
        "placeName": "YORK",
        "streetNameDisplayText": "EARLSDALE AVE, YORK"
      }
    ]
  },
  {
    "postal": "M6E6N1",
    "result": []
  },
  {
    "postal": "M6E6G7",
    "result": []
  },
  {
    "postal": "M6E7W1",
    "result": []
  },
  {
    "postal": "M6E4M6",
    "result": [
      {
        "electoralDistricts": [
          {
            "election": null,
            "id": 25,
            "name": "Eglinton—Lawrence"
          }
        ],
        "pollDivisionIds": [
          10137913
        ],
        "postalCode": "M6E4M6",
        "streetName": "RONALD",
        "streetDirectionId": null,
        "streetTypeId": "AVE",
        "placeName": "YORK",
        "streetNameDisplayText": "RONALD AVE, YORK"
      }
    ]
  },
  {
    "postal": "M6E1K0",
    "result": []
  },
  {
    "postal": "M6E3E2",
    "result": [
      {
        "electoralDistricts": [
          {
            "election": null,
            "id": 19,
            "name": "Davenport"
          }
        ],
        "pollDivisionIds": [
          10136079
        ],
        "postalCode": "M6E3E2",
        "streetName": "GLENHOLME",
        "streetDirectionId": null,
        "streetTypeId": "AVE",
        "placeName": "YORK",
        "streetNameDisplayText": "GLENHOLME AVE, YORK"
      }
    ]
  },
  {
    "postal": "M6E5H4",
    "result": []
  },
  {
    "postal": "M6E1K7",
    "result": [
      {
        "electoralDistricts": [
          {
            "election": null,
            "id": 19,
            "name": "Davenport"
          }
        ],
        "pollDivisionIds": [
          10136081
        ],
        "postalCode": "M6E1K7",
        "streetName": "ROSECLIFFE",
        "streetDirectionId": null,
        "streetTypeId": "AVE",
        "placeName": "YORK",
        "streetNameDisplayText": "ROSECLIFFE AVE, YORK"
      }
    ]
  },
  {
    "postal": "M6E0H0",
    "result": []
  },
  {
    "postal": "M6E0J3",
    "result": []
  },
  {
    "postal": "M6E1X6",
    "result": [
      {
        "electoralDistricts": [
          {
            "election": null,
            "id": 19,
            "name": "Davenport"
          }
        ],
        "pollDivisionIds": [
          10136077
        ],
        "postalCode": "M6E1X6",
        "streetName": "SUMMIT",
        "streetDirectionId": null,
        "streetTypeId": "AVE",
        "placeName": "YORK",
        "streetNameDisplayText": "SUMMIT AVE, YORK"
      }
    ]
  },
  {
    "postal": "M6E2Z6",
    "result": [
      {
        "electoralDistricts": [
          {
            "election": null,
            "id": 111,
            "name": "Toronto—St. Paul's"
          }
        ],
        "pollDivisionIds": [
          10136028
        ],
        "postalCode": "M6E2Z6",
        "streetName": "VAUGHAN",
        "streetDirectionId": null,
        "streetTypeId": "RD",
        "placeName": "YORK",
        "streetNameDisplayText": "VAUGHAN RD, YORK"
      }
    ]
  },
  {
    "postal": "M6E4R9",
    "result": [
      {
        "electoralDistricts": [
          {
            "election": null,
            "id": 25,
            "name": "Eglinton—Lawrence"
          }
        ],
        "pollDivisionIds": [
          10137913
        ],
        "postalCode": "M6E4R9",
        "streetName": "SNIDER",
        "streetDirectionId": null,
        "streetTypeId": "AVE",
        "placeName": "YORK",
        "streetNameDisplayText": "SNIDER AVE, YORK"
      }
    ]
  },
  {
    "postal": "M6E0W8",
    "result": []
  },
  {
    "postal": "M6E1L4",
    "result": [
      {
        "electoralDistricts": [
          {
            "election": null,
            "id": 19,
            "name": "Davenport"
          }
        ],
        "pollDivisionIds": [
          10136079
        ],
        "postalCode": "M6E1L4",
        "streetName": "O'LEARY",
        "streetDirectionId": null,
        "streetTypeId": "AV",
        "placeName": "YORK",
        "streetNameDisplayText": "O'LEARY AV, YORK"
      },
      {
        "electoralDistricts": [
          {
            "election": null,
            "id": 19,
            "name": "Davenport"
          }
        ],
        "pollDivisionIds": [
          10136079
        ],
        "postalCode": "M6E1L4",
        "streetName": "O'LEARY",
        "streetDirectionId": null,
        "streetTypeId": "AVE",
        "placeName": "YORK",
        "streetNameDisplayText": "O'LEARY AVE, YORK"
      }
    ]
  },
  {
    "postal": "M6E0C8",
    "result": []
  },
  {
    "postal": "M6E9X7",
    "result": []
  },
  {
    "postal": "M6E4T1",
    "result": [
      {
        "electoralDistricts": [
          {
            "election": null,
            "id": 19,
            "name": "Davenport"
          }
        ],
        "pollDivisionIds": [
          10136078
        ],
        "postalCode": "M6E4T1",
        "streetName": "CALEDONIA",
        "streetDirectionId": null,
        "streetTypeId": "RD",
        "placeName": "TORONTO",
        "streetNameDisplayText": "CALEDONIA RD, TORONTO"
      }
    ]
  },
  {
    "postal": "M6E0M0",
    "result": []
  },
  {
    "postal": "M6E6A2",
    "result": []
  },
  {
    "postal": "M6E9S8",
    "result": []
  },
  {
    "postal": "M6E9T4",
    "result": []
  },
  {
    "postal": "M6E9Y4",
    "result": []
  },
  {
    "postal": "M6E6G5",
    "result": []
  },
  {
    "postal": "M6E6H9",
    "result": []
  },
  {
    "postal": "M6E2P3",
    "result": [
      {
        "electoralDistricts": [
          {
            "election": null,
            "id": 25,
            "name": "Eglinton—Lawrence"
          }
        ],
        "pollDivisionIds": [
          10137913
        ],
        "postalCode": "M6E2P3",
        "streetName": "BOWIE",
        "streetDirectionId": null,
        "streetTypeId": "AVE",
        "placeName": "YORK",
        "streetNameDisplayText": "BOWIE AVE, YORK"
      }
    ]
  },
  {
    "postal": "M6E1T6",
    "result": [
      {
        "electoralDistricts": [
          {
            "election": null,
            "id": 19,
            "name": "Davenport"
          }
        ],
        "pollDivisionIds": [
          10136076
        ],
        "postalCode": "M6E1T6",
        "streetName": "EVERSFIELD",
        "streetDirectionId": null,
        "streetTypeId": "RD",
        "placeName": "YORK",
        "streetNameDisplayText": "EVERSFIELD RD, YORK"
      }
    ]
  },
  {
    "postal": "M6E4P6",
    "result": [
      {
        "electoralDistricts": [
          {
            "election": null,
            "id": 19,
            "name": "Davenport"
          }
        ],
        "pollDivisionIds": [
          10136078
        ],
        "postalCode": "M6E4P6",
        "streetName": "MCROBERTS",
        "streetDirectionId": null,
        "streetTypeId": "AVE",
        "placeName": "TORONTO",
        "streetNameDisplayText": "MCROBERTS AVE, TORONTO"
      }
    ]
  },
  {
    "postal": "M6E3K1",
    "result": [
      {
        "electoralDistricts": [
          {
            "election": null,
            "id": 111,
            "name": "Toronto—St. Paul's"
          }
        ],
        "pollDivisionIds": [
          10136028,
          10143668
        ],
        "postalCode": "M6E3K1",
        "streetName": "LAUDER",
        "streetDirectionId": null,
        "streetTypeId": "AVE",
        "placeName": "YORK",
        "streetNameDisplayText": "LAUDER AVE, YORK"
      }
    ]
  },
  {
    "postal": "M6E6X4",
    "result": []
  },
  {
    "postal": "M6E4M8",
    "result": [
      {
        "electoralDistricts": [
          {
            "election": null,
            "id": 25,
            "name": "Eglinton—Lawrence"
          }
        ],
        "pollDivisionIds": [
          10137913
        ],
        "postalCode": "M6E4M8",
        "streetName": "RONALD",
        "streetDirectionId": null,
        "streetTypeId": "AVE",
        "placeName": "YORK",
        "streetNameDisplayText": "RONALD AVE, YORK"
      }
    ]
  },
  {
    "postal": "M6E2Y1",
    "result": [
      {
        "electoralDistricts": [
          {
            "election": null,
            "id": 111,
            "name": "Toronto—St. Paul's"
          }
        ],
        "pollDivisionIds": [
          10136028
        ],
        "postalCode": "M6E2Y1",
        "streetName": "OAKWOOD",
        "streetDirectionId": null,
        "streetTypeId": "AVE",
        "placeName": "YORK",
        "streetNameDisplayText": "OAKWOOD AVE, YORK"
      }
    ]
  },
  {
    "postal": "M6E6M1",
    "result": []
  },
  {
    "postal": "M6E5L8",
    "result": []
  },
  {
    "postal": "M6E3P6",
    "result": [
      {
        "electoralDistricts": [
          {
            "election": null,
            "id": 19,
            "name": "Davenport"
          }
        ],
        "pollDivisionIds": [
          10136080
        ],
        "postalCode": "M6E3P6",
        "streetName": "DUFFERIN",
        "streetDirectionId": null,
        "streetTypeId": "ST",
        "placeName": "TORONTO",
        "streetNameDisplayText": "DUFFERIN ST, TORONTO"
      }
    ]
  },
  {
    "postal": "M6E9A5",
    "result": []
  },
  {
    "postal": "M6E7K1",
    "result": []
  },
  {
    "postal": "M6E3J4",
    "result": [
      {
        "electoralDistricts": [
          {
            "election": null,
            "id": 111,
            "name": "Toronto—St. Paul's"
          }
        ],
        "pollDivisionIds": [
          10143668
        ],
        "postalCode": "M6E3J4",
        "streetName": "LAUDER",
        "streetDirectionId": null,
        "streetTypeId": "AVE",
        "placeName": "YORK",
        "streetNameDisplayText": "LAUDER AVE, YORK"
      }
    ]
  },
  {
    "postal": "M6E5E7",
    "result": []
  },
  {
    "postal": "M6E3A7",
    "result": [
      {
        "electoralDistricts": [
          {
            "election": null,
            "id": 111,
            "name": "Toronto—St. Paul's"
          }
        ],
        "pollDivisionIds": [
          10143668
        ],
        "postalCode": "M6E3A7",
        "streetName": "BLANDFORD",
        "streetDirectionId": null,
        "streetTypeId": "ST",
        "placeName": "YORK",
        "streetNameDisplayText": "BLANDFORD ST, YORK"
      }
    ]
  },
  {
    "postal": "M6E1B9",
    "result": [
      {
        "electoralDistricts": [
          {
            "election": null,
            "id": 19,
            "name": "Davenport"
          }
        ],
        "pollDivisionIds": [
          10136083
        ],
        "postalCode": "M6E1B9",
        "streetName": "ST CLAIR",
        "streetDirectionId": "W",
        "streetTypeId": "AVE",
        "placeName": "TORONTO",
        "streetNameDisplayText": "ST CLAIR AVE W, TORONTO"
      }
    ]
  },
  {
    "postal": "M6E9E8",
    "result": []
  },
  {
    "postal": "M6E1C9",
    "result": [
      {
        "electoralDistricts": [
          {
            "election": null,
            "id": 19,
            "name": "Davenport"
          }
        ],
        "pollDivisionIds": [
          10136083
        ],
        "postalCode": "M6E1C9",
        "streetName": "ST CLAIR",
        "streetDirectionId": "W",
        "streetTypeId": "AVE",
        "placeName": "TORONTO",
        "streetNameDisplayText": "ST CLAIR AVE W, TORONTO"
      }
    ]
  },
  {
    "postal": "M6E3B5",
    "result": [
      {
        "electoralDistricts": [
          {
            "election": null,
            "id": 25,
            "name": "Eglinton—Lawrence"
          }
        ],
        "pollDivisionIds": [
          10137915
        ],
        "postalCode": "M6E3B5",
        "streetName": "MARLEE",
        "streetDirectionId": null,
        "streetTypeId": "AVE",
        "placeName": "YORK",
        "streetNameDisplayText": "MARLEE AVE, YORK"
      }
    ]
  },
  {
    "postal": "M6E8R0",
    "result": []
  },
  {
    "postal": "M6E3P2",
    "result": [
      {
        "electoralDistricts": [
          {
            "election": null,
            "id": 19,
            "name": "Davenport"
          }
        ],
        "pollDivisionIds": [
          10136080
        ],
        "postalCode": "M6E3P2",
        "streetName": "DUFFERIN",
        "streetDirectionId": null,
        "streetTypeId": "ST",
        "placeName": "TORONTO",
        "streetNameDisplayText": "DUFFERIN ST, TORONTO"
      }
    ]
  },
  {
    "postal": "M6E5V4",
    "result": []
  },
  {
    "postal": "M6E4H0",
    "result": []
  },
  {
    "postal": "M6E4S7",
    "result": [
      {
        "electoralDistricts": [
          {
            "election": null,
            "id": 19,
            "name": "Davenport"
          }
        ],
        "pollDivisionIds": [
          10136078
        ],
        "postalCode": "M6E4S7",
        "streetName": "CALEDONIA",
        "streetDirectionId": null,
        "streetTypeId": "RD",
        "placeName": "NORTH YORK",
        "streetNameDisplayText": "CALEDONIA RD, NORTH YORK"
      },
      {
        "electoralDistricts": [
          {
            "election": null,
            "id": 19,
            "name": "Davenport"
          }
        ],
        "pollDivisionIds": [
          10136078,
          10136083
        ],
        "postalCode": "M6E4S7",
        "streetName": "CALEDONIA",
        "streetDirectionId": null,
        "streetTypeId": "RD",
        "placeName": "TORONTO",
        "streetNameDisplayText": "CALEDONIA RD, TORONTO"
      }
    ]
  },
  {
    "postal": "M6E6C2",
    "result": []
  },
  {
    "postal": "M6E8W3",
    "result": []
  },
  {
    "postal": "M6E4M5",
    "result": [
      {
        "electoralDistricts": [
          {
            "election": null,
            "id": 25,
            "name": "Eglinton—Lawrence"
          }
        ],
        "pollDivisionIds": [
          10137913
        ],
        "postalCode": "M6E4M5",
        "streetName": "RONALD",
        "streetDirectionId": null,
        "streetTypeId": "AVE",
        "placeName": "YORK",
        "streetNameDisplayText": "RONALD AVE, YORK"
      }
    ]
  },
  {
    "postal": "M6E5T1",
    "result": []
  },
  {
    "postal": "M6E3B3",
    "result": [
      {
        "electoralDistricts": [
          {
            "election": null,
            "id": 25,
            "name": "Eglinton—Lawrence"
          }
        ],
        "pollDivisionIds": [
          10137915
        ],
        "postalCode": "M6E3B3",
        "streetName": "MARLEE",
        "streetDirectionId": null,
        "streetTypeId": "AVE",
        "placeName": "TORONTO",
        "streetNameDisplayText": "MARLEE AVE, TORONTO"
      }
    ]
  },
  {
    "postal": "M6E6C6",
    "result": []
  },
  {
    "postal": "M6E7N8",
    "result": []
  },
  {
    "postal": "M6E2Y3",
    "result": [
      {
        "electoralDistricts": [
          {
            "election": null,
            "id": 111,
            "name": "Toronto—St. Paul's"
          }
        ],
        "pollDivisionIds": [
          10143668
        ],
        "postalCode": "M6E2Y3",
        "streetName": "VAUGHAN",
        "streetDirectionId": null,
        "streetTypeId": "RD",
        "placeName": "YORK",
        "streetNameDisplayText": "VAUGHAN RD, YORK"
      }
    ]
  },
  {
    "postal": "M6E2R6",
    "result": [
      {
        "electoralDistricts": [
          {
            "election": null,
            "id": 25,
            "name": "Eglinton—Lawrence"
          }
        ],
        "pollDivisionIds": [
          10137913
        ],
        "postalCode": "M6E2R6",
        "streetName": "BOWIE",
        "streetDirectionId": null,
        "streetTypeId": "AVE",
        "placeName": "YORK",
        "streetNameDisplayText": "BOWIE AVE, YORK"
      }
    ]
  },
  {
    "postal": "M6E7N3",
    "result": []
  },
  {
    "postal": "M6E8J2",
    "result": []
  },
  {
    "postal": "M6E6A9",
    "result": []
  },
  {
    "postal": "M6E3V2",
    "result": [
      {
        "electoralDistricts": [
          {
            "election": null,
            "id": 19,
            "name": "Davenport"
          }
        ],
        "pollDivisionIds": [
          10136080
        ],
        "postalCode": "M6E3V2",
        "streetName": "SELLERS",
        "streetDirectionId": null,
        "streetTypeId": "AVE",
        "placeName": "YORK",
        "streetNameDisplayText": "SELLERS AVE, YORK"
      }
    ]
  },
  {
    "postal": "M6E2N3",
    "result": [
      {
        "electoralDistricts": [
          {
            "election": null,
            "id": 25,
            "name": "Eglinton—Lawrence"
          }
        ],
        "pollDivisionIds": [
          10137913
        ],
        "postalCode": "M6E2N3",
        "streetName": "RAMSDEN",
        "streetDirectionId": null,
        "streetTypeId": "RD",
        "placeName": "YORK",
        "streetNameDisplayText": "RAMSDEN RD, YORK"
      }
    ]
  },
  {
    "postal": "M6E1S5",
    "result": [
      {
        "electoralDistricts": [
          {
            "election": null,
            "id": 19,
            "name": "Davenport"
          }
        ],
        "pollDivisionIds": [
          10136076
        ],
        "postalCode": "M6E1S5",
        "streetName": "TEIGNMOUTH",
        "streetDirectionId": null,
        "streetTypeId": "AVE",
        "placeName": "YORK",
        "streetNameDisplayText": "TEIGNMOUTH AVE, YORK"
      }
    ]
  },
  {
    "postal": "M6E4T7",
    "result": [
      {
        "electoralDistricts": [
          {
            "election": null,
            "id": 19,
            "name": "Davenport"
          }
        ],
        "pollDivisionIds": [
          10136077
        ],
        "postalCode": "M6E4T7",
        "streetName": "CALEDONIA",
        "streetDirectionId": null,
        "streetTypeId": "RD",
        "placeName": "YORK",
        "streetNameDisplayText": "CALEDONIA RD, YORK"
      }
    ]
  },
  {
    "postal": "M6E6Y7",
    "result": []
  },
  {
    "postal": "M6E0W7",
    "result": []
  },
  {
    "postal": "M6E2W9",
    "result": [
      {
        "electoralDistricts": [
          {
            "election": null,
            "id": 111,
            "name": "Toronto—St. Paul's"
          }
        ],
        "pollDivisionIds": [
          10136030
        ],
        "postalCode": "M6E2W9",
        "streetName": "OAKWOOD",
        "streetDirectionId": null,
        "streetTypeId": "AVE",
        "placeName": "YORK",
        "streetNameDisplayText": "OAKWOOD AVE, YORK"
      }
    ]
  },
  {
    "postal": "M6E8V0",
    "result": []
  },
  {
    "postal": "M6E0H4",
    "result": []
  },
  {
    "postal": "M6E2T1",
    "result": [
      {
        "electoralDistricts": [
          {
            "election": null,
            "id": 25,
            "name": "Eglinton—Lawrence"
          }
        ],
        "pollDivisionIds": [
          10137913
        ],
        "postalCode": "M6E2T1",
        "streetName": "SCHELL",
        "streetDirectionId": null,
        "streetTypeId": "AVE",
        "placeName": "YORK",
        "streetNameDisplayText": "SCHELL AVE, YORK"
      }
    ]
  },
  {
    "postal": "M6E1B1",
    "result": [
      {
        "electoralDistricts": [
          {
            "election": null,
            "id": 19,
            "name": "Davenport"
          }
        ],
        "pollDivisionIds": [
          10136087
        ],
        "postalCode": "M6E1B1",
        "streetName": "ST CLAIR",
        "streetDirectionId": "W",
        "streetTypeId": "AVE",
        "placeName": "TORONTO",
        "streetNameDisplayText": "ST CLAIR AVE W, TORONTO"
      }
    ]
  },
  {
    "postal": "M6E8B6",
    "result": []
  },
  {
    "postal": "M6E6H1",
    "result": []
  },
  {
    "postal": "M6E8T8",
    "result": []
  },
  {
    "postal": "M6E0T4",
    "result": []
  },
  {
    "postal": "M6E2C4",
    "result": [
      {
        "electoralDistricts": [
          {
            "election": null,
            "id": 19,
            "name": "Davenport"
          }
        ],
        "pollDivisionIds": [
          10136077
        ],
        "postalCode": "M6E2C4",
        "streetName": "KEITH",
        "streetDirectionId": null,
        "streetTypeId": "AVE",
        "placeName": "YORK",
        "streetNameDisplayText": "KEITH AVE, YORK"
      }
    ]
  },
  {
    "postal": "M6E8N3",
    "result": []
  },
  {
    "postal": "M6E4L8",
    "result": [
      {
        "electoralDistricts": [
          {
            "election": null,
            "id": 19,
            "name": "Davenport"
          }
        ],
        "pollDivisionIds": [
          10136076
        ],
        "postalCode": "M6E4L8",
        "streetName": "HARVIE",
        "streetDirectionId": null,
        "streetTypeId": "AVE",
        "placeName": "YORK",
        "streetNameDisplayText": "HARVIE AVE, YORK"
      }
    ]
  },
  {
    "postal": "M6E2B5",
    "result": [
      {
        "electoralDistricts": [
          {
            "election": null,
            "id": 19,
            "name": "Davenport"
          }
        ],
        "pollDivisionIds": [
          10136075
        ],
        "postalCode": "M6E2B5",
        "streetName": "KITCHENER",
        "streetDirectionId": null,
        "streetTypeId": "AVE",
        "placeName": "YORK",
        "streetNameDisplayText": "KITCHENER AVE, YORK"
      }
    ]
  },
  {
    "postal": "M6E3H1",
    "result": [
      {
        "electoralDistricts": [
          {
            "election": null,
            "id": 111,
            "name": "Toronto—St. Paul's"
          }
        ],
        "pollDivisionIds": [
          10136028
        ],
        "postalCode": "M6E3H1",
        "streetName": "GLENHOLME",
        "streetDirectionId": null,
        "streetTypeId": "AVE",
        "placeName": "YORK",
        "streetNameDisplayText": "GLENHOLME AVE, YORK"
      }
    ]
  },
  {
    "postal": "M6E4Y1",
    "result": [
      {
        "electoralDistricts": [
          {
            "election": null,
            "id": 19,
            "name": "Davenport"
          }
        ],
        "pollDivisionIds": [
          10136077
        ],
        "postalCode": "M6E4Y1",
        "streetName": "BRONOCO",
        "streetDirectionId": null,
        "streetTypeId": "AVE",
        "placeName": "YORK",
        "streetNameDisplayText": "BRONOCO AVE, YORK"
      }
    ]
  },
  {
    "postal": "M6E7E2",
    "result": []
  },
  {
    "postal": "M6E2P5",
    "result": [
      {
        "electoralDistricts": [
          {
            "election": null,
            "id": 25,
            "name": "Eglinton—Lawrence"
          }
        ],
        "pollDivisionIds": [
          10137913
        ],
        "postalCode": "M6E2P5",
        "streetName": "BOWIE",
        "streetDirectionId": null,
        "streetTypeId": "AVE",
        "placeName": "YORK",
        "streetNameDisplayText": "BOWIE AVE, YORK"
      }
    ]
  },
  {
    "postal": "M6E8R7",
    "result": []
  },
  {
    "postal": "M6E9P1",
    "result": []
  },
  {
    "postal": "M6E3B8",
    "result": [
      {
        "electoralDistricts": [
          {
            "election": null,
            "id": 25,
            "name": "Eglinton—Lawrence"
          }
        ],
        "pollDivisionIds": [
          10137914
        ],
        "postalCode": "M6E3B8",
        "streetName": "TIMES",
        "streetDirectionId": null,
        "streetTypeId": "RD",
        "placeName": "YORK",
        "streetNameDisplayText": "TIMES RD, YORK"
      }
    ]
  },
  {
    "postal": "M6E3P7",
    "result": [
      {
        "electoralDistricts": [
          {
            "election": null,
            "id": 19,
            "name": "Davenport"
          }
        ],
        "pollDivisionIds": [
          10136081
        ],
        "postalCode": "M6E3P7",
        "streetName": "DUFFERIN",
        "streetDirectionId": null,
        "streetTypeId": "ST",
        "placeName": "TORONTO",
        "streetNameDisplayText": "DUFFERIN ST, TORONTO"
      }
    ]
  },
  {
    "postal": "M6E9B2",
    "result": []
  },
  {
    "postal": "M6E6Z3",
    "result": []
  },
  {
    "postal": "M6E4N5",
    "result": [
      {
        "electoralDistricts": [
          {
            "election": null,
            "id": 25,
            "name": "Eglinton—Lawrence"
          }
        ],
        "pollDivisionIds": [
          10137913
        ],
        "postalCode": "M6E4N5",
        "streetName": "MONTCALM",
        "streetDirectionId": null,
        "streetTypeId": "AVE",
        "placeName": "YORK",
        "streetNameDisplayText": "MONTCALM AVE, YORK"
      }
    ]
  },
  {
    "postal": "M6E8T3",
    "result": []
  },
  {
    "postal": "M6E1V2",
    "result": [
      {
        "electoralDistricts": [
          {
            "election": null,
            "id": 19,
            "name": "Davenport"
          }
        ],
        "pollDivisionIds": [
          10136077
        ],
        "postalCode": "M6E1V2",
        "streetName": "CORBY",
        "streetDirectionId": null,
        "streetTypeId": "AVE",
        "placeName": "YORK",
        "streetNameDisplayText": "CORBY AVE, YORK"
      }
    ]
  },
  {
    "postal": "M6E1Y0",
    "result": []
  },
  {
    "postal": "M6E3G6",
    "result": [
      {
        "electoralDistricts": [
          {
            "election": null,
            "id": 111,
            "name": "Toronto—St. Paul's"
          }
        ],
        "pollDivisionIds": [
          10136028
        ],
        "postalCode": "M6E3G6",
        "streetName": "GLENHOLME",
        "streetDirectionId": null,
        "streetTypeId": "AVE",
        "placeName": "YORK",
        "streetNameDisplayText": "GLENHOLME AVE, YORK"
      }
    ]
  },
  {
    "postal": "M6E3H7",
    "result": [
      {
        "electoralDistricts": [
          {
            "election": null,
            "id": 111,
            "name": "Toronto—St. Paul's"
          },
          {
            "election": null,
            "id": 19,
            "name": "Davenport"
          }
        ],
        "pollDivisionIds": [
          10136030,
          10136079
        ],
        "postalCode": "M6E3H7",
        "streetName": "LAUDER",
        "streetDirectionId": null,
        "streetTypeId": "AVE",
        "placeName": "YORK",
        "streetNameDisplayText": "LAUDER AVE, YORK"
      }
    ]
  },
  {
    "postal": "M6E7X8",
    "result": []
  },
  {
    "postal": "M6E0C7",
    "result": []
  },
  {
    "postal": "M6E0W9",
    "result": []
  },
  {
    "postal": "M6E8E6",
    "result": []
  },
  {
    "postal": "M6E9Z8",
    "result": []
  },
  {
    "postal": "M6E3P4",
    "result": [
      {
        "electoralDistricts": [
          {
            "election": null,
            "id": 19,
            "name": "Davenport"
          }
        ],
        "pollDivisionIds": [
          10136080
        ],
        "postalCode": "M6E3P4",
        "streetName": "DUFFERIN",
        "streetDirectionId": null,
        "streetTypeId": "ST",
        "placeName": "TORONTO",
        "streetNameDisplayText": "DUFFERIN ST, TORONTO"
      }
    ]
  },
  {
    "postal": "M6E6L8",
    "result": []
  },
  {
    "postal": "M6E2R4",
    "result": [
      {
        "electoralDistricts": [
          {
            "election": null,
            "id": 25,
            "name": "Eglinton—Lawrence"
          },
          {
            "election": null,
            "id": 111,
            "name": "Toronto—St. Paul's"
          }
        ],
        "pollDivisionIds": [
          10137913,
          10143668,
          10136028
        ],
        "postalCode": "M6E2R4",
        "streetName": "BOWIE",
        "streetDirectionId": null,
        "streetTypeId": "AVE",
        "placeName": "YORK",
        "streetNameDisplayText": "BOWIE AVE, YORK"
      }
    ]
  },
  {
    "postal": "M6E2W1",
    "result": [
      {
        "electoralDistricts": [
          {
            "election": null,
            "id": 111,
            "name": "Toronto—St. Paul's"
          }
        ],
        "pollDivisionIds": [
          10143668,
          10136030
        ],
        "postalCode": "M6E2W1",
        "streetName": "OAKWOOD",
        "streetDirectionId": null,
        "streetTypeId": "AVE",
        "placeName": "YORK",
        "streetNameDisplayText": "OAKWOOD AVE, YORK"
      }
    ]
  },
  {
    "postal": "M6E9H8",
    "result": []
  },
  {
    "postal": "M6E8X9",
    "result": []
  },
  {
    "postal": "M6E7H4",
    "result": []
  },
  {
    "postal": "M6E3J1",
    "result": [
      {
        "electoralDistricts": [
          {
            "election": null,
            "id": 111,
            "name": "Toronto—St. Paul's"
          }
        ],
        "pollDivisionIds": [
          10143668
        ],
        "postalCode": "M6E3J1",
        "streetName": "LAUDER",
        "streetDirectionId": null,
        "streetTypeId": "AVE",
        "placeName": "YORK",
        "streetNameDisplayText": "LAUDER AVE, YORK"
      }
    ]
  },
  {
    "postal": "M6E1P4",
    "result": [
      {
        "electoralDistricts": [
          {
            "election": null,
            "id": 19,
            "name": "Davenport"
          }
        ],
        "pollDivisionIds": [
          10136081
        ],
        "postalCode": "M6E1P4",
        "streetName": "ROGERS",
        "streetDirectionId": null,
        "streetTypeId": "RD",
        "placeName": "YORK",
        "streetNameDisplayText": "ROGERS RD, YORK"
      }
    ]
  },
  {
    "postal": "M6E2A3",
    "result": [
      {
        "electoralDistricts": [
          {
            "election": null,
            "id": 111,
            "name": "Toronto—St. Paul's"
          }
        ],
        "pollDivisionIds": [
          10143668
        ],
        "postalCode": "M6E2A3",
        "streetName": "ONSLOW",
        "streetDirectionId": null,
        "streetTypeId": "CRES",
        "placeName": "YORK",
        "streetNameDisplayText": "ONSLOW CRES, YORK"
      }
    ]
  },
  {
    "postal": "M6E0Z1",
    "result": []
  },
  {
    "postal": "M6E1C1",
    "result": [
      {
        "electoralDistricts": [
          {
            "election": null,
            "id": 19,
            "name": "Davenport"
          }
        ],
        "pollDivisionIds": [
          10136083
        ],
        "postalCode": "M6E1C1",
        "streetName": "ST CLAIR",
        "streetDirectionId": "W",
        "streetTypeId": "AV",
        "placeName": "TORONTO",
        "streetNameDisplayText": "ST CLAIR AV W, TORONTO"
      },
      {
        "electoralDistricts": [
          {
            "election": null,
            "id": 19,
            "name": "Davenport"
          }
        ],
        "pollDivisionIds": [
          10136083
        ],
        "postalCode": "M6E1C1",
        "streetName": "ST CLAIR",
        "streetDirectionId": "W",
        "streetTypeId": "AVE",
        "placeName": "TORONTO",
        "streetNameDisplayText": "ST CLAIR AVE W, TORONTO"
      },
      {
        "electoralDistricts": [
          {
            "election": null,
            "id": 19,
            "name": "Davenport"
          }
        ],
        "pollDivisionIds": [
          10136083
        ],
        "postalCode": "M6E1C1",
        "streetName": "ST. CLAIR",
        "streetDirectionId": "W",
        "streetTypeId": "AVE",
        "placeName": "TORONTO",
        "streetNameDisplayText": "ST. CLAIR AVE W, TORONTO"
      }
    ]
  },
  {
    "postal": "M6E0H3",
    "result": []
  },
  {
    "postal": "M6E7B0",
    "result": []
  },
  {
    "postal": "M6E5K2",
    "result": []
  },
  {
    "postal": "M6E1E9",
    "result": [
      {
        "electoralDistricts": [
          {
            "election": null,
            "id": 19,
            "name": "Davenport"
          }
        ],
        "pollDivisionIds": [
          10136080
        ],
        "postalCode": "M6E1E9",
        "streetName": "ASCOT",
        "streetDirectionId": null,
        "streetTypeId": "AVE",
        "placeName": "TORONTO",
        "streetNameDisplayText": "ASCOT AVE, TORONTO"
      }
    ]
  },
  {
    "postal": "M6E9W7",
    "result": []
  },
  {
    "postal": "M6E5W6",
    "result": []
  },
  {
    "postal": "M6E6S6",
    "result": []
  },
  {
    "postal": "M6E2P8",
    "result": [
      {
        "electoralDistricts": [
          {
            "election": null,
            "id": 25,
            "name": "Eglinton—Lawrence"
          }
        ],
        "pollDivisionIds": [
          10137913
        ],
        "postalCode": "M6E2P8",
        "streetName": "BOWIE",
        "streetDirectionId": null,
        "streetTypeId": "AVE",
        "placeName": "YORK",
        "streetNameDisplayText": "BOWIE AVE, YORK"
      }
    ]
  },
  {
    "postal": "M6E4P8",
    "result": [
      {
        "electoralDistricts": [
          {
            "election": null,
            "id": 19,
            "name": "Davenport"
          }
        ],
        "pollDivisionIds": [
          10136078
        ],
        "postalCode": "M6E4P8",
        "streetName": "MCROBERTS",
        "streetDirectionId": null,
        "streetTypeId": "AVE",
        "placeName": "YORK",
        "streetNameDisplayText": "MCROBERTS AVE, YORK"
      }
    ]
  },
  {
    "postal": "M6E0V9",
    "result": []
  },
  {
    "postal": "M6E5Y2",
    "result": []
  },
  {
    "postal": "M6E7Z7",
    "result": []
  },
  {
    "postal": "M6E6Y8",
    "result": []
  },
  {
    "postal": "M6E2G7",
    "result": [
      {
        "electoralDistricts": [
          {
            "election": null,
            "id": 111,
            "name": "Toronto—St. Paul's"
          }
        ],
        "pollDivisionIds": [
          10136028
        ],
        "postalCode": "M6E2G7",
        "streetName": "EGLINTON",
        "streetDirectionId": "W",
        "streetTypeId": "AVE",
        "placeName": "YORK",
        "streetNameDisplayText": "EGLINTON AVE W, YORK"
      }
    ]
  },
  {
    "postal": "M6E8C1",
    "result": []
  },
  {
    "postal": "M6E5C5",
    "result": []
  },
  {
    "postal": "M6E2X8",
    "result": [
      {
        "electoralDistricts": [
          {
            "election": null,
            "id": 111,
            "name": "Toronto—St. Paul's"
          }
        ],
        "pollDivisionIds": [
          10136028
        ],
        "postalCode": "M6E2X8",
        "streetName": "OAKWOOD",
        "streetDirectionId": null,
        "streetTypeId": "AVE",
        "placeName": "YORK",
        "streetNameDisplayText": "OAKWOOD AVE, YORK"
      }
    ]
  },
  {
    "postal": "M6E1W5",
    "result": [
      {
        "electoralDistricts": [
          {
            "election": null,
            "id": 19,
            "name": "Davenport"
          }
        ],
        "pollDivisionIds": [
          10136076
        ],
        "postalCode": "M6E1W5",
        "streetName": "HATHERLEY",
        "streetDirectionId": null,
        "streetTypeId": "RD",
        "placeName": "YORK",
        "streetNameDisplayText": "HATHERLEY RD, YORK"
      }
    ]
  },
  {
    "postal": "M6E7G0",
    "result": []
  },
  {
    "postal": "M6E8J8",
    "result": []
  },
  {
    "postal": "M6E3Y0",
    "result": []
  },
  {
    "postal": "M6E9T7",
    "result": []
  },
  {
    "postal": "M6E5P4",
    "result": []
  },
  {
    "postal": "M6E4B0",
    "result": []
  },
  {
    "postal": "M6E9N8",
    "result": []
  },
  {
    "postal": "M6E4A7",
    "result": [
      {
        "electoralDistricts": [
          {
            "election": null,
            "id": 19,
            "name": "Davenport"
          }
        ],
        "pollDivisionIds": [
          10136083
        ],
        "postalCode": "M6E4A7",
        "streetName": "EARLSCOURT",
        "streetDirectionId": null,
        "streetTypeId": "AVE",
        "placeName": "TORONTO",
        "streetNameDisplayText": "EARLSCOURT AVE, TORONTO"
      },
      {
        "electoralDistricts": [
          {
            "election": null,
            "id": 19,
            "name": "Davenport"
          }
        ],
        "pollDivisionIds": [
          10136083
        ],
        "postalCode": "M6E4A7",
        "streetName": "EARLSDALE",
        "streetDirectionId": null,
        "streetTypeId": "AVE",
        "placeName": "TORONTO",
        "streetNameDisplayText": "EARLSDALE AVE, TORONTO"
      }
    ]
  },
  {
    "postal": "M6E4H9",
    "result": [
      {
        "electoralDistricts": [
          {
            "election": null,
            "id": 19,
            "name": "Davenport"
          }
        ],
        "pollDivisionIds": [
          10136076
        ],
        "postalCode": "M6E4H9",
        "streetName": "NAIRN",
        "streetDirectionId": null,
        "streetTypeId": "AVE",
        "placeName": "YORK",
        "streetNameDisplayText": "NAIRN AVE, YORK"
      }
    ]
  },
  {
    "postal": "M6E6X1",
    "result": []
  },
  {
    "postal": "M6E9Y7",
    "result": []
  },
  {
    "postal": "M6E2Y5",
    "result": [
      {
        "electoralDistricts": [
          {
            "election": null,
            "id": 111,
            "name": "Toronto—St. Paul's"
          }
        ],
        "pollDivisionIds": [
          10143668
        ],
        "postalCode": "M6E2Y5",
        "streetName": "VAUGHAN",
        "streetDirectionId": null,
        "streetTypeId": "RD",
        "placeName": "YORK",
        "streetNameDisplayText": "VAUGHAN RD, YORK"
      }
    ]
  },
  {
    "postal": "M6E8L7",
    "result": []
  },
  {
    "postal": "M6E2A8",
    "result": [
      {
        "electoralDistricts": [
          {
            "election": null,
            "id": 111,
            "name": "Toronto—St. Paul's"
          }
        ],
        "pollDivisionIds": [
          10143668,
          10136028
        ],
        "postalCode": "M6E2A8",
        "streetName": "KEYWEST",
        "streetDirectionId": null,
        "streetTypeId": "AVE",
        "placeName": "YORK",
        "streetNameDisplayText": "KEYWEST AVE, YORK"
      }
    ]
  },
  {
    "postal": "M6E2K9",
    "result": [
      {
        "electoralDistricts": [
          {
            "election": null,
            "id": 25,
            "name": "Eglinton—Lawrence"
          }
        ],
        "pollDivisionIds": [
          10137913
        ],
        "postalCode": "M6E2K9",
        "streetName": "EGLINTON",
        "streetDirectionId": "W",
        "streetTypeId": "AVE",
        "placeName": "YORK",
        "streetNameDisplayText": "EGLINTON AVE W, YORK"
      }
    ]
  },
  {
    "postal": "M6E3E5",
    "result": [
      {
        "electoralDistricts": [
          {
            "election": null,
            "id": 111,
            "name": "Toronto—St. Paul's"
          },
          {
            "election": null,
            "id": 25,
            "name": "Eglinton—Lawrence"
          }
        ],
        "pollDivisionIds": [
          10143668,
          10137896
        ],
        "postalCode": "M6E3E5",
        "streetName": "GLENHOLME",
        "streetDirectionId": null,
        "streetTypeId": "AVE",
        "placeName": "YORK",
        "streetNameDisplayText": "GLENHOLME AVE, YORK"
      }
    ]
  },
  {
    "postal": "M6E8N6",
    "result": []
  },
  {
    "postal": "M6E8J4",
    "result": []
  },
  {
    "postal": "M6E4R7",
    "result": [
      {
        "electoralDistricts": [
          {
            "election": null,
            "id": 19,
            "name": "Davenport"
          }
        ],
        "pollDivisionIds": [
          10136077
        ],
        "postalCode": "M6E4R7",
        "streetName": "MCROBERTS",
        "streetDirectionId": null,
        "streetTypeId": "AVE",
        "placeName": "YORK",
        "streetNameDisplayText": "MCROBERTS AVE, YORK"
      }
    ]
  },
  {
    "postal": "M6E9K1",
    "result": []
  },
  {
    "postal": "M6E8E1",
    "result": []
  },
  {
    "postal": "M6E0R1",
    "result": []
  },
  {
    "postal": "M6E4J3",
    "result": [
      {
        "electoralDistricts": [
          {
            "election": null,
            "id": 19,
            "name": "Davenport"
          }
        ],
        "pollDivisionIds": [
          10136075
        ],
        "postalCode": "M6E4J3",
        "streetName": "NAIRN",
        "streetDirectionId": null,
        "streetTypeId": "AVE",
        "placeName": "YORK",
        "streetNameDisplayText": "NAIRN AVE, YORK"
      }
    ]
  },
  {
    "postal": "M6E7E7",
    "result": []
  },
  {
    "postal": "M6E0J0",
    "result": []
  },
  {
    "postal": "M6E7R8",
    "result": []
  },
  {
    "postal": "M6E9X0",
    "result": []
  },
  {
    "postal": "M6E7P6",
    "result": []
  },
  {
    "postal": "M6E0R7",
    "result": []
  },
  {
    "postal": "M6E5W1",
    "result": []
  },
  {
    "postal": "M6E0K4",
    "result": []
  },
  {
    "postal": "M6E7N9",
    "result": []
  },
  {
    "postal": "M6E1N0",
    "result": []
  },
  {
    "postal": "M6E6P3",
    "result": []
  },
  {
    "postal": "M6E5A1",
    "result": [
      {
        "electoralDistricts": [
          {
            "election": null,
            "id": 25,
            "name": "Eglinton—Lawrence"
          }
        ],
        "pollDivisionIds": [
          10137913
        ],
        "postalCode": "M6E5A1",
        "streetName": "MIRANDA",
        "streetDirectionId": null,
        "streetTypeId": "AVE",
        "placeName": "YORK",
        "streetNameDisplayText": "MIRANDA AVE, YORK"
      }
    ]
  },
  {
    "postal": "M6E9M9",
    "result": []
  },
  {
    "postal": "M6E7T6",
    "result": []
  },
  {
    "postal": "M6E3X0",
    "result": []
  },
  {
    "postal": "M6E2T0",
    "result": []
  },
  {
    "postal": "M6E5X9",
    "result": []
  },
  {
    "postal": "M6E2R3",
    "result": [
      {
        "electoralDistricts": [
          {
            "election": null,
            "id": 25,
            "name": "Eglinton—Lawrence"
          }
        ],
        "pollDivisionIds": [
          10137913
        ],
        "postalCode": "M6E2R3",
        "streetName": "BOWIE",
        "streetDirectionId": null,
        "streetTypeId": "AVE",
        "placeName": "YORK",
        "streetNameDisplayText": "BOWIE AVE, YORK"
      }
    ]
  },
  {
    "postal": "M6E5N2",
    "result": []
  },
  {
    "postal": "M6E4Y7",
    "result": []
  },
  {
    "postal": "M6E7M0",
    "result": []
  },
  {
    "postal": "M6E8P3",
    "result": []
  },
  {
    "postal": "M6E3N3",
    "result": [
      {
        "electoralDistricts": [
          {
            "election": null,
            "id": 19,
            "name": "Davenport"
          }
        ],
        "pollDivisionIds": [
          10136081
        ],
        "postalCode": "M6E3N3",
        "streetName": "WESTMOUNT",
        "streetDirectionId": null,
        "streetTypeId": "AVE",
        "placeName": "YORK",
        "streetNameDisplayText": "WESTMOUNT AVE, YORK"
      }
    ]
  },
  {
    "postal": "M6E7S3",
    "result": []
  },
  {
    "postal": "M6E3V9",
    "result": [
      {
        "electoralDistricts": [
          {
            "election": null,
            "id": 19,
            "name": "Davenport"
          }
        ],
        "pollDivisionIds": [
          10136080
        ],
        "postalCode": "M6E3V9",
        "streetName": "DAY",
        "streetDirectionId": null,
        "streetTypeId": "AVE",
        "placeName": "TORONTO",
        "streetNameDisplayText": "DAY AVE, TORONTO"
      }
    ]
  },
  {
    "postal": "M6E9N7",
    "result": []
  },
  {
    "postal": "M6E0G4",
    "result": []
  },
  {
    "postal": "M6E2E2",
    "result": [
      {
        "electoralDistricts": [
          {
            "election": null,
            "id": 111,
            "name": "Toronto—St. Paul's"
          }
        ],
        "pollDivisionIds": [
          10143668
        ],
        "postalCode": "M6E2E2",
        "streetName": "EGLINTON",
        "streetDirectionId": "W",
        "streetTypeId": "AVE",
        "placeName": "YORK",
        "streetNameDisplayText": "EGLINTON AVE W, YORK"
      },
      {
        "electoralDistricts": [
          {
            "election": null,
            "id": 19,
            "name": "Davenport"
          }
        ],
        "pollDivisionIds": [
          10136075
        ],
        "postalCode": "M6E2E2",
        "streetName": "THORNTON",
        "streetDirectionId": null,
        "streetTypeId": "AVE",
        "placeName": "YORK",
        "streetNameDisplayText": "THORNTON AVE, YORK"
      }
    ]
  },
  {
    "postal": "M6E7W8",
    "result": []
  },
  {
    "postal": "M6E7M5",
    "result": []
  },
  {
    "postal": "M6E5W8",
    "result": []
  },
  {
    "postal": "M6E5E5",
    "result": []
  },
  {
    "postal": "M6E1P9",
    "result": [
      {
        "electoralDistricts": [
          {
            "election": null,
            "id": 19,
            "name": "Davenport"
          }
        ],
        "pollDivisionIds": [
          10136080
        ],
        "postalCode": "M6E1P9",
        "streetName": "ROGERS",
        "streetDirectionId": null,
        "streetTypeId": "RD",
        "placeName": "YORK",
        "streetNameDisplayText": "ROGERS RD, YORK"
      }
    ]
  },
  {
    "postal": "M6E8V8",
    "result": []
  },
  {
    "postal": "M6E9G8",
    "result": []
  },
  {
    "postal": "M6E8H9",
    "result": []
  },
  {
    "postal": "M6E1Z1",
    "result": [
      {
        "electoralDistricts": [
          {
            "election": null,
            "id": 19,
            "name": "Davenport"
          }
        ],
        "pollDivisionIds": [
          10136076
        ],
        "postalCode": "M6E1Z1",
        "streetName": "CHUDLEIGH",
        "streetDirectionId": null,
        "streetTypeId": "RD",
        "placeName": "YORK",
        "streetNameDisplayText": "CHUDLEIGH RD, YORK"
      }
    ]
  },
  {
    "postal": "M6E8M3",
    "result": []
  },
  {
    "postal": "M6E5H6",
    "result": []
  },
  {
    "postal": "M6E7W7",
    "result": []
  },
  {
    "postal": "M6E4L0",
    "result": []
  },
  {
    "postal": "M6E2N1",
    "result": [
      {
        "electoralDistricts": [
          {
            "election": null,
            "id": 25,
            "name": "Eglinton—Lawrence"
          }
        ],
        "pollDivisionIds": [
          10137913
        ],
        "postalCode": "M6E2N1",
        "streetName": "RAMSDEN",
        "streetDirectionId": null,
        "streetTypeId": "RD",
        "placeName": "YORK",
        "streetNameDisplayText": "RAMSDEN RD, YORK"
      }
    ]
  },
  {
    "postal": "M6E2H4",
    "result": [
      {
        "electoralDistricts": [
          {
            "election": null,
            "id": 111,
            "name": "Toronto—St. Paul's"
          }
        ],
        "pollDivisionIds": [
          10136028
        ],
        "postalCode": "M6E2H4",
        "streetName": "EGLINGTON",
        "streetDirectionId": "W",
        "streetTypeId": "AVE",
        "placeName": "YORK",
        "streetNameDisplayText": "EGLINGTON AVE W, YORK"
      },
      {
        "electoralDistricts": [
          {
            "election": null,
            "id": 111,
            "name": "Toronto—St. Paul's"
          }
        ],
        "pollDivisionIds": [
          10136028
        ],
        "postalCode": "M6E2H4",
        "streetName": "EGLINTON",
        "streetDirectionId": "W",
        "streetTypeId": "AV",
        "placeName": "YORK",
        "streetNameDisplayText": "EGLINTON AV W, YORK"
      },
      {
        "electoralDistricts": [
          {
            "election": null,
            "id": 111,
            "name": "Toronto—St. Paul's"
          }
        ],
        "pollDivisionIds": [
          10136028
        ],
        "postalCode": "M6E2H4",
        "streetName": "EGLINTON",
        "streetDirectionId": "W",
        "streetTypeId": "AVE",
        "placeName": "YORK",
        "streetNameDisplayText": "EGLINTON AVE W, YORK"
      }
    ]
  },
  {
    "postal": "M6E5C8",
    "result": []
  },
  {
    "postal": "M6E8B0",
    "result": []
  },
  {
    "postal": "M6E1T4",
    "result": [
      {
        "electoralDistricts": [
          {
            "election": null,
            "id": 111,
            "name": "Toronto—St. Paul's"
          }
        ],
        "pollDivisionIds": [
          10143668
        ],
        "postalCode": "M6E1T4",
        "streetName": "HANSON",
        "streetDirectionId": null,
        "streetTypeId": "RD",
        "placeName": "YORK",
        "streetNameDisplayText": "HANSON RD, YORK"
      }
    ]
  },
  {
    "postal": "M6E7N7",
    "result": []
  },
  {
    "postal": "M6E4L3",
    "result": []
  },
  {
    "postal": "M6E2N2",
    "result": [
      {
        "electoralDistricts": [
          {
            "election": null,
            "id": 25,
            "name": "Eglinton—Lawrence"
          }
        ],
        "pollDivisionIds": [
          10137913
        ],
        "postalCode": "M6E2N2",
        "streetName": "RAMSDEN",
        "streetDirectionId": null,
        "streetTypeId": "RD",
        "placeName": "YORK",
        "streetNameDisplayText": "RAMSDEN RD, YORK"
      }
    ]
  },
  {
    "postal": "M6E4N8",
    "result": [
      {
        "electoralDistricts": [
          {
            "election": null,
            "id": 25,
            "name": "Eglinton—Lawrence"
          }
        ],
        "pollDivisionIds": [
          10137913
        ],
        "postalCode": "M6E4N8",
        "streetName": "MONTCALM",
        "streetDirectionId": null,
        "streetTypeId": "AVE",
        "placeName": "YORK",
        "streetNameDisplayText": "MONTCALM AVE, YORK"
      }
    ]
  },
  {
    "postal": "M6E3M5",
    "result": [
      {
        "electoralDistricts": [
          {
            "election": null,
            "id": 111,
            "name": "Toronto—St. Paul's"
          }
        ],
        "pollDivisionIds": [
          10136028
        ],
        "postalCode": "M6E3M5",
        "streetName": "NORTHCLIFFE",
        "streetDirectionId": null,
        "streetTypeId": "BLVD",
        "placeName": "YORK",
        "streetNameDisplayText": "NORTHCLIFFE BLVD, YORK"
      }
    ]
  },
  {
    "postal": "M6E6H7",
    "result": []
  },
  {
    "postal": "M6E8Y8",
    "result": []
  },
  {
    "postal": "M6E5R9",
    "result": []
  },
  {
    "postal": "M6E8G3",
    "result": []
  },
  {
    "postal": "M6E4N7",
    "result": [
      {
        "electoralDistricts": [
          {
            "election": null,
            "id": 25,
            "name": "Eglinton—Lawrence"
          }
        ],
        "pollDivisionIds": [
          10137913
        ],
        "postalCode": "M6E4N7",
        "streetName": "MONTCALM",
        "streetDirectionId": null,
        "streetTypeId": "AVE",
        "placeName": "YORK",
        "streetNameDisplayText": "MONTCALM AVE, YORK"
      }
    ]
  },
  {
    "postal": "M6E0B9",
    "result": []
  },
  {
    "postal": "M6E9K7",
    "result": []
  },
  {
    "postal": "M6E9K9",
    "result": []
  },
  {
    "postal": "M6E3Z2",
    "result": [
      {
        "electoralDistricts": [
          {
            "election": null,
            "id": 19,
            "name": "Davenport"
          }
        ],
        "pollDivisionIds": [
          10136083,
          10136080
        ],
        "postalCode": "M6E3Z2",
        "streetName": "BOON",
        "streetDirectionId": null,
        "streetTypeId": "AVE",
        "placeName": "TORONTO",
        "streetNameDisplayText": "BOON AVE, TORONTO"
      }
    ]
  },
  {
    "postal": "M6E6W7",
    "result": []
  },
  {
    "postal": "M6E0P1",
    "result": []
  },
  {
    "postal": "M6E3A0",
    "result": []
  },
  {
    "postal": "M6E8L9",
    "result": []
  },
  {
    "postal": "M6E6X0",
    "result": []
  },
  {
    "postal": "M6E3E9",
    "result": [
      {
        "electoralDistricts": [
          {
            "election": null,
            "id": 111,
            "name": "Toronto—St. Paul's"
          }
        ],
        "pollDivisionIds": [
          10143668
        ],
        "postalCode": "M6E3E9",
        "streetName": "GLENHOLME",
        "streetDirectionId": null,
        "streetTypeId": "AVE",
        "placeName": "YORK",
        "streetNameDisplayText": "GLENHOLME AVE, YORK"
      }
    ]
  },
  {
    "postal": "M6E0S5",
    "result": []
  },
  {
    "postal": "M6E1A2",
    "result": [
      {
        "electoralDistricts": [
          {
            "election": null,
            "id": 19,
            "name": "Davenport"
          }
        ],
        "pollDivisionIds": [
          10136079
        ],
        "postalCode": "M6E1A2",
        "streetName": "ST CLAIR",
        "streetDirectionId": "W",
        "streetTypeId": "AVE",
        "placeName": "TORONTO",
        "streetNameDisplayText": "ST CLAIR AVE W, TORONTO"
      }
    ]
  },
  {
    "postal": "M6E5V8",
    "result": []
  },
  {
    "postal": "M6E8C5",
    "result": []
  },
  {
    "postal": "M6E6N0",
    "result": []
  },
  {
    "postal": "M6E9E6",
    "result": []
  },
  {
    "postal": "M6E5J7",
    "result": []
  },
  {
    "postal": "M6E2R2",
    "result": [
      {
        "electoralDistricts": [
          {
            "election": null,
            "id": 25,
            "name": "Eglinton—Lawrence"
          }
        ],
        "pollDivisionIds": [
          10137913
        ],
        "postalCode": "M6E2R2",
        "streetName": "BOWIE",
        "streetDirectionId": null,
        "streetTypeId": "AVE",
        "placeName": "YORK",
        "streetNameDisplayText": "BOWIE AVE, YORK"
      }
    ]
  },
  {
    "postal": "M6E0P5",
    "result": []
  },
  {
    "postal": "M6E5A7",
    "result": [
      {
        "electoralDistricts": [
          {
            "election": null,
            "id": 19,
            "name": "Davenport"
          }
        ],
        "pollDivisionIds": [
          10136077
        ],
        "postalCode": "M6E5A7",
        "streetName": "ROGERS",
        "streetDirectionId": null,
        "streetTypeId": "RD",
        "placeName": "YORK",
        "streetNameDisplayText": "ROGERS RD, YORK"
      }
    ]
  },
  {
    "postal": "M6E1G1",
    "result": [
      {
        "electoralDistricts": [
          {
            "election": null,
            "id": 19,
            "name": "Davenport"
          }
        ],
        "pollDivisionIds": [
          10136083
        ],
        "postalCode": "M6E1G1",
        "streetName": "ASCOT",
        "streetDirectionId": null,
        "streetTypeId": "AVE",
        "placeName": "TORONTO",
        "streetNameDisplayText": "ASCOT AVE, TORONTO"
      }
    ]
  },
  {
    "postal": "M6E9R6",
    "result": []
  },
  {
    "postal": "M6E4Z9",
    "result": [
      {
        "electoralDistricts": [
          {
            "election": null,
            "id": 111,
            "name": "Toronto—St. Paul's"
          }
        ],
        "pollDivisionIds": [
          10136028
        ],
        "postalCode": "M6E4Z9",
        "streetName": "EGLINGTON",
        "streetDirectionId": "W",
        "streetTypeId": "AV",
        "placeName": "YORK",
        "streetNameDisplayText": "EGLINGTON AV W, YORK"
      },
      {
        "electoralDistricts": [
          {
            "election": null,
            "id": 111,
            "name": "Toronto—St. Paul's"
          }
        ],
        "pollDivisionIds": [
          10136028
        ],
        "postalCode": "M6E4Z9",
        "streetName": "EGLINGTON",
        "streetDirectionId": "W",
        "streetTypeId": "AVE",
        "placeName": "YORK",
        "streetNameDisplayText": "EGLINGTON AVE W, YORK"
      },
      {
        "electoralDistricts": [
          {
            "election": null,
            "id": 111,
            "name": "Toronto—St. Paul's"
          }
        ],
        "pollDivisionIds": [
          10136028
        ],
        "postalCode": "M6E4Z9",
        "streetName": "EGLINTN",
        "streetDirectionId": "W",
        "streetTypeId": "AVE",
        "placeName": "YORK",
        "streetNameDisplayText": "EGLINTN AVE W, YORK"
      },
      {
        "electoralDistricts": [
          {
            "election": null,
            "id": 111,
            "name": "Toronto—St. Paul's"
          }
        ],
        "pollDivisionIds": [
          10136028
        ],
        "postalCode": "M6E4Z9",
        "streetName": "EGLINTON",
        "streetDirectionId": "W",
        "streetTypeId": "AV",
        "placeName": "YORK",
        "streetNameDisplayText": "EGLINTON AV W, YORK"
      },
      {
        "electoralDistricts": [
          {
            "election": null,
            "id": 111,
            "name": "Toronto—St. Paul's"
          }
        ],
        "pollDivisionIds": [
          10136028
        ],
        "postalCode": "M6E4Z9",
        "streetName": "EGLINTON",
        "streetDirectionId": "W",
        "streetTypeId": "AVE",
        "placeName": "YORK",
        "streetNameDisplayText": "EGLINTON AVE W, YORK"
      },
      {
        "electoralDistricts": [
          {
            "election": null,
            "id": 111,
            "name": "Toronto—St. Paul's"
          }
        ],
        "pollDivisionIds": [
          10136028
        ],
        "postalCode": "M6E4Z9",
        "streetName": "EGLINTON AVE WEST",
        "streetDirectionId": "W",
        "streetTypeId": "AVE",
        "placeName": "YORK",
        "streetNameDisplayText": "EGLINTON AVE WEST AVE W, YORK"
      }
    ]
  },
  {
    "postal": "M6E1V5",
    "result": [
      {
        "electoralDistricts": [
          {
            "election": null,
            "id": 111,
            "name": "Toronto—St. Paul's"
          }
        ],
        "pollDivisionIds": [
          10143668
        ],
        "postalCode": "M6E1V5",
        "streetName": "JESMOND",
        "streetDirectionId": null,
        "streetTypeId": "AVE",
        "placeName": "YORK",
        "streetNameDisplayText": "JESMOND AVE, YORK"
      }
    ]
  },
  {
    "postal": "M6E9Y5",
    "result": []
  },
  {
    "postal": "M6E1P2",
    "result": [
      {
        "electoralDistricts": [
          {
            "election": null,
            "id": 19,
            "name": "Davenport"
          }
        ],
        "pollDivisionIds": [
          10136079
        ],
        "postalCode": "M6E1P2",
        "streetName": "ROGERS",
        "streetDirectionId": null,
        "streetTypeId": "RD",
        "placeName": "YORK",
        "streetNameDisplayText": "ROGERS RD, YORK"
      }
    ]
  },
  {
    "postal": "M6E5X0",
    "result": []
  },
  {
    "postal": "M6E7B8",
    "result": []
  },
  {
    "postal": "M6E0C6",
    "result": []
  },
  {
    "postal": "M6E6G1",
    "result": []
  },
  {
    "postal": "M6E3K3",
    "result": [
      {
        "electoralDistricts": [
          {
            "election": null,
            "id": 19,
            "name": "Davenport"
          }
        ],
        "pollDivisionIds": [
          10136081
        ],
        "postalCode": "M6E3K3",
        "streetName": "NORTHCLIFFE",
        "streetDirectionId": null,
        "streetTypeId": "BLVD",
        "placeName": "TORONTO",
        "streetNameDisplayText": "NORTHCLIFFE BLVD, TORONTO"
      },
      {
        "electoralDistricts": [
          {
            "election": null,
            "id": 19,
            "name": "Davenport"
          }
        ],
        "pollDivisionIds": [
          10136081
        ],
        "postalCode": "M6E3K3",
        "streetName": "NORTHCLIFFE",
        "streetDirectionId": null,
        "streetTypeId": "BLVD",
        "placeName": "YORK",
        "streetNameDisplayText": "NORTHCLIFFE BLVD, YORK"
      }
    ]
  },
  {
    "postal": "M6E9R0",
    "result": []
  },
  {
    "postal": "M6E4R8",
    "result": [
      {
        "electoralDistricts": [
          {
            "election": null,
            "id": 25,
            "name": "Eglinton—Lawrence"
          }
        ],
        "pollDivisionIds": [
          10137913
        ],
        "postalCode": "M6E4R8",
        "streetName": "SNIDER",
        "streetDirectionId": null,
        "streetTypeId": "AVE",
        "placeName": "YORK",
        "streetNameDisplayText": "SNIDER AVE, YORK"
      }
    ]
  },
  {
    "postal": "M6E5P9",
    "result": []
  },
  {
    "postal": "M6E8N4",
    "result": []
  },
  {
    "postal": "M6E8H4",
    "result": []
  },
  {
    "postal": "M6E4V1",
    "result": [
      {
        "electoralDistricts": [
          {
            "election": null,
            "id": 19,
            "name": "Davenport"
          }
        ],
        "pollDivisionIds": [
          10136077
        ],
        "postalCode": "M6E4V1",
        "streetName": "CALEDONIA",
        "streetDirectionId": null,
        "streetTypeId": "RD",
        "placeName": "YORK",
        "streetNameDisplayText": "CALEDONIA RD, YORK"
      }
    ]
  },
  {
    "postal": "M6E1K5",
    "result": [
      {
        "electoralDistricts": [
          {
            "election": null,
            "id": 19,
            "name": "Davenport"
          }
        ],
        "pollDivisionIds": [
          10136081
        ],
        "postalCode": "M6E1K5",
        "streetName": "ROSECLIFFE",
        "streetDirectionId": null,
        "streetTypeId": "AVE",
        "placeName": "TORONTO",
        "streetNameDisplayText": "ROSECLIFFE AVE, TORONTO"
      }
    ]
  },
  {
    "postal": "M6E1Z5",
    "result": [
      {
        "electoralDistricts": [
          {
            "election": null,
            "id": 111,
            "name": "Toronto—St. Paul's"
          }
        ],
        "pollDivisionIds": [
          10143668
        ],
        "postalCode": "M6E1Z5",
        "streetName": "AMHERST",
        "streetDirectionId": null,
        "streetTypeId": "AVE",
        "placeName": "YORK",
        "streetNameDisplayText": "AMHERST AVE, YORK"
      }
    ]
  },
  {
    "postal": "M6E9L9",
    "result": []
  },
  {
    "postal": "M6E5L2",
    "result": []
  },
  {
    "postal": "M6E0M2",
    "result": []
  },
  {
    "postal": "M6E1K8",
    "result": [
      {
        "electoralDistricts": [
          {
            "election": null,
            "id": 19,
            "name": "Davenport"
          }
        ],
        "pollDivisionIds": [
          10136081
        ],
        "postalCode": "M6E1K8",
        "streetName": "ROSECLIFFE",
        "streetDirectionId": null,
        "streetTypeId": "AVE",
        "placeName": "YORK",
        "streetNameDisplayText": "ROSECLIFFE AVE, YORK"
      }
    ]
  },
  {
    "postal": "M6E3M7",
    "result": [
      {
        "electoralDistricts": [
          {
            "election": null,
            "id": 19,
            "name": "Davenport"
          }
        ],
        "pollDivisionIds": [
          10136081
        ],
        "postalCode": "M6E3M7",
        "streetName": "WESTMOUNT",
        "streetDirectionId": null,
        "streetTypeId": "AVE",
        "placeName": "TORONTO",
        "streetNameDisplayText": "WESTMOUNT AVE, TORONTO"
      }
    ]
  },
  {
    "postal": "M6E1B2",
    "result": [
      {
        "electoralDistricts": [
          {
            "election": null,
            "id": 19,
            "name": "Davenport"
          }
        ],
        "pollDivisionIds": [
          10136087
        ],
        "postalCode": "M6E1B2",
        "streetName": "ST CLAIR",
        "streetDirectionId": "W",
        "streetTypeId": "AVE",
        "placeName": "TORONTO",
        "streetNameDisplayText": "ST CLAIR AVE W, TORONTO"
      },
      {
        "electoralDistricts": [
          {
            "election": null,
            "id": 19,
            "name": "Davenport"
          }
        ],
        "pollDivisionIds": [
          10136087
        ],
        "postalCode": "M6E1B2",
        "streetName": "ST. CLAIR",
        "streetDirectionId": "W",
        "streetTypeId": "AVE",
        "placeName": "TORONTO",
        "streetNameDisplayText": "ST. CLAIR AVE W, TORONTO"
      }
    ]
  },
  {
    "postal": "M6E0H9",
    "result": []
  },
  {
    "postal": "M6E8M4",
    "result": []
  },
  {
    "postal": "M6E2M5",
    "result": [
      {
        "electoralDistricts": [
          {
            "election": null,
            "id": 25,
            "name": "Eglinton—Lawrence"
          }
        ],
        "pollDivisionIds": [
          10137915
        ],
        "postalCode": "M6E2M5",
        "streetName": "BELGRAVIA",
        "streetDirectionId": null,
        "streetTypeId": "AVE",
        "placeName": "YORK",
        "streetNameDisplayText": "BELGRAVIA AVE, YORK"
      }
    ]
  },
  {
    "postal": "M6E0T9",
    "result": []
  },
  {
    "postal": "M6E3P1",
    "result": [
      {
        "electoralDistricts": [
          {
            "election": null,
            "id": 19,
            "name": "Davenport"
          }
        ],
        "pollDivisionIds": [
          10136080
        ],
        "postalCode": "M6E3P1",
        "streetName": "DUFFERIN",
        "streetDirectionId": null,
        "streetTypeId": "ST",
        "placeName": "TORONTO",
        "streetNameDisplayText": "DUFFERIN ST, TORONTO"
      }
    ]
  },
  {
    "postal": "M6E1R6",
    "result": [
      {
        "electoralDistricts": [
          {
            "election": null,
            "id": 19,
            "name": "Davenport"
          }
        ],
        "pollDivisionIds": [
          10136078
        ],
        "postalCode": "M6E1R6",
        "streetName": "ROGERS",
        "streetDirectionId": null,
        "streetTypeId": "RD",
        "placeName": "YORK",
        "streetNameDisplayText": "ROGERS RD, YORK"
      }
    ]
  },
  {
    "postal": "M6E9V5",
    "result": []
  },
  {
    "postal": "M6E9T0",
    "result": []
  },
  {
    "postal": "M6E0A9",
    "result": [
      {
        "electoralDistricts": [
          {
            "election": null,
            "id": 111,
            "name": "Toronto—St. Paul's"
          }
        ],
        "pollDivisionIds": [
          10136028
        ],
        "postalCode": "M6E0A9",
        "streetName": "CHILTERN HILL",
        "streetDirectionId": null,
        "streetTypeId": "RD",
        "placeName": "TORONTO,ON",
        "streetNameDisplayText": "CHILTERN HILL RD, TORONTO,ON"
      }
    ]
  },
  {
    "postal": "M6E1M3",
    "result": [
      {
        "electoralDistricts": [
          {
            "election": null,
            "id": 19,
            "name": "Davenport"
          }
        ],
        "pollDivisionIds": [
          10136080
        ],
        "postalCode": "M6E1M3",
        "streetName": "MORRISON",
        "streetDirectionId": null,
        "streetTypeId": "AVE",
        "placeName": "TORONTO",
        "streetNameDisplayText": "MORRISON AVE, TORONTO"
      }
    ]
  },
  {
    "postal": "M6E1W8",
    "result": [
      {
        "electoralDistricts": [
          {
            "election": null,
            "id": 19,
            "name": "Davenport"
          }
        ],
        "pollDivisionIds": [
          10136076
        ],
        "postalCode": "M6E1W8",
        "streetName": "WOODCROFT",
        "streetDirectionId": null,
        "streetTypeId": "CRES",
        "placeName": "YORK",
        "streetNameDisplayText": "WOODCROFT CRES, YORK"
      }
    ]
  },
  {
    "postal": "M6E9J1",
    "result": []
  },
  {
    "postal": "M6E8N5",
    "result": []
  },
  {
    "postal": "M6E5X1",
    "result": []
  },
  {
    "postal": "M6E6S2",
    "result": []
  },
  {
    "postal": "M6E2A2",
    "result": [
      {
        "electoralDistricts": [
          {
            "election": null,
            "id": 111,
            "name": "Toronto—St. Paul's"
          }
        ],
        "pollDivisionIds": [
          10143668
        ],
        "postalCode": "M6E2A2",
        "streetName": "BANSLEY",
        "streetDirectionId": null,
        "streetTypeId": "AVE",
        "placeName": "YORK",
        "streetNameDisplayText": "BANSLEY AVE, YORK"
      }
    ]
  },
  {
    "postal": "M6E6A6",
    "result": []
  },
  {
    "postal": "M6E0S3",
    "result": []
  },
  {
    "postal": "M6E3E7",
    "result": [
      {
        "electoralDistricts": [
          {
            "election": null,
            "id": 111,
            "name": "Toronto—St. Paul's"
          }
        ],
        "pollDivisionIds": [
          10143668
        ],
        "postalCode": "M6E3E7",
        "streetName": "GLENHOLME",
        "streetDirectionId": null,
        "streetTypeId": "AVE",
        "placeName": "YORK",
        "streetNameDisplayText": "GLENHOLME AVE, YORK"
      }
    ]
  },
  {
    "postal": "M6E5R7",
    "result": []
  },
  {
    "postal": "M6E3R6",
    "result": [
      {
        "electoralDistricts": [
          {
            "election": null,
            "id": 19,
            "name": "Davenport"
          }
        ],
        "pollDivisionIds": [
          10136076
        ],
        "postalCode": "M6E3R6",
        "streetName": "DUFFERIN",
        "streetDirectionId": null,
        "streetTypeId": "ST",
        "placeName": "YORK",
        "streetNameDisplayText": "DUFFERIN ST, YORK"
      }
    ]
  },
  {
    "postal": "M6E6K4",
    "result": []
  },
  {
    "postal": "M6E2W5",
    "result": [
      {
        "electoralDistricts": [
          {
            "election": null,
            "id": 111,
            "name": "Toronto—St. Paul's"
          }
        ],
        "pollDivisionIds": [
          10143668
        ],
        "postalCode": "M6E2W5",
        "streetName": "OAKWOOD",
        "streetDirectionId": null,
        "streetTypeId": "AVE",
        "placeName": "YORK",
        "streetNameDisplayText": "OAKWOOD AVE, YORK"
      }
    ]
  },
  {
    "postal": "M6E8W4",
    "result": []
  },
  {
    "postal": "M6E9C2",
    "result": []
  },
  {
    "postal": "M6E2C0",
    "result": []
  },
  {
    "postal": "M6E0E1",
    "result": []
  },
  {
    "postal": "M6E1K9",
    "result": [
      {
        "electoralDistricts": [
          {
            "election": null,
            "id": 19,
            "name": "Davenport"
          }
        ],
        "pollDivisionIds": [
          10136081
        ],
        "postalCode": "M6E1K9",
        "streetName": "ROSECLIFFE",
        "streetDirectionId": null,
        "streetTypeId": "AVE",
        "placeName": "YORK",
        "streetNameDisplayText": "ROSECLIFFE AVE, YORK"
      }
    ]
  },
  {
    "postal": "M6E1G7",
    "result": [
      {
        "electoralDistricts": [
          {
            "election": null,
            "id": 19,
            "name": "Davenport"
          }
        ],
        "pollDivisionIds": [
          10136083
        ],
        "postalCode": "M6E1G7",
        "streetName": "NORMAN",
        "streetDirectionId": null,
        "streetTypeId": "AVE",
        "placeName": "TORONTO",
        "streetNameDisplayText": "NORMAN AVE, TORONTO"
      },
      {
        "electoralDistricts": [
          {
            "election": null,
            "id": 19,
            "name": "Davenport"
          }
        ],
        "pollDivisionIds": [
          10136083
        ],
        "postalCode": "M6E1G7",
        "streetName": "NORMAN",
        "streetDirectionId": null,
        "streetTypeId": "AVE",
        "placeName": "YORK",
        "streetNameDisplayText": "NORMAN AVE, YORK"
      }
    ]
  },
  {
    "postal": "M6E4E9",
    "result": [
      {
        "electoralDistricts": [
          {
            "election": null,
            "id": 25,
            "name": "Eglinton—Lawrence"
          }
        ],
        "pollDivisionIds": [
          10137913
        ],
        "postalCode": "M6E4E9",
        "streetName": "HARTLEY",
        "streetDirectionId": null,
        "streetTypeId": "AVE",
        "placeName": "YORK",
        "streetNameDisplayText": "HARTLEY AVE, YORK"
      }
    ]
  },
  {
    "postal": "M6E9P0",
    "result": []
  },
  {
    "postal": "M6E5H3",
    "result": []
  },
  {
    "postal": "M6E9X6",
    "result": []
  },
  {
    "postal": "M6E5N7",
    "result": []
  },
  {
    "postal": "M6E5A6",
    "result": [
      {
        "electoralDistricts": [
          {
            "election": null,
            "id": 19,
            "name": "Davenport"
          }
        ],
        "pollDivisionIds": [
          10136077
        ],
        "postalCode": "M6E5A6",
        "streetName": "ALESSIA",
        "streetDirectionId": null,
        "streetTypeId": "CIR",
        "placeName": "YORK",
        "streetNameDisplayText": "ALESSIA CIR, YORK"
      }
    ]
  },
  {
    "postal": "M6E4M0",
    "result": []
  },
  {
    "postal": "M6E3V6",
    "result": [
      {
        "electoralDistricts": [
          {
            "election": null,
            "id": 19,
            "name": "Davenport"
          }
        ],
        "pollDivisionIds": [
          10136080
        ],
        "postalCode": "M6E3V6",
        "streetName": "ST CLAIR",
        "streetDirectionId": null,
        "streetTypeId": "GDNS",
        "placeName": "TORONTO",
        "streetNameDisplayText": "ST CLAIR GDNS, TORONTO"
      }
    ]
  },
  {
    "postal": "M6E1L7",
    "result": [
      {
        "electoralDistricts": [
          {
            "election": null,
            "id": 19,
            "name": "Davenport"
          }
        ],
        "pollDivisionIds": [
          10136079
        ],
        "postalCode": "M6E1L7",
        "streetName": "HOLLAND PARK",
        "streetDirectionId": null,
        "streetTypeId": "AVE",
        "placeName": "YORK",
        "streetNameDisplayText": "HOLLAND PARK AVE, YORK"
      }
    ]
  },
  {
    "postal": "M6E2P9",
    "result": [
      {
        "electoralDistricts": [
          {
            "election": null,
            "id": 25,
            "name": "Eglinton—Lawrence"
          }
        ],
        "pollDivisionIds": [
          10137913
        ],
        "postalCode": "M6E2P9",
        "streetName": "BOWIE",
        "streetDirectionId": null,
        "streetTypeId": "AVE",
        "placeName": "YORK",
        "streetNameDisplayText": "BOWIE AVE, YORK"
      }
    ]
  },
  {
    "postal": "M6E5T4",
    "result": []
  },
  {
    "postal": "M6E5Z1",
    "result": []
  },
  {
    "postal": "M6E2X0",
    "result": []
  },
  {
    "postal": "M6E6Z2",
    "result": []
  },
  {
    "postal": "M6E0E0",
    "result": []
  },
  {
    "postal": "M6E3Z5",
    "result": [
      {
        "electoralDistricts": [
          {
            "election": null,
            "id": 19,
            "name": "Davenport"
          }
        ],
        "pollDivisionIds": [
          10136080
        ],
        "postalCode": "M6E3Z5",
        "streetName": "BOON",
        "streetDirectionId": null,
        "streetTypeId": "AVE",
        "placeName": "TORONTO",
        "streetNameDisplayText": "BOON AVE, TORONTO"
      }
    ]
  },
  {
    "postal": "M6E8H3",
    "result": []
  },
  {
    "postal": "M6E7S6",
    "result": []
  },
  {
    "postal": "M6E4C1",
    "result": [
      {
        "electoralDistricts": [
          {
            "election": null,
            "id": 19,
            "name": "Davenport"
          }
        ],
        "pollDivisionIds": [
          10136076
        ],
        "postalCode": "M6E4C1",
        "streetName": "EARLSCOURT",
        "streetDirectionId": null,
        "streetTypeId": "AVE",
        "placeName": "YORK",
        "streetNameDisplayText": "EARLSCOURT AVE, YORK"
      }
    ]
  },
  {
    "postal": "M6E3K2",
    "result": [
      {
        "electoralDistricts": [
          {
            "election": null,
            "id": 25,
            "name": "Eglinton—Lawrence"
          }
        ],
        "pollDivisionIds": [
          10137915
        ],
        "postalCode": "M6E3K2",
        "streetName": "LOCKSLEY",
        "streetDirectionId": null,
        "streetTypeId": "AVE",
        "placeName": "YORK",
        "streetNameDisplayText": "LOCKSLEY AVE, YORK"
      }
    ]
  },
  {
    "postal": "M6E1Y5",
    "result": [
      {
        "electoralDistricts": [
          {
            "election": null,
            "id": 19,
            "name": "Davenport"
          }
        ],
        "pollDivisionIds": [
          10136076
        ],
        "postalCode": "M6E1Y5",
        "streetName": "HOLMESDALE",
        "streetDirectionId": null,
        "streetTypeId": "CRES",
        "placeName": "YORK",
        "streetNameDisplayText": "HOLMESDALE CRES, YORK"
      }
    ]
  },
  {
    "postal": "M6E6P6",
    "result": []
  },
  {
    "postal": "M6E3N9",
    "result": [
      {
        "electoralDistricts": [
          {
            "election": null,
            "id": 83,
            "name": "Parkdale—High Park"
          },
          {
            "election": null,
            "id": 19,
            "name": "Davenport"
          }
        ],
        "pollDivisionIds": [
          10126447,
          10136081
        ],
        "postalCode": "M6E3N9",
        "streetName": "DUFFERIN",
        "streetDirectionId": null,
        "streetTypeId": "ST",
        "placeName": "TORONTO",
        "streetNameDisplayText": "DUFFERIN ST, TORONTO"
      }
    ]
  },
  {
    "postal": "M6E3W2",
    "result": [
      {
        "electoralDistricts": [
          {
            "election": null,
            "id": 19,
            "name": "Davenport"
          }
        ],
        "pollDivisionIds": [
          10136080
        ],
        "postalCode": "M6E3W2",
        "streetName": "DAY",
        "streetDirectionId": null,
        "streetTypeId": "AVE",
        "placeName": "TORONTO",
        "streetNameDisplayText": "DAY AVE, TORONTO"
      }
    ]
  },
  {
    "postal": "M6E6H8",
    "result": []
  },
  {
    "postal": "M6E9T3",
    "result": []
  },
  {
    "postal": "M6E5L9",
    "result": []
  },
  {
    "postal": "M6E7X7",
    "result": []
  },
  {
    "postal": "M6E3J5",
    "result": [
      {
        "electoralDistricts": [
          {
            "election": null,
            "id": 111,
            "name": "Toronto—St. Paul's"
          }
        ],
        "pollDivisionIds": [
          10143668
        ],
        "postalCode": "M6E3J5",
        "streetName": "LAUDER",
        "streetDirectionId": null,
        "streetTypeId": "AVE",
        "placeName": "YORK",
        "streetNameDisplayText": "LAUDER AVE, YORK"
      }
    ]
  },
  {
    "postal": "M6E4J5",
    "result": [
      {
        "electoralDistricts": [
          {
            "election": null,
            "id": 19,
            "name": "Davenport"
          }
        ],
        "pollDivisionIds": [
          10136075
        ],
        "postalCode": "M6E4J5",
        "streetName": "NAIRN",
        "streetDirectionId": null,
        "streetTypeId": "AVE",
        "placeName": "YORK",
        "streetNameDisplayText": "NAIRN AVE, YORK"
      }
    ]
  },
  {
    "postal": "M6E6J2",
    "result": []
  },
  {
    "postal": "M6E5V6",
    "result": []
  },
  {
    "postal": "M6E3N2",
    "result": [
      {
        "electoralDistricts": [
          {
            "election": null,
            "id": 19,
            "name": "Davenport"
          }
        ],
        "pollDivisionIds": [
          10136081
        ],
        "postalCode": "M6E3N2",
        "streetName": "WESTMOUNT",
        "streetDirectionId": null,
        "streetTypeId": "AVE",
        "placeName": "YORK",
        "streetNameDisplayText": "WESTMOUNT AVE, YORK"
      }
    ]
  },
  {
    "postal": "M6E3B1",
    "result": [
      {
        "electoralDistricts": [
          {
            "election": null,
            "id": 25,
            "name": "Eglinton—Lawrence"
          }
        ],
        "pollDivisionIds": [
          10137918
        ],
        "postalCode": "M6E3B1",
        "streetName": "MARLEE",
        "streetDirectionId": null,
        "streetTypeId": "AVE",
        "placeName": "TORONTO",
        "streetNameDisplayText": "MARLEE AVE, TORONTO"
      }
    ]
  },
  {
    "postal": "M6E8B5",
    "result": []
  },
  {
    "postal": "M6E0K1",
    "result": []
  },
  {
    "postal": "M6E7M7",
    "result": []
  },
  {
    "postal": "M6E2M2",
    "result": [
      {
        "electoralDistricts": [
          {
            "election": null,
            "id": 25,
            "name": "Eglinton—Lawrence"
          }
        ],
        "pollDivisionIds": [
          10137914
        ],
        "postalCode": "M6E2M2",
        "streetName": "LIVINGSTONE",
        "streetDirectionId": null,
        "streetTypeId": "AVE",
        "placeName": "TORONTO",
        "streetNameDisplayText": "LIVINGSTONE AVE, TORONTO"
      },
      {
        "electoralDistricts": [
          {
            "election": null,
            "id": 25,
            "name": "Eglinton—Lawrence"
          }
        ],
        "pollDivisionIds": [
          10137914
        ],
        "postalCode": "M6E2M2",
        "streetName": "LIVINGSTONE",
        "streetDirectionId": null,
        "streetTypeId": "AVE",
        "placeName": "YORK",
        "streetNameDisplayText": "LIVINGSTONE AVE, YORK"
      }
    ]
  },
  {
    "postal": "M6E9N3",
    "result": []
  },
  {
    "postal": "M6E4Y8",
    "result": []
  },
  {
    "postal": "M6E3V7",
    "result": [
      {
        "electoralDistricts": [
          {
            "election": null,
            "id": 19,
            "name": "Davenport"
          }
        ],
        "pollDivisionIds": [
          10136080
        ],
        "postalCode": "M6E3V7",
        "streetName": "DAY",
        "streetDirectionId": null,
        "streetTypeId": "AVE",
        "placeName": "TORONTO",
        "streetNameDisplayText": "DAY AVE, TORONTO"
      }
    ]
  },
  {
    "postal": "M6E8Z1",
    "result": []
  },
  {
    "postal": "M6E7B3",
    "result": []
  },
  {
    "postal": "M6E3A8",
    "result": [
      {
        "electoralDistricts": [
          {
            "election": null,
            "id": 111,
            "name": "Toronto—St. Paul's"
          }
        ],
        "pollDivisionIds": [
          10143668
        ],
        "postalCode": "M6E3A8",
        "streetName": "ROCKVALE",
        "streetDirectionId": null,
        "streetTypeId": "AVE",
        "placeName": "YORK",
        "streetNameDisplayText": "ROCKVALE AVE, YORK"
      }
    ]
  },
  {
    "postal": "M6E7V5",
    "result": []
  },
  {
    "postal": "M6E2T2",
    "result": [
      {
        "electoralDistricts": [
          {
            "election": null,
            "id": 25,
            "name": "Eglinton—Lawrence"
          }
        ],
        "pollDivisionIds": [
          10137913
        ],
        "postalCode": "M6E2T2",
        "streetName": "SCHELL",
        "streetDirectionId": null,
        "streetTypeId": "AVE",
        "placeName": "YORK",
        "streetNameDisplayText": "SCHELL AVE, YORK"
      }
    ]
  },
  {
    "postal": "M6E6L3",
    "result": []
  },
  {
    "postal": "M6E0L2",
    "result": []
  },
  {
    "postal": "M6E5Y8",
    "result": []
  },
  {
    "postal": "M6E0B8",
    "result": []
  },
  {
    "postal": "M6E6R5",
    "result": []
  },
  {
    "postal": "M6E8W6",
    "result": []
  },
  {
    "postal": "M6E8G6",
    "result": []
  },
  {
    "postal": "M6E6X3",
    "result": []
  },
  {
    "postal": "M6E7R7",
    "result": []
  },
  {
    "postal": "M6E4B6",
    "result": [
      {
        "electoralDistricts": [
          {
            "election": null,
            "id": 19,
            "name": "Davenport"
          }
        ],
        "pollDivisionIds": [
          10136076
        ],
        "postalCode": "M6E4B6",
        "streetName": "EARLSCOURT",
        "streetDirectionId": null,
        "streetTypeId": "AVE",
        "placeName": "YORK",
        "streetNameDisplayText": "EARLSCOURT AVE, YORK"
      }
    ]
  },
  {
    "postal": "M6E3P9",
    "result": [
      {
        "electoralDistricts": [
          {
            "election": null,
            "id": 19,
            "name": "Davenport"
          }
        ],
        "pollDivisionIds": [
          10136081
        ],
        "postalCode": "M6E3P9",
        "streetName": "DUFFERIN",
        "streetDirectionId": null,
        "streetTypeId": "ST",
        "placeName": "YORK",
        "streetNameDisplayText": "DUFFERIN ST, YORK"
      }
    ]
  },
  {
    "postal": "M6E2T3",
    "result": [
      {
        "electoralDistricts": [
          {
            "election": null,
            "id": 25,
            "name": "Eglinton—Lawrence"
          }
        ],
        "pollDivisionIds": [
          10137913
        ],
        "postalCode": "M6E2T3",
        "streetName": "SCHELL",
        "streetDirectionId": null,
        "streetTypeId": "AVE",
        "placeName": "YORK",
        "streetNameDisplayText": "SCHELL AVE, YORK"
      }
    ]
  },
  {
    "postal": "M6E1M4",
    "result": [
      {
        "electoralDistricts": [
          {
            "election": null,
            "id": 19,
            "name": "Davenport"
          }
        ],
        "pollDivisionIds": [
          10136080
        ],
        "postalCode": "M6E1M4",
        "streetName": "MORRISON",
        "streetDirectionId": null,
        "streetTypeId": "AVE",
        "placeName": "YORK",
        "streetNameDisplayText": "MORRISON AVE, YORK"
      }
    ]
  },
  {
    "postal": "M6E0H1",
    "result": []
  },
  {
    "postal": "M6E9W3",
    "result": []
  },
  {
    "postal": "M6E6P1",
    "result": []
  },
  {
    "postal": "M6E7G2",
    "result": []
  },
  {
    "postal": "M6E4J9",
    "result": [
      {
        "electoralDistricts": [
          {
            "election": null,
            "id": 25,
            "name": "Eglinton—Lawrence"
          }
        ],
        "pollDivisionIds": [
          10137913
        ],
        "postalCode": "M6E4J9",
        "streetName": "CHAMBERLAIN",
        "streetDirectionId": null,
        "streetTypeId": "AVE",
        "placeName": "YORK",
        "streetNameDisplayText": "CHAMBERLAIN AVE, YORK"
      }
    ]
  },
  {
    "postal": "M6E9E4",
    "result": []
  },
  {
    "postal": "M6E8H0",
    "result": []
  },
  {
    "postal": "M6E4M7",
    "result": [
      {
        "electoralDistricts": [
          {
            "election": null,
            "id": 25,
            "name": "Eglinton—Lawrence"
          }
        ],
        "pollDivisionIds": [
          10137913
        ],
        "postalCode": "M6E4M7",
        "streetName": "RONALD",
        "streetDirectionId": null,
        "streetTypeId": "AVE",
        "placeName": "YORK",
        "streetNameDisplayText": "RONALD AVE, YORK"
      }
    ]
  },
  {
    "postal": "M6E2G9",
    "result": [
      {
        "electoralDistricts": [
          {
            "election": null,
            "id": 111,
            "name": "Toronto—St. Paul's"
          },
          {
            "election": null,
            "id": 25,
            "name": "Eglinton—Lawrence"
          }
        ],
        "pollDivisionIds": [
          10136028,
          10137915
        ],
        "postalCode": "M6E2G9",
        "streetName": "EGLINTON",
        "streetDirectionId": "W",
        "streetTypeId": "AVE",
        "placeName": "YORK",
        "streetNameDisplayText": "EGLINTON AVE W, YORK"
      }
    ]
  },
  {
    "postal": "M6E8T2",
    "result": []
  },
  {
    "postal": "M6E7G7",
    "result": []
  },
  {
    "postal": "M6E4Z3",
    "result": []
  },
  {
    "postal": "M6E5B3",
    "result": [
      {
        "electoralDistricts": [
          {
            "election": null,
            "id": 111,
            "name": "Toronto—St. Paul's"
          }
        ],
        "pollDivisionIds": [
          10136028
        ],
        "postalCode": "M6E5B3",
        "streetName": "NORTHCLIFFE",
        "streetDirectionId": null,
        "streetTypeId": "BLVD",
        "placeName": "YORK",
        "streetNameDisplayText": "NORTHCLIFFE BLVD, YORK"
      }
    ]
  },
  {
    "postal": "M6E1S7",
    "result": [
      {
        "electoralDistricts": [
          {
            "election": null,
            "id": 19,
            "name": "Davenport"
          }
        ],
        "pollDivisionIds": [
          10136076
        ],
        "postalCode": "M6E1S7",
        "streetName": "TEIGNMOUTH",
        "streetDirectionId": null,
        "streetTypeId": "AVE",
        "placeName": "YORK",
        "streetNameDisplayText": "TEIGNMOUTH AVE, YORK"
      }
    ]
  },
  {
    "postal": "M6E2N7",
    "result": [
      {
        "electoralDistricts": [
          {
            "election": null,
            "id": 25,
            "name": "Eglinton—Lawrence"
          }
        ],
        "pollDivisionIds": [
          10137914
        ],
        "postalCode": "M6E2N7",
        "streetName": "WHITMORE",
        "streetDirectionId": null,
        "streetTypeId": "AVE",
        "placeName": "YORK",
        "streetNameDisplayText": "WHITMORE AVE, YORK"
      }
    ]
  },
  {
    "postal": "M6E0H8",
    "result": []
  },
  {
    "postal": "M6E7Z4",
    "result": []
  },
  {
    "postal": "M6E7B1",
    "result": []
  },
  {
    "postal": "M6E7P8",
    "result": []
  },
  {
    "postal": "M6E7N0",
    "result": []
  },
  {
    "postal": "M6E3Y5",
    "result": [
      {
        "electoralDistricts": [
          {
            "election": null,
            "id": 25,
            "name": "Eglinton—Lawrence"
          }
        ],
        "pollDivisionIds": [
          10137913
        ],
        "postalCode": "M6E3Y5",
        "streetName": "FAIRBANK",
        "streetDirectionId": null,
        "streetTypeId": "AVE",
        "placeName": "YORK",
        "streetNameDisplayText": "FAIRBANK AVE, YORK"
      }
    ]
  },
  {
    "postal": "M6E6K1",
    "result": []
  },
  {
    "postal": "M6E9X5",
    "result": []
  },
  {
    "postal": "M6E7S5",
    "result": []
  },
  {
    "postal": "M6E0A4",
    "result": []
  },
  {
    "postal": "M6E4T5",
    "result": [
      {
        "electoralDistricts": [
          {
            "election": null,
            "id": 19,
            "name": "Davenport"
          }
        ],
        "pollDivisionIds": [
          10136077
        ],
        "postalCode": "M6E4T5",
        "streetName": "CALEDONIA",
        "streetDirectionId": null,
        "streetTypeId": "RD",
        "placeName": "YORK",
        "streetNameDisplayText": "CALEDONIA RD, YORK"
      }
    ]
  },
  {
    "postal": "M6E5K1",
    "result": []
  },
  {
    "postal": "M6E0Z9",
    "result": []
  },
  {
    "postal": "M6E7T2",
    "result": []
  },
  {
    "postal": "M6E1L5",
    "result": [
      {
        "electoralDistricts": [
          {
            "election": null,
            "id": 19,
            "name": "Davenport"
          }
        ],
        "pollDivisionIds": [
          10136079
        ],
        "postalCode": "M6E1L5",
        "streetName": "HOLLAND PARK",
        "streetDirectionId": null,
        "streetTypeId": "AVE",
        "placeName": "YORK",
        "streetNameDisplayText": "HOLLAND PARK AVE, YORK"
      }
    ]
  },
  {
    "postal": "M6E3N5",
    "result": [
      {
        "electoralDistricts": [
          {
            "election": null,
            "id": 111,
            "name": "Toronto—St. Paul's"
          }
        ],
        "pollDivisionIds": [
          10143668
        ],
        "postalCode": "M6E3N5",
        "streetName": "WESTMOUNT",
        "streetDirectionId": null,
        "streetTypeId": "AVE",
        "placeName": "YORK",
        "streetNameDisplayText": "WESTMOUNT AVE, YORK"
      }
    ]
  },
  {
    "postal": "M6E6H4",
    "result": []
  },
  {
    "postal": "M6E5A5",
    "result": [
      {
        "electoralDistricts": [
          {
            "election": null,
            "id": 111,
            "name": "Toronto—St. Paul's"
          }
        ],
        "pollDivisionIds": [
          10143670
        ],
        "postalCode": "M6E5A5",
        "streetName": "DUFFERIN",
        "streetDirectionId": null,
        "streetTypeId": "ST",
        "placeName": "YORK",
        "streetNameDisplayText": "DUFFERIN ST, YORK"
      }
    ]
  },
  {
    "postal": "M6E3R9",
    "result": [
      {
        "electoralDistricts": [
          {
            "election": null,
            "id": 111,
            "name": "Toronto—St. Paul's"
          }
        ],
        "pollDivisionIds": [
          10143668
        ],
        "postalCode": "M6E3R9",
        "streetName": "DUFFERIN",
        "streetDirectionId": null,
        "streetTypeId": "ST",
        "placeName": "YORK",
        "streetNameDisplayText": "DUFFERIN ST, YORK"
      }
    ]
  },
  {
    "postal": "M6E7L8",
    "result": []
  },
  {
    "postal": "M6E6T6",
    "result": []
  },
  {
    "postal": "M6E7Y7",
    "result": []
  },
  {
    "postal": "M6E3M8",
    "result": [
      {
        "electoralDistricts": [
          {
            "election": null,
            "id": 19,
            "name": "Davenport"
          }
        ],
        "pollDivisionIds": [
          10136081
        ],
        "postalCode": "M6E3M8",
        "streetName": "WESTMOUNT",
        "streetDirectionId": null,
        "streetTypeId": "AVE",
        "placeName": "YORK",
        "streetNameDisplayText": "WESTMOUNT AVE, YORK"
      }
    ]
  },
  {
    "postal": "M6E2E0",
    "result": []
  },
  {
    "postal": "M6E4B5",
    "result": [
      {
        "electoralDistricts": [
          {
            "election": null,
            "id": 19,
            "name": "Davenport"
          }
        ],
        "pollDivisionIds": [
          10136080
        ],
        "postalCode": "M6E4B5",
        "streetName": "EARLSCOURT",
        "streetDirectionId": null,
        "streetTypeId": "AVE",
        "placeName": "YORK",
        "streetNameDisplayText": "EARLSCOURT AVE, YORK"
      }
    ]
  },
  {
    "postal": "M6E1J3",
    "result": [
      {
        "electoralDistricts": [
          {
            "election": null,
            "id": 19,
            "name": "Davenport"
          }
        ],
        "pollDivisionIds": [
          10136080
        ],
        "postalCode": "M6E1J3",
        "streetName": "GOODWOOD",
        "streetDirectionId": null,
        "streetTypeId": "AVE",
        "placeName": "TORONTO",
        "streetNameDisplayText": "GOODWOOD AVE, TORONTO"
      }
    ]
  },
  {
    "postal": "M6E5S6",
    "result": []
  },
  {
    "postal": "M6E8P7",
    "result": []
  },
  {
    "postal": "M6E7S7",
    "result": []
  },
  {
    "postal": "M6E4C2",
    "result": [
      {
        "electoralDistricts": [
          {
            "election": null,
            "id": 19,
            "name": "Davenport"
          }
        ],
        "pollDivisionIds": [
          10136076
        ],
        "postalCode": "M6E4C2",
        "streetName": "ENNERDALE",
        "streetDirectionId": null,
        "streetTypeId": "RD",
        "placeName": "YORK",
        "streetNameDisplayText": "ENNERDALE RD, YORK"
      }
    ]
  },
  {
    "postal": "M6E5Y0",
    "result": []
  },
  {
    "postal": "M6E2V7",
    "result": [
      {
        "electoralDistricts": [
          {
            "election": null,
            "id": 19,
            "name": "Davenport"
          },
          {
            "election": null,
            "id": 111,
            "name": "Toronto—St. Paul's"
          }
        ],
        "pollDivisionIds": [
          10136079,
          10136030
        ],
        "postalCode": "M6E2V7",
        "streetName": "OAKWOOD",
        "streetDirectionId": null,
        "streetTypeId": "AVE",
        "placeName": "YORK",
        "streetNameDisplayText": "OAKWOOD AVE, YORK"
      }
    ]
  },
  {
    "postal": "M6E8P5",
    "result": []
  },
  {
    "postal": "M6E5P5",
    "result": []
  },
  {
    "postal": "M6E5Z0",
    "result": []
  },
  {
    "postal": "M6E9B0",
    "result": []
  },
  {
    "postal": "M6E1L0",
    "result": []
  },
  {
    "postal": "M6E0B5",
    "result": []
  },
  {
    "postal": "M6E3L2",
    "result": [
      {
        "electoralDistricts": [
          {
            "election": null,
            "id": 111,
            "name": "Toronto—St. Paul's"
          }
        ],
        "pollDivisionIds": [
          10143668
        ],
        "postalCode": "M6E3L2",
        "streetName": "NORTHCLIFFE",
        "streetDirectionId": null,
        "streetTypeId": "BLVD",
        "placeName": "TORONTO",
        "streetNameDisplayText": "NORTHCLIFFE BLVD, TORONTO"
      },
      {
        "electoralDistricts": [
          {
            "election": null,
            "id": 111,
            "name": "Toronto—St. Paul's"
          }
        ],
        "pollDivisionIds": [
          10143668
        ],
        "postalCode": "M6E3L2",
        "streetName": "NORTHCLIFFE",
        "streetDirectionId": null,
        "streetTypeId": "BLVD",
        "placeName": "YORK",
        "streetNameDisplayText": "NORTHCLIFFE BLVD, YORK"
      }
    ]
  },
  {
    "postal": "M6E3B7",
    "result": [
      {
        "electoralDistricts": [
          {
            "election": null,
            "id": 25,
            "name": "Eglinton—Lawrence"
          }
        ],
        "pollDivisionIds": [
          10137915
        ],
        "postalCode": "M6E3B7",
        "streetName": "TIMES",
        "streetDirectionId": null,
        "streetTypeId": "RD",
        "placeName": "YORK",
        "streetNameDisplayText": "TIMES RD, YORK"
      }
    ]
  },
  {
    "postal": "M6E8L1",
    "result": []
  },
  {
    "postal": "M6E5M4",
    "result": []
  },
  {
    "postal": "M6E4G9",
    "result": [
      {
        "electoralDistricts": [
          {
            "election": null,
            "id": 19,
            "name": "Davenport"
          }
        ],
        "pollDivisionIds": [
          10136083
        ],
        "postalCode": "M6E4G9",
        "streetName": "NAIRN",
        "streetDirectionId": null,
        "streetTypeId": "AVE",
        "placeName": "TORONTO",
        "streetNameDisplayText": "NAIRN AVE, TORONTO"
      }
    ]
  },
  {
    "postal": "M6E0P0",
    "result": []
  },
  {
    "postal": "M6E8G2",
    "result": []
  },
  {
    "postal": "M6E1V9",
    "result": [
      {
        "electoralDistricts": [
          {
            "election": null,
            "id": 19,
            "name": "Davenport"
          }
        ],
        "pollDivisionIds": [
          10136076
        ],
        "postalCode": "M6E1V9",
        "streetName": "HATHERLEY",
        "streetDirectionId": null,
        "streetTypeId": "RD",
        "placeName": "YORK",
        "streetNameDisplayText": "HATHERLEY RD, YORK"
      }
    ]
  },
  {
    "postal": "M6E8N8",
    "result": []
  },
  {
    "postal": "M6E6S8",
    "result": []
  },
  {
    "postal": "M6E8H2",
    "result": []
  },
  {
    "postal": "M6E5R8",
    "result": []
  },
  {
    "postal": "M6E5L4",
    "result": []
  },
  {
    "postal": "M6E9E1",
    "result": []
  },
  {
    "postal": "M6E1C4",
    "result": [
      {
        "electoralDistricts": [
          {
            "election": null,
            "id": 19,
            "name": "Davenport"
          }
        ],
        "pollDivisionIds": [
          10136083
        ],
        "postalCode": "M6E1C4",
        "streetName": "ST CLAIR",
        "streetDirectionId": "W",
        "streetTypeId": "AVE",
        "placeName": "TORONTO",
        "streetNameDisplayText": "ST CLAIR AVE W, TORONTO"
      }
    ]
  },
  {
    "postal": "M6E8W5",
    "result": []
  },
  {
    "postal": "M6E1Y4",
    "result": [
      {
        "electoralDistricts": [
          {
            "election": null,
            "id": 19,
            "name": "Davenport"
          }
        ],
        "pollDivisionIds": [
          10136076
        ],
        "postalCode": "M6E1Y4",
        "streetName": "HOLMESDALE",
        "streetDirectionId": null,
        "streetTypeId": "CRES",
        "placeName": "YORK",
        "streetNameDisplayText": "HOLMESDALE CRES, YORK"
      }
    ]
  },
  {
    "postal": "M6E1C0",
    "result": []
  },
  {
    "postal": "M6E2J2",
    "result": []
  },
  {
    "postal": "M6E2J0",
    "result": []
  },
  {
    "postal": "M6E7A3",
    "result": []
  },
  {
    "postal": "M6E8M1",
    "result": []
  },
  {
    "postal": "M6E7T9",
    "result": []
  },
  {
    "postal": "M6E6C0",
    "result": []
  },
  {
    "postal": "M6E7X1",
    "result": []
  },
  {
    "postal": "M6E0G1",
    "result": []
  },
  {
    "postal": "M6E4X2",
    "result": [
      {
        "electoralDistricts": [
          {
            "election": null,
            "id": 19,
            "name": "Davenport"
          }
        ],
        "pollDivisionIds": [
          10136077
        ],
        "postalCode": "M6E4X2",
        "streetName": "GILBERT",
        "streetDirectionId": null,
        "streetTypeId": "AVE",
        "placeName": "YORK",
        "streetNameDisplayText": "GILBERT AVE, YORK"
      }
    ]
  },
  {
    "postal": "M6E0N6",
    "result": []
  },
  {
    "postal": "M6E8E3",
    "result": []
  },
  {
    "postal": "M6E5S8",
    "result": []
  },
  {
    "postal": "M6E0R0",
    "result": []
  },
  {
    "postal": "M6E6J6",
    "result": []
  },
  {
    "postal": "M6E4B4",
    "result": [
      {
        "electoralDistricts": [
          {
            "election": null,
            "id": 19,
            "name": "Davenport"
          }
        ],
        "pollDivisionIds": [
          10136080
        ],
        "postalCode": "M6E4B4",
        "streetName": "EARLSCOURT",
        "streetDirectionId": null,
        "streetTypeId": "AVE",
        "placeName": "YORK",
        "streetNameDisplayText": "EARLSCOURT AVE, YORK"
      }
    ]
  },
  {
    "postal": "M6E7E3",
    "result": []
  },
  {
    "postal": "M6E3N6",
    "result": [
      {
        "electoralDistricts": [
          {
            "election": null,
            "id": 111,
            "name": "Toronto—St. Paul's"
          }
        ],
        "pollDivisionIds": [
          10143668
        ],
        "postalCode": "M6E3N6",
        "streetName": "WESTMOUNT",
        "streetDirectionId": null,
        "streetTypeId": "AVE",
        "placeName": "YORK",
        "streetNameDisplayText": "WESTMOUNT AVE, YORK"
      }
    ]
  },
  {
    "postal": "M6E3X6",
    "result": [
      {
        "electoralDistricts": [
          {
            "election": null,
            "id": 25,
            "name": "Eglinton—Lawrence"
          }
        ],
        "pollDivisionIds": [
          10137913
        ],
        "postalCode": "M6E3X6",
        "streetName": "SHORTT",
        "streetDirectionId": null,
        "streetTypeId": "ST",
        "placeName": "YORK",
        "streetNameDisplayText": "SHORTT ST, YORK"
      }
    ]
  },
  {
    "postal": "M6E8L0",
    "result": []
  },
  {
    "postal": "M6E8N1",
    "result": []
  },
  {
    "postal": "M6E4J0",
    "result": []
  },
  {
    "postal": "M6E0X7",
    "result": []
  },
  {
    "postal": "M6E6S4",
    "result": []
  },
  {
    "postal": "M6E0Z0",
    "result": []
  },
  {
    "postal": "M6E9X8",
    "result": []
  },
  {
    "postal": "M6E3H3",
    "result": [
      {
        "electoralDistricts": [
          {
            "election": null,
            "id": 19,
            "name": "Davenport"
          }
        ],
        "pollDivisionIds": [
          10136081
        ],
        "postalCode": "M6E3H3",
        "streetName": "LAUDER",
        "streetDirectionId": null,
        "streetTypeId": "AVE",
        "placeName": "TORONTO",
        "streetNameDisplayText": "LAUDER AVE, TORONTO"
      },
      {
        "electoralDistricts": [
          {
            "election": null,
            "id": 19,
            "name": "Davenport"
          }
        ],
        "pollDivisionIds": [
          10136081,
          10136079
        ],
        "postalCode": "M6E3H3",
        "streetName": "LAUDER",
        "streetDirectionId": null,
        "streetTypeId": "AVE",
        "placeName": "YORK",
        "streetNameDisplayText": "LAUDER AVE, YORK"
      }
    ]
  },
  {
    "postal": "M6E7S2",
    "result": []
  },
  {
    "postal": "M6E3T3",
    "result": [
      {
        "electoralDistricts": [
          {
            "election": null,
            "id": 25,
            "name": "Eglinton—Lawrence"
          }
        ],
        "pollDivisionIds": [
          10137913
        ],
        "postalCode": "M6E3T3",
        "streetName": "DUFFERIN",
        "streetDirectionId": null,
        "streetTypeId": "ST",
        "placeName": "YORK",
        "streetNameDisplayText": "DUFFERIN ST, YORK"
      }
    ]
  },
  {
    "postal": "M6E9P3",
    "result": []
  },
  {
    "postal": "M6E4H8",
    "result": [
      {
        "electoralDistricts": [
          {
            "election": null,
            "id": 19,
            "name": "Davenport"
          }
        ],
        "pollDivisionIds": [
          10136076
        ],
        "postalCode": "M6E4H8",
        "streetName": "NAIRN",
        "streetDirectionId": null,
        "streetTypeId": "AVE",
        "placeName": "YORK",
        "streetNameDisplayText": "NAIRN AVE, YORK"
      }
    ]
  },
  {
    "postal": "M6E6R1",
    "result": []
  },
  {
    "postal": "M6E1S0",
    "result": []
  },
  {
    "postal": "M6E3W8",
    "result": [
      {
        "electoralDistricts": [
          {
            "election": null,
            "id": 19,
            "name": "Davenport"
          }
        ],
        "pollDivisionIds": [
          10136076
        ],
        "postalCode": "M6E3W8",
        "streetName": "DYNEVOR",
        "streetDirectionId": null,
        "streetTypeId": "RD",
        "placeName": "YORK",
        "streetNameDisplayText": "DYNEVOR RD, YORK"
      }
    ]
  },
  {
    "postal": "M6E4S3",
    "result": [
      {
        "electoralDistricts": [
          {
            "election": null,
            "id": 19,
            "name": "Davenport"
          }
        ],
        "pollDivisionIds": [
          10136083
        ],
        "postalCode": "M6E4S3",
        "streetName": "CALEDONIA",
        "streetDirectionId": null,
        "streetTypeId": "RD",
        "placeName": "TORONTO",
        "streetNameDisplayText": "CALEDONIA RD, TORONTO"
      }
    ]
  },
  {
    "postal": "M6E1B6",
    "result": []
  },
  {
    "postal": "M6E8R3",
    "result": []
  },
  {
    "postal": "M6E4V9",
    "result": [
      {
        "electoralDistricts": [
          {
            "election": null,
            "id": 25,
            "name": "Eglinton—Lawrence"
          }
        ],
        "pollDivisionIds": [
          10137913
        ],
        "postalCode": "M6E4V9",
        "streetName": "CALEDONIA",
        "streetDirectionId": null,
        "streetTypeId": "RD",
        "placeName": "YORK",
        "streetNameDisplayText": "CALEDONIA RD, YORK"
      }
    ]
  },
  {
    "postal": "M6E9W4",
    "result": []
  },
  {
    "postal": "M6E3T4",
    "result": [
      {
        "electoralDistricts": [
          {
            "election": null,
            "id": 19,
            "name": "Davenport"
          }
        ],
        "pollDivisionIds": [
          10136080
        ],
        "postalCode": "M6E3T4",
        "streetName": "SELLERS",
        "streetDirectionId": null,
        "streetTypeId": "AVE",
        "placeName": "TORONTO",
        "streetNameDisplayText": "SELLERS AVE, TORONTO"
      }
    ]
  },
  {
    "postal": "M6E5C7",
    "result": []
  },
  {
    "postal": "M6E3Y1",
    "result": [
      {
        "electoralDistricts": [
          {
            "election": null,
            "id": 19,
            "name": "Davenport"
          }
        ],
        "pollDivisionIds": [
          10136075
        ],
        "postalCode": "M6E3Y1",
        "streetName": "KIRKNEWTON",
        "streetDirectionId": null,
        "streetTypeId": "RD",
        "placeName": "YORK",
        "streetNameDisplayText": "KIRKNEWTON RD, YORK"
      }
    ]
  },
  {
    "postal": "M6E5V0",
    "result": []
  },
  {
    "postal": "M6E8G8",
    "result": []
  },
  {
    "postal": "M6E8B1",
    "result": []
  },
  {
    "postal": "M6E4P5",
    "result": [
      {
        "electoralDistricts": [
          {
            "election": null,
            "id": 19,
            "name": "Davenport"
          }
        ],
        "pollDivisionIds": [
          10136083
        ],
        "postalCode": "M6E4P5",
        "streetName": "MCROBERTS",
        "streetDirectionId": null,
        "streetTypeId": "AVE",
        "placeName": "TORONTO",
        "streetNameDisplayText": "MCROBERTS AVE, TORONTO"
      }
    ]
  },
  {
    "postal": "M6E7B2",
    "result": []
  },
  {
    "postal": "M6E0R2",
    "result": []
  },
  {
    "postal": "M6E4M4",
    "result": [
      {
        "electoralDistricts": [
          {
            "election": null,
            "id": 19,
            "name": "Davenport"
          }
        ],
        "pollDivisionIds": [
          10136075
        ],
        "postalCode": "M6E4M4",
        "streetName": "HARVIE",
        "streetDirectionId": null,
        "streetTypeId": "AVE",
        "placeName": "YORK",
        "streetNameDisplayText": "HARVIE AVE, YORK"
      }
    ]
  },
  {
    "postal": "M6E7M4",
    "result": []
  },
  {
    "postal": "M6E9S7",
    "result": []
  },
  {
    "postal": "M6E5Z7",
    "result": []
  },
  {
    "postal": "M6E7J7",
    "result": []
  },
  {
    "postal": "M6E8R8",
    "result": []
  },
  {
    "postal": "M6E9X1",
    "result": []
  },
  {
    "postal": "M6E5M9",
    "result": []
  },
  {
    "postal": "M6E9B4",
    "result": []
  },
  {
    "postal": "M6E0L9",
    "result": []
  },
  {
    "postal": "M6E9G4",
    "result": []
  },
  {
    "postal": "M6E1J4",
    "result": [
      {
        "electoralDistricts": [
          {
            "election": null,
            "id": 19,
            "name": "Davenport"
          }
        ],
        "pollDivisionIds": [
          10136079
        ],
        "postalCode": "M6E1J4",
        "streetName": "EARNSCLIFFE",
        "streetDirectionId": null,
        "streetTypeId": "RD",
        "placeName": "YORK",
        "streetNameDisplayText": "EARNSCLIFFE RD, YORK"
      }
    ]
  },
  {
    "postal": "M6E0W6",
    "result": []
  }
]
