[
  {
    "postal": "M4K9J6",
    "result": []
  },
  {
    "postal": "M4K9Z5",
    "result": []
  },
  {
    "postal": "M4K7H8",
    "result": []
  },
  {
    "postal": "M4K0P6",
    "result": []
  },
  {
    "postal": "M4K0S7",
    "result": []
  },
  {
    "postal": "M4K8B9",
    "result": []
  },
  {
    "postal": "M4K2A6",
    "result": [
      {
        "electoralDistricts": [
          {
            "election": null,
            "id": 110,
            "name": "Toronto—Danforth"
          }
        ],
        "pollDivisionIds": [
          10142506
        ],
        "postalCode": "M4K2A6",
        "streetName": "WESTWOOD",
        "streetDirectionId": null,
        "streetTypeId": "AVE",
        "placeName": "EAST YORK",
        "streetNameDisplayText": "WESTWOOD AVE, EAST YORK"
      }
    ]
  },
  {
    "postal": "M4K7V2",
    "result": []
  },
  {
    "postal": "M4K9P4",
    "result": []
  },
  {
    "postal": "M4K6G0",
    "result": []
  },
  {
    "postal": "M4K2K0",
    "result": []
  },
  {
    "postal": "M4K7N6",
    "result": []
  },
  {
    "postal": "M4K5R3",
    "result": []
  },
  {
    "postal": "M4K7K0",
    "result": []
  },
  {
    "postal": "M4K3R2",
    "result": [
      {
        "electoralDistricts": [
          {
            "election": null,
            "id": 110,
            "name": "Toronto—Danforth"
          }
        ],
        "pollDivisionIds": [
          10142512
        ],
        "postalCode": "M4K3R2",
        "streetName": "PAPE",
        "streetDirectionId": null,
        "streetTypeId": "AVE",
        "placeName": "TORONTO",
        "streetNameDisplayText": "PAPE AVE, TORONTO"
      }
    ]
  },
  {
    "postal": "M4K0J1",
    "result": []
  },
  {
    "postal": "M4K0B0",
    "result": []
  },
  {
    "postal": "M4K5Z2",
    "result": []
  },
  {
    "postal": "M4K7P3",
    "result": []
  },
  {
    "postal": "M4K2K3",
    "result": [
      {
        "electoralDistricts": [
          {
            "election": null,
            "id": 110,
            "name": "Toronto—Danforth"
          }
        ],
        "pollDivisionIds": [
          10142501
        ],
        "postalCode": "M4K2K3",
        "streetName": "O'CONNOR",
        "streetDirectionId": null,
        "streetTypeId": "DR",
        "placeName": "EAST YORK",
        "streetNameDisplayText": "O'CONNOR DR, EAST YORK"
      }
    ]
  },
  {
    "postal": "M4K7Y6",
    "result": []
  },
  {
    "postal": "M4K1L9",
    "result": [
      {
        "electoralDistricts": [
          {
            "election": null,
            "id": 110,
            "name": "Toronto—Danforth"
          }
        ],
        "pollDivisionIds": [
          10142516
        ],
        "postalCode": "M4K1L9",
        "streetName": "FAIRVIEW",
        "streetDirectionId": null,
        "streetTypeId": "BLVD",
        "placeName": "TORONTO",
        "streetNameDisplayText": "FAIRVIEW BLVD, TORONTO"
      }
    ]
  },
  {
    "postal": "M4K8T0",
    "result": []
  },
  {
    "postal": "M4K3K8",
    "result": [
      {
        "electoralDistricts": [
          {
            "election": null,
            "id": 110,
            "name": "Toronto—Danforth"
          }
        ],
        "pollDivisionIds": [
          10142512
        ],
        "postalCode": "M4K3K8",
        "streetName": "CARLAW",
        "streetDirectionId": null,
        "streetTypeId": "AVE",
        "placeName": "TORONTO",
        "streetNameDisplayText": "CARLAW AVE, TORONTO"
      }
    ]
  },
  {
    "postal": "M4K5W9",
    "result": []
  },
  {
    "postal": "M4K6T9",
    "result": []
  },
  {
    "postal": "M4K4H1",
    "result": []
  },
  {
    "postal": "M4K7A2",
    "result": []
  },
  {
    "postal": "M4K5G0",
    "result": []
  },
  {
    "postal": "M4K8V5",
    "result": []
  },
  {
    "postal": "M4K2Y8",
    "result": [
      {
        "electoralDistricts": [
          {
            "election": null,
            "id": 110,
            "name": "Toronto—Danforth"
          }
        ],
        "pollDivisionIds": [
          10142516
        ],
        "postalCode": "M4K2Y8",
        "streetName": "HAMPTON",
        "streetDirectionId": null,
        "streetTypeId": "AVE",
        "placeName": "TORONTO",
        "streetNameDisplayText": "HAMPTON AVE, TORONTO"
      }
    ]
  },
  {
    "postal": "M4K2B6",
    "result": [
      {
        "electoralDistricts": [
          {
            "election": null,
            "id": 110,
            "name": "Toronto—Danforth"
          }
        ],
        "pollDivisionIds": [
          10142505
        ],
        "postalCode": "M4K2B6",
        "streetName": "FLOYD",
        "streetDirectionId": null,
        "streetTypeId": "AVE",
        "placeName": "EAST YORK",
        "streetNameDisplayText": "FLOYD AVE, EAST YORK"
      }
    ]
  },
  {
    "postal": "M4K4W8",
    "result": []
  },
  {
    "postal": "M4K8H7",
    "result": []
  },
  {
    "postal": "M4K5P1",
    "result": []
  },
  {
    "postal": "M4K2B8",
    "result": [
      {
        "electoralDistricts": [
          {
            "election": null,
            "id": 110,
            "name": "Toronto—Danforth"
          }
        ],
        "pollDivisionIds": [
          10142531
        ],
        "postalCode": "M4K2B8",
        "streetName": "BROADVIEW",
        "streetDirectionId": null,
        "streetTypeId": "AVE",
        "placeName": "EAST YORK",
        "streetNameDisplayText": "BROADVIEW AVE, EAST YORK"
      },
      {
        "electoralDistricts": [
          {
            "election": null,
            "id": 110,
            "name": "Toronto—Danforth"
          }
        ],
        "pollDivisionIds": [
          10142531
        ],
        "postalCode": "M4K2B8",
        "streetName": "BROADVIEW",
        "streetDirectionId": null,
        "streetTypeId": "AVE",
        "placeName": "TORONTO",
        "streetNameDisplayText": "BROADVIEW AVE, TORONTO"
      }
    ]
  },
  {
    "postal": "M4K0P2",
    "result": []
  },
  {
    "postal": "M4K9M1",
    "result": []
  },
  {
    "postal": "M4K3G0",
    "result": []
  },
  {
    "postal": "M4K9Z2",
    "result": []
  },
  {
    "postal": "M4K2A0",
    "result": []
  },
  {
    "postal": "M4K6Y0",
    "result": []
  },
  {
    "postal": "M4K2Z8",
    "result": [
      {
        "electoralDistricts": [
          {
            "election": null,
            "id": 110,
            "name": "Toronto—Danforth"
          }
        ],
        "pollDivisionIds": [
          10142510
        ],
        "postalCode": "M4K2Z8",
        "streetName": "CHESTER",
        "streetDirectionId": null,
        "streetTypeId": "AVE",
        "placeName": "TORONTO",
        "streetNameDisplayText": "CHESTER AVE, TORONTO"
      }
    ]
  },
  {
    "postal": "M4K7Y3",
    "result": []
  },
  {
    "postal": "M4K6Z5",
    "result": []
  },
  {
    "postal": "M4K6E0",
    "result": []
  },
  {
    "postal": "M4K9B7",
    "result": []
  },
  {
    "postal": "M4K9S5",
    "result": []
  },
  {
    "postal": "M4K3X3",
    "result": [
      {
        "electoralDistricts": [
          {
            "election": null,
            "id": 110,
            "name": "Toronto—Danforth"
          }
        ],
        "pollDivisionIds": [
          10142501
        ],
        "postalCode": "M4K3X3",
        "streetName": "PAPE",
        "streetDirectionId": null,
        "streetTypeId": "AVE",
        "placeName": "EAST YORK",
        "streetNameDisplayText": "PAPE AVE, EAST YORK"
      }
    ]
  },
  {
    "postal": "M4K7R5",
    "result": []
  },
  {
    "postal": "M4K2X3",
    "result": [
      {
        "electoralDistricts": [
          {
            "election": null,
            "id": 110,
            "name": "Toronto—Danforth"
          }
        ],
        "pollDivisionIds": [
          10142516
        ],
        "postalCode": "M4K2X3",
        "streetName": "BOWDEN",
        "streetDirectionId": null,
        "streetTypeId": "ST",
        "placeName": "TORONTO",
        "streetNameDisplayText": "BOWDEN ST, TORONTO"
      }
    ]
  },
  {
    "postal": "M4K8Z9",
    "result": []
  },
  {
    "postal": "M4K0N4",
    "result": []
  },
  {
    "postal": "M4K1K1",
    "result": [
      {
        "electoralDistricts": [
          {
            "election": null,
            "id": 110,
            "name": "Toronto—Danforth"
          }
        ],
        "pollDivisionIds": [
          10142516
        ],
        "postalCode": "M4K1K1",
        "streetName": "HOGARTH",
        "streetDirectionId": null,
        "streetTypeId": "AVE",
        "placeName": "TORONTO",
        "streetNameDisplayText": "HOGARTH AVE, TORONTO"
      }
    ]
  },
  {
    "postal": "M4K1S3",
    "result": [
      {
        "electoralDistricts": [
          {
            "election": null,
            "id": 110,
            "name": "Toronto—Danforth"
          }
        ],
        "pollDivisionIds": [
          10142510
        ],
        "postalCode": "M4K1S3",
        "streetName": "PLAYTER",
        "streetDirectionId": null,
        "streetTypeId": "CRES",
        "placeName": "TORONTO",
        "streetNameDisplayText": "PLAYTER CRES, TORONTO"
      }
    ]
  },
  {
    "postal": "M4K6M4",
    "result": []
  },
  {
    "postal": "M4K9A9",
    "result": []
  },
  {
    "postal": "M4K9Z9",
    "result": []
  },
  {
    "postal": "M4K6T4",
    "result": []
  },
  {
    "postal": "M4K0B2",
    "result": []
  },
  {
    "postal": "M4K2L9",
    "result": [
      {
        "electoralDistricts": [
          {
            "election": null,
            "id": 110,
            "name": "Toronto—Danforth"
          }
        ],
        "pollDivisionIds": [
          10142510
        ],
        "postalCode": "M4K2L9",
        "streetName": "CAMBRIDGE",
        "streetDirectionId": null,
        "streetTypeId": "AVE",
        "placeName": "TORONTO",
        "streetNameDisplayText": "CAMBRIDGE AVE, TORONTO"
      }
    ]
  },
  {
    "postal": "M4K8K9",
    "result": []
  },
  {
    "postal": "M4K2H9",
    "result": [
      {
        "electoralDistricts": [
          {
            "election": null,
            "id": 110,
            "name": "Toronto—Danforth"
          }
        ],
        "pollDivisionIds": [
          10142501
        ],
        "postalCode": "M4K2H9",
        "streetName": "TORRENS",
        "streetDirectionId": null,
        "streetTypeId": "AVE",
        "placeName": "EAST YORK",
        "streetNameDisplayText": "TORRENS AVE, EAST YORK"
      }
    ]
  },
  {
    "postal": "M4K3Z6",
    "result": [
      {
        "electoralDistricts": [
          {
            "election": null,
            "id": 110,
            "name": "Toronto—Danforth"
          }
        ],
        "pollDivisionIds": [
          10142506
        ],
        "postalCode": "M4K3Z6",
        "streetName": "BURLEY",
        "streetDirectionId": null,
        "streetTypeId": "AVE",
        "placeName": "EAST YORK",
        "streetNameDisplayText": "BURLEY AVE, EAST YORK"
      }
    ]
  },
  {
    "postal": "M4K3B0",
    "result": []
  },
  {
    "postal": "M4K2H8",
    "result": [
      {
        "electoralDistricts": [
          {
            "election": null,
            "id": 110,
            "name": "Toronto—Danforth"
          }
        ],
        "pollDivisionIds": [
          10142501
        ],
        "postalCode": "M4K2H8",
        "streetName": "TORRENS",
        "streetDirectionId": null,
        "streetTypeId": "AVE",
        "placeName": "EAST YORK",
        "streetNameDisplayText": "TORRENS AVE, EAST YORK"
      }
    ]
  },
  {
    "postal": "M4K3X2",
    "result": [
      {
        "electoralDistricts": [
          {
            "election": null,
            "id": 110,
            "name": "Toronto—Danforth"
          }
        ],
        "pollDivisionIds": [
          10142501
        ],
        "postalCode": "M4K3X2",
        "streetName": "PAPE",
        "streetDirectionId": null,
        "streetTypeId": "AVE",
        "placeName": "EAST YORK",
        "streetNameDisplayText": "PAPE AVE, EAST YORK"
      }
    ]
  },
  {
    "postal": "M4K2E9",
    "result": [
      {
        "electoralDistricts": [
          {
            "election": null,
            "id": 110,
            "name": "Toronto—Danforth"
          }
        ],
        "pollDivisionIds": [
          10142505
        ],
        "postalCode": "M4K2E9",
        "streetName": "COSBURN",
        "streetDirectionId": null,
        "streetTypeId": "AVE",
        "placeName": "EAST YORK",
        "streetNameDisplayText": "COSBURN AVE, EAST YORK"
      }
    ]
  },
  {
    "postal": "M4K9P6",
    "result": []
  },
  {
    "postal": "M4K9E2",
    "result": []
  },
  {
    "postal": "M4K9H2",
    "result": []
  },
  {
    "postal": "M4K1S8",
    "result": [
      {
        "electoralDistricts": [
          {
            "election": null,
            "id": 110,
            "name": "Toronto—Danforth"
          }
        ],
        "pollDivisionIds": [
          10142514
        ],
        "postalCode": "M4K1S8",
        "streetName": "DARTFORD",
        "streetDirectionId": null,
        "streetTypeId": "RD",
        "placeName": "TORONTO",
        "streetNameDisplayText": "DARTFORD RD, TORONTO"
      }
    ]
  },
  {
    "postal": "M4K3M6",
    "result": [
      {
        "electoralDistricts": [
          {
            "election": null,
            "id": 110,
            "name": "Toronto—Danforth"
          }
        ],
        "pollDivisionIds": [
          10142505
        ],
        "postalCode": "M4K3M6",
        "streetName": "CARLAW",
        "streetDirectionId": null,
        "streetTypeId": "AVE",
        "placeName": "EAST YORK",
        "streetNameDisplayText": "CARLAW AVE, EAST YORK"
      }
    ]
  },
  {
    "postal": "M4K6Z8",
    "result": []
  },
  {
    "postal": "M4K4J2",
    "result": []
  },
  {
    "postal": "M4K9Y1",
    "result": []
  },
  {
    "postal": "M4K8V6",
    "result": []
  },
  {
    "postal": "M4K6B2",
    "result": []
  },
  {
    "postal": "M4K1P8",
    "result": [
      {
        "electoralDistricts": [
          {
            "election": null,
            "id": 110,
            "name": "Toronto—Danforth"
          }
        ],
        "pollDivisionIds": [
          10142509,
          10142516
        ],
        "postalCode": "M4K1P8",
        "streetName": "DANFORTH",
        "streetDirectionId": null,
        "streetTypeId": "AVE",
        "placeName": "TORONTO",
        "streetNameDisplayText": "DANFORTH AVE, TORONTO"
      }
    ]
  },
  {
    "postal": "M4K0V8",
    "result": []
  },
  {
    "postal": "M4K4Y0",
    "result": []
  },
  {
    "postal": "M4K2T4",
    "result": [
      {
        "electoralDistricts": [
          {
            "election": null,
            "id": 110,
            "name": "Toronto—Danforth"
          }
        ],
        "pollDivisionIds": [
          10142501
        ],
        "postalCode": "M4K2T4",
        "streetName": "BROADVIEW",
        "streetDirectionId": null,
        "streetTypeId": "AVE",
        "placeName": "EAST YORK",
        "streetNameDisplayText": "BROADVIEW AVE, EAST YORK"
      }
    ]
  },
  {
    "postal": "M4K2S3",
    "result": [
      {
        "electoralDistricts": [
          {
            "election": null,
            "id": 110,
            "name": "Toronto—Danforth"
          }
        ],
        "pollDivisionIds": [
          10142506
        ],
        "postalCode": "M4K2S3",
        "streetName": "BROADVIEW",
        "streetDirectionId": null,
        "streetTypeId": "AVE",
        "placeName": "EAST YORK",
        "streetNameDisplayText": "BROADVIEW AVE, EAST YORK"
      }
    ]
  },
  {
    "postal": "M4K0K0",
    "result": []
  },
  {
    "postal": "M4K5N1",
    "result": []
  },
  {
    "postal": "M4K7T0",
    "result": []
  },
  {
    "postal": "M4K9N2",
    "result": []
  },
  {
    "postal": "M4K5L1",
    "result": []
  },
  {
    "postal": "M4K7G5",
    "result": []
  },
  {
    "postal": "M4K6K2",
    "result": []
  },
  {
    "postal": "M4K6P9",
    "result": []
  },
  {
    "postal": "M4K0E6",
    "result": []
  },
  {
    "postal": "M4K8R9",
    "result": []
  },
  {
    "postal": "M4K3G9",
    "result": [
      {
        "electoralDistricts": [
          {
            "election": null,
            "id": 110,
            "name": "Toronto—Danforth"
          }
        ],
        "pollDivisionIds": [
          10142506
        ],
        "postalCode": "M4K3G9",
        "streetName": "LOGAN",
        "streetDirectionId": null,
        "streetTypeId": "AVE",
        "placeName": "EAST YORK",
        "streetNameDisplayText": "LOGAN AVE, EAST YORK"
      },
      {
        "electoralDistricts": [
          {
            "election": null,
            "id": 110,
            "name": "Toronto—Danforth"
          }
        ],
        "pollDivisionIds": [
          10142529
        ],
        "postalCode": "M4K3G9",
        "streetName": "LOGAN",
        "streetDirectionId": null,
        "streetTypeId": "AVE",
        "placeName": "TORONTO",
        "streetNameDisplayText": "LOGAN AVE, TORONTO"
      }
    ]
  },
  {
    "postal": "M4K0V7",
    "result": []
  },
  {
    "postal": "M4K2Z1",
    "result": [
      {
        "electoralDistricts": [
          {
            "election": null,
            "id": 110,
            "name": "Toronto—Danforth"
          }
        ],
        "pollDivisionIds": [
          10142516
        ],
        "postalCode": "M4K2Z1",
        "streetName": "HAMPTON",
        "streetDirectionId": null,
        "streetTypeId": "AVE",
        "placeName": "TORONTO",
        "streetNameDisplayText": "HAMPTON AVE, TORONTO"
      }
    ]
  },
  {
    "postal": "M4K7N1",
    "result": []
  },
  {
    "postal": "M4K3C6",
    "result": [
      {
        "electoralDistricts": [
          {
            "election": null,
            "id": 110,
            "name": "Toronto—Danforth"
          }
        ],
        "pollDivisionIds": [
          10142520
        ],
        "postalCode": "M4K3C6",
        "streetName": "LOGAN",
        "streetDirectionId": null,
        "streetTypeId": "AVE",
        "placeName": "TORONTO",
        "streetNameDisplayText": "LOGAN AVE, TORONTO"
      }
    ]
  },
  {
    "postal": "M4K4M1",
    "result": []
  },
  {
    "postal": "M4K9K2",
    "result": []
  },
  {
    "postal": "M4K9S6",
    "result": []
  },
  {
    "postal": "M4K4X1",
    "result": []
  },
  {
    "postal": "M4K8W2",
    "result": []
  },
  {
    "postal": "M4K7N2",
    "result": []
  },
  {
    "postal": "M4K8S3",
    "result": []
  },
  {
    "postal": "M4K4V0",
    "result": []
  },
  {
    "postal": "M4K6W4",
    "result": []
  },
  {
    "postal": "M4K5M1",
    "result": []
  },
  {
    "postal": "M4K0S4",
    "result": []
  },
  {
    "postal": "M4K5X6",
    "result": []
  },
  {
    "postal": "M4K8L5",
    "result": []
  },
  {
    "postal": "M4K5M8",
    "result": []
  },
  {
    "postal": "M4K2G3",
    "result": [
      {
        "electoralDistricts": [
          {
            "election": null,
            "id": 110,
            "name": "Toronto—Danforth"
          }
        ],
        "pollDivisionIds": [
          10142505
        ],
        "postalCode": "M4K2G3",
        "streetName": "COSBURN",
        "streetDirectionId": null,
        "streetTypeId": "AVE",
        "placeName": "EAST YORK",
        "streetNameDisplayText": "COSBURN AVE, EAST YORK"
      }
    ]
  },
  {
    "postal": "M4K8E4",
    "result": []
  },
  {
    "postal": "M4K7S9",
    "result": []
  },
  {
    "postal": "M4K1K3",
    "result": [
      {
        "electoralDistricts": [
          {
            "election": null,
            "id": 110,
            "name": "Toronto—Danforth"
          }
        ],
        "pollDivisionIds": [
          10142516
        ],
        "postalCode": "M4K1K3",
        "streetName": "HOGARTH",
        "streetDirectionId": null,
        "streetTypeId": "AVE",
        "placeName": "TORONTO",
        "streetNameDisplayText": "HOGARTH AVE, TORONTO"
      }
    ]
  },
  {
    "postal": "M4K4E1",
    "result": []
  },
  {
    "postal": "M4K4R2",
    "result": []
  },
  {
    "postal": "M4K6T0",
    "result": []
  },
  {
    "postal": "M4K3K5",
    "result": [
      {
        "electoralDistricts": [
          {
            "election": null,
            "id": 110,
            "name": "Toronto—Danforth"
          }
        ],
        "pollDivisionIds": [
          10142512
        ],
        "postalCode": "M4K3K5",
        "streetName": "CARLAW",
        "streetDirectionId": null,
        "streetTypeId": "AVE",
        "placeName": "TORONTO",
        "streetNameDisplayText": "CARLAW AVE, TORONTO"
      }
    ]
  },
  {
    "postal": "M4K3S3",
    "result": [
      {
        "electoralDistricts": [
          {
            "election": null,
            "id": 110,
            "name": "Toronto—Danforth"
          }
        ],
        "pollDivisionIds": [
          10142512
        ],
        "postalCode": "M4K3S3",
        "streetName": "PAPE",
        "streetDirectionId": null,
        "streetTypeId": "AVE",
        "placeName": "TORONTO",
        "streetNameDisplayText": "PAPE AVE, TORONTO"
      }
    ]
  },
  {
    "postal": "M4K3L4",
    "result": [
      {
        "electoralDistricts": [
          {
            "election": null,
            "id": 110,
            "name": "Toronto—Danforth"
          }
        ],
        "pollDivisionIds": [
          10142509
        ],
        "postalCode": "M4K3L4",
        "streetName": "CARLAW",
        "streetDirectionId": null,
        "streetTypeId": "AVE",
        "placeName": "TORONTO",
        "streetNameDisplayText": "CARLAW AVE, TORONTO"
      }
    ]
  },
  {
    "postal": "M4K9Y2",
    "result": []
  },
  {
    "postal": "M4K1E0",
    "result": []
  },
  {
    "postal": "M4K9A4",
    "result": []
  },
  {
    "postal": "M4K1L3",
    "result": [
      {
        "electoralDistricts": [
          {
            "election": null,
            "id": 110,
            "name": "Toronto—Danforth"
          }
        ],
        "pollDivisionIds": [
          10142516
        ],
        "postalCode": "M4K1L3",
        "streetName": "WOLFREY",
        "streetDirectionId": null,
        "streetTypeId": "AVE",
        "placeName": "TORONTO",
        "streetNameDisplayText": "WOLFREY AVE, TORONTO"
      }
    ]
  },
  {
    "postal": "M4K6N1",
    "result": []
  },
  {
    "postal": "M4K6G7",
    "result": []
  },
  {
    "postal": "M4K7W1",
    "result": []
  },
  {
    "postal": "M4K4M6",
    "result": []
  },
  {
    "postal": "M4K1K0",
    "result": []
  },
  {
    "postal": "M4K3E2",
    "result": [
      {
        "electoralDistricts": [
          {
            "election": null,
            "id": 110,
            "name": "Toronto—Danforth"
          }
        ],
        "pollDivisionIds": [
          10142516
        ],
        "postalCode": "M4K3E2",
        "streetName": "LOGAN",
        "streetDirectionId": null,
        "streetTypeId": "AVE",
        "placeName": "TORONTO",
        "streetNameDisplayText": "LOGAN AVE, TORONTO"
      }
    ]
  },
  {
    "postal": "M4K5H4",
    "result": []
  },
  {
    "postal": "M4K1K7",
    "result": [
      {
        "electoralDistricts": [
          {
            "election": null,
            "id": 110,
            "name": "Toronto—Danforth"
          }
        ],
        "pollDivisionIds": [
          10142512
        ],
        "postalCode": "M4K1K7",
        "streetName": "STRATHCONA",
        "streetDirectionId": null,
        "streetTypeId": "AVE",
        "placeName": "TORONTO",
        "streetNameDisplayText": "STRATHCONA AVE, TORONTO"
      }
    ]
  },
  {
    "postal": "M4K0H0",
    "result": []
  },
  {
    "postal": "M4K0J3",
    "result": []
  },
  {
    "postal": "M4K1X6",
    "result": [
      {
        "electoralDistricts": [
          {
            "election": null,
            "id": 110,
            "name": "Toronto—Danforth"
          }
        ],
        "pollDivisionIds": [
          10142510
        ],
        "postalCode": "M4K1X6",
        "streetName": "FULTON",
        "streetDirectionId": null,
        "streetTypeId": "AVE",
        "placeName": "TORONTO",
        "streetNameDisplayText": "FULTON AVE, TORONTO"
      }
    ]
  },
  {
    "postal": "M4K2Z6",
    "result": [
      {
        "electoralDistricts": [
          {
            "election": null,
            "id": 110,
            "name": "Toronto—Danforth"
          }
        ],
        "pollDivisionIds": [
          10142523
        ],
        "postalCode": "M4K2Z6",
        "streetName": "HOWLAND",
        "streetDirectionId": null,
        "streetTypeId": "RD",
        "placeName": "TORONTO",
        "streetNameDisplayText": "HOWLAND RD, TORONTO"
      }
    ]
  },
  {
    "postal": "M4K4R9",
    "result": []
  },
  {
    "postal": "M4K0W8",
    "result": []
  },
  {
    "postal": "M4K1L4",
    "result": [
      {
        "electoralDistricts": [
          {
            "election": null,
            "id": 110,
            "name": "Toronto—Danforth"
          }
        ],
        "pollDivisionIds": [
          10142516
        ],
        "postalCode": "M4K1L4",
        "streetName": "WOLFREY",
        "streetDirectionId": null,
        "streetTypeId": "AVE",
        "placeName": "TORONTO",
        "streetNameDisplayText": "WOLFREY AVE, TORONTO"
      }
    ]
  },
  {
    "postal": "M4K0C8",
    "result": []
  },
  {
    "postal": "M4K9X7",
    "result": []
  },
  {
    "postal": "M4K4T1",
    "result": []
  },
  {
    "postal": "M4K0M0",
    "result": []
  },
  {
    "postal": "M4K6A2",
    "result": []
  },
  {
    "postal": "M4K9S8",
    "result": []
  },
  {
    "postal": "M4K9T4",
    "result": []
  },
  {
    "postal": "M4K9Y4",
    "result": []
  },
  {
    "postal": "M4K6G5",
    "result": []
  },
  {
    "postal": "M4K6H9",
    "result": []
  },
  {
    "postal": "M4K2P3",
    "result": [
      {
        "electoralDistricts": [
          {
            "election": null,
            "id": 110,
            "name": "Toronto—Danforth"
          }
        ],
        "pollDivisionIds": [
          10142514
        ],
        "postalCode": "M4K2P3",
        "streetName": "BROADVIEW",
        "streetDirectionId": null,
        "streetTypeId": "AV",
        "placeName": "TORONTO CITY (06 EAST YORK)",
        "streetNameDisplayText": "BROADVIEW AV, TORONTO CITY (06 EAST YORK)"
      },
      {
        "electoralDistricts": [
          {
            "election": null,
            "id": 110,
            "name": "Toronto—Danforth"
          }
        ],
        "pollDivisionIds": [
          10142535,
          10142529
        ],
        "postalCode": "M4K2P3",
        "streetName": "BROADVIEW",
        "streetDirectionId": null,
        "streetTypeId": "AVE",
        "placeName": "TORONTO",
        "streetNameDisplayText": "BROADVIEW AVE, TORONTO"
      }
    ]
  },
  {
    "postal": "M4K1T6",
    "result": [
      {
        "electoralDistricts": [
          {
            "election": null,
            "id": 110,
            "name": "Toronto—Danforth"
          }
        ],
        "pollDivisionIds": [
          10142510
        ],
        "postalCode": "M4K1T6",
        "streetName": "BUTTERNUT",
        "streetDirectionId": null,
        "streetTypeId": "ST",
        "placeName": "TORONTO",
        "streetNameDisplayText": "BUTTERNUT ST, TORONTO"
      }
    ]
  },
  {
    "postal": "M4K4P6",
    "result": []
  },
  {
    "postal": "M4K3K1",
    "result": [
      {
        "electoralDistricts": [
          {
            "election": null,
            "id": 110,
            "name": "Toronto—Danforth"
          }
        ],
        "pollDivisionIds": [
          10142512
        ],
        "postalCode": "M4K3K1",
        "streetName": "CARLAW",
        "streetDirectionId": null,
        "streetTypeId": "AVE",
        "placeName": "TORONTO",
        "streetNameDisplayText": "CARLAW AVE, TORONTO"
      }
    ]
  },
  {
    "postal": "M4K6X4",
    "result": []
  },
  {
    "postal": "M4K4M8",
    "result": []
  },
  {
    "postal": "M4K2Y1",
    "result": [
      {
        "electoralDistricts": [
          {
            "election": null,
            "id": 110,
            "name": "Toronto—Danforth"
          }
        ],
        "pollDivisionIds": [
          10142510
        ],
        "postalCode": "M4K2Y1",
        "streetName": "JACKMAN",
        "streetDirectionId": null,
        "streetTypeId": "AVE",
        "placeName": "TORONTO",
        "streetNameDisplayText": "JACKMAN AVE, TORONTO"
      }
    ]
  },
  {
    "postal": "M4K6M1",
    "result": []
  },
  {
    "postal": "M4K5L8",
    "result": []
  },
  {
    "postal": "M4K3P6",
    "result": [
      {
        "electoralDistricts": [
          {
            "election": null,
            "id": 110,
            "name": "Toronto—Danforth"
          }
        ],
        "pollDivisionIds": [
          10142519
        ],
        "postalCode": "M4K3P6",
        "streetName": "PAPE",
        "streetDirectionId": null,
        "streetTypeId": "AVE",
        "placeName": "TORONTO",
        "streetNameDisplayText": "PAPE AVE, TORONTO"
      }
    ]
  },
  {
    "postal": "M4K9A5",
    "result": []
  },
  {
    "postal": "M4K7K1",
    "result": []
  },
  {
    "postal": "M4K3J4",
    "result": [
      {
        "electoralDistricts": [
          {
            "election": null,
            "id": 110,
            "name": "Toronto—Danforth"
          }
        ],
        "pollDivisionIds": [
          10142519
        ],
        "postalCode": "M4K3J4",
        "streetName": "CARLAW",
        "streetDirectionId": null,
        "streetTypeId": "AVE",
        "placeName": "TORONTO",
        "streetNameDisplayText": "CARLAW AVE, TORONTO"
      }
    ]
  },
  {
    "postal": "M4K5E7",
    "result": []
  },
  {
    "postal": "M4K3A7",
    "result": [
      {
        "electoralDistricts": [
          {
            "election": null,
            "id": 110,
            "name": "Toronto—Danforth"
          }
        ],
        "pollDivisionIds": [
          10142510
        ],
        "postalCode": "M4K3A7",
        "streetName": "ARUNDEL",
        "streetDirectionId": null,
        "streetTypeId": "AVE",
        "placeName": "TORONTO",
        "streetNameDisplayText": "ARUNDEL AVE, TORONTO"
      }
    ]
  },
  {
    "postal": "M4K1B9",
    "result": [
      {
        "electoralDistricts": [
          {
            "election": null,
            "id": 110,
            "name": "Toronto—Danforth"
          }
        ],
        "pollDivisionIds": [
          10142519
        ],
        "postalCode": "M4K1B9",
        "streetName": "LANGLEY",
        "streetDirectionId": null,
        "streetTypeId": "AVE",
        "placeName": "TORONTO",
        "streetNameDisplayText": "LANGLEY AVE, TORONTO"
      }
    ]
  },
  {
    "postal": "M4K9E8",
    "result": []
  },
  {
    "postal": "M4K1C9",
    "result": [
      {
        "electoralDistricts": [
          {
            "election": null,
            "id": 110,
            "name": "Toronto—Danforth"
          }
        ],
        "pollDivisionIds": [
          10142520
        ],
        "postalCode": "M4K1C9",
        "streetName": "WITHROW",
        "streetDirectionId": null,
        "streetTypeId": "AVE",
        "placeName": "TORONTO",
        "streetNameDisplayText": "WITHROW AVE, TORONTO"
      }
    ]
  },
  {
    "postal": "M4K3B5",
    "result": [
      {
        "electoralDistricts": [
          {
            "election": null,
            "id": 110,
            "name": "Toronto—Danforth"
          }
        ],
        "pollDivisionIds": [
          10142523
        ],
        "postalCode": "M4K3B5",
        "streetName": "LOGAN",
        "streetDirectionId": null,
        "streetTypeId": "AVE",
        "placeName": "TORONTO",
        "streetNameDisplayText": "LOGAN AVE, TORONTO"
      }
    ]
  },
  {
    "postal": "M4K8R0",
    "result": []
  },
  {
    "postal": "M4K3P2",
    "result": [
      {
        "electoralDistricts": [
          {
            "election": null,
            "id": 110,
            "name": "Toronto—Danforth"
          }
        ],
        "pollDivisionIds": [
          10142509
        ],
        "postalCode": "M4K3P2",
        "streetName": "GOUGH",
        "streetDirectionId": null,
        "streetTypeId": "AVE",
        "placeName": "EAST YORK",
        "streetNameDisplayText": "GOUGH AVE, EAST YORK"
      },
      {
        "electoralDistricts": [
          {
            "election": null,
            "id": 110,
            "name": "Toronto—Danforth"
          }
        ],
        "pollDivisionIds": [
          10142509
        ],
        "postalCode": "M4K3P2",
        "streetName": "GOUGH",
        "streetDirectionId": null,
        "streetTypeId": "AVE",
        "placeName": "TORONTO",
        "streetNameDisplayText": "GOUGH AVE, TORONTO"
      }
    ]
  },
  {
    "postal": "M4K5V4",
    "result": []
  },
  {
    "postal": "M4K4H0",
    "result": []
  },
  {
    "postal": "M4K4S7",
    "result": []
  },
  {
    "postal": "M4K6C2",
    "result": []
  },
  {
    "postal": "M4K8W3",
    "result": []
  },
  {
    "postal": "M4K4M5",
    "result": []
  },
  {
    "postal": "M4K5T1",
    "result": []
  },
  {
    "postal": "M4K3B3",
    "result": [
      {
        "electoralDistricts": [
          {
            "election": null,
            "id": 110,
            "name": "Toronto—Danforth"
          }
        ],
        "pollDivisionIds": [
          10142519
        ],
        "postalCode": "M4K3B3",
        "streetName": "LOGAN",
        "streetDirectionId": null,
        "streetTypeId": "AVE",
        "placeName": "TORONTO",
        "streetNameDisplayText": "LOGAN AVE, TORONTO"
      }
    ]
  },
  {
    "postal": "M4K6C6",
    "result": []
  },
  {
    "postal": "M4K7N8",
    "result": []
  },
  {
    "postal": "M4K2Y3",
    "result": [
      {
        "electoralDistricts": [
          {
            "election": null,
            "id": 110,
            "name": "Toronto—Danforth"
          }
        ],
        "pollDivisionIds": [
          10142506
        ],
        "postalCode": "M4K2Y3",
        "streetName": "JACKMAN",
        "streetDirectionId": null,
        "streetTypeId": "AVE",
        "placeName": "TORONTO",
        "streetNameDisplayText": "JACKMAN AVE, TORONTO"
      }
    ]
  },
  {
    "postal": "M4K2R6",
    "result": [
      {
        "electoralDistricts": [
          {
            "election": null,
            "id": 110,
            "name": "Toronto—Danforth"
          }
        ],
        "pollDivisionIds": [
          10142510
        ],
        "postalCode": "M4K2R6",
        "streetName": "BROADVIEW",
        "streetDirectionId": null,
        "streetTypeId": "AVE",
        "placeName": "EAST YORK",
        "streetNameDisplayText": "BROADVIEW AVE, EAST YORK"
      }
    ]
  },
  {
    "postal": "M4K7N3",
    "result": []
  },
  {
    "postal": "M4K8J2",
    "result": []
  },
  {
    "postal": "M4K6A9",
    "result": []
  },
  {
    "postal": "M4K3V2",
    "result": [
      {
        "electoralDistricts": [
          {
            "election": null,
            "id": 110,
            "name": "Toronto—Danforth"
          }
        ],
        "pollDivisionIds": [
          10142505
        ],
        "postalCode": "M4K3V2",
        "streetName": "PAPE",
        "streetDirectionId": null,
        "streetTypeId": "AVE",
        "placeName": "EAST YORK",
        "streetNameDisplayText": "PAPE AVE, EAST YORK"
      }
    ]
  },
  {
    "postal": "M4K2N3",
    "result": [
      {
        "electoralDistricts": [
          {
            "election": null,
            "id": 110,
            "name": "Toronto—Danforth"
          }
        ],
        "pollDivisionIds": [
          10142520
        ],
        "postalCode": "M4K2N3",
        "streetName": "BROADVIEW",
        "streetDirectionId": null,
        "streetTypeId": "AVE",
        "placeName": "TORONTO",
        "streetNameDisplayText": "BROADVIEW AVE, TORONTO"
      }
    ]
  },
  {
    "postal": "M4K1S5",
    "result": [
      {
        "electoralDistricts": [
          {
            "election": null,
            "id": 110,
            "name": "Toronto—Danforth"
          }
        ],
        "pollDivisionIds": [
          10142510
        ],
        "postalCode": "M4K1S5",
        "streetName": "PLAYTER",
        "streetDirectionId": null,
        "streetTypeId": "CRES",
        "placeName": "TORONTO",
        "streetNameDisplayText": "PLAYTER CRES, TORONTO"
      }
    ]
  },
  {
    "postal": "M4K4T7",
    "result": []
  },
  {
    "postal": "M4K6Y7",
    "result": []
  },
  {
    "postal": "M4K0W7",
    "result": []
  },
  {
    "postal": "M4K2W9",
    "result": [
      {
        "electoralDistricts": [
          {
            "election": null,
            "id": 110,
            "name": "Toronto—Danforth"
          }
        ],
        "pollDivisionIds": [
          10142516
        ],
        "postalCode": "M4K2W9",
        "streetName": "INGHAM",
        "streetDirectionId": null,
        "streetTypeId": "AVE",
        "placeName": "TORONTO",
        "streetNameDisplayText": "INGHAM AVE, TORONTO"
      }
    ]
  },
  {
    "postal": "M4K8V0",
    "result": []
  },
  {
    "postal": "M4K0H4",
    "result": []
  },
  {
    "postal": "M4K2T1",
    "result": [
      {
        "electoralDistricts": [
          {
            "election": null,
            "id": 110,
            "name": "Toronto—Danforth"
          }
        ],
        "pollDivisionIds": [
          10142501
        ],
        "postalCode": "M4K2T1",
        "streetName": "BROADVIEW",
        "streetDirectionId": null,
        "streetTypeId": "AVE",
        "placeName": "EAST YORK",
        "streetNameDisplayText": "BROADVIEW AVE, EAST YORK"
      }
    ]
  },
  {
    "postal": "M4K1B1",
    "result": [
      {
        "electoralDistricts": [
          {
            "election": null,
            "id": 110,
            "name": "Toronto—Danforth"
          }
        ],
        "pollDivisionIds": [
          10142523
        ],
        "postalCode": "M4K1B1",
        "streetName": "VICTOR",
        "streetDirectionId": null,
        "streetTypeId": "AVE",
        "placeName": "TORONTO",
        "streetNameDisplayText": "VICTOR AVE, TORONTO"
      }
    ]
  },
  {
    "postal": "M4K8B6",
    "result": []
  },
  {
    "postal": "M4K6H1",
    "result": []
  },
  {
    "postal": "M4K8T8",
    "result": []
  },
  {
    "postal": "M4K0T4",
    "result": []
  },
  {
    "postal": "M4K2C4",
    "result": [
      {
        "electoralDistricts": [
          {
            "election": null,
            "id": 110,
            "name": "Toronto—Danforth"
          }
        ],
        "pollDivisionIds": [
          10142506
        ],
        "postalCode": "M4K2C4",
        "streetName": "BATER",
        "streetDirectionId": null,
        "streetTypeId": "AVE",
        "placeName": "EAST YORK",
        "streetNameDisplayText": "BATER AVE, EAST YORK"
      }
    ]
  },
  {
    "postal": "M4K8N3",
    "result": []
  },
  {
    "postal": "M4K4L8",
    "result": []
  },
  {
    "postal": "M4K2B5",
    "result": [
      {
        "electoralDistricts": [
          {
            "election": null,
            "id": 110,
            "name": "Toronto—Danforth"
          }
        ],
        "pollDivisionIds": [
          10142506
        ],
        "postalCode": "M4K2B5",
        "streetName": "FLOYD",
        "streetDirectionId": null,
        "streetTypeId": "AVE",
        "placeName": "EAST YORK",
        "streetNameDisplayText": "FLOYD AVE, EAST YORK"
      }
    ]
  },
  {
    "postal": "M4K3H1",
    "result": [
      {
        "electoralDistricts": [
          {
            "election": null,
            "id": 110,
            "name": "Toronto—Danforth"
          }
        ],
        "pollDivisionIds": [
          10142506
        ],
        "postalCode": "M4K3H1",
        "streetName": "LOGAN",
        "streetDirectionId": null,
        "streetTypeId": "AVE",
        "placeName": "EAST YORK",
        "streetNameDisplayText": "LOGAN AVE, EAST YORK"
      }
    ]
  },
  {
    "postal": "M4K4Y1",
    "result": []
  },
  {
    "postal": "M4K7E2",
    "result": []
  },
  {
    "postal": "M4K2P5",
    "result": [
      {
        "electoralDistricts": [
          {
            "election": null,
            "id": 110,
            "name": "Toronto—Danforth"
          }
        ],
        "pollDivisionIds": [
          10142516
        ],
        "postalCode": "M4K2P5",
        "streetName": "BROADVIEW",
        "streetDirectionId": null,
        "streetTypeId": "AVE",
        "placeName": "TORONTO",
        "streetNameDisplayText": "BROADVIEW AVE, TORONTO"
      }
    ]
  },
  {
    "postal": "M4K8R7",
    "result": []
  },
  {
    "postal": "M4K9P1",
    "result": []
  },
  {
    "postal": "M4K3B8",
    "result": [
      {
        "electoralDistricts": [
          {
            "election": null,
            "id": 110,
            "name": "Toronto—Danforth"
          }
        ],
        "pollDivisionIds": [
          10142520
        ],
        "postalCode": "M4K3B8",
        "streetName": "LOGAN",
        "streetDirectionId": null,
        "streetTypeId": "AVE",
        "placeName": "TORONTO",
        "streetNameDisplayText": "LOGAN AVE, TORONTO"
      }
    ]
  },
  {
    "postal": "M4K3P7",
    "result": [
      {
        "electoralDistricts": [
          {
            "election": null,
            "id": 110,
            "name": "Toronto—Danforth"
          }
        ],
        "pollDivisionIds": [
          10142519
        ],
        "postalCode": "M4K3P7",
        "streetName": "PAPE",
        "streetDirectionId": null,
        "streetTypeId": "AVE",
        "placeName": "TORONTO",
        "streetNameDisplayText": "PAPE AVE, TORONTO"
      }
    ]
  },
  {
    "postal": "M4K9B2",
    "result": []
  },
  {
    "postal": "M4K6Z3",
    "result": []
  },
  {
    "postal": "M4K4N5",
    "result": []
  },
  {
    "postal": "M4K8T3",
    "result": []
  },
  {
    "postal": "M4K1V2",
    "result": [
      {
        "electoralDistricts": [
          {
            "election": null,
            "id": 110,
            "name": "Toronto—Danforth"
          }
        ],
        "pollDivisionIds": [
          10142514
        ],
        "postalCode": "M4K1V2",
        "streetName": "EASTMOUNT",
        "streetDirectionId": null,
        "streetTypeId": "AVE",
        "placeName": "TORONTO",
        "streetNameDisplayText": "EASTMOUNT AVE, TORONTO"
      }
    ]
  },
  {
    "postal": "M4K1Y0",
    "result": []
  },
  {
    "postal": "M4K3G6",
    "result": [
      {
        "electoralDistricts": [
          {
            "election": null,
            "id": 110,
            "name": "Toronto—Danforth"
          }
        ],
        "pollDivisionIds": [
          10142506
        ],
        "postalCode": "M4K3G6",
        "streetName": "LOGAN",
        "streetDirectionId": null,
        "streetTypeId": "AVE",
        "placeName": "EAST YORK",
        "streetNameDisplayText": "LOGAN AVE, EAST YORK"
      }
    ]
  },
  {
    "postal": "M4K3H7",
    "result": [
      {
        "electoralDistricts": [
          {
            "election": null,
            "id": 110,
            "name": "Toronto—Danforth"
          }
        ],
        "pollDivisionIds": [
          10142501
        ],
        "postalCode": "M4K3H7",
        "streetName": "BEECHWOOD",
        "streetDirectionId": null,
        "streetTypeId": "DR",
        "placeName": "EAST YORK",
        "streetNameDisplayText": "BEECHWOOD DR, EAST YORK"
      }
    ]
  },
  {
    "postal": "M4K7X8",
    "result": []
  },
  {
    "postal": "M4K0C7",
    "result": []
  },
  {
    "postal": "M4K0W9",
    "result": []
  },
  {
    "postal": "M4K8E6",
    "result": []
  },
  {
    "postal": "M4K9Z8",
    "result": []
  },
  {
    "postal": "M4K3P4",
    "result": [
      {
        "electoralDistricts": [
          {
            "election": null,
            "id": 110,
            "name": "Toronto—Danforth"
          }
        ],
        "pollDivisionIds": [
          10142519
        ],
        "postalCode": "M4K3P4",
        "streetName": "PAPE",
        "streetDirectionId": null,
        "streetTypeId": "AVE",
        "placeName": "TORONTO",
        "streetNameDisplayText": "PAPE AVE, TORONTO"
      }
    ]
  },
  {
    "postal": "M4K6L8",
    "result": []
  },
  {
    "postal": "M4K2R4",
    "result": [
      {
        "electoralDistricts": [
          {
            "election": null,
            "id": 110,
            "name": "Toronto—Danforth"
          }
        ],
        "pollDivisionIds": [
          10142510
        ],
        "postalCode": "M4K2R4",
        "streetName": "BROADVIEW",
        "streetDirectionId": null,
        "streetTypeId": "AVE",
        "placeName": "TORONTO",
        "streetNameDisplayText": "BROADVIEW AVE, TORONTO"
      }
    ]
  },
  {
    "postal": "M4K2W1",
    "result": [
      {
        "electoralDistricts": [
          {
            "election": null,
            "id": 110,
            "name": "Toronto—Danforth"
          }
        ],
        "pollDivisionIds": [
          10142510
        ],
        "postalCode": "M4K2W1",
        "streetName": "PLAYTER",
        "streetDirectionId": null,
        "streetTypeId": "BLVD",
        "placeName": "TORONTO",
        "streetNameDisplayText": "PLAYTER BLVD, TORONTO"
      }
    ]
  },
  {
    "postal": "M4K9H8",
    "result": []
  },
  {
    "postal": "M4K8X9",
    "result": []
  },
  {
    "postal": "M4K7H4",
    "result": []
  },
  {
    "postal": "M4K3J1",
    "result": [
      {
        "electoralDistricts": [
          {
            "election": null,
            "id": 110,
            "name": "Toronto—Danforth"
          }
        ],
        "pollDivisionIds": [
          10142523
        ],
        "postalCode": "M4K3J1",
        "streetName": "CARLAW",
        "streetDirectionId": null,
        "streetTypeId": "AVE",
        "placeName": "TORONTO",
        "streetNameDisplayText": "CARLAW AVE, TORONTO"
      }
    ]
  },
  {
    "postal": "M4K1P4",
    "result": [
      {
        "electoralDistricts": [
          {
            "election": null,
            "id": 110,
            "name": "Toronto—Danforth"
          }
        ],
        "pollDivisionIds": [
          10142510
        ],
        "postalCode": "M4K1P4",
        "streetName": "DANFORTH",
        "streetDirectionId": null,
        "streetTypeId": "AVE",
        "placeName": "TORONTO",
        "streetNameDisplayText": "DANFORTH AVE, TORONTO"
      }
    ]
  },
  {
    "postal": "M4K2A3",
    "result": [
      {
        "electoralDistricts": [
          {
            "election": null,
            "id": 110,
            "name": "Toronto—Danforth"
          }
        ],
        "pollDivisionIds": [
          10142509
        ],
        "postalCode": "M4K2A3",
        "streetName": "MORTIMER",
        "streetDirectionId": null,
        "streetTypeId": "AVE",
        "placeName": "EAST YORK",
        "streetNameDisplayText": "MORTIMER AVE, EAST YORK"
      }
    ]
  },
  {
    "postal": "M4K0Z1",
    "result": []
  },
  {
    "postal": "M4K1C1",
    "result": [
      {
        "electoralDistricts": [
          {
            "election": null,
            "id": 110,
            "name": "Toronto—Danforth"
          }
        ],
        "pollDivisionIds": [
          10142519
        ],
        "postalCode": "M4K1C1",
        "streetName": "LANGLEY",
        "streetDirectionId": null,
        "streetTypeId": "AVE",
        "placeName": "TORONTO",
        "streetNameDisplayText": "LANGLEY AVE, TORONTO"
      }
    ]
  },
  {
    "postal": "M4K0H3",
    "result": []
  },
  {
    "postal": "M4K7B0",
    "result": []
  },
  {
    "postal": "M4K5K2",
    "result": []
  },
  {
    "postal": "M4K1E9",
    "result": [
      {
        "electoralDistricts": [
          {
            "election": null,
            "id": 110,
            "name": "Toronto—Danforth"
          }
        ],
        "pollDivisionIds": [
          10142520
        ],
        "postalCode": "M4K1E9",
        "streetName": "BAIN",
        "streetDirectionId": null,
        "streetTypeId": "AVE",
        "placeName": "TORONTO",
        "streetNameDisplayText": "BAIN AVE, TORONTO"
      }
    ]
  },
  {
    "postal": "M4K9W7",
    "result": []
  },
  {
    "postal": "M4K5W6",
    "result": []
  },
  {
    "postal": "M4K6S6",
    "result": []
  },
  {
    "postal": "M4K2P8",
    "result": [
      {
        "electoralDistricts": [
          {
            "election": null,
            "id": 110,
            "name": "Toronto—Danforth"
          }
        ],
        "pollDivisionIds": [
          10142510
        ],
        "postalCode": "M4K2P8",
        "streetName": "BROADVIEW",
        "streetDirectionId": null,
        "streetTypeId": "AVE",
        "placeName": "TORONTO",
        "streetNameDisplayText": "BROADVIEW AVE, TORONTO"
      }
    ]
  },
  {
    "postal": "M4K4P8",
    "result": []
  },
  {
    "postal": "M4K0V9",
    "result": []
  },
  {
    "postal": "M4K5Y2",
    "result": []
  },
  {
    "postal": "M4K7Z7",
    "result": []
  },
  {
    "postal": "M4K6Y8",
    "result": []
  },
  {
    "postal": "M4K2G7",
    "result": [
      {
        "electoralDistricts": [
          {
            "election": null,
            "id": 110,
            "name": "Toronto—Danforth"
          }
        ],
        "pollDivisionIds": [
          10142501
        ],
        "postalCode": "M4K2G7",
        "streetName": "COSBURN",
        "streetDirectionId": null,
        "streetTypeId": "AVE",
        "placeName": "EAST YORK",
        "streetNameDisplayText": "COSBURN AVE, EAST YORK"
      }
    ]
  },
  {
    "postal": "M4K8C1",
    "result": []
  },
  {
    "postal": "M4K5C5",
    "result": []
  },
  {
    "postal": "M4K2X8",
    "result": [
      {
        "electoralDistricts": [
          {
            "election": null,
            "id": 110,
            "name": "Toronto—Danforth"
          }
        ],
        "pollDivisionIds": [
          10142510
        ],
        "postalCode": "M4K2X8",
        "streetName": "JACKMAN",
        "streetDirectionId": null,
        "streetTypeId": "AVE",
        "placeName": "TORONTO",
        "streetNameDisplayText": "JACKMAN AVE, TORONTO"
      }
    ]
  },
  {
    "postal": "M4K1W5",
    "result": [
      {
        "electoralDistricts": [
          {
            "election": null,
            "id": 110,
            "name": "Toronto—Danforth"
          }
        ],
        "pollDivisionIds": [
          10142509
        ],
        "postalCode": "M4K1W5",
        "streetName": "BROWNING",
        "streetDirectionId": null,
        "streetTypeId": "AVE",
        "placeName": "TORONTO",
        "streetNameDisplayText": "BROWNING AVE, TORONTO"
      }
    ]
  },
  {
    "postal": "M4K7G0",
    "result": []
  },
  {
    "postal": "M4K8J8",
    "result": []
  },
  {
    "postal": "M4K3Y0",
    "result": []
  },
  {
    "postal": "M4K9T7",
    "result": []
  },
  {
    "postal": "M4K5P4",
    "result": []
  },
  {
    "postal": "M4K4B0",
    "result": []
  },
  {
    "postal": "M4K9N8",
    "result": []
  },
  {
    "postal": "M4K4A7",
    "result": []
  },
  {
    "postal": "M4K4H9",
    "result": []
  },
  {
    "postal": "M4K6X1",
    "result": []
  },
  {
    "postal": "M4K9Y7",
    "result": []
  },
  {
    "postal": "M4K2Y5",
    "result": [
      {
        "electoralDistricts": [
          {
            "election": null,
            "id": 110,
            "name": "Toronto—Danforth"
          }
        ],
        "pollDivisionIds": [
          10142520
        ],
        "postalCode": "M4K2Y5",
        "streetName": "HAMPTON",
        "streetDirectionId": null,
        "streetTypeId": "AVE",
        "placeName": "TORONTO",
        "streetNameDisplayText": "HAMPTON AVE, TORONTO"
      }
    ]
  },
  {
    "postal": "M4K8L7",
    "result": []
  },
  {
    "postal": "M4K2A8",
    "result": [
      {
        "electoralDistricts": [
          {
            "election": null,
            "id": 110,
            "name": "Toronto—Danforth"
          }
        ],
        "pollDivisionIds": [
          10142506
        ],
        "postalCode": "M4K2A8",
        "streetName": "WESTWOOD",
        "streetDirectionId": null,
        "streetTypeId": "AVE",
        "placeName": "EAST YORK",
        "streetNameDisplayText": "WESTWOOD AVE, EAST YORK"
      }
    ]
  },
  {
    "postal": "M4K2K9",
    "result": [
      {
        "electoralDistricts": [
          {
            "election": null,
            "id": 110,
            "name": "Toronto—Danforth"
          }
        ],
        "pollDivisionIds": [
          10142501
        ],
        "postalCode": "M4K2K9",
        "streetName": "BEECHWOOD",
        "streetDirectionId": null,
        "streetTypeId": "CRES",
        "placeName": "EAST YORK",
        "streetNameDisplayText": "BEECHWOOD CRES, EAST YORK"
      }
    ]
  },
  {
    "postal": "M4K3E5",
    "result": [
      {
        "electoralDistricts": [
          {
            "election": null,
            "id": 110,
            "name": "Toronto—Danforth"
          }
        ],
        "pollDivisionIds": [
          10142510
        ],
        "postalCode": "M4K3E5",
        "streetName": "LOGAN",
        "streetDirectionId": null,
        "streetTypeId": "AVE",
        "placeName": "TORONTO",
        "streetNameDisplayText": "LOGAN AVE, TORONTO"
      }
    ]
  },
  {
    "postal": "M4K8N6",
    "result": []
  },
  {
    "postal": "M4K8J4",
    "result": []
  },
  {
    "postal": "M4K4R7",
    "result": []
  },
  {
    "postal": "M4K9K1",
    "result": []
  },
  {
    "postal": "M4K8E1",
    "result": []
  },
  {
    "postal": "M4K0R1",
    "result": []
  },
  {
    "postal": "M4K4J3",
    "result": []
  },
  {
    "postal": "M4K7E7",
    "result": []
  },
  {
    "postal": "M4K0J0",
    "result": []
  },
  {
    "postal": "M4K7R8",
    "result": []
  },
  {
    "postal": "M4K9X0",
    "result": []
  },
  {
    "postal": "M4K7P6",
    "result": []
  },
  {
    "postal": "M4K0R7",
    "result": []
  },
  {
    "postal": "M4K5W1",
    "result": []
  },
  {
    "postal": "M4K0K4",
    "result": []
  },
  {
    "postal": "M4K7N9",
    "result": []
  },
  {
    "postal": "M4K1N0",
    "result": []
  },
  {
    "postal": "M4K6P3",
    "result": []
  },
  {
    "postal": "M4K5A1",
    "result": []
  },
  {
    "postal": "M4K9M9",
    "result": []
  },
  {
    "postal": "M4K7T6",
    "result": []
  },
  {
    "postal": "M4K3X0",
    "result": []
  },
  {
    "postal": "M4K2T0",
    "result": []
  },
  {
    "postal": "M4K5X9",
    "result": []
  },
  {
    "postal": "M4K2R3",
    "result": [
      {
        "electoralDistricts": [
          {
            "election": null,
            "id": 110,
            "name": "Toronto—Danforth"
          }
        ],
        "pollDivisionIds": [
          10142510
        ],
        "postalCode": "M4K2R3",
        "streetName": "BROADVIEW",
        "streetDirectionId": null,
        "streetTypeId": "AVE",
        "placeName": "TORONTO",
        "streetNameDisplayText": "BROADVIEW AVE, TORONTO"
      }
    ]
  },
  {
    "postal": "M4K5N2",
    "result": []
  },
  {
    "postal": "M4K4Y7",
    "result": []
  },
  {
    "postal": "M4K7M0",
    "result": []
  },
  {
    "postal": "M4K8P3",
    "result": []
  },
  {
    "postal": "M4K3N3",
    "result": [
      {
        "electoralDistricts": [
          {
            "election": null,
            "id": 110,
            "name": "Toronto—Danforth"
          }
        ],
        "pollDivisionIds": [
          10142501
        ],
        "postalCode": "M4K3N3",
        "streetName": "HASSARD",
        "streetDirectionId": null,
        "streetTypeId": "AVE",
        "placeName": "EAST YORK",
        "streetNameDisplayText": "HASSARD AVE, EAST YORK"
      }
    ]
  },
  {
    "postal": "M4K7S3",
    "result": []
  },
  {
    "postal": "M4K3V9",
    "result": [
      {
        "electoralDistricts": [
          {
            "election": null,
            "id": 110,
            "name": "Toronto—Danforth"
          }
        ],
        "pollDivisionIds": [
          10142505
        ],
        "postalCode": "M4K3V9",
        "streetName": "PAPE",
        "streetDirectionId": null,
        "streetTypeId": "AVE",
        "placeName": "EAST YORK",
        "streetNameDisplayText": "PAPE AVE, EAST YORK"
      }
    ]
  },
  {
    "postal": "M4K9N7",
    "result": []
  },
  {
    "postal": "M4K0G4",
    "result": []
  },
  {
    "postal": "M4K2E2",
    "result": [
      {
        "electoralDistricts": [
          {
            "election": null,
            "id": 110,
            "name": "Toronto—Danforth"
          }
        ],
        "pollDivisionIds": [
          10142505
        ],
        "postalCode": "M4K2E2",
        "streetName": "GOWAN",
        "streetDirectionId": null,
        "streetTypeId": "AVE",
        "placeName": "EAST YORK",
        "streetNameDisplayText": "GOWAN AVE, EAST YORK"
      }
    ]
  },
  {
    "postal": "M4K7W8",
    "result": []
  },
  {
    "postal": "M4K7M5",
    "result": []
  },
  {
    "postal": "M4K5W8",
    "result": []
  },
  {
    "postal": "M4K5E5",
    "result": []
  },
  {
    "postal": "M4K1P9",
    "result": [
      {
        "electoralDistricts": [
          {
            "election": null,
            "id": 110,
            "name": "Toronto—Danforth"
          }
        ],
        "pollDivisionIds": [
          10142512
        ],
        "postalCode": "M4K1P9",
        "streetName": "DANFORTH",
        "streetDirectionId": null,
        "streetTypeId": "AVE",
        "placeName": "TORONTO",
        "streetNameDisplayText": "DANFORTH AVE, TORONTO"
      }
    ]
  },
  {
    "postal": "M4K8V8",
    "result": []
  },
  {
    "postal": "M4K9G8",
    "result": []
  },
  {
    "postal": "M4K8H9",
    "result": []
  },
  {
    "postal": "M4K1Z1",
    "result": [
      {
        "electoralDistricts": [
          {
            "election": null,
            "id": 110,
            "name": "Toronto—Danforth"
          }
        ],
        "pollDivisionIds": [
          10142510
        ],
        "postalCode": "M4K1Z1",
        "streetName": "NEALON",
        "streetDirectionId": null,
        "streetTypeId": "AVE",
        "placeName": "EAST YORK",
        "streetNameDisplayText": "NEALON AVE, EAST YORK"
      }
    ]
  },
  {
    "postal": "M4K8M3",
    "result": []
  },
  {
    "postal": "M4K5H6",
    "result": []
  },
  {
    "postal": "M4K7W7",
    "result": []
  },
  {
    "postal": "M4K4L0",
    "result": []
  },
  {
    "postal": "M4K2N1",
    "result": [
      {
        "electoralDistricts": [
          {
            "election": null,
            "id": 110,
            "name": "Toronto—Danforth"
          }
        ],
        "pollDivisionIds": [
          10142523
        ],
        "postalCode": "M4K2N1",
        "streetName": "BROADVIEW",
        "streetDirectionId": null,
        "streetTypeId": "AVE",
        "placeName": "TORONTO",
        "streetNameDisplayText": "BROADVIEW AVE, TORONTO"
      }
    ]
  },
  {
    "postal": "M4K2H4",
    "result": [
      {
        "electoralDistricts": [
          {
            "election": null,
            "id": 110,
            "name": "Toronto—Danforth"
          }
        ],
        "pollDivisionIds": [
          10142505
        ],
        "postalCode": "M4K2H4",
        "streetName": "GAMBLE",
        "streetDirectionId": null,
        "streetTypeId": "AV",
        "placeName": "EAST YORK",
        "streetNameDisplayText": "GAMBLE AV, EAST YORK"
      },
      {
        "electoralDistricts": [
          {
            "election": null,
            "id": 110,
            "name": "Toronto—Danforth"
          }
        ],
        "pollDivisionIds": [
          10142505,
          10142501
        ],
        "postalCode": "M4K2H4",
        "streetName": "GAMBLE",
        "streetDirectionId": null,
        "streetTypeId": "AVE",
        "placeName": "EAST YORK",
        "streetNameDisplayText": "GAMBLE AVE, EAST YORK"
      }
    ]
  },
  {
    "postal": "M4K5C8",
    "result": []
  },
  {
    "postal": "M4K8B0",
    "result": []
  },
  {
    "postal": "M4K1T4",
    "result": [
      {
        "electoralDistricts": [
          {
            "election": null,
            "id": 110,
            "name": "Toronto—Danforth"
          }
        ],
        "pollDivisionIds": [
          10142514
        ],
        "postalCode": "M4K1T4",
        "streetName": "OZARK",
        "streetDirectionId": null,
        "streetTypeId": "CRES",
        "placeName": "TORONTO",
        "streetNameDisplayText": "OZARK CRES, TORONTO"
      }
    ]
  },
  {
    "postal": "M4K7N7",
    "result": []
  },
  {
    "postal": "M4K4L3",
    "result": []
  },
  {
    "postal": "M4K2N2",
    "result": [
      {
        "electoralDistricts": [
          {
            "election": null,
            "id": 110,
            "name": "Toronto—Danforth"
          }
        ],
        "pollDivisionIds": [
          10142523
        ],
        "postalCode": "M4K2N2",
        "streetName": "BROADVIEW",
        "streetDirectionId": null,
        "streetTypeId": "AVE",
        "placeName": "TORONTO",
        "streetNameDisplayText": "BROADVIEW AVE, TORONTO"
      }
    ]
  },
  {
    "postal": "M4K4N8",
    "result": []
  },
  {
    "postal": "M4K3M5",
    "result": [
      {
        "electoralDistricts": [
          {
            "election": null,
            "id": 110,
            "name": "Toronto—Danforth"
          }
        ],
        "pollDivisionIds": [
          10142505
        ],
        "postalCode": "M4K3M5",
        "streetName": "CARLAW",
        "streetDirectionId": null,
        "streetTypeId": "AVE",
        "placeName": "EAST YORK",
        "streetNameDisplayText": "CARLAW AVE, EAST YORK"
      }
    ]
  },
  {
    "postal": "M4K6H7",
    "result": []
  },
  {
    "postal": "M4K8Y8",
    "result": []
  },
  {
    "postal": "M4K5R9",
    "result": []
  },
  {
    "postal": "M4K8G3",
    "result": []
  },
  {
    "postal": "M4K4N7",
    "result": []
  },
  {
    "postal": "M4K0B9",
    "result": []
  },
  {
    "postal": "M4K9K7",
    "result": []
  },
  {
    "postal": "M4K9K9",
    "result": []
  },
  {
    "postal": "M4K3Z2",
    "result": []
  },
  {
    "postal": "M4K6W7",
    "result": []
  },
  {
    "postal": "M4K0P1",
    "result": []
  },
  {
    "postal": "M4K3A0",
    "result": []
  },
  {
    "postal": "M4K8L9",
    "result": []
  },
  {
    "postal": "M4K6X0",
    "result": []
  },
  {
    "postal": "M4K3E9",
    "result": [
      {
        "electoralDistricts": [
          {
            "election": null,
            "id": 110,
            "name": "Toronto—Danforth"
          }
        ],
        "pollDivisionIds": [
          10142509
        ],
        "postalCode": "M4K3E9",
        "streetName": "LOGAN",
        "streetDirectionId": null,
        "streetTypeId": "AVE",
        "placeName": "TORONTO",
        "streetNameDisplayText": "LOGAN AVE, TORONTO"
      }
    ]
  },
  {
    "postal": "M4K0S5",
    "result": []
  },
  {
    "postal": "M4K1A2",
    "result": [
      {
        "electoralDistricts": [
          {
            "election": null,
            "id": 110,
            "name": "Toronto—Danforth"
          }
        ],
        "pollDivisionIds": [
          10142523
        ],
        "postalCode": "M4K1A2",
        "streetName": "SIMPSON",
        "streetDirectionId": null,
        "streetTypeId": "AVE",
        "placeName": "TORONTO",
        "streetNameDisplayText": "SIMPSON AVE, TORONTO"
      }
    ]
  },
  {
    "postal": "M4K5V8",
    "result": []
  },
  {
    "postal": "M4K8C5",
    "result": []
  },
  {
    "postal": "M4K6N0",
    "result": []
  },
  {
    "postal": "M4K9E6",
    "result": []
  },
  {
    "postal": "M4K5J7",
    "result": []
  },
  {
    "postal": "M4K2R2",
    "result": [
      {
        "electoralDistricts": [
          {
            "election": null,
            "id": 110,
            "name": "Toronto—Danforth"
          }
        ],
        "pollDivisionIds": [
          10142510
        ],
        "postalCode": "M4K2R2",
        "streetName": "BROADVIEW",
        "streetDirectionId": null,
        "streetTypeId": "AVE",
        "placeName": "TORONTO",
        "streetNameDisplayText": "BROADVIEW AVE, TORONTO"
      }
    ]
  },
  {
    "postal": "M4K0P5",
    "result": []
  },
  {
    "postal": "M4K5A7",
    "result": []
  },
  {
    "postal": "M4K1G1",
    "result": [
      {
        "electoralDistricts": [
          {
            "election": null,
            "id": 110,
            "name": "Toronto—Danforth"
          }
        ],
        "pollDivisionIds": [
          10142520
        ],
        "postalCode": "M4K1G1",
        "streetName": "BAIN",
        "streetDirectionId": null,
        "streetTypeId": "AVE",
        "placeName": "TORONTO",
        "streetNameDisplayText": "BAIN AVE, TORONTO"
      }
    ]
  },
  {
    "postal": "M4K9R6",
    "result": []
  },
  {
    "postal": "M4K4Z9",
    "result": []
  },
  {
    "postal": "M4K1V5",
    "result": [
      {
        "electoralDistricts": [
          {
            "election": null,
            "id": 110,
            "name": "Toronto—Danforth"
          }
        ],
        "pollDivisionIds": [
          10142510
        ],
        "postalCode": "M4K1V5",
        "streetName": "THORNCLIFFE",
        "streetDirectionId": null,
        "streetTypeId": "AVE",
        "placeName": "TORONTO",
        "streetNameDisplayText": "THORNCLIFFE AVE, TORONTO"
      }
    ]
  },
  {
    "postal": "M4K9Y5",
    "result": []
  },
  {
    "postal": "M4K1P2",
    "result": []
  },
  {
    "postal": "M4K5X0",
    "result": []
  },
  {
    "postal": "M4K7B8",
    "result": []
  },
  {
    "postal": "M4K0C6",
    "result": []
  },
  {
    "postal": "M4K6G1",
    "result": []
  },
  {
    "postal": "M4K3K3",
    "result": [
      {
        "electoralDistricts": [
          {
            "election": null,
            "id": 110,
            "name": "Toronto—Danforth"
          }
        ],
        "pollDivisionIds": [
          10142512
        ],
        "postalCode": "M4K3K3",
        "streetName": "CARLAW",
        "streetDirectionId": null,
        "streetTypeId": "AVE",
        "placeName": "TORONTO",
        "streetNameDisplayText": "CARLAW AVE, TORONTO"
      }
    ]
  },
  {
    "postal": "M4K9R0",
    "result": []
  },
  {
    "postal": "M4K4R8",
    "result": []
  },
  {
    "postal": "M4K5P9",
    "result": []
  },
  {
    "postal": "M4K8N4",
    "result": []
  },
  {
    "postal": "M4K8H4",
    "result": []
  },
  {
    "postal": "M4K4V1",
    "result": []
  },
  {
    "postal": "M4K1K5",
    "result": [
      {
        "electoralDistricts": [
          {
            "election": null,
            "id": 110,
            "name": "Toronto—Danforth"
          }
        ],
        "pollDivisionIds": [
          10142516
        ],
        "postalCode": "M4K1K5",
        "streetName": "HOGARTH",
        "streetDirectionId": null,
        "streetTypeId": "AVE",
        "placeName": "TORONTO",
        "streetNameDisplayText": "HOGARTH AVE, TORONTO"
      }
    ]
  },
  {
    "postal": "M4K1Z5",
    "result": [
      {
        "electoralDistricts": [
          {
            "election": null,
            "id": 110,
            "name": "Toronto—Danforth"
          }
        ],
        "pollDivisionIds": [
          10142509
        ],
        "postalCode": "M4K1Z5",
        "streetName": "DILWORTH",
        "streetDirectionId": null,
        "streetTypeId": "CRES",
        "placeName": "EAST YORK",
        "streetNameDisplayText": "DILWORTH CRES, EAST YORK"
      }
    ]
  },
  {
    "postal": "M4K9L9",
    "result": []
  },
  {
    "postal": "M4K5L2",
    "result": []
  },
  {
    "postal": "M4K0M2",
    "result": []
  },
  {
    "postal": "M4K1K8",
    "result": [
      {
        "electoralDistricts": [
          {
            "election": null,
            "id": 110,
            "name": "Toronto—Danforth"
          }
        ],
        "pollDivisionIds": [
          10142516
        ],
        "postalCode": "M4K1K8",
        "streetName": "WOLFREY",
        "streetDirectionId": null,
        "streetTypeId": "AVE",
        "placeName": "TORONTO",
        "streetNameDisplayText": "WOLFREY AVE, TORONTO"
      }
    ]
  },
  {
    "postal": "M4K3M7",
    "result": [
      {
        "electoralDistricts": [
          {
            "election": null,
            "id": 110,
            "name": "Toronto—Danforth"
          }
        ],
        "pollDivisionIds": [
          10142501
        ],
        "postalCode": "M4K3M7",
        "streetName": "HOPEDALE",
        "streetDirectionId": null,
        "streetTypeId": "AVE",
        "placeName": "EAST YORK",
        "streetNameDisplayText": "HOPEDALE AVE, EAST YORK"
      }
    ]
  },
  {
    "postal": "M4K1B2",
    "result": [
      {
        "electoralDistricts": [
          {
            "election": null,
            "id": 110,
            "name": "Toronto—Danforth"
          }
        ],
        "pollDivisionIds": [
          10142519
        ],
        "postalCode": "M4K1B2",
        "streetName": "VICTOR",
        "streetDirectionId": null,
        "streetTypeId": "AVE",
        "placeName": "TORONTO",
        "streetNameDisplayText": "VICTOR AVE, TORONTO"
      }
    ]
  },
  {
    "postal": "M4K0H9",
    "result": []
  },
  {
    "postal": "M4K8M4",
    "result": []
  },
  {
    "postal": "M4K2M5",
    "result": [
      {
        "electoralDistricts": [
          {
            "election": null,
            "id": 29,
            "name": "Etobicoke—Lakeshore"
          }
        ],
        "pollDivisionIds": [
          10138173
        ],
        "postalCode": "M4K2M5",
        "streetName": "HILLSIDE",
        "streetDirectionId": null,
        "streetTypeId": "AVE",
        "placeName": "EAST YORK",
        "streetNameDisplayText": "HILLSIDE AVE, EAST YORK"
      },
      {
        "electoralDistricts": [
          {
            "election": null,
            "id": 110,
            "name": "Toronto—Danforth"
          }
        ],
        "pollDivisionIds": [
          10142501
        ],
        "postalCode": "M4K2M5",
        "streetName": "HILLSIDE",
        "streetDirectionId": null,
        "streetTypeId": "DR",
        "placeName": "EAST YORK",
        "streetNameDisplayText": "HILLSIDE DR, EAST YORK"
      }
    ]
  },
  {
    "postal": "M4K0T9",
    "result": []
  },
  {
    "postal": "M4K3P1",
    "result": [
      {
        "electoralDistricts": [
          {
            "election": null,
            "id": 110,
            "name": "Toronto—Danforth"
          }
        ],
        "pollDivisionIds": [
          10142509
        ],
        "postalCode": "M4K3P1",
        "streetName": "GOUGH",
        "streetDirectionId": null,
        "streetTypeId": "AVE",
        "placeName": "EAST YORK",
        "streetNameDisplayText": "GOUGH AVE, EAST YORK"
      },
      {
        "electoralDistricts": [
          {
            "election": null,
            "id": 110,
            "name": "Toronto—Danforth"
          }
        ],
        "pollDivisionIds": [
          10142509
        ],
        "postalCode": "M4K3P1",
        "streetName": "GOUGH",
        "streetDirectionId": null,
        "streetTypeId": "AVE",
        "placeName": "TORONTO",
        "streetNameDisplayText": "GOUGH AVE, TORONTO"
      }
    ]
  },
  {
    "postal": "M4K1R6",
    "result": [
      {
        "electoralDistricts": [
          {
            "election": null,
            "id": 110,
            "name": "Toronto—Danforth"
          }
        ],
        "pollDivisionIds": [
          10142510
        ],
        "postalCode": "M4K1R6",
        "streetName": "HURNDALE",
        "streetDirectionId": null,
        "streetTypeId": "AVE",
        "placeName": "TORONTO",
        "streetNameDisplayText": "HURNDALE AVE, TORONTO"
      }
    ]
  },
  {
    "postal": "M4K9V5",
    "result": []
  },
  {
    "postal": "M4K9T0",
    "result": []
  },
  {
    "postal": "M4K0A9",
    "result": []
  },
  {
    "postal": "M4K1M3",
    "result": [
      {
        "electoralDistricts": [
          {
            "election": null,
            "id": 110,
            "name": "Toronto—Danforth"
          }
        ],
        "pollDivisionIds": [
          10142512
        ],
        "postalCode": "M4K1M3",
        "streetName": "HARCOURT",
        "streetDirectionId": null,
        "streetTypeId": "AVE",
        "placeName": "TORONTO",
        "streetNameDisplayText": "HARCOURT AVE, TORONTO"
      }
    ]
  },
  {
    "postal": "M4K1W8",
    "result": [
      {
        "electoralDistricts": [
          {
            "election": null,
            "id": 110,
            "name": "Toronto—Danforth"
          }
        ],
        "pollDivisionIds": [
          10142509
        ],
        "postalCode": "M4K1W8",
        "streetName": "BROWNING",
        "streetDirectionId": null,
        "streetTypeId": "AVE",
        "placeName": "TORONTO",
        "streetNameDisplayText": "BROWNING AVE, TORONTO"
      }
    ]
  },
  {
    "postal": "M4K9J1",
    "result": []
  },
  {
    "postal": "M4K8N5",
    "result": []
  },
  {
    "postal": "M4K5X1",
    "result": []
  },
  {
    "postal": "M4K6S2",
    "result": []
  },
  {
    "postal": "M4K2A2",
    "result": [
      {
        "electoralDistricts": [
          {
            "election": null,
            "id": 110,
            "name": "Toronto—Danforth"
          }
        ],
        "pollDivisionIds": [
          10142509
        ],
        "postalCode": "M4K2A2",
        "streetName": "MORTIMER",
        "streetDirectionId": null,
        "streetTypeId": "AVE",
        "placeName": "EAST YORK",
        "streetNameDisplayText": "MORTIMER AVE, EAST YORK"
      }
    ]
  },
  {
    "postal": "M4K6A6",
    "result": []
  },
  {
    "postal": "M4K0S3",
    "result": []
  },
  {
    "postal": "M4K3E7",
    "result": [
      {
        "electoralDistricts": [
          {
            "election": null,
            "id": 110,
            "name": "Toronto—Danforth"
          }
        ],
        "pollDivisionIds": [
          10142509
        ],
        "postalCode": "M4K3E7",
        "streetName": "LOGAN",
        "streetDirectionId": null,
        "streetTypeId": "AVE",
        "placeName": "TORONTO",
        "streetNameDisplayText": "LOGAN AVE, TORONTO"
      }
    ]
  },
  {
    "postal": "M4K5R7",
    "result": []
  },
  {
    "postal": "M4K3R6",
    "result": [
      {
        "electoralDistricts": [
          {
            "election": null,
            "id": 110,
            "name": "Toronto—Danforth"
          }
        ],
        "pollDivisionIds": [
          10142512
        ],
        "postalCode": "M4K3R6",
        "streetName": "PAPE",
        "streetDirectionId": null,
        "streetTypeId": "AVE",
        "placeName": "TORONTO",
        "streetNameDisplayText": "PAPE AVE, TORONTO"
      }
    ]
  },
  {
    "postal": "M4K6K4",
    "result": []
  },
  {
    "postal": "M4K2W5",
    "result": [
      {
        "electoralDistricts": [
          {
            "election": null,
            "id": 110,
            "name": "Toronto—Danforth"
          }
        ],
        "pollDivisionIds": [
          10142520
        ],
        "postalCode": "M4K2W5",
        "streetName": "INGHAM",
        "streetDirectionId": null,
        "streetTypeId": "AVE",
        "placeName": "TORONTO",
        "streetNameDisplayText": "INGHAM AVE, TORONTO"
      }
    ]
  },
  {
    "postal": "M4K8W4",
    "result": []
  },
  {
    "postal": "M4K9C2",
    "result": []
  },
  {
    "postal": "M4K2C0",
    "result": []
  },
  {
    "postal": "M4K0E1",
    "result": []
  },
  {
    "postal": "M4K1K9",
    "result": [
      {
        "electoralDistricts": [
          {
            "election": null,
            "id": 110,
            "name": "Toronto—Danforth"
          }
        ],
        "pollDivisionIds": [
          10142516
        ],
        "postalCode": "M4K1K9",
        "streetName": "WOLFREY",
        "streetDirectionId": null,
        "streetTypeId": "AVE",
        "placeName": "TORONTO",
        "streetNameDisplayText": "WOLFREY AVE, TORONTO"
      }
    ]
  },
  {
    "postal": "M4K1G7",
    "result": [
      {
        "electoralDistricts": [
          {
            "election": null,
            "id": 110,
            "name": "Toronto—Danforth"
          }
        ],
        "pollDivisionIds": [
          10142520
        ],
        "postalCode": "M4K1G7",
        "streetName": "SPARKHALL",
        "streetDirectionId": null,
        "streetTypeId": "AVE",
        "placeName": "TORONTO",
        "streetNameDisplayText": "SPARKHALL AVE, TORONTO"
      }
    ]
  },
  {
    "postal": "M4K4E9",
    "result": []
  },
  {
    "postal": "M4K9P0",
    "result": []
  },
  {
    "postal": "M4K5H3",
    "result": []
  },
  {
    "postal": "M4K9X6",
    "result": []
  },
  {
    "postal": "M4K5N7",
    "result": []
  },
  {
    "postal": "M4K5A6",
    "result": []
  },
  {
    "postal": "M4K4M0",
    "result": []
  },
  {
    "postal": "M4K3V6",
    "result": [
      {
        "electoralDistricts": [
          {
            "election": null,
            "id": 110,
            "name": "Toronto—Danforth"
          }
        ],
        "pollDivisionIds": [
          10142505
        ],
        "postalCode": "M4K3V6",
        "streetName": "PAPE",
        "streetDirectionId": null,
        "streetTypeId": "AVE",
        "placeName": "EAST YORK",
        "streetNameDisplayText": "PAPE AVE, EAST YORK"
      }
    ]
  },
  {
    "postal": "M4K1L7",
    "result": [
      {
        "electoralDistricts": [
          {
            "election": null,
            "id": 110,
            "name": "Toronto—Danforth"
          }
        ],
        "pollDivisionIds": [
          10142516
        ],
        "postalCode": "M4K1L7",
        "streetName": "MCCONNELL",
        "streetDirectionId": null,
        "streetTypeId": "AVE",
        "placeName": "TORONTO",
        "streetNameDisplayText": "MCCONNELL AVE, TORONTO"
      }
    ]
  },
  {
    "postal": "M4K2P9",
    "result": [
      {
        "electoralDistricts": [
          {
            "election": null,
            "id": 110,
            "name": "Toronto—Danforth"
          }
        ],
        "pollDivisionIds": [
          10142510
        ],
        "postalCode": "M4K2P9",
        "streetName": "BROADVIEW",
        "streetDirectionId": null,
        "streetTypeId": "AVE",
        "placeName": "TORONTO",
        "streetNameDisplayText": "BROADVIEW AVE, TORONTO"
      }
    ]
  },
  {
    "postal": "M4K5T4",
    "result": []
  },
  {
    "postal": "M4K5Z1",
    "result": []
  },
  {
    "postal": "M4K2X0",
    "result": []
  },
  {
    "postal": "M4K6Z2",
    "result": []
  },
  {
    "postal": "M4K0E0",
    "result": []
  },
  {
    "postal": "M4K3Z5",
    "result": [
      {
        "electoralDistricts": [
          {
            "election": null,
            "id": 110,
            "name": "Toronto—Danforth"
          }
        ],
        "pollDivisionIds": [
          10142506
        ],
        "postalCode": "M4K3Z5",
        "streetName": "WESTWOOD",
        "streetDirectionId": null,
        "streetTypeId": "AVE",
        "placeName": "EAST YORK",
        "streetNameDisplayText": "WESTWOOD AVE, EAST YORK"
      }
    ]
  },
  {
    "postal": "M4K8H3",
    "result": []
  },
  {
    "postal": "M4K7S6",
    "result": []
  },
  {
    "postal": "M4K4C1",
    "result": []
  },
  {
    "postal": "M4K3K2",
    "result": [
      {
        "electoralDistricts": [
          {
            "election": null,
            "id": 110,
            "name": "Toronto—Danforth"
          }
        ],
        "pollDivisionIds": [
          10142520
        ],
        "postalCode": "M4K3K2",
        "streetName": "CARLAW",
        "streetDirectionId": null,
        "streetTypeId": "AVE",
        "placeName": "TORONTO",
        "streetNameDisplayText": "CARLAW AVE, TORONTO"
      }
    ]
  },
  {
    "postal": "M4K1Y5",
    "result": [
      {
        "electoralDistricts": [
          {
            "election": null,
            "id": 110,
            "name": "Toronto—Danforth"
          }
        ],
        "pollDivisionIds": [
          10142509
        ],
        "postalCode": "M4K1Y5",
        "streetName": "FULTON",
        "streetDirectionId": null,
        "streetTypeId": "AVE",
        "placeName": "TORONTO",
        "streetNameDisplayText": "FULTON AVE, TORONTO"
      }
    ]
  },
  {
    "postal": "M4K6P6",
    "result": []
  },
  {
    "postal": "M4K3N9",
    "result": [
      {
        "electoralDistricts": [
          {
            "election": null,
            "id": 110,
            "name": "Toronto—Danforth"
          }
        ],
        "pollDivisionIds": [
          10142509
        ],
        "postalCode": "M4K3N9",
        "streetName": "GOUGH",
        "streetDirectionId": null,
        "streetTypeId": "AVE",
        "placeName": "TORONTO",
        "streetNameDisplayText": "GOUGH AVE, TORONTO"
      }
    ]
  },
  {
    "postal": "M4K3W2",
    "result": [
      {
        "electoralDistricts": [
          {
            "election": null,
            "id": 110,
            "name": "Toronto—Danforth"
          }
        ],
        "pollDivisionIds": [
          10142501
        ],
        "postalCode": "M4K3W2",
        "streetName": "PAPE",
        "streetDirectionId": null,
        "streetTypeId": "AVE",
        "placeName": "EAST YORK",
        "streetNameDisplayText": "PAPE AVE, EAST YORK"
      }
    ]
  },
  {
    "postal": "M4K6H8",
    "result": []
  },
  {
    "postal": "M4K9T3",
    "result": []
  },
  {
    "postal": "M4K5L9",
    "result": []
  },
  {
    "postal": "M4K7X7",
    "result": []
  },
  {
    "postal": "M4K3J5",
    "result": [
      {
        "electoralDistricts": [
          {
            "election": null,
            "id": 110,
            "name": "Toronto—Danforth"
          }
        ],
        "pollDivisionIds": [
          10142519
        ],
        "postalCode": "M4K3J5",
        "streetName": "CARLAW",
        "streetDirectionId": null,
        "streetTypeId": "AVE",
        "placeName": "TORONTO",
        "streetNameDisplayText": "CARLAW AVE, TORONTO"
      }
    ]
  },
  {
    "postal": "M4K4J5",
    "result": []
  },
  {
    "postal": "M4K6J2",
    "result": []
  },
  {
    "postal": "M4K5V6",
    "result": []
  },
  {
    "postal": "M4K3N2",
    "result": [
      {
        "electoralDistricts": [
          {
            "election": null,
            "id": 110,
            "name": "Toronto—Danforth"
          }
        ],
        "pollDivisionIds": [
          10142501
        ],
        "postalCode": "M4K3N2",
        "streetName": "HOPEDALE",
        "streetDirectionId": null,
        "streetTypeId": "AVE",
        "placeName": "EAST YORK",
        "streetNameDisplayText": "HOPEDALE AVE, EAST YORK"
      }
    ]
  },
  {
    "postal": "M4K3B1",
    "result": [
      {
        "electoralDistricts": [
          {
            "election": null,
            "id": 110,
            "name": "Toronto—Danforth"
          }
        ],
        "pollDivisionIds": [
          10142509
        ],
        "postalCode": "M4K3B1",
        "streetName": "ARUNDEL",
        "streetDirectionId": null,
        "streetTypeId": "AVE",
        "placeName": "EAST YORK",
        "streetNameDisplayText": "ARUNDEL AVE, EAST YORK"
      }
    ]
  },
  {
    "postal": "M4K8B5",
    "result": []
  },
  {
    "postal": "M4K0K1",
    "result": []
  },
  {
    "postal": "M4K7M7",
    "result": []
  },
  {
    "postal": "M4K2M2",
    "result": [
      {
        "electoralDistricts": [
          {
            "election": null,
            "id": 29,
            "name": "Etobicoke—Lakeshore"
          }
        ],
        "pollDivisionIds": [
          10138168
        ],
        "postalCode": "M4K2M2",
        "streetName": "HILLSIDE",
        "streetDirectionId": null,
        "streetTypeId": "AVE",
        "placeName": "EAST YORK",
        "streetNameDisplayText": "HILLSIDE AVE, EAST YORK"
      },
      {
        "electoralDistricts": [
          {
            "election": null,
            "id": 110,
            "name": "Toronto—Danforth"
          }
        ],
        "pollDivisionIds": [
          10142501,
          10142506
        ],
        "postalCode": "M4K2M2",
        "streetName": "HILLSIDE",
        "streetDirectionId": null,
        "streetTypeId": "DR",
        "placeName": "EAST YORK",
        "streetNameDisplayText": "HILLSIDE DR, EAST YORK"
      }
    ]
  },
  {
    "postal": "M4K9N3",
    "result": []
  },
  {
    "postal": "M4K4Y8",
    "result": []
  },
  {
    "postal": "M4K3V7",
    "result": [
      {
        "electoralDistricts": [
          {
            "election": null,
            "id": 110,
            "name": "Toronto—Danforth"
          }
        ],
        "pollDivisionIds": [
          10142505
        ],
        "postalCode": "M4K3V7",
        "streetName": "PAPE",
        "streetDirectionId": null,
        "streetTypeId": "AVE",
        "placeName": "EAST YORK",
        "streetNameDisplayText": "PAPE AVE, EAST YORK"
      }
    ]
  },
  {
    "postal": "M4K8Z1",
    "result": []
  },
  {
    "postal": "M4K7B3",
    "result": []
  },
  {
    "postal": "M4K3A8",
    "result": [
      {
        "electoralDistricts": [
          {
            "election": null,
            "id": 110,
            "name": "Toronto—Danforth"
          }
        ],
        "pollDivisionIds": [
          10142510
        ],
        "postalCode": "M4K3A8",
        "streetName": "ARUNDEL",
        "streetDirectionId": null,
        "streetTypeId": "AVE",
        "placeName": "TORONTO",
        "streetNameDisplayText": "ARUNDEL AVE, TORONTO"
      }
    ]
  },
  {
    "postal": "M4K7V5",
    "result": []
  },
  {
    "postal": "M4K2T2",
    "result": [
      {
        "electoralDistricts": [
          {
            "election": null,
            "id": 110,
            "name": "Toronto—Danforth"
          }
        ],
        "pollDivisionIds": [
          10142501
        ],
        "postalCode": "M4K2T2",
        "streetName": "BROADVIEW",
        "streetDirectionId": null,
        "streetTypeId": "AVE",
        "placeName": "EAST YORK",
        "streetNameDisplayText": "BROADVIEW AVE, EAST YORK"
      }
    ]
  },
  {
    "postal": "M4K6L3",
    "result": []
  },
  {
    "postal": "M4K0L2",
    "result": []
  },
  {
    "postal": "M4K5Y8",
    "result": []
  },
  {
    "postal": "M4K0B8",
    "result": []
  },
  {
    "postal": "M4K6R5",
    "result": []
  },
  {
    "postal": "M4K8W6",
    "result": []
  },
  {
    "postal": "M4K8G6",
    "result": []
  },
  {
    "postal": "M4K6X3",
    "result": []
  },
  {
    "postal": "M4K7R7",
    "result": []
  },
  {
    "postal": "M4K4B6",
    "result": []
  },
  {
    "postal": "M4K3P9",
    "result": [
      {
        "electoralDistricts": [
          {
            "election": null,
            "id": 110,
            "name": "Toronto—Danforth"
          }
        ],
        "pollDivisionIds": [
          10142513
        ],
        "postalCode": "M4K3P9",
        "streetName": "PAPE",
        "streetDirectionId": null,
        "streetTypeId": "AVE",
        "placeName": "TORONTO",
        "streetNameDisplayText": "PAPE AVE, TORONTO"
      }
    ]
  },
  {
    "postal": "M4K2T3",
    "result": [
      {
        "electoralDistricts": [
          {
            "election": null,
            "id": 110,
            "name": "Toronto—Danforth"
          }
        ],
        "pollDivisionIds": [
          10142501
        ],
        "postalCode": "M4K2T3",
        "streetName": "BROADVIEW",
        "streetDirectionId": null,
        "streetTypeId": "AVE",
        "placeName": "EAST YORK",
        "streetNameDisplayText": "BROADVIEW AVE, EAST YORK"
      }
    ]
  },
  {
    "postal": "M4K1M4",
    "result": [
      {
        "electoralDistricts": [
          {
            "election": null,
            "id": 110,
            "name": "Toronto—Danforth"
          }
        ],
        "pollDivisionIds": [
          10142512
        ],
        "postalCode": "M4K1M4",
        "streetName": "HARCOURT",
        "streetDirectionId": null,
        "streetTypeId": "AVE",
        "placeName": "TORONTO",
        "streetNameDisplayText": "HARCOURT AVE, TORONTO"
      }
    ]
  },
  {
    "postal": "M4K0H1",
    "result": []
  },
  {
    "postal": "M4K9W3",
    "result": []
  },
  {
    "postal": "M4K6P1",
    "result": []
  },
  {
    "postal": "M4K7G2",
    "result": []
  },
  {
    "postal": "M4K4J9",
    "result": []
  },
  {
    "postal": "M4K9E4",
    "result": []
  },
  {
    "postal": "M4K8H0",
    "result": []
  },
  {
    "postal": "M4K4M7",
    "result": []
  },
  {
    "postal": "M4K2G9",
    "result": [
      {
        "electoralDistricts": [
          {
            "election": null,
            "id": 110,
            "name": "Toronto—Danforth"
          }
        ],
        "pollDivisionIds": [
          10142501
        ],
        "postalCode": "M4K2G9",
        "streetName": "GAMBLE",
        "streetDirectionId": null,
        "streetTypeId": "AVE",
        "placeName": "EAST YORK",
        "streetNameDisplayText": "GAMBLE AVE, EAST YORK"
      }
    ]
  },
  {
    "postal": "M4K8T2",
    "result": []
  },
  {
    "postal": "M4K7G7",
    "result": []
  },
  {
    "postal": "M4K4Z3",
    "result": []
  },
  {
    "postal": "M4K5B3",
    "result": []
  },
  {
    "postal": "M4K1S7",
    "result": [
      {
        "electoralDistricts": [
          {
            "election": null,
            "id": 110,
            "name": "Toronto—Danforth"
          }
        ],
        "pollDivisionIds": [
          10142509
        ],
        "postalCode": "M4K1S7",
        "streetName": "CRUIKSHANK",
        "streetDirectionId": null,
        "streetTypeId": "AVE",
        "placeName": "TORONTO",
        "streetNameDisplayText": "CRUIKSHANK AVE, TORONTO"
      }
    ]
  },
  {
    "postal": "M4K2N7",
    "result": [
      {
        "electoralDistricts": [
          {
            "election": null,
            "id": 110,
            "name": "Toronto—Danforth"
          }
        ],
        "pollDivisionIds": [
          10142520
        ],
        "postalCode": "M4K2N7",
        "streetName": "BROADVIEW",
        "streetDirectionId": null,
        "streetTypeId": "AVE",
        "placeName": "TORONTO",
        "streetNameDisplayText": "BROADVIEW AVE, TORONTO"
      }
    ]
  },
  {
    "postal": "M4K0H8",
    "result": []
  },
  {
    "postal": "M4K7Z4",
    "result": []
  },
  {
    "postal": "M4K7B1",
    "result": []
  },
  {
    "postal": "M4K7P8",
    "result": []
  },
  {
    "postal": "M4K7N0",
    "result": []
  },
  {
    "postal": "M4K3Y5",
    "result": [
      {
        "electoralDistricts": [
          {
            "election": null,
            "id": 110,
            "name": "Toronto—Danforth"
          }
        ],
        "pollDivisionIds": [
          10142510,
          10142514
        ],
        "postalCode": "M4K3Y5",
        "streetName": "DANFORTH",
        "streetDirectionId": null,
        "streetTypeId": "AVE",
        "placeName": "TORONTO",
        "streetNameDisplayText": "DANFORTH AVE, TORONTO"
      }
    ]
  },
  {
    "postal": "M4K6K1",
    "result": []
  },
  {
    "postal": "M4K9X5",
    "result": []
  },
  {
    "postal": "M4K7S5",
    "result": []
  },
  {
    "postal": "M4K0A4",
    "result": []
  },
  {
    "postal": "M4K4T5",
    "result": []
  },
  {
    "postal": "M4K5K1",
    "result": []
  },
  {
    "postal": "M4K0Z9",
    "result": []
  },
  {
    "postal": "M4K7T2",
    "result": []
  },
  {
    "postal": "M4K1L5",
    "result": [
      {
        "electoralDistricts": [
          {
            "election": null,
            "id": 110,
            "name": "Toronto—Danforth"
          }
        ],
        "pollDivisionIds": [
          10142512
        ],
        "postalCode": "M4K1L5",
        "streetName": "CAVELL",
        "streetDirectionId": null,
        "streetTypeId": "AVE",
        "placeName": "TORONTO",
        "streetNameDisplayText": "CAVELL AVE, TORONTO"
      }
    ]
  },
  {
    "postal": "M4K3N5",
    "result": [
      {
        "electoralDistricts": [
          {
            "election": null,
            "id": 110,
            "name": "Toronto—Danforth"
          }
        ],
        "pollDivisionIds": [
          10142501
        ],
        "postalCode": "M4K3N5",
        "streetName": "STANHOPE",
        "streetDirectionId": null,
        "streetTypeId": "AVE",
        "placeName": "EAST YORK",
        "streetNameDisplayText": "STANHOPE AVE, EAST YORK"
      }
    ]
  },
  {
    "postal": "M4K6H4",
    "result": []
  },
  {
    "postal": "M4K5A5",
    "result": []
  },
  {
    "postal": "M4K3R9",
    "result": [
      {
        "electoralDistricts": [
          {
            "election": null,
            "id": 110,
            "name": "Toronto—Danforth"
          }
        ],
        "pollDivisionIds": [
          10142512
        ],
        "postalCode": "M4K3R9",
        "streetName": "PAPE",
        "streetDirectionId": null,
        "streetTypeId": "AVE",
        "placeName": "TORONTO",
        "streetNameDisplayText": "PAPE AVE, TORONTO"
      }
    ]
  },
  {
    "postal": "M4K7L8",
    "result": []
  },
  {
    "postal": "M4K6T6",
    "result": []
  },
  {
    "postal": "M4K7Y7",
    "result": []
  },
  {
    "postal": "M4K3M8",
    "result": [
      {
        "electoralDistricts": [
          {
            "election": null,
            "id": 110,
            "name": "Toronto—Danforth"
          }
        ],
        "pollDivisionIds": [
          10142501
        ],
        "postalCode": "M4K3M8",
        "streetName": "HOPEDALE",
        "streetDirectionId": null,
        "streetTypeId": "AVE",
        "placeName": "EAST YORK",
        "streetNameDisplayText": "HOPEDALE AVE, EAST YORK"
      }
    ]
  },
  {
    "postal": "M4K2E0",
    "result": []
  },
  {
    "postal": "M4K4B5",
    "result": []
  },
  {
    "postal": "M4K1J3",
    "result": [
      {
        "electoralDistricts": [
          {
            "election": null,
            "id": 110,
            "name": "Toronto—Danforth"
          }
        ],
        "pollDivisionIds": [
          10142516
        ],
        "postalCode": "M4K1J3",
        "streetName": "TENNIS",
        "streetDirectionId": null,
        "streetTypeId": "CRES",
        "placeName": "TORONTO",
        "streetNameDisplayText": "TENNIS CRES, TORONTO"
      }
    ]
  },
  {
    "postal": "M4K5S6",
    "result": []
  },
  {
    "postal": "M4K8P7",
    "result": []
  },
  {
    "postal": "M4K7S7",
    "result": []
  },
  {
    "postal": "M4K4C2",
    "result": []
  },
  {
    "postal": "M4K5Y0",
    "result": []
  },
  {
    "postal": "M4K2V7",
    "result": [
      {
        "electoralDistricts": [
          {
            "election": null,
            "id": 110,
            "name": "Toronto—Danforth"
          }
        ],
        "pollDivisionIds": [
          10142510
        ],
        "postalCode": "M4K2V7",
        "streetName": "PLAYTER",
        "streetDirectionId": null,
        "streetTypeId": "BLVD",
        "placeName": "TORONTO",
        "streetNameDisplayText": "PLAYTER BLVD, TORONTO"
      }
    ]
  },
  {
    "postal": "M4K8P5",
    "result": []
  },
  {
    "postal": "M4K5P5",
    "result": []
  },
  {
    "postal": "M4K5Z0",
    "result": []
  },
  {
    "postal": "M4K9B0",
    "result": []
  },
  {
    "postal": "M4K1L0",
    "result": []
  },
  {
    "postal": "M4K0B5",
    "result": []
  },
  {
    "postal": "M4K3L2",
    "result": [
      {
        "electoralDistricts": [
          {
            "election": null,
            "id": 110,
            "name": "Toronto—Danforth"
          }
        ],
        "pollDivisionIds": [
          10142509
        ],
        "postalCode": "M4K3L2",
        "streetName": "CARLAW",
        "streetDirectionId": null,
        "streetTypeId": "AVE",
        "placeName": "TORONTO",
        "streetNameDisplayText": "CARLAW AVE, TORONTO"
      }
    ]
  },
  {
    "postal": "M4K3B7",
    "result": [
      {
        "electoralDistricts": [
          {
            "election": null,
            "id": 110,
            "name": "Toronto—Danforth"
          }
        ],
        "pollDivisionIds": [
          10142523
        ],
        "postalCode": "M4K3B7",
        "streetName": "LOGAN",
        "streetDirectionId": null,
        "streetTypeId": "AVE",
        "placeName": "TORONTO",
        "streetNameDisplayText": "LOGAN AVE, TORONTO"
      }
    ]
  },
  {
    "postal": "M4K8L1",
    "result": []
  },
  {
    "postal": "M4K5M4",
    "result": []
  },
  {
    "postal": "M4K4G9",
    "result": []
  },
  {
    "postal": "M4K0P0",
    "result": []
  },
  {
    "postal": "M4K8G2",
    "result": []
  },
  {
    "postal": "M4K1V9",
    "result": [
      {
        "electoralDistricts": [
          {
            "election": null,
            "id": 110,
            "name": "Toronto—Danforth"
          }
        ],
        "pollDivisionIds": [
          10142510
        ],
        "postalCode": "M4K1V9",
        "streetName": "BROWNING",
        "streetDirectionId": null,
        "streetTypeId": "AVE",
        "placeName": "TORONTO",
        "streetNameDisplayText": "BROWNING AVE, TORONTO"
      }
    ]
  },
  {
    "postal": "M4K8N8",
    "result": []
  },
  {
    "postal": "M4K6S8",
    "result": []
  },
  {
    "postal": "M4K8H2",
    "result": []
  },
  {
    "postal": "M4K5R8",
    "result": []
  },
  {
    "postal": "M4K5L4",
    "result": []
  },
  {
    "postal": "M4K9E1",
    "result": []
  },
  {
    "postal": "M4K1C4",
    "result": [
      {
        "electoralDistricts": [
          {
            "election": null,
            "id": 110,
            "name": "Toronto—Danforth"
          }
        ],
        "pollDivisionIds": [
          10142519
        ],
        "postalCode": "M4K1C4",
        "streetName": "RIVERDALE",
        "streetDirectionId": null,
        "streetTypeId": "AVE",
        "placeName": "TORONTO",
        "streetNameDisplayText": "RIVERDALE AVE, TORONTO"
      }
    ]
  },
  {
    "postal": "M4K8W5",
    "result": []
  },
  {
    "postal": "M4K1Y4",
    "result": [
      {
        "electoralDistricts": [
          {
            "election": null,
            "id": 110,
            "name": "Toronto—Danforth"
          }
        ],
        "pollDivisionIds": [
          10142509
        ],
        "postalCode": "M4K1Y4",
        "streetName": "FULTON",
        "streetDirectionId": null,
        "streetTypeId": "AVE",
        "placeName": "TORONTO",
        "streetNameDisplayText": "FULTON AVE, TORONTO"
      }
    ]
  },
  {
    "postal": "M4K1C0",
    "result": []
  },
  {
    "postal": "M4K2J2",
    "result": [
      {
        "electoralDistricts": [
          {
            "election": null,
            "id": 110,
            "name": "Toronto—Danforth"
          }
        ],
        "pollDivisionIds": [
          10142501
        ],
        "postalCode": "M4K2J2",
        "streetName": "DON VALLEY",
        "streetDirectionId": null,
        "streetTypeId": "DR",
        "placeName": "EAST YORK",
        "streetNameDisplayText": "DON VALLEY DR, EAST YORK"
      }
    ]
  },
  {
    "postal": "M4K2J0",
    "result": []
  },
  {
    "postal": "M4K7A3",
    "result": []
  },
  {
    "postal": "M4K8M1",
    "result": []
  },
  {
    "postal": "M4K7T9",
    "result": []
  },
  {
    "postal": "M4K6C0",
    "result": []
  },
  {
    "postal": "M4K7X1",
    "result": []
  },
  {
    "postal": "M4K0G1",
    "result": []
  },
  {
    "postal": "M4K4X2",
    "result": []
  },
  {
    "postal": "M4K0N6",
    "result": []
  },
  {
    "postal": "M4K8E3",
    "result": []
  },
  {
    "postal": "M4K5S8",
    "result": []
  },
  {
    "postal": "M4K0R0",
    "result": []
  },
  {
    "postal": "M4K6J6",
    "result": []
  },
  {
    "postal": "M4K4B4",
    "result": []
  },
  {
    "postal": "M4K7E3",
    "result": []
  },
  {
    "postal": "M4K3N6",
    "result": [
      {
        "electoralDistricts": [
          {
            "election": null,
            "id": 110,
            "name": "Toronto—Danforth"
          }
        ],
        "pollDivisionIds": [
          10142512
        ],
        "postalCode": "M4K3N6",
        "streetName": "GOUGH",
        "streetDirectionId": null,
        "streetTypeId": "AVE",
        "placeName": "TORONTO",
        "streetNameDisplayText": "GOUGH AVE, TORONTO"
      }
    ]
  },
  {
    "postal": "M4K3X6",
    "result": [
      {
        "electoralDistricts": [
          {
            "election": null,
            "id": 110,
            "name": "Toronto—Danforth"
          }
        ],
        "pollDivisionIds": [
          10142501
        ],
        "postalCode": "M4K3X6",
        "streetName": "MINTON",
        "streetDirectionId": null,
        "streetTypeId": "PL",
        "placeName": "EAST YORK",
        "streetNameDisplayText": "MINTON PL, EAST YORK"
      }
    ]
  },
  {
    "postal": "M4K8L0",
    "result": []
  },
  {
    "postal": "M4K8N1",
    "result": []
  },
  {
    "postal": "M4K4J0",
    "result": []
  },
  {
    "postal": "M4K0X7",
    "result": []
  },
  {
    "postal": "M4K6S4",
    "result": []
  },
  {
    "postal": "M4K0Z0",
    "result": []
  },
  {
    "postal": "M4K9X8",
    "result": []
  },
  {
    "postal": "M4K3H3",
    "result": [
      {
        "electoralDistricts": [
          {
            "election": null,
            "id": 110,
            "name": "Toronto—Danforth"
          }
        ],
        "pollDivisionIds": [
          10142516
        ],
        "postalCode": "M4K3H3",
        "streetName": "FENWICK",
        "streetDirectionId": null,
        "streetTypeId": "AVE",
        "placeName": "TORONTO",
        "streetNameDisplayText": "FENWICK AVE, TORONTO"
      }
    ]
  },
  {
    "postal": "M4K7S2",
    "result": []
  },
  {
    "postal": "M4K3T3",
    "result": [
      {
        "electoralDistricts": [
          {
            "election": null,
            "id": 110,
            "name": "Toronto—Danforth"
          }
        ],
        "pollDivisionIds": [
          10142509
        ],
        "postalCode": "M4K3T3",
        "streetName": "PAPE",
        "streetDirectionId": null,
        "streetTypeId": "AVE",
        "placeName": "TORONTO",
        "streetNameDisplayText": "PAPE AVE, TORONTO"
      }
    ]
  },
  {
    "postal": "M4K9P3",
    "result": []
  },
  {
    "postal": "M4K4H8",
    "result": []
  },
  {
    "postal": "M4K6R1",
    "result": []
  },
  {
    "postal": "M4K1S0",
    "result": []
  },
  {
    "postal": "M4K3W8",
    "result": [
      {
        "electoralDistricts": [
          {
            "election": null,
            "id": 110,
            "name": "Toronto—Danforth"
          }
        ],
        "pollDivisionIds": [
          10142501
        ],
        "postalCode": "M4K3W8",
        "streetName": "PAPE",
        "streetDirectionId": null,
        "streetTypeId": "AVE",
        "placeName": "EAST YORK",
        "streetNameDisplayText": "PAPE AVE, EAST YORK"
      }
    ]
  },
  {
    "postal": "M4K4S3",
    "result": []
  },
  {
    "postal": "M4K1B6",
    "result": [
      {
        "electoralDistricts": [
          {
            "election": null,
            "id": 110,
            "name": "Toronto—Danforth"
          }
        ],
        "pollDivisionIds": [
          10142523
        ],
        "postalCode": "M4K1B6",
        "streetName": "LANGLEY",
        "streetDirectionId": null,
        "streetTypeId": "AVE",
        "placeName": "TORONTO",
        "streetNameDisplayText": "LANGLEY AVE, TORONTO"
      }
    ]
  },
  {
    "postal": "M4K8R3",
    "result": []
  },
  {
    "postal": "M4K4V9",
    "result": []
  },
  {
    "postal": "M4K9W4",
    "result": []
  },
  {
    "postal": "M4K3T4",
    "result": [
      {
        "electoralDistricts": [
          {
            "election": null,
            "id": 110,
            "name": "Toronto—Danforth"
          }
        ],
        "pollDivisionIds": [
          10142509
        ],
        "postalCode": "M4K3T4",
        "streetName": "PAPE",
        "streetDirectionId": null,
        "streetTypeId": "AV",
        "placeName": "TORONTO",
        "streetNameDisplayText": "PAPE AV, TORONTO"
      },
      {
        "electoralDistricts": [
          {
            "election": null,
            "id": 110,
            "name": "Toronto—Danforth"
          }
        ],
        "pollDivisionIds": [
          10142509
        ],
        "postalCode": "M4K3T4",
        "streetName": "PAPE",
        "streetDirectionId": null,
        "streetTypeId": "AVE",
        "placeName": "TORONTO",
        "streetNameDisplayText": "PAPE AVE, TORONTO"
      }
    ]
  },
  {
    "postal": "M4K5C7",
    "result": []
  },
  {
    "postal": "M4K3Y1",
    "result": [
      {
        "electoralDistricts": [
          {
            "election": null,
            "id": 110,
            "name": "Toronto—Danforth"
          }
        ],
        "pollDivisionIds": [
          10142533
        ],
        "postalCode": "M4K3Y1",
        "streetName": "BROADVIEW",
        "streetDirectionId": null,
        "streetTypeId": "AVE",
        "placeName": "EAST YORK",
        "streetNameDisplayText": "BROADVIEW AVE, EAST YORK"
      }
    ]
  },
  {
    "postal": "M4K5V0",
    "result": []
  },
  {
    "postal": "M4K8G8",
    "result": []
  },
  {
    "postal": "M4K8B1",
    "result": []
  },
  {
    "postal": "M4K4P5",
    "result": []
  },
  {
    "postal": "M4K7B2",
    "result": []
  },
  {
    "postal": "M4K0R2",
    "result": []
  },
  {
    "postal": "M4K4M4",
    "result": []
  },
  {
    "postal": "M4K7M4",
    "result": []
  },
  {
    "postal": "M4K9S7",
    "result": []
  },
  {
    "postal": "M4K5Z7",
    "result": []
  },
  {
    "postal": "M4K7J7",
    "result": []
  },
  {
    "postal": "M4K8R8",
    "result": []
  },
  {
    "postal": "M4K9X1",
    "result": []
  },
  {
    "postal": "M4K5M9",
    "result": []
  },
  {
    "postal": "M4K9B4",
    "result": []
  },
  {
    "postal": "M4K0L9",
    "result": []
  },
  {
    "postal": "M4K9G4",
    "result": []
  },
  {
    "postal": "M4K1J4",
    "result": [
      {
        "electoralDistricts": [
          {
            "election": null,
            "id": 110,
            "name": "Toronto—Danforth"
          }
        ],
        "pollDivisionIds": [
          10142516
        ],
        "postalCode": "M4K1J4",
        "streetName": "TENNIS",
        "streetDirectionId": null,
        "streetTypeId": "CRES",
        "placeName": "TORONTO",
        "streetNameDisplayText": "TENNIS CRES, TORONTO"
      }
    ]
  },
  {
    "postal": "M4K0W6",
    "result": []
  }
]
