[
  {
    "postal": "L3B9J6",
    "result": []
  },
  {
    "postal": "L3B9Z5",
    "result": []
  },
  {
    "postal": "L3B7H8",
    "result": []
  },
  {
    "postal": "L3B0P6",
    "result": []
  },
  {
    "postal": "L3B0S7",
    "result": []
  },
  {
    "postal": "L3B8B9",
    "result": []
  },
  {
    "postal": "L3B2A6",
    "result": [
      {
        "electoralDistricts": [
          {
            "election": null,
            "id": 68,
            "name": "Niagara Centre"
          }
        ],
        "pollDivisionIds": [
          10139923
        ],
        "postalCode": "L3B2A6",
        "streetName": "COOPER",
        "streetDirectionId": null,
        "streetTypeId": "RD",
        "placeName": "WELLAND",
        "streetNameDisplayText": "COOPER RD, WELLAND"
      }
    ]
  },
  {
    "postal": "L3B7V2",
    "result": []
  },
  {
    "postal": "L3B9P4",
    "result": []
  },
  {
    "postal": "L3B6G0",
    "result": []
  },
  {
    "postal": "L3B2K0",
    "result": []
  },
  {
    "postal": "L3B7N6",
    "result": []
  },
  {
    "postal": "L3B5R3",
    "result": []
  },
  {
    "postal": "L3B7K0",
    "result": []
  },
  {
    "postal": "L3B3R2",
    "result": []
  },
  {
    "postal": "L3B0J1",
    "result": []
  },
  {
    "postal": "L3B0B0",
    "result": []
  },
  {
    "postal": "L3B5Z2",
    "result": [
      {
        "electoralDistricts": [
          {
            "election": null,
            "id": 68,
            "name": "Niagara Centre"
          }
        ],
        "pollDivisionIds": [
          10139936
        ],
        "postalCode": "L3B5Z2",
        "streetName": "COMMERCIAL",
        "streetDirectionId": null,
        "streetTypeId": "ST",
        "placeName": "WELLAND",
        "streetNameDisplayText": "COMMERCIAL ST, WELLAND"
      }
    ]
  },
  {
    "postal": "L3B7P3",
    "result": []
  },
  {
    "postal": "L3B2K3",
    "result": [
      {
        "electoralDistricts": [
          {
            "election": null,
            "id": 68,
            "name": "Niagara Centre"
          }
        ],
        "pollDivisionIds": [
          10139936
        ],
        "postalCode": "L3B2K3",
        "streetName": "WRIGHT",
        "streetDirectionId": null,
        "streetTypeId": "ST",
        "placeName": "WELLAND",
        "streetNameDisplayText": "WRIGHT ST, WELLAND"
      }
    ]
  },
  {
    "postal": "L3B7Y6",
    "result": []
  },
  {
    "postal": "L3B1L9",
    "result": [
      {
        "electoralDistricts": [
          {
            "election": null,
            "id": 68,
            "name": "Niagara Centre"
          }
        ],
        "pollDivisionIds": [
          10139932
        ],
        "postalCode": "L3B1L9",
        "streetName": "LYONS",
        "streetDirectionId": null,
        "streetTypeId": "AVE",
        "placeName": "WELLAND",
        "streetNameDisplayText": "LYONS AVE, WELLAND"
      }
    ]
  },
  {
    "postal": "L3B8T0",
    "result": []
  },
  {
    "postal": "L3B3K8",
    "result": []
  },
  {
    "postal": "L3B5W9",
    "result": [
      {
        "electoralDistricts": [
          {
            "election": null,
            "id": 68,
            "name": "Niagara Centre"
          }
        ],
        "pollDivisionIds": [
          10139938
        ],
        "postalCode": "L3B5W9",
        "streetName": "SHAW",
        "streetDirectionId": null,
        "streetTypeId": "ST",
        "placeName": "WELLAND",
        "streetNameDisplayText": "SHAW ST, WELLAND"
      }
    ]
  },
  {
    "postal": "L3B6T9",
    "result": []
  },
  {
    "postal": "L3B4H1",
    "result": [
      {
        "electoralDistricts": [
          {
            "election": null,
            "id": 68,
            "name": "Niagara Centre"
          }
        ],
        "pollDivisionIds": [
          10139932
        ],
        "postalCode": "L3B4H1",
        "streetName": "COZY",
        "streetDirectionId": null,
        "streetTypeId": "ST",
        "placeName": "WELLAND",
        "streetNameDisplayText": "COZY ST, WELLAND"
      }
    ]
  },
  {
    "postal": "L3B7A2",
    "result": []
  },
  {
    "postal": "L3B5G0",
    "result": []
  },
  {
    "postal": "L3B8V5",
    "result": []
  },
  {
    "postal": "L3B2Y8",
    "result": [
      {
        "electoralDistricts": [
          {
            "election": null,
            "id": 68,
            "name": "Niagara Centre"
          }
        ],
        "pollDivisionIds": [
          10139936
        ],
        "postalCode": "L3B2Y8",
        "streetName": "CHAFFEY",
        "streetDirectionId": null,
        "streetTypeId": "ST",
        "placeName": "WELLAND",
        "streetNameDisplayText": "CHAFFEY ST, WELLAND"
      }
    ]
  },
  {
    "postal": "L3B2B6",
    "result": [
      {
        "electoralDistricts": [
          {
            "election": null,
            "id": 68,
            "name": "Niagara Centre"
          }
        ],
        "pollDivisionIds": [
          10139936
        ],
        "postalCode": "L3B2B6",
        "streetName": "DAVID",
        "streetDirectionId": null,
        "streetTypeId": "ST",
        "placeName": "WELLAND",
        "streetNameDisplayText": "DAVID ST, WELLAND"
      }
    ]
  },
  {
    "postal": "L3B4W8",
    "result": [
      {
        "electoralDistricts": [
          {
            "election": null,
            "id": 68,
            "name": "Niagara Centre"
          }
        ],
        "pollDivisionIds": [
          10139935
        ],
        "postalCode": "L3B4W8",
        "streetName": "AJAX",
        "streetDirectionId": null,
        "streetTypeId": "AVE",
        "placeName": "WELLAND",
        "streetNameDisplayText": "AJAX AVE, WELLAND"
      }
    ]
  },
  {
    "postal": "L3B8H7",
    "result": []
  },
  {
    "postal": "L3B5P1",
    "result": []
  },
  {
    "postal": "L3B2B8",
    "result": [
      {
        "electoralDistricts": [
          {
            "election": null,
            "id": 68,
            "name": "Niagara Centre"
          }
        ],
        "pollDivisionIds": [
          10139936
        ],
        "postalCode": "L3B2B8",
        "streetName": "DAVID",
        "streetDirectionId": null,
        "streetTypeId": "ST",
        "placeName": "WELLAND",
        "streetNameDisplayText": "DAVID ST, WELLAND"
      }
    ]
  },
  {
    "postal": "L3B0P2",
    "result": []
  },
  {
    "postal": "L3B9M1",
    "result": []
  },
  {
    "postal": "L3B3G0",
    "result": []
  },
  {
    "postal": "L3B9Z2",
    "result": []
  },
  {
    "postal": "L3B2A0",
    "result": []
  },
  {
    "postal": "L3B6Y0",
    "result": []
  },
  {
    "postal": "L3B2Z8",
    "result": [
      {
        "electoralDistricts": [
          {
            "election": null,
            "id": 68,
            "name": "Niagara Centre"
          }
        ],
        "pollDivisionIds": [
          10139936
        ],
        "postalCode": "L3B2Z8",
        "streetName": "BEATRICE",
        "streetDirectionId": null,
        "streetTypeId": "ST",
        "placeName": "WELLAND",
        "streetNameDisplayText": "BEATRICE ST, WELLAND"
      }
    ]
  },
  {
    "postal": "L3B7Y3",
    "result": []
  },
  {
    "postal": "L3B6Z5",
    "result": []
  },
  {
    "postal": "L3B6E0",
    "result": []
  },
  {
    "postal": "L3B9B7",
    "result": []
  },
  {
    "postal": "L3B9S5",
    "result": []
  },
  {
    "postal": "L3B3X3",
    "result": [
      {
        "electoralDistricts": [
          {
            "election": null,
            "id": 68,
            "name": "Niagara Centre"
          }
        ],
        "pollDivisionIds": [
          10139932
        ],
        "postalCode": "L3B3X3",
        "streetName": "EAST MAIN",
        "streetDirectionId": null,
        "streetTypeId": "ST",
        "placeName": "WELLAND",
        "streetNameDisplayText": "EAST MAIN ST, WELLAND"
      }
    ]
  },
  {
    "postal": "L3B7R5",
    "result": []
  },
  {
    "postal": "L3B2X3",
    "result": [
      {
        "electoralDistricts": [
          {
            "election": null,
            "id": 68,
            "name": "Niagara Centre"
          }
        ],
        "pollDivisionIds": [
          10139937
        ],
        "postalCode": "L3B2X3",
        "streetName": "CRESCENT",
        "streetDirectionId": null,
        "streetTypeId": "DR",
        "placeName": "WELLAND",
        "streetNameDisplayText": "CRESCENT DR, WELLAND"
      }
    ]
  },
  {
    "postal": "L3B8Z9",
    "result": []
  },
  {
    "postal": "L3B0N4",
    "result": []
  },
  {
    "postal": "L3B1K1",
    "result": [
      {
        "electoralDistricts": [
          {
            "election": null,
            "id": 68,
            "name": "Niagara Centre"
          }
        ],
        "pollDivisionIds": [
          10139931
        ],
        "postalCode": "L3B1K1",
        "streetName": "CAMERON",
        "streetDirectionId": null,
        "streetTypeId": "AVE",
        "placeName": "WELLAND",
        "streetNameDisplayText": "CAMERON AVE, WELLAND"
      }
    ]
  },
  {
    "postal": "L3B1S3",
    "result": [
      {
        "electoralDistricts": [
          {
            "election": null,
            "id": 68,
            "name": "Niagara Centre"
          }
        ],
        "pollDivisionIds": [
          10139935
        ],
        "postalCode": "L3B1S3",
        "streetName": "BALMORAL",
        "streetDirectionId": null,
        "streetTypeId": "AVE",
        "placeName": "WELLAND",
        "streetNameDisplayText": "BALMORAL AVE, WELLAND"
      }
    ]
  },
  {
    "postal": "L3B6M4",
    "result": []
  },
  {
    "postal": "L3B9A9",
    "result": []
  },
  {
    "postal": "L3B9Z9",
    "result": []
  },
  {
    "postal": "L3B6T4",
    "result": []
  },
  {
    "postal": "L3B0B2",
    "result": []
  },
  {
    "postal": "L3B2L9",
    "result": [
      {
        "electoralDistricts": [
          {
            "election": null,
            "id": 68,
            "name": "Niagara Centre"
          }
        ],
        "pollDivisionIds": [
          10139936
        ],
        "postalCode": "L3B2L9",
        "streetName": "DEERE",
        "streetDirectionId": null,
        "streetTypeId": "ST",
        "placeName": "WELLAND",
        "streetNameDisplayText": "DEERE ST, WELLAND"
      }
    ]
  },
  {
    "postal": "L3B8K9",
    "result": []
  },
  {
    "postal": "L3B2H9",
    "result": [
      {
        "electoralDistricts": [
          {
            "election": null,
            "id": 68,
            "name": "Niagara Centre"
          }
        ],
        "pollDivisionIds": [
          10139936
        ],
        "postalCode": "L3B2H9",
        "streetName": "HARRIET",
        "streetDirectionId": null,
        "streetTypeId": "ST",
        "placeName": "WELLAND",
        "streetNameDisplayText": "HARRIET ST, WELLAND"
      }
    ]
  },
  {
    "postal": "L3B3Z6",
    "result": [
      {
        "electoralDistricts": [
          {
            "election": null,
            "id": 68,
            "name": "Niagara Centre"
          }
        ],
        "pollDivisionIds": [
          10139930
        ],
        "postalCode": "L3B3Z6",
        "streetName": "DIVISION",
        "streetDirectionId": null,
        "streetTypeId": "ST",
        "placeName": "WELLAND",
        "streetNameDisplayText": "DIVISION ST, WELLAND"
      }
    ]
  },
  {
    "postal": "L3B3B0",
    "result": []
  },
  {
    "postal": "L3B2H8",
    "result": [
      {
        "electoralDistricts": [
          {
            "election": null,
            "id": 68,
            "name": "Niagara Centre"
          }
        ],
        "pollDivisionIds": [
          10139936
        ],
        "postalCode": "L3B2H8",
        "streetName": "HARRIET",
        "streetDirectionId": null,
        "streetTypeId": "ST",
        "placeName": "WELLAND",
        "streetNameDisplayText": "HARRIET ST, WELLAND"
      }
    ]
  },
  {
    "postal": "L3B3X2",
    "result": []
  },
  {
    "postal": "L3B2E9",
    "result": [
      {
        "electoralDistricts": [
          {
            "election": null,
            "id": 68,
            "name": "Niagara Centre"
          }
        ],
        "pollDivisionIds": [
          10139935
        ],
        "postalCode": "L3B2E9",
        "streetName": "WAVELL",
        "streetDirectionId": null,
        "streetTypeId": "CRT",
        "placeName": "WELLAND",
        "streetNameDisplayText": "WAVELL CRT, WELLAND"
      }
    ]
  },
  {
    "postal": "L3B9P6",
    "result": []
  },
  {
    "postal": "L3B9E2",
    "result": []
  },
  {
    "postal": "L3B9H2",
    "result": []
  },
  {
    "postal": "L3B1S8",
    "result": [
      {
        "electoralDistricts": [
          {
            "election": null,
            "id": 68,
            "name": "Niagara Centre"
          }
        ],
        "pollDivisionIds": [
          10139936
        ],
        "postalCode": "L3B1S8",
        "streetName": "JOYCE",
        "streetDirectionId": null,
        "streetTypeId": "AVE",
        "placeName": "WELLAND",
        "streetNameDisplayText": "JOYCE AVE, WELLAND"
      }
    ]
  },
  {
    "postal": "L3B3M6",
    "result": [
      {
        "electoralDistricts": [
          {
            "election": null,
            "id": 68,
            "name": "Niagara Centre"
          }
        ],
        "pollDivisionIds": [
          10139936
        ],
        "postalCode": "L3B3M6",
        "streetName": "JONES",
        "streetDirectionId": null,
        "streetTypeId": "LANE",
        "placeName": "WELLAND",
        "streetNameDisplayText": "JONES LANE, WELLAND"
      }
    ]
  },
  {
    "postal": "L3B6Z8",
    "result": []
  },
  {
    "postal": "L3B4J2",
    "result": [
      {
        "electoralDistricts": [
          {
            "election": null,
            "id": 68,
            "name": "Niagara Centre"
          }
        ],
        "pollDivisionIds": [
          10139930
        ],
        "postalCode": "L3B4J2",
        "streetName": "ASHER",
        "streetDirectionId": null,
        "streetTypeId": "ST",
        "placeName": "WELLAND",
        "streetNameDisplayText": "ASHER ST, WELLAND"
      }
    ]
  },
  {
    "postal": "L3B9Y1",
    "result": []
  },
  {
    "postal": "L3B8V6",
    "result": []
  },
  {
    "postal": "L3B6B2",
    "result": [
      {
        "electoralDistricts": [
          {
            "election": null,
            "id": 68,
            "name": "Niagara Centre"
          }
        ],
        "pollDivisionIds": [
          10139931
        ],
        "postalCode": "L3B6B2",
        "streetName": "RICHELIEU",
        "streetDirectionId": null,
        "streetTypeId": "PROM",
        "placeName": "WELLAND",
        "streetNameDisplayText": "RICHELIEU PROM, WELLAND"
      }
    ]
  },
  {
    "postal": "L3B1P8",
    "result": [
      {
        "electoralDistricts": [
          {
            "election": null,
            "id": 68,
            "name": "Niagara Centre"
          }
        ],
        "pollDivisionIds": [
          10139936
        ],
        "postalCode": "L3B1P8",
        "streetName": "CLASSIC",
        "streetDirectionId": null,
        "streetTypeId": "AVE",
        "placeName": "WELLAND",
        "streetNameDisplayText": "CLASSIC AVE, WELLAND"
      }
    ]
  },
  {
    "postal": "L3B0V8",
    "result": []
  },
  {
    "postal": "L3B4Y0",
    "result": []
  },
  {
    "postal": "L3B2T4",
    "result": [
      {
        "electoralDistricts": [
          {
            "election": null,
            "id": 68,
            "name": "Niagara Centre"
          }
        ],
        "pollDivisionIds": [
          10139930
        ],
        "postalCode": "L3B2T4",
        "streetName": "BURGAR",
        "streetDirectionId": null,
        "streetTypeId": "ST",
        "placeName": "WELLAND",
        "streetNameDisplayText": "BURGAR ST, WELLAND"
      }
    ]
  },
  {
    "postal": "L3B2S3",
    "result": [
      {
        "electoralDistricts": [
          {
            "election": null,
            "id": 68,
            "name": "Niagara Centre"
          }
        ],
        "pollDivisionIds": [
          10139923
        ],
        "postalCode": "L3B2S3",
        "streetName": "RIVER",
        "streetDirectionId": null,
        "streetTypeId": "RD",
        "placeName": "WELLAND",
        "streetNameDisplayText": "RIVER RD, WELLAND"
      }
    ]
  },
  {
    "postal": "L3B0K0",
    "result": []
  },
  {
    "postal": "L3B5N1",
    "result": [
      {
        "electoralDistricts": [
          {
            "election": null,
            "id": 68,
            "name": "Niagara Centre"
          }
        ],
        "pollDivisionIds": [
          10139937
        ],
        "postalCode": "L3B5N1",
        "streetName": "STANLEY",
        "streetDirectionId": null,
        "streetTypeId": "ST",
        "placeName": "WELLAND",
        "streetNameDisplayText": "STANLEY ST, WELLAND"
      }
    ]
  },
  {
    "postal": "L3B7T0",
    "result": []
  },
  {
    "postal": "L3B9N2",
    "result": []
  },
  {
    "postal": "L3B5L1",
    "result": [
      {
        "electoralDistricts": [
          {
            "election": null,
            "id": 68,
            "name": "Niagara Centre"
          }
        ],
        "pollDivisionIds": [
          10139937
        ],
        "postalCode": "L3B5L1",
        "streetName": "NORTH CRESCENT",
        "streetDirectionId": null,
        "streetTypeId": "DR",
        "placeName": "WELLAND",
        "streetNameDisplayText": "NORTH CRESCENT DR, WELLAND"
      }
    ]
  },
  {
    "postal": "L3B7G5",
    "result": []
  },
  {
    "postal": "L3B6K2",
    "result": []
  },
  {
    "postal": "L3B6P9",
    "result": []
  },
  {
    "postal": "L3B0E6",
    "result": [
      {
        "electoralDistricts": [
          {
            "election": null,
            "id": 68,
            "name": "Niagara Centre"
          }
        ],
        "pollDivisionIds": [
          10139923
        ],
        "postalCode": "L3B0E6",
        "streetName": "MAJOR",
        "streetDirectionId": null,
        "streetTypeId": "ST",
        "placeName": "WELLAND",
        "streetNameDisplayText": "MAJOR ST, WELLAND"
      }
    ]
  },
  {
    "postal": "L3B8R9",
    "result": []
  },
  {
    "postal": "L3B3G9",
    "result": [
      {
        "electoralDistricts": [
          {
            "election": null,
            "id": 68,
            "name": "Niagara Centre"
          }
        ],
        "pollDivisionIds": [
          10139930
        ],
        "postalCode": "L3B3G9",
        "streetName": "KENT",
        "streetDirectionId": null,
        "streetTypeId": "ST",
        "placeName": "WELLAND",
        "streetNameDisplayText": "KENT ST, WELLAND"
      }
    ]
  },
  {
    "postal": "L3B0V7",
    "result": []
  },
  {
    "postal": "L3B2Z1",
    "result": [
      {
        "electoralDistricts": [
          {
            "election": null,
            "id": 68,
            "name": "Niagara Centre"
          }
        ],
        "pollDivisionIds": [
          10139936
        ],
        "postalCode": "L3B2Z1",
        "streetName": "CHAFFEY",
        "streetDirectionId": null,
        "streetTypeId": "ST",
        "placeName": "WELLAND",
        "streetNameDisplayText": "CHAFFEY ST, WELLAND"
      }
    ]
  },
  {
    "postal": "L3B7N1",
    "result": []
  },
  {
    "postal": "L3B3C6",
    "result": [
      {
        "electoralDistricts": [
          {
            "election": null,
            "id": 68,
            "name": "Niagara Centre"
          }
        ],
        "pollDivisionIds": [
          10139935
        ],
        "postalCode": "L3B3C6",
        "streetName": "PLYMOUTH",
        "streetDirectionId": null,
        "streetTypeId": "RD",
        "placeName": "WELLAND",
        "streetNameDisplayText": "PLYMOUTH RD, WELLAND"
      }
    ]
  },
  {
    "postal": "L3B4M1",
    "result": [
      {
        "electoralDistricts": [
          {
            "election": null,
            "id": 68,
            "name": "Niagara Centre"
          }
        ],
        "pollDivisionIds": [
          10139931
        ],
        "postalCode": "L3B4M1",
        "streetName": "PRINCESS",
        "streetDirectionId": null,
        "streetTypeId": "ST",
        "placeName": "WELLAND",
        "streetNameDisplayText": "PRINCESS ST, WELLAND"
      }
    ]
  },
  {
    "postal": "L3B9K2",
    "result": []
  },
  {
    "postal": "L3B9S6",
    "result": []
  },
  {
    "postal": "L3B4X1",
    "result": [
      {
        "electoralDistricts": [
          {
            "election": null,
            "id": 68,
            "name": "Niagara Centre"
          }
        ],
        "pollDivisionIds": [
          10139935
        ],
        "postalCode": "L3B4X1",
        "streetName": "FLEET",
        "streetDirectionId": null,
        "streetTypeId": "ST",
        "placeName": "WELLAND",
        "streetNameDisplayText": "FLEET ST, WELLAND"
      }
    ]
  },
  {
    "postal": "L3B8W2",
    "result": []
  },
  {
    "postal": "L3B7N2",
    "result": []
  },
  {
    "postal": "L3B8S3",
    "result": []
  },
  {
    "postal": "L3B4V0",
    "result": []
  },
  {
    "postal": "L3B6W4",
    "result": []
  },
  {
    "postal": "L3B5M1",
    "result": [
      {
        "electoralDistricts": [
          {
            "election": null,
            "id": 68,
            "name": "Niagara Centre"
          }
        ],
        "pollDivisionIds": [
          10139937
        ],
        "postalCode": "L3B5M1",
        "streetName": "SPRINGFIELD",
        "streetDirectionId": null,
        "streetTypeId": "ST",
        "placeName": "WELLAND",
        "streetNameDisplayText": "SPRINGFIELD ST, WELLAND"
      }
    ]
  },
  {
    "postal": "L3B0S4",
    "result": []
  },
  {
    "postal": "L3B5X6",
    "result": [
      {
        "electoralDistricts": [
          {
            "election": null,
            "id": 68,
            "name": "Niagara Centre"
          }
        ],
        "pollDivisionIds": [
          10139930
        ],
        "postalCode": "L3B5X6",
        "streetName": "CROSS",
        "streetDirectionId": null,
        "streetTypeId": "ST",
        "placeName": "WELLAND",
        "streetNameDisplayText": "CROSS ST, WELLAND"
      }
    ]
  },
  {
    "postal": "L3B8L5",
    "result": []
  },
  {
    "postal": "L3B5M8",
    "result": [
      {
        "electoralDistricts": [
          {
            "election": null,
            "id": 68,
            "name": "Niagara Centre"
          }
        ],
        "pollDivisionIds": [
          10139937
        ],
        "postalCode": "L3B5M8",
        "streetName": "GLENWOOD",
        "streetDirectionId": null,
        "streetTypeId": "PKY",
        "placeName": "WELLAND",
        "streetNameDisplayText": "GLENWOOD PKY, WELLAND"
      }
    ]
  },
  {
    "postal": "L3B2G3",
    "result": [
      {
        "electoralDistricts": [
          {
            "election": null,
            "id": 68,
            "name": "Niagara Centre"
          }
        ],
        "pollDivisionIds": [
          10139935
        ],
        "postalCode": "L3B2G3",
        "streetName": "ROOSEVELT",
        "streetDirectionId": null,
        "streetTypeId": "AVE",
        "placeName": "WELLAND",
        "streetNameDisplayText": "ROOSEVELT AVE, WELLAND"
      }
    ]
  },
  {
    "postal": "L3B8E4",
    "result": []
  },
  {
    "postal": "L3B7S9",
    "result": []
  },
  {
    "postal": "L3B1K3",
    "result": [
      {
        "electoralDistricts": [
          {
            "election": null,
            "id": 68,
            "name": "Niagara Centre"
          }
        ],
        "pollDivisionIds": [
          10139932
        ],
        "postalCode": "L3B1K3",
        "streetName": "CAMROSE",
        "streetDirectionId": null,
        "streetTypeId": "AVE",
        "placeName": "WELLAND",
        "streetNameDisplayText": "CAMROSE AVE, WELLAND"
      }
    ]
  },
  {
    "postal": "L3B4E1",
    "result": [
      {
        "electoralDistricts": [
          {
            "election": null,
            "id": 68,
            "name": "Niagara Centre"
          }
        ],
        "pollDivisionIds": [
          10139932
        ],
        "postalCode": "L3B4E1",
        "streetName": "WELLAND",
        "streetDirectionId": null,
        "streetTypeId": "ST",
        "placeName": "WELLAND",
        "streetNameDisplayText": "WELLAND ST, WELLAND"
      }
    ]
  },
  {
    "postal": "L3B4R2",
    "result": [
      {
        "electoralDistricts": [
          {
            "election": null,
            "id": 68,
            "name": "Niagara Centre"
          }
        ],
        "pollDivisionIds": [
          10139931
        ],
        "postalCode": "L3B4R2",
        "streetName": "LINCOLN",
        "streetDirectionId": null,
        "streetTypeId": "ST",
        "placeName": "WELLAND",
        "streetNameDisplayText": "LINCOLN ST, WELLAND"
      }
    ]
  },
  {
    "postal": "L3B6T0",
    "result": []
  },
  {
    "postal": "L3B3K5",
    "result": [
      {
        "electoralDistricts": [
          {
            "election": null,
            "id": 68,
            "name": "Niagara Centre"
          }
        ],
        "pollDivisionIds": [
          10139935,
          10139930
        ],
        "postalCode": "L3B3K5",
        "streetName": "KING",
        "streetDirectionId": null,
        "streetTypeId": "ST",
        "placeName": "WELLAND",
        "streetNameDisplayText": "KING ST, WELLAND"
      }
    ]
  },
  {
    "postal": "L3B3S3",
    "result": [
      {
        "electoralDistricts": [
          {
            "election": null,
            "id": 68,
            "name": "Niagara Centre"
          }
        ],
        "pollDivisionIds": [
          10139923
        ],
        "postalCode": "L3B3S3",
        "streetName": "JOHN",
        "streetDirectionId": null,
        "streetTypeId": "ST",
        "placeName": "WELLAND",
        "streetNameDisplayText": "JOHN ST, WELLAND"
      }
    ]
  },
  {
    "postal": "L3B3L4",
    "result": [
      {
        "electoralDistricts": [
          {
            "election": null,
            "id": 68,
            "name": "Niagara Centre"
          }
        ],
        "pollDivisionIds": [
          10139936
        ],
        "postalCode": "L3B3L4",
        "streetName": "KING",
        "streetDirectionId": null,
        "streetTypeId": "ST",
        "placeName": "WELLAND",
        "streetNameDisplayText": "KING ST, WELLAND"
      }
    ]
  },
  {
    "postal": "L3B9Y2",
    "result": []
  },
  {
    "postal": "L3B1E0",
    "result": []
  },
  {
    "postal": "L3B9A4",
    "result": []
  },
  {
    "postal": "L3B1L3",
    "result": [
      {
        "electoralDistricts": [
          {
            "election": null,
            "id": 68,
            "name": "Niagara Centre"
          }
        ],
        "pollDivisionIds": [
          10139936
        ],
        "postalCode": "L3B1L3",
        "streetName": "MORWOOD",
        "streetDirectionId": null,
        "streetTypeId": "AVE",
        "placeName": "WELLAND",
        "streetNameDisplayText": "MORWOOD AVE, WELLAND"
      }
    ]
  },
  {
    "postal": "L3B6N1",
    "result": []
  },
  {
    "postal": "L3B6G7",
    "result": [
      {
        "electoralDistricts": [
          {
            "election": null,
            "id": 68,
            "name": "Niagara Centre"
          }
        ],
        "pollDivisionIds": [
          10139923
        ],
        "postalCode": "L3B6G7",
        "streetName": "MUIRFIELD",
        "streetDirectionId": null,
        "streetTypeId": "TRAIL",
        "placeName": "WELLAND",
        "streetNameDisplayText": "MUIRFIELD TRAIL, WELLAND"
      }
    ]
  },
  {
    "postal": "L3B7W1",
    "result": []
  },
  {
    "postal": "L3B4M6",
    "result": []
  },
  {
    "postal": "L3B1K0",
    "result": []
  },
  {
    "postal": "L3B3E2",
    "result": [
      {
        "electoralDistricts": [
          {
            "election": null,
            "id": 68,
            "name": "Niagara Centre"
          }
        ],
        "pollDivisionIds": [
          10139935
        ],
        "postalCode": "L3B3E2",
        "streetName": "PLYMOUTH",
        "streetDirectionId": null,
        "streetTypeId": "RD",
        "placeName": "WELLAND",
        "streetNameDisplayText": "PLYMOUTH RD, WELLAND"
      }
    ]
  },
  {
    "postal": "L3B5H4",
    "result": [
      {
        "electoralDistricts": [
          {
            "election": null,
            "id": 68,
            "name": "Niagara Centre"
          }
        ],
        "pollDivisionIds": [
          10139936
        ],
        "postalCode": "L3B5H4",
        "streetName": "SAUER",
        "streetDirectionId": null,
        "streetTypeId": "AVE",
        "placeName": "WELLAND",
        "streetNameDisplayText": "SAUER AVE, WELLAND"
      }
    ]
  },
  {
    "postal": "L3B1K7",
    "result": [
      {
        "electoralDistricts": [
          {
            "election": null,
            "id": 68,
            "name": "Niagara Centre"
          }
        ],
        "pollDivisionIds": [
          10139935
        ],
        "postalCode": "L3B1K7",
        "streetName": "EMPRESS",
        "streetDirectionId": null,
        "streetTypeId": "AVE",
        "placeName": "WELLAND",
        "streetNameDisplayText": "EMPRESS AVE, WELLAND"
      }
    ]
  },
  {
    "postal": "L3B0H0",
    "result": []
  },
  {
    "postal": "L3B0J3",
    "result": []
  },
  {
    "postal": "L3B1X6",
    "result": [
      {
        "electoralDistricts": [
          {
            "election": null,
            "id": 68,
            "name": "Niagara Centre"
          }
        ],
        "pollDivisionIds": [
          10139932
        ],
        "postalCode": "L3B1X6",
        "streetName": "CROWLAND",
        "streetDirectionId": null,
        "streetTypeId": "AVE",
        "placeName": "WELLAND",
        "streetNameDisplayText": "CROWLAND AVE, WELLAND"
      }
    ]
  },
  {
    "postal": "L3B2Z6",
    "result": [
      {
        "electoralDistricts": [
          {
            "election": null,
            "id": 68,
            "name": "Niagara Centre"
          }
        ],
        "pollDivisionIds": [
          10139936
        ],
        "postalCode": "L3B2Z6",
        "streetName": "BEATRICE",
        "streetDirectionId": null,
        "streetTypeId": "ST",
        "placeName": "WELLAND",
        "streetNameDisplayText": "BEATRICE ST, WELLAND"
      }
    ]
  },
  {
    "postal": "L3B4R9",
    "result": [
      {
        "electoralDistricts": [
          {
            "election": null,
            "id": 68,
            "name": "Niagara Centre"
          }
        ],
        "pollDivisionIds": [
          10139935
        ],
        "postalCode": "L3B4R9",
        "streetName": "FIRST",
        "streetDirectionId": null,
        "streetTypeId": "ST",
        "placeName": "WELLAND",
        "streetNameDisplayText": "FIRST ST, WELLAND"
      }
    ]
  },
  {
    "postal": "L3B0W8",
    "result": []
  },
  {
    "postal": "L3B1L4",
    "result": [
      {
        "electoralDistricts": [
          {
            "election": null,
            "id": 68,
            "name": "Niagara Centre"
          }
        ],
        "pollDivisionIds": [
          10139936
        ],
        "postalCode": "L3B1L4",
        "streetName": "MORWOOD",
        "streetDirectionId": null,
        "streetTypeId": "AVE",
        "placeName": "WELLAND",
        "streetNameDisplayText": "MORWOOD AVE, WELLAND"
      }
    ]
  },
  {
    "postal": "L3B0C8",
    "result": [
      {
        "electoralDistricts": [
          {
            "election": null,
            "id": 68,
            "name": "Niagara Centre"
          }
        ],
        "pollDivisionIds": [
          10139923
        ],
        "postalCode": "L3B0C8",
        "streetName": "BERWICK",
        "streetDirectionId": null,
        "streetTypeId": "TRAIL",
        "placeName": "WELLAND",
        "streetNameDisplayText": "BERWICK TRAIL, WELLAND"
      },
      {
        "electoralDistricts": [
          {
            "election": null,
            "id": 68,
            "name": "Niagara Centre"
          }
        ],
        "pollDivisionIds": [
          10139923
        ],
        "postalCode": "L3B0C8",
        "streetName": "TURNBERRY",
        "streetDirectionId": null,
        "streetTypeId": "TRAIL",
        "placeName": "WELLAND",
        "streetNameDisplayText": "TURNBERRY TRAIL, WELLAND"
      }
    ]
  },
  {
    "postal": "L3B9X7",
    "result": []
  },
  {
    "postal": "L3B4T1",
    "result": [
      {
        "electoralDistricts": [
          {
            "election": null,
            "id": 68,
            "name": "Niagara Centre"
          }
        ],
        "pollDivisionIds": [
          10139935
        ],
        "postalCode": "L3B4T1",
        "streetName": "DOVER",
        "streetDirectionId": null,
        "streetTypeId": "CRT",
        "placeName": "WELLAND",
        "streetNameDisplayText": "DOVER CRT, WELLAND"
      }
    ]
  },
  {
    "postal": "L3B0M0",
    "result": []
  },
  {
    "postal": "L3B6A2",
    "result": []
  },
  {
    "postal": "L3B9S8",
    "result": []
  },
  {
    "postal": "L3B9T4",
    "result": []
  },
  {
    "postal": "L3B9Y4",
    "result": []
  },
  {
    "postal": "L3B6G5",
    "result": [
      {
        "electoralDistricts": [
          {
            "election": null,
            "id": 68,
            "name": "Niagara Centre"
          }
        ],
        "pollDivisionIds": [
          10139923
        ],
        "postalCode": "L3B6G5",
        "streetName": "GALLOWAY",
        "streetDirectionId": null,
        "streetTypeId": "TRAIL",
        "placeName": "WELLAND",
        "streetNameDisplayText": "GALLOWAY TRAIL, WELLAND"
      }
    ]
  },
  {
    "postal": "L3B6H9",
    "result": [
      {
        "electoralDistricts": [
          {
            "election": null,
            "id": 68,
            "name": "Niagara Centre"
          }
        ],
        "pollDivisionIds": [
          10139923
        ],
        "postalCode": "L3B6H9",
        "streetName": "MAGNOLIA",
        "streetDirectionId": null,
        "streetTypeId": "LANE",
        "placeName": "WELLAND",
        "streetNameDisplayText": "MAGNOLIA LANE, WELLAND"
      }
    ]
  },
  {
    "postal": "L3B2P3",
    "result": [
      {
        "electoralDistricts": [
          {
            "election": null,
            "id": 68,
            "name": "Niagara Centre"
          }
        ],
        "pollDivisionIds": [
          10139936
        ],
        "postalCode": "L3B2P3",
        "streetName": "COMMERCIAL",
        "streetDirectionId": null,
        "streetTypeId": "ST",
        "placeName": "WELLAND",
        "streetNameDisplayText": "COMMERCIAL ST, WELLAND"
      }
    ]
  },
  {
    "postal": "L3B1T6",
    "result": [
      {
        "electoralDistricts": [
          {
            "election": null,
            "id": 68,
            "name": "Niagara Centre"
          }
        ],
        "pollDivisionIds": [
          10139932
        ],
        "postalCode": "L3B1T6",
        "streetName": "MCALPINE",
        "streetDirectionId": "S",
        "streetTypeId": "AVE",
        "placeName": "WELLAND",
        "streetNameDisplayText": "MCALPINE AVE S, WELLAND"
      }
    ]
  },
  {
    "postal": "L3B4P6",
    "result": [
      {
        "electoralDistricts": [
          {
            "election": null,
            "id": 68,
            "name": "Niagara Centre"
          }
        ],
        "pollDivisionIds": [
          10139935
        ],
        "postalCode": "L3B4P6",
        "streetName": "LINCOLN",
        "streetDirectionId": null,
        "streetTypeId": "ST",
        "placeName": "WELLAND",
        "streetNameDisplayText": "LINCOLN ST, WELLAND"
      }
    ]
  },
  {
    "postal": "L3B3K1",
    "result": [
      {
        "electoralDistricts": [
          {
            "election": null,
            "id": 68,
            "name": "Niagara Centre"
          }
        ],
        "pollDivisionIds": [
          10139930
        ],
        "postalCode": "L3B3K1",
        "streetName": "KING",
        "streetDirectionId": null,
        "streetTypeId": "ST",
        "placeName": "WELLAND",
        "streetNameDisplayText": "KING ST, WELLAND"
      }
    ]
  },
  {
    "postal": "L3B6X4",
    "result": []
  },
  {
    "postal": "L3B4M8",
    "result": [
      {
        "electoralDistricts": [
          {
            "election": null,
            "id": 68,
            "name": "Niagara Centre"
          }
        ],
        "pollDivisionIds": [
          10139935
        ],
        "postalCode": "L3B4M8",
        "streetName": "LINCOLN",
        "streetDirectionId": null,
        "streetTypeId": "ST",
        "placeName": "WELLAND",
        "streetNameDisplayText": "LINCOLN ST, WELLAND"
      }
    ]
  },
  {
    "postal": "L3B2Y1",
    "result": [
      {
        "electoralDistricts": [
          {
            "election": null,
            "id": 68,
            "name": "Niagara Centre"
          }
        ],
        "pollDivisionIds": [
          10139930
        ],
        "postalCode": "L3B2Y1",
        "streetName": "GARNER",
        "streetDirectionId": null,
        "streetTypeId": "AVE",
        "placeName": "WELLAND",
        "streetNameDisplayText": "GARNER AVE, WELLAND"
      }
    ]
  },
  {
    "postal": "L3B6M1",
    "result": []
  },
  {
    "postal": "L3B5L8",
    "result": [
      {
        "electoralDistricts": [
          {
            "election": null,
            "id": 68,
            "name": "Niagara Centre"
          }
        ],
        "pollDivisionIds": [
          10139937
        ],
        "postalCode": "L3B5L8",
        "streetName": "SPRINGFIELD",
        "streetDirectionId": null,
        "streetTypeId": "ST",
        "placeName": "WELLAND",
        "streetNameDisplayText": "SPRINGFIELD ST, WELLAND"
      }
    ]
  },
  {
    "postal": "L3B3P6",
    "result": [
      {
        "electoralDistricts": [
          {
            "election": null,
            "id": 68,
            "name": "Niagara Centre"
          }
        ],
        "pollDivisionIds": [
          10139923
        ],
        "postalCode": "L3B3P6",
        "streetName": "ALMOND",
        "streetDirectionId": null,
        "streetTypeId": "ST",
        "placeName": "WELLAND",
        "streetNameDisplayText": "ALMOND ST, WELLAND"
      }
    ]
  },
  {
    "postal": "L3B9A5",
    "result": []
  },
  {
    "postal": "L3B7K1",
    "result": []
  },
  {
    "postal": "L3B3J4",
    "result": [
      {
        "electoralDistricts": [
          {
            "election": null,
            "id": 68,
            "name": "Niagara Centre"
          }
        ],
        "pollDivisionIds": [
          10139930
        ],
        "postalCode": "L3B3J4",
        "streetName": "KING",
        "streetDirectionId": null,
        "streetTypeId": "ST",
        "placeName": "WELLAND",
        "streetNameDisplayText": "KING ST, WELLAND"
      }
    ]
  },
  {
    "postal": "L3B5E7",
    "result": [
      {
        "electoralDistricts": [
          {
            "election": null,
            "id": 68,
            "name": "Niagara Centre"
          }
        ],
        "pollDivisionIds": [
          10139936
        ],
        "postalCode": "L3B5E7",
        "streetName": "ONTARIO",
        "streetDirectionId": null,
        "streetTypeId": "RD",
        "placeName": "WELLAND",
        "streetNameDisplayText": "ONTARIO RD, WELLAND"
      }
    ]
  },
  {
    "postal": "L3B3A7",
    "result": [
      {
        "electoralDistricts": [
          {
            "election": null,
            "id": 68,
            "name": "Niagara Centre"
          }
        ],
        "pollDivisionIds": [
          10139930
        ],
        "postalCode": "L3B3A7",
        "streetName": "HELLEMS",
        "streetDirectionId": null,
        "streetTypeId": "AVE",
        "placeName": "WELLAND",
        "streetNameDisplayText": "HELLEMS AVE, WELLAND"
      }
    ]
  },
  {
    "postal": "L3B1B9",
    "result": [
      {
        "electoralDistricts": [
          {
            "election": null,
            "id": 68,
            "name": "Niagara Centre"
          }
        ],
        "pollDivisionIds": [
          10139931
        ],
        "postalCode": "L3B1B9",
        "streetName": "STRATHMORE",
        "streetDirectionId": null,
        "streetTypeId": "CRES",
        "placeName": "WELLAND",
        "streetNameDisplayText": "STRATHMORE CRES, WELLAND"
      }
    ]
  },
  {
    "postal": "L3B9E8",
    "result": []
  },
  {
    "postal": "L3B1C9",
    "result": [
      {
        "electoralDistricts": [
          {
            "election": null,
            "id": 68,
            "name": "Niagara Centre"
          }
        ],
        "pollDivisionIds": [
          10139936
        ],
        "postalCode": "L3B1C9",
        "streetName": "CHARLES",
        "streetDirectionId": null,
        "streetTypeId": "AVE",
        "placeName": "WELLAND",
        "streetNameDisplayText": "CHARLES AVE, WELLAND"
      }
    ]
  },
  {
    "postal": "L3B3B5",
    "result": [
      {
        "electoralDistricts": [
          {
            "election": null,
            "id": 68,
            "name": "Niagara Centre"
          }
        ],
        "pollDivisionIds": [
          10139930
        ],
        "postalCode": "L3B3B5",
        "streetName": "HELLEMS",
        "streetDirectionId": null,
        "streetTypeId": "AVE",
        "placeName": "WELLAND",
        "streetNameDisplayText": "HELLEMS AVE, WELLAND"
      }
    ]
  },
  {
    "postal": "L3B8R0",
    "result": []
  },
  {
    "postal": "L3B3P2",
    "result": [
      {
        "electoralDistricts": [
          {
            "election": null,
            "id": 68,
            "name": "Niagara Centre"
          }
        ],
        "pollDivisionIds": [
          10139938
        ],
        "postalCode": "L3B3P2",
        "streetName": "FEDERAL",
        "streetDirectionId": null,
        "streetTypeId": "RD",
        "placeName": "WELLAND",
        "streetNameDisplayText": "FEDERAL RD, WELLAND"
      }
    ]
  },
  {
    "postal": "L3B5V4",
    "result": []
  },
  {
    "postal": "L3B4H0",
    "result": []
  },
  {
    "postal": "L3B4S7",
    "result": [
      {
        "electoralDistricts": [
          {
            "election": null,
            "id": 68,
            "name": "Niagara Centre"
          }
        ],
        "pollDivisionIds": [
          10139935
        ],
        "postalCode": "L3B4S7",
        "streetName": "CORVETTE",
        "streetDirectionId": null,
        "streetTypeId": "ST",
        "placeName": "WELLAND",
        "streetNameDisplayText": "CORVETTE ST, WELLAND"
      }
    ]
  },
  {
    "postal": "L3B6C2",
    "result": []
  },
  {
    "postal": "L3B8W3",
    "result": []
  },
  {
    "postal": "L3B4M5",
    "result": [
      {
        "electoralDistricts": [
          {
            "election": null,
            "id": 68,
            "name": "Niagara Centre"
          }
        ],
        "pollDivisionIds": [
          10139930
        ],
        "postalCode": "L3B4M5",
        "streetName": "PARK",
        "streetDirectionId": null,
        "streetTypeId": "ST",
        "placeName": "WELLAND",
        "streetNameDisplayText": "PARK ST, WELLAND"
      }
    ]
  },
  {
    "postal": "L3B5T1",
    "result": []
  },
  {
    "postal": "L3B3B3",
    "result": [
      {
        "electoralDistricts": [
          {
            "election": null,
            "id": 68,
            "name": "Niagara Centre"
          }
        ],
        "pollDivisionIds": [
          10139930
        ],
        "postalCode": "L3B3B3",
        "streetName": "HELLEMS",
        "streetDirectionId": null,
        "streetTypeId": "AVE",
        "placeName": "WELLAND",
        "streetNameDisplayText": "HELLEMS AVE, WELLAND"
      }
    ]
  },
  {
    "postal": "L3B6C6",
    "result": [
      {
        "electoralDistricts": [
          {
            "election": null,
            "id": 68,
            "name": "Niagara Centre"
          }
        ],
        "pollDivisionIds": [
          10139935
        ],
        "postalCode": "L3B6C6",
        "streetName": "PLYMOUTH",
        "streetDirectionId": null,
        "streetTypeId": "RD",
        "placeName": "WELLAND",
        "streetNameDisplayText": "PLYMOUTH RD, WELLAND"
      }
    ]
  },
  {
    "postal": "L3B7N8",
    "result": []
  },
  {
    "postal": "L3B2Y3",
    "result": [
      {
        "electoralDistricts": [
          {
            "election": null,
            "id": 68,
            "name": "Niagara Centre"
          }
        ],
        "pollDivisionIds": [
          10139936
        ],
        "postalCode": "L3B2Y3",
        "streetName": "CHAFFEY",
        "streetDirectionId": null,
        "streetTypeId": "ST",
        "placeName": "WELLAND",
        "streetNameDisplayText": "CHAFFEY ST, WELLAND"
      }
    ]
  },
  {
    "postal": "L3B2R6",
    "result": [
      {
        "electoralDistricts": [
          {
            "election": null,
            "id": 68,
            "name": "Niagara Centre"
          }
        ],
        "pollDivisionIds": [
          10139930
        ],
        "postalCode": "L3B2R6",
        "streetName": "RIVER",
        "streetDirectionId": null,
        "streetTypeId": "RD",
        "placeName": "WELLAND",
        "streetNameDisplayText": "RIVER RD, WELLAND"
      }
    ]
  },
  {
    "postal": "L3B7N3",
    "result": []
  },
  {
    "postal": "L3B8J2",
    "result": []
  },
  {
    "postal": "L3B6A9",
    "result": [
      {
        "electoralDistricts": [
          {
            "election": null,
            "id": 68,
            "name": "Niagara Centre"
          }
        ],
        "pollDivisionIds": [
          10139923
        ],
        "postalCode": "L3B6A9",
        "streetName": "MAJOR",
        "streetDirectionId": null,
        "streetTypeId": "ST",
        "placeName": "WELLAND",
        "streetNameDisplayText": "MAJOR ST, WELLAND"
      }
    ]
  },
  {
    "postal": "L3B3V2",
    "result": [
      {
        "electoralDistricts": [
          {
            "election": null,
            "id": 68,
            "name": "Niagara Centre"
          }
        ],
        "pollDivisionIds": [
          10139923
        ],
        "postalCode": "L3B3V2",
        "streetName": "COHOE",
        "streetDirectionId": null,
        "streetTypeId": "ST",
        "placeName": "WELLAND",
        "streetNameDisplayText": "COHOE ST, WELLAND"
      }
    ]
  },
  {
    "postal": "L3B2N3",
    "result": [
      {
        "electoralDistricts": [
          {
            "election": null,
            "id": 68,
            "name": "Niagara Centre"
          }
        ],
        "pollDivisionIds": [
          10139923
        ],
        "postalCode": "L3B2N3",
        "streetName": "ROSS",
        "streetDirectionId": null,
        "streetTypeId": "ST",
        "placeName": "WELLAND",
        "streetNameDisplayText": "ROSS ST, WELLAND"
      }
    ]
  },
  {
    "postal": "L3B1S5",
    "result": [
      {
        "electoralDistricts": [
          {
            "election": null,
            "id": 68,
            "name": "Niagara Centre"
          }
        ],
        "pollDivisionIds": [
          10139935
        ],
        "postalCode": "L3B1S5",
        "streetName": "BALMORAL",
        "streetDirectionId": null,
        "streetTypeId": "AVE",
        "placeName": "WELLAND",
        "streetNameDisplayText": "BALMORAL AVE, WELLAND"
      }
    ]
  },
  {
    "postal": "L3B4T7",
    "result": [
      {
        "electoralDistricts": [
          {
            "election": null,
            "id": 68,
            "name": "Niagara Centre"
          }
        ],
        "pollDivisionIds": [
          10139935
        ],
        "postalCode": "L3B4T7",
        "streetName": "SECOND",
        "streetDirectionId": null,
        "streetTypeId": "ST",
        "placeName": "WELLAND",
        "streetNameDisplayText": "SECOND ST, WELLAND"
      }
    ]
  },
  {
    "postal": "L3B6Y7",
    "result": []
  },
  {
    "postal": "L3B0W7",
    "result": []
  },
  {
    "postal": "L3B2W9",
    "result": [
      {
        "electoralDistricts": [
          {
            "election": null,
            "id": 68,
            "name": "Niagara Centre"
          }
        ],
        "pollDivisionIds": [
          10139937
        ],
        "postalCode": "L3B2W9",
        "streetName": "CRESCENT",
        "streetDirectionId": null,
        "streetTypeId": "DR",
        "placeName": "WELLAND",
        "streetNameDisplayText": "CRESCENT DR, WELLAND"
      }
    ]
  },
  {
    "postal": "L3B8V0",
    "result": []
  },
  {
    "postal": "L3B0H4",
    "result": []
  },
  {
    "postal": "L3B2T1",
    "result": [
      {
        "electoralDistricts": [
          {
            "election": null,
            "id": 68,
            "name": "Niagara Centre"
          }
        ],
        "pollDivisionIds": [
          10139930
        ],
        "postalCode": "L3B2T1",
        "streetName": "BURGAR",
        "streetDirectionId": null,
        "streetTypeId": "ST",
        "placeName": "WELLAND",
        "streetNameDisplayText": "BURGAR ST, WELLAND"
      }
    ]
  },
  {
    "postal": "L3B1B1",
    "result": [
      {
        "electoralDistricts": [
          {
            "election": null,
            "id": 68,
            "name": "Niagara Centre"
          }
        ],
        "pollDivisionIds": [
          10139931
        ],
        "postalCode": "L3B1B1",
        "streetName": "WELLINGTON",
        "streetDirectionId": null,
        "streetTypeId": "ST",
        "placeName": "WELLAND",
        "streetNameDisplayText": "WELLINGTON ST, WELLAND"
      }
    ]
  },
  {
    "postal": "L3B8B6",
    "result": []
  },
  {
    "postal": "L3B6H1",
    "result": [
      {
        "electoralDistricts": [
          {
            "election": null,
            "id": 68,
            "name": "Niagara Centre"
          }
        ],
        "pollDivisionIds": [
          10139938
        ],
        "postalCode": "L3B6H1",
        "streetName": "HUMBERSTONE",
        "streetDirectionId": null,
        "streetTypeId": "RD",
        "placeName": "WELLAND",
        "streetNameDisplayText": "HUMBERSTONE RD, WELLAND"
      }
    ]
  },
  {
    "postal": "L3B8T8",
    "result": []
  },
  {
    "postal": "L3B0T4",
    "result": []
  },
  {
    "postal": "L3B2C4",
    "result": [
      {
        "electoralDistricts": [
          {
            "election": null,
            "id": 68,
            "name": "Niagara Centre"
          }
        ],
        "pollDivisionIds": [
          10139923
        ],
        "postalCode": "L3B2C4",
        "streetName": "PATTERSON",
        "streetDirectionId": null,
        "streetTypeId": "AVE",
        "placeName": "WELLAND",
        "streetNameDisplayText": "PATTERSON AVE, WELLAND"
      }
    ]
  },
  {
    "postal": "L3B8N3",
    "result": []
  },
  {
    "postal": "L3B4L8",
    "result": [
      {
        "electoralDistricts": [
          {
            "election": null,
            "id": 68,
            "name": "Niagara Centre"
          }
        ],
        "pollDivisionIds": [
          10139930
        ],
        "postalCode": "L3B4L8",
        "streetName": "VICTORIA",
        "streetDirectionId": null,
        "streetTypeId": "ST",
        "placeName": "WELLAND",
        "streetNameDisplayText": "VICTORIA ST, WELLAND"
      }
    ]
  },
  {
    "postal": "L3B2B5",
    "result": [
      {
        "electoralDistricts": [
          {
            "election": null,
            "id": 68,
            "name": "Niagara Centre"
          }
        ],
        "pollDivisionIds": [
          10139936
        ],
        "postalCode": "L3B2B5",
        "streetName": "DAVID",
        "streetDirectionId": null,
        "streetTypeId": "ST",
        "placeName": "WELLAND",
        "streetNameDisplayText": "DAVID ST, WELLAND"
      }
    ]
  },
  {
    "postal": "L3B3H1",
    "result": [
      {
        "electoralDistricts": [
          {
            "election": null,
            "id": 68,
            "name": "Niagara Centre"
          }
        ],
        "pollDivisionIds": [
          10139930
        ],
        "postalCode": "L3B3H1",
        "streetName": "KENT",
        "streetDirectionId": null,
        "streetTypeId": "ST",
        "placeName": "WELLAND",
        "streetNameDisplayText": "KENT ST, WELLAND"
      }
    ]
  },
  {
    "postal": "L3B4Y1",
    "result": [
      {
        "electoralDistricts": [
          {
            "election": null,
            "id": 68,
            "name": "Niagara Centre"
          }
        ],
        "pollDivisionIds": [
          10139935
        ],
        "postalCode": "L3B4Y1",
        "streetName": "EXETER",
        "streetDirectionId": null,
        "streetTypeId": "AVE",
        "placeName": "WELLAND",
        "streetNameDisplayText": "EXETER AVE, WELLAND"
      }
    ]
  },
  {
    "postal": "L3B7E2",
    "result": []
  },
  {
    "postal": "L3B2P5",
    "result": [
      {
        "electoralDistricts": [
          {
            "election": null,
            "id": 68,
            "name": "Niagara Centre"
          }
        ],
        "pollDivisionIds": [
          10139930
        ],
        "postalCode": "L3B2P5",
        "streetName": "MARGERY",
        "streetDirectionId": null,
        "streetTypeId": "RD",
        "placeName": "WELLAND",
        "streetNameDisplayText": "MARGERY RD, WELLAND"
      }
    ]
  },
  {
    "postal": "L3B8R7",
    "result": []
  },
  {
    "postal": "L3B9P1",
    "result": []
  },
  {
    "postal": "L3B3B8",
    "result": [
      {
        "electoralDistricts": [
          {
            "election": null,
            "id": 68,
            "name": "Niagara Centre"
          }
        ],
        "pollDivisionIds": [
          10139930
        ],
        "postalCode": "L3B3B8",
        "streetName": "HELLEMS",
        "streetDirectionId": null,
        "streetTypeId": "AVE",
        "placeName": "WELLAND",
        "streetNameDisplayText": "HELLEMS AVE, WELLAND"
      }
    ]
  },
  {
    "postal": "L3B3P7",
    "result": [
      {
        "electoralDistricts": [
          {
            "election": null,
            "id": 68,
            "name": "Niagara Centre"
          }
        ],
        "pollDivisionIds": [
          10139923
        ],
        "postalCode": "L3B3P7",
        "streetName": "ALMOND",
        "streetDirectionId": null,
        "streetTypeId": "ST",
        "placeName": "WELLAND",
        "streetNameDisplayText": "ALMOND ST, WELLAND"
      }
    ]
  },
  {
    "postal": "L3B9B2",
    "result": []
  },
  {
    "postal": "L3B6Z3",
    "result": []
  },
  {
    "postal": "L3B4N5",
    "result": [
      {
        "electoralDistricts": [
          {
            "election": null,
            "id": 68,
            "name": "Niagara Centre"
          }
        ],
        "pollDivisionIds": [
          10139935
        ],
        "postalCode": "L3B4N5",
        "streetName": "LINCOLN",
        "streetDirectionId": null,
        "streetTypeId": "ST",
        "placeName": "WELLAND",
        "streetNameDisplayText": "LINCOLN ST, WELLAND"
      }
    ]
  },
  {
    "postal": "L3B8T3",
    "result": []
  },
  {
    "postal": "L3B1V2",
    "result": [
      {
        "electoralDistricts": [
          {
            "election": null,
            "id": 68,
            "name": "Niagara Centre"
          }
        ],
        "pollDivisionIds": [
          10139932
        ],
        "postalCode": "L3B1V2",
        "streetName": "MCALPINE",
        "streetDirectionId": "S",
        "streetTypeId": "AVE",
        "placeName": "WELLAND",
        "streetNameDisplayText": "MCALPINE AVE S, WELLAND"
      }
    ]
  },
  {
    "postal": "L3B1Y0",
    "result": []
  },
  {
    "postal": "L3B3G6",
    "result": [
      {
        "electoralDistricts": [
          {
            "election": null,
            "id": 68,
            "name": "Niagara Centre"
          }
        ],
        "pollDivisionIds": [
          10139937
        ],
        "postalCode": "L3B3G6",
        "streetName": "BAY",
        "streetDirectionId": null,
        "streetTypeId": "AVE",
        "placeName": "WELLAND",
        "streetNameDisplayText": "BAY AVE, WELLAND"
      }
    ]
  },
  {
    "postal": "L3B3H7",
    "result": [
      {
        "electoralDistricts": [
          {
            "election": null,
            "id": 68,
            "name": "Niagara Centre"
          }
        ],
        "pollDivisionIds": [
          10139930
        ],
        "postalCode": "L3B3H7",
        "streetName": "KENT",
        "streetDirectionId": null,
        "streetTypeId": "ST",
        "placeName": "WELLAND",
        "streetNameDisplayText": "KENT ST, WELLAND"
      }
    ]
  },
  {
    "postal": "L3B7X8",
    "result": []
  },
  {
    "postal": "L3B0C7",
    "result": [
      {
        "electoralDistricts": [
          {
            "election": null,
            "id": 68,
            "name": "Niagara Centre"
          }
        ],
        "pollDivisionIds": [
          10139936
        ],
        "postalCode": "L3B0C7",
        "streetName": "SAUER",
        "streetDirectionId": null,
        "streetTypeId": "AVE",
        "placeName": "WELLAND",
        "streetNameDisplayText": "SAUER AVE, WELLAND"
      }
    ]
  },
  {
    "postal": "L3B0W9",
    "result": []
  },
  {
    "postal": "L3B8E6",
    "result": []
  },
  {
    "postal": "L3B9Z8",
    "result": []
  },
  {
    "postal": "L3B3P4",
    "result": [
      {
        "electoralDistricts": [
          {
            "election": null,
            "id": 68,
            "name": "Niagara Centre"
          }
        ],
        "pollDivisionIds": [
          10139923
        ],
        "postalCode": "L3B3P4",
        "streetName": "DOWNS",
        "streetDirectionId": null,
        "streetTypeId": "DR",
        "placeName": "WELLAND",
        "streetNameDisplayText": "DOWNS DR, WELLAND"
      }
    ]
  },
  {
    "postal": "L3B6L8",
    "result": []
  },
  {
    "postal": "L3B2R4",
    "result": [
      {
        "electoralDistricts": [
          {
            "election": null,
            "id": 68,
            "name": "Niagara Centre"
          }
        ],
        "pollDivisionIds": [
          10139935
        ],
        "postalCode": "L3B2R4",
        "streetName": "MCNAUGHTON",
        "streetDirectionId": null,
        "streetTypeId": "RD",
        "placeName": "WELLAND",
        "streetNameDisplayText": "MCNAUGHTON RD, WELLAND"
      }
    ]
  },
  {
    "postal": "L3B2W1",
    "result": [
      {
        "electoralDistricts": [
          {
            "election": null,
            "id": 68,
            "name": "Niagara Centre"
          }
        ],
        "pollDivisionIds": [
          10139936
        ],
        "postalCode": "L3B2W1",
        "streetName": "ALBERTA",
        "streetDirectionId": null,
        "streetTypeId": "ST",
        "placeName": "WELLAND",
        "streetNameDisplayText": "ALBERTA ST, WELLAND"
      }
    ]
  },
  {
    "postal": "L3B9H8",
    "result": []
  },
  {
    "postal": "L3B8X9",
    "result": []
  },
  {
    "postal": "L3B7H4",
    "result": []
  },
  {
    "postal": "L3B3J1",
    "result": []
  },
  {
    "postal": "L3B1P4",
    "result": [
      {
        "electoralDistricts": [
          {
            "election": null,
            "id": 68,
            "name": "Niagara Centre"
          }
        ],
        "pollDivisionIds": [
          10139935
        ],
        "postalCode": "L3B1P4",
        "streetName": "CLASSIC",
        "streetDirectionId": null,
        "streetTypeId": "AVE",
        "placeName": "WELLAND",
        "streetNameDisplayText": "CLASSIC AVE, WELLAND"
      }
    ]
  },
  {
    "postal": "L3B2A3",
    "result": [
      {
        "electoralDistricts": [
          {
            "election": null,
            "id": 68,
            "name": "Niagara Centre"
          }
        ],
        "pollDivisionIds": [
          10139936
        ],
        "postalCode": "L3B2A3",
        "streetName": "SOUTHWORTH",
        "streetDirectionId": "S",
        "streetTypeId": "ST",
        "placeName": "WELLAND",
        "streetNameDisplayText": "SOUTHWORTH ST S, WELLAND"
      }
    ]
  },
  {
    "postal": "L3B0Z1",
    "result": []
  },
  {
    "postal": "L3B1C1",
    "result": [
      {
        "electoralDistricts": [
          {
            "election": null,
            "id": 68,
            "name": "Niagara Centre"
          }
        ],
        "pollDivisionIds": [
          10139931
        ],
        "postalCode": "L3B1C1",
        "streetName": "HARRISON",
        "streetDirectionId": null,
        "streetTypeId": "AVE",
        "placeName": "WELLAND",
        "streetNameDisplayText": "HARRISON AVE, WELLAND"
      }
    ]
  },
  {
    "postal": "L3B0H3",
    "result": []
  },
  {
    "postal": "L3B7B0",
    "result": []
  },
  {
    "postal": "L3B5K2",
    "result": [
      {
        "electoralDistricts": [
          {
            "election": null,
            "id": 68,
            "name": "Niagara Centre"
          }
        ],
        "pollDivisionIds": [
          10139937
        ],
        "postalCode": "L3B5K2",
        "streetName": "FORKS",
        "streetDirectionId": "E",
        "streetTypeId": "RD",
        "placeName": "WELLAND",
        "streetNameDisplayText": "FORKS RD E, WELLAND"
      }
    ]
  },
  {
    "postal": "L3B1E9",
    "result": [
      {
        "electoralDistricts": [
          {
            "election": null,
            "id": 68,
            "name": "Niagara Centre"
          }
        ],
        "pollDivisionIds": [
          10139931
        ],
        "postalCode": "L3B1E9",
        "streetName": "EASTDALE",
        "streetDirectionId": null,
        "streetTypeId": "CRES",
        "placeName": "WELLAND",
        "streetNameDisplayText": "EASTDALE CRES, WELLAND"
      }
    ]
  },
  {
    "postal": "L3B9W7",
    "result": []
  },
  {
    "postal": "L3B5W6",
    "result": [
      {
        "electoralDistricts": [
          {
            "election": null,
            "id": 68,
            "name": "Niagara Centre"
          }
        ],
        "pollDivisionIds": [
          10139938
        ],
        "postalCode": "L3B5W6",
        "streetName": "CLARK",
        "streetDirectionId": null,
        "streetTypeId": "ST",
        "placeName": "WELLAND",
        "streetNameDisplayText": "CLARK ST, WELLAND"
      }
    ]
  },
  {
    "postal": "L3B6S6",
    "result": []
  },
  {
    "postal": "L3B2P8",
    "result": [
      {
        "electoralDistricts": [
          {
            "election": null,
            "id": 68,
            "name": "Niagara Centre"
          }
        ],
        "pollDivisionIds": [
          10139923
        ],
        "postalCode": "L3B2P8",
        "streetName": "MARGERY",
        "streetDirectionId": null,
        "streetTypeId": "RD",
        "placeName": "WELLAND",
        "streetNameDisplayText": "MARGERY RD, WELLAND"
      }
    ]
  },
  {
    "postal": "L3B4P8",
    "result": [
      {
        "electoralDistricts": [
          {
            "election": null,
            "id": 68,
            "name": "Niagara Centre"
          }
        ],
        "pollDivisionIds": [
          10139931
        ],
        "postalCode": "L3B4P8",
        "streetName": "LINCOLN",
        "streetDirectionId": null,
        "streetTypeId": "ST",
        "placeName": "WELLAND",
        "streetNameDisplayText": "LINCOLN ST, WELLAND"
      }
    ]
  },
  {
    "postal": "L3B0V9",
    "result": []
  },
  {
    "postal": "L3B5Y2",
    "result": [
      {
        "electoralDistricts": [
          {
            "election": null,
            "id": 68,
            "name": "Niagara Centre"
          }
        ],
        "pollDivisionIds": [
          10139932
        ],
        "postalCode": "L3B5Y2",
        "streetName": "HAGAR",
        "streetDirectionId": null,
        "streetTypeId": "ST",
        "placeName": "WELLAND",
        "streetNameDisplayText": "HAGAR ST, WELLAND"
      }
    ]
  },
  {
    "postal": "L3B7Z7",
    "result": []
  },
  {
    "postal": "L3B6Y8",
    "result": []
  },
  {
    "postal": "L3B2G7",
    "result": [
      {
        "electoralDistricts": [
          {
            "election": null,
            "id": 68,
            "name": "Niagara Centre"
          }
        ],
        "pollDivisionIds": [
          10139935
        ],
        "postalCode": "L3B2G7",
        "streetName": "ROOSEVELT",
        "streetDirectionId": null,
        "streetTypeId": "AVE",
        "placeName": "WELLAND",
        "streetNameDisplayText": "ROOSEVELT AVE, WELLAND"
      }
    ]
  },
  {
    "postal": "L3B8C1",
    "result": []
  },
  {
    "postal": "L3B5C5",
    "result": [
      {
        "electoralDistricts": [
          {
            "election": null,
            "id": 68,
            "name": "Niagara Centre"
          }
        ],
        "pollDivisionIds": [
          10139936
        ],
        "postalCode": "L3B5C5",
        "streetName": "ONTARIO",
        "streetDirectionId": null,
        "streetTypeId": "RD",
        "placeName": "WELLAND",
        "streetNameDisplayText": "ONTARIO RD, WELLAND"
      }
    ]
  },
  {
    "postal": "L3B2X8",
    "result": [
      {
        "electoralDistricts": [
          {
            "election": null,
            "id": 68,
            "name": "Niagara Centre"
          }
        ],
        "pollDivisionIds": [
          10139930
        ],
        "postalCode": "L3B2X8",
        "streetName": "GARNER",
        "streetDirectionId": null,
        "streetTypeId": "AVE",
        "placeName": "WELLAND",
        "streetNameDisplayText": "GARNER AVE, WELLAND"
      }
    ]
  },
  {
    "postal": "L3B1W5",
    "result": [
      {
        "electoralDistricts": [
          {
            "election": null,
            "id": 68,
            "name": "Niagara Centre"
          }
        ],
        "pollDivisionIds": [
          10139936
        ],
        "postalCode": "L3B1W5",
        "streetName": "IVA",
        "streetDirectionId": null,
        "streetTypeId": "ST",
        "placeName": "WELLAND",
        "streetNameDisplayText": "IVA ST, WELLAND"
      }
    ]
  },
  {
    "postal": "L3B7G0",
    "result": []
  },
  {
    "postal": "L3B8J8",
    "result": []
  },
  {
    "postal": "L3B3Y0",
    "result": []
  },
  {
    "postal": "L3B9T7",
    "result": []
  },
  {
    "postal": "L3B5P4",
    "result": [
      {
        "electoralDistricts": [
          {
            "election": null,
            "id": 68,
            "name": "Niagara Centre"
          }
        ],
        "pollDivisionIds": [
          10139923
        ],
        "postalCode": "L3B5P4",
        "streetName": "CENTRE",
        "streetDirectionId": null,
        "streetTypeId": "ST",
        "placeName": "WELLAND",
        "streetNameDisplayText": "CENTRE ST, WELLAND"
      }
    ]
  },
  {
    "postal": "L3B4B0",
    "result": []
  },
  {
    "postal": "L3B9N8",
    "result": []
  },
  {
    "postal": "L3B4A7",
    "result": [
      {
        "electoralDistricts": [
          {
            "election": null,
            "id": 68,
            "name": "Niagara Centre"
          }
        ],
        "pollDivisionIds": [
          10139932
        ],
        "postalCode": "L3B4A7",
        "streetName": "YORK",
        "streetDirectionId": null,
        "streetTypeId": "ST",
        "placeName": "WELLAND",
        "streetNameDisplayText": "YORK ST, WELLAND"
      }
    ]
  },
  {
    "postal": "L3B4H9",
    "result": [
      {
        "electoralDistricts": [
          {
            "election": null,
            "id": 68,
            "name": "Niagara Centre"
          }
        ],
        "pollDivisionIds": [
          10139930
        ],
        "postalCode": "L3B4H9",
        "streetName": "ASHER",
        "streetDirectionId": null,
        "streetTypeId": "ST",
        "placeName": "WELLAND",
        "streetNameDisplayText": "ASHER ST, WELLAND"
      }
    ]
  },
  {
    "postal": "L3B6X1",
    "result": []
  },
  {
    "postal": "L3B9Y7",
    "result": []
  },
  {
    "postal": "L3B2Y5",
    "result": [
      {
        "electoralDistricts": [
          {
            "election": null,
            "id": 68,
            "name": "Niagara Centre"
          }
        ],
        "pollDivisionIds": [
          10139936
        ],
        "postalCode": "L3B2Y5",
        "streetName": "CHAFFEY",
        "streetDirectionId": null,
        "streetTypeId": "ST",
        "placeName": "WELLAND",
        "streetNameDisplayText": "CHAFFEY ST, WELLAND"
      }
    ]
  },
  {
    "postal": "L3B8L7",
    "result": []
  },
  {
    "postal": "L3B2A8",
    "result": [
      {
        "electoralDistricts": [
          {
            "election": null,
            "id": 68,
            "name": "Niagara Centre"
          }
        ],
        "pollDivisionIds": [
          10139923
        ],
        "postalCode": "L3B2A8",
        "streetName": "MYRTLE",
        "streetDirectionId": null,
        "streetTypeId": "AVE",
        "placeName": "WELLAND",
        "streetNameDisplayText": "MYRTLE AVE, WELLAND"
      }
    ]
  },
  {
    "postal": "L3B2K9",
    "result": [
      {
        "electoralDistricts": [
          {
            "election": null,
            "id": 68,
            "name": "Niagara Centre"
          }
        ],
        "pollDivisionIds": [
          10139936
        ],
        "postalCode": "L3B2K9",
        "streetName": "WRIGHT",
        "streetDirectionId": null,
        "streetTypeId": "ST",
        "placeName": "WELLAND",
        "streetNameDisplayText": "WRIGHT ST, WELLAND"
      }
    ]
  },
  {
    "postal": "L3B3E5",
    "result": [
      {
        "electoralDistricts": [
          {
            "election": null,
            "id": 68,
            "name": "Niagara Centre"
          }
        ],
        "pollDivisionIds": [
          10139936
        ],
        "postalCode": "L3B3E5",
        "streetName": "DAIN",
        "streetDirectionId": null,
        "streetTypeId": "AVE",
        "placeName": "WELLAND",
        "streetNameDisplayText": "DAIN AVE, WELLAND"
      }
    ]
  },
  {
    "postal": "L3B8N6",
    "result": []
  },
  {
    "postal": "L3B8J4",
    "result": []
  },
  {
    "postal": "L3B4R7",
    "result": [
      {
        "electoralDistricts": [
          {
            "election": null,
            "id": 68,
            "name": "Niagara Centre"
          }
        ],
        "pollDivisionIds": [
          10139931
        ],
        "postalCode": "L3B4R7",
        "streetName": "LINCOLN",
        "streetDirectionId": null,
        "streetTypeId": "ST",
        "placeName": "WELLAND",
        "streetNameDisplayText": "LINCOLN ST, WELLAND"
      }
    ]
  },
  {
    "postal": "L3B9K1",
    "result": []
  },
  {
    "postal": "L3B8E1",
    "result": []
  },
  {
    "postal": "L3B0R1",
    "result": []
  },
  {
    "postal": "L3B4J3",
    "result": [
      {
        "electoralDistricts": [
          {
            "election": null,
            "id": 68,
            "name": "Niagara Centre"
          }
        ],
        "pollDivisionIds": [
          10139930
        ],
        "postalCode": "L3B4J3",
        "streetName": "ASHER",
        "streetDirectionId": null,
        "streetTypeId": "ST",
        "placeName": "WELLAND",
        "streetNameDisplayText": "ASHER ST, WELLAND"
      }
    ]
  },
  {
    "postal": "L3B7E7",
    "result": []
  },
  {
    "postal": "L3B0J0",
    "result": []
  },
  {
    "postal": "L3B7R8",
    "result": []
  },
  {
    "postal": "L3B9X0",
    "result": []
  },
  {
    "postal": "L3B7P6",
    "result": []
  },
  {
    "postal": "L3B0R7",
    "result": []
  },
  {
    "postal": "L3B5W1",
    "result": [
      {
        "electoralDistricts": [
          {
            "election": null,
            "id": 68,
            "name": "Niagara Centre"
          }
        ],
        "pollDivisionIds": [
          10139930
        ],
        "postalCode": "L3B5W1",
        "streetName": "KING",
        "streetDirectionId": null,
        "streetTypeId": "ST",
        "placeName": "WELLAND",
        "streetNameDisplayText": "KING ST, WELLAND"
      }
    ]
  },
  {
    "postal": "L3B0K4",
    "result": []
  },
  {
    "postal": "L3B7N9",
    "result": []
  },
  {
    "postal": "L3B1N0",
    "result": []
  },
  {
    "postal": "L3B6P3",
    "result": []
  },
  {
    "postal": "L3B5A1",
    "result": [
      {
        "electoralDistricts": [
          {
            "election": null,
            "id": 68,
            "name": "Niagara Centre"
          }
        ],
        "pollDivisionIds": [
          10139936
        ],
        "postalCode": "L3B5A1",
        "streetName": "SUTHERLAND",
        "streetDirectionId": null,
        "streetTypeId": "AVE",
        "placeName": "WELLAND",
        "streetNameDisplayText": "SUTHERLAND AVE, WELLAND"
      }
    ]
  },
  {
    "postal": "L3B9M9",
    "result": []
  },
  {
    "postal": "L3B7T6",
    "result": []
  },
  {
    "postal": "L3B3X0",
    "result": []
  },
  {
    "postal": "L3B2T0",
    "result": []
  },
  {
    "postal": "L3B5X9",
    "result": [
      {
        "electoralDistricts": [
          {
            "election": null,
            "id": 68,
            "name": "Niagara Centre"
          }
        ],
        "pollDivisionIds": [
          10139935
        ],
        "postalCode": "L3B5X9",
        "streetName": "MACLEAN",
        "streetDirectionId": null,
        "streetTypeId": "PL",
        "placeName": "WELLAND",
        "streetNameDisplayText": "MACLEAN PL, WELLAND"
      }
    ]
  },
  {
    "postal": "L3B2R3",
    "result": [
      {
        "electoralDistricts": [
          {
            "election": null,
            "id": 68,
            "name": "Niagara Centre"
          }
        ],
        "pollDivisionIds": [
          10139930
        ],
        "postalCode": "L3B2R3",
        "streetName": "ALEXANDER",
        "streetDirectionId": null,
        "streetTypeId": "ST",
        "placeName": "WELLAND",
        "streetNameDisplayText": "ALEXANDER ST, WELLAND"
      }
    ]
  },
  {
    "postal": "L3B5N2",
    "result": [
      {
        "electoralDistricts": [
          {
            "election": null,
            "id": 68,
            "name": "Niagara Centre"
          }
        ],
        "pollDivisionIds": [
          10139937
        ],
        "postalCode": "L3B5N2",
        "streetName": "STANLEY",
        "streetDirectionId": null,
        "streetTypeId": "ST",
        "placeName": "WELLAND",
        "streetNameDisplayText": "STANLEY ST, WELLAND"
      }
    ]
  },
  {
    "postal": "L3B4Y7",
    "result": [
      {
        "electoralDistricts": [
          {
            "election": null,
            "id": 68,
            "name": "Niagara Centre"
          }
        ],
        "pollDivisionIds": [
          10139936
        ],
        "postalCode": "L3B4Y7",
        "streetName": "SIMPSON",
        "streetDirectionId": null,
        "streetTypeId": "AVE",
        "placeName": "WELLAND",
        "streetNameDisplayText": "SIMPSON AVE, WELLAND"
      }
    ]
  },
  {
    "postal": "L3B7M0",
    "result": []
  },
  {
    "postal": "L3B8P3",
    "result": []
  },
  {
    "postal": "L3B3N3",
    "result": [
      {
        "electoralDistricts": [
          {
            "election": null,
            "id": 68,
            "name": "Niagara Centre"
          }
        ],
        "pollDivisionIds": [
          10139937
        ],
        "postalCode": "L3B3N3",
        "streetName": "CANAL BANK",
        "streetDirectionId": null,
        "streetTypeId": "ST",
        "placeName": "WELLAND",
        "streetNameDisplayText": "CANAL BANK ST, WELLAND"
      }
    ]
  },
  {
    "postal": "L3B7S3",
    "result": []
  },
  {
    "postal": "L3B3V9",
    "result": [
      {
        "electoralDistricts": [
          {
            "election": null,
            "id": 68,
            "name": "Niagara Centre"
          }
        ],
        "pollDivisionIds": [
          10139930
        ],
        "postalCode": "L3B3V9",
        "streetName": "DOROTHY",
        "streetDirectionId": null,
        "streetTypeId": "ST",
        "placeName": "WELLAND",
        "streetNameDisplayText": "DOROTHY ST, WELLAND"
      }
    ]
  },
  {
    "postal": "L3B9N7",
    "result": []
  },
  {
    "postal": "L3B0G4",
    "result": []
  },
  {
    "postal": "L3B2E2",
    "result": [
      {
        "electoralDistricts": [
          {
            "election": null,
            "id": 68,
            "name": "Niagara Centre"
          }
        ],
        "pollDivisionIds": [
          10139932
        ],
        "postalCode": "L3B2E2",
        "streetName": "DUNCAN",
        "streetDirectionId": null,
        "streetTypeId": "ST",
        "placeName": "WELLAND",
        "streetNameDisplayText": "DUNCAN ST, WELLAND"
      }
    ]
  },
  {
    "postal": "L3B7W8",
    "result": []
  },
  {
    "postal": "L3B7M5",
    "result": []
  },
  {
    "postal": "L3B5W8",
    "result": [
      {
        "electoralDistricts": [
          {
            "election": null,
            "id": 68,
            "name": "Niagara Centre"
          }
        ],
        "pollDivisionIds": [
          10139938
        ],
        "postalCode": "L3B5W8",
        "streetName": "SHAW",
        "streetDirectionId": null,
        "streetTypeId": "ST",
        "placeName": "WELLAND",
        "streetNameDisplayText": "SHAW ST, WELLAND"
      }
    ]
  },
  {
    "postal": "L3B5E5",
    "result": [
      {
        "electoralDistricts": [
          {
            "election": null,
            "id": 68,
            "name": "Niagara Centre"
          }
        ],
        "pollDivisionIds": [
          10139936
        ],
        "postalCode": "L3B5E5",
        "streetName": "ONTARIO",
        "streetDirectionId": null,
        "streetTypeId": "RD",
        "placeName": "WELLAND",
        "streetNameDisplayText": "ONTARIO RD, WELLAND"
      }
    ]
  },
  {
    "postal": "L3B1P9",
    "result": [
      {
        "electoralDistricts": [
          {
            "election": null,
            "id": 68,
            "name": "Niagara Centre"
          }
        ],
        "pollDivisionIds": [
          10139936
        ],
        "postalCode": "L3B1P9",
        "streetName": "MCLAUGHLIN",
        "streetDirectionId": null,
        "streetTypeId": "ST",
        "placeName": "WELLAND",
        "streetNameDisplayText": "MCLAUGHLIN ST, WELLAND"
      }
    ]
  },
  {
    "postal": "L3B8V8",
    "result": []
  },
  {
    "postal": "L3B9G8",
    "result": []
  },
  {
    "postal": "L3B8H9",
    "result": []
  },
  {
    "postal": "L3B1Z1",
    "result": [
      {
        "electoralDistricts": [
          {
            "election": null,
            "id": 68,
            "name": "Niagara Centre"
          }
        ],
        "pollDivisionIds": [
          10139936
        ],
        "postalCode": "L3B1Z1",
        "streetName": "SOUTHWORTH",
        "streetDirectionId": "N",
        "streetTypeId": "ST",
        "placeName": "WELLAND",
        "streetNameDisplayText": "SOUTHWORTH ST N, WELLAND"
      }
    ]
  },
  {
    "postal": "L3B8M3",
    "result": []
  },
  {
    "postal": "L3B5H6",
    "result": [
      {
        "electoralDistricts": [
          {
            "election": null,
            "id": 68,
            "name": "Niagara Centre"
          }
        ],
        "pollDivisionIds": [
          10139936
        ],
        "postalCode": "L3B5H6",
        "streetName": "SAUER",
        "streetDirectionId": null,
        "streetTypeId": "AVE",
        "placeName": "WELLAND",
        "streetNameDisplayText": "SAUER AVE, WELLAND"
      }
    ]
  },
  {
    "postal": "L3B7W7",
    "result": []
  },
  {
    "postal": "L3B4L0",
    "result": []
  },
  {
    "postal": "L3B2N1",
    "result": [
      {
        "electoralDistricts": [
          {
            "election": null,
            "id": 68,
            "name": "Niagara Centre"
          }
        ],
        "pollDivisionIds": [
          10139923
        ],
        "postalCode": "L3B2N1",
        "streetName": "ROSS",
        "streetDirectionId": null,
        "streetTypeId": "ST",
        "placeName": "WELLAND",
        "streetNameDisplayText": "ROSS ST, WELLAND"
      }
    ]
  },
  {
    "postal": "L3B2H4",
    "result": [
      {
        "electoralDistricts": [
          {
            "election": null,
            "id": 68,
            "name": "Niagara Centre"
          }
        ],
        "pollDivisionIds": [
          10139936
        ],
        "postalCode": "L3B2H4",
        "streetName": "MACINNIS",
        "streetDirectionId": null,
        "streetTypeId": "ST",
        "placeName": "WELLAND",
        "streetNameDisplayText": "MACINNIS ST, WELLAND"
      }
    ]
  },
  {
    "postal": "L3B5C8",
    "result": [
      {
        "electoralDistricts": [
          {
            "election": null,
            "id": 68,
            "name": "Niagara Centre"
          }
        ],
        "pollDivisionIds": [
          10139936
        ],
        "postalCode": "L3B5C8",
        "streetName": "ONTARIO",
        "streetDirectionId": null,
        "streetTypeId": "RD",
        "placeName": "WELLAND",
        "streetNameDisplayText": "ONTARIO RD, WELLAND"
      }
    ]
  },
  {
    "postal": "L3B8B0",
    "result": []
  },
  {
    "postal": "L3B1T4",
    "result": [
      {
        "electoralDistricts": [
          {
            "election": null,
            "id": 68,
            "name": "Niagara Centre"
          }
        ],
        "pollDivisionIds": [
          10139923
        ],
        "postalCode": "L3B1T4",
        "streetName": "MCALPINE",
        "streetDirectionId": "N",
        "streetTypeId": "AVE",
        "placeName": "WELLAND",
        "streetNameDisplayText": "MCALPINE AVE N, WELLAND"
      }
    ]
  },
  {
    "postal": "L3B7N7",
    "result": []
  },
  {
    "postal": "L3B4L3",
    "result": [
      {
        "electoralDistricts": [
          {
            "election": null,
            "id": 68,
            "name": "Niagara Centre"
          }
        ],
        "pollDivisionIds": [
          10139930
        ],
        "postalCode": "L3B4L3",
        "streetName": "ALBERT",
        "streetDirectionId": null,
        "streetTypeId": "ST",
        "placeName": "WELLAND",
        "streetNameDisplayText": "ALBERT ST, WELLAND"
      }
    ]
  },
  {
    "postal": "L3B2N2",
    "result": [
      {
        "electoralDistricts": [
          {
            "election": null,
            "id": 68,
            "name": "Niagara Centre"
          }
        ],
        "pollDivisionIds": [
          10139923
        ],
        "postalCode": "L3B2N2",
        "streetName": "ROSS",
        "streetDirectionId": null,
        "streetTypeId": "ST",
        "placeName": "WELLAND",
        "streetNameDisplayText": "ROSS ST, WELLAND"
      }
    ]
  },
  {
    "postal": "L3B4N8",
    "result": [
      {
        "electoralDistricts": [
          {
            "election": null,
            "id": 68,
            "name": "Niagara Centre"
          }
        ],
        "pollDivisionIds": [
          10139935
        ],
        "postalCode": "L3B4N8",
        "streetName": "LINCOLN",
        "streetDirectionId": null,
        "streetTypeId": "ST",
        "placeName": "WELLAND",
        "streetNameDisplayText": "LINCOLN ST, WELLAND"
      }
    ]
  },
  {
    "postal": "L3B3M5",
    "result": [
      {
        "electoralDistricts": [
          {
            "election": null,
            "id": 68,
            "name": "Niagara Centre"
          }
        ],
        "pollDivisionIds": [
          10139936
        ],
        "postalCode": "L3B3M5",
        "streetName": "JONES",
        "streetDirectionId": null,
        "streetTypeId": "LANE",
        "placeName": "WELLAND",
        "streetNameDisplayText": "JONES LANE, WELLAND"
      }
    ]
  },
  {
    "postal": "L3B6H7",
    "result": [
      {
        "electoralDistricts": [
          {
            "election": null,
            "id": 68,
            "name": "Niagara Centre"
          }
        ],
        "pollDivisionIds": [
          10139931
        ],
        "postalCode": "L3B6H7",
        "streetName": "NATHALIE",
        "streetDirectionId": null,
        "streetTypeId": "CRT",
        "placeName": "WELLAND",
        "streetNameDisplayText": "NATHALIE CRT, WELLAND"
      },
      {
        "electoralDistricts": [
          {
            "election": null,
            "id": 68,
            "name": "Niagara Centre"
          }
        ],
        "pollDivisionIds": [
          10139931
        ],
        "postalCode": "L3B6H7",
        "streetName": "RICHELIEU",
        "streetDirectionId": null,
        "streetTypeId": "PROM",
        "placeName": "WELLAND",
        "streetNameDisplayText": "RICHELIEU PROM, WELLAND"
      }
    ]
  },
  {
    "postal": "L3B8Y8",
    "result": []
  },
  {
    "postal": "L3B5R9",
    "result": []
  },
  {
    "postal": "L3B8G3",
    "result": []
  },
  {
    "postal": "L3B4N7",
    "result": [
      {
        "electoralDistricts": [
          {
            "election": null,
            "id": 68,
            "name": "Niagara Centre"
          }
        ],
        "pollDivisionIds": [
          10139932
        ],
        "postalCode": "L3B4N7",
        "streetName": "LINCOLN",
        "streetDirectionId": null,
        "streetTypeId": "ST",
        "placeName": "WELLAND",
        "streetNameDisplayText": "LINCOLN ST, WELLAND"
      }
    ]
  },
  {
    "postal": "L3B0B9",
    "result": [
      {
        "electoralDistricts": [
          {
            "election": null,
            "id": 68,
            "name": "Niagara Centre"
          }
        ],
        "pollDivisionIds": [
          10139923
        ],
        "postalCode": "L3B0B9",
        "streetName": "MAJOR",
        "streetDirectionId": null,
        "streetTypeId": "ST",
        "placeName": "WELLAND",
        "streetNameDisplayText": "MAJOR ST, WELLAND"
      }
    ]
  },
  {
    "postal": "L3B9K7",
    "result": []
  },
  {
    "postal": "L3B9K9",
    "result": []
  },
  {
    "postal": "L3B3Z2",
    "result": [
      {
        "electoralDistricts": [
          {
            "election": null,
            "id": 68,
            "name": "Niagara Centre"
          }
        ],
        "pollDivisionIds": [
          10139931
        ],
        "postalCode": "L3B3Z2",
        "streetName": "EAST MAIN",
        "streetDirectionId": null,
        "streetTypeId": "ST",
        "placeName": "WELLAND",
        "streetNameDisplayText": "EAST MAIN ST, WELLAND"
      }
    ]
  },
  {
    "postal": "L3B6W7",
    "result": []
  },
  {
    "postal": "L3B0P1",
    "result": []
  },
  {
    "postal": "L3B3A0",
    "result": []
  },
  {
    "postal": "L3B8L9",
    "result": []
  },
  {
    "postal": "L3B6X0",
    "result": []
  },
  {
    "postal": "L3B3E9",
    "result": [
      {
        "electoralDistricts": [
          {
            "election": null,
            "id": 68,
            "name": "Niagara Centre"
          }
        ],
        "pollDivisionIds": [
          10139930
        ],
        "postalCode": "L3B3E9",
        "streetName": "CROSS",
        "streetDirectionId": null,
        "streetTypeId": "ST",
        "placeName": "WELLAND",
        "streetNameDisplayText": "CROSS ST, WELLAND"
      }
    ]
  },
  {
    "postal": "L3B0S5",
    "result": []
  },
  {
    "postal": "L3B1A2",
    "result": [
      {
        "electoralDistricts": [
          {
            "election": null,
            "id": 68,
            "name": "Niagara Centre"
          }
        ],
        "pollDivisionIds": [
          10139931
        ],
        "postalCode": "L3B1A2",
        "streetName": "VANIER",
        "streetDirectionId": null,
        "streetTypeId": "DR",
        "placeName": "WELLAND",
        "streetNameDisplayText": "VANIER DR, WELLAND"
      }
    ]
  },
  {
    "postal": "L3B5V8",
    "result": [
      {
        "electoralDistricts": [
          {
            "election": null,
            "id": 68,
            "name": "Niagara Centre"
          }
        ],
        "pollDivisionIds": [
          10139923
        ],
        "postalCode": "L3B5V8",
        "streetName": "BROWNLEIGH",
        "streetDirectionId": null,
        "streetTypeId": "AVE",
        "placeName": "WELLAND",
        "streetNameDisplayText": "BROWNLEIGH AVE, WELLAND"
      }
    ]
  },
  {
    "postal": "L3B8C5",
    "result": []
  },
  {
    "postal": "L3B6N0",
    "result": []
  },
  {
    "postal": "L3B9E6",
    "result": []
  },
  {
    "postal": "L3B5J7",
    "result": [
      {
        "electoralDistricts": [
          {
            "election": null,
            "id": 68,
            "name": "Niagara Centre"
          }
        ],
        "pollDivisionIds": [
          10139937
        ],
        "postalCode": "L3B5J7",
        "streetName": "ERIE",
        "streetDirectionId": null,
        "streetTypeId": "ST",
        "placeName": "WELLAND",
        "streetNameDisplayText": "ERIE ST, WELLAND"
      }
    ]
  },
  {
    "postal": "L3B2R2",
    "result": []
  },
  {
    "postal": "L3B0P5",
    "result": []
  },
  {
    "postal": "L3B5A7",
    "result": [
      {
        "electoralDistricts": [
          {
            "election": null,
            "id": 68,
            "name": "Niagara Centre"
          }
        ],
        "pollDivisionIds": [
          10139936
        ],
        "postalCode": "L3B5A7",
        "streetName": "SIXTH",
        "streetDirectionId": null,
        "streetTypeId": "ST",
        "placeName": "WELLAND",
        "streetNameDisplayText": "SIXTH ST, WELLAND"
      }
    ]
  },
  {
    "postal": "L3B1G1",
    "result": [
      {
        "electoralDistricts": [
          {
            "election": null,
            "id": 68,
            "name": "Niagara Centre"
          }
        ],
        "pollDivisionIds": [
          10139931
        ],
        "postalCode": "L3B1G1",
        "streetName": "GLADYS",
        "streetDirectionId": null,
        "streetTypeId": "AVE",
        "placeName": "WELLAND",
        "streetNameDisplayText": "GLADYS AVE, WELLAND"
      }
    ]
  },
  {
    "postal": "L3B9R6",
    "result": []
  },
  {
    "postal": "L3B4Z9",
    "result": [
      {
        "electoralDistricts": [
          {
            "election": null,
            "id": 68,
            "name": "Niagara Centre"
          }
        ],
        "pollDivisionIds": [
          10139936
        ],
        "postalCode": "L3B4Z9",
        "streetName": "SUTHERLAND",
        "streetDirectionId": null,
        "streetTypeId": "AVE",
        "placeName": "WELLAND",
        "streetNameDisplayText": "SUTHERLAND AVE, WELLAND"
      }
    ]
  },
  {
    "postal": "L3B1V5",
    "result": [
      {
        "electoralDistricts": [
          {
            "election": null,
            "id": 68,
            "name": "Niagara Centre"
          }
        ],
        "pollDivisionIds": [
          10139935
        ],
        "postalCode": "L3B1V5",
        "streetName": "AFTON",
        "streetDirectionId": null,
        "streetTypeId": "AVE",
        "placeName": "WELLAND",
        "streetNameDisplayText": "AFTON AVE, WELLAND"
      }
    ]
  },
  {
    "postal": "L3B9Y5",
    "result": []
  },
  {
    "postal": "L3B1P2",
    "result": [
      {
        "electoralDistricts": [
          {
            "election": null,
            "id": 68,
            "name": "Niagara Centre"
          }
        ],
        "pollDivisionIds": [
          10139932
        ],
        "postalCode": "L3B1P2",
        "streetName": "SCHOLFIELD",
        "streetDirectionId": "S",
        "streetTypeId": "AVE",
        "placeName": "WELLAND",
        "streetNameDisplayText": "SCHOLFIELD AVE S, WELLAND"
      }
    ]
  },
  {
    "postal": "L3B5X0",
    "result": []
  },
  {
    "postal": "L3B7B8",
    "result": []
  },
  {
    "postal": "L3B0C6",
    "result": []
  },
  {
    "postal": "L3B6G1",
    "result": []
  },
  {
    "postal": "L3B3K3",
    "result": [
      {
        "electoralDistricts": [
          {
            "election": null,
            "id": 68,
            "name": "Niagara Centre"
          }
        ],
        "pollDivisionIds": [
          10139930
        ],
        "postalCode": "L3B3K3",
        "streetName": "KING",
        "streetDirectionId": null,
        "streetTypeId": "ST",
        "placeName": "WELLAND",
        "streetNameDisplayText": "KING ST, WELLAND"
      }
    ]
  },
  {
    "postal": "L3B9R0",
    "result": []
  },
  {
    "postal": "L3B4R8",
    "result": [
      {
        "electoralDistricts": [
          {
            "election": null,
            "id": 68,
            "name": "Niagara Centre"
          }
        ],
        "pollDivisionIds": [
          10139935
        ],
        "postalCode": "L3B4R8",
        "streetName": "FIRST",
        "streetDirectionId": null,
        "streetTypeId": "ST",
        "placeName": "WELLAND",
        "streetNameDisplayText": "FIRST ST, WELLAND"
      }
    ]
  },
  {
    "postal": "L3B5P9",
    "result": []
  },
  {
    "postal": "L3B8N4",
    "result": []
  },
  {
    "postal": "L3B8H4",
    "result": []
  },
  {
    "postal": "L3B4V1",
    "result": [
      {
        "electoralDistricts": [
          {
            "election": null,
            "id": 68,
            "name": "Niagara Centre"
          }
        ],
        "pollDivisionIds": [
          10139935
        ],
        "postalCode": "L3B4V1",
        "streetName": "DIEPPE",
        "streetDirectionId": null,
        "streetTypeId": "ST",
        "placeName": "WELLAND",
        "streetNameDisplayText": "DIEPPE ST, WELLAND"
      }
    ]
  },
  {
    "postal": "L3B1K5",
    "result": [
      {
        "electoralDistricts": [
          {
            "election": null,
            "id": 68,
            "name": "Niagara Centre"
          }
        ],
        "pollDivisionIds": [
          10139932
        ],
        "postalCode": "L3B1K5",
        "streetName": "CAMROSE",
        "streetDirectionId": null,
        "streetTypeId": "AVE",
        "placeName": "WELLAND",
        "streetNameDisplayText": "CAMROSE AVE, WELLAND"
      }
    ]
  },
  {
    "postal": "L3B1Z5",
    "result": [
      {
        "electoralDistricts": [
          {
            "election": null,
            "id": 68,
            "name": "Niagara Centre"
          }
        ],
        "pollDivisionIds": [
          10139936
        ],
        "postalCode": "L3B1Z5",
        "streetName": "SOUTHWORTH",
        "streetDirectionId": "N",
        "streetTypeId": "ST",
        "placeName": "WELLAND",
        "streetNameDisplayText": "SOUTHWORTH ST N, WELLAND"
      }
    ]
  },
  {
    "postal": "L3B9L9",
    "result": []
  },
  {
    "postal": "L3B5L2",
    "result": [
      {
        "electoralDistricts": [
          {
            "election": null,
            "id": 68,
            "name": "Niagara Centre"
          }
        ],
        "pollDivisionIds": [
          10139937
        ],
        "postalCode": "L3B5L2",
        "streetName": "NORTH CRESCENT",
        "streetDirectionId": null,
        "streetTypeId": "DR",
        "placeName": "WELLAND",
        "streetNameDisplayText": "NORTH CRESCENT DR, WELLAND"
      }
    ]
  },
  {
    "postal": "L3B0M2",
    "result": []
  },
  {
    "postal": "L3B1K8",
    "result": [
      {
        "electoralDistricts": [
          {
            "election": null,
            "id": 68,
            "name": "Niagara Centre"
          }
        ],
        "pollDivisionIds": [
          10139935
        ],
        "postalCode": "L3B1K8",
        "streetName": "EMPRESS",
        "streetDirectionId": null,
        "streetTypeId": "AVE",
        "placeName": "WELLAND",
        "streetNameDisplayText": "EMPRESS AVE, WELLAND"
      }
    ]
  },
  {
    "postal": "L3B3M7",
    "result": [
      {
        "electoralDistricts": [
          {
            "election": null,
            "id": 68,
            "name": "Niagara Centre"
          }
        ],
        "pollDivisionIds": [
          10139936
        ],
        "postalCode": "L3B3M7",
        "streetName": "CANAL BANK",
        "streetDirectionId": null,
        "streetTypeId": "ST",
        "placeName": "WELLAND",
        "streetNameDisplayText": "CANAL BANK ST, WELLAND"
      }
    ]
  },
  {
    "postal": "L3B1B2",
    "result": [
      {
        "electoralDistricts": [
          {
            "election": null,
            "id": 68,
            "name": "Niagara Centre"
          }
        ],
        "pollDivisionIds": [
          10139931
        ],
        "postalCode": "L3B1B2",
        "streetName": "WELLINGTON",
        "streetDirectionId": null,
        "streetTypeId": "ST",
        "placeName": "WELLAND",
        "streetNameDisplayText": "WELLINGTON ST, WELLAND"
      }
    ]
  },
  {
    "postal": "L3B0H9",
    "result": []
  },
  {
    "postal": "L3B8M4",
    "result": []
  },
  {
    "postal": "L3B2M5",
    "result": [
      {
        "electoralDistricts": [
          {
            "election": null,
            "id": 68,
            "name": "Niagara Centre"
          }
        ],
        "pollDivisionIds": [
          10139930
        ],
        "postalCode": "L3B2M5",
        "streetName": "ROSS",
        "streetDirectionId": null,
        "streetTypeId": "ST",
        "placeName": "WELLAND",
        "streetNameDisplayText": "ROSS ST, WELLAND"
      }
    ]
  },
  {
    "postal": "L3B0T9",
    "result": []
  },
  {
    "postal": "L3B3P1",
    "result": [
      {
        "electoralDistricts": [
          {
            "election": null,
            "id": 68,
            "name": "Niagara Centre"
          }
        ],
        "pollDivisionIds": [
          10139938
        ],
        "postalCode": "L3B3P1",
        "streetName": "COLBORNE",
        "streetDirectionId": null,
        "streetTypeId": "ST",
        "placeName": "WELLAND",
        "streetNameDisplayText": "COLBORNE ST, WELLAND"
      }
    ]
  },
  {
    "postal": "L3B1R6",
    "result": [
      {
        "electoralDistricts": [
          {
            "election": null,
            "id": 68,
            "name": "Niagara Centre"
          }
        ],
        "pollDivisionIds": [
          10139932
        ],
        "postalCode": "L3B1R6",
        "streetName": "WALLACE",
        "streetDirectionId": "S",
        "streetTypeId": "AVE",
        "placeName": "WELLAND",
        "streetNameDisplayText": "WALLACE AVE S, WELLAND"
      }
    ]
  },
  {
    "postal": "L3B9V5",
    "result": []
  },
  {
    "postal": "L3B9T0",
    "result": []
  },
  {
    "postal": "L3B0A9",
    "result": [
      {
        "electoralDistricts": [
          {
            "election": null,
            "id": 68,
            "name": "Niagara Centre"
          }
        ],
        "pollDivisionIds": [
          10139930
        ],
        "postalCode": "L3B0A9",
        "streetName": "EAST MAIN",
        "streetDirectionId": null,
        "streetTypeId": "ST",
        "placeName": "WELLAND",
        "streetNameDisplayText": "EAST MAIN ST, WELLAND"
      }
    ]
  },
  {
    "postal": "L3B1M3",
    "result": [
      {
        "electoralDistricts": [
          {
            "election": null,
            "id": 68,
            "name": "Niagara Centre"
          }
        ],
        "pollDivisionIds": [
          10139932
        ],
        "postalCode": "L3B1M3",
        "streetName": "LYONS",
        "streetDirectionId": null,
        "streetTypeId": "AVE",
        "placeName": "WELLAND",
        "streetNameDisplayText": "LYONS AVE, WELLAND"
      }
    ]
  },
  {
    "postal": "L3B1W8",
    "result": [
      {
        "electoralDistricts": [
          {
            "election": null,
            "id": 68,
            "name": "Niagara Centre"
          }
        ],
        "pollDivisionIds": [
          10139932
        ],
        "postalCode": "L3B1W8",
        "streetName": "CROWLAND",
        "streetDirectionId": null,
        "streetTypeId": "AVE",
        "placeName": "WELLAND",
        "streetNameDisplayText": "CROWLAND AVE, WELLAND"
      }
    ]
  },
  {
    "postal": "L3B9J1",
    "result": []
  },
  {
    "postal": "L3B8N5",
    "result": []
  },
  {
    "postal": "L3B5X1",
    "result": [
      {
        "electoralDistricts": [
          {
            "election": null,
            "id": 68,
            "name": "Niagara Centre"
          }
        ],
        "pollDivisionIds": [
          10139938
        ],
        "postalCode": "L3B5X1",
        "streetName": "PRINCE CHARLES",
        "streetDirectionId": "S",
        "streetTypeId": "DR",
        "placeName": "WELLAND",
        "streetNameDisplayText": "PRINCE CHARLES DR S, WELLAND"
      }
    ]
  },
  {
    "postal": "L3B6S2",
    "result": []
  },
  {
    "postal": "L3B2A2",
    "result": [
      {
        "electoralDistricts": [
          {
            "election": null,
            "id": 68,
            "name": "Niagara Centre"
          }
        ],
        "pollDivisionIds": [
          10139936,
          10139937
        ],
        "postalCode": "L3B2A2",
        "streetName": "SOUTHWORTH",
        "streetDirectionId": "S",
        "streetTypeId": "ST",
        "placeName": "WELLAND",
        "streetNameDisplayText": "SOUTHWORTH ST S, WELLAND"
      }
    ]
  },
  {
    "postal": "L3B6A6",
    "result": [
      {
        "electoralDistricts": [
          {
            "election": null,
            "id": 68,
            "name": "Niagara Centre"
          }
        ],
        "pollDivisionIds": [
          10139930
        ],
        "postalCode": "L3B6A6",
        "streetName": "MARKET",
        "streetDirectionId": null,
        "streetTypeId": "SQ",
        "placeName": "WELLAND",
        "streetNameDisplayText": "MARKET SQ, WELLAND"
      }
    ]
  },
  {
    "postal": "L3B0S3",
    "result": []
  },
  {
    "postal": "L3B3E7",
    "result": [
      {
        "electoralDistricts": [
          {
            "election": null,
            "id": 68,
            "name": "Niagara Centre"
          }
        ],
        "pollDivisionIds": [
          10139936
        ],
        "postalCode": "L3B3E7",
        "streetName": "DAIN",
        "streetDirectionId": null,
        "streetTypeId": "AVE",
        "placeName": "WELLAND",
        "streetNameDisplayText": "DAIN AVE, WELLAND"
      }
    ]
  },
  {
    "postal": "L3B5R7",
    "result": []
  },
  {
    "postal": "L3B3R6",
    "result": [
      {
        "electoralDistricts": [
          {
            "election": null,
            "id": 68,
            "name": "Niagara Centre"
          }
        ],
        "pollDivisionIds": [
          10139923
        ],
        "postalCode": "L3B3R6",
        "streetName": "KENNEDY",
        "streetDirectionId": null,
        "streetTypeId": "ST",
        "placeName": "WELLAND",
        "streetNameDisplayText": "KENNEDY ST, WELLAND"
      }
    ]
  },
  {
    "postal": "L3B6K4",
    "result": []
  },
  {
    "postal": "L3B2W5",
    "result": [
      {
        "electoralDistricts": [
          {
            "election": null,
            "id": 68,
            "name": "Niagara Centre"
          }
        ],
        "pollDivisionIds": [
          10139937
        ],
        "postalCode": "L3B2W5",
        "streetName": "CRESCENT",
        "streetDirectionId": null,
        "streetTypeId": "DR",
        "placeName": "WELLAND",
        "streetNameDisplayText": "CRESCENT DR, WELLAND"
      }
    ]
  },
  {
    "postal": "L3B8W4",
    "result": []
  },
  {
    "postal": "L3B9C2",
    "result": []
  },
  {
    "postal": "L3B2C0",
    "result": []
  },
  {
    "postal": "L3B0E1",
    "result": []
  },
  {
    "postal": "L3B1K9",
    "result": [
      {
        "electoralDistricts": [
          {
            "election": null,
            "id": 68,
            "name": "Niagara Centre"
          }
        ],
        "pollDivisionIds": [
          10139935
        ],
        "postalCode": "L3B1K9",
        "streetName": "EMPRESS",
        "streetDirectionId": null,
        "streetTypeId": "AVE",
        "placeName": "WELLAND",
        "streetNameDisplayText": "EMPRESS AVE, WELLAND"
      }
    ]
  },
  {
    "postal": "L3B1G7",
    "result": [
      {
        "electoralDistricts": [
          {
            "election": null,
            "id": 68,
            "name": "Niagara Centre"
          }
        ],
        "pollDivisionIds": [
          10139931
        ],
        "postalCode": "L3B1G7",
        "streetName": "GRANGE",
        "streetDirectionId": null,
        "streetTypeId": "AVE",
        "placeName": "WELLAND",
        "streetNameDisplayText": "GRANGE AVE, WELLAND"
      }
    ]
  },
  {
    "postal": "L3B4E9",
    "result": [
      {
        "electoralDistricts": [
          {
            "election": null,
            "id": 68,
            "name": "Niagara Centre"
          }
        ],
        "pollDivisionIds": [
          10139931
        ],
        "postalCode": "L3B4E9",
        "streetName": "WELLAND",
        "streetDirectionId": null,
        "streetTypeId": "ST",
        "placeName": "WELLAND",
        "streetNameDisplayText": "WELLAND ST, WELLAND"
      }
    ]
  },
  {
    "postal": "L3B9P0",
    "result": []
  },
  {
    "postal": "L3B5H3",
    "result": [
      {
        "electoralDistricts": [
          {
            "election": null,
            "id": 68,
            "name": "Niagara Centre"
          }
        ],
        "pollDivisionIds": [
          10139936
        ],
        "postalCode": "L3B5H3",
        "streetName": "SAUER",
        "streetDirectionId": null,
        "streetTypeId": "AVE",
        "placeName": "WELLAND",
        "streetNameDisplayText": "SAUER AVE, WELLAND"
      }
    ]
  },
  {
    "postal": "L3B9X6",
    "result": []
  },
  {
    "postal": "L3B5N7",
    "result": [
      {
        "electoralDistricts": [
          {
            "election": null,
            "id": 68,
            "name": "Niagara Centre"
          }
        ],
        "pollDivisionIds": [
          10139928
        ],
        "postalCode": "L3B5N7",
        "streetName": "140",
        "streetDirectionId": null,
        "streetTypeId": "HWY",
        "placeName": "WELLAND",
        "streetNameDisplayText": "140 HWY, WELLAND"
      },
      {
        "electoralDistricts": [
          {
            "election": null,
            "id": 68,
            "name": "Niagara Centre"
          }
        ],
        "pollDivisionIds": [
          10139918
        ],
        "postalCode": "L3B5N7",
        "streetName": "20",
        "streetDirectionId": null,
        "streetTypeId": "HWY",
        "placeName": "FONTHILL",
        "streetNameDisplayText": "20 HWY, FONTHILL"
      },
      {
        "electoralDistricts": [
          {
            "election": null,
            "id": 68,
            "name": "Niagara Centre"
          }
        ],
        "pollDivisionIds": [
          10139930
        ],
        "postalCode": "L3B5N7",
        "streetName": "ALEXANDER",
        "streetDirectionId": null,
        "streetTypeId": "ST",
        "placeName": "WELLAND",
        "streetNameDisplayText": "ALEXANDER ST, WELLAND"
      },
      {
        "electoralDistricts": [
          {
            "election": null,
            "id": 68,
            "name": "Niagara Centre"
          }
        ],
        "pollDivisionIds": [
          10139930
        ],
        "postalCode": "L3B5N7",
        "streetName": "ASHER",
        "streetDirectionId": null,
        "streetTypeId": "ST",
        "placeName": "WELLAND",
        "streetNameDisplayText": "ASHER ST, WELLAND"
      },
      {
        "electoralDistricts": [
          {
            "election": null,
            "id": 68,
            "name": "Niagara Centre"
          }
        ],
        "pollDivisionIds": [
          10139917
        ],
        "postalCode": "L3B5N7",
        "streetName": "BEAVERDAMS",
        "streetDirectionId": null,
        "streetTypeId": "RD",
        "placeName": "FONTHILL",
        "streetNameDisplayText": "BEAVERDAMS RD, FONTHILL"
      },
      {
        "electoralDistricts": [
          {
            "election": null,
            "id": 68,
            "name": "Niagara Centre"
          }
        ],
        "pollDivisionIds": [
          10139937
        ],
        "postalCode": "L3B5N7",
        "streetName": "BRADLEY",
        "streetDirectionId": null,
        "streetTypeId": "AVE",
        "placeName": "WELLAND",
        "streetNameDisplayText": "BRADLEY AVE, WELLAND"
      },
      {
        "electoralDistricts": [
          {
            "election": null,
            "id": 68,
            "name": "Niagara Centre"
          }
        ],
        "pollDivisionIds": [
          10139938
        ],
        "postalCode": "L3B5N7",
        "streetName": "BROADWAY",
        "streetDirectionId": null,
        "streetTypeId": "ST",
        "placeName": "WELLAND",
        "streetNameDisplayText": "BROADWAY ST, WELLAND"
      },
      {
        "electoralDistricts": [
          {
            "election": null,
            "id": 68,
            "name": "Niagara Centre"
          }
        ],
        "pollDivisionIds": [
          10139939,
          10139928
        ],
        "postalCode": "L3B5N7",
        "streetName": "BROOKFIELD",
        "streetDirectionId": null,
        "streetTypeId": "RD",
        "placeName": "WELLAND",
        "streetNameDisplayText": "BROOKFIELD RD, WELLAND"
      },
      {
        "electoralDistricts": [
          {
            "election": null,
            "id": 68,
            "name": "Niagara Centre"
          }
        ],
        "pollDivisionIds": [
          10139928
        ],
        "postalCode": "L3B5N7",
        "streetName": "BUCHNER",
        "streetDirectionId": null,
        "streetTypeId": "RD",
        "placeName": "WELLAND",
        "streetNameDisplayText": "BUCHNER RD, WELLAND"
      },
      {
        "electoralDistricts": [
          {
            "election": null,
            "id": 68,
            "name": "Niagara Centre"
          }
        ],
        "pollDivisionIds": [
          10139918,
          10139917
        ],
        "postalCode": "L3B5N7",
        "streetName": "CANBORO",
        "streetDirectionId": null,
        "streetTypeId": "RD",
        "placeName": "FONTHILL",
        "streetNameDisplayText": "CANBORO RD, FONTHILL"
      },
      {
        "electoralDistricts": [
          {
            "election": null,
            "id": 68,
            "name": "Niagara Centre"
          }
        ],
        "pollDivisionIds": [
          10139918
        ],
        "postalCode": "L3B5N7",
        "streetName": "CANBORO",
        "streetDirectionId": null,
        "streetTypeId": "RD",
        "placeName": "WELLAND",
        "streetNameDisplayText": "CANBORO RD, WELLAND"
      },
      {
        "electoralDistricts": [
          {
            "election": null,
            "id": 70,
            "name": "Niagara West"
          }
        ],
        "pollDivisionIds": [
          10140081
        ],
        "postalCode": "L3B5N7",
        "streetName": "CHANTLER",
        "streetDirectionId": null,
        "streetTypeId": "RD",
        "placeName": "WELLAND",
        "streetNameDisplayText": "CHANTLER RD, WELLAND"
      },
      {
        "electoralDistricts": [
          {
            "election": null,
            "id": 68,
            "name": "Niagara Centre"
          }
        ],
        "pollDivisionIds": [
          10139934
        ],
        "postalCode": "L3B5N7",
        "streetName": "COLBECK",
        "streetDirectionId": null,
        "streetTypeId": "DR",
        "placeName": "WELLAND",
        "streetNameDisplayText": "COLBECK DR, WELLAND"
      },
      {
        "electoralDistricts": [
          {
            "election": null,
            "id": 68,
            "name": "Niagara Centre"
          }
        ],
        "pollDivisionIds": [
          10139928
        ],
        "postalCode": "L3B5N7",
        "streetName": "COPE",
        "streetDirectionId": null,
        "streetTypeId": "RD",
        "placeName": "WELLAND",
        "streetNameDisplayText": "COPE RD, WELLAND"
      },
      {
        "electoralDistricts": [
          {
            "election": null,
            "id": 69,
            "name": "Niagara Falls"
          }
        ],
        "pollDivisionIds": [
          10140007
        ],
        "postalCode": "L3B5N7",
        "streetName": "CROWLAND",
        "streetDirectionId": null,
        "streetTypeId": "AVE",
        "placeName": "WELLAND",
        "streetNameDisplayText": "CROWLAND AVE, WELLAND"
      },
      {
        "electoralDistricts": [
          {
            "election": null,
            "id": 69,
            "name": "Niagara Falls"
          }
        ],
        "pollDivisionIds": [
          10140007
        ],
        "postalCode": "L3B5N7",
        "streetName": "CROWLAND",
        "streetDirectionId": null,
        "streetTypeId": "RD",
        "placeName": "WELLAND",
        "streetNameDisplayText": "CROWLAND RD, WELLAND"
      },
      {
        "electoralDistricts": [
          {
            "election": null,
            "id": 68,
            "name": "Niagara Centre"
          }
        ],
        "pollDivisionIds": [
          10139936
        ],
        "postalCode": "L3B5N7",
        "streetName": "DAIN",
        "streetDirectionId": null,
        "streetTypeId": "AVE",
        "placeName": "WELLAND",
        "streetNameDisplayText": "DAIN AVE, WELLAND"
      },
      {
        "electoralDistricts": [
          {
            "election": null,
            "id": 68,
            "name": "Niagara Centre"
          }
        ],
        "pollDivisionIds": [
          10139938
        ],
        "postalCode": "L3B5N7",
        "streetName": "DARTE",
        "streetDirectionId": null,
        "streetTypeId": "DR",
        "placeName": "WELLAND",
        "streetNameDisplayText": "DARTE DR, WELLAND"
      },
      {
        "electoralDistricts": [
          {
            "election": null,
            "id": 68,
            "name": "Niagara Centre"
          }
        ],
        "pollDivisionIds": [
          10139930
        ],
        "postalCode": "L3B5N7",
        "streetName": "DIVISION",
        "streetDirectionId": null,
        "streetTypeId": "ST",
        "placeName": "WELLAND",
        "streetNameDisplayText": "DIVISION ST, WELLAND"
      },
      {
        "electoralDistricts": [
          {
            "election": null,
            "id": 68,
            "name": "Niagara Centre"
          }
        ],
        "pollDivisionIds": [
          10139928
        ],
        "postalCode": "L3B5N7",
        "streetName": "DOAN'S RIDGE",
        "streetDirectionId": null,
        "streetTypeId": "RD",
        "placeName": "WELLAND",
        "streetNameDisplayText": "DOAN'S RIDGE RD, WELLAND"
      },
      {
        "electoralDistricts": [
          {
            "election": null,
            "id": 69,
            "name": "Niagara Falls"
          }
        ],
        "pollDivisionIds": [
          10140008
        ],
        "postalCode": "L3B5N7",
        "streetName": "DURLIAT",
        "streetDirectionId": null,
        "streetTypeId": "RD",
        "placeName": "WELLAND",
        "streetNameDisplayText": "DURLIAT RD, WELLAND"
      },
      {
        "electoralDistricts": [
          {
            "election": null,
            "id": 68,
            "name": "Niagara Centre"
          }
        ],
        "pollDivisionIds": [
          10139932,
          10139930
        ],
        "postalCode": "L3B5N7",
        "streetName": "EAST MAIN",
        "streetDirectionId": null,
        "streetTypeId": "ST",
        "placeName": "WELLAND",
        "streetNameDisplayText": "EAST MAIN ST, WELLAND"
      },
      {
        "electoralDistricts": [
          {
            "election": null,
            "id": 68,
            "name": "Niagara Centre"
          }
        ],
        "pollDivisionIds": [
          10139938
        ],
        "postalCode": "L3B5N7",
        "streetName": "ELMWOOD",
        "streetDirectionId": null,
        "streetTypeId": "AVE",
        "placeName": "WELLAND",
        "streetNameDisplayText": "ELMWOOD AVE, WELLAND"
      },
      {
        "electoralDistricts": [
          {
            "election": null,
            "id": 68,
            "name": "Niagara Centre"
          }
        ],
        "pollDivisionIds": [
          10139932
        ],
        "postalCode": "L3B5N7",
        "streetName": "EMPIRE",
        "streetDirectionId": null,
        "streetTypeId": "ST",
        "placeName": "WELLAND",
        "streetNameDisplayText": "EMPIRE ST, WELLAND"
      },
      {
        "electoralDistricts": [
          {
            "election": null,
            "id": 68,
            "name": "Niagara Centre"
          }
        ],
        "pollDivisionIds": [
          10139938
        ],
        "postalCode": "L3B5N7",
        "streetName": "FEDERAL",
        "streetDirectionId": null,
        "streetTypeId": "RD",
        "placeName": "WELLAND",
        "streetNameDisplayText": "FEDERAL RD, WELLAND"
      },
      {
        "electoralDistricts": [
          {
            "election": null,
            "id": 68,
            "name": "Niagara Centre"
          }
        ],
        "pollDivisionIds": [
          10139936
        ],
        "postalCode": "L3B5N7",
        "streetName": "GATFIELD",
        "streetDirectionId": null,
        "streetTypeId": "AVE",
        "placeName": "WELLAND",
        "streetNameDisplayText": "GATFIELD AVE, WELLAND"
      },
      {
        "electoralDistricts": [
          {
            "election": null,
            "id": 68,
            "name": "Niagara Centre"
          }
        ],
        "pollDivisionIds": [
          10139921
        ],
        "postalCode": "L3B5N7",
        "streetName": "HANSLER",
        "streetDirectionId": null,
        "streetTypeId": "RD",
        "placeName": "WELLAND",
        "streetNameDisplayText": "HANSLER RD, WELLAND"
      },
      {
        "electoralDistricts": [
          {
            "election": null,
            "id": 68,
            "name": "Niagara Centre"
          }
        ],
        "pollDivisionIds": [
          10139930
        ],
        "postalCode": "L3B5N7",
        "streetName": "HELLEMS",
        "streetDirectionId": null,
        "streetTypeId": "AVE",
        "placeName": "WELLAND",
        "streetNameDisplayText": "HELLEMS AVE, WELLAND"
      },
      {
        "electoralDistricts": [
          {
            "election": null,
            "id": 68,
            "name": "Niagara Centre"
          }
        ],
        "pollDivisionIds": [
          10139916
        ],
        "postalCode": "L3B5N7",
        "streetName": "HOLLAND",
        "streetDirectionId": null,
        "streetTypeId": "RD",
        "placeName": "FONTHILL",
        "streetNameDisplayText": "HOLLAND RD, FONTHILL"
      },
      {
        "electoralDistricts": [
          {
            "election": null,
            "id": 69,
            "name": "Niagara Falls"
          }
        ],
        "pollDivisionIds": [
          10140013
        ],
        "postalCode": "L3B5N7",
        "streetName": "HOLLOWAY BAY",
        "streetDirectionId": "N",
        "streetTypeId": "RD",
        "placeName": "WELLAND",
        "streetNameDisplayText": "HOLLOWAY BAY RD N, WELLAND"
      },
      {
        "electoralDistricts": [
          {
            "election": null,
            "id": 68,
            "name": "Niagara Centre"
          }
        ],
        "pollDivisionIds": [
          10139938
        ],
        "postalCode": "L3B5N7",
        "streetName": "HUMBERSTONE",
        "streetDirectionId": null,
        "streetTypeId": "RD",
        "placeName": "WAINFLEET",
        "streetNameDisplayText": "HUMBERSTONE RD, WAINFLEET"
      },
      {
        "electoralDistricts": [
          {
            "election": null,
            "id": 68,
            "name": "Niagara Centre"
          }
        ],
        "pollDivisionIds": [
          10139937,
          10139936
        ],
        "postalCode": "L3B5N7",
        "streetName": "HUMBERSTONE",
        "streetDirectionId": null,
        "streetTypeId": "RD",
        "placeName": "WELLAND",
        "streetNameDisplayText": "HUMBERSTONE RD, WELLAND"
      },
      {
        "electoralDistricts": [
          {
            "election": null,
            "id": 68,
            "name": "Niagara Centre"
          }
        ],
        "pollDivisionIds": [
          10139928
        ],
        "postalCode": "L3B5N7",
        "streetName": "KEEFER",
        "streetDirectionId": null,
        "streetTypeId": "DR",
        "placeName": "WELLAND",
        "streetNameDisplayText": "KEEFER DR, WELLAND"
      },
      {
        "electoralDistricts": [
          {
            "election": null,
            "id": 68,
            "name": "Niagara Centre"
          }
        ],
        "pollDivisionIds": [
          10139930,
          10139936
        ],
        "postalCode": "L3B5N7",
        "streetName": "KING",
        "streetDirectionId": null,
        "streetTypeId": "ST",
        "placeName": "WELLAND",
        "streetNameDisplayText": "KING ST, WELLAND"
      },
      {
        "electoralDistricts": [
          {
            "election": null,
            "id": 69,
            "name": "Niagara Falls"
          }
        ],
        "pollDivisionIds": [
          10140008
        ],
        "postalCode": "L3B5N7",
        "streetName": "KOABEL",
        "streetDirectionId": null,
        "streetTypeId": "RD",
        "placeName": "WELLAND",
        "streetNameDisplayText": "KOABEL RD, WELLAND"
      },
      {
        "electoralDistricts": [
          {
            "election": null,
            "id": 68,
            "name": "Niagara Centre"
          }
        ],
        "pollDivisionIds": [
          10139918
        ],
        "postalCode": "L3B5N7",
        "streetName": "KOTTMEIER",
        "streetDirectionId": null,
        "streetTypeId": "RD",
        "placeName": "FONTHILL",
        "streetNameDisplayText": "KOTTMEIER RD, FONTHILL"
      },
      {
        "electoralDistricts": [
          {
            "election": null,
            "id": 69,
            "name": "Niagara Falls"
          },
          {
            "election": null,
            "id": 68,
            "name": "Niagara Centre"
          }
        ],
        "pollDivisionIds": [
          10140007,
          10139936
        ],
        "postalCode": "L3B5N7",
        "streetName": "LINCOLN",
        "streetDirectionId": null,
        "streetTypeId": "ST",
        "placeName": "WELLAND",
        "streetNameDisplayText": "LINCOLN ST, WELLAND"
      },
      {
        "electoralDistricts": [
          {
            "election": null,
            "id": 68,
            "name": "Niagara Centre"
          }
        ],
        "pollDivisionIds": [
          10139928
        ],
        "postalCode": "L3B5N7",
        "streetName": "LYONS CREEK",
        "streetDirectionId": null,
        "streetTypeId": "RD",
        "placeName": "WELLAND",
        "streetNameDisplayText": "LYONS CREEK RD, WELLAND"
      },
      {
        "electoralDistricts": [
          {
            "election": null,
            "id": 68,
            "name": "Niagara Centre"
          }
        ],
        "pollDivisionIds": [
          10139923
        ],
        "postalCode": "L3B5N7",
        "streetName": "MAJOR",
        "streetDirectionId": null,
        "streetTypeId": "ST",
        "placeName": "WELLAND",
        "streetNameDisplayText": "MAJOR ST, WELLAND"
      },
      {
        "electoralDistricts": [
          {
            "election": null,
            "id": 69,
            "name": "Niagara Falls"
          }
        ],
        "pollDivisionIds": [
          10140007
        ],
        "postalCode": "L3B5N7",
        "streetName": "MCKENNEY",
        "streetDirectionId": null,
        "streetTypeId": "RD",
        "placeName": "WELLAND",
        "streetNameDisplayText": "MCKENNEY RD, WELLAND"
      },
      {
        "electoralDistricts": [
          {
            "election": null,
            "id": 68,
            "name": "Niagara Centre"
          }
        ],
        "pollDivisionIds": [
          10139928
        ],
        "postalCode": "L3B5N7",
        "streetName": "MILLER",
        "streetDirectionId": null,
        "streetTypeId": "RD",
        "placeName": "WELLAND",
        "streetNameDisplayText": "MILLER RD, WELLAND"
      },
      {
        "electoralDistricts": [
          {
            "election": null,
            "id": 69,
            "name": "Niagara Falls"
          }
        ],
        "pollDivisionIds": [
          10140007
        ],
        "postalCode": "L3B5N7",
        "streetName": "MISENER",
        "streetDirectionId": null,
        "streetTypeId": "RD",
        "placeName": "WELLAND",
        "streetNameDisplayText": "MISENER RD, WELLAND"
      },
      {
        "electoralDistricts": [
          {
            "election": null,
            "id": 69,
            "name": "Niagara Falls"
          }
        ],
        "pollDivisionIds": [
          10140007
        ],
        "postalCode": "L3B5N7",
        "streetName": "MONTROSE",
        "streetDirectionId": null,
        "streetTypeId": "RD",
        "placeName": "PORT ROBINSON",
        "streetNameDisplayText": "MONTROSE RD, PORT ROBINSON"
      },
      {
        "electoralDistricts": [
          {
            "election": null,
            "id": 69,
            "name": "Niagara Falls"
          }
        ],
        "pollDivisionIds": [
          10140013,
          10140008
        ],
        "postalCode": "L3B5N7",
        "streetName": "MONTROSE",
        "streetDirectionId": null,
        "streetTypeId": "RD",
        "placeName": "WELLAND",
        "streetNameDisplayText": "MONTROSE RD, WELLAND"
      },
      {
        "electoralDistricts": [
          {
            "election": null,
            "id": 68,
            "name": "Niagara Centre"
          }
        ],
        "pollDivisionIds": [
          10139928
        ],
        "postalCode": "L3B5N7",
        "streetName": "MOORE",
        "streetDirectionId": null,
        "streetTypeId": "RD",
        "placeName": "WELLAND",
        "streetNameDisplayText": "MOORE RD, WELLAND"
      },
      {
        "electoralDistricts": [
          {
            "election": null,
            "id": 69,
            "name": "Niagara Falls"
          }
        ],
        "pollDivisionIds": [
          10140007
        ],
        "postalCode": "L3B5N7",
        "streetName": "MORRIS",
        "streetDirectionId": null,
        "streetTypeId": "RD",
        "placeName": "WELLAND",
        "streetNameDisplayText": "MORRIS RD, WELLAND"
      },
      {
        "electoralDistricts": [
          {
            "election": null,
            "id": 69,
            "name": "Niagara Falls"
          },
          {
            "election": null,
            "id": 68,
            "name": "Niagara Centre"
          }
        ],
        "pollDivisionIds": [
          10140007,
          10139928,
          10140008,
          10140013
        ],
        "postalCode": "L3B5N7",
        "streetName": "NETHERBY",
        "streetDirectionId": null,
        "streetTypeId": "RD",
        "placeName": "WELLAND",
        "streetNameDisplayText": "NETHERBY RD, WELLAND"
      },
      {
        "electoralDistricts": [
          {
            "election": null,
            "id": 68,
            "name": "Niagara Centre"
          }
        ],
        "pollDivisionIds": [
          10139921,
          10139927,
          10139918
        ],
        "postalCode": "L3B5N7",
        "streetName": "NIAGARA",
        "streetDirectionId": null,
        "streetTypeId": "ST",
        "placeName": "WELLAND",
        "streetNameDisplayText": "NIAGARA ST, WELLAND"
      },
      {
        "electoralDistricts": [
          {
            "election": null,
            "id": 68,
            "name": "Niagara Centre"
          }
        ],
        "pollDivisionIds": [
          10139928
        ],
        "postalCode": "L3B5N7",
        "streetName": "NIDEL'S",
        "streetDirectionId": null,
        "streetTypeId": "CRES",
        "placeName": "WELLAND",
        "streetNameDisplayText": "NIDEL'S CRES, WELLAND"
      },
      {
        "electoralDistricts": [
          {
            "election": null,
            "id": 68,
            "name": "Niagara Centre"
          }
        ],
        "pollDivisionIds": [
          10139936
        ],
        "postalCode": "L3B5N7",
        "streetName": "ONTARIO",
        "streetDirectionId": null,
        "streetTypeId": "RD",
        "placeName": "WELLAND",
        "streetNameDisplayText": "ONTARIO RD, WELLAND"
      },
      {
        "electoralDistricts": [
          {
            "election": null,
            "id": 68,
            "name": "Niagara Centre"
          }
        ],
        "pollDivisionIds": [
          10139922,
          10139921
        ],
        "postalCode": "L3B5N7",
        "streetName": "PAGE",
        "streetDirectionId": null,
        "streetTypeId": "DR",
        "placeName": "WELLAND",
        "streetNameDisplayText": "PAGE DR, WELLAND"
      },
      {
        "electoralDistricts": [
          {
            "election": null,
            "id": 68,
            "name": "Niagara Centre"
          }
        ],
        "pollDivisionIds": [
          10139930
        ],
        "postalCode": "L3B5N7",
        "streetName": "PARK",
        "streetDirectionId": null,
        "streetTypeId": "ST",
        "placeName": "WELLAND",
        "streetNameDisplayText": "PARK ST, WELLAND"
      },
      {
        "electoralDistricts": [
          {
            "election": null,
            "id": 68,
            "name": "Niagara Centre"
          }
        ],
        "pollDivisionIds": [
          10139928
        ],
        "postalCode": "L3B5N7",
        "streetName": "PEARSON",
        "streetDirectionId": null,
        "streetTypeId": "RD",
        "placeName": "WELLAND",
        "streetNameDisplayText": "PEARSON RD, WELLAND"
      },
      {
        "electoralDistricts": [
          {
            "election": null,
            "id": 70,
            "name": "Niagara West"
          }
        ],
        "pollDivisionIds": [
          10140081
        ],
        "postalCode": "L3B5N7",
        "streetName": "PIHACH",
        "streetDirectionId": null,
        "streetTypeId": "ST",
        "placeName": "WELLAND",
        "streetNameDisplayText": "PIHACH ST, WELLAND"
      },
      {
        "electoralDistricts": [
          {
            "election": null,
            "id": 70,
            "name": "Niagara West"
          }
        ],
        "pollDivisionIds": [
          10140081
        ],
        "postalCode": "L3B5N7",
        "streetName": "POTH",
        "streetDirectionId": null,
        "streetTypeId": "ST",
        "placeName": "WELLAND",
        "streetNameDisplayText": "POTH ST, WELLAND"
      },
      {
        "electoralDistricts": [
          {
            "election": null,
            "id": 68,
            "name": "Niagara Centre"
          }
        ],
        "pollDivisionIds": [
          10139929
        ],
        "postalCode": "L3B5N7",
        "streetName": "PRINCE CHARLES",
        "streetDirectionId": "N",
        "streetTypeId": "DR",
        "placeName": "WELLAND",
        "streetNameDisplayText": "PRINCE CHARLES DR N, WELLAND"
      },
      {
        "electoralDistricts": [
          {
            "election": null,
            "id": 68,
            "name": "Niagara Centre"
          }
        ],
        "pollDivisionIds": [
          10139938
        ],
        "postalCode": "L3B5N7",
        "streetName": "PRINCE CHARLES",
        "streetDirectionId": "S",
        "streetTypeId": "DR",
        "placeName": "WELLAND",
        "streetNameDisplayText": "PRINCE CHARLES DR S, WELLAND"
      },
      {
        "electoralDistricts": [
          {
            "election": null,
            "id": 68,
            "name": "Niagara Centre"
          }
        ],
        "pollDivisionIds": [
          10139938
        ],
        "postalCode": "L3B5N7",
        "streetName": "PROVINCIAL",
        "streetDirectionId": null,
        "streetTypeId": "ST",
        "placeName": "WELLAND",
        "streetNameDisplayText": "PROVINCIAL ST, WELLAND"
      },
      {
        "electoralDistricts": [
          {
            "election": null,
            "id": 68,
            "name": "Niagara Centre"
          }
        ],
        "pollDivisionIds": [
          10139928
        ],
        "postalCode": "L3B5N7",
        "streetName": "REAKER",
        "streetDirectionId": null,
        "streetTypeId": "RD",
        "placeName": "WELLAND",
        "streetNameDisplayText": "REAKER RD, WELLAND"
      },
      {
        "electoralDistricts": [
          {
            "election": null,
            "id": 68,
            "name": "Niagara Centre"
          }
        ],
        "pollDivisionIds": [
          10139922
        ],
        "postalCode": "L3B5N7",
        "streetName": "RICE",
        "streetDirectionId": null,
        "streetTypeId": "RD",
        "placeName": "WELLAND",
        "streetNameDisplayText": "RICE RD, WELLAND"
      },
      {
        "electoralDistricts": [
          {
            "election": null,
            "id": 68,
            "name": "Niagara Centre"
          }
        ],
        "pollDivisionIds": [
          10139931
        ],
        "postalCode": "L3B5N7",
        "streetName": "RICHELIEU",
        "streetDirectionId": null,
        "streetTypeId": "PROM",
        "placeName": "WELLAND",
        "streetNameDisplayText": "RICHELIEU PROM, WELLAND"
      },
      {
        "electoralDistricts": [
          {
            "election": null,
            "id": 68,
            "name": "Niagara Centre"
          },
          {
            "election": null,
            "id": 69,
            "name": "Niagara Falls"
          }
        ],
        "pollDivisionIds": [
          10139928,
          10140007,
          10140008
        ],
        "postalCode": "L3B5N7",
        "streetName": "RIDGE",
        "streetDirectionId": null,
        "streetTypeId": "RD",
        "placeName": "WELLAND",
        "streetNameDisplayText": "RIDGE RD, WELLAND"
      },
      {
        "electoralDistricts": [
          {
            "election": null,
            "id": 68,
            "name": "Niagara Centre"
          }
        ],
        "pollDivisionIds": [
          10139923
        ],
        "postalCode": "L3B5N7",
        "streetName": "RIVER",
        "streetDirectionId": null,
        "streetTypeId": "RD",
        "placeName": "WELLAND",
        "streetNameDisplayText": "RIVER RD, WELLAND"
      },
      {
        "electoralDistricts": [
          {
            "election": null,
            "id": 68,
            "name": "Niagara Centre"
          }
        ],
        "pollDivisionIds": [
          10139927
        ],
        "postalCode": "L3B5N7",
        "streetName": "RIVERBANK",
        "streetDirectionId": null,
        "streetTypeId": "ST",
        "placeName": "WELLAND",
        "streetNameDisplayText": "RIVERBANK ST, WELLAND"
      },
      {
        "electoralDistricts": [
          {
            "election": null,
            "id": 68,
            "name": "Niagara Centre"
          }
        ],
        "pollDivisionIds": [
          10139922
        ],
        "postalCode": "L3B5N7",
        "streetName": "ROLLINS",
        "streetDirectionId": null,
        "streetTypeId": "DR",
        "placeName": "WELLAND",
        "streetNameDisplayText": "ROLLINS DR, WELLAND"
      },
      {
        "electoralDistricts": [
          {
            "election": null,
            "id": 68,
            "name": "Niagara Centre"
          }
        ],
        "pollDivisionIds": [
          10139928
        ],
        "postalCode": "L3B5N7",
        "streetName": "RUSHOLME",
        "streetDirectionId": null,
        "streetTypeId": "RD",
        "placeName": "WELLAND",
        "streetNameDisplayText": "RUSHOLME RD, WELLAND"
      },
      {
        "electoralDistricts": [
          {
            "election": null,
            "id": 69,
            "name": "Niagara Falls"
          }
        ],
        "pollDivisionIds": [
          10140008,
          10140013
        ],
        "postalCode": "L3B5N7",
        "streetName": "SCHAUBEL",
        "streetDirectionId": null,
        "streetTypeId": "RD",
        "placeName": "WELLAND",
        "streetNameDisplayText": "SCHAUBEL RD, WELLAND"
      },
      {
        "electoralDistricts": [
          {
            "election": null,
            "id": 69,
            "name": "Niagara Falls"
          }
        ],
        "pollDivisionIds": [
          10140013
        ],
        "postalCode": "L3B5N7",
        "streetName": "SCHAUBLE",
        "streetDirectionId": null,
        "streetTypeId": null,
        "placeName": "WELLAND",
        "streetNameDisplayText": "SCHAUBLE, WELLAND"
      },
      {
        "electoralDistricts": [
          {
            "election": null,
            "id": 69,
            "name": "Niagara Falls"
          }
        ],
        "pollDivisionIds": [
          10140008
        ],
        "postalCode": "L3B5N7",
        "streetName": "SCHIHL",
        "streetDirectionId": null,
        "streetTypeId": "RD",
        "placeName": "WELLAND",
        "streetNameDisplayText": "SCHIHL RD, WELLAND"
      },
      {
        "electoralDistricts": [
          {
            "election": null,
            "id": 68,
            "name": "Niagara Centre"
          }
        ],
        "pollDivisionIds": [
          10139928
        ],
        "postalCode": "L3B5N7",
        "streetName": "SCHISLER",
        "streetDirectionId": null,
        "streetTypeId": "RD",
        "placeName": "PORT ROBINSON",
        "streetNameDisplayText": "SCHISLER RD, PORT ROBINSON"
      },
      {
        "electoralDistricts": [
          {
            "election": null,
            "id": 68,
            "name": "Niagara Centre"
          }
        ],
        "pollDivisionIds": [
          10139936
        ],
        "postalCode": "L3B5N7",
        "streetName": "SEVENTH",
        "streetDirectionId": null,
        "streetTypeId": "ST",
        "placeName": "WELLAND",
        "streetNameDisplayText": "SEVENTH ST, WELLAND"
      },
      {
        "electoralDistricts": [
          {
            "election": null,
            "id": 69,
            "name": "Niagara Falls"
          }
        ],
        "pollDivisionIds": [
          10140007
        ],
        "postalCode": "L3B5N7",
        "streetName": "SOUTH BROOKFIELD",
        "streetDirectionId": null,
        "streetTypeId": "RD",
        "placeName": "WELLAND",
        "streetNameDisplayText": "SOUTH BROOKFIELD RD, WELLAND"
      },
      {
        "electoralDistricts": [
          {
            "election": null,
            "id": 68,
            "name": "Niagara Centre"
          }
        ],
        "pollDivisionIds": [
          10139936
        ],
        "postalCode": "L3B5N7",
        "streetName": "SOUTHWORTH",
        "streetDirectionId": null,
        "streetTypeId": "ST",
        "placeName": "WELLAND",
        "streetNameDisplayText": "SOUTHWORTH ST, WELLAND"
      },
      {
        "electoralDistricts": [
          {
            "election": null,
            "id": 68,
            "name": "Niagara Centre"
          }
        ],
        "pollDivisionIds": [
          10139928
        ],
        "postalCode": "L3B5N7",
        "streetName": "STAUTH",
        "streetDirectionId": null,
        "streetTypeId": "RD",
        "placeName": "WELLAND",
        "streetNameDisplayText": "STAUTH RD, WELLAND"
      },
      {
        "electoralDistricts": [
          {
            "election": null,
            "id": 68,
            "name": "Niagara Centre"
          }
        ],
        "pollDivisionIds": [
          10139928
        ],
        "postalCode": "L3B5N7",
        "streetName": "STRAWN",
        "streetDirectionId": null,
        "streetTypeId": "RD",
        "placeName": "WELLAND",
        "streetNameDisplayText": "STRAWN RD, WELLAND"
      },
      {
        "electoralDistricts": [
          {
            "election": null,
            "id": 68,
            "name": "Niagara Centre"
          }
        ],
        "pollDivisionIds": [
          10139924
        ],
        "postalCode": "L3B5N7",
        "streetName": "SUMBLER",
        "streetDirectionId": null,
        "streetTypeId": "RD",
        "placeName": "WELLAND",
        "streetNameDisplayText": "SUMBLER RD, WELLAND"
      },
      {
        "electoralDistricts": [
          {
            "election": null,
            "id": 68,
            "name": "Niagara Centre"
          }
        ],
        "pollDivisionIds": [
          10139924,
          10139925
        ],
        "postalCode": "L3B5N7",
        "streetName": "THOROLD",
        "streetDirectionId": null,
        "streetTypeId": "RD",
        "placeName": "WELLAND",
        "streetNameDisplayText": "THOROLD RD, WELLAND"
      },
      {
        "electoralDistricts": [
          {
            "election": null,
            "id": 68,
            "name": "Niagara Centre"
          }
        ],
        "pollDivisionIds": [
          10139928
        ],
        "postalCode": "L3B5N7",
        "streetName": "TOWNLINE TUNNEL",
        "streetDirectionId": null,
        "streetTypeId": "RD",
        "placeName": "WELLAND",
        "streetNameDisplayText": "TOWNLINE TUNNEL RD, WELLAND"
      },
      {
        "electoralDistricts": [
          {
            "election": null,
            "id": 68,
            "name": "Niagara Centre"
          }
        ],
        "pollDivisionIds": [
          10139928
        ],
        "postalCode": "L3B5N7",
        "streetName": "UDINE",
        "streetDirectionId": null,
        "streetTypeId": "AVE",
        "placeName": "WELLAND",
        "streetNameDisplayText": "UDINE AVE, WELLAND"
      },
      {
        "electoralDistricts": [
          {
            "election": null,
            "id": 68,
            "name": "Niagara Centre"
          }
        ],
        "pollDivisionIds": [
          10139938
        ],
        "postalCode": "L3B5N7",
        "streetName": "WATERVIEW",
        "streetDirectionId": null,
        "streetTypeId": "CRT",
        "placeName": "WELLAND",
        "streetNameDisplayText": "WATERVIEW CRT, WELLAND"
      },
      {
        "electoralDistricts": [
          {
            "election": null,
            "id": 68,
            "name": "Niagara Centre"
          }
        ],
        "pollDivisionIds": [
          10139932
        ],
        "postalCode": "L3B5N7",
        "streetName": "WELLAND",
        "streetDirectionId": null,
        "streetTypeId": "ST",
        "placeName": "WELLAND",
        "streetNameDisplayText": "WELLAND ST, WELLAND"
      },
      {
        "electoralDistricts": [
          {
            "election": null,
            "id": 68,
            "name": "Niagara Centre"
          }
        ],
        "pollDivisionIds": [
          10139928
        ],
        "postalCode": "L3B5N7",
        "streetName": "WHITE",
        "streetDirectionId": null,
        "streetTypeId": "RD",
        "placeName": "WELLAND",
        "streetNameDisplayText": "WHITE RD, WELLAND"
      },
      {
        "electoralDistricts": [
          {
            "election": null,
            "id": 69,
            "name": "Niagara Falls"
          }
        ],
        "pollDivisionIds": [
          10140008
        ],
        "postalCode": "L3B5N7",
        "streetName": "WILLODELL",
        "streetDirectionId": null,
        "streetTypeId": "RD",
        "placeName": "WELLAND",
        "streetNameDisplayText": "WILLODELL RD, WELLAND"
      },
      {
        "electoralDistricts": [
          {
            "election": null,
            "id": 69,
            "name": "Niagara Falls"
          }
        ],
        "pollDivisionIds": [
          10140008
        ],
        "postalCode": "L3B5N7",
        "streetName": "WILLOW",
        "streetDirectionId": null,
        "streetTypeId": "RD",
        "placeName": "WELLAND",
        "streetNameDisplayText": "WILLOW RD, WELLAND"
      },
      {
        "electoralDistricts": [
          {
            "election": null,
            "id": 69,
            "name": "Niagara Falls"
          }
        ],
        "pollDivisionIds": [
          10140008
        ],
        "postalCode": "L3B5N7",
        "streetName": "WILLOWDELL",
        "streetDirectionId": null,
        "streetTypeId": "RD",
        "placeName": "PORT ROBINSON",
        "streetNameDisplayText": "WILLOWDELL RD, PORT ROBINSON"
      }
    ]
  },
  {
    "postal": "L3B5A6",
    "result": [
      {
        "electoralDistricts": [
          {
            "election": null,
            "id": 68,
            "name": "Niagara Centre"
          }
        ],
        "pollDivisionIds": [
          10139936
        ],
        "postalCode": "L3B5A6",
        "streetName": "SIXTH",
        "streetDirectionId": null,
        "streetTypeId": "ST",
        "placeName": "WELLAND",
        "streetNameDisplayText": "SIXTH ST, WELLAND"
      }
    ]
  },
  {
    "postal": "L3B4M0",
    "result": []
  },
  {
    "postal": "L3B3V6",
    "result": [
      {
        "electoralDistricts": [
          {
            "election": null,
            "id": 68,
            "name": "Niagara Centre"
          }
        ],
        "pollDivisionIds": [
          10139930
        ],
        "postalCode": "L3B3V6",
        "streetName": "DOROTHY",
        "streetDirectionId": null,
        "streetTypeId": "ST",
        "placeName": "WELLAND",
        "streetNameDisplayText": "DOROTHY ST, WELLAND"
      }
    ]
  },
  {
    "postal": "L3B1L7",
    "result": [
      {
        "electoralDistricts": [
          {
            "election": null,
            "id": 68,
            "name": "Niagara Centre"
          }
        ],
        "pollDivisionIds": [
          10139931
        ],
        "postalCode": "L3B1L7",
        "streetName": "LYONS",
        "streetDirectionId": null,
        "streetTypeId": "AVE",
        "placeName": "WELLAND",
        "streetNameDisplayText": "LYONS AVE, WELLAND"
      }
    ]
  },
  {
    "postal": "L3B2P9",
    "result": [
      {
        "electoralDistricts": [
          {
            "election": null,
            "id": 68,
            "name": "Niagara Centre"
          }
        ],
        "pollDivisionIds": [
          10139923
        ],
        "postalCode": "L3B2P9",
        "streetName": "MARGERY",
        "streetDirectionId": null,
        "streetTypeId": "RD",
        "placeName": "WELLAND",
        "streetNameDisplayText": "MARGERY RD, WELLAND"
      }
    ]
  },
  {
    "postal": "L3B5T4",
    "result": [
      {
        "electoralDistricts": [
          {
            "election": null,
            "id": 68,
            "name": "Niagara Centre"
          }
        ],
        "pollDivisionIds": [
          10139936
        ],
        "postalCode": "L3B5T4",
        "streetName": "MARC",
        "streetDirectionId": null,
        "streetTypeId": "BLVD",
        "placeName": "WELLAND",
        "streetNameDisplayText": "MARC BLVD, WELLAND"
      }
    ]
  },
  {
    "postal": "L3B5Z1",
    "result": [
      {
        "electoralDistricts": [
          {
            "election": null,
            "id": 68,
            "name": "Niagara Centre"
          }
        ],
        "pollDivisionIds": [
          10139936
        ],
        "postalCode": "L3B5Z1",
        "streetName": "COMMERCIAL",
        "streetDirectionId": null,
        "streetTypeId": "ST",
        "placeName": "WELLAND",
        "streetNameDisplayText": "COMMERCIAL ST, WELLAND"
      }
    ]
  },
  {
    "postal": "L3B2X0",
    "result": []
  },
  {
    "postal": "L3B6Z2",
    "result": []
  },
  {
    "postal": "L3B0E0",
    "result": []
  },
  {
    "postal": "L3B3Z5",
    "result": [
      {
        "electoralDistricts": [
          {
            "election": null,
            "id": 68,
            "name": "Niagara Centre"
          }
        ],
        "pollDivisionIds": [
          10139930
        ],
        "postalCode": "L3B3Z5",
        "streetName": "DIVISION",
        "streetDirectionId": null,
        "streetTypeId": "ST",
        "placeName": "WELLAND",
        "streetNameDisplayText": "DIVISION ST, WELLAND"
      }
    ]
  },
  {
    "postal": "L3B8H3",
    "result": []
  },
  {
    "postal": "L3B7S6",
    "result": []
  },
  {
    "postal": "L3B4C1",
    "result": [
      {
        "electoralDistricts": [
          {
            "election": null,
            "id": 68,
            "name": "Niagara Centre"
          }
        ],
        "pollDivisionIds": [
          10139931
        ],
        "postalCode": "L3B4C1",
        "streetName": "LAVAL",
        "streetDirectionId": null,
        "streetTypeId": "AVE",
        "placeName": "WELLAND",
        "streetNameDisplayText": "LAVAL AVE, WELLAND"
      }
    ]
  },
  {
    "postal": "L3B3K2",
    "result": [
      {
        "electoralDistricts": [
          {
            "election": null,
            "id": 68,
            "name": "Niagara Centre"
          }
        ],
        "pollDivisionIds": [
          10139930
        ],
        "postalCode": "L3B3K2",
        "streetName": "KING",
        "streetDirectionId": null,
        "streetTypeId": "ST",
        "placeName": "WELLAND",
        "streetNameDisplayText": "KING ST, WELLAND"
      }
    ]
  },
  {
    "postal": "L3B1Y5",
    "result": [
      {
        "electoralDistricts": [
          {
            "election": null,
            "id": 68,
            "name": "Niagara Centre"
          }
        ],
        "pollDivisionIds": [
          10139935
        ],
        "postalCode": "L3B1Y5",
        "streetName": "SOUTHWORTH",
        "streetDirectionId": "N",
        "streetTypeId": "ST",
        "placeName": "WELLAND",
        "streetNameDisplayText": "SOUTHWORTH ST N, WELLAND"
      }
    ]
  },
  {
    "postal": "L3B6P6",
    "result": []
  },
  {
    "postal": "L3B3N9",
    "result": [
      {
        "electoralDistricts": [
          {
            "election": null,
            "id": 68,
            "name": "Niagara Centre"
          }
        ],
        "pollDivisionIds": [
          10139906,
          10139937
        ],
        "postalCode": "L3B3N9",
        "streetName": "KINGSWAY",
        "streetDirectionId": null,
        "streetTypeId": "ST",
        "placeName": "WELLAND",
        "streetNameDisplayText": "KINGSWAY ST, WELLAND"
      },
      {
        "electoralDistricts": [
          {
            "election": null,
            "id": 68,
            "name": "Niagara Centre"
          }
        ],
        "pollDivisionIds": [
          10139937
        ],
        "postalCode": "L3B3N9",
        "streetName": "KINGSWAY",
        "streetDirectionId": null,
        "streetTypeId": null,
        "placeName": "WELLAND",
        "streetNameDisplayText": "KINGSWAY, WELLAND"
      }
    ]
  },
  {
    "postal": "L3B3W2",
    "result": [
      {
        "electoralDistricts": [
          {
            "election": null,
            "id": 68,
            "name": "Niagara Centre"
          }
        ],
        "pollDivisionIds": [
          10139923
        ],
        "postalCode": "L3B3W2",
        "streetName": "SPENCER",
        "streetDirectionId": null,
        "streetTypeId": "ST",
        "placeName": "WELLAND",
        "streetNameDisplayText": "SPENCER ST, WELLAND"
      }
    ]
  },
  {
    "postal": "L3B6H8",
    "result": [
      {
        "electoralDistricts": [
          {
            "election": null,
            "id": 68,
            "name": "Niagara Centre"
          }
        ],
        "pollDivisionIds": [
          10139928
        ],
        "postalCode": "L3B6H8",
        "streetName": "ENTERPRISE",
        "streetDirectionId": null,
        "streetTypeId": "DR",
        "placeName": "WELLAND",
        "streetNameDisplayText": "ENTERPRISE DR, WELLAND"
      }
    ]
  },
  {
    "postal": "L3B9T3",
    "result": []
  },
  {
    "postal": "L3B5L9",
    "result": [
      {
        "electoralDistricts": [
          {
            "election": null,
            "id": 68,
            "name": "Niagara Centre"
          }
        ],
        "pollDivisionIds": [
          10139937
        ],
        "postalCode": "L3B5L9",
        "streetName": "SPRINGFIELD",
        "streetDirectionId": null,
        "streetTypeId": "ST",
        "placeName": "WELLAND",
        "streetNameDisplayText": "SPRINGFIELD ST, WELLAND"
      }
    ]
  },
  {
    "postal": "L3B7X7",
    "result": []
  },
  {
    "postal": "L3B3J5",
    "result": [
      {
        "electoralDistricts": [
          {
            "election": null,
            "id": 68,
            "name": "Niagara Centre"
          }
        ],
        "pollDivisionIds": [
          10139930
        ],
        "postalCode": "L3B3J5",
        "streetName": "KING",
        "streetDirectionId": null,
        "streetTypeId": "ST",
        "placeName": "WELLAND",
        "streetNameDisplayText": "KING ST, WELLAND"
      }
    ]
  },
  {
    "postal": "L3B4J5",
    "result": [
      {
        "electoralDistricts": [
          {
            "election": null,
            "id": 68,
            "name": "Niagara Centre"
          }
        ],
        "pollDivisionIds": [
          10139932
        ],
        "postalCode": "L3B4J5",
        "streetName": "LASALLE",
        "streetDirectionId": null,
        "streetTypeId": "ST",
        "placeName": "WELLAND",
        "streetNameDisplayText": "LASALLE ST, WELLAND"
      }
    ]
  },
  {
    "postal": "L3B6J2",
    "result": [
      {
        "electoralDistricts": [
          {
            "election": null,
            "id": 68,
            "name": "Niagara Centre"
          }
        ],
        "pollDivisionIds": [
          10139923
        ],
        "postalCode": "L3B6J2",
        "streetName": "MAJOR",
        "streetDirectionId": null,
        "streetTypeId": "ST",
        "placeName": "WELLAND",
        "streetNameDisplayText": "MAJOR ST, WELLAND"
      }
    ]
  },
  {
    "postal": "L3B5V6",
    "result": [
      {
        "electoralDistricts": [
          {
            "election": null,
            "id": 68,
            "name": "Niagara Centre"
          }
        ],
        "pollDivisionIds": [
          10139936
        ],
        "postalCode": "L3B5V6",
        "streetName": "ONTARIO",
        "streetDirectionId": null,
        "streetTypeId": "RD",
        "placeName": "WELLAND",
        "streetNameDisplayText": "ONTARIO RD, WELLAND"
      }
    ]
  },
  {
    "postal": "L3B3N2",
    "result": [
      {
        "electoralDistricts": [
          {
            "election": null,
            "id": 68,
            "name": "Niagara Centre"
          }
        ],
        "pollDivisionIds": [
          10139931
        ],
        "postalCode": "L3B3N2",
        "streetName": "WELLINGTON",
        "streetDirectionId": null,
        "streetTypeId": "ST",
        "placeName": "WELLAND",
        "streetNameDisplayText": "WELLINGTON ST, WELLAND"
      }
    ]
  },
  {
    "postal": "L3B3B1",
    "result": [
      {
        "electoralDistricts": [
          {
            "election": null,
            "id": 68,
            "name": "Niagara Centre"
          }
        ],
        "pollDivisionIds": [
          10139930
        ],
        "postalCode": "L3B3B1",
        "streetName": "HELLEMS",
        "streetDirectionId": null,
        "streetTypeId": "AVE",
        "placeName": "WELLAND",
        "streetNameDisplayText": "HELLEMS AVE, WELLAND"
      }
    ]
  },
  {
    "postal": "L3B8B5",
    "result": []
  },
  {
    "postal": "L3B0K1",
    "result": []
  },
  {
    "postal": "L3B7M7",
    "result": []
  },
  {
    "postal": "L3B2M2",
    "result": [
      {
        "electoralDistricts": [
          {
            "election": null,
            "id": 68,
            "name": "Niagara Centre"
          }
        ],
        "pollDivisionIds": [
          10139936
        ],
        "postalCode": "L3B2M2",
        "streetName": "DEERE",
        "streetDirectionId": null,
        "streetTypeId": "ST",
        "placeName": "WELLAND",
        "streetNameDisplayText": "DEERE ST, WELLAND"
      }
    ]
  },
  {
    "postal": "L3B9N3",
    "result": []
  },
  {
    "postal": "L3B4Y8",
    "result": [
      {
        "electoralDistricts": [
          {
            "election": null,
            "id": 68,
            "name": "Niagara Centre"
          }
        ],
        "pollDivisionIds": [
          10139935
        ],
        "postalCode": "L3B4Y8",
        "streetName": "SIMPSON",
        "streetDirectionId": null,
        "streetTypeId": "AVE",
        "placeName": "WELLAND",
        "streetNameDisplayText": "SIMPSON AVE, WELLAND"
      }
    ]
  },
  {
    "postal": "L3B3V7",
    "result": [
      {
        "electoralDistricts": [
          {
            "election": null,
            "id": 68,
            "name": "Niagara Centre"
          }
        ],
        "pollDivisionIds": [
          10139930
        ],
        "postalCode": "L3B3V7",
        "streetName": "DOROTHY",
        "streetDirectionId": null,
        "streetTypeId": "ST",
        "placeName": "WELLAND",
        "streetNameDisplayText": "DOROTHY ST, WELLAND"
      }
    ]
  },
  {
    "postal": "L3B8Z1",
    "result": []
  },
  {
    "postal": "L3B7B3",
    "result": []
  },
  {
    "postal": "L3B3A8",
    "result": [
      {
        "electoralDistricts": [
          {
            "election": null,
            "id": 68,
            "name": "Niagara Centre"
          }
        ],
        "pollDivisionIds": [
          10139930
        ],
        "postalCode": "L3B3A8",
        "streetName": "HELLEMS",
        "streetDirectionId": null,
        "streetTypeId": "AVE",
        "placeName": "WELLAND",
        "streetNameDisplayText": "HELLEMS AVE, WELLAND"
      }
    ]
  },
  {
    "postal": "L3B7V5",
    "result": []
  },
  {
    "postal": "L3B2T2",
    "result": [
      {
        "electoralDistricts": [
          {
            "election": null,
            "id": 68,
            "name": "Niagara Centre"
          }
        ],
        "pollDivisionIds": [
          10139930
        ],
        "postalCode": "L3B2T2",
        "streetName": "BURGAR",
        "streetDirectionId": null,
        "streetTypeId": "ST",
        "placeName": "WELLAND",
        "streetNameDisplayText": "BURGAR ST, WELLAND"
      }
    ]
  },
  {
    "postal": "L3B6L3",
    "result": []
  },
  {
    "postal": "L3B0L2",
    "result": []
  },
  {
    "postal": "L3B5Y8",
    "result": [
      {
        "electoralDistricts": [
          {
            "election": null,
            "id": 68,
            "name": "Niagara Centre"
          }
        ],
        "pollDivisionIds": [
          10139936
        ],
        "postalCode": "L3B5Y8",
        "streetName": "COMMERCIAL",
        "streetDirectionId": null,
        "streetTypeId": "ST",
        "placeName": "WELLAND",
        "streetNameDisplayText": "COMMERCIAL ST, WELLAND"
      }
    ]
  },
  {
    "postal": "L3B0B8",
    "result": [
      {
        "electoralDistricts": [
          {
            "election": null,
            "id": 68,
            "name": "Niagara Centre"
          }
        ],
        "pollDivisionIds": [
          10139937
        ],
        "postalCode": "L3B0B8",
        "streetName": "CANAL BANK",
        "streetDirectionId": null,
        "streetTypeId": "ST",
        "placeName": "WELLAND",
        "streetNameDisplayText": "CANAL BANK ST, WELLAND"
      }
    ]
  },
  {
    "postal": "L3B6R5",
    "result": []
  },
  {
    "postal": "L3B8W6",
    "result": []
  },
  {
    "postal": "L3B8G6",
    "result": []
  },
  {
    "postal": "L3B6X3",
    "result": []
  },
  {
    "postal": "L3B7R7",
    "result": []
  },
  {
    "postal": "L3B4B6",
    "result": [
      {
        "electoralDistricts": [
          {
            "election": null,
            "id": 68,
            "name": "Niagara Centre"
          }
        ],
        "pollDivisionIds": [
          10139932
        ],
        "postalCode": "L3B4B6",
        "streetName": "CADY",
        "streetDirectionId": null,
        "streetTypeId": "ST",
        "placeName": "WELLAND",
        "streetNameDisplayText": "CADY ST, WELLAND"
      }
    ]
  },
  {
    "postal": "L3B3P9",
    "result": [
      {
        "electoralDistricts": [
          {
            "election": null,
            "id": 68,
            "name": "Niagara Centre"
          }
        ],
        "pollDivisionIds": [
          10139923
        ],
        "postalCode": "L3B3P9",
        "streetName": "BRUCE",
        "streetDirectionId": null,
        "streetTypeId": "ST",
        "placeName": "WELLAND",
        "streetNameDisplayText": "BRUCE ST, WELLAND"
      }
    ]
  },
  {
    "postal": "L3B2T3",
    "result": [
      {
        "electoralDistricts": [
          {
            "election": null,
            "id": 68,
            "name": "Niagara Centre"
          }
        ],
        "pollDivisionIds": [
          10139930
        ],
        "postalCode": "L3B2T3",
        "streetName": "BURGAR",
        "streetDirectionId": null,
        "streetTypeId": "ST",
        "placeName": "WELLAND",
        "streetNameDisplayText": "BURGAR ST, WELLAND"
      }
    ]
  },
  {
    "postal": "L3B1M4",
    "result": [
      {
        "electoralDistricts": [
          {
            "election": null,
            "id": 68,
            "name": "Niagara Centre"
          }
        ],
        "pollDivisionIds": [
          10139935
        ],
        "postalCode": "L3B1M4",
        "streetName": "HUGHES",
        "streetDirectionId": null,
        "streetTypeId": "AVE",
        "placeName": "WELLAND",
        "streetNameDisplayText": "HUGHES AVE, WELLAND"
      }
    ]
  },
  {
    "postal": "L3B0H1",
    "result": []
  },
  {
    "postal": "L3B9W3",
    "result": []
  },
  {
    "postal": "L3B6P1",
    "result": []
  },
  {
    "postal": "L3B7G2",
    "result": []
  },
  {
    "postal": "L3B4J9",
    "result": [
      {
        "electoralDistricts": [
          {
            "election": null,
            "id": 68,
            "name": "Niagara Centre"
          }
        ],
        "pollDivisionIds": [
          10139932
        ],
        "postalCode": "L3B4J9",
        "streetName": "HAGAR",
        "streetDirectionId": null,
        "streetTypeId": "ST",
        "placeName": "WELLAND",
        "streetNameDisplayText": "HAGAR ST, WELLAND"
      }
    ]
  },
  {
    "postal": "L3B9E4",
    "result": []
  },
  {
    "postal": "L3B8H0",
    "result": []
  },
  {
    "postal": "L3B4M7",
    "result": [
      {
        "electoralDistricts": [
          {
            "election": null,
            "id": 68,
            "name": "Niagara Centre"
          }
        ],
        "pollDivisionIds": [
          10139930
        ],
        "postalCode": "L3B4M7",
        "streetName": "LINCOLN",
        "streetDirectionId": null,
        "streetTypeId": "ST",
        "placeName": "WELLAND",
        "streetNameDisplayText": "LINCOLN ST, WELLAND"
      }
    ]
  },
  {
    "postal": "L3B2G9",
    "result": [
      {
        "electoralDistricts": [
          {
            "election": null,
            "id": 68,
            "name": "Niagara Centre"
          }
        ],
        "pollDivisionIds": [
          10139936
        ],
        "postalCode": "L3B2G9",
        "streetName": "MACINNIS",
        "streetDirectionId": null,
        "streetTypeId": "ST",
        "placeName": "WELLAND",
        "streetNameDisplayText": "MACINNIS ST, WELLAND"
      }
    ]
  },
  {
    "postal": "L3B8T2",
    "result": []
  },
  {
    "postal": "L3B7G7",
    "result": []
  },
  {
    "postal": "L3B4Z3",
    "result": [
      {
        "electoralDistricts": [
          {
            "election": null,
            "id": 68,
            "name": "Niagara Centre"
          }
        ],
        "pollDivisionIds": [
          10139936
        ],
        "postalCode": "L3B4Z3",
        "streetName": "FIFTH",
        "streetDirectionId": null,
        "streetTypeId": "ST",
        "placeName": "WELLAND",
        "streetNameDisplayText": "FIFTH ST, WELLAND"
      }
    ]
  },
  {
    "postal": "L3B5B3",
    "result": [
      {
        "electoralDistricts": [
          {
            "election": null,
            "id": 68,
            "name": "Niagara Centre"
          }
        ],
        "pollDivisionIds": [
          10139936
        ],
        "postalCode": "L3B5B3",
        "streetName": "MORNINGSTAR",
        "streetDirectionId": null,
        "streetTypeId": "AVE",
        "placeName": "WELLAND",
        "streetNameDisplayText": "MORNINGSTAR AVE, WELLAND"
      }
    ]
  },
  {
    "postal": "L3B1S7",
    "result": [
      {
        "electoralDistricts": [
          {
            "election": null,
            "id": 68,
            "name": "Niagara Centre"
          }
        ],
        "pollDivisionIds": [
          10139936
        ],
        "postalCode": "L3B1S7",
        "streetName": "JOYCE",
        "streetDirectionId": null,
        "streetTypeId": "AVE",
        "placeName": "WELLAND",
        "streetNameDisplayText": "JOYCE AVE, WELLAND"
      }
    ]
  },
  {
    "postal": "L3B2N7",
    "result": [
      {
        "electoralDistricts": [
          {
            "election": null,
            "id": 68,
            "name": "Niagara Centre"
          }
        ],
        "pollDivisionIds": [
          10139935
        ],
        "postalCode": "L3B2N7",
        "streetName": "DUNKIRK",
        "streetDirectionId": null,
        "streetTypeId": "RD",
        "placeName": "WELLAND",
        "streetNameDisplayText": "DUNKIRK RD, WELLAND"
      }
    ]
  },
  {
    "postal": "L3B0H8",
    "result": []
  },
  {
    "postal": "L3B7Z4",
    "result": []
  },
  {
    "postal": "L3B7B1",
    "result": []
  },
  {
    "postal": "L3B7P8",
    "result": []
  },
  {
    "postal": "L3B7N0",
    "result": []
  },
  {
    "postal": "L3B3Y5",
    "result": [
      {
        "electoralDistricts": [
          {
            "election": null,
            "id": 68,
            "name": "Niagara Centre"
          }
        ],
        "pollDivisionIds": [
          10139932
        ],
        "postalCode": "L3B3Y5",
        "streetName": "EAST MAIN",
        "streetDirectionId": null,
        "streetTypeId": "ST",
        "placeName": "WELLAND",
        "streetNameDisplayText": "EAST MAIN ST, WELLAND"
      }
    ]
  },
  {
    "postal": "L3B6K1",
    "result": []
  },
  {
    "postal": "L3B9X5",
    "result": []
  },
  {
    "postal": "L3B7S5",
    "result": []
  },
  {
    "postal": "L3B0A4",
    "result": [
      {
        "electoralDistricts": [
          {
            "election": null,
            "id": 68,
            "name": "Niagara Centre"
          }
        ],
        "pollDivisionIds": [
          10139936
        ],
        "postalCode": "L3B0A4",
        "streetName": "CLASSIC",
        "streetDirectionId": null,
        "streetTypeId": "AVE",
        "placeName": "WELLAND",
        "streetNameDisplayText": "CLASSIC AVE, WELLAND"
      }
    ]
  },
  {
    "postal": "L3B4T5",
    "result": [
      {
        "electoralDistricts": [
          {
            "election": null,
            "id": 68,
            "name": "Niagara Centre"
          }
        ],
        "pollDivisionIds": [
          10139935
        ],
        "postalCode": "L3B4T5",
        "streetName": "HENNEPIN",
        "streetDirectionId": null,
        "streetTypeId": "AVE",
        "placeName": "WELLAND",
        "streetNameDisplayText": "HENNEPIN AVE, WELLAND"
      }
    ]
  },
  {
    "postal": "L3B5K1",
    "result": [
      {
        "electoralDistricts": [
          {
            "election": null,
            "id": 68,
            "name": "Niagara Centre"
          }
        ],
        "pollDivisionIds": [
          10139937
        ],
        "postalCode": "L3B5K1",
        "streetName": "FORKS",
        "streetDirectionId": "E",
        "streetTypeId": "RD",
        "placeName": "WELLAND",
        "streetNameDisplayText": "FORKS RD E, WELLAND"
      }
    ]
  },
  {
    "postal": "L3B0Z9",
    "result": []
  },
  {
    "postal": "L3B7T2",
    "result": []
  },
  {
    "postal": "L3B1L5",
    "result": [
      {
        "electoralDistricts": [
          {
            "election": null,
            "id": 68,
            "name": "Niagara Centre"
          }
        ],
        "pollDivisionIds": [
          10139936
        ],
        "postalCode": "L3B1L5",
        "streetName": "BRADLEY",
        "streetDirectionId": null,
        "streetTypeId": "AVE",
        "placeName": "WELLAND",
        "streetNameDisplayText": "BRADLEY AVE, WELLAND"
      }
    ]
  },
  {
    "postal": "L3B3N5",
    "result": [
      {
        "electoralDistricts": [
          {
            "election": null,
            "id": 68,
            "name": "Niagara Centre"
          }
        ],
        "pollDivisionIds": [
          10139937
        ],
        "postalCode": "L3B3N5",
        "streetName": "KINGSWAY",
        "streetDirectionId": null,
        "streetTypeId": "ST",
        "placeName": "WELLAND",
        "streetNameDisplayText": "KINGSWAY ST, WELLAND"
      }
    ]
  },
  {
    "postal": "L3B6H4",
    "result": [
      {
        "electoralDistricts": [
          {
            "election": null,
            "id": 68,
            "name": "Niagara Centre"
          }
        ],
        "pollDivisionIds": [
          10139923
        ],
        "postalCode": "L3B6H4",
        "streetName": "LOCHNESS",
        "streetDirectionId": null,
        "streetTypeId": "CRT",
        "placeName": "WELLAND",
        "streetNameDisplayText": "LOCHNESS CRT, WELLAND"
      }
    ]
  },
  {
    "postal": "L3B5A5",
    "result": [
      {
        "electoralDistricts": [
          {
            "election": null,
            "id": 68,
            "name": "Niagara Centre"
          }
        ],
        "pollDivisionIds": [
          10139936
        ],
        "postalCode": "L3B5A5",
        "streetName": "SUTHERLAND",
        "streetDirectionId": null,
        "streetTypeId": "AVE",
        "placeName": "WELLAND",
        "streetNameDisplayText": "SUTHERLAND AVE, WELLAND"
      }
    ]
  },
  {
    "postal": "L3B3R9",
    "result": []
  },
  {
    "postal": "L3B7L8",
    "result": []
  },
  {
    "postal": "L3B6T6",
    "result": []
  },
  {
    "postal": "L3B7Y7",
    "result": []
  },
  {
    "postal": "L3B3M8",
    "result": [
      {
        "electoralDistricts": [
          {
            "election": null,
            "id": 68,
            "name": "Niagara Centre"
          }
        ],
        "pollDivisionIds": [
          10139936
        ],
        "postalCode": "L3B3M8",
        "streetName": "CANAL BANK",
        "streetDirectionId": null,
        "streetTypeId": "ST",
        "placeName": "WELLAND",
        "streetNameDisplayText": "CANAL BANK ST, WELLAND"
      }
    ]
  },
  {
    "postal": "L3B2E0",
    "result": []
  },
  {
    "postal": "L3B4B5",
    "result": [
      {
        "electoralDistricts": [
          {
            "election": null,
            "id": 68,
            "name": "Niagara Centre"
          }
        ],
        "pollDivisionIds": [
          10139932
        ],
        "postalCode": "L3B4B5",
        "streetName": "CADY",
        "streetDirectionId": null,
        "streetTypeId": "ST",
        "placeName": "WELLAND",
        "streetNameDisplayText": "CADY ST, WELLAND"
      }
    ]
  },
  {
    "postal": "L3B1J3",
    "result": [
      {
        "electoralDistricts": [
          {
            "election": null,
            "id": 68,
            "name": "Niagara Centre"
          }
        ],
        "pollDivisionIds": [
          10139935
        ],
        "postalCode": "L3B1J3",
        "streetName": "WATT",
        "streetDirectionId": null,
        "streetTypeId": "AVE",
        "placeName": "WELLAND",
        "streetNameDisplayText": "WATT AVE, WELLAND"
      }
    ]
  },
  {
    "postal": "L3B5S6",
    "result": [
      {
        "electoralDistricts": [
          {
            "election": null,
            "id": 68,
            "name": "Niagara Centre"
          }
        ],
        "pollDivisionIds": [
          10139936
        ],
        "postalCode": "L3B5S6",
        "streetName": "VICTORY",
        "streetDirectionId": null,
        "streetTypeId": "AVE",
        "placeName": "WELLAND",
        "streetNameDisplayText": "VICTORY AVE, WELLAND"
      }
    ]
  },
  {
    "postal": "L3B8P7",
    "result": []
  },
  {
    "postal": "L3B7S7",
    "result": []
  },
  {
    "postal": "L3B4C2",
    "result": [
      {
        "electoralDistricts": [
          {
            "election": null,
            "id": 68,
            "name": "Niagara Centre"
          }
        ],
        "pollDivisionIds": [
          10139930
        ],
        "postalCode": "L3B4C2",
        "streetName": "RANDOLPH",
        "streetDirectionId": null,
        "streetTypeId": "ST",
        "placeName": "WELLAND",
        "streetNameDisplayText": "RANDOLPH ST, WELLAND"
      }
    ]
  },
  {
    "postal": "L3B5Y0",
    "result": []
  },
  {
    "postal": "L3B2V7",
    "result": [
      {
        "electoralDistricts": [
          {
            "election": null,
            "id": 68,
            "name": "Niagara Centre"
          }
        ],
        "pollDivisionIds": [
          10139936
        ],
        "postalCode": "L3B2V7",
        "streetName": "ALBERTA",
        "streetDirectionId": null,
        "streetTypeId": "ST",
        "placeName": "WELLAND",
        "streetNameDisplayText": "ALBERTA ST, WELLAND"
      }
    ]
  },
  {
    "postal": "L3B8P5",
    "result": []
  },
  {
    "postal": "L3B5P5",
    "result": []
  },
  {
    "postal": "L3B5Z0",
    "result": []
  },
  {
    "postal": "L3B9B0",
    "result": []
  },
  {
    "postal": "L3B1L0",
    "result": []
  },
  {
    "postal": "L3B0B5",
    "result": [
      {
        "electoralDistricts": [
          {
            "election": null,
            "id": 68,
            "name": "Niagara Centre"
          }
        ],
        "pollDivisionIds": [
          10139959
        ],
        "postalCode": "L3B0B5",
        "streetName": "HELLEMS",
        "streetDirectionId": null,
        "streetTypeId": "AVE",
        "placeName": "WELLAND",
        "streetNameDisplayText": "HELLEMS AVE, WELLAND"
      }
    ]
  },
  {
    "postal": "L3B3L2",
    "result": [
      {
        "electoralDistricts": [
          {
            "election": null,
            "id": 68,
            "name": "Niagara Centre"
          }
        ],
        "pollDivisionIds": [
          10139936
        ],
        "postalCode": "L3B3L2",
        "streetName": "KING",
        "streetDirectionId": null,
        "streetTypeId": "ST",
        "placeName": "WELLAND",
        "streetNameDisplayText": "KING ST, WELLAND"
      }
    ]
  },
  {
    "postal": "L3B3B7",
    "result": [
      {
        "electoralDistricts": [
          {
            "election": null,
            "id": 68,
            "name": "Niagara Centre"
          }
        ],
        "pollDivisionIds": [
          10139930
        ],
        "postalCode": "L3B3B7",
        "streetName": "HELLEMS",
        "streetDirectionId": null,
        "streetTypeId": "AVE",
        "placeName": "WELLAND",
        "streetNameDisplayText": "HELLEMS AVE, WELLAND"
      }
    ]
  },
  {
    "postal": "L3B8L1",
    "result": []
  },
  {
    "postal": "L3B5M4",
    "result": [
      {
        "electoralDistricts": [
          {
            "election": null,
            "id": 68,
            "name": "Niagara Centre"
          }
        ],
        "pollDivisionIds": [
          10139937
        ],
        "postalCode": "L3B5M4",
        "streetName": "JAMES",
        "streetDirectionId": null,
        "streetTypeId": "ST",
        "placeName": "WELLAND",
        "streetNameDisplayText": "JAMES ST, WELLAND"
      }
    ]
  },
  {
    "postal": "L3B4G9",
    "result": [
      {
        "electoralDistricts": [
          {
            "election": null,
            "id": 68,
            "name": "Niagara Centre"
          }
        ],
        "pollDivisionIds": [
          10139932
        ],
        "postalCode": "L3B4G9",
        "streetName": "COZY",
        "streetDirectionId": null,
        "streetTypeId": "ST",
        "placeName": "WELLAND",
        "streetNameDisplayText": "COZY ST, WELLAND"
      }
    ]
  },
  {
    "postal": "L3B0P0",
    "result": []
  },
  {
    "postal": "L3B8G2",
    "result": []
  },
  {
    "postal": "L3B1V9",
    "result": [
      {
        "electoralDistricts": [
          {
            "election": null,
            "id": 68,
            "name": "Niagara Centre"
          }
        ],
        "pollDivisionIds": [
          10139936
        ],
        "postalCode": "L3B1V9",
        "streetName": "AFTON",
        "streetDirectionId": null,
        "streetTypeId": "AVE",
        "placeName": "WELLAND",
        "streetNameDisplayText": "AFTON AVE, WELLAND"
      }
    ]
  },
  {
    "postal": "L3B8N8",
    "result": []
  },
  {
    "postal": "L3B6S8",
    "result": []
  },
  {
    "postal": "L3B8H2",
    "result": []
  },
  {
    "postal": "L3B5R8",
    "result": []
  },
  {
    "postal": "L3B5L4",
    "result": [
      {
        "electoralDistricts": [
          {
            "election": null,
            "id": 68,
            "name": "Niagara Centre"
          }
        ],
        "pollDivisionIds": [
          10139937
        ],
        "postalCode": "L3B5L4",
        "streetName": "RICHMOND",
        "streetDirectionId": null,
        "streetTypeId": "ST",
        "placeName": "WELLAND",
        "streetNameDisplayText": "RICHMOND ST, WELLAND"
      }
    ]
  },
  {
    "postal": "L3B9E1",
    "result": []
  },
  {
    "postal": "L3B1C4",
    "result": [
      {
        "electoralDistricts": [
          {
            "election": null,
            "id": 68,
            "name": "Niagara Centre"
          }
        ],
        "pollDivisionIds": [
          10139931
        ],
        "postalCode": "L3B1C4",
        "streetName": "HARRISON",
        "streetDirectionId": null,
        "streetTypeId": "AVE",
        "placeName": "WELLAND",
        "streetNameDisplayText": "HARRISON AVE, WELLAND"
      }
    ]
  },
  {
    "postal": "L3B8W5",
    "result": []
  },
  {
    "postal": "L3B1Y4",
    "result": [
      {
        "electoralDistricts": [
          {
            "election": null,
            "id": 68,
            "name": "Niagara Centre"
          }
        ],
        "pollDivisionIds": [
          10139935
        ],
        "postalCode": "L3B1Y4",
        "streetName": "SOUTHWORTH",
        "streetDirectionId": "N",
        "streetTypeId": "ST",
        "placeName": "WELLAND",
        "streetNameDisplayText": "SOUTHWORTH ST N, WELLAND"
      }
    ]
  },
  {
    "postal": "L3B1C0",
    "result": []
  },
  {
    "postal": "L3B2J2",
    "result": [
      {
        "electoralDistricts": [
          {
            "election": null,
            "id": 68,
            "name": "Niagara Centre"
          }
        ],
        "pollDivisionIds": [
          10139936
        ],
        "postalCode": "L3B2J2",
        "streetName": "HARRIET",
        "streetDirectionId": null,
        "streetTypeId": "ST",
        "placeName": "WELLAND",
        "streetNameDisplayText": "HARRIET ST, WELLAND"
      }
    ]
  },
  {
    "postal": "L3B2J0",
    "result": []
  },
  {
    "postal": "L3B7A3",
    "result": []
  },
  {
    "postal": "L3B8M1",
    "result": []
  },
  {
    "postal": "L3B7T9",
    "result": []
  },
  {
    "postal": "L3B6C0",
    "result": []
  },
  {
    "postal": "L3B7X1",
    "result": []
  },
  {
    "postal": "L3B0G1",
    "result": []
  },
  {
    "postal": "L3B4X2",
    "result": [
      {
        "electoralDistricts": [
          {
            "election": null,
            "id": 68,
            "name": "Niagara Centre"
          }
        ],
        "pollDivisionIds": [
          10139935
        ],
        "postalCode": "L3B4X2",
        "streetName": "FLEET",
        "streetDirectionId": null,
        "streetTypeId": "ST",
        "placeName": "WELLAND",
        "streetNameDisplayText": "FLEET ST, WELLAND"
      }
    ]
  },
  {
    "postal": "L3B0N6",
    "result": []
  },
  {
    "postal": "L3B8E3",
    "result": []
  },
  {
    "postal": "L3B5S8",
    "result": [
      {
        "electoralDistricts": [
          {
            "election": null,
            "id": 68,
            "name": "Niagara Centre"
          }
        ],
        "pollDivisionIds": [
          10139936
        ],
        "postalCode": "L3B5S8",
        "streetName": "GATFIELD",
        "streetDirectionId": null,
        "streetTypeId": "AVE",
        "placeName": "WELLAND",
        "streetNameDisplayText": "GATFIELD AVE, WELLAND"
      }
    ]
  },
  {
    "postal": "L3B0R0",
    "result": []
  },
  {
    "postal": "L3B6J6",
    "result": []
  },
  {
    "postal": "L3B4B4",
    "result": [
      {
        "electoralDistricts": [
          {
            "election": null,
            "id": 68,
            "name": "Niagara Centre"
          }
        ],
        "pollDivisionIds": [
          10139930
        ],
        "postalCode": "L3B4B4",
        "streetName": "GROVE",
        "streetDirectionId": null,
        "streetTypeId": "ST",
        "placeName": "WELLAND",
        "streetNameDisplayText": "GROVE ST, WELLAND"
      }
    ]
  },
  {
    "postal": "L3B7E3",
    "result": []
  },
  {
    "postal": "L3B3N6",
    "result": [
      {
        "electoralDistricts": [
          {
            "election": null,
            "id": 68,
            "name": "Niagara Centre"
          }
        ],
        "pollDivisionIds": [
          10139937
        ],
        "postalCode": "L3B3N6",
        "streetName": "KINGSWAY",
        "streetDirectionId": null,
        "streetTypeId": "ST",
        "placeName": "WELLAND",
        "streetNameDisplayText": "KINGSWAY ST, WELLAND"
      }
    ]
  },
  {
    "postal": "L3B3X6",
    "result": [
      {
        "electoralDistricts": [
          {
            "election": null,
            "id": 68,
            "name": "Niagara Centre"
          }
        ],
        "pollDivisionIds": [
          10139923
        ],
        "postalCode": "L3B3X6",
        "streetName": "EAST MAIN",
        "streetDirectionId": null,
        "streetTypeId": "ST",
        "placeName": "WELLAND",
        "streetNameDisplayText": "EAST MAIN ST, WELLAND"
      }
    ]
  },
  {
    "postal": "L3B8L0",
    "result": []
  },
  {
    "postal": "L3B8N1",
    "result": []
  },
  {
    "postal": "L3B4J0",
    "result": []
  },
  {
    "postal": "L3B0X7",
    "result": []
  },
  {
    "postal": "L3B6S4",
    "result": []
  },
  {
    "postal": "L3B0Z0",
    "result": []
  },
  {
    "postal": "L3B9X8",
    "result": []
  },
  {
    "postal": "L3B3H3",
    "result": [
      {
        "electoralDistricts": [
          {
            "election": null,
            "id": 68,
            "name": "Niagara Centre"
          }
        ],
        "pollDivisionIds": [
          10139930
        ],
        "postalCode": "L3B3H3",
        "streetName": "KENT",
        "streetDirectionId": null,
        "streetTypeId": "ST",
        "placeName": "WELLAND",
        "streetNameDisplayText": "KENT ST, WELLAND"
      }
    ]
  },
  {
    "postal": "L3B7S2",
    "result": []
  },
  {
    "postal": "L3B3T3",
    "result": [
      {
        "electoralDistricts": [
          {
            "election": null,
            "id": 68,
            "name": "Niagara Centre"
          }
        ],
        "pollDivisionIds": [
          10139923
        ],
        "postalCode": "L3B3T3",
        "streetName": "MAJOR",
        "streetDirectionId": null,
        "streetTypeId": "ST",
        "placeName": "WELLAND",
        "streetNameDisplayText": "MAJOR ST, WELLAND"
      }
    ]
  },
  {
    "postal": "L3B9P3",
    "result": []
  },
  {
    "postal": "L3B4H8",
    "result": [
      {
        "electoralDistricts": [
          {
            "election": null,
            "id": 68,
            "name": "Niagara Centre"
          }
        ],
        "pollDivisionIds": [
          10139930
        ],
        "postalCode": "L3B4H8",
        "streetName": "REGENT",
        "streetDirectionId": null,
        "streetTypeId": "ST",
        "placeName": "WELLAND",
        "streetNameDisplayText": "REGENT ST, WELLAND"
      }
    ]
  },
  {
    "postal": "L3B6R1",
    "result": []
  },
  {
    "postal": "L3B1S0",
    "result": []
  },
  {
    "postal": "L3B3W8",
    "result": [
      {
        "electoralDistricts": [
          {
            "election": null,
            "id": 68,
            "name": "Niagara Centre"
          }
        ],
        "pollDivisionIds": [
          10139930
        ],
        "postalCode": "L3B3W8",
        "streetName": "EAST MAIN",
        "streetDirectionId": null,
        "streetTypeId": "ST",
        "placeName": "WELLAND",
        "streetNameDisplayText": "EAST MAIN ST, WELLAND"
      }
    ]
  },
  {
    "postal": "L3B4S3",
    "result": [
      {
        "electoralDistricts": [
          {
            "election": null,
            "id": 68,
            "name": "Niagara Centre"
          }
        ],
        "pollDivisionIds": [
          10139935
        ],
        "postalCode": "L3B4S3",
        "streetName": "ACHILLES",
        "streetDirectionId": null,
        "streetTypeId": "AVE",
        "placeName": "WELLAND",
        "streetNameDisplayText": "ACHILLES AVE, WELLAND"
      }
    ]
  },
  {
    "postal": "L3B1B6",
    "result": [
      {
        "electoralDistricts": [
          {
            "election": null,
            "id": 68,
            "name": "Niagara Centre"
          }
        ],
        "pollDivisionIds": [
          10139931
        ],
        "postalCode": "L3B1B6",
        "streetName": "GARON",
        "streetDirectionId": null,
        "streetTypeId": "AVE",
        "placeName": "WELLAND",
        "streetNameDisplayText": "GARON AVE, WELLAND"
      }
    ]
  },
  {
    "postal": "L3B8R3",
    "result": []
  },
  {
    "postal": "L3B4V9",
    "result": [
      {
        "electoralDistricts": [
          {
            "election": null,
            "id": 68,
            "name": "Niagara Centre"
          }
        ],
        "pollDivisionIds": [
          10139935
        ],
        "postalCode": "L3B4V9",
        "streetName": "DUNKIRK",
        "streetDirectionId": null,
        "streetTypeId": "CRT",
        "placeName": "WELLAND",
        "streetNameDisplayText": "DUNKIRK CRT, WELLAND"
      }
    ]
  },
  {
    "postal": "L3B9W4",
    "result": []
  },
  {
    "postal": "L3B3T4",
    "result": []
  },
  {
    "postal": "L3B5C7",
    "result": []
  },
  {
    "postal": "L3B3Y1",
    "result": [
      {
        "electoralDistricts": [
          {
            "election": null,
            "id": 68,
            "name": "Niagara Centre"
          }
        ],
        "pollDivisionIds": [
          10139932
        ],
        "postalCode": "L3B3Y1",
        "streetName": "EAST MAIN",
        "streetDirectionId": null,
        "streetTypeId": "ST",
        "placeName": "WELLAND",
        "streetNameDisplayText": "EAST MAIN ST, WELLAND"
      }
    ]
  },
  {
    "postal": "L3B5V0",
    "result": []
  },
  {
    "postal": "L3B8G8",
    "result": []
  },
  {
    "postal": "L3B8B1",
    "result": []
  },
  {
    "postal": "L3B4P5",
    "result": [
      {
        "electoralDistricts": [
          {
            "election": null,
            "id": 68,
            "name": "Niagara Centre"
          }
        ],
        "pollDivisionIds": [
          10139935
        ],
        "postalCode": "L3B4P5",
        "streetName": "LINCOLN",
        "streetDirectionId": null,
        "streetTypeId": "ST",
        "placeName": "WELLAND",
        "streetNameDisplayText": "LINCOLN ST, WELLAND"
      }
    ]
  },
  {
    "postal": "L3B7B2",
    "result": []
  },
  {
    "postal": "L3B0R2",
    "result": []
  },
  {
    "postal": "L3B4M4",
    "result": [
      {
        "electoralDistricts": [
          {
            "election": null,
            "id": 68,
            "name": "Niagara Centre"
          }
        ],
        "pollDivisionIds": [
          10139930
        ],
        "postalCode": "L3B4M4",
        "streetName": "PARK",
        "streetDirectionId": null,
        "streetTypeId": "ST",
        "placeName": "WELLAND",
        "streetNameDisplayText": "PARK ST, WELLAND"
      }
    ]
  },
  {
    "postal": "L3B7M4",
    "result": []
  },
  {
    "postal": "L3B9S7",
    "result": []
  },
  {
    "postal": "L3B5Z7",
    "result": [
      {
        "electoralDistricts": [
          {
            "election": null,
            "id": 68,
            "name": "Niagara Centre"
          }
        ],
        "pollDivisionIds": [
          10139938
        ],
        "postalCode": "L3B5Z7",
        "streetName": "VAUGHAN",
        "streetDirectionId": null,
        "streetTypeId": "RD",
        "placeName": "WELLAND",
        "streetNameDisplayText": "VAUGHAN RD, WELLAND"
      }
    ]
  },
  {
    "postal": "L3B7J7",
    "result": []
  },
  {
    "postal": "L3B8R8",
    "result": []
  },
  {
    "postal": "L3B9X1",
    "result": []
  },
  {
    "postal": "L3B5M9",
    "result": [
      {
        "electoralDistricts": [
          {
            "election": null,
            "id": 68,
            "name": "Niagara Centre"
          }
        ],
        "pollDivisionIds": [
          10139937
        ],
        "postalCode": "L3B5M9",
        "streetName": "GLENWOOD",
        "streetDirectionId": null,
        "streetTypeId": "PKY",
        "placeName": "WELLAND",
        "streetNameDisplayText": "GLENWOOD PKY, WELLAND"
      }
    ]
  },
  {
    "postal": "L3B9B4",
    "result": []
  },
  {
    "postal": "L3B0L9",
    "result": []
  },
  {
    "postal": "L3B9G4",
    "result": []
  },
  {
    "postal": "L3B1J4",
    "result": [
      {
        "electoralDistricts": [
          {
            "election": null,
            "id": 68,
            "name": "Niagara Centre"
          }
        ],
        "pollDivisionIds": [
          10139936
        ],
        "postalCode": "L3B1J4",
        "streetName": "WATT",
        "streetDirectionId": null,
        "streetTypeId": "AVE",
        "placeName": "WELLAND",
        "streetNameDisplayText": "WATT AVE, WELLAND"
      }
    ]
  },
  {
    "postal": "L3B0W6",
    "result": []
  }
]
